####018000116####
SAUS45 KLKN 080655
MTRELY
METAR KELY 080653Z AUTO 08005KT 10SM CLR 16/M04 A3019 RMK AO2 SLP116 
T01611044 $
####018000121####
SAUS44 KLZK 080655
MTRMWT
METAR KMWT 080653Z AUTO 00000KT 10SM OVC016 23/23 A3004 RMK AO2 
SLP161 T02330228 TSNO
####018000088####
SAXX70 KAWN 080600 RRX
METAR KQEJ 080640Z AUTO 22002KT 7SM CLR 28/18 A2990 RMK A02=
####018000179####
SAAK17 KAWN 080700 RRA
PACZ SA 0655 AWOS MM 10 54/53/0308/006=
PAEH SA 0655 AWOS 8 SCT M18 BKN 49 OVC 10 49/-19/0103/000=
PAIM SA 0655 AWOS CLR BLO 120 10 62/44/3004/008=
####018002949####
SAUS20 KNKA 080655
METAR KFRM 080655Z AUTO 10SM CLR 18/16 A3012 RMK AO1=
METAR KGAD 080655Z AUTO 00000KT 10SM CLR 23/21 A3005 RMK AO1=
METAR KGAI 080655Z 00000KT 8SM SCT110 25/21 A3003 RMK AO1 
     =
METAR KGBD 080655Z AUTO 36005KT 5SM CLR 19/18 A3015 RMK AO1=
METAR KGCK 080654Z AUTO 04010KT 10SM FEW049 BKN060 18/17 A3019 RMK 
    AO2 SLP197 T01830167=
METAR KGCN 080654Z AUTO 00000KT 10SM CLR 11/M03 A3022 RMK AO2 SLPNO 
    T01111033 403000039=
METAR KGPZ 080655Z AUTO 00000KT 10SM CLR 13/11 A3007 RMK AO1=
METAR KGTR 080655Z 00000KT 10SM CLR 24/23 A3004 RMK AO1=
METAR KHEF 080655Z AUTO 30003KT 8SM CLR 26/21 A2999 RMK AO1=
METAR KHEZ 080655Z AUTO 08003KT 6SM CLR 24/23 A3003 RMK AO1=
METAR KHNB 080655Z AUTO 00000KT 10SM CLR 23/21 A3006 RMK AO1=
METAR KHWD 080654Z AUTO 34007KT 10SM OVC013 14/11 A2992 RMK AO2 
    SLP141 T01440106=
METAR KHYS 080655Z AUTO 02005KT 10SM BKN017 18/17 A3017 RMK AO1=
METAR KIMT 080654Z AUTO 00000KT 7SM SCT003 19/19 A2996 RMK AO2 
    SLP141 T01940194=
METAR KISW 080654Z AUTO 24005KT 10SM BKN010 22/21 A3001 RMK AO2 
    SLP156 T02220211 TSNO=
METAR KIWD 080655Z AUTO 34003KT 10SM FEW070 BKN120 18/16 A3001 RMK 
    AO1=
METAR KKLS 080655Z AUTO 00000KT 10SM CLR 18/14 A2988 RMK AO1=
METAR KLAF 080654Z AUTO 00000KT 9SM CLR 24/21 A3003 RMK AO2 SLP164 
    T02390211 TSNO=
METAR KLAW 080653Z AUTO 03006KT 10SM CLR 24/22 A3003 RMK AO2 SLP155 
    T02390222=
METAR KLBB 080653Z 13004KT 10SM FEW013 SCT030 OVC130 21/19 A3013 RMK 
    AO2 SLP161 OCNL LTGIC DSNT N CB DSNT N MOV S T02110189=
METAR KLBL 080655Z 06011KT 10SM FEW031 BKN039 21/17 A3019 RMK AO1=
METAR KLBT 080654Z AUTO 28006KT 10SM SCT095 BKN110 27/19 A2993 RMK 
    AO2 SLP134 T02720194=
METAR KLGD 080655Z AUTO 19005KT 10SM CLR 14/07 A3002 RMK AO1=
METAR KLKV 080655Z AUTO 08006KT 10SM CLR 14/04 A3012 RMK AO1=
METAR KLNK 080654Z AUTO 35008KT 10SM CLR 19/18 A3012 RMK AO2 SLP192 
    T01940178=
METAR KLPC 080655Z AUTO 36004KT 10SM OVC012 14/11 A2992 RMK AO1 PNO=
METAR KLUX 080655Z AUTO 00000KT 10SM CLR 22/22 A3002 RMK AO2=
METAR KLYH 080654Z AUTO 32003KT 5SM HZ CLR 24/20 A3003 RMK AO2 
    SLP157 T02390200=
METAR KMBL 080655Z AUTO 00000KT 3SM SCT120 21/19 A3002 RMK AO1=
METAR KMER 080655Z AUTO 02007KT 10SM CLR 20/10 A2983 RMK AO1 =
METAR KMFI 080654Z AUTO 30008KT 9SM FEW003 20/19 A3001 RMK AO2 
    SLP158 T02000194=
METAR KMKC 080654Z 32003KT 10SM FEW100 23/21 A3005 RMK AO2 SLP169 
    T02330211=
METAR KMKT 080655Z 32004KT 10SM CLR 19/17 A3009 RMK AO1=
METAR KMLU 080653Z AUTO 10003KT 9SM CLR 26/24 A3003 RMK AO2 SLP166 
    T02560239=
METAR KMML 080655Z AUTO 25005KT 10SM CLR 15/13 A3012 RMK AO1=
METAR KMNI 080655Z AUTO 00000KT 10SM CLR 22/22 A2996 RMK AO2=
METAR KMNM 080655Z AUTO 00000KT 10SM BKN012 OVC120 21/19 A2998 RMK 
    AO1=
METAR KMOT 080654Z AUTO 30004KT 10SM CLR 16/12 A3008 RMK AO2 SLP181 
    T01560122 TSNO=
####018000320####
SAUS20 KNKA 080655
METAR KVIS 080655Z AUTO 32006KT 10SM CLR 24/13 A2980 RMK AO1=
METAR KWLD 080654Z AUTO 00000KT 10SM OVC047 23/21 A3008 RMK AO2 
    SLP173 T02280211=
METAR KX40 080655Z AUTO 00000KT 7SM CLR 23/23 A3002 RMK AO2 
     T02340226=
METAR KYKN 080655Z AUTO 00000KT 10SM CLR 16/14 A3017 RMK AO1=
####018002987####
SAUS20 KNKA 080655
METAR KAAO 080654Z AUTO 04006KT 10SM SCT100 22/21 A3009 RMK AO2 
    SLP178 T02170206=
METAR KAEG 080655Z AUTO 13017KT 10SM CLR 18/08 A3027 RMK AO1  =
METAR KAEX 080653Z 09004KT 10SM CLR 25/23 A2999 RMK AO2 SLP157 
    T02500228=
METAR KAIZ 080655Z AUTO 00000KT 10SM SCT041 BKN060 OVC090 23/21 
    A3006 RMK AO1 P0011=
METAR KAKH 080654Z AUTO 00000KT 10SM CLR 22/17 A3000 RMK AO2 SLP151 
    T02170172=
METAR KALO 080654Z AUTO 29006KT 10SM CLR 20/19 A3005 RMK AO2 SLP170 
    T02000194=
METAR KAPC 080654Z AUTO 27014KT 10SM CLR 12/11 A2990 RMK AO2 SLP116 
    T01220106=
METAR KARG 080655Z AUTO 22007KT 10SM CLR 26/22 A3005 RMK AO1=
METAR KAUO 080655Z AUTO 00000KT 10SM FEW065 27/22 A3004 RMK AO1=
METAR KAUW 080654Z AUTO 00000KT 10SM SCT022 21/19 A2999 RMK AO2 
    RAB13E35 SLP152 P0001 T02060194 $=
METAR KAVL 080654Z AUTO 00000KT 10SM CLR 19/18 A3014 RMK AO2 SLP175 
    T01940178=
METAR KAWO 080655Z AUTO 00000KT 10SM CLR 18/13 A2996 RMK AO1=
METAR KBFL 080654Z AUTO 33004KT 10SM CLR 26/09 A2982 RMK AO2 SLP089 
    T02560094=
METAR KBKX 080655Z AUTO 00000KT 10SM CLR 15/13 A3015 RMK AO1=
METAR KBOW 080655Z AUTO 00000KT 10SM CLR 22/22 A3002 RMK AO2 =
METAR KBUY 080654Z AUTO 00000KT 9SM FEW090 24/19 A2999 RMK AO2 PK 
    WND 15042/0605 SLP145 T02440194 $=
METAR KBVX 080655Z AUTO 00000KT 10SM CLR 25/23 A3006 RMK AO1=
METAR KCEU 080654Z AUTO 00000KT 9SM CLR 25/23 A3005 RMK AO2 SLP161 
    T02500228=
METAR KCGC 080655Z AUTO 00000KT 10SM CLR 22/21 A3001 RMK=
METAR KCGZ 080655Z AUTO 00000KT 10SM CLR 31/02 A2978 RMK AO1=
METAR KCIU 080655Z AUTO 16005KT 10SM SCT080 BKN100 OVC120 19/17 
    A2999 RMK AO1=
METAR KCOE 080655Z AUTO 05008KT 10SM CLR 17/09 A3007 RMK AO1=
METAR KCVN 080655Z AUTO 35008KT 10SM FEW055 18/14 A3022 RMK AO1=
METAR KCWI 080655Z 10003KT 6SM OVC007 A3003 RMK AO1=
METAR KDEC 080654Z AUTO 00000KT 10SM FEW120 26/22 A3004 RMK AO2 
    SLP166 T02560222=
METAR KDSM 080654Z 33007KT 10SM BKN140 OVC200 23/21 A3005 RMK AO2 
    SLP169 T02330206=
METAR KDVL 080655Z AUTO 27006KT 10SM CLR 16/12 A3006 RMK AO1=
METAR KDYB 080655Z AUTO 26003KT 10SM CLR 22/21 A2997 RMK AO1=
METAR KDYR 080655Z AUTO 00000KT 10SM CLR 24/21 A3005 RMK AO1=
METAR KEAR 080655Z AUTO 34004KT 10SM CLR 16/14 A3022 RMK AO1=
METAR KECG 080654Z AUTO 09003KT 4SM BR FEW010 26/24 A2995 RMK AO2 
    SLP140 T02560244=
METAR KEHR 080655Z AUTO 00000KT 10SM SCT090 23/19 A3005 RMK AO1=
METAR KESC 080655Z AUTO 00000KT 8SM FEW019 20/17 A2997 RMK AO1=
METAR KEUG 080654Z 21011KT 10SM CLR 17/11 A2988 RMK AO2 SLP115 
    T01720111=
METAR KEWK 080655Z AUTO 06004KT 10SM FEW100 21/19 A3006 RMK AO1=
METAR KEWN 080654Z AUTO 00000KT 9SM CLR 25/22 A2992 RMK AO2 SLP132 
    T02500222=
METAR KFAM 080655Z AUTO 00000KT 10SM CLR 23/22 A3008 RMK AO1=
METAR KFLP 080655Z AUTO 00000KT 10SM FEW025 24/22 A3004 RMK AO1=
METAR KFOD 080655Z AUTO 00000KT 10SM FEW026 19/18 A3010 RMK AO1=
####018002982####
SAUS20 KNKA 080655
METAR KMRF 080655Z AUTO 05006KT 10SM BKN090 OVC120 19/14 A3017 RMK 
    AO1=
METAR KMRY 080654Z AUTO 27003KT 10SM OVC010 13/10 A2994 RMK AO2 
    SLP150 T01330100=
METAR KMTW 080655Z 23004KT 8SM FEW027 SCT055 BKN065 22/21 A3000 RMK 
    AO1=
METAR KMVN 080655Z AUTO 00000KT 7SM CLR 23/21 A3005 RMK AO1=
METAR KODO 080653Z AUTO 12009KT 4SM RA BR OVC025 22/20 A3009 RMK AO2 
    LTG DSNT NW SLP142 P0019 T02170200=
METAR KOFP 080654Z AUTO 00000KT 7SM CLR 25/19 A2999 RMK AO2 SLP153 
    T02500194=
METAR KOLM 080654Z AUTO 00000KT 10SM CLR 19/12 A2992 RMK AO2 SLP131 
    T01890122=
METAR KOLU 080655Z AUTO 29004KT 10SM CLR 17/15 A3017 RMK AO1=
METAR KOTG 080655Z AUTO 25003KT 10SM CLR 15/14 A3014 RMK AO1=
METAR KOTH 080655Z 19005KT 10SM OVC008 11/08 A3000 RMK AO1=
METAR KPHF 080654Z 09004KT 3SM BR FEW090 24/23 A2996 RMK AO2 SLP144 
    T02440233=
METAR KPIA 080654Z 13003KT 4SM BR FEW060 BKN080 OVC110 23/22 A3003 
    RMK AO2 RAB17E43 SLP163 P0000 T02280217=
METAR KPIB 080655Z AUTO 00000KT 10SM CLR 23/21 A3004 RMK AO1=
METAR KPIL 080653Z AUTO 07007KT 10SM FEW018 SCT023 SCT041 29/26 
    A2981 RMK AO2 RAB32E43 SLP092 P0000 T02890256 $=
METAR KPLN 080654Z AUTO 00000KT 10SM OVC100 22/21 A2999 RMK AO2 
    TSE04RAB36E46 SLP152 P0000 T02170211=
METAR KPTN 080655Z AUTO 08003KT 10SM CLR 24/M09 A3002 RMK AO1=
METAR KPTV 080655Z AUTO 00000KT 10SM CLR 22/13 A2983 RMK AO1=
METAR KPWT 080655Z AUTO 03011KT 10SM CLR 23/08 A2996 RMK AO1=
METAR KRBD 080653Z VRB04KT 10SM BKN014 25/23 A2999 RMK AO2 SLP148 
    T02500233=
METAR KRBL 080654Z AUTO 00000KT 10SM CLR 27/18 A2981 RMK AO2 SLP090 
    T02670178=
METAR KRST 080654Z AUTO 33005KT 7SM CLR 20/19 A3007 RMK AO2 SLP175 
    T02000189=
METAR KSBY 080654Z AUTO 00000KT 3SM BR FEW006 24/23 A2998 RMK AO2 
    SLP154 T02390228=
METAR KSET 080654Z AUTO 00000KT 7SM FEW050 26/25 A3002 RMK AO2 
    SLP160 T02560250=
METAR KSGT 080655Z 00000KT 10SM CLR A3004 RMK AO1=
METAR KSKX 080655Z AUTO 09009KT 10SM CLR 12/04 A3038 RMK AO1=
METAR KSLG 080655Z AUTO 14003KT 10SM CLR 23/22 A3006 RMK AO1=
METAR KSPA 080655Z AUTO 30003KT 10SM CLR 25/23 A3001 RMK AO2=
METAR KSPL 080655Z AUTO 29/25 RMK AO2 PWINO PNO =
METAR KSQI 080655Z 00000KT 6SM FEW012 BKN044 OVC050 22/21 A3004 RMK 
    AO1 P0002=
METAR KSUE 080655Z AUTO 21004KT 7SM OVC110 21/20 A2999 RMK AO1=
METAR KSUS 080654Z AUTO 00000KT 10SM BKN048 BKN060 24/23 A3002 RMK 
    AO2 SLP155 T02440233=
METAR KTQE 080654Z AUTO 34006KT 10SM SCT023 19/18 A3012 RMK AO2 
    SLP188 T01940178=
METAR KTVF 080655Z AUTO 24007KT 10SM CLR 15/12 A3003 RMK AO1=
METAR KUIN 080654Z AUTO 00000KT 10SM OVC018 23/22 A3005 RMK AO2 
    RAB00E16 SLP166 P0000 T02280222=
METAR KUTA 080655Z AUTO 00000KT 10SM CLR 24/22 A3005 RMK AO2=
METAR KUZA 080654Z AUTO 30003KT 10SM CLR 26/17 A3001 RMK AO2 SLP145 
    T02560172=
METAR KVBT 080655Z AUTO 15004KT 10SM CLR 24/22 A3002 RMK AO1=
####018000709####
SADL34 EDZO 080650
METAR EDAC 080650Z 18005KT CAVOK 20/13 Q1022=
METAR EDAH 080650Z 14004KT 110V170 CAVOK 19/11 Q1022=
METAR EDGS 080650Z 18007KT CAVOK 21/10 Q1022=
METAR EDHL 080650Z 16007KT CAVOK 20/15 Q1020=
METAR EDJA 080650Z VRB02KT CAVOK 19/12 Q1022=
METAR EDLN 080650Z VRB03KT CAVOK 24/16 Q1019=
METAR EDLP 080650Z 19008KT CAVOK 24/11 Q1020=
METAR EDLW 080650Z 18007KT CAVOK 24/10 Q1020=
METAR EDMA 080650Z 13004KT 080V200 CAVOK 19/11 Q1022=
METAR EDNY 080650Z VRB04KT CAVOK 20/12 Q1022=
METAR EDQM 080650Z VRB02KT CAVOK 19/11 Q1024=
METAR EDRZ 080650Z VRB02KT CAVOK 21/14 Q1021=
METAR EDSB 080650Z VRB02KT CAVOK 21/14 Q1021=
METAR EDXW 080650Z 20010KT CAVOK 21/12 Q1018=
####018000511####
SANO33 ENMI 080650
METAR ENAT 080650Z 15009KT 9999 FEW025 16/08 Q1014 =
METAR ENBL 080650Z 20006KT 9999 -SHRA SCT030 SCT060 14/09 Q1010=
METAR ENEV 080650Z 19004KT 130V240 9999 SCT060 16/09 Q1011 =
METAR ENFL 080650Z 18013KT 9999 FEW015 BKN060 15/11 Q1010=
METAR ENKB 080650Z 24007KT 9999 FEW020 SCT075 15/12 Q1009=
METAR ENKR 080650Z 00000KT 9999 FEW007 BKN012 11/10 Q1017 REDZ =
METAR ENML 080650Z VRB02KT 9999 FEW050 BKN060 15/11 Q1009=
METAR ENNA 080650Z 17012KT 9999 FEW040 16/08 Q1015 =
####018000229####
SADL35 EDZO 080650
METAR EDHI 080650Z VRB03KT CAVOK 23/13 Q1019=
METAR EDMO 080650Z 08004KT 030V130 CAVOK 19/10 Q1023=
METAR EDOP 080650Z 16005KT 130V190 CAVOK 22/12 Q1021=
METAR EDTD 080650Z VRB01KT CAVOK 19/13 Q1022=
####018000607####
SANO32 ENMI 080650
METAR ENAL 080650Z 16005KT 9999 SCT050 16/11 Q1008=
METAR ENCN 080650Z 21006KT 8000 -RA FEW002 BKN006 16/15 Q1015=
METAR ENHD 080650Z 18010KT 9999 FEW008 16/13 Q1012=
METAR ENRO 080650Z 18008G18KT 110V240 9999 SCT027 BKN050 15/09
           Q1011=
METAR ENRY 080650Z 19008KT 150V230 8000 SCT005 BKN015 16/15 Q1016
           TEMPO SCT007 BKN010=
METAR ENSB 080650Z 35002KT 9999 FEW015 SCT035 BKN060 08/05 Q1008
           NOSIG =
METAR ENTC 080650Z 03003KT 320V080 9999 BKN070 13/08 Q1011 NOSIG =
METAR ENTO 080650Z 22005KT 4000 BR VCSH SCT007 BKN010 16/15 Q1016=
####018000360####
SANO37 ENMI 080650
METAR ENNO 080650Z NIL=
METAR ENOV 080650Z VRB05KT 9999 SCT055 SCT085 17/06 Q1009 =
METAR ENSD 080650Z NIL=
METAR ENSG 080650Z VRB01KT 9999 VCSH SCT040 SCT160 13/11 Q1011=
METAR ENSN 080650Z 19006KT 4000 RA VV006 15/14 Q1015=
METAR ENSR 080650Z 15010KT CAVOK 17/09 Q1012=
METAR ENSS 080650Z 31009KT 9999 BKN003 09/08 Q1017 =
####018000079####
SADL41 EGRR 080650
METAR ETUO 080650Z 00000KT CAVOK 23/12 Q1020 BLU NOSIG=
####018000565####
SANO31 ENMI 080650
METAR ENAN 080650Z 16009KT 9999 FEW045 SCT070 14/09 Q1010 NOSIG =
METAR ENBR 080650Z 17012KT 9999 FEW008 BKN060 15/12 Q1012 NOSIG =
METAR ENBO 080650Z VRB01KT CAVOK 16/09 Q1010 NOSIG=
METAR ENDU 080650Z VRB01KT 9999 -RA FEW050 BKN080 15/09 Q1011 NOSIG=
METAR ENGM 080644Z 19008KT 9999 FEW008 SCT015 BKN020 15/13 Q1015
           TEMPO BKN014=
METAR ENOL 080650Z 10003KT 9999 FEW020 SCT090 16/12 Q1009 NOSIG=
METAR ENVA 080650Z 25005KT CAVOK 16/13 Q1009 NOSIG =
METAR ENZV 080650Z 20009KT 9999 FEW010 SCT015 16/13 Q1013 NOSIG=
####018000115####
SAUS42 KKEY 080655
MTRNQX
METAR KNQX 080653Z AUTO 05004KT 10SM CLR 28/25 A2993 RMK AO2 SLP133 
T02830250 $
####018000356####
SANO35 ENMI 080650
METAR ENMS 080650Z VRB02KT 9999 SCT065 18/10 Q1009 =
METAR ENRM 080650Z 36006KT CAVOK 16/10 Q1010=
METAR ENRS 080650Z 15009KT CAVOK 12/10 Q1010=
METAR ENSK 080650Z 12003KT CAVOK 17/10 Q1010=
METAR ENSO 080650Z NIL=
METAR ENST 080650Z 04007KT 350V070 CAVOK 17/11 Q1009=
METAR ENVD 080650Z 26005KT 9999 BKN017 11/08 Q1017=
####018000109####
SAUS41 KBGM 080655
MTRAVP
METAR KAVP 080654Z 11005KT 7SM CLR 22/18 A3005 RMK AO2 SLP163 
T02170178 $
####018000128####
SAUS45 KFGZ 080655
MTRRQE
METAR KRQE 080653Z AUTO 00000KT 10SM CLR 18/06 A3024 RMK AO2 SLP105 
T01830056 403060083 TSNO
####018003679####
SAUS90 KWBC 080700
METAR KBLU 080652Z AUTO 00000KT 10SM CLR 19/08 A3009 RMK AO2
     SLP091 T01940083 TSNO=
METAR KABI 080652Z 17004KT 9SM CLR 22/21 A3003 RMK AO2 PK WND
     15034/0612 SLP139 T02170211 $=
METAR K9V9 080652Z AUTO 00000KT 17/14 A3018 RMK AO2 SLP212
     T01720144 PWINO TSNO=
METAR KREO 080652Z AUTO 14003KT 12/M04 A3008 RMK AO2 SLP155
     T01221044 PWINO TSNO=
METAR KSDB 080652Z AUTO 33008KT 10SM CLR 19/03 A3004 RMK AO2
     SLP116 T01890028 402780167 TSNO $=
METAR KP69 080652Z AUTO 31003KT 14/12 A3007 RMK AO2 SLP164
     T01440117 PWINO TSNO $=
METAR K6R6 080653Z AUTO 36006KT 23/20 A3000 RMK AO2 SLP123
     T02330200 PWINO TSNO=
METAR KRTN 080653Z AUTO 35005KT 10SM CLR 14/11 A3034 RMK AO2
     SLP185 T01440106 402830122 TSNO=
METAR KSDM 080653Z AUTO 00000KT 10SM OVC014 17/13 A2991 RMK AO2
     SLP127 T01670128 TSNO=
METAR KLAX 080653Z 27008KT 10SM BKN012 OVC015 17/13 A2992 RMK AO2
     SLP129 T01670128=
METAR KUIL 080653Z AUTO 04004KT 10SM CLR 19/11 A2992 RMK AO2
     SLP131 T01890111 TSNO=
METAR KLND 080653Z AUTO 00000KT 10SM CLR 12/04 A3031 RMK AO2
     SLP218 T01220039 402220050=
METAR KCQC 080653Z AUTO 08007KT 10SM SCT100 11/10 A3036 RMK AO2
     SLP195 T01110100 402500089 TSNO=
METAR KTLH 080653Z 00000KT 10SM FEW095 24/22 A3002 RMK AO2 SLP163
     T02390217=
METAR KBNO 080653Z AUTO 07006KT 10SM CLR 11/00 A3010 RMK AO2
     SLP164 T01110000 TSNO=
METAR KTCS 080653Z AUTO 13007KT 10SM FEW110 19/14 A3019 RMK AO2
     SLP138 T01940144 403330183 TSNO=
METAR KHTL 080653Z AUTO 00000KT 9SM BKN120 22/21 A3005 RMK AO2
     SLP170 T02170211=
METAR KMSY 080653Z 08003KT 10SM FEW250 27/23 A3000 RMK AO2 SLP162
     T02670233=
METAR KGNT 080653Z AUTO 16013KT 19/08 A3027 RMK AO2 SLP146
     T01890083 403060161 PWINO TSNO=
METAR KSAV 080653Z 28003KT 10SM CLR 22/19 A3000 RMK AO2 SLP157
     T02170194=
METAR KJAN 080654Z 00000KT 9SM CLR 24/23 A3005 RMK AO2 SLP169
     T02390228 $=
METAR KOQT 080653Z AUTO 00000KT 9SM CLR 23/20 A3009 RMK AO2 SLP169
     T02330200 TSNO=
METAR KMSN 080653Z 00000KT 7SM OVC120 22/21 A3000 RMK AO2 RAE10
     SLP155 P0000 T02170206=
METAR K40J 080653Z AUTO 07003KT 23/21 A3001 RMK AO2 SLP163
     T02280206 PWINO TSNO=
METAR KP92 080653Z AUTO 00000KT 26/24 A2998 RMK AO2 SLP152
     T02560244 PWINO TSNO=
METAR KDNK 080653Z AUTO 00000KT 9SM CLR 24/22 A3000 RMK AO2 SLP154
     T02440222=
METAR KCUT 080653Z AUTO 31005KT 10SM CLR 08/06 A3034 RMK AO2
     SLP243 T00780061 401720056 TSNO=
METAR KBTV 080654Z 00000KT 5SM BR OVC055 24/22 A3001 RMK AO2
     SLP159 T02390217=
METAR PGUM 080654Z 09012G19KT 10SM FEW024 SCT031 30/24 A2985 RMK
     AO2 SLP098 T03000239=
METAR KLXV 080653Z AUTO 19003KT 10SM FEW030 OVC035 07/06 A3053 RMK
     AO2 SLP194 T00720061 401830039 TSNO=
METAR KCTY 080653Z AUTO 00000KT 22/21 A3002 RMK AO2 SLP163
     T02170211 PWINO TSNO $=
METAR KSGR 080653Z AUTO 07003KT 8SM CLR 26/24 A2992 RMK AO2 SLP139
     T02560239 TSNO=
METAR KCHA 080653Z 00000KT 10SM CLR 24/18 A3006 RMK AO2 SLP169
     T02390183=
METAR KRNM 080653Z AUTO 00000KT 5SM BR OVC006 14/13 A2992 RMK AO2
     SLP122 T01440128 TSNO=
METAR KFAR 080653Z 24006KT 10SM CLR 17/13 A3005 RMK AO2 SLP176
     T01720128=
METAR KMWT 080653Z AUTO 00000KT 10SM OVC016 23/23 A3004 RMK AO2
     SLP161 T02330228 TSNO=
METAR KELY 080653Z AUTO 08005KT 10SM CLR 16/M04 A3019 RMK AO2
     SLP116 T01611044 $=
METAR KAVP 080654Z 11005KT 7SM CLR 22/18 A3005 RMK AO2 SLP163
     T02170178 $=
METAR KRQE 080653Z AUTO 00000KT 10SM CLR 18/06 A3024 RMK AO2
     SLP105 T01830056 403060083 TSNO=
####018000366####
SAUS90 KWBC 080700 RRA
METAR KMQE 080654Z AUTO 19007KT 23/21 A3006 RMK AO1 SLP185
     T02280206=
METAR K1V4 080654Z AUTO 22/20 A3004 RMK AO2 SLP156 T02170200 PWINO
     TSNO=
METAR PATC 080655Z AUTO 00000KT 10SM CLR 12/07 A3015 RMK AO1
     T01220067=
METAR PAEH 080655Z AUTO 01003KT 10SM SCT008 BKN018 OVC049 09/M28
     A3000 RMK AO1 T00941283=
####018002949####
SAAK41 KNKA 080655
METAR PAAQ 080653Z AUTO 00000KT 10SM FEW090 14/08 A3003 RMK AO2 
    SLP165 T01440078 TSNO=
METAR PABE 080653Z 01005KT 10SM FEW080 BKN120 15/08 A3001 RMK AO2 
    SLP171 T01500080 PNO $=
METAR PABI 080653Z AUTO 00000KT 10SM CLR 18/07 A3008 RMK AO2 SLP182 
    T01830067 TSNO=
METAR PABR 080653Z 26013KT 10SM BKN200 05/03 A2998 RMK AO2 SLP154 
    T00500028 $=
METAR PABT 080653Z 32003KT 10SM SCT040 BKN075 BKN200 18/10 A3004 RMK 
    AO2 SLP179 T01780100=
METAR PACD 080653Z 15008KT 10SM CLR 08/03 A2994 RMK AO2 SLP138 
    T00830033=
METAR PACV 080653Z 06008KT 030V100 10SM SCT035 BKN045 OVC065 14/10 
    A3010 RMK AO2 RAB0554E40 SLP192 P0001 T01440100=
METAR PADE 080653Z AUTO 27005KT 10SM CLR 11/05 A3014 RMK AO2 SLP207 
    T01060050 TSNO=
METAR PADQ 080653Z 34004KT 3SM -RA BR BKN008 OVC012 10/09 A2981 RMK 
    AO2 SLP095 P0003 T01000089 $=
METAR PAEG 080653Z AUTO 00000KT 10SM CLR 14/08 A2999 RMK AO2 SLP157 
    T01390083 TSNO=
METAR PAEN 080653Z AUTO 36010KT 10SM -RA BKN065 BKN090 OVC110 14/12 
    A2998 RMK AO2 RAB35 SLP153 P0000 T01440117 TSNO=
METAR PAFA 080653Z 00000KT 10SM FEW070 SCT250 20/09 A3002 RMK AO2 
    SLP169 T02000094=
METAR PAGK 080653Z AUTO 06003KT 10SM CLR 12/08 A3007 RMK AO2 SLP187 
    T01220083 TSNO=
METAR PAGY 080653Z AUTO 00000KT 10SM CLR 13/11 A3022 RMK AO2 SLP231 
    T01280111 TSNO=
METAR PAHO 080653Z AUTO 07007KT 10SM BKN049 OVC060 13/09 A2990 RMK 
    AO2 SLP126 T01280094 TSNO=
METAR PAIL 080653Z AUTO 36008KT 10SM OVC055 11/09 A2993 RMK AO2 
    SLP136 T01110089 TSNO=
METAR PAJN 080653Z 00000KT 10SM CLR 14/11 A3020 RMK AO2 SLP225 
    T01390111=
METAR PAKT 080653Z AUTO VRB06KT 10SM CLR 20/12 A3008 RMK AO2 SLP184 
    T02000117 TSNO=
METAR PAKV 080653Z AUTO 00000KT 10SM CLR 16/07 A3009 RMK AO2 SLP189 
    T01610067 TSNO=
METAR PAKW 080653Z AUTO 20003KT 10SM CLR 13/11 A3012 RMK AO2 SLP199 
    T01330106 TSNO=
METAR PALH 080653Z 00000KT 10SM -RA OVC075 15/10 A3003 RMK AO2 RAB43 
    SLP169 P0000 T01500100=
METAR PAMC 080653Z 13005KT 10SM SCT040 SCT080 BKN200 17/07 A2998 RMK 
    AO2 SLP154 T01670072=
METAR PAMR 080653Z 20004KT 10SM OVC080 14/09 A3002 RMK AO2 SLP165 
    T01440094=
METAR PANC 080653Z 00000KT 10SM -RA FEW055 BKN070 BKN120 BKN200 
    13/11 A3002 RMK AO2 RAB44 SLP165 P0000 T01280111=
METAR PANN 080653Z AUTO 00000KT 10SM CLR 17/11 A3002 RMK AO2 SLP169 
    T01720106 TSNO=
METAR PANT 080653Z AUTO 33007KT 10SM CLR 19/12 A3006 RMK AO2 SLP179 
    T01890117 TSNO=
METAR PAOM 080653Z 06009KT 10SM FEW070 SCT200 19/09 A3008 RMK AO2 
    SLP187 T01890089=
METAR PAOR 080653Z 00000KT 10SM FEW070 SCT140 15/08 A3008 RMK AO2 
    SLP186 T01500078=
METAR PAOT 080653Z 28011KT 10SM FEW040 SCT090 SCT210 12/07 A3012 RMK 
    AO2 SLP199 T01220067=
METAR PAPB 080653Z AUTO 09016KT 9SM FEW012 OVC020 07/07 A2990 RMK 
    AO2 SLP115 T00720067 TSNO=
####018000926####
SAAK41 KNKA 080655
METAR PASC 080653Z 20007KT 10SM FEW028 OVC060 10/08 A3001 RMK AO2 
    SLP162 SML THN SPTS INOVC T01000078=
METAR PASI 080653Z 00000KT 10SM CLR 14/12 A3018 RMK AO2 SLP220 
    T01440122=
METAR PASN 080653Z AUTO 08011KT 10SM OVC007 06/05 A2993 RMK AO2 CIG 
    005V010 SLP136 T00610050 TSNO=
METAR PASO 080653Z AUTO 00000KT 10SM OVC065 11/11 A2989 RMK AO2 
    RAB0557E07 SLP121 P0000 T01110106 TSNO=
METAR PATK 080653Z AUTO 17003KT 10SM BKN090 OVC100 18/10 A3002 RMK 
    AO2 SLP168 T01780100 TSNO=
METAR PATO 080653Z AUTO 13010G23KT 4SM RA BR SCT031 OVC042 12/11 
    A3003 RMK AO2 PK WND 14031/0559 SLP169 P0029 T01220106 TSNO=
METAR PAWD 080653Z AUTO 20003KT 2 1/2SM -RA BR SCT003 BKN008 OVC055 
    10/09 A2999 RMK AO2 VIS 1 3/4V5 SLP154 P0008 T01000094 TSNO=
METAR PAYA 080653Z 00000KT 10SM FEW090 SCT200 12/10 A3020 RMK AO2 
    SLP226 BAY TWR WND 160MMKT T01220100=
####018000115####
SAUS41 KGYX 080655
MTRNKT
METAR KNKT 080654Z AUTO 00000KT 10SM CLR 26/19 A2991 RMK AO2 SLP126 
T02560194 $
####018000107####
SAUS41 KBTV 080655
MTR1V4
METAR K1V4 080654Z AUTO 22/20 A3004 RMK AO2 SLP156 T02170200 PWINO 
TSNO
####018000385####
SANO36 ENMI 080650
METAR ENBS 080650Z 15003KT 120V190 9999 FEW002 BKN005 09/08 Q1016=
METAR ENHK 080650Z 10014KT CAVOK 15/08 Q1012=
METAR ENHV 080650Z 24007KT 200V280 9999 FEW011 10/07 Q1015 =
METAR ENLK 080650Z 19007KT CAVOK 15/10 Q1010=
METAR ENMH 080650Z NIL=
METAR ENNK 080650Z VRB03KT 9999 BKN060 16/09 Q1011=
METAR ENNM 080650Z 23006KT 190V260 CAVOK 17/10 Q1010=
####018000350####
SANO34 ENMI 080650
METAR ENBN 080650Z 34005KT CAVOK 17/10 Q1009=
METAR ENBV 080650Z VRB02KT 9999 SCT008 BKN017 11/09 Q1016=
METAR ENDI 080650Z NIL=
METAR ENFG 080650Z 2009KT 9999 FEW015 BKN150 14/09 Q1013=
METAR ENHF 080650Z NIL=
METAR ENRA 080650Z 36002KT 9999 BKN070 17/11 Q1009=
METAR ENSH 080650Z 20004KT 9999 FEW040 16/10 Q1010=
####018000101####
SAUS41 KBOX 080655
MTRMQE
METAR KMQE 080654Z AUTO 19007KT 23/21 A3006 RMK AO1 SLP185 T02280206
####018000297####
SANO38 ENMI 080650
METAR ENDR 080650Z NIL=
METAR ENEK 080650Z NIL=
METAR ENGC 080650Z 18028KT 9999 FEW010 SCT060 13/11 Q1006=
METAR ENHE 080650Z 19019KT 9999 FEW015 SCT030 14/11 Q1008=
METAR ENOA 080650Z 19023KT 9999 FEW050 13/11 Q1008=
METAR ENSL 080650Z 22024KT CAVOK 14/11 Q1010=
####018003672####
SAUS99 KWBC 080656 RRF
METAR
KPIE 080653Z AUTO 11007KT 10SM BKN055 26/21 A3000 RMK AO2 SLP160
     T02560211 TSNO=
KSBM 080653Z AUTO 26004KT 10SM BKN015 OVC090 23/22 A3001 RMK AO2
     SLP158 T02280217=
KSEA 080653Z 35007KT 10SM CLR 23/12 A2994 RMK AO2 SLP141 T02280117
     $=
KSEG 080653Z AUTO 00000KT 5SM HZ CLR 23/18 A3003 RMK AO2 SLP165
     T02280183=
KSFF 080653Z AUTO 00000KT 10SM CLR 16/11 A3005 RMK AO2 SLP161
     T01610106=
KSHN 080653Z AUTO 00000KT 10SM CLR 17/12 A2991 RMK AO2 SLP127
     T01670122=
KSHR 080653Z AUTO 00000KT 10SM CLR 10/07 A3026 RMK AO2 SLP229
     T01000072 402220056=
KSJC 080653Z 32005KT 8SM FEW019 SCT140 15/11 A2992 RMK AO2 SLP130
     T01500111=
KSLC 080653Z 15005KT 10SM CLR 19/08 A3006 RMK AO2 SLP128 T01940078
     402940144=
KSLN 080653Z AUTO 34007KT 8SM FEW013 22/21 A3010 RMK AO2 SLP182
     T02170206=
KSMQ 080653Z AUTO 00000KT 4SM BR CLR 22/21 A3000 RMK AO2 SLP157
     T02220211=
KSNA 080653Z 27003KT 10SM OVC019 18/12 A2991 RMK AO2 SLP128
     T01830122=
KSNY 080653Z AUTO 00000KT 10SM BKN034 17/14 A3032 RMK AO2 SLP233
     T01670144=
KSPB 080653Z AUTO 28003KT 9SM CLR 22/13 A2986 RMK AO2 SLP110
     T02170133=
KSPG 080653Z 10007KT 10SM CLR 27/22 A2999 RMK AO2 SLP155
     T02670217=
KSPW 080653Z AUTO 31005KT 10SM CLR 16/16 A3013 RMK AO2 SLP196
     T01610156=
KSRQ 080653Z 07005KT 10SM CLR 24/22 A2998 RMK AO2 SLP152
     T02440217=
KSTC 080653Z AUTO 00000KT 4SM BR CLR 14/13 A3008 RMK AO2 SLP191
     T01440133=
KSTJ 080653Z AUTO 19005KT 6SM BR FEW016 OVC110 23/22 A3006 RMK AO2
     RAE37 SLP172 P0001 T02330222=
KSTP 080653Z 33005KT 10SM CLR 21/18 A3006 RMK AO2 SLP172
     T02060178=
KSWO 080653Z AUTO 01008KT 10SM BKN029 OVC039 23/21 A3004 RMK AO2
     SLP158 T02330211=
KTCC 080653Z AUTO 08005KT 10SM BKN100 18/16 A3021 RMK AO2 RAB17E44
     SLP171 P0000 T01780156 403110167=
KTDZ 080653Z AUTO 23003KT 10SM CLR 24/18 A3005 RMK AO2 SLP170
     T02440183=
KTHV 080653Z AUTO 00000KT 5SM HZ CLR 23/20 A3001 RMK AO2 SLP160
     T02280200=
KTIW 080653Z AUTO 35004KT 10SM FEW090 22/12 A2993 RMK AO2 SLP130
     T02220117=
KTMB 080653Z AUTO 04004KT 10SM CLR 28/25 A2994 RMK AO2 SLP137
     T02780250=
KTOI 080653Z AUTO 00000KT 9SM CLR 23/22 A3004 RMK AO2 SLP166
     T02280222=
KTOP 080653Z AUTO 09008KT 2 1/2SM +RA BR OVC013 22/21 A3009 RMK
     AO2 SLP179 P0060 T02220211=
KTOR 080653Z AUTO 00000KT 10SM BKN065 14/12 A3029 RMK AO2 SLP229
     T01440122 401780122=
KTPA 080653Z 00000KT 10SM SCT250 26/21 A3001 RMK AO2 SLP161
     T02560211 $=
KTTD 080653Z AUTO 00000KT 10SM FEW085 21/12 A2985 RMK AO2 SLP106
     T02110122=
KTTN 080653Z AUTO 13005KT 6SM HZ FEW085 24/21 A3001 RMK AO2 SLP155
     T02440211 PWINO=
KTUL 080653Z 11009KT 10SM -RA BKN040 OVC055 23/22 A3001 RMK AO2
     RAB38 SLP154 P0000 T02330217=
KPIH 080653Z AUTO 05004KT 10SM CLR 13/01 A3014 RMK AO2 SLP166
     T01280011 402780061=
KPIR 080653Z AUTO 24009KT 10SM CLR 16/13 A3015 RMK AO2 SLP202
     T01610133=
KPKB 080653Z AUTO 00000KT 3SM BR CLR 21/20 A3010 RMK AO2 SLP182
     T02110200 TSNO=
KPKD 080653Z AUTO 23003KT 10SM CLR 15/13 A3007 RMK AO2 SLP181
     T01500133=
KPMD 080653Z AUTO 18008KT 10SM CLR 21/07 A2990 RMK AO2 SLP094
     T02110072 TSNO $=
KPMP 080653Z AUTO 06007KT 10SM SCT023 SCT027 28/24 A2994 RMK AO2
     SLP139 T02780239=
KPNC 080653Z AUTO 02005KT 10SM FEW065 22/21 A3006 RMK AO2 SLP168
     T02220211=
KPOF 080653Z AUTO 00000KT 7SM CLR 25/24 A3003 RMK AO2 SLP161
     T02500239 $=
KPOU 080653Z 00000KT 6SM BR CLR 24/22 A3001 RMK AO2 SLP156
     T02390217=
####018003712####
SAUS99 KWBC 080656 RRH
METAR
KX40 080655Z AUTO 00000KT 7SM CLR 23/23 A3002 RMK AO2
     T02340226=
KYKN 080655Z AUTO 00000KT 10SM CLR 16/14 A3017 RMK AO1=
KFRM 080655Z AUTO 10SM CLR 18/16 A3012 RMK AO1=
KGAD 080655Z AUTO 00000KT 10SM CLR 23/21 A3005 RMK AO1=
KGAI 080655Z 00000KT 8SM SCT110 25/21 A3003 RMK AO1=
KGBD 080655Z AUTO 36005KT 5SM CLR 19/18 A3015 RMK AO1=
KGCK 080654Z AUTO 04010KT 10SM FEW049 BKN060 18/17 A3019 RMK AO2
     SLP197 T01830167=
KGCN 080654Z AUTO 00000KT 10SM CLR 11/M03 A3022 RMK AO2 SLPNO
     T01111033 403000039=
KGPZ 080655Z AUTO 00000KT 10SM CLR 13/11 A3007 RMK AO1=
KGTR 080655Z 00000KT 10SM CLR 24/23 A3004 RMK AO1=
KHEF 080655Z AUTO 30003KT 8SM CLR 26/21 A2999 RMK AO1=
KHEZ 080655Z AUTO 08003KT 6SM CLR 24/23 A3003 RMK AO1=
KHNB 080655Z AUTO 00000KT 10SM CLR 23/21 A3006 RMK AO1=
KHWD 080654Z AUTO 34007KT 10SM OVC013 14/11 A2992 RMK AO2 SLP141
     T01440106=
KHYS 080655Z AUTO 02005KT 10SM BKN017 18/17 A3017 RMK AO1=
KIMT 080654Z AUTO 00000KT 7SM SCT003 19/19 A2996 RMK AO2 SLP141
     T01940194=
KISW 080654Z AUTO 24005KT 10SM BKN010 22/21 A3001 RMK AO2 SLP156
     T02220211 TSNO=
KIWD 080655Z AUTO 34003KT 10SM FEW070 BKN120 18/16 A3001 RMK
     AO1=
KKLS 080655Z AUTO 00000KT 10SM CLR 18/14 A2988 RMK AO1=
KLAF 080654Z AUTO 00000KT 9SM CLR 24/21 A3003 RMK AO2 SLP164
     T02390211 TSNO=
KLAW 080653Z AUTO 03006KT 10SM CLR 24/22 A3003 RMK AO2 SLP155
     T02390222=
KLBB 080653Z 13004KT 10SM FEW013 SCT030 OVC130 21/19 A3013 RMK AO2
     SLP161 OCNL LTGIC DSNT N CB DSNT N MOV S T02110189=
KLBL 080655Z 06011KT 10SM FEW031 BKN039 21/17 A3019 RMK AO1=
KLBT 080654Z AUTO 28006KT 10SM SCT095 BKN110 27/19 A2993 RMK AO2
     SLP134 T02720194=
KLGD 080655Z AUTO 19005KT 10SM CLR 14/07 A3002 RMK AO1=
KLKV 080655Z AUTO 08006KT 10SM CLR 14/04 A3012 RMK AO1=
KLNK 080654Z AUTO 35008KT 10SM CLR 19/18 A3012 RMK AO2 SLP192
     T01940178=
KLPC 080655Z AUTO 36004KT 10SM OVC012 14/11 A2992 RMK AO1 PNO=
KLUX 080655Z AUTO 00000KT 10SM CLR 22/22 A3002 RMK AO2=
KLYH 080654Z AUTO 32003KT 5SM HZ CLR 24/20 A3003 RMK AO2 SLP157
     T02390200=
KMBL 080655Z AUTO 00000KT 3SM SCT120 21/19 A3002 RMK AO1=
KMER 080655Z AUTO 02007KT 10SM CLR 20/10 A2983 RMK AO1=
KMFI 080654Z AUTO 30008KT 9SM FEW003 20/19 A3001 RMK AO2 SLP158
     T02000194=
KMKC 080654Z 32003KT 10SM FEW100 23/21 A3005 RMK AO2 SLP169
     T02330211=
KMKT 080655Z 32004KT 10SM CLR 19/17 A3009 RMK AO1=
KMLU 080653Z AUTO 10003KT 9SM CLR 26/24 A3003 RMK AO2 SLP166
     T02560239=
KMML 080655Z AUTO 25005KT 10SM CLR 15/13 A3012 RMK AO1=
KMNI 080655Z AUTO 00000KT 10SM CLR 22/22 A2996 RMK AO2=
KMNM 080655Z AUTO 00000KT 10SM BKN012 OVC120 21/19 A2998 RMK
     AO1=
KMOT 080654Z AUTO 30004KT 10SM CLR 16/12 A3008 RMK AO2 SLP181
     T01560122 TSNO=
KAAO 080654Z AUTO 04006KT 10SM SCT100 22/21 A3009 RMK AO2 SLP178
     T02170206=
KAEG 080655Z AUTO 13017KT 10SM CLR 18/08 A3027 RMK AO1=
KAEX 080653Z 09004KT 10SM CLR 25/23 A2999 RMK AO2 SLP157
     T02500228=
KAIZ 080655Z AUTO 00000KT 10SM SCT041 BKN060 OVC090 23/21 A3006
     RMK AO1 P0011=
KAKH 080654Z AUTO 00000KT 10SM CLR 22/17 A3000 RMK AO2 SLP151
     T02170172=
KALO 080654Z AUTO 29006KT 10SM CLR 20/19 A3005 RMK AO2 SLP170
     T02000194=
KAPC 080654Z AUTO 27014KT 10SM CLR 12/11 A2990 RMK AO2 SLP116
     T01220106=
KARG 080655Z AUTO 22007KT 10SM CLR 26/22 A3005 RMK AO1=
KAUO 080655Z AUTO 00000KT 10SM FEW065 27/22 A3004 RMK AO1=
KAUW 080654Z AUTO 00000KT 10SM SCT022 21/19 A2999 RMK AO2 RAB13E35
     SLP152 P0001 T02060194 $=
KAVL 080654Z AUTO 00000KT 10SM CLR 19/18 A3014 RMK AO2 SLP175
     T01940178=
####018003681####
SAUS99 KWBC 080656 RRG
METAR
KPRC 080653Z AUTO 20005KT 10SM CLR 20/03 A3008 RMK AO2 SLP095
     T02000033 403390139=
KPSC 080653Z AUTO 23004KT 10SM CLR 18/09 A2993 RMK AO2 SLP134
     T01830089=
KPSP 080653Z 00000KT 10SM FEW095 28/10 A2971 RMK AO2 SLP057
     T02830100=
KPTK 080653Z 00000KT 10SM SCT250 26/22 A3004 RMK AO2 SLP164
     T02560222=
KPUB 080653Z AUTO 00000KT 10SM BKN012 BKN065 15/14 A3032 RMK AO2
     SLP218 T01500139 402610139=
KPUC 080653Z AUTO 30005KT 10SM CLR 17/01 A3018 RMK AO2 SLP135
     T01720006 403000144 TSNO=
KPUW 080653Z AUTO 00000KT 10SM CLR 12/09 A3006 RMK AO2 SLP170
     T01220089 $=
KPWA 080653Z 04003KT 10SM CLR 24/22 A3004 RMK AO2 SLP155
     T02390217=
KRAC 080653Z AUTO 27006KT 10SM SCT065 BKN075 OVC110 24/22 A3003
     RMK AO2 LTG DSNT SE SLP164 T02390217=
KRAL 080653Z AUTO 27005KT 8SM CLR 16/12 A2991 RMK AO2 SLP118
     T01560122=
KRBG 080653Z AUTO 00000KT 10SM CLR 22/14 A2989 RMK AO2 SLP117
     T02170139=
KRDD 080653Z AUTO 00000KT 10SM CLR 26/15 A2981 RMK AO2 SLP087
     T02560150=
KRHI 080653Z AUTO 28004KT 3SM BR OVC001 19/18 A3003 RMK AO2 SLP160
     T01940183=
KRIW 080653Z AUTO 00000KT 10SM CLR 14/04 A3032 RMK AO2 SLP221
     T01390039 402280044=
KRNT 080653Z AUTO 30006KT 10SM CLR 23/13 A2992 RMK AO2 SLP135
     T02330128=
KRSL 080653Z AUTO 34005KT 9SM BKN012 19/18 A3015 RMK AO2 SLP197
     T01890183=
KRSW 080653Z 05005KT 10SM CLR 24/22 A2997 RMK AO2 SLP146
     T02440222=
KRVS 080653Z 06005KT 10SM -RA FEW028 OVC041 24/22 A3002 RMK AO2
     LTG DSNT E AND SE TSB11E26RAB32 SLP167 P0000 T02390222=
KRWF 080653Z AUTO 28004KT 10SM CLR 16/15 A3010 RMK AO2 SLP191
     T01610150=
KRWL 080653Z AUTO 00000KT 10SM CLR 08/07 A3037 RMK AO2 SLP226
     T00830067 402000083=
KRXE 080653Z AUTO 06006KT 10SM CLR 12/07 A3019 RMK AO2 SLP191
     T01170072=
KSBA 080653Z 05003KT 10SM CLR 13/11 A2990 RMK AO2 SLP126 T01330106
     $=
KTVC 080653Z AUTO 00000KT 10SM FEW110 23/21 A2999 RMK AO2 SLP153
     T02330206=
KTWF 080653Z AUTO 14007KT 10SM CLR 15/M01 A3010 RMK AO2 SLP140
     T01501011 402940061=
KTXK 080653Z AUTO 00000KT 10SM SCT007 23/23 A3003 RMK AO2 SLP162
     T02330233=
KTYR 080653Z AUTO 00000KT 10SM FEW006 24/24 A3002 RMK AO2 SLP156
     T02440239=
KUAO 080653Z AUTO 36007KT 10SM CLR 24/11 A2985 RMK AO2 SLP107
     T02390106=
KUNO 080653Z AUTO 00000KT 10SM CLR 24/21 A3007 RMK AO2 SLP169
     T02440211 TSNO=
KUUU 080653Z AUTO 13004KT 9SM SCT015 BKN029 22/21 A3007 RMK AO2
     SLP178 T02220211=
KVEL 080653Z AUTO 34005KT 10SM CLR 17/04 A3020 RMK AO2 SLP166
     T01720044 402830139=
KVGT 080653Z AUTO 33004KT 10SM CLR 29/M06 A2982 RMK AO2 SLP059
     T02941056 TSNO=
KVIH 080653Z AUTO 00000KT 7SM FEW036 BKN049 OVC060 23/22 A3006 RMK
     AO2 LTG DSNT NW SLP164 T02330222=
KVPZ 080653Z AUTO 00000KT 8SM CLR 23/22 A3004 RMK AO2 SLP165
     T02330217=
KVRB 080653Z AUTO 07003KT 10SM CLR 25/22 A2997 RMK AO2 SLP148
     T02500217=
KVUO 080653Z AUTO 00000KT 10SM CLR 21/15 A2985 RMK AO2 SLP109
     T02110150=
KWRL 080653Z AUTO 19005KT 10SM CLR 13/05 A3025 RMK AO2 SLP218
     T01280050 402500050=
KWST 080653Z AUTO 13003KT 10SM SCT013 OVC026 23/21 A3005 RMK AO2
     SLP176 T02280206=
KYIP 080653Z 00000KT 8SM CLR 24/21 A3005 RMK AO2 SLP165
     T02390206=
KYKM 080653Z AUTO 25008KT 10SM CLR 19/06 A2999 RMK AO2 SLP147
     T01940056=
KZZV 080653Z AUTO 00000KT 4SM BR CLR 21/19 A3008 RMK AO2 SLP177
     T02060194=
KVIS 080655Z AUTO 32006KT 10SM CLR 24/13 A2980 RMK AO1=
KWLD 080654Z AUTO 00000KT 10SM OVC047 23/21 A3008 RMK AO2 SLP173
     T02280211=
####018003676####
SAUS99 KWBC 080656 RRD
METAR
KGRI 080653Z AUTO 34006KT 10SM CLR 17/14 A3019 RMK AO2 SLP213
     T01670144=
KGRR 080653Z AUTO 16003KT 7SM SCT050 SCT080 BKN120 25/22 A3004 RMK
     AO2 SLP163 T02500217=
KGSH 080653Z AUTO 00000KT 6SM BR CLR 22/20 A3005 RMK AO2 SLP170
     T02170200=
KGTF 080653Z 24006KT 10SM CLR 10/06 A3022 RMK AO2 SLP222 T01000061
     402500056 $=
KGUY 080653Z AUTO 05009KT 10SM FEW024 21/17 A3017 RMK AO2 LTG DSNT
     W SLP177 T02060172=
KHAO 080653Z AUTO 00000KT 3SM BR CLR 21/20 A3008 RMK AO2 SLP179
     T02110200=
KHBR 080653Z AUTO 04004KT 10SM CLR 23/21 A3007 RMK AO2 SLP162
     T02280211=
KHEI 080653Z AUTO 00000KT 10SM CLR 11/08 A3019 RMK AO2 SLP216
     T01060083 402440056=
KHFD 080653Z AUTO 15003KT 6SM HZ CLR 25/22 A3003 RMK AO2 SLP167
     T02500217=
KHHR 080653Z AUTO 26005KT 10SM OVC014 17/13 A2992 RMK AO2 SLP129
     T01720133=
KHIB 080653Z AUTO 00000KT 1SM BR CLR 11/10 A3006 RMK AO2 SLP179
     T01060100=
KHIO 080653Z AUTO 00000KT 10SM CLR 18/13 A2986 RMK AO2 SLP108
     T01830128=
KHLC 080653Z AUTO 36005KT 10SM CLR 17/16 A3020 RMK AO2 SLP213
     T01670156=
KHLN 080653Z AUTO 00000KT 10SM CLR 14/05 A3023 RMK AO2 SLP230
     T01390050 402560067=
KHQM 080653Z AUTO 07005KT 10SM 19/13 A2990 RMK AO2 SLP127
     T01940133 $=
KHRI 080653Z AUTO 00000KT 10SM CLR 18/08 A2992 RMK AO2 SLP127
     T01830083=
KHSI 080653Z AUTO 36005KT 10SM CLR 17/15 A3018 RMK AO2 SLP210
     T01670150=
KHUF 080653Z 00000KT 6SM BR FEW090 23/21 A3005 RMK AO2 SLP168
     T02330211 $=
KHUL 080653Z AUTO 21005KT 7SM CLR 22/18 A3000 RMK AO2 SLP156
     T02170183=
KHVN 080653Z AUTO 00000KT 4SM HZ OVC008 24/22 A3003 RMK AO2 SLP170
     T02440222=
KHVR 080653Z AUTO 20003KT 10SM SCT100 SCT110 13/09 A3018 RMK AO2
     SLP210 T01330094 402610083=
KHWO 080653Z AUTO 07004KT 10SM CLR 25/23 A2995 RMK AO2 SLP143
     T02500233=
KLSE 080653Z AUTO 32005KT 10SM CLR 22/19 A3001 RMK AO2 SLP153
     T02220194=
KLUK 080653Z AUTO 00000KT 2 1/2SM BR CLR 23/22 A3008 RMK AO2
     SLP179 T02280217=
KLVM 080653Z AUTO 00000KT 10SM CLR 09/04 A3027 RMK AO2 SLP225
     T00940039 402390017=
KLWD 080653Z AUTO 21003KT 10SM CLR 21/21 A3006 RMK AO2 SLP170
     T02110206=
KLWV 080653Z AUTO 00000KT 6SM HZ FEW085 26/22 A3003 RMK AO2 SLP165
     T02560222=
KLXT 080653Z AUTO 00000KT 10SM SCT080 BKN110 23/22 A3006 RMK AO2
     SLP169 T02330217=
KMBS 080653Z 18004KT 10SM CLR 25/22 A3002 RMK AO2 SLP161
     T02500222=
KMCI 080653Z 32005KT 8SM SCT110 OVC130 22/22 A3007 RMK AO2 SLP173
     T02220222 $=
KMCK 080653Z AUTO 32005KT 10SM FEW120 16/16 A3023 RMK AO2 SLP224
     T01610156=
KMCO 080653Z 00000KT 10SM CLR 22/20 A3000 RMK AO2 SLP159
     T02220200=
KMCW 080653Z AUTO 32004KT 10SM CLR 19/18 A3009 RMK AO2 SLP180
     T01890183 $=
KMFR 080653Z AUTO 09003KT 10SM CLR 27/12 A2987 RMK AO2 SLP099
     T02670117=
KMGY 080653Z AUTO 00000KT 7SM CLR 24/19 A3008 RMK AO2 SLP175
     T02440194=
KMHE 080653Z AUTO 25004KT 10SM CLR 18/14 A3016 RMK AO2 SLP210
     T01780144 TSNO=
KMHT 080653Z 14004KT 7SM -RA BKN060 24/22 A3003 RMK AO2 RAB53
     SLP175 P0000 T02440217=
KMIA 080653Z 04004KT 10SM FEW030 SCT250 28/24 A2994 RMK AO2 SLP137
     T02780244=
KMIC 080653Z 31004KT 10SM CLR 20/17 A3005 RMK AO2 SLP172
     T02000167=
KMIE 080653Z AUTO 00000KT 10SM CLR 25/19 A3007 RMK AO2 SLP169
     T02500194=
KMIW 080653Z AUTO 32007KT 10SM CLR 20/19 A3005 RMK AO2 SLP171
     T02000194=
KMKO 080653Z AUTO 07003KT 10SM FEW009 BKN019 OVC055 23/23 A3003
     RMK AO2 LTG DSNT N AND W TSE37RAE05 SLP162 P0000
     T02330228=
####018000191####
SAUS98 KWBC 080656
METAR PATC 080655Z AUTO 00000KT 10SM CLR 12/07 A3015 RMK AO1
T01220067=
METAR PAEH 080655Z AUTO 01003KT 10SM SCT008 BKN018 OVC049 09/M28
A3000 RMK AO1 T00941283=
####018003667####
SAUS99 KWBC 080656 RRB
METAR
KFTW 080653Z 16008KT 10SM BKN018 BKN060 26/23 A2999 RMK AO2 SLP144
     T02560228=
KFUL 080653Z 00000KT 10SM OVC015 16/12 A2991 RMK AO2 SLP126
     T01610122=
KFVE 080653Z AUTO 03003KT 9SM CLR 23/22 A3000 RMK AO2 SLP149
     T02280217=
KFWN 080653Z AUTO 00000KT 4SM BR CLR 22/21 A3004 RMK AO2 SLP167
     T02220211=
KGAG 080653Z AUTO 04008KT 10SM SCT028 BKN034 23/19 A3012 RMK AO2
     SLP171 T02280194=
KGCC 080653Z AUTO 00000KT 10SM CLR 09/07 A3029 RMK AO2 SLP232
     T00940067 402280072=
KGEG 080653Z 07005KT 10SM CLR 21/08 A3006 RMK AO2 SLP160
     T02110083=
KGEY 080653Z AUTO 11004KT 10SM CLR 15/03 A3024 RMK AO2 SLP215
     T01500028 402560067=
KGEZ 080653Z AUTO 00000KT 6SM BR CLR 22/20 A3005 RMK AO2 SLP169
     T02170200=
KGFK 080653Z 26006KT 10SM CLR 16/12 A3003 RMK AO2 SLP167
     T01610122=
KGFL 080653Z AUTO 00000KT 1 1/2SM BR CLR 22/21 A3001 RMK AO2
     SLP159 T02170211=
KCNY 080653Z AUTO 07011KT 10SM CLR 24/04 A3006 RMK AO2 SLP109
     T02390044 403440172=
KCPR 080653Z AUTO 00000KT 10SM CLR 06/05 A3032 RMK AO2 SLP239
     T00610050 402060039=
KCPS 080653Z AUTO 15003KT 10SM CLR 24/22 A3003 RMK AO2 SLP163
     T02440222=
KCRE 080653Z AUTO 30004KT 10SM SCT110 27/21 A2993 RMK AO2 SLP135
     T02720206=
KCRQ 080653Z AUTO 27003KT 10SM OVC012 17/13 A2991 RMK AO2 SLP126
     T01670133=
KCSM 080653Z AUTO 02004KT 10SM CLR 23/20 A3010 RMK AO2 SLP166
     T02280200=
KCYS 080653Z AUTO 12005KT 1SM BR OVC002 12/12 A3036 RMK AO2 SLP235
     T01170117 401220094 TSNO RVRNO=
KDAG 080653Z AUTO 25009KT 10SM CLR 27/00 A2984 RMK AO2 SLP075
     T02720000 TSNO $=
KDAL 080653Z 16008KT 10SM BKN017 27/23 A2999 RMK AO2 SLP149
     T02670233=
KDBQ 080653Z AUTO 28003KT 10SM OVC110 21/20 A3003 RMK AO2 RAE22
     SLP162 P0000 T02060200=
KDEN 080653Z 00000KT 4SM BR OVC080 15/14 A3033 RMK AO2 SLP212 OCNL
     LTGICCC DSNT SE CB DSNT SE MOV NE T01500144 401940133 $=
KDET 080653Z 00000KT 10SM CLR 26/21 A3004 RMK AO2 SLP164 T02610211
     $=
KDEW 080653Z AUTO 02004KT 10SM CLR 14/09 A3006 RMK AO2 SLP169
     T01390089=
KDFI 080653Z AUTO 00000KT 8SM CLR 22/19 A3005 RMK AO2 SLP171
     T02220189=
KDGW 080653Z AUTO 00000KT 10SM CLR 09/07 A3033 RMK AO2 SLP241
     T00890072 402000072 $=
KDKK 080653Z AUTO 00000KT 9SM BKN090 21/19 A3007 RMK AO2 SLP176
     T02060189=
KDLN 080653Z AUTO 24004KT 10SM CLR 08/04 A3026 RMK AO2 SLP214
     T00830044 402280039=
KDLS 080653Z AUTO 10005KT 10SM CLR 21/04 A2992 RMK AO2 SLP130
     T02060044=
KDMO 080653Z AUTO 18004KT 10SM -RA FEW016 BKN047 BKN055 24/22
     A3005 RMK AO2 RAB05 SLP166 P0000 T02390222=
KDNL 080653Z AUTO VRB03KT 10SM CLR 27/17 A3002 RMK AO2 SLP159
     T02670172=
KDRO 080653Z AUTO 08005KT 10SM CLR 16/05 A3030 RMK AO2 LTG DSNT N
     AND NE RAB0554E06 SLP167 P0000 T01610050 403000122=
KDTN 080653Z AUTO 00000KT 10SM CLR 25/24 A3000 RMK AO2 SLP156
     T02500239=
KDTW 080653Z 00000KT 6SM HZ SCT150 25/21 A3004 RMK AO2 SLP165
     T02500211=
KDVT 080653Z 00000KT 10SM CLR 31/01 A2977 RMK AO2 SLP051 T03110011
     404060222=
KDXR 080653Z AUTO 12003KT 7SM CLR 23/22 A3005 RMK AO2 SLP170
     T02330217=
KECP 080653Z AUTO 32003KT 6SM BR CLR 23/23 A3002 RMK AO2 SLP177
     T02330228=
KEEO 080653Z AUTO 10SM FEW110 13/08 A3030 RMK AO2 SLP180 T01280078
     402720061 $=
KEET 080653Z AUTO 00000KT 7SM OVC070 27/21 A3004 RMK AO2 SLP163
     T02670211=
KELD 080653Z AUTO 00000KT 5SM BR CLR 23/23 A3002 RMK AO2 SLP162
     T02280228=
KELM 080653Z AUTO 24003KT 4SM BR CLR 18/17 A3008 RMK AO2 SLP177
     T01780167=
####018003676####
SAUS99 KWBC 080656 RRE
METAR
KMLB 080653Z AUTO 08003KT 10SM CLR 26/22 A2998 RMK AO2 SLP152
     T02560217=
KMLC 080653Z AUTO 00000KT 10SM CLR 24/23 A3002 RMK AO2 SLP158
     T02390228=
KMLP 080653Z AUTO 12005KT 10SM CLR 14/M01 A3027 RMK AO2 SLP158
     T01441011 TSNO=
KMLS 080653Z AUTO 00000KT 10SM FEW090 16/09 A3019 RMK AO2 SLP212
     T01610094 402670094=
KMLT 080653Z AUTO VRB03KT 7SM CLR 21/19 A3004 RMK AO2 SLP175
     T02110189=
KMMK 080653Z AUTO 00000KT 3SM BR FEW085 23/22 A3004 RMK AO2 SLP169
     T02330217=
KMMV 080653Z AUTO 35004KT 10SM CLR 22/12 A2985 RMK AO2 SLP107
     T02220117=
KMNN 080653Z AUTO 00000KT 9SM CLR 22/19 A3008 RMK AO2 SLP180
     T02170189=
KMOD 080653Z AUTO 36008KT 10SM CLR 19/10 A2982 RMK AO2 SLP097
     T01940100=
KMPO 080653Z AUTO 00000KT 6SM BR CLR 20/18 A3011 RMK AO2 SLP180
     T02000178=
KMSO 080653Z AUTO 35004KT 10SM CLR 14/06 A3017 RMK AO2 SLP200
     T01440061 402830061 $=
KMSP 080653Z 31006KT 10SM FEW090 21/17 A3006 RMK AO2 SLP176
     T02060172=
KMSS 080653Z AUTO 22004KT 7SM CLR 24/21 A3000 RMK AO2 SLP156
     T02390206=
KMTH 080653Z AUTO 04009KT 10SM FEW034 27/24 A2993 RMK AO2 SLP133
     T02720239=
KMTJ 080653Z AUTO 25003KT 10SM CLR 19/06 A3026 RMK AO2 PK WND
     33026/0559 SLP155 T01890056 403000122=
KMTO 080653Z AUTO 00000KT 6SM BR BKN075 23/23 A3004 RMK AO2 SLP164
     T02330228=
KMVY 080653Z AUTO 15004KT 1/2SM R24/1600V5000FT FG VV001 21/19
     A3006 RMK AO2 SLP179 T02110194=
KMYF 080653Z AUTO 34003KT 10SM OVC013 17/13 A2992 RMK AO2 SLP128
     T01670133 TSNO=
KODX 080653Z AUTO 33003KT 10SM SCT080 16/14 A3020 RMK AO2 SLP220
     T01560144=
KOGD 080653Z 18008KT 10SM CLR 21/07 A3007 RMK AO2 SLP126 T02110067
     402890139=
KOJC 080653Z AUTO 00000KT 10SM OVC065 23/22 A3006 RMK AO2 SLP168
     T02330217=
KOLF 080653Z AUTO 20003KT 10SM CLR 13/09 A3014 RMK AO2 SLP202
     T01280094 402670067=
KOMK 080653Z AUTO 30009KT 10SM CLR 20/08 A3003 RMK AO2 SLP161
     T02000078=
KONO 080653Z AUTO 23005KT 10SM CLR 16/07 A3002 RMK AO2 SLP153
     T01560072 403220111=
KONT 080653Z 25006KT 7SM SCT015 15/12 A2991 RMK AO2 SLP122
     T01500122=
KOPF 080653Z AUTO 05006KT 10SM FEW022 27/24 A2994 RMK AO2 SLP140
     T02670244=
KORL 080653Z AUTO 00000KT 10SM CLR 24/21 A3000 RMK AO2 SLP162
     T02390211=
KOSH 080653Z AUTO 18005KT 7SM -RA SCT070 OVC110 22/20 A3000 RMK
     AO2 SLP145 P0003 T02170200=
KOSU 080653Z AUTO 00000KT 8SM CLR 23/18 A3008 RMK AO2 SLP177
     T02330183=
KOTM 080653Z AUTO 32004KT 4SM BR CLR 21/21 A3003 RMK AO2 SLP164
     T02110206=
KOVS 080653Z AUTO 00000KT 10SM CLR 21/20 A3001 RMK AO2 SLP160
     T02110200=
KOWD 080653Z AUTO 17003KT 5SM HZ OVC009 24/21 A3005 RMK AO2 SLP174
     T02440211=
KOXB 080653Z AUTO 09003KT 7SM BKN100 24/24 A2999 RMK AO2 RAB25E34
     SLP155 P0000 T02440244 $=
KPAE 080653Z AUTO 36003KT 10SM CLR 21/12 A2996 RMK AO2 SLP142
     T02060117=
KPBG 080653Z AUTO 00000KT 6SM BR BKN070 23/22 A2999 RMK AO2 SLP154
     T02330217=
KPBI 080653Z 05007KT 10SM SCT032 SCT250 28/23 A2994 RMK AO2 SLP137
     T02780233=
KPDT 080653Z AUTO 10006KT 10SM CLR 19/07 A2995 RMK AO2 SLP127
     T01890072=
KPDX 080653Z 30003KT 10SM CLR 22/16 A2987 RMK AO2 SLP112
     T02170156=
KPEO 080653Z AUTO 00000KT 5SM BR CLR 22/21 A3008 RMK AO2 SLP176
     T02220211=
KPGA 080653Z AUTO 05005KT 10SM CLR 30/M03 A3000 RMK AO2 SLP081
     T03001028 403670206=
KPGD 080653Z AUTO 08004KT 10SM CLR 24/22 A3000 RMK AO2 SLP161
     T02390222 TSNO=
KPHD 080653Z AUTO 00000KT 2SM BR CLR 20/18 A3009 RMK AO2 SLP180
     T02000183=
####018003710####
SAUS99 KWBC 080656 RRC
METAR
KELN 080653Z AUTO 00000KT 10SM CLR 18/07 A3003 RMK AO2 SLPNO
     T01830067 $=
KHYR 080653Z AUTO 00000KT 10SM OVC049 18/17 A3004 RMK AO2 RAB38E52
     SLP166 P0000 T01830167=
KHZY 080653Z AUTO 00000KT 4SM BR CLR 19/18 A3008 RMK AO2 SLP179
     T01940183=
KIAG 080653Z AUTO 21005KT 5SM BR CLR 24/22 A3005 RMK AO2 SLP166
     T02390217=
KICR 080653Z AUTO 24004KT 10SM BKN120 18/13 A3020 RMK AO2 SLPNO
     T01830133 TSNO=
KICT 080653Z 01005KT 10SM BKN025 BKN070 BKN200 23/21 A3009 RMK AO2
     SLP175 T02280206 $=
KIDA 080653Z AUTO 02006KT 10SM CLR 12/06 A3017 RMK AO2 SLP186
     T01170061 402610056=
KILM 080653Z AUTO 00000KT 10SM CLR 25/22 A2991 RMK AO2 SLP128
     T02500217=
KIML 080653Z AUTO 34003KT 10SM BKN025 OVC032 17/15 A3027 RMK AO2
     SLP231 T01720150 402170150=
KIPL 080653Z AUTO 21005KT 10SM CLR 29/09 A2967 RMK AO2 SLP047
     T02890089=
KITR 080653Z AUTO 04004KT 10SM FEW009 BKN015 OVC030 17/15 A3030
     RMK AO2 SLP224 T01670150 402060139=
KIWI 080653Z AUTO 00000KT 7SM SCT003 OVC012 21/19 A3008 RMK AO2
     SLP186 T02060194=
KIXD 080653Z AUTO 32004KT 10SM SCT080 23/21 A3008 RMK AO2 SLP173
     T02280211=
KJEF 080653Z AUTO 16005KT 10SM SCT047 BKN065 OVC085 24/23 A3004
     RMK AO2 LTG DSNT SE RAB41E51 SLP159 P0000 T02390228=
KJER 080653Z AUTO 08009KT 10SM CLR 18/M01 A3010 RMK AO2 SLP155
     T01781011 402830100=
KJKL 080653Z AUTO 00000KT 6SM HZ CLR 24/19 A3011 RMK AO2 SLP178
     T02440194=
KJLN 080653Z 35003KT 10SM SCT034 BKN041 OVC110 23/22 A3005 RMK AO2
     SLP165 T02280222=
KLAA 080653Z AUTO 14006KT 10SM -RA OVC030 19/16 A3025 RMK AO2 LTG
     DSNT W RAB52 SLP205 P0000 T01890161 402670161=
KLAN 080653Z 00000KT 6SM BR CLR 24/22 A3004 RMK AO2 SLP166
     T02390217 $=
KLAR 080653Z AUTO 18006KT 10SM CLR 09/09 A3037 RMK AO2 SLP206
     T00890089 401560067=
KLBF 080653Z AUTO 00000KT 10SM OVC048 16/16 A3025 RMK AO2 SLP230
     T01610156=
KLEB 080653Z AUTO 00000KT 2SM BR CLR 22/21 A3004 RMK AO2 SLP158
     T02220206=
KLEE 080653Z AUTO 00000KT 10SM CLR 23/21 A3002 RMK AO2 SLP164
     T02280211=
KLGB 080653Z 29004KT 10SM OVC017 17/13 A2991 RMK AO2 SLP129
     T01720128=
KLHQ 080653Z AUTO 00000KT 3SM BR CLR 19/18 A3008 RMK AO2 SLP179
     T01940183=
KLHX 080653Z AUTO 36010KT 7SM -RA FEW007 BKN029 OVC080 17/16 A3031
     RMK AO2 LTG DSNT NE RAB17 SLP219 T01670156 402330167 PNO
     $=
KLMT 080653Z AUTO 23008KT 10SM FEW090 21/09 A3005 RMK AO2 SLP124
     T02110089=
KLNS 080653Z AUTO 05003KT 6SM HZ CLR 26/21 A3001 RMK AO2 SLP159
     T02610211=
KLOU 080653Z AUTO 00000KT 7SM CLR 27/21 A3006 RMK AO2 SLP171
     T02720211=
KLOZ 080653Z AUTO 02003KT 4SM BR CLR 22/20 A3010 RMK AO2 SLP178
     T02170200=
KLPR 080653Z AUTO 00000KT 6SM HZ CLR 23/19 A3007 RMK AO2 SLP175
     T02280189=
KGGW 080653Z AUTO 00000KT 10SM CLR 14/09 A3014 RMK AO2 SLP200
     T01390094 402610089 TSNO=
KGIF 080653Z AUTO 00000KT 10SM CLR 23/21 A3002 RMK AO2 SLP162
     T02330211 TSNO=
KGJT 080653Z AUTO 07017G30KT 10SM CLR 22/06 A3014 RMK AO2 PK WND
     08030/0648 WSHFT 0542 SLP129 T02220061 403390178=
KGKJ 080653Z AUTO 00000KT 8SM CLR 22/18 A3011 RMK AO2 SLP182
     T02170178=
KGKY 080653Z AUTO 17005KT 10SM SCT019 25/23 A3000 RMK AO2 SLP148
     T02500228=
KGLD 080653Z AUTO 00000KT 10SM OVC035 17/16 A3029 RMK AO2 SLP225
     T01720161 402440144=
KGLR 080653Z AUTO 22003KT 10SM SCT110 22/21 A3003 RMK AO2 SLP162
     T02220211=
KGNV 080653Z AUTO 00000KT 10SM CLR 21/19 A3002 RMK AO2 SLP163
     T02060194=
KGRB 080653Z AUTO 18007KT 9SM -RA BKN055 21/20 A2998 RMK AO2
     SLP148 P0002 T02110200=
####018000272####
SAFI33 EFHK 080650
EFJO 080650Z 00000KT CAVOK 24/19 Q1015=
EFLP 080650Z 36006KT 320V040 CAVOK 26/19 Q1013=
EFMI 080650Z AUTO VRB02KT CAVOK 25/19 Q1014=
EFSA 080650Z 36004KT 320V050 CAVOK 22/20 Q1014=
EFUT 080650Z VRB04KT CAVOK 27/17 Q1014=
METAR EFVR 080655Z NIL=
####018000347####
SABX31 EBBR 080650
METAR EBAW 080650Z 27004KT 240V300 CAVOK 23/13 Q1019 NOSIG=
METAR EBBR 080650Z 19004KT CAVOK 24/13 Q1019 NOSIG=
METAR EBCI 080650Z 19005KT CAVOK 23/11 Q1020 NOSIG=
METAR EBLG 080650Z 18007KT CAVOK 23/09 Q1020 NOSIG=
METAR EBOS 080650Z 27006KT CAVOK 19/13 Q1019 NOSIG=
METAR ELLX 080650Z VRB03KT CAVOK 22/09 Q1021 NOSIG=
####018000128####
SAMH31 PKMR 080700
METAR PKMR 080653Z 07012KT 15SM SCT014 BKN050 BKN120 OVC300 27/25
A2978 RMK SHRAB09E34 SLP085 T02680248
####018003675####
SAUS99 KWBC 080656 RRJ
METAR
KSKX 080655Z AUTO 09009KT 10SM CLR 12/04 A3038 RMK AO1=
KSLG 080655Z AUTO 14003KT 10SM CLR 23/22 A3006 RMK AO1=
KSPA 080655Z AUTO 30003KT 10SM CLR 25/23 A3001 RMK AO2=
KSPL 080655Z AUTO 29/25 RMK AO2 PWINO PNO=
KSQI 080655Z 00000KT 6SM FEW012 BKN044 OVC050 22/21 A3004 RMK AO1
     P0002=
KSUE 080655Z AUTO 21004KT 7SM OVC110 21/20 A2999 RMK AO1=
KSUS 080654Z AUTO 00000KT 10SM BKN048 BKN060 24/23 A3002 RMK AO2
     SLP155 T02440233=
KTQE 080654Z AUTO 34006KT 10SM SCT023 19/18 A3012 RMK AO2 SLP188
     T01940178=
KTVF 080655Z AUTO 24007KT 10SM CLR 15/12 A3003 RMK AO1=
KUIN 080654Z AUTO 00000KT 10SM OVC018 23/22 A3005 RMK AO2 RAB00E16
     SLP166 P0000 T02280222=
KUTA 080655Z AUTO 00000KT 10SM CLR 24/22 A3005 RMK AO2=
KUZA 080654Z AUTO 30003KT 10SM CLR 26/17 A3001 RMK AO2 SLP145
     T02560172=
KVBT 080655Z AUTO 15004KT 10SM CLR 24/22 A3002 RMK AO1=
PAAQ 080653Z AUTO 00000KT 10SM FEW090 14/08 A3003 RMK AO2 SLP165
     T01440078 TSNO=
PABE 080653Z 01005KT 10SM FEW080 BKN120 15/08 A3001 RMK AO2 SLP171
     T01500080 PNO $=
PABI 080653Z AUTO 00000KT 10SM CLR 18/07 A3008 RMK AO2 SLP182
     T01830067 TSNO=
PABR 080653Z 26013KT 10SM BKN200 05/03 A2998 RMK AO2 SLP154
     T00500028 $=
PABT 080653Z 32003KT 10SM SCT040 BKN075 BKN200 18/10 A3004 RMK AO2
     SLP179 T01780100=
PACD 080653Z 15008KT 10SM CLR 08/03 A2994 RMK AO2 SLP138
     T00830033=
PACV 080653Z 06008KT 030V100 10SM SCT035 BKN045 OVC065 14/10 A3010
     RMK AO2 RAB0554E40 SLP192 P0001 T01440100=
PADE 080653Z AUTO 27005KT 10SM CLR 11/05 A3014 RMK AO2 SLP207
     T01060050 TSNO=
PADQ 080653Z 34004KT 3SM -RA BR BKN008 OVC012 10/09 A2981 RMK AO2
     SLP095 P0003 T01000089 $=
PAEG 080653Z AUTO 00000KT 10SM CLR 14/08 A2999 RMK AO2 SLP157
     T01390083 TSNO=
PAEN 080653Z AUTO 36010KT 10SM -RA BKN065 BKN090 OVC110 14/12
     A2998 RMK AO2 RAB35 SLP153 P0000 T01440117 TSNO=
PAFA 080653Z 00000KT 10SM FEW070 SCT250 20/09 A3002 RMK AO2 SLP169
     T02000094=
PAGK 080653Z AUTO 06003KT 10SM CLR 12/08 A3007 RMK AO2 SLP187
     T01220083 TSNO=
PAGY 080653Z AUTO 00000KT 10SM CLR 13/11 A3022 RMK AO2 SLP231
     T01280111 TSNO=
PAHO 080653Z AUTO 07007KT 10SM BKN049 OVC060 13/09 A2990 RMK AO2
     SLP126 T01280094 TSNO=
PAIL 080653Z AUTO 36008KT 10SM OVC055 11/09 A2993 RMK AO2 SLP136
     T01110089 TSNO=
PAJN 080653Z 00000KT 10SM CLR 14/11 A3020 RMK AO2 SLP225
     T01390111=
PAKT 080653Z AUTO VRB06KT 10SM CLR 20/12 A3008 RMK AO2 SLP184
     T02000117 TSNO=
PAKV 080653Z AUTO 00000KT 10SM CLR 16/07 A3009 RMK AO2 SLP189
     T01610067 TSNO=
PAKW 080653Z AUTO 20003KT 10SM CLR 13/11 A3012 RMK AO2 SLP199
     T01330106 TSNO=
PALH 080653Z 00000KT 10SM -RA OVC075 15/10 A3003 RMK AO2 RAB43
     SLP169 P0000 T01500100=
PAMC 080653Z 13005KT 10SM SCT040 SCT080 BKN200 17/07 A2998 RMK AO2
     SLP154 T01670072=
PAMR 080653Z 20004KT 10SM OVC080 14/09 A3002 RMK AO2 SLP165
     T01440094=
PANC 080653Z 00000KT 10SM -RA FEW055 BKN070 BKN120 BKN200 13/11
     A3002 RMK AO2 RAB44 SLP165 P0000 T01280111=
PANN 080653Z AUTO 00000KT 10SM CLR 17/11 A3002 RMK AO2 SLP169
     T01720106 TSNO=
PANT 080653Z AUTO 33007KT 10SM CLR 19/12 A3006 RMK AO2 SLP179
     T01890117 TSNO=
PAOM 080653Z 06009KT 10SM FEW070 SCT200 19/09 A3008 RMK AO2 SLP187
     T01890089=
PAOR 080653Z 00000KT 10SM FEW070 SCT140 15/08 A3008 RMK AO2 SLP186
     T01500078=
PAOT 080653Z 28011KT 10SM FEW040 SCT090 SCT210 12/07 A3012 RMK AO2
     SLP199 T01220067=
PAPB 080653Z AUTO 09016KT 9SM FEW012 OVC020 07/07 A2990 RMK AO2
     SLP115 T00720067 TSNO=
####018003749####
SAUS99 KWBC 080656 RRI
METAR
KAWO 080655Z AUTO 00000KT 10SM CLR 18/13 A2996 RMK AO1=
KBFL 080654Z AUTO 33004KT 10SM CLR 26/09 A2982 RMK AO2 SLP089
     T02560094=
KBKX 080655Z AUTO 00000KT 10SM CLR 15/13 A3015 RMK AO1=
KBOW 080655Z AUTO 00000KT 10SM CLR 22/22 A3002 RMK AO2=
KBUY 080654Z AUTO 00000KT 9SM FEW090 24/19 A2999 RMK AO2 PK WND
     15042/0605 SLP145 T02440194 $=
KBVX 080655Z AUTO 00000KT 10SM CLR 25/23 A3006 RMK AO1=
KCEU 080654Z AUTO 00000KT 9SM CLR 25/23 A3005 RMK AO2 SLP161
     T02500228=
KCGC 080655Z AUTO 00000KT 10SM CLR 22/21 A3001 RMK=
KCGZ 080655Z AUTO 00000KT 10SM CLR 31/02 A2978 RMK AO1=
KCIU 080655Z AUTO 16005KT 10SM SCT080 BKN100 OVC120 19/17 A2999
     RMK AO1=
KCOE 080655Z AUTO 05008KT 10SM CLR 17/09 A3007 RMK AO1=
KCVN 080655Z AUTO 35008KT 10SM FEW055 18/14 A3022 RMK AO1=
KCWI 080655Z 10003KT 6SM OVC007 A3003 RMK AO1=
KDEC 080654Z AUTO 00000KT 10SM FEW120 26/22 A3004 RMK AO2 SLP166
     T02560222=
KDSM 080654Z 33007KT 10SM BKN140 OVC200 23/21 A3005 RMK AO2 SLP169
     T02330206=
KDVL 080655Z AUTO 27006KT 10SM CLR 16/12 A3006 RMK AO1=
KDYB 080655Z AUTO 26003KT 10SM CLR 22/21 A2997 RMK AO1=
KDYR 080655Z AUTO 00000KT 10SM CLR 24/21 A3005 RMK AO1=
KEAR 080655Z AUTO 34004KT 10SM CLR 16/14 A3022 RMK AO1=
KECG 080654Z AUTO 09003KT 4SM BR FEW010 26/24 A2995 RMK AO2 SLP140
     T02560244=
KEHR 080655Z AUTO 00000KT 10SM SCT090 23/19 A3005 RMK AO1=
KESC 080655Z AUTO 00000KT 8SM FEW019 20/17 A2997 RMK AO1=
KEUG 080654Z 21011KT 10SM CLR 17/11 A2988 RMK AO2 SLP115
     T01720111=
KEWK 080655Z AUTO 06004KT 10SM FEW100 21/19 A3006 RMK AO1=
KEWN 080654Z AUTO 00000KT 9SM CLR 25/22 A2992 RMK AO2 SLP132
     T02500222=
KFAM 080655Z AUTO 00000KT 10SM CLR 23/22 A3008 RMK AO1=
KFLP 080655Z AUTO 00000KT 10SM FEW025 24/22 A3004 RMK AO1=
KFOD 080655Z AUTO 00000KT 10SM FEW026 19/18 A3010 RMK AO1=
KMRF 080655Z AUTO 05006KT 10SM BKN090 OVC120 19/14 A3017 RMK
     AO1=
KMRY 080654Z AUTO 27003KT 10SM OVC010 13/10 A2994 RMK AO2 SLP150
     T01330100=
KMTW 080655Z 23004KT 8SM FEW027 SCT055 BKN065 22/21 A3000 RMK
     AO1=
KMVN 080655Z AUTO 00000KT 7SM CLR 23/21 A3005 RMK AO1=
KODO 080653Z AUTO 12009KT 4SM RA BR OVC025 22/20 A3009 RMK AO2 LTG
     DSNT NW SLP142 P0019 T02170200=
KOFP 080654Z AUTO 00000KT 7SM CLR 25/19 A2999 RMK AO2 SLP153
     T02500194=
KOLM 080654Z AUTO 00000KT 10SM CLR 19/12 A2992 RMK AO2 SLP131
     T01890122=
KOLU 080655Z AUTO 29004KT 10SM CLR 17/15 A3017 RMK AO1=
KOTG 080655Z AUTO 25003KT 10SM CLR 15/14 A3014 RMK AO1=
KOTH 080655Z 19005KT 10SM OVC008 11/08 A3000 RMK AO1=
KPHF 080654Z 09004KT 3SM BR FEW090 24/23 A2996 RMK AO2 SLP144
     T02440233=
KPIA 080654Z 13003KT 4SM BR FEW060 BKN080 OVC110 23/22 A3003 RMK
     AO2 RAB17E43 SLP163 P0000 T02280217=
KPIB 080655Z AUTO 00000KT 10SM CLR 23/21 A3004 RMK AO1=
KPIL 080653Z AUTO 07007KT 10SM FEW018 SCT023 SCT041 29/26 A2981
     RMK AO2 RAB32E43 SLP092 P0000 T02890256 $=
KPLN 080654Z AUTO 00000KT 10SM OVC100 22/21 A2999 RMK AO2
     TSE04RAB36E46 SLP152 P0000 T02170211=
KPTN 080655Z AUTO 08003KT 10SM CLR 24/M09 A3002 RMK AO1=
KPTV 080655Z AUTO 00000KT 10SM CLR 22/13 A2983 RMK AO1=
KPWT 080655Z AUTO 03011KT 10SM CLR 23/08 A2996 RMK AO1=
KRBD 080653Z VRB04KT 10SM BKN014 25/23 A2999 RMK AO2 SLP148
     T02500233=
KRBL 080654Z AUTO 00000KT 10SM CLR 27/18 A2981 RMK AO2 SLP090
     T02670178=
KRST 080654Z AUTO 33005KT 7SM CLR 20/19 A3007 RMK AO2 SLP175
     T02000189=
KSBY 080654Z AUTO 00000KT 3SM BR FEW006 24/23 A2998 RMK AO2 SLP154
     T02390228=
KSET 080654Z AUTO 00000KT 7SM FEW050 26/25 A3002 RMK AO2 SLP160
     T02560250=
KSGT 080655Z 00000KT 10SM CLR A3004 RMK AO1=
####018003666####
SAUS99 KWBC 080656
METAR
KBGR 080653Z 19007KT 5SM BR OVC003 20/19 A3006 RMK AO2 SLP176
     T02000189=
KBHK 080653Z AUTO 00000KT 10SM CLR 11/09 A3021 RMK AO2 SLP221
     T01060089 402440061=
KBHM 080653Z 02003KT 8SM CLR 25/22 A3006 RMK AO2 SLP170
     T02500222=
KBIL 080653Z 19005KT 10SM CLR 18/05 A3023 RMK AO2 SLP213 T01830050
     402500089=
KBIV 080653Z AUTO 22006KT 4SM HZ FEW001 BKN046 OVC090 26/22 A3006
     RMK AO2 RAE03B34E49 SLP173 P0001 T02560222=
KBKE 080653Z AUTO 00000KT 10SM CLR 11/07 A3009 RMK AO2 SLP171
     T01060067=
KBKL 080653Z 16006KT 8SM CLR 27/19 A3005 RMK AO2 SLP169
     T02670189=
KBLI 080653Z AUTO 00000KT 10SM CLR 18/14 A2993 RMK AO2 SLP141
     T01830144=
KBMG 080653Z AUTO 00000KT 5SM BR FEW090 22/21 A3006 RMK AO2 SLP169
     T02170211=
KBOI 080653Z 12005KT 10SM CLR 21/07 A3002 RMK AO2 SLP139 T02060067
     403170139=
KBPI 080653Z AUTO 00000KT 10SM CLR 11/01 A3037 RMK AO2 SLP203
     T01110006 402220000=
KBRD 080653Z AUTO 18004KT 7SM CLR 15/13 A3007 RMK AO2 SLP182
     T01500133=
KBRL 080653Z AUTO 1 3/4SM BR CLR 23/22 A3002 RMK AO2 SLP160
     T02330222 $=
KBTL 080653Z AUTO 00000KT 10SM CLR 24/21 A3006 RMK AO2 SLP170
     T02390206=
KBTM 080653Z AUTO 00000KT 10SM CLR 11/01 A3030 RMK AO2 SLP220
     T01060006 402220022=
KBUR 080653Z AUTO 15004KT 10SM OVC011 16/13 A2991 RMK AO2 SLP119
     T01610128 TSNO=
KBVO 080653Z AUTO 00000KT 10SM BKN060 OVC090 23/22 A3005 RMK AO2
     SLP164 T02280222=
KBVY 080653Z 16006KT 6SM BR OVC009 23/21 A3004 RMK AO2 SLP167
     T02280211 PNO=
KBYG 080653Z AUTO 24005KT 10SM CLR 11/04 A3032 RMK AO2 SLP231
     T01060044 402000061=
KBYI 080653Z AUTO 00000KT 10SM CLR 11/05 A3010 RMK AO2 SLP159
     T01110050 402720089=
KCAG 080653Z AUTO 08004KT 10SM CLR 12/07 A3030 RMK AO2 SLP200
     T01220072 402830056=
KCDC 080653Z AUTO 14003KT 10SM CLR 17/01 A3012 RMK AO2 SLP120
     T01720006 403170100 $=
KCDR 080653Z AUTO 00000KT 10SM CLR 12/10 A3027 RMK AO2 SLP244
     T01170100 402110106 $=
KCDW 080653Z AUTO 00000KT 7SM CLR 24/21 A3002 RMK AO2 SLP168
     T02440211 TSNO=
KCEZ 080653Z AUTO 13016G27KT 10SM CLR 21/06 A3019 RMK AO2 PK WND
     13031/0609 SLP129 T02110056 403170089=
KCGI 080653Z AUTO 00000KT 8SM CLR 24/24 A3003 RMK AO2 SLP166
     T02440239 TSNO=
KCKB 080653Z AUTO 00000KT 4SM BR CLR 21/19 A3009 RMK AO2 SLP172
     T02060189=
KCLM 080653Z AUTO A2996 RMK AO2 SLPNO PWINO FZRANO $=
KCMI 080653Z AUTO 00000KT 8SM FEW055 BKN070 OVC090 24/23 A3005 RMK
     AO2 LTG DSNT N RAE0559 SLP167 P0000 T02440228=
KCMX 080653Z AUTO 00000KT 9SM OVC002 18/17 A2998 RMK AO2 SLP149
     T01830172=
KCNO 080653Z 28007KT 6SM HZ CLR 15/12 A2993 RMK AO2 SLP130
     T01500122=
KAAF 080653Z AUTO 02004KT 10SM CLR 23/22 A3001 RMK AO2 SLP162
     T02330217=
KABR 080653Z AUTO 23005KT 10SM CLR 16/14 A3012 RMK AO2 SLP195
     T01560139=
KABY 080653Z 00000KT 10SM CLR 22/20 A3005 RMK AO2 SLP172
     T02220200=
KACK 080653Z AUTO 12006KT 1/4SM R24/1800V3500FT FG VV001 19/19
     A3007 RMK AO2 SLP181 T01890189 TSNO=
KADG 080653Z AUTO 00000KT 8SM CLR 23/19 A3006 RMK AO2 SLP172
     T02280194=
KAFW 080653Z 16004KT 10SM FEW019 BKN050 OVC080 27/23 A2999 RMK AO2
     SLP139 T02670228=
KAGC 080653Z 00000KT 6SM HZ CLR 24/18 A3008 RMK AO2 SLP180
     T02440178=
KAIA 080653Z AUTO 21003KT 10SM OVC085 16/14 A3028 RMK AO2 SLP230
     T01560144 401940122 $=
KAKO 080653Z AUTO 13009KT 10SM OVC006 14/14 A3031 RMK AO2 CIG
     002V009 SLP229 T01440139 401830128 TSNO=
KALW 080653Z AUTO 10006KT 10SM CLR 20/09 A2996 RMK AO2 SLP138
     T02000089=
####018000208####
SAMX45 MMMY 080655
METAR MMMY 080644Z 31005KT 15SM  BKN045 24/22 A2990 RMK 8/500=
METAR MMIO 080640Z 00000KT 10SM SKC 18/14 A3014 RMK HZY=
METAR MMNL 080647Z 00000KT 8SM  SKC 27/24 A2990 RMK ISOL CU=
####018003731####
SAUS99 KWBC 080656 RRA
METAR
KAMA 080653Z 04009KT 1SM RA BR SCT016 BKN025 OVC060 17/16 A3019
     RMK AO2 SFC VIS 4 LTG DSNT E TSE11B13E49 SLP174 P0056
     T01670156 $=
KAMW 080653Z AUTO 34007KT 10SM CLR 21/19 A3008 RMK AO2 SLP177
     T02110194=
KAOH 080653Z AUTO 19003KT 9SM 23/19 A3007 RMK AO2 SLP174 T02330189
     $=
KAPA 080653Z 35006KT 10SM FEW010 OVC020 14/13 A3036 RMK AO2 LTG
     DSNT E SLP233 T01440128 401890117 $=
KAPF 080653Z AUTO 06005KT 10SM CLR 25/22 A2997 RMK AO2 SLP147
     T02500222=
KARB 080653Z AUTO 00000KT 6SM BR CLR 21/19 A3004 RMK AO2 SLP165
     T02110194=
KASE 080653Z 20006KT 10SM SCT100 BKN120 08/06 A3040 RMK AO2 SLP187
     T00780056 402330050=
KASX 080653Z AUTO 00000KT 10SM BKN060 19/15 A3002 RMK AO2 SLP162
     T01890150=
KATY 080653Z AUTO 23004KT 10SM CLR 16/14 A3014 RMK AO2 SLP203
     T01560139=
KAUG 080653Z AUTO 16005KT 5SM BR OVC005 21/20 A3007 RMK AO2 SLP180
     T02060200=
KAXN 080653Z AUTO 24005KT 10SM CLR 15/14 A3011 RMK AO2 SLP195
     T01500144=
KAZO 080653Z AUTO 00000KT 5SM HZ CLR 23/20 A3005 RMK AO2 SLP168
     T02330200 $=
KBAF 080653Z 00000KT 9SM CLR 24/21 A3003 RMK AO2 SLP165
     T02390211=
KBBW 080653Z AUTO 32004KT 10SM OVC075 16/15 A3023 RMK AO2 SLP224
     T01610150=
KBCE 080653Z AUTO 29005KT 10SM SCT110 10/02 A3030 RMK AO2 SLP142
     T01000022 402500044 TSNO=
KBDE 080653Z AUTO 23005KT 10SM CLR 16/13 A2999 RMK AO2 SLP156
     T01610133=
KBEH 080653Z AUTO 08003KT 6SM BR SCT055 SCT070 OVC100 23/22 A3003
     RMK AO2 SLP163 T02330222 $=
KBFD 080653Z AUTO 00000KT 5SM BR CLR 17/16 A3015 RMK AO2 SLP191
     T01720161=
KBFF 080653Z AUTO 00000KT 10SM FEW049 OVC075 16/13 A3029 RMK AO2
     SLP229 T01610128 401890128=
KBFI 080653Z 31003KT 10SM CLR 24/12 A2992 RMK AO2 SLP133
     T02390117=
KBGM 080653Z AUTO 00000KT 6SM HZ CLR 24/18 A3011 RMK AO2 SLP182
     T02390178=
KEMP 080653Z AUTO 01005KT 10SM CLR 22/19 A3008 RMK AO2 SLP175
     T02170194=
KENW 080653Z AUTO 19008KT 8SM -RA FEW014 BKN043 OVC085 23/22 A3005
     RMK AO2 LTG DSNT E TSB25E40RAB44 SLP169 P0001 T02330217 $=
KEPH 080653Z AUTO 32005KT 10SM CLR 23/06 A2999 RMK AO2 SLP146
     T02280056=
KEVW 080653Z AUTO 09016KT 10SM CLR 13/04 A3026 RMK AO2 SLP166
     T01330039 402390078 TSNO=
KEWB 080653Z AUTO 14004KT 10SM SCT008 OVC029 23/21 A3006 RMK AO2
     SLP177 T02280206=
KEYE 080653Z AUTO 00000KT 9SM CLR 24/21 A3006 RMK AO2 SLP169
     T02440206=
KEYW 080653Z AUTO 08003KT 10SM CLR 28/25 A2993 RMK AO2 SLP136
     T02830250=
KFCM 080653Z AUTO 33006KT 10SM CLR 21/17 A3006 RMK AO2 SLP176
     T02060167=
KFDY 080653Z AUTO 19003KT 9SM CLR 22/18 A3006 RMK AO2 SLP168
     T02170183=
KFFT 080653Z AUTO 00000KT 5SM BR CLR 22/21 A3007 RMK AO2 SLP173
     T02220206=
KFHR 080653Z AUTO 00000KT 10SM CLR 14/11 A2995 RMK AO2 SLP141
     T01440111=
KFLD 080653Z AUTO 00000KT 7SM -RA FEW055 OVC080 22/21 A3002 RMK
     AO2 RAB13 SLP159 P0002 T02220206=
KFLL 080653Z 07009KT 10SM FEW021 SCT029 SCT049 28/24 A2993 RMK AO2
     SLP135 T02830244=
KFMY 080653Z AUTO 06005KT 10SM CLR 24/22 A2997 RMK AO2 SLP149
     T02440222=
KFNB 080653Z AUTO 31003KT 9SM FEW037 22/21 A3007 RMK AO2 SLP173
     T02220206=
KFNT 080653Z AUTO 00000KT 9SM CLR 24/22 A3004 RMK AO2 SLP166
     T02390217=
KFOE 080653Z AUTO 05010KT 5SM -RA BR FEW003 OVC020 22/21 A3008 RMK
     AO2 SLP174 P0031 T02170206=
KFOK 080653Z AUTO 12004KT 3/4SM BR OVC001 24/22 A3005 RMK AO2
     SLP175 T02390222 TSNO=
KFPR 080653Z AUTO 08003KT 10SM CLR 26/22 A2997 RMK AO2 SLP148
     T02610222=
KFRG 080653Z AUTO 00000KT 5SM BR BKN095 BKN110 26/24 A3002 RMK AO2
     SLP165 T02560244=
####018000380####
SAMX42 MMGL 080655
METAR MMGL 080647Z 17004KT 10SM  BKN080 OVC300 19/17 A3003 RMK 8/077=
METAR MMLO 080645Z 00000KT 6SM  BKN025 OVC070 18/18 A3012 
      RMK 8/77/ OCNL DROPS=
METAR MMPR 080648Z 00000KT 10SM  SCT025 BKN070 BKN230 25/23 A2982 
      RMK 8/478=
METAR MMSP 080647Z 00000KT 10SM  SCT010 SCT015 BKN200 17/17 A3016 
      RMK 8/463 OCNL DOPS MSGTX MMZC=
####018000596####
SANO32 ENMI 080650
METAR ENAL 080650Z 16005KT 9999 SCT050 16/11 Q1008=
METAR ENCN 080650Z 21006KT 8000 -RA FEW002 BKN006 16/15 Q1015=
METAR ENHD 080650Z 18010KT 9999 FEW008 16/13 Q1012=
METAR ENRO 080650Z 18008G18KT 110V240 9999 SCT027 BKN050 15/09
           Q1011=
METAR ENRY 080650Z 19008KT 150V230 8000 SCT005 BKN015 16/15 Q1016
           TEMPO SCT007 BKN010=
METAR ENSB 080650Z 35002KT 9999 FEW015 SCT035 BKN060 08/05 Q1008
           NOSIG =
METAR ENTC 080650Z 03003KT 320V080 9999 BKN070 13/08 Q1011 NOSIG =
METAR ENTO 080650Z 22005KT 4000 BR VCSH SCT007 BKN010 16/15 Q1016=
####018000556####
SANO31 ENMI 080650
METAR ENAN 080650Z 16009KT 9999 FEW045 SCT070 14/09 Q1010 NOSIG =
METAR ENBR 080650Z 17012KT 9999 FEW008 BKN060 15/12 Q1012 NOSIG =
METAR ENBO 080650Z VRB01KT CAVOK 16/09 Q1010 NOSIG=
METAR ENDU 080650Z VRB01KT 9999 -RA FEW050 BKN080 15/09 Q1011 NOSIG=
METAR ENGM 080644Z 19008KT 9999 FEW008 SCT015 BKN020 15/13 Q1015
           TEMPO BKN014=
METAR ENOL 080650Z 10003KT 9999 FEW020 SCT090 16/12 Q1009 NOSIG=
METAR ENVA 080650Z 25005KT CAVOK 16/13 Q1009 NOSIG =
METAR ENZV 080650Z 20009KT 9999 FEW010 SCT015 16/13 Q1013 NOSIG=
####018000353####
SANO37 ENMI 080650
METAR ENNO 080650Z NIL=
METAR ENOV 080650Z VRB05KT 9999 SCT055 SCT085 17/06 Q1009 =
METAR ENSD 080650Z NIL=
METAR ENSG 080650Z VRB01KT 9999 VCSH SCT040 SCT160 13/11 Q1011=
METAR ENSN 080650Z 19006KT 4000 RA VV006 15/14 Q1015=
METAR ENSR 080650Z 15010KT CAVOK 17/09 Q1012=
METAR ENSS 080650Z 31009KT 9999 BKN003 09/08 Q1017 =
####018000093####
SALI20 GLRB 080700 COR
METAR GLRB 080700Z 00000KT 9999 BKN012 FEW024CB 24/23 Q1014 CB-SW=
####018000081####
SABZ20 SBEG 080700
METAR SBEG 080700Z 00000KT 9999 FEW010 SCT100 25/22 Q1012=
####018000088####
SABZ21 SBPS 080700
METAR SBPS 080700Z 27002KT 4000 -RA BR BKN005 BKN100 18/18 Q1018=
####018000369####
SAOS31 LOWM 080650
METAR LOWW 080650Z 34003KT 290V030 CAVOK 17/11 Q1024 NOSIG=
METAR LOWL 080650Z 06004KT 030V110 CAVOK 17/10 Q1024 NOSIG=
METAR LOWS 080650Z 15008KT 110V180 CAVOK 17/09 Q1023 NOSIG=
METAR LOWI 080650Z VRB01KT CAVOK 17/12 Q1024 NOSIG=
METAR LOWG 080650Z 00000KT CAVOK 18/12 Q1024 NOSIG=
METAR LOWK 080650Z VRB01KT 9999 FEW050 16/11 Q1024 NOSIG=
####018000897####
SAUS99 KWBC 080656 RRK
METAR
PASC 080653Z 20007KT 10SM FEW028 OVC060 10/08 A3001 RMK AO2 SLP162
     SML THN SPTS INOVC T01000078=
PASI 080653Z 00000KT 10SM CLR 14/12 A3018 RMK AO2 SLP220
     T01440122=
PASN 080653Z AUTO 08011KT 10SM OVC007 06/05 A2993 RMK AO2 CIG
     005V010 SLP136 T00610050 TSNO=
PASO 080653Z AUTO 00000KT 10SM OVC065 11/11 A2989 RMK AO2
     RAB0557E07 SLP121 P0000 T01110106 TSNO=
PATK 080653Z AUTO 17003KT 10SM BKN090 OVC100 18/10 A3002 RMK AO2
     SLP168 T01780100 TSNO=
PATO 080653Z AUTO 13010G23KT 4SM RA BR SCT031 OVC042 12/11 A3003
     RMK AO2 PK WND 14031/0559 SLP169 P0029 T01220106 TSNO=
PAWD 080653Z AUTO 20003KT 2 1/2SM -RA BR SCT003 BKN008 OVC055
     10/09 A2999 RMK AO2 VIS 1 3/4V5 SLP154 P0008 T01000094
     TSNO=
PAYA 080653Z 00000KT 10SM FEW090 SCT200 12/10 A3020 RMK AO2 SLP226
     BAY TWR WND 160MMKT T01220100=
####018000074####
SABZ20 SBSL 080700
METAR SBSL 080700Z 08002KT 9999 SCT017 26/24 Q1012=
####018000291####
SANO38 ENMI 080650
METAR ENDR 080650Z NIL=
METAR ENEK 080650Z NIL=
METAR ENGC 080650Z 18028KT 9999 FEW010 SCT060 13/11 Q1006=
METAR ENHE 080650Z 19019KT 9999 FEW015 SCT030 14/11 Q1008=
METAR ENOA 080650Z 19023KT 9999 FEW050 13/11 Q1008=
METAR ENSL 080650Z 22024KT CAVOK 14/11 Q1010=
####018003704####
SAUS70 KWBC 080700 RRE
METAR
KFWN 080653Z AUTO 00000KT 4SM BR CLR 22/21 A3004 RMK AO2 SLP167
     T02220211=
KGAG 080653Z AUTO 04008KT 10SM SCT028 BKN034 23/19 A3012 RMK AO2
     SLP171 T02280194=
KGEY 080653Z AUTO 11004KT 10SM CLR 15/03 A3024 RMK AO2 SLP215
     T01500028 402560067=
KGEZ 080653Z AUTO 00000KT 6SM BR CLR 22/20 A3005 RMK AO2 SLP169
     T02170200=
KGFK 080653Z 26006KT 10SM CLR 16/12 A3003 RMK AO2 SLP167
     T01610122=
KGFL 080653Z AUTO 00000KT 1 1/2SM BR CLR 22/21 A3001 RMK AO2
     SLP159 T02170211=
KCPR 080653Z AUTO 00000KT 10SM CLR 06/05 A3032 RMK AO2 SLP239
     T00610050 402060039=
KCPS 080653Z AUTO 15003KT 10SM CLR 24/22 A3003 RMK AO2 SLP163
     T02440222=
KCRE 080653Z AUTO 30004KT 10SM SCT110 27/21 A2993 RMK AO2 SLP135
     T02720206=
KCSM 080653Z AUTO 02004KT 10SM CLR 23/20 A3010 RMK AO2 SLP166
     T02280200=
KCYS 080653Z AUTO 12005KT 1SM BR OVC002 12/12 A3036 RMK AO2 SLP235
     T01170117 401220094 TSNO RVRNO=
KDAG 080653Z AUTO 25009KT 10SM CLR 27/00 A2984 RMK AO2 SLP075
     T02720000 TSNO $=
KDEN 080653Z 00000KT 4SM BR OVC080 15/14 A3033 RMK AO2 SLP212 OCNL
     LTGICCC DSNT SE CB DSNT SE MOV NE T01500144 401940133 $=
KDET 080653Z 00000KT 10SM CLR 26/21 A3004 RMK AO2 SLP164 T02610211
     $=
KDEW 080653Z AUTO 02004KT 10SM CLR 14/09 A3006 RMK AO2 SLP169
     T01390089=
KDFI 080653Z AUTO 00000KT 8SM CLR 22/19 A3005 RMK AO2 SLP171
     T02220189=
KDGW 080653Z AUTO 00000KT 10SM CLR 09/07 A3033 RMK AO2 SLP241
     T00890072 402000072 $=
KDKK 080653Z AUTO 00000KT 9SM BKN090 21/19 A3007 RMK AO2 SLP176
     T02060189=
KDLN 080653Z AUTO 24004KT 10SM CLR 08/04 A3026 RMK AO2 SLP214
     T00830044 402280039=
KDLS 080653Z AUTO 10005KT 10SM CLR 21/04 A2992 RMK AO2 SLP130
     T02060044=
KDMO 080653Z AUTO 18004KT 10SM -RA FEW016 BKN047 BKN055 24/22
     A3005 RMK AO2 RAB05 SLP166 P0000 T02390222=
KDNL 080653Z AUTO VRB03KT 10SM CLR 27/17 A3002 RMK AO2 SLP159
     T02670172=
KDRO 080653Z AUTO 08005KT 10SM CLR 16/05 A3030 RMK AO2 LTG DSNT N
     AND NE RAB0554E06 SLP167 P0000 T01610050 403000122=
KDTN 080653Z AUTO 00000KT 10SM CLR 25/24 A3000 RMK AO2 SLP156
     T02500239=
KDTW 080653Z 00000KT 6SM HZ SCT150 25/21 A3004 RMK AO2 SLP165
     T02500211=
KDVT 080653Z 00000KT 10SM CLR 31/01 A2977 RMK AO2 SLP051 T03110011
     404060222=
KDXR 080653Z AUTO 12003KT 7SM CLR 23/22 A3005 RMK AO2 SLP170
     T02330217=
KECP 080653Z AUTO 32003KT 6SM BR CLR 23/23 A3002 RMK AO2 SLP177
     T02330228=
KEEO 080653Z AUTO 10SM FEW110 13/08 A3030 RMK AO2 SLP180 T01280078
     402720061 $=
KEET 080653Z AUTO 00000KT 7SM OVC070 27/21 A3004 RMK AO2 SLP163
     T02670211=
KELD 080653Z AUTO 00000KT 5SM BR CLR 23/23 A3002 RMK AO2 SLP162
     T02280228=
KELM 080653Z AUTO 24003KT 4SM BR CLR 18/17 A3008 RMK AO2 SLP177
     T01780167=
KELN 080653Z AUTO 00000KT 10SM CLR 18/07 A3003 RMK AO2 SLPNO
     T01830067 $=
KMSY 080653Z 08003KT 10SM FEW250 27/23 A3000 RMK AO2 SLP162
     T02670233=
KHYR 080653Z AUTO 00000KT 10SM OVC049 18/17 A3004 RMK AO2 RAB38E52
     SLP166 P0000 T01830167=
KHZY 080653Z AUTO 00000KT 4SM BR CLR 19/18 A3008 RMK AO2 SLP179
     T01940183=
KICR 080653Z AUTO 24004KT 10SM BKN120 18/13 A3020 RMK AO2 SLPNO
     T01830133 TSNO=
KICT 080653Z 01005KT 10SM BKN025 BKN070 BKN200 23/21 A3009 RMK AO2
     SLP175 T02280206 $=
KIDA 080653Z AUTO 02006KT 10SM CLR 12/06 A3017 RMK AO2 SLP186
     T01170061 402610056=
KILM 080653Z AUTO 00000KT 10SM CLR 25/22 A2991 RMK AO2 SLP128
     T02500217=
KIML 080653Z AUTO 34003KT 10SM BKN025 OVC032 17/15 A3027 RMK AO2
     SLP231 T01720150 402170150=
####018003735####
SAUS70 KWBC 080700
METAR
KPMV 080650Z AUTO 31005KT 5SM BR CLR 21/20 A3011 RMK AO2
     T02050197=
KACV 080653Z AUTO 00000KT 6SM BR OVC003 11/10 A2996 RMK AO2 SLP151
     T01060100=
KAGS 080653Z AUTO 00000KT 10SM CLR 23/20 A3000 RMK AO2 SLP156
     T02280200 TSNO=
KALI 080653Z AUTO 05006KT 10SM BKN080 26/25 A2986 RMK AO2 SLP109
     T02610250=
KANB 080653Z AUTO 00000KT 10SM CLR 23/21 A3005 RMK AO2 SLP164
     T02280206=
KAOO 080653Z AUTO 00000KT 4SM HZ CLR 19/17 A3010 RMK AO2 SLP179
     T01940167=
KARA 080653Z AUTO 09003KT 10SM CLR 25/24 A3000 RMK AO2 SLP158
     T02500239=
KASD 080653Z AUTO 05003KT 10SM CLR 25/24 A3001 RMK AO2 SLP161
     T02500239=
KAUS 080653Z 05005KT 10SM BKN014 OVC029 26/23 A2996 RMK AO2 SLP131
     T02610233=
KAWM 080653Z AUTO 00000KT 10SM CLR 24/23 A3004 RMK AO2 SLP166
     T02440228=
KBFM 080653Z AUTO 00000KT 10SM CLR 24/23 A3004 RMK AO2 SLP172
     T02440233=
KBMQ 080653Z AUTO 13006KT 10SM SCT015 BKN023 OVC040 25/22 A3001
     RMK AO2 SLP143 T02500217 $=
KBNA 080653Z 00000KT 10SM FEW095 27/21 A3007 RMK AO2 SLP174
     T02720211=
KBPK 080653Z AUTO 16003KT 9SM FEW023 24/22 A3005 RMK AO2 SLP165
     T02390222=
KBPT 080653Z 09010KT 10SM SCT026 27/24 A2995 RMK AO2 SLP141
     T02670239 $=
KBRO 080653Z 29003KT 10SM FEW050 27/25 A2981 RMK AO2 SLP093
     T02670250=
KBWG 080653Z AUTO 00000KT 10SM CLR 25/21 A3007 RMK AO2 SLP174
     T02500206=
KCCR 080653Z AUTO 25007KT 10SM CLR 13/10 A2991 RMK AO2 SLP113
     T01330100=
KCDS 080653Z AUTO 35003KT 10SM CLR 23/21 A3008 RMK AO2 SLP160
     T02280211=
KCHO 080653Z AUTO 00000KT 5SM HZ CLR 24/20 A3001 RMK AO2 SLP153
     T02390200 TSNO=
KCNM 080653Z AUTO 06005KT 10SM BKN060 BKN090 OVC120 22/19 A3012
     RMK AO2 SLP144 T02170194 403170194=
KCOT 080653Z AUTO 05004KT 10SM BKN021 25/22 A2991 RMK AO2 SLP120
     T02500222=
KCRS 080653Z AUTO 16005KT 10SM OVC013 26/24 A2998 RMK AO2 SLP146
     T02560239=
KCSV 080653Z AUTO 00000KT 10SM CLR 22/17 A3014 RMK AO2 SLP182
     T02170172=
KCXO 080653Z 00000KT 9SM FEW050 24/24 A2996 RMK AO2 SLP141
     T02440239=
KDAN 080653Z AUTO 00000KT 6SM HZ FEW095 23/20 A3000 RMK AO2 SLP145
     T02330200=
KDCU 080653Z AUTO 00000KT 10SM CLR 24/21 A3007 RMK AO2 SLP173
     T02390211=
KDEQ 080653Z AUTO 00000KT 10SM BKN007 OVC010 24/23 A3002 RMK AO2
     SLP160 T02440233=
KDFW 080653Z 15006KT 10SM BKN016 OVC070 26/23 A2999 RMK AO2 SLP146
     T02610233=
KDHT 080653Z AUTO 17008KT 10SM FEW011 OVC050 19/16 A3024 RMK AO2
     SLP191 T01890161=
KDTO 080653Z AUTO 17005KT 10SM FEW050 26/23 A3000 RMK AO2 SLP147
     T02610228=
KDWH 080653Z 05004KT 8SM CLR 25/24 A2994 RMK AO2 SLP137
     T02500239=
KEQY 080653Z AUTO 27004KT 10SM CLR 24/19 A3000 RMK AO2 SLP152
     T02390189=
KESF 080653Z AUTO 00000KT 10SM CLR 23/22 A3001 RMK AO2 SLP160
     T02330222=
KFAY 080653Z AUTO 32006KT 10SM FEW100 29/17 A2993 RMK AO2 SLP128
     T02890167=
KFDR 080653Z AUTO 05005KT 10SM 24/23 A3000 RMK AO2 SLP141
     T02390228=
KFFC 080653Z AUTO 00000KT 8SM CLR 22/20 A3005 RMK AO2 SLP167
     T02170200=
KFSM 080653Z AUTO 10003KT 10SM CLR 24/22 A3003 RMK AO2 SLP161
     T02440222=
KFST 080653Z AUTO 10006KT 10SM FEW050 BKN110 22/19 A3006 RMK AO2
     SLP131 T02220194=
KFTY 080653Z 00000KT 10SM CLR 23/18 A3005 RMK AO2 SLP163
     T02280183=
KFYV 080653Z AUTO 00000KT 10SM CLR 23/22 A3006 RMK AO2 SLP163
     T02280217=
KGGG 080653Z AUTO 11003KT 10SM CLR 25/24 A3000 RMK AO2 SLP152
     T02500244=
KGLH 080653Z AUTO 00000KT 7SM CLR 23/23 A3004 RMK AO2 SLP177
     T02280228=
KGMU 080653Z AUTO 29003KT 10SM CLR 26/19 A3004 RMK AO2 SLP159
     T02610189=
####018003746####
SAUS70 KWBC 080700 RRG
METAR
KHLN 080653Z AUTO 00000KT 10SM CLR 14/05 A3023 RMK AO2 SLP230
     T01390050 402560067=
KHQM 080653Z AUTO 07005KT 10SM 19/13 A2990 RMK AO2 SLP127
     T01940133 $=
KHRI 080653Z AUTO 00000KT 10SM CLR 18/08 A2992 RMK AO2 SLP127
     T01830083=
KHUF 080653Z 00000KT 6SM BR FEW090 23/21 A3005 RMK AO2 SLP168
     T02330211 $=
KHUL 080653Z AUTO 21005KT 7SM CLR 22/18 A3000 RMK AO2 SLP156
     T02170183=
KHVN 080653Z AUTO 00000KT 4SM HZ OVC008 24/22 A3003 RMK AO2 SLP170
     T02440222=
KHWO 080653Z AUTO 07004KT 10SM CLR 25/23 A2995 RMK AO2 SLP143
     T02500233=
PHJR 080653Z VRB03KT 10SM FEW060 24/18 A3003 RMK AO2 SLP176
     T02390183=
KSGR 080653Z AUTO 07003KT 8SM CLR 26/24 A2992 RMK AO2 SLP139
     T02560239 TSNO=
KLSE 080653Z AUTO 32005KT 10SM CLR 22/19 A3001 RMK AO2 SLP153
     T02220194=
KLUK 080653Z AUTO 00000KT 2 1/2SM BR CLR 23/22 A3008 RMK AO2
     SLP179 T02280217=
KLVM 080653Z AUTO 00000KT 10SM CLR 09/04 A3027 RMK AO2 SLP225
     T00940039 402390017=
KLWV 080653Z AUTO 00000KT 6SM HZ FEW085 26/22 A3003 RMK AO2 SLP165
     T02560222=
KLXT 080653Z AUTO 00000KT 10SM SCT080 BKN110 23/22 A3006 RMK AO2
     SLP169 T02330217=
KMBS 080653Z 18004KT 10SM CLR 25/22 A3002 RMK AO2 SLP161
     T02500222=
KMCI 080653Z 32005KT 8SM SCT110 OVC130 22/22 A3007 RMK AO2 SLP173
     T02220222 $=
KMCK 080653Z AUTO 32005KT 10SM FEW120 16/16 A3023 RMK AO2 SLP224
     T01610156=
KMCO 080653Z 00000KT 10SM CLR 22/20 A3000 RMK AO2 SLP159
     T02220200=
KMCW 080653Z AUTO 32004KT 10SM CLR 19/18 A3009 RMK AO2 SLP180
     T01890183 $=
KMFR 080653Z AUTO 09003KT 10SM CLR 27/12 A2987 RMK AO2 SLP099
     T02670117=
KMGY 080653Z AUTO 00000KT 7SM CLR 24/19 A3008 RMK AO2 SLP175
     T02440194=
KMHE 080653Z AUTO 25004KT 10SM CLR 18/14 A3016 RMK AO2 SLP210
     T01780144 TSNO=
KMHT 080653Z 14004KT 7SM -RA BKN060 24/22 A3003 RMK AO2 RAB53
     SLP175 P0000 T02440217=
KMIA 080653Z 04004KT 10SM FEW030 SCT250 28/24 A2994 RMK AO2 SLP137
     T02780244=
KMIC 080653Z 31004KT 10SM CLR 20/17 A3005 RMK AO2 SLP172
     T02000167=
KMIE 080653Z AUTO 00000KT 10SM CLR 25/19 A3007 RMK AO2 SLP169
     T02500194=
KMIW 080653Z AUTO 32007KT 10SM CLR 20/19 A3005 RMK AO2 SLP171
     T02000194=
KMKO 080653Z AUTO 07003KT 10SM FEW009 BKN019 OVC055 23/23 A3003
     RMK AO2 LTG DSNT N AND W TSE37RAE05 SLP162 P0000
     T02330228=
KMLB 080653Z AUTO 08003KT 10SM CLR 26/22 A2998 RMK AO2 SLP152
     T02560217=
KMLC 080653Z AUTO 00000KT 10SM CLR 24/23 A3002 RMK AO2 SLP158
     T02390228=
KMLP 080653Z AUTO 12005KT 10SM CLR 14/M01 A3027 RMK AO2 SLP158
     T01441011 TSNO=
KMLS 080653Z AUTO 00000KT 10SM FEW090 16/09 A3019 RMK AO2 SLP212
     T01610094 402670094=
KMLT 080653Z AUTO VRB03KT 7SM CLR 21/19 A3004 RMK AO2 SLP175
     T02110189=
KMMK 080653Z AUTO 00000KT 3SM BR FEW085 23/22 A3004 RMK AO2 SLP169
     T02330217=
KMMV 080653Z AUTO 35004KT 10SM CLR 22/12 A2985 RMK AO2 SLP107
     T02220117=
KMNN 080653Z AUTO 00000KT 9SM CLR 22/19 A3008 RMK AO2 SLP180
     T02170189=
KMOD 080653Z AUTO 36008KT 10SM CLR 19/10 A2982 RMK AO2 SLP097
     T01940100=
KMPO 080653Z AUTO 00000KT 6SM BR CLR 20/18 A3011 RMK AO2 SLP180
     T02000178=
KMSO 080653Z AUTO 35004KT 10SM CLR 14/06 A3017 RMK AO2 SLP200
     T01440061 402830061 $=
KMSP 080653Z 31006KT 10SM FEW090 21/17 A3006 RMK AO2 SLP176
     T02060172=
KMSS 080653Z AUTO 22004KT 7SM CLR 24/21 A3000 RMK AO2 SLP156
     T02390206=
KMTH 080653Z AUTO 04009KT 10SM FEW034 27/24 A2993 RMK AO2 SLP133
     T02720239=
KMTJ 080653Z AUTO 25003KT 10SM CLR 19/06 A3026 RMK AO2 PK WND
     33026/0559 SLP155 T01890056 403000122=
####018000068####
SABZ22 SBCY 080700
METAR SBCY 080700Z 03004KT CAVOK 20/14 Q1013=
####018000095####
SAAF31 KWBC 080600 RRE
METAR
DNMM 080630Z 00000KT 5000 BR FEW007 23/23 Q1015 TEMPO 3000=
####018000227####
SAPQ50 KWBC 080700
METAR
PGUM 080654Z 09012G19KT 10SM FEW024 SCT031 30/24 A2985 RMK AO2
     SLP098 T03000239=
PKMR 080653Z 07012KT 15SM SCT014 BKN050 BKN120 OVC300 27/25 A2978
     RMK SHRAB09E34 SLP085 T02680248=
####018000343####
SANO34 ENMI 080650
METAR ENBN 080650Z 34005KT CAVOK 17/10 Q1009=
METAR ENBV 080650Z VRB02KT 9999 SCT008 BKN017 11/09 Q1016=
METAR ENDI 080650Z NIL=
METAR ENFG 080650Z 2009KT 9999 FEW015 BKN150 14/09 Q1013=
METAR ENHF 080650Z NIL=
METAR ENRA 080650Z 36002KT 9999 BKN070 17/11 Q1009=
METAR ENSH 080650Z 20004KT 9999 FEW040 16/10 Q1010=
####018003721####
SAUS70 KWBC 080700 RRB
METAR
KHOT 080653Z AUTO 00000KT 10SM BKN006 24/23 A3006 RMK AO2 CIG
     005V010 SLP172 T02390228=
KHOU 080653Z 11009KT 10SM FEW034 BKN130 BKN250 28/23 A2992 RMK AO2
     RAB08E17 SLP137 P0000 T02780233=
KHRO 080653Z AUTO 00000KT 7SM FEW034 23/22 A3007 RMK AO2 SLP169
     T02330222=
KIAH 080653Z 08006KT 10SM FEW020 BKN130 BKN250 26/24 A2994 RMK AO2
     SLP138 T02560244=
KIBM 080650Z AUTO 13003KT 10SM OVC020 12/11 A3032 RMK AO2
     T01220111 401370086=
KINK 080653Z AUTO 10007KT 10SM FEW036 SCT050 BKN060 23/19 A3006
     RMK AO2 RAB32E41 SLP133 P0000 T02330189 TSNO=
KJCT 080651Z AUTO 00000KT 10SM CLR 23/22 A3001 RMK AO2 RAE0559
     SLP122 P0000 T02330217 TSNO=
KJWG 080652Z AUTO 01005KT 10SM BKN080 23/23 A3009 RMK AO2=
KJYR 080650Z AUTO 36005KT 10SM CLR 17/16 A3016 RMK AO2=
KLCG 080650Z AUTO 00000KT 10SM CLR 16/15 A3016 RMK AO2
     T01600150=
KLBX 080653Z AUTO 12005KT 10SM SCT025 BKN037 OVC060 27/25 A2990
     RMK AO2 SLP125 T02720250=
KLCH 080653Z AUTO 08006KT 10SM CLR 26/23 A2997 RMK AO2 SLP158
     T02560233=
KLFK 080653Z AUTO 11003KT 10SM CLR 24/23 A2999 RMK AO2 SLP150
     T02440233=
KLFT 080653Z AUTO 00000KT 10SM CLR 25/23 A3000 RMK AO2 SLP157
     T02500233=
KLHM 080651Z AUTO 18006KT 10SM CLR 20/12 A2980 RMK AO1
     T02030118=
KLLQ 080653Z AUTO 00000KT 8SM CLR 23/22 A3006 RMK AO2 SLP175
     T02330222=
KLOL 080653Z AUTO 18003KT 10SM CLR 23/M05 A2996 RMK AO2 SLP095
     T02331050=
KLVJ 080653Z AUTO 11007KT 10SM FEW028 28/23 A2993 RMK AO2 SLP136
     T02780228=
KLVK 080653Z AUTO 29010KT 10SM CLR 13/11 A2990 RMK AO2 SLP122
     T01330106=
KLVS 080653Z AUTO 02005KT 10SM CLR 12/09 A3037 RMK AO2 SLP188
     T01170094 402390094 TSNO=
KLXN 080650Z AUTO 32003KT 10SM CLR 15/15 A3022 RMK AO2
     T01520145=
KMAE 080653Z AUTO 31006KT 10SM CLR 22/12 A2982 RMK AO2 SLP095
     T02170122=
KMAF 080653Z AUTO 09003KT 10SM FEW047 BKN110 22/20 A3008 RMK AO2
     LTG DSNT NW SLP140 T02170200=
KMCB 080653Z AUTO 00000KT 10SM CLR 23/22 A3004 RMK AO2 SLP165
     T02280217=
KMCE 080653Z AUTO 31005KT 10SM CLR 21/10 A2982 RMK AO2 SLP096
     T02060100=
KMEM 080653Z 00000KT 10SM SCT250 26/22 A3005 RMK AO2 SLP172
     T02560222=
KMFE 080653Z AUTO 36008KT 10SM FEW022 SCT028 BKN035 27/24 A2983
     RMK AO2 SLP101 T02670244=
PATA 080652Z AUTO 00000KT 10SM CLR 21/07 A3004 RMK AO2 SLP175
     T02110072 TSNO=
PHJR 080653Z VRB03KT 10SM FEW060 24/18 A3003 RMK AO2 SLP176
     T02390183=
KSIY 080653Z AUTO 10008KT 10SM CLR 28/06 A2994 RMK AO2 TSE01
     SLP116 T02780061 $=
KSMF 080653Z 16008KT 10SM CLR 17/11 A2981 RMK AO2 SLP093
     T01720106=
KSNS 080653Z AUTO 32005KT 10SM OVC013 13/11 A2993 RMK AO2 SLP145
     T01330106=
KSSF 080653Z AUTO 07006KT 10SM FEW015 26/23 A2993 RMK AO2 SLP122
     T02610228=
KSTS 080653Z AUTO 00000KT 10SM OVC008 12/10 A2992 RMK AO2 SLP125
     T01220100=
KSUN 080651Z AUTO 31007KT 10SM CLR 13/02 A3022 RMK AO2=
KSZT 080650Z AUTO 00000KT 10SM CLR 12/10 A3008 RMK AO2=
KTCL 080653Z AUTO 00000KT 7SM CLR 24/23 A3003 RMK AO2 SLP167
     T02440228=
KTIF 080650Z AUTO 00000KT 10SM OVC080 16/14 A3026 RMK AO2
     T01570141=
KTRK 080650Z AUTO 00000KT 10SM SCT120 14/08 A3015 RMK AO2=
KTRL 080653Z AUTO 00000KT 10SM BKN017 BKN026 27/22 A3000 RMK AO2
     SLP151 T02670222=
KTVL 080653Z AUTO 19003KT 10SM CLR 14/07 A3016 RMK AO2 SLP145
     T01390067=
KTVR 080653Z AUTO 00000KT 1/2SM FG CLR 23/22 A3003 RMK AO2 SLP175
     T02280217 $=
KUTS 080653Z AUTO 00000KT 8SM CLR 24/23 A2998 RMK AO2 SLP145
     T02440233=
KVCB 080653Z AUTO 23005KT 10SM CLR 22/09 A2981 RMK AO2 SLP092
     T02170094=
####018003718####
SAUS70 KWBC 080700 RRJ
METAR
KTWF 080653Z AUTO 14007KT 10SM CLR 15/M01 A3010 RMK AO2 SLP140
     T01501011 402940061=
KTXK 080653Z AUTO 00000KT 10SM SCT007 23/23 A3003 RMK AO2 SLP162
     T02330233=
KTYR 080653Z AUTO 00000KT 10SM FEW006 24/24 A3002 RMK AO2 SLP156
     T02440239=
KUAO 080653Z AUTO 36007KT 10SM CLR 24/11 A2985 RMK AO2 SLP107
     T02390106=
KUNO 080653Z AUTO 00000KT 10SM CLR 24/21 A3007 RMK AO2 SLP169
     T02440211 TSNO=
KUUU 080653Z AUTO 13004KT 9SM SCT015 BKN029 22/21 A3007 RMK AO2
     SLP178 T02220211=
KVEL 080653Z AUTO 34005KT 10SM CLR 17/04 A3020 RMK AO2 SLP166
     T01720044 402830139=
KVGT 080653Z AUTO 33004KT 10SM CLR 29/M06 A2982 RMK AO2 SLP059
     T02941056 TSNO=
KVIH 080653Z AUTO 00000KT 7SM FEW036 BKN049 OVC060 23/22 A3006 RMK
     AO2 LTG DSNT NW SLP164 T02330222=
KVPZ 080653Z AUTO 00000KT 8SM CLR 23/22 A3004 RMK AO2 SLP165
     T02330217=
KVRB 080653Z AUTO 07003KT 10SM CLR 25/22 A2997 RMK AO2 SLP148
     T02500217=
KVUO 080653Z AUTO 00000KT 10SM CLR 21/15 A2985 RMK AO2 SLP109
     T02110150=
KWRL 080653Z AUTO 19005KT 10SM CLR 13/05 A3025 RMK AO2 SLP218
     T01280050 402500050=
KWST 080653Z AUTO 13003KT 10SM SCT013 OVC026 23/21 A3005 RMK AO2
     SLP176 T02280206=
KYIP 080653Z 00000KT 8SM CLR 24/21 A3005 RMK AO2 SLP165
     T02390206=
KZZV 080653Z AUTO 00000KT 4SM BR CLR 21/19 A3008 RMK AO2 SLP177
     T02060194=
KVIS 080655Z AUTO 32006KT 10SM CLR 24/13 A2980 RMK AO1=
KWLD 080654Z AUTO 00000KT 10SM OVC047 23/21 A3008 RMK AO2 SLP173
     T02280211=
KX40 080655Z AUTO 00000KT 7SM CLR 23/23 A3002 RMK AO2
     T02340226=
KYKN 080655Z AUTO 00000KT 10SM CLR 16/14 A3017 RMK AO1=
KFRM 080655Z AUTO 10SM CLR 18/16 A3012 RMK AO1=
KGAD 080655Z AUTO 00000KT 10SM CLR 23/21 A3005 RMK AO1=
KGAI 080655Z 00000KT 8SM SCT110 25/21 A3003 RMK AO1=
KGBD 080655Z AUTO 36005KT 5SM CLR 19/18 A3015 RMK AO1=
KGCK 080654Z AUTO 04010KT 10SM FEW049 BKN060 18/17 A3019 RMK AO2
     SLP197 T01830167=
KGCN 080654Z AUTO 00000KT 10SM CLR 11/M03 A3022 RMK AO2 SLPNO
     T01111033 403000039=
KGTR 080655Z 00000KT 10SM CLR 24/23 A3004 RMK AO1=
KHEF 080655Z AUTO 30003KT 8SM CLR 26/21 A2999 RMK AO1=
KHEZ 080655Z AUTO 08003KT 6SM CLR 24/23 A3003 RMK AO1=
KHNB 080655Z AUTO 00000KT 10SM CLR 23/21 A3006 RMK AO1=
KHWD 080654Z AUTO 34007KT 10SM OVC013 14/11 A2992 RMK AO2 SLP141
     T01440106=
KHYS 080655Z AUTO 02005KT 10SM BKN017 18/17 A3017 RMK AO1=
KIMT 080654Z AUTO 00000KT 7SM SCT003 19/19 A2996 RMK AO2 SLP141
     T01940194=
KISW 080654Z AUTO 24005KT 10SM BKN010 22/21 A3001 RMK AO2 SLP156
     T02220211 TSNO=
KIWD 080655Z AUTO 34003KT 10SM FEW070 BKN120 18/16 A3001 RMK
     AO1=
KKLS 080655Z AUTO 00000KT 10SM CLR 18/14 A2988 RMK AO1=
KLAF 080654Z AUTO 00000KT 9SM CLR 24/21 A3003 RMK AO2 SLP164
     T02390211 TSNO=
KLAW 080653Z AUTO 03006KT 10SM CLR 24/22 A3003 RMK AO2 SLP155
     T02390222=
KLBL 080655Z 06011KT 10SM FEW031 BKN039 21/17 A3019 RMK AO1=
KLBT 080654Z AUTO 28006KT 10SM SCT095 BKN110 27/19 A2993 RMK AO2
     SLP134 T02720194=
KLGD 080655Z AUTO 19005KT 10SM CLR 14/07 A3002 RMK AO1=
KLKV 080655Z AUTO 08006KT 10SM CLR 14/04 A3012 RMK AO1=
KLNK 080654Z AUTO 35008KT 10SM CLR 19/18 A3012 RMK AO2 SLP192
     T01940178=
KLPC 080655Z AUTO 36004KT 10SM OVC012 14/11 A2992 RMK AO1 PNO=
KLUX 080655Z AUTO 00000KT 10SM CLR 22/22 A3002 RMK AO2=
KMBL 080655Z AUTO 00000KT 3SM SCT120 21/19 A3002 RMK AO1=
KMER 080655Z AUTO 02007KT 10SM CLR 20/10 A2983 RMK AO1=
KMFI 080654Z AUTO 30008KT 9SM FEW003 20/19 A3001 RMK AO2 SLP158
     T02000194=
KMKC 080654Z 32003KT 10SM FEW100 23/21 A3005 RMK AO2 SLP169
     T02330211=
####018003735####
SAUS70 KWBC 080700 RRI
METAR
KTCC 080653Z AUTO 08005KT 10SM BKN100 18/16 A3021 RMK AO2 RAB17E44
     SLP171 P0000 T01780156 403110167=
KTDZ 080653Z AUTO 23003KT 10SM CLR 24/18 A3005 RMK AO2 SLP170
     T02440183=
KTHV 080653Z AUTO 00000KT 5SM HZ CLR 23/20 A3001 RMK AO2 SLP160
     T02280200=
KTIW 080653Z AUTO 35004KT 10SM FEW090 22/12 A2993 RMK AO2 SLP130
     T02220117=
KTMB 080653Z AUTO 04004KT 10SM CLR 28/25 A2994 RMK AO2 SLP137
     T02780250=
KTOI 080653Z AUTO 00000KT 9SM CLR 23/22 A3004 RMK AO2 SLP166
     T02280222=
KTOP 080653Z AUTO 09008KT 2 1/2SM +RA BR OVC013 22/21 A3009 RMK
     AO2 SLP179 P0060 T02220211=
KTOR 080653Z AUTO 00000KT 10SM BKN065 14/12 A3029 RMK AO2 SLP229
     T01440122 401780122=
KTPA 080653Z 00000KT 10SM SCT250 26/21 A3001 RMK AO2 SLP161
     T02560211 $=
KTTD 080653Z AUTO 00000KT 10SM FEW085 21/12 A2985 RMK AO2 SLP106
     T02110122=
KTTN 080653Z AUTO 13005KT 6SM HZ FEW085 24/21 A3001 RMK AO2 SLP155
     T02440211 PWINO=
KTUL 080653Z 11009KT 10SM -RA BKN040 OVC055 23/22 A3001 RMK AO2
     RAB38 SLP154 P0000 T02330217=
KPIH 080653Z AUTO 05004KT 10SM CLR 13/01 A3014 RMK AO2 SLP166
     T01280011 402780061=
KPIR 080653Z AUTO 24009KT 10SM CLR 16/13 A3015 RMK AO2 SLP202
     T01610133=
KPKB 080653Z AUTO 00000KT 3SM BR CLR 21/20 A3010 RMK AO2 SLP182
     T02110200 TSNO=
KPKD 080653Z AUTO 23003KT 10SM CLR 15/13 A3007 RMK AO2 SLP181
     T01500133=
KPMD 080653Z AUTO 18008KT 10SM CLR 21/07 A2990 RMK AO2 SLP094
     T02110072 TSNO $=
KPMP 080653Z AUTO 06007KT 10SM SCT023 SCT027 28/24 A2994 RMK AO2
     SLP139 T02780239=
KPNC 080653Z AUTO 02005KT 10SM FEW065 22/21 A3006 RMK AO2 SLP168
     T02220211=
KPOU 080653Z 00000KT 6SM BR CLR 24/22 A3001 RMK AO2 SLP156
     T02390217=
KPRC 080653Z AUTO 20005KT 10SM CLR 20/03 A3008 RMK AO2 SLP095
     T02000033 403390139=
KPSC 080653Z AUTO 23004KT 10SM CLR 18/09 A2993 RMK AO2 SLP134
     T01830089=
KPSP 080653Z 00000KT 10SM FEW095 28/10 A2971 RMK AO2 SLP057
     T02830100=
KPTK 080653Z 00000KT 10SM SCT250 26/22 A3004 RMK AO2 SLP164
     T02560222=
KPUB 080653Z AUTO 00000KT 10SM BKN012 BKN065 15/14 A3032 RMK AO2
     SLP218 T01500139 402610139=
KPUC 080653Z AUTO 30005KT 10SM CLR 17/01 A3018 RMK AO2 SLP135
     T01720006 403000144 TSNO=
KPUW 080653Z AUTO 00000KT 10SM CLR 12/09 A3006 RMK AO2 SLP170
     T01220089 $=
KPWA 080653Z 04003KT 10SM CLR 24/22 A3004 RMK AO2 SLP155
     T02390217=
KRAC 080653Z AUTO 27006KT 10SM SCT065 BKN075 OVC110 24/22 A3003
     RMK AO2 LTG DSNT SE SLP164 T02390217=
KRAL 080653Z AUTO 27005KT 8SM CLR 16/12 A2991 RMK AO2 SLP118
     T01560122=
KRBG 080653Z AUTO 00000KT 10SM CLR 22/14 A2989 RMK AO2 SLP117
     T02170139=
KRDD 080653Z AUTO 00000KT 10SM CLR 26/15 A2981 RMK AO2 SLP087
     T02560150=
KRHI 080653Z AUTO 28004KT 3SM BR OVC001 19/18 A3003 RMK AO2 SLP160
     T01940183=
KRNT 080653Z AUTO 30006KT 10SM CLR 23/13 A2992 RMK AO2 SLP135
     T02330128=
KRSL 080653Z AUTO 34005KT 9SM BKN012 19/18 A3015 RMK AO2 SLP197
     T01890183=
KRSW 080653Z 05005KT 10SM CLR 24/22 A2997 RMK AO2 SLP146
     T02440222=
KRVS 080653Z 06005KT 10SM -RA FEW028 OVC041 24/22 A3002 RMK AO2
     LTG DSNT E AND SE TSB11E26RAB32 SLP167 P0000 T02390222=
KRWF 080653Z AUTO 28004KT 10SM CLR 16/15 A3010 RMK AO2 SLP191
     T01610150=
KRWL 080653Z AUTO 00000KT 10SM CLR 08/07 A3037 RMK AO2 SLP226
     T00830067 402000083=
KRXE 080653Z AUTO 06006KT 10SM CLR 12/07 A3019 RMK AO2 SLP191
     T01170072=
KSBA 080653Z 05003KT 10SM CLR 13/11 A2990 RMK AO2 SLP126 T01330106
     $=
KTVC 080653Z AUTO 00000KT 10SM FEW110 23/21 A2999 RMK AO2 SLP153
     T02330206=
####018002506####
SAUS80 KWBC 080700 RRB
METAR
KLYH 080654Z AUTO 32003KT 5SM HZ CLR 24/20 A3003 RMK AO2 SLP157
     T02390200=
KMLU 080653Z AUTO 10003KT 9SM CLR 26/24 A3003 RMK AO2 SLP166
     T02560239=
KDSM 080654Z 33007KT 10SM BKN140 OVC200 23/21 A3005 RMK AO2 SLP169
     T02330206=
KDVL 080655Z AUTO 27006KT 10SM CLR 16/12 A3006 RMK AO1=
KEAR 080655Z AUTO 34004KT 10SM CLR 16/14 A3022 RMK AO1=
KPIA 080654Z 13003KT 4SM BR FEW060 BKN080 OVC110 23/22 A3003 RMK
     AO2 RAB17E43 SLP163 P0000 T02280217=
KSUS 080654Z AUTO 00000KT 10SM BKN048 BKN060 24/23 A3002 RMK AO2
     SLP155 T02440233=
KAVP 080654Z 11005KT 7SM CLR 22/18 A3005 RMK AO2 SLP163 T02170178
     $=
KRQE 080653Z AUTO 00000KT 10SM CLR 18/06 A3024 RMK AO2 SLP105
     T01830056 403060083 TSNO=
PABE 080653Z 01005KT 10SM FEW080 BKN120 15/08 A3001 RMK AO2 SLP171
     T01500080 PNO $=
PABT 080653Z 32003KT 10SM SCT040 BKN075 BKN200 18/10 A3004 RMK AO2
     SLP179 T01780100=
PACD 080653Z 15008KT 10SM CLR 08/03 A2994 RMK AO2 SLP138
     T00830033=
PADQ 080653Z 34004KT 3SM -RA BR BKN008 OVC012 10/09 A2981 RMK AO2
     SLP095 P0003 T01000089 $=
PAFA 080653Z 00000KT 10SM FEW070 SCT250 20/09 A3002 RMK AO2 SLP169
     T02000094=
PAHO 080653Z AUTO 07007KT 10SM BKN049 OVC060 13/09 A2990 RMK AO2
     SLP126 T01280094 TSNO=
PAJN 080653Z 00000KT 10SM CLR 14/11 A3020 RMK AO2 SLP225
     T01390111=
PAMC 080653Z 13005KT 10SM SCT040 SCT080 BKN200 17/07 A2998 RMK AO2
     SLP154 T01670072=
PANC 080653Z 00000KT 10SM -RA FEW055 BKN070 BKN120 BKN200 13/11
     A3002 RMK AO2 RAB44 SLP165 P0000 T01280111=
PANN 080653Z AUTO 00000KT 10SM CLR 17/11 A3002 RMK AO2 SLP169
     T01720106 TSNO=
PANT 080653Z AUTO 33007KT 10SM CLR 19/12 A3006 RMK AO2 SLP179
     T01890117 TSNO=
PAOM 080653Z 06009KT 10SM FEW070 SCT200 19/09 A3008 RMK AO2 SLP187
     T01890089=
PAOR 080653Z 00000KT 10SM FEW070 SCT140 15/08 A3008 RMK AO2 SLP186
     T01500078=
PAOT 080653Z 28011KT 10SM FEW040 SCT090 SCT210 12/07 A3012 RMK AO2
     SLP199 T01220067=
PASN 080653Z AUTO 08011KT 10SM OVC007 06/05 A2993 RMK AO2 CIG
     005V010 SLP136 T00610050 TSNO=
PATK 080653Z AUTO 17003KT 10SM BKN090 OVC100 18/10 A3002 RMK AO2
     SLP168 T01780100 TSNO=
PAYA 080653Z 00000KT 10SM FEW090 SCT200 12/10 A3020 RMK AO2 SLP226
     BAY TWR WND 160MMKT T01220100=
KMQE 080654Z AUTO 19007KT 23/21 A3006 RMK AO1 SLP185 T02280206=
K1V4 080654Z AUTO 22/20 A3004 RMK AO2 SLP156 T02170200 PWINO
     TSNO=
####018003712####
SAUS70 KWBC 080700 RRD
METAR
KALW 080653Z AUTO 10006KT 10SM CLR 20/09 A2996 RMK AO2 SLP138
     T02000089=
KAMA 080653Z 04009KT 1SM RA BR SCT016 BKN025 OVC060 17/16 A3019
     RMK AO2 SFC VIS 4 LTG DSNT E TSE11B13E49 SLP174 P0056
     T01670156 $=
KAMW 080653Z AUTO 34007KT 10SM CLR 21/19 A3008 RMK AO2 SLP177
     T02110194=
KAOH 080653Z AUTO 19003KT 9SM 23/19 A3007 RMK AO2 SLP174 T02330189
     $=
KAPA 080653Z 35006KT 10SM FEW010 OVC020 14/13 A3036 RMK AO2 LTG
     DSNT E SLP233 T01440128 401890117 $=
KAPF 080653Z AUTO 06005KT 10SM CLR 25/22 A2997 RMK AO2 SLP147
     T02500222=
KARB 080653Z AUTO 00000KT 6SM BR CLR 21/19 A3004 RMK AO2 SLP165
     T02110194=
KASE 080653Z 20006KT 10SM SCT100 BKN120 08/06 A3040 RMK AO2 SLP187
     T00780056 402330050=
KASX 080653Z AUTO 00000KT 10SM BKN060 19/15 A3002 RMK AO2 SLP162
     T01890150=
KATY 080653Z AUTO 23004KT 10SM CLR 16/14 A3014 RMK AO2 SLP203
     T01560139=
KAUG 080653Z AUTO 16005KT 5SM BR OVC005 21/20 A3007 RMK AO2 SLP180
     T02060200=
KAXN 080653Z AUTO 24005KT 10SM CLR 15/14 A3011 RMK AO2 SLP195
     T01500144=
KAZO 080653Z AUTO 00000KT 5SM HZ CLR 23/20 A3005 RMK AO2 SLP168
     T02330200 $=
KBAF 080653Z 00000KT 9SM CLR 24/21 A3003 RMK AO2 SLP165
     T02390211=
KBBW 080653Z AUTO 32004KT 10SM OVC075 16/15 A3023 RMK AO2 SLP224
     T01610150=
KBCE 080653Z AUTO 29005KT 10SM SCT110 10/02 A3030 RMK AO2 SLP142
     T01000022 402500044 TSNO=
KBDE 080653Z AUTO 23005KT 10SM CLR 16/13 A2999 RMK AO2 SLP156
     T01610133=
KBEH 080653Z AUTO 08003KT 6SM BR SCT055 SCT070 OVC100 23/22 A3003
     RMK AO2 SLP163 T02330222 $=
KBFD 080653Z AUTO 00000KT 5SM BR CLR 17/16 A3015 RMK AO2 SLP191
     T01720161=
KBFI 080653Z 31003KT 10SM CLR 24/12 A2992 RMK AO2 SLP133
     T02390117=
KBGM 080653Z AUTO 00000KT 6SM HZ CLR 24/18 A3011 RMK AO2 SLP182
     T02390178=
KENW 080653Z AUTO 19008KT 8SM -RA FEW014 BKN043 OVC085 23/22 A3005
     RMK AO2 LTG DSNT E TSB25E40RAB44 SLP169 P0001 T02330217 $=
KEPH 080653Z AUTO 32005KT 10SM CLR 23/06 A2999 RMK AO2 SLP146
     T02280056=
KEVW 080653Z AUTO 09016KT 10SM CLR 13/04 A3026 RMK AO2 SLP166
     T01330039 402390078 TSNO=
KEWB 080653Z AUTO 14004KT 10SM SCT008 OVC029 23/21 A3006 RMK AO2
     SLP177 T02280206=
KEYE 080653Z AUTO 00000KT 9SM CLR 24/21 A3006 RMK AO2 SLP169
     T02440206=
KEYW 080653Z AUTO 08003KT 10SM CLR 28/25 A2993 RMK AO2 SLP136
     T02830250=
KFCM 080653Z AUTO 33006KT 10SM CLR 21/17 A3006 RMK AO2 SLP176
     T02060167=
KFDY 080653Z AUTO 19003KT 9SM CLR 22/18 A3006 RMK AO2 SLP168
     T02170183=
KFFT 080653Z AUTO 00000KT 5SM BR CLR 22/21 A3007 RMK AO2 SLP173
     T02220206=
KFHR 080653Z AUTO 00000KT 10SM CLR 14/11 A2995 RMK AO2 SLP141
     T01440111=
KFLD 080653Z AUTO 00000KT 7SM -RA FEW055 OVC080 22/21 A3002 RMK
     AO2 RAB13 SLP159 P0002 T02220206=
KFLL 080653Z 07009KT 10SM FEW021 SCT029 SCT049 28/24 A2993 RMK AO2
     SLP135 T02830244=
KFMY 080653Z AUTO 06005KT 10SM CLR 24/22 A2997 RMK AO2 SLP149
     T02440222=
KFOE 080653Z AUTO 05010KT 5SM -RA BR FEW003 OVC020 22/21 A3008 RMK
     AO2 SLP174 P0031 T02170206=
KFOK 080653Z AUTO 12004KT 3/4SM BR OVC001 24/22 A3005 RMK AO2
     SLP175 T02390222 TSNO=
KFPR 080653Z AUTO 08003KT 10SM CLR 26/22 A2997 RMK AO2 SLP148
     T02610222=
KFRG 080653Z AUTO 00000KT 5SM BR BKN095 BKN110 26/24 A3002 RMK AO2
     SLP165 T02560244=
KFTW 080653Z 16008KT 10SM BKN018 BKN060 26/23 A2999 RMK AO2 SLP144
     T02560228=
KFUL 080653Z 00000KT 10SM OVC015 16/12 A2991 RMK AO2 SLP126
     T01610122=
KFVE 080653Z AUTO 03003KT 9SM CLR 23/22 A3000 RMK AO2 SLP149
     T02280217=
####018000085####
SAOS32 LOWM 080650
METAR LOXZ 080650Z VRB02KT 70KM SKC 13/09 Q1025 NOSIG RMK SKC=
####018000503####
SANO33 ENMI 080650
METAR ENAT 080650Z 15009KT 9999 FEW025 16/08 Q1014 =
METAR ENBL 080650Z 20006KT 9999 -SHRA SCT030 SCT060 14/09 Q1010=
METAR ENEV 080650Z 19004KT 130V240 9999 SCT060 16/09 Q1011 =
METAR ENFL 080650Z 18013KT 9999 FEW015 BKN060 15/11 Q1010=
METAR ENKB 080650Z 24007KT 9999 FEW020 SCT075 15/12 Q1009=
METAR ENKR 080650Z 00000KT 9999 FEW007 BKN012 11/10 Q1017 REDZ =
METAR ENML 080650Z VRB02KT 9999 FEW050 BKN060 15/11 Q1009=
METAR ENNA 080650Z 17012KT 9999 FEW040 16/08 Q1015 =
####018000075####
SAUK34 EGGY 080650 RRA
METAR EGHQ 080650Z 18004KT 9000 NSC 14/14 Q1019=
####018003711####
SAUS70 KWBC 080700 RRA
METAR
KGOK 080653Z AUTO 00000KT 8SM FEW027 23/22 A3004 RMK AO2 SLP161
     T02330222=
KGPT 080653Z 05004KT 10SM CLR 27/25 A3001 RMK AO2 SLP161
     T02720250=
KGSP 080653Z AUTO 00000KT 10SM CLR 24/19 A3002 RMK AO2 SLP149
     T02390189=
KGUP 080653Z AUTO 15008KT 10SM CLR 21/06 A3023 RMK AO2 SLP033
     T02110056 403220139=
KGVL 080653Z AUTO 00000KT 10SM CLR 24/21 A3009 RMK AO2 SLP169
     T02390206=
KGWO 080653Z AUTO 00000KT 10SM CLR 23/23 A3005 RMK AO2 SLP173
     T02280228=
KHBG 080653Z AUTO 00000KT 10SM CLR 24/23 A3004 RMK AO2 SLP168
     T02440233=
KHDE 080650Z AUTO 35005KT 10SM CLR 16/15 A3020 RMK AO2
     T01580146=
KHGR 080653Z AUTO 10003KT 7SM CLR 26/17 A3003 RMK AO2 SLP169
     T02560167=
KHJH 080650Z AUTO 01006KT 10SM BKN021 20/19 A3013 RMK AO2
     T02010185=
KHJO 080653Z AUTO 34007KT 10SM CLR 24/13 A2981 RMK AO2 SLP093
     T02440133=
KHKA 080653Z AUTO 20004KT 7SM CLR 27/22 A3004 RMK AO2 SLP171
     T02670222=
KHKS 080653Z AUTO 00000KT 10SM CLR 24/23 A3005 RMK AO2 SLP168
     T02440228=
KMGW 080653Z AUTO 00000KT 5SM BR CLR 21/19 A3010 RMK AO2 SLP181
     T02110189=
KMKL 080653Z AUTO 00000KT 10SM CLR 23/21 A3006 RMK AO2 SLP173
     T02280211=
KMLE 080650Z AUTO 33004KT 10SM CLR 21/17 A3011 RMK AO2
     T02100173=
KMMH 080650Z AUTO 27007KT 10SM CLR 14/03 A3020 RMK AO1=
KMRB 080653Z AUTO 00000KT 6SM HZ CLR 26/18 A3002 RMK AO2 SLP159
     T02560183=
KMSL 080653Z AUTO 00000KT 10SM CLR 24/22 A3007 RMK AO2 SLP176
     T02390222=
KMSY 080653Z 08003KT 10SM FEW250 27/23 A3000 RMK AO2 SLP162
     T02670233=
KMWL 080653Z AUTO 14005KT 10SM SCT031 SCT055 23/22 A2999 RMK AO2
     SLP141 T02330217=
KMYV 080653Z AUTO 15007KT 10SM CLR 21/12 A2980 RMK AO2 SLP094
     T02060122=
KNEW 080653Z AUTO 10005KT 10SM CLR 27/24 A3001 RMK AO2 SLP156
     T02720244 TSNO=
KOAK 080653Z 29010KT 10SM BKN011 14/11 A2993 RMK AO2 SLP135
     T01440106=
KOGA 080650Z AUTO 25004KT 10SM OVC060 16/15 A3027 RMK AO2
     T01610147 401950146=
KOKC 080652Z 06003KT 10SM FEW023 SCT150 24/22 A3004 RMK AO2 SLP154
     T02390222=
KONL 080650Z AUTO 26003KT 10SM OVC110 16/14 A3021 RMK AO2
     T01580142=
KOVE 080653Z AUTO 16008KT 10SM CLR 24/14 A2982 RMK AO2 SLP097
     T02440139 TSNO=
KPAH 080653Z AUTO 00000KT 10SM CLR 23/22 A3004 RMK AO2 SLP166
     T02330222=
KPBF 080653Z AUTO 12003KT 9SM CLR 23/22 A3005 RMK AO2 SLP171
     T02330222=
KPDK 080653Z AUTO 00000KT 10SM CLR 24/19 A3005 RMK AO2 SLP155
     T02390189=
KPNA 080650Z AUTO 00000KT 10SM SCT075 SCT090 12/00 A3036 RMK AO2
     T01161002=
KPQL 080653Z AUTO 00000KT 3SM BR CLR 24/24 A3002 RMK AO2 SLP166
     T02440239=
KPRB 080653Z AUTO 28003KT 10SM CLR 14/11 A2990 RMK AO2 SLP121
     T01390106=
KPSX 080653Z AUTO 05007KT 10SM CLR 27/25 A2987 RMK AO2 LTG DSNT SW
     RAB02E12 SLP115 P0001 T02670250=
KPTT 080650Z AUTO 01006KT 10SM CLR 20/18 A3013 RMK AO2=
KRKP 080653Z AUTO 09012KT 10SM VCTS FEW017 SCT024 BKN110 28/26
     A2985 RMK AO2 LTG DSNT NW TSB37RAB15E28 SLP108 P0002
     T02780256=
KRUE 080653Z AUTO 00000KT 8SM CLR 24/23 A3005 RMK AO2 SLP168
     T02390228=
KRWI 080653Z AUTO 00000KT 7SM CLR 24/19 A2994 RMK AO2 SLP138
     T02440194=
KSAC 080653Z 19004KT 10SM CLR 16/11 A2983 RMK AO2 SLP102
     T01610106=
KSAF 080653Z AUTO 20005KT 10SM CLR 15/11 A3031 RMK AO2 SLP161
     T01500111 402890144=
KSDL 080653Z 00000KT 10SM CLR 32/06 A2979 RMK AO2 SLP056 T03170061
     404060256=
KHKY 080653Z AUTO 30003KT 10SM CLR 23/18 A3004 RMK AO2 SLP147
     T02280178 $=
KHLG 080653Z AUTO 00000KT 6SM HZ CLR 23/19 A3009 RMK AO2 SLP180
     T02280194=
####018000349####
SANO35 ENMI 080650
METAR ENMS 080650Z VRB02KT 9999 SCT065 18/10 Q1009 =
METAR ENRM 080650Z 36006KT CAVOK 16/10 Q1010=
METAR ENRS 080650Z 15009KT CAVOK 12/10 Q1010=
METAR ENSK 080650Z 12003KT CAVOK 17/10 Q1010=
METAR ENSO 080650Z NIL=
METAR ENST 080650Z 04007KT 350V070 CAVOK 17/11 Q1009=
METAR ENVD 080650Z 26005KT 9999 BKN017 11/08 Q1017=
####018000378####
SANO36 ENMI 080650
METAR ENBS 080650Z 15003KT 120V190 9999 FEW002 BKN005 09/08 Q1016=
METAR ENHK 080650Z 10014KT CAVOK 15/08 Q1012=
METAR ENHV 080650Z 24007KT 200V280 9999 FEW011 10/07 Q1015 =
METAR ENLK 080650Z 19007KT CAVOK 15/10 Q1010=
METAR ENMH 080650Z NIL=
METAR ENNK 080650Z VRB03KT 9999 BKN060 16/09 Q1011=
METAR ENNM 080650Z 23006KT 190V260 CAVOK 17/10 Q1010=
####018003667####
SAUS70 KWBC 080700 RRF
METAR
KIPL 080653Z AUTO 21005KT 10SM CLR 29/09 A2967 RMK AO2 SLP047
     T02890089=
KITR 080653Z AUTO 04004KT 10SM FEW009 BKN015 OVC030 17/15 A3030
     RMK AO2 SLP224 T01670150 402060139=
KIWI 080653Z AUTO 00000KT 7SM SCT003 OVC012 21/19 A3008 RMK AO2
     SLP186 T02060194=
KIXD 080653Z AUTO 32004KT 10SM SCT080 23/21 A3008 RMK AO2 SLP173
     T02280211=
KJEF 080653Z AUTO 16005KT 10SM SCT047 BKN065 OVC085 24/23 A3004
     RMK AO2 LTG DSNT SE RAB41E51 SLP159 P0000 T02390228=
KJER 080653Z AUTO 08009KT 10SM CLR 18/M01 A3010 RMK AO2 SLP155
     T01781011 402830100=
KJKL 080653Z AUTO 00000KT 6SM HZ CLR 24/19 A3011 RMK AO2 SLP178
     T02440194=
KLAA 080653Z AUTO 14006KT 10SM -RA OVC030 19/16 A3025 RMK AO2 LTG
     DSNT W RAB52 SLP205 P0000 T01890161 402670161=
KLAR 080653Z AUTO 18006KT 10SM CLR 09/09 A3037 RMK AO2 SLP206
     T00890089 401560067=
KLBF 080653Z AUTO 00000KT 10SM OVC048 16/16 A3025 RMK AO2 SLP230
     T01610156=
KLEB 080653Z AUTO 00000KT 2SM BR CLR 22/21 A3004 RMK AO2 SLP158
     T02220206=
KLEE 080653Z AUTO 00000KT 10SM CLR 23/21 A3002 RMK AO2 SLP164
     T02280211=
KLGB 080653Z 29004KT 10SM OVC017 17/13 A2991 RMK AO2 SLP129
     T01720128=
KLHQ 080653Z AUTO 00000KT 3SM BR CLR 19/18 A3008 RMK AO2 SLP179
     T01940183=
KLHX 080653Z AUTO 36010KT 7SM -RA FEW007 BKN029 OVC080 17/16 A3031
     RMK AO2 LTG DSNT NE RAB17 SLP219 T01670156 402330167 PNO
     $=
KLMT 080653Z AUTO 23008KT 10SM FEW090 21/09 A3005 RMK AO2 SLP124
     T02110089=
KLNS 080653Z AUTO 05003KT 6SM HZ CLR 26/21 A3001 RMK AO2 SLP159
     T02610211=
KLOU 080653Z AUTO 00000KT 7SM CLR 27/21 A3006 RMK AO2 SLP171
     T02720211=
KLOZ 080653Z AUTO 02003KT 4SM BR CLR 22/20 A3010 RMK AO2 SLP178
     T02170200=
KLPR 080653Z AUTO 00000KT 6SM HZ CLR 23/19 A3007 RMK AO2 SLP175
     T02280189=
KGGW 080653Z AUTO 00000KT 10SM CLR 14/09 A3014 RMK AO2 SLP200
     T01390094 402610089 TSNO=
KGIF 080653Z AUTO 00000KT 10SM CLR 23/21 A3002 RMK AO2 SLP162
     T02330211 TSNO=
KGJT 080653Z AUTO 07017G30KT 10SM CLR 22/06 A3014 RMK AO2 PK WND
     08030/0648 WSHFT 0542 SLP129 T02220061 403390178=
KGKJ 080653Z AUTO 00000KT 8SM CLR 22/18 A3011 RMK AO2 SLP182
     T02170178=
KGKY 080653Z AUTO 17005KT 10SM SCT019 25/23 A3000 RMK AO2 SLP148
     T02500228=
KGLD 080653Z AUTO 00000KT 10SM OVC035 17/16 A3029 RMK AO2 SLP225
     T01720161 402440144=
KGLR 080653Z AUTO 22003KT 10SM SCT110 22/21 A3003 RMK AO2 SLP162
     T02220211=
KGNV 080653Z AUTO 00000KT 10SM CLR 21/19 A3002 RMK AO2 SLP163
     T02060194=
KGRB 080653Z AUTO 18007KT 9SM -RA BKN055 21/20 A2998 RMK AO2
     SLP148 P0002 T02110200=
KGRI 080653Z AUTO 34006KT 10SM CLR 17/14 A3019 RMK AO2 SLP213
     T01670144=
KGSH 080653Z AUTO 00000KT 6SM BR CLR 22/20 A3005 RMK AO2 SLP170
     T02170200=
KGTF 080653Z 24006KT 10SM CLR 10/06 A3022 RMK AO2 SLP222 T01000061
     402500056 $=
KGUY 080653Z AUTO 05009KT 10SM FEW024 21/17 A3017 RMK AO2 LTG DSNT
     W SLP177 T02060172=
KHAO 080653Z AUTO 00000KT 3SM BR CLR 21/20 A3008 RMK AO2 SLP179
     T02110200=
KHBR 080653Z AUTO 04004KT 10SM CLR 23/21 A3007 RMK AO2 SLP162
     T02280211=
KHEI 080653Z AUTO 00000KT 10SM CLR 11/08 A3019 RMK AO2 SLP216
     T01060083 402440056=
KHFD 080653Z AUTO 15003KT 6SM HZ CLR 25/22 A3003 RMK AO2 SLP167
     T02500217=
KHHR 080653Z AUTO 26005KT 10SM OVC014 17/13 A2992 RMK AO2 SLP129
     T01720133=
KHIB 080653Z AUTO 00000KT 1SM BR CLR 11/10 A3006 RMK AO2 SLP179
     T01060100=
KHIO 080653Z AUTO 00000KT 10SM CLR 18/13 A2986 RMK AO2 SLP108
     T01830128=
####018003679####
SAUS70 KWBC 080700 RRK
METAR
KMKT 080655Z 32004KT 10SM CLR 19/17 A3009 RMK AO1=
KMML 080655Z AUTO 25005KT 10SM CLR 15/13 A3012 RMK AO1=
KMNI 080655Z AUTO 00000KT 10SM CLR 22/22 A2996 RMK AO2=
KMNM 080655Z AUTO 00000KT 10SM BKN012 OVC120 21/19 A2998 RMK
     AO1=
KMOT 080654Z AUTO 30004KT 10SM CLR 16/12 A3008 RMK AO2 SLP181
     T01560122 TSNO=
KAAO 080654Z AUTO 04006KT 10SM SCT100 22/21 A3009 RMK AO2 SLP178
     T02170206=
KAEG 080655Z AUTO 13017KT 10SM CLR 18/08 A3027 RMK AO1=
KAEX 080653Z 09004KT 10SM CLR 25/23 A2999 RMK AO2 SLP157
     T02500228=
KAIZ 080655Z AUTO 00000KT 10SM SCT041 BKN060 OVC090 23/21 A3006
     RMK AO1 P0011=
KAKH 080654Z AUTO 00000KT 10SM CLR 22/17 A3000 RMK AO2 SLP151
     T02170172=
KALO 080654Z AUTO 29006KT 10SM CLR 20/19 A3005 RMK AO2 SLP170
     T02000194=
KAPC 080654Z AUTO 27014KT 10SM CLR 12/11 A2990 RMK AO2 SLP116
     T01220106=
KARG 080655Z AUTO 22007KT 10SM CLR 26/22 A3005 RMK AO1=
KAUO 080655Z AUTO 00000KT 10SM FEW065 27/22 A3004 RMK AO1=
KAUW 080654Z AUTO 00000KT 10SM SCT022 21/19 A2999 RMK AO2 RAB13E35
     SLP152 P0001 T02060194 $=
KAVL 080654Z AUTO 00000KT 10SM CLR 19/18 A3014 RMK AO2 SLP175
     T01940178=
KAWO 080655Z AUTO 00000KT 10SM CLR 18/13 A2996 RMK AO1=
KBFL 080654Z AUTO 33004KT 10SM CLR 26/09 A2982 RMK AO2 SLP089
     T02560094=
KBKX 080655Z AUTO 00000KT 10SM CLR 15/13 A3015 RMK AO1=
KBOW 080655Z AUTO 00000KT 10SM CLR 22/22 A3002 RMK AO2=
KBUY 080654Z AUTO 00000KT 9SM FEW090 24/19 A2999 RMK AO2 PK WND
     15042/0605 SLP145 T02440194 $=
KBVX 080655Z AUTO 00000KT 10SM CLR 25/23 A3006 RMK AO1=
KCEU 080654Z AUTO 00000KT 9SM CLR 25/23 A3005 RMK AO2 SLP161
     T02500228=
KCGC 080655Z AUTO 00000KT 10SM CLR 22/21 A3001 RMK=
KCGZ 080655Z AUTO 00000KT 10SM CLR 31/02 A2978 RMK AO1=
KCIU 080655Z AUTO 16005KT 10SM SCT080 BKN100 OVC120 19/17 A2999
     RMK AO1=
KCOE 080655Z AUTO 05008KT 10SM CLR 17/09 A3007 RMK AO1=
KCVN 080655Z AUTO 35008KT 10SM FEW055 18/14 A3022 RMK AO1=
KCWI 080655Z 10003KT 6SM OVC007 A3003 RMK AO1=
KDEC 080654Z AUTO 00000KT 10SM FEW120 26/22 A3004 RMK AO2 SLP166
     T02560222=
KDYB 080655Z AUTO 26003KT 10SM CLR 22/21 A2997 RMK AO1=
KDYR 080655Z AUTO 00000KT 10SM CLR 24/21 A3005 RMK AO1=
KEHR 080655Z AUTO 00000KT 10SM SCT090 23/19 A3005 RMK AO1=
KESC 080655Z AUTO 00000KT 8SM FEW019 20/17 A2997 RMK AO1=
KEUG 080654Z 21011KT 10SM CLR 17/11 A2988 RMK AO2 SLP115
     T01720111=
KEWK 080655Z AUTO 06004KT 10SM FEW100 21/19 A3006 RMK AO1=
KEWN 080654Z AUTO 00000KT 9SM CLR 25/22 A2992 RMK AO2 SLP132
     T02500222=
KFAM 080655Z AUTO 00000KT 10SM CLR 23/22 A3008 RMK AO1=
KFLP 080655Z AUTO 00000KT 10SM FEW025 24/22 A3004 RMK AO1=
KFOD 080655Z AUTO 00000KT 10SM FEW026 19/18 A3010 RMK AO1=
KMRF 080655Z AUTO 05006KT 10SM BKN090 OVC120 19/14 A3017 RMK
     AO1=
KMRY 080654Z AUTO 27003KT 10SM OVC010 13/10 A2994 RMK AO2 SLP150
     T01330100=
KMTW 080655Z 23004KT 8SM FEW027 SCT055 BKN065 22/21 A3000 RMK
     AO1=
KMVN 080655Z AUTO 00000KT 7SM CLR 23/21 A3005 RMK AO1=
KODO 080653Z AUTO 12009KT 4SM RA BR OVC025 22/20 A3009 RMK AO2 LTG
     DSNT NW SLP142 P0019 T02170200=
KOFP 080654Z AUTO 00000KT 7SM CLR 25/19 A2999 RMK AO2 SLP153
     T02500194=
KOLM 080654Z AUTO 00000KT 10SM CLR 19/12 A2992 RMK AO2 SLP131
     T01890122=
KOLU 080655Z AUTO 29004KT 10SM CLR 17/15 A3017 RMK AO1=
KOTG 080655Z AUTO 25003KT 10SM CLR 15/14 A3014 RMK AO1=
KOTH 080655Z 19005KT 10SM OVC008 11/08 A3000 RMK AO1=
KPHF 080654Z 09004KT 3SM BR FEW090 24/23 A2996 RMK AO2 SLP144
     T02440233=
KPIB 080655Z AUTO 00000KT 10SM CLR 23/21 A3004 RMK AO1=
####018003684####
SAUS70 KWBC 080700 RRC
METAR
KVPC 080653Z AUTO 00000KT 8SM CLR 21/19 A3005 RMK AO2 SLP163
     T02060194=
KWVI 080653Z AUTO 00000KT 10SM OVC011 13/11 A2994 RMK AO2 SLP138
     T01330106=
KXNA 080653Z 00000KT 10SM -RA BKN060 23/22 A3005 RMK AO2 RAB45
     SLP161 P0001 T02330222=
KRTN 080653Z AUTO 35005KT 10SM CLR 14/11 A3034 RMK AO2 SLP185
     T01440106 402830122 TSNO=
KBGR 080653Z 19007KT 5SM BR OVC003 20/19 A3006 RMK AO2 SLP176
     T02000189=
KBHK 080653Z AUTO 00000KT 10SM CLR 11/09 A3021 RMK AO2 SLP221
     T01060089 402440061=
KBHM 080653Z 02003KT 8SM CLR 25/22 A3006 RMK AO2 SLP170
     T02500222=
KBIV 080653Z AUTO 22006KT 4SM HZ FEW001 BKN046 OVC090 26/22 A3006
     RMK AO2 RAE03B34E49 SLP173 P0001 T02560222=
KBKE 080653Z AUTO 00000KT 10SM CLR 11/07 A3009 RMK AO2 SLP171
     T01060067=
KBKL 080653Z 16006KT 8SM CLR 27/19 A3005 RMK AO2 SLP169
     T02670189=
KBLI 080653Z AUTO 00000KT 10SM CLR 18/14 A2993 RMK AO2 SLP141
     T01830144=
KBMG 080653Z AUTO 00000KT 5SM BR FEW090 22/21 A3006 RMK AO2 SLP169
     T02170211=
KBOI 080653Z 12005KT 10SM CLR 21/07 A3002 RMK AO2 SLP139 T02060067
     403170139=
KBPI 080653Z AUTO 00000KT 10SM CLR 11/01 A3037 RMK AO2 SLP203
     T01110006 402220000=
KBRD 080653Z AUTO 18004KT 7SM CLR 15/13 A3007 RMK AO2 SLP182
     T01500133=
KBRL 080653Z AUTO 1 3/4SM BR CLR 23/22 A3002 RMK AO2 SLP160
     T02330222 $=
KBTL 080653Z AUTO 00000KT 10SM CLR 24/21 A3006 RMK AO2 SLP170
     T02390206=
KBTM 080653Z AUTO 00000KT 10SM CLR 11/01 A3030 RMK AO2 SLP220
     T01060006 402220022=
KBUR 080653Z AUTO 15004KT 10SM OVC011 16/13 A2991 RMK AO2 SLP119
     T01610128 TSNO=
KBVO 080653Z AUTO 00000KT 10SM BKN060 OVC090 23/22 A3005 RMK AO2
     SLP164 T02280222=
KBVY 080653Z 16006KT 6SM BR OVC009 23/21 A3004 RMK AO2 SLP167
     T02280211 PNO=
KBYG 080653Z AUTO 24005KT 10SM CLR 11/04 A3032 RMK AO2 SLP231
     T01060044 402000061=
KBYI 080653Z AUTO 00000KT 10SM CLR 11/05 A3010 RMK AO2 SLP159
     T01110050 402720089=
KCAG 080653Z AUTO 08004KT 10SM CLR 12/07 A3030 RMK AO2 SLP200
     T01220072 402830056=
KCDC 080653Z AUTO 14003KT 10SM CLR 17/01 A3012 RMK AO2 SLP120
     T01720006 403170100 $=
KCDW 080653Z AUTO 00000KT 7SM CLR 24/21 A3002 RMK AO2 SLP168
     T02440211 TSNO=
KCEZ 080653Z AUTO 13016G27KT 10SM CLR 21/06 A3019 RMK AO2 PK WND
     13031/0609 SLP129 T02110056 403170089=
KCGI 080653Z AUTO 00000KT 8SM CLR 24/24 A3003 RMK AO2 SLP166
     T02440239 TSNO=
KCKB 080653Z AUTO 00000KT 4SM BR CLR 21/19 A3009 RMK AO2 SLP172
     T02060189=
KCLM 080653Z AUTO A2996 RMK AO2 SLPNO PWINO FZRANO $=
KCMI 080653Z AUTO 00000KT 8SM FEW055 BKN070 OVC090 24/23 A3005 RMK
     AO2 LTG DSNT N RAE0559 SLP167 P0000 T02440228=
KCMX 080653Z AUTO 00000KT 9SM OVC002 18/17 A2998 RMK AO2 SLP149
     T01830172=
KCNO 080653Z 28007KT 6SM HZ CLR 15/12 A2993 RMK AO2 SLP130
     T01500122=
KABR 080653Z AUTO 23005KT 10SM CLR 16/14 A3012 RMK AO2 SLP195
     T01560139=
KABY 080653Z 00000KT 10SM CLR 22/20 A3005 RMK AO2 SLP172
     T02220200=
KACK 080653Z AUTO 12006KT 1/4SM R24/1800V3500FT FG VV001 19/19
     A3007 RMK AO2 SLP181 T01890189 TSNO=
KADG 080653Z AUTO 00000KT 8SM CLR 23/19 A3006 RMK AO2 SLP172
     T02280194=
KAFW 080653Z 16004KT 10SM FEW019 BKN050 OVC080 27/23 A2999 RMK AO2
     SLP139 T02670228=
KAGC 080653Z 00000KT 6SM HZ CLR 24/18 A3008 RMK AO2 SLP180
     T02440178=
KAIA 080653Z AUTO 21003KT 10SM OVC085 16/14 A3028 RMK AO2 SLP230
     T01560144 401940122 $=
KAKO 080653Z AUTO 13009KT 10SM OVC006 14/14 A3031 RMK AO2 CIG
     002V009 SLP229 T01440139 401830128 TSNO=
####018003710####
SAUS80 KWBC 080700
METAR
KBLU 080652Z AUTO 00000KT 10SM CLR 19/08 A3009 RMK AO2 SLP091
     T01940083 TSNO=
KABI 080652Z 17004KT 9SM CLR 22/21 A3003 RMK AO2 PK WND 15034/0612
     SLP139 T02170211 $=
K9V9 080652Z AUTO 00000KT 17/14 A3018 RMK AO2 SLP212 T01720144
     PWINO TSNO=
KREO 080652Z AUTO 14003KT 12/M04 A3008 RMK AO2 SLP155 T01221044
     PWINO TSNO=
KSDB 080652Z AUTO 33008KT 10SM CLR 19/03 A3004 RMK AO2 SLP116
     T01890028 402780167 TSNO $=
KP69 080652Z AUTO 31003KT 14/12 A3007 RMK AO2 SLP164 T01440117
     PWINO TSNO $=
KCAK 080651Z 00000KT 7SM CLR 22/18 A3009 RMK AO2 SLP178
     T02220183=
KCLL 080653Z 09005KT 10SM CLR 26/23 A2996 RMK AO2 SLP139
     T02560228=
KCRP 080651Z 09005KT 9SM -RA FEW010 SCT070 BKN080 27/26 A2985 RMK
     AO2 TSB15E44RAE0555B38 SLP106 OCNL LTG DSNT NE NW TS MOV W CB
     DSNT NE NW P0001 T02670256=
KDMN 080653Z AUTO 06011G20KT 10SM CLR 22/13 A3011 RMK AO2 LTG DSNT
     NW SLP113 T02170128 403440200=
KDRT 080653Z AUTO 07006KT 10SM CLR 26/22 A2993 RMK AO2 SLP117
     T02560222=
KFAT 080653Z 31009KT 10SM CLR 25/10 A2982 RMK AO2 SLP092
     T02500100=
KFMN 080653Z AUTO 10008KT 10SM CLR 22/06 A3019 RMK AO2 SLP149
     T02170056 403280183=
KORF 080651Z 10004KT 4SM BR CLR 26/24 A2995 RMK AO2 SLP142
     T02560239=
KRMG 080653Z AUTO 00000KT 10SM CLR 22/19 A3004 RMK AO2 SLP160
     T02170194=
KSAN 080651Z 31004KT 10SM OVC016 17/13 A2993 RMK AO2 SLP134
     T01720133=
KSAT 080653Z 07006KT 10SM BKN016 BKN250 26/23 A2995 RMK AO2 SLP122
     T02610228=
KHSV 080653Z 00000KT 10SM CLR 26/23 A3006 RMK AO2 SLP169
     T02560233=
KJBR 080653Z AUTO 23006KT 10SM CLR 26/23 A3004 RMK AO2 SLP170
     T02610228 $=
KLIT 080653Z 00000KT 7SM SCT150 24/23 A3005 RMK AO2 SLP174
     T02390228=
KSOW 080650Z AUTO 17009KT 10SM SCT110 22/04 A3022 RMK AO2=
KSPS 080652Z 07004KT 10SM CLR 24/22 A3001 RMK AO2 SLP146
     T02390217=
KTUS 080653Z 08003KT 10SM CLR 32/08 A2988 RMK AO2 SLP058 T03220078
     404000233=
K6R6 080653Z AUTO 36006KT 23/20 A3000 RMK AO2 SLP123 T02330200
     PWINO TSNO=
KSDM 080653Z AUTO 00000KT 10SM OVC014 17/13 A2991 RMK AO2 SLP127
     T01670128 TSNO=
KLAX 080653Z 27008KT 10SM BKN012 OVC015 17/13 A2992 RMK AO2 SLP129
     T01670128=
KUIL 080653Z AUTO 04004KT 10SM CLR 19/11 A2992 RMK AO2 SLP131
     T01890111 TSNO=
KLND 080653Z AUTO 00000KT 10SM CLR 12/04 A3031 RMK AO2 SLP218
     T01220039 402220050=
KCQC 080653Z AUTO 08007KT 10SM SCT100 11/10 A3036 RMK AO2 SLP195
     T01110100 402500089 TSNO=
KSAN 080651Z 31004KT 10SM OVC016 17/13 A2993 RMK AO2 SLP134
     T01720133=
KBNO 080653Z AUTO 07006KT 10SM CLR 11/00 A3010 RMK AO2 SLP164
     T01110000 TSNO=
KTLH 080653Z 00000KT 10SM FEW095 24/22 A3002 RMK AO2 SLP163
     T02390217=
KTCS 080653Z AUTO 13007KT 10SM FEW110 19/14 A3019 RMK AO2 SLP138
     T01940144 403330183 TSNO=
KBIL 080653Z 19005KT 10SM CLR 18/05 A3023 RMK AO2 SLP213 T01830050
     402500089=
KCDR 080653Z AUTO 00000KT 10SM CLR 12/10 A3027 RMK AO2 SLP244
     T01170100 402110106 $=
KAAF 080653Z AUTO 02004KT 10SM CLR 23/22 A3001 RMK AO2 SLP162
     T02330217=
KBFF 080653Z AUTO 00000KT 10SM FEW049 OVC075 16/13 A3029 RMK AO2
     SLP229 T01610128 401890128=
KEMP 080653Z AUTO 01005KT 10SM CLR 22/19 A3008 RMK AO2 SLP175
     T02170194=
KFNB 080653Z AUTO 31003KT 9SM FEW037 22/21 A3007 RMK AO2 SLP173
     T02220206=
KFNT 080653Z AUTO 00000KT 9SM CLR 24/22 A3004 RMK AO2 SLP166
     T02390217=
KGCC 080653Z AUTO 00000KT 10SM CLR 09/07 A3029 RMK AO2 SLP232
     T00940067 402280072=
KGEG 080653Z 07005KT 10SM CLR 21/08 A3006 RMK AO2 SLP160
     T02110083=
####018003747####
SAUS70 KWBC 080700 RRH
METAR
KMTO 080653Z AUTO 00000KT 6SM BR BKN075 23/23 A3004 RMK AO2 SLP164
     T02330228=
KMVY 080653Z AUTO 15004KT 1/2SM R24/1600V5000FT FG VV001 21/19
     A3006 RMK AO2 SLP179 T02110194=
KMYF 080653Z AUTO 34003KT 10SM OVC013 17/13 A2992 RMK AO2 SLP128
     T01670133 TSNO=
KOGD 080653Z 18008KT 10SM CLR 21/07 A3007 RMK AO2 SLP126 T02110067
     402890139=
KOJC 080653Z AUTO 00000KT 10SM OVC065 23/22 A3006 RMK AO2 SLP168
     T02330217=
KOLF 080653Z AUTO 20003KT 10SM CLR 13/09 A3014 RMK AO2 SLP202
     T01280094 402670067=
KOMK 080653Z AUTO 30009KT 10SM CLR 20/08 A3003 RMK AO2 SLP161
     T02000078=
KONO 080653Z AUTO 23005KT 10SM CLR 16/07 A3002 RMK AO2 SLP153
     T01560072 403220111=
KONT 080653Z 25006KT 7SM SCT015 15/12 A2991 RMK AO2 SLP122
     T01500122=
KOPF 080653Z AUTO 05006KT 10SM FEW022 27/24 A2994 RMK AO2 SLP140
     T02670244=
KORL 080653Z AUTO 00000KT 10SM CLR 24/21 A3000 RMK AO2 SLP162
     T02390211=
KOSH 080653Z AUTO 18005KT 7SM -RA SCT070 OVC110 22/20 A3000 RMK
     AO2 SLP145 P0003 T02170200=
KOSU 080653Z AUTO 00000KT 8SM CLR 23/18 A3008 RMK AO2 SLP177
     T02330183=
KOTM 080653Z AUTO 32004KT 4SM BR CLR 21/21 A3003 RMK AO2 SLP164
     T02110206=
KOVS 080653Z AUTO 00000KT 10SM CLR 21/20 A3001 RMK AO2 SLP160
     T02110200=
KOWD 080653Z AUTO 17003KT 5SM HZ OVC009 24/21 A3005 RMK AO2 SLP174
     T02440211=
KOXB 080653Z AUTO 09003KT 7SM BKN100 24/24 A2999 RMK AO2 RAB25E34
     SLP155 P0000 T02440244 $=
KPAE 080653Z AUTO 36003KT 10SM CLR 21/12 A2996 RMK AO2 SLP142
     T02060117=
KPBG 080653Z AUTO 00000KT 6SM BR BKN070 23/22 A2999 RMK AO2 SLP154
     T02330217=
KPBI 080653Z 05007KT 10SM SCT032 SCT250 28/23 A2994 RMK AO2 SLP137
     T02780233=
KPDT 080653Z AUTO 10006KT 10SM CLR 19/07 A2995 RMK AO2 SLP127
     T01890072=
KPEO 080653Z AUTO 00000KT 5SM BR CLR 22/21 A3008 RMK AO2 SLP176
     T02220211=
KPGD 080653Z AUTO 08004KT 10SM CLR 24/22 A3000 RMK AO2 SLP161
     T02390222 TSNO=
KPHD 080653Z AUTO 00000KT 2SM BR CLR 20/18 A3009 RMK AO2 SLP180
     T02000183=
KPIE 080653Z AUTO 11007KT 10SM BKN055 26/21 A3000 RMK AO2 SLP160
     T02560211 TSNO=
KSBM 080653Z AUTO 26004KT 10SM BKN015 OVC090 23/22 A3001 RMK AO2
     SLP158 T02280217=
KSEG 080653Z AUTO 00000KT 5SM HZ CLR 23/18 A3003 RMK AO2 SLP165
     T02280183=
KSFF 080653Z AUTO 00000KT 10SM CLR 16/11 A3005 RMK AO2 SLP161
     T01610106=
KSHN 080653Z AUTO 00000KT 10SM CLR 17/12 A2991 RMK AO2 SLP127
     T01670122=
KSHR 080653Z AUTO 00000KT 10SM CLR 10/07 A3026 RMK AO2 SLP229
     T01000072 402220056=
KSJC 080653Z 32005KT 8SM FEW019 SCT140 15/11 A2992 RMK AO2 SLP130
     T01500111=
KSLC 080653Z 15005KT 10SM CLR 19/08 A3006 RMK AO2 SLP128 T01940078
     402940144=
KSLN 080653Z AUTO 34007KT 8SM FEW013 22/21 A3010 RMK AO2 SLP182
     T02170206=
KSMQ 080653Z AUTO 00000KT 4SM BR CLR 22/21 A3000 RMK AO2 SLP157
     T02220211=
KSNA 080653Z 27003KT 10SM OVC019 18/12 A2991 RMK AO2 SLP128
     T01830122=
KSNY 080653Z AUTO 00000KT 10SM BKN034 17/14 A3032 RMK AO2 SLP233
     T01670144=
KSPB 080653Z AUTO 28003KT 9SM CLR 22/13 A2986 RMK AO2 SLP110
     T02170133=
KSPG 080653Z 10007KT 10SM CLR 27/22 A2999 RMK AO2 SLP155
     T02670217=
KSPW 080653Z AUTO 31005KT 10SM CLR 16/16 A3013 RMK AO2 SLP196
     T01610156=
KSRQ 080653Z 07005KT 10SM CLR 24/22 A2998 RMK AO2 SLP152
     T02440217=
KSTJ 080653Z AUTO 19005KT 6SM BR FEW016 OVC110 23/22 A3006 RMK AO2
     RAE37 SLP172 P0001 T02330222=
KSTP 080653Z 33005KT 10SM CLR 21/18 A3006 RMK AO2 SLP172
     T02060178=
KSWO 080653Z AUTO 01008KT 10SM BKN029 OVC039 23/21 A3004 RMK AO2
     SLP158 T02330211=
####018001888####
SAXX60 KWBC 080700
METAR
KNRB 080652Z 22005KT 10SM CLR 22/19 A3001 RMK AO2 SLP160
     T02220194=
KCEF 080655Z AUTO 00000KT 10SM BKN090 25/22 A3003 RMK AO2 SLP169
     T02490217 PWINO $=
KHMN 080655Z 04006KT 10SM FEW120 OVC150 20/15 A3015 RMK AO2A
     SLP130 T02030148 403260171 $=
KLRF 080655Z AUTO 00000KT 10SM SCT150 23/22 A3005 RMK AO2 SLP173
     T02340223=
KMGE 080655Z AUTO 00000KT 10SM CLR 23/19 A3006 RMK AO2 SLP167
     T02330187 $=
KNFW 080652Z AUTO 16006KT 10SM FEW060 27/22 A3003 RMK AO2 SLP153
     T02670217=
KNHK 080652Z 10004KT 4SM HZ CLR 27/24 A2997 RMK AO2 SLP149
     T02720239=
KNZY 080652Z 29006KT 10SM OVC017 18/13 A2991 RMK AO2 SLP127
     T01830128 $=
KPOB 080655Z AUTO 00000KT 10SM CLR 25/20 A2995 RMK AO2 SLP139
     T02520199 $=
KRDR 080655Z AUTO 26006KT 10SM CLR 15/12 A3004 RMK AO2 SLP181
     T01510123 $=
PWAK 080652Z 08015G18KT 8SM HZ FEW020 FEW030 28/24 A2996 RMK
     AO2A=
KIAG 080653Z AUTO 21005KT 5SM BR CLR 24/22 A3005 RMK AO2 SLP166
     T02390217=
PHNL 080653Z 02007KT 10SM FEW029 SCT047 24/18 A3003 RMK AO2
     RAB15E53 SLP167 P0000 T02440183=
PWAK 080652Z 08015G18KT 8SM HZ FEW020 FEW030 28/24 A2996 RMK
     AO2A=
KDNK 080653Z AUTO 00000KT 9SM CLR 24/22 A3000 RMK AO2 SLP154
     T02440222=
KNIP 080653Z 26004KT 10SM CLR 24/21 A3002 RMK AO2 SLP162
     T02440211=
KECG 080654Z AUTO 09003KT 4SM BR FEW010 26/24 A2995 RMK AO2 SLP140
     T02560244=
KNQX 080653Z AUTO 05004KT 10SM CLR 28/25 A2993 RMK AO2 SLP133
     T02830250 $=
PABI 080653Z AUTO 00000KT 10SM CLR 18/07 A3008 RMK AO2 SLP182
     T01830067 TSNO=
KNKT 080654Z AUTO 00000KT 10SM CLR 26/19 A2991 RMK AO2 SLP126
     T02560194 $=
PATC 080655Z AUTO 00000KT 10SM CLR 12/07 A3015 RMK AO1
     T01220067=
PAEH 080655Z AUTO 01003KT 10SM SCT008 BKN018 OVC049 09/M28 A3000
     RMK AO1 T00941283=
####018003701####
SAUS80 KWBC 080700 RRA
METAR
KCNY 080653Z AUTO 07011KT 10SM CLR 24/04 A3006 RMK AO2 SLP109
     T02390044 403440172=
KCRQ 080653Z AUTO 27003KT 10SM OVC012 17/13 A2991 RMK AO2 SLP126
     T01670133=
KDAL 080653Z 16008KT 10SM BKN017 27/23 A2999 RMK AO2 SLP149
     T02670233=
KDBQ 080653Z AUTO 28003KT 10SM OVC110 21/20 A3003 RMK AO2 RAE22
     SLP162 P0000 T02060200=
KHTL 080653Z AUTO 00000KT 9SM BKN120 22/21 A3005 RMK AO2 SLP170
     T02170211=
KGNT 080653Z AUTO 16013KT 19/08 A3027 RMK AO2 SLP146 T01890083
     403060161 PWINO TSNO=
KSAV 080653Z 28003KT 10SM CLR 22/19 A3000 RMK AO2 SLP157
     T02170194=
KJLN 080653Z 35003KT 10SM SCT034 BKN041 OVC110 23/22 A3005 RMK AO2
     SLP165 T02280222=
KLAN 080653Z 00000KT 6SM BR CLR 24/22 A3004 RMK AO2 SLP166
     T02390217 $=
KJAN 080654Z 00000KT 9SM CLR 24/23 A3005 RMK AO2 SLP169 T02390228
     $=
KOQT 080653Z AUTO 00000KT 9SM CLR 23/20 A3009 RMK AO2 SLP169
     T02330200 TSNO=
KGRR 080653Z AUTO 16003KT 7SM SCT050 SCT080 BKN120 25/22 A3004 RMK
     AO2 SLP163 T02500217=
KHLC 080653Z AUTO 36005KT 10SM CLR 17/16 A3020 RMK AO2 SLP213
     T01670156=
KHSI 080653Z AUTO 36005KT 10SM CLR 17/15 A3018 RMK AO2 SLP210
     T01670150=
KHVR 080653Z AUTO 20003KT 10SM SCT100 SCT110 13/09 A3018 RMK AO2
     SLP210 T01330094 402610083=
KMSN 080653Z 00000KT 7SM OVC120 22/21 A3000 RMK AO2 RAE10 SLP155
     P0000 T02170206=
PHTO 080653Z 06003KT 10SM SCT029 SCT050 OVC065 24/18 A3003 RMK AO2
     SLP169 T02440183=
PHKO 080653Z 09006KT 10SM CLR 25/16 A2999 RMK AO2 SLP155
     T02500161=
PHLI 080653Z 03009KT 10SM SCT023 BKN036 24/21 A3006 RMK AO2
     RAE0557 SLP175 P0000 T02400206 $=
K40J 080653Z AUTO 07003KT 23/21 A3001 RMK AO2 SLP163 T02280206
     PWINO TSNO=
KP92 080653Z AUTO 00000KT 26/24 A2998 RMK AO2 SLP152 T02560244
     PWINO TSNO=
KCUT 080653Z AUTO 31005KT 10SM CLR 08/06 A3034 RMK AO2 SLP243
     T00780061 401720056 TSNO=
KBTV 080654Z 00000KT 5SM BR OVC055 24/22 A3001 RMK AO2 SLP159
     T02390217=
KNUI 080653Z AUTO 00000KT 4SM BR FEW100 26/23 A2997 RMK AO2 SLP146
     T02560233=
KLXV 080653Z AUTO 19003KT 10SM FEW030 OVC035 07/06 A3053 RMK AO2
     SLP194 T00720061 401830039 TSNO=
KCTY 080653Z AUTO 00000KT 22/21 A3002 RMK AO2 SLP163 T02170211
     PWINO TSNO $=
KCHA 080653Z 00000KT 10SM CLR 24/18 A3006 RMK AO2 SLP169
     T02390183=
KLWD 080653Z AUTO 21003KT 10SM CLR 21/21 A3006 RMK AO2 SLP170
     T02110206=
KODX 080653Z AUTO 33003KT 10SM SCT080 16/14 A3020 RMK AO2 SLP220
     T01560144=
KPDX 080653Z 30003KT 10SM CLR 22/16 A2987 RMK AO2 SLP112
     T02170156=
KPGA 080653Z AUTO 05005KT 10SM CLR 30/M03 A3000 RMK AO2 SLP081
     T03001028 403670206=
KSEA 080653Z 35007KT 10SM CLR 23/12 A2994 RMK AO2 SLP141 T02280117
     $=
KSTC 080653Z AUTO 00000KT 4SM BR CLR 14/13 A3008 RMK AO2 SLP191
     T01440133=
KPOF 080653Z AUTO 00000KT 7SM CLR 25/24 A3003 RMK AO2 SLP161
     T02500239 $=
KRIW 080653Z AUTO 00000KT 10SM CLR 14/04 A3032 RMK AO2 SLP221
     T01390039 402280044=
KYKM 080653Z AUTO 25008KT 10SM CLR 19/06 A2999 RMK AO2 SLP147
     T01940056=
KRNM 080653Z AUTO 00000KT 5SM BR OVC006 14/13 A2992 RMK AO2 SLP122
     T01440128 TSNO=
KFAR 080653Z 24006KT 10SM CLR 17/13 A3005 RMK AO2 SLP176
     T01720128=
KMWT 080653Z AUTO 00000KT 10SM OVC016 23/23 A3004 RMK AO2 SLP161
     T02330228 TSNO=
KELY 080653Z AUTO 08005KT 10SM CLR 16/M04 A3019 RMK AO2 SLP116
     T01611044 $=
KGPZ 080655Z AUTO 00000KT 10SM CLR 13/11 A3007 RMK AO1=
KLBB 080653Z 13004KT 10SM FEW013 SCT030 OVC130 21/19 A3013 RMK AO2
     SLP161 OCNL LTGIC DSNT N CB DSNT N MOV S T02110189=
####018000088####
SAAS31 KWBC 080630 RRD
METAR
VIBN 080630Z 09006KT 7000 FEW020 SCT025 38/22 Q1004=
####018003632####
SAUS70 KWBC 080700 RRL
METAR
KPIL 080653Z AUTO 07007KT 10SM FEW018 SCT023 SCT041 29/26 A2981
     RMK AO2 RAB32E43 SLP092 P0000 T02890256 $=
KPLN 080654Z AUTO 00000KT 10SM OVC100 22/21 A2999 RMK AO2
     TSE04RAB36E46 SLP152 P0000 T02170211=
KPTN 080655Z AUTO 08003KT 10SM CLR 24/M09 A3002 RMK AO1=
KPTV 080655Z AUTO 00000KT 10SM CLR 22/13 A2983 RMK AO1=
KPWT 080655Z AUTO 03011KT 10SM CLR 23/08 A2996 RMK AO1=
KRBD 080653Z VRB04KT 10SM BKN014 25/23 A2999 RMK AO2 SLP148
     T02500233=
KRBL 080654Z AUTO 00000KT 10SM CLR 27/18 A2981 RMK AO2 SLP090
     T02670178=
KRST 080654Z AUTO 33005KT 7SM CLR 20/19 A3007 RMK AO2 SLP175
     T02000189=
KSBY 080654Z AUTO 00000KT 3SM BR FEW006 24/23 A2998 RMK AO2 SLP154
     T02390228=
KSET 080654Z AUTO 00000KT 7SM FEW050 26/25 A3002 RMK AO2 SLP160
     T02560250=
KSGT 080655Z 00000KT 10SM CLR A3004 RMK AO1=
KSKX 080655Z AUTO 09009KT 10SM CLR 12/04 A3038 RMK AO1=
KSLG 080655Z AUTO 14003KT 10SM CLR 23/22 A3006 RMK AO1=
KSPA 080655Z AUTO 30003KT 10SM CLR 25/23 A3001 RMK AO2=
KSPL 080655Z AUTO 29/25 RMK AO2 PWINO PNO=
KSQI 080655Z 00000KT 6SM FEW012 BKN044 OVC050 22/21 A3004 RMK AO1
     P0002=
KSUE 080655Z AUTO 21004KT 7SM OVC110 21/20 A2999 RMK AO1=
KTQE 080654Z AUTO 34006KT 10SM SCT023 19/18 A3012 RMK AO2 SLP188
     T01940178=
KTVF 080655Z AUTO 24007KT 10SM CLR 15/12 A3003 RMK AO1=
KUIN 080654Z AUTO 00000KT 10SM OVC018 23/22 A3005 RMK AO2 RAB00E16
     SLP166 P0000 T02280222=
KUTA 080655Z AUTO 00000KT 10SM CLR 24/22 A3005 RMK AO2=
KUZA 080654Z AUTO 30003KT 10SM CLR 26/17 A3001 RMK AO2 SLP145
     T02560172=
KVBT 080655Z AUTO 15004KT 10SM CLR 24/22 A3002 RMK AO1=
PAAQ 080653Z AUTO 00000KT 10SM FEW090 14/08 A3003 RMK AO2 SLP165
     T01440078 TSNO=
PABR 080653Z 26013KT 10SM BKN200 05/03 A2998 RMK AO2 SLP154
     T00500028 $=
PACV 080653Z 06008KT 030V100 10SM SCT035 BKN045 OVC065 14/10 A3010
     RMK AO2 RAB0554E40 SLP192 P0001 T01440100=
PADE 080653Z AUTO 27005KT 10SM CLR 11/05 A3014 RMK AO2 SLP207
     T01060050 TSNO=
PAEG 080653Z AUTO 00000KT 10SM CLR 14/08 A2999 RMK AO2 SLP157
     T01390083 TSNO=
PAEN 080653Z AUTO 36010KT 10SM -RA BKN065 BKN090 OVC110 14/12
     A2998 RMK AO2 RAB35 SLP153 P0000 T01440117 TSNO=
PAGK 080653Z AUTO 06003KT 10SM CLR 12/08 A3007 RMK AO2 SLP187
     T01220083 TSNO=
PAGY 080653Z AUTO 00000KT 10SM CLR 13/11 A3022 RMK AO2 SLP231
     T01280111 TSNO=
PAIL 080653Z AUTO 36008KT 10SM OVC055 11/09 A2993 RMK AO2 SLP136
     T01110089 TSNO=
PAKT 080653Z AUTO VRB06KT 10SM CLR 20/12 A3008 RMK AO2 SLP184
     T02000117 TSNO=
PAKV 080653Z AUTO 00000KT 10SM CLR 16/07 A3009 RMK AO2 SLP189
     T01610067 TSNO=
PAKW 080653Z AUTO 20003KT 10SM CLR 13/11 A3012 RMK AO2 SLP199
     T01330106 TSNO=
PALH 080653Z 00000KT 10SM -RA OVC075 15/10 A3003 RMK AO2 RAB43
     SLP169 P0000 T01500100=
PAMR 080653Z 20004KT 10SM OVC080 14/09 A3002 RMK AO2 SLP165
     T01440094=
PAPB 080653Z AUTO 09016KT 9SM FEW012 OVC020 07/07 A2990 RMK AO2
     SLP115 T00720067 TSNO=
PASC 080653Z 20007KT 10SM FEW028 OVC060 10/08 A3001 RMK AO2 SLP162
     SML THN SPTS INOVC T01000078=
PASI 080653Z 00000KT 10SM CLR 14/12 A3018 RMK AO2 SLP220
     T01440122=
PASO 080653Z AUTO 00000KT 10SM OVC065 11/11 A2989 RMK AO2
     RAB0557E07 SLP121 P0000 T01110106 TSNO=
PATO 080653Z AUTO 13010G23KT 4SM RA BR SCT031 OVC042 12/11 A3003
     RMK AO2 PK WND 14031/0559 SLP169 P0029 T01220106 TSNO=
PAWD 080653Z AUTO 20003KT 2 1/2SM -RA BR SCT003 BKN008 OVC055
     10/09 A2999 RMK AO2 VIS 1 3/4V5 SLP154 P0008 T01000094
     TSNO=
####018000032####
SAAW41 KWBC 080650 RRB
NIL=
####018000028####
SABX31 KWBC 080650
NIL=
####018000685####
SADL31 KWBC 080650
METAR
EDBB NIL=
EDBT NIL=
EDCK NIL=
EDDF 080650Z 01004KT CAVOK 21/12 Q1021 NOSIG=
EDDH 080650Z 17008KT CAVOK 23/12 Q1019 NOSIG=
EDDK 080650Z 14007KT CAVOK 23/12 Q1020 NOSIG=
EDDL 080650Z 16006KT CAVOK 24/10 Q1019 NOSIG=
EDDM 080650Z 06004KT CAVOK 18/11 Q1023 NOSIG=
EDDN 080650Z 14005KT CAVOK 20/09 Q1022 NOSIG=
EDDS 080650Z VRB02KT CAVOK 20/10 Q1022 NOSIG=
EDDW 080650Z 15004KT CAVOK 23/13 Q1019 NOSIG=
EDFE 080650Z 10003KT CAVOK 22/12 Q1020=
EDFM 080650Z VRB02KT 080V080 CAVOK 25/12 Q1021=
EDHI 080650Z VRB03KT CAVOK 23/13 Q1019=
EDHL 080650Z 16007KT CAVOK 20/15 Q1020=
EDKB NIL=
EDKS NIL=
EDLE NIL=
EDLG NIL=
EDLI NIL=
####018000495####
SADL32 KWBC 080650
METAR
EDLN 080650Z VRB03KT CAVOK 24/16 Q1019=
EDLP 080650Z 19008KT CAVOK 24/11 Q1020=
EDLS NIL=
EDLW 080650Z 18007KT CAVOK 24/10 Q1020=
EDMA 080650Z 13004KT 080V200 CAVOK 19/11 Q1022=
EDML NIL=
EDMO 080650Z 08004KT 030V130 CAVOK 19/10 Q1023=
EDMS NIL=
EDQD NIL=
EDQM 080650Z VRB02KT CAVOK 19/11 Q1024=
EDRS NIL=
EDRT NIL=
EDTB NIL=
EDTD 080650Z VRB01KT CAVOK 19/13 Q1022=
EDTF NIL=
EDTK NIL=
EDTO NIL=
EDTY NIL=
EDTZ NIL=
EDVE NIL=
####018001107####
SADN31 KWBC 080650
METAR
EKAH 080650Z AUTO 20008KT 130V260 9999NDV SCT035/// BKN140///
     21/13 Q1018=
EKBI 080650Z NIL=
EKCH 080650Z 19010KT CAVOK 20/15 Q1020 NOSIG=
EKEB 080650Z AUTO 19008KT 9999NDV OVC049/// 20/16 Q1017=
EKHO NIL=
EKKA 080650Z 20009KT 160V240 9999 FEW030 BKN060 21/14 Q1017 TEMPO
     6000 SHRA SCT020CB=
EKMB NIL=
EKOD 080650Z 19007KT CAVOK 21/14 Q1019=
EKRK 080650Z 18010KT CAVOK 21/13 Q1020=
EKRN 080650Z AUTO 19003KT 9999NDV NCD 18/15 Q1022=
EKSB 080650Z 19006KT CAVOK 20/13 Q1018=
EKSN 080650Z 21009KT 9999 SCT023 BKN090 18/13 Q1017=
EKSP 080650Z 18007KT 9999 FEW045 BKN050 20/12 Q1018 NOSIG=
EKSV NIL=
EKTS NIL=
EKVA NIL=
EKVD 080650Z NIL=
EKVG 080652Z 17011KT 9999 FEW006 SCT008 BKN012 11/10 Q0992 RMK/RWY
     13/31 CLOSED DUE WIP/ SEE NOTAM E0050/10 WIND 850FT 15005KT
     050V220=
EKVG 080652Z 17011KT 9999 FEW006 SCT008 BKN012 11/10 Q0992 RMK/RWY
     13/31 CLOSED DUE WIP. SEE NOTAM E0050/10 WIND 850FT 15005KT
     050V220=
EKVJ 080650Z NIL=
EKVL NIL=
EKYT 080650Z 22012KT 9999 FEW027 BKN120 20/14 Q1017 NOSIG=
####018000107####
SAUS41 KLWX 080655
MTRDMH
METAR KDMH 080654Z AUTO 29/22 A2999 RMK AO2 SLP156 T02890222 PWINO 
TSNO
####018000159####
SADL33 KWBC 080645 RRB
METAR
EDNY 080650Z VRB04KT CAVOK 20/12 Q1022=
EDVK 080650Z 13005KT CAVOK 20/12 Q1021=
EDXW 080650Z 20010KT CAVOK 21/12 Q1018=
####018000115####
SAEN31 KWBC 080620 RRB
METAR
ENGM 080644Z 19008KT 9999 FEW008 SCT015 BKN020 15/13 Q1015 TEMPO
     BKN014=
####018001457####
SAEN31 KWBC 080650
METAR
EETN 080650Z 31007KT 280V340 9999 FEW007 SCT011 21/18 Q1014
     NOSIG=
EFHF 080650Z 35006KT CAVOK 24/19 Q1014=
EFHK 080650Z 32008KT 9999 FEW021 BKN200 24/19 Q1014 NOSIG=
EFIV NIL=
EFJY 080650Z 09003KT 9999 BKN012 20/17 Q1015=
EFKE NIL=
EFKK 080650Z VRB02KT CAVOK 20/14 Q1016=
EFKU 080650Z AUTO VRB02KT 9999NDV OVC013 21/17 Q1015=
EFMA 080650Z 34004KT 260V020 CAVOK 19/11 Q1016=
EFOU 080650Z VRB01KT 9999 FEW018 19/12 Q1016=
EFPN NIL=
EFPO 080650Z 27002KT CAVOK 20/13 Q1016=
EFRO 080650Z AUTO 23004KT CAVOK 16/13 Q1017=
EFTN NIL=
EFTP 080650Z 35004KT 280V070 9999 FEW015 SCT200 22/17 Q1015=
EFTU 080650Z AUTO 34005KT 290V010 CAVOK 21/13 Q1016=
EFVA 080650Z VRB01KT 9999 FEW020 BKN200 19/15 Q1016=
ENBO 080650Z VRB01KT CAVOK 16/09 Q1010 NOSIG=
ENBR 080650Z 17012KT 9999 FEW008 BKN060 15/12 Q1012 NOSIG=
ENCN 080650Z 21006KT 8000 -RA FEW002 BKN006 16/15 Q1015=
ENEB NIL=
ENFB NIL=
ENGM NIL=
ENHD 080650Z 18010KT 9999 FEW008 16/13 Q1012=
ENKR 080650Z 00000KT 9999 FEW007 BKN012 11/10 Q1017 REDZ=
ENSB 080650Z 35002KT 9999 FEW015 SCT035 BKN060 08/05 Q1008
     NOSIG=
ENTC 080650Z 03003KT 320V080 9999 BKN070 13/08 Q1011 NOSIG=
ENVA 080650Z 25005KT CAVOK 16/13 Q1009 NOSIG=
ENZV 080650Z 20009KT 9999 FEW010 SCT015 16/13 Q1013 NOSIG=
EVRA 080650Z 32010KT 280V340 9999 OVC005 17/17 Q1014 NOSIG=
EYVI 080650Z 27006KT 2600 SHRA BKN010CB OVC030 15/14 Q1014
     NOSIG=
####018000028####
SAGR41 KWBC 080650
NIL=
####018000028####
SAGR31 KWBC 080650
NIL=
####018000028####
SAIY31 KWBC 080650
NIL=
####018000028####
SAIY32 KWBC 080650
NIL=
####018000028####
SAIY41 KWBC 080650
NIL=
####018000028####
SAIY42 KWBC 080650
NIL=
####018000028####
SAIY43 KWBC 080650
NIL=
####018000087####
SAMM31 KWBC 080630 RRB
METAR
LCRA 080650Z 22008KT 9999 FEW020 27/20 Q1008 NOSIG=
####018000028####
SANL31 KWBC 080650
NIL=
####018000886####
SANO41 KWBC 080650
METAR
ENAL 080650Z 16005KT 9999 SCT050 16/11 Q1008=
ENAN 080650Z 16009KT 9999 FEW045 SCT070 14/09 Q1010 NOSIG=
ENAT 080650Z 15009KT 9999 FEW025 16/08 Q1014=
ENBL 080650Z 20006KT 9999 -SHRA SCT030 SCT060 14/09 Q1010=
ENBN 080650Z 34005KT CAVOK 17/10 Q1009=
ENBV 080650Z VRB02KT 9999 SCT008 BKN017 11/09 Q1016=
ENDI 080650Z NIL=
ENDU 080650Z VRB01KT 9999 -RA FEW050 BKN080 15/09 Q1011 NOSIG=
ENEK 080650Z NIL=
ENEV 080650Z 19004KT 130V240 9999 SCT060 16/09 Q1011=
ENFG 080650Z 2009KT 9999 FEW015 BKN150 14/09 Q1013=
ENFL 080650Z 18013KT 9999 FEW015 BKN060 15/11 Q1010=
ENFR NIL=
ENGC 080650Z 18028KT 9999 FEW010 SCT060 13/11 Q1006=
ENHF 080650Z NIL=
ENHV 080650Z 24007KT 200V280 9999 FEW011 10/07 Q1015=
ENKB 080650Z 24007KT 9999 FEW020 SCT075 15/12 Q1009=
ENLI NIL=
ENLK 080650Z 19007KT CAVOK 15/10 Q1010=
ENMH 080650Z NIL=
####018001205####
SANO42 KWBC 080650
METAR
ENML 080650Z VRB02KT 9999 FEW050 BKN060 15/11 Q1009=
ENMS 080650Z VRB02KT 9999 SCT065 18/10 Q1009=
ENNA 080650Z 17012KT 9999 FEW040 16/08 Q1015=
ENNK 080650Z VRB03KT 9999 BKN060 16/09 Q1011=
ENNM 080650Z 23006KT 190V260 CAVOK 17/10 Q1010=
ENNO 080650Z NIL=
ENOA 080650Z 19023KT 9999 FEW050 13/11 Q1008=
ENOL 080650Z 10003KT 9999 FEW020 SCT090 16/12 Q1009 NOSIG=
ENOV 080650Z VRB05KT 9999 SCT055 SCT085 17/06 Q1009=
ENRA 080650Z 36002KT 9999 BKN070 17/11 Q1009=
ENRM 080650Z 36006KT CAVOK 16/10 Q1010=
ENRO 080650Z 18008G18KT 110V240 9999 SCT027 BKN050 15/09 Q1011=
ENRS 080650Z 15009KT CAVOK 12/10 Q1010=
ENRY 080650Z 19008KT 150V230 8000 SCT005 BKN015 16/15 Q1016 TEMPO
     SCT007 BKN010=
ENSD 080650Z NIL=
ENSG 080650Z VRB01KT 9999 VCSH SCT040 SCT160 13/11 Q1011=
ENSH 080650Z 20004KT 9999 FEW040 16/10 Q1010=
ENSK 080650Z 12003KT CAVOK 17/10 Q1010=
ENSN 080650Z 19006KT 4000 RA VV006 15/14 Q1015=
ENSO 080650Z NIL=
ENSR 080650Z 15010KT CAVOK 17/09 Q1012=
ENST 080650Z 04007KT 350V070 CAVOK 17/11 Q1009=
ENSV NIL=
ENTO 080650Z 22005KT 4000 BR VCSH SCT007 BKN010 16/15 Q1016=
ENVD 080650Z 26005KT 9999 BKN017 11/08 Q1017=
####018000028####
SAOM43 KWBC 080650
NIL=
####018000108####
SARA31 KWBC 080600 RRK
METAR
UTNU 080630Z 17004MPS 140V210 CAVOK 39/13 Q1009 R13/CLRD60
     NOSIG=
####018001022####
SASN31 KWBC 080650
METAR
ESDB NIL=
ESDF 080650Z 25003KT CAVOK 20/12 Q1021=
ESGG 080650Z 19009KT 9999 OVC040 19/13 Q1018=
ESGJ 080650Z AUTO 20009KT 150V230 9999NDV ////// 19/11 Q1019=
ESGP 080650Z 19017KT 9999 FEW033 OVC044 20/15 Q1017=
ESKN 080650Z 26008KT 220V290 CAVOK 20/11 Q1018=
ESMK 080650Z VRB01KT CAVOK 21/14 Q1021=
ESMS 080650Z 21010KT CAVOK 21/12 Q1021=
ESMX 080650Z NIL=
ESNN 080650Z AUTO 18006KT 9999NDV NCD 19/13 Q1013=
ESNO 080650Z 15010KT CAVOK 19/11 Q1015=
ESNQ 080650Z 18008KT CAVOK 16/08 Q1013=
ESNS 080650Z 17006KT 140V230 CAVOK 20/11 Q1015=
ESNU 080650Z 11006KT CAVOK 19/11 Q1015=
ESOK 080650Z 21011KT 9999 BKN023 17/12 Q1017=
ESOW 080650Z 24008KT CAVOK 20/11 Q1017=
ESPA 080650Z 17010KT CAVOK 18/13 Q1016=
ESPC NIL=
ESSA 080650Z 28009KT CAVOK 20/11 Q1017 NOSIG=
ESSB 080650Z 25009KT CAVOK 20/12 Q1018=
ESSD 080650Z AUTO 23008KT 9999NDV FEW026/// 18/11 Q1016=
ESSN NIL=
ESSP 080650Z 27008KT CAVOK 20/11 Q1018=
ESSV 080650Z 31007KT CAVOK 18/12 Q1019=
####018000489####
SASW31 KWBC 080650
METAR
LSGC 080650Z NIL=
LSGG 080650Z 00000KT CAVOK 23/12 Q1022 NOSIG=
LSGL NIL=
LSGN NIL=
LSGS 080650Z VRB03KT CAVOK 22/12 Q1022=
LSZA 080650Z VRB02KT 9999 BKN048 23/13 Q1023 NOSIG=
LSZB 080650Z VRB01KT CAVOK 20/14 Q1022 NOSIG=
LSZD NIL=
LSZG 080650Z 06003KT CAVOK 19/11 Q1022 NOSIG=
LSZH 080650Z 31004KT 280V340 CAVOK 19/12 Q1022 NOSIG=
LSZL NIL=
LSZR 080650Z VRB02KT CAVOK 19/13 Q1022 NOSIG RMK D=
LSZS 080650Z VRB01KT CAVOK 11/09 Q1027=
####018001012####
SAUK31 KWBC 080650
METAR
EGAA 080650Z 22011KT 9999 SCT013 13/10 Q1013=
EGBB 080650Z 23008KT CAVOK 15/10 Q1018=
EGCC 080650Z 20008KT 9999 FEW027 14/12 Q1017=
EGFF 080650Z VRB03KT 9999 FEW022 15/13 Q1019=
EGGD 080650Z VRB03KT 9000 FEW013 15/13 Q1019=
EGGP 080650Z 21008KT 9999 FEW025 15/11 Q1016=
EGGW 080650Z 28008KT 5000 RA OVC006 15/14 Q1019=
EGHD 080650Z 00000KT 9999 FEW025 16/13 Q1019=
EGHH 080650Z NIL=
EGHI 080650Z 21007KT 170V240 9000 BKN007 16/15 Q1019=
EGJB 080650Z 26006KT 9999 2800SE VCFG FEW002 SCT006 BKN010 17/17
     Q1020=
EGJJ 080650Z 30005KT 9999 8000W VCFG FEW001 BKN005 17/17 Q1019
     BECMG SCT005=
EGKA 080650Z NIL=
EGKB 080650Z 23007KT 200V260 9000 BKN008 17/14 Q1019=
EGKK 080650Z 25008KT 9999 FEW008 BKN012 17/14 Q1019=
EGLF 080650Z 23008KT 190V250 9000 VCSH BKN008 17/15 Q1019=
EGLL 080650Z 23009KT 9999 BKN010 18/15 Q1019=
EGLL 080650Z NIL=
EGMC 080650Z 23006KT 9999 FEW011 BKN014 18/16 Q1019=
EGMD 080650Z NIL=
EGNH NIL=
EGNJ NIL=
####018000663####
SAUK32 KWBC 080650
METAR
EGNM 080650Z 22006KT 200V270 9999 FEW035 14/10 Q1016=
EGNS 080650Z 24009KT 9999 FEW018 15/11 Q1015 NOSIG=
EGNS 080650Z NIL=
EGNT 080650Z NIL=
EGNV 080650Z 17008KT 9999 FEW030 14/12 Q1015=
EGNX 080650Z 22011KT CAVOK 15/10 Q1018=
EGPA NIL=
EGPB 080650Z 20014KT 9999 FEW020 13/10 Q1005=
EGPC NIL=
EGPD 080650Z 22009KT 180V250 CAVOK 14/09 Q1010 NOSIG=
EGPF 080650Z 22013KT 9999 FEW030 SCT040 14/11 Q1012=
EGPH 080650Z 22012KT 9999 FEW024 14/09 Q1012=
EGPK 080650Z 21013KT 9999 FEW020 SCT048 14/10 Q1013=
EGSH NIL=
EGTE 080650Z 31004KT 9999 FEW025 17/14 Q1019=
EGTG 080650Z 26004KT 9999 BKN014 16/13 Q1019=
####018000403####
SAUK42 KWBC 080650
METAR
EGOS NIL=
EGOV NIL=
EGPC NIL=
EGPE NIL=
EGPF 080650Z 22013KT 9999 FEW030 SCT040 14/11 Q1012=
EGPL NIL=
EGPM NIL=
EGPN NIL=
EGPO NIL=
EGPT NIL=
EGPU NIL=
EGPW NIL=
EGQJ NIL=
EGQK NIL=
EGQL NIL=
EGQM NIL=
EGQS NIL=
EGSC NIL=
EGSS 080650Z 22007KT 9999 BKN010 18/15 Q1018=
EGTC 080650Z 29005KT 9999 FEW012 SCT018 15/13 Q1018=
EGTI NIL=
####018000028####
SAUR31 KWBC 080650
NIL=
####018000539####
SAUK41 KWBC 080650
METAR
EGAC 080650Z 20010KT 9999 FEW012 SCT024 14/10 Q1013=
EGAE NIL=
EGBE NIL=
EGBJ NIL=
EGDC NIL=
EGDG NIL=
EGDL NIL=
EGDM NIL=
EGDN NIL=
EGDP NIL=
EGDR NIL=
EGDY NIL=
EGFH NIL=
EGGP 080650Z 21008KT 9999 FEW025 15/11 Q1016=
EGGW 080650Z 28008KT 5000 RA OVC006 15/14 Q1019=
EGHE 080650Z 22002KT CAVOK 17/13 Q1019=
EGJA 080650Z 24004KT 6000 1000SE R26/0900 VCFG FEW000 SCT001
     BKN015 16/16 Q1020=
EGLC 080650Z 23007KT 9999 BKN014 18/14 Q1019=
EGNC NIL=
EGNT 080650Z NIL=
####018000776####
SAGL41 BGSF 080650
METAR BGSF 080650Z 07006KT 9999 FEW070 07/02 Q1009=
METAR BGBW 080650Z 08002KT 9999 FEW068 09/04 Q1009 RMK 1AC =
METAR BGGH 080650Z AUTO 26003KT 9999NDV  OVC003/// 05/03 Q1010=
METAR BGJN 080650Z AUTO 26002KT 0350NDV  FG VV001/// 05/05 Q1010=
METAR BGKK 080655Z NIL=
METAR BGCO 080650Z 02016KT 9999 FEW080 BKN110 04/00 Q1008=
METAR BGSS 080650Z AUTO 27003KT 0200NDV  FG ///001/// ///004/// 
04/04 Q1009 RMK /// /// =
METAR BGAA 080655Z NIL=
METAR BGUQ 080655Z NIL=
METAR BGMQ 080650Z AUTO 29005KT 260V320 9999NDV  OVC002/// 05/05 
Q1009=
METAR BGUK 080650Z AUTO 00000KT 9999NDV  NCD 05/02 Q1010=
METAR BGQQ 080650Z AUTO 17004KT 0450NDV  FG ///000/// 05/// Q1011 
RMK /// =
METAR BGPT 080650Z AUTO 29005KT 0300NDV  FG VV003/// 04/04 Q1009=
####018000733####
SAIY31 LIIB 080650
METAR LIEA 080650Z 36006KT 330V050 CAVOK 25/22 Q1019=
METAR LIEE 080645Z 28005KT CAVOK 23/19 Q1018 NOSIG=
METAR LIEO 080650Z VRB02KT CAVOK 26/22 Q1019=
METAR LIMC 080650Z VRB02KT 9999 BKN050 23/16 Q1022 NOSIG=
METAR LIME 080650Z 14009KT 9999 BKN055 23/15 Q1023=
METAR LIMF 080650Z VRB02KT 9999 SCT030 SCT050 23/17 Q1022=
METAR LIMJ 080650Z 02007KT CAVOK 27/21 1019=
METAR LIML 080650Z 08006KT 9999 BKN060 24/16 Q1022 NOSIG=
METAR LIRA 080645Z 35004KT 9999 FEW020 SCT030 27/21 Q1018=
METAR LIRF 080650Z 07005KT 040V120 9999 FEW035 27/19 Q1019 NOSIG=
METAR LIRN 080650Z 05010KT CAVOK 24/13 Q1019=
METAR LIRP 080645Z 11011KT 9999 FEW060 26/16 Q1019 NOSIG=
METAR LIRQ 080650Z VRB02KT CAVOK 26/15 Q1020=
####018000145####
SAYE20 OYAA 080700
METAR OYAA 080700Z 21010KT 7000 FEW018 BKN100 33/24 Q1004 =
METAR OYSQ 080700Z 20045G55KT 8000 FEW018 SCT200 31/24 Q1007=
####018000126####
SAKA31 PTKR 080700
METAR PTKR 080654Z 03005KT 15SM FEW018CB BKN120 OVC300 29/24 A2979
RMK CB DNST N-NE SLP087 T02940242=
####018000144####
SAUS43 KLSX 080655
MTRCOU
METAR KCOU 080654Z AUTO 13003KT 10SM -RA SCT001 BKN030 23/22 A3005 
RMK AO2 RAB34 SLP167 P0000 T02280222 TSNO
####018000108####
SAUS43 KIWX 080656
MTRFWA
METAR KFWA 080654Z 21004KT 10SM CLR 24/20 A3006 RMK AO2 SLP172 
T02390200
####018000115####
SAUS43 KAPX 080656
MTRAPN
METAR KAPN 080654Z AUTO 00000KT 5SM BR CLR 19/19 A3001 RMK AO2 
SLP160 T01940189
####018000113####
SAUS44 KSHV 080655
MTRBKB
METAR KBKB 080654Z AUTO 00000KT 10SM CLR 24/23 A2998 RMK AO2 SLP177 
T02440228
####018000110####
SAUS42 KRAH 080656
MTRGSO
METAR KGSO 080654Z 00000KT 8SM SCT090 26/18 A3001 RMK AO2 SLP150 
T02610178
####018000115####
SAUS41 KOKX 080656
MTRMTP
METAR KMTP 080654Z AUTO 00000KT 23/21 A3005 RMK AO2 SLP177 T02280206 
PWINO TSNO
####018000107####
SAUS41 KPHI 080656
MTRACY
METAR KACY 080654Z 00000KT 8SM CLR 25/23 A3001 RMK AO2 SLP162 
T02500228
####018000112####
SAUS41 KCAR 080655
MTRCAR
METAR KCAR 080654Z AUTO 11004KT 9SM CLR 23/21 A2999 RMK AO2 SLP153 
T02280206
####018000115####
SAUS41 KPHI 080656
MTR12N
METAR K12N 080654Z AUTO 00000KT 22/21 A3004 RMK AO2 SLP160 T02220211 
PWINO TSNO
####018001755####
SAEU KAWN 080700 RRD
METAR EBAW 080650Z 27004KT 240V300 CAVOK 23/13 Q1019 NOSIG=
METAR EBBR 080650Z 19004KT CAVOK 24/13 Q1019 NOSIG=
METAR EBCI 080650Z 19005KT CAVOK 23/11 Q1020 NOSIG=
METAR EBLG 080650Z 18007KT CAVOK 23/09 Q1020 NOSIG=
METAR EBOS 080650Z 27006KT CAVOK 19/13 Q1019 NOSIG=
METAR EDFH 080650Z 12006KT CAVOK 21/10 Q1022=
METAR EDVK 080650Z 13005KT CAVOK 20/12 Q1021=
METAR EGNT 080650Z 18003KT CAVOK 15/11 Q1014=
METAR ELLX 080650Z VRB03KT CAVOK 22/09 Q1021 NOSIG=
METAR ENAL 080650Z 16005KT 9999 SCT050 16/11 Q1008=
METAR ENAT 080650Z 15009KT 9999 FEW025 16/08 Q1014=
METAR ENBL 080650Z 20006KT 9999 -SHRA SCT030 SCT060 14/09 Q1010=
METAR ENCN 080650Z 21006KT 8000 -RA FEW002 BKN006 16/15 Q1015=
METAR ENEV 080650Z 19004KT 130V240 9999 SCT060 16/09 Q1011=
METAR ENFL 080650Z 18013KT 9999 FEW015 BKN060 15/11 Q1010=
METAR ENHD 080650Z 18010KT 9999 FEW008 16/13 Q1012=
METAR ENKB 080650Z 24007KT 9999 FEW020 SCT075 15/12 Q1009=
METAR ENKR 080650Z 00000KT 9999 FEW007 BKN012 11/10 Q1017 REDZ=
METAR ENML 080650Z VRB02KT 9999 FEW050 BKN060 15/11 Q1009=
METAR ENNA 080650Z 17012KT 9999 FEW040 16/08 Q1015=
METAR ENRO 080650Z 18008G18KT 110V240 9999 SCT027 BKN050 15/09 Q1011=
METAR ENRY 080650Z 19008KT 150V230 8000 SCT005 BKN015 16/15 Q1016 TEMPO
      SCT007 BKN010=
METAR ENSB 080650Z 35002KT 9999 FEW015 SCT035 BKN060 08/05 Q1008 NOSIG=
METAR LOWG 080650Z 00000KT CAVOK 18/12 Q1024 NOSIG=
METAR LOWI 080650Z VRB01KT CAVOK 17/12 Q1024 NOSIG=
METAR LOWK 080650Z VRB01KT 9999 FEW050 16/11 Q1024 NOSIG=
METAR LOWL 080650Z 06004KT 030V110 CAVOK 17/10 Q1024 NOSIG=
METAR LOWS 080650Z 15008KT 110V180 CAVOK 17/09 Q1023 NOSIG=
METAR LOWW 080650Z 34003KT 290V030 CAVOK 17/11 Q1024 NOSIG=
####018001440####
SAUS17 KAWN 080700
METAR KBAD 080655Z AUTO 00000KT 10SM CLR 24/24 A3001 RMK AO2 SLP161
      T02440238 $=
METAR KBLV 080655Z AUTO 00000KT 10SM FEW190 24/24 A3003 RMK AO2 SLP166
      T02430241=
METAR KCBM 080655Z AUTO 00000KT 10SM CLR 25/24 A3004 RMK AO2 SLP172
      T02460236 $=
METAR KCEF 080655Z AUTO 00000KT 10SM BKN090 25/22 A3003 RMK AO2 SLP169
      T02490217 PWINO $=
METAR KDAA 080655Z AUTO 14004KT 10SM CLR 24/21 A2997 RMK AO2 SLP151
      T02410209=
METAR KEDW 080655Z AUTO 17006KT 10SM CLR 21/04 A2986 RMK AO2 SLP065
      T02110040=
METAR KEFD 080650Z 11010KT 9SM FEW025 BKN130 28/24 A2994=
METAR KFHU 080655Z VRB04KT 10SM SCT120 26/10 A3005 RMK SLP091=
METAR KGRF 080655Z AUTO 14004KT 10SM CLR 18/11 A2992 RMK AO2 SLP133
      T01800114 $=
METAR KGUS 080655Z AUTO 18004KT 10SM CLR 23/21 A3005 RMK AO2 SLP168
      T02300206=
METAR KHMN 080655Z 04006KT 10SM FEW120 OVC150 20/15 A3015 RMK AO2A
      SLP130 T02030148 403260171 $=
METAR KIAB 080655Z AUTO 05009KT 10SM CLR 22/21 A3009 RMK AO2 SLP179
      T02240213=
METAR KLRF 080655Z AUTO 00000KT 10SM SCT150 23/22 A3005 RMK AO2 SLP173
      T02340223=
METAR KMGE 080655Z AUTO 00000KT 10SM CLR 23/19 A3006 RMK AO2 SLP167
      T02330187 $=
METAR KMTC 080655Z AUTO 00000KT 10SM CLR 23/22 A3003 RMK AO2 SLP170
      T02300220 $=
METAR KNFW 080652Z AUTO 16006KT 10SM FEW060 27/22 A3003 RMK AO2 SLP153
      T02670217=
####018001656####
SAZZ40 KAWN 080700 RRC
METAR BGBW 080650Z 08002KT 9999 FEW068 09/04 Q1009 RMK 1AC=
METAR BGGH 080650Z AUTO 26003KT 9999NDV OVC003/// 05/03 Q1010=
METAR BGJN 080650Z AUTO 26002KT 0350NDV FG VV001/// 05/05 Q1010=
METAR BGSF 080650Z 07006KT 9999 FEW070 07/02 Q1009=
METAR KBAD 080655Z AUTO 00000KT 10SM CLR 24/24 A3001 RMK AO2 SLP161
      T02440238 $=
METAR KBAF 080653Z 00000KT 9SM CLR 24/21 A3003 RMK AO2 SLP165 T02390211=
METAR KBUR 080653Z AUTO 15004KT 10SM OVC011 16/13 A2991 RMK AO2 SLP119
      T01610128 TSNO=
METAR KFHU 080655Z VRB04KT 10SM SCT120 26/10 A3005 RMK SLP091=
METAR KGRF 080655Z AUTO 14004KT 10SM CLR 18/11 A2992 RMK AO2 SLP133
      T01800114 $=
METAR KGUS 080655Z AUTO 18004KT 10SM CLR 23/21 A3005 RMK AO2 SLP168
      T02300206=
METAR KOZR 080655Z AUTO 00000KT 10SM CLR 23/23 A3003 RMK AO2 SLP166
      T02270227=
METAR KRIV 080655Z AUTO 30003KT 10SM CLR 14/12 A2992 RMK AO2 SLP131
      T01390117=
METAR KSUU 080655Z AUTO 23022G28KT 10SM CLR 14/10 A2982 RMK AO2 PK
      WND 24031/0618 SLP099 T01380103 RVRNO $=
METAR KTOI 080653Z AUTO 00000KT 9SM CLR 23/22 A3004 RMK AO2 SLP166
      T02280222=
METAR KTTS 080655Z 33002KT 10SM FEW030 FEW290 21/20 A3000 RMK SLP159
      1CU /0/ 1CI /0/=
METAR MGGT 080700Z 18006KT CAVOK 17/13 Q1023 A3021 SCT080 OVC100 NOSIG=
METAR OAKB 080650Z VRB05KT 8000 NSC 31/11 Q1017 NOSIG RMK BLU BLU=
METAR PHJR 080653Z VRB03KT 10SM FEW060 24/18 A3003 RMK AO2 SLP176 T02390183=
METAR TIST 080653Z AUTO 10006KT 10SM CLR 28/24 A2997 RMK AO2 SLP148
      T02780244 TSNO=
METAR TISX 080653Z 11010KT 10SM FEW021 28/24 A2997 RMK AO2 SLP148 T02780239=
####018001635####
SAEU KAWN 080700 RRC
METAR EDAC 080650Z 18005KT CAVOK 20/13 Q1022=
METAR EDAH 080650Z 14004KT 110V170 CAVOK 19/11 Q1022=
METAR EDHI 080650Z VRB03KT CAVOK 23/13 Q1019=
METAR EDHL 080650Z 16007KT CAVOK 20/15 Q1020=
METAR EDLN 080650Z VRB03KT CAVOK 24/16 Q1019=
METAR EDLP 080650Z 19008KT CAVOK 24/11 Q1020=
METAR EDLW 080650Z 18007KT CAVOK 24/10 Q1020=
METAR EDMA 080650Z 13004KT 080V200 CAVOK 19/11 Q1022=
METAR EDMO 080650Z 08004KT 030V130 CAVOK 19/10 Q1023=
METAR EDNY 080650Z VRB04KT CAVOK 20/12 Q1022=
METAR EDOP 080650Z 16005KT 130V190 CAVOK 22/12 Q1021=
METAR EDQM 080650Z VRB02KT CAVOK 19/11 Q1024=
METAR EDSB 080650Z VRB02KT CAVOK 21/14 Q1021=
METAR EDTL 080650Z VRB01KT CAVOK 21/14 Q1020=
METAR EDXW 080650Z 20010KT CAVOK 21/12 Q1018=
METAR EGBB 080650Z 23008KT CAVOK 15/10 Q1018=
METAR EGKB 080650Z 23007KT 200V260 9000 BKN008 17/14 Q1019=
METAR EGLF 080650Z 23008KT 190V250 9000 VCSH BKN008 17/15 Q1019=
METAR EGLL 080650Z 23009KT 9999 BKN010 18/15 Q1019=
METAR EGMC 080650Z 23006KT 9999 FEW011 BKN014 18/16 Q1019=
METAR EGNS 080650Z 24009KT 9999 FEW018 15/11 Q1015 NOSIG=
METAR EGPK 080650Z 21013KT 9999 FEW020 SCT048 14/10 Q1013=
METAR EGSS 080650Z 22007KT 9999 BKN010 18/15 Q1018=
METAR EGTC 080650Z 29005KT 9999 FEW012 SCT018 15/13 Q1018=
METAR EHEH 080655Z AUTO 18004KT 9999NDV NCD 24/13 Q1019 BLU BLU=
METAR ETEB 080655Z AUTO 00000KT 9999 CLR 19/10 A3021 RMK AO2 SLP215
      T01900100=
METAR LQMO 080700Z 33006KT 9999 FEW045 23/08 Q1018=
METAR LQSA 080700Z VRB01KT 9999 SCT050 15/10 Q1024 NOSIG=
METAR LWOH 080700Z 01006KT 320V080 9999 FEW033 18/07 Q1019=
####018001565####
SAEW KAWN 080700 RRA
METAR EBCI 080650Z 19005KT CAVOK 23/11 Q1020 NOSIG=
METAR EDAC 080650Z 18005KT CAVOK 20/13 Q1022=
METAR EDAH 080650Z 14004KT 110V170 CAVOK 19/11 Q1022=
METAR EDFH 080650Z 12006KT CAVOK 21/10 Q1022=
METAR EDHI 080650Z VRB03KT CAVOK 23/13 Q1019=
METAR EDHL 080650Z 16007KT CAVOK 20/15 Q1020=
METAR EDLN 080650Z VRB03KT CAVOK 24/16 Q1019=
METAR EDLP 080650Z 19008KT CAVOK 24/11 Q1020=
METAR EDLW 080650Z 18007KT CAVOK 24/10 Q1020=
METAR EDMA 080650Z 13004KT 080V200 CAVOK 19/11 Q1022=
METAR EDMO 080650Z 08004KT 030V130 CAVOK 19/10 Q1023=
METAR EDNY 080650Z VRB04KT CAVOK 20/12 Q1022=
METAR EDOP 080650Z 16005KT 130V190 CAVOK 22/12 Q1021=
METAR EDQM 080650Z VRB02KT CAVOK 19/11 Q1024=
METAR EDSB 080650Z VRB02KT CAVOK 21/14 Q1021=
METAR EDTL 080650Z VRB01KT CAVOK 21/14 Q1020=
METAR EDVK 080650Z 13005KT CAVOK 20/12 Q1021=
METAR EDXW 080650Z 20010KT CAVOK 21/12 Q1018=
METAR EGJJ 080650Z 30005KT 9999 8000W VCFG FEW001 BKN005 17/17 Q1019
      BECMG SCT005=
METAR EHEH 080655Z AUTO 18004KT 9999NDV NCD 24/13 Q1019 BLU BLU=
METAR EKAH 080650Z AUTO 20008KT 130V260 9999NDV SCT035/// BKN140///
      21/13 Q1018=
METAR EKEB 080650Z AUTO 19008KT 9999NDV OVC049/// 20/16 Q1017=
METAR EKRN 080650Z AUTO 19003KT 9999NDV NCD 18/15 Q1022=
METAR EKSB 080650Z 19006KT CAVOK 20/13 Q1018=
METAR EKSN 080650Z 21009KT 9999 SCT023 BKN090 18/13 Q1017=
METAR EKYT 080650Z 22012KT 9999 FEW027 BKN120 20/14 Q1017 NOSIG=
METAR ETEB 080655Z AUTO 00000KT 9999 CLR 19/10 A3021 RMK AO2 SLP215
      T01900100=
####018000315####
SAHW31 KMSC 080655
METAR PHMK 080654Z AUTO 04006KT 10SM CLR 23/19 A3004 RMK AO2 SLP174 
    T02280194 TSNO=
METAR PHOG 080654Z 03013KT 10SM FEW030 SCT050 25/18 A3003 RMK AO2 
    SLP173 T02500183=
METAR PGSN 080654Z 08010KT 10SM SCT023 SCT080 29/23 A2985 RMK AO2 
    RAB41E50 SLP107 P0000 T02890228=
####018001272####
SAUS20 KNKA 080655
METAR KRUT 080655Z AUTO 13007KT 7SM CLR 22/19 A3005 RMK AO1=
METAR KSDY 080655Z AUTO 00000KT 10SM SCT120 13/09 A3015 RMK AO1=
METAR KSFM 080655Z 00000KT 3SM OVC003 21/18 A3006 RMK AO1=
METAR KSFZ 080655Z AUTO 00000KT 5SM OVC006 22/21 A3005 RMK AO1=
METAR KSGU 080655Z AUTO 03003KT 10SM CLR 29/02 A2992 RMK AO1=
METAR KSJN 080654Z AUTO 14004KT 10SM BKN090 OVC110 24/03 A3015 RMK 
    AO2 SLP095 T02390028 403110139=
METAR KSMN 080655Z AUTO 23004KT 10SM CLR 12/02 A3019 RMK AO1=
METAR KSYR 080654Z 00000KT 7SM CLR 23/21 A3004 RMK AO2 SLP167 
    T02280206=
METAR KTAD 080654Z AUTO 00000KT 10SM CLR 14/13 A3034 RMK AO2 SLP208 
    T01440128 402500133=
METAR KTKI 080653Z AUTO 16004KT 10SM FEW023 26/23 A3000 RMK AO2 
    SLP154 T02560228=
METAR KTPL 080655Z 12004KT 10SM BKN012 BKN018 OVC050 25/23 A2998 RMK 
    AO1=
METAR KVAY 080654Z AUTO 00000KT 4SM BR CLR 24/22 A3001 RMK AO2 
    SLP161 T02390222=
METAR KVSF 080654Z AUTO 00000KT 5SM BR CLR 22/21 A3005 RMK AO2 
    SLP174 T02170206 $=
METAR KVTA 080654Z AUTO 00000KT 4SM BR CLR 19/18 A3008 RMK AO2 
    SLP179 T01890178=
METAR KWVL 080655Z AUTO 18005KT 7SM OVC005 21/19 A3003 RMK AO1=
METAR KWWD 080655Z AUTO 10SM FEW085 OVC120 24/23 A3001 RMK AO1=
####018002937####
SAUS20 KNKA 080655
METAR KAFJ 080655Z AUTO 00000KT 1/2SM VV005 18/17 A3010 RMK AO1 
    57007=
METAR KAKR 080654Z AUTO 00000KT 6SM HZ CLR 22/19 A3009 RMK AO2 
    SLP177 T02220194=
METAR KBHB 080655Z AUTO 00000KT 6SM OVC003 18/18 A3009 RMK AO1=
METAR KBID 080655Z AUTO 14004KT 10SM FEW017 SCT025 OVC030 22/22 
    A3005 RMK AO1=
METAR KBLM 080655Z AUTO 06004KT 5SM OVC110 24/21 A3004 RMK AO1=
METAR KBOS 080654Z 19009KT 4SM BR BKN011 24/22 A3005 RMK AO2 SLP174 
    T02390217=
METAR KBTP 080655Z AUTO 03003KT 2SM CLR 19/18 A3011 RMK AO1 54000=
METAR KBUF 080654Z 19004KT 9SM CLR 23/20 A3006 RMK AO2 SLP173 
    T02280200=
METAR KBWI 080654Z 10004KT 7SM FEW110 SCT200 28/22 A2998 RMK AO2 
    SLP151 T02780217=
METAR KCOD 080655Z 09008KT 10SM CLR 10/M01 A3032 RMK AO1=
METAR KCOS 080654Z 10008KT 10SM BKN050 OVC065 14/12 A3039 RMK AO2 
    SLP225 T01390117 402170122=
METAR KCRW 080654Z 00000KT 4SM BR CLR 22/20 A3008 RMK AO2 SLP172 
    T02220200=
METAR KDDH 080654Z AUTO 00000KT 4SM BR CLR 19/19 A3005 RMK AO2 
    SLP169 T01940189=
METAR KDHN 080653Z AUTO 00000KT 10SM CLR 23/21 A3007 RMK AO2 SLP176 
    T02330211=
METAR KDSV 080654Z AUTO 16004KT 7SM CLR 22/19 A3009 RMK AO2 SLP190 
    T02220194=
METAR KDTS 080653Z AUTO 00000KT 9SM CLR 25/23 A3002 RMK AO2 SLP164 
    T02500233=
METAR KDYL 080654Z AUTO 00000KT 8SM CLR 23/21 A3001 RMK AO2 SLP155 
    T02280206 TSNO=
METAR KEEN 080655Z AUTO 00000KT 6SM CLR 23/22 A3005 RMK AO1=
METAR KEGE 080655Z 26005KT 10SM CLR 12/10 A3037 RMK AO1=
METAR KENV 080655Z 01014KT 10SM CLR 23/M02 A3008 RMK AO1=
METAR KEUL 080655Z AUTO 00000KT 10SM CLR 19/08 A3003 RMK AO1=
METAR KEVV 080654Z AUTO 00000KT 10SM CLR 26/22 A3005 RMK AO2 SLP172 
    T02610217=
METAR KFIG 080654Z AUTO 34003KT 6SM BR CLR 19/17 A3011 RMK AO2 
    SLP183 T01940172=
METAR KFKL 080655Z 00000KT 5SM CLR 19/18 A3014 RMK AO1 57003=
METAR KFLO 080653Z AUTO 27005KT 10SM CLR 25/19 A2995 RMK AO2 SLP140 
    T02500189=
METAR KFNL 080655Z AUTO 09008KT 7SM BKN120 14/13 A3031 RMK AO1=
METAR KFZY 080654Z AUTO 00000KT 1 1/2SM BR CLR 21/20 A3004 RMK AO2 
    SLP169 T02060200=
METAR KGDV 080655Z AUTO 19005KT 10SM CLR 12/08 A3017 RMK AO1=
METAR KGED 080654Z AUTO 00000KT 3SM BR BKN100 24/23 A2999 RMK AO2 
    SLP155 T02390228=
METAR KGTU 080655Z 11003KT 10SM OVC012 25/21 A3001 RMK AO1=
METAR KGUC 080655Z AUTO 01008KT 10SM CLR 10/04 A3042 RMK AO1=
METAR KGXY 080655Z AUTO 15005KT 10SM FEW010 SCT015 OVC021 15/12 
    A3032 RMK AO1=
METAR KGZH 080653Z AUTO 00000KT 7SM CLR 23/22 A3004 RMK AO2 SLP170 
    T02280222=
METAR KHDN 080655Z 08008G15KT 10SM CLR 13/06 A3032 RMK AO1=
METAR KHYI 080655Z AUTO 06005KT 10SM FEW010 FEW027 OVC045 25/23 
    A2996 RMK AO1=
METAR KILE 080655Z 13007KT 10SM BKN014 OVC020 25/22 A2998 RMK AO1=
METAR KILN 080654Z AUTO 00000KT 4SM BR CLR 21/20 A3009 RMK AO2 
    SLP175 T02110200=
####018002974####
SAUS20 KNKA 080655
METAR KIND 080654Z 19003KT 9SM CLR 25/20 A3004 RMK AO2 SLP163 
    T02500200=
METAR KINT 080654Z AUTO 36003KT 10SM CLR 25/17 A3002 RMK AO2 SLP152 
    T02500172=
METAR KIPT 080654Z AUTO 00000KT 9SM CLR 22/17 A3004 RMK AO2 SLP167 
    T02170167=
METAR KIZG 080654Z AUTO 00000KT 10SM OVC090 22/20 A3006 RMK AO2 
    SLP177 T02220200=
METAR KJAC 080655Z AUTO 01012G15KT 10SM CLR 13/M01 A3031 RMK AO1=
METAR KJHW 080655Z AUTO 00000KT 8SM CLR 21/19 A3012 RMK AO1 57003=
METAR KJST 080654Z AUTO 25003KT 7SM CLR 21/16 A3014 RMK AO2 SLP188 
    T02110156=
METAR KLCI 080655Z AUTO 00000KT 10SM BKN085 22/19 A3005 RMK AO1=
METAR KLEW 080655Z 15004KT 2 1/2SM OVC002 21/20 A3008 RMK AO1=
METAR KLEX 080654Z 00000KT 7SM CLR 23/18 A3009 RMK AO2 SLP177 
    T02280183=
METAR KLWM 080654Z AUTO 00000KT 6SM BR CLR 23/21 A3006 RMK AO2 
    SLP178 T02330211=
METAR KLWT 080654Z AUTO 13005KT 10SM CLR 09/06 A3026 RMK AO2 SLP229 
    T00890061 402170050=
METAR KMGJ 080654Z AUTO 00000KT 5SM BR CLR 22/20 A3002 RMK AO2 
    SLP164 T02170200=
METAR KMIV 080654Z AUTO 11004KT 2 1/2SM BR OVC004 24/23 A2999 RMK 
    AO2 SLP152 T02440233=
METAR KMJX 080655Z AUTO 00000KT 3SM BKN110 23/21 A3001 RMK AO1=
METAR KMSV 080655Z AUTO 03004KT 7SM CLR 22/18 A3010 RMK AO1=
METAR KMVL 080654Z AUTO 00000KT 2 1/2SM BR CLR 21/20 A3006 RMK AO2 
    SLP175 T02060200=
METAR KOCH 080655Z AUTO 10005KT 10SM CLR 24/19 A3000 RMK AO1=
METAR KOGB 080653Z AUTO 30003KT 10SM CLR 26/19 A2999 RMK AO2 SLP153 
    T02560194=
METAR KOKK 080655Z AUTO 18003KT 10SM CLR 23/17 A3005 RMK AO1 57010=
METAR KOLS 080654Z AUTO 04010KT 10SM CLR 28/08 A2995 RMK AO2 SLP060 
    T02780078 403780200=
METAR KORH 080654Z AUTO 22005KT 4SM BR BKN006 22/21 A3008 RMK AO2 
    SLP179 T02220211=
METAR KOXC 080655Z 17003KT 3SM FEW085 22/21 A3008 RMK AO1=
METAR KPHL 080654Z 11003KT 8SM FEW150 26/22 A3001 RMK AO2 SLP161 
    T02610217 $=
METAR KPNE 080654Z 00000KT 9SM CLR 26/22 A3002 RMK AO2 SLP165 
    T02560222=
METAR KPNS 080653Z AUTO 00000KT 10SM CLR 25/24 A3002 RMK AO2 SLP168 
    T02500239=
METAR KPQI 080655Z AUTO 13003KT 10SM CLR 22/19 A2997 RMK AO1=
METAR KPRX 080655Z 14006KT 10SM BKN006 24/22 A3001 RMK AO1=
METAR KPSF 080654Z AUTO 00000KT 4SM BR CLR 20/19 A3006 RMK AO2 
    SLP149 T02000189=
METAR KPTW 080654Z AUTO 00000KT 5SM HZ CLR 25/20 A3002 RMK AO2 
    SLP162 T02500200 $=
METAR KPVC 080655Z 16007KT 10SM OVC004 21/19 A3007 RMK AO1=
METAR KPVU 080655Z 02003KT 10SM CLR 18/09 A3010 RMK AO1=
METAR KPWG 080655Z AUTO 13006KT 10SM FEW014 SCT023 26/22 A2999 RMK 
    AO1=
METAR KRDG 080654Z 00000KT 9SM CLR 26/21 A3001 RMK AO2 SLP162 
    T02560211=
METAR KRKD 080655Z AUTO 00000KT 1SM OVC002 18/17 A3008 RMK AO1=
METAR KRKS 080654Z AUTO 08012KT 10SM CLR 11/04 A3032 RMK AO2 SLP207 
    T01110044 402220061=
METAR KROC 080654Z 23004KT 8SM CLR 23/20 A3005 RMK AO2 SLP173 
    T02280200=
####018000746####
SAIY31 LIIB 080650
METAR LIEA 080650Z 36006KT 330V050 CAVOK 25/22 Q1019=
METAR LIEE 080645Z 28005KT CAVOK 23/19 Q1018 NOSIG=
METAR LIEO 080650Z VRB02KT CAVOK 26/22 Q1019=
METAR LIMC 080650Z VRB02KT 9999 BKN050 23/16 Q1022 NOSIG=
METAR LIME 080650Z 14009KT 9999 BKN055 23/15 Q1023=
METAR LIMF 080650Z VRB02KT 9999 SCT030 SCT050 23/17 Q1022=
METAR LIMJ 080650Z 02007KT CAVOK 27/21 1019=
METAR LIML 080650Z 08006KT 9999 BKN060 24/16 Q1022 NOSIG=
METAR LIRA 080645Z 35004KT 9999 FEW020 SCT030 27/21 Q1018=
METAR LIRF 080650Z 07005KT 040V120 9999 FEW035 27/19 Q1019 NOSIG=
METAR LIRN 080650Z 05010KT CAVOK 24/13 Q1019=
METAR LIRP 080645Z 11011KT 9999 FEW060 26/16 Q1019 NOSIG=
METAR LIRQ 080650Z VRB02KT CAVOK 26/15 Q1020=
####018000080####
SAPS31 NIUE 080700
METAR NIUE 080700Z AUTO 16006KT //// ////// 25/24 Q1013=
####018000147####
SAYE20 OYAA 080700
METAR OYAA 080700Z 21010KT 7000 FEW018 BKN100 33/24 Q1004 =
METAR OYSQ 080700Z 20045G55KT 8000 FEW018 SCT200 31/24 Q1007=
####018000353####
SABX31 EBBR 080650
METAR EBAW 080650Z 27004KT 240V300 CAVOK 23/13 Q1019 NOSIG=
METAR EBBR 080650Z 19004KT CAVOK 24/13 Q1019 NOSIG=
METAR EBCI 080650Z 19005KT CAVOK 23/11 Q1020 NOSIG=
METAR EBLG 080650Z 18007KT CAVOK 23/09 Q1020 NOSIG=
METAR EBOS 080650Z 27006KT CAVOK 19/13 Q1019 NOSIG=
METAR ELLX 080650Z VRB03KT CAVOK 22/09 Q1021 NOSIG=
####018000073####
SAUK33 EGGY 080650 RRB
METAR EGNT 080650Z 18003KT CAVOK 15/11 Q1014=
####018000086####
SAOS32 LOWM 080650
METAR LOXZ 080650Z VRB02KT 70KM SKC 13/09 Q1025 NOSIG RMK SKC=
####018000076####
SAUK34 EGGY 080650 RRA
METAR EGHQ 080650Z 18004KT 9000 NSC 14/14 Q1019=
####018000278####
SAFI33 EFHK 080650
EFJO 080650Z 00000KT CAVOK 24/19 Q1015=
EFLP 080650Z 36006KT 320V040 CAVOK 26/19 Q1013=
EFMI 080650Z AUTO VRB02KT CAVOK 25/19 Q1014=
EFSA 080650Z 36004KT 320V050 CAVOK 22/20 Q1014=
EFUT 080650Z VRB04KT CAVOK 27/17 Q1014=
METAR EFVR 080655Z NIL=
####018000080####
SAPK31 OPPS 080655
METAR OPPS 080700Z NE-10KT 5000 HZ FEW040 37/24 Q1007.0=
####018000094####
SALI20 GLRB 080700 COR
METAR GLRB 080700Z 00000KT 9999 BKN012 FEW024CB 24/23 Q1014 CB-SW=
####018000375####
SAOS31 LOWM 080650
METAR LOWW 080650Z 34003KT 290V030 CAVOK 17/11 Q1024 NOSIG=
METAR LOWL 080650Z 06004KT 030V110 CAVOK 17/10 Q1024 NOSIG=
METAR LOWS 080650Z 15008KT 110V180 CAVOK 17/09 Q1023 NOSIG=
METAR LOWI 080650Z VRB01KT CAVOK 17/12 Q1024 NOSIG=
METAR LOWG 080650Z 00000KT CAVOK 18/12 Q1024 NOSIG=
METAR LOWK 080650Z VRB01KT 9999 FEW050 16/11 Q1024 NOSIG=
####018000083####
SAPK31 OPKC 080655
METAR OPKC 080700Z 08008KTS 9000 BKN030 35/25 Q.1004 NOSIG=
####018001429####
SAZZ40 KAWN 080700 RRD
METAR ETOU 080655Z AUTO 00000KT 9999 CLR 22/12 A3016 RMK AO2 SLP208
      T02230121=
METAR KCBM 080655Z AUTO 00000KT 10SM CLR 25/24 A3004 RMK AO2 SLP172
      T02460236 $=
METAR KDAA 080655Z AUTO 14004KT 10SM CLR 24/21 A2997 RMK AO2 SLP151
      T02410209=
METAR KDYS 080655Z AUTO 18006KT 10SM CLR 21/21 A3002 RMK AO2 SLP142
      T02140209 $=
METAR KEDW 080655Z AUTO 17006KT 10SM CLR 21/04 A2986 RMK AO2 SLP065
      T02110040=
METAR KFBG 080655Z AUTO 33007KT 10SM CLR 28/18 A2994 RMK AO2 SLP135
      T02760177 $=
METAR KIAB 080655Z AUTO 05009KT 10SM CLR 22/21 A3009 RMK AO2 SLP179
      T02240213=
METAR KMMT 080655Z AUTO 30004KT 10SM CLR 23/19 A3000 RMK AO2 SLP156
      T02290192=
METAR KMTC 080655Z AUTO 00000KT 10SM CLR 23/22 A3003 RMK AO2 SLP170
      T02300220 $=
METAR KMUO 080655Z AUTO 15005KT 10SM CLR 17/02 A3004 RMK AO2 SLP150
      T01670017 403100098=
METAR KOFF 080655Z AUTO 34005KT 10SM CLR 21/21 A3010 RMK AO2 SLP178
      T02140208 $=
METAR KRND 080655Z AUTO 07006KT 10SM BKN016 25/23 A2995 RMK AO2 CIG
      014V022 SLP131 T02520231=
METAR PAEI 080655Z AUTO 00000KT 10SM CLR 18/08 A3003 RMK AO2 SLP171
      T01770082 $=
METAR PHHI 080655Z AUTO 05005KT 10SM FEW035 SCT055 22/18 A3005 RMK
      AO2 SLP167 T02180180=
METAR RODN 080655Z AUTO 19011KT 9999 BKN022 BKN029 30/26 A2982 RMK
      AO2 CIG 020V026 SLP096 T03000259=
####018000111####
SAUS43 KIWX 080656
MTRSBN
METAR KSBN 080654Z 11004KT 10SM OVC110 25/21 A3004 RMK AO2 SLP165 
T02500211
####018001762####
SAEU KAWN 080700 RRE
METAR EGUL 080655Z AUTO 22009KT 9999 FEW023 BKN031 18/16 A3005 RMK
      AO2 DZB0600E0620 SLP176 P0000 T01790159=
METAR ENAN 080650Z 16009KT 9999 FEW045 SCT070 14/09 Q1010 NOSIG=
METAR ENBN 080650Z 34005KT CAVOK 17/10 Q1009=
METAR ENBO 080650Z VRB01KT CAVOK 16/09 Q1010 NOSIG=
METAR ENBR 080650Z 17012KT 9999 FEW008 BKN060 15/12 Q1012 NOSIG=
METAR ENBV 080650Z VRB02KT 9999 SCT008 BKN017 11/09 Q1016=
METAR ENDU 080650Z VRB01KT 9999 -RA FEW050 BKN080 15/09 Q1011 NOSIG=
METAR ENFG 080650Z 2009KT 9999 FEW015 BKN150 14/09 Q1013=
METAR ENGC 080650Z 18028KT 9999 FEW010 SCT060 13/11 Q1006=
METAR ENHE 080650Z 19019KT 9999 FEW015 SCT030 14/11 Q1008=
METAR ENMS 080650Z VRB02KT 9999 SCT065 18/10 Q1009=
METAR ENOL 080650Z 10003KT 9999 FEW020 SCT090 16/12 Q1009 NOSIG=
METAR ENOV 080650Z VRB05KT 9999 SCT055 SCT085 17/06 Q1009=
METAR ENRA 080650Z 36002KT 9999 BKN070 17/11 Q1009=
METAR ENRM 080650Z 36006KT CAVOK 16/10 Q1010=
METAR ENSG 080650Z VRB01KT 9999 VCSH SCT040 SCT160 13/11 Q1011=
METAR ENSH 080650Z 20004KT 9999 FEW040 16/10 Q1010=
METAR ENSK 080650Z 12003KT CAVOK 17/10 Q1010=
METAR ENSN 080650Z 19006KT 4000 RA VV006 15/14 Q1015=
METAR ENSR 080650Z 15010KT CAVOK 17/09 Q1012=
METAR ENSS 080650Z 31009KT 9999 BKN003 09/08 Q1017=
METAR ENST 080650Z 04007KT 350V070 CAVOK 17/11 Q1009=
METAR ENTC 080650Z 03003KT 320V080 9999 BKN070 13/08 Q1011 NOSIG=
METAR ENTO 080650Z 22005KT 4000 BR VCSH SCT007 BKN010 16/15 Q1016=
METAR ENVA 080650Z 25005KT CAVOK 16/13 Q1009 NOSIG=
METAR ENZV 080650Z 20009KT 9999 FEW010 SCT015 16/13 Q1013 NOSIG=
METAR ETOU 080655Z AUTO 00000KT 9999 CLR 22/12 A3016 RMK AO2 SLP208
      T02230121=
METAR ETUO 080650Z 00000KT CAVOK 23/12 Q1020 BLU NOSIG=
####018000116####
SAUS45 KLKN 080656
MTRP68
METAR KP68 080653Z AUTO 00000KT 14/M02 A3012 RMK AO2 SLP117 
T01391022 PWINO TSNO
####018001615####
SANA35 KAWN 080700
METAR KBAD 080655Z AUTO 00000KT 10SM CLR 24/24 A3001 RMK AO2 SLP161
      T02440238 $=
METAR KBRO 080653Z 29003KT 10SM FEW050 27/25 A2981 RMK AO2 SLP093 T02670250=
METAR KFLL 080653Z 07009KT 10SM FEW021 SCT029 SCT049 28/24 A2993 RMK
      AO2 SLP135 T02830244=
METAR KHST 080655Z AUTO 04006KT 10SM BKN020 BKN043 27/25 A2994 RMK
      AO2 DZB0629E0635 SLP139 P0000 T02720247 $=
METAR KJFK 080651Z 00000KT 1/2SM R04R/P6000FT FG OVC003 24/23 A3002
      RMK AO2 SLP166 T02440233 $=
METAR KMCO 080653Z 00000KT 10SM CLR 22/20 A3000 RMK AO2 SLP159 T02220200=
METAR KNHK 080652Z 10004KT 4SM HZ CLR 27/24 A2997 RMK AO2 SLP149 T02720239=
METAR KNKT 080654Z AUTO 00000KT 10SM CLR 26/19 A2991 RMK AO2 SLP126
      T02560194 $=
METAR KNQX 080653Z AUTO 05004KT 10SM CLR 28/25 A2993 RMK AO2 SLP133
      T02830250 $=
METAR KOFF 080655Z AUTO 34005KT 10SM CLR 21/21 A3010 RMK AO2 SLP178
      T02140208 $=
METAR KPBI 080653Z 05007KT 10SM SCT032 SCT250 28/23 A2994 RMK AO2 SLP137
      T02780233=
METAR KPOB 080655Z AUTO 00000KT 10SM CLR 25/20 A2995 RMK AO2 SLP139
      T02520199 $=
METAR KSAV 080653Z 28003KT 10SM CLR 22/19 A3000 RMK AO2 SLP157 T02170194=
METAR KSSC 080655Z AUTO 28009KT 10SM CLR 26/20 A2996 RMK AO2 SLP145
      T02610195 $=
METAR SPIM 080700Z 00000KT 7000 SCT010 OVC022 16/14 Q1014 NOSIG RMK
      PP000=
METAR TBPB 080700Z 08015KT 9999 SCT018 28/24 Q1012 NOSIG=
METAR TIST 080653Z AUTO 10006KT 10SM CLR 28/24 A2997 RMK AO2 SLP148
      T02780244 TSNO=
METAR TISX 080653Z 11010KT 10SM FEW021 28/24 A2997 RMK AO2 SLP148 T02780239=
####018001589####
SAZZ40 KAWN 080700 RRE
METAR KDOV 080655Z AUTO 00000KT 4SM BR FEW003 SCT110 24/24 A2998 RMK
      AO2 SLP154 T02450245=
METAR KEND 080655Z AUTO 04008KT 10SM FEW026 BKN043 23/22 A3007 RMK
      AO2 SLP168 T02270222 $=
METAR KFTK 080655Z AUTO 00000KT 10SM CLR 24/21 A3007 RMK AO2 SLP175
      T02420213=
METAR KGSB 080655Z AUTO 00000KT 10SM CLR 26/19 A2991 RMK AO2 SLP129
      T02590186 $=
METAR KHIF 080655Z AUTO 05004KT 10SM BKN130 20/07 A3010 RMK AO2 SLP092
      T02010070 402830159 $=
METAR KHST 080655Z AUTO 04006KT 10SM BKN020 BKN043 27/25 A2994 RMK
      AO2 DZB0629E0635 SLP139 P0000 T02720247 $=
METAR KMUI 080655Z AUTO 00000KT 10SM CLR 24/18 A3003 RMK AO2 SLP164
      T02400184 $=
METAR KNIP 080653Z 26004KT 10SM CLR 24/21 A3002 RMK AO2 SLP162 T02440211=
METAR KNKT 080654Z AUTO 00000KT 10SM CLR 26/19 A2991 RMK AO2 SLP126
      T02560194 $=
METAR KNQX 080653Z AUTO 05004KT 10SM CLR 28/25 A2993 RMK AO2 SLP133
      T02830250 $=
METAR KNRB 080652Z 22005KT 10SM CLR 22/19 A3001 RMK AO2 SLP160 T02220194=
METAR KSSC 080655Z AUTO 28009KT 10SM CLR 26/20 A2996 RMK AO2 SLP145
      T02610195 $=
METAR KVAD 080655Z AUTO 00000KT 8SM R18/5000VP6000FT CLR 22/20 A3003
      RMK AO2 SLP167 T02230196 $=
METAR KWRI 080655Z AUTO 00000KT 2SM R18/4500V5000FT R24/2600V2800FT
      BR BKN003 24/24 A2999 RMK AO2 SLP157 T02370235 $=
METAR PABI 080653Z AUTO 00000KT 10SM CLR 18/07 A3008 RMK AO2 SLP182
      T01830067 TSNO=
METAR PASC 080653Z 20007KT 10SM FEW028 OVC060 10/08 A3001 RMK AO2 SLP162
      SML THN SPTS INOVC T01000078=
####018001495####
SANA14 KAWN 080700 RRA
METAR KEGI 080655Z AUTO 00000KT 10SM CLR 23/22 A3003 RMK AO2 SLP169
      T02300223 $=
METAR KNHK 080652Z 10004KT 4SM HZ CLR 27/24 A2997 RMK AO2 SLP149 T02720239=
METAR KNQX 080653Z AUTO 05004KT 10SM CLR 28/25 A2993 RMK AO2 SLP133
      T02830250 $=
METAR KNZY 080652Z 29006KT 10SM OVC017 18/13 A2991 RMK AO2 SLP127 T01830128
      $=
METAR KOFF 080655Z AUTO 34005KT 10SM CLR 21/21 A3010 RMK AO2 SLP178
      T02140208 $=
METAR KOZR 080655Z AUTO 00000KT 10SM CLR 23/23 A3003 RMK AO2 SLP166
      T02270227=
METAR KPOB 080655Z AUTO 00000KT 10SM CLR 25/20 A2995 RMK AO2 SLP139
      T02520199 $=
METAR KRDR 080655Z AUTO 26006KT 10SM CLR 15/12 A3004 RMK AO2 SLP181
      T01510123 $=
METAR KRIV 080655Z AUTO 30003KT 10SM CLR 14/12 A2992 RMK AO2 SLP131
      T01390117=
METAR KRND 080655Z AUTO 07006KT 10SM BKN016 25/23 A2995 RMK AO2 CIG
      014V022 SLP131 T02520231=
METAR KSSC 080655Z AUTO 28009KT 10SM CLR 26/20 A2996 RMK AO2 SLP145
      T02610195 $=
METAR KSUU 080655Z AUTO 23022G28KT 10SM CLR 14/10 A2982 RMK AO2 PK
      WND 24031/0618 SLP099 T01380103 RVRNO $=
METAR KTTS 080655Z 33002KT 10SM FEW030 FEW290 21/20 A3000 RMK SLP159
      1CU /0/ 1CI /0/=
METAR KWRI 080655Z AUTO 00000KT 2SM R18/4500V5000FT R24/2600V2800FT
      BR BKN003 24/24 A2999 RMK AO2 SLP157 T02370235 $=
METAR SBBR 080700Z 12005KT CAVOK 17/08 Q1022=
METAR SPIM 080700Z 00000KT 7000 SCT010 OVC022 16/14 Q1014 NOSIG RMK
      PP000=
####018001126####
SAXX70 KAWN 080700 RRB
METAR KQEX 080650Z AUTO 30004KT 7SM FEW055 29/18 A2972 RMK A02=
METAR KQAD 080655Z AUTO VRB05KT 6000 CLR 41/04 A2958 RMK AO2 SLP015
      T04110043 $=
METAR KQCQ 080655Z 33018G28KT 9999 CLR 44/M04 A2957 RMK PK WND 34030/20
      SLP011=
METAR KQHT 080655Z 32005KT 9999 FEW120 SCT250 33/M09 A2995 RMK SLP102
      WND DATA ESTMD ALSTG/SLP ESTMD=
METAR KQHY 080655Z AUTO 01001KT 12SM CLR 24/23 A3006 RMK AO2 SLP178
      T02430226=
METAR KQMG 080655Z AUTO 34014KT 12SM BKN100 20/15 A3015 RMK AO2 WSHFT
      0553 LTG DSNT W SLP138 T02040151=
METAR KQRH 080655Z AUTO 08003G11KT 9999 CLR 36/23 A2967 RMK AO2 SLP047=
METAR KQSA 080655Z VRB01KT 9000 HZ FEW120 33/13 A3003 RMK SLP351 WND
      DATA ESTMD ALSTG/SLP ESTMD=
METAR KQTI 080655Z AUTO 16004KT 9999 CLR 38/04 A2971 RMK AO2 SLP037
      T03760037=
METAR KQVF 080655Z AUTO 16012G18KT 12SM FEW027 SCT034 BKN070 28/19
      A3008 RMK AO2 SLP186 T02750193=
METAR KQDD 080656Z AUTO VRB02KT 9999 CLR 26/12 A3000 RMK AO2 SLP156=
METAR KQON 080656Z AUTO VRB03KT 9999 CLR 39/06 A2969 RMK AO2 SLP037
      T03910055=
####018000111####
SPCN46 CWAO 080656
SPECI CYOO 080656Z AUTO 00000KT 6SM BR OVC100 23/21 A3002 RMK DENSITY
 ALT 1300FT=

####018001483####
SAUS17 KAWN 080700 RRA
METAR KAFF 080655Z AUTO 34005KT 10SM BKN041 BKN130 13/12 A3039 RMK
      AO2 SLP204 T01260120 402130105=
METAR KBAB 080655Z AUTO 16005KT 10SM CLR 20/13 A2979 RMK AO2 SLP089
      T02010130 $=
METAR KDOV 080655Z AUTO 00000KT 4SM BR FEW003 SCT110 24/24 A2998 RMK
      AO2 SLP154 T02450245=
METAR KDYS 080655Z AUTO 18006KT 10SM CLR 21/21 A3002 RMK AO2 SLP142
      T02140209 $=
METAR KEND 080655Z AUTO 04008KT 10SM FEW026 BKN043 23/22 A3007 RMK
      AO2 SLP168 T02270222 $=
METAR KFBG 080655Z AUTO 33007KT 10SM CLR 28/18 A2994 RMK AO2 SLP135
      T02760177 $=
METAR KFTK 080655Z AUTO 00000KT 10SM CLR 24/21 A3007 RMK AO2 SLP175
      T02420213=
METAR KGSB 080655Z AUTO 00000KT 10SM CLR 26/19 A2991 RMK AO2 SLP129
      T02590186 $=
METAR KHIF 080655Z AUTO 05004KT 10SM BKN130 20/07 A3010 RMK AO2 SLP092
      T02010070 402830159 $=
METAR KHST 080655Z AUTO 04006KT 10SM BKN020 BKN043 27/25 A2994 RMK
      AO2 DZB0629E0635 SLP139 P0000 T02720247 $=
METAR KLFI 080655Z 10005KT 9SM R08/5500FT SCT085 26/23 A2996 RMK AO2A
      SLP147 T02570230 $=
METAR KLSF 080655Z AUTO 00000KT 10SM CLR 22/21 A3002 RMK AO2 SLP163
      T02210209 $=
METAR KMMT 080655Z AUTO 30004KT 10SM CLR 23/19 A3000 RMK AO2 SLP156
      T02290192=
METAR KMUI 080655Z AUTO 00000KT 10SM CLR 24/18 A3003 RMK AO2 SLP164
      T02400184 $=
METAR KMUO 080655Z AUTO 15005KT 10SM CLR 17/02 A3004 RMK AO2 SLP150
      T01670017 403100098=
####018000135####
SAUS43 KLOT 080656
MTRRFD
METAR KRFD 080654Z 00000KT 10SM -RA FEW040 BKN047 OVC070 22/21 A3004 
RMK AO2 SLP167 P0001 T02220211
####018000119####
SAUS45 KREV 080656
MTRDRA
METAR KDRA 080655Z AUTO 04004KT 10SM CLR 23/M12 A2990 RMK AO2 SLP073 
T02331122 TSNO
####018001438####
SAZZ40 KAWN 080700 RRF
METAR BGTL 080655Z AUTO 00000KT 9999 OVC002 05/05 A2985 RMK AO2 VIS
      4000 RWY26 SLP112 T00480046=
METAR ETAD 080655Z AUTO 07003KT 9999 CLR 22/12 A3016 RMK AO2 SLP199
      T02180121 $=
METAR KAFF 080655Z AUTO 34005KT 10SM BKN041 BKN130 13/12 A3039 RMK
      AO2 SLP204 T01260120 402130105=
METAR KBAB 080655Z AUTO 16005KT 10SM CLR 20/13 A2979 RMK AO2 SLP089
      T02010130 $=
METAR KBIX 080655Z AUTO 05003KT 10SM CLR 25/25 A3002 RMK AO2 SLP166
      T02530250=
METAR KFSI 080655Z AUTO 04006KT 10SM SCT240 24/22 A3003 RMK AO2 SLP149
      T02360216=
METAR KGTB 080655Z AUTO 19005KT 10SM CLR 23/20 A3003 RMK AO2 SLP167
      T02310203=
METAR KLFI 080655Z 10005KT 9SM R08/5500FT SCT085 26/23 A2996 RMK AO2A
      SLP147 T02570230 $=
METAR KLHW 080655Z AUTO 25006KT 10SM CLR 23/21 A2999 RMK AO2 SLP158
      T02250207=
METAR KLSF 080655Z AUTO 00000KT 10SM CLR 22/21 A3002 RMK AO2 SLP163
      T02210209 $=
METAR KMCF 080655Z AUTO 07005KT 10SM CLR 25/23 A3000 RMK AO2 SLP162
      T02490232=
METAR KTBN 080655Z AUTO 15003KT 10SM BKN050 OVC200 23/ A3006 RMK AO2
      SLP160 T0230 $=
METAR KTCM 080655Z AUTO 00000KT 10SM CLR 18/13 A2993 RMK AO2 SLP136
      T01820130=
METAR KTIK 080655Z AUTO 03003KT 10SM OVC021 23/23 A3003 RMK AO2 OVC
      V BKN SLP157 T02350226 $=
METAR KVOK 080655Z 24003KT 10SM FEW120 22/22 A3000 RMK AO2A SLP153
      T02220222=
####018000224####
SAAK41 KNKA 080656
METAR PAHN 080654Z AUTO 00000KT 10SM CLR 12/11 A3021 RMK AO2 SLP232 
    T01220106 TSNO=
METAR PAKN 080654Z 02008KT 10SM -RA BKN049 BKN060 BKN075 11/10 A2990 
    RMK AO2 SLP124 P0003 T01110100=
####018002996####
SAUS20 KNKA 080656
METAR KLAX 080653Z 27008KT 10SM BKN012 OVC015 17/13 A2992 RMK AO2
     SLP129 T01670128=
METAR K04W 080654Z AUTO 00000KT 10SM CLR 18/17 A3006 RMK AO2 
     T01820170=
METAR K0A9 080655Z AUTO 00000KT 8SM CLR 20/18 A3011 RMK=
METAR K20V 080656Z AUTO 06003KT 10SM CLR 10/06 A3042 RMK AO2=
METAR K4BM 080654Z AUTO 00000KT 5SM BR 05/04 A3065 RMK AO2=
METAR K7BM 080656Z AUTO 00000KT 10SM BKN017 10/06 A3055 RMK AO2=
METAR KABI 080652Z 17004KT 9SM CLR 22/21 A3003 RMK AO2 PK WND
     15034/0612 SLP139 T02170211 $=
METAR KAPA 080653Z COR 35006KT 10SM FEW010 OVC020 14/13 A3036 RMK 
    AO2 SLP233 T01440128 401890117 $=
METAR KAVP 080654Z 11005KT 7SM CLR 22/18 A3005 RMK AO2 SLP163
     T02170178 $=
METAR KBBG 080655Z AUTO 00000KT 7SM SCT018 OVC027 23/23 A3008 RMK 
     AO2 =
METAR KBBP 080655Z AUTO 29005KT 10SM SCT100 25/20 A2995 RMK AO2=
METAR KBDU 080657Z AUTO 25005G15KT 10SM RA OVC065 16/13 A3031 RMK
     AO2=
METAR KBJC 080657Z AUTO 27004KT 5SM BR SCT055 SCT085 OVC100 14/13
     A3035 RMK AO2=
METAR KBKN 080655Z AUTO 05005KT 10SM OVC070 22/21 A3006 RMK AO2 =
METAR KBMI 080656Z AUTO 00000KT 8SM FEW049 23/22 A3006 RMK AO2 PWINO 
    T02270216 SLP162 $=
METAR KBOK 080656Z AUTO 15003KT 1/4SM FG OVC002 10/10 A2998 RMK AO2 
    T01000100 401330083 SLP153 $=
METAR KBTV 080654Z 00000KT 5SM BR OVC055 24/22 A3001 RMK AO2
     SLP159 T02390217=
METAR KC29 080655Z AUTO 00000KT 10SM OVC120 22/20 A3001 RMK AO2 
     T02200202=
METAR KCCU 080656Z AUTO 16005KT 10SM SCT001 05/02 A3064 RMK AO2=
METAR KCEF 080655Z AUTO 00000KT 10SM BKN090 25/22 A3003 RMK AO2 SLP169
      T02490217 PWINO $=
METAR KCHA 080653Z 00000KT 10SM CLR 24/18 A3006 RMK AO2 SLP169
     T02390183=
METAR KCIC 080655Z AUTO 00000KT 10SM CLR 27/15 A2980 RMK AO1 =
METAR KCMR 080655Z AUTO 16007KT 10SM SCT110 14/01 A3024 RMK AO1 =
METAR KCNK 080655Z AUTO 35004KT 8SM CLR 20/19 A3013 RMK AO2 SLP191 
    T02000194=
METAR KD39 080654Z AUTO 00000KT 10SM CLR 16/15 A3010 RMK AO2 
     T01580151=
METAR KDLH 080655Z 32006KT 10SM SCT050 17/14 A3005 RMK AO2 SLP173 
    T01720144=
METAR KDLL 080654Z AUTO 00000KT 10SM -DZ SCT004 SCT120 21/20 
     A3001 RMK AO2=
METAR KEAT 080655Z AUTO 00000KT 10SM CLR 23/04 A3000 RMK AO2 SLP150 
    T02280044=
METAR KEFD 080650Z 11010KT 9SM FEW025 BKN130 28/24 A2994=
METAR KGGE 080655Z AUTO 27006KT 10SM CLR 25/22 A2995 RMK AO2=
METAR KGPI 080655Z 32004KT 10SM CLR 11/08 A3015 RMK AO2 SLP203 
    T01110083 402670056=
METAR KGUS 080655Z AUTO 18004KT 10SM CLR 23/21 A3005 RMK AO2 SLP168
      T02300206=
METAR KHVS 080655Z AUTO 27003KT 10SM CLR 26/19 A2998 RMK AO2=
METAR KIRK 080655Z AUTO 18003KT 6SM BR CLR 19/19 A3006 RMK AO2 
    SLP175 T01940194=
METAR KLIC 080655Z AUTO 12008KT 10SM OVC005 14/14 A3036 RMK AO2 
    RAB11E46 SLP225 P0000 T01440144 402110128=
METAR KLLJ 080655Z AUTO 15005KT 10SM FEW090 12/02 A3020 RMK AO2 
    SLP179 T01170017 402610050=
####018000118####
SAUS43 KABR 080656
MTRMBG
METAR KMBG 080655Z AUTO 00000KT 10SM CLR 13/11 A3012 RMK AO2 SLP194 
T01330106 TSNO
####018000123####
SAUS43 KDLH 080656
MTRINL
METAR KINL 080655Z AUTO 00000KT 10SM FEW060 SCT090 15/13 A3001 RMK 
AO2 SLP164 T01500133
####018000075####
SAAT31 TAPA 080656
METAR TAPA 080700Z 07010KT 9999  FEW020 28/24 Q1014=

####018000107####
SAUS43 KLMK 080656
MTRSDF
METAR KSDF 080656Z 00000KT 8SM CLR 27/21 A3005 RMK AO2 SLP171 
T02720206
####018000101####
SAFJ31 NFFN 080700
METAR NFFN 080700Z 16005KT 40KM SCT028 SCT048 24/19 Q1013 NOSIG RMK
RR NIL=
####018001634####
SAEU KAWN 080700 RRF
METAR ENBS 080650Z 15003KT 120V190 9999 FEW002 BKN005 09/08 Q1016=
METAR ENHK 080650Z 10014KT CAVOK 15/08 Q1012=
METAR ENHV 080650Z 24007KT 200V280 9999 FEW011 10/07 Q1015=
METAR ENLK 080650Z 19007KT CAVOK 15/10 Q1010=
METAR ENNK 080650Z VRB03KT 9999 BKN060 16/09 Q1011=
METAR ENNM 080650Z 23006KT 190V260 CAVOK 17/10 Q1010=
METAR ENOA 080650Z 19023KT 9999 FEW050 13/11 Q1008=
METAR ENRS 080650Z 15009KT CAVOK 12/10 Q1010=
METAR ENVD 080650Z 26005KT 9999 BKN017 11/08 Q1017=
METAR ETAD 080655Z AUTO 07003KT 9999 CLR 22/12 A3016 RMK AO2 SLP199
      T02180121 $=
METAR ETIC 080656Z AUTO 00000KT 9999 CLR 17/09 A3022 RMK AO2 SLP223
      T01670092 $=
METAR LIBD 080650Z 01012KT CAVOK 24/11 Q1019=
METAR LICJ 080650Z 07013KT CAVOK 28/20 Q1018=
METAR LIEA 080650Z 36006KT 330V050 CAVOK 25/22 Q1019=
METAR LIEE 080645Z 28005KT CAVOK 23/19 Q1018 NOSIG=
METAR LIEO 080650Z VRB02KT CAVOK 26/22 Q1019=
METAR LIMC 080650Z VRB02KT 9999 BKN050 23/16 Q1022 NOSIG=
METAR LIME 080650Z 14009KT 9999 BKN055 23/15 Q1023=
METAR LIMF 080650Z VRB02KT 9999 SCT030 SCT050 23/17 Q1022=
METAR LIMJ 080650Z 02007KT CAVOK 27/21 1019=
METAR LIML 080650Z 08006KT 9999 BKN060 24/16 Q1022 NOSIG=
METAR LIPQ 080650Z VRB01KT 9999 BKN050 21/15 Q1022=
METAR LIPZ 080650Z VRB03KT 9999 SCT050 BKN060 24/19 Q1022=
METAR LIRA 080645Z 35004KT 9999 FEW020 SCT030 27/21 Q1018=
METAR LIRF 080650Z 07005KT 040V120 9999 FEW035 27/19 Q1019 NOSIG=
METAR LIRN 080650Z 05010KT CAVOK 24/13 Q1019=
METAR LIRP 080645Z 11011KT 9999 FEW060 26/16 Q1019 NOSIG=
METAR LIRQ 080650Z VRB02KT CAVOK 26/15 Q1020=
####018003747####
SAUS99 KWBC 080657
METAR
KRUT 080655Z AUTO 13007KT 7SM CLR 22/19 A3005 RMK AO1=
KSDY 080655Z AUTO 00000KT 10SM SCT120 13/09 A3015 RMK AO1=
KSFM 080655Z 00000KT 3SM OVC003 21/18 A3006 RMK AO1=
KSFZ 080655Z AUTO 00000KT 5SM OVC006 22/21 A3005 RMK AO1=
KSGU 080655Z AUTO 03003KT 10SM CLR 29/02 A2992 RMK AO1=
KSJN 080654Z AUTO 14004KT 10SM BKN090 OVC110 24/03 A3015 RMK AO2
     SLP095 T02390028 403110139=
KSMN 080655Z AUTO 23004KT 10SM CLR 12/02 A3019 RMK AO1=
KSYR 080654Z 00000KT 7SM CLR 23/21 A3004 RMK AO2 SLP167
     T02280206=
KTAD 080654Z AUTO 00000KT 10SM CLR 14/13 A3034 RMK AO2 SLP208
     T01440128 402500133=
KTKI 080653Z AUTO 16004KT 10SM FEW023 26/23 A3000 RMK AO2 SLP154
     T02560228=
KTPL 080655Z 12004KT 10SM BKN012 BKN018 OVC050 25/23 A2998 RMK
     AO1=
KVAY 080654Z AUTO 00000KT 4SM BR CLR 24/22 A3001 RMK AO2 SLP161
     T02390222=
KVSF 080654Z AUTO 00000KT 5SM BR CLR 22/21 A3005 RMK AO2 SLP174
     T02170206 $=
KVTA 080654Z AUTO 00000KT 4SM BR CLR 19/18 A3008 RMK AO2 SLP179
     T01890178=
KWVL 080655Z AUTO 18005KT 7SM OVC005 21/19 A3003 RMK AO1=
KWWD 080655Z AUTO 10SM FEW085 OVC120 24/23 A3001 RMK AO1=
KIND 080654Z 19003KT 9SM CLR 25/20 A3004 RMK AO2 SLP163
     T02500200=
KINT 080654Z AUTO 36003KT 10SM CLR 25/17 A3002 RMK AO2 SLP152
     T02500172=
KIPT 080654Z AUTO 00000KT 9SM CLR 22/17 A3004 RMK AO2 SLP167
     T02170167=
KIZG 080654Z AUTO 00000KT 10SM OVC090 22/20 A3006 RMK AO2 SLP177
     T02220200=
KJAC 080655Z AUTO 01012G15KT 10SM CLR 13/M01 A3031 RMK AO1=
KJHW 080655Z AUTO 00000KT 8SM CLR 21/19 A3012 RMK AO1 57003=
KJST 080654Z AUTO 25003KT 7SM CLR 21/16 A3014 RMK AO2 SLP188
     T02110156=
KLCI 080655Z AUTO 00000KT 10SM BKN085 22/19 A3005 RMK AO1=
KLEW 080655Z 15004KT 2 1/2SM OVC002 21/20 A3008 RMK AO1=
KLEX 080654Z 00000KT 7SM CLR 23/18 A3009 RMK AO2 SLP177
     T02280183=
KLWM 080654Z AUTO 00000KT 6SM BR CLR 23/21 A3006 RMK AO2 SLP178
     T02330211=
KLWT 080654Z AUTO 13005KT 10SM CLR 09/06 A3026 RMK AO2 SLP229
     T00890061 402170050=
KMGJ 080654Z AUTO 00000KT 5SM BR CLR 22/20 A3002 RMK AO2 SLP164
     T02170200=
KMIV 080654Z AUTO 11004KT 2 1/2SM BR OVC004 24/23 A2999 RMK AO2
     SLP152 T02440233=
KMJX 080655Z AUTO 00000KT 3SM BKN110 23/21 A3001 RMK AO1=
KMSV 080655Z AUTO 03004KT 7SM CLR 22/18 A3010 RMK AO1=
KMVL 080654Z AUTO 00000KT 2 1/2SM BR CLR 21/20 A3006 RMK AO2
     SLP175 T02060200=
KOCH 080655Z AUTO 10005KT 10SM CLR 24/19 A3000 RMK AO1=
KOGB 080653Z AUTO 30003KT 10SM CLR 26/19 A2999 RMK AO2 SLP153
     T02560194=
KOKK 080655Z AUTO 18003KT 10SM CLR 23/17 A3005 RMK AO1 57010=
KOLS 080654Z AUTO 04010KT 10SM CLR 28/08 A2995 RMK AO2 SLP060
     T02780078 403780200=
KORH 080654Z AUTO 22005KT 4SM BR BKN006 22/21 A3008 RMK AO2 SLP179
     T02220211=
KOXC 080655Z 17003KT 3SM FEW085 22/21 A3008 RMK AO1=
KPHL 080654Z 11003KT 8SM FEW150 26/22 A3001 RMK AO2 SLP161
     T02610217 $=
KPNE 080654Z 00000KT 9SM CLR 26/22 A3002 RMK AO2 SLP165
     T02560222=
KPNS 080653Z AUTO 00000KT 10SM CLR 25/24 A3002 RMK AO2 SLP168
     T02500239=
KPQI 080655Z AUTO 13003KT 10SM CLR 22/19 A2997 RMK AO1=
KPRX 080655Z 14006KT 10SM BKN006 24/22 A3001 RMK AO1=
KPSF 080654Z AUTO 00000KT 4SM BR CLR 20/19 A3006 RMK AO2 SLP149
     T02000189=
KPTW 080654Z AUTO 00000KT 5SM HZ CLR 25/20 A3002 RMK AO2 SLP162
     T02500200 $=
KPVC 080655Z 16007KT 10SM OVC004 21/19 A3007 RMK AO1=
KPVU 080655Z 02003KT 10SM CLR 18/09 A3010 RMK AO1=
KPWG 080655Z AUTO 13006KT 10SM FEW014 SCT023 26/22 A2999 RMK
     AO1=
KRDG 080654Z 00000KT 9SM CLR 26/21 A3001 RMK AO2 SLP162
     T02560211=
KRKD 080655Z AUTO 00000KT 1SM OVC002 18/17 A3008 RMK AO1=
####018003675####
SAUS99 KWBC 080657 RRA
METAR
KRKS 080654Z AUTO 08012KT 10SM CLR 11/04 A3032 RMK AO2 SLP207
     T01110044 402220061=
KROC 080654Z 23004KT 8SM CLR 23/20 A3005 RMK AO2 SLP173
     T02280200=
KAFJ 080655Z AUTO 00000KT 1/2SM VV005 18/17 A3010 RMK AO1
     57007=
KAKR 080654Z AUTO 00000KT 6SM HZ CLR 22/19 A3009 RMK AO2 SLP177
     T02220194=
KBHB 080655Z AUTO 00000KT 6SM OVC003 18/18 A3009 RMK AO1=
KBID 080655Z AUTO 14004KT 10SM FEW017 SCT025 OVC030 22/22 A3005
     RMK AO1=
KBLM 080655Z AUTO 06004KT 5SM OVC110 24/21 A3004 RMK AO1=
KBOS 080654Z 19009KT 4SM BR BKN011 24/22 A3005 RMK AO2 SLP174
     T02390217=
KBTP 080655Z AUTO 03003KT 2SM CLR 19/18 A3011 RMK AO1 54000=
KBUF 080654Z 19004KT 9SM CLR 23/20 A3006 RMK AO2 SLP173
     T02280200=
KBWI 080654Z 10004KT 7SM FEW110 SCT200 28/22 A2998 RMK AO2 SLP151
     T02780217=
KCOD 080655Z 09008KT 10SM CLR 10/M01 A3032 RMK AO1=
KCOS 080654Z 10008KT 10SM BKN050 OVC065 14/12 A3039 RMK AO2 SLP225
     T01390117 402170122=
KCRW 080654Z 00000KT 4SM BR CLR 22/20 A3008 RMK AO2 SLP172
     T02220200=
KDDH 080654Z AUTO 00000KT 4SM BR CLR 19/19 A3005 RMK AO2 SLP169
     T01940189=
KDHN 080653Z AUTO 00000KT 10SM CLR 23/21 A3007 RMK AO2 SLP176
     T02330211=
KDSV 080654Z AUTO 16004KT 7SM CLR 22/19 A3009 RMK AO2 SLP190
     T02220194=
KDTS 080653Z AUTO 00000KT 9SM CLR 25/23 A3002 RMK AO2 SLP164
     T02500233=
KDYL 080654Z AUTO 00000KT 8SM CLR 23/21 A3001 RMK AO2 SLP155
     T02280206 TSNO=
KEEN 080655Z AUTO 00000KT 6SM CLR 23/22 A3005 RMK AO1=
KEGE 080655Z 26005KT 10SM CLR 12/10 A3037 RMK AO1=
KENV 080655Z 01014KT 10SM CLR 23/M02 A3008 RMK AO1=
KEUL 080655Z AUTO 00000KT 10SM CLR 19/08 A3003 RMK AO1=
KEVV 080654Z AUTO 00000KT 10SM CLR 26/22 A3005 RMK AO2 SLP172
     T02610217=
KFIG 080654Z AUTO 34003KT 6SM BR CLR 19/17 A3011 RMK AO2 SLP183
     T01940172=
KFKL 080655Z 00000KT 5SM CLR 19/18 A3014 RMK AO1 57003=
KFLO 080653Z AUTO 27005KT 10SM CLR 25/19 A2995 RMK AO2 SLP140
     T02500189=
KFNL 080655Z AUTO 09008KT 7SM BKN120 14/13 A3031 RMK AO1=
KFZY 080654Z AUTO 00000KT 1 1/2SM BR CLR 21/20 A3004 RMK AO2
     SLP169 T02060200=
KGDV 080655Z AUTO 19005KT 10SM CLR 12/08 A3017 RMK AO1=
KGED 080654Z AUTO 00000KT 3SM BR BKN100 24/23 A2999 RMK AO2 SLP155
     T02390228=
KGTU 080655Z 11003KT 10SM OVC012 25/21 A3001 RMK AO1=
KGUC 080655Z AUTO 01008KT 10SM CLR 10/04 A3042 RMK AO1=
KGXY 080655Z AUTO 15005KT 10SM FEW010 SCT015 OVC021 15/12 A3032
     RMK AO1=
KGZH 080653Z AUTO 00000KT 7SM CLR 23/22 A3004 RMK AO2 SLP170
     T02280222=
KHDN 080655Z 08008G15KT 10SM CLR 13/06 A3032 RMK AO1=
KHYI 080655Z AUTO 06005KT 10SM FEW010 FEW027 OVC045 25/23 A2996
     RMK AO1=
KILE 080655Z 13007KT 10SM BKN014 OVC020 25/22 A2998 RMK AO1=
KILN 080654Z AUTO 00000KT 4SM BR CLR 21/20 A3009 RMK AO2 SLP175
     T02110200=
PAHN 080654Z AUTO 00000KT 10SM CLR 12/11 A3021 RMK AO2 SLP232
     T01220106 TSNO=
PAKN 080654Z 02008KT 10SM -RA BKN049 BKN060 BKN075 11/10 A2990 RMK
     AO2 SLP124 P0003 T01110100=
KLAX 080653Z 27008KT 10SM BKN012 OVC015 17/13 A2992 RMK AO2 SLP129
     T01670128=
K04W 080654Z AUTO 00000KT 10SM CLR 18/17 A3006 RMK AO2
     T01820170=
K0A9 080655Z AUTO 00000KT 8SM CLR 20/18 A3011 RMK=
K20V 080656Z AUTO 06003KT 10SM CLR 10/06 A3042 RMK AO2=
K4BM 080654Z AUTO 00000KT 5SM BR 05/04 A3065 RMK AO2=
K7BM 080656Z AUTO 00000KT 10SM BKN017 10/06 A3055 RMK AO2=
KABI 080652Z 17004KT 9SM CLR 22/21 A3003 RMK AO2 PK WND 15034/0612
     SLP139 T02170211 $=
KAPA 080653Z COR 35006KT 10SM FEW010 OVC020 14/13 A3036 RMK AO2
     SLP233 T01440128 401890117 $=
####018002193####
SAUS99 KWBC 080657 RRB
METAR
KAVP 080654Z 11005KT 7SM CLR 22/18 A3005 RMK AO2 SLP163 T02170178
     $=
KBBG 080655Z AUTO 00000KT 7SM SCT018 OVC027 23/23 A3008 RMK
     AO2=
KBBP 080655Z AUTO 29005KT 10SM SCT100 25/20 A2995 RMK AO2=
KBDU 080657Z AUTO 25005G15KT 10SM RA OVC065 16/13 A3031 RMK
     AO2=
KBJC 080657Z AUTO 27004KT 5SM BR SCT055 SCT085 OVC100 14/13 A3035
     RMK AO2=
KBKN 080655Z AUTO 05005KT 10SM OVC070 22/21 A3006 RMK AO2=
KBMI 080656Z AUTO 00000KT 8SM FEW049 23/22 A3006 RMK AO2 PWINO
     T02270216 SLP162 $=
KBOK 080656Z AUTO 15003KT 1/4SM FG OVC002 10/10 A2998 RMK AO2
     T01000100 401330083 SLP153 $=
KBTV 080654Z 00000KT 5SM BR OVC055 24/22 A3001 RMK AO2 SLP159
     T02390217=
KC29 080655Z AUTO 00000KT 10SM OVC120 22/20 A3001 RMK AO2
     T02200202=
KCCU 080656Z AUTO 16005KT 10SM SCT001 05/02 A3064 RMK AO2=
KCEF 080655Z AUTO 00000KT 10SM BKN090 25/22 A3003 RMK AO2 SLP169
     T02490217 PWINO $=
KCHA 080653Z 00000KT 10SM CLR 24/18 A3006 RMK AO2 SLP169
     T02390183=
KCIC 080655Z AUTO 00000KT 10SM CLR 27/15 A2980 RMK AO1=
KCMR 080655Z AUTO 16007KT 10SM SCT110 14/01 A3024 RMK AO1=
KCNK 080655Z AUTO 35004KT 8SM CLR 20/19 A3013 RMK AO2 SLP191
     T02000194=
KD39 080654Z AUTO 00000KT 10SM CLR 16/15 A3010 RMK AO2
     T01580151=
KDLH 080655Z 32006KT 10SM SCT050 17/14 A3005 RMK AO2 SLP173
     T01720144=
KDLL 080654Z AUTO 00000KT 10SM -DZ SCT004 SCT120 21/20 A3001 RMK
     AO2=
KEAT 080655Z AUTO 00000KT 10SM CLR 23/04 A3000 RMK AO2 SLP150
     T02280044=
KEFD 080650Z 11010KT 9SM FEW025 BKN130 28/24 A2994=
KGGE 080655Z AUTO 27006KT 10SM CLR 25/22 A2995 RMK AO2=
KGPI 080655Z 32004KT 10SM CLR 11/08 A3015 RMK AO2 SLP203 T01110083
     402670056=
KGUS 080655Z AUTO 18004KT 10SM CLR 23/21 A3005 RMK AO2 SLP168
     T02300206=
KHVS 080655Z AUTO 27003KT 10SM CLR 26/19 A2998 RMK AO2=
KIRK 080655Z AUTO 18003KT 6SM BR CLR 19/19 A3006 RMK AO2 SLP175
     T01940194=
KLIC 080655Z AUTO 12008KT 10SM OVC005 14/14 A3036 RMK AO2 RAB11E46
     SLP225 P0000 T01440144 402110128=
KLLJ 080655Z AUTO 15005KT 10SM FEW090 12/02 A3020 RMK AO2 SLP179
     T01170017 402610050=
####018000656####
SAIY32 LIIB 080650
METAR LIBD 080650Z 01012KT CAVOK 24/11 Q1019=
METAR LIBR 080645Z /////KT 9999 FEW020 24/17 Q1016 NOSIG=
METAR LICC 080650Z 25004KT CAVOK 26/20 Q1018=
METAR LICJ 080650Z 07013KT CAVOK 28/20 Q1018=
METAR LIPB 080650Z 25002KT 9999 BKN070 24/11 Q1022=
METAR LIPE 080650Z 11003KT 080V140 CAVOK 24/17 Q1021=
METAR LIPH 080645Z 03002KT 9999 SCT020 BKN045 22/18 Q1023=
METAR LIPK 080650Z 00000KT CAVOK 22/15 Q1021=
METAR LIPQ 080650Z VRB01KT 9999 BKN050 21/15 Q1022=
METAR LIPR 080645Z 12006KT CAVOK 25/18 Q1021=
METAR LIPX 080645Z 06009KT 9999 SCT060 BKN080 25/15 Q1021=
METAR LIPZ 080650Z VRB03KT 9999 SCT050 BKN060 24/19 Q1022=
####018000591####
SAGR31 LGAT 080650
METAR LGAD 080650Z 33008KT 9999 FEW020 SCT080 26/20 Q1013=
METAR LGAV 080650Z 03015KT 9999 SCT025 26/14 Q1012 NOSIG=
METAR LGIR 080650Z 06005KT CAVOK 29/18 Q1011 NOSIG=
METAR LGKL 080650Z 34008KT CAVOK 29/18 Q1011=
METAR LGKO 080650Z 31018KT CAVOK 27/18 Q1009=
METAR LGKR 080650Z 31013KT CAVOK 27/13 Q1013 NOSIG=
METAR LGLM 080650Z 01014KT 5000 RA SCT008 FEW018CB SCT020TCU OVC080
      19/18 Q1013=
METAR LGRP 080650Z 24013KT CAVOK 29/21 Q1007 NOSIG=
METAR LGSA 080650Z NIL=
METAR LGSM 080650Z NIL=
METAR LGTS 080650Z 33025KT 9999 FEW025 21/11 Q1016 NOSIG=
####018000362####
SAFI34 EFHK 080650
EFET 080650Z AUTO 16006KT 110V220 CAVOK 17/10 Q1015=
EFIV 080650Z AUTO VRB03KT 9999 FEW016 14/10 Q1016=
EFKE 080650Z 16004KT 090V220 9999 SCT024 18/13 Q1016=
EFKI 080650Z AUTO 34005KT 280V030 CAVOK 18/14 Q1016=
EFKS 080650Z 03003KT 9999 BKN018 15/10 Q1017=
EFKT 080650Z AUTO 17008KT 120V200 CAVOK 18/09 Q1016=
METAR EFSO 080656Z NIL=
####018000467####
SAGR32 LGAT 080650
METAR LGAL 080650Z NIL=
METAR LGEL 080650Z 02011G21KT 9999 FEW025 26/15 Q1011=
METAR LGKV 080650Z 00000KT 9999 SCT020TCU 17/16 Q1013=
METAR LGMT 080650Z 34007KT 9999 FEW020 SCT160 27/14 Q1010=
METAR LGPZ 080650Z 27008KT 9999 FEW025 28/19 Q1013 NOSIG=
METAR LGRX 080650Z 26004KT 9999 FEW025 27/21 Q1012 NOSIG=
METAR LGSK 080650Z NIL=
METAR LGSR 080650Z 29007KT CAVOK 29/15 Q1009 NOSIG=
METAR LGZA 080650Z 36010KT 9999 FEW020 29/16 Q1012=
####018000274####
SAMX43 MMMZ 080700
METAR MMHO 080644Z 00000KT 10SM  FEW080 29/04 A2979 RMK 8/030 HZY=
METAR MMML 080648Z 15006KT 10SM  SKC 26/15 A2966=
METAR MMMZ 080644Z 05004KT 10SM  SCT220 26/22 A2978 RMK 8/002=
METAR MMTJ 080640Z 00000KT 6SM  OVC017 16/14 A2995 RMK 8/5// HZY=
####018000431####
SAMX44 MMMD 080655
METAR MMCZ 080646Z 08010KT 6SM  SCT080 BKN200 26/24 A2987 
      RMK 8/058 SC HZY=
METAR MMMD 080644Z 10005KT 7SM  OVC070 22/22 A2986 RMK 8/06/=
METAR MMTP 080640Z 00000KT 10SM BKN020 BKN100 25/34 A2992
      RMK 8/170=
METAR MMUN 080651Z 12009KT 6SM  FEW015 SCT090 SCT300 28/24 A2988 
      RMK 8/538 HZY=
METAR MMVA 080448Z 12008KT 6SM -DZ  SCT010 OVC016 24/24 A2980 
      RMK 60125 8/7//=
####018000087####
SAVN22 SVMI 080700
METAR SVMI 080700Z 11001KT 9999 FEW016 SCT100 25/24 Q1013 NOSIG=
####018000080####
SASN31 ESWI 080650 RRA
METAR ESMX 080650Z 21004KT 160V280 CAVOK 20/12 Q1020=
####018000440####
SAGR33 LGAT 080650
METAR LGHI 080650Z 03007KT 9999 FEW020 27/17 Q1010=
METAR LGKC 080650Z NIL=
METAR LGKF 080650Z 34017KT 9999 FEW025 27/16 Q1013=
METAR LGKP 080650Z 33015KT CAVOK 28/17 Q1007=
METAR LGKZ 080650Z 34011KT 9999 SCT020 SCT070 17/08 Q1017=
METAR LGMK 080650Z 35021G32KT 9999 FEW018 26/16 Q1011=
METAR LGNX 080650Z 35006KT 9999 FEW020 26/20 Q1011=
METAR LGPA 080650Z NIL=
METAR LGSO 080650Z 02009KT CAVOK 27/17 Q1011=
####018000307####
SAPH RPLL 080700
METAR RPLL 080700Z 11007KT 9999 FEW023CB FEW025 BKN300 33/25 Q1008
           NOSIG RMK CB NNE, SE A2977=
METAR RPVM 080700Z 06006KT 9999 FEW020 SCT100 BKN250 32/28 Q1008
           A2977=
METAR RPMZ 080700Z 09004KT 9999 SCT018CB SCT120 BKN350 34/27 Q1010
           CB NW, TSTM S=
####018001879####
SAUS20 KNKA 080656
METAR KLND 080653Z AUTO 00000KT 10SM CLR 12/04 A3031 RMK AO2
     SLP218 T01220039 402220050=
METAR KLRF 080655Z AUTO 00000KT 10SM SCT150 23/22 A3005 RMK AO2 SLP173
      T02340223=
METAR KLXV 080653Z AUTO 19003KT 10SM FEW030 OVC035 07/06 A3053 RMK
     AO2 SLP194 T00720061 401830039 TSNO=
METAR KMKG 080655Z 26003KT 9SM -RA SCT070 BKN080 OVC100 23/22 A3003 
    RMK AO2 RAE16B48 SLP165 P0012 T02330217 $=
METAR KMSN 080653Z 00000KT 7SM OVC120 22/21 A3000 RMK AO2 RAE10
     SLP155 P0000 T02170206=
METAR KMWT 080653Z AUTO 00000KT 10SM OVC016 23/23 A3004 RMK AO2
     SLP161 T02330228 TSNO=
METAR KMYP 080556Z AUTO 07011KT 1/4SM -SN OVC001 03/02 A3075 RMK
     AO2=
METAR KNQA 080655Z AUTO 00000KT 10SM CLR 25/23 A3005 RMK=
METAR KOWB 080656Z AUTO 00000KT 10SM CLR 26/23 A3006 RMK AO2 
    T02550227 SLP173=
METAR KRCE 080655Z AUTO 35004KT 9SM FEW013 23/22 A3006 RMK AO2 =
METAR KRNO 080655Z 34009KT 10SM SCT080 SCT120 26/03 A3004 RMK AO2 
    SLP110 T02560028=
METAR KSAV 080653Z 28003KT 10SM CLR 22/19 A3000 RMK AO2 SLP157
     T02170194=
METAR KSCK 080655Z AUTO 01003KT 10SM CLR 17/11 A2983 RMK AO2 SLP101 
    T01670111=
METAR KSGR 080653Z AUTO 07003KT 8SM CLR 26/24 A2992 RMK AO2 SLP139
     T02560239 TSNO=
METAR KSMS 080655Z AUTO 28005KT 10SM CLR 26/19 A2998 RMK AO2 =
METAR KSRR 080655Z AUTO 18008KT 10SM BKN095 13/11 A3036 RMK AO2 =
METAR KTLH 080653Z 00000KT 10SM FEW095 24/22 A3002 RMK AO2 SLP163
     T02390217=
METAR KUCP 080656Z AUTO 00000KT 1SM BR CLR 19/19 A3009 RMK AO2 
    T01940188 SLP196 $=
METAR KVQQ 080655Z AUTO 00000KT 10SM CLR 19/19 A3002 RMK AO2 =
METAR KVTP 080700Z AUTO 06004KT 10SM CLR 06/04 A3054 RMK AO2=
METAR KWYS 080650Z AUTO 00000KT 10SM CLR 05/01 A3035 RMK AO2=
METAR KY51 080655Z AUTO 24005KT 1 1/2SM OVC002 22/22 A3003 RMK 
     AO1 T02200217=
####018000144####
SAUS46 KLOX 080656
MTRVBG
METAR KVBG 080655Z AUTO 34005KT 10SM CLR 13/11 A2993 RMK AO2 CIG 010 
RWY12 SLP127 T01280111 401610094 TSNO $
####018000111####
SAUS45 KSLC 080656
MTRNKX
METAR KNKX 080655Z 35004KT 10SM OVC016 17/13 A2992 RMK AO2 SLP125 
T01670133
####018000108####
SAUS42 TJSJ 080656
MTRSJU
METAR TJSJ 080656Z 00000KT 10SM CLR 27/24 A2997 RMK AO2 SLP149 
T02720244
####018000146####
SAUS43 KAPX 080656
MTRANJ
METAR KANJ 080655Z AUTO 11003KT 10SM -RA FEW048 BKN100 OVC110 21/19 
A2998 RMK AO2 RAB08 SLP148 P0000 T02060189
####018000108####
SAUS42 KCHS 080656
MTRCHS
METAR KCHS 080656Z 29007KT 10SM CLR 25/20 A2997 RMK AO2 SLP148 
T02500200
####018000636####
SACN59 CWAO 080600 RRI
PAA SA 0600 AUTO8 M M M M/12/10/2703/M/ M 01MM=
PBA SA 0600 AUTO8 M M M M/13/11/MMMM/M/ M 19MM=
PBE SA 0600 AUTO8 M M M M/12/10/1303/M/0004 M 66MM=
PBS SA 0600 AUTO8 M M M M/13/11/1001/M/ M 24MM=
PBT SA 0600 AUTO8 M M M M/12/10/0702/M/ M 42MM=
PCA SA 0600 AUTO8 M M M M/13/11/2404/M/ M 61MM=
PEH SA 0600 AUTO8 M M M M/14/12/2903/M/ M 59MM=
PGE SA 0600 AUTO8 M M M M/14/11/1603/M/ M 77MM=
PIR SA 0600 AUTO8 M M M M/12/11/2102/M/ M 05MM=
PQL SA 0600 AUTO8 M M M M/14/10/1603/M/ M 03MM=
PRA SA 0600 AUTO8 M M M M/12/10/MMMM/M/ M 55MM=
PXL SA 0600 AUTO8 M M M M/12/11/2502/M/0051 M 49MM=

####018000117####
SAUS41 KLWX 080656
MTRRSP
METAR KRSP 080654Z AUTO VRB04KT 8SM FEW070 27/14 A3010 RMK AO2 
SLP176 T02670144 $
####018001915####
SAUK39 EGRR 080650
METAR EGDL 080650Z 22004KT 9999 FEW012 SCT035 BKN120 16/13 Q1019
 BLU NOSIG=
METAR EGDR 080650Z 20003KT 9999 FEW012 BKN120 15/14 Q1018 BLU NOSIG=
METAR EGDY 080650Z 28003KT 9999 FEW010 BKN140 17/14 Q1019 BLU NOSIG=
METAR EGOS 080650Z 19005KT 9999 -RA FEW014 BKN100 14/10 Q1017 BLU
 NOSIG=
METAR EGOV 080650Z 21013KT 9999 FEW018 SCT060 BKN200 15/12 Q1016 BLU
 NOSIG=
METAR EGOW 080650Z 24008KT 9999 FEW016 BKN025 16/11 Q1016 BLU=
METAR EGQK 080650Z 21016G27KT 9999 FEW030 SCT060 16/07 Q1007 BLU
 NOSIG=
METAR EGQL 080650Z 23014KT 9999 FEW022 SCT050 14/09 Q1011 BLU NOSIG=
METAR EGQS 080650Z 20011KT 9999 FEW035 SCT050 15/08 Q1007 BLU NOSIG=
METAR EGUB 080650Z 23003KT 9999 FEW008 SCT015 OVC025 16/15 Q1019 WHT
 BECMG BKN025 BLU=
METAR EGUW 080650Z 21008KT 9999 FEW008 OVC014 18/15 Q1018 GRN TEMPO
 4000 -RADZ GRN=
METAR EGVN 080650Z 26005KT 9999 SCT030 SCT140 BKN200 16/11 Q1019 BLU
 NOSIG=
METAR EGVO 080650Z 22007KT 4000 -RADZ OVC003 16/16 Q1019 YLO2=
METAR EGVP 080650Z 31005KT 3500 -RADZ SCT005 OVC009 16/15 Q1019 YLO1
 BECMG 9999 NSW BKN008 GRN=
METAR EGWC 080650Z 23008KT 9999 SCT018 BKN090 14/10 Q1018=
METAR EGWU 080650Z 23007KT 9999 -RADZ FEW008 OVC010 18/15 Q1019 GRN
 TEMPO 6000 GRN=
METAR EGXC 080650Z 25007KT 9999 FEW030 SCT090 OVC110 16/11 Q1017 BLU
 NOSIG=
METAR EGXD 080650Z 20003KT 9999 FEW020 BKN110 OVC200 15/11 Q1016 BLU
 NOSIG=
METAR EGXE 080650Z 20007KT 9999 FEW020 BKN100 15/12 Q1015 BLU NOSIG=
METAR EGXG 080650Z 26007KT CAVOK 15/10 Q1016 BLU=
METAR EGXT 080650Z 23007KT 9999 FEW020 BKN120 BKN150 16/10 Q1017 BLU=
METAR EGXU 080650Z 20007KT 9999 FEW020 SCT090 OVC120 15/11 Q1016 BLU
 NOSIG=
METAR EGXW 080650Z 24008KT CAVOK 15/10 Q1017 BLU NOSIG=
METAR EGYD 080650Z 24009KT CAVOK 16/10 Q1017 BLU NOSIG=
METAR EGYM 080650Z 25008KT 9999 -RA SCT012 BKN020 BKN045 18/16 Q1017
 GRN BECMG SCT025 BLU=
####018000269####
SAZA42 FAJS 080700
METAR FAVV 080700Z AUTO 07007KT //// // ////// 08/06 Q1034=
METAR FAJB 080700Z AUTO 09005KT //// // ////// 11/06 Q1035=
METAR FASI 080700Z AUTO 08003KT //// // ////// 09/05 Q1035=
METAR FAGC 080700Z AUTO 09013KT //// // ////// 09/06 Q1035=
####018000268####
SAZA42 FAJS 080700
METAR FAVV 080700Z AUTO 07007KT //// // ////// 08/06 Q1034=
METAR FAJB 080700Z AUTO 09005KT //// // ////// 11/06 Q1035=
METAR FASI 080700Z AUTO 08003KT //// // ////// 09/05 Q1035=
METAR FAGC 080700Z AUTO 09013KT //// // ////// 09/06 Q1035=
####018000100####
SAFJ31 NFFN 080700
METAR NFFN 080700Z 16005KT 40KM SCT028 SCT048 24/19 Q1013 NOSIG RMK
RR NIL=
####018000597####
SACN60 CWAO 080600 RRE
PET SA 0600 AUTO8 M M M M/12/09/MMMM/M/ M 64MM=
PFM SA 0600 AUTO8 M M M M/13/10/MMMM/M/ M 31MM=
PHU SA 0600 AUTO8 M M M M/13/11/MMMM/M/0011 M 53MM=
PIA SA 0600 AUTO8 M M M M/12/11/MMMM/M/0015 M 20MM=
PKA SA 0600 AUTO8 M M M M/11/10/MMMM/M/M M 89MM=
PLA SA 0600 AUTO8 M M M M/11/09/MMMM/M/0005 M 55MM=
PMB SA 0600 AUTO8 M M M M/09/07/MMMM/M/M M 31MM=
PML SA 0600 AUTO8 M M M M/12/11/MMMM/M/ M 86MM=
PPL SA 0600 AUTO8 M M M M/13/10/MMMM/M/ M 08MM=
PRH SA 0600 AUTO8 M M M M/15/11/MMMM/M/0006 M 80MM=
PRS SA 0600 AUTO8 M M M M/14/12/MMMM/M/M M 17MM=

####018000476####
SAGR32 LGAT 080650
METAR LGAL 080650Z NIL=
METAR LGEL 080650Z 02011G21KT 9999 FEW025 26/15 Q1011=
METAR LGKV 080650Z 00000KT 9999 SCT020TCU 17/16 Q1013=
METAR LGMT 080650Z 34007KT 9999 FEW020 SCT160 27/14 Q1010=
METAR LGPZ 080650Z 27008KT 9999 FEW025 28/19 Q1013 NOSIG=
METAR LGRX 080650Z 26004KT 9999 FEW025 27/21 Q1012 NOSIG=
METAR LGSK 080650Z NIL=
METAR LGSR 080650Z 29007KT CAVOK 29/15 Q1009 NOSIG=
METAR LGZA 080650Z 36010KT 9999 FEW020 29/16 Q1012=
####018000108####
SACN89 CWAO 080600 RRF
WCI SA 0600 AUTO8 M M M 148/17/16/0107/M/0004 PCPN 0.4MM PAST HR
8013 50MM=

####018000081####
SASN31 ESWI 080650 RRA
METAR ESMX 080650Z 21004KT 160V280 CAVOK 20/12 Q1020=
####018000104####
SACN93 CWAO 080600 RRF
WND SA 0600 AUTO8 M M M 136/05/04/3220/M/M PK WND 3328 0500Z 3020
96MM=

####018000449####
SAGR33 LGAT 080650
METAR LGHI 080650Z 03007KT 9999 FEW020 27/17 Q1010=
METAR LGKC 080650Z NIL=
METAR LGKF 080650Z 34017KT 9999 FEW025 27/16 Q1013=
METAR LGKP 080650Z 33015KT CAVOK 28/17 Q1007=
METAR LGKZ 080650Z 34011KT 9999 SCT020 SCT070 17/08 Q1017=
METAR LGMK 080650Z 35021G32KT 9999 FEW018 26/16 Q1011=
METAR LGNX 080650Z 35006KT 9999 FEW020 26/20 Q1011=
METAR LGPA 080650Z NIL=
METAR LGSO 080650Z 02009KT CAVOK 27/17 Q1011=
####018000107####
SACN92 CWAO 080600 RRE
WJN SA 0600 AUTO8 M M M 164/03/02/3217/M/0002 PK WND 3224 0510Z
1011 26MM=

####018000083####
SACN90 CWAO 080600 RRE
WFZ SA 0600 AUTO8 M M M 126/09/07/3003/M/ 3001 15MM=

####018000603####
SAGR31 LGAT 080650
METAR LGAD 080650Z 33008KT 9999 FEW020 SCT080 26/20 Q1013=
METAR LGAV 080650Z 03015KT 9999 SCT025 26/14 Q1012 NOSIG=
METAR LGIR 080650Z 06005KT CAVOK 29/18 Q1011 NOSIG=
METAR LGKL 080650Z 34008KT CAVOK 29/18 Q1011=
METAR LGKO 080650Z 31018KT CAVOK 27/18 Q1009=
METAR LGKR 080650Z 31013KT CAVOK 27/13 Q1013 NOSIG=
METAR LGLM 080650Z 01014KT 5000 RA SCT008 FEW018CB SCT020TCU OVC080
      19/18 Q1013=
METAR LGRP 080650Z 24013KT CAVOK 29/21 Q1007 NOSIG=
METAR LGSA 080650Z NIL=
METAR LGSM 080650Z NIL=
METAR LGTS 080650Z 33025KT 9999 FEW025 21/11 Q1016 NOSIG=
####018000526####
SANL40 EHWX 080655
METAR EHDL 080655Z AUTO 23006KT 9999NDV NCD 24/12 Q1019 
BLU=
METAR EHEH 080655Z AUTO 18004KT 9999NDV NCD 24/13 Q1019 
BLU BLU=
METAR EHGR 080655Z AUTO 24004KT 9999NDV FEW150 23/13 Q1018 RE// 
BLU=
METAR EHLW 080655Z AUTO 23007KT 9999NDV SCT120 SCT360 21/16 Q1018 
BLU BLU=
METAR EHVK 080655Z AUTO 20006KT 9999NDV NCD 24/12 Q1019 
BLU=
METAR EHVL 080655Z AUTO 22013KT 9999NDV BKN097 OVC100 19/15 Q1018 
BLU=
METAR EHWO 080655Z AUTO 27005KT 9999NDV FEW370 22/15 Q1019 
BLU BLU=
####018000113####
SAUS44 KSHV 080656
MTRPOE
METAR KPOE 080655Z AUTO 11005KT 10SM CLR 24/23 A3000 RMK AO2 SLP158 
T02440228
####018000668####
SAIY32 LIIB 080650
METAR LIBD 080650Z 01012KT CAVOK 24/11 Q1019=
METAR LIBR 080645Z /////KT 9999 FEW020 24/17 Q1016 NOSIG=
METAR LICC 080650Z 25004KT CAVOK 26/20 Q1018=
METAR LICJ 080650Z 07013KT CAVOK 28/20 Q1018=
METAR LIPB 080650Z 25002KT 9999 BKN070 24/11 Q1022=
METAR LIPE 080650Z 11003KT 080V140 CAVOK 24/17 Q1021=
METAR LIPH 080645Z 03002KT 9999 SCT020 BKN045 22/18 Q1023=
METAR LIPK 080650Z 00000KT CAVOK 22/15 Q1021=
METAR LIPQ 080650Z VRB01KT 9999 BKN050 21/15 Q1022=
METAR LIPR 080645Z 12006KT CAVOK 25/18 Q1021=
METAR LIPX 080645Z 06009KT 9999 SCT060 BKN080 25/15 Q1021=
METAR LIPZ 080650Z VRB03KT 9999 SCT050 BKN060 24/19 Q1022=
####018000113####
SAUS43 KFSD 080657
MTRHON
METAR KHON 080655Z AUTO 22006KT 10SM CLR 18/14 A3015 RMK AO2 SLP203 
T01780139
####018000131####
SAUS46 KSEW 080656
MTRAST
METAR KAST 080655Z AUTO 23007KT 4SM BR OVC003 12/11 A2991 RMK AO2 
VIS 2 RWY 08 SLP129 T01170106
####018000369####
SAFI34 EFHK 080650
EFET 080650Z AUTO 16006KT 110V220 CAVOK 17/10 Q1015=
EFIV 080650Z AUTO VRB03KT 9999 FEW016 14/10 Q1016=
EFKE 080650Z 16004KT 090V220 9999 SCT024 18/13 Q1016=
EFKI 080650Z AUTO 34005KT 280V030 CAVOK 18/14 Q1016=
EFKS 080650Z 03003KT 9999 BKN018 15/10 Q1017=
EFKT 080650Z AUTO 17008KT 120V200 CAVOK 18/09 Q1016=
METAR EFSO 080656Z NIL=
####018000108####
SAUS42 KJAX 080657
MTRJAX
METAR KJAX 080656Z 27004KT 10SM CLR 20/19 A3001 RMK AO2 SLP163 
T02000189
####018000121####
SAUS44 KLIX 080656
MTRNBG
METAR KNBG 080655Z AUTO 04003KT 10SM CLR 26/24 A3001 RMK AO2 SLP162 
T02560239 PWINO $
####018000096####
SAPK31 OPSK 080653
METAR OPSK 080655Z 060006KTS 6000 HZ SCT200 38/25 QNH 1003 R.H. 47
PC=
####018000139####
SACN96 CWAO 080600 RRG
WYW SA 0600 AUTO8 M M M 151/18/14/2604/M/ 8009 49MM=
XEL SA 0600 AUTO8 M M M 134/16/12/2811/M/M 8003 40MM=

####018000088####
SAVN22 SVMI 080700
METAR SVMI 080700Z 11001KT 9999 FEW016 SCT100 25/24 Q1013 NOSIG=
####018000130####
SAUS43 KUNR 080657
MTRPHP
METAR KPHP 080655Z AUTO 27006KT 10SM CLR 14/11 A3020 RMK AO2 SLP213 
T01440106 402720133 TSNO $
####018001551####
SAXN17 KAWN 080700 RRB
METAR MGGT 080700Z 18006KT CAVOK 17/13 Q1023 A3021 SCT080 OVC100 NOSIG=
METAR MMGL 080647Z 17004KT 10SM BKN080 OVC300 19/17 A3003 RMK 8/077=
METAR MMLO 080645Z 00000KT 6SM BKN025 OVC070 18/18 A3012 RMK 8/77/
      OCNL DROPS=
METAR MMNL 080647Z 00000KT 8SM SKC 27/24 A2990 RMK ISOL CU=
METAR MMPR 080648Z 00000KT 10SM SCT025 BKN070 BKN230 25/23 A2982 RMK
      8/478=
METAR MMSP 080647Z 00000KT 10SM SCT010 SCT015 BKN200 17/17 A3016 RMK
      8/463 OCNL DOPS MSGTX MMZC=
PACZ SA 0655 AWOS MM 10 54/53/0308/006=
METAR PAED 080655Z AUTO 00000KT 10SM OVC080 14/09 A3002 RMK AO2 SLP165
      T01410094 $=
METAR PAEH 080655Z AUTO 01003KT 10SM SCT008 BKN018 OVC049 09/M28 A3000
      RMK AO1 T00941283=
METAR PAEI 080655Z AUTO 00000KT 10SM CLR 18/08 A3003 RMK AO2 SLP171
      T01770082 $=
PAIM SA 0655 AWOS CLR BLO 120 10 62/44/3004/008=
PALU SA 0655 AWOS CLR BLO 120 10 55/34/2223G28/ 009=
PASV SA 0655 AWOS 41 SCT 55 SCT M70 BKN 10 50/49/0000/997=
PATL SA 0655 AWOS CLR BLO 120 10 64/41/0505/999=
METAR PGUA 080655Z AUTO 08014KT 10SM BKN018 BKN025 28/ A2985 RMK AO2
      CIG 016V021 SLP091 T0278 VISNO RWY24L $=
METAR PHHI 080655Z AUTO 05005KT 10SM FEW035 SCT055 22/18 A3005 RMK
      AO2 SLP167 T02180180=
METAR PHJR 080653Z VRB03KT 10SM FEW060 24/18 A3003 RMK AO2 SLP176 T02390183=
METAR PWAK 080652Z 08015G18KT 8SM HZ FEW020 FEW030 28/24 A2996 RMK
      AO2A=
METAR RODN 080655Z AUTO 19011KT 9999 BKN022 BKN029 30/26 A2982 RMK
      AO2 CIG 020V026 SLP096 T03000259=
####018000065####
SAOR01 ORSU 080700
ORSU 080700Z VRB02KT 8000 SKC 37/00 Q1010
####018000079####
SAHW31 KMSC 080657
METAR PGRO 080655Z 09016G21KT 7SM FEW040 29/25 A2986
=
####018000148####
SAUS45 KABQ 080657
MTRCAO
METAR KCAO 080655Z AUTO 01015KT 10SM -RA BKN070 OVC100 16/14 A3028 
RMK AO2 SLP195 P0007 T01610144 402780156 TSNO
####018000087####
SAMZ40 FQMA 080700
METAR
FQCH 080700Z /////KT 9999 FEW009 BKN015 17/14 Q1031=

####018000072####
SAYE20 OYSY 080700
METAR OYSY 080700Z VRB04KT 8000 NSC 38/11 Q1005=
####018000076####
SAYE20 OYMB 080700
METAR OYMB 080700Z 06010KT 6000 FEW030 37/M03 Q1007=
####018000078####
SAYE20 OYAS 080700
METAR OYAS 080700Z 18008G20KT 7000 FEW030 33/24 Q1007=
####018000118####
SAUS46 KMTR 080657
MTRAAT
METAR KAAT 080655Z AUTO 08006KT 10SM CLR 18/07 A3006 RMK AO2 SLP130 
T01780067 TSNO
####018000142####
SAUS45 KABQ 080657
MTRABQ
METAR KABQ 080656Z 10018G27KT 10SM OVC130 19/10 A3025 RMK AO2 PK WND 
11028/0627 SLP155 T01940100 403170183
####018001621####
SAEU KAWN 080700 RRG
METAR EGUN 080655Z AUTO 23009KT 9999 FEW006 BKN022 OVC028 17/17 A3006
      RMK AO2 RAE0607B0624E0647 SLP167 P0000 T01690169=
METAR ETAR 080655Z AUTO 11003KT 9999 CLR 20/13 A3015 RMK AO2 SLP202
      T01980130 $=
METAR LGEL 080650Z 02011G21KT 9999 FEW025 26/15 Q1011=
METAR LGHI 080650Z 03007KT 9999 FEW020 27/17 Q1010=
METAR LGIR 080650Z 06005KT CAVOK 29/18 Q1011 NOSIG=
METAR LGKF 080650Z 34017KT 9999 FEW025 27/16 Q1013=
METAR LGKL 080650Z 34008KT CAVOK 29/18 Q1011=
METAR LGKO 080650Z 31018KT CAVOK 27/18 Q1009=
METAR LGKV 080650Z 00000KT 9999 SCT020TCU 17/16 Q1013=
METAR LGKZ 080650Z 34011KT 9999 SCT020 SCT070 17/08 Q1017=
METAR LGMK 080650Z 35021G32KT 9999 FEW018 26/16 Q1011=
METAR LGMT 080650Z 34007KT 9999 FEW020 SCT160 27/14 Q1010=
METAR LGPZ 080650Z 27008KT 9999 FEW025 28/19 Q1013 NOSIG=
METAR LGRP 080650Z 24013KT CAVOK 29/21 Q1007 NOSIG=
METAR LGRX 080650Z 26004KT 9999 FEW025 27/21 Q1012 NOSIG=
METAR LGSO 080650Z 02009KT CAVOK 27/17 Q1011=
METAR LGSR 080650Z 29007KT CAVOK 29/15 Q1009 NOSIG=
METAR LGTS 080650Z 33025KT 9999 FEW025 21/11 Q1016 NOSIG=
METAR LGZA 080650Z 36010KT 9999 FEW020 29/16 Q1012=
METAR LIBR 080645Z /////KT 9999 FEW020 24/17 Q1016 NOSIG=
METAR LICC 080650Z 25004KT CAVOK 26/20 Q1018=
METAR LIPB 080650Z 25002KT 9999 BKN070 24/11 Q1022=
METAR LIPE 080650Z 11003KT 080V140 CAVOK 24/17 Q1021=
METAR LIPH 080645Z 03002KT 9999 SCT020 BKN045 22/18 Q1023=
METAR LIPK 080650Z 00000KT CAVOK 22/15 Q1021=
METAR LIPR 080645Z 12006KT CAVOK 25/18 Q1021=
METAR LIPX 080645Z 06009KT 9999 SCT060 BKN080 25/15 Q1021=
####018000118####
SAUS44 KSHV 080657
MTRSHV
METAR KSHV 080656Z 13003KT 10SM SCT180 BKN280 25/24 A3000 RMK AO2 
SLP154 T02500239
####018000118####
SAUS46 KSGX 080657
MTRNJK
METAR KNJK 080656Z AUTO 26008KT 10SM CLR 28/09 A2967 RMK AO2 SLP061 
T02830089 TSNO
####018001297####
SPZZ40 KAWN 080657 RRL
SPECI CYAM 080653Z 12004KT 12SM -RA FEW048 BKN079 OVC100 RMK SC2AC4AC2=
SPECI CYMH 080652Z AUTO 20008KT 9SM OVC004 06/06 A3012=
SPECI CYPQ 080652Z AUTO ///// 5/8SM CLR 21/21 A3003 RMK VSBY VRBL 0.3V5.0=
SPECI CYUA 080651Z AUTO 31017KT 9SM OVC005 05/ A3006=
SPECI CYUA 080653Z AUTO 31016KT 9SM OVC004 05/ A3006=
SPECI CYUS 080652Z AUTO ///// 9SM CLR 10/ A2981=
SPECI KNSE 080641Z AUTO 00000KT 1 3/4SM BR CLR 23/22 A3003 RMK AO2
      $=
SPECI RJCA 080639Z 22006KT 9999 -SHRA FEW010 SCT020 BKN025 24/17 Q1007
      RMK 2CU010 3CU020 5CU025 A2976=
SPECI RJCJ 080647Z 17008KT 7000 -DZ FEW003 BKN005 BKN007 19/17 Q1008
      RMK 1ST003 6ST005 7ST007 A2979=
SPECI RJFZ 080650Z VRB02KT 7000 FEW045 SCT070 OVC230 27/21 Q1007 RMK
      1SC045 3AC070 A2976=
SPECI RJST 080645Z 17005KT 5000 -TSRA BKN003 BKN005 BKN008 BKN020CB
      23/22 Q1010 RMK 5ST003 6ST005 6CU008 7CB020 A2983 VIS SW-N
      2500M FBL TS OHD MOV E=
SPECI RJST 080647Z 19005KT 4000 TSRA BKN003 BKN005 BKN007 OVC010CB
      23/22 Q1010 RMK 5ST003 7ST005 7CU007 8CB010 A2983 VIS SW-N
      2000M FBL TS OHD MOV E=
SPECI RJSU 080643Z 16008KT 9999 -TSRA FEW015 SCT030 FEW030CB BKN200
      26/23 Q1008 RMK 1CU015 3CU030 1CB030 5CI200 A2978 FBL TS
      10KM W MOV UNK=
####018000554####
SASA KAWN 080700
METAR SBAR 080700Z 25003KT 9999 SCT015 22/22 Q1015=
METAR SBBR 080700Z 12005KT CAVOK 17/08 Q1022=
METAR SBBV 080700Z 00000KT 9999 SCT025 SCT100 25/23 Q1011=
METAR SBCY 080700Z 03004KT CAVOK 20/14 Q1013=
METAR SBEG 080700Z 00000KT 9999 FEW010 SCT100 25/22 Q1012=
METAR SBSJ 080700Z 00000KT 5000 BR SCT010 12/11 Q1022=
METAR SBSL 080700Z 08002KT 9999 SCT017 26/24 Q1012=
METAR SPIM 080700Z 00000KT 7000 SCT010 OVC022 16/14 Q1014 NOSIG RMK
      PP000=
METAR SVMI 080700Z 11001KT 9999 FEW016 SCT100 25/24 Q1013 NOSIG=
####018001506####
SAZZ40 KAWN 080700 RRG
METAR BGCO 080650Z 02016KT 9999 FEW080 BKN110 04/00 Q1008=
METAR EFKI 080650Z AUTO 34005KT 280V030 CAVOK 18/14 Q1016=
METAR ETAR 080655Z AUTO 11003KT 9999 CLR 20/13 A3015 RMK AO2 SLP202
      T01980130 $=
METAR KBKF 080655Z 34003KT 7SM SCT004 OVC010 14/14 A3035 RMK SLP231=
METAR KCOF 080655Z AUTO 07004KT 10SM CLR 26/ A2998 RMK AO2 SLP154 T0255
      $=
METAR KDLF 080655Z AUTO 06004KT 10SM CLR 25/23 A2994 RMK AO2 SLP122
      T02460227 $=
METAR KDTS 080653Z AUTO 00000KT 9SM CLR 25/23 A3002 RMK AO2 SLP164
      T02500233=
METAR KLSV 080655Z AUTO 01005KT 10SM CLR 29/M04 A2981 RMK AO2 SLP067
      T02931038 PWINO=
METAR KMIB 080655Z AUTO 28004KT 10SM CLR 13/12 A3008 RMK AO2 SLP186
      T01330119 $=
METAR KMXF 080655Z AUTO 00000KT 10SM CLR 27/24 A3001 RMK AO2 SLP162
      T02700244=
METAR KSKA 080655Z AUTO 07004KT 10SM CLR 18/08 A3006 RMK AO2 SLP167
      T01800081=
METAR KSLI 080655Z AUTO 00000KT 10SM BKN016 15/13 A2992 RMK AO2 SLP132
      T01540131=
METAR KVPS 080655Z 31002KT 10SM SKC 24/24 A3003 RMK SLP170 T02430237=
METAR KXMR 080655Z AUTO 00000KT 10SM CLR 20/19 A2998 RMK AO2 SLP154
      T02050193=
METAR MHSC 080655Z AUTO 14004KT 9999 FEW060 BKN140 22/20 A2995 RMK
      AO2 SLP098 T02250197 $=
METAR PAED 080655Z AUTO 00000KT 10SM OVC080 14/09 A3002 RMK AO2 SLP165
      T01410094 $=
METAR PGUA 080655Z AUTO 08014KT 10SM BKN018 BKN025 28/ A2985 RMK AO2
      CIG 016V021 SLP091 T0278 VISNO RWY24L $=
####018000088####
SAXX70 KAWN 080600 RRX
METAR KQFW 080640Z AUTO 22001KT 7SM CLR 28/18 A2987 RMK A02=
####018000105####
SPNA14 KAWN 080657 RRH
SPECI KNSE 080641Z AUTO 00000KT 1 3/4SM BR CLR 23/22 A3003 RMK AO2
      $=
####018000192####
SAAK17 KAWN 080700 RRB
PALU SA 0655 AWOS CLR BLO 120 10 55/34/2223G28/ 009=
PASV SA 0655 AWOS 41 SCT 55 SCT M70 BKN 10 50/49/0000/997=
PATL SA 0655 AWOS CLR BLO 120 10 64/41/0505/999=
####018000079####
SACH01 SCFA 080700 CCA
METAR SCFA 080700Z 00000KT 9999 OVC015 13/09 Q1016=
####018000069####
SABZ18 SBKP 080700
METAR SBKP 080700Z 10008KT CAVOK 12/09 Q1020=
####018000123####
SPCN31 CWAO 080657
SPECI CYFC 080657Z AUTO 21006KT 8SM SCT010 20/19 A3004 RMK SLP173
 DENSITY ALT 500FT RVR MISG=

####018000458####
SAUS20 KNKA 080657
METAR KTPH 080656Z AUTO 03003KT 10SM CLR 17/M12 A3008 RMK AO2 SLP107 
    T01721117=
METAR KTTS 080655Z 33002KT 10SM FEW030 FEW290 21/20 A3000 RMK SLP159
      1CU /0/ 1CI /0/=
METAR KTZR 080657Z AUTO 00000KT 7SM CLR 22/19 A3008 RMK AO2=
METAR PAAK 080656Z AUTO 09016KT 10SM FEW008 SCT018 BKN023 07/04 
    A2965 RMK AO1 PNO=
METAR PAHP 080656Z AUTO 34007KT 10SM FEW070 FEW080 SCT120 13/09 
    A3005 RMK AO1 PNO TSNO=
####018002971####
SAUS20 KNKA 080657
METAR K1A6 080655Z AUTO 00000KT 4SM BR CLR 22/22 A3010 RMK AO2=
METAR K1M4 080656Z AUTO 00000KT 10SM BKN095 23/22 A3010 RMK AO2 
    T02330222 BKN V SCT SLP189=
METAR K21D 080658Z AUTO 31005KT 10SM CLR 19/17 A3006 RMK AO2=
METAR KAIG 080655Z AUTO 00000KT 2SM -RA OVC003 19/19 A3000 RMK AO2=
METAR KAND 080656Z AUTO 00000KT 10SM CLR 22/19 A3002 RMK AO2 SLP156 
    T02220194=
METAR KARV 080652Z AUTO 00000KT 10SM SCT001 SCT100 20/19 A3003 
     RMK AO2 T01950185=
METAR KATW 080655Z AUTO 21005KT 10SM -RA SCT060 BKN090 120 21/19 
     A3000 RMK AO2 P0001=
METAR KBJI 080654Z AUTO 22004KT 10SM CLR 16/14 A3005 RMK AO2=
METAR KBUU 080654Z AUTO 23003KT 10SM SCT100 SCT120 21/21 A3003 
     RMK AO2 P0002=
METAR KBWP 080651Z AUTO 25003KT 10SM CLR 16/14 A3008 RMK AO1 
     T01550135=
METAR KCLI 080655Z AUTO 18005KT 7SM -RA SCT004 22/21 A2998 RMK 
     AO2 P0001=
METAR KDUG 080656Z AUTO 06015G23KT 10SM CLR 28/10 A3000 RMK AO2 PK 
    WND 07027/0644 WSHFT 0614 RAB15E48 SLP071 P0000 T02780100 
    403720167 $=
METAR KDUJ 080656Z AUTO 02004KT 9SM CLR 22/17 A3012 RMK AO2 SLP180 
    T02220172=
METAR KDVK 080657Z AUTO 00000KT 7SM 21/19 A3009 RMK AO1=
METAR KEKO 080656Z AUTO 07007KT 10SM CLR 21/M05 A3009 RMK AO2 SLP129 
    T02061050=
METAR KFBG 080655Z AUTO 33007KT 10SM CLR 28/18 A2994 RMK AO2 SLP135
      T02760177 $=
METAR KGRD 080656Z AUTO 28003KT 10SM CLR 24/19 A3003 RMK AO2 SLP159 
    T02440189=
METAR KIGX 080656Z AUTO 29004KT 7SM CLR 25/18 A2999 RMK AO2 SLP146 
    T02500183 $=
METAR KINW 080656Z AUTO 23007KT 10SM CLR 25/01 A3008 RMK AO2 SLP094 
    T02500006 403560133=
METAR KIWA 080656Z AUTO 10003KT 10SM CLR 34/04 A2979 RMK AO2=
METAR KLCK 080655Z AUTO 00000KT 5SM HZ CLR 23/20 A3007 RMK AO2 
     T02320202=
METAR KLFI 080655Z 10005KT 9SM R08/5500FT SCT085 26/23 A2996 RMK AO2A
      SLP147 T02570230 $=
METAR KM19 080656Z AUTO 00000KT 10SM CLR 26/24 A3005 RMK AO2 
    T02550238 SLP173=
METAR KMMT 080655Z AUTO 30004KT 10SM CLR 23/19 A3000 RMK AO2 SLP156
      T02290192=
METAR KMOB 080656Z 00000KT 10SM CLR 24/23 A3004 RMK AO2 SLP169 
    T02390228=
METAR KMQY 080656Z AUTO 00000KT 10SM CLR 26/22 A3008 RMK AO2 
    T02610216 SLP174=
METAR KMRH 080656Z AUTO 35003KT 10SM SCT110 26/18 A2990 RMK AO2 
    SLP126 T02560183 TSNO=
METAR KMWO 080655Z AUTO 00000KT 5SM BR CLR 21/20 A3008 RMK AO2=
METAR KNQX 080653Z AUTO 05004KT 10SM CLR 28/25 A2993 RMK AO2 SLP133
      T02830250 $=
METAR KOZR 080655Z AUTO 00000KT 10SM CLR 23/23 A3003 RMK AO2 SLP166
      T02270227=
METAR KPVB 080653Z AUTO 30004KT 10SM SCT100 BKN120 20/19 A3002 
     RMK AO1 T01960187=
METAR KSFO 080656Z 29009KT 10SM FEW008 14/10 A2992 RMK AO2 SLP132 
    T01390100=
METAR KSRC 080656Z AUTO 00000KT 10SM CLR 23/22 A3005 RMK AO2 TSNO 
    T02330222 SLP179=
METAR KSSC 080655Z AUTO 28009KT 10SM CLR 26/20 A2996 RMK AO2 SLP145
      T02610195 $=
####018002923####
SAAK41 KNKA 080657
METAR PAAK 080656Z AUTO 09016KT 10SM FEW008 SCT018 BKN023 07/04 
    A2965 RMK AO1 PNO=
METAR PABL 080656Z AUTO 30008KT 10SM CLR 14/08 A3014 RMK AO1 PNO=
METAR PABV 080656Z AUTO 19003KT 10SM OVC085 14/09 RMK AO1 PNO=
METAR PADK 080656Z 08009KT 10SM BKN016 OVC024 07/06 A2959 RMK AO1 
    PNO=
METAR PADL 080656Z 30008KT 10SM OVC050 11/08 A2997 RMK AO1 PNO TSNO=
METAR PAEM 080656Z AUTO 01010KT 10SM CLR 14/08 A3004 RMK AO1 PNO=
METAR PAFE 080656Z AUTO 00000KT 10SM CLR 13/10 A3019 RMK AO1 PNO=
METAR PAFM 080656Z AUTO 00000KT 10SM CLR 19/10 A3010 RMK AO1 PNO=
METAR PAGL 080656Z AUTO 28005KT 10SM SCT070 17/11 A3011 RMK AO1 PNO=
METAR PAGS 080656Z AUTO 00000KT 10SM CLR 14/11 A3020 RMK AO1 PNO=
METAR PAHP 080656Z AUTO 34007KT 10SM FEW070 FEW080 SCT120 13/09 
    A3005 RMK AO1 PNO TSNO=
METAR PAHY 080656Z AUTO 01003KT 10SM CLR 19/10 A3011 RMK AO1 PNO=
METAR PAII 080656Z AUTO 01005KT 10SM BKN023 OVC060 12/08 A2996 RMK 
    AO1 PNO=
METAR PAIN 080656Z AUTO 26003KT 10SM CLR 14/08 A3008 RMK AO1 PNO=
METAR PAJC 080656Z AUTO 33005KT 10SM SCT017 OVC024 11/06 A2994 RMK 
    AO1 PNO=
METAR PAKK 080656Z AUTO 36009KT 10SM FEW085 17/09 A3004 RMK AO1 PNO=
METAR PAKP 080656Z AUTO 06007KT 10SM BKN034 OVC050 11/03 A3009 RMK 
    AO1=
METAR PAMD 080656Z AUTO 08021G26KT 3SM OVC003 11/09 A3001 RMK AO1 
    PNO=
METAR PAMH 080656Z 00000KT 10SM CLR 17/07 A2999 RMK AO1 PNO=
METAR PAMM 080656Z AUTO 33007KT 10SM CLR 21/11 A3009 RMK AO1 PNO=
METAR PAMY 080656Z 29008KT 10SM OVC004 07/05 A3006 RMK AO1=
METAR PANI 080656Z AUTO 00000KT 10SM BKN070 BKN090 OVC120 14/09 
    A3000 RMK AO1 PNO=
METAR PANV 080656Z AUTO 21006KT 10SM OVC075 16/08 A3000 RMK AO1 PNO=
METAR PAOU 080656Z AUTO 00000KT 10SM FEW043 OVC055 08/07 A2997 RMK 
    AO2 PWINO TSNO T00770066 SLP153 $=
METAR PAPG 080656Z 03005KT 10SM CLR 13/11 A3014 RMK AO1 
      PNO=
METAR PAPH 080656Z AUTO 01006KT 10SM SCT048 08/06 A2998 RMK AO1 PNO=
METAR PAPN 080656Z AUTO 32009KT 8SM FEW037 OVC055 10/08 A2992 RMK 
    AO2 PWINO TSNO T01000083 SLP136 $=
METAR PAPO 080657Z 16007KT 10SM CLR 06/03 A3014 RMK AWOS VIA PHONE
     (OTZ FSS)=
METAR PARC 080656Z AUTO 32005KT 10SM FEW080 12/01 A3001 RMK AO1 PNO=
METAR PASA 080656Z AUTO 06005KT 10SM CLR 08/06 A3019 RMK AO1 PNO=
METAR PASD 080656Z AUTO 12004KT 10SM OVC050 09/05 A2996 RMK AO1 PNO=
METAR PASH 080656Z AUTO 00000KT 10SM CLR 09/06 A3019 RMK AO1 PNO=
METAR PASK 080656Z 28006KT 10SM CLR 17/08 A3011 RMK AO1 PNO=
METAR PASL 080656Z AUTO 16005KT 10SM SCT090 BKN110 15/07 A3001 RMK 
    AO1 PNO=
METAR PASM 080656Z AUTO 27006KT 10SM FEW050 SCT075 OVC100 11/08 
    A3006 RMK AO1 PNO=
METAR PASX 080656Z 07003KT 10SM BKN090 BKN120 13/09 A2998 RMK AO1 
    PNO=
METAR PAUN 080656Z AUTO 34008KT 10SM CLR 16/11 A3002 RMK AO1 PNO=
METAR PAVD 080656Z 10004KT 10SM BKN090 10/07 A3011 RMK AO1 
      PNO=
####018000322####
SAAK41 KNKA 080657
METAR PAWG 080656Z AUTO 25003KT 10SM CLR 15/11 A3013 RMK AO1 
    WEA:NONE   RJ LAST PNO=
METAR PAWN 080656Z AUTO 30006KT 10SM CLR 16/06 A3012 RMK AO1 PNO=
METAR PAWS 080656Z AUTO 05007KT 10SM CLR 15/07 A3001 RMK AO1 PNO=
METAR PAZK 080656Z AUTO 36006KT 10SM BKN055 11/04 A3010 RMK AO1 PNO=
####018000111####
SAUS44 KMRX 080657 COR
MTRTYS
METAR KTYS 080653Z 00000KT 8SM CLR 24/20 A3006 RMK AO2 SLP166 
T02390200
####018000113####
SPCN47 CWAO 080652
SPECI CYQT 080652Z 25005KT 15SM -SHRA BKN069 OVC150 18/16 RMK AC6AC2
CVCTV CLD EMBD=

####018000116####
SAUS44 KMRX 080657 COR
MTRTRI
METAR KTRI 080653Z 00000KT 5SM HZ CLR 23/19 A3010 RMK AO2 SLP171 
T02280189 $
####018000101####
SAUS41 KCAR 080657
MTRGNR
METAR KGNR 080656Z AUTO 12004KT 20/19 A3006 RMK AO1 SLP170 T02000189
####018000123####
SAUS45 KPSR 080657
MTRALK
METAR KALK 080656Z AUTO 08011KT 10SM CLR 25/07 A3006 RMK AO2 SLP074 
T02500072 403390183
####018000108####
SAUS42 KCAE 080657
MTRCAE
METAR KCAE 080656Z 26004KT 10SM CLR 26/18 A2999 RMK AO2 SLP152 
T02560183
####018000118####
SAUS45 KPSR 080657
MTRNYL
METAR KNYL 080655Z 00000KT 10SM CLR 30/06 A2971 RMK AO2 SLP055 
T03000056 404060239
####018000101####
SAIN31 VABB 080640 RRA
METAR VAAH 080640Z 15004KT 4000 HZ SCT015 SCT020 31/25 Q1006
    NOSIG=
####018001563####
SANA35 KAWN 080700 RRA
METAR KADW 080655Z AUTO 08005KT 10SM BKN110 26/22 A2999 RMK AO2 SLP154
      T02610220 $=
METAR KBIX 080655Z AUTO 05003KT 10SM CLR 25/25 A3002 RMK AO2 SLP166
      T02530250=
METAR KBOS 080654Z 19009KT 4SM BR BKN011 24/22 A3005 RMK AO2 SLP174
      T02390217=
METAR KCOF 080655Z AUTO 07004KT 10SM CLR 26/ A2998 RMK AO2 SLP154 T0255
      $=
METAR KDOV 080655Z AUTO 00000KT 4SM BR FEW003 SCT110 24/24 A2998 RMK
      AO2 SLP154 T02450245=
METAR KGSB 080655Z AUTO 00000KT 10SM CLR 26/19 A2991 RMK AO2 SLP129
      T02590186 $=
METAR KLFI 080655Z 10005KT 9SM R08/5500FT SCT085 26/23 A2996 RMK AO2A
      SLP147 T02570230 $=
METAR KMCF 080655Z AUTO 07005KT 10SM CLR 25/23 A3000 RMK AO2 SLP162
      T02490232=
METAR KNIP 080653Z 26004KT 10SM CLR 24/21 A3002 RMK AO2 SLP162 T02440211=
METAR KNRB 080652Z 22005KT 10SM CLR 22/19 A3001 RMK AO2 SLP160 T02220194=
METAR KPAM 080655Z AUTO 36003KT 9SM CLR 23/23 A3001 RMK AO2 SLP165
      T02290227=
METAR KPHL 080654Z 11003KT 8SM FEW150 26/22 A3001 RMK AO2 SLP161 T02610217
      $=
METAR KSYR 080654Z 00000KT 7SM CLR 23/21 A3004 RMK AO2 SLP167 T02280206=
METAR KVAD 080655Z AUTO 00000KT 8SM R18/5000VP6000FT CLR 22/20 A3003
      RMK AO2 SLP167 T02230196 $=
METAR KVPS 080655Z 31002KT 10SM SKC 24/24 A3003 RMK SLP170 T02430237=
METAR KWRI 080655Z AUTO 00000KT 2SM R18/4500V5000FT R24/2600V2800FT
      BR BKN003 24/24 A2999 RMK AO2 SLP157 T02370235 $=
METAR MUGM 080656Z 34003KT 9999 FEW035 SCT095 26/22 A2996 RMK SLP143
      T02560222=
####018003719####
SAUS90 KWBC 080700
METAR KDMH 080654Z AUTO 29/22 A2999 RMK AO2 SLP156 T02890222 PWINO
     TSNO=
METAR KCOU 080654Z AUTO 13003KT 10SM -RA SCT001 BKN030 23/22 A3005
     RMK AO2 RAB34 SLP167 P0000 T02280222 TSNO=
METAR KGSO 080654Z 00000KT 8SM SCT090 26/18 A3001 RMK AO2 SLP150
     T02610178=
METAR KBKB 080654Z AUTO 00000KT 10SM CLR 24/23 A2998 RMK AO2
     SLP177 T02440228=
METAR KAPN 080654Z AUTO 00000KT 5SM BR CLR 19/19 A3001 RMK AO2
     SLP160 T01940189=
METAR K12N 080654Z AUTO 00000KT 22/21 A3004 RMK AO2 SLP160
     T02220211 PWINO TSNO=
METAR KFWA 080654Z 21004KT 10SM CLR 24/20 A3006 RMK AO2 SLP172
     T02390200=
METAR KCAR 080654Z AUTO 11004KT 9SM CLR 23/21 A2999 RMK AO2 SLP153
     T02280206=
METAR KMTP 080654Z AUTO 00000KT 23/21 A3005 RMK AO2 SLP177
     T02280206 PWINO TSNO=
METAR KACY 080654Z 00000KT 8SM CLR 25/23 A3001 RMK AO2 SLP162
     T02500228=
METAR KSBN 080654Z 11004KT 10SM OVC110 25/21 A3004 RMK AO2 SLP165
     T02500211=
METAR KP68 080653Z AUTO 00000KT 14/M02 A3012 RMK AO2 SLP117
     T01391022 PWINO TSNO=
METAR KRFD 080654Z 00000KT 10SM -RA FEW040 BKN047 OVC070 22/21
     A3004 RMK AO2 SLP167 P0001 T02220211=
METAR KDRA 080655Z AUTO 04004KT 10SM CLR 23/M12 A2990 RMK AO2
     SLP073 T02331122 TSNO=
METAR KMBG 080655Z AUTO 00000KT 10SM CLR 13/11 A3012 RMK AO2
     SLP194 T01330106 TSNO=
METAR KINL 080655Z AUTO 00000KT 10SM FEW060 SCT090 15/13 A3001 RMK
     AO2 SLP164 T01500133=
METAR KSDF 080656Z 00000KT 8SM CLR 27/21 A3005 RMK AO2 SLP171
     T02720206=
METAR KVBG 080655Z AUTO 34005KT 10SM CLR 13/11 A2993 RMK AO2 CIG
     010 RWY12 SLP127 T01280111 401610094 TSNO $=
METAR TJSJ 080656Z 00000KT 10SM CLR 27/24 A2997 RMK AO2 SLP149
     T02720244=
METAR KANJ 080655Z AUTO 11003KT 10SM -RA FEW048 BKN100 OVC110
     21/19 A2998 RMK AO2 RAB08 SLP148 P0000 T02060189=
METAR KCHS 080656Z 29007KT 10SM CLR 25/20 A2997 RMK AO2 SLP148
     T02500200=
METAR KPQN 080653Z AUTO 30003KT 10SM CLR 16/14 A3015 RMK AO2=
METAR KFGN 080654Z AUTO 25007KT 1 1/2SM HZ BKN110 18/14 A2997 RMK
     AO2=
METAR KPNM 080653Z AUTO 28003KT 10SM CLR 16/15 A3007 RMK AO2=
METAR KPWC 080653Z AUTO 00000KT 1/2SM FG BKN001 12/11 A3008 RMK
     AO2=
METAR KFFM 080653Z AUTO 17003KT 10SM CLR 16/14 A3007 RMK AO2=
METAR KGDB 080652Z AUTO 00000KT 10SM CLR 14/14 A3013 RMK AO2
     T01420139=
METAR KAIT 080653Z AUTO 00000KT 1/2SM FG VV005 13/12 A3007 RMK
     AO2=
METAR KGHW 080653Z AUTO 21005KT 10SM CLR 14/13 A3013 RMK AO2=
METAR KMWM 080653Z AUTO 26003KT 10SM CLR 15/14 A3013 RMK AO2=
METAR KULM 080655Z AUTO 00000KT 10SM CLR 16/14 A3010 RMK AO2=
METAR KBBB 080653Z AUTO 00000KT 7SM CLR 15/15 A3011 RMK AO2=
METAR KTWM 080653Z AUTO 00000KT 10SM SCT050 BKN100 18/15 A3002 RMK
     AO2=
METAR KMGG 080655Z AUTO 28004KT 10SM CLR 17/16 A3009 RMK AO2
     T01680157=
METAR KMOX 080650Z AUTO 22004KT 10SM CLR 14/14 A3007 RMK AO2=
METAR KTEW 080653Z AUTO 00000KT 10SM CLR 21/20 A3005 RMK AO2=
METAR KCVH 080650Z AUTO 26005KT 10SM CLR 13/11 A2993 RMK AO1=
METAR KDYT 080654Z AUTO 31006KT 10SM SCT060 SCT100 22/16 A3004 RMK
     AO2=
METAR KFSO 080658Z AUTO 00000KT 5SM BR CLR 23/22 A3000 RMK AO2=
METAR KFBL 080654Z AUTO 29005KT 10SM CLR 19/17 A3008 RMK AO2=
METAR KLYV 080658Z AUTO 00000KT 10SM CLR 14/13 A3015 RMK AO2=
METAR KEFK 080655Z AUTO 22003KT 5SM BR BKN050 BKN060 BKN075 21/20
     A3005 RMK AO2=
METAR KRRT 080654Z AUTO 23007KT 10SM CLR 16/13 A3001 RMK AO2=
METAR KTOB 080654Z AUTO 00000KT 10SM CLR 19/18 A3007 RMK AO2=
METAR KLXL 080654Z AUTO 00000KT 5SM BR CLR 13/12 A3007 RMK AO2=
METAR KEVM 080652Z AUTO 00000KT 3SM BR CLR 13/12 A3003 RMK AO1=
####018000102####
SAUS90 KWBC 080658
METAR KSYN 080710Z AUTO 00000KT 10SM CLR 19/18 A3006 RMK AO2
     T01920175=
####018000126####
SAUS90 KWBC 080700 RRB
METAR KNGP 080656Z AUTO 08005KT 10SM FEW055 28/26 A2983 RMK AO2
     TSE0559 SLP101 T02830261 $=
####018000194####
SAUS90 KWBC 080700 CCA
METAR KTRI 080653Z 00000KT 5SM HZ CLR 23/19 A3010 RMK AO2 SLP171
     T02280189 $=
METAR KTYS 080653Z 00000KT 8SM CLR 24/20 A3006 RMK AO2 SLP166
     T02390200=
####018003709####
SAUS90 KWBC 080700 RRA
METAR KELO 080653Z AUTO 00000KT 10SM CLR 14/14 A3004 RMK AO2=
METAR KANE 080655Z AUTO 30006KT 10SM 19/17 A3007 RMK AO2=
METAR KROX 080654Z AUTO 23005KT 10SM CLR 17/14 A3000 RMK AO2=
METAR KVVV 080656Z AUTO 00000KT 10SM CLR 17/14 A3011 RMK AO2=
METAR KROS 080655Z AUTO 31004KT 10SM CLR 18/16 A3006 RMK AO2
     T01830160=
METAR KHCD 080652Z AUTO 29003KT 10SM CLR 15/14 A3009 RMK AO2
     T01520141=
METAR KSGS 080653Z AUTO 32004KT 10SM CLR 21/17 A3006 RMK AO2
     T02060170=
METAR KMJQ 080652Z AUTO 29004KT 7SM CLR 16/15 A3013 RMK AO2=
METAR KHCO 080654Z AUTO 00000KT 10SM CLR 13/13 A3004 RMK AO2=
METAR KLVN 080648Z AUTO 30005KT 10SM CLR 18/17 A3007 RMK AO2=
METAR KPEX 080653Z AUTO 24003KT 7SM CLR 13/13 A3010 RMK AO2
     T01340131=
METAR KJMR 080658Z AUTO 00000KT 10SM CLR 15/13 A3008 RMK AO2=
METAR KJKJ 080655Z AUTO 23003KT 10SM CLR 17/16 A3005 RMK AO2=
METAR KMVE 080654Z AUTO 27004KT 10SM CLR 17/17 A3010 RMK AO2=
METAR KTKC 080653Z AUTO 25005KT 10SM CLR 16/14 A3013 RMK AO2
     T01600139=
METAR KGYL 080655Z AUTO 30003KT 10SM CLR 17/16 A3009 RMK AO2
     T01680156=
METAR KDXX 080654Z AUTO 00000KT 10SM CLR 15/15 A3010 RMK AO2=
METAR KHZX 080651Z AUTO 00000KT 7SM CLR 13/13 A3007 RMK AO2=
METAR KSAZ 080654Z AUTO 00000KT 10SM CLR 16/16 A3008 RMK AO2=
METAR KONA 080651Z AUTO 32005KT 10SM CLR 20/18 A3002 RMK AO2=
METAR KOVL 080654Z AUTO 00000KT 10SM CLR 14/12 A3009 RMK AO2
     T01400123=
METAR KLJF 080652Z AUTO 00000KT 10SM CLR 17/16 A3010 RMK AO2=
METAR KAEL 080651Z AUTO 30004KT 10SM CLR 19/18 A3008 RMK AO2=
METAR K29G 080654Z AUTO 00000KT 7SM CLR 20/18 A3010 RMK AO2
     T01980176 PWINO=
METAR KMRT 080653Z AUTO 00000KT 7SM CLR 21/19 A3011 RMK AO2
     T02130192=
METAR KIKW 080654Z AUTO 10SM CLR 22/21 A3001 RMK AO2 T02170205=
METAR KMDS 080645Z AUTO 29005KT 10SM CLR 15/15 A3016 RMK AO2=
METAR KPOE 080655Z AUTO 11005KT 10SM CLR 24/23 A3000 RMK AO2
     SLP158 T02440228=
METAR KAST 080655Z AUTO 23007KT 4SM BR OVC003 12/11 A2991 RMK AO2
     VIS 2 RWY 08 SLP129 T01170106=
METAR KJAX 080656Z 27004KT 10SM CLR 20/19 A3001 RMK AO2 SLP163
     T02000189=
METAR KHON 080655Z AUTO 22006KT 10SM CLR 18/14 A3015 RMK AO2
     SLP203 T01780139=
METAR KPHP 080655Z AUTO 27006KT 10SM CLR 14/11 A3020 RMK AO2
     SLP213 T01440106 402720133 TSNO $=
METAR KCAO 080655Z AUTO 01015KT 10SM -RA BKN070 OVC100 16/14 A3028
     RMK AO2 SLP195 P0007 T01610144 402780156 TSNO=
METAR KABQ 080656Z 10018G27KT 10SM OVC130 19/10 A3025 RMK AO2 PK
     WND 11028/0627 SLP155 T01940100 403170183=
METAR KAAT 080655Z AUTO 08006KT 10SM CLR 18/07 A3006 RMK AO2
     SLP130 T01780067 TSNO=
METAR KSHV 080656Z 13003KT 10SM SCT180 BKN280 25/24 A3000 RMK AO2
     SLP154 T02500239=
METAR KGNR 080656Z AUTO 12004KT 20/19 A3006 RMK AO1 SLP170
     T02000189=
METAR KALK 080656Z AUTO 08011KT 10SM CLR 25/07 A3006 RMK AO2
     SLP074 T02500072 403390183=
METAR KCAE 080656Z 26004KT 10SM CLR 26/18 A2999 RMK AO2 SLP152
     T02560183=
METAR K9L2 080656Z AUTO 16004KT 10SM CLR 23/06 A2987 RMK AO2
     SLP091 T02330056 403670150 $=
METAR KNBT 080656Z AUTO 05007KT 3SM BR CLR 29/ A2990 RMK AO2
     SLP130 T0289 TSNO $=
METAR KROC 080654Z 23004KT 8SM CLR 23/20 A3005 RMK AO2 SLP173
     T02280200=
METAR KP60 080656Z AUTO 32003KT 03/M01 A3042 RMK AO2 SLP252
     T00331006 401721017 PWINO TSNO=
METAR KMEH 080656Z AUTO 00000KT 10SM CLR 10/08 A3011 RMK AO2
     SLP174 T01000078 TSNO=
METAR KNFE 080656Z AUTO 00000KT 1/4SM FG CLR 24/22 A2995 RMK AO2
     SLP145 T02440222 $=
METAR KNTU 080656Z 11005KT 4SM BR CLR 26/24 A2994 RMK AO2 SLP142
     T02560244 $=
####018000114####
SAHW31 KMSC 080657
METAR PMDY 080656Z AUTO 00000KT 10SM CLR 27/20 A3011 RMK AO2 TSNO 
    T02660200 SLP501=
####018000125####
SAUS46 KLOX 080657
MTR9L2
METAR K9L2 080656Z AUTO 16004KT 10SM CLR 23/06 A2987 RMK AO2 SLP091 
T02330056 403670150 $
####018000118####
SAUS46 KPDT 080657
MTRMEH
METAR KMEH 080656Z AUTO 00000KT 10SM CLR 10/08 A3011 RMK AO2 SLP174 
T01000078 TSNO
####018000126####
SAUS45 KRIW 080657
MTRP60
METAR KP60 080656Z AUTO 32003KT 03/M01 A3042 RMK AO2 SLP252 
T00331006 401721017 PWINO TSNO
####018000118####
SAUS41 KLWX 080657
MTRNYG
METAR KNYG 080656Z AUTO 30005KT FEW080 BKN120 27/23 A2998 RMK AO2 
SLP152 T02670228
####018000107####
SAUS41 KBUF 080657
MTRROC
METAR KROC 080654Z 23004KT 8SM CLR 23/20 A3005 RMK AO2 SLP173 
T02280200
####018000125####
SAUS45 KBOU 080657
MTRABH
METAR KABH 080656Z AUTO 07004KT 10SM FEW006 SCT080 14/12 A3038 RMK 
AO2 SLP228 T01390122 $
####018000120####
SAUS46 KSGX 080657
MTRNXF
METAR KNXF 080656Z AUTO 30006KT 7SM OVC013 17/13 A2991 RMK AO2 
SLP213 T01670128 TSNO
####018000116####
SAUS42 KMHX 080657
MTRNBT
METAR KNBT 080656Z AUTO 05007KT 3SM BR CLR 29/ A2990 RMK AO2 SLP130 
T0289 TSNO $
####018000112####
SAUS41 KAKQ 080657
MTRNTU
METAR KNTU 080656Z 11005KT 4SM BR CLR 26/24 A2994 RMK AO2 SLP142 
T02560244 $
####018000125####
SAUS44 KFWD 080657
MTRHLR
METAR KHLR 080656Z AUTO 11005KT 10SM BKN015 BKN055 26/26 A2999 RMK 
AO2 SLP146 T02610261 $
####018000113####
SAUS41 KAKQ 080657
MTRNCA
METAR KNCA 080656Z AUTO 01004KT 10SM CLR 26/22 A2991 RMK AO2 SLP128 
T02560217
####018000119####
SAUS41 KAKQ 080657
MTRNFE
METAR KNFE 080656Z AUTO 00000KT 1/4SM FG CLR 24/22 A2995 RMK AO2 
SLP145 T02440222 $
####018000115####
SAUS44 KFWD 080657
MTRNQI
METAR KNQI 080656Z AUTO 36003KT 10SM CLR 27/24 A2985 RMK AO2 SLP104 
T02670244 $
####018000126####
SAUS44 KCRP 080657
MTRNGP
METAR KNGP 080656Z AUTO 08005KT 10SM FEW055 28/26 A2983 RMK AO2 
TSE0559 SLP101 T02830261 $
####018001683####
SAEU KAWN 080700 RRH
METAR EGDR 080650Z 20003KT 9999 FEW012 BKN120 15/14 Q1018 BLU NOSIG=
METAR EGDY 080650Z 28003KT 9999 FEW010 BKN140 17/14 Q1019 BLU NOSIG=
METAR EGQK 080650Z 21016G27KT 9999 FEW030 SCT060 16/07 Q1007 BLU NOSIG=
METAR EGQS 080650Z 20011KT 9999 FEW035 SCT050 15/08 Q1007 BLU NOSIG=
METAR EGUB 080650Z 23003KT 9999 FEW008 SCT015 OVC025 16/15 Q1019 WHT
      BECMG BKN025 BLU=
METAR EGVA 080655Z AUTO 26007KT 9999 FEW038 16/14 A3008 RMK AO2 SLP187
      T01600137=
METAR EGWU 080650Z 23007KT 9999 -RADZ FEW008 OVC010 18/15 Q1019 GRN
      TEMPO 6000 GRN=
METAR EGXC 080650Z 25007KT 9999 FEW030 SCT090 OVC110 16/11 Q1017 BLU
      NOSIG=
METAR EGXD 080650Z 20003KT 9999 FEW020 BKN110 OVC200 15/11 Q1016 BLU
      NOSIG=
METAR EGXW 080650Z 24008KT CAVOK 15/10 Q1017 BLU NOSIG=
METAR EGYD 080650Z 24009KT CAVOK 16/10 Q1017 BLU NOSIG=
METAR EGYM 080650Z 25008KT 9999 -RA SCT012 BKN020 BKN045 18/16 Q1017
      GRN BECMG SCT025 BLU=
METAR EHAM 080655Z 26006KT 220V290 CAVOK 21/13 Q1018 NOSIG=
METAR EHBK 080655Z AUTO 20006KT 170V240 9999NDV NCD 23/13 Q1019 NOSIG=
METAR EHGG 080655Z AUTO 21008KT 180V240 9999NDV NSC 22/12 Q1018 NOSIG=
METAR EHRD 080655Z 25006KT 9999 FEW036 21/13 Q1019 NOSIG=
METAR EHWO 080655Z AUTO 27005KT 9999NDV FEW370 22/15 Q1019 BLU BLU=
METAR ETIK 080655Z AUTO 00000KT 9999 -RA CLR 21/11 A3021 RMK AO2 RAB0655
      SLP215 P0000 T02070114 $=
METAR LGAD 080650Z 33008KT 9999 FEW020 SCT080 26/20 Q1013=
METAR LGKP 080650Z 33015KT CAVOK 28/17 Q1007=
METAR LGKR 080650Z 31013KT CAVOK 27/13 Q1013 NOSIG=
METAR LGLM 080650Z 01014KT 5000 RA SCT008 FEW018CB SCT020TCU OVC080
      19/18 Q1013=
####018001715####
SAUK KAWN 080700 RRA
METAR EGDR 080650Z 20003KT 9999 FEW012 BKN120 15/14 Q1018 BLU NOSIG=
METAR EGDY 080650Z 28003KT 9999 FEW010 BKN140 17/14 Q1019 BLU NOSIG=
METAR EGKB 080650Z 23007KT 200V260 9000 BKN008 17/14 Q1019=
METAR EGLF 080650Z 23008KT 190V250 9000 VCSH BKN008 17/15 Q1019=
METAR EGLL 080650Z 23009KT 9999 BKN010 18/15 Q1019=
METAR EGMC 080650Z 23006KT 9999 FEW011 BKN014 18/16 Q1019=
METAR EGNS 080650Z 24009KT 9999 FEW018 15/11 Q1015 NOSIG=
METAR EGNT 080650Z 18003KT CAVOK 15/11 Q1014=
METAR EGQK 080650Z 21016G27KT 9999 FEW030 SCT060 16/07 Q1007 BLU NOSIG=
METAR EGQS 080650Z 20011KT 9999 FEW035 SCT050 15/08 Q1007 BLU NOSIG=
METAR EGTC 080650Z 29005KT 9999 FEW012 SCT018 15/13 Q1018=
METAR EGUB 080650Z 23003KT 9999 FEW008 SCT015 OVC025 16/15 Q1019 WHT
      BECMG BKN025 BLU=
METAR EGUL 080655Z AUTO 22009KT 9999 FEW023 BKN031 18/16 A3005 RMK
      AO2 DZB0600E0620 SLP176 P0000 T01790159=
METAR EGUN 080655Z AUTO 23009KT 9999 FEW006 BKN022 OVC028 17/17 A3006
      RMK AO2 RAE0607B0624E0647 SLP167 P0000 T01690169=
METAR EGVA 080655Z AUTO 26007KT 9999 FEW038 16/14 A3008 RMK AO2 SLP187
      T01600137=
METAR EGWU 080650Z 23007KT 9999 -RADZ FEW008 OVC010 18/15 Q1019 GRN
      TEMPO 6000 GRN=
METAR EGXC 080650Z 25007KT 9999 FEW030 SCT090 OVC110 16/11 Q1017 BLU
      NOSIG=
METAR EGXD 080650Z 20003KT 9999 FEW020 BKN110 OVC200 15/11 Q1016 BLU
      NOSIG=
METAR EGXT 080650Z 23007KT 9999 FEW020 BKN120 BKN150 16/10 Q1017 BLU=
METAR EGXW 080650Z 24008KT CAVOK 15/10 Q1017 BLU NOSIG=
METAR EGYD 080650Z 24009KT CAVOK 16/10 Q1017 BLU NOSIG=
METAR EGYM 080650Z 25008KT 9999 -RA SCT012 BKN020 BKN045 18/16 Q1017
      GRN BECMG SCT025 BLU=
####018003679####
SAUS99 KWBC 080658 RRA
METAR
KHCD 080652Z AUTO 29003KT 10SM CLR 15/14 A3009 RMK AO2
     T01520141=
KSGS 080653Z AUTO 32004KT 10SM CLR 21/17 A3006 RMK AO2
     T02060170=
KMJQ 080652Z AUTO 29004KT 7SM CLR 16/15 A3013 RMK AO2=
KHCO 080654Z AUTO 00000KT 10SM CLR 13/13 A3004 RMK AO2=
KLVN 080648Z AUTO 30005KT 10SM CLR 18/17 A3007 RMK AO2=
KPEX 080653Z AUTO 24003KT 7SM CLR 13/13 A3010 RMK AO2
     T01340131=
KJMR 080658Z AUTO 00000KT 10SM CLR 15/13 A3008 RMK AO2=
KJKJ 080655Z AUTO 23003KT 10SM CLR 17/16 A3005 RMK AO2=
KMVE 080654Z AUTO 27004KT 10SM CLR 17/17 A3010 RMK AO2=
KTKC 080653Z AUTO 25005KT 10SM CLR 16/14 A3013 RMK AO2
     T01600139=
KGYL 080655Z AUTO 30003KT 10SM CLR 17/16 A3009 RMK AO2
     T01680156=
KDXX 080654Z AUTO 00000KT 10SM CLR 15/15 A3010 RMK AO2=
KHZX 080651Z AUTO 00000KT 7SM CLR 13/13 A3007 RMK AO2=
KSAZ 080654Z AUTO 00000KT 10SM CLR 16/16 A3008 RMK AO2=
KONA 080651Z AUTO 32005KT 10SM CLR 20/18 A3002 RMK AO2=
KOVL 080654Z AUTO 00000KT 10SM CLR 14/12 A3009 RMK AO2
     T01400123=
KLJF 080652Z AUTO 00000KT 10SM CLR 17/16 A3010 RMK AO2=
KAEL 080651Z AUTO 30004KT 10SM CLR 19/18 A3008 RMK AO2=
K29G 080654Z AUTO 00000KT 7SM CLR 20/18 A3010 RMK AO2 T01980176
     PWINO=
KMRT 080653Z AUTO 00000KT 7SM CLR 21/19 A3011 RMK AO2
     T02130192=
KIKW 080654Z AUTO 10SM CLR 22/21 A3001 RMK AO2 T02170205=
KMDS 080645Z AUTO 29005KT 10SM CLR 15/15 A3016 RMK AO2=
K1A6 080655Z AUTO 00000KT 4SM BR CLR 22/22 A3010 RMK AO2=
K1M4 080656Z AUTO 00000KT 10SM BKN095 23/22 A3010 RMK AO2
     T02330222 BKN V SCT SLP189=
K21D 080658Z AUTO 31005KT 10SM CLR 19/17 A3006 RMK AO2=
KAIG 080655Z AUTO 00000KT 2SM -RA OVC003 19/19 A3000 RMK AO2=
KAND 080656Z AUTO 00000KT 10SM CLR 22/19 A3002 RMK AO2 SLP156
     T02220194=
KARV 080652Z AUTO 00000KT 10SM SCT001 SCT100 20/19 A3003 RMK AO2
     T01950185=
KATW 080655Z AUTO 21005KT 10SM -RA SCT060 BKN090 120 21/19 A3000
     RMK AO2 P0001=
KBJI 080654Z AUTO 22004KT 10SM CLR 16/14 A3005 RMK AO2=
KBUU 080654Z AUTO 23003KT 10SM SCT100 SCT120 21/21 A3003 RMK AO2
     P0002=
KBWP 080651Z AUTO 25003KT 10SM CLR 16/14 A3008 RMK AO1
     T01550135=
KCLI 080655Z AUTO 18005KT 7SM -RA SCT004 22/21 A2998 RMK AO2
     P0001=
KDUG 080656Z AUTO 06015G23KT 10SM CLR 28/10 A3000 RMK AO2 PK WND
     07027/0644 WSHFT 0614 RAB15E48 SLP071 P0000 T02780100
     403720167 $=
KDUJ 080656Z AUTO 02004KT 9SM CLR 22/17 A3012 RMK AO2 SLP180
     T02220172=
KDVK 080657Z AUTO 00000KT 7SM 21/19 A3009 RMK AO1=
KEKO 080656Z AUTO 07007KT 10SM CLR 21/M05 A3009 RMK AO2 SLP129
     T02061050=
KFBG 080655Z AUTO 33007KT 10SM CLR 28/18 A2994 RMK AO2 SLP135
     T02760177 $=
KGRD 080656Z AUTO 28003KT 10SM CLR 24/19 A3003 RMK AO2 SLP159
     T02440189=
KIGX 080656Z AUTO 29004KT 7SM CLR 25/18 A2999 RMK AO2 SLP146
     T02500183 $=
KINW 080656Z AUTO 23007KT 10SM CLR 25/01 A3008 RMK AO2 SLP094
     T02500006 403560133=
KIWA 080656Z AUTO 10003KT 10SM CLR 34/04 A2979 RMK AO2=
KLCK 080655Z AUTO 00000KT 5SM HZ CLR 23/20 A3007 RMK AO2
     T02320202=
KLFI 080655Z 10005KT 9SM R08/5500FT SCT085 26/23 A2996 RMK AO2A
     SLP147 T02570230 $=
KM19 080656Z AUTO 00000KT 10SM CLR 26/24 A3005 RMK AO2 T02550238
     SLP173=
KMMT 080655Z AUTO 30004KT 10SM CLR 23/19 A3000 RMK AO2 SLP156
     T02290192=
KMOB 080656Z 00000KT 10SM CLR 24/23 A3004 RMK AO2 SLP169
     T02390228=
KMQY 080656Z AUTO 00000KT 10SM CLR 26/22 A3008 RMK AO2 T02610216
     SLP174=
KMRH 080656Z AUTO 35003KT 10SM SCT110 26/18 A2990 RMK AO2 SLP126
     T02560183 TSNO=
KMWO 080655Z AUTO 00000KT 5SM BR CLR 21/20 A3008 RMK AO2=
####018003698####
SAUS99 KWBC 080658
METAR
KLND 080653Z AUTO 00000KT 10SM CLR 12/04 A3031 RMK AO2 SLP218
     T01220039 402220050=
KLRF 080655Z AUTO 00000KT 10SM SCT150 23/22 A3005 RMK AO2 SLP173
     T02340223=
KLXV 080653Z AUTO 19003KT 10SM FEW030 OVC035 07/06 A3053 RMK AO2
     SLP194 T00720061 401830039 TSNO=
KMKG 080655Z 26003KT 9SM -RA SCT070 BKN080 OVC100 23/22 A3003 RMK
     AO2 RAE16B48 SLP165 P0012 T02330217 $=
KMSN 080653Z 00000KT 7SM OVC120 22/21 A3000 RMK AO2 RAE10 SLP155
     P0000 T02170206=
KMWT 080653Z AUTO 00000KT 10SM OVC016 23/23 A3004 RMK AO2 SLP161
     T02330228 TSNO=
KMYP 080556Z AUTO 07011KT 1/4SM -SN OVC001 03/02 A3075 RMK AO2=
KNQA 080655Z AUTO 00000KT 10SM CLR 25/23 A3005 RMK=
KOWB 080656Z AUTO 00000KT 10SM CLR 26/23 A3006 RMK AO2 T02550227
     SLP173=
KRCE 080655Z AUTO 35004KT 9SM FEW013 23/22 A3006 RMK AO2=
KRNO 080655Z 34009KT 10SM SCT080 SCT120 26/03 A3004 RMK AO2 SLP110
     T02560028=
KSAV 080653Z 28003KT 10SM CLR 22/19 A3000 RMK AO2 SLP157
     T02170194=
KSCK 080655Z AUTO 01003KT 10SM CLR 17/11 A2983 RMK AO2 SLP101
     T01670111=
KSGR 080653Z AUTO 07003KT 8SM CLR 26/24 A2992 RMK AO2 SLP139
     T02560239 TSNO=
KSMS 080655Z AUTO 28005KT 10SM CLR 26/19 A2998 RMK AO2=
KSRR 080655Z AUTO 18008KT 10SM BKN095 13/11 A3036 RMK AO2=
KTLH 080653Z 00000KT 10SM FEW095 24/22 A3002 RMK AO2 SLP163
     T02390217=
KUCP 080656Z AUTO 00000KT 1SM BR CLR 19/19 A3009 RMK AO2 T01940188
     SLP196 $=
KVQQ 080655Z AUTO 00000KT 10SM CLR 19/19 A3002 RMK AO2=
KVTP 080700Z AUTO 06004KT 10SM CLR 06/04 A3054 RMK AO2=
KWYS 080650Z AUTO 00000KT 10SM CLR 05/01 A3035 RMK AO2=
KY51 080655Z AUTO 24005KT 1 1/2SM OVC002 22/22 A3003 RMK AO1
     T02200217=
KPQN 080653Z AUTO 30003KT 10SM CLR 16/14 A3015 RMK AO2=
KFGN 080654Z AUTO 25007KT 1 1/2SM HZ BKN110 18/14 A2997 RMK
     AO2=
KPNM 080653Z AUTO 28003KT 10SM CLR 16/15 A3007 RMK AO2=
KPWC 080653Z AUTO 00000KT 1/2SM FG BKN001 12/11 A3008 RMK AO2=
KFFM 080653Z AUTO 17003KT 10SM CLR 16/14 A3007 RMK AO2=
KGDB 080652Z AUTO 00000KT 10SM CLR 14/14 A3013 RMK AO2
     T01420139=
KAIT 080653Z AUTO 00000KT 1/2SM FG VV005 13/12 A3007 RMK AO2=
KGHW 080653Z AUTO 21005KT 10SM CLR 14/13 A3013 RMK AO2=
KMWM 080653Z AUTO 26003KT 10SM CLR 15/14 A3013 RMK AO2=
KULM 080655Z AUTO 00000KT 10SM CLR 16/14 A3010 RMK AO2=
KBBB 080653Z AUTO 00000KT 7SM CLR 15/15 A3011 RMK AO2=
KTWM 080653Z AUTO 00000KT 10SM SCT050 BKN100 18/15 A3002 RMK
     AO2=
KMGG 080655Z AUTO 28004KT 10SM CLR 17/16 A3009 RMK AO2
     T01680157=
KMOX 080650Z AUTO 22004KT 10SM CLR 14/14 A3007 RMK AO2=
KTEW 080653Z AUTO 00000KT 10SM CLR 21/20 A3005 RMK AO2=
KCVH 080650Z AUTO 26005KT 10SM CLR 13/11 A2993 RMK AO1=
KDYT 080654Z AUTO 31006KT 10SM SCT060 SCT100 22/16 A3004 RMK
     AO2=
KFSO 080658Z AUTO 00000KT 5SM BR CLR 23/22 A3000 RMK AO2=
KFBL 080654Z AUTO 29005KT 10SM CLR 19/17 A3008 RMK AO2=
KLYV 080658Z AUTO 00000KT 10SM CLR 14/13 A3015 RMK AO2=
KEFK 080655Z AUTO 22003KT 5SM BR BKN050 BKN060 BKN075 21/20 A3005
     RMK AO2=
KRRT 080654Z AUTO 23007KT 10SM CLR 16/13 A3001 RMK AO2=
KTOB 080654Z AUTO 00000KT 10SM CLR 19/18 A3007 RMK AO2=
KLXL 080654Z AUTO 00000KT 5SM BR CLR 13/12 A3007 RMK AO2=
KEVM 080652Z AUTO 00000KT 3SM BR CLR 13/12 A3003 RMK AO1=
KELO 080653Z AUTO 00000KT 10SM CLR 14/14 A3004 RMK AO2=
KANE 080655Z AUTO 30006KT 10SM 19/17 A3007 RMK AO2=
KROX 080654Z AUTO 23005KT 10SM CLR 17/14 A3000 RMK AO2=
KSYN 080710Z AUTO 00000KT 10SM CLR 19/18 A3006 RMK AO2
     T01920175=
KVVV 080656Z AUTO 00000KT 10SM CLR 17/14 A3011 RMK AO2=
KROS 080655Z AUTO 31004KT 10SM CLR 18/16 A3006 RMK AO2
     T01830160=
####018003745####
SAUS99 KWBC 080658 RRB
METAR
KNQX 080653Z AUTO 05004KT 10SM CLR 28/25 A2993 RMK AO2 SLP133
     T02830250 $=
KOZR 080655Z AUTO 00000KT 10SM CLR 23/23 A3003 RMK AO2 SLP166
     T02270227=
KPVB 080653Z AUTO 30004KT 10SM SCT100 BKN120 20/19 A3002 RMK AO1
     T01960187=
KSFO 080656Z 29009KT 10SM FEW008 14/10 A2992 RMK AO2 SLP132
     T01390100=
KSRC 080656Z AUTO 00000KT 10SM CLR 23/22 A3005 RMK AO2 TSNO
     T02330222 SLP179=
KSSC 080655Z AUTO 28009KT 10SM CLR 26/20 A2996 RMK AO2 SLP145
     T02610195 $=
KTPH 080656Z AUTO 03003KT 10SM CLR 17/M12 A3008 RMK AO2 SLP107
     T01721117=
KTTS 080655Z 33002KT 10SM FEW030 FEW290 21/20 A3000 RMK SLP159 1CU
     /0/ 1CI /0/=
KTZR 080657Z AUTO 00000KT 7SM CLR 22/19 A3008 RMK AO2=
PAAK 080656Z AUTO 09016KT 10SM FEW008 SCT018 BKN023 07/04 A2965
     RMK AO1 PNO=
PAHP 080656Z AUTO 34007KT 10SM FEW070 FEW080 SCT120 13/09 A3005
     RMK AO1 PNO TSNO=
PAAK 080656Z AUTO 09016KT 10SM FEW008 SCT018 BKN023 07/04 A2965
     RMK AO1 PNO=
PABL 080656Z AUTO 30008KT 10SM CLR 14/08 A3014 RMK AO1 PNO=
PABV 080656Z AUTO 19003KT 10SM OVC085 14/09 RMK AO1 PNO=
PADK 080656Z 08009KT 10SM BKN016 OVC024 07/06 A2959 RMK AO1
     PNO=
PADL 080656Z 30008KT 10SM OVC050 11/08 A2997 RMK AO1 PNO TSNO=
PAEM 080656Z AUTO 01010KT 10SM CLR 14/08 A3004 RMK AO1 PNO=
PAFE 080656Z AUTO 00000KT 10SM CLR 13/10 A3019 RMK AO1 PNO=
PAFM 080656Z AUTO 00000KT 10SM CLR 19/10 A3010 RMK AO1 PNO=
PAGL 080656Z AUTO 28005KT 10SM SCT070 17/11 A3011 RMK AO1 PNO=
PAGS 080656Z AUTO 00000KT 10SM CLR 14/11 A3020 RMK AO1 PNO=
PAHP 080656Z AUTO 34007KT 10SM FEW070 FEW080 SCT120 13/09 A3005
     RMK AO1 PNO TSNO=
PAHY 080656Z AUTO 01003KT 10SM CLR 19/10 A3011 RMK AO1 PNO=
PAII 080656Z AUTO 01005KT 10SM BKN023 OVC060 12/08 A2996 RMK AO1
     PNO=
PAIN 080656Z AUTO 26003KT 10SM CLR 14/08 A3008 RMK AO1 PNO=
PAJC 080656Z AUTO 33005KT 10SM SCT017 OVC024 11/06 A2994 RMK AO1
     PNO=
PAKK 080656Z AUTO 36009KT 10SM FEW085 17/09 A3004 RMK AO1 PNO=
PAKP 080656Z AUTO 06007KT 10SM BKN034 OVC050 11/03 A3009 RMK
     AO1=
PAMD 080656Z AUTO 08021G26KT 3SM OVC003 11/09 A3001 RMK AO1
     PNO=
PAMH 080656Z 00000KT 10SM CLR 17/07 A2999 RMK AO1 PNO=
PAMM 080656Z AUTO 33007KT 10SM CLR 21/11 A3009 RMK AO1 PNO=
PAMY 080656Z 29008KT 10SM OVC004 07/05 A3006 RMK AO1=
PANI 080656Z AUTO 00000KT 10SM BKN070 BKN090 OVC120 14/09 A3000
     RMK AO1 PNO=
PANV 080656Z AUTO 21006KT 10SM OVC075 16/08 A3000 RMK AO1 PNO=
PAOU 080656Z AUTO 00000KT 10SM FEW043 OVC055 08/07 A2997 RMK AO2
     PWINO TSNO T00770066 SLP153 $=
PAPG 080656Z 03005KT 10SM CLR 13/11 A3014 RMK AO1 PNO=
PAPH 080656Z AUTO 01006KT 10SM SCT048 08/06 A2998 RMK AO1 PNO=
PAPN 080656Z AUTO 32009KT 8SM FEW037 OVC055 10/08 A2992 RMK AO2
     PWINO TSNO T01000083 SLP136 $=
PAPO 080657Z 16007KT 10SM CLR 06/03 A3014 RMK AWOS VIA PHONE (OTZ
     FSS)=
PARC 080656Z AUTO 32005KT 10SM FEW080 12/01 A3001 RMK AO1 PNO=
PASA 080656Z AUTO 06005KT 10SM CLR 08/06 A3019 RMK AO1 PNO=
PASD 080656Z AUTO 12004KT 10SM OVC050 09/05 A2996 RMK AO1 PNO=
PASH 080656Z AUTO 00000KT 10SM CLR 09/06 A3019 RMK AO1 PNO=
PASK 080656Z 28006KT 10SM CLR 17/08 A3011 RMK AO1 PNO=
PASL 080656Z AUTO 16005KT 10SM SCT090 BKN110 15/07 A3001 RMK AO1
     PNO=
PASM 080656Z AUTO 27006KT 10SM FEW050 SCT075 OVC100 11/08 A3006
     RMK AO1 PNO=
PASX 080656Z 07003KT 10SM BKN090 BKN120 13/09 A2998 RMK AO1
     PNO=
PAUN 080656Z AUTO 34008KT 10SM CLR 16/11 A3002 RMK AO1 PNO=
PAVD 080656Z 10004KT 10SM BKN090 10/07 A3011 RMK AO1 PNO=
PAWG 080656Z AUTO 25003KT 10SM CLR 15/11 A3013 RMK AO1 WEA:NONE RJ
     LAST PNO=
PAWN 080656Z AUTO 30006KT 10SM CLR 16/06 A3012 RMK AO1 PNO=
####018000115####
SACN89 KWBC 080658
METAR CWCI 080600Z AUTO 01007KT 17/16 RMK AO1 4PAST HR 8013 SLP148
P0002 T01650160 50004=
####018000113####
SACN94 KWBC 080658
METAR CWND 080600Z AUTO 32020KT 05/04 RMK AO1 PK WND 33028/0500
SLP136 T00490036 53020=
####018000160####
SAUS99 KWBC 080658 RRC
METAR
PAWS 080656Z AUTO 05007KT 10SM CLR 15/07 A3001 RMK AO1 PNO=
PAZK 080656Z AUTO 36006KT 10SM BKN055 11/04 A3010 RMK AO1 PNO=
####018000075####
SAKB31 PLCH 080700
METAR PLCH 080700Z 11018KT 20KM FEW030 26/24 Q1010 =
####018003742####
SAUS70 KWBC 080700
METAR
KEFD 080650Z 11010KT 9SM FEW025 BKN130 28/24 A2994=
KBAF 080653Z 00000KT 9SM CLR 24/21 A3003 RMK AO2 SLP165
     T02390211=
KBUR 080653Z AUTO 15004KT 10SM OVC011 16/13 A2991 RMK AO2 SLP119
     T01610128 TSNO=
KTOI 080653Z AUTO 00000KT 9SM CLR 23/22 A3004 RMK AO2 SLP166
     T02280222=
KTTS 080655Z 33002KT 10SM FEW030 FEW290 21/20 A3000 RMK SLP159 1CU
     /0/ 1CI /0/=
PHJR 080653Z VRB03KT 10SM FEW060 24/18 A3003 RMK AO2 SLP176
     T02390183=
TIST 080653Z AUTO 10006KT 10SM CLR 28/24 A2997 RMK AO2 SLP148
     T02780244 TSNO=
TISX 080653Z 11010KT 10SM FEW021 28/24 A2997 RMK AO2 SLP148
     T02780239=
PHMK 080654Z AUTO 04006KT 10SM CLR 23/19 A3004 RMK AO2 SLP174
     T02280194 TSNO=
KRUT 080655Z AUTO 13007KT 7SM CLR 22/19 A3005 RMK AO1=
KSDY 080655Z AUTO 00000KT 10SM SCT120 13/09 A3015 RMK AO1=
KSFM 080655Z 00000KT 3SM OVC003 21/18 A3006 RMK AO1=
KSFZ 080655Z AUTO 00000KT 5SM OVC006 22/21 A3005 RMK AO1=
KSGU 080655Z AUTO 03003KT 10SM CLR 29/02 A2992 RMK AO1=
KSJN 080654Z AUTO 14004KT 10SM BKN090 OVC110 24/03 A3015 RMK AO2
     SLP095 T02390028 403110139=
KSMN 080655Z AUTO 23004KT 10SM CLR 12/02 A3019 RMK AO1=
KTAD 080654Z AUTO 00000KT 10SM CLR 14/13 A3034 RMK AO2 SLP208
     T01440128 402500133=
KTKI 080653Z AUTO 16004KT 10SM FEW023 26/23 A3000 RMK AO2 SLP154
     T02560228=
KTPL 080655Z 12004KT 10SM BKN012 BKN018 OVC050 25/23 A2998 RMK
     AO1=
KVAY 080654Z AUTO 00000KT 4SM BR CLR 24/22 A3001 RMK AO2 SLP161
     T02390222=
KVSF 080654Z AUTO 00000KT 5SM BR CLR 22/21 A3005 RMK AO2 SLP174
     T02170206 $=
KVTA 080654Z AUTO 00000KT 4SM BR CLR 19/18 A3008 RMK AO2 SLP179
     T01890178=
KWVL 080655Z AUTO 18005KT 7SM OVC005 21/19 A3003 RMK AO1=
KWWD 080655Z AUTO 10SM FEW085 OVC120 24/23 A3001 RMK AO1=
KIND 080654Z 19003KT 9SM CLR 25/20 A3004 RMK AO2 SLP163
     T02500200=
KINT 080654Z AUTO 36003KT 10SM CLR 25/17 A3002 RMK AO2 SLP152
     T02500172=
KIPT 080654Z AUTO 00000KT 9SM CLR 22/17 A3004 RMK AO2 SLP167
     T02170167=
KIZG 080654Z AUTO 00000KT 10SM OVC090 22/20 A3006 RMK AO2 SLP177
     T02220200=
KJAC 080655Z AUTO 01012G15KT 10SM CLR 13/M01 A3031 RMK AO1=
KJHW 080655Z AUTO 00000KT 8SM CLR 21/19 A3012 RMK AO1 57003=
KJST 080654Z AUTO 25003KT 7SM CLR 21/16 A3014 RMK AO2 SLP188
     T02110156=
KLCI 080655Z AUTO 00000KT 10SM BKN085 22/19 A3005 RMK AO1=
KLEW 080655Z 15004KT 2 1/2SM OVC002 21/20 A3008 RMK AO1=
KLWM 080654Z AUTO 00000KT 6SM BR CLR 23/21 A3006 RMK AO2 SLP178
     T02330211=
KLWT 080654Z AUTO 13005KT 10SM CLR 09/06 A3026 RMK AO2 SLP229
     T00890061 402170050=
KMGJ 080654Z AUTO 00000KT 5SM BR CLR 22/20 A3002 RMK AO2 SLP164
     T02170200=
KMIV 080654Z AUTO 11004KT 2 1/2SM BR OVC004 24/23 A2999 RMK AO2
     SLP152 T02440233=
KMJX 080655Z AUTO 00000KT 3SM BKN110 23/21 A3001 RMK AO1=
KMSV 080655Z AUTO 03004KT 7SM CLR 22/18 A3010 RMK AO1=
KMVL 080654Z AUTO 00000KT 2 1/2SM BR CLR 21/20 A3006 RMK AO2
     SLP175 T02060200=
KOCH 080655Z AUTO 10005KT 10SM CLR 24/19 A3000 RMK AO1=
KOGB 080653Z AUTO 30003KT 10SM CLR 26/19 A2999 RMK AO2 SLP153
     T02560194=
KOKK 080655Z AUTO 18003KT 10SM CLR 23/17 A3005 RMK AO1 57010=
KOLS 080654Z AUTO 04010KT 10SM CLR 28/08 A2995 RMK AO2 SLP060
     T02780078 403780200=
KOXC 080655Z 17003KT 3SM FEW085 22/21 A3008 RMK AO1=
KPHL 080654Z 11003KT 8SM FEW150 26/22 A3001 RMK AO2 SLP161
     T02610217 $=
KPNE 080654Z 00000KT 9SM CLR 26/22 A3002 RMK AO2 SLP165
     T02560222=
KPNS 080653Z AUTO 00000KT 10SM CLR 25/24 A3002 RMK AO2 SLP168
     T02500239=
KPQI 080655Z AUTO 13003KT 10SM CLR 22/19 A2997 RMK AO1=
KPRX 080655Z 14006KT 10SM BKN006 24/22 A3001 RMK AO1=
####018003683####
SAXX60 KWBC 080700
METAR
KBKB 080654Z AUTO 00000KT 10SM CLR 24/23 A2998 RMK AO2 SLP177
     T02440228=
KBAD 080655Z AUTO 00000KT 10SM CLR 24/24 A3001 RMK AO2 SLP161
     T02440238 $=
KBLV 080655Z AUTO 00000KT 10SM FEW190 24/24 A3003 RMK AO2 SLP166
     T02430241=
KCBM 080655Z AUTO 00000KT 10SM CLR 25/24 A3004 RMK AO2 SLP172
     T02460236 $=
KCEF 080655Z AUTO 00000KT 10SM BKN090 25/22 A3003 RMK AO2 SLP169
     T02490217 PWINO $=
KDAA 080655Z AUTO 14004KT 10SM CLR 24/21 A2997 RMK AO2 SLP151
     T02410209=
KEDW 080655Z AUTO 17006KT 10SM CLR 21/04 A2986 RMK AO2 SLP065
     T02110040=
KFHU 080655Z VRB04KT 10SM SCT120 26/10 A3005 RMK SLP091=
KGRF 080655Z AUTO 14004KT 10SM CLR 18/11 A2992 RMK AO2 SLP133
     T01800114 $=
KGUS 080655Z AUTO 18004KT 10SM CLR 23/21 A3005 RMK AO2 SLP168
     T02300206=
KHMN 080655Z 04006KT 10SM FEW120 OVC150 20/15 A3015 RMK AO2A
     SLP130 T02030148 403260171 $=
KIAB 080655Z AUTO 05009KT 10SM CLR 22/21 A3009 RMK AO2 SLP179
     T02240213=
KLRF 080655Z AUTO 00000KT 10SM SCT150 23/22 A3005 RMK AO2 SLP173
     T02340223=
KMGE 080655Z AUTO 00000KT 10SM CLR 23/19 A3006 RMK AO2 SLP167
     T02330187 $=
KMTC 080655Z AUTO 00000KT 10SM CLR 23/22 A3003 RMK AO2 SLP170
     T02300220 $=
KNFW 080652Z AUTO 16006KT 10SM FEW060 27/22 A3003 RMK AO2 SLP153
     T02670217=
KBAD 080655Z AUTO 00000KT 10SM CLR 24/24 A3001 RMK AO2 SLP161
     T02440238 $=
KFHU 080655Z VRB04KT 10SM SCT120 26/10 A3005 RMK SLP091=
KGRF 080655Z AUTO 14004KT 10SM CLR 18/11 A2992 RMK AO2 SLP133
     T01800114 $=
KGUS 080655Z AUTO 18004KT 10SM CLR 23/21 A3005 RMK AO2 SLP168
     T02300206=
KOZR 080655Z AUTO 00000KT 10SM CLR 23/23 A3003 RMK AO2 SLP166
     T02270227=
KRIV 080655Z AUTO 30003KT 10SM CLR 14/12 A2992 RMK AO2 SLP131
     T01390117=
KSUU 080655Z AUTO 23022G28KT 10SM CLR 14/10 A2982 RMK AO2 PK WND
     24031/0618 SLP099 T01380103 RVRNO $=
KDTS 080653Z AUTO 00000KT 9SM CLR 25/23 A3002 RMK AO2 SLP164
     T02500233=
KFZY 080654Z AUTO 00000KT 1 1/2SM BR CLR 21/20 A3004 RMK AO2
     SLP169 T02060200=
KCBM 080655Z AUTO 00000KT 10SM CLR 25/24 A3004 RMK AO2 SLP172
     T02460236 $=
KDAA 080655Z AUTO 14004KT 10SM CLR 24/21 A2997 RMK AO2 SLP151
     T02410209=
KDYS 080655Z AUTO 18006KT 10SM CLR 21/21 A3002 RMK AO2 SLP142
     T02140209 $=
KEDW 080655Z AUTO 17006KT 10SM CLR 21/04 A2986 RMK AO2 SLP065
     T02110040=
KFBG 080655Z AUTO 33007KT 10SM CLR 28/18 A2994 RMK AO2 SLP135
     T02760177 $=
KIAB 080655Z AUTO 05009KT 10SM CLR 22/21 A3009 RMK AO2 SLP179
     T02240213=
KMMT 080655Z AUTO 30004KT 10SM CLR 23/19 A3000 RMK AO2 SLP156
     T02290192=
KMTC 080655Z AUTO 00000KT 10SM CLR 23/22 A3003 RMK AO2 SLP170
     T02300220 $=
KMUO 080655Z AUTO 15005KT 10SM CLR 17/02 A3004 RMK AO2 SLP150
     T01670017 403100098=
KOFF 080655Z AUTO 34005KT 10SM CLR 21/21 A3010 RMK AO2 SLP178
     T02140208 $=
KRND 080655Z AUTO 07006KT 10SM BKN016 25/23 A2995 RMK AO2 CIG
     014V022 SLP131 T02520231=
PAEI 080655Z AUTO 00000KT 10SM CLR 18/08 A3003 RMK AO2 SLP171
     T01770082 $=
PHHI 080655Z AUTO 05005KT 10SM FEW035 SCT055 22/18 A3005 RMK AO2
     SLP167 T02180180=
KDOV 080655Z AUTO 00000KT 4SM BR FEW003 SCT110 24/24 A2998 RMK AO2
     SLP154 T02450245=
KEND 080655Z AUTO 04008KT 10SM FEW026 BKN043 23/22 A3007 RMK AO2
     SLP168 T02270222 $=
KFTK 080655Z AUTO 00000KT 10SM CLR 24/21 A3007 RMK AO2 SLP175
     T02420213=
KGSB 080655Z AUTO 00000KT 10SM CLR 26/19 A2991 RMK AO2 SLP129
     T02590186 $=
KHIF 080655Z AUTO 05004KT 10SM BKN130 20/07 A3010 RMK AO2 SLP092
     T02010070 402830159 $=
####018003687####
SAUS70 KWBC 080700 RRA
METAR
KPSF 080654Z AUTO 00000KT 4SM BR CLR 20/19 A3006 RMK AO2 SLP149
     T02000189=
KPTW 080654Z AUTO 00000KT 5SM HZ CLR 25/20 A3002 RMK AO2 SLP162
     T02500200 $=
KPVC 080655Z 16007KT 10SM OVC004 21/19 A3007 RMK AO1=
KPVU 080655Z 02003KT 10SM CLR 18/09 A3010 RMK AO1=
KPWG 080655Z AUTO 13006KT 10SM FEW014 SCT023 26/22 A2999 RMK
     AO1=
KRDG 080654Z 00000KT 9SM CLR 26/21 A3001 RMK AO2 SLP162
     T02560211=
KRKD 080655Z AUTO 00000KT 1SM OVC002 18/17 A3008 RMK AO1=
KRKS 080654Z AUTO 08012KT 10SM CLR 11/04 A3032 RMK AO2 SLP207
     T01110044 402220061=
KAFJ 080655Z AUTO 00000KT 1/2SM VV005 18/17 A3010 RMK AO1
     57007=
KAKR 080654Z AUTO 00000KT 6SM HZ CLR 22/19 A3009 RMK AO2 SLP177
     T02220194=
KBHB 080655Z AUTO 00000KT 6SM OVC003 18/18 A3009 RMK AO1=
KBID 080655Z AUTO 14004KT 10SM FEW017 SCT025 OVC030 22/22 A3005
     RMK AO1=
KBLM 080655Z AUTO 06004KT 5SM OVC110 24/21 A3004 RMK AO1=
KBOS 080654Z 19009KT 4SM BR BKN011 24/22 A3005 RMK AO2 SLP174
     T02390217=
KBTP 080655Z AUTO 03003KT 2SM CLR 19/18 A3011 RMK AO1 54000=
KBWI 080654Z 10004KT 7SM FEW110 SCT200 28/22 A2998 RMK AO2 SLP151
     T02780217=
KCOD 080655Z 09008KT 10SM CLR 10/M01 A3032 RMK AO1=
KDDH 080654Z AUTO 00000KT 4SM BR CLR 19/19 A3005 RMK AO2 SLP169
     T01940189=
KDHN 080653Z AUTO 00000KT 10SM CLR 23/21 A3007 RMK AO2 SLP176
     T02330211=
KDSV 080654Z AUTO 16004KT 7SM CLR 22/19 A3009 RMK AO2 SLP190
     T02220194=
KDYL 080654Z AUTO 00000KT 8SM CLR 23/21 A3001 RMK AO2 SLP155
     T02280206 TSNO=
KEEN 080655Z AUTO 00000KT 6SM CLR 23/22 A3005 RMK AO1=
KEGE 080655Z 26005KT 10SM CLR 12/10 A3037 RMK AO1=
KENV 080655Z 01014KT 10SM CLR 23/M02 A3008 RMK AO1=
KEUL 080655Z AUTO 00000KT 10SM CLR 19/08 A3003 RMK AO1=
KEVV 080654Z AUTO 00000KT 10SM CLR 26/22 A3005 RMK AO2 SLP172
     T02610217=
KFIG 080654Z AUTO 34003KT 6SM BR CLR 19/17 A3011 RMK AO2 SLP183
     T01940172=
KFKL 080655Z 00000KT 5SM CLR 19/18 A3014 RMK AO1 57003=
KFLO 080653Z AUTO 27005KT 10SM CLR 25/19 A2995 RMK AO2 SLP140
     T02500189=
KFNL 080655Z AUTO 09008KT 7SM BKN120 14/13 A3031 RMK AO1=
KGDV 080655Z AUTO 19005KT 10SM CLR 12/08 A3017 RMK AO1=
KGED 080654Z AUTO 00000KT 3SM BR BKN100 24/23 A2999 RMK AO2 SLP155
     T02390228=
KGTU 080655Z 11003KT 10SM OVC012 25/21 A3001 RMK AO1=
KGUC 080655Z AUTO 01008KT 10SM CLR 10/04 A3042 RMK AO1=
KGXY 080655Z AUTO 15005KT 10SM FEW010 SCT015 OVC021 15/12 A3032
     RMK AO1=
KGZH 080653Z AUTO 00000KT 7SM CLR 23/22 A3004 RMK AO2 SLP170
     T02280222=
KHDN 080655Z 08008G15KT 10SM CLR 13/06 A3032 RMK AO1=
KHYI 080655Z AUTO 06005KT 10SM FEW010 FEW027 OVC045 25/23 A2996
     RMK AO1=
KILE 080655Z 13007KT 10SM BKN014 OVC020 25/22 A2998 RMK AO1=
KILN 080654Z AUTO 00000KT 4SM BR CLR 21/20 A3009 RMK AO2 SLP175
     T02110200=
PASC 080653Z 20007KT 10SM FEW028 OVC060 10/08 A3001 RMK AO2 SLP162
     SML THN SPTS INOVC T01000078=
KTTS 080655Z 33002KT 10SM FEW030 FEW290 21/20 A3000 RMK SLP159 1CU
     /0/ 1CI /0/=
KBRO 080653Z 29003KT 10SM FEW050 27/25 A2981 RMK AO2 SLP093
     T02670250=
KFLL 080653Z 07009KT 10SM FEW021 SCT029 SCT049 28/24 A2993 RMK AO2
     SLP135 T02830244=
KJFK 080651Z 00000KT 1/2SM R04R/P6000FT FG OVC003 24/23 A3002 RMK
     AO2 SLP166 T02440233 $=
KMCO 080653Z 00000KT 10SM CLR 22/20 A3000 RMK AO2 SLP159
     T02220200=
KPBI 080653Z 05007KT 10SM SCT032 SCT250 28/23 A2994 RMK AO2 SLP137
     T02780233=
TIST 080653Z AUTO 10006KT 10SM CLR 28/24 A2997 RMK AO2 SLP148
     T02780244 TSNO=
TISX 080653Z 11010KT 10SM FEW021 28/24 A2997 RMK AO2 SLP148
     T02780239=
####018003725####
SAXX60 KWBC 080700 RRA
METAR
KHST 080655Z AUTO 04006KT 10SM BKN020 BKN043 27/25 A2994 RMK AO2
     DZB0629E0635 SLP139 P0000 T02720247 $=
KMUI 080655Z AUTO 00000KT 10SM CLR 24/18 A3003 RMK AO2 SLP164
     T02400184 $=
KNIP 080653Z 26004KT 10SM CLR 24/21 A3002 RMK AO2 SLP162
     T02440211=
KNKT 080654Z AUTO 00000KT 10SM CLR 26/19 A2991 RMK AO2 SLP126
     T02560194 $=
KNQX 080653Z AUTO 05004KT 10SM CLR 28/25 A2993 RMK AO2 SLP133
     T02830250 $=
KNRB 080652Z 22005KT 10SM CLR 22/19 A3001 RMK AO2 SLP160
     T02220194=
KSSC 080655Z AUTO 28009KT 10SM CLR 26/20 A2996 RMK AO2 SLP145
     T02610195 $=
KVAD 080655Z AUTO 00000KT 8SM R18/5000VP6000FT CLR 22/20 A3003 RMK
     AO2 SLP167 T02230196 $=
KWRI 080655Z AUTO 00000KT 2SM R18/4500V5000FT R24/2600V2800FT BR
     BKN003 24/24 A2999 RMK AO2 SLP157 T02370235 $=
PABI 080653Z AUTO 00000KT 10SM CLR 18/07 A3008 RMK AO2 SLP182
     T01830067 TSNO=
KNHK 080652Z 10004KT 4SM HZ CLR 27/24 A2997 RMK AO2 SLP149
     T02720239=
KNQX 080653Z AUTO 05004KT 10SM CLR 28/25 A2993 RMK AO2 SLP133
     T02830250 $=
KNZY 080652Z 29006KT 10SM OVC017 18/13 A2991 RMK AO2 SLP127
     T01830128 $=
KOFF 080655Z AUTO 34005KT 10SM CLR 21/21 A3010 RMK AO2 SLP178
     T02140208 $=
KOZR 080655Z AUTO 00000KT 10SM CLR 23/23 A3003 RMK AO2 SLP166
     T02270227=
KPOB 080655Z AUTO 00000KT 10SM CLR 25/20 A2995 RMK AO2 SLP139
     T02520199 $=
KRDR 080655Z AUTO 26006KT 10SM CLR 15/12 A3004 RMK AO2 SLP181
     T01510123 $=
KRIV 080655Z AUTO 30003KT 10SM CLR 14/12 A2992 RMK AO2 SLP131
     T01390117=
KRND 080655Z AUTO 07006KT 10SM BKN016 25/23 A2995 RMK AO2 CIG
     014V022 SLP131 T02520231=
KSSC 080655Z AUTO 28009KT 10SM CLR 26/20 A2996 RMK AO2 SLP145
     T02610195 $=
KSUU 080655Z AUTO 23022G28KT 10SM CLR 14/10 A2982 RMK AO2 PK WND
     24031/0618 SLP099 T01380103 RVRNO $=
KWRI 080655Z AUTO 00000KT 2SM R18/4500V5000FT R24/2600V2800FT BR
     BKN003 24/24 A2999 RMK AO2 SLP157 T02370235 $=
KBAD 080655Z AUTO 00000KT 10SM CLR 24/24 A3001 RMK AO2 SLP161
     T02440238 $=
KHST 080655Z AUTO 04006KT 10SM BKN020 BKN043 27/25 A2994 RMK AO2
     DZB0629E0635 SLP139 P0000 T02720247 $=
KNHK 080652Z 10004KT 4SM HZ CLR 27/24 A2997 RMK AO2 SLP149
     T02720239=
KNKT 080654Z AUTO 00000KT 10SM CLR 26/19 A2991 RMK AO2 SLP126
     T02560194 $=
KNQX 080653Z AUTO 05004KT 10SM CLR 28/25 A2993 RMK AO2 SLP133
     T02830250 $=
KOFF 080655Z AUTO 34005KT 10SM CLR 21/21 A3010 RMK AO2 SLP178
     T02140208 $=
KPOB 080655Z AUTO 00000KT 10SM CLR 25/20 A2995 RMK AO2 SLP139
     T02520199 $=
KSSC 080655Z AUTO 28009KT 10SM CLR 26/20 A2996 RMK AO2 SLP145
     T02610195 $=
KAFF 080655Z AUTO 34005KT 10SM BKN041 BKN130 13/12 A3039 RMK AO2
     SLP204 T01260120 402130105=
KBAB 080655Z AUTO 16005KT 10SM CLR 20/13 A2979 RMK AO2 SLP089
     T02010130 $=
KDOV 080655Z AUTO 00000KT 4SM BR FEW003 SCT110 24/24 A2998 RMK AO2
     SLP154 T02450245=
KDYS 080655Z AUTO 18006KT 10SM CLR 21/21 A3002 RMK AO2 SLP142
     T02140209 $=
KEND 080655Z AUTO 04008KT 10SM FEW026 BKN043 23/22 A3007 RMK AO2
     SLP168 T02270222 $=
KFBG 080655Z AUTO 33007KT 10SM CLR 28/18 A2994 RMK AO2 SLP135
     T02760177 $=
KFTK 080655Z AUTO 00000KT 10SM CLR 24/21 A3007 RMK AO2 SLP175
     T02420213=
KGSB 080655Z AUTO 00000KT 10SM CLR 26/19 A2991 RMK AO2 SLP129
     T02590186 $=
KHIF 080655Z AUTO 05004KT 10SM BKN130 20/07 A3010 RMK AO2 SLP092
     T02010070 402830159 $=
KHST 080655Z AUTO 04006KT 10SM BKN020 BKN043 27/25 A2994 RMK AO2
     DZB0629E0635 SLP139 P0000 T02720247 $=
KLFI 080655Z 10005KT 9SM R08/5500FT SCT085 26/23 A2996 RMK AO2A
     SLP147 T02570230 $=
####018000286####
SAPQ50 KWBC 080700
METAR
PTKR 080654Z 03005KT 15SM FEW018CB BKN120 OVC300 29/24 A2979 RMK
     CB DNST N-NE SLP087 T02940242=
PGSN 080654Z 08010KT 10SM SCT023 SCT080 29/23 A2985 RMK AO2
     RAB41E50 SLP107 P0000 T02890228=
PGRO 080655Z 09016G21KT 7SM FEW040 29/25 A2986=
####018003708####
SAUS80 KWBC 080700
METAR
KDMH 080654Z AUTO 29/22 A2999 RMK AO2 SLP156 T02890222 PWINO
     TSNO=
KCOU 080654Z AUTO 13003KT 10SM -RA SCT001 BKN030 23/22 A3005 RMK
     AO2 RAB34 SLP167 P0000 T02280222 TSNO=
KGSO 080654Z 00000KT 8SM SCT090 26/18 A3001 RMK AO2 SLP150
     T02610178=
KAPN 080654Z AUTO 00000KT 5SM BR CLR 19/19 A3001 RMK AO2 SLP160
     T01940189=
K12N 080654Z AUTO 00000KT 22/21 A3004 RMK AO2 SLP160 T02220211
     PWINO TSNO=
KFWA 080654Z 21004KT 10SM CLR 24/20 A3006 RMK AO2 SLP172
     T02390200=
KCAR 080654Z AUTO 11004KT 9SM CLR 23/21 A2999 RMK AO2 SLP153
     T02280206=
KMTP 080654Z AUTO 00000KT 23/21 A3005 RMK AO2 SLP177 T02280206
     PWINO TSNO=
KACY 080654Z 00000KT 8SM CLR 25/23 A3001 RMK AO2 SLP162
     T02500228=
PHOG 080654Z 03013KT 10SM FEW030 SCT050 25/18 A3003 RMK AO2 SLP173
     T02500183=
KSYR 080654Z 00000KT 7SM CLR 23/21 A3004 RMK AO2 SLP167
     T02280206=
KLEX 080654Z 00000KT 7SM CLR 23/18 A3009 RMK AO2 SLP177
     T02280183=
KORH 080654Z AUTO 22005KT 4SM BR BKN006 22/21 A3008 RMK AO2 SLP179
     T02220211=
KROC 080654Z 23004KT 8SM CLR 23/20 A3005 RMK AO2 SLP173
     T02280200=
KBUF 080654Z 19004KT 9SM CLR 23/20 A3006 RMK AO2 SLP173
     T02280200=
KCOS 080654Z 10008KT 10SM BKN050 OVC065 14/12 A3039 RMK AO2 SLP225
     T01390117 402170122=
KCRW 080654Z 00000KT 4SM BR CLR 22/20 A3008 RMK AO2 SLP172
     T02220200=
KSBN 080654Z 11004KT 10SM OVC110 25/21 A3004 RMK AO2 SLP165
     T02500211=
KP68 080653Z AUTO 00000KT 14/M02 A3012 RMK AO2 SLP117 T01391022
     PWINO TSNO=
KSAV 080653Z 28003KT 10SM CLR 22/19 A3000 RMK AO2 SLP157
     T02170194=
KRFD 080654Z 00000KT 10SM -RA FEW040 BKN047 OVC070 22/21 A3004 RMK
     AO2 SLP167 P0001 T02220211=
KDRA 080655Z AUTO 04004KT 10SM CLR 23/M12 A2990 RMK AO2 SLP073
     T02331122 TSNO=
KLAX 080653Z 27008KT 10SM BKN012 OVC015 17/13 A2992 RMK AO2 SLP129
     T01670128=
K4BM 080654Z AUTO 00000KT 5SM BR 05/04 A3065 RMK AO2=
KABI 080652Z 17004KT 9SM CLR 22/21 A3003 RMK AO2 PK WND 15034/0612
     SLP139 T02170211 $=
KAVP 080654Z 11005KT 7SM CLR 22/18 A3005 RMK AO2 SLP163 T02170178
     $=
KBTV 080654Z 00000KT 5SM BR OVC055 24/22 A3001 RMK AO2 SLP159
     T02390217=
KCHA 080653Z 00000KT 10SM CLR 24/18 A3006 RMK AO2 SLP169
     T02390183=
KCNK 080655Z AUTO 35004KT 8SM CLR 20/19 A3013 RMK AO2 SLP191
     T02000194=
KDLH 080655Z 32006KT 10SM SCT050 17/14 A3005 RMK AO2 SLP173
     T01720144=
KGPI 080655Z 32004KT 10SM CLR 11/08 A3015 RMK AO2 SLP203 T01110083
     402670056=
KIRK 080655Z AUTO 18003KT 6SM BR CLR 19/19 A3006 RMK AO2 SLP175
     T01940194=
KLIC 080655Z AUTO 12008KT 10SM OVC005 14/14 A3036 RMK AO2 RAB11E46
     SLP225 P0000 T01440144 402110128=
KMBG 080655Z AUTO 00000KT 10SM CLR 13/11 A3012 RMK AO2 SLP194
     T01330106 TSNO=
KINL 080655Z AUTO 00000KT 10SM FEW060 SCT090 15/13 A3001 RMK AO2
     SLP164 T01500133=
KLND 080653Z AUTO 00000KT 10SM CLR 12/04 A3031 RMK AO2 SLP218
     T01220039 402220050=
KLXV 080653Z AUTO 19003KT 10SM FEW030 OVC035 07/06 A3053 RMK AO2
     SLP194 T00720061 401830039 TSNO=
KMKG 080655Z 26003KT 9SM -RA SCT070 BKN080 OVC100 23/22 A3003 RMK
     AO2 RAE16B48 SLP165 P0012 T02330217 $=
KMSN 080653Z 00000KT 7SM OVC120 22/21 A3000 RMK AO2 RAE10 SLP155
     P0000 T02170206=
KMWT 080653Z AUTO 00000KT 10SM OVC016 23/23 A3004 RMK AO2 SLP161
     T02330228 TSNO=
KRNO 080655Z 34009KT 10SM SCT080 SCT120 26/03 A3004 RMK AO2 SLP110
     T02560028=
KSAV 080653Z 28003KT 10SM CLR 22/19 A3000 RMK AO2 SLP157
     T02170194=
KSCK 080655Z AUTO 01003KT 10SM CLR 17/11 A2983 RMK AO2 SLP101
     T01670111=
####018003728####
SAXX60 KWBC 080700 RRB
METAR
KLSF 080655Z AUTO 00000KT 10SM CLR 22/21 A3002 RMK AO2 SLP163
     T02210209 $=
KMMT 080655Z AUTO 30004KT 10SM CLR 23/19 A3000 RMK AO2 SLP156
     T02290192=
KMUI 080655Z AUTO 00000KT 10SM CLR 24/18 A3003 RMK AO2 SLP164
     T02400184 $=
KMUO 080655Z AUTO 15005KT 10SM CLR 17/02 A3004 RMK AO2 SLP150
     T01670017 403100098=
KAFF 080655Z AUTO 34005KT 10SM BKN041 BKN130 13/12 A3039 RMK AO2
     SLP204 T01260120 402130105=
KBAB 080655Z AUTO 16005KT 10SM CLR 20/13 A2979 RMK AO2 SLP089
     T02010130 $=
KBIX 080655Z AUTO 05003KT 10SM CLR 25/25 A3002 RMK AO2 SLP166
     T02530250=
KFSI 080655Z AUTO 04006KT 10SM SCT240 24/22 A3003 RMK AO2 SLP149
     T02360216=
KGTB 080655Z AUTO 19005KT 10SM CLR 23/20 A3003 RMK AO2 SLP167
     T02310203=
KLFI 080655Z 10005KT 9SM R08/5500FT SCT085 26/23 A2996 RMK AO2A
     SLP147 T02570230 $=
KLHW 080655Z AUTO 25006KT 10SM CLR 23/21 A2999 RMK AO2 SLP158
     T02250207=
KLSF 080655Z AUTO 00000KT 10SM CLR 22/21 A3002 RMK AO2 SLP163
     T02210209 $=
KMCF 080655Z AUTO 07005KT 10SM CLR 25/23 A3000 RMK AO2 SLP162
     T02490232=
KTBN 080655Z AUTO 15003KT 10SM BKN050 OVC200 23/ A3006 RMK AO2
     SLP160 T0230 $=
KTCM 080655Z AUTO 00000KT 10SM CLR 18/13 A2993 RMK AO2 SLP136
     T01820130=
KTIK 080655Z AUTO 03003KT 10SM OVC021 23/23 A3003 RMK AO2 OVC V
     BKN SLP157 T02350226 $=
KVOK 080655Z 24003KT 10SM FEW120 22/22 A3000 RMK AO2A SLP153
     T02220222=
KCEF 080655Z AUTO 00000KT 10SM BKN090 25/22 A3003 RMK AO2 SLP169
     T02490217 PWINO $=
KGUS 080655Z AUTO 18004KT 10SM CLR 23/21 A3005 RMK AO2 SLP168
     T02300206=
KLRF 080655Z AUTO 00000KT 10SM SCT150 23/22 A3005 RMK AO2 SLP173
     T02340223=
KVBG 080655Z AUTO 34005KT 10SM CLR 13/11 A2993 RMK AO2 CIG 010
     RWY12 SLP127 T01280111 401610094 TSNO $=
KRSP 080654Z AUTO VRB04KT 8SM FEW070 27/14 A3010 RMK AO2 SLP176
     T02670144 $=
KNKX 080655Z 35004KT 10SM OVC016 17/13 A2992 RMK AO2 SLP125
     T01670133=
KPOE 080655Z AUTO 11005KT 10SM CLR 24/23 A3000 RMK AO2 SLP158
     T02440228=
KNBG 080655Z AUTO 04003KT 10SM CLR 26/24 A3001 RMK AO2 SLP162
     T02560239 PWINO $=
KNJK 080656Z AUTO 26008KT 10SM CLR 28/09 A2967 RMK AO2 SLP061
     T02830089 TSNO=
KBKF 080655Z 34003KT 7SM SCT004 OVC010 14/14 A3035 RMK SLP231=
KCOF 080655Z AUTO 07004KT 10SM CLR 26/ A2998 RMK AO2 SLP154 T0255
     $=
KDLF 080655Z AUTO 06004KT 10SM CLR 25/23 A2994 RMK AO2 SLP122
     T02460227 $=
KDTS 080653Z AUTO 00000KT 9SM CLR 25/23 A3002 RMK AO2 SLP164
     T02500233=
KLSV 080655Z AUTO 01005KT 10SM CLR 29/M04 A2981 RMK AO2 SLP067
     T02931038 PWINO=
KMIB 080655Z AUTO 28004KT 10SM CLR 13/12 A3008 RMK AO2 SLP186
     T01330119 $=
KMXF 080655Z AUTO 00000KT 10SM CLR 27/24 A3001 RMK AO2 SLP162
     T02700244=
KSKA 080655Z AUTO 07004KT 10SM CLR 18/08 A3006 RMK AO2 SLP167
     T01800081=
KSLI 080655Z AUTO 00000KT 10SM BKN016 15/13 A2992 RMK AO2 SLP132
     T01540131=
KVPS 080655Z 31002KT 10SM SKC 24/24 A3003 RMK SLP170 T02430237=
KXMR 080655Z AUTO 00000KT 10SM CLR 20/19 A2998 RMK AO2 SLP154
     T02050193=
MHSC 080655Z AUTO 14004KT 9999 FEW060 BKN140 22/20 A2995 RMK AO2
     SLP098 T02250197 $=
PAED 080655Z AUTO 00000KT 10SM OVC080 14/09 A3002 RMK AO2 SLP165
     T01410094 $=
PGUA 080655Z AUTO 08014KT 10SM BKN018 BKN025 28/ A2985 RMK AO2 CIG
     016V021 SLP091 T0278 VISNO RWY24L $=
KFBG 080655Z AUTO 33007KT 10SM CLR 28/18 A2994 RMK AO2 SLP135
     T02760177 $=
KLFI 080655Z 10005KT 9SM R08/5500FT SCT085 26/23 A2996 RMK AO2A
     SLP147 T02570230 $=
KMMT 080655Z AUTO 30004KT 10SM CLR 23/19 A3000 RMK AO2 SLP156
     T02290192=
####018003707####
SAUS70 KWBC 080700 RRC
METAR
KIGX 080656Z AUTO 29004KT 7SM CLR 25/18 A2999 RMK AO2 SLP146
     T02500183 $=
KIWA 080656Z AUTO 10003KT 10SM CLR 34/04 A2979 RMK AO2=
KLCK 080655Z AUTO 00000KT 5SM HZ CLR 23/20 A3007 RMK AO2
     T02320202=
KM19 080656Z AUTO 00000KT 10SM CLR 26/24 A3005 RMK AO2 T02550238
     SLP173=
KMQY 080656Z AUTO 00000KT 10SM CLR 26/22 A3008 RMK AO2 T02610216
     SLP174=
KMRH 080656Z AUTO 35003KT 10SM SCT110 26/18 A2990 RMK AO2 SLP126
     T02560183 TSNO=
KMWO 080655Z AUTO 00000KT 5SM BR CLR 21/20 A3008 RMK AO2=
KPVB 080653Z AUTO 30004KT 10SM SCT100 BKN120 20/19 A3002 RMK AO1
     T01960187=
KSRC 080656Z AUTO 00000KT 10SM CLR 23/22 A3005 RMK AO2 TSNO
     T02330222 SLP179=
KTPH 080656Z AUTO 03003KT 10SM CLR 17/M12 A3008 RMK AO2 SLP107
     T01721117=
KTTS 080655Z 33002KT 10SM FEW030 FEW290 21/20 A3000 RMK SLP159 1CU
     /0/ 1CI /0/=
KTZR 080657Z AUTO 00000KT 7SM CLR 22/19 A3008 RMK AO2=
PAAK 080656Z AUTO 09016KT 10SM FEW008 SCT018 BKN023 07/04 A2965
     RMK AO1 PNO=
PAHP 080656Z AUTO 34007KT 10SM FEW070 FEW080 SCT120 13/09 A3005
     RMK AO1 PNO TSNO=
PAAK 080656Z AUTO 09016KT 10SM FEW008 SCT018 BKN023 07/04 A2965
     RMK AO1 PNO=
PABL 080656Z AUTO 30008KT 10SM CLR 14/08 A3014 RMK AO1 PNO=
PABV 080656Z AUTO 19003KT 10SM OVC085 14/09 RMK AO1 PNO=
PADL 080656Z 30008KT 10SM OVC050 11/08 A2997 RMK AO1 PNO TSNO=
PAEM 080656Z AUTO 01010KT 10SM CLR 14/08 A3004 RMK AO1 PNO=
PAFE 080656Z AUTO 00000KT 10SM CLR 13/10 A3019 RMK AO1 PNO=
PAFM 080656Z AUTO 00000KT 10SM CLR 19/10 A3010 RMK AO1 PNO=
PAGL 080656Z AUTO 28005KT 10SM SCT070 17/11 A3011 RMK AO1 PNO=
PAGS 080656Z AUTO 00000KT 10SM CLR 14/11 A3020 RMK AO1 PNO=
PAHP 080656Z AUTO 34007KT 10SM FEW070 FEW080 SCT120 13/09 A3005
     RMK AO1 PNO TSNO=
PAHY 080656Z AUTO 01003KT 10SM CLR 19/10 A3011 RMK AO1 PNO=
PAII 080656Z AUTO 01005KT 10SM BKN023 OVC060 12/08 A2996 RMK AO1
     PNO=
PAIN 080656Z AUTO 26003KT 10SM CLR 14/08 A3008 RMK AO1 PNO=
PAJC 080656Z AUTO 33005KT 10SM SCT017 OVC024 11/06 A2994 RMK AO1
     PNO=
PAKK 080656Z AUTO 36009KT 10SM FEW085 17/09 A3004 RMK AO1 PNO=
PAKP 080656Z AUTO 06007KT 10SM BKN034 OVC050 11/03 A3009 RMK
     AO1=
PAMD 080656Z AUTO 08021G26KT 3SM OVC003 11/09 A3001 RMK AO1
     PNO=
PAMH 080656Z 00000KT 10SM CLR 17/07 A2999 RMK AO1 PNO=
PAMM 080656Z AUTO 33007KT 10SM CLR 21/11 A3009 RMK AO1 PNO=
PAMY 080656Z 29008KT 10SM OVC004 07/05 A3006 RMK AO1=
PANI 080656Z AUTO 00000KT 10SM BKN070 BKN090 OVC120 14/09 A3000
     RMK AO1 PNO=
PANV 080656Z AUTO 21006KT 10SM OVC075 16/08 A3000 RMK AO1 PNO=
PAOU 080656Z AUTO 00000KT 10SM FEW043 OVC055 08/07 A2997 RMK AO2
     PWINO TSNO T00770066 SLP153 $=
PAPG 080656Z 03005KT 10SM CLR 13/11 A3014 RMK AO1 PNO=
PAPH 080656Z AUTO 01006KT 10SM SCT048 08/06 A2998 RMK AO1 PNO=
PAPO 080657Z 16007KT 10SM CLR 06/03 A3014 RMK AWOS VIA PHONE (OTZ
     FSS)=
PARC 080656Z AUTO 32005KT 10SM FEW080 12/01 A3001 RMK AO1 PNO=
PASA 080656Z AUTO 06005KT 10SM CLR 08/06 A3019 RMK AO1 PNO=
PASD 080656Z AUTO 12004KT 10SM OVC050 09/05 A2996 RMK AO1 PNO=
PASH 080656Z AUTO 00000KT 10SM CLR 09/06 A3019 RMK AO1 PNO=
PASK 080656Z 28006KT 10SM CLR 17/08 A3011 RMK AO1 PNO=
PASL 080656Z AUTO 16005KT 10SM SCT090 BKN110 15/07 A3001 RMK AO1
     PNO=
PASM 080656Z AUTO 27006KT 10SM FEW050 SCT075 OVC100 11/08 A3006
     RMK AO1 PNO=
PASX 080656Z 07003KT 10SM BKN090 BKN120 13/09 A2998 RMK AO1
     PNO=
PAUN 080656Z AUTO 34008KT 10SM CLR 16/11 A3002 RMK AO1 PNO=
PAVD 080656Z 10004KT 10SM BKN090 10/07 A3011 RMK AO1 PNO=
PAWG 080656Z AUTO 25003KT 10SM CLR 15/11 A3013 RMK AO1 WEA:NONE RJ
     LAST PNO=
####018000099####
SAUS70 KWBC 080600 RRN
METAR
KMYP 080556Z AUTO 07011KT 1/4SM -SN OVC001 03/02 A3075 RMK AO2=
####018000190####
SAUS80 KWBC 080700 CCA
METAR
KTRI 080653Z 00000KT 5SM HZ CLR 23/19 A3010 RMK AO2 SLP171
     T02280189 $=
KTYS 080653Z 00000KT 8SM CLR 24/20 A3006 RMK AO2 SLP166
     T02390200=
####018002222####
SAUS80 KWBC 080700 RRA
METAR
KSMS 080655Z AUTO 28005KT 10SM CLR 26/19 A2998 RMK AO2=
KTLH 080653Z 00000KT 10SM FEW095 24/22 A3002 RMK AO2 SLP163
     T02390217=
TJSJ 080656Z 00000KT 10SM CLR 27/24 A2997 RMK AO2 SLP149
     T02720244=
KANJ 080655Z AUTO 11003KT 10SM -RA FEW048 BKN100 OVC110 21/19
     A2998 RMK AO2 RAB08 SLP148 P0000 T02060189=
KCHS 080656Z 29007KT 10SM CLR 25/20 A2997 RMK AO2 SLP148
     T02500200=
KAST 080655Z AUTO 23007KT 4SM BR OVC003 12/11 A2991 RMK AO2 VIS 2
     RWY 08 SLP129 T01170106=
KJAX 080656Z 27004KT 10SM CLR 20/19 A3001 RMK AO2 SLP163
     T02000189=
KHON 080655Z AUTO 22006KT 10SM CLR 18/14 A3015 RMK AO2 SLP203
     T01780139=
KPHP 080655Z AUTO 27006KT 10SM CLR 14/11 A3020 RMK AO2 SLP213
     T01440106 402720133 TSNO $=
KCAO 080655Z AUTO 01015KT 10SM -RA BKN070 OVC100 16/14 A3028 RMK
     AO2 SLP195 P0007 T01610144 402780156 TSNO=
KABQ 080656Z 10018G27KT 10SM OVC130 19/10 A3025 RMK AO2 PK WND
     11028/0627 SLP155 T01940100 403170183=
KAAT 080655Z AUTO 08006KT 10SM CLR 18/07 A3006 RMK AO2 SLP130
     T01780067 TSNO=
KSHV 080656Z 13003KT 10SM SCT180 BKN280 25/24 A3000 RMK AO2 SLP154
     T02500239=
KCLI 080655Z AUTO 18005KT 7SM -RA SCT004 22/21 A2998 RMK AO2
     P0001=
KDVK 080657Z AUTO 00000KT 7SM 21/19 A3009 RMK AO1=
KINW 080656Z AUTO 23007KT 10SM CLR 25/01 A3008 RMK AO2 SLP094
     T02500006 403560133=
KMOB 080656Z 00000KT 10SM CLR 24/23 A3004 RMK AO2 SLP169
     T02390228=
KSFO 080656Z 29009KT 10SM FEW008 14/10 A2992 RMK AO2 SLP132
     T01390100=
PADK 080656Z 08009KT 10SM BKN016 OVC024 07/06 A2959 RMK AO1
     PNO=
KGNR 080656Z AUTO 12004KT 20/19 A3006 RMK AO1 SLP170 T02000189=
KALK 080656Z AUTO 08011KT 10SM CLR 25/07 A3006 RMK AO2 SLP074
     T02500072 403390183=
KCAE 080656Z 26004KT 10SM CLR 26/18 A2999 RMK AO2 SLP152
     T02560183=
KSYR 080654Z 00000KT 7SM CLR 23/21 A3004 RMK AO2 SLP167
     T02280206=
KROC 080654Z 23004KT 8SM CLR 23/20 A3005 RMK AO2 SLP173
     T02280200=
KP60 080656Z AUTO 32003KT 03/M01 A3042 RMK AO2 SLP252 T00331006
     401721017 PWINO TSNO=
KMEH 080656Z AUTO 00000KT 10SM CLR 10/08 A3011 RMK AO2 SLP174
     T01000078 TSNO=
####018003723####
SAUS70 KWBC 080700 RRB
METAR
PAHN 080654Z AUTO 00000KT 10SM CLR 12/11 A3021 RMK AO2 SLP232
     T01220106 TSNO=
PAKN 080654Z 02008KT 10SM -RA BKN049 BKN060 BKN075 11/10 A2990 RMK
     AO2 SLP124 P0003 T01110100=
K04W 080654Z AUTO 00000KT 10SM CLR 18/17 A3006 RMK AO2
     T01820170=
K0A9 080655Z AUTO 00000KT 8SM CLR 20/18 A3011 RMK=
K20V 080656Z AUTO 06003KT 10SM CLR 10/06 A3042 RMK AO2=
K7BM 080656Z AUTO 00000KT 10SM BKN017 10/06 A3055 RMK AO2=
KAPA 080653Z COR 35006KT 10SM FEW010 OVC020 14/13 A3036 RMK AO2
     SLP233 T01440128 401890117 $=
KBBG 080655Z AUTO 00000KT 7SM SCT018 OVC027 23/23 A3008 RMK
     AO2=
KBBP 080655Z AUTO 29005KT 10SM SCT100 25/20 A2995 RMK AO2=
KBDU 080657Z AUTO 25005G15KT 10SM RA OVC065 16/13 A3031 RMK
     AO2=
KBJC 080657Z AUTO 27004KT 5SM BR SCT055 SCT085 OVC100 14/13 A3035
     RMK AO2=
KBKN 080655Z AUTO 05005KT 10SM OVC070 22/21 A3006 RMK AO2=
KBMI 080656Z AUTO 00000KT 8SM FEW049 23/22 A3006 RMK AO2 PWINO
     T02270216 SLP162 $=
KBOK 080656Z AUTO 15003KT 1/4SM FG OVC002 10/10 A2998 RMK AO2
     T01000100 401330083 SLP153 $=
KC29 080655Z AUTO 00000KT 10SM OVC120 22/20 A3001 RMK AO2
     T02200202=
KCCU 080656Z AUTO 16005KT 10SM SCT001 05/02 A3064 RMK AO2=
KCIC 080655Z AUTO 00000KT 10SM CLR 27/15 A2980 RMK AO1=
KCMR 080655Z AUTO 16007KT 10SM SCT110 14/01 A3024 RMK AO1=
KD39 080654Z AUTO 00000KT 10SM CLR 16/15 A3010 RMK AO2
     T01580151=
KDLL 080654Z AUTO 00000KT 10SM -DZ SCT004 SCT120 21/20 A3001 RMK
     AO2=
KEAT 080655Z AUTO 00000KT 10SM CLR 23/04 A3000 RMK AO2 SLP150
     T02280044=
KEFD 080650Z 11010KT 9SM FEW025 BKN130 28/24 A2994=
KGGE 080655Z AUTO 27006KT 10SM CLR 25/22 A2995 RMK AO2=
KHVS 080655Z AUTO 27003KT 10SM CLR 26/19 A2998 RMK AO2=
KLLJ 080655Z AUTO 15005KT 10SM FEW090 12/02 A3020 RMK AO2 SLP179
     T01170017 402610050=
KSDF 080656Z 00000KT 8SM CLR 27/21 A3005 RMK AO2 SLP171
     T02720206=
KNQA 080655Z AUTO 00000KT 10SM CLR 25/23 A3005 RMK=
KOWB 080656Z AUTO 00000KT 10SM CLR 26/23 A3006 RMK AO2 T02550227
     SLP173=
KRCE 080655Z AUTO 35004KT 9SM FEW013 23/22 A3006 RMK AO2=
KSGR 080653Z AUTO 07003KT 8SM CLR 26/24 A2992 RMK AO2 SLP139
     T02560239 TSNO=
KSRR 080655Z AUTO 18008KT 10SM BKN095 13/11 A3036 RMK AO2=
KUCP 080656Z AUTO 00000KT 1SM BR CLR 19/19 A3009 RMK AO2 T01940188
     SLP196 $=
KVQQ 080655Z AUTO 00000KT 10SM CLR 19/19 A3002 RMK AO2=
KWYS 080650Z AUTO 00000KT 10SM CLR 05/01 A3035 RMK AO2=
KY51 080655Z AUTO 24005KT 1 1/2SM OVC002 22/22 A3003 RMK AO1
     T02200217=
K1A6 080655Z AUTO 00000KT 4SM BR CLR 22/22 A3010 RMK AO2=
K1M4 080656Z AUTO 00000KT 10SM BKN095 23/22 A3010 RMK AO2
     T02330222 BKN V SCT SLP189=
K21D 080658Z AUTO 31005KT 10SM CLR 19/17 A3006 RMK AO2=
KAIG 080655Z AUTO 00000KT 2SM -RA OVC003 19/19 A3000 RMK AO2=
KAND 080656Z AUTO 00000KT 10SM CLR 22/19 A3002 RMK AO2 SLP156
     T02220194=
KARV 080652Z AUTO 00000KT 10SM SCT001 SCT100 20/19 A3003 RMK AO2
     T01950185=
KATW 080655Z AUTO 21005KT 10SM -RA SCT060 BKN090 120 21/19 A3000
     RMK AO2 P0001=
KBJI 080654Z AUTO 22004KT 10SM CLR 16/14 A3005 RMK AO2=
KBUU 080654Z AUTO 23003KT 10SM SCT100 SCT120 21/21 A3003 RMK AO2
     P0002=
KBWP 080651Z AUTO 25003KT 10SM CLR 16/14 A3008 RMK AO1
     T01550135=
KDUG 080656Z AUTO 06015G23KT 10SM CLR 28/10 A3000 RMK AO2 PK WND
     07027/0644 WSHFT 0614 RAB15E48 SLP071 P0000 T02780100
     403720167 $=
KDUJ 080656Z AUTO 02004KT 9SM CLR 22/17 A3012 RMK AO2 SLP180
     T02220172=
KEKO 080656Z AUTO 07007KT 10SM CLR 21/M05 A3009 RMK AO2 SLP129
     T02061050=
KGRD 080656Z AUTO 28003KT 10SM CLR 24/19 A3003 RMK AO2 SLP159
     T02440189=
####018002464####
SAXX60 KWBC 080700 RRC
METAR
KNQX 080653Z AUTO 05004KT 10SM CLR 28/25 A2993 RMK AO2 SLP133
     T02830250 $=
KOZR 080655Z AUTO 00000KT 10SM CLR 23/23 A3003 RMK AO2 SLP166
     T02270227=
KSSC 080655Z AUTO 28009KT 10SM CLR 26/20 A2996 RMK AO2 SLP145
     T02610195 $=
KNYL 080655Z 00000KT 10SM CLR 30/06 A2971 RMK AO2 SLP055 T03000056
     404060239=
KADW 080655Z AUTO 08005KT 10SM BKN110 26/22 A2999 RMK AO2 SLP154
     T02610220 $=
KBIX 080655Z AUTO 05003KT 10SM CLR 25/25 A3002 RMK AO2 SLP166
     T02530250=
KCOF 080655Z AUTO 07004KT 10SM CLR 26/ A2998 RMK AO2 SLP154 T0255
     $=
KDOV 080655Z AUTO 00000KT 4SM BR FEW003 SCT110 24/24 A2998 RMK AO2
     SLP154 T02450245=
KGSB 080655Z AUTO 00000KT 10SM CLR 26/19 A2991 RMK AO2 SLP129
     T02590186 $=
KLFI 080655Z 10005KT 9SM R08/5500FT SCT085 26/23 A2996 RMK AO2A
     SLP147 T02570230 $=
KMCF 080655Z AUTO 07005KT 10SM CLR 25/23 A3000 RMK AO2 SLP162
     T02490232=
KNIP 080653Z 26004KT 10SM CLR 24/21 A3002 RMK AO2 SLP162
     T02440211=
KNRB 080652Z 22005KT 10SM CLR 22/19 A3001 RMK AO2 SLP160
     T02220194=
KPAM 080655Z AUTO 36003KT 9SM CLR 23/23 A3001 RMK AO2 SLP165
     T02290227=
KVAD 080655Z AUTO 00000KT 8SM R18/5000VP6000FT CLR 22/20 A3003 RMK
     AO2 SLP167 T02230196 $=
KVPS 080655Z 31002KT 10SM SKC 24/24 A3003 RMK SLP170 T02430237=
KWRI 080655Z AUTO 00000KT 2SM R18/4500V5000FT R24/2600V2800FT BR
     BKN003 24/24 A2999 RMK AO2 SLP157 T02370235 $=
PMDY 080656Z AUTO 00000KT 10SM CLR 27/20 A3011 RMK AO2 TSNO
     T02660200 SLP501=
K9L2 080656Z AUTO 16004KT 10SM CLR 23/06 A2987 RMK AO2 SLP091
     T02330056 403670150 $=
KABH 080656Z AUTO 07004KT 10SM FEW006 SCT080 14/12 A3038 RMK AO2
     SLP228 T01390122 $=
KNBT 080656Z AUTO 05007KT 3SM BR CLR 29/ A2990 RMK AO2 SLP130
     T0289 TSNO $=
KNXF 080656Z AUTO 30006KT 7SM OVC013 17/13 A2991 RMK AO2 SLP213
     T01670128 TSNO=
KNYG 080656Z AUTO 30005KT FEW080 BKN120 27/23 A2998 RMK AO2 SLP152
     T02670228=
KNCA 080656Z AUTO 01004KT 10SM CLR 26/22 A2991 RMK AO2 SLP128
     T02560217=
KHLR 080656Z AUTO 11005KT 10SM BKN015 BKN055 26/26 A2999 RMK AO2
     SLP146 T02610261 $=
KNQI 080656Z AUTO 36003KT 10SM CLR 27/24 A2985 RMK AO2 SLP104
     T02670244 $=
KNTU 080656Z 11005KT 4SM BR CLR 26/24 A2994 RMK AO2 SLP142
     T02560244 $=
KNGP 080656Z AUTO 08005KT 10SM FEW055 28/26 A2983 RMK AO2 TSE0559
     SLP101 T02830261 $=
####018000091####
SAUS70 KWBC 070700 RRM
METAR
KVTP 080700Z AUTO 06004KT 10SM CLR 06/04 A3054 RMK AO2=
####018000473####
SAUS70 KWBC 080700 RRD
METAR
PAWN 080656Z AUTO 30006KT 10SM CLR 16/06 A3012 RMK AO1 PNO=
PAWS 080656Z AUTO 05007KT 10SM CLR 15/07 A3001 RMK AO1 PNO=
PAZK 080656Z AUTO 36006KT 10SM BKN055 11/04 A3010 RMK AO1 PNO=
KBOS 080654Z 19009KT 4SM BR BKN011 24/22 A3005 RMK AO2 SLP174
     T02390217=
KPHL 080654Z 11003KT 8SM FEW150 26/22 A3001 RMK AO2 SLP161
     T02610217 $=
KNFE 080656Z AUTO 00000KT 1/4SM FG CLR 24/22 A2995 RMK AO2 SLP145
     T02440222 $=
####018000095####
SPUS70 KWBC 080658
SPECI
KNSE 080641Z AUTO 00000KT 1 3/4SM BR CLR 23/22 A3003 RMK AO2 $=
####018000097####
SAAS31 KWBC 080630 RRE
METAR
VAAH 080640Z 15004KT 4000 HZ SCT015 SCT020 31/25 Q1006 NOSIG=
####018000329####
SABX31 KWBC 080650 RRA
METAR
EBAW 080650Z 27004KT 240V300 CAVOK 23/13 Q1019 NOSIG=
EBBR 080650Z 19004KT CAVOK 24/13 Q1019 NOSIG=
EBCI 080650Z 19005KT CAVOK 23/11 Q1020 NOSIG=
EBLG 080650Z 18007KT CAVOK 23/09 Q1020 NOSIG=
EBOS 080650Z 27006KT CAVOK 19/13 Q1019 NOSIG=
ELLX 080650Z VRB03KT CAVOK 22/09 Q1021 NOSIG=
####018000279####
SAAW34 KWBC 080645 RRA
METAR
OAKB 080650Z VRB05KT 8000 NSC 31/11 Q1017 NOSIG RMK BLU BLU=
OPKC 080700Z 08008KTS 9000 BKN030 35/25 Q.1004 NOSIG=
OPPS 080700Z NE-10KT 5000 HZ FEW040 37/24 Q1007.0=
OPSK 080655Z 060006KTS 6000 HZ SCT200 38/25 QNH 1003 R.H. 47
     PC=
####018000121####
SPCN31 KWBC 080658
SPECI
CYFC 080657Z AUTO 21006KT 8SM SCT010 20/19 A3004 RMK SLP173
DENSITY ALT 500FT RVR MISG=
####018002936####
SAUS20 KNKA 080657
METAR KSDF 080656Z 00000KT 8SM CLR 27/21 A3005 RMK AO2 SLP171 
    T02720206=
METAR K1P1 080655Z AUTO 00000KT 1/2SM FG VV005 22/21 A3005 RMK AO2 
     T02230211=
METAR KART 080656Z AUTO 00000KT 7SM CLR 22/20 A3002 RMK AO2 SLP161 
    T02220200=
METAR KBED 080656Z AUTO 21003KT 2 1/2SM BR OVC009 23/22 A3003 RMK 
    AO2 SLP180 T02330217=
METAR KBJJ 080656Z AUTO 00000KT 4SM BR CLR 19/18 A3010 RMK AO2 
    SLP182 T01940183=
METAR KBVU 080655Z AUTO 32003KT 10SM CLR 27/02 A2984 RMK AO2 =
METAR KBZN 080656Z AUTO 19004KT 10SM CLR 12/05 A3026 RMK AO2 SLPNO 
    T01170050 402610039=
METAR KCEC 080656Z AUTO 00000KT 2SM BR OVC001 11/09 A2997 RMK AO2 
    SLP151 T01060094=
METAR KCTB 080656Z AUTO 21004KT 10SM CLR 13/06 A3024 RMK AO2 SLP218 
    T01330061 402440050=
METAR KCXY 080656Z AUTO 00000KT 6SM HZ CLR 24/19 A3001 RMK AO2 
    SLP159 T02390194=
METAR KDAY 080656Z 23004KT 9SM CLR 24/18 A3009 RMK AO2 SLP179 
    T02390183 $=
METAR KDIK 080656Z AUTO 24003KT 10SM SCT095 11/09 A3015 RMK AO2 
    SLP204 T01060094 402440067=
METAR KE80 080655Z AUTO 28004KT 10SM CLR 20/11 A3022 RMK AO2 
     T02040106=
METAR KEAU 080656Z AUTO 23005KT 9SM SCT060 20/19 A3001 RMK AO2 
    SLP155 T02000194=
METAR KEDC 080655Z AUTO 04003KT OVC010 25/24 A2997 RMK AO2 =
METAR KEED 080656Z AUTO 00000KT 10SM CLR 34/M03 A2972 RMK AO2 SLP026 
    T03441028 TSNO=
METAR KEIK 080655Z AUTO 22004KT 5SM -RA OVC085 15/14 A3032 RMK 
     AO2=
METAR KELZ 080656Z AUTO 00000KT 5SM BR CLR 19/18 A3016 RMK AO2 
    SLP197 T01940183=
METAR KEOE 080655Z AUTO 00000KT 10SM 23/20 A3003 RMK AO2=
METAR KFMH 080655Z AUTO 16006KT 1SM BR OVC002 21/20 A3007 RMK AO2 
     =
METAR KGON 080656Z AUTO 11008KT 7SM OVC009 23/21 A3004 RMK AO2 CIG 
    005V011 SLP171 T02330211=
METAR KHND 080656Z AUTO 17007KT 10SM CLR 29/M03 A2986 RMK AO2 
    T02941033 404000222 SLP054=
METAR KHPN 080656Z 12003KT 4SM BR CLR 23/21 A3003 RMK AO2 SLP161 
    T02330211=
METAR KHWV 080656Z AUTO 13004KT 2 1/2SM BR SCT002 BKN009 OVC013 
    25/24 A3003 RMK AO2 CIG 007V010 SLP169 T02500244=
METAR KHYA 080656Z AUTO 16004KT 1SM BR OVC001 21/21 A3006 RMK AO2 
    SLP181 T02110206=
METAR KIFP 080655Z AUTO 08003KT 10SM CLR 33/M02 A2971 RMK AO2 =
METAR KISP 080656Z 14004KT 4SM HZ FEW007 SCT050 BKN100 OVC130 26/23 
    A3001 RMK AO2 RAB24E29 SLP160 P0000 T02560228=
METAR KITH 080656Z AUTO 08004KT 6SM BR CLR 21/19 A3010 RMK AO2 
    T02050188 SLP183=
METAR KJMS 080656Z AUTO 00000KT 10SM CLR 13/13 A3008 RMK AO2 SLP186 
    T01330128=
METAR KJXN 080656Z 00000KT 10SM CLR 23/22 A3005 RMK AO2 SLP169 
    T02280217=
METAR KLAS 080656Z 21009KT 10SM CLR 30/M04 A2979 RMK AO2 SLP057 
    T03001044=
METAR KLNR 080656Z AUTO 24005KT 10SM FEW006 SCT038 21/19 A3002 RMK 
    AO2 RAE52 SLP155 P0001 T02110189=
METAR KMAN 080655Z AUTO 00000KT 10SM CLR 17/08 A3002 RMK AO1 =
####018001447####
SAUS20 KNKA 080657
METAR KMDT 080656Z 00000KT 6SM HZ CLR 27/20 A3000 RMK AO2 SLP155 
    T02670200=
METAR KOFK 080656Z AUTO 29003KT 10SM CLR 16/15 A3018 RMK AO2 SLP211 
    T01610150=
METAR KPVF 080655Z AUTO 00000KT 10SM FEW041 22/11 A2993 RMK AO1 =
METAR KRBW 080655Z AUTO 28005KT 10SM CLR 23/20 A2999 RMK AO2=
METAR KRCM 080655Z AUTO 00000KT 7SM SCT002 SCT021 OVC036 22/22 
     A3004 RMK AO2 P0001=
METAR KRDM 080656Z AUTO 30006KT 10SM CLR 21/03 A3003 RMK AO2 SLP141 
    T02060033 $=
METAR KSBP 080656Z AUTO 31006KT 10SM OVC011 14/11 A2991 RMK AO2 
    SLP129 T01390111 $=
METAR KSGH 080656Z AUTO 00000KT 6SM BR CLR 22/21 A3010 RMK AO2 
    T02220211 SLP183=
METAR KSGJ 080658Z AUTO 28003KT 10SM CLR 22/20 A3001 RMK AO2 SLP163 
    T02170200=
METAR KSLE 080656Z AUTO 00000KT 10SM CLR 23/09 A2983 RMK AO2 SLP100 
    T02330094=
METAR KSNC 080655Z AUTO 00000KT 1 1/2SM  BR OVC001 22/ A3005 RMK 
     AO2 =
METAR KTME 080655Z AUTO 00000KT 6SM 25/25 A2994 RMK AO1 =
METAR KUKI 080656Z AUTO 16005KT 10SM CLR 16/11 A2990 RMK AO2 SLP120 
    T01610111=
METAR KUOX 080655Z AUTO 00000KT 10SM CLR 23/21 A3007 RMK AO2 =
METAR KWJF 080656Z 27009KT 10SM CLR 22/03 A2989 RMK AO2 SLP098 
    T02220028=
METAR PGUA 080655Z AUTO 08014KT 10SM BKN018 BKN025 28/ A2985 RMK AO2
      CIG 016V021 SLP091 T0278 VISNO RWY24L $=
METAR TJSJ 080656Z 00000KT 10SM CLR 27/24 A2997 RMK AO2 SLP149 
    T02720244=
####018000351####
SAEM31 KWBC 080630 RRC
METAR
LOWG 080650Z 00000KT CAVOK 18/12 Q1024 NOSIG=
LOWI 080650Z VRB01KT CAVOK 17/12 Q1024 NOSIG=
LOWK 080650Z VRB01KT 9999 FEW050 16/11 Q1024 NOSIG=
LOWL 080650Z 06004KT 030V110 CAVOK 17/10 Q1024 NOSIG=
LOWS 080650Z 15008KT 110V180 CAVOK 17/09 Q1023 NOSIG=
LOWW 080650Z 34003KT 290V030 CAVOK 17/11 Q1024 NOSIG=
####018000142####
SAEN31 KWBC 080650 RRA
METAR
EFIV 080650Z AUTO VRB03KT 9999 FEW016 14/10 Q1016=
EFKE 080650Z 16004KT 090V220 9999 SCT024 18/13 Q1016=
####018000128####
SPJP41 KWBC 080658
SPECI
RJCJ 080647Z 17008KT 7000 -DZ FEW003 BKN005 BKN007 19/17 Q1008 RMK
1ST003 6ST005 7ST007 A2979=
####018000135####
SAUS46 KLOX 080657
MTRNTD
METAR KNTD 080656Z AUTO 30005KT 10SM OVC017 16/13 A2990 RMK AO2 
SLP127 T01560128 TSNO PNO VISNO N $
####018000117####
SPJP42 KWBC 080658
SPECI
RJFZ 080650Z VRB02KT 7000 FEW045 SCT070 OVC230 27/21 Q1007 RMK
1SC045 3AC070 A2976=
####018000117####
SAUS45 KLKN 080657
MTRWMC
METAR KWMC 080656Z AUTO 05017G23KT 10SM CLR 22/M06 A3003 RMK AO2 
SLP116 T02221056
####018000130####
SPJP41 KWBC 080658
SPECI
RJCA 080639Z 22006KT 9999 -SHRA FEW010 SCT020 BKN025 24/17 Q1007
RMK 2CU010 3CU020 5CU025 A2976=
####018000110####
SAUS46 KLOX 080657
MTRNXP
METAR KNXP 080656Z AUTO 31004KT CLR 28/02 A2989 RMK AO2 SLP079 
T02780022 $
####018000110####
SAUS46 KPQR 080657
MTRNUW
METAR KNUW 080656Z 00000KT 10SM CLR 15/11 A2995 RMK AO2 SLP145 
T01500111 $
####018000117####
SAUS46 KMFR 080657
MTRSXT
METAR KSXT 080656Z AUTO 35010KT 9SM CLR 20/11 A3002 RMK AO2 SLP099 
T02000106 TSNO
####018000115####
SAUS43 KDDC 080657
MTRP28
METAR KP28 080656Z AUTO 01006KT 22/21 A3010 RMK AO2 SLP175 T02220206 
PWINO TSNO
####018000138####
SAUS45 KFGZ 080657
MTRFLG
METAR KFLG 080656Z AUTO 00000KT 10SM FEW085 SCT110 16/01 A3024 RMK 
AO2 SLP124 T01560011 402830072 TSNO
####018000115####
SAUS43 KEAX 080657
MTRCDJ
METAR KCDJ 080656Z AUTO 00000KT 21/21 A3006 RMK AO2 SLP167 T02110206 
PWINO TSNO
####018000113####
SAUS45 KBOI 080657
MTRLWS
METAR KLWS 080656Z AUTO 18003KT 10SM CLR 19/05 A2999 RMK AO2 SLP146 
T01940050
####018000113####
SAUS45 KTFX 080657
MTRGFA
METAR KGFA 080656Z AUTO 18004KT 10SM CLR 13/06 A3021 RMK AO2 SLP244 
T01280061
####018000179####
SPJP44 KWBC 080658
SPECI
RJST 080647Z 19005KT 4000 TSRA BKN003 BKN005 BKN007 OVC010CB 23/22
Q1010 RMK 5ST003 7ST005 7CU007 8CB010 A2983 VIS SW-N 2000M FBL TS
OHD MOV E=
####018000118####
SAUS46 KPQR 080657
MTRNFL
METAR KNFL 080656Z AUTO 01003KT 10SM CLR 24/02 A2995 RMK AO2 SLP114 
T02440017 TSNO
####018000180####
SPJP44 KWBC 080658
SPECI
RJST 080645Z 17005KT 5000 -TSRA BKN003 BKN005 BKN008 BKN020CB
23/22 Q1010 RMK 5ST003 6ST005 6CU008 7CB020 A2983 VIS SW-N 2500M
FBL TS OHD MOV E=
####018000116####
SAUS46 KLOX 080657
MTRNLC
METAR KNLC 080656Z 33008KT 10SM CLR 21/12 A2981 RMK AO2 SLP092 RH/52 
T02110117 $
####018000170####
SPJP44 KWBC 080658
SPECI
RJSU 080643Z 16008KT 9999 -TSRA FEW015 SCT030 FEW030CB BKN200
26/23 Q1008 RMK 1CU015 3CU030 1CB030 5CI200 A2978 FBL TS 10KM W
MOV UNK=
####018000357####
SAGR41 KWBC 080650 RRA
METAR
LGKP 080650Z 33015KT CAVOK 28/17 Q1007=
LGKZ 080650Z 34011KT 9999 SCT020 SCT070 17/08 Q1017=
LGMK 080650Z 35021G32KT 9999 FEW018 26/16 Q1011=
LGPZ 080650Z 27008KT 9999 FEW025 28/19 Q1013 NOSIG=
LGRX 080650Z 26004KT 9999 FEW025 27/21 Q1012 NOSIG=
LGSK 080650Z NIL=
LGZA 080650Z 36010KT 9999 FEW020 29/16 Q1012=
####018000821####
SAGR31 KWBC 080650 RRA
METAR
LGAD 080650Z 33008KT 9999 FEW020 SCT080 26/20 Q1013=
LGAL 080650Z NIL=
LGAV 080650Z 03015KT 9999 SCT025 26/14 Q1012 NOSIG=
LGEL 080650Z 02011G21KT 9999 FEW025 26/15 Q1011=
LGIR 080650Z 06005KT CAVOK 29/18 Q1011 NOSIG=
LGKF 080650Z 34017KT 9999 FEW025 27/16 Q1013=
LGKL 080650Z 34008KT CAVOK 29/18 Q1011=
LGKO 080650Z 31018KT CAVOK 27/18 Q1009=
LGKR 080650Z 31013KT CAVOK 27/13 Q1013 NOSIG=
LGKV 080650Z 00000KT 9999 SCT020TCU 17/16 Q1013=
LGLM 080650Z 01014KT 5000 RA SCT008 FEW018CB SCT020TCU OVC080
     19/18 Q1013=
LGMT 080650Z 34007KT 9999 FEW020 SCT160 27/14 Q1010=
LGRP 080650Z 24013KT CAVOK 29/21 Q1007 NOSIG=
LGSA 080650Z NIL=
LGSM 080650Z NIL=
LGSR 080650Z 29007KT CAVOK 29/15 Q1009 NOSIG=
LGTS 080650Z 33025KT 9999 FEW025 21/11 Q1016 NOSIG=
####018000503####
SAIY31 KWBC 080650 RRA
METAR
LIBD 080650Z 01012KT CAVOK 24/11 Q1019=
LICC 080650Z 25004KT CAVOK 26/20 Q1018=
LICJ 080650Z 07013KT CAVOK 28/20 Q1018=
LIEA 080650Z 36006KT 330V050 CAVOK 25/22 Q1019=
LIEO 080650Z VRB02KT CAVOK 26/22 Q1019=
LIMC 080650Z VRB02KT 9999 BKN050 23/16 Q1022 NOSIG=
LIME 080650Z 14009KT 9999 BKN055 23/15 Q1023=
LIMF 080650Z VRB02KT 9999 SCT030 SCT050 23/17 Q1022=
LIMJ 080650Z 02007KT CAVOK 27/21 1019=
LIML 080650Z 08006KT 9999 BKN060 24/16 Q1022 NOSIG=
####018000135####
SAIY31 KWBC 080550 RRD
METAR
LIBR 080645Z /////KT 9999 FEW020 24/17 Q1016 NOSIG=
LIEE 080645Z 28005KT CAVOK 23/19 Q1018 NOSIG=
####018000380####
SAIY32 KWBC 080650 RRA
METAR
LIPB 080650Z 25002KT 9999 BKN070 24/11 Q1022=
LIPE 080650Z 11003KT 080V140 CAVOK 24/17 Q1021=
LIPK 080650Z 00000KT CAVOK 22/15 Q1021=
LIPQ 080650Z VRB01KT 9999 BKN050 21/15 Q1022=
LIPZ 080650Z VRB03KT 9999 SCT050 BKN060 24/19 Q1022=
LIRF 080650Z 07005KT 040V120 9999 FEW035 27/19 Q1019 NOSIG=
LIRQ 080650Z VRB02KT CAVOK 26/15 Q1020=
####018000294####
SAIY32 KWBC 080550 RRC
METAR
LIPH 080645Z 03002KT 9999 SCT020 BKN045 22/18 Q1023=
LIPR 080645Z 12006KT CAVOK 25/18 Q1021=
LIPX 080645Z 06009KT 9999 SCT060 BKN080 25/15 Q1021=
LIRA 080645Z 35004KT 9999 FEW020 SCT030 27/21 Q1018=
LIRP 080645Z 11011KT 9999 FEW060 26/16 Q1019 NOSIG=
####018000087####
SAIY41 KWBC 080650 RRA
METAR
LIMC 080650Z VRB02KT 9999 BKN050 23/16 Q1022 NOSIG=
####018000088####
SAIY43 KWBC 080550 RRC
METAR
LIPX 080645Z 06009KT 9999 SCT060 BKN080 25/15 Q1021=
####018000517####
SAMX31 KWBC 080645 RRB
METAR
MMCZ 080646Z 08010KT 6SM SCT080 BKN200 26/24 A2987 RMK 8/058 SC
     HZY=
MMGL 080647Z 17004KT 10SM BKN080 OVC300 19/17 A3003 RMK 8/077=
MMMD 080644Z 10005KT 7SM OVC070 22/22 A2986 RMK 8/06/=
MMMZ 080644Z 05004KT 10SM SCT220 26/22 A2978 RMK 8/002=
MMPR 080648Z 00000KT 10SM SCT025 BKN070 BKN230 25/23 A2982 RMK
     8/478=
MMTP 080640Z 00000KT 10SM BKN020 BKN100 25/34 A2992 RMK 8/170=
MMUN 080651Z 12009KT 6SM FEW015 SCT090 SCT300 28/24 A2988 RMK
     8/538 HZY=
####018000261####
SAMX41 KWBC 080645 RRA
METAR
MMGL 080647Z 17004KT 10SM BKN080 OVC300 19/17 A3003 RMK 8/077=
MMHO 080644Z 00000KT 10SM FEW080 29/04 A2979 RMK 8/030 HZY=
MMML 080648Z 15006KT 10SM SKC 26/15 A2966=
MMNL 080647Z 00000KT 8SM SKC 27/24 A2990 RMK ISOL CU=
####018000194####
SAMX42 KWBC 080645 RRA
METAR
MMSP 080647Z 00000KT 10SM SCT010 SCT015 BKN200 17/17 A3016 RMK
     8/463 OCNL DOPS MSGTX MMZC=
MMTJ 080640Z 00000KT 6SM OVC017 16/14 A2995 RMK 8/5// HZY=
####018000747####
SANL31 KWBC 080650 RRA
METAR
EHAM 080655Z 26006KT 220V290 CAVOK 21/13 Q1018 NOSIG=
EHBK 080655Z AUTO 20006KT 170V240 9999NDV NCD 23/13 Q1019
     NOSIG=
EHDL 080655Z AUTO 23006KT 9999NDV NCD 24/12 Q1019 BLU=
EHEH 080655Z AUTO 18004KT 9999NDV NCD 24/13 Q1019 BLU BLU=
EHGG 080655Z AUTO 21008KT 180V240 9999NDV NSC 22/12 Q1018
     NOSIG=
EHGR 080655Z AUTO 24004KT 9999NDV FEW150 23/13 Q1018 RE// BLU=
EHLW 080655Z AUTO 23007KT 9999NDV SCT120 SCT360 21/16 Q1018 BLU
     BLU=
EHRD 080655Z 25006KT 9999 FEW036 21/13 Q1019 NOSIG=
EHVK 080655Z AUTO 20006KT 9999NDV NCD 24/12 Q1019 BLU=
EHVL 080655Z AUTO 22013KT 9999NDV BKN097 OVC100 19/15 Q1018
     BLU=
EHWO 080655Z AUTO 27005KT 9999NDV FEW370 22/15 Q1019 BLU BLU=
####018000083####
SASN31 KWBC 080650 RRA
METAR
ESMX 080650Z 21004KT 160V280 CAVOK 20/12 Q1020=
####018000284####
SAUK41 KWBC 080650 RRA
METAR
EGDL 080650Z 22004KT 9999 FEW012 SCT035 BKN120 16/13 Q1019 BLU
     NOSIG=
EGDR 080650Z 20003KT 9999 FEW012 BKN120 15/14 Q1018 BLU NOSIG=
EGDY 080650Z 28003KT 9999 FEW010 BKN140 17/14 Q1019 BLU NOSIG=
EGNT 080650Z 18003KT CAVOK 15/11 Q1014=
####018000075####
SAUK32 KWBC 080650 RRA
METAR
EGNT 080650Z 18003KT CAVOK 15/11 Q1014=
####018000393####
SAUK42 KWBC 080650 RRA
METAR
EGOS 080650Z 19005KT 9999 -RA FEW014 BKN100 14/10 Q1017 BLU
     NOSIG=
EGOV 080650Z 21013KT 9999 FEW018 SCT060 BKN200 15/12 Q1016 BLU
     NOSIG=
EGQK 080650Z 21016G27KT 9999 FEW030 SCT060 16/07 Q1007 BLU
     NOSIG=
EGQL 080650Z 23014KT 9999 FEW022 SCT050 14/09 Q1011 BLU NOSIG=
EGQS 080650Z 20011KT 9999 FEW035 SCT050 15/08 Q1007 BLU NOSIG=
####018000115####
SAXX99 KWBC 080600 RRX
METAR
MMLO 080645Z 00000KT 6SM BKN025 OVC070 18/18 A3012 RMK 8/77/ OCNL
     DROPS=
####018000069####
SABZ23 SBGL 080700
METAR SBGL 080700Z 00000KT CAVOK 15/13 Q1019=
####018000100####
SPAU31 AMMC 080658
SPECI YSRI 080657Z AUTO 00000KT 9999NDV // SCT028 BKN037 OVC052 13/11 Q1026=
####018000113####
SAUS44 KMRX 080657
MTRNMM
METAR KNMM 080656Z AUTO 00000KT 10SM CLR 24/22 A3004 RMK AO2 SLP180 
T02390217
####018000117####
SAUS44 KMEG 080657 COR
MTRTUP
METAR KTUP 080653Z AUTO 04003KT 10SM CLR 24/23 A3005 RMK AO2 SLP170 
T02440233
####018000122####
SAUS46 KSGX 080658 COR
MTRNJK
METAR KNJK 080656Z AUTO 26008KT 10SM CLR 28/09 A2967 RMK AO2 SLP06Lj
T02830089 TSNO
####018000121####
SAUS45 KVEF 080658
MTRINS
METAR KINS 080656Z 00000KT 10SM CLR 24/M10 A2990 RMK AO2 SLP066 
T02441100 403670178 $
####018000115####
SAUS44 KBMX 080657
MTRPRN
METAR KPRN 080656Z AUTO 00000KT 10SM CLR 25/22 A3003 RMK AO2 SLP162 
T02500222 $
####018000114####
SAUS43 KUNR 080658
MTR2WX
METAR K2WX 080656Z AUTO 27006KT 13/09 A3015 RMK AO1 SLP202 T01330094 
402390083
####018000131####
SAUS45 KPUB 080658
MTRSPD
METAR KSPD 080656Z AUTO 32008KT 15/13 A3025 RMK AO2 SLP195 P0012 
T01500133 402720144 PWINO TSNO
####018000115####
SAUS44 KSHV 080657
MTRAQV
METAR KAQV 080656Z AUTO 00000KT 10SM CLR 24/23 A2999 RMK AO2 SLP153 
T02440228 $
####018000108####
SAUS43 KFSD 080658
MTRFSD
METAR KFSD 080656Z 28003KT 10SM CLR 16/14 A3016 RMK AO2 SLP209 
T01560144
####018000121####
SAUS46 KSTO 080658
MTRNUQ
METAR KNUQ 080656Z AUTO 02007KT 10SM OVC015 16/12 A2992 RMK AO2 
SLP135 T01610122 TSNO
####018000106####
SPAU31 AMMC 080658
SPECI YSRI 080657Z AUTO 00000KT 9999NDV // SCT028 BKN037 OVC052 13/11 Q1026=


####018000244####
SASY31 OSDI 080700
OSDI 080700Z 22015KT CAVOK 28/07 Q1011=
OSAP 080700Z 28014KT CAVOK 29/19 Q1007=
OSLK 080700Z 20006KT 9999 FEW026 SCT030 27/19 Q1009=
OSDZ 080700Z 02008KT CAVOK 32/15 Q1007=
OSKL 080700Z 28007KT CAVOK 36/05 Q1006=
####018000098####
SAEU31 BKPR 080700
METAR BKPR 080700Z VRB03KT 9999 SCT035 BKN070 15/10 Q1020 NOSIG RMK
BLU=
####018000107####
SAPH31 RPLC 080700
METAR RPLC 080700Z
VRB02KT 9999 FEW020 SCT036 BKN270 31/22 Q1009 A2979 RMK NOSIG=
####018000293####
SANL31 EHDB 080655
METAR EHAM 080655Z 26006KT 220V290 CAVOK 21/13 Q1018 NOSIG=
METAR EHBK 080655Z AUTO 20006KT 170V240 9999NDV NCD 23/13 Q1019
NOSIG=
METAR EHGG 080655Z AUTO 21008KT 180V240 9999NDV NSC 22/12 Q1018
NOSIG=
METAR EHRD 080655Z 25006KT 9999 FEW036 21/13 Q1019 NOSIG=
####018000441####
SAGR33 LGAT 080650
METAR LGHI 080650Z 03007KT 9999 FEW020 27/17 Q1010=
METAR LGKC 080650Z NIL=
METAR LGKF 080650Z 34017KT 9999 FEW025 27/16 Q1013=
METAR LGKP 080650Z 33015KT CAVOK 28/17 Q1007=
METAR LGKZ 080650Z 34011KT 9999 SCT020 SCT070 17/08 Q1017=
METAR LGMK 080650Z 35021G32KT 9999 FEW018 26/16 Q1011=
METAR LGNX 080650Z 35006KT 9999 FEW020 26/20 Q1011=
METAR LGPA 080650Z NIL=
METAR LGSO 080650Z 02009KT CAVOK 27/17 Q1011=
####018000089####
SAUK34 EGGY 080650 CCA
METAR COR EGHK 080650Z 00000KT 9999 FEW028 15/14 Q1018 NOSIG=
####018000468####
SAGR32 LGAT 080650
METAR LGAL 080650Z NIL=
METAR LGEL 080650Z 02011G21KT 9999 FEW025 26/15 Q1011=
METAR LGKV 080650Z 00000KT 9999 SCT020TCU 17/16 Q1013=
METAR LGMT 080650Z 34007KT 9999 FEW020 SCT160 27/14 Q1010=
METAR LGPZ 080650Z 27008KT 9999 FEW025 28/19 Q1013 NOSIG=
METAR LGRX 080650Z 26004KT 9999 FEW025 27/21 Q1012 NOSIG=
METAR LGSK 080650Z NIL=
METAR LGSR 080650Z 29007KT CAVOK 29/15 Q1009 NOSIG=
METAR LGZA 080650Z 36010KT 9999 FEW020 29/16 Q1012=
####018000092####
SASW39 LSSW 080650 RRA
METAR LSMP 080650Z AUTO 00000KT 9999NDV NCD 20/13 Q1022 RMK BLU=
####018000114####
SAUS41 KAKQ 080658
MTRNXX
METAR KNXX 080656Z AUTO 00000KT 7SM CLR 24/19 A3002 RMK AO2 SLP170 
T02440194 $
####018000118####
SAUS46 KMTR 080658
MTRBAN
METAR KBAN 080656Z AUTO 34003KT 10SM CLR 11/02 A3019 RMK AO2 SLP119 
T01110017 TSNO
####018000121####
SAUS43 KDLH 080658
MTRGNA
METAR KGNA 080656Z AUTO 33005KT 19/16 A2998 RMK AO2 SLP144 P0001 
T01890161 PWINO TSNO
####018000117####
SAUS42 KMLB 080658 COR
MTRDAB
METAR KDAB 080653Z 00000KT 10SM FEW026 21/20 A3000 RMK AO2 SLP158 
T02110200 $
####018000118####
SAUS46 KMTR 080658
MTRMHS
METAR KMHS 080656Z AUTO 00000KT 10SM CLR 17/09 A3000 RMK AO2 SLP140 
T01720089 TSNO
####018000118####
SAUS46 KLOX 080658
MTRBIH
METAR KBIH 080656Z AUTO 00000KT 10SM CLR 19/01 A2995 RMK AO2 SLP089 
T01940006 TSNO
####018000112####
SAUS44 KBMX 080658 COR
MTRMGM
METAR KMGM 080653Z 00000KT 10SM CLR 26/23 A3002 RMK AO2 SLP162 
T02610228
####018000117####
SAUS44 KLIX 080658 COR
MTRBTR
METAR KBTR 080653Z 06005KT 10SM SCT200 24/23 A2999 RMK AO2 SLP155 
T02440233 $
####018000084####
SASV40 FDMS 080700
METAR FDMS 080700Z 00000KT 9999 BKN030 15/13 Q1030 NOSIG=

####018000078####
SAZB40 FLLS 080701
METAR FLLS 080700Z 08012KT 9999 BKN015 14/10 Q1029=

####018000125####
SAUS43 KUNR 080658
MTRD07
METAR KD07 080656Z AUTO 25003KT 17/08 A3020 RMK AO2 SLP216 T01670078 
402560106 PWINO TSNO
####018000115####
SAUS43 KABR 080658
MTR8D3
METAR K8D3 080656Z AUTO 26006KT 18/14 A3009 RMK AO2 SLP177 T01780144 
PWINO TSNO
####018000121####
SAUS43 KMQT 080658
MTRP53
METAR KP53 080656Z AUTO 04008KT 19/18 A2995 RMK AO2 SLP140 P0055 
T01890183 PWINO TSNO
####018000920####
SAXX70 KAWN 080700 RRC
METAR KQAJ 080655Z 32012G18KT 9999 CLR 36/00 A2973 RMK SLP056 WND DATA
      ESTMD ALSTG/SLP ESTMD=
METAR KQDM 080655Z AUTO 13007KT 8SM FEW190 29/12 A3026 RMK AO2 SLP121
      T02910116 PWINO $=
METAR KQDP 080655Z AUTO VRB05KT 6SM CLR 33/11 A2999 RMK AO2 SLP049
      T03330114 $=
METAR KQGV 080655Z 31025G33KT 8000 BLDU CLR 44/M04 A2960 RMK SLP013=
METAR KQGX 080655Z 17010KT 8000 HZ FEW170 FEW220 41/20 A2956 RMK AO2A
      SLP010 $=
METAR KQIU 080655Z AUTO VRB04KT 9999 FEW180 27/11 A3023 RMK AO2 SLP125=
METAR KQL5 080655Z 08006KT 9999 FEW150 37/16 A2973 RMK AO2A SLP021
      WND DATA ESTMD ALSTG/SLP ESTMD=
METAR KQTX 080655Z VRB06KT 9999 CLR 38/03 A2969 RMK SLP026=
METAR KQWM 080655Z 31026G33KT 8000 BLDU CLR 43/M03 A2960 RMK PK WND
      31035/25 SLP008 QNH1002=
METAR KQXR 080655Z AUTO 35010KT 8000 FEW230 44/M04 A2951 RMK AO2 SLP992
      T04371042=
####018000078####
SPCN51 CWAO 080657
SPECI CWZZ 080657Z AUTO ///// 9SM BKN027 10/ A2984=

####018000110####
SAUS41 KRNK 080658
MTRROA
METAR KROA 080654Z 32003KT 7SM BKN090 26/19 A3007 RMK AO2 SLP165 
T02610194
####018000110####
SAUS41 KAKQ 080658
MTRRIC
METAR KRIC 080654Z 08003KT 8SM SCT120 27/20 A2997 RMK AO2 SLP151 
T02670200
####018000060####
SAUS45 KTFX 080658
MTR8S0
METAR K8S0 080555Z 26006KT 
####018000120####
SAUS41 KAKQ 080658
MTRWAL
METAR KWAL 080654Z AUTO 15003KT 7SM BKN100 25/23 A2998 RMK AO2 
SLP148 T02500233 TSNO
####018001435####
SAUS17 KAWN 080700 RRB
METAR KADW 080655Z AUTO 08005KT 10SM BKN110 26/22 A2999 RMK AO2 SLP154
      T02610220 $=
METAR KBIX 080655Z AUTO 05003KT 10SM CLR 25/25 A3002 RMK AO2 SLP166
      T02530250=
METAR KBKF 080655Z 34003KT 7SM SCT004 OVC010 14/14 A3035 RMK SLP231=
METAR KCOF 080655Z AUTO 07004KT 10SM CLR 26/ A2998 RMK AO2 SLP154 T0255
      $=
METAR KDLF 080655Z AUTO 06004KT 10SM CLR 25/23 A2994 RMK AO2 SLP122
      T02460227 $=
METAR KFCS 080655Z AUTO 19005KT 10SM BKN050 OVC070 13/12 A3037 RMK
      AO2 SLP215 T01340119 402240126=
METAR KFRI 080655Z AUTO 04003KT 10SM BKN095 OVC110 22/21 A3008 RMK
      AO2 SLP175 T02170214=
METAR KFSI 080655Z AUTO 04006KT 10SM SCT240 24/22 A3003 RMK AO2 SLP149
      T02360216=
METAR KGRK 080655Z 11007KT 7SM SCT015 BKN050 27/23 A2998 RMK SLP130=
METAR KHFF 080655Z AUTO 35004KT 10SM CLR 22/19 A2998 RMK AO2 SLP148
      T02250188 $=
METAR KIWA 080656Z AUTO 10003KT 10SM CLR 34/04 A2979 RMK AO2=
METAR KLHW 080655Z AUTO 25006KT 10SM CLR 23/21 A2999 RMK AO2 SLP158
      T02250207=
METAR KLSV 080655Z AUTO 01005KT 10SM CLR 29/M04 A2981 RMK AO2 SLP067
      T02931038 PWINO=
METAR KMCF 080655Z AUTO 07005KT 10SM CLR 25/23 A3000 RMK AO2 SLP162
      T02490232=
METAR KMIB 080655Z AUTO 28004KT 10SM CLR 13/12 A3008 RMK AO2 SLP186
      T01330119 $=
METAR KMXF 080655Z AUTO 00000KT 10SM CLR 27/24 A3001 RMK AO2 SLP162
      T02700244=
####018001565####
SANA14 KAWN 080700 RRB
METAR KGTB 080655Z AUTO 19005KT 10SM CLR 23/20 A3003 RMK AO2 SLP167
      T02310203=
METAR KNIP 080653Z 26004KT 10SM CLR 24/21 A3002 RMK AO2 SLP162 T02440211=
METAR KNKT 080654Z AUTO 00000KT 10SM CLR 26/19 A2991 RMK AO2 SLP126
      T02560194 $=
METAR KNKX 080655Z 35004KT 10SM OVC016 17/13 A2992 RMK AO2 SLP125 T01670133=
METAR KNRB 080652Z 22005KT 10SM CLR 22/19 A3001 RMK AO2 SLP160 T02220194=
METAR KNYG 080656Z AUTO 30005KT FEW080 BKN120 27/23 A2998 RMK AO2 SLP152
      T02670228=
METAR KPAM 080655Z AUTO 36003KT 9SM CLR 23/23 A3001 RMK AO2 SLP165
      T02290227=
METAR KSGH 080656Z AUTO 00000KT 6SM BR CLR 22/21 A3010 RMK AO2 T02220211
      SLP183=
METAR KSKA 080655Z AUTO 07004KT 10SM CLR 18/08 A3006 RMK AO2 SLP167
      T01800081=
METAR KSLI 080655Z AUTO 00000KT 10SM BKN016 15/13 A2992 RMK AO2 SLP132
      T01540131=
METAR KTBN 080655Z AUTO 15003KT 10SM BKN050 OVC200 23/ A3006 RMK AO2
      SLP160 T0230 $=
METAR KTCM 080655Z AUTO 00000KT 10SM CLR 18/13 A2993 RMK AO2 SLP136
      T01820130=
METAR KTIK 080655Z AUTO 03003KT 10SM OVC021 23/23 A3003 RMK AO2 OVC
      V BKN SLP157 T02350226 $=
METAR KVAD 080655Z AUTO 00000KT 8SM R18/5000VP6000FT CLR 22/20 A3003
      RMK AO2 SLP167 T02230196 $=
METAR KVBG 080655Z AUTO 34005KT 10SM CLR 13/11 A2993 RMK AO2 CIG 010
      RWY12 SLP127 T01280111 401610094 TSNO $=
METAR KVOK 080655Z 24003KT 10SM FEW120 22/22 A3000 RMK AO2A SLP153
      T02220222=
METAR KVPS 080655Z 31002KT 10SM SKC 24/24 A3003 RMK SLP170 T02430237=
####018001546####
SAZZ40 KAWN 080700 RRH
METAR KADW 080655Z AUTO 08005KT 10SM BKN110 26/22 A2999 RMK AO2 SLP154
      T02610220 $=
METAR KFCS 080655Z AUTO 19005KT 10SM BKN050 OVC070 13/12 A3037 RMK
      AO2 SLP215 T01340119 402240126=
METAR KFRI 080655Z AUTO 04003KT 10SM BKN095 OVC110 22/21 A3008 RMK
      AO2 SLP175 T02170214=
METAR KGRK 080655Z 11007KT 7SM SCT015 BKN050 27/23 A2998 RMK SLP130=
METAR KNBG 080655Z AUTO 04003KT 10SM CLR 26/24 A3001 RMK AO2 SLP162
      T02560239 PWINO $=
METAR KNJK 080656Z AUTO 26008KT 10SM CLR 28/09 A2967 RMK AO2 SLP061
      T02830089 TSNO=
METAR KNYG 080656Z AUTO 30005KT FEW080 BKN120 27/23 A2998 RMK AO2 SLP152
      T02670228=
METAR KPAM 080655Z AUTO 36003KT 9SM CLR 23/23 A3001 RMK AO2 SLP165
      T02290227=
METAR KSGH 080656Z AUTO 00000KT 6SM BR CLR 22/21 A3010 RMK AO2 T02220211
      SLP183=
METAR KWJF 080656Z 27009KT 10SM CLR 22/03 A2989 RMK AO2 SLP098 T02220028=
METAR MUGM 080656Z 34003KT 9999 FEW035 SCT095 26/22 A2996 RMK SLP143
      T02560222=
METAR NFFN 080700Z 16005KT 40KM SCT028 SCT048 24/19 Q1013 NOSIG RMK
      RR NIL=
METAR ORSU 080700Z VRB02KT 8000 SKC 37/00 Q1010=
METAR OSAP 080700Z 28014KT CAVOK 29/19 Q1007=
METAR OSDI 080700Z 22015KT CAVOK 28/07 Q1011=
METAR OSLK 080700Z 20006KT 9999 FEW026 SCT030 27/19 Q1009=
METAR PMDY 080656Z AUTO 00000KT 10SM CLR 27/20 A3011 RMK AO2 TSNO T02660200
      SLP501=
METAR TAPA 080700Z 07010KT 9999 FEW020 28/24 Q1014=
METAR TJSJ 080656Z 00000KT 10SM CLR 27/24 A2997 RMK AO2 SLP149 T02720244=
####018002954####
SAUS20 KNKA 080658
METAR KHCO 080654Z AUTO 00000KT 10SM CLR 13/13 A3004 RMK AO2=
METAR KHFJ 080655Z AUTO 00000KT 4SM SCT030 SCT046 BKN065 23/23 
     A3003 RMK AO1=
METAR KHZX 080651Z AUTO 00000KT 7SM CLR 13/13 A3007 RMK AO2=
METAR KIKW 080654Z AUTO 10SM CLR 22/21 A3001 RMK AO2 T02170205=
METAR KJKJ 080655Z AUTO 23003KT 10SM CLR 17/16 A3005 RMK AO2=
METAR KJMR 080658Z AUTO 00000KT 10SM CLR 15/13 A3008 RMK AO2=
METAR KJVL 080655Z AUTO 26006KT 10SM SCT033 SCT042 OVC050 23/20 
     A3001 RMK AO2 T02270199=
METAR KLJF 080652Z AUTO 00000KT 10SM CLR 17/16 A3010 RMK AO2=
METAR KLNL 080655Z AUTO 00000KT 10SM CLR 19/18 A3003 RMK AO2 
     T01900183=
METAR KLRD 080656Z AUTO 00000KT 10SM CLR 27/24 A2991 RMK AO2 
    T02660244 SLP116 $=
METAR KLUM 080655Z AUTO 00000KT 10SM SCT055 BKN070 21/19 A3003 
     RMK AO2=
METAR KLVN 080648Z AUTO 30005KT 10SM CLR 18/17 A3007 RMK AO2=
METAR KLXL 080654Z AUTO 00000KT 5SM BR CLR 13/12 A3007 RMK AO2=
METAR KLYV 080658Z AUTO 00000KT 10SM CLR 14/13 A3015 RMK AO2=
METAR KM89 080656Z AUTO 00000KT 6SM BR OVC004 24/24 A3004 RMK AO2 
    T02440238 SLP185=
METAR KMDS 080645Z AUTO 29005KT 10SM CLR 15/15 A3016 RMK AO2=
METAR KMDZ 080655Z AUTO 29003KT 1SM BR OVC001 19/19 A3003 RMK AO2=
METAR KMGG 080655Z AUTO 28004KT 10SM CLR 17/16 A3009 RMK AO2
     T01680157=
METAR KMJQ 080652Z AUTO 29004KT 7SM CLR 16/15 A3013 RMK AO2=
METAR KMOX 080650Z AUTO 22004KT 10SM CLR 14/14 A3007 RMK AO2=
METAR KMRJ 080655Z AUTO 30004KT 10SM SCT100 20/19 A3002 RMK AO2 
     P0001 T02020186=
METAR KMRT 080653Z AUTO 00000KT 7SM CLR 21/19 A3011 RMK AO2
     T02130192=
METAR KMVE 080654Z AUTO 27004KT 10SM CLR 17/17 A3010 RMK AO2=
METAR KMWC 080655Z AUTO 23003KT 7SM RA SCT060 BKN070 OVC090 21/20 
     A3003 RMK AO2 P0001=
METAR KMWM 080653Z AUTO 26003KT 10SM CLR 15/14 A3013 RMK AO2=
METAR KNTU 080656Z 11005KT 4SM BR CLR 26/24 A2994 RMK AO2 SLP142
     T02560244 $=
METAR KOEO 080655Z AUTO 00000KT 10SM CLR 20/18 A3007 RMK AO2=
METAR KONA 080651Z AUTO 32005KT 10SM CLR 20/18 A3002 RMK AO2=
METAR KOVL 080654Z AUTO 00000KT 10SM CLR 14/12 A3009 RMK AO2
     T01400123=
METAR KPBH 080655Z AUTO 00000KT 4SM BR OVC003 21/19 A3003 RMK AO2=
METAR KPCZ 080655Z AUTO 19003KT 7SM -RA SCT100 SCT120 22/20 A2998 
     RMK AO2 T02170203=
METAR KPEX 080653Z AUTO 24003KT 7SM CLR 13/13 A3010 RMK AO2
     T01340131=
METAR KPNM 080653Z AUTO 28003KT 10SM CLR 16/15 A3007 RMK AO2=
METAR KPQN 080653Z AUTO 30003KT 10SM CLR 16/14 A3015 RMK AO2=
METAR KPWC 080653Z AUTO 00000KT 1/2SM FG BKN001 12/11 A3008 RMK
     AO2=
METAR KRFD 080654Z 00000KT 10SM -RA FEW040 BKN047 OVC070 22/21
     A3004 RMK AO2 SLP167 P0001 T02220211=
METAR KROG 080657Z AUTO 10SM CLR 23/22 A3006 RMK AO2 SLP165 
    T02330222 $=
METAR KROS 080655Z AUTO 31004KT 10SM CLR 18/16 A3006 RMK AO2
     T01830160=
METAR KROX 080654Z AUTO 23005KT 10SM CLR 17/14 A3000 RMK AO2=
####018001150####
SAAK41 KNKA 080658
METAR PACM 080656Z AUTO 17011KT 1 1/2SM RA BR FEW007 SCT024 BKN046 
    12/10 A3008 RMK AO2 TSNO T01220100 RAB26 P0014 SLP183 $=
SPECI PADQ 080656Z 31003KT 1 1/2SM -RA BR BKN006 OVC010 10/09 A2981 
    RMK AO2 P0000 $=
METAR PAGN 080656Z AUTO 00000KT CLR RMK AO2 PWINO TSNO SLPNO $=
METAR PAHC 080656Z AUTO 25004KT 10SM -RA FEW004 SCT050 BKN070 13/11 
    A2999 RMK AO2 TSNO T01270105 RAB04 P0000 SLP158 $=
METAR PAIG 080656Z AUTO 00000KT 10SM FEW023 SCT033 BKN041 09/08 
    A2993 RMK AO2 PWINO TSNO T00940083 SLP140 $=
SPECI PAKF 080656Z AUTO 16004KT 10SM OVC015 08/07 A2994 RMK AO2=
METAR PAMO 080656Z AUTO 15009KT 10SM -RA FEW039 SCT055 SCT110 11/09 
    A3009 RMK AO2 TSNO T01110094 P0000 SLP187 $=
METAR PAOH 080656Z AUTO 00000KT 10SM CLR 13/12 A3022 RMK AO2 TSNO 
    T01270122 SLP233=
METAR PAPM 080656Z AUTO 32008KT +RA CLR 11/09 A3000 RMK AO2 TSNO 
    T01050088 P0000 SLP159 $=
METAR PARS 080656Z AUTO VRB05KT 10SM BKN100 13/09 A3002 RMK AO2 TSNO 
    T01270094 RAB34E46 P0000 SLP168 $=
METAR PATQ 080656Z AUTO 27015KT 10SM CLR 11/03 A3003 RMK AO2 TSNO 
    T01110033 SLP172 $=
####018001796####
SAUS20 KNKA 080658
METAR KRRT 080654Z AUTO 23007KT 10SM CLR 16/13 A3001 RMK AO2=
METAR KRZN 080654Z AUTO 31007KT 10SM OVC047 20/16 A3005 RMK AO2 
     T02000163=
METAR KSAZ 080654Z AUTO 00000KT 10SM CLR 16/16 A3008 RMK AO2=
METAR KSBN 080654Z 11004KT 10SM OVC110 25/21 A3004 RMK AO2 SLP165
     T02500211=
METAR KSGS 080653Z AUTO 32004KT 10SM CLR 21/17 A3006 RMK AO2
     T02060170=
METAR KSHV 080656Z 13003KT 10SM SCT180 BKN280 25/24 A3000 RMK AO2
     SLP154 T02500239=
METAR KSYN 080710Z AUTO 00000KT 10SM CLR 19/18 A3006 RMK AO2
     T01920175=
METAR KTEW 080653Z AUTO 00000KT 10SM CLR 21/20 A3005 RMK AO2=
METAR KTKC 080653Z AUTO 25005KT 10SM CLR 16/14 A3013 RMK AO2
     T01600139=
METAR KTOB 080654Z AUTO 00000KT 10SM CLR 19/18 A3007 RMK AO2=
SPECI KTOP 080657Z AUTO 08007KT 3SM +RA BR BKN015 OVC070 22/21 A3008 
    RMK AO2 P0002=
METAR KTRI 080653Z 00000KT 5SM HZ CLR 23/19 A3010 RMK AO2 SLP171
     T02280189 $=
METAR KTWM 080653Z AUTO 00000KT 10SM SCT050 BKN100 18/15 A3002 RMK
     AO2=
METAR KTYS 080653Z 00000KT 8SM CLR 24/20 A3006 RMK AO2 SLP166
     T02390200=
METAR KULM 080655Z AUTO 00000KT 10SM CLR 16/14 A3010 RMK AO2=
METAR KUNI 080655Z AUTO 00000KT 3SM HZ CLR 23/18 A3008 RMK AO2 
     T02260181=
METAR KVES 080654Z AUTO 00000KT 7SM CLR 21/20 A3008 RMK AO2 
     T02100197=
METAR KVVV 080656Z AUTO 00000KT 10SM CLR 17/14 A3011 RMK AO2=
METAR KY63 080700Z AUTO 20004KT 10SM CLR 16/15 A3009 RMK AO2 
     T01550145=
METAR PACM 080656Z AUTO 17011KT 1 1/2SM RA BR FEW007 SCT024 BKN046 
    12/10 A3008 RMK AO2 TSNO T01220100 RAB26 P0014 SLP183 $=
METAR PAGN 080656Z AUTO 00000KT CLR RMK AO2 PWINO TSNO SLPNO $=
METAR PATQ 080656Z AUTO 27015KT 10SM CLR 11/03 A3003 RMK AO2 TSNO 
    T01110033 SLP172 $=
####018002988####
SAUS20 KNKA 080658
METAR KABQ 080656Z 10018G27KT 10SM OVC130 19/10 A3025 RMK AO2 PK
     WND 11028/0627 SLP155 T01940100 403170183=
METAR KJAX 080656Z 27004KT 10SM CLR 20/19 A3001 RMK AO2 SLP163
     T02000189=
METAR K14Y 080658Z AUTO 00000KT 7SM CLR 15/14 A3010 RMK AO2 
     T01460144=
METAR K29G 080654Z AUTO 00000KT 7SM CLR 20/18 A3010 RMK AO2
     T01980176 PWINO=
METAR KAEL 080651Z AUTO 30004KT 10SM CLR 19/18 A3008 RMK AO2=
METAR KAIT 080653Z AUTO 00000KT 1/2SM FG VV005 13/12 A3007 RMK
     AO2=
METAR KAJO 080656Z AUTO 34004KT 10SM CLR 14/13 A2992 RMK AO2 
    T01440127 SLP127 $=
METAR KANE 080655Z AUTO 30006KT 10SM 19/17 A3007 RMK AO2=
METAR KBBB 080653Z AUTO 00000KT 7SM CLR 15/15 A3011 RMK AO2=
SPECI KBML 080657Z AUTO 00000KT 1/4SM FG SCT001 BKN007 OVC050 19/19 
    A3008 RMK AO2 $=
METAR KCAE 080656Z 26004KT 10SM CLR 26/18 A2999 RMK AO2 SLP152
     T02560183=
METAR KCHS 080656Z 29007KT 10SM CLR 25/20 A2997 RMK AO2 SLP148
     T02500200=
METAR KCVH 080650Z AUTO 26005KT 10SM CLR 13/11 A2993 RMK AO1=
METAR KCWA 080655Z AUTO 00000KT 10SM CLR 20/20 A3001 RMK AO2 
     T01960196=
METAR KDIJ 080656Z AUTO 00000KT 10SM CLR 09/02 A3027 RMK AO2 
    T00880016 402271011 SLP181 $=
METAR KDXX 080654Z AUTO 00000KT 10SM CLR 15/15 A3010 RMK AO2=
METAR KDYT 080654Z AUTO 31006KT 10SM SCT060 SCT100 22/16 A3004 RMK
     AO2=
METAR KEFK 080655Z AUTO 22003KT 5SM BR BKN050 BKN060 BKN075 21/20
     A3005 RMK AO2=
METAR KEFT 080655Z AUTO 00000KT 10SM SCT060 BKN080 OVC090 21/20 
     A3001 RMK AO2 T02110195=
METAR KEGV 080652Z AUTO 27003KT 7SM SCT002 OVC011 19/19 A3002 RMK 
     AO2 T01920193=
METAR KEKQ 080656Z AUTO 00000KT 3SM BR CLR 19/19 A3010 RMK AO2 
    T01940188 SLP188=
METAR KELO 080653Z AUTO 00000KT 10SM CLR 14/14 A3004 RMK AO2=
METAR KETB 080652Z AUTO 27006KT 10SM OVC100 23/21 A3001 RMK AO2 
     P0001 T02250205=
METAR KEVM 080652Z AUTO 00000KT 3SM BR CLR 13/12 A3003 RMK AO1=
METAR KEZS 080655Z AUTO 00000KT 10SM RA SCT009 BKN055 OVC100 
     22/21 A2998 RMK AO2 P0001 T02200211=
METAR KFBL 080654Z AUTO 29005KT 10SM CLR 19/17 A3008 RMK AO2=
METAR KFFM 080653Z AUTO 17003KT 10SM CLR 16/14 A3007 RMK AO2=
METAR KFGN 080654Z AUTO 25007KT 1 1/2SM HZ BKN110 18/14 A2997 RMK
     AO2=
METAR KFSO 080658Z AUTO 00000KT 5SM BR CLR 23/22 A3000 RMK AO2=
METAR KFWA 080654Z 21004KT 10SM CLR 24/20 A3006 RMK AO2 SLP172
     T02390200=
METAR KGDB 080652Z AUTO 00000KT 10SM CLR 14/14 A3013 RMK AO2
     T01420139=
SPECI KGFL 080657Z AUTO 00000KT 3SM BR CLR 22/22 A3002 RMK AO2=
METAR KGHW 080653Z AUTO 21005KT 10SM CLR 14/13 A3013 RMK AO2=
METAR KGLW 080653Z AUTO 00000KT 7SM CLR 21/20 A3007 RMK AO2 
     T02130197=
METAR KGSO 080654Z 00000KT 8SM SCT090 26/18 A3001 RMK AO2 SLP150
     T02610178=
METAR KGYL 080655Z AUTO 30003KT 10SM CLR 17/16 A3009 RMK AO2
     T01680156=
METAR KHCD 080652Z AUTO 29003KT 10SM CLR 15/14 A3009 RMK AO2
     T01520141=
####018000072####
SAYE20 OYAT 080700
METAR OYAT 080700Z 14010KT 9000 NSC 33/15 Q1002=
####018000072####
SAYE20 OYRN 080700
METAR OYRN 080700Z 11006KT 7000 NSC 30/23 Q1003=
####018000081####
SAMJ41 LWSK 080700
METAR LWSK 080700Z 00000KT 9999 BKN050 16/12 Q1019 NOSIG=
####018000114####
SAUS46 KLOX 080658 COR
MTRNXP
METAR KNXP 080656Z AUTO 31004KT CLR 28/02 A2989 RMK AO2 SLP079 
T02780022 $
####018000083####
SABZ24 SBFI 080700
METAR SBFI 080700Z 18002KT 9999 FEW020 SCT100 16/14 Q1015 =
####018000069####
SABZ18 SBGR 080700
METAR SBGR 080700Z 07006KT CAVOK 11/10 Q1021=
####018000122####
SAUS46 KSGX 080658 COR
MTRNJK
METAR KNJK 080656Z AUTO 26008KT 10SM CLR 28/09 A2967 RMK AO2 SLP061 
T02830089 TSNO
####018000086####
SPCN48 CWAO 080657
SPECI CYPH 080657Z AUTO 23017G22KT 3/8SM VV001 06/06 A2976=

####018000075####
SALY31 HLLT 080700
METAR HLLT 080650Z VRB02KT 7000 BKN016 25/19 Q1019=
####018000120####
SAHW40 PHFO 080658
MTRNGF
METAR PHNG 080657Z 06006KT 10SM SCT026 BKN040 25/20 A3004 RMK AO2 
SLP168 T02500200 $
####018000156####
SAZA42 FAJS 080700 RRB
METAR FAWK 080700Z 14010KT 4000 BR NSC 10/// Q1038=
METAR FASK 080700Z 18005KT 7000 NSC 09/// Q1035=
METAR FALM 080700Z NIL=
####018000123####
SAUS41 KAKQ 080658
MTRAKQ
METAR KAKQ 080654Z AUTO 00000KT 3SM BR FEW120 23/21 A2996 RMK AO2 
SLP144 T02330211 TSNO
####018001719####
SAEW KAWN 080700 RRB
METAR EBAW 080650Z 27004KT 240V300 CAVOK 23/13 Q1019 NOSIG=
METAR EBBR 080650Z 19004KT CAVOK 24/13 Q1019 NOSIG=
METAR EBLG 080650Z 18007KT CAVOK 23/09 Q1020 NOSIG=
METAR EBOS 080650Z 27006KT CAVOK 19/13 Q1019 NOSIG=
METAR EDLN 080650Z VRB03KT CAVOK 24/16 Q1019 RMK ATIS E=
METAR EDXW 080650Z 20010KT CAVOK 21/12 Q1018 RMK ATIS INFO M=
METAR EHAM 080655Z 26006KT 220V290 CAVOK 21/13 Q1018 NOSIG=
METAR EHBK 080655Z AUTO 20006KT 170V240 9999NDV NCD 23/13 Q1019 NOSIG=
METAR EHDL 080655Z AUTO 23006KT 9999NDV NCD 24/12 Q1019 BLU=
METAR EHGG 080655Z AUTO 21008KT 180V240 9999NDV NSC 22/12 Q1018 NOSIG=
METAR EHGR 080655Z AUTO 24004KT 9999NDV FEW150 23/13 Q1018 RE// BLU=
METAR EHKD 080655Z AUTO 23009KT 9999NDV SCT120/// 19/15 Q1018 BLU BLU=
METAR EHLW 080655Z AUTO 23007KT 9999NDV SCT120 SCT360 21/16 Q1018 BLU
      BLU=
METAR EHRD 080655Z 25006KT 9999 FEW036 21/13 Q1019 NOSIG=
METAR EHVK 080655Z AUTO 20006KT 9999NDV NCD 24/12 Q1019 BLU=
METAR EHVL 080655Z AUTO 22013KT 9999NDV BKN097 OVC100 19/15 Q1018 BLU=
METAR EHWO 080655Z AUTO 27005KT 9999NDV FEW370 22/15 Q1019 BLU BLU=
METAR ELLX 080650Z VRB03KT CAVOK 22/09 Q1021 NOSIG=
METAR ETAD 080655Z AUTO 07003KT 9999 CLR 22/12 A3016 RMK AO2 SLP199
      T02180121 $=
METAR ETAR 080655Z AUTO 11003KT 9999 CLR 20/13 A3015 RMK AO2 SLP202
      T01980130 $=
METAR ETIC 080656Z AUTO 00000KT 9999 CLR 17/09 A3022 RMK AO2 SLP223
      T01670092 $=
METAR ETIK 080655Z AUTO 00000KT 9999 -RA CLR 21/11 A3021 RMK AO2 RAB0655
      SLP215 P0000 T02070114 $=
METAR ETOU 080655Z AUTO 00000KT 9999 CLR 22/12 A3016 RMK AO2 SLP208
      T02230121=
METAR ETUO 080650Z 00000KT CAVOK 23/12 Q1020 BLU NOSIG=
####018001715####
SAEU KAWN 080700 RRI
METAR EDLN 080650Z VRB03KT CAVOK 24/16 Q1019 RMK ATIS E=
METAR EDXW 080650Z 20010KT CAVOK 21/12 Q1018 RMK ATIS INFO M=
METAR EGDL 080650Z 22004KT 9999 FEW012 SCT035 BKN120 16/13 Q1019 BLU
      NOSIG=
METAR EGOS 080650Z 19005KT 9999 -RA FEW014 BKN100 14/10 Q1017 BLU NOSIG=
METAR EGOV 080650Z 21013KT 9999 FEW018 SCT060 BKN200 15/12 Q1016 BLU
      NOSIG=
METAR EGQL 080650Z 23014KT 9999 FEW022 SCT050 14/09 Q1011 BLU NOSIG=
METAR EGUW 080650Z 21008KT 9999 FEW008 OVC014 18/15 Q1018 GRN TEMPO
      4000 -RADZ GRN=
METAR EGVN 080650Z 26005KT 9999 SCT030 SCT140 BKN200 16/11 Q1019 BLU
      NOSIG=
METAR EGVO 080650Z 22007KT 4000 -RADZ OVC003 16/16 Q1019 YLO2=
METAR EGVP 080650Z 31005KT 3500 -RADZ SCT005 OVC009 16/15 Q1019 YLO1
      BECMG 9999 NSW BKN008 GRN=
METAR EGWC 080650Z 23008KT 9999 SCT018 BKN090 14/10 Q1018=
METAR EGXE 080650Z 20007KT 9999 FEW020 BKN100 15/12 Q1015 BLU NOSIG=
METAR EGXG 080650Z 26007KT CAVOK 15/10 Q1016 BLU=
METAR EGXT 080650Z 23007KT 9999 FEW020 BKN120 BKN150 16/10 Q1017 BLU=
METAR EGXU 080650Z 20007KT 9999 FEW020 SCT090 OVC120 15/11 Q1016 BLU
      NOSIG=
METAR EHDL 080655Z AUTO 23006KT 9999NDV NCD 24/12 Q1019 BLU=
METAR EHGR 080655Z AUTO 24004KT 9999NDV FEW150 23/13 Q1018 RE// BLU=
METAR EHKD 080655Z AUTO 23009KT 9999NDV SCT120/// 19/15 Q1018 BLU BLU=
METAR EHLW 080655Z AUTO 23007KT 9999NDV SCT120 SCT360 21/16 Q1018 BLU
      BLU=
METAR EHVK 080655Z AUTO 20006KT 9999NDV NCD 24/12 Q1019 BLU=
METAR EHVL 080655Z AUTO 22013KT 9999NDV BKN097 OVC100 19/15 Q1018 BLU=
METAR LOXT 080650Z VRB03KT 50KM FEW300CI 18/12 Q1024 NOSIG RMK FEW=
METAR LWSK 080700Z 00000KT 9999 BKN050 16/12 Q1019 NOSIG=
####018003683####
SAUS99 KWBC 080659 RRB
METAR
KROG 080657Z AUTO 10SM CLR 23/22 A3006 RMK AO2 SLP165 T02330222
     $=
KROS 080655Z AUTO 31004KT 10SM CLR 18/16 A3006 RMK AO2
     T01830160=
KROX 080654Z AUTO 23005KT 10SM CLR 17/14 A3000 RMK AO2=
KABQ 080656Z 10018G27KT 10SM OVC130 19/10 A3025 RMK AO2 PK WND
     11028/0627 SLP155 T01940100 403170183=
KJAX 080656Z 27004KT 10SM CLR 20/19 A3001 RMK AO2 SLP163
     T02000189=
K14Y 080658Z AUTO 00000KT 7SM CLR 15/14 A3010 RMK AO2
     T01460144=
K29G 080654Z AUTO 00000KT 7SM CLR 20/18 A3010 RMK AO2 T01980176
     PWINO=
KAEL 080651Z AUTO 30004KT 10SM CLR 19/18 A3008 RMK AO2=
KAIT 080653Z AUTO 00000KT 1/2SM FG VV005 13/12 A3007 RMK AO2=
KAJO 080656Z AUTO 34004KT 10SM CLR 14/13 A2992 RMK AO2 T01440127
     SLP127 $=
KANE 080655Z AUTO 30006KT 10SM 19/17 A3007 RMK AO2=
KBBB 080653Z AUTO 00000KT 7SM CLR 15/15 A3011 RMK AO2=
KCAE 080656Z 26004KT 10SM CLR 26/18 A2999 RMK AO2 SLP152
     T02560183=
KCHS 080656Z 29007KT 10SM CLR 25/20 A2997 RMK AO2 SLP148
     T02500200=
KCVH 080650Z AUTO 26005KT 10SM CLR 13/11 A2993 RMK AO1=
KCWA 080655Z AUTO 00000KT 10SM CLR 20/20 A3001 RMK AO2
     T01960196=
KDIJ 080656Z AUTO 00000KT 10SM CLR 09/02 A3027 RMK AO2 T00880016
     402271011 SLP181 $=
KDXX 080654Z AUTO 00000KT 10SM CLR 15/15 A3010 RMK AO2=
KDYT 080654Z AUTO 31006KT 10SM SCT060 SCT100 22/16 A3004 RMK
     AO2=
KEFK 080655Z AUTO 22003KT 5SM BR BKN050 BKN060 BKN075 21/20 A3005
     RMK AO2=
KEFT 080655Z AUTO 00000KT 10SM SCT060 BKN080 OVC090 21/20 A3001
     RMK AO2 T02110195=
KEGV 080652Z AUTO 27003KT 7SM SCT002 OVC011 19/19 A3002 RMK AO2
     T01920193=
KEKQ 080656Z AUTO 00000KT 3SM BR CLR 19/19 A3010 RMK AO2 T01940188
     SLP188=
KELO 080653Z AUTO 00000KT 10SM CLR 14/14 A3004 RMK AO2=
KETB 080652Z AUTO 27006KT 10SM OVC100 23/21 A3001 RMK AO2 P0001
     T02250205=
KEVM 080652Z AUTO 00000KT 3SM BR CLR 13/12 A3003 RMK AO1=
KEZS 080655Z AUTO 00000KT 10SM RA SCT009 BKN055 OVC100 22/21 A2998
     RMK AO2 P0001 T02200211=
KFBL 080654Z AUTO 29005KT 10SM CLR 19/17 A3008 RMK AO2=
KFFM 080653Z AUTO 17003KT 10SM CLR 16/14 A3007 RMK AO2=
KFGN 080654Z AUTO 25007KT 1 1/2SM HZ BKN110 18/14 A2997 RMK
     AO2=
KFSO 080658Z AUTO 00000KT 5SM BR CLR 23/22 A3000 RMK AO2=
KFWA 080654Z 21004KT 10SM CLR 24/20 A3006 RMK AO2 SLP172
     T02390200=
KGDB 080652Z AUTO 00000KT 10SM CLR 14/14 A3013 RMK AO2
     T01420139=
KGHW 080653Z AUTO 21005KT 10SM CLR 14/13 A3013 RMK AO2=
KGLW 080653Z AUTO 00000KT 7SM CLR 21/20 A3007 RMK AO2
     T02130197=
KGSO 080654Z 00000KT 8SM SCT090 26/18 A3001 RMK AO2 SLP150
     T02610178=
KGYL 080655Z AUTO 30003KT 10SM CLR 17/16 A3009 RMK AO2
     T01680156=
KHCD 080652Z AUTO 29003KT 10SM CLR 15/14 A3009 RMK AO2
     T01520141=
KRRT 080654Z AUTO 23007KT 10SM CLR 16/13 A3001 RMK AO2=
KRZN 080654Z AUTO 31007KT 10SM OVC047 20/16 A3005 RMK AO2
     T02000163=
KSAZ 080654Z AUTO 00000KT 10SM CLR 16/16 A3008 RMK AO2=
KSBN 080654Z 11004KT 10SM OVC110 25/21 A3004 RMK AO2 SLP165
     T02500211=
KSGS 080653Z AUTO 32004KT 10SM CLR 21/17 A3006 RMK AO2
     T02060170=
KSHV 080656Z 13003KT 10SM SCT180 BKN280 25/24 A3000 RMK AO2 SLP154
     T02500239=
KSYN 080710Z AUTO 00000KT 10SM CLR 19/18 A3006 RMK AO2
     T01920175=
KTEW 080653Z AUTO 00000KT 10SM CLR 21/20 A3005 RMK AO2=
KTKC 080653Z AUTO 25005KT 10SM CLR 16/14 A3013 RMK AO2
     T01600139=
KTOB 080654Z AUTO 00000KT 10SM CLR 19/18 A3007 RMK AO2=
KTRI 080653Z 00000KT 5SM HZ CLR 23/19 A3010 RMK AO2 SLP171
     T02280189 $=
KTWM 080653Z AUTO 00000KT 10SM SCT050 BKN100 18/15 A3002 RMK
     AO2=
####018003748####
SAUS99 KWBC 080659 RRA
METAR
KUOX 080655Z AUTO 00000KT 10SM CLR 23/21 A3007 RMK AO2=
KWJF 080656Z 27009KT 10SM CLR 22/03 A2989 RMK AO2 SLP098
     T02220028=
PGUA 080655Z AUTO 08014KT 10SM BKN018 BKN025 28/ A2985 RMK AO2 CIG
     016V021 SLP091 T0278 VISNO RWY24L $=
TJSJ 080656Z 00000KT 10SM CLR 27/24 A2997 RMK AO2 SLP149
     T02720244=
PACM 080656Z AUTO 17011KT 1 1/2SM RA BR FEW007 SCT024 BKN046 12/10
     A3008 RMK AO2 TSNO T01220100 RAB26 P0014 SLP183 $=
PAGN 080656Z AUTO 00000KT CLR RMK AO2 PWINO TSNO SLPNO $=
PAHC 080656Z AUTO 25004KT 10SM -RA FEW004 SCT050 BKN070 13/11
     A2999 RMK AO2 TSNO T01270105 RAB04 P0000 SLP158 $=
PAIG 080656Z AUTO 00000KT 10SM FEW023 SCT033 BKN041 09/08 A2993
     RMK AO2 PWINO TSNO T00940083 SLP140 $=
PAMO 080656Z AUTO 15009KT 10SM -RA FEW039 SCT055 SCT110 11/09
     A3009 RMK AO2 TSNO T01110094 P0000 SLP187 $=
PAOH 080656Z AUTO 00000KT 10SM CLR 13/12 A3022 RMK AO2 TSNO
     T01270122 SLP233=
PAPM 080656Z AUTO 32008KT +RA CLR 11/09 A3000 RMK AO2 TSNO
     T01050088 P0000 SLP159 $=
PARS 080656Z AUTO VRB05KT 10SM BKN100 13/09 A3002 RMK AO2 TSNO
     T01270094 RAB34E46 P0000 SLP168 $=
PATQ 080656Z AUTO 27015KT 10SM CLR 11/03 A3003 RMK AO2 TSNO
     T01110033 SLP172 $=
KHCO 080654Z AUTO 00000KT 10SM CLR 13/13 A3004 RMK AO2=
KHFJ 080655Z AUTO 00000KT 4SM SCT030 SCT046 BKN065 23/23 A3003 RMK
     AO1=
KHZX 080651Z AUTO 00000KT 7SM CLR 13/13 A3007 RMK AO2=
KIKW 080654Z AUTO 10SM CLR 22/21 A3001 RMK AO2 T02170205=
KJKJ 080655Z AUTO 23003KT 10SM CLR 17/16 A3005 RMK AO2=
KJMR 080658Z AUTO 00000KT 10SM CLR 15/13 A3008 RMK AO2=
KJVL 080655Z AUTO 26006KT 10SM SCT033 SCT042 OVC050 23/20 A3001
     RMK AO2 T02270199=
KLJF 080652Z AUTO 00000KT 10SM CLR 17/16 A3010 RMK AO2=
KLNL 080655Z AUTO 00000KT 10SM CLR 19/18 A3003 RMK AO2
     T01900183=
KLRD 080656Z AUTO 00000KT 10SM CLR 27/24 A2991 RMK AO2 T02660244
     SLP116 $=
KLUM 080655Z AUTO 00000KT 10SM SCT055 BKN070 21/19 A3003 RMK
     AO2=
KLVN 080648Z AUTO 30005KT 10SM CLR 18/17 A3007 RMK AO2=
KLXL 080654Z AUTO 00000KT 5SM BR CLR 13/12 A3007 RMK AO2=
KLYV 080658Z AUTO 00000KT 10SM CLR 14/13 A3015 RMK AO2=
KM89 080656Z AUTO 00000KT 6SM BR OVC004 24/24 A3004 RMK AO2
     T02440238 SLP185=
KMDS 080645Z AUTO 29005KT 10SM CLR 15/15 A3016 RMK AO2=
KMDZ 080655Z AUTO 29003KT 1SM BR OVC001 19/19 A3003 RMK AO2=
KMGG 080655Z AUTO 28004KT 10SM CLR 17/16 A3009 RMK AO2
     T01680157=
KMJQ 080652Z AUTO 29004KT 7SM CLR 16/15 A3013 RMK AO2=
KMOX 080650Z AUTO 22004KT 10SM CLR 14/14 A3007 RMK AO2=
KMRJ 080655Z AUTO 30004KT 10SM SCT100 20/19 A3002 RMK AO2 P0001
     T02020186=
KMRT 080653Z AUTO 00000KT 7SM CLR 21/19 A3011 RMK AO2
     T02130192=
KMVE 080654Z AUTO 27004KT 10SM CLR 17/17 A3010 RMK AO2=
KMWC 080655Z AUTO 23003KT 7SM RA SCT060 BKN070 OVC090 21/20 A3003
     RMK AO2 P0001=
KMWM 080653Z AUTO 26003KT 10SM CLR 15/14 A3013 RMK AO2=
KNTU 080656Z 11005KT 4SM BR CLR 26/24 A2994 RMK AO2 SLP142
     T02560244 $=
KOEO 080655Z AUTO 00000KT 10SM CLR 20/18 A3007 RMK AO2=
KONA 080651Z AUTO 32005KT 10SM CLR 20/18 A3002 RMK AO2=
KOVL 080654Z AUTO 00000KT 10SM CLR 14/12 A3009 RMK AO2
     T01400123=
KPBH 080655Z AUTO 00000KT 4SM BR OVC003 21/19 A3003 RMK AO2=
KPCZ 080655Z AUTO 19003KT 7SM -RA SCT100 SCT120 22/20 A2998 RMK
     AO2 T02170203=
KPEX 080653Z AUTO 24003KT 7SM CLR 13/13 A3010 RMK AO2
     T01340131=
KPNM 080653Z AUTO 28003KT 10SM CLR 16/15 A3007 RMK AO2=
KPQN 080653Z AUTO 30003KT 10SM CLR 16/14 A3015 RMK AO2=
KPWC 080653Z AUTO 00000KT 1/2SM FG BKN001 12/11 A3008 RMK AO2=
KRFD 080654Z 00000KT 10SM -RA FEW040 BKN047 OVC070 22/21 A3004 RMK
     AO2 SLP167 P0001 T02220211=
####018003713####
SAUS99 KWBC 080659
METAR
KSDF 080656Z 00000KT 8SM CLR 27/21 A3005 RMK AO2 SLP171
     T02720206=
K1P1 080655Z AUTO 00000KT 1/2SM FG VV005 22/21 A3005 RMK AO2
     T02230211=
KART 080656Z AUTO 00000KT 7SM CLR 22/20 A3002 RMK AO2 SLP161
     T02220200=
KBED 080656Z AUTO 21003KT 2 1/2SM BR OVC009 23/22 A3003 RMK AO2
     SLP180 T02330217=
KBJJ 080656Z AUTO 00000KT 4SM BR CLR 19/18 A3010 RMK AO2 SLP182
     T01940183=
KBVU 080655Z AUTO 32003KT 10SM CLR 27/02 A2984 RMK AO2=
KBZN 080656Z AUTO 19004KT 10SM CLR 12/05 A3026 RMK AO2 SLPNO
     T01170050 402610039=
KCEC 080656Z AUTO 00000KT 2SM BR OVC001 11/09 A2997 RMK AO2 SLP151
     T01060094=
KCTB 080656Z AUTO 21004KT 10SM CLR 13/06 A3024 RMK AO2 SLP218
     T01330061 402440050=
KCXY 080656Z AUTO 00000KT 6SM HZ CLR 24/19 A3001 RMK AO2 SLP159
     T02390194=
KDAY 080656Z 23004KT 9SM CLR 24/18 A3009 RMK AO2 SLP179 T02390183
     $=
KDIK 080656Z AUTO 24003KT 10SM SCT095 11/09 A3015 RMK AO2 SLP204
     T01060094 402440067=
KE80 080655Z AUTO 28004KT 10SM CLR 20/11 A3022 RMK AO2
     T02040106=
KEAU 080656Z AUTO 23005KT 9SM SCT060 20/19 A3001 RMK AO2 SLP155
     T02000194=
KEDC 080655Z AUTO 04003KT OVC010 25/24 A2997 RMK AO2=
KEED 080656Z AUTO 00000KT 10SM CLR 34/M03 A2972 RMK AO2 SLP026
     T03441028 TSNO=
KEIK 080655Z AUTO 22004KT 5SM -RA OVC085 15/14 A3032 RMK AO2=
KELZ 080656Z AUTO 00000KT 5SM BR CLR 19/18 A3016 RMK AO2 SLP197
     T01940183=
KEOE 080655Z AUTO 00000KT 10SM 23/20 A3003 RMK AO2=
KFMH 080655Z AUTO 16006KT 1SM BR OVC002 21/20 A3007 RMK AO2=
KGON 080656Z AUTO 11008KT 7SM OVC009 23/21 A3004 RMK AO2 CIG
     005V011 SLP171 T02330211=
KHND 080656Z AUTO 17007KT 10SM CLR 29/M03 A2986 RMK AO2 T02941033
     404000222 SLP054=
KHPN 080656Z 12003KT 4SM BR CLR 23/21 A3003 RMK AO2 SLP161
     T02330211=
KHWV 080656Z AUTO 13004KT 2 1/2SM BR SCT002 BKN009 OVC013 25/24
     A3003 RMK AO2 CIG 007V010 SLP169 T02500244=
KHYA 080656Z AUTO 16004KT 1SM BR OVC001 21/21 A3006 RMK AO2 SLP181
     T02110206=
KIFP 080655Z AUTO 08003KT 10SM CLR 33/M02 A2971 RMK AO2=
KISP 080656Z 14004KT 4SM HZ FEW007 SCT050 BKN100 OVC130 26/23
     A3001 RMK AO2 RAB24E29 SLP160 P0000 T02560228=
KITH 080656Z AUTO 08004KT 6SM BR CLR 21/19 A3010 RMK AO2 T02050188
     SLP183=
KJMS 080656Z AUTO 00000KT 10SM CLR 13/13 A3008 RMK AO2 SLP186
     T01330128=
KJXN 080656Z 00000KT 10SM CLR 23/22 A3005 RMK AO2 SLP169
     T02280217=
KLAS 080656Z 21009KT 10SM CLR 30/M04 A2979 RMK AO2 SLP057
     T03001044=
KLNR 080656Z AUTO 24005KT 10SM FEW006 SCT038 21/19 A3002 RMK AO2
     RAE52 SLP155 P0001 T02110189=
KMAN 080655Z AUTO 00000KT 10SM CLR 17/08 A3002 RMK AO1=
KMDT 080656Z 00000KT 6SM HZ CLR 27/20 A3000 RMK AO2 SLP155
     T02670200=
KOFK 080656Z AUTO 29003KT 10SM CLR 16/15 A3018 RMK AO2 SLP211
     T01610150=
KPVF 080655Z AUTO 00000KT 10SM FEW041 22/11 A2993 RMK AO1=
KRBW 080655Z AUTO 28005KT 10SM CLR 23/20 A2999 RMK AO2=
KRCM 080655Z AUTO 00000KT 7SM SCT002 SCT021 OVC036 22/22 A3004 RMK
     AO2 P0001=
KRDM 080656Z AUTO 30006KT 10SM CLR 21/03 A3003 RMK AO2 SLP141
     T02060033 $=
KSBP 080656Z AUTO 31006KT 10SM OVC011 14/11 A2991 RMK AO2 SLP129
     T01390111 $=
KSGH 080656Z AUTO 00000KT 6SM BR CLR 22/21 A3010 RMK AO2 T02220211
     SLP183=
KSGJ 080658Z AUTO 28003KT 10SM CLR 22/20 A3001 RMK AO2 SLP163
     T02170200=
KSLE 080656Z AUTO 00000KT 10SM CLR 23/09 A2983 RMK AO2 SLP100
     T02330094=
KSNC 080655Z AUTO 00000KT 1 1/2SM BR OVC001 22/ A3005 RMK AO2=
KTME 080655Z AUTO 00000KT 6SM 25/25 A2994 RMK AO1=
KUKI 080656Z AUTO 16005KT 10SM CLR 16/11 A2990 RMK AO2 SLP120
     T01610111=
####018000413####
SPUS99 KWBC 080659
SPECI
PADQ 080656Z 31003KT 1 1/2SM -RA BR BKN006 OVC010 10/09 A2981 RMK
     AO2 P0000 $=
PAKF 080656Z AUTO 16004KT 10SM OVC015 08/07 A2994 RMK AO2=
KBML 080657Z AUTO 00000KT 1/4SM FG SCT001 BKN007 OVC050 19/19
     A3008 RMK AO2 $=
KGFL 080657Z AUTO 00000KT 3SM BR CLR 22/22 A3002 RMK AO2=
KTOP 080657Z AUTO 08007KT 3SM +RA BR BKN015 OVC070 22/21 A3008 RMK
     AO2 P0002=
####018000727####
SAUS99 KWBC 080659 RRC
METAR
KTYS 080653Z 00000KT 8SM CLR 24/20 A3006 RMK AO2 SLP166
     T02390200=
KULM 080655Z AUTO 00000KT 10SM CLR 16/14 A3010 RMK AO2=
KUNI 080655Z AUTO 00000KT 3SM HZ CLR 23/18 A3008 RMK AO2
     T02260181=
KVES 080654Z AUTO 00000KT 7SM CLR 21/20 A3008 RMK AO2
     T02100197=
KVVV 080656Z AUTO 00000KT 10SM CLR 17/14 A3011 RMK AO2=
KY63 080700Z AUTO 20004KT 10SM CLR 16/15 A3009 RMK AO2
     T01550145=
PACM 080656Z AUTO 17011KT 1 1/2SM RA BR FEW007 SCT024 BKN046 12/10
     A3008 RMK AO2 TSNO T01220100 RAB26 P0014 SLP183 $=
PAGN 080656Z AUTO 00000KT CLR RMK AO2 PWINO TSNO SLPNO $=
PATQ 080656Z AUTO 27015KT 10SM CLR 11/03 A3003 RMK AO2 TSNO
     T01110033 SLP172 $=
####018000104####
SPAU31 KWBC 080659
SPECI
YSRI 080657Z AUTO 00000KT 9999NDV // SCT028 BKN037 OVC052 13/11
Q1026=
####018000108####
SAAK48 PANC 080658
MTRASY
METAR PASY 080656Z AUTO 02017KT 10SM OVC006 A2973 RMK AO2 SLPNO TSNO
 PNO
####018000118####
SAUS46 KLOX 080658
MTRNID
METAR KNID 080656Z AUTO 19007KT FEW090 27/03 A2982 RMK AO2 SLP071 
T02720033 TSNO $
####018000075####
SAMA20 FIMP 080700
METAR FIMP 080700Z 12015KT 9999 BKN016 24/17 Q1024=
####018000123####
SAHW40 PHFO 080659
MTRBKH
METAR PHBK 080656Z AUTO 27005KT 10SM SCT080 27/19 A3001 RMK AO2 
SLP164 T02720194 TSNO $
####018000073####
SAAT31 TAPA 080656
METAR TAPA 080700Z 07010KT 9999  FEW020 28/24 Q1014=####018000078####
SAZB40 FLLS 080700
METAR FLLS 080700Z 08012KT 9999 BKN015 14/10 Q1029=

####018000089####
SAUK31 EGGY 080650 CCA
METAR COR EGCC 080650Z 20008KT 9999 FEW027 14/12 Q1017 NOSIG=
####018000167####
SANL32 EHDB 080655
METAR EHEH 080655Z AUTO 18004KT 9999NDV NCD 24/13 Q1019 
BLU BLU=
METAR EHKD 080655Z AUTO 23009KT 9999NDV SCT120/// 19/15 Q1018 
BLU BLU=
####018000089####
SAUK33 EGGY 080650 CCA
METAR COR EGPB 080650Z 20014KT 9999 FEW020 13/10 Q1005 NOSIG=
####018000102####
SPAU32 YBBN 080658
SPECI YSRI 080657Z AUTO 00000KT 9999NDV // SCT028 BKN037 OVC052 13/11
Q1026=
####018000124####
SAUS46 KSEW 080659 COR
MTRSMP
METAR KSMP 080656Z AUTO 00000KT 10SM CLR 18/03 A3015 RMK AO2 SLP178 
T01780033 TSNO $
####018000435####
SAGL KAWN 080700
METAR BGBW 080650Z 08002KT 9999 FEW068 09/04 Q1009 RMK 1AC=
METAR BGCO 080650Z 02016KT 9999 FEW080 BKN110 04/00 Q1008=
METAR BGGH 080650Z AUTO 26003KT 9999NDV OVC003/// 05/03 Q1010=
METAR BGJN 080650Z AUTO 26002KT 0350NDV FG VV001/// 05/05 Q1010=
METAR BGSF 080650Z 07006KT 9999 FEW070 07/02 Q1009=
METAR BGTL 080655Z AUTO 00000KT 9999 OVC002 05/05 A2985 RMK AO2 VIS
      4000 RWY26 SLP112 T00480046=
####018000079####
SARS18 KAWN 080700 RRA
METAR ESSA 080650Z 28009KT CAVOK 20/11 Q1017 NOSIG=
####018001385####
SAXX60 KAWN 080700
METAR KHLR 080656Z AUTO 11005KT 10SM BKN015 BKN055 26/26 A2999 RMK
      AO2 SLP146 T02610261 $=
METAR PGSN 080654Z 08010KT 10SM SCT023 SCT080 29/23 A2985 RMK AO2 RAB41E50
      SLP107 P0000 T02890228=
METAR PGUA 080655Z AUTO 08014KT 10SM BKN018 BKN025 28/ A2985 RMK AO2
      CIG 016V021 SLP091 T0278 VISNO RWY24L $=
METAR PGUM 080654Z 09012G19KT 10SM FEW024 SCT031 30/24 A2985 RMK AO2
      SLP098 T03000239=
METAR PHHI 080655Z AUTO 05005KT 10SM FEW035 SCT055 22/18 A3005 RMK
      AO2 SLP167 T02180180=
METAR PHJR 080653Z VRB03KT 10SM FEW060 24/18 A3003 RMK AO2 SLP176 T02390183=
METAR PHKO 080653Z 09006KT 10SM CLR 25/16 A2999 RMK AO2 SLP155 T02500161=
METAR PHMK 080654Z AUTO 04006KT 10SM CLR 23/19 A3004 RMK AO2 SLP174
      T02280194 TSNO=
METAR PHNL 080653Z 02007KT 10SM FEW029 SCT047 24/18 A3003 RMK AO2 RAB15E53
      SLP167 P0000 T02440183=
METAR PHOG 080654Z 03013KT 10SM FEW030 SCT050 25/18 A3003 RMK AO2 SLP173
      T02500183=
METAR PHTO 080653Z 06003KT 10SM SCT029 SCT050 OVC065 24/18 A3003 RMK
      AO2 SLP169 T02440183=
METAR PWAK 080652Z 08015G18KT 8SM HZ FEW020 FEW030 28/24 A2996 RMK
      AO2A=
METAR RJTY 080655Z AUTO 18009KT 9999 CLR 29/22 A2984 RMK AO2 SLP098
      T02890224 $=
METAR RODN 080655Z AUTO 19011KT 9999 BKN022 BKN029 30/26 A2982 RMK
      AO2 CIG 020V026 SLP096 T03000259=
####018000111####
SAUS46 KLOX 080659
MTR3A6
METAR K3A6 080750Z AUTO 36003KT 11/10 A2990 RMK AO1 SLP143 T01140101 402620107
####018000612####
SAAK41 KNKA 080659
SPECI PABA 080657Z AUTO 27006KT 10SM -RA BKN005 OVC012 02/02 A3005 
    RMK AO2 RAB50 P0000 FZRANO=
METAR PAFS 080656Z AUTO VRB06KT 10SM CLR 18/05 A2999 RMK AO2 TSNO 
    T01770050 SLP163 $=
METAR PAIW 080657Z AUTO 22004KT 10SM CLR 09/06 A3018 RMK AO2 SLP314 
    T00890061=
METAR PAMB 080656Z AUTO 01009KT 10SM SCT050 11/08 A2993 RMK AO2 
    PWINO TSNO T01110083 SLP138 $=
METAR PAVA 080657Z AUTO 11005KT 10SM FEW032 BKN060 OVC070 13/10 
    A3010 RMK AO2 SLP194 T01330100=
METAR PPIZ 080656Z AUTO 21010KT 10SM CLR 07/03 A3011 RMK AO2 TSNO 
    T00660027 SLP198 $=
####018002814####
SAUS20 KNKA 080659
METAR KAEJ 080655Z AUTO 29003KT 10SM SCT039 OVC046 09/07 A3045 RMK 
     AO2=
METAR KBBF 080755Z AUTO VRB08G19KT 10SM FEW026 30/27 A2982 RMK A01=
METAR KBIX 080655Z AUTO 05003KT 10SM CLR 25/25 A3002 RMK AO2 SLP166
      T02530250=
METAR KBQX 080655Z AUTO 11011G21KT FEW020 SCT029 OVC050 29/26
     A2986 RMK A01=
METAR KDLP 080655Z AUTO 12013KT 9SM CLR 28/25 A2998 RMK A01=
METAR KEDU 080655Z AUTO 15005KT 10SM CLR 16/10 A2981 RMK AO1=
METAR KEHC 080655Z AUTO 12025KT 7SM FEW035 FEW045 SCT070 28/25
     A2993 RMK A01=
METAR KEIR 080655Z AUTO VRB05G15KT 9SM FEW019 SCT024 28/25 A2997
     RMK A01=
METAR KEMK 080655Z AUTO 14027G35KT 5SM HZ FEW046 BKN060 OVC095
     28/25 A2987 RMK A01=
METAR KGBK 080655Z AUTO 10020G26KT 10SM FEW021 29/25 A2990 RMK A01=
METAR KGTB 080655Z AUTO 19005KT 10SM CLR 23/20 A3003 RMK AO2 SLP167
      T02310203=
METAR KGYH 080655Z AUTO 29003KT 10SM CLR 25/19 A3003 RMK AO2=
METAR KHFF 080655Z AUTO 35004KT 10SM CLR 22/19 A2998 RMK AO2 SLP148
      T02250188 $=
METAR KHQI 080655Z AUTO 09027KT 6SM HZ FEW025 FEW030 SCT036 29/26
     A2989 RMK A01=
METAR KHXD 080655Z AUTO 22007KT 10SM CLR 25/20 A2999 RMK AO2 P0000 
     =
METAR KHYW 080655Z AUTO 00000KT 7SM SCT120 25/23 A2994 RMK AO2=
METAR KIPN 080655Z AUTO 09014KT 10SM 59/54 A2998 RMK A01=
METAR KJZI 080655Z AUTO 28006KT 10SM CLR 24/24 A2997 RMK A02 P000 
     =
METAR KMCF 080655Z AUTO 07005KT 10SM CLR 25/23 A3000 RMK AO2 SLP162
      T02490232=
METAR KMCJ 080655Z AUTO 11010KT 7SM FEW025 27/24 A2990 RMK AO1 =
METAR KMDJ 080655Z AUTO 13017KT 10SM SCT045 BKN055 29/24 A3000 RMK
     A01=
METAR KMEI 080658Z AUTO 00000KT 10SM CLR 23/23 A3004 RMK AO2 SLP169 
    T02330228=
METAR KMHR 080655Z AUTO 19006KT 10SM CLR 15/10 A2984 RMK AO1=
METAR KMIU 080655Z AUTO 10015KT 8SM FEW016 SCT043 BKN050 29/26
     A2982 RMK A01=
METAR KMXF 080655Z AUTO 00000KT 10SM CLR 27/24 A3001 RMK AO2 SLP162
      T02700244=
METAR KMYT 080655Z AUTO 13015KT 10SM CLR 28/24 A2996 RMK A01=
METAR KMZG 080655Z AUTO VRB03KT 9SM FEW022 SCT029 SCT034 29/25
     A2982 RMK A01=
METAR KNRB 080652Z 22005KT 10SM CLR 22/19 A3001 RMK AO2 SLP160 T02220194=
METAR KPAM 080655Z AUTO 36003KT 9SM CLR 23/23 A3001 RMK AO2 SLP165
      T02290227=
METAR KSCF 080700Z AUTO 15020KT 8SM FEW017 BKN024 BKN029 29/26
     A2992 RMK A01=
METAR KSPF 080655Z AUTO 21003KT 10SM CLR 11/08 A3028 RMK AO2 =
METAR KVAD 080655Z AUTO 00000KT 8SM R18/5000VP6000FT CLR 22/20 A3003
      RMK AO2 SLP167 T02230196 $=
METAR KVBS 080655Z AUTO 12022G28KT 10SM FEW022 SCT028 29/25 A2993
     RMK A01=
METAR KVNP 080655Z AUTO 10009G15KT 8SM 28/26 A2997 RMK A01=
METAR KY50 080656Z AUTO 19005KT 4SM BR OVC002 22/22 A3000 RMK AO2 
    T02220222 RAE44 P0000 SLP151 $=
####018000113####
SAUS42 KCHS 080659
MTRNBC
METAR KNBC 080656Z AUTO 26005KT 10SM CLR 24/19 A2998 RMK AO2 SLP151 
T02440189
####018000114####
SAUS46 KLOX 080659 COR
MTRNXP
METAR KNXP 080656Z AUTO 31004KT CLR 28/02 A2989 RMK AO2 SLP079 
T02780022 $
####018000191####
SPAU31 AMMC 080659
SPECI YPPH 080657Z 36014KT 2000 SHRA SCT018 BKN060 FEW022CB 15/14 Q1000
     FM0657 33018G28KT 9999 -SHRA BKN020
     INTER 0657/0957 27025G35KT 3000 +SHRA BKN010=
####018000197####
SPAU31 AMMC 080659
SPECI YPPH 080657Z 36014KT 2000 SHRA SCT018 BKN060 FEW022CB 15/14 Q1000
     FM0657 33018G28KT 9999 -SHRA BKN020
     INTER 0657/0957 27025G35KT 3000 +SHRA BKN010=


####018000123####
SAUS46 KSGX 080659
MTRNRS
METAR KNRS 080656Z AUTO 30006KT 10SM OVC018 17/13 A2992 RMK AO2 
SLP130 T01720128 TSNO $
####018000730####
SAUS90 KWBC 080700 CCA
METAR KTUP 080653Z AUTO 04003KT 10SM CLR 24/23 A3005 RMK AO2
     SLP170 T02440233=
METAR KDAB 080653Z 00000KT 10SM FEW026 21/20 A3000 RMK AO2 SLP158
     T02110200 $=
METAR KBTR 080653Z 06005KT 10SM SCT200 24/23 A2999 RMK AO2 SLP155
     T02440233 $=
METAR KMGM 080653Z 00000KT 10SM CLR 26/23 A3002 RMK AO2 SLP162
     T02610228=
METAR KNXP 080656Z AUTO 31004KT CLR 28/02 A2989 RMK AO2 SLP079
     T02780022 $=
METAR KSMP 080656Z AUTO 00000KT 10SM CLR 18/03 A3015 RMK AO2
     SLP178 T01780033 TSNO $=
METAR KNXP 080656Z AUTO 31004KT CLR 28/02 A2989 RMK AO2 SLP079
     T02780022 $=
METAR KMCN 080653Z AUTO 12003KT 10SM CLR 22/20 A3003 RMK AO2
     SLP163 T02170200 TSNO=
####018000055####
SAUS90 KWBC 080600 RRH
METAR K8S0 080555Z 26006KT=
####018002769####
SAUS90 KWBC 080700
METAR KWMC 080656Z AUTO 05017G23KT 10SM CLR 22/M06 A3003 RMK AO2
     SLP116 T02221056=
METAR KLWS 080656Z AUTO 18003KT 10SM CLR 19/05 A2999 RMK AO2
     SLP146 T01940050=
METAR KP28 080656Z AUTO 01006KT 22/21 A3010 RMK AO2 SLP175
     T02220206 PWINO TSNO=
METAR KCDJ 080656Z AUTO 00000KT 21/21 A3006 RMK AO2 SLP167
     T02110206 PWINO TSNO=
METAR KNXP 080656Z AUTO 31004KT CLR 28/02 A2989 RMK AO2 SLP079
     T02780022 $=
METAR KSXT 080656Z AUTO 35010KT 9SM CLR 20/11 A3002 RMK AO2 SLP099
     T02000106 TSNO=
METAR KGFA 080656Z AUTO 18004KT 10SM CLR 13/06 A3021 RMK AO2
     SLP244 T01280061=
METAR KFLG 080656Z AUTO 00000KT 10SM FEW085 SCT110 16/01 A3024 RMK
     AO2 SLP124 T01560011 402830072 TSNO=
METAR K2WX 080656Z AUTO 27006KT 13/09 A3015 RMK AO1 SLP202
     T01330094 402390083=
METAR KSPD 080656Z AUTO 32008KT 15/13 A3025 RMK AO2 SLP195 P0012
     T01500133 402720144 PWINO TSNO=
METAR KINS 080656Z 00000KT 10SM CLR 24/M10 A2990 RMK AO2 SLP066
     T02441100 403670178 $=
METAR KFSD 080656Z 28003KT 10SM CLR 16/14 A3016 RMK AO2 SLP209
     T01560144=
METAR KNUQ 080656Z AUTO 02007KT 10SM OVC015 16/12 A2992 RMK AO2
     SLP135 T01610122 TSNO=
METAR KAQV 080656Z AUTO 00000KT 10SM CLR 24/23 A2999 RMK AO2
     SLP153 T02440228 $=
METAR KGNA 080656Z AUTO 33005KT 19/16 A2998 RMK AO2 SLP144 P0001
     T01890161 PWINO TSNO=
METAR KMHS 080656Z AUTO 00000KT 10SM CLR 17/09 A3000 RMK AO2
     SLP140 T01720089 TSNO=
METAR KBIH 080656Z AUTO 00000KT 10SM CLR 19/01 A2995 RMK AO2
     SLP089 T01940006 TSNO=
METAR K8D3 080656Z AUTO 26006KT 18/14 A3009 RMK AO2 SLP177
     T01780144 PWINO TSNO=
METAR KP53 080656Z AUTO 04008KT 19/18 A2995 RMK AO2 SLP140 P0055
     T01890183 PWINO TSNO=
METAR KD07 080656Z AUTO 25003KT 17/08 A3020 RMK AO2 SLP216
     T01670078 402560106 PWINO TSNO=
METAR KRIC 080654Z 08003KT 8SM SCT120 27/20 A2997 RMK AO2 SLP151
     T02670200=
METAR KROA 080654Z 32003KT 7SM BKN090 26/19 A3007 RMK AO2 SLP165
     T02610194=
METAR KWAL 080654Z AUTO 15003KT 7SM BKN100 25/23 A2998 RMK AO2
     SLP148 T02500233 TSNO=
METAR KAKQ 080654Z AUTO 00000KT 3SM BR FEW120 23/21 A2996 RMK AO2
     SLP144 T02330211 TSNO=
METAR KNRS 080656Z AUTO 30006KT 10SM OVC018 17/13 A2992 RMK AO2
     SLP130 T01720128 TSNO $=
METAR PACZ 080655Z AUTO 03008KT 10SM 12/12 A3006 RMK AO1
     T01220117=
METAR PALU 080655Z AUTO 22023G28KT 10SM CLR 13/01 A3009 RMK AO1
     T01280012=
METAR PAIM 080655Z AUTO 30004KT 10SM CLR 17/07 A3008 RMK AO1
     T01670067=
METAR PATL 080655Z AUTO 05005KT 10SM CLR 18/05 A2999 RMK AO1
     T01780051=
METAR PASV 080655Z AUTO 00000KT 10SM SCT041 SCT055 BKN070 10/09
     A2997 RMK AO1 T01000095=
####018000110####
SAUS90 KWBC 080800
METAR K3A6 080750Z AUTO 36003KT 11/10 A2990 RMK AO1 SLP143
     T01140101 402620107=
####018001687####
SAEU KAWN 080700 RRJ
METAR EDHL 080650Z 16007KT CAVOK 20/15 Q1020 RMK F=
METAR EDLP 080650Z 19008KT CAVOK 24/11 Q1020 RMK RWY24 TRL60 RU ATIS
      J=
METAR EDLW 080650Z 18007KT CAVOK 24/10 Q1020 RMK ATIS H=
METAR EDNY 080650Z VRB04KT CAVOK 20/12 Q1022 RMK ATIS H=
METAR EGAE 080650Z 22011KT 9999 FEW014 SCT023 14/10 Q1011=
METAR EGBJ 080650Z 24003KT 9999 FEW017 16/12 Q1019=
METAR COR EGCC 080650Z 20008KT 9999 FEW027 14/12 Q1017 NOSIG=
METAR EGNH 080650Z 22009KT 9999 FEW022 SCT040 16/11 Q1016=
METAR EGNJ 080650Z 22008KT 9999 FEW030 16/11 Q1017=
METAR EGPA 080650Z 19015KT 9999 FEW030 15/11 Q1005=
METAR COR EGPB 080650Z 20014KT 9999 FEW020 13/10 Q1005 NOSIG=
METAR EGPC 080650Z 19013KT 160V220 9999 FEW025 14/11 Q1007=
METAR EGPE 080650Z 22020KT 9999 FEW025 SCT048 15/09 Q1007=
METAR EGPL 080650Z 22019KT 9999 VCSH FEW015TCU SCT020 14/10 Q1006=
METAR EGPM 080650Z 21019KT 9999 FEW012 SCT045 14/10 Q1004=
METAR EGPN 080650Z 22016KT 9999 FEW022 SCT048 15/11 Q1011=
METAR EGSC 080650Z 26009KT 220V280 3800 -SHRA BKN003 16/15 Q1018=
METAR COR EGSH 080650Z 24007KT 220V280 9999 FEW009 BKN027 19/16 Q1018
      NOSIG=
METAR LGBL 080650Z 33006KT 9999 FEW030 BKN070 23/12 Q1015 NOSIG BLU=
METAR LGLR 080650Z 35007KT 9999 SCT035 BKN080 22/07 Q1015 NOSIG BLU=
METAR LGPZ 080650Z 27008KT 9999 FEW025 28/19 Q1013 NOSIG BLU=
METAR LGRX 080650Z 26004KT 9999 FEW025 27/21 Q1012 NOSIG RMK FEW080
      BLU=
METAR LGSR 080650Z 29007KT CAVOK 29/15 Q1009 NOSIG BLU=
METAR LGSY 080650Z 01014KT 8000 SCT008 SCT015TCU BKN018 21/16 Q1013
      NOSIG RMK BKN080 BLU=
METAR LGTG 080650Z 02010G20KT 9999 FEW030 BKN070 21/14 Q1014 NOSIG
      BLU=
####018000122####
SAUS42 KFFC 080659 COR
MTRMCN
METAR KMCN 080653Z AUTO 12003KT 10SM CLR 22/20 A3003 RMK AO2 SLP163 
T02170200 TSNO
####018001490####
SAZZ40 KAWN 080700 RRI
METAR KCVS 080655Z 01006KT 10SM BKN120 17/15 A3020 RMK AO2A SLP188
      T01730150 402840161 $=
METAR KDMA 080655Z AUTO 05005KT 10SM CLR 31/09 A2986 RMK AO2 SLP035
      T03130088 403920235 $=
METAR KFAF 080655Z 00000KT 9SM FEW080 SCT110 26/26 A2995 RMK AO2A SLP143
      T02640264=
METAR KFMH 080655Z AUTO 16006KT 1SM BR OVC002 21/20 A3007 RMK AO2=
METAR KHLR 080656Z AUTO 11005KT 10SM BKN015 BKN055 26/26 A2999 RMK
      AO2 SLP146 T02610261 $=
METAR KHOP 080655Z AUTO 00000KT 10SM CLR 25/22 A3007 RMK AO2 SLP176
      T02520223=
METAR KNCA 080656Z AUTO 01004KT 10SM CLR 26/22 A2991 RMK AO2 SLP128
      T02560217=
METAR KNGP 080656Z AUTO 08005KT 10SM FEW055 28/26 A2983 RMK AO2 TSE0559
      SLP101 T02830261 $=
METAR KNKX 080655Z 35004KT 10SM OVC016 17/13 A2992 RMK AO2 SLP125 T01670133=
METAR KNQI 080656Z AUTO 36003KT 10SM CLR 27/24 A2985 RMK AO2 SLP104
      T02670244 $=
METAR KNTU 080656Z 11005KT 4SM BR CLR 26/24 A2994 RMK AO2 SLP142 T02560244
      $=
METAR KNYL 080655Z 00000KT 10SM CLR 30/06 A2971 RMK AO2 SLP055 T03000056
      404060239=
METAR KPOE 080655Z AUTO 11005KT 10SM CLR 24/23 A3000 RMK AO2 SLP158
      T02440228=
METAR KPSM 080655Z 11003KT 2SM BR BKN003 OVC006 21/21 A3004 RMK AO2A
      SLP174 T02130207=
METAR KSVN 080655Z 23003KT 10SM SKC 23/21 A2998 RMK SLP155=
METAR KVBG 080655Z AUTO 34005KT 10SM CLR 13/11 A2993 RMK AO2 CIG 010
      RWY12 SLP127 T01280111 401610094 TSNO $=
####018001651####
SAUK KAWN 080700 RRB
METAR EGAE 080650Z 22011KT 9999 FEW014 SCT023 14/10 Q1011=
METAR EGBJ 080650Z 24003KT 9999 FEW017 16/12 Q1019=
METAR COR EGCC 080650Z 20008KT 9999 FEW027 14/12 Q1017 NOSIG=
METAR EGDL 080650Z 22004KT 9999 FEW012 SCT035 BKN120 16/13 Q1019 BLU
      NOSIG=
METAR EGNH 080650Z 22009KT 9999 FEW022 SCT040 16/11 Q1016=
METAR EGNJ 080650Z 22008KT 9999 FEW030 16/11 Q1017=
METAR EGOS 080650Z 19005KT 9999 -RA FEW014 BKN100 14/10 Q1017 BLU NOSIG=
METAR EGOV 080650Z 21013KT 9999 FEW018 SCT060 BKN200 15/12 Q1016 BLU
      NOSIG=
METAR EGPA 080650Z 19015KT 9999 FEW030 15/11 Q1005=
METAR COR EGPB 080650Z 20014KT 9999 FEW020 13/10 Q1005 NOSIG=
METAR EGPE 080650Z 22020KT 9999 FEW025 SCT048 15/09 Q1007=
METAR EGPN 080650Z 22016KT 9999 FEW022 SCT048 15/11 Q1011=
METAR EGQL 080650Z 23014KT 9999 FEW022 SCT050 14/09 Q1011 BLU NOSIG=
METAR EGSC 080650Z 26009KT 220V280 3800 -SHRA BKN003 16/15 Q1018=
METAR COR EGSH 080650Z 24007KT 220V280 9999 FEW009 BKN027 19/16 Q1018
      NOSIG=
METAR EGUW 080650Z 21008KT 9999 FEW008 OVC014 18/15 Q1018 GRN TEMPO
      4000 -RADZ GRN=
METAR EGVN 080650Z 26005KT 9999 SCT030 SCT140 BKN200 16/11 Q1019 BLU
      NOSIG=
METAR EGVO 080650Z 22007KT 4000 -RADZ OVC003 16/16 Q1019 YLO2=
METAR EGVP 080650Z 31005KT 3500 -RADZ SCT005 OVC009 16/15 Q1019 YLO1
      BECMG 9999 NSW BKN008 GRN=
METAR EGWC 080650Z 23008KT 9999 SCT018 BKN090 14/10 Q1018=
METAR EGXE 080650Z 20007KT 9999 FEW020 BKN100 15/12 Q1015 BLU NOSIG=
METAR EGXG 080650Z 26007KT CAVOK 15/10 Q1016 BLU=
METAR EGXU 080650Z 20007KT 9999 FEW020 SCT090 OVC120 15/11 Q1016 BLU
      NOSIG=
####018003051####
SAUS99 KWBC 080700
METAR
KAEJ 080655Z AUTO 29003KT 10SM SCT039 OVC046 09/07 A3045 RMK
     AO2=
KBBF 080755Z AUTO VRB08G19KT 10SM FEW026 30/27 A2982 RMK A01=
KBIX 080655Z AUTO 05003KT 10SM CLR 25/25 A3002 RMK AO2 SLP166
     T02530250=
KBQX 080655Z AUTO 11011G21KT FEW020 SCT029 OVC050 29/26 A2986 RMK
     A01=
KDLP 080655Z AUTO 12013KT 9SM CLR 28/25 A2998 RMK A01=
KEDU 080655Z AUTO 15005KT 10SM CLR 16/10 A2981 RMK AO1=
KEHC 080655Z AUTO 12025KT 7SM FEW035 FEW045 SCT070 28/25 A2993 RMK
     A01=
KEIR 080655Z AUTO VRB05G15KT 9SM FEW019 SCT024 28/25 A2997 RMK
     A01=
KEMK 080655Z AUTO 14027G35KT 5SM HZ FEW046 BKN060 OVC095 28/25
     A2987 RMK A01=
KGBK 080655Z AUTO 10020G26KT 10SM FEW021 29/25 A2990 RMK A01=
KGTB 080655Z AUTO 19005KT 10SM CLR 23/20 A3003 RMK AO2 SLP167
     T02310203=
KGYH 080655Z AUTO 29003KT 10SM CLR 25/19 A3003 RMK AO2=
KHFF 080655Z AUTO 35004KT 10SM CLR 22/19 A2998 RMK AO2 SLP148
     T02250188 $=
KHQI 080655Z AUTO 09027KT 6SM HZ FEW025 FEW030 SCT036 29/26 A2989
     RMK A01=
KHXD 080655Z AUTO 22007KT 10SM CLR 25/20 A2999 RMK AO2 P0000=
KHYW 080655Z AUTO 00000KT 7SM SCT120 25/23 A2994 RMK AO2=
KIPN 080655Z AUTO 09014KT 10SM 59/54 A2998 RMK A01=
KJZI 080655Z AUTO 28006KT 10SM CLR 24/24 A2997 RMK A02 P000=
KMCF 080655Z AUTO 07005KT 10SM CLR 25/23 A3000 RMK AO2 SLP162
     T02490232=
KMCJ 080655Z AUTO 11010KT 7SM FEW025 27/24 A2990 RMK AO1=
KMDJ 080655Z AUTO 13017KT 10SM SCT045 BKN055 29/24 A3000 RMK
     A01=
KMEI 080658Z AUTO 00000KT 10SM CLR 23/23 A3004 RMK AO2 SLP169
     T02330228=
KMHR 080655Z AUTO 19006KT 10SM CLR 15/10 A2984 RMK AO1=
KMIU 080655Z AUTO 10015KT 8SM FEW016 SCT043 BKN050 29/26 A2982 RMK
     A01=
KMXF 080655Z AUTO 00000KT 10SM CLR 27/24 A3001 RMK AO2 SLP162
     T02700244=
KMYT 080655Z AUTO 13015KT 10SM CLR 28/24 A2996 RMK A01=
KMZG 080655Z AUTO VRB03KT 9SM FEW022 SCT029 SCT034 29/25 A2982 RMK
     A01=
KNRB 080652Z 22005KT 10SM CLR 22/19 A3001 RMK AO2 SLP160
     T02220194=
KPAM 080655Z AUTO 36003KT 9SM CLR 23/23 A3001 RMK AO2 SLP165
     T02290227=
KSCF 080700Z AUTO 15020KT 8SM FEW017 BKN024 BKN029 29/26 A2992 RMK
     A01=
KSPF 080655Z AUTO 21003KT 10SM CLR 11/08 A3028 RMK AO2=
KVAD 080655Z AUTO 00000KT 8SM R18/5000VP6000FT CLR 22/20 A3003 RMK
     AO2 SLP167 T02230196 $=
KVBS 080655Z AUTO 12022G28KT 10SM FEW022 SCT028 29/25 A2993 RMK
     A01=
KVNP 080655Z AUTO 10009G15KT 8SM 28/26 A2997 RMK A01=
KY50 080656Z AUTO 19005KT 4SM BR OVC002 22/22 A3000 RMK AO2
     T02220222 RAE44 P0000 SLP151 $=
PAFS 080656Z AUTO VRB06KT 10SM CLR 18/05 A2999 RMK AO2 TSNO
     T01770050 SLP163 $=
PAIW 080657Z AUTO 22004KT 10SM CLR 09/06 A3018 RMK AO2 SLP314
     T00890061=
PAMB 080656Z AUTO 01009KT 10SM SCT050 11/08 A2993 RMK AO2 PWINO
     TSNO T01110083 SLP138 $=
PAVA 080657Z AUTO 11005KT 10SM FEW032 BKN060 OVC070 13/10 A3010
     RMK AO2 SLP194 T01330100=
PPIZ 080656Z AUTO 21010KT 10SM CLR 07/03 A3011 RMK AO2 TSNO
     T00660027 SLP198 $=
####018000415####
SAUS98 KWBC 080700
METAR PACZ 080655Z AUTO 03008KT 10SM 12/12 A3006 RMK AO1 T01220117=
METAR PALU 080655Z AUTO 22023G28KT 10SM CLR 13/01 A3009 RMK AO1
T01280012=
METAR PAIM 080655Z AUTO 30004KT 10SM CLR 17/07 A3008 RMK AO1
T01670067=
METAR PATL 080655Z AUTO 05005KT 10SM CLR 18/05 A2999 RMK AO1
T01780051=
METAR PASV 080655Z AUTO 00000KT 10SM SCT041 SCT055 BKN070 10/09
A2997 RMK AO1 T01000095=
####018000127####
SPUS99 KWBC 080700
SPECI
PABA 080657Z AUTO 27006KT 10SM -RA BKN005 OVC012 02/02 A3005 RMK
     AO2 RAB50 P0000 FZRANO=
####018000134####
SAHW31 KMSC 080659
METAR PHNY 080656Z AUTO 06017KT 10SM CLR 22/17 A3006 RMK AO2 TSNO 
    T02160166 PK WND 05029/0642 SLP160 $=
####018003692####
SAUS70 KWBC 080700
METAR
KSDF 080656Z 00000KT 8SM CLR 27/21 A3005 RMK AO2 SLP171
     T02720206=
K1P1 080655Z AUTO 00000KT 1/2SM FG VV005 22/21 A3005 RMK AO2
     T02230211=
KART 080656Z AUTO 00000KT 7SM CLR 22/20 A3002 RMK AO2 SLP161
     T02220200=
KBED 080656Z AUTO 21003KT 2 1/2SM BR OVC009 23/22 A3003 RMK AO2
     SLP180 T02330217=
KBJJ 080656Z AUTO 00000KT 4SM BR CLR 19/18 A3010 RMK AO2 SLP182
     T01940183=
KBVU 080655Z AUTO 32003KT 10SM CLR 27/02 A2984 RMK AO2=
KCEC 080656Z AUTO 00000KT 2SM BR OVC001 11/09 A2997 RMK AO2 SLP151
     T01060094=
KCTB 080656Z AUTO 21004KT 10SM CLR 13/06 A3024 RMK AO2 SLP218
     T01330061 402440050=
KCXY 080656Z AUTO 00000KT 6SM HZ CLR 24/19 A3001 RMK AO2 SLP159
     T02390194=
KDAY 080656Z 23004KT 9SM CLR 24/18 A3009 RMK AO2 SLP179 T02390183
     $=
KDIK 080656Z AUTO 24003KT 10SM SCT095 11/09 A3015 RMK AO2 SLP204
     T01060094 402440067=
KE80 080655Z AUTO 28004KT 10SM CLR 20/11 A3022 RMK AO2
     T02040106=
KEAU 080656Z AUTO 23005KT 9SM SCT060 20/19 A3001 RMK AO2 SLP155
     T02000194=
KEDC 080655Z AUTO 04003KT OVC010 25/24 A2997 RMK AO2=
KEED 080656Z AUTO 00000KT 10SM CLR 34/M03 A2972 RMK AO2 SLP026
     T03441028 TSNO=
KEIK 080655Z AUTO 22004KT 5SM -RA OVC085 15/14 A3032 RMK AO2=
KELZ 080656Z AUTO 00000KT 5SM BR CLR 19/18 A3016 RMK AO2 SLP197
     T01940183=
KEOE 080655Z AUTO 00000KT 10SM 23/20 A3003 RMK AO2=
KFMH 080655Z AUTO 16006KT 1SM BR OVC002 21/20 A3007 RMK AO2=
KGON 080656Z AUTO 11008KT 7SM OVC009 23/21 A3004 RMK AO2 CIG
     005V011 SLP171 T02330211=
KHND 080656Z AUTO 17007KT 10SM CLR 29/M03 A2986 RMK AO2 T02941033
     404000222 SLP054=
KHPN 080656Z 12003KT 4SM BR CLR 23/21 A3003 RMK AO2 SLP161
     T02330211=
KHWV 080656Z AUTO 13004KT 2 1/2SM BR SCT002 BKN009 OVC013 25/24
     A3003 RMK AO2 CIG 007V010 SLP169 T02500244=
KHYA 080656Z AUTO 16004KT 1SM BR OVC001 21/21 A3006 RMK AO2 SLP181
     T02110206=
KIFP 080655Z AUTO 08003KT 10SM CLR 33/M02 A2971 RMK AO2=
KISP 080656Z 14004KT 4SM HZ FEW007 SCT050 BKN100 OVC130 26/23
     A3001 RMK AO2 RAB24E29 SLP160 P0000 T02560228=
KITH 080656Z AUTO 08004KT 6SM BR CLR 21/19 A3010 RMK AO2 T02050188
     SLP183=
KJMS 080656Z AUTO 00000KT 10SM CLR 13/13 A3008 RMK AO2 SLP186
     T01330128=
KJXN 080656Z 00000KT 10SM CLR 23/22 A3005 RMK AO2 SLP169
     T02280217=
KLAS 080656Z 21009KT 10SM CLR 30/M04 A2979 RMK AO2 SLP057
     T03001044=
KLNR 080656Z AUTO 24005KT 10SM FEW006 SCT038 21/19 A3002 RMK AO2
     RAE52 SLP155 P0001 T02110189=
KMAN 080655Z AUTO 00000KT 10SM CLR 17/08 A3002 RMK AO1=
KMDT 080656Z 00000KT 6SM HZ CLR 27/20 A3000 RMK AO2 SLP155
     T02670200=
KPVF 080655Z AUTO 00000KT 10SM FEW041 22/11 A2993 RMK AO1=
KRBW 080655Z AUTO 28005KT 10SM CLR 23/20 A2999 RMK AO2=
KRCM 080655Z AUTO 00000KT 7SM SCT002 SCT021 OVC036 22/22 A3004 RMK
     AO2 P0001=
KRDM 080656Z AUTO 30006KT 10SM CLR 21/03 A3003 RMK AO2 SLP141
     T02060033 $=
KSBP 080656Z AUTO 31006KT 10SM OVC011 14/11 A2991 RMK AO2 SLP129
     T01390111 $=
KSGH 080656Z AUTO 00000KT 6SM BR CLR 22/21 A3010 RMK AO2 T02220211
     SLP183=
KSGJ 080658Z AUTO 28003KT 10SM CLR 22/20 A3001 RMK AO2 SLP163
     T02170200=
KSLE 080656Z AUTO 00000KT 10SM CLR 23/09 A2983 RMK AO2 SLP100
     T02330094=
KTME 080655Z AUTO 00000KT 6SM 25/25 A2994 RMK AO1=
KUKI 080656Z AUTO 16005KT 10SM CLR 16/11 A2990 RMK AO2 SLP120
     T01610111=
KUOX 080655Z AUTO 00000KT 10SM CLR 23/21 A3007 RMK AO2=
KWJF 080656Z 27009KT 10SM CLR 22/03 A2989 RMK AO2 SLP098
     T02220028=
KGFA 080656Z AUTO 18004KT 10SM CLR 13/06 A3021 RMK AO2 SLP244
     T01280061=
####018003681####
SAXX60 KWBC 080700
METAR
PGUA 080655Z AUTO 08014KT 10SM BKN018 BKN025 28/ A2985 RMK AO2 CIG
     016V021 SLP091 T0278 VISNO RWY24L $=
KNTD 080656Z AUTO 30005KT 10SM OVC017 16/13 A2990 RMK AO2 SLP127
     T01560128 TSNO PNO VISNO N $=
KNXP 080656Z AUTO 31004KT CLR 28/02 A2989 RMK AO2 SLP079 T02780022
     $=
KNUW 080656Z 00000KT 10SM CLR 15/11 A2995 RMK AO2 SLP145 T01500111
     $=
KNLC 080656Z 33008KT 10SM CLR 21/12 A2981 RMK AO2 SLP092 RH/52
     T02110117 $=
KNFL 080656Z AUTO 01003KT 10SM CLR 24/02 A2995 RMK AO2 SLP114
     T02440017 TSNO=
KPRN 080656Z AUTO 00000KT 10SM CLR 25/22 A3003 RMK AO2 SLP162
     T02500222 $=
KNMM 080656Z AUTO 00000KT 10SM CLR 24/22 A3004 RMK AO2 SLP180
     T02390217=
KINS 080656Z 00000KT 10SM CLR 24/M10 A2990 RMK AO2 SLP066
     T02441100 403670178 $=
KNUQ 080656Z AUTO 02007KT 10SM OVC015 16/12 A2992 RMK AO2 SLP135
     T01610122 TSNO=
KAQV 080656Z AUTO 00000KT 10SM CLR 24/23 A2999 RMK AO2 SLP153
     T02440228 $=
KBAN 080656Z AUTO 34003KT 10SM CLR 11/02 A3019 RMK AO2 SLP119
     T01110017 TSNO=
KNXX 080656Z AUTO 00000KT 7SM CLR 24/19 A3002 RMK AO2 SLP170
     T02440194 $=
KADW 080655Z AUTO 08005KT 10SM BKN110 26/22 A2999 RMK AO2 SLP154
     T02610220 $=
KBIX 080655Z AUTO 05003KT 10SM CLR 25/25 A3002 RMK AO2 SLP166
     T02530250=
KBKF 080655Z 34003KT 7SM SCT004 OVC010 14/14 A3035 RMK SLP231=
KCOF 080655Z AUTO 07004KT 10SM CLR 26/ A2998 RMK AO2 SLP154 T0255
     $=
KDLF 080655Z AUTO 06004KT 10SM CLR 25/23 A2994 RMK AO2 SLP122
     T02460227 $=
KFCS 080655Z AUTO 19005KT 10SM BKN050 OVC070 13/12 A3037 RMK AO2
     SLP215 T01340119 402240126=
KFRI 080655Z AUTO 04003KT 10SM BKN095 OVC110 22/21 A3008 RMK AO2
     SLP175 T02170214=
KFSI 080655Z AUTO 04006KT 10SM SCT240 24/22 A3003 RMK AO2 SLP149
     T02360216=
KGRK 080655Z 11007KT 7SM SCT015 BKN050 27/23 A2998 RMK SLP130=
KLHW 080655Z AUTO 25006KT 10SM CLR 23/21 A2999 RMK AO2 SLP158
     T02250207=
KLSV 080655Z AUTO 01005KT 10SM CLR 29/M04 A2981 RMK AO2 SLP067
     T02931038 PWINO=
KMCF 080655Z AUTO 07005KT 10SM CLR 25/23 A3000 RMK AO2 SLP162
     T02490232=
KMIB 080655Z AUTO 28004KT 10SM CLR 13/12 A3008 RMK AO2 SLP186
     T01330119 $=
KMXF 080655Z AUTO 00000KT 10SM CLR 27/24 A3001 RMK AO2 SLP162
     T02700244=
KADW 080655Z AUTO 08005KT 10SM BKN110 26/22 A2999 RMK AO2 SLP154
     T02610220 $=
KFCS 080655Z AUTO 19005KT 10SM BKN050 OVC070 13/12 A3037 RMK AO2
     SLP215 T01340119 402240126=
KFRI 080655Z AUTO 04003KT 10SM BKN095 OVC110 22/21 A3008 RMK AO2
     SLP175 T02170214=
KGRK 080655Z 11007KT 7SM SCT015 BKN050 27/23 A2998 RMK SLP130=
KNBG 080655Z AUTO 04003KT 10SM CLR 26/24 A3001 RMK AO2 SLP162
     T02560239 PWINO $=
KNJK 080656Z AUTO 26008KT 10SM CLR 28/09 A2967 RMK AO2 SLP061
     T02830089 TSNO=
KNYG 080656Z AUTO 30005KT FEW080 BKN120 27/23 A2998 RMK AO2 SLP152
     T02670228=
KPAM 080655Z AUTO 36003KT 9SM CLR 23/23 A3001 RMK AO2 SLP165
     T02290227=
PMDY 080656Z AUTO 00000KT 10SM CLR 27/20 A3011 RMK AO2 TSNO
     T02660200 SLP501=
KGTB 080655Z AUTO 19005KT 10SM CLR 23/20 A3003 RMK AO2 SLP167
     T02310203=
KNIP 080653Z 26004KT 10SM CLR 24/21 A3002 RMK AO2 SLP162
     T02440211=
KNKT 080654Z AUTO 00000KT 10SM CLR 26/19 A2991 RMK AO2 SLP126
     T02560194 $=
KNKX 080655Z 35004KT 10SM OVC016 17/13 A2992 RMK AO2 SLP125
     T01670133=
KNRB 080652Z 22005KT 10SM CLR 22/19 A3001 RMK AO2 SLP160
     T02220194=
KNYG 080656Z AUTO 30005KT FEW080 BKN120 27/23 A2998 RMK AO2 SLP152
     T02670228=
KPAM 080655Z AUTO 36003KT 9SM CLR 23/23 A3001 RMK AO2 SLP165
     T02290227=
####018003699####
SAUS70 KWBC 080700 RRA
METAR
KHFF 080655Z AUTO 35004KT 10SM CLR 22/19 A2998 RMK AO2 SLP148
     T02250188 $=
KIWA 080656Z AUTO 10003KT 10SM CLR 34/04 A2979 RMK AO2=
KSGH 080656Z AUTO 00000KT 6SM BR CLR 22/21 A3010 RMK AO2 T02220211
     SLP183=
KWJF 080656Z 27009KT 10SM CLR 22/03 A2989 RMK AO2 SLP098
     T02220028=
KSGH 080656Z AUTO 00000KT 6SM BR CLR 22/21 A3010 RMK AO2 T02220211
     SLP183=
PACM 080656Z AUTO 17011KT 1 1/2SM RA BR FEW007 SCT024 BKN046 12/10
     A3008 RMK AO2 TSNO T01220100 RAB26 P0014 SLP183 $=
PAGN 080656Z AUTO 00000KT CLR RMK AO2 PWINO TSNO SLPNO $=
PAHC 080656Z AUTO 25004KT 10SM -RA FEW004 SCT050 BKN070 13/11
     A2999 RMK AO2 TSNO T01270105 RAB04 P0000 SLP158 $=
PAIG 080656Z AUTO 00000KT 10SM FEW023 SCT033 BKN041 09/08 A2993
     RMK AO2 PWINO TSNO T00940083 SLP140 $=
PAMO 080656Z AUTO 15009KT 10SM -RA FEW039 SCT055 SCT110 11/09
     A3009 RMK AO2 TSNO T01110094 P0000 SLP187 $=
PAOH 080656Z AUTO 00000KT 10SM CLR 13/12 A3022 RMK AO2 TSNO
     T01270122 SLP233=
PAPM 080656Z AUTO 32008KT +RA CLR 11/09 A3000 RMK AO2 TSNO
     T01050088 P0000 SLP159 $=
PARS 080656Z AUTO VRB05KT 10SM BKN100 13/09 A3002 RMK AO2 TSNO
     T01270094 RAB34E46 P0000 SLP168 $=
PATQ 080656Z AUTO 27015KT 10SM CLR 11/03 A3003 RMK AO2 TSNO
     T01110033 SLP172 $=
KHCO 080654Z AUTO 00000KT 10SM CLR 13/13 A3004 RMK AO2=
KHFJ 080655Z AUTO 00000KT 4SM SCT030 SCT046 BKN065 23/23 A3003 RMK
     AO1=
KHZX 080651Z AUTO 00000KT 7SM CLR 13/13 A3007 RMK AO2=
KJKJ 080655Z AUTO 23003KT 10SM CLR 17/16 A3005 RMK AO2=
KJMR 080658Z AUTO 00000KT 10SM CLR 15/13 A3008 RMK AO2=
KJVL 080655Z AUTO 26006KT 10SM SCT033 SCT042 OVC050 23/20 A3001
     RMK AO2 T02270199=
KLJF 080652Z AUTO 00000KT 10SM CLR 17/16 A3010 RMK AO2=
KLNL 080655Z AUTO 00000KT 10SM CLR 19/18 A3003 RMK AO2
     T01900183=
KLRD 080656Z AUTO 00000KT 10SM CLR 27/24 A2991 RMK AO2 T02660244
     SLP116 $=
KLUM 080655Z AUTO 00000KT 10SM SCT055 BKN070 21/19 A3003 RMK
     AO2=
KLVN 080648Z AUTO 30005KT 10SM CLR 18/17 A3007 RMK AO2=
KLXL 080654Z AUTO 00000KT 5SM BR CLR 13/12 A3007 RMK AO2=
KM89 080656Z AUTO 00000KT 6SM BR OVC004 24/24 A3004 RMK AO2
     T02440238 SLP185=
KMDS 080645Z AUTO 29005KT 10SM CLR 15/15 A3016 RMK AO2=
KMDZ 080655Z AUTO 29003KT 1SM BR OVC001 19/19 A3003 RMK AO2=
KMGG 080655Z AUTO 28004KT 10SM CLR 17/16 A3009 RMK AO2
     T01680157=
KMJQ 080652Z AUTO 29004KT 7SM CLR 16/15 A3013 RMK AO2=
KMOX 080650Z AUTO 22004KT 10SM CLR 14/14 A3007 RMK AO2=
KMRJ 080655Z AUTO 30004KT 10SM SCT100 20/19 A3002 RMK AO2 P0001
     T02020186=
KMVE 080654Z AUTO 27004KT 10SM CLR 17/17 A3010 RMK AO2=
KMWC 080655Z AUTO 23003KT 7SM RA SCT060 BKN070 OVC090 21/20 A3003
     RMK AO2 P0001=
KMWM 080653Z AUTO 26003KT 10SM CLR 15/14 A3013 RMK AO2=
KOEO 080655Z AUTO 00000KT 10SM CLR 20/18 A3007 RMK AO2=
KONA 080651Z AUTO 32005KT 10SM CLR 20/18 A3002 RMK AO2=
KOVL 080654Z AUTO 00000KT 10SM CLR 14/12 A3009 RMK AO2
     T01400123=
KPBH 080655Z AUTO 00000KT 4SM BR OVC003 21/19 A3003 RMK AO2=
KPCZ 080655Z AUTO 19003KT 7SM -RA SCT100 SCT120 22/20 A2998 RMK
     AO2 T02170203=
KPEX 080653Z AUTO 24003KT 7SM CLR 13/13 A3010 RMK AO2
     T01340131=
KPNM 080653Z AUTO 28003KT 10SM CLR 16/15 A3007 RMK AO2=
KPQN 080653Z AUTO 30003KT 10SM CLR 16/14 A3015 RMK AO2=
KPWC 080653Z AUTO 00000KT 1/2SM FG BKN001 12/11 A3008 RMK AO2=
KROG 080657Z AUTO 10SM CLR 23/22 A3006 RMK AO2 SLP165 T02330222
     $=
KROX 080654Z AUTO 23005KT 10SM CLR 17/14 A3000 RMK AO2=
K14Y 080658Z AUTO 00000KT 7SM CLR 15/14 A3010 RMK AO2
     T01460144=
KAEL 080651Z AUTO 30004KT 10SM CLR 19/18 A3008 RMK AO2=
####018000221####
SAPQ50 KWBC 080700
METAR
PGSN 080654Z 08010KT 10SM SCT023 SCT080 29/23 A2985 RMK AO2
     RAB41E50 SLP107 P0000 T02890228=
PGUM 080654Z 09012G19KT 10SM FEW024 SCT031 30/24 A2985 RMK AO2
     SLP098 T03000239=
####018003666####
SAUS70 KWBC 080700 RRB
METAR
KAIT 080653Z AUTO 00000KT 1/2SM FG VV005 13/12 A3007 RMK AO2=
KAJO 080656Z AUTO 34004KT 10SM CLR 14/13 A2992 RMK AO2 T01440127
     SLP127 $=
KANE 080655Z AUTO 30006KT 10SM 19/17 A3007 RMK AO2=
KBBB 080653Z AUTO 00000KT 7SM CLR 15/15 A3011 RMK AO2=
KCVH 080650Z AUTO 26005KT 10SM CLR 13/11 A2993 RMK AO1=
KCWA 080655Z AUTO 00000KT 10SM CLR 20/20 A3001 RMK AO2
     T01960196=
KDIJ 080656Z AUTO 00000KT 10SM CLR 09/02 A3027 RMK AO2 T00880016
     402271011 SLP181 $=
KDXX 080654Z AUTO 00000KT 10SM CLR 15/15 A3010 RMK AO2=
KDYT 080654Z AUTO 31006KT 10SM SCT060 SCT100 22/16 A3004 RMK
     AO2=
KEFK 080655Z AUTO 22003KT 5SM BR BKN050 BKN060 BKN075 21/20 A3005
     RMK AO2=
KEFT 080655Z AUTO 00000KT 10SM SCT060 BKN080 OVC090 21/20 A3001
     RMK AO2 T02110195=
KEGV 080652Z AUTO 27003KT 7SM SCT002 OVC011 19/19 A3002 RMK AO2
     T01920193=
KEKQ 080656Z AUTO 00000KT 3SM BR CLR 19/19 A3010 RMK AO2 T01940188
     SLP188=
KELO 080653Z AUTO 00000KT 10SM CLR 14/14 A3004 RMK AO2=
KETB 080652Z AUTO 27006KT 10SM OVC100 23/21 A3001 RMK AO2 P0001
     T02250205=
KEVM 080652Z AUTO 00000KT 3SM BR CLR 13/12 A3003 RMK AO1=
KEZS 080655Z AUTO 00000KT 10SM RA SCT009 BKN055 OVC100 22/21 A2998
     RMK AO2 P0001 T02200211=
KFBL 080654Z AUTO 29005KT 10SM CLR 19/17 A3008 RMK AO2=
KFFM 080653Z AUTO 17003KT 10SM CLR 16/14 A3007 RMK AO2=
KFGN 080654Z AUTO 25007KT 1 1/2SM HZ BKN110 18/14 A2997 RMK
     AO2=
KFSO 080658Z AUTO 00000KT 5SM BR CLR 23/22 A3000 RMK AO2=
KGDB 080652Z AUTO 00000KT 10SM CLR 14/14 A3013 RMK AO2
     T01420139=
KGHW 080653Z AUTO 21005KT 10SM CLR 14/13 A3013 RMK AO2=
KGLW 080653Z AUTO 00000KT 7SM CLR 21/20 A3007 RMK AO2
     T02130197=
KGYL 080655Z AUTO 30003KT 10SM CLR 17/16 A3009 RMK AO2
     T01680156=
KHCD 080652Z AUTO 29003KT 10SM CLR 15/14 A3009 RMK AO2
     T01520141=
KRRT 080654Z AUTO 23007KT 10SM CLR 16/13 A3001 RMK AO2=
KRZN 080654Z AUTO 31007KT 10SM OVC047 20/16 A3005 RMK AO2
     T02000163=
KSAZ 080654Z AUTO 00000KT 10SM CLR 16/16 A3008 RMK AO2=
KSGS 080653Z AUTO 32004KT 10SM CLR 21/17 A3006 RMK AO2
     T02060170=
KTEW 080653Z AUTO 00000KT 10SM CLR 21/20 A3005 RMK AO2=
KTOB 080654Z AUTO 00000KT 10SM CLR 19/18 A3007 RMK AO2=
KTWM 080653Z AUTO 00000KT 10SM SCT050 BKN100 18/15 A3002 RMK
     AO2=
KULM 080655Z AUTO 00000KT 10SM CLR 16/14 A3010 RMK AO2=
KUNI 080655Z AUTO 00000KT 3SM HZ CLR 23/18 A3008 RMK AO2
     T02260181=
KVES 080654Z AUTO 00000KT 7SM CLR 21/20 A3008 RMK AO2
     T02100197=
KVVV 080656Z AUTO 00000KT 10SM CLR 17/14 A3011 RMK AO2=
KY63 080700Z AUTO 20004KT 10SM CLR 16/15 A3009 RMK AO2
     T01550145=
PACM 080656Z AUTO 17011KT 1 1/2SM RA BR FEW007 SCT024 BKN046 12/10
     A3008 RMK AO2 TSNO T01220100 RAB26 P0014 SLP183 $=
PAGN 080656Z AUTO 00000KT CLR RMK AO2 PWINO TSNO SLPNO $=
PATQ 080656Z AUTO 27015KT 10SM CLR 11/03 A3003 RMK AO2 TSNO
     T01110033 SLP172 $=
PHJR 080653Z VRB03KT 10SM FEW060 24/18 A3003 RMK AO2 SLP176
     T02390183=
PHMK 080654Z AUTO 04006KT 10SM CLR 23/19 A3004 RMK AO2 SLP174
     T02280194 TSNO=
KAEJ 080655Z AUTO 29003KT 10SM SCT039 OVC046 09/07 A3045 RMK
     AO2=
KBQX 080655Z AUTO 11011G21KT FEW020 SCT029 OVC050 29/26 A2986 RMK
     A01=
KDLP 080655Z AUTO 12013KT 9SM CLR 28/25 A2998 RMK A01=
KEHC 080655Z AUTO 12025KT 7SM FEW035 FEW045 SCT070 28/25 A2993 RMK
     A01=
KEIR 080655Z AUTO VRB05G15KT 9SM FEW019 SCT024 28/25 A2997 RMK
     A01=
KEMK 080655Z AUTO 14027G35KT 5SM HZ FEW046 BKN060 OVC095 28/25
     A2987 RMK A01=
KGYH 080655Z AUTO 29003KT 10SM CLR 25/19 A3003 RMK AO2=
####018003746####
SAUS80 KWBC 080700
METAR
KBZN 080656Z AUTO 19004KT 10SM CLR 12/05 A3026 RMK AO2 SLPNO
     T01170050 402610039=
KOFK 080656Z AUTO 29003KT 10SM CLR 16/15 A3018 RMK AO2 SLP211
     T01610150=
KSNC 080655Z AUTO 00000KT 1 1/2SM BR OVC001 22/ A3005 RMK AO2=
TJSJ 080656Z 00000KT 10SM CLR 27/24 A2997 RMK AO2 SLP149
     T02720244=
KWMC 080656Z AUTO 05017G23KT 10SM CLR 22/M06 A3003 RMK AO2 SLP116
     T02221056=
KLWS 080656Z AUTO 18003KT 10SM CLR 19/05 A2999 RMK AO2 SLP146
     T01940050=
KP28 080656Z AUTO 01006KT 22/21 A3010 RMK AO2 SLP175 T02220206
     PWINO TSNO=
KCDJ 080656Z AUTO 00000KT 21/21 A3006 RMK AO2 SLP167 T02110206
     PWINO TSNO=
KSXT 080656Z AUTO 35010KT 9SM CLR 20/11 A3002 RMK AO2 SLP099
     T02000106 TSNO=
KFLG 080656Z AUTO 00000KT 10SM FEW085 SCT110 16/01 A3024 RMK AO2
     SLP124 T01560011 402830072 TSNO=
K2WX 080656Z AUTO 27006KT 13/09 A3015 RMK AO1 SLP202 T01330094
     402390083=
KSPD 080656Z AUTO 32008KT 15/13 A3025 RMK AO2 SLP195 P0012
     T01500133 402720144 PWINO TSNO=
KFSD 080656Z 28003KT 10SM CLR 16/14 A3016 RMK AO2 SLP209
     T01560144=
KGNA 080656Z AUTO 33005KT 19/16 A2998 RMK AO2 SLP144 P0001
     T01890161 PWINO TSNO=
KMHS 080656Z AUTO 00000KT 10SM CLR 17/09 A3000 RMK AO2 SLP140
     T01720089 TSNO=
KBIH 080656Z AUTO 00000KT 10SM CLR 19/01 A2995 RMK AO2 SLP089
     T01940006 TSNO=
K8D3 080656Z AUTO 26006KT 18/14 A3009 RMK AO2 SLP177 T01780144
     PWINO TSNO=
KP53 080656Z AUTO 04008KT 19/18 A2995 RMK AO2 SLP140 P0055
     T01890183 PWINO TSNO=
KD07 080656Z AUTO 25003KT 17/08 A3020 RMK AO2 SLP216 T01670078
     402560106 PWINO TSNO=
KRIC 080654Z 08003KT 8SM SCT120 27/20 A2997 RMK AO2 SLP151
     T02670200=
KROA 080654Z 32003KT 7SM BKN090 26/19 A3007 RMK AO2 SLP165
     T02610194=
KWAL 080654Z AUTO 15003KT 7SM BKN100 25/23 A2998 RMK AO2 SLP148
     T02500233 TSNO=
TJSJ 080656Z 00000KT 10SM CLR 27/24 A2997 RMK AO2 SLP149
     T02720244=
KIKW 080654Z AUTO 10SM CLR 22/21 A3001 RMK AO2 T02170205=
KLYV 080658Z AUTO 00000KT 10SM CLR 14/13 A3015 RMK AO2=
KRFD 080654Z 00000KT 10SM -RA FEW040 BKN047 OVC070 22/21 A3004 RMK
     AO2 SLP167 P0001 T02220211=
KROS 080655Z AUTO 31004KT 10SM CLR 18/16 A3006 RMK AO2
     T01830160=
KABQ 080656Z 10018G27KT 10SM OVC130 19/10 A3025 RMK AO2 PK WND
     11028/0627 SLP155 T01940100 403170183=
KJAX 080656Z 27004KT 10SM CLR 20/19 A3001 RMK AO2 SLP163
     T02000189=
K29G 080654Z AUTO 00000KT 7SM CLR 20/18 A3010 RMK AO2 T01980176
     PWINO=
KCAE 080656Z 26004KT 10SM CLR 26/18 A2999 RMK AO2 SLP152
     T02560183=
KCHS 080656Z 29007KT 10SM CLR 25/20 A2997 RMK AO2 SLP148
     T02500200=
KFWA 080654Z 21004KT 10SM CLR 24/20 A3006 RMK AO2 SLP172
     T02390200=
KGSO 080654Z 00000KT 8SM SCT090 26/18 A3001 RMK AO2 SLP150
     T02610178=
KSBN 080654Z 11004KT 10SM OVC110 25/21 A3004 RMK AO2 SLP165
     T02500211=
KSHV 080656Z 13003KT 10SM SCT180 BKN280 25/24 A3000 RMK AO2 SLP154
     T02500239=
KSYN 080710Z AUTO 00000KT 10SM CLR 19/18 A3006 RMK AO2
     T01920175=
KTKC 080653Z AUTO 25005KT 10SM CLR 16/14 A3013 RMK AO2
     T01600139=
KTRI 080653Z 00000KT 5SM HZ CLR 23/19 A3010 RMK AO2 SLP171
     T02280189 $=
KTYS 080653Z 00000KT 8SM CLR 24/20 A3006 RMK AO2 SLP166
     T02390200=
KAKQ 080654Z AUTO 00000KT 3SM BR FEW120 23/21 A2996 RMK AO2 SLP144
     T02330211 TSNO=
PHKO 080653Z 09006KT 10SM CLR 25/16 A2999 RMK AO2 SLP155
     T02500161=
PHOG 080654Z 03013KT 10SM FEW030 SCT050 25/18 A3003 RMK AO2 SLP173
     T02500183=
PHTO 080653Z 06003KT 10SM SCT029 SCT050 OVC065 24/18 A3003 RMK AO2
     SLP169 T02440183=
KMYT 080655Z AUTO 13015KT 10SM CLR 28/24 A2996 RMK A01=
####018001535####
SAUS70 KWBC 080700 RRC
METAR
KHFF 080655Z AUTO 35004KT 10SM CLR 22/19 A2998 RMK AO2 SLP148
     T02250188 $=
KHQI 080655Z AUTO 09027KT 6SM HZ FEW025 FEW030 SCT036 29/26 A2989
     RMK A01=
KHXD 080655Z AUTO 22007KT 10SM CLR 25/20 A2999 RMK AO2 P0000=
KHYW 080655Z AUTO 00000KT 7SM SCT120 25/23 A2994 RMK AO2=
KIPN 080655Z AUTO 09014KT 10SM 59/54 A2998 RMK A01=
KJZI 080655Z AUTO 28006KT 10SM CLR 24/24 A2997 RMK A02 P000=
KMCJ 080655Z AUTO 11010KT 7SM FEW025 27/24 A2990 RMK AO1=
KMDJ 080655Z AUTO 13017KT 10SM SCT045 BKN055 29/24 A3000 RMK
     A01=
KMEI 080658Z AUTO 00000KT 10SM CLR 23/23 A3004 RMK AO2 SLP169
     T02330228=
KMIU 080655Z AUTO 10015KT 8SM FEW016 SCT043 BKN050 29/26 A2982 RMK
     A01=
KMZG 080655Z AUTO VRB03KT 9SM FEW022 SCT029 SCT034 29/25 A2982 RMK
     A01=
KSPF 080655Z AUTO 21003KT 10SM CLR 11/08 A3028 RMK AO2=
KVBS 080655Z AUTO 12022G28KT 10SM FEW022 SCT028 29/25 A2993 RMK
     A01=
KVNP 080655Z AUTO 10009G15KT 8SM 28/26 A2997 RMK A01=
KY50 080656Z AUTO 19005KT 4SM BR OVC002 22/22 A3000 RMK AO2
     T02220222 RAE44 P0000 SLP151 $=
PAFS 080656Z AUTO VRB06KT 10SM CLR 18/05 A2999 RMK AO2 TSNO
     T01770050 SLP163 $=
PAIW 080657Z AUTO 22004KT 10SM CLR 09/06 A3018 RMK AO2 SLP314
     T00890061=
PAMB 080656Z AUTO 01009KT 10SM SCT050 11/08 A2993 RMK AO2 PWINO
     TSNO T01110083 SLP138 $=
PPIZ 080656Z AUTO 21010KT 10SM CLR 07/03 A3011 RMK AO2 TSNO
     T00660027 SLP198 $=
KFMH 080655Z AUTO 16006KT 1SM BR OVC002 21/20 A3007 RMK AO2=
####018003707####
SAXX60 KWBC 080700 RRA
METAR
KSKA 080655Z AUTO 07004KT 10SM CLR 18/08 A3006 RMK AO2 SLP167
     T01800081=
KSLI 080655Z AUTO 00000KT 10SM BKN016 15/13 A2992 RMK AO2 SLP132
     T01540131=
KTBN 080655Z AUTO 15003KT 10SM BKN050 OVC200 23/ A3006 RMK AO2
     SLP160 T0230 $=
KTCM 080655Z AUTO 00000KT 10SM CLR 18/13 A2993 RMK AO2 SLP136
     T01820130=
KTIK 080655Z AUTO 03003KT 10SM OVC021 23/23 A3003 RMK AO2 OVC V
     BKN SLP157 T02350226 $=
KVAD 080655Z AUTO 00000KT 8SM R18/5000VP6000FT CLR 22/20 A3003 RMK
     AO2 SLP167 T02230196 $=
KVBG 080655Z AUTO 34005KT 10SM CLR 13/11 A2993 RMK AO2 CIG 010
     RWY12 SLP127 T01280111 401610094 TSNO $=
KVOK 080655Z 24003KT 10SM FEW120 22/22 A3000 RMK AO2A SLP153
     T02220222=
KVPS 080655Z 31002KT 10SM SKC 24/24 A3003 RMK SLP170 T02430237=
KMRT 080653Z AUTO 00000KT 7SM CLR 21/19 A3011 RMK AO2
     T02130192=
KNTU 080656Z 11005KT 4SM BR CLR 26/24 A2994 RMK AO2 SLP142
     T02560244 $=
KNID 080656Z AUTO 19007KT FEW090 27/03 A2982 RMK AO2 SLP071
     T02720033 TSNO $=
PHBK 080656Z AUTO 27005KT 10SM SCT080 27/19 A3001 RMK AO2 SLP164
     T02720194 TSNO $=
KHLR 080656Z AUTO 11005KT 10SM BKN015 BKN055 26/26 A2999 RMK AO2
     SLP146 T02610261 $=
PGUA 080655Z AUTO 08014KT 10SM BKN018 BKN025 28/ A2985 RMK AO2 CIG
     016V021 SLP091 T0278 VISNO RWY24L $=
PHHI 080655Z AUTO 05005KT 10SM FEW035 SCT055 22/18 A3005 RMK AO2
     SLP167 T02180180=
PHNL 080653Z 02007KT 10SM FEW029 SCT047 24/18 A3003 RMK AO2
     RAB15E53 SLP167 P0000 T02440183=
PWAK 080652Z 08015G18KT 8SM HZ FEW020 FEW030 28/24 A2996 RMK
     AO2A=
KBIX 080655Z AUTO 05003KT 10SM CLR 25/25 A3002 RMK AO2 SLP166
     T02530250=
KGBK 080655Z AUTO 10020G26KT 10SM FEW021 29/25 A2990 RMK A01=
KGTB 080655Z AUTO 19005KT 10SM CLR 23/20 A3003 RMK AO2 SLP167
     T02310203=
KMCF 080655Z AUTO 07005KT 10SM CLR 25/23 A3000 RMK AO2 SLP162
     T02490232=
KMHR 080655Z AUTO 19006KT 10SM CLR 15/10 A2984 RMK AO1=
KMXF 080655Z AUTO 00000KT 10SM CLR 27/24 A3001 RMK AO2 SLP162
     T02700244=
KNRB 080652Z 22005KT 10SM CLR 22/19 A3001 RMK AO2 SLP160
     T02220194=
KPAM 080655Z AUTO 36003KT 9SM CLR 23/23 A3001 RMK AO2 SLP165
     T02290227=
KVAD 080655Z AUTO 00000KT 8SM R18/5000VP6000FT CLR 22/20 A3003 RMK
     AO2 SLP167 T02230196 $=
KNBC 080656Z AUTO 26005KT 10SM CLR 24/19 A2998 RMK AO2 SLP151
     T02440189=
KNRS 080656Z AUTO 30006KT 10SM OVC018 17/13 A2992 RMK AO2 SLP130
     T01720128 TSNO $=
KCVS 080655Z 01006KT 10SM BKN120 17/15 A3020 RMK AO2A SLP188
     T01730150 402840161 $=
KDMA 080655Z AUTO 05005KT 10SM CLR 31/09 A2986 RMK AO2 SLP035
     T03130088 403920235 $=
KFAF 080655Z 00000KT 9SM FEW080 SCT110 26/26 A2995 RMK AO2A SLP143
     T02640264=
KHLR 080656Z AUTO 11005KT 10SM BKN015 BKN055 26/26 A2999 RMK AO2
     SLP146 T02610261 $=
KHOP 080655Z AUTO 00000KT 10SM CLR 25/22 A3007 RMK AO2 SLP176
     T02520223=
KNCA 080656Z AUTO 01004KT 10SM CLR 26/22 A2991 RMK AO2 SLP128
     T02560217=
KNGP 080656Z AUTO 08005KT 10SM FEW055 28/26 A2983 RMK AO2 TSE0559
     SLP101 T02830261 $=
KNKX 080655Z 35004KT 10SM OVC016 17/13 A2992 RMK AO2 SLP125
     T01670133=
KNQI 080656Z AUTO 36003KT 10SM CLR 27/24 A2985 RMK AO2 SLP104
     T02670244 $=
KNTU 080656Z 11005KT 4SM BR CLR 26/24 A2994 RMK AO2 SLP142
     T02560244 $=
KNYL 080655Z 00000KT 10SM CLR 30/06 A2971 RMK AO2 SLP055 T03000056
     404060239=
KPOE 080655Z AUTO 11005KT 10SM CLR 24/23 A3000 RMK AO2 SLP158
     T02440228=
KPSM 080655Z 11003KT 2SM BR BKN003 OVC006 21/21 A3004 RMK AO2A
     SLP174 T02130207=
KSVN 080655Z 23003KT 10SM SKC 23/21 A2998 RMK SLP155=
####018000093####
SAUS70 KWBC 080800
METAR
KBBF 080755Z AUTO VRB08G19KT 10SM FEW026 30/27 A2982 RMK A01=
####018000221####
SAUS80 KWBC 080700 RRA
METAR
KSCF 080700Z AUTO 15020KT 8SM FEW017 BKN024 BKN029 29/26 A2992 RMK
     A01=
PHNY 080656Z AUTO 06017KT 10SM CLR 22/17 A3006 RMK AO2 TSNO
     T02160166 PK WND 05029/0642 SLP160 $=
####018000530####
SAXX60 KWBC 080700 RRB
METAR
KVBG 080655Z AUTO 34005KT 10SM CLR 13/11 A2993 RMK AO2 CIG 010
     RWY12 SLP127 T01280111 401610094 TSNO $=
PACZ 080655Z AUTO 03008KT 10SM 12/12 A3006 RMK AO1 T01220117=
PALU 080655Z AUTO 22023G28KT 10SM CLR 13/01 A3009 RMK AO1
     T01280012=
PAIM 080655Z AUTO 30004KT 10SM CLR 17/07 A3008 RMK AO1
     T01670067=
PATL 080655Z AUTO 05005KT 10SM CLR 18/05 A2999 RMK AO1
     T01780051=
PASV 080655Z AUTO 00000KT 10SM SCT041 SCT055 BKN070 10/09 A2997
     RMK AO1 T01000095=
####018000362####
SPUS70 KWBC 080700
SPECI
KBML 080657Z AUTO 00000KT 1/4SM FG SCT001 BKN007 OVC050 19/19
     A3008 RMK AO2 $=
KGFL 080657Z AUTO 00000KT 3SM BR CLR 22/22 A3002 RMK AO2=
KTOP 080657Z AUTO 08007KT 3SM +RA BR BKN015 OVC070 22/21 A3008 RMK
     AO2 P0002=
PABA 080657Z AUTO 27006KT 10SM -RA BKN005 OVC012 02/02 A3005 RMK
     AO2 RAB50 P0000 FZRANO=
####018000117####
SPUS80 KWBC 080700
SPECI
PADQ 080656Z 31003KT 1 1/2SM -RA BR BKN006 OVC010 10/09 A2981 RMK
     AO2 P0000 $=
####018000366####
SAXX60 KWBC 080700 CCA
METAR
KNJK 080656Z AUTO 26008KT 10SM CLR 28/09 A2967 RMK AO2 SLP06Lj
     T02830089 TSNO=
KNXP 080656Z AUTO 31004KT CLR 28/02 A2989 RMK AO2 SLP079 T02780022
     $=
KNJK 080656Z AUTO 26008KT 10SM CLR 28/09 A2967 RMK AO2 SLP061
     T02830089 TSNO=
KNXP 080656Z AUTO 31004KT CLR 28/02 A2989 RMK AO2 SLP079 T02780022
     $=
####018000532####
SAUS80 KWBC 080700 CCA
METAR
KTUP 080653Z AUTO 04003KT 10SM CLR 24/23 A3005 RMK AO2 SLP170
     T02440233=
KDAB 080653Z 00000KT 10SM FEW026 21/20 A3000 RMK AO2 SLP158
     T02110200 $=
KBTR 080653Z 06005KT 10SM SCT200 24/23 A2999 RMK AO2 SLP155
     T02440233 $=
KMGM 080653Z 00000KT 10SM CLR 26/23 A3002 RMK AO2 SLP162
     T02610228=
KSMP 080656Z AUTO 00000KT 10SM CLR 18/03 A3015 RMK AO2 SLP178
     T01780033 TSNO $=
KMCN 080653Z AUTO 12003KT 10SM CLR 22/20 A3003 RMK AO2 SLP163
     T02170200 TSNO=
####018000112####
SAUS80 KWBC 080800
METAR
K3A6 080750Z AUTO 36003KT 11/10 A2990 RMK AO1 SLP143 T01140101
     402620107=
####018000091####
SAAJ31 UBBB 080700
METAR UBBB 080700Z 34024KT CAVOK 32/24 Q1011 NOSIG RMK
R88CLRD70=
####018000183####
SPAU31 KWBC 080700
SPECI
YPPH 080657Z 36014KT 2000 SHRA SCT018 BKN060 FEW022CB 15/14 Q1000
FM0657 33018G28KT 9999 -SHRA BKN020 INTER 0657/0957 27025G35KT
3000 +SHRA BKN010=
####018000119####
SAUS44 KBMX 080659
MTREUF
METAR KEUF 080658Z AUTO 00000KT 10SM CLR 22/19 A3002 RMK AO2 SLP160 
T02170189 PNO $
####018000086####
SADL32 KWBC 080650 RRA
METAR
EDLN 080650Z VRB03KT CAVOK 24/16 Q1019 RMK ATIS E=
####018000091####
SADL33 KWBC 080645 RRC
METAR
EDXW 080650Z 20010KT CAVOK 21/12 Q1018 RMK ATIS INFO M=
####018000107####
SANL31 KWBC 080650 RRB
METAR
EHKD 080655Z AUTO 23009KT 9999NDV SCT120/// 19/15 Q1018 BLU
     BLU=
####018000078####
SAMZ40 FQMA 080700
METAR FQBR 080700Z 18010KT 9999 FEW018 20/17 Q1026=

####018000087####
SAUK31 KWBC 080650 CCA
METAR
EGCC 080650Z 20008KT 9999 FEW027 14/12 Q1017 NOSIG=
####018000087####
SAUK32 KWBC 080650 CCA
METAR
EGPB 080650Z 20014KT 9999 FEW020 13/10 Q1005 NOSIG=
####018000057####
SAXX99 KWBC 080600 RRX
METAR
K8S0 080555Z 26006KT=
####018000109####
SAKA31 PTTP 080700
METAR PTTP 080655Z 12003KT 15SM SCT018 BKN300 28/24 
A2982 RMK SLP098 T02830237=
####018000081####
SPUS51 KWBC 080700
SPECI
KGFL 080657Z AUTO 00000KT 3SM BR CLR 22/22 A3002=
####018000122####
SAUS46 KSGX 080700 COR
MTRNJK
METAR KNJK 080656Z AUTO 26008KT 10SM CLR 28/09 A2967 RMK AO2 SLP061 
T02830089 TSNO
####018000095####
SPUS52 KWBC 080700
SPECI
KTOP 080657Z AUTO 08007KT 3SM +RA BR BKN015 OVC070 22/21 A3008=
####018000425####
SAUK37 EGGY 080650
METAR EGAE 080650Z 22011KT 9999 FEW014 SCT023 14/10 Q1011=
METAR EGNC 080650Z NIL=
METAR EGNH 080650Z 22009KT 9999 FEW022 SCT040 16/11 Q1016=
METAR EGNJ 080650Z 22008KT 9999 FEW030 16/11 Q1017=
METAR EGNR 080650Z 21007KT 9999 FEW025 15/11 Q1017=
METAR EGPE 080650Z 22020KT 9999 FEW025 SCT048 15/09 Q1007=
METAR EGPI 080650Z NIL=
METAR EGPN 080650Z 22016KT 9999 FEW022 SCT048 15/11 Q1011=
####018000106####
SAGR32 LGAT 080650 RRA
METAR LGAL 080650Z 04004KT 5000 RA SCT006 SCT020TCU BKN025 15/14
      Q1015=
####018000096####
SAUK31 EGGY 080650 CCB
METAR COR EGLL 080650Z 23009KT 9999 BKN010 18/15 Q1019 BECMG SCT010=
####018000452####
SAPK31 OPKC 080700
METAR OPGD 080700Z NIL=
METAR OPKC 080700Z 08008KTS 9000 BKN030 35/25 Q.1004 NOSIG=
METAR OPLA 080655Z 10003KT 6000 SCT040 37/23 Q1006 NOSIG=
METAR OPNH 080700Z 09004KT 6000M SCT035 37/24 Q.1004=
METAR OPPS 080700Z NE-10KT 5000 HZ FEW040 37/24 Q1007.0=
METAR OPRN 080700Z 18008KT 9999 FEW040 36/21 1008.1=
METAR OPSK 080655Z 060006KTS 6000 HZ SCT200 38/25 QNH 1003 R.H. 47
CHECK
TEXT
NEW ENDING ADDED VABBYFYX=
####018000076####
SAGR31 LGAT 080650 RRB
METAR LGSM 080650Z 34007G17KT CAVOK 28/15 Q1010=
####018000728####
SANL33 EHDB 080655
METAR EHAK 080655Z AUTO 19011KT 9999NDV 16/15 Q1015=
METAR EHDV 080655Z NIL=
METAR EHFD 080655Z AUTO 24011KT 210V290 9999NDV FEW025/// 16/15
Q1017=
METAR EHFZ 080655Z AUTO 22013KT 9999NDV SCT023/// BKN027/// BKN044///
17/15 Q1017=
METAR EHJA 080655Z AUTO 23017KT 9999NDV -DZ SCT023/// BKN028///
BKN033/// 16/15 Q1017=
METAR EHJR 080655Z NIL=
METAR EHKV 080655Z AUTO 25018KT 9999NDV 16/14 Q1017=
METAR EHMA 080655Z AUTO 22008KT 9999NDV 20/16 Q1018=
METAR EHMG 080655Z AUTO 23018KT 9999NDV OVC041/// 17/15 Q1017=
METAR EHPG 080655Z AUTO 23016KT 9999NDV ///////// 16/14 Q1018=
METAR EHQE 080655Z AUTO 23015KT 9999NDV 16/14 Q1017=
METAR EHSA 080655Z NIL=
METAR EHSC 080655Z NIL=
####018000081####
SAMP31 LMMM 080700 RRA
METAR HLLT 080650Z 
VRB02KT 7000 BKN016 25/19 Q1019=
####018000077####
SALY31 HLLT 080700
METAR HLLT 080650Z 
VRB02KT 7000 BKN016 25/19 Q1019=
####018000617####
SAUK36 EGGY 080650
METAR EGBE 080650Z NIL=
METAR EGBJ 080650Z 24003KT 9999 FEW017 16/12 Q1019=
METAR EGCN 080650Z 23008KT CAVOK 16/11 Q1017=
METAR EGDL 080650Z 22004KT 9999 FEW012 SCT035 BKN120 16/13 Q1019
    NOSIG=
METAR EGSC 080650Z 26009KT 220V280 3800 -SHRA BKN003 16/15 Q1018=
METAR COR EGSD 080650Z 24010KT 9999 FEW010 BKN030 20/17 Q1018 NOSIG=
METAR COR EGSH 080650Z 24007KT 220V280 9999 FEW009 BKN027 19/16
    Q1018 NOSIG=
METAR EGVN 080650Z 26005KT 9999 SCT030 SCT140 BKN200 16/11 Q1019
    NOSIG=
METAR EGWU 080650Z 23007KT 9999 -RADZ FEW008 OVC010 18/15 Q1019
    TEMPO 6000=
####018000107####
SAGR32 LGAT 080650 RRA
METAR LGAL 080650Z 04004KT 5000 RA SCT006 SCT020TCU BKN025 15/14
      Q1015=
####018000073####
SAGR31 LGAT 080650 RRA
METAR LGSA 080650Z 30008KT CAVOK 31/15 Q1011=
####018000386####
SAUK38 EGGY 080650
METAR EGEC 080650Z NIL=
METAR EGPA 080650Z 19015KT 9999 FEW030 15/11 Q1005=
METAR EGPC 080650Z 19013KT 160V220 9999 FEW025 14/11 Q1007=
METAR EGPL 080650Z 22019KT 9999 VCSH FEW015TCU SCT020 14/10
    Q1006=
METAR EGPM 080650Z 21019KT 9999 FEW012 SCT045 14/10 Q1004=
METAR EGPO 080650Z 22022KT 9999 FEW018 BKN040 13/10 Q1004=
METAR EGPU 080650Z NIL=
####018000081####
SAMP31 LMMM 080700 RRA
METAR HLLT 080650Z
VRB02KT 7000 BKN016 25/19 Q1019=
####018000080####
SAMP31 LMMM 080700 RRA
METAR HLLT 080650Z
VRB02KT 7000 BKN016 25/19 Q1019=
