####018000112####
SAIN31 VABB 080940 RRA
METAR VOTV 080940Z 32007KT 5000 HZ FEW015 FEW025 TCU BKN200 27/24
    Q1008 NOSIG=
####018000166####
SAAK17 KAWN 081000 RRA
PACZ SA 0955 AWOS MM 10 50/49/0308/007=
PAEH SA 0955 AWOS M16 BKN 10 48/-20/0000/000=
PAIM SA 0955 AWOS CLR BLO 120 10 52/45/3104/009=
####018000363####
SPNA35 KAWN 080955 RRH
SPECI KDOV 080954Z AUTO 07003KT 1 3/4SM BR FEW007 24/ A3000 RMK AO2
      SLP161 $=
SPECI KWRI 080950Z AUTO 11004KT M1/4SM R18/0200V3000FT R24/0300V0700FT
      FG VV001 23/23 A3000 RMK AO2 BKN V SCT SLP160 $=
SPECI KWRI 080951Z AUTO 11005KT M1/4SM R18/0200V1800FT R24/0300V0700FT
      FG VV001 23/23 A3000 RMK AO2 SLP160 $=
####018000116####
SAUS45 KLKN 080955
MTRP68
METAR KP68 080953Z AUTO 20006KT 08/M03 A3015 RMK AO2 SLP135 
T00781028 PWINO TSNO
####018000085####
SAFJ31 NFNA 081000
METAR NFNA 081000Z 00000KT 40KM SCT024 22/21 Q1014 RMK RR NIL
####018000088####
SAXX70 KAWN 080900 RRX
METAR KQEJ 080940Z AUTO 00000KT 7SM CLR 25/19 A2991 RMK A02=
####018000307####
SANO38 ENMI 080950
METAR ENDR 080950Z NIL=
METAR ENEK 080950Z 22014KT CAVOK 15/13 Q1015 W15/S3=
METAR ENGC 080950Z 19027KT CAVOK 13/11 Q1008=
METAR ENHE 080950Z 18023KT 9999 FEW040 SCT100 14/11 Q1008=
METAR ENOA 080950Z 19025KT CAVOK 13/11 Q1009=
METAR ENSL 080950Z 22024KT CAVOK 14/11 Q1012=
####018000092####
SAMZ40 FQMA 081000
METAR FQMA 081000Z 14004KT 090V180 9999 BKN020 24/16 Q1030 NOSIG=

####018000701####
SADL34 EDZO 080950
METAR EDAC 080950Z 23004KT CAVOK 25/11 Q1022=
METAR EDGS 080950Z VRB06KT CAVOK 24/11 Q1023=
METAR EDHL 080950Z 15009KT 120V190 CAVOK 27/14 Q1020=
METAR EDJA 080950Z 06006KT 010V100 CAVOK 23/11 Q1023=
METAR EDLN 080950Z 22005KT 150V260 CAVOK 28/10 Q1019=
METAR EDLP 080950Z VRB03KT CAVOK 29/11 Q1020=
METAR EDLW 080950Z 20009KT CAVOK 29/09 Q1020=
METAR EDMA 080950Z 13006KT 090V170 CAVOK 24/09 Q1023=
METAR EDNY 080950Z 20004KT CAVOK 24/14 Q1022=
METAR EDQM 080950Z 07006KT 030V110 CAVOK 22/08 Q1024=
METAR EDRZ 080950Z VRB05KT 130V130 CAVOK 27/11 Q1021=
METAR EDSB 080950Z 33004KT 280V360 CAVOK 27/13 Q1021=
METAR EDXW 080950Z 21012KT CAVOK 23/12 Q1018=
####018000245####
SADL35 EDZO 080950
METAR EDHI 080950Z 19007KT 150V250 CAVOK 27/10 Q1019=
METAR EDMO 080950Z 11006KT 080V160 CAVOK 23/08 Q1023=
METAR EDOP 080950Z 19009KT 120V240 CAVOK 27/09 Q1021=
METAR EDTD 080950Z 16006KT 090V180 CAVOK 24/10 Q1023=
####018000333####
SADL33 EDZO 080950
METAR EDFE 080950Z 00000KT CAVOK 27/10 Q1020=
METAR EDFH 080950Z 13006KT 070V210 CAVOK 25/09 Q1022=
METAR EDFM 080950Z 14007KT 090V210 CAVOK 29/09 Q1020=
METAR EDLV 080950Z 21007KT 170V260 CAVOK 29/11 Q1019=
METAR EDTL 080950Z VRB02KT CAVOK 27/11 Q1020=
METAR EDVK 080950Z 19010KT CAVOK 25/10 Q1022=
####018002987####
SAAK41 KNKA 080955
METAR PAAQ 080953Z AUTO 04005KT 10SM -RA SCT070 OVC090 12/09 A3002 
    RMK AO2 SLP162 P0000 T01220094 TSNO=
METAR PABE 080953Z VRB05KT 10SM BKN120 09/09 A3001 RMK AO2 SLP171 
    T00900087 PNO $=
METAR PABI 080953Z AUTO 00000KT 10SM CLR 12/08 A3009 RMK AO2 SLP189 
    T01170078 TSNO=
METAR PABR 080953Z 25015KT 10SM BKN200 06/02 A2999 RMK AO2 SLP157 
    T00560022 $=
METAR PABT 080953Z 00000KT 10SM SCT120 12/10 A3007 RMK AO2 SLP189 
    T01170100=
METAR PACD 080953Z 15007KT 10SM FEW048 SCT180 05/03 A2994 RMK AO2 
    SLP137 T00500033=
METAR PACV 080953Z 13009G16KT 10SM SCT048 OVC060 16/10 A3009 RMK AO2 
    RAE34 SLP188 P0001 T01560100=
METAR PADE 080953Z AUTO 20006KT 10SM CLR 06/04 A3015 RMK AO2 SLP208 
    T00560039 TSNO=
METAR PADQ 080953Z 00000KT 10SM OVC018 10/09 A2984 RMK AO2 RAE14 
    SLP103 P0000 T01000094 $=
METAR PAEG 080953Z AUTO 00000KT 10SM SCT090 06/03 A3003 RMK AO2 
    SLP172 T00560033 TSNO=
METAR PAEN 080953Z AUTO 01012KT 10SM OVC080 14/11 A2996 RMK AO2 
    SLP147 T01390111 TSNO=
METAR PAFA 080953Z 00000KT 10SM FEW200 13/08 A3003 RMK AO2 SLP173 
    T01330078=
METAR PAGY 080953Z AUTO 00000KT 10SM CLR 11/10 A3021 RMK AO2 SLP228 
    T01060100 TSNO=
METAR PAHO 080953Z AUTO 10011KT 10SM BKN075 12/09 A2989 RMK AO2 
    SLP122 T01220089 TSNO=
METAR PAIL 080953Z AUTO 36007KT 10SM FEW080 11/08 A2992 RMK AO2 
    SLP135 T01060078 TSNO=
METAR PAJN 080953Z 00000KT 10SM FEW250 11/09 A3018 RMK AO2 SLP221 
    T01060094=
METAR PAKT 080953Z AUTO 31004KT 10SM CLR 17/12 A3008 RMK AO2 SLP185 
    T01720117 TSNO=
METAR PAKV 080953Z AUTO 00000KT 10SM CLR 09/07 A3010 RMK AO2 SLP195 
    T00890067 TSNO=
METAR PAKW 080953Z AUTO VRB03KT 10SM CLR 12/10 A3013 RMK AO2 SLP203 
    T01220100 TSNO=
METAR PALH 080953Z 00000KT 10SM -RA SCT075 BKN090 13/10 A3000 RMK 
    AO2 RAB03 SLP160 P0001 T01330100=
METAR PAMC 080953Z 00000KT 10SM FEW040 BKN110 BKN200 13/08 A2999 RMK 
    AO2 SLP157 T01330083=
METAR PAMR 080953Z 00000KT 10SM FEW060 SCT080 BKN100 BKN200 13/11 
    A2999 RMK AO2 RAB05E20 SLP156 T01330106 $=
METAR PANC 080953Z 00000KT 10SM FEW070 BKN090 11/11 A2999 RMK AO2 
    RAE48 SLP157 P0000 T01110106=
METAR PANN 080953Z AUTO 00000KT 10SM OVC075 12/09 A3002 RMK AO2 
    SLP170 T01220094 TSNO=
METAR PANT 080953Z 33009KT 10SM CLR 19/11 A3006 RMK AO2 SLP180 
    T01890111=
METAR PAOM 080953Z 04010KT 10SM FEW045 SCT095 SCT200 15/09 A3009 RMK 
    AO2 SLP190 T01500089=
METAR PAOR 080953Z 00000KT 10SM FEW070 10/09 A3008 RMK AO2 SLP188 
    T01000094=
METAR PAOT 080953Z 30010KT 10SM FEW040 SCT090 BKN200 12/07 A3013 RMK 
    AO2 SLP201 T01170072=
METAR PAPB 080953Z AUTO 09018KT 10SM OVC046 07/06 A2992 RMK AO2 
    SLP119 T00720056 TSNO=
METAR PAQT 080953Z AUTO 23007KT 10SM CLR 08/06 A3005 RMK AO2 SLP178 
    T00780061 TSNO=
METAR PASC 080953Z 25010KT 10SM OVC028 11/07 A3001 RMK AO2 SLP163 
    T01060072=
####018000749####
SAAK41 KNKA 080955
METAR PASI 080953Z 00000KT 10SM CLR 13/12 A3018 RMK AO2 SLP221 
    T01280117=
METAR PASN 080953Z 07011KT 10SM FEW004 SCT035 OVC045 06/04 A2994 RMK 
    AO2 SLP141 T00560044=
METAR PASO 080953Z AUTO 00000KT 10SM -RA OVC060 11/10 A2990 RMK AO2 
    RAB13 SLP123 P0001 T01060100 TSNO=
METAR PATK 080953Z AUTO 00000KT 10SM CLR 14/11 A2999 RMK AO2 SLP157 
    T01390111 TSNO=
METAR PATO 080953Z AUTO 12013G30KT 6SM -RA BR FEW026 SCT031 OVC042 
    13/11 A3001 RMK AO2 PK WND 11037/0905 SLP162 P0014 T01280111 
    TSNO=
METAR PAWD 080953Z AUTO 12003KT 1/2SM FG SCT003 OVC060 10/09 A2996 
    RMK AO2 SLP146 T01000094 TSNO=
METAR PAYA 080953Z 00000KT 10SM CLR 11/09 A3019 RMK AO2 SLP222 
    T01060094=
####018000115####
SAUS42 KTAE 080955
MTR40J
METAR K40J 080953Z AUTO 00000KT 21/20 A2999 RMK AO2 SLP155 T02110200 
PWINO TSNO
####018000117####
SAUS44 KLIX 080955
MTRMSY
METAR KMSY 080953Z 00000KT 9SM FEW018 SCT250 26/23 A2999 RMK AO2 
SLP160 T02610233
####018000089####
SPCN46 CWAO 080953
SPECI CYKL 080953Z AUTO 05004KT 9SM BKN026 OVC082 14/13 A2990=

####018000419####
SANO33 ENMI 080950
METAR ENAT 080950Z 17008KT 9999 FEW045 SCT080 20/10 Q1013 =
METAR ENBL 080950Z NIL=
METAR ENEV 080950Z 11007KT 050V140 CAVOK 20/08 Q1010 =
METAR ENFL 080950Z NIL=
METAR ENKB 080950Z 13005KT 070V190 CAVOK 21/11 Q1009=
METAR ENKR 080950Z 17006KT 9999 BKN012 13/09 Q1018 =
METAR ENML 080950Z 08004KT 9999 SCT060 20/09 Q1009=
METAR ENNA 080950Z 18017KT 9999 FEW040 SCT070 19/09 Q1013 =
####018000601####
SANO32 ENMI 080950
METAR ENAL 080950Z 18012KT 150V210 9999 SCT060 19/08 Q1009=
METAR ENCN 080950Z 20007KT 5000 BR VV003 16/16 Q1015=
METAR ENHD 080950Z 20011KT 9999 FEW020 16/12 Q1014=
METAR ENRO 080950Z 20010KT 160V230 9999 FEW030 SCT060 BKN110 18/07
           Q1011=
METAR ENRY 080950Z 17007KT 150V210 9999 -RA FEW006 BKN009 16/14 Q1016
           TEMPO SCT008 BKN012=
METAR ENSB 080950Z 27010KT 9999 FEW010 SCT035 BKN060 08/06 1008 NOSIG
           =
METAR ENTC 080950Z 29004KT 9999 FEW065 17/07 Q1011 NOSIG=
METAR ENTO 080950Z 16010KT 9999 VCSH FEW005 BKN013 16/15 Q1016=
####018000382####
SANO36 ENMI 080950
METAR ENBS 080950Z 04006KT 9999 FEW002 SCT025 11/09 Q1017=
METAR ENHK 080950Z NIL=
METAR ENHV 080950Z VRB01KT CAVOK 11/08 Q1014 =
METAR ENLK 080950Z 19007KT CAVOK 18/10 Q1011=
METAR ENMH 080950Z 16007KT 9999 FEW015 15/09 Q1016=
METAR ENNK 080950Z 06005KT 9999 -SHRA FEW040 BKN060 17/10 Q1011=
METAR ENNM 080950Z 24004KT 210V280 CAVOK 18/13 Q1009=
####018000122####
SAUS46 KPQR 080955 COR
MTRBNO
METAR KBNO 080953Z AUTO 24008KT 10SM CLR 09/01 A3011 RMK AO2 SLP166 
T00890011 TSNO
####018000374####
SANO35 ENMI 080950
METAR ENMS 080950Z 21008KT 9999 SCT050 23/08 Q1009 =
METAR ENRM 080950Z 09003KT 030V170 CAVOK 19/10 Q1010=
METAR ENRS 080950Z 20006KT 9999 -SHRA NSC 13/10 Q1010=
METAR ENSK 080950Z 15002KT CAVOK 19/10 Q1010=
METAR ENSO 080950Z 19013KT 9999 SCT020TCU 18/11 Q1013=
METAR ENST 080950Z NIL=
METAR ENVD 080950Z 13005KT 9999 BKN023 12/08 Q1017=
####018000436####
SANO37 ENMI 080950
METAR ENNO 080950Z 13007KT 080V200 9999 FEW015 SCT025 BKN120 18/14
           Q1014=
METAR ENOV 080950Z VRB05KT 9999 SCT055 SCT085 19/06 Q1009 =
METAR ENSD 080950Z NIL=
METAR ENSG 080950Z 24009KT 210V280 9999 SCT040 16/09 Q1012=
METAR ENSN 080950Z 18007KT 9999 SCT015 BKN070 16/14 Q1015=
METAR ENSR 080950Z 12011KT 9999 FEW040 SCT080 20/09 Q1011=
METAR ENSS 080950Z 06002KT 999 BKN014 09/08 Q1018 =
####018000115####
SABE31 TXKF 080953
METAR TXKF 080955Z 17014KT 9999 FEW013TCU SCT060 BKN170
BKN300 25/23 Q1018 RMK TCU DSNT N
####018001568####
SAZZ40 KAWN 081000 RRB
METAR EGMH 080950Z 26007KT 220V290 9999 FEW018 22/17 Q1019=
METAR KBAF 080953Z 15003KT 6SM BR FEW070 BKN100 23/21 A3005 RMK AO2
      SLP171 T02330211=
METAR KBUR 080953Z VRB03KT 8SM OVC009 16/13 A2990 RMK AO2 SLP114 T01560133=
METAR KCEF 080955Z AUTO 15003KT 10SM FEW085 24/22 A3005 RMK AO2 SLP176
      T02360217 PWINO $=
METAR KDTS 080953Z AUTO 00000KT 3SM BR FEW001 25/23 A3001 RMK AO2 SLP160
      T02500233=
METAR KEGI 080955Z AUTO 00000KT 3/4SM R18/1000V5000FT BR CLR 21/21
      A3002 RMK AO2 SLP167 T02130208 $=
METAR KGRF 080955Z AUTO 14005KT 10SM CLR 14/11 A2994 RMK AO2 SLP139
      T01400106 $=
METAR KGUS 080955Z AUTO 00000KT 10SM SCT100 23/20 A3004 RMK AO2 SLP167
      T02290204=
METAR KNZY 080952Z 32006KT 8SM FEW008 OVC014 18/14 A2989 RMK AO2 DZE43
      SLP120 P0000 T01780139 $=
METAR KOZR 080955Z AUTO 00000KT 5SM R06/4000V5500FT BR CLR 22/22 A3002
      RMK AO2 SLP162 T02180218=
METAR KPOB 080955Z AUTO 00000KT 10SM CLR 23/20 A2995 RMK AO2 SLP141
      T02300197 $=
METAR MSLP 080950Z 10002KT 9999 SCT023 BKN060 24/23 Q1010 A2985=
METAR NFFN 081000Z 14006KT 40KM FEW030 22/19 Q1014 NOSIG RMK RR NIL=
METAR OAMS 080950Z 32006KT 9999 SKC 42/00 Q1006 BLU/BLU/=
METAR OSAP 081000Z 29015KT CAVOK 32/18 Q1006=
METAR OSDI 081000Z 21012KT CAVOK 36/01 Q1009=
METAR OSLK 081000Z 24008KT 9999 FEW026 SCT030 28/20 Q1009=
METAR PHJR 080953Z 00000KT 10SM SCT050 23/18 A3005 RMK AO2 SLP183 T02330183
      403060217=
METAR TJPS 080950Z 05005KT 8SM FEW030 25/23 A2997 HZ ALQDS=
####018000139####
SAUS43 KAPX 080955
MTRAPN
METAR KAPN 080954Z AUTO 21006KT 10SM -RA FEW075 OVC110 23/21 A2999 
RMK AO2 RAB35 SLP151 P0001 T02280211
####018000080####
SAPS31 NIUE 081000
METAR NIUE 081000Z AUTO 12005KT //// ////// 24/23 Q1015=
####018000122####
SAUS45 KABQ 080955 COR
MTRCQC
METAR KCQC 080953Z AUTO 05007KT 10SM CLR 12/09 A3035 RMK AO2 SLP219 
T01170089 TSNO
####018000132####
SAUS45 KABQ 080955 COR
MTRRTN
METAR KRTN 080953Z AUTO 05005KT 10SM SCT075 OVC100 14/11 A3035 RMK 
AO2 SLP208 T01390111 TSNO
####018000110####
SAUS43 KIWX 080955
MTRSBN
METAR KSBN 080954Z 00000KT 6SM BR CLR 23/21 A3005 RMK AO2 SLP167 
T02280206
####018003689####
SAUS90 KWBC 081000
METAR KABI 080952Z 02004KT 9SM CLR 22/21 A3005 RMK AO2 SLP148
     T02170211 $=
METAR KCZZ 080952Z AUTO 00000KT 09/08 A2988 RMK AO2 SLP090
     T00940083 PWINO TSNO=
METAR KBLU 080952Z AUTO 05004KT 10SM CLR 22/04 A3009 RMK AO2
     SLP081 T02170044 TSNO=
METAR KSDB 080952Z AUTO 33008KT 10SM CLR 18/03 A3002 RMK AO2
     SLP108 T01830028 TSNO $=
METAR K9V9 080952Z AUTO 28005KT 16/13 A3019 RMK AO2 SLP214
     T01560133 PWINO TSNO=
METAR KP69 080952Z AUTO 34003KT 12/11 A3011 RMK AO2 SLP176
     T01220106 PWINO TSNO $=
METAR KSAV 080953Z 24003KT 10SM FEW024 21/19 A2999 RMK AO2 SLP154
     T02110194=
METAR K6R6 080953Z AUTO 01004KT 22/21 A3000 RMK AO2 SLP123
     T02220206 PWINO TSNO=
METAR KCQC 080953Z AUTO 05007KT 10SM CLR 12/09 A3035 RMK AO2
     SLP219 T01170089 TSNO=
METAR KUIL 080953Z AUTO 00000KT 10SM CLR 14/11 A2994 RMK AO2
     SLP136 T01440111 TSNO=
METAR KFAR 080953Z 22004KT 10SM CLR 14/11 A3007 RMK AO2 SLP181
     T01390111=
METAR KTCS 080953Z AUTO 34003KT 10SM -RA OVC110 19/16 A3019 RMK
     AO2 RAE07B44 SLP136 P0000 T01890156 TSNO=
METAR KTLH 080953Z 00000KT 10SM CLR 22/21 A3001 RMK AO2 SLP161
     T02220206=
METAR KGNT 080953Z AUTO 14015KT 17/08 A3030 RMK AO2 SLP163
     T01670078 PWINO TSNO=
METAR KMWT 080953Z AUTO 00000KT 4SM BR BKN002 23/22 A3004 RMK AO2
     SLP160 T02280222 TSNO=
METAR KHTL 080953Z AUTO 22005KT 10SM OVC100 23/21 A3003 RMK AO2
     SLP163 T02280206=
METAR KJAN 080954Z 00000KT 6SM BR CLR 23/22 A3004 RMK AO2 SLP169
     T02280222 $=
METAR KRNM 080953Z AUTO 26003KT 6SM BR OVC004 14/13 A2990 RMK AO2
     SLP112 T01440128 TSNO=
METAR KP92 080953Z AUTO 00000KT 26/25 A2997 RMK AO2 SLP147
     T02560250 PWINO TSNO=
METAR KDNK 080953Z AUTO 00000KT 9SM FEW018 24/22 A3000 RMK AO2
     SLP156 T02390217=
METAR KMSN 080953Z VRB03KT 9SM BKN120 21/20 A3001 RMK AO2 SLP156
     T02110200=
METAR KCTY 080953Z AUTO 00000KT 20/19 A3000 RMK AO2 SLP157
     T02000194 PWINO TSNO $=
METAR KCHA 080953Z 00000KT 10SM CLR 23/19 A3006 RMK AO2 SLP168
     T02280189=
METAR KLAX 080953Z 22005KT 10SM OVC012 16/12 A2991 RMK AO2 SLP125
     T01610122=
METAR KSGR 080953Z AUTO 07006KT 10SM CLR 26/23 A2990 RMK AO2
     SLP132 T02610233 TSNO=
METAR KOQT 080953Z AUTO 00000KT 7SM CLR 22/19 A3008 RMK AO2 SLP168
     T02170194 TSNO=
METAR KLXV 080953Z AUTO 00000KT 10SM FEW013 BKN031 OVC100 07/06
     A3055 RMK AO2 SLP199 T00670061 TSNO=
METAR KCUT 080953Z AUTO 00000KT 10SM CLR 07/06 A3035 RMK AO2
     SLP241 T00720061 TSNO=
METAR KBTV 080954Z 00000KT 4SM BR CLR 23/21 A3001 RMK AO2 SLP161
     T02330211=
METAR PGUM 080954Z 08008KT 10SM SCT019 SCT025 SCT030 28/24 A2989
     RMK AO2 SLP113 T02830244=
METAR KELY 080953Z AUTO 19007KT 10SM CLR 09/M04 A3021 RMK AO2
     SLP133 T00891044 $=
METAR KRTN 080953Z AUTO 05005KT 10SM SCT075 OVC100 14/11 A3035 RMK
     AO2 SLP208 T01390111 TSNO=
METAR KRIL 080953Z AUTO 01003KT 10SM CLR 16/08 A3024 RMK AO2
     SLP164 T01560078 TSNO=
METAR KPQN 080953Z AUTO 32007KT 10SM CLR 17/14 A3016 RMK AO2=
METAR KFGN 080954Z AUTO 26009KT 3/4SM -DZ VV005 17/13 A2996 RMK
     AO2=
METAR KPNM 080953Z AUTO 00000KT 3/4SM BR VV005 14/13 A3009 RMK
     AO2=
METAR KPWC 080953Z AUTO 00000KT 10SM CLR 10/09 A3008 RMK AO2=
METAR KFFM 080953Z AUTO 21004KT 10SM CLR 14/14 A3008 RMK AO2=
METAR KGDB 080952Z AUTO 25003KT 10SM CLR 14/13 A3013 RMK AO2
     T01360130=
METAR KAIT 080953Z AUTO 00000KT 1SM BR VV007 12/11 A3006 RMK
     AO2=
METAR KGHW 080953Z AUTO 23005KT 10SM CLR 14/13 A3013 RMK AO2=
METAR KMWM 080953Z AUTO 24003KT 10SM CLR 14/14 A3013 RMK AO2=
####018000654####
SAUS90 KWBC 081000 CCA
METAR KVCT 080951Z AUTO 07009KT 3SM +RA BR SCT015 BKN026 OVC095
     25/24 A2988 RMK AO2 RAB0853E21B47 SLP116 P0017 T02500244=
METAR KGDP 080951Z AUTO 06014G21KT 1/4SM FG VV005 17/17 A3023 RMK
     AO2 RAB0853E36 SLP161 P0000 T01670167 TSNO=
METAR KBNO 080953Z AUTO 24008KT 10SM CLR 09/01 A3011 RMK AO2
     SLP166 T00890011 TSNO=
METAR KCQC 080953Z AUTO 05007KT 10SM CLR 12/09 A3035 RMK AO2
     SLP219 T01170089 TSNO=
METAR KRTN 080953Z AUTO 05005KT 10SM SCT075 OVC100 14/11 A3035 RMK
     AO2 SLP208 T01390111 TSNO=
METAR K6R6 080953Z AUTO 01004KT 22/21 A3000 RMK AO2 SLP123
     T02220206 PWINO TSNO=
####018001176####
SAUS90 KWBC 081000 RRA
METAR KULM 080955Z AUTO 28005KT 10SM CLR 14/13 A3011 RMK AO2=
METAR KBBB 080953Z AUTO 00000KT 7SM CLR 13/13 A3011 RMK AO2=
METAR KTWM 080953Z AUTO 00000KT 7SM CLR 16/13 A3002 RMK AO2=
METAR KMGG 080955Z AUTO 27003KT 10SM CLR 16/15 A3010 RMK AO2
     T01600149=
METAR KMOX 080950Z AUTO 23004KT 10SM CLR 14/14 A3007 RMK AO2=
METAR KSDM 080953Z AUTO 28005KT 10SM OVC012 16/13 A2989 RMK AO2
     SLP119 T01610133 TSNO=
METAR KP68 080953Z AUTO 20006KT 08/M03 A3015 RMK AO2 SLP135
     T00781028 PWINO TSNO=
METAR K40J 080953Z AUTO 00000KT 21/20 A2999 RMK AO2 SLP155
     T02110200 PWINO TSNO=
METAR KMSY 080953Z 00000KT 9SM FEW018 SCT250 26/23 A2999 RMK AO2
     SLP160 T02610233=
METAR KAPN 080954Z AUTO 21006KT 10SM -RA FEW075 OVC110 23/21 A2999
     RMK AO2 RAB35 SLP151 P0001 T02280211=
METAR KSBN 080954Z 00000KT 6SM BR CLR 23/21 A3005 RMK AO2 SLP167
     T02280206=
METAR KDMH 080954Z AUTO 27/22 A3001 RMK AO2 SLP161 T02720222 PWINO
     TSNO=
METAR KAVP 080954Z 00000KT 5SM HZ CLR 21/18 A3007 RMK AO2 SLP168
     T02060178 $=
METAR KMQE 080954Z AUTO 16008KT 21/19 A3009 RMK AO1 SLP194
     T02060189=
####018000655####
SANO31 ENMI 080950
METAR ENAN 080950Z 03005KT 9999 FEW045 SCT200 17/10 Q1011 NOSIG =
METAR ENBR 080950Z 19013KT 9999 FEW015 FEW025TCU SCT075 18/11 Q1012
           NOSIG =
METAR ENBO 080950Z 01007KT 9999 FEW035 SCT070 17/09 Q1009 NOSIG=
METAR ENDU 080950Z 13004KT 080V180 9999 FEW050 SCT080 21/06 Q1011
           NOSIG=
METAR ENGM 080942Z 21010KT 9999 -RA FEW011 SCT013 BKN066 17/14 Q1015
           TEMPO BKN013=
METAR ENOL 080950Z 34011KT 9999 FEW025TCU 17/11 Q1010 NOSIG=
METAR ENVA 080950Z 22006KT 170V250 9999 FEW055TCU SCT100 23/10 Q1009
           NOSIG =
METAR ENZV 080950Z 21009KT 9999 FEW025 SCT120 18/12 Q1014 NOSIG=
####018000355####
SANO34 ENMI 080950
METAR ENBN 080950Z 32005KT 210V030 CAVOK 17/10 Q1010=
METAR ENBV 080950Z 09014KT 9999 BKN025 12/09 Q1017=
METAR ENDI 080950Z NIL=
METAR ENFG 080950Z NIL=
METAR ENHF 080950Z 23005KT 200V260 CAVOK 16/08 Q1013 =
METAR ENRA 080950Z 14003KT 9999 SCT070 21/09 Q1009=
METAR ENSH 080950Z 10007KT 9999 FEW040 SCT080 16/09 Q1010=
####018001623####
SAEW KAWN 081000 RRA
METAR EBBR 080950Z 22006KT 190V260 CAVOK 28/11 Q1020 NOSIG=
METAR EBLG 080950Z 26005KT 200V300 CAVOK 28/08 Q1020 NOSIG=
METAR EDAC 080950Z 23004KT CAVOK 25/11 Q1022=
METAR EDFH 080950Z 13006KT 070V210 CAVOK 25/09 Q1022=
METAR EDHI 080950Z 19007KT 150V250 CAVOK 27/10 Q1019=
METAR EDLN 080950Z 22005KT 150V260 CAVOK 28/10 Q1019=
METAR EDLP 080950Z VRB03KT CAVOK 29/11 Q1020=
METAR EDLW 080950Z 20009KT CAVOK 29/09 Q1020=
METAR EDMA 080950Z 13006KT 090V170 CAVOK 24/09 Q1023=
METAR EDMO 080950Z 11006KT 080V160 CAVOK 23/08 Q1023=
METAR EDNY 080950Z 20004KT CAVOK 24/14 Q1022=
METAR EDOP 080950Z 19009KT 120V240 CAVOK 27/09 Q1021=
METAR EDQM 080950Z 07006KT 030V110 CAVOK 22/08 Q1024=
METAR EDSB 080950Z 33004KT 280V360 CAVOK 27/13 Q1021=
METAR EDTL 080950Z VRB02KT CAVOK 27/11 Q1020=
METAR EDVK 080950Z 19010KT CAVOK 25/10 Q1022=
METAR EGJJ 080950Z 34004KT 280V030 9999 FEW001 20/17 Q1019 NOSIG=
METAR EKEB 080950Z AUTO 22010KT 9999NDV -SHRA FEW023/// BKN056/// 21/14
      Q1018=
METAR EKKA 080950Z 21005KT 170V250 9999 FEW018 BKN045 18/16 Q1018 TEMPO
      4000 SHRA SCT020CB=
METAR EKOD 080950Z 19008KT 160V220 CAVOK 24/12 Q1019=
METAR EKRK 080950Z AUTO 18011KT 150V210 9999NDV SCT050/// BKN065///
      24/12 Q1020=
METAR EKSB 080950Z 18007KT 140V210 CAVOK 24/12 Q1018=
METAR EKSP 080950Z 20013KT CAVOK 25/11 Q1018 NOSIG RMK FEW050 BKN120=
METAR EKVD 080950Z 22010KT CAVOK 24/13 Q1018=
METAR ETEB 080955Z AUTO 00000KT 9999 CLR 24/09 A3021 RMK AO2 SLP215
      T02360088=
METAR ETOR 080955Z 13007KT 9999 FEW060 FEW200 31/09 A3014 RMK BLU=
####018001773####
SAEU KAWN 081000 RRB
METAR EDAC 080950Z 23004KT CAVOK 25/11 Q1022=
METAR EDLP 080950Z VRB03KT CAVOK 29/11 Q1020=
METAR EDOP 080950Z 19009KT 120V240 CAVOK 27/09 Q1021=
METAR EDQM 080950Z 07006KT 030V110 CAVOK 22/08 Q1024=
METAR EGBB 080950Z 24008KT 180V290 CAVOK 19/10 Q1018=
METAR EGCC 080950Z 23012KT 9999 FEW032 19/10 Q1017=
METAR EGGD 080950Z 20004KT 130V280 9999 SCT022 SCT026 18/12 Q1019=
METAR EGHH 080950Z 02002KT 9999 FEW006 BKN012 17/16 Q1019=
METAR EGHI 080950Z 36003KT 310V060 9999 SCT007 BKN013 18/14 Q1019=
METAR EGKA 080950Z 21009KT 9999 FEW017 20/17 Q1019=
METAR EGKB 080950Z 25005KT 190V290 9999 BKN025 20/15 Q1019=
METAR EGKK 080950Z 24006KT 9999 BKN018 21/14 Q1018=
METAR EGLF 080950Z 34004KT 300V010 9999 VCSH BKN009 16/14 Q1019=
METAR EGLL 080950Z VRB03KT 9999 SCT012 SCT015 19/14 Q1019=
METAR EGMC 080950Z 22004KT 210V280 9999 FEW024 21/16 Q1019=
METAR EGMD 080950Z 28007KT 9999 BKN015 21/16 Q1019=
METAR EGMH 080950Z 26007KT 220V290 9999 FEW018 22/17 Q1019=
METAR EGNT 080950Z 24010KT 190V290 9999 SCT040 18/10 Q1014=
METAR EGNV 080950Z 22010KT 9999 FEW019 SCT026 18/11 Q1016=
METAR COR EGPB 080950Z 20016KT CAVOK 15/11 Q1006 NOSIG=
METAR EGPF 080950Z 22017KT 9999 FEW020 SCT030 16/11 Q1013=
METAR EGPH 080950Z 22014KT 9999 FEW030 16/09 Q1013=
METAR EGPK 080950Z 23016KT 9999 SCT025 16/10 Q1014=
METAR EGSS 080950Z 24006KT 9999 BKN017 19/14 Q1019=
METAR EGTC 080950Z 21006KT 170V250 9999 -SHRA FEW020 17/12 Q1018=
METAR ETEB 080955Z AUTO 00000KT 9999 CLR 24/09 A3021 RMK AO2 SLP215
      T02360088=
METAR ETOR 080955Z 13007KT 9999 FEW060 FEW200 31/09 A3014 RMK BLU=
METAR LQSA 081000Z VRB02KT 9999 SCT040 BKN050 20/11 Q1023 NOSIG=
METAR LWSK 081000Z 35010KT 9999 BKN040 18/11 Q1020 NOSIG=
####018000117####
SAUS41 KGYX 080955
MTRNKT
METAR KNKT 080954Z AUTO 04004KT 4SM HZ CLR 26/23 A2992 RMK AO2 
SLP128 T02610233 $
####018000112####
SAUS41 KBGM 080955
MTRAVP
METAR KAVP 080954Z 00000KT 5SM HZ CLR 21/18 A3007 RMK AO2 SLP168 
T02060178 $
####018000107####
SAUS41 KLWX 080955
MTRDMH
METAR KDMH 080954Z AUTO 27/22 A3001 RMK AO2 SLP161 T02720222 PWINO 
TSNO
####018002959####
SAUS20 KNKA 080955
METAR KAAO 080954Z AUTO 30006KT 10SM CLR 21/19 A3008 RMK AO2 SLP175 
    T02110194=
METAR KAFJ 080955Z AUTO 00000KT M1/4SM OVC003 17/16 A3011 RMK AO1 
    52003=
METAR KAIZ 080955Z AUTO 00000KT 10SM FEW028 FEW039 OVC080 22/21 
    A3006 RMK AO1=
METAR KAKH 080954Z AUTO 34003KT 10SM CLR 23/17 A3001 RMK AO2 SLP153 
    T02330167=
METAR KAKR 080954Z AUTO 00000KT 4SM BR CLR 21/19 A3009 RMK AO2 
    SLP178 T02060189=
METAR KALO 080954Z AUTO 32004KT 10SM CLR 19/19 A3005 RMK AO2 SLP170 
    T01940189=
METAR KAPC 080954Z AUTO 27012KT 10SM OVC008 12/11 A2991 RMK AO2 
    SLP118 T01170106=
METAR KARG 080955Z AUTO 22006KT 10SM CLR 24/22 A3005 RMK AO1=
METAR KAUO 080955Z AUTO 00000KT 10SM CLR 25/21 A3003 RMK AO1=
METAR KAUW 080954Z AUTO 31008KT 6SM BR OVC002 19/19 A3000 RMK AO2 
    SLP158 P0001 T01940189 $=
METAR KAVL 080954Z AUTO 00000KT 8SM FEW080 18/17 A3014 RMK AO2 
    SLP174 T01780172=
METAR KAWO 080955Z AUTO 00000KT 10SM CLR 14/14 A2997 RMK AO1=
METAR KBFL 080954Z AUTO 36005KT 10SM CLR 23/11 A2982 RMK AO2 SLP091 
    T02330106=
METAR KBHB 080955Z AUTO 18009KT 2 1/2SM OVC002 18/18 A3011 RMK AO1=
METAR KBID 080955Z AUTO 13005KT 1/4SM OVC002 21/20 A3007 RMK AO1=
METAR KBKX 080955Z AUTO 00000KT 10SM CLR 13/12 A3017 RMK AO1=
METAR KBLM 080955Z AUTO 13005KT 2SM BKN003 OVC100 24/21 A3006 RMK 
    AO1=
METAR KBOS 080954Z 16008KT 10SM CLR 22/20 A3008 RMK AO2 SLP186 
    T02220200=
METAR KBTP 080955Z AUTO 02004KT 1 1/2SM CLR 18/18 A3010 RMK AO1 
    57003=
METAR KBUF 080954Z 18005KT 7SM FEW070 22/19 A3005 RMK AO2 SLP172 
    T02220194=
METAR KBUY 080954Z AUTO 00000KT 7SM CLR 22/19 A2999 RMK AO2 SLP146 
    T02220194 $=
METAR KBVX 080955Z AUTO 00000KT 10SM CLR 24/22 A3006 RMK AO1=
METAR KBWI 080954Z 11004KT 5SM HZ FEW090 SCT150 26/22 A3000 RMK AO2 
    SLP158 T02610222=
METAR KCEU 080954Z AUTO 00000KT 10SM CLR 24/21 A3003 RMK AO2 SLP157 
    T02440206=
METAR KCGZ 080955Z AUTO 12003KT 10SM CLR 29/00 A2980 RMK AO1=
METAR KCIU 080955Z AUTO 23005KT 10SM BKN120 19/18 A2995 RMK AO1=
METAR KCOD 080955Z 15006KT 10SM CLR 12/03 A3032 RMK AO1=
METAR KCOE 080955Z AUTO 07006KT 10SM CLR 15/08 A3009 RMK AO1=
METAR KCOS 080954Z AUTO 20005KT 10SM BKN055 13/11 A3039 RMK AO2 
    SLP224 T01280111 TSNO=
METAR KCRW 080954Z 00000KT 4SM BR CLR 21/19 A3009 RMK AO2 SLP176 VLY 
    FG T02060194=
METAR KCVN 080955Z AUTO 05005KT 10SM BKN120 17/14 A3021 RMK AO1=
METAR KCVO 080955Z AUTO 28009KT 10SM CLR 14/09 A2991 RMK AO1=
METAR KCWI 080955Z 00000KT 3/4SM OVC003 A3003 RMK AO1=
METAR KDDH 080954Z AUTO 00000KT 2SM BR CLR 19/18 A3006 RMK AO2 
    SLP172 T01890183=
METAR KDEC 080954Z AUTO 21003KT 8SM FEW100 24/22 A3004 RMK AO2 
    SLP163 T02390217=
METAR KDSM 080954Z 36009KT 10SM FEW150 22/19 A3008 RMK AO2 SLP176 
    T02170189=
METAR KDSV 080954Z AUTO 13006KT 5SM BR CLR 21/19 A3009 RMK AO2 
    SLP192 T02110189=
####018000107####
SAUS41 KBTV 080955
MTR1V4
METAR K1V4 080954Z AUTO 21/19 A3005 RMK AO2 SLP162 T02060194 PWINO 
TSNO
####018000101####
SAUS41 KBOX 080955
MTRMQE
METAR KMQE 080954Z AUTO 16008KT 21/19 A3009 RMK AO1 SLP194 T02060189
####018000115####
SAUS41 KPHI 080955
MTR12N
METAR K12N 080954Z AUTO 00000KT 21/21 A3005 RMK AO2 SLP164 T02110206 
PWINO TSNO
####018000119####
SAUS44 KMAF 080955 COR
MTR6R6
METAR K6R6 080953Z AUTO 01004KT 22/21 A3000 RMK AO2 SLP123 T02220206 
PWINO TSNO
####018003694####
SAUS99 KWBC 080956
METAR
KFAT 080953Z 31008KT 10SM CLR 22/08 A2982 RMK AO2 SLP093
     T02170083=
KFAY 080953Z AUTO 35005KT 10SM CLR 25/18 A2994 RMK AO2 SLP129
     T02500178=
KFCM 080953Z AUTO 31003KT 10SM CLR 18/16 A3008 RMK AO2 SLP181
     T01830156=
KFDY 080953Z AUTO 17003KT 7SM CLR 22/19 A3006 RMK AO2 SLP167
     T02170189=
KFFC 080953Z AUTO 00000KT 7SM CLR 21/19 A3004 RMK AO2 SLP165
     T02060189=
KFFT 080953Z AUTO 00000KT 3SM BR CLR 21/20 A3008 RMK AO2 SLP175
     T02110200=
KFHR 080953Z AUTO 00000KT 10SM CLR 13/11 A2997 RMK AO2 SLP149
     T01280106=
KFLD 080953Z AUTO 22005KT 10SM CLR 22/20 A3001 RMK AO2 RAE22
     SLP156 P0000 T02170200=
KFLL 080953Z 06007KT 10SM FEW020 28/24 A2992 RMK AO2 SLP132
     T02780244=
KFMN 080953Z AUTO 06006KT 10SM CLR 19/06 A3020 RMK AO2 SLP156
     T01940056=
KFMY 080953Z AUTO 05003KT 10SM CLR 24/22 A2994 RMK AO2 SLP142
     T02390222=
KFNB 080953Z AUTO 34006KT 10SM SCT017 OVC037 22/20 A3008 RMK AO2
     SLP177 T02170200=
KFNT 080953Z AUTO 21004KT 9SM CLR 23/21 A3003 RMK AO2 SLP163
     T02330206=
KFOE 080953Z AUTO 33006KT 10SM CLR 21/19 A3007 RMK AO2 SLP171
     T02110194=
KFOK 080953Z AUTO 12003KT 5SM HZ SCT010 BKN018 OVC031 24/21 A3007
     RMK AO2 SLP181 T02390211 TSNO=
KFPR 080953Z AUTO 00000KT 9SM CLR 22/21 A2997 RMK AO2 SLP146
     T02170211=
KFRG 080953Z AUTO 14006KT 4SM BR BKN002 24/24 A3004 RMK AO2
     RAB39E53 SLP171 P0000 T02440244=
KFSM 080953Z AUTO 00000KT 10SM BKN026 OVC034 24/22 A3003 RMK AO2
     SLP162 T02440222=
KFST 080953Z AUTO 14004KT 10SM OVC085 22/19 A3006 RMK AO2 SLP130
     T02220189=
KFTY 080953Z 00000KT 9SM CLR 21/18 A3003 RMK AO2 SLP159
     T02060183=
KFUL 080953Z 00000KT 10SM OVC017 17/12 A2989 RMK AO2 SLP121
     T01720122=
KFVE 080953Z AUTO 18004KT 3/4SM BR OVC002 22/22 A3001 RMK AO2
     SLP153 T02220222=
KFWN 080953Z AUTO 00000KT 2 1/2SM BR CLR 22/21 A3005 RMK AO2
     SLP170 T02170206=
KFYV 080953Z AUTO 00000KT 10SM CLR 22/21 A3006 RMK AO2 SLP164
     T02220211=
KGAG 080953Z AUTO 03006KT 10SM FEW120 21/19 A3013 RMK AO2 RAE07
     SLP177 P0000 T02110194=
KGCC 080953Z AUTO 00000KT 10SM CLR 08/06 A3028 RMK AO2 SLP229
     T00830061=
KGEG 080953Z 06004KT 10SM CLR 18/08 A3007 RMK AO2 SLP164
     T01830083=
KGEY 080953Z AUTO 12004KT 10SM CLR 12/03 A3025 RMK AO2 SLP218
     T01170033=
KGEZ 080953Z AUTO 13003KT 5SM BR BKN090 22/20 A3005 RMK AO2 SLP167
     T02170200=
KGFK 080953Z 24004KT 10SM FEW080 14/12 A3003 RMK AO2 SLP170
     T01440122=
KGFL 080953Z AUTO 00000KT 2 1/2SM BR FEW033 21/21 A3003 RMK AO2
     VIS 1 1/2V3 SLP163 T02060206=
KGGW 080953Z AUTO 30003KT 10SM CLR 14/09 A3014 RMK AO2 SLP200
     T01390089 TSNO=
KHLC 080953Z AUTO 36008KT 10SM OVC022 18/16 A3021 RMK AO2 SLP213
     T01780161=
KHLG 080953Z AUTO 00000KT 2 1/2SM BR SCT050 21/19 A3010 RMK AO2
     SLP184 T02060194=
KHLN 080953Z AUTO 25008KT 10SM CLR 12/04 A3025 RMK AO2 SLP236
     T01170039=
KHOT 080953Z AUTO 00000KT 10SM OVC008 24/23 A3006 RMK AO2 SLP171
     T02440233=
KHOU 080953Z 10005KT 10SM FEW026 SCT039 BKN130 BKN250 28/24 A2991
     RMK AO2 SLP132 T02780239=
KHQM 080953Z AUTO 25006KT 10SM 16/14 A2994 RMK AO2 SLP141
     T01560139 $=
KHRI 080953Z AUTO 14003KT 10SM CLR 16/07 A2994 RMK AO2 SLP132
     T01610072=
KHRO 080953Z AUTO 18003KT 9SM CLR 22/21 A3007 RMK AO2 SLP169
     T02170206=
KHSI 080953Z AUTO 35004KT 10SM CLR 16/14 A3020 RMK AO2 SLP216
     T01560144=
KHSV 080953Z 00000KT 10SM CLR 23/23 A3006 RMK AO2 SLP169
     T02330228=
KHUF 080953Z 00000KT 6SM BR CLR 23/21 A3004 RMK AO2 SLP165
     T02280211 $=
####018003719####
SAUS99 KWBC 080956 RRD
METAR
KBKE 080953Z AUTO 17003KT 10SM CLR 06/05 A3011 RMK AO2 SLP180
     T00610050=
KBKL 080953Z 15005KT 6SM HZ CLR 24/19 A3004 RMK AO2 SLP168
     T02440189=
KBLI 080953Z AUTO 00000KT 10SM CLR 16/13 A2996 RMK AO2 SLP151
     T01560133=
KBMG 080953Z AUTO 00000KT 5SM BR FEW090 22/21 A3005 RMK AO2 SLP167
     T02170211=
KBMQ 080953Z AUTO 07003KT 10SM BKN011 23/22 A3001 RMK AO2 SLP141
     T02330217 $=
KBNA 080953Z 00000KT 10SM FEW080 24/22 A3007 RMK AO2 SLP174
     T02440217=
KBOI 080953Z 13007KT 10SM CLR 18/07 A3005 RMK AO2 SLP146
     T01830067=
KBPI 080953Z AUTO 31004KT 10SM BKN100 07/01 A3039 RMK AO2 SLP215
     T00670011=
KBPK 080953Z AUTO 00000KT 9SM FEW085 23/22 A3005 RMK AO2 SLP164
     T02280217=
KBPT 080953Z 08010KT 10SM FEW014 26/24 A2994 RMK AO2 RAB01E10
     SLP136 P0000 T02610244 $=
KBRD 080953Z AUTO 21005KT 10SM CLR 14/12 A3008 RMK AO2 SLP183
     T01390117=
KBRL 080953Z AUTO 10SM CLR 22/21 A3003 RMK AO2 SLP164 T02220211
     $=
KBRO 080953Z 32004KT 10SM -RA SCT021 SCT027 BKN040 26/25 A2977 RMK
     AO2 RAB50 SLP078 P0000 T02610250=
KBTL 080953Z 00000KT 8SM SCT060 22/20 A3006 RMK AO2 SLP170
     T02170200=
KBTM 080953Z AUTO 15005KT 10SM CLR 06/01 A3031 RMK AO2 SLP233
     T00560011=
KBUR 080953Z VRB03KT 8SM OVC009 16/13 A2990 RMK AO2 SLP114
     T01560133=
KBVN 080950Z AUTO 33003KT 10SM OVC090 16/15 A3019 RMK AO2
     T01620150=
KBVO 080953Z AUTO 00000KT 10SM SCT100 22/21 A3004 RMK AO2 SLP159
     T02220211=
KBVY 080953Z 15006KT 9SM CLR 22/19 A3007 RMK AO2 SLP178 T02170194
     PNO=
KBWG 080953Z AUTO 00000KT 8SM SCT085 23/21 A3007 RMK AO2 SLP176
     T02280211=
KBYG 080953Z AUTO 24005KT 10SM CLR 11/04 A3029 RMK AO2 SLP224
     T01110039=
KBYI 080953Z AUTO 00000KT 10SM CLR 10/03 A3012 RMK AO2 SLP164
     T01000033=
KCAG 080953Z AUTO 05008KT 10SM CLR 12/07 A3029 RMK AO2 SLP190
     T01220067=
KCAK 080951Z 00000KT 6SM HZ CLR 21/18 A3009 RMK AO2 SLP179
     T02110183=
KCCR 080953Z AUTO 25006KT 10SM BKN013 13/10 A2990 RMK AO2 SLP112
     T01280100=
KCDC 080953Z AUTO 02006KT 10SM FEW110 14/02 A3014 RMK AO2 SLP128
     T01440022 $=
KCDR 080953Z AUTO 23004KT 10SM CLR 09/08 A3028 RMK AO2 SLP250
     T00940083=
KCDW 080953Z AUTO 00000KT 4SM BR SCT100 23/21 A3004 RMK AO2 SLP174
     T02330211 TSNO=
KCEZ 080953Z AUTO 06004KT 10SM CLR 17/06 A3022 RMK AO2 SLP144
     T01720061=
KCGI 080953Z AUTO 00000KT 10SM BKN046 24/23 A3004 RMK AO2 SLP169
     T02390228 TSNO=
KCHO 080953Z 00000KT 4SM HZ CLR 22/19 A3001 RMK AO2 SLP154
     T02220194=
KCKB 080953Z AUTO 00000KT 3SM BR CLR 19/18 A3010 RMK AO2 SLP176
     T01890183=
KCLL 080953Z 07006KT 10SM CLR 26/23 A2995 RMK AO2 SLP136
     T02560228=
KCLM 080953Z AUTO A2997 RMK AO2 SLPNO PWINO FZRANO $=
KCMI 080953Z AUTO 17003KT 5SM BR FEW100 22/21 A3004 RMK AO2 SLP164
     T02220211=
KCMX 080953Z AUTO 32007KT 10SM FEW060 SCT090 BKN110 18/18 A2998
     RMK AO2 SLP148 T01830178=
KCNM 080953Z AUTO 36008KT 5SM VCTS RA BR OVC007 20/19 A3013 RMK
     AO2 LTG DSNT NE AND S TSB37 SLP149 P0020 T02000189=
KCNO 080953Z 25003KT 5SM BR OVC013 15/13 A2991 RMK AO2 SLP124
     T01500128=
KCNY 080953Z AUTO 06008KT 10SM CLR 22/04 A3009 RMK AO2 SLP124
     T02170044=
KCOT 080953Z AUTO 04006KT 10SM -RA BKN031 BKN040 OVC050 25/23
     A2990 RMK AO2 RAB53 SLP114 P0000 T02500228=
KCPR 080953Z AUTO 00000KT 10SM CLR 04/04 A3033 RMK AO2 SLP238
     T00440039=
KCPS 080953Z AUTO 00000KT 10SM CLR 24/22 A3002 RMK AO2 SLP161
     T02440222=
KCRP 080951Z 01006KT 9SM -RA SCT021 SCT028 OVC050 26/25 A2983 RMK
     AO2 TSE35 SLP100 TS DSIPT P0052 T02560250=
####018003747####
SAUS99 KWBC 080956 RRH
METAR
KLWV 080953Z AUTO 00000KT 3SM BR CLR 24/22 A3003 RMK AO2 SLP165
     T02390217=
KLXN 080950Z AUTO 33004KT 10SM SCT049 OVC080 16/16 A3022 RMK AO2
     T01630155=
KLXT 080953Z AUTO 00000KT 10SM CLR 22/21 A3005 RMK AO2 SLP168
     T02170206=
KMAE 080953Z AUTO 30007KT 10SM CLR 17/12 A2982 RMK AO2 SLP096
     T01720117=
KMBS 080953Z 22004KT 8SM CLR 23/22 A3002 RMK AO2 SLP162
     T02330217=
KMCB 080953Z AUTO 00000KT 8SM CLR 23/22 A3003 RMK AO2 SLP164
     T02330222=
KMCE 080953Z AUTO 30007KT 10SM CLR 18/10 A2982 RMK AO2 SLP096
     T01780100=
KMCI 080953Z 32005KT 9SM SCT110 22/21 A3005 RMK AO2 SLP167
     T02220211 $=
KMCK 080953Z AUTO 00000KT 10SM OVC065 17/16 A3024 RMK AO2 SLP226
     T01670161=
KMCO 080953Z 35003KT 10SM FEW015 22/21 A2999 RMK AO2 SLP153
     T02170206=
KMCW 080953Z AUTO 32005KT 10SM CLR 17/17 A3011 RMK AO2 SLP184
     T01720172 $=
KMEM 080953Z 00000KT 10SM FEW250 26/22 A3007 RMK AO2 SLP176
     T02560222=
KMFR 080953Z AUTO 02005KT 10SM CLR 21/12 A2988 RMK AO2 SLP103
     T02060122=
KMGW 080953Z AUTO 00000KT 4SM HZ CLR 21/18 A3011 RMK AO2 SLP184
     T02060178=
KMGY 080953Z AUTO 00000KT 5SM HZ CLR 22/19 A3008 RMK AO2 SLP175
     T02220194=
KMHE 080953Z AUTO 26005KT 10SM CLR 18/14 A3016 RMK AO2 SLP207
     T01780144 TSNO=
KMHT 080953Z 17008KT 2SM BR BKN006 OVC080 23/22 A3005 RMK AO2 TWR
     VIS 3 SLP185 T02330217=
KMIA 080953Z 02003KT 10SM FEW025 SCT080 SCT250 28/24 A2993 RMK AO2
     SLP134 T02780244=
KMIC 080953Z 30003KT 10SM CLR 18/16 A3007 RMK AO2 SLP179
     T01780156=
KMIE 080953Z AUTO 00000KT 9SM CLR 22/19 A3007 RMK AO2 SLP169
     T02220194=
KMIW 080953Z AUTO 33006KT 10SM CLR 19/18 A3006 RMK AO2 SLP172
     T01940183=
KMKL 080953Z AUTO 00000KT 10SM CLR 22/21 A3007 RMK AO2 SLP177
     T02220206=
KMLE 080950Z AUTO 35003KT 10SM CLR 20/17 A3013 RMK AO2
     T01980168=
KMLP 080953Z AUTO 12008G16KT 10SM CLR 13/02 A3027 RMK AO2 SLP154
     T01330017 TSNO=
KMLS 080953Z AUTO 16003KT 10SM CLR 12/10 A3019 RMK AO2 SLP211
     T01170100=
KMLT 080953Z AUTO 00000KT 4SM BR BKN007 21/19 A3006 RMK AO2 SLP181
     T02110189=
KMMH 080950Z AUTO 00000KT 10SM CLR 10/02 A3021 RMK AO1=
KMMK 080953Z AUTO 00000KT 1 3/4SM BR OVC008 24/22 A3005 RMK AO2
     SLP172 T02390222=
KMMV 080953Z AUTO 27004KT 10SM CLR 15/12 A2988 RMK AO2 SLP118
     T01500117=
KMNN 080953Z AUTO 00000KT 7SM CLR 19/18 A3008 RMK AO2 SLP181
     T01940178=
KAAF 080953Z AUTO 02004KT 10SM CLR 23/22 A2999 RMK AO2 SLP157
     T02330222=
KABY 080953Z 00000KT 10SM CLR 21/19 A3003 RMK AO2 SLP166
     T02110194=
KAEG 080955Z AUTO 00000KT 10SM FEW120 15/08 A3028 RMK AO1=
KAKO 080953Z AUTO 14005KT 6SM BR FEW006 OVC029 14/14 A3031 RMK AO2
     SLP228 T01440139 TSNO=
KAMG 080953Z AUTO 00000KT 10SM CLR 21/19 A3000 RMK AO2 SLP156
     T02110194=
KAUS 080953Z 05005KT 9SM BKN012 OVC031 26/24 A2995 RMK AO2
     RAB21E42 SLP128 P0013 T02610239=
KBOW 080955Z AUTO 00000KT 10SM CLR 21/21 A2999 RMK AO2=
KCEW 080953Z AUTO 00000KT 6SM BR CLR 21/21 A3003 RMK AO2 SLP165
     T02060206=
KCGC 080955Z AUTO 00000KT 6SM CLR 21/20 A2999 RMK=
KCRE 080953Z AUTO 00000KT 10SM CLR 26/20 A2991 RMK AO2 SLP130
     T02610200=
KCRS 080953Z AUTO 08003KT 10SM BKN014 25/24 A2999 RMK AO2 RAB38E49
     SLP149 P0000 T02500239=
KCUB 080953Z AUTO 00000KT 10SM CLR 23/19 A2999 RMK AO2 SLP151
     T02330189=
KDAL 080953Z 14006KT 10SM FEW012 SCT130 OVC210 26/23 A3000 RMK AO2
     SLP151 T02610228=
KDFW 080953Z 14004KT 10SM SCT012 SCT090 BKN220 25/23 A3000 RMK AO2
     SLP148 T02500228=
KDHN 080953Z AUTO 00000KT 10SM FEW070 23/22 A3006 RMK AO2 SLP172
     T02330222=
####018003688####
SAUS99 KWBC 080956 RRG
METAR
KPAE 080953Z AUTO 03003KT 10SM CLR 19/12 A2997 RMK AO2 SLP146
     T01890122=
KPAH 080953Z AUTO 00000KT 10SM CLR 23/22 A3004 RMK AO2 SLP168
     T02330217=
KPBF 080953Z AUTO 00000KT 7SM CLR 24/22 A3005 RMK AO2 SLP174
     T02390222=
KPBG 080953Z AUTO 00000KT 5SM BR CLR 22/21 A3000 RMK AO2 SLP157
     T02220206=
KPBI 080953Z 04007KT 10SM SCT023TCU BKN040 BKN250 27/24 A2993 RMK
     AO2 SLP134 TCU OHD AND NE CB DSNT SE T02720239=
KPDK 080953Z AUTO 00000KT 10SM CLR 22/19 A3004 RMK AO2 SLP150
     T02220189=
KPDT 080953Z AUTO 11005KT 10SM CLR 17/07 A2997 RMK AO2 SLP131
     T01670072=
KPDX 080953Z 00000KT 10SM CLR 19/14 A2989 RMK AO2 SLP118
     T01940144=
KPEO 080953Z AUTO 23004KT 3SM BR CLR 22/21 A3008 RMK AO2 SLP178
     T02170206=
KPGA 080953Z AUTO 00000KT 10SM CLR 24/02 A3004 RMK AO2 SLP097
     T02440017=
KPGD 080953Z AUTO 02005KT 10SM CLR 23/22 A2998 RMK AO2 SLP153
     T02280217 TSNO=
KPHD 080953Z AUTO 00000KT 1 1/2SM BR CLR 19/17 A3010 RMK AO2
     SLP184 T01890172=
KPIE 080953Z 00000KT 10SM CLR 23/21 A2998 RMK AO2 SLP151
     T02330211=
KPIH 080953Z AUTO 29004KT 10SM CLR 09/02 A3016 RMK AO2 SLP175
     T00940017=
KPIL 080953Z AUTO 08006KT 4SM -RA SCT016 BKN026 BKN036 28/25 A2977
     RMK AO2 RAB0856E07B44 SLP080 P0003 T02780250 $=
KPIR 080953Z AUTO 25006KT 10SM CLR 14/13 A3016 RMK AO2 SLP205
     T01440128=
KPKB 080953Z AUTO 00000KT 1/2SM FG VV001 20/19 A3011 RMK AO2
     SLP187 T02000194 TSNO RVRNO=
KPKD 080953Z AUTO 25003KT 7SM CLR 13/12 A3007 RMK AO2 SLP185 P0001
     T01330122=
KPMD 080953Z AUTO 20007KT 10SM CLR 18/04 A2990 RMK AO2 SLP093
     T01830039 TSNO $=
KPMP 080953Z AUTO 07006KT 10SM FEW021 28/24 A2993 RMK AO2 SLP137
     T02780244=
KPNA 080950Z AUTO 28006KT 10SM CLR 04/01 A3040 RMK AO2
     T00400011=
KPNC 080953Z AUTO 36004KT 9SM CLR 22/21 A3004 RMK AO2 SLP161
     T02220211=
KPOF 080953Z AUTO 00000KT 7SM CLR 24/23 A3004 RMK AO2 SLP167
     T02440233 $=
KPOU 080953Z 00000KT 4SM BR CLR 23/21 A3002 RMK AO2 SLP160
     T02280211=
KPQL 080953Z AUTO 00000KT 5SM BR BKN002 23/23 A3001 RMK AO2 SLP164
     T02330228=
KPRB 080953Z AUTO 00000KT 10SM BKN009 12/10 A2990 RMK AO2 SLP121
     T01220100=
KPRC 080953Z AUTO 18006KT 10SM CLR 18/01 A3009 RMK AO2 SLP096
     T01830006=
KPSC 080953Z AUTO 00000KT 10SM CLR 15/11 A2995 RMK AO2 SLP140
     T01500106=
KMLU 080953Z AUTO 07004KT 10SM CLR 25/23 A3004 RMK AO2 SLP170
     T02500233=
KMNI 080955Z AUTO 30003KT 10SM CLR 24/22 A2995 RMK AO2=
KMWL 080953Z AUTO 11005KT 10SM FEW024 23/21 A3000 RMK AO2 SLP144
     T02280206=
KMYR 080945Z 31008KT 10SM FEW090 25/19 A2996=
KOGB 080953Z AUTO 31005KT 10SM CLR 23/19 A2998 RMK AO2 SLP148
     T02330189=
KPNS 080953Z AUTO 00000KT 8SM CLR 24/23 A3001 RMK AO2 SLP163
     T02390233=
KPSO 080955Z AUTO 00000KT 10SM CLR 11/05 A3038 RMK AO2=
KSPA 080955Z AUTO 00000KT 10SM CLR 22/22 A3001 RMK AO2=
KSPL 080955Z AUTO 03007KT 28/25 A2976 RMK AO2 PWINO PNO=
KSSI 080953Z AUTO 27005KT 10SM CLR 23/21 A2999 RMK AO2 SLP155
     T02280211=
KUTA 080955Z AUTO 00000KT 10SM CLR 23/22 A3006 RMK AO2=
KVLD 080953Z AUTO 00000KT 5SM BR CLR 19/18 A3001 RMK AO2 SLP168
     T01940183=
KX40 080955Z AUTO 00000KT 7SM CLR 22/21 A3000 RMK AO2
     T02200212=
KYIP 080953Z 22003KT 6SM BR CLR 23/21 A3004 RMK AO2 SLP165
     T02280206=
KLVM 080953Z AUTO 26003KT 10SM CLR 03/01 A3028 RMK AO2 SLP235
     T00330011=
KLVS 080953Z AUTO 02008KT 10SM CLR 11/09 A3037 RMK AO2 SLP208
     T01110089 TSNO=
KLWD 080953Z AUTO 34006KT 10SM SCT007 21/20 A3008 RMK AO2 SLP179
     T02060200=
####018003720####
SAUS99 KWBC 080956 RRB
METAR
KELN 080953Z AUTO 13003KT 10SM CLR 16/06 A3004 RMK AO2 SLPNO
     T01610061 $=
KEMP 080953Z AUTO 00000KT 4SM BR FEW005 SCT021 OVC110 22/20 A3007
     RMK AO2 SLP173 T02170200=
KENW 080953Z AUTO 17005KT 7SM SCT110 23/22 A3001 RMK AO2 RAE26
     SLP157 P0000 T02280217 $=
KEPH 080953Z AUTO 32010KT 10SM CLR 22/04 A3000 RMK AO2 SLP147
     T02220044=
KEQY 080953Z AUTO 34003KT 10SM CLR 24/18 A2999 RMK AO2 SLP150
     T02390178=
KESF 080953Z AUTO 00000KT 6SM BR FEW015 23/22 A3002 RMK AO2 SLP163
     T02280217=
KEVW 080953Z AUTO 08009KT 10SM CLR 11/02 A3032 RMK AO2 SLP181
     T01110022 TSNO=
KEWB 080953Z AUTO 14005KT 4SM BR OVC002 22/21 A3007 RMK AO2 SLP182
     T02220211=
KEYE 080953Z AUTO 00000KT 8SM CLR 24/21 A3005 RMK AO2 SLP167
     T02440206=
KEYW 080953Z AUTO 08006KT 10SM FEW020 28/24 A2992 RMK AO2
     RAB0854E04 SLP132 P0000 T02780244=
KGIF 080953Z AUTO 02003KT 10SM CLR 23/21 A3000 RMK AO2 SLP155
     T02280211 TSNO=
KGJT 080953Z AUTO 10010KT 10SM CLR 19/06 A3017 RMK AO2 SLP140
     T01940061=
KGKJ 080953Z AUTO 00000KT 7SM CLR 20/17 A3011 RMK AO2 SLP182
     T02000172=
KGLD 080953Z AUTO 04003KT 10SM OVC039 17/16 A3028 RMK AO2 SLP218
     T01720161=
KGLH 080953Z AUTO 00000KT 7SM CLR 22/22 A3004 RMK AO2 SLP177
     T02170217=
KGLR 080953Z AUTO 22007KT 10SM BKN110 22/19 A3001 RMK AO2 SLP152
     T02220194=
KGMU 080953Z AUTO 00000KT 10SM CLR 24/19 A3004 RMK AO2 SLP158
     T02440189=
KGPT 080953Z AUTO 00000KT 6SM BR CLR 26/24 A3001 RMK AO2 SLP160
     T02560239=
KGRB 080953Z AUTO 25005KT 9SM BKN008 BKN012 21/20 A2999 RMK AO2
     CIG 006V011 SLP153 T02110200=
KGRI 080953Z AUTO 30004KT 10SM CLR 15/13 A3020 RMK AO2 SLP217
     T01500133=
KGRR 080953Z 27004KT 4SM BR BKN055 OVC095 24/22 A3004 RMK AO2
     SLP166 T02390222=
KGSH 080953Z AUTO 00000KT 6SM BR CLR 22/19 A3005 RMK AO2 SLP168
     T02170194=
KGSP 080953Z AUTO 00000KT 10SM CLR 23/19 A3002 RMK AO2 SLP150
     T02280189=
KGTF 080953Z 23008KT 10SM CLR 07/05 A3022 RMK AO2 SLP223 T00720050
     $=
KGUP 080953Z AUTO 00000KT 10SM CLR 18/06 A3025 RMK AO2 SLP046
     T01830061=
KGUY 080953Z AUTO 21004KT 2 1/2SM RA BR FEW007 BKN030 OVC048 18/18
     A3022 RMK AO2 TSB16E31 SLP192 P0026 T01830178=
KGVL 080953Z AUTO 35003KT 10SM CLR 23/20 A3007 RMK AO2 SLP164
     T02280200=
KGWO 080953Z AUTO 05003KT 10SM CLR 23/22 A3005 RMK AO2 SLP173
     T02280222=
KHAO 080953Z AUTO 00000KT 2SM BR CLR 21/19 A3008 RMK AO2 SLP181
     T02060194=
KHBG 080953Z AUTO 00000KT 7SM CLR 23/23 A3003 RMK AO2 SLP167
     T02330228=
KHDE 080950Z AUTO 00000KT 10SM SCT050 15/14 A3023 RMK AO2
     T01530140=
KHEI 080953Z AUTO 00000KT 10SM CLR 10/08 A3018 RMK AO2 SLP213
     T01000078=
KHFD 080953Z AUTO 00000KT 3SM HZ OVC008 25/22 A3004 RMK AO2 SLP171
     T02500217=
KHGR 080953Z AUTO 07003KT 5SM HZ CLR 24/17 A3003 RMK AO2 SLP170
     T02440167=
KHHR 080953Z AUTO 24003KT 10SM OVC014 17/13 A2990 RMK AO2 SLP125
     T01670133=
KHIB 080953Z AUTO 00000KT 1 1/4SM BR CLR 09/08 A3004 RMK AO2
     SLP176 T00890083=
KHIO 080953Z AUTO 00000KT 10SM CLR 15/12 A2988 RMK AO2 SLP115
     T01500122=
KHJH 080950Z AUTO 02005KT 10SM SCT016 OVC027 19/18 A3016 RMK AO2
     T01930176=
KHJO 080953Z AUTO 30007KT 10SM CLR 20/13 A2982 RMK AO2 SLP096
     T02000133=
KHKA 080953Z AUTO 21003KT 7SM CLR 25/22 A3005 RMK AO2 SLP174
     T02500222=
KHKS 080953Z AUTO 00000KT 9SM CLR 24/23 A3005 RMK AO2 SLP168
     T02390228=
KHKY 080953Z AUTO 30005KT 10SM FEW090 22/17 A3004 RMK AO2 SLP148
     T02220172 $=
KPMV 080950Z AUTO 33003KT 10SM CLR 19/19 A3012 RMK AO2
     T01930185=
####018003689####
SAUS99 KWBC 080956 RRF
METAR
KVUO 080953Z AUTO 00000KT 10SM CLR 17/13 A2988 RMK AO2 SLP117
     T01670128=
KWRL 080953Z AUTO 16008KT 10SM CLR 13/04 A3026 RMK AO2 SLP217
     T01330044=
KWST 080953Z AUTO 11005KT 2SM BR OVC002 22/21 A3007 RMK AO2 SLP183
     T02170206=
KWVI 080953Z AUTO 00000KT 10SM OVC009 13/11 A2992 RMK AO2 SLP133
     T01280106=
KXNA 080953Z 00000KT 10SM BKN023 22/22 A3006 RMK AO2 SLP166
     T02220217=
KYKM 080953Z AUTO 25005KT 10SM CLR 13/07 A3001 RMK AO2 SLP156
     T01330072=
KZZV 080953Z AUTO 00000KT 4SM BR FEW060 20/18 A3009 RMK AO2 SLP179
     T02000183=
KPSP 080953Z 00000KT 10SM CLR 24/13 A2973 RMK AO2 SLP061
     T02440128=
KPSX 080953Z AUTO 08009KT 9SM CLR 27/25 A2985 RMK AO2 RAB33E42
     SLP109 P0000 T02720250=
KPTK 080953Z 00000KT 8SM SCT250 24/22 A3004 RMK AO2 SLP162
     T02390217=
KPTT 080950Z AUTO 01007KT 7SM OVC006 20/19 A3014 RMK AO2=
KPUB 080953Z AUTO 27004KT 10SM BKN055 OVC100 15/14 A3033 RMK AO2
     RAB0858E49 SLP220 P0001 T01500139=
KPUC 080953Z AUTO 33004KT 10SM CLR 15/02 A3022 RMK AO2 SLP149
     T01500017 TSNO=
KPUW 080953Z AUTO 00000KT 10SM CLR 10/07 A3008 RMK AO2 SLP174
     T01000067=
KPVD 080951Z 14006KT 10SM BKN008 OVC016 22/20 A3008 RMK A02 SLP186
     T02220200=
KRAC 080953Z AUTO 18005KT 4SM -RA BR FEW055 SCT090 23/22 A3002 RMK
     AO2 SLP160 P0002 T02280217=
KRAL 080953Z AUTO 00000KT 5SM BR BKN011 14/12 A2991 RMK AO2 SLP113
     T01440122=
KRBG 080953Z AUTO 00000KT 10SM CLR 18/12 A2992 RMK AO2 SLP126
     T01830122=
KRDD 080953Z AUTO 36003KT 10SM CLR 23/15 A2982 RMK AO2 SLP092
     T02330150=
KRHI 080953Z AUTO 00000KT 3/4SM BR VV001 17/17 A3003 RMK AO2
     SLP164 T01720167=
KRIW 080953Z AUTO 00000KT 10SM CLR 09/04 A3034 RMK AO2 SLP229
     T00890039=
KRKP 080953Z AUTO 12014G21KT 7SM -RA SCT011 BKN020 OVC055 26/25
     A2983 RMK AO2 RAB0859E09B30 SLP103 P0002 T02610250=
KRMG 080953Z AUTO 00000KT 10SM CLR 21/18 A3004 RMK AO2 SLP160
     T02060183=
KRNT 080953Z AUTO 00000KT 10SM CLR 17/14 A2994 RMK AO2 SLP143
     T01720139=
KRSL 080953Z AUTO 36006KT 10SM SCT013 OVC027 19/18 A3016 RMK AO2
     SLP199 T01890178=
KRSW 080953Z 03004KT 10SM CLR 24/22 A2995 RMK AO2 SLP139
     T02390222=
KRUE 080953Z AUTO 00000KT 10SM BKN019 24/23 A3005 RMK AO2 SLP168
     T02390228=
KRVS 080953Z 12004KT 1 1/4SM +TSRA BR BKN010 OVC026 23/23 A3003
     RMK AO2 LTG DSNT NE AND SE TSB0859 SLP170 P0064 T02280228=
KRWF 080953Z AUTO 29006KT 10SM CLR 16/14 A3011 RMK AO2 SLP194
     T01560144=
KRWI 080953Z AUTO 01003KT 5SM HZ CLR 23/20 A2995 RMK AO2 SLP142
     T02280200=
KRWL 080953Z AUTO 07007KT 6SM BR BKN001 08/07 A3037 RMK AO2 SLP220
     T00780072=
KRXE 080953Z AUTO 06003KT 10SM CLR 09/05 A3020 RMK AO2 SLP198
     T00890050=
KSAC 080953Z 16003KT 10SM CLR 14/10 A2985 RMK AO2 SLP107
     T01390100=
KSAF 080953Z AUTO 00000KT 10SM FEW100 14/11 A3031 RMK AO2 SLP177
     T01440106=
KSAN 080951Z 33004KT 10SM FEW010 OVC019 17/14 A2991 RMK AO2 SLP127
     T01670139=
KSAT 080953Z 05005KT 5SM -RA BR BKN014 BKN040 OVC250 26/23 A2994
     RMK AO2 RAE0857B38 SLP119 P0000 T02560233=
KSBA 080953Z 00000KT 9SM OVC015 14/12 A2990 RMK AO2 SLP124
     T01440122 $=
KSBM 080953Z AUTO 19007KT 10SM -RA FEW060 SCT080 BKN110 22/21
     A3000 RMK AO2 RAB20 SLP153 P0000 T02220211=
KOVS 080953Z AUTO 00000KT 5SM BR OVC004 22/21 A3002 RMK AO2 CIG
     002V009 SLP161 T02170206=
KOWD 080953Z AUTO 16003KT 10SM OVC016 22/19 A3008 RMK AO2 SLP185
     T02170189=
KOXB 080953Z AUTO 08004KT 8SM SCT100 BKN110 24/24 A3000 RMK AO2
     RAE0857B31E45 SLP159 P0000 T02390239 $=
####018000091####
SAFJ31 NFFN 081000
METAR NFFN 081000Z 14006KT 40KM FEW030 22/19 Q1014 NOSIG RMK RR NIL=
####018000177####
SAUS98 KWBC 080956
METAR PATC 080955Z AUTO 02009KT 10SM CLR 08/07 A3016 RMK AO1
T00780067=
METAR PAEH 080955Z AUTO 00000KT 10SM BKN016 09/M29 A3000 RMK AO1
T00891288=
####018002080####
SAUS99 KWBC 080956 RRL
METAR
PAKT 080953Z AUTO 31004KT 10SM CLR 17/12 A3008 RMK AO2 SLP185
     T01720117 TSNO=
PAKV 080953Z AUTO 00000KT 10SM CLR 09/07 A3010 RMK AO2 SLP195
     T00890067 TSNO=
PAKW 080953Z AUTO VRB03KT 10SM CLR 12/10 A3013 RMK AO2 SLP203
     T01220100 TSNO=
PALH 080953Z 00000KT 10SM -RA SCT075 BKN090 13/10 A3000 RMK AO2
     RAB03 SLP160 P0001 T01330100=
PAMC 080953Z 00000KT 10SM FEW040 BKN110 BKN200 13/08 A2999 RMK AO2
     SLP157 T01330083=
PAMR 080953Z 00000KT 10SM FEW060 SCT080 BKN100 BKN200 13/11 A2999
     RMK AO2 RAB05E20 SLP156 T01330106 $=
PANC 080953Z 00000KT 10SM FEW070 BKN090 11/11 A2999 RMK AO2 RAE48
     SLP157 P0000 T01110106=
PANN 080953Z AUTO 00000KT 10SM OVC075 12/09 A3002 RMK AO2 SLP170
     T01220094 TSNO=
PANT 080953Z 33009KT 10SM CLR 19/11 A3006 RMK AO2 SLP180
     T01890111=
PAOM 080953Z 04010KT 10SM FEW045 SCT095 SCT200 15/09 A3009 RMK AO2
     SLP190 T01500089=
PAOR 080953Z 00000KT 10SM FEW070 10/09 A3008 RMK AO2 SLP188
     T01000094=
PAOT 080953Z 30010KT 10SM FEW040 SCT090 BKN200 12/07 A3013 RMK AO2
     SLP201 T01170072=
PAPB 080953Z AUTO 09018KT 10SM OVC046 07/06 A2992 RMK AO2 SLP119
     T00720056 TSNO=
PAQT 080953Z AUTO 23007KT 10SM CLR 08/06 A3005 RMK AO2 SLP178
     T00780061 TSNO=
PASC 080953Z 25010KT 10SM OVC028 11/07 A3001 RMK AO2 SLP163
     T01060072=
PASI 080953Z 00000KT 10SM CLR 13/12 A3018 RMK AO2 SLP221
     T01280117=
PASN 080953Z 07011KT 10SM FEW004 SCT035 OVC045 06/04 A2994 RMK AO2
     SLP141 T00560044=
PASO 080953Z AUTO 00000KT 10SM -RA OVC060 11/10 A2990 RMK AO2
     RAB13 SLP123 P0001 T01060100 TSNO=
PATK 080953Z AUTO 00000KT 10SM CLR 14/11 A2999 RMK AO2 SLP157
     T01390111 TSNO=
PATO 080953Z AUTO 12013G30KT 6SM -RA BR FEW026 SCT031 OVC042 13/11
     A3001 RMK AO2 PK WND 11037/0905 SLP162 P0014 T01280111
     TSNO=
PAWD 080953Z AUTO 12003KT 1/2SM FG SCT003 OVC060 10/09 A2996 RMK
     AO2 SLP146 T01000094 TSNO=
PAYA 080953Z 00000KT 10SM CLR 11/09 A3019 RMK AO2 SLP222
     T01060094=
####018003710####
SAUS99 KWBC 080956 RRE
METAR
KCRQ 080953Z AUTO 34003KT 10SM OVC011 17/13 A2989 RMK AO2 SLP119
     T01720133=
KCSV 080953Z AUTO 00000KT 8SM CLR 21/17 A3014 RMK AO2 SLP180
     T02060172=
KCXO 080953Z 04003KT 8SM SCT007 BKN020 24/23 A2994 RMK AO2 SLP136
     T02390233=
KCYS 080953Z AUTO 12003KT 7SM BKN004 OVC010 12/12 A3036 RMK AO2
     CIG 003V006 SLP235 T01170117 TSNO=
KDAG 080953Z AUTO 29007KT 10SM CLR 23/01 A2985 RMK AO2 SLP077
     T02280011 TSNO $=
KDAN 080953Z AUTO 00000KT 5SM HZ CLR 24/18 A3001 RMK AO2 SLP148
     T02390183=
KDBQ 080953Z AUTO 00000KT 10SM BKN026 20/19 A3004 RMK AO2 SLP168
     T02000194=
KDCU 080953Z AUTO 36004KT 10SM CLR 23/21 A3006 RMK AO2 SLP170
     T02330206=
KPQN 080953Z AUTO 32007KT 10SM CLR 17/14 A3016 RMK AO2=
KFGN 080954Z AUTO 26009KT 3/4SM -DZ VV005 17/13 A2996 RMK AO2=
KPNM 080953Z AUTO 00000KT 3/4SM BR VV005 14/13 A3009 RMK AO2=
KPWC 080953Z AUTO 00000KT 10SM CLR 10/09 A3008 RMK AO2=
KFFM 080953Z AUTO 21004KT 10SM CLR 14/14 A3008 RMK AO2=
KGDB 080952Z AUTO 25003KT 10SM CLR 14/13 A3013 RMK AO2
     T01360130=
KAIT 080953Z AUTO 00000KT 1SM BR VV007 12/11 A3006 RMK AO2=
KGHW 080953Z AUTO 23005KT 10SM CLR 14/13 A3013 RMK AO2=
KMWM 080953Z AUTO 24003KT 10SM CLR 14/14 A3013 RMK AO2=
KULM 080955Z AUTO 28005KT 10SM CLR 14/13 A3011 RMK AO2=
KBBB 080953Z AUTO 00000KT 7SM CLR 13/13 A3011 RMK AO2=
KTWM 080953Z AUTO 00000KT 7SM CLR 16/13 A3002 RMK AO2=
KMGG 080955Z AUTO 27003KT 10SM CLR 16/15 A3010 RMK AO2
     T01600149=
KMOX 080950Z AUTO 23004KT 10SM CLR 14/14 A3007 RMK AO2=
KTMB 080953Z AUTO 36003KT 10SM FEW029 27/25 A2993 RMK AO2 SLP133
     T02720250=
KTOI 080953Z AUTO 00000KT 10SM CLR 22/21 A3003 RMK AO2 SLP163
     T02170211=
KTOP 080953Z AUTO 32003KT 10SM SCT110 22/20 A3006 RMK AO2 SLP172
     T02170200=
KTOR 080953Z AUTO 31003KT 10SM CLR 12/11 A3030 RMK AO2 SLP235
     T01170106=
KTPA 080953Z 00000KT 10SM SCT250 24/22 A2998 RMK AO2 SLP150
     T02440217 $=
KTTD 080953Z AUTO 00000KT 10SM CLR 17/14 A2986 RMK AO2 SLP112
     T01720139=
KTTN 080953Z 00000KT 3SM HZ CLR 24/21 A3002 RMK AO2 SLP159
     T02390211=
KTUL 080953Z 00000KT 6SM -TSRA BR FEW009 BKN016 OVC035 23/22 A3002
     RMK AO2 SLP159 FRQ LTGIC OHD-SE-SW TS OHD-SE-SW MOV N P0001
     T02280222=
KTUS 080953Z 00000KT 10SM CLR 31/04 A2990 RMK AO2 SLP064
     T03060044=
KTVC 080953Z AUTO 00000KT 10SM OVC100 23/19 A2996 RMK AO2 SLP143
     T02330194=
KTVL 080953Z AUTO 18003KT 10SM CLR 11/06 A3016 RMK AO2 SLP152
     T01060061=
KTVR 080953Z AUTO 00000KT 7SM CLR 22/21 A3003 RMK AO2 SLP175
     T02220211 $=
KTWF 080953Z AUTO 11009KT 10SM CLR 11/M02 A3012 RMK AO2 SLP150
     T01111017=
KUAO 080953Z AUTO 03003KT 10SM CLR 22/11 A2987 RMK AO2 SLP115
     T02170111=
KUNO 080953Z AUTO 20003KT 10SM CLR 22/21 A3007 RMK AO2 SLP169
     T02220211 TSNO=
KUTS 080953Z AUTO 00000KT 7SM CLR 24/23 A2996 RMK AO2 SLP142
     T02390228=
KUUU 080953Z AUTO 13004KT 1/4SM FG VV001 21/21 A3008 RMK AO2
     SLP184 T02060206=
KVCB 080953Z AUTO 24009KT 10SM CLR 17/09 A2982 RMK AO2 SLP095
     T01720094=
KVEL 080953Z AUTO 33005KT 10SM CLR 17/06 A3021 RMK AO2 SLP166
     T01720056=
KVGT 080953Z AUTO 35004KT 10SM CLR 26/M02 A2984 RMK AO2 SLP067
     T02611017 TSNO=
KVIH 080953Z AUTO 14003KT 10SM FEW027 BKN040 OVC060 23/22 A3005
     RMK AO2 SLP163 T02280217=
KVPC 080953Z AUTO 00000KT 6SM BR CLR 19/19 A3005 RMK AO2 SLP162
     T01940189=
KVPZ 080953Z AUTO 34004KT 6SM -RA BR FEW039 SCT050 BKN100 23/22
     A3004 RMK AO2 RAB38 SLP166 P0000 T02330222=
KVRB 080953Z AUTO 00000KT 10SM FEW030 22/21 A2997 RMK AO2 SLP146
     T02220211=
####018003727####
SAUS99 KWBC 080956 RRK
METAR
KMSS 080953Z AUTO 00000KT 4SM BR CLR 22/20 A3001 RMK AO2 SLP161
     T02170200=
KMSY 080953Z 00000KT 9SM FEW018 SCT250 26/23 A2999 RMK AO2 SLP160
     T02610233=
KMTH 080953Z AUTO 04005KT 10SM BKN020 A2992 RMK AO2 LTG DSNT NE
     AND SE TSB34E51 SLP133 FZRANO $=
KMTJ 080953Z AUTO 14009KT 10SM SCT120 16/05 A3027 RMK AO2 SLP175
     T01560050=
KMTO 080953Z AUTO 21004KT 10SM CLR 24/23 A3003 RMK AO2 SLP162
     T02440228=
KMVY 080953Z 13004KT 2SM R24/5500VP6000FT BR OVC001 21/19 A3009
     RMK AO2 SLP187 T02110194=
KMYF 080953Z AUTO 34006KT 10SM FEW008 OVC013 16/14 A2990 RMK AO2
     SLP121 T01610139 TSNO=
KMYV 080953Z AUTO 18008KT 10SM CLR 17/12 A2981 RMK AO2 SLP099
     T01720117=
KNEW 080953Z AUTO 12004KT 10SM CLR 27/25 A3001 RMK AO2 SLP154
     T02670250 TSNO=
KOAK 080953Z 29009KT 10SM OVC009 15/11 A2993 RMK AO2 SLP135
     T01500111=
KODX 080953Z AUTO 33004KT 10SM OVC090 16/15 A3020 RMK AO2 SLP222
     T01610150=
KOGA 080950Z AUTO 00000KT 10SM SCT090 15/14 A3027 RMK AO2
     T01510141=
KOGD 080953Z 18007KT 10SM CLR 18/07 A3010 RMK AO2 SLP134
     T01830067=
KOJC 080953Z AUTO 35004KT 8SM CLR 23/22 A3005 RMK AO2 SLP165
     T02280217=
KOLF 080953Z AUTO 00000KT 10SM CLR 11/08 A3013 RMK AO2 SLP200
     T01060083=
KOMK 080953Z AUTO 32003KT 10SM CLR 14/08 A3005 RMK AO2 SLP170
     T01390078=
KONL 080950Z AUTO 28003KT 10SM BKN110 16/15 A3021 RMK AO2
     T01630145=
KONO 080953Z AUTO 25003KT 10SM CLR 12/07 A3004 RMK AO2 SLP160
     T01220067=
KONT 080953Z 24003KT 5SM BR OVC010 15/13 A2990 RMK AO2 SLP115
     T01500128=
KOPF 080953Z AUTO 35004KT 10SM CLR 26/24 A2993 RMK AO2 SLP137
     T02610244=
KORF 080951Z 08006KT 9SM BKN120 26/23 A2996 RMK AO2 SLP145
     T02560233=
KORL 080953Z 00000KT 10SM CLR 22/21 A2999 RMK AO2 SLP157
     T02220211=
KOSH 080953Z AUTO 21004KT 10SM CLR 22/20 A3000 RMK AO2 SLP144
     T02170200=
KOSU 080953Z AUTO 00000KT 6SM HZ CLR 22/19 A3008 RMK AO2 SLP177
     T02170189=
KOTM 080953Z AUTO 31006KT 5SM BR FEW008 21/20 A3005 RMK AO2 SLP170
     T02060200=
KOUN 080953Z AUTO 36003KT 10SM SCT020 BKN027 OVC032 25/23 A3004
     RMK AO2=
KOVE 080953Z AUTO 12008KT 10SM CLR 20/13 A2984 RMK AO2 SLP104
     T02000128 TSNO=
PAAQ 080953Z AUTO 04005KT 10SM -RA SCT070 OVC090 12/09 A3002 RMK
     AO2 SLP162 P0000 T01220094 TSNO=
PABE 080953Z VRB05KT 10SM BKN120 09/09 A3001 RMK AO2 SLP171
     T00900087 PNO $=
PABI 080953Z AUTO 00000KT 10SM CLR 12/08 A3009 RMK AO2 SLP189
     T01170078 TSNO=
PABR 080953Z 25015KT 10SM BKN200 06/02 A2999 RMK AO2 SLP157
     T00560022 $=
PABT 080953Z 00000KT 10SM SCT120 12/10 A3007 RMK AO2 SLP189
     T01170100=
PACD 080953Z 15007KT 10SM FEW048 SCT180 05/03 A2994 RMK AO2 SLP137
     T00500033=
PACV 080953Z 13009G16KT 10SM SCT048 OVC060 16/10 A3009 RMK AO2
     RAE34 SLP188 P0001 T01560100=
PADE 080953Z AUTO 20006KT 10SM CLR 06/04 A3015 RMK AO2 SLP208
     T00560039 TSNO=
PADQ 080953Z 00000KT 10SM OVC018 10/09 A2984 RMK AO2 RAE14 SLP103
     P0000 T01000094 $=
PAEG 080953Z AUTO 00000KT 10SM SCT090 06/03 A3003 RMK AO2 SLP172
     T00560033 TSNO=
PAEN 080953Z AUTO 01012KT 10SM OVC080 14/11 A2996 RMK AO2 SLP147
     T01390111 TSNO=
PAFA 080953Z 00000KT 10SM FEW200 13/08 A3003 RMK AO2 SLP173
     T01330078=
PAGY 080953Z AUTO 00000KT 10SM CLR 11/10 A3021 RMK AO2 SLP228
     T01060100 TSNO=
PAHO 080953Z AUTO 10011KT 10SM BKN075 12/09 A2989 RMK AO2 SLP122
     T01220089 TSNO=
PAIL 080953Z AUTO 36007KT 10SM FEW080 11/08 A2992 RMK AO2 SLP135
     T01060078 TSNO=
PAJN 080953Z 00000KT 10SM FEW250 11/09 A3018 RMK AO2 SLP221
     T01060094=
####018003749####
SAUS99 KWBC 080956 RRI
METAR
KDTN 080953Z AUTO 00000KT 10SM CLR 24/23 A3003 RMK AO2 SLP165
     T02440233=
KDTO 080953Z AUTO 15004KT 10SM SCT024 26/23 A3000 RMK AO2 SLP151
     T02560233=
KDTS 080953Z AUTO 00000KT 3SM BR FEW001 25/23 A3001 RMK AO2 SLP160
     T02500233=
KDYB 080955Z AUTO 00000KT 10SM CLR 21/20 A2996 RMK AO1=
KECP 080953Z AUTO 00000KT 5SM BR CLR 23/23 A3001 RMK AO2 SLP171
     T02330228=
KELD 080953Z AUTO 00000KT 6SM BR FEW001 22/22 A3004 RMK AO2 SLP168
     T02220222=
KFTN 080955Z AUTO 05003KT 10SM BKN022 BKN028 24/23 A2991 RMK
     AO1=
KFXE 080953Z 05003KT 10SM FEW020 27/24 A2993 RMK AO2 RAE09 SLP136
     P0000 T02720239 $=
KGNV 080953Z AUTO 00000KT 9SM CLR 19/18 A3000 RMK AO2 SLP156
     T01940183=
KGZH 080953Z AUTO 00000KT 8SM CLR 22/22 A3004 RMK AO2 SLP167
     T02220217=
KHBR 080953Z AUTO 04005KT 7SM SCT050 BKN110 23/22 A3007 RMK AO2
     RAB01E28 SLP165 P0000 T02330222=
KHZY 080953Z AUTO 00000KT 4SM BR CLR 21/19 A3009 RMK AO2 SLP181
     T02060194=
KINK 080953Z AUTO 09003KT 10SM CLR 22/19 A3005 RMK AO2 SLP135
     T02170194 TSNO=
KLUX 080955Z AUTO 00000KT 10SM CLR 21/21 A3002 RMK AO2=
KMAF 080953Z AUTO 03004KT 10SM BKN110 22/20 A3008 RMK AO2 SLP143
     T02170200=
KMER 080955Z AUTO 32006KT 10SM CLR 17/11 A2983 RMK AO1=
KMFE 080953Z AUTO 35007KT 10SM BKN006 BKN021 26/24 A2980 RMK AO2
     SLP088 T02610244=
KMLB 080953Z AUTO 28004KT 10SM CLR 21/21 A2997 RMK AO2 SLP149
     T02110206=
KSDL 080953Z 00000KT 10SM CLR 30/03 A2980 RMK AO2 SLP058
     T03000033=
KSEA 080953Z 36007KT 10SM CLR 19/11 A2996 RMK AO2 SLP147 T01940111
     $=
KSEG 080953Z AUTO 00000KT 3SM HZ CLR 22/17 A3004 RMK AO2 SLP169
     T02170172=
KSFF 080953Z AUTO 00000KT 10SM CLR 13/11 A3006 RMK AO2 SLP167
     T01330106=
KSHN 080953Z AUTO 00000KT 10SM CLR 13/11 A2993 RMK AO2 SLP132
     T01280111=
KSHR 080953Z AUTO 00000KT 10SM CLR 08/06 A3025 RMK AO2 SLP231
     T00780056=
KSIY 080953Z AUTO 28003KT 10SM CLR 20/08 A2994 RMK AO2 SLP118
     T02000083 $=
KSJC 080953Z AUTO 31005KT 8SM OVC013 16/12 A2991 RMK AO2 SLP129
     T01560117=
KSLC 080953Z 18005KT 10SM FEW130 18/07 A3008 RMK AO2 SLP135
     T01830072=
KSLN 080953Z AUTO 34007KT 6SM BR OVC004 21/20 A3012 RMK AO2 CIG
     003V008 SLP188 T02110200=
KSMF 080953Z 15009KT 10SM CLR 15/11 A2982 RMK AO2 SLP099
     T01500106=
KSMQ 080953Z AUTO 32003KT 2 1/2SM BR CLR 21/21 A3001 RMK AO2
     SLP162 T02110206=
KSNA 080953Z 00000KT 8SM OVC017 18/12 A2990 RMK AO2 SLP122
     T01830122=
KSNS 080953Z AUTO 27005KT 9SM OVC009 13/11 A2992 RMK AO2 SLP140
     T01280106=
KSNY 080953Z AUTO 22003KT 10SM SCT060 16/14 A3031 RMK AO2 SLP232
     T01560144 $=
KSOW 080950Z AUTO 21007KT 10SM BKN100 21/04 A3025 RMK AO2=
KSPB 080953Z AUTO 00000KT 10SM CLR 18/12 A2988 RMK AO2 SLP117
     T01780122 $=
KSPG 080953Z AUTO 10005KT 10SM CLR 26/22 A2996 RMK AO2 SLP145
     T02610222=
KSPW 080953Z AUTO 30005KT 9SM CLR 16/14 A3014 RMK AO2 SLP202
     T01560144=
KSRQ 080953Z 05003KT 10SM CLR 23/22 A2996 RMK AO2 SLP143
     T02330217=
KSSF 080953Z AUTO 05005KT 10SM OVC013 26/23 A2992 RMK AO2 RAB02E11
     SLP116 P0000 T02610233=
KSTC 080953Z AUTO 00000KT 5SM BR CLR 13/12 A3009 RMK AO2 SLP195
     T01330117=
KSTJ 080953Z AUTO 00000KT 6SM -RA BR SCT005 BKN050 23/21 A3006 RMK
     AO2 RAB00 SLP170 P0001 T02280211=
KSTP 080953Z 32003KT 10SM CLR 18/17 A3008 RMK AO2 SLP182
     T01830167=
KSTS 080953Z AUTO 17003KT 10SM OVC006 12/10 A2991 RMK AO2 SLP123
     T01220100=
KSUN 080951Z AUTO 32009KT 10SM CLR 11/01 A3023 RMK AO2=
KSWO 080953Z AUTO 35004KT 9SM BKN021 OVC043 23/21 A3004 RMK AO2
     LTG DSNT SE SLP159 T02280211=
####018003741####
SAUS70 KWBC 081000 RRF
METAR
KCOT 080953Z AUTO 04006KT 10SM -RA BKN031 BKN040 OVC050 25/23
     A2990 RMK AO2 RAB53 SLP114 P0000 T02500228=
KCPR 080953Z AUTO 00000KT 10SM CLR 04/04 A3033 RMK AO2 SLP238
     T00440039=
KCPS 080953Z AUTO 00000KT 10SM CLR 24/22 A3002 RMK AO2 SLP161
     T02440222=
KCSV 080953Z AUTO 00000KT 8SM CLR 21/17 A3014 RMK AO2 SLP180
     T02060172=
KCXO 080953Z 04003KT 8SM SCT007 BKN020 24/23 A2994 RMK AO2 SLP136
     T02390233=
KCYS 080953Z AUTO 12003KT 7SM BKN004 OVC010 12/12 A3036 RMK AO2
     CIG 003V006 SLP235 T01170117 TSNO=
KDAG 080953Z AUTO 29007KT 10SM CLR 23/01 A2985 RMK AO2 SLP077
     T02280011 TSNO $=
KDAN 080953Z AUTO 00000KT 5SM HZ CLR 24/18 A3001 RMK AO2 SLP148
     T02390183=
KDCU 080953Z AUTO 36004KT 10SM CLR 23/21 A3006 RMK AO2 SLP170
     T02330206=
KRTN 080953Z AUTO 05005KT 10SM SCT075 OVC100 14/11 A3035 RMK AO2
     SLP208 T01390111 TSNO=
KRIL 080953Z AUTO 01003KT 10SM CLR 16/08 A3024 RMK AO2 SLP164
     T01560078 TSNO=
KTMB 080953Z AUTO 36003KT 10SM FEW029 27/25 A2993 RMK AO2 SLP133
     T02720250=
KTOI 080953Z AUTO 00000KT 10SM CLR 22/21 A3003 RMK AO2 SLP163
     T02170211=
KTOP 080953Z AUTO 32003KT 10SM SCT110 22/20 A3006 RMK AO2 SLP172
     T02170200=
KTOR 080953Z AUTO 31003KT 10SM CLR 12/11 A3030 RMK AO2 SLP235
     T01170106=
KTPA 080953Z 00000KT 10SM SCT250 24/22 A2998 RMK AO2 SLP150
     T02440217 $=
KTTD 080953Z AUTO 00000KT 10SM CLR 17/14 A2986 RMK AO2 SLP112
     T01720139=
KTTN 080953Z 00000KT 3SM HZ CLR 24/21 A3002 RMK AO2 SLP159
     T02390211=
KTUL 080953Z 00000KT 6SM -TSRA BR FEW009 BKN016 OVC035 23/22 A3002
     RMK AO2 SLP159 FRQ LTGIC OHD-SE-SW TS OHD-SE-SW MOV N P0001
     T02280222=
KTVC 080953Z AUTO 00000KT 10SM OVC100 23/19 A2996 RMK AO2 SLP143
     T02330194=
KTVL 080953Z AUTO 18003KT 10SM CLR 11/06 A3016 RMK AO2 SLP152
     T01060061=
KTVR 080953Z AUTO 00000KT 7SM CLR 22/21 A3003 RMK AO2 SLP175
     T02220211 $=
KTWF 080953Z AUTO 11009KT 10SM CLR 11/M02 A3012 RMK AO2 SLP150
     T01111017=
KUAO 080953Z AUTO 03003KT 10SM CLR 22/11 A2987 RMK AO2 SLP115
     T02170111=
KUNO 080953Z AUTO 20003KT 10SM CLR 22/21 A3007 RMK AO2 SLP169
     T02220211 TSNO=
KUTS 080953Z AUTO 00000KT 7SM CLR 24/23 A2996 RMK AO2 SLP142
     T02390228=
KUUU 080953Z AUTO 13004KT 1/4SM FG VV001 21/21 A3008 RMK AO2
     SLP184 T02060206=
KVCB 080953Z AUTO 24009KT 10SM CLR 17/09 A2982 RMK AO2 SLP095
     T01720094=
KVEL 080953Z AUTO 33005KT 10SM CLR 17/06 A3021 RMK AO2 SLP166
     T01720056=
KVGT 080953Z AUTO 35004KT 10SM CLR 26/M02 A2984 RMK AO2 SLP067
     T02611017 TSNO=
KVIH 080953Z AUTO 14003KT 10SM FEW027 BKN040 OVC060 23/22 A3005
     RMK AO2 SLP163 T02280217=
KVPC 080953Z AUTO 00000KT 6SM BR CLR 19/19 A3005 RMK AO2 SLP162
     T01940189=
KVPZ 080953Z AUTO 34004KT 6SM -RA BR FEW039 SCT050 BKN100 23/22
     A3004 RMK AO2 RAB38 SLP166 P0000 T02330222=
KVRB 080953Z AUTO 00000KT 10SM FEW030 22/21 A2997 RMK AO2 SLP146
     T02220211=
KVUO 080953Z AUTO 00000KT 10SM CLR 17/13 A2988 RMK AO2 SLP117
     T01670128=
KWRL 080953Z AUTO 16008KT 10SM CLR 13/04 A3026 RMK AO2 SLP217
     T01330044=
KWST 080953Z AUTO 11005KT 2SM BR OVC002 22/21 A3007 RMK AO2 SLP183
     T02170206=
KWVI 080953Z AUTO 00000KT 10SM OVC009 13/11 A2992 RMK AO2 SLP133
     T01280106=
KXNA 080953Z 00000KT 10SM BKN023 22/22 A3006 RMK AO2 SLP166
     T02220217=
KZZV 080953Z AUTO 00000KT 4SM BR FEW060 20/18 A3009 RMK AO2 SLP179
     T02000183=
KPSP 080953Z 00000KT 10SM CLR 24/13 A2973 RMK AO2 SLP061
     T02440128=
KPSX 080953Z AUTO 08009KT 9SM CLR 27/25 A2985 RMK AO2 RAB33E42
     SLP109 P0000 T02720250=
####018003732####
SAUS99 KWBC 080956 RRJ
METAR
KSZT 080950Z AUTO 00000KT 10SM CLR 10/08 A3010 RMK AO2=
KTCC 080953Z AUTO 04006KT 10SM OVC007 18/16 A3022 RMK AO2 CIG
     007V011 SLP175 T01780161=
KTCL 080953Z AUTO 00000KT 8SM CLR 24/22 A3004 RMK AO2 SLP169
     T02390217=
KTDZ 080953Z AUTO 00000KT 10SM CLR 23/18 A3005 RMK AO2 SLP169
     T02330183=
KTHV 080953Z AUTO 00000KT 2 1/2SM BR CLR 21/19 A3003 RMK AO2
     SLP165 T02110194=
KTIW 080953Z AUTO 02008KT 10SM FEW095 22/11 A2994 RMK AO2 SLP133
     T02220106=
KJKL 080953Z AUTO 00000KT 5SM HZ CLR 23/19 A3011 RMK AO2 SLP178
     T02280194=
KJLN 080953Z 05004KT 10SM -TSRA FEW006 BKN016 OVC037 23/22 A3004
     RMK AO2 LTG DSNT NE TSB28E43B45 SLP162 P0072 T02280222=
KJSV 080952Z AUTO 00000KT 10SM SCT032 23/23 A3003 RMK AO2 LTG DSNT
     NW=
KJYR 080950Z AUTO 36003KT 10SM CLR 16/15 A3016 RMK AO2=
KLAA 080953Z AUTO 06004KT 10SM FEW005 BKN024 OVC035 17/16 A3026
     RMK AO2 SLP203 T01720161=
KLAN 080953Z 31004KT 7SM FEW038 SCT060 SCT110 23/21 A3005 RMK AO2
     SLP169 T02280211 $=
KLAR 080953Z AUTO 00000KT 3/4SM BR FEW002 SCT017 07/07 A3039 RMK
     AO2 SLP226 T00720072=
KLBF 080953Z AUTO 00000KT 10SM OVC085 16/15 A3024 RMK AO2 SLP224
     T01610150=
KLCG 080950Z AUTO 00000KT 10SM CLR 15/14 A3017 RMK AO2
     T01530143=
KLBX 080953Z AUTO 13007KT 7SM VCTS RA SCT025 BKN048 OVC080 27/24
     A2989 RMK AO2 LTG DSNT S-W TSB29RAB43 SLP120 P0002
     T02720244=
KLCH 080953Z AUTO 06006KT 9SM CLR 25/23 A2996 RMK AO2 SLP153
     T02500233=
KLEB 080953Z AUTO 00000KT 1 3/4SM BR FEW001 22/20 A3006 RMK AO2
     SLP165 T02170200=
KLEE 080953Z AUTO 00000KT 10SM CLR 22/21 A3000 RMK AO2 SLP158
     T02220211=
KLFK 080953Z AUTO 09005KT 10SM CLR 24/23 A2998 RMK AO2 SLP149
     T02440228=
KLFT 080953Z AUTO 06005KT 10SM FEW004 25/23 A2999 RMK AO2 SLP154
     T02500233=
KLGB 080953Z 00000KT 10SM OVC017 17/13 A2990 RMK AO2 SLP124
     T01720133=
KLHM 080951Z AUTO 16008KT 10SM CLR 17/11 A2982 RMK AO1
     T01660110=
KLHQ 080953Z AUTO 00000KT 2SM BR CLR 19/18 A3009 RMK AO2 SLP180
     T01890178=
KLHX 080953Z AUTO 00000KT 10SM -RA SCT065 OVC090 16/14 A3028 RMK
     AO2 SLP208 T01610139 PNO $=
KLIT 080953Z 00000KT 7SM BKN150 24/23 A3005 RMK AO2 SLP175
     T02440228 $=
KLLQ 080953Z AUTO 00000KT 7SM FEW002 23/22 A3006 RMK AO2 SLP177
     T02330222=
KLMT 080953Z AUTO 31004KT 10SM FEW100 18/11 A3004 RMK AO2 SLP121
     T01780106=
KLNS 080953Z 12003KT 3SM HZ CLR 23/21 A3002 RMK AO2 SLP163
     T02330206=
KLOL 080953Z AUTO 22003KT 10SM CLR 19/M04 A2999 RMK AO2 SLP109
     T01891044=
KLOU 080953Z AUTO 00000KT 7SM CLR 24/21 A3006 RMK AO2 SLP174
     T02440211=
KLOZ 080953Z AUTO 00000KT 3SM BR CLR 20/19 A3010 RMK AO2 SLP177
     T02000189=
KLPR 080953Z AUTO 19003KT 7SM CLR 23/18 A3007 RMK AO2 SLP174
     T02280183=
KLSE 080953Z AUTO 00000KT 8SM CLR 21/19 A3002 RMK AO2 SLP156
     T02060194=
KLUK 080953Z AUTO 00000KT 2SM R21L/3500V6000FT BR CLR 22/21 A3007
     RMK AO2 SLP178 T02170206=
KLVJ 080953Z AUTO 09006KT 9SM CLR 28/23 A2992 RMK AO2 SLP130
     T02780233=
KLVK 080953Z AUTO 29009KT 10SM OVC012 13/11 A2990 RMK AO2 SLP123
     T01280111=
KMOD 080953Z AUTO 34006KT 10SM CLR 17/11 A2984 RMK AO2 SLP103
     T01670106=
KMPO 080953Z AUTO 34003KT 3SM BR FEW090 18/17 A3011 RMK AO2 SLP181
     T01830172=
KMRB 080953Z AUTO 00000KT 4SM HZ CLR 21/18 A3003 RMK AO2 SLP163
     T02110183=
KMSL 080953Z AUTO 00000KT 9SM CLR 23/22 A3007 RMK AO2 SLP176
     T02330222=
KMSO 080953Z AUTO 00000KT 10SM CLR 12/06 A3020 RMK AO2 SLP210
     T01220056 $=
KMSP 080953Z 30003KT 10SM CLR 18/17 A3008 RMK AO2 SLP185
     T01830167=
####018003729####
SAUS70 KWBC 081000 RRA
METAR
KGLY 080955Z AUTO 00000KT 8SM CLR 22/22 A3003 RMK AO2=
KHUT 080952Z AUTO 01004KT 6SM BR CLR 22/21 A3012 RMK AO2 SLP178
     T02170206=
KIAD 080952Z 00000KT 7SM BKN100 BKN250 26/21 A3001 RMK AO2 SLP157
     T02610211=
KIDP 080950Z AUTO 00000KT 10SM SCT036 SCT055 21/20 A3003 RMK AO2
     LTG DSNT S=
KIEN 080952Z AUTO 05004KT 10SM CLR 08/08 A3027 RMK AO2 SLP241
     T00830078=
KIJD 080952Z AUTO VRB04KT 2 1/2SM BR OVC003 23/22 A3007 RMK AO2
     SLP180 T02280222=
KIOW 080952Z AUTO 30003KT 10SM FEW095 22/21 A3004 RMK AO2 SLP169
     T02170206=
KISN 080952Z 21004KT 10SM CLR 13/11 A3012 RMK AO2 SLP195
     T01280111=
KLAM 080950Z AUTO 21008KT 10SM CLR 14/10 A3037 RMK AO2=
KLAW 080953Z AUTO 04004KT 10SM FEW041 23/22 A3005 RMK AO2 SLP163
     T02280222=
KLRU 080951Z AUTO 00000KT 10SM CLR 20/15 A3016 RMK AO2=
KLWC 080952Z AUTO 00000KT 10SM SCT090 22/21 A3005 RMK AO2 SLP167
     T02170206=
KMDH 080952Z AUTO 00000KT 7SM FEW085 23/22 A3005 RMK AO2 SLP169
     T02330217=
KMEB 080952Z AUTO 31003KT 10SM CLR 23/17 A2995 RMK AO2 SLP138
     T02280172=
KMEZ 080955Z AUTO 00000KT 10SM SCT015 BKN027 OVC039 26/23 A3007
     RMK AO2=
KTQH 080954Z AUTO 12003KT 10SM OVC020 23/23 A3004 RMK AO2=
KTRL 080953Z AUTO 14004KT 10SM BKN022 27/22 A3001 RMK AO2 SLP155
     T02670222=
KTRM 080952Z AUTO 33009KT 10SM CLR 25/12 A2968 RMK AO2 SLP055
     T02500122=
KTXK 080953Z AUTO 00000KT 4SM BR BKN003 23/23 A3004 RMK AO2 CIG
     001V007 SLP166 T02330233=
KTYR 080953Z AUTO 10003KT 10SM CLR 25/24 A3003 RMK AO2 SLP160
     T02500239=
KUDG 080955Z 32005KT 10SM CLR 23/18 A2998 RMK AO1=
KUGN 080952Z AUTO 15005KT 7SM BKN110 23/21 A3000 RMK AO2 RAB36E46
     SLP149 P0000 T02280211=
KWDG 080950Z AUTO 00000KT 10SM CLR 21/21 A3007 RMK AO2=
KWWR 080949Z AUTO 03005KT 10SM -RA SCT021 SCT038 BKN120 22/21
     A3015 RMK AO2 T02200210=
PATA 080952Z AUTO 03004KT 10SM CLR 13/06 A3005 RMK AO2 SLP177
     T01330056 TSNO=
PAWR 080952Z 16005G10KT 2SM -RA BR OVC008 12/12 A3007 RMK SLP183
     NOSPECI=
PHJR 080953Z 00000KT 10SM SCT050 23/18 A3005 RMK AO2 SLP183
     T02330183 403060217=
KSGR 080953Z AUTO 07006KT 10SM CLR 26/23 A2990 RMK AO2 SLP132
     T02610233 TSNO=
KFAY 080953Z AUTO 35005KT 10SM CLR 25/18 A2994 RMK AO2 SLP129
     T02500178=
KFCM 080953Z AUTO 31003KT 10SM CLR 18/16 A3008 RMK AO2 SLP181
     T01830156=
KFDY 080953Z AUTO 17003KT 7SM CLR 22/19 A3006 RMK AO2 SLP167
     T02170189=
KFFC 080953Z AUTO 00000KT 7SM CLR 21/19 A3004 RMK AO2 SLP165
     T02060189=
KFFT 080953Z AUTO 00000KT 3SM BR CLR 21/20 A3008 RMK AO2 SLP175
     T02110200=
KFHR 080953Z AUTO 00000KT 10SM CLR 13/11 A2997 RMK AO2 SLP149
     T01280106=
KFLD 080953Z AUTO 22005KT 10SM CLR 22/20 A3001 RMK AO2 RAE22
     SLP156 P0000 T02170200=
KFLL 080953Z 06007KT 10SM FEW020 28/24 A2992 RMK AO2 SLP132
     T02780244=
KFMY 080953Z AUTO 05003KT 10SM CLR 24/22 A2994 RMK AO2 SLP142
     T02390222=
KFOE 080953Z AUTO 33006KT 10SM CLR 21/19 A3007 RMK AO2 SLP171
     T02110194=
KFOK 080953Z AUTO 12003KT 5SM HZ SCT010 BKN018 OVC031 24/21 A3007
     RMK AO2 SLP181 T02390211 TSNO=
KFPR 080953Z AUTO 00000KT 9SM CLR 22/21 A2997 RMK AO2 SLP146
     T02170211=
KFRG 080953Z AUTO 14006KT 4SM BR BKN002 24/24 A3004 RMK AO2
     RAB39E53 SLP171 P0000 T02440244=
KFSM 080953Z AUTO 00000KT 10SM BKN026 OVC034 24/22 A3003 RMK AO2
     SLP162 T02440222=
KFST 080953Z AUTO 14004KT 10SM OVC085 22/19 A3006 RMK AO2 SLP130
     T02220189=
KFTY 080953Z 00000KT 9SM CLR 21/18 A3003 RMK AO2 SLP159
     T02060183=
KFUL 080953Z 00000KT 10SM OVC017 17/12 A2989 RMK AO2 SLP121
     T01720122=
####018003737####
SAUS80 KWBC 081000 RRA
METAR
KHLC 080953Z AUTO 36008KT 10SM OVC022 18/16 A3021 RMK AO2 SLP213
     T01780161=
KHSI 080953Z AUTO 35004KT 10SM CLR 16/14 A3020 RMK AO2 SLP216
     T01560144=
KHSV 080953Z 00000KT 10SM CLR 23/23 A3006 RMK AO2 SLP169
     T02330228=
KHVR 080953Z AUTO 00000KT 10SM CLR 09/07 A3019 RMK AO2 SLP217
     T00890072=
KJBR 080953Z AUTO 20003KT 10SM CLR 24/23 A3005 RMK AO2 SLP172
     T02440228 $=
KDMN 080953Z AUTO 05008KT 10SM SCT120 21/13 A3013 RMK AO2 RAE03
     SLP116 P0000 T02110133=
KDRT 080953Z AUTO 01003KT 10SM FEW021 24/22 A2994 RMK AO2 SLP119
     T02440222=
KEMP 080953Z AUTO 00000KT 4SM BR FEW005 SCT021 OVC110 22/20 A3007
     RMK AO2 SLP173 T02170200=
KGRR 080953Z 27004KT 4SM BR BKN055 OVC095 24/22 A3004 RMK AO2
     SLP166 T02390222=
KBFF 080953Z AUTO 00000KT 10SM BKN032 BKN055 OVC085 16/13 A3029
     RMK AO2 SLP229 T01560133=
KBIL 080953Z 19005KT 10SM CLR 13/07 A3023 RMK AO2 SLP216
     T01280072=
KCAK 080951Z 00000KT 6SM HZ CLR 21/18 A3009 RMK AO2 SLP179
     T02110183=
KCDR 080953Z AUTO 23004KT 10SM CLR 09/08 A3028 RMK AO2 SLP250
     T00940083=
KCLL 080953Z 07006KT 10SM CLR 26/23 A2995 RMK AO2 SLP136
     T02560228=
KCNY 080953Z AUTO 06008KT 10SM CLR 22/04 A3009 RMK AO2 SLP124
     T02170044=
KCRP 080951Z 01006KT 9SM -RA SCT021 SCT028 OVC050 26/25 A2983 RMK
     AO2 TSE35 SLP100 TS DSIPT P0052 T02560250=
KCRQ 080953Z AUTO 34003KT 10SM OVC011 17/13 A2989 RMK AO2 SLP119
     T01720133=
KDBQ 080953Z AUTO 00000KT 10SM BKN026 20/19 A3004 RMK AO2 SLP168
     T02000194=
KELY 080953Z AUTO 19007KT 10SM CLR 09/M04 A3021 RMK AO2 SLP133
     T00891044 $=
KSDM 080953Z AUTO 28005KT 10SM OVC012 16/13 A2989 RMK AO2 SLP119
     T01610133 TSNO=
KTUS 080953Z 00000KT 10SM CLR 31/04 A2990 RMK AO2 SLP064
     T03060044=
KYKM 080953Z AUTO 25005KT 10SM CLR 13/07 A3001 RMK AO2 SLP156
     T01330072=
KPVD 080951Z 14006KT 10SM BKN008 OVC016 22/20 A3008 RMK A02 SLP186
     T02220200=
KRIW 080953Z AUTO 00000KT 10SM CLR 09/04 A3034 RMK AO2 SLP229
     T00890039=
KRMG 080953Z AUTO 00000KT 10SM CLR 21/18 A3004 RMK AO2 SLP160
     T02060183=
KSAN 080951Z 33004KT 10SM FEW010 OVC019 17/14 A2991 RMK AO2 SLP127
     T01670139=
KSAT 080953Z 05005KT 5SM -RA BR BKN014 BKN040 OVC250 26/23 A2994
     RMK AO2 RAE0857B38 SLP119 P0000 T02560233=
KPDX 080953Z 00000KT 10SM CLR 19/14 A2989 RMK AO2 SLP118
     T01940144=
KPGA 080953Z AUTO 00000KT 10SM CLR 24/02 A3004 RMK AO2 SLP097
     T02440017=
KPOF 080953Z AUTO 00000KT 7SM CLR 24/23 A3004 RMK AO2 SLP167
     T02440233 $=
KMLU 080953Z AUTO 07004KT 10SM CLR 25/23 A3004 RMK AO2 SLP170
     T02500233=
KLWD 080953Z AUTO 34006KT 10SM SCT007 21/20 A3008 RMK AO2 SLP179
     T02060200=
PHTO 080953Z AUTO 25006KT 10SM FEW028 OVC065 22/19 A3005 RMK AO2
     RAE37 SLP173 P0010 T02170194 402830189 TSNO=
PHKO 080953Z AUTO 14009KT 10SM CLR 24/18 A2999 RMK AO2 SLP155
     T02390178 402780222 TSNO=
PHLI 080953Z 07013KT 10SM FEW023 OVC045 24/19 A3007 RMK AO2 SLP178
     T02430187 402890228 $=
KAAF 080953Z AUTO 02004KT 10SM CLR 23/22 A2999 RMK AO2 SLP157
     T02330222=
KDAL 080953Z 14006KT 10SM FEW012 SCT130 OVC210 26/23 A3000 RMK AO2
     SLP151 T02610228=
KSEA 080953Z 36007KT 10SM CLR 19/11 A2996 RMK AO2 SLP147 T01940111
     $=
KSOW 080950Z AUTO 21007KT 10SM BKN100 21/04 A3025 RMK AO2=
KSTC 080953Z AUTO 00000KT 5SM BR CLR 13/12 A3009 RMK AO2 SLP195
     T01330117=
KJLN 080953Z 05004KT 10SM -TSRA FEW006 BKN016 OVC037 23/22 A3004
     RMK AO2 LTG DSNT NE TSB28E43B45 SLP162 P0072 T02280222=
KLAN 080953Z 31004KT 7SM FEW038 SCT060 SCT110 23/21 A3005 RMK AO2
     SLP169 T02280211 $=
####018003671####
SAUS70 KWBC 081000 RRK
METAR
KLLQ 080953Z AUTO 00000KT 7SM FEW002 23/22 A3006 RMK AO2 SLP177
     T02330222=
KLMT 080953Z AUTO 31004KT 10SM FEW100 18/11 A3004 RMK AO2 SLP121
     T01780106=
KLNS 080953Z 12003KT 3SM HZ CLR 23/21 A3002 RMK AO2 SLP163
     T02330206=
KLOL 080953Z AUTO 22003KT 10SM CLR 19/M04 A2999 RMK AO2 SLP109
     T01891044=
KLOU 080953Z AUTO 00000KT 7SM CLR 24/21 A3006 RMK AO2 SLP174
     T02440211=
KLOZ 080953Z AUTO 00000KT 3SM BR CLR 20/19 A3010 RMK AO2 SLP177
     T02000189=
KLPR 080953Z AUTO 19003KT 7SM CLR 23/18 A3007 RMK AO2 SLP174
     T02280183=
KLSE 080953Z AUTO 00000KT 8SM CLR 21/19 A3002 RMK AO2 SLP156
     T02060194=
KLUK 080953Z AUTO 00000KT 2SM R21L/3500V6000FT BR CLR 22/21 A3007
     RMK AO2 SLP178 T02170206=
KLVJ 080953Z AUTO 09006KT 9SM CLR 28/23 A2992 RMK AO2 SLP130
     T02780233=
KLVK 080953Z AUTO 29009KT 10SM OVC012 13/11 A2990 RMK AO2 SLP123
     T01280111=
KMOD 080953Z AUTO 34006KT 10SM CLR 17/11 A2984 RMK AO2 SLP103
     T01670106=
KMPO 080953Z AUTO 34003KT 3SM BR FEW090 18/17 A3011 RMK AO2 SLP181
     T01830172=
KMRB 080953Z AUTO 00000KT 4SM HZ CLR 21/18 A3003 RMK AO2 SLP163
     T02110183=
KMSL 080953Z AUTO 00000KT 9SM CLR 23/22 A3007 RMK AO2 SLP176
     T02330222=
KMSO 080953Z AUTO 00000KT 10SM CLR 12/06 A3020 RMK AO2 SLP210
     T01220056 $=
KMSP 080953Z 30003KT 10SM CLR 18/17 A3008 RMK AO2 SLP185
     T01830167=
KMSS 080953Z AUTO 00000KT 4SM BR CLR 22/20 A3001 RMK AO2 SLP161
     T02170200=
KMSY 080953Z 00000KT 9SM FEW018 SCT250 26/23 A2999 RMK AO2 SLP160
     T02610233=
KMTH 080953Z AUTO 04005KT 10SM BKN020 A2992 RMK AO2 LTG DSNT NE
     AND SE TSB34E51 SLP133 FZRANO $=
KMTJ 080953Z AUTO 14009KT 10SM SCT120 16/05 A3027 RMK AO2 SLP175
     T01560050=
KMTO 080953Z AUTO 21004KT 10SM CLR 24/23 A3003 RMK AO2 SLP162
     T02440228=
KMVY 080953Z 13004KT 2SM R24/5500VP6000FT BR OVC001 21/19 A3009
     RMK AO2 SLP187 T02110194=
KMYF 080953Z AUTO 34006KT 10SM FEW008 OVC013 16/14 A2990 RMK AO2
     SLP121 T01610139 TSNO=
KMYV 080953Z AUTO 18008KT 10SM CLR 17/12 A2981 RMK AO2 SLP099
     T01720117=
KNEW 080953Z AUTO 12004KT 10SM CLR 27/25 A3001 RMK AO2 SLP154
     T02670250 TSNO=
KOAK 080953Z 29009KT 10SM OVC009 15/11 A2993 RMK AO2 SLP135
     T01500111=
KOGA 080950Z AUTO 00000KT 10SM SCT090 15/14 A3027 RMK AO2
     T01510141=
KOGD 080953Z 18007KT 10SM CLR 18/07 A3010 RMK AO2 SLP134
     T01830067=
KOJC 080953Z AUTO 35004KT 8SM CLR 23/22 A3005 RMK AO2 SLP165
     T02280217=
KOLF 080953Z AUTO 00000KT 10SM CLR 11/08 A3013 RMK AO2 SLP200
     T01060083=
KOMK 080953Z AUTO 32003KT 10SM CLR 14/08 A3005 RMK AO2 SLP170
     T01390078=
KONL 080950Z AUTO 28003KT 10SM BKN110 16/15 A3021 RMK AO2
     T01630145=
KONO 080953Z AUTO 25003KT 10SM CLR 12/07 A3004 RMK AO2 SLP160
     T01220067=
KONT 080953Z 24003KT 5SM BR OVC010 15/13 A2990 RMK AO2 SLP115
     T01500128=
KOPF 080953Z AUTO 35004KT 10SM CLR 26/24 A2993 RMK AO2 SLP137
     T02610244=
KORL 080953Z 00000KT 10SM CLR 22/21 A2999 RMK AO2 SLP157
     T02220211=
KOSH 080953Z AUTO 21004KT 10SM CLR 22/20 A3000 RMK AO2 SLP144
     T02170200=
KOSU 080953Z AUTO 00000KT 6SM HZ CLR 22/19 A3008 RMK AO2 SLP177
     T02170189=
KOTM 080953Z AUTO 31006KT 5SM BR FEW008 21/20 A3005 RMK AO2 SLP170
     T02060200=
KOUN 080953Z AUTO 36003KT 10SM SCT020 BKN027 OVC032 25/23 A3004
     RMK AO2=
KOVE 080953Z AUTO 12008KT 10SM CLR 20/13 A2984 RMK AO2 SLP104
     T02000128 TSNO=
PAAQ 080953Z AUTO 04005KT 10SM -RA SCT070 OVC090 12/09 A3002 RMK
     AO2 SLP162 P0000 T01220094 TSNO=
####018003682####
SAUS99 KWBC 080956 RRC
METAR
KABR 080953Z AUTO 00000KT 1 1/2SM BR CLR 14/13 A3012 RMK AO2 VIS
     1/2V5 SLP197 T01440133=
KACK 080953Z 12007KT 8SM CLR 19/19 A3009 RMK AO2 SLP188
     T01940189=
KACV 080953Z AUTO 28003KT 3SM BR OVC001 10/09 A2996 RMK AO2 SLP151
     T01000094=
KADG 080953Z AUTO 00000KT 6SM HZ CLR 22/19 A3006 RMK AO2 SLP173
     T02220194=
KAEX 080953Z AUTO 00000KT 10SM FEW016 24/23 A3000 RMK AO2 SLP162
     T02390228=
KAGC 080953Z 00000KT 3SM HZ CLR 23/19 A3009 RMK AO2 SLP183
     T02280194=
KAGS 080953Z AUTO 00000KT 10SM CLR 22/19 A2999 RMK AO2 SLP152
     T02220194 TSNO=
KAIA 080953Z AUTO 00000KT 10SM FEW026 BKN090 15/14 A3028 RMK AO2
     SLP227 T01500139 $=
KALI 080953Z AUTO 01005KT 2 1/2SM +RA BR OVC026 25/25 A2984 RMK
     AO2 LTG DSNT NE RAB16 SLP102 P0020 T02500250=
KALW 080953Z AUTO 00000KT 10SM CLR 17/08 A2997 RMK AO2 SLP139
     T01720078=
KAMA 080953Z 03009KT 1SM -RA FEW028 OVC100 17/16 A3019 RMK AO2 SFC
     VIS 8 SLP173 P0002 T01720156 $=
KAMW 080953Z AUTO 34008KT 7SM FEW095 20/19 A3009 RMK AO2 SLP181
     T02000189=
KANB 080953Z AUTO 00000KT 10SM CLR 22/20 A3004 RMK AO2 SLP162
     T02170200=
KAOH 080953Z AUTO 18004KT 6SM HZ 22/19 A3007 RMK AO2 SLP175
     T02220194 $=
KAOO 080953Z AUTO 31003KT 3SM BR CLR 18/16 A3011 RMK AO2 SLP182
     T01830161=
KAPA 080953Z 00000KT 7SM FEW007 OVC027 14/13 A3034 RMK AO2 SLP230
     T01440128 $=
KAPF 080953Z 03005KT 10SM CLR 24/23 A2995 RMK AO2 SLP141
     T02440228=
KARA 080953Z AUTO 07005KT 7SM CLR 24/24 A2999 RMK AO2 SLP153
     T02440239=
KARB 080953Z AUTO 27003KT 1/2SM FG CLR 19/18 A3004 RMK AO2 SLP166
     T01940183=
KASD 080953Z AUTO 00000KT 9SM CLR 24/23 A3000 RMK AO2 SLP159
     T02440228=
KASE 080953Z 18020G27KT 10SM FEW055 SCT080 BKN100 09/07 A3038 RMK
     AO2 PK WND 19027/0951 WSHFT 0932 RAE48 SLP174 P0004
     T00890067=
KASX 080953Z AUTO 00000KT 10SM SCT055 16/15 A3003 RMK AO2 SLP167
     T01610150=
KATY 080953Z AUTO 23006KT 10SM CLR 14/13 A3015 RMK AO2 SLP204
     T01440133=
KAUG 080953Z AUTO 16006KT 5SM BR OVC005 21/19 A3008 RMK AO2 SLP185
     T02060194=
KAWM 080953Z AUTO 00000KT 10SM CLR 23/22 A3005 RMK AO2 SLP171
     T02330222=
KAXN 080953Z AUTO 22005KT 9SM CLR 14/14 A3012 RMK AO2 SLP199
     T01440139=
KAZO 080953Z 00000KT 4SM BR SCT050 23/21 A3005 RMK AO2 SLP169
     T02280206 $=
KBAF 080953Z 15003KT 6SM BR FEW070 BKN100 23/21 A3005 RMK AO2
     SLP171 T02330211=
KBBW 080953Z AUTO 00000KT 10SM OVC065 17/16 A3023 RMK AO2 SLP222
     T01720156=
KBCE 080953Z AUTO 25005KT 10SM OVC110 09/02 A3031 RMK AO2 SLP153
     T00940022 TSNO=
KBDE 080953Z AUTO 00000KT 10SM CLR 14/12 A2999 RMK AO2 SLP157
     T01440122=
KBEH 080953Z AUTO 00000KT 2 1/2SM BR CLR 22/22 A3003 RMK AO2
     SLP164 T02220217 $=
KBFD 080953Z AUTO 00000KT 4SM BR CLR 16/15 A3015 RMK AO2 SLP192
     T01610150=
KBFF 080953Z AUTO 00000KT 10SM BKN032 BKN055 OVC085 16/13 A3029
     RMK AO2 SLP229 T01560133=
KBFI 080953Z 00000KT 10SM CLR 20/12 A2994 RMK AO2 SLP139
     T02000117=
KBFM 080953Z 00000KT 9SM CLR 24/23 A3003 RMK AO2 SLP169 P0001
     T02390228=
KBGM 080953Z 31004KT 4SM HZ CLR 22/18 A3012 RMK AO2 SLP184
     T02170183=
KBGR 080953Z 19006KT 1 1/2SM BR OVC003 20/19 A3007 RMK AO2 SLP179
     T02000194=
KBHK 080953Z AUTO 23007KT 10SM CLR 13/08 A3020 RMK AO2 SLP212
     T01330083=
KBHM 080953Z 33003KT 9SM CLR 24/22 A3007 RMK AO2 SLP171
     T02440217=
KBIL 080953Z 19005KT 10SM CLR 13/07 A3023 RMK AO2 SLP216
     T01280072=
KBIV 080953Z AUTO 00000KT 7SM CLR 24/22 A3004 RMK AO2 SLP167
     T02390217=
####018003709####
SAUS70 KWBC 081000 RRH
METAR
KPKB 080953Z AUTO 00000KT 1/2SM FG VV001 20/19 A3011 RMK AO2
     SLP187 T02000194 TSNO RVRNO=
KPKD 080953Z AUTO 25003KT 7SM CLR 13/12 A3007 RMK AO2 SLP185 P0001
     T01330122=
KPMD 080953Z AUTO 20007KT 10SM CLR 18/04 A2990 RMK AO2 SLP093
     T01830039 TSNO $=
KPMP 080953Z AUTO 07006KT 10SM FEW021 28/24 A2993 RMK AO2 SLP137
     T02780244=
KPNA 080950Z AUTO 28006KT 10SM CLR 04/01 A3040 RMK AO2
     T00400011=
KPNC 080953Z AUTO 36004KT 9SM CLR 22/21 A3004 RMK AO2 SLP161
     T02220211=
KPOU 080953Z 00000KT 4SM BR CLR 23/21 A3002 RMK AO2 SLP160
     T02280211=
KPQL 080953Z AUTO 00000KT 5SM BR BKN002 23/23 A3001 RMK AO2 SLP164
     T02330228=
KPRB 080953Z AUTO 00000KT 10SM BKN009 12/10 A2990 RMK AO2 SLP121
     T01220100=
KPRC 080953Z AUTO 18006KT 10SM CLR 18/01 A3009 RMK AO2 SLP096
     T01830006=
KPSC 080953Z AUTO 00000KT 10SM CLR 15/11 A2995 RMK AO2 SLP140
     T01500106=
KMNI 080955Z AUTO 30003KT 10SM CLR 24/22 A2995 RMK AO2=
KMWL 080953Z AUTO 11005KT 10SM FEW024 23/21 A3000 RMK AO2 SLP144
     T02280206=
KMYR 080945Z 31008KT 10SM FEW090 25/19 A2996=
KOGB 080953Z AUTO 31005KT 10SM CLR 23/19 A2998 RMK AO2 SLP148
     T02330189=
KPNS 080953Z AUTO 00000KT 8SM CLR 24/23 A3001 RMK AO2 SLP163
     T02390233=
KPSO 080955Z AUTO 00000KT 10SM CLR 11/05 A3038 RMK AO2=
KSPA 080955Z AUTO 00000KT 10SM CLR 22/22 A3001 RMK AO2=
KSPL 080955Z AUTO 03007KT 28/25 A2976 RMK AO2 PWINO PNO=
KSSI 080953Z AUTO 27005KT 10SM CLR 23/21 A2999 RMK AO2 SLP155
     T02280211=
KUTA 080955Z AUTO 00000KT 10SM CLR 23/22 A3006 RMK AO2=
KVLD 080953Z AUTO 00000KT 5SM BR CLR 19/18 A3001 RMK AO2 SLP168
     T01940183=
KX40 080955Z AUTO 00000KT 7SM CLR 22/21 A3000 RMK AO2
     T02200212=
KYIP 080953Z 22003KT 6SM BR CLR 23/21 A3004 RMK AO2 SLP165
     T02280206=
KLVM 080953Z AUTO 26003KT 10SM CLR 03/01 A3028 RMK AO2 SLP235
     T00330011=
KLVS 080953Z AUTO 02008KT 10SM CLR 11/09 A3037 RMK AO2 SLP208
     T01110089 TSNO=
KLWV 080953Z AUTO 00000KT 3SM BR CLR 24/22 A3003 RMK AO2 SLP165
     T02390217=
KLXN 080950Z AUTO 33004KT 10SM SCT049 OVC080 16/16 A3022 RMK AO2
     T01630155=
KLXT 080953Z AUTO 00000KT 10SM CLR 22/21 A3005 RMK AO2 SLP168
     T02170206=
KMAE 080953Z AUTO 30007KT 10SM CLR 17/12 A2982 RMK AO2 SLP096
     T01720117=
KMBS 080953Z 22004KT 8SM CLR 23/22 A3002 RMK AO2 SLP162
     T02330217=
KMCB 080953Z AUTO 00000KT 8SM CLR 23/22 A3003 RMK AO2 SLP164
     T02330222=
KMCE 080953Z AUTO 30007KT 10SM CLR 18/10 A2982 RMK AO2 SLP096
     T01780100=
KMCI 080953Z 32005KT 9SM SCT110 22/21 A3005 RMK AO2 SLP167
     T02220211 $=
KMCK 080953Z AUTO 00000KT 10SM OVC065 17/16 A3024 RMK AO2 SLP226
     T01670161=
KMCO 080953Z 35003KT 10SM FEW015 22/21 A2999 RMK AO2 SLP153
     T02170206=
KMCW 080953Z AUTO 32005KT 10SM CLR 17/17 A3011 RMK AO2 SLP184
     T01720172 $=
KMEM 080953Z 00000KT 10SM FEW250 26/22 A3007 RMK AO2 SLP176
     T02560222=
KMFR 080953Z AUTO 02005KT 10SM CLR 21/12 A2988 RMK AO2 SLP103
     T02060122=
KMGW 080953Z AUTO 00000KT 4SM HZ CLR 21/18 A3011 RMK AO2 SLP184
     T02060178=
KMGY 080953Z AUTO 00000KT 5SM HZ CLR 22/19 A3008 RMK AO2 SLP175
     T02220194=
KMHE 080953Z AUTO 26005KT 10SM CLR 18/14 A3016 RMK AO2 SLP207
     T01780144 TSNO=
KMHT 080953Z 17008KT 2SM BR BKN006 OVC080 23/22 A3005 RMK AO2 TWR
     VIS 3 SLP185 T02330217=
KMIA 080953Z 02003KT 10SM FEW025 SCT080 SCT250 28/24 A2993 RMK AO2
     SLP134 T02780244=
KMIC 080953Z 30003KT 10SM CLR 18/16 A3007 RMK AO2 SLP179
     T01780156=
KMIE 080953Z AUTO 00000KT 9SM CLR 22/19 A3007 RMK AO2 SLP169
     T02220194=
####018000115####
SAUS41 KCAR 080955
MTRCAR
METAR KCAR 080954Z AUTO 17005KT 7SM FEW040 22/19 A3001 RMK AO2 
SLP160 T02170194
####018000147####
SPUS99 KWBC 080956
SPECI
K7R3 080950Z 04004KT 7SM SKC 24/23 A2999 RMK DA011=
KBJJ 080953Z AUTO 00000KT 1 1/4SM BR CLR 18/17 A3010 RMK AO2=
####018000147####
SPUS70 KWBC 080956
SPECI
K7R3 080950Z 04004KT 7SM SKC 24/23 A2999 RMK DA011=
KBJJ 080953Z AUTO 00000KT 1 1/4SM BR CLR 18/17 A3010 RMK AO2=
####018003676####
SAUS70 KWBC 081000 RRB
METAR
KFVE 080953Z AUTO 18004KT 3/4SM BR OVC002 22/22 A3001 RMK AO2
     SLP153 T02220222=
KFWN 080953Z AUTO 00000KT 2 1/2SM BR CLR 22/21 A3005 RMK AO2
     SLP170 T02170206=
KFYV 080953Z AUTO 00000KT 10SM CLR 22/21 A3006 RMK AO2 SLP164
     T02220211=
KGAG 080953Z AUTO 03006KT 10SM FEW120 21/19 A3013 RMK AO2 RAE07
     SLP177 P0000 T02110194=
KGEY 080953Z AUTO 12004KT 10SM CLR 12/03 A3025 RMK AO2 SLP218
     T01170033=
KGEZ 080953Z AUTO 13003KT 5SM BR BKN090 22/20 A3005 RMK AO2 SLP167
     T02170200=
KGFK 080953Z 24004KT 10SM FEW080 14/12 A3003 RMK AO2 SLP170
     T01440122=
KGFL 080953Z AUTO 00000KT 2 1/2SM BR FEW033 21/21 A3003 RMK AO2
     VIS 1 1/2V3 SLP163 T02060206=
KGGW 080953Z AUTO 30003KT 10SM CLR 14/09 A3014 RMK AO2 SLP200
     T01390089 TSNO=
KHLG 080953Z AUTO 00000KT 2 1/2SM BR SCT050 21/19 A3010 RMK AO2
     SLP184 T02060194=
KHLN 080953Z AUTO 25008KT 10SM CLR 12/04 A3025 RMK AO2 SLP236
     T01170039=
KHOT 080953Z AUTO 00000KT 10SM OVC008 24/23 A3006 RMK AO2 SLP171
     T02440233=
KHOU 080953Z 10005KT 10SM FEW026 SCT039 BKN130 BKN250 28/24 A2991
     RMK AO2 SLP132 T02780239=
KHQM 080953Z AUTO 25006KT 10SM 16/14 A2994 RMK AO2 SLP141
     T01560139 $=
KHRI 080953Z AUTO 14003KT 10SM CLR 16/07 A2994 RMK AO2 SLP132
     T01610072=
KHRO 080953Z AUTO 18003KT 9SM CLR 22/21 A3007 RMK AO2 SLP169
     T02170206=
KHUF 080953Z 00000KT 6SM BR CLR 23/21 A3004 RMK AO2 SLP165
     T02280211 $=
KHUL 080953Z AUTO 20005KT 4SM BR CLR 21/18 A3003 RMK AO2 SLP165
     T02060183=
KHVN 080953Z 10004KT 1 1/2SM HZ OVC002 24/23 A3004 RMK AO2 SLP172
     T02440233=
KHWO 080953Z AUTO 00000KT 10SM CLR 25/24 A2994 RMK AO2 SLP140
     T02500239=
KHYR 080953Z AUTO 00000KT 10SM BKN048 16/15 A3005 RMK AO2 SLP172
     T01610150=
KIAH 080953Z 04008KT 7SM FEW022 BKN035 BKN130 25/24 A2992 RMK AO2
     SLP133 T02500244=
KIBM 080950Z AUTO 00000KT 7SM BKN065 12/11 A3032 RMK AO2
     T01220114=
KICR 080953Z AUTO 26003KT 10SM CLR 17/12 A3020 RMK AO2 SLP217
     T01720122 TSNO=
KICT 080953Z 33009KT 10SM SCT080 OVC200 22/20 A3009 RMK AO2 SLP175
     T02170200 $=
KIDA 080953Z AUTO 36005KT 10SM CLR 08/06 A3019 RMK AO2 SLP193
     T00780056=
KILM 080953Z 35003KT 10SM CLR 24/19 A2991 RMK AO2 SLP127 P0001
     T02440194=
KIML 080953Z AUTO 32005KT 10SM BKN060 16/14 A3026 RMK AO2 SLP231
     T01610144=
KIPL 080953Z AUTO 16007KT 10SM CLR 26/16 A2968 RMK AO2 SLP052
     T02560161=
KITR 080953Z AUTO 00000KT 10SM BKN005 OVC032 16/15 A3030 RMK AO2
     SLP219 T01610150=
KIWI 080953Z AUTO VRB04KT 9SM OVC001 20/19 A3010 RMK AO2 SLP192
     T02000189=
KIXD 080953Z AUTO 01006KT 5SM BR OVC002 22/21 A3006 RMK AO2 SLP168
     T02220206=
KJCT 080951Z AUTO 00000KT 8SM BKN036 23/21 A3001 RMK AO2 SLP123
     T02280211 TSNO=
KJEF 080953Z AUTO 35004KT 10SM BKN004 OVC065 24/23 A3003 RMK AO2
     RAE06 SLP156 P0000 T02390228=
KJER 080953Z AUTO 04012KT 10SM CLR 16/M03 A3011 RMK AO2 SLP161
     T01561033=
KDEN 080953Z 21006KT 5SM BR FEW018 BKN025 14/13 A3032 RMK AO2
     SLP214 T01440133 $=
KDET 080953Z 00000KT 8SM CLR 25/21 A3003 RMK AO2 SLP163 T02500211
     $=
KDEW 080953Z AUTO 00000KT 10SM CLR 14/07 A3007 RMK AO2 SLP171
     T01390072=
KDFI 080953Z AUTO 00000KT 6SM BR CLR 21/19 A3005 RMK AO2 SLP171
     T02110189=
KDGW 080953Z AUTO 00000KT 3SM BR CLR 05/04 A3033 RMK AO2 SLP246
     T00500044 $=
KDHT 080953Z AUTO 35010KT 10SM -RA OVC075 17/15 A3025 RMK AO2
     RAE0857B39 SLP191 P0000 T01670150=
KDKK 080953Z AUTO 00000KT 7SM SCT090 19/18 A3006 RMK AO2 SLP174
     T01940178=
####018000141####
SAUS43 KLSX 080955
MTRCOU
METAR KCOU 080954Z AUTO 00000KT 7SM SCT015 SCT021 23/22 A3006 RMK 
AO2 RAE0857 SLP170 P0000 T02280222 TSNO
####018000405####
SABX31 KWBC 080950
METAR
EBAW NIL=
EBBE NIL=
EBBL NIL=
EBBR 080950Z 22006KT 190V260 CAVOK 28/11 Q1020 NOSIG=
EBBT NIL=
EBCI NIL=
EBCV NIL=
EBDT NIL=
EBFN NIL=
EBFS NIL=
EBGB NIL=
EBKH NIL=
EBKT NIL=
EBLB NIL=
EBLG 080950Z 26005KT 200V300 CAVOK 28/08 Q1020 NOSIG=
EBMT NIL=
EBOS NIL=
EBSH NIL=
EBSP NIL=
EBST NIL=
EBTN NIL=
EBTY NIL=
EBZW NIL=
ELLX NIL=
####018003686####
SAUS70 KWBC 081000 RRD
METAR
KHFD 080953Z AUTO 00000KT 3SM HZ OVC008 25/22 A3004 RMK AO2 SLP171
     T02500217=
KHGR 080953Z AUTO 07003KT 5SM HZ CLR 24/17 A3003 RMK AO2 SLP170
     T02440167=
KHHR 080953Z AUTO 24003KT 10SM OVC014 17/13 A2990 RMK AO2 SLP125
     T01670133=
KHIB 080953Z AUTO 00000KT 1 1/4SM BR CLR 09/08 A3004 RMK AO2
     SLP176 T00890083=
KHIO 080953Z AUTO 00000KT 10SM CLR 15/12 A2988 RMK AO2 SLP115
     T01500122=
KHJH 080950Z AUTO 02005KT 10SM SCT016 OVC027 19/18 A3016 RMK AO2
     T01930176=
KHJO 080953Z AUTO 30007KT 10SM CLR 20/13 A2982 RMK AO2 SLP096
     T02000133=
KHKA 080953Z AUTO 21003KT 7SM CLR 25/22 A3005 RMK AO2 SLP174
     T02500222=
KHKS 080953Z AUTO 00000KT 9SM CLR 24/23 A3005 RMK AO2 SLP168
     T02390228=
KHKY 080953Z AUTO 30005KT 10SM FEW090 22/17 A3004 RMK AO2 SLP148
     T02220172 $=
KPMV 080950Z AUTO 33003KT 10SM CLR 19/19 A3012 RMK AO2
     T01930185=
KABR 080953Z AUTO 00000KT 1 1/2SM BR CLR 14/13 A3012 RMK AO2 VIS
     1/2V5 SLP197 T01440133=
KACK 080953Z 12007KT 8SM CLR 19/19 A3009 RMK AO2 SLP188
     T01940189=
KACV 080953Z AUTO 28003KT 3SM BR OVC001 10/09 A2996 RMK AO2 SLP151
     T01000094=
KADG 080953Z AUTO 00000KT 6SM HZ CLR 22/19 A3006 RMK AO2 SLP173
     T02220194=
KAEX 080953Z AUTO 00000KT 10SM FEW016 24/23 A3000 RMK AO2 SLP162
     T02390228=
KAGC 080953Z 00000KT 3SM HZ CLR 23/19 A3009 RMK AO2 SLP183
     T02280194=
KAGS 080953Z AUTO 00000KT 10SM CLR 22/19 A2999 RMK AO2 SLP152
     T02220194 TSNO=
KAIA 080953Z AUTO 00000KT 10SM FEW026 BKN090 15/14 A3028 RMK AO2
     SLP227 T01500139 $=
KALI 080953Z AUTO 01005KT 2 1/2SM +RA BR OVC026 25/25 A2984 RMK
     AO2 LTG DSNT NE RAB16 SLP102 P0020 T02500250=
KALW 080953Z AUTO 00000KT 10SM CLR 17/08 A2997 RMK AO2 SLP139
     T01720078=
KAMA 080953Z 03009KT 1SM -RA FEW028 OVC100 17/16 A3019 RMK AO2 SFC
     VIS 8 SLP173 P0002 T01720156 $=
KAMW 080953Z AUTO 34008KT 7SM FEW095 20/19 A3009 RMK AO2 SLP181
     T02000189=
KANB 080953Z AUTO 00000KT 10SM CLR 22/20 A3004 RMK AO2 SLP162
     T02170200=
KAOH 080953Z AUTO 18004KT 6SM HZ 22/19 A3007 RMK AO2 SLP175
     T02220194 $=
KAOO 080953Z AUTO 31003KT 3SM BR CLR 18/16 A3011 RMK AO2 SLP182
     T01830161=
KAPA 080953Z 00000KT 7SM FEW007 OVC027 14/13 A3034 RMK AO2 SLP230
     T01440128 $=
KAPF 080953Z 03005KT 10SM CLR 24/23 A2995 RMK AO2 SLP141
     T02440228=
KARA 080953Z AUTO 07005KT 7SM CLR 24/24 A2999 RMK AO2 SLP153
     T02440239=
KARB 080953Z AUTO 27003KT 1/2SM FG CLR 19/18 A3004 RMK AO2 SLP166
     T01940183=
KASD 080953Z AUTO 00000KT 9SM CLR 24/23 A3000 RMK AO2 SLP159
     T02440228=
KASE 080953Z 18020G27KT 10SM FEW055 SCT080 BKN100 09/07 A3038 RMK
     AO2 PK WND 19027/0951 WSHFT 0932 RAE48 SLP174 P0004
     T00890067=
KASX 080953Z AUTO 00000KT 10SM SCT055 16/15 A3003 RMK AO2 SLP167
     T01610150=
KATY 080953Z AUTO 23006KT 10SM CLR 14/13 A3015 RMK AO2 SLP204
     T01440133=
KAUG 080953Z AUTO 16006KT 5SM BR OVC005 21/19 A3008 RMK AO2 SLP185
     T02060194=
KAWM 080953Z AUTO 00000KT 10SM CLR 23/22 A3005 RMK AO2 SLP171
     T02330222=
KAXN 080953Z AUTO 22005KT 9SM CLR 14/14 A3012 RMK AO2 SLP199
     T01440139=
KAZO 080953Z 00000KT 4SM BR SCT050 23/21 A3005 RMK AO2 SLP169
     T02280206 $=
KBAF 080953Z 15003KT 6SM BR FEW070 BKN100 23/21 A3005 RMK AO2
     SLP171 T02330211=
KBBW 080953Z AUTO 00000KT 10SM OVC065 17/16 A3023 RMK AO2 SLP222
     T01720156=
KBCE 080953Z AUTO 25005KT 10SM OVC110 09/02 A3031 RMK AO2 SLP153
     T00940022 TSNO=
KBDE 080953Z AUTO 00000KT 10SM CLR 14/12 A2999 RMK AO2 SLP157
     T01440122=
####018000265####
SAAW34 KWBC 080945 RRA
METAR
OAKB 080950Z 05005KT 9999 SCT070 34/06 Q1016 NOSIG RMK BLU BLU=
OAKN 080950Z 34008KT 9000 HZ FEW120 41/07 Q1008 BLU NOSIG RMK
     A2977 DA7100=
OPSK 080955Z 050108KTS 6000 HZ SCT040 SCT100 39/25 QNH 1001 R.H.
     46 PC=
####018000315####
SAPQ50 KWBC 081000
METAR
PTKR 080953Z 00000KT 15SM FEW018CB SCT120 OVC300 28/24 A2982 RMK
     CB DSNT NE SLP099 T02750243=
PTRO 080953Z 00000KT 14SM SCT016TCU BKN120 BKN300 26/24 A2985 RMK
     TCU VC ALQDS=
PGUM 080954Z 08008KT 10SM SCT019 SCT025 SCT030 28/24 A2989 RMK AO2
     SLP113 T02830244=
####018003702####
SAUS99 KWBC 080956 RRA
METAR
KHUL 080953Z AUTO 20005KT 4SM BR CLR 21/18 A3003 RMK AO2 SLP165
     T02060183=
KHVN 080953Z 10004KT 1 1/2SM HZ OVC002 24/23 A3004 RMK AO2 SLP172
     T02440233=
KHVR 080953Z AUTO 00000KT 10SM CLR 09/07 A3019 RMK AO2 SLP217
     T00890072=
KHWO 080953Z AUTO 00000KT 10SM CLR 25/24 A2994 RMK AO2 SLP140
     T02500239=
KHYR 080953Z AUTO 00000KT 10SM BKN048 16/15 A3005 RMK AO2 SLP172
     T01610150=
KIAG 080953Z AUTO 20003KT 5SM BR CLR 23/21 A3004 RMK AO2 SLP167
     T02280206=
KIAH 080953Z 04008KT 7SM FEW022 BKN035 BKN130 25/24 A2992 RMK AO2
     SLP133 T02500244=
KIBM 080950Z AUTO 00000KT 7SM BKN065 12/11 A3032 RMK AO2
     T01220114=
KICR 080953Z AUTO 26003KT 10SM CLR 17/12 A3020 RMK AO2 SLP217
     T01720122 TSNO=
KICT 080953Z 33009KT 10SM SCT080 OVC200 22/20 A3009 RMK AO2 SLP175
     T02170200 $=
KIDA 080953Z AUTO 36005KT 10SM CLR 08/06 A3019 RMK AO2 SLP193
     T00780056=
KILM 080953Z 35003KT 10SM CLR 24/19 A2991 RMK AO2 SLP127 P0001
     T02440194=
KIML 080953Z AUTO 32005KT 10SM BKN060 16/14 A3026 RMK AO2 SLP231
     T01610144=
KIPL 080953Z AUTO 16007KT 10SM CLR 26/16 A2968 RMK AO2 SLP052
     T02560161=
KITR 080953Z AUTO 00000KT 10SM BKN005 OVC032 16/15 A3030 RMK AO2
     SLP219 T01610150=
KIWI 080953Z AUTO VRB04KT 9SM OVC001 20/19 A3010 RMK AO2 SLP192
     T02000189=
KIXD 080953Z AUTO 01006KT 5SM BR OVC002 22/21 A3006 RMK AO2 SLP168
     T02220206=
KJBR 080953Z AUTO 20003KT 10SM CLR 24/23 A3005 RMK AO2 SLP172
     T02440228 $=
KJCT 080951Z AUTO 00000KT 8SM BKN036 23/21 A3001 RMK AO2 SLP123
     T02280211 TSNO=
KJEF 080953Z AUTO 35004KT 10SM BKN004 OVC065 24/23 A3003 RMK AO2
     RAE06 SLP156 P0000 T02390228=
KJER 080953Z AUTO 04012KT 10SM CLR 16/M03 A3011 RMK AO2 SLP161
     T01561033=
KDEN 080953Z 21006KT 5SM BR FEW018 BKN025 14/13 A3032 RMK AO2
     SLP214 T01440133 $=
KDET 080953Z 00000KT 8SM CLR 25/21 A3003 RMK AO2 SLP163 T02500211
     $=
KDEW 080953Z AUTO 00000KT 10SM CLR 14/07 A3007 RMK AO2 SLP171
     T01390072=
KDFI 080953Z AUTO 00000KT 6SM BR CLR 21/19 A3005 RMK AO2 SLP171
     T02110189=
KDGW 080953Z AUTO 00000KT 3SM BR CLR 05/04 A3033 RMK AO2 SLP246
     T00500044 $=
KDHT 080953Z AUTO 35010KT 10SM -RA OVC075 17/15 A3025 RMK AO2
     RAE0857B39 SLP191 P0000 T01670150=
KDKK 080953Z AUTO 00000KT 7SM SCT090 19/18 A3006 RMK AO2 SLP174
     T01940178=
KDLN 080953Z AUTO 18003KT 10SM CLR 06/03 A3028 RMK AO2 SLP221
     T00560028=
KDLS 080953Z AUTO 12003KT 10SM CLR 17/06 A2995 RMK AO2 SLP139
     T01670061=
KDMN 080953Z AUTO 05008KT 10SM SCT120 21/13 A3013 RMK AO2 RAE03
     SLP116 P0000 T02110133=
KDMO 080953Z AUTO 00000KT 10SM SCT090 BKN110 23/22 A3004 RMK AO2
     RAB26E35 SLP163 P0000 T02330217=
KDNL 080953Z AUTO 28006KT 10SM CLR 27/18 A3001 RMK AO2 SLP154
     T02670178=
KDRO 080953Z AUTO 00000KT 10SM CLR 13/06 A3030 RMK AO2 SLP167
     T01330056=
KDRT 080953Z AUTO 01003KT 10SM FEW021 24/22 A2994 RMK AO2 SLP119
     T02440222=
KDTW 080953Z 25004KT 5SM HZ FEW040 SCT150 23/21 A3003 RMK AO2
     SLP165 T02330206=
KDVO 080950Z AUTO 11003KT 10SM BKN012 12/11 A2993 RMK AO2=
KDVT 080953Z 00000KT 10SM CLR 27/00 A2978 RMK AO2 SLP055
     T02670000=
KDWH 080953Z 06006KT 7SM CLR 24/24 A2993 RMK AO2 SLP132
     T02440239=
KDXR 080953Z AUTO 15004KT 2 1/2SM BR BKN007 23/22 A3007 RMK AO2
     SLP176 T02280217=
KEEO 080953Z AUTO 10SM CLR 12/06 A3027 RMK AO2 SLP165 T01170056
     PNO $=
KEET 080953Z AUTO 00000KT 6SM BR CLR 24/22 A3004 RMK AO2 SLP164
     T02390217=
KELM 080953Z 00000KT 2SM BR CLR 18/17 A3009 RMK AO2 SLP181
     T01780172=
####018000124####
SAUS41 KLWX 080956
MTRNAK
METAR KNAK 080954Z AUTO 00000KT 3SM HZ 26/22 A3000 RMK AO2 SLP159 
T02560222 PWINO TSNO $
####018000159####
SADL33 KWBC 080945 RRB
METAR
EDNY 080950Z 20004KT CAVOK 24/14 Q1022=
EDVK 080950Z 19010KT CAVOK 25/10 Q1022=
EDXW 080950Z 21012KT CAVOK 23/12 Q1018=
####018000709####
SADL31 KWBC 080950
METAR
EDBB NIL=
EDBT NIL=
EDCK NIL=
EDDF 080950Z 21002KT CAVOK 28/10 Q1021 NOSIG=
EDDH 080950Z 15007KT CAVOK 27/12 Q1019 NOSIG=
EDDK 080950Z 21005KT 180V240 CAVOK 29/10 Q1020 NOSIG=
EDDL 080950Z 18005KT CAVOK 28/09 Q1019 NOSIG=
EDDM 080950Z 07007KT CAVOK 22/07 Q1023 NOSIG=
EDDN 080950Z 13008KT CAVOK 25/08 Q1022 NOSIG=
EDDS 080950Z VRB03KT CAVOK 25/08 Q1022 NOSIG=
EDDW 080950Z 23006KT CAVOK 29/08 Q1019 NOSIG=
EDFE 080950Z 00000KT CAVOK 27/10 Q1020=
EDFM 080950Z 14007KT 090V210 CAVOK 29/09 Q1020=
EDHI 080950Z 19007KT 150V250 CAVOK 27/10 Q1019=
EDHL 080950Z 15009KT 120V190 CAVOK 27/14 Q1020=
EDKB NIL=
EDKS NIL=
EDLE NIL=
EDLG NIL=
EDLI NIL=
####018000091####
SALI20 GLRB 081000
METAR GLRB 081000Z 00000KT 9999 SCT016 FEW025CB 28/25 Q1015 CB-S/SW=
####018000117####
SAMH31 PKMR 081000
METAR PKMR 080953Z 08010KT 15SM FEW015 SCT045 BKN120 OVC300 27/24
A2982 RMK SLP100 T02710240
####018000529####
SAUS80 KWBC 081000 CCA
METAR
KVCT 080951Z AUTO 07009KT 3SM +RA BR SCT015 BKN026 OVC095 25/24
     A2988 RMK AO2 RAB0853E21B47 SLP116 P0017 T02500244=
KGDP 080951Z AUTO 06014G21KT 1/4SM FG VV005 17/17 A3023 RMK AO2
     RAB0853E36 SLP161 P0000 T01670167 TSNO=
KBNO 080953Z AUTO 24008KT 10SM CLR 09/01 A3011 RMK AO2 SLP166
     T00890011 TSNO=
KCQC 080953Z AUTO 05007KT 10SM CLR 12/09 A3035 RMK AO2 SLP219
     T01170089 TSNO=
K6R6 080953Z AUTO 01004KT 22/21 A3000 RMK AO2 SLP123 T02220206
     PWINO TSNO=
####018000627####
SAIY32 LIIB 080950
METAR LIBD 080950Z 36014KT CAVOK 25/12 Q1020=
METAR LIBR 080945Z /////KT 9999 FEW020 25/16 Q1017 NOSIG=
METAR LICC 080950Z 08098KT CAVOK 29/20 Q1018=
METAR LICJ 080950Z NIL=
METAR LIPB 080950Z 16007KT 9999 FEW060 27/12 Q1021=
METAR LIPE 080950Z 11007KT 060V150 CAVOK 28/15 Q1021=
METAR LIPH 080945Z 10001KT 9999 FEW020 SCT080 26/19 Q1023=
METAR LIPK 080950Z 11006KT CAVOK 27/11 Q1021=
METAR LIPQ 080950Z VRB02KT 9999 SCT050 25/13 Q1022=
METAR LIPR 080945Z 08009KT CAVOK 28/17 Q1021=
METAR LIPX 080945Z 12004KT 9999 FEW040 28/12 Q1021=
METAR LIPZ 080950Z 13008KT 9999 FEW050 SCT070 26/17 Q1022=
####018000028####
SAGR31 KWBC 080950
NIL=
####018001526####
SAEN31 KWBC 080950
METAR
EETN 080950Z 31009KT CAVOK 23/18 Q1014 NOSIG=
EFHF 080950Z 31007KT 270V360 9999 FEW039 BKN047 27/18 Q1014=
EFHK 080950Z 36006KT 330V040 9999 SCT035 SCT200 29/18 Q1014
     NOSIG=
EFIV NIL=
EFJY 080950Z 33003KT 9999 BKN019 BKN080 21/16 Q1016=
EFKE NIL=
EFKK 080950Z 11005KT 060V210 CAVOK 23/12 Q1015=
EFKU 080950Z AUTO VRB03KT CAVOK 23/17 Q1015=
EFMA 080950Z 18009KT CAVOK 22/13 Q1016=
EFOU 080950Z 18005KT 110V250 9999 FEW025 SCT200 21/13 Q1016=
EFPN NIL=
EFPO 080950Z 24005KT 180V300 CAVOK 24/10 Q1016=
EFRO 080950Z AUTO VRB03KT 9999NDV FEW034 20/10 Q1016=
EFTN NIL=
EFTP 080950Z VRB05KT 9999 FEW040 24/14 Q1015=
EFTU 080950Z AUTO VRB04KT CAVOK 26/07 Q1015=
EFVA 080950Z 16004KT 090V250 9999 FEW030 BKN200 23/12 Q1015=
ENBO 080950Z 01007KT 9999 FEW035 SCT070 17/09 Q1009 NOSIG=
ENBR 080950Z 19013KT 9999 FEW015 FEW025TCU SCT075 18/11 Q1012
     NOSIG=
ENCN 080950Z 20007KT 5000 BR VV003 16/16 Q1015=
ENEB NIL=
ENFB NIL=
ENGM NIL=
ENHD 080950Z 20011KT 9999 FEW020 16/12 Q1014=
ENKR 080950Z 17006KT 9999 BKN012 13/09 Q1018=
ENSB 080950Z 27010KT 9999 FEW010 SCT035 BKN060 08/06 1008
     NOSIG=
ENTC 080950Z 29004KT 9999 FEW065 17/07 Q1011 NOSIG=
ENVA 080950Z 22006KT 170V250 9999 FEW055TCU SCT100 23/10 Q1009
     NOSIG=
ENZV 080950Z 21009KT 9999 FEW025 SCT120 18/12 Q1014 NOSIG=
EVRA 080950Z 31010KT 270V330 9999 SCT010 OVC017 19/16 Q1015
     NOSIG=
EYVI 080950Z 28009KT 230V310 7000 BKN010 OVC023 16/15 Q1014
     NOSIG=
####018000371####
SABX31 EBBR 080950
METAR EBAW 080950Z 23007KT 170V290 CAVOK 27/12 Q1019 NOSIG=
METAR EBBR 080950Z 22006KT 190V260 CAVOK 28/11 Q1020 NOSIG=
METAR EBCI 080950Z VRB04KT CAVOK 28/11 Q1020 NOSIG=
METAR EBLG 080950Z 26005KT 200V300 CAVOK 28/08 Q1020 NOSIG=
METAR EBOS 080950Z 29008KT 260V320 CAVOK 20/16 Q1020 NOSIG=
METAR ELLX 080950Z VRB02KT CAVOK 27/09 Q1021 NOSIG=
####018000428####
SANO37 ENMI 080950
METAR ENNO 080950Z 13007KT 080V200 9999 FEW015 SCT025 BKN120 18/14
           Q1014=
METAR ENOV 080950Z VRB05KT 9999 SCT055 SCT085 19/06 Q1009 =
METAR ENSD 080950Z NIL=
METAR ENSG 080950Z 24009KT 210V280 9999 SCT040 16/09 Q1012=
METAR ENSN 080950Z 18007KT 9999 SCT015 BKN070 16/14 Q1015=
METAR ENSR 080950Z 12011KT 9999 FEW040 SCT080 20/09 Q1011=
METAR ENSS 080950Z 06002KT 999 BKN014 09/08 Q1018 =
####018000028####
SAIY41 KWBC 080950
NIL=
####018000028####
SAIY31 KWBC 080950
NIL=
####018000028####
SAIY43 KWBC 080950
NIL=
####018000130####
SAUS70 KWBC 081000 CCA
METAR
KRTN 080953Z AUTO 05005KT 10SM SCT075 OVC100 14/11 A3035 RMK AO2
     SLP208 T01390111 TSNO=
####018000710####
SAIY31 LIIB 080950
METAR LIEA 080950Z 02004KT 320V100 CAVOK 30/21 Q1019=
METAR LIEE 080950Z NIL=
METAR LIEO 080950Z 05009KT 020V080 9999 FEW030 31/18 Q1020=
METAR LIMC 080950Z NIL=
METAR LIME 080950Z 16007KT 110V190 9999 FEW055 26/14 Q1023=
METAR LIMF 080950Z VRB02KT 9999 FEW030 BKN045 23/15 Q1022=
METAR LIMJ 080950Z 15005KT 9999 FEW035 29/25 Q1020=
METAR LIML 080950Z 13007KT 9999 FEW030 SCT080 26/16 Q1022 NOSIG=
METAR LIRA 080945Z 21007KT 150V290 9999 SCT018 29/19 Q1019=
METAR LIRF 080950Z 21010KT 180V250 9999 FEW020 29/17 Q1020 NOSIG=
METAR LIRN 080950Z 04010KT CAVOK 27/14 Q1019=
METAR LIRP 080945Z 10008KT 060V130 CAVOK 29/15 Q1020 NOSIG=
METAR LIRQ 080950Z VRB02KT CAVOK 30/12 Q1020=
####018003716####
SAUS70 KWBC 081000 RRG
METAR
KPTK 080953Z 00000KT 8SM SCT250 24/22 A3004 RMK AO2 SLP162
     T02390217=
KPTT 080950Z AUTO 01007KT 7SM OVC006 20/19 A3014 RMK AO2=
KPUB 080953Z AUTO 27004KT 10SM BKN055 OVC100 15/14 A3033 RMK AO2
     RAB0858E49 SLP220 P0001 T01500139=
KPUC 080953Z AUTO 33004KT 10SM CLR 15/02 A3022 RMK AO2 SLP149
     T01500017 TSNO=
KPUW 080953Z AUTO 00000KT 10SM CLR 10/07 A3008 RMK AO2 SLP174
     T01000067=
KRAC 080953Z AUTO 18005KT 4SM -RA BR FEW055 SCT090 23/22 A3002 RMK
     AO2 SLP160 P0002 T02280217=
KRAL 080953Z AUTO 00000KT 5SM BR BKN011 14/12 A2991 RMK AO2 SLP113
     T01440122=
KRBG 080953Z AUTO 00000KT 10SM CLR 18/12 A2992 RMK AO2 SLP126
     T01830122=
KRDD 080953Z AUTO 36003KT 10SM CLR 23/15 A2982 RMK AO2 SLP092
     T02330150=
KRHI 080953Z AUTO 00000KT 3/4SM BR VV001 17/17 A3003 RMK AO2
     SLP164 T01720167=
KRKP 080953Z AUTO 12014G21KT 7SM -RA SCT011 BKN020 OVC055 26/25
     A2983 RMK AO2 RAB0859E09B30 SLP103 P0002 T02610250=
KRNT 080953Z AUTO 00000KT 10SM CLR 17/14 A2994 RMK AO2 SLP143
     T01720139=
KRSL 080953Z AUTO 36006KT 10SM SCT013 OVC027 19/18 A3016 RMK AO2
     SLP199 T01890178=
KRSW 080953Z 03004KT 10SM CLR 24/22 A2995 RMK AO2 SLP139
     T02390222=
KRUE 080953Z AUTO 00000KT 10SM BKN019 24/23 A3005 RMK AO2 SLP168
     T02390228=
KRVS 080953Z 12004KT 1 1/4SM +TSRA BR BKN010 OVC026 23/23 A3003
     RMK AO2 LTG DSNT NE AND SE TSB0859 SLP170 P0064 T02280228=
KRWF 080953Z AUTO 29006KT 10SM CLR 16/14 A3011 RMK AO2 SLP194
     T01560144=
KRWI 080953Z AUTO 01003KT 5SM HZ CLR 23/20 A2995 RMK AO2 SLP142
     T02280200=
KRWL 080953Z AUTO 07007KT 6SM BR BKN001 08/07 A3037 RMK AO2 SLP220
     T00780072=
KRXE 080953Z AUTO 06003KT 10SM CLR 09/05 A3020 RMK AO2 SLP198
     T00890050=
KSAC 080953Z 16003KT 10SM CLR 14/10 A2985 RMK AO2 SLP107
     T01390100=
KSAF 080953Z AUTO 00000KT 10SM FEW100 14/11 A3031 RMK AO2 SLP177
     T01440106=
KSBA 080953Z 00000KT 9SM OVC015 14/12 A2990 RMK AO2 SLP124
     T01440122 $=
KSBM 080953Z AUTO 19007KT 10SM -RA FEW060 SCT080 BKN110 22/21
     A3000 RMK AO2 RAB20 SLP153 P0000 T02220211=
KOVS 080953Z AUTO 00000KT 5SM BR OVC004 22/21 A3002 RMK AO2 CIG
     002V009 SLP161 T02170206=
KOWD 080953Z AUTO 16003KT 10SM OVC016 22/19 A3008 RMK AO2 SLP185
     T02170189=
KOXB 080953Z AUTO 08004KT 8SM SCT100 BKN110 24/24 A3000 RMK AO2
     RAE0857B31E45 SLP159 P0000 T02390239 $=
KPAE 080953Z AUTO 03003KT 10SM CLR 19/12 A2997 RMK AO2 SLP146
     T01890122=
KPAH 080953Z AUTO 00000KT 10SM CLR 23/22 A3004 RMK AO2 SLP168
     T02330217=
KPBF 080953Z AUTO 00000KT 7SM CLR 24/22 A3005 RMK AO2 SLP174
     T02390222=
KPBG 080953Z AUTO 00000KT 5SM BR CLR 22/21 A3000 RMK AO2 SLP157
     T02220206=
KPBI 080953Z 04007KT 10SM SCT023TCU BKN040 BKN250 27/24 A2993 RMK
     AO2 SLP134 TCU OHD AND NE CB DSNT SE T02720239=
KPDK 080953Z AUTO 00000KT 10SM CLR 22/19 A3004 RMK AO2 SLP150
     T02220189=
KPDT 080953Z AUTO 11005KT 10SM CLR 17/07 A2997 RMK AO2 SLP131
     T01670072=
KPEO 080953Z AUTO 23004KT 3SM BR CLR 22/21 A3008 RMK AO2 SLP178
     T02170206=
KPGD 080953Z AUTO 02005KT 10SM CLR 23/22 A2998 RMK AO2 SLP153
     T02280217 TSNO=
KPHD 080953Z AUTO 00000KT 1 1/2SM BR CLR 19/17 A3010 RMK AO2
     SLP184 T01890172=
KPIE 080953Z 00000KT 10SM CLR 23/21 A2998 RMK AO2 SLP151
     T02330211=
KPIH 080953Z AUTO 29004KT 10SM CLR 09/02 A3016 RMK AO2 SLP175
     T00940017=
KPIL 080953Z AUTO 08006KT 4SM -RA SCT016 BKN026 BKN036 28/25 A2977
     RMK AO2 RAB0856E07B44 SLP080 P0003 T02780250 $=
KPIR 080953Z AUTO 25006KT 10SM CLR 14/13 A3016 RMK AO2 SLP205
     T01440128=
####018003739####
SAUS70 KWBC 081000 RRE
METAR
KBEH 080953Z AUTO 00000KT 2 1/2SM BR CLR 22/22 A3003 RMK AO2
     SLP164 T02220217 $=
KBFD 080953Z AUTO 00000KT 4SM BR CLR 16/15 A3015 RMK AO2 SLP192
     T01610150=
KBFI 080953Z 00000KT 10SM CLR 20/12 A2994 RMK AO2 SLP139
     T02000117=
KBFM 080953Z 00000KT 9SM CLR 24/23 A3003 RMK AO2 SLP169 P0001
     T02390228=
KBGM 080953Z 31004KT 4SM HZ CLR 22/18 A3012 RMK AO2 SLP184
     T02170183=
KBGR 080953Z 19006KT 1 1/2SM BR OVC003 20/19 A3007 RMK AO2 SLP179
     T02000194=
KBHK 080953Z AUTO 23007KT 10SM CLR 13/08 A3020 RMK AO2 SLP212
     T01330083=
KBHM 080953Z 33003KT 9SM CLR 24/22 A3007 RMK AO2 SLP171
     T02440217=
KBIV 080953Z AUTO 00000KT 7SM CLR 24/22 A3004 RMK AO2 SLP167
     T02390217=
KBKE 080953Z AUTO 17003KT 10SM CLR 06/05 A3011 RMK AO2 SLP180
     T00610050=
KBKL 080953Z 15005KT 6SM HZ CLR 24/19 A3004 RMK AO2 SLP168
     T02440189=
KBLI 080953Z AUTO 00000KT 10SM CLR 16/13 A2996 RMK AO2 SLP151
     T01560133=
KBMG 080953Z AUTO 00000KT 5SM BR FEW090 22/21 A3005 RMK AO2 SLP167
     T02170211=
KBMQ 080953Z AUTO 07003KT 10SM BKN011 23/22 A3001 RMK AO2 SLP141
     T02330217 $=
KBNA 080953Z 00000KT 10SM FEW080 24/22 A3007 RMK AO2 SLP174
     T02440217=
KBOI 080953Z 13007KT 10SM CLR 18/07 A3005 RMK AO2 SLP146
     T01830067=
KBPI 080953Z AUTO 31004KT 10SM BKN100 07/01 A3039 RMK AO2 SLP215
     T00670011=
KBPK 080953Z AUTO 00000KT 9SM FEW085 23/22 A3005 RMK AO2 SLP164
     T02280217=
KBPT 080953Z 08010KT 10SM FEW014 26/24 A2994 RMK AO2 RAB01E10
     SLP136 P0000 T02610244 $=
KBRD 080953Z AUTO 21005KT 10SM CLR 14/12 A3008 RMK AO2 SLP183
     T01390117=
KBRL 080953Z AUTO 10SM CLR 22/21 A3003 RMK AO2 SLP164 T02220211
     $=
KBRO 080953Z 32004KT 10SM -RA SCT021 SCT027 BKN040 26/25 A2977 RMK
     AO2 RAB50 SLP078 P0000 T02610250=
KBTL 080953Z 00000KT 8SM SCT060 22/20 A3006 RMK AO2 SLP170
     T02170200=
KBTM 080953Z AUTO 15005KT 10SM CLR 06/01 A3031 RMK AO2 SLP233
     T00560011=
KBUR 080953Z VRB03KT 8SM OVC009 16/13 A2990 RMK AO2 SLP114
     T01560133=
KBVN 080950Z AUTO 33003KT 10SM OVC090 16/15 A3019 RMK AO2
     T01620150=
KBVO 080953Z AUTO 00000KT 10SM SCT100 22/21 A3004 RMK AO2 SLP159
     T02220211=
KBVY 080953Z 15006KT 9SM CLR 22/19 A3007 RMK AO2 SLP178 T02170194
     PNO=
KBWG 080953Z AUTO 00000KT 8SM SCT085 23/21 A3007 RMK AO2 SLP176
     T02280211=
KBYG 080953Z AUTO 24005KT 10SM CLR 11/04 A3029 RMK AO2 SLP224
     T01110039=
KBYI 080953Z AUTO 00000KT 10SM CLR 10/03 A3012 RMK AO2 SLP164
     T01000033=
KCAG 080953Z AUTO 05008KT 10SM CLR 12/07 A3029 RMK AO2 SLP190
     T01220067=
KCCR 080953Z AUTO 25006KT 10SM BKN013 13/10 A2990 RMK AO2 SLP112
     T01280100=
KCDC 080953Z AUTO 02006KT 10SM FEW110 14/02 A3014 RMK AO2 SLP128
     T01440022 $=
KCDW 080953Z AUTO 00000KT 4SM BR SCT100 23/21 A3004 RMK AO2 SLP174
     T02330211 TSNO=
KCEZ 080953Z AUTO 06004KT 10SM CLR 17/06 A3022 RMK AO2 SLP144
     T01720061=
KCGI 080953Z AUTO 00000KT 10SM BKN046 24/23 A3004 RMK AO2 SLP169
     T02390228 TSNO=
KCHO 080953Z 00000KT 4SM HZ CLR 22/19 A3001 RMK AO2 SLP154
     T02220194=
KCKB 080953Z AUTO 00000KT 3SM BR CLR 19/18 A3010 RMK AO2 SLP176
     T01890183=
KCLM 080953Z AUTO A2997 RMK AO2 SLPNO PWINO FZRANO $=
KCMI 080953Z AUTO 17003KT 5SM BR FEW100 22/21 A3004 RMK AO2 SLP164
     T02220211=
KCMX 080953Z AUTO 32007KT 10SM FEW060 SCT090 BKN110 18/18 A2998
     RMK AO2 SLP148 T01830178=
KCNM 080953Z AUTO 36008KT 5SM VCTS RA BR OVC007 20/19 A3013 RMK
     AO2 LTG DSNT NE AND S TSB37 SLP149 P0020 T02000189=
KCNO 080953Z 25003KT 5SM BR OVC013 15/13 A2991 RMK AO2 SLP124
     T01500128=
####018000375####
SANO36 ENMI 080950
METAR ENBS 080950Z 04006KT 9999 FEW002 SCT025 11/09 Q1017=
METAR ENHK 080950Z NIL=
METAR ENHV 080950Z VRB01KT CAVOK 11/08 Q1014 =
METAR ENLK 080950Z 19007KT CAVOK 18/10 Q1011=
METAR ENMH 080950Z 16007KT 9999 FEW015 15/09 Q1016=
METAR ENNK 080950Z 06005KT 9999 -SHRA FEW040 BKN060 17/10 Q1011=
METAR ENNM 080950Z 24004KT 210V280 CAVOK 18/13 Q1009=
####018003685####
SAUS70 KWBC 081000 RRC
METAR
KDLN 080953Z AUTO 18003KT 10SM CLR 06/03 A3028 RMK AO2 SLP221
     T00560028=
KDLS 080953Z AUTO 12003KT 10SM CLR 17/06 A2995 RMK AO2 SLP139
     T01670061=
KDMO 080953Z AUTO 00000KT 10SM SCT090 BKN110 23/22 A3004 RMK AO2
     RAB26E35 SLP163 P0000 T02330217=
KDNL 080953Z AUTO 28006KT 10SM CLR 27/18 A3001 RMK AO2 SLP154
     T02670178=
KDRO 080953Z AUTO 00000KT 10SM CLR 13/06 A3030 RMK AO2 SLP167
     T01330056=
KDTW 080953Z 25004KT 5SM HZ FEW040 SCT150 23/21 A3003 RMK AO2
     SLP165 T02330206=
KDVO 080950Z AUTO 11003KT 10SM BKN012 12/11 A2993 RMK AO2=
KDVT 080953Z 00000KT 10SM CLR 27/00 A2978 RMK AO2 SLP055
     T02670000=
KDWH 080953Z 06006KT 7SM CLR 24/24 A2993 RMK AO2 SLP132
     T02440239=
KDXR 080953Z AUTO 15004KT 2 1/2SM BR BKN007 23/22 A3007 RMK AO2
     SLP176 T02280217=
KEEO 080953Z AUTO 10SM CLR 12/06 A3027 RMK AO2 SLP165 T01170056
     PNO $=
KEET 080953Z AUTO 00000KT 6SM BR CLR 24/22 A3004 RMK AO2 SLP164
     T02390217=
KELM 080953Z 00000KT 2SM BR CLR 18/17 A3009 RMK AO2 SLP181
     T01780172=
KELN 080953Z AUTO 13003KT 10SM CLR 16/06 A3004 RMK AO2 SLPNO
     T01610061 $=
KENW 080953Z AUTO 17005KT 7SM SCT110 23/22 A3001 RMK AO2 RAE26
     SLP157 P0000 T02280217 $=
KEPH 080953Z AUTO 32010KT 10SM CLR 22/04 A3000 RMK AO2 SLP147
     T02220044=
KEQY 080953Z AUTO 34003KT 10SM CLR 24/18 A2999 RMK AO2 SLP150
     T02390178=
KESF 080953Z AUTO 00000KT 6SM BR FEW015 23/22 A3002 RMK AO2 SLP163
     T02280217=
KEVW 080953Z AUTO 08009KT 10SM CLR 11/02 A3032 RMK AO2 SLP181
     T01110022 TSNO=
KEWB 080953Z AUTO 14005KT 4SM BR OVC002 22/21 A3007 RMK AO2 SLP182
     T02220211=
KEYE 080953Z AUTO 00000KT 8SM CLR 24/21 A3005 RMK AO2 SLP167
     T02440206=
KEYW 080953Z AUTO 08006KT 10SM FEW020 28/24 A2992 RMK AO2
     RAB0854E04 SLP132 P0000 T02780244=
KGIF 080953Z AUTO 02003KT 10SM CLR 23/21 A3000 RMK AO2 SLP155
     T02280211 TSNO=
KGJT 080953Z AUTO 10010KT 10SM CLR 19/06 A3017 RMK AO2 SLP140
     T01940061=
KGKJ 080953Z AUTO 00000KT 7SM CLR 20/17 A3011 RMK AO2 SLP182
     T02000172=
KGLD 080953Z AUTO 04003KT 10SM OVC039 17/16 A3028 RMK AO2 SLP218
     T01720161=
KGLH 080953Z AUTO 00000KT 7SM CLR 22/22 A3004 RMK AO2 SLP177
     T02170217=
KGLR 080953Z AUTO 22007KT 10SM BKN110 22/19 A3001 RMK AO2 SLP152
     T02220194=
KGMU 080953Z AUTO 00000KT 10SM CLR 24/19 A3004 RMK AO2 SLP158
     T02440189=
KGPT 080953Z AUTO 00000KT 6SM BR CLR 26/24 A3001 RMK AO2 SLP160
     T02560239=
KGRB 080953Z AUTO 25005KT 9SM BKN008 BKN012 21/20 A2999 RMK AO2
     CIG 006V011 SLP153 T02110200=
KGRI 080953Z AUTO 30004KT 10SM CLR 15/13 A3020 RMK AO2 SLP217
     T01500133=
KGSH 080953Z AUTO 00000KT 6SM BR CLR 22/19 A3005 RMK AO2 SLP168
     T02170194=
KGSP 080953Z AUTO 00000KT 10SM CLR 23/19 A3002 RMK AO2 SLP150
     T02280189=
KGTF 080953Z 23008KT 10SM CLR 07/05 A3022 RMK AO2 SLP223 T00720050
     $=
KGUP 080953Z AUTO 00000KT 10SM CLR 18/06 A3025 RMK AO2 SLP046
     T01830061=
KGUY 080953Z AUTO 21004KT 2 1/2SM RA BR FEW007 BKN030 OVC048 18/18
     A3022 RMK AO2 TSB16E31 SLP192 P0026 T01830178=
KGVL 080953Z AUTO 35003KT 10SM CLR 23/20 A3007 RMK AO2 SLP164
     T02280200=
KGWO 080953Z AUTO 05003KT 10SM CLR 23/22 A3005 RMK AO2 SLP173
     T02280222=
KHAO 080953Z AUTO 00000KT 2SM BR CLR 21/19 A3008 RMK AO2 SLP181
     T02060194=
KHBG 080953Z AUTO 00000KT 7SM CLR 23/23 A3003 RMK AO2 SLP167
     T02330228=
KHDE 080950Z AUTO 00000KT 10SM SCT050 15/14 A3023 RMK AO2
     T01530140=
KHEI 080953Z AUTO 00000KT 10SM CLR 10/08 A3018 RMK AO2 SLP213
     T01000078=
####018000115####
SAAS31 KWBC 080930 RRD
METAR
VOTV 080940Z 32007KT 5000 HZ FEW015 FEW025 TCU BKN200 27/24 Q1008
     NOSIG=
####018003704####
SAUS70 KWBC 081000
METAR
KMKE 080952Z 17005KT 8SM -RA FEW065 BKN085 BKN110 23/21 A2999 RMK
     AO2 SLP150 P0002 T02280211=
KMKO 080953Z AUTO 16006KT 10SM VCTS FEW021 OVC028 23/23 A3003 RMK
     AO2 TSB40 SLP160 T02330228=
KMLC 080953Z AUTO 18003KT 10SM CLR 24/23 A3003 RMK AO2 SLP159
     T02390228=
KMLI 080952Z 00000KT 8SM OVC009 23/22 A3002 RMK AO2 SLP161
     T02280217 $=
KMWH 080952Z AUTO 36007KT 10SM CLR 15/07 A3001 RMK AO2 SLP154
     T01500072=
KOAJ 080955Z AUTO 35003KT 10SM CLR 22/20 A2993 RMK AO1=
KOCF 080955Z AUTO 00000KT 7SM CLR 20/20 A3001 RMK AO1=
KODO 080953Z AUTO VRB05KT 10SM SCT100 21/20 A3009 RMK AO2 SLP144
     T02110200=
KOJA 080950Z AUTO 34003KT 10SM SCT090 22/21 A3008 RMK AO2=
KOKB 080952Z AUTO 00000KT 9SM OVC014 18/14 A2989 RMK AO2 SLP121
     T01780139=
KOKC 080952Z 34005KT 10SM FEW055 SCT130 BKN200 23/22 A3005 RMK AO2
     SLP160 T02330222=
KOMA 080952Z 35005KT 10SM FEW022 SCT130 19/18 A3013 RMK AO2 SLP196
     T01940183=
KONP 080950Z AUTO 20006KT 10SM OVC004 11/10 A3000 RMK AO1=
KORE 080952Z AUTO 00000KT 5SM BR FEW010 OVC080 23/22 A3007 RMK AO2
     SLP177 T02280217=
KORS 080950Z AUTO 00000KT 10SM CLR 15/12 A2995 RMK AO2=
KPLU 080950Z AUTO 00000KT 10SM FEW036 FEW055 13/13 A2994 RMK
     AO2=
KPPF 080952Z AUTO 00000KT 10SM CLR 22/21 A3004 RMK AO2 SLP161
     T02220206=
KPWA 080953Z 36005KT 7SM CLR 23/21 A3005 RMK AO2 SLP161
     T02280211=
KPWK 080952Z AUTO 17004KT 7SM FEW065 23/22 A3003 RMK AO2 SLP164
     T02280217=
KPYM 080952Z AUTO 00000KT 8SM OVC006 23/21 A3009 RMK AO2 SLP188
     T02280206=
KRAP 080952Z AUTO 29005KT 10SM CLR 11/08 A3025 RMK AO2 SLP231
     T01110083=
KRBD 080953Z 11005KT 10SM SCT008 BKN012 25/23 A3000 RMK AO2 SLP149
     T02500233=
KSGF 080952Z 17005KT 9SM CLR 23/23 A3004 RMK AO2 LTG DSNT N AND W
     SLP156 T02330228=
KSNL 080952Z AUTO 35004KT 7SM OVC006 24/24 A3004 RMK AO2 LTG DSNT
     NE=
KSOP 080955Z AUTO 00000KT 10SM CLR 24/17 A2997 RMK AO1=
KSPI 080952Z AUTO 00000KT 7SM CLR 23/23 A3003 RMK AO2 SLP164
     T02330228=
KSRE 080950Z AUTO 24004KT 3SM -RA 24/24 A3002 RMK AO2 LTG DSNT
     NE=
KSUX 080952Z 31003KT 10SM CLR 17/15 A3015 RMK AO2 SLP205
     T01670150=
KSVC 080950Z AUTO 08011KT 10SM FEW100 18/14 A3021 RMK AO2=
KTAN 080952Z AUTO 16004KT 4SM BR OVC002 21/21 A3007 RMK AO2 SLP181
     T02110211=
KTKI 080953Z AUTO 17004KT 10SM CLR 26/23 A3001 RMK AO2 PK WND
     21076/0941 SLP156 T02560233=
KTMK 080953Z AUTO 15004KT 7SM OVC006 12/12 A2996 RMK AO2=
KDCA 080952Z 06006KT 6SM HZ FEW050 27/22 A3000 RMK AO2 SLP158
     T02720217=
KDDC 080952Z AUTO 03007KT 5SM BR BKN007 18/17 A3017 RMK AO2 SLP192
     T01830172=
KDPA 080952Z 15003KT 5SM BR SCT022 SCT060 BKN075 23/22 A3002 RMK
     AO2 SLP160 T02280217=
KDUA 080957Z AUTO 14005KT 10SM -RA SCT085 25/24 A3003 RMK AO2=
KDVN 080952Z AUTO 21003KT 6SM BR OVC005 22/21 A3003 RMK AO2 CIG
     002V008 SLP163 T02220211=
KEST 080952Z AUTO 31007KT 10SM CLR 16/14 A3013 RMK AO2 SLP199
     P0001 T01610144=
KFDR 080953Z AUTO 00000KT 10SM 24/23 A3003 RMK AO2 SLP154
     T02390228=
KFDW 080955Z AUTO 26005KT 10SM CLR 25/17 A3000 RMK AO1=
KFET 080950Z AUTO 33004KT 10SM CLR 18/17 A3014 RMK AO2=
KFIT 080952Z AUTO 15007KT 4SM BR OVC008 23/21 A3008 RMK AO2 CIG
     007V011 SLP184 T02330211=
KFTW 080953Z 12005KT 10SM FEW013 25/23 A2999 RMK AO2 SLP147
     T02500233=
KGCD 080950Z AUTO 12011KT 10SM CLR 15/04 A3010 RMK AO2
     T01530040=
KGCM 080956Z AUTO 00000KT 4SM +RA SCT001 OVC012 23/23 A3005 RMK
     AO2 LTG DSNT SW P0006=
KGKY 080953Z AUTO 13004KT 10SM CLR 25/23 A3000 RMK AO2 SLP149
     T02500228=
####018000123####
SAUS44 KSHV 080955
MTRBKB
METAR KBKB 080954Z AUTO 00000KT 10SM FEW016 SCT021 24/23 A2999 RMK 
AO2 SLP179 T02440228
####018003673####
SAUS80 KWBC 081000
METAR
KABI 080952Z 02004KT 9SM CLR 22/21 A3005 RMK AO2 SLP148 T02170211
     $=
KCZZ 080952Z AUTO 00000KT 09/08 A2988 RMK AO2 SLP090 T00940083
     PWINO TSNO=
KPTS 080950Z AUTO 00000KT 10SM SCT026 BKN090 22/ A3003 RMK AO2
     T0220=
KSPS 080952Z 05004KT 10SM SCT150 BKN250 23/22 A3003 RMK AO2 SLP155
     T02280217=
KIZA 080949Z AUTO 00000KT 10SM OVC009 13/11 A2990 RMK AO2=
KLBB 080953Z 01010KT 10SM -RA FEW011 SCT075 OVC100 19/17 A3014 RMK
     AO2 RAB53 SLP160 -RA AT AP P0000 T01940172=
KMFD 080952Z AUTO 16003KT 7SM CLR 21/17 A3010 RMK AO2 SLP181
     T02060167=
KMHK 080952Z AUTO 00000KT 10SM BKN016 22/21 A3010 RMK AO2 SLP183
     T02170206=
KTOL 080952Z 00000KT 8SM CLR 21/18 A3004 RMK AO2 SLP168
     T02110183=
KVTN 080952Z AUTO 21004KT 10SM OVC120 16/14 A3023 RMK AO2 SLP225
     T01560144=
KBLU 080952Z AUTO 05004KT 10SM CLR 22/04 A3009 RMK AO2 SLP081
     T02170044 TSNO=
KSDB 080952Z AUTO 33008KT 10SM CLR 18/03 A3002 RMK AO2 SLP108
     T01830028 TSNO $=
K9V9 080952Z AUTO 28005KT 16/13 A3019 RMK AO2 SLP214 T01560133
     PWINO TSNO=
KSAN 080951Z 33004KT 10SM FEW010 OVC019 17/14 A2991 RMK AO2 SLP127
     T01670139=
KP69 080952Z AUTO 34003KT 12/11 A3011 RMK AO2 SLP176 T01220106
     PWINO TSNO $=
KSAV 080953Z 24003KT 10SM FEW024 21/19 A2999 RMK AO2 SLP154
     T02110194=
K6R6 080953Z AUTO 01004KT 22/21 A3000 RMK AO2 SLP123 T02220206
     PWINO TSNO=
KCQC 080953Z AUTO 05007KT 10SM CLR 12/09 A3035 RMK AO2 SLP219
     T01170089 TSNO=
KUIL 080953Z AUTO 00000KT 10SM CLR 14/11 A2994 RMK AO2 SLP136
     T01440111 TSNO=
KFAR 080953Z 22004KT 10SM CLR 14/11 A3007 RMK AO2 SLP181
     T01390111=
KTCS 080953Z AUTO 34003KT 10SM -RA OVC110 19/16 A3019 RMK AO2
     RAE07B44 SLP136 P0000 T01890156 TSNO=
KTLH 080953Z 00000KT 10SM CLR 22/21 A3001 RMK AO2 SLP161
     T02220206=
KGNT 080953Z AUTO 14015KT 17/08 A3030 RMK AO2 SLP163 T01670078
     PWINO TSNO=
KMWT 080953Z AUTO 00000KT 4SM BR BKN002 23/22 A3004 RMK AO2 SLP160
     T02280222 TSNO=
KHTL 080953Z AUTO 22005KT 10SM OVC100 23/21 A3003 RMK AO2 SLP163
     T02280206=
KJAN 080954Z 00000KT 6SM BR CLR 23/22 A3004 RMK AO2 SLP169
     T02280222 $=
KRNM 080953Z AUTO 26003KT 6SM BR OVC004 14/13 A2990 RMK AO2 SLP112
     T01440128 TSNO=
KP92 080953Z AUTO 00000KT 26/25 A2997 RMK AO2 SLP147 T02560250
     PWINO TSNO=
KMSN 080953Z VRB03KT 9SM BKN120 21/20 A3001 RMK AO2 SLP156
     T02110200=
KCTY 080953Z AUTO 00000KT 20/19 A3000 RMK AO2 SLP157 T02000194
     PWINO TSNO $=
KCHA 080953Z 00000KT 10SM CLR 23/19 A3006 RMK AO2 SLP168
     T02280189=
KLAX 080953Z 22005KT 10SM OVC012 16/12 A2991 RMK AO2 SLP125
     T01610122=
KNUI 080953Z AUTO 00000KT 3SM BR FEW011 24/23 A2998 RMK AO2 SLP153
     T02440233=
KOQT 080953Z AUTO 00000KT 7SM CLR 22/19 A3008 RMK AO2 SLP168
     T02170194 TSNO=
KLXV 080953Z AUTO 00000KT 10SM FEW013 BKN031 OVC100 07/06 A3055
     RMK AO2 SLP199 T00670061 TSNO=
KCUT 080953Z AUTO 00000KT 10SM CLR 07/06 A3035 RMK AO2 SLP241
     T00720061 TSNO=
KBTV 080954Z 00000KT 4SM BR CLR 23/21 A3001 RMK AO2 SLP161
     T02330211=
KFAT 080953Z 31008KT 10SM CLR 22/08 A2982 RMK AO2 SLP093
     T02170083=
KFMN 080953Z AUTO 06006KT 10SM CLR 19/06 A3020 RMK AO2 SLP156
     T01940056=
KFNB 080953Z AUTO 34006KT 10SM SCT017 OVC037 22/20 A3008 RMK AO2
     SLP177 T02170200=
KFNT 080953Z AUTO 21004KT 9SM CLR 23/21 A3003 RMK AO2 SLP163
     T02330206=
KGCC 080953Z AUTO 00000KT 10SM CLR 08/06 A3028 RMK AO2 SLP229
     T00830061=
KGEG 080953Z 06004KT 10SM CLR 18/08 A3007 RMK AO2 SLP164
     T01830083=
####018000110####
SAUS41 KPHI 080956
MTRACY
METAR KACY 080954Z 00000KT 5SM BR CLR 24/22 A3004 RMK AO2 SLP171 
T02390222
####018000515####
SAAT31 TAPA 080955
METAR TAPA 081000Z 06011KT 9999  FEW020 28/24 Q1015=0 TEMPO 0812/0912 SHRA BKN015=

TAF TRPG 081000Z 0812/0912 08013KT 9999 SCT022 PROB40 TEMPO 0812/0912 SHRA BKN015= 

TAF TKPN 081000Z 0812/0912 08013KT 9999 SCT022 PROB40 TEMPO 0812/0912 SHRA BKN015=

TAF TQPF 081000Z 0812/0912 09014KT 9999 SCT022 PROB30 TEMPO 0812/0912 SHRA=

TAF TUPJ 081000Z 0812/0912 09014KT 9999 SCT023 PROB30 TEMPO 0812/0912 SHRA=        0700/0724 5000 SHRA FEW013CB BKN015 BKN080 PROB30 TEMPO 0700/0708 TSRA SCT012CB==####018000856####
SAUS70 KWBC 081000 RRM
METAR
KBWI 080954Z 11004KT 5SM HZ FEW090 SCT150 26/22 A3000 RMK AO2
     SLP158 T02610222=
KCEU 080954Z AUTO 00000KT 10SM CLR 24/21 A3003 RMK AO2 SLP157
     T02440206=
KCGZ 080955Z AUTO 12003KT 10SM CLR 29/00 A2980 RMK AO1=
KCIU 080955Z AUTO 23005KT 10SM BKN120 19/18 A2995 RMK AO1=
KCOD 080955Z 15006KT 10SM CLR 12/03 A3032 RMK AO1=
KCOE 080955Z AUTO 07006KT 10SM CLR 15/08 A3009 RMK AO1=
KCVN 080955Z AUTO 05005KT 10SM BKN120 17/14 A3021 RMK AO1=
KCVO 080955Z AUTO 28009KT 10SM CLR 14/09 A2991 RMK AO1=
KCWI 080955Z 00000KT 3/4SM OVC003 A3003 RMK AO1=
KDDH 080954Z AUTO 00000KT 2SM BR CLR 19/18 A3006 RMK AO2 SLP172
     T01890183=
KDEC 080954Z AUTO 21003KT 8SM FEW100 24/22 A3004 RMK AO2 SLP163
     T02390217=
KDSV 080954Z AUTO 13006KT 5SM BR CLR 21/19 A3009 RMK AO2 SLP192
     T02110189=
####018003695####
SAUS70 KWBC 081000 RRI
METAR
KMIW 080953Z AUTO 33006KT 10SM CLR 19/18 A3006 RMK AO2 SLP172
     T01940183=
KMKL 080953Z AUTO 00000KT 10SM CLR 22/21 A3007 RMK AO2 SLP177
     T02220206=
KMLE 080950Z AUTO 35003KT 10SM CLR 20/17 A3013 RMK AO2
     T01980168=
KMLP 080953Z AUTO 12008G16KT 10SM CLR 13/02 A3027 RMK AO2 SLP154
     T01330017 TSNO=
KMLS 080953Z AUTO 16003KT 10SM CLR 12/10 A3019 RMK AO2 SLP211
     T01170100=
KMLT 080953Z AUTO 00000KT 4SM BR BKN007 21/19 A3006 RMK AO2 SLP181
     T02110189=
KMMH 080950Z AUTO 00000KT 10SM CLR 10/02 A3021 RMK AO1=
KMMK 080953Z AUTO 00000KT 1 3/4SM BR OVC008 24/22 A3005 RMK AO2
     SLP172 T02390222=
KMMV 080953Z AUTO 27004KT 10SM CLR 15/12 A2988 RMK AO2 SLP118
     T01500117=
KMNN 080953Z AUTO 00000KT 7SM CLR 19/18 A3008 RMK AO2 SLP181
     T01940178=
PHJR 080953Z 00000KT 10SM SCT050 23/18 A3005 RMK AO2 SLP183
     T02330183 403060217=
KABY 080953Z 00000KT 10SM CLR 21/19 A3003 RMK AO2 SLP166
     T02110194=
KAEG 080955Z AUTO 00000KT 10SM FEW120 15/08 A3028 RMK AO1=
KAKO 080953Z AUTO 14005KT 6SM BR FEW006 OVC029 14/14 A3031 RMK AO2
     SLP228 T01440139 TSNO=
KAMG 080953Z AUTO 00000KT 10SM CLR 21/19 A3000 RMK AO2 SLP156
     T02110194=
KAUS 080953Z 05005KT 9SM BKN012 OVC031 26/24 A2995 RMK AO2
     RAB21E42 SLP128 P0013 T02610239=
KBOW 080955Z AUTO 00000KT 10SM CLR 21/21 A2999 RMK AO2=
KCEW 080953Z AUTO 00000KT 6SM BR CLR 21/21 A3003 RMK AO2 SLP165
     T02060206=
KCGC 080955Z AUTO 00000KT 6SM CLR 21/20 A2999 RMK=
KCRE 080953Z AUTO 00000KT 10SM CLR 26/20 A2991 RMK AO2 SLP130
     T02610200=
KCRS 080953Z AUTO 08003KT 10SM BKN014 25/24 A2999 RMK AO2 RAB38E49
     SLP149 P0000 T02500239=
KCUB 080953Z AUTO 00000KT 10SM CLR 23/19 A2999 RMK AO2 SLP151
     T02330189=
KDFW 080953Z 14004KT 10SM SCT012 SCT090 BKN220 25/23 A3000 RMK AO2
     SLP148 T02500228=
KDHN 080953Z AUTO 00000KT 10SM FEW070 23/22 A3006 RMK AO2 SLP172
     T02330222=
KDTN 080953Z AUTO 00000KT 10SM CLR 24/23 A3003 RMK AO2 SLP165
     T02440233=
KDTO 080953Z AUTO 15004KT 10SM SCT024 26/23 A3000 RMK AO2 SLP151
     T02560233=
KDYB 080955Z AUTO 00000KT 10SM CLR 21/20 A2996 RMK AO1=
KECP 080953Z AUTO 00000KT 5SM BR CLR 23/23 A3001 RMK AO2 SLP171
     T02330228=
KELD 080953Z AUTO 00000KT 6SM BR FEW001 22/22 A3004 RMK AO2 SLP168
     T02220222=
KFTN 080955Z AUTO 05003KT 10SM BKN022 BKN028 24/23 A2991 RMK
     AO1=
KFXE 080953Z 05003KT 10SM FEW020 27/24 A2993 RMK AO2 RAE09 SLP136
     P0000 T02720239 $=
KGNV 080953Z AUTO 00000KT 9SM CLR 19/18 A3000 RMK AO2 SLP156
     T01940183=
KGZH 080953Z AUTO 00000KT 8SM CLR 22/22 A3004 RMK AO2 SLP167
     T02220217=
KHBR 080953Z AUTO 04005KT 7SM SCT050 BKN110 23/22 A3007 RMK AO2
     RAB01E28 SLP165 P0000 T02330222=
KHZY 080953Z AUTO 00000KT 4SM BR CLR 21/19 A3009 RMK AO2 SLP181
     T02060194=
KINK 080953Z AUTO 09003KT 10SM CLR 22/19 A3005 RMK AO2 SLP135
     T02170194 TSNO=
KLUX 080955Z AUTO 00000KT 10SM CLR 21/21 A3002 RMK AO2=
KMAF 080953Z AUTO 03004KT 10SM BKN110 22/20 A3008 RMK AO2 SLP143
     T02170200=
KMER 080955Z AUTO 32006KT 10SM CLR 17/11 A2983 RMK AO1=
KMFE 080953Z AUTO 35007KT 10SM BKN006 BKN021 26/24 A2980 RMK AO2
     SLP088 T02610244=
KMLB 080953Z AUTO 28004KT 10SM CLR 21/21 A2997 RMK AO2 SLP149
     T02110206=
KSDL 080953Z 00000KT 10SM CLR 30/03 A2980 RMK AO2 SLP058
     T03000033=
KSEG 080953Z AUTO 00000KT 3SM HZ CLR 22/17 A3004 RMK AO2 SLP169
     T02170172=
KSFF 080953Z AUTO 00000KT 10SM CLR 13/11 A3006 RMK AO2 SLP167
     T01330106=
KSHN 080953Z AUTO 00000KT 10SM CLR 13/11 A2993 RMK AO2 SLP132
     T01280111=
####018000519####
SADL32 KWBC 080950
METAR
EDLN 080950Z 22005KT 150V260 CAVOK 28/10 Q1019=
EDLP 080950Z VRB03KT CAVOK 29/11 Q1020=
EDLS NIL=
EDLW 080950Z 20009KT CAVOK 29/09 Q1020=
EDMA 080950Z 13006KT 090V170 CAVOK 24/09 Q1023=
EDML NIL=
EDMO 080950Z 11006KT 080V160 CAVOK 23/08 Q1023=
EDMS NIL=
EDQD NIL=
EDQM 080950Z 07006KT 030V110 CAVOK 22/08 Q1024=
EDRS NIL=
EDRT NIL=
EDTB NIL=
EDTD 080950Z 16006KT 090V180 CAVOK 24/10 Q1023=
EDTF NIL=
EDTK NIL=
EDTO NIL=
EDTY NIL=
EDTZ NIL=
EDVE NIL=
####018000110####
SAUS42 KRAH 080956
MTRGSO
METAR KGSO 080954Z 01003KT 8SM BKN095 25/18 A3002 RMK AO2 SLP152 
T02500178
####018003693####
SAUS70 KWBC 081000 RRL
METAR
PABR 080953Z 25015KT 10SM BKN200 06/02 A2999 RMK AO2 SLP157
     T00560022 $=
PACV 080953Z 13009G16KT 10SM SCT048 OVC060 16/10 A3009 RMK AO2
     RAE34 SLP188 P0001 T01560100=
PADE 080953Z AUTO 20006KT 10SM CLR 06/04 A3015 RMK AO2 SLP208
     T00560039 TSNO=
PAEG 080953Z AUTO 00000KT 10SM SCT090 06/03 A3003 RMK AO2 SLP172
     T00560033 TSNO=
PAEN 080953Z AUTO 01012KT 10SM OVC080 14/11 A2996 RMK AO2 SLP147
     T01390111 TSNO=
PAGY 080953Z AUTO 00000KT 10SM CLR 11/10 A3021 RMK AO2 SLP228
     T01060100 TSNO=
PAIL 080953Z AUTO 36007KT 10SM FEW080 11/08 A2992 RMK AO2 SLP135
     T01060078 TSNO=
PAKT 080953Z AUTO 31004KT 10SM CLR 17/12 A3008 RMK AO2 SLP185
     T01720117 TSNO=
PAKV 080953Z AUTO 00000KT 10SM CLR 09/07 A3010 RMK AO2 SLP195
     T00890067 TSNO=
PAKW 080953Z AUTO VRB03KT 10SM CLR 12/10 A3013 RMK AO2 SLP203
     T01220100 TSNO=
PALH 080953Z 00000KT 10SM -RA SCT075 BKN090 13/10 A3000 RMK AO2
     RAB03 SLP160 P0001 T01330100=
PAMR 080953Z 00000KT 10SM FEW060 SCT080 BKN100 BKN200 13/11 A2999
     RMK AO2 RAB05E20 SLP156 T01330106 $=
PAPB 080953Z AUTO 09018KT 10SM OVC046 07/06 A2992 RMK AO2 SLP119
     T00720056 TSNO=
PASC 080953Z 25010KT 10SM OVC028 11/07 A3001 RMK AO2 SLP163
     T01060072=
PASI 080953Z 00000KT 10SM CLR 13/12 A3018 RMK AO2 SLP221
     T01280117=
PASO 080953Z AUTO 00000KT 10SM -RA OVC060 11/10 A2990 RMK AO2
     RAB13 SLP123 P0001 T01060100 TSNO=
PATO 080953Z AUTO 12013G30KT 6SM -RA BR FEW026 SCT031 OVC042 13/11
     A3001 RMK AO2 PK WND 11037/0905 SLP162 P0014 T01280111
     TSNO=
PAWD 080953Z AUTO 12003KT 1/2SM FG SCT003 OVC060 10/09 A2996 RMK
     AO2 SLP146 T01000094 TSNO=
KMSY 080953Z 00000KT 9SM FEW018 SCT250 26/23 A2999 RMK AO2 SLP160
     T02610233=
KBAF 080953Z 15003KT 6SM BR FEW070 BKN100 23/21 A3005 RMK AO2
     SLP171 T02330211=
KBUR 080953Z VRB03KT 8SM OVC009 16/13 A2990 RMK AO2 SLP114
     T01560133=
PHJR 080953Z 00000KT 10SM SCT050 23/18 A3005 RMK AO2 SLP183
     T02330183 403060217=
TJPS 080950Z 05005KT 8SM FEW030 25/23 A2997 HZ ALQDS=
KAAO 080954Z AUTO 30006KT 10SM CLR 21/19 A3008 RMK AO2 SLP175
     T02110194=
KAFJ 080955Z AUTO 00000KT M1/4SM OVC003 17/16 A3011 RMK AO1
     52003=
KAIZ 080955Z AUTO 00000KT 10SM FEW028 FEW039 OVC080 22/21 A3006
     RMK AO1=
KAKH 080954Z AUTO 34003KT 10SM CLR 23/17 A3001 RMK AO2 SLP153
     T02330167=
KAKR 080954Z AUTO 00000KT 4SM BR CLR 21/19 A3009 RMK AO2 SLP178
     T02060189=
KALO 080954Z AUTO 32004KT 10SM CLR 19/19 A3005 RMK AO2 SLP170
     T01940189=
KAPC 080954Z AUTO 27012KT 10SM OVC008 12/11 A2991 RMK AO2 SLP118
     T01170106=
KARG 080955Z AUTO 22006KT 10SM CLR 24/22 A3005 RMK AO1=
KAUO 080955Z AUTO 00000KT 10SM CLR 25/21 A3003 RMK AO1=
KAUW 080954Z AUTO 31008KT 6SM BR OVC002 19/19 A3000 RMK AO2 SLP158
     P0001 T01940189 $=
KAVL 080954Z AUTO 00000KT 8SM FEW080 18/17 A3014 RMK AO2 SLP174
     T01780172=
KAWO 080955Z AUTO 00000KT 10SM CLR 14/14 A2997 RMK AO1=
KBFL 080954Z AUTO 36005KT 10SM CLR 23/11 A2982 RMK AO2 SLP091
     T02330106=
KBHB 080955Z AUTO 18009KT 2 1/2SM OVC002 18/18 A3011 RMK AO1=
KBID 080955Z AUTO 13005KT 1/4SM OVC002 21/20 A3007 RMK AO1=
KBKX 080955Z AUTO 00000KT 10SM CLR 13/12 A3017 RMK AO1=
KBLM 080955Z AUTO 13005KT 2SM BKN003 OVC100 24/21 A3006 RMK
     AO1=
KBOS 080954Z 16008KT 10SM CLR 22/20 A3008 RMK AO2 SLP186
     T02220200=
KBTP 080955Z AUTO 02004KT 1 1/2SM CLR 18/18 A3010 RMK AO1
     57003=
KBUY 080954Z AUTO 00000KT 7SM CLR 22/19 A2999 RMK AO2 SLP146
     T02220194 $=
KBVX 080955Z AUTO 00000KT 10SM CLR 24/22 A3006 RMK AO1=
####018000032####
SAAW41 KWBC 080950 RRA
NIL=
####018003707####
SAUS70 KWBC 081000 RRJ
METAR
KSHR 080953Z AUTO 00000KT 10SM CLR 08/06 A3025 RMK AO2 SLP231
     T00780056=
KSIY 080953Z AUTO 28003KT 10SM CLR 20/08 A2994 RMK AO2 SLP118
     T02000083 $=
KSJC 080953Z AUTO 31005KT 8SM OVC013 16/12 A2991 RMK AO2 SLP129
     T01560117=
KSLC 080953Z 18005KT 10SM FEW130 18/07 A3008 RMK AO2 SLP135
     T01830072=
KSLN 080953Z AUTO 34007KT 6SM BR OVC004 21/20 A3012 RMK AO2 CIG
     003V008 SLP188 T02110200=
KSMF 080953Z 15009KT 10SM CLR 15/11 A2982 RMK AO2 SLP099
     T01500106=
KSMQ 080953Z AUTO 32003KT 2 1/2SM BR CLR 21/21 A3001 RMK AO2
     SLP162 T02110206=
KSNA 080953Z 00000KT 8SM OVC017 18/12 A2990 RMK AO2 SLP122
     T01830122=
KSNS 080953Z AUTO 27005KT 9SM OVC009 13/11 A2992 RMK AO2 SLP140
     T01280106=
KSNY 080953Z AUTO 22003KT 10SM SCT060 16/14 A3031 RMK AO2 SLP232
     T01560144 $=
KSPB 080953Z AUTO 00000KT 10SM CLR 18/12 A2988 RMK AO2 SLP117
     T01780122 $=
KSPG 080953Z AUTO 10005KT 10SM CLR 26/22 A2996 RMK AO2 SLP145
     T02610222=
KSPW 080953Z AUTO 30005KT 9SM CLR 16/14 A3014 RMK AO2 SLP202
     T01560144=
KSRQ 080953Z 05003KT 10SM CLR 23/22 A2996 RMK AO2 SLP143
     T02330217=
KSSF 080953Z AUTO 05005KT 10SM OVC013 26/23 A2992 RMK AO2 RAB02E11
     SLP116 P0000 T02610233=
KSTJ 080953Z AUTO 00000KT 6SM -RA BR SCT005 BKN050 23/21 A3006 RMK
     AO2 RAB00 SLP170 P0001 T02280211=
KSTP 080953Z 32003KT 10SM CLR 18/17 A3008 RMK AO2 SLP182
     T01830167=
KSTS 080953Z AUTO 17003KT 10SM OVC006 12/10 A2991 RMK AO2 SLP123
     T01220100=
KSUN 080951Z AUTO 32009KT 10SM CLR 11/01 A3023 RMK AO2=
KSWO 080953Z AUTO 35004KT 9SM BKN021 OVC043 23/21 A3004 RMK AO2
     LTG DSNT SE SLP159 T02280211=
KSZT 080950Z AUTO 00000KT 10SM CLR 10/08 A3010 RMK AO2=
KTCC 080953Z AUTO 04006KT 10SM OVC007 18/16 A3022 RMK AO2 CIG
     007V011 SLP175 T01780161=
KTCL 080953Z AUTO 00000KT 8SM CLR 24/22 A3004 RMK AO2 SLP169
     T02390217=
KTDZ 080953Z AUTO 00000KT 10SM CLR 23/18 A3005 RMK AO2 SLP169
     T02330183=
KTHV 080953Z AUTO 00000KT 2 1/2SM BR CLR 21/19 A3003 RMK AO2
     SLP165 T02110194=
KTIW 080953Z AUTO 02008KT 10SM FEW095 22/11 A2994 RMK AO2 SLP133
     T02220106=
KJKL 080953Z AUTO 00000KT 5SM HZ CLR 23/19 A3011 RMK AO2 SLP178
     T02280194=
KJSV 080952Z AUTO 00000KT 10SM SCT032 23/23 A3003 RMK AO2 LTG DSNT
     NW=
KJYR 080950Z AUTO 36003KT 10SM CLR 16/15 A3016 RMK AO2=
KLAA 080953Z AUTO 06004KT 10SM FEW005 BKN024 OVC035 17/16 A3026
     RMK AO2 SLP203 T01720161=
KLAR 080953Z AUTO 00000KT 3/4SM BR FEW002 SCT017 07/07 A3039 RMK
     AO2 SLP226 T00720072=
KLBF 080953Z AUTO 00000KT 10SM OVC085 16/15 A3024 RMK AO2 SLP224
     T01610150=
KLCG 080950Z AUTO 00000KT 10SM CLR 15/14 A3017 RMK AO2
     T01530143=
KLBX 080953Z AUTO 13007KT 7SM VCTS RA SCT025 BKN048 OVC080 27/24
     A2989 RMK AO2 LTG DSNT S-W TSB29RAB43 SLP120 P0002
     T02720244=
KLCH 080953Z AUTO 06006KT 9SM CLR 25/23 A2996 RMK AO2 SLP153
     T02500233=
KLEB 080953Z AUTO 00000KT 1 3/4SM BR FEW001 22/20 A3006 RMK AO2
     SLP165 T02170200=
KLEE 080953Z AUTO 00000KT 10SM CLR 22/21 A3000 RMK AO2 SLP158
     T02220211=
KLFK 080953Z AUTO 09005KT 10SM CLR 24/23 A2998 RMK AO2 SLP149
     T02440228=
KLFT 080953Z AUTO 06005KT 10SM FEW004 25/23 A2999 RMK AO2 SLP154
     T02500233=
KLGB 080953Z 00000KT 10SM OVC017 17/13 A2990 RMK AO2 SLP124
     T01720133=
KLHM 080951Z AUTO 16008KT 10SM CLR 17/11 A2982 RMK AO1
     T01660110=
KLHQ 080953Z AUTO 00000KT 2SM BR CLR 19/18 A3009 RMK AO2 SLP180
     T01890178=
KLHX 080953Z AUTO 00000KT 10SM -RA SCT065 OVC090 16/14 A3028 RMK
     AO2 SLP208 T01610139 PNO $=
####018000301####
SANO38 ENMI 080950
METAR ENDR 080950Z NIL=
METAR ENEK 080950Z 22014KT CAVOK 15/13 Q1015 W15/S3=
METAR ENGC 080950Z 19027KT CAVOK 13/11 Q1008=
METAR ENHE 080950Z 18023KT 9999 FEW040 SCT100 14/11 Q1008=
METAR ENOA 080950Z 19025KT CAVOK 13/11 Q1009=
METAR ENSL 080950Z 22024KT CAVOK 14/11 Q1012=
####018000288####
SAFI33 EFHK 080950
EFJO 080950Z AUTO 01004KT 320V050 CAVOK 24/19 Q1015=
EFLP 080950Z VRB05KT CAVOK 30/15 Q1014=
EFMI 080950Z AUTO VRB03KT 9999 SCT034 BKN041 28/19 Q1014=
EFSA 080950Z 35002KT 9999 FEW035 28/18 Q1014=
EFUT 080950Z 14003KT CAVOK 30/17 Q1013=
METAR EFVR 080955Z NIL=
####018000028####
SAIY32 KWBC 080950
NIL=
####018000096####
SABZ21 SBMO 081000
METAR SBMO 081000Z 05003KT 3000 -DZ BR SCT006 SCT020 BKN100 21/21
Q1017=
####018000115####
SAUS41 KOKX 080955
MTRMTP
METAR KMTP 080954Z AUTO 00000KT 21/19 A3007 RMK AO2 SLP184 T02110194 
PWINO TSNO
####018000375####
SAOS31 LOWM 080950
METAR LOWW 080950Z 04006KT 330V070 9999 FEW050 22/10 Q1023 NOSIG=
METAR LOWL 080950Z VRB04KT CAVOK 22/09 Q1023 NOSIG=
METAR LOWS 080950Z VRB05KT CAVOK 23/07 Q1023 NOSIG=
METAR LOWI 080950Z VRB01KT CAVOK 23/12 Q1022 NOSIG=
METAR LOWG 080950Z 20003KT 130V260 CAVOK 23/09 Q1023 NOSIG=
METAR LOWK 080950Z 08003KT 330V120 9999 FEW060 22/10 Q1023 NOSIG=
####018000132####
SAMX42 KWBC 080945 RRA
METAR
MMTO 080945Z 00000KT 3SM HZ SCT015 OVC070 13/11 A3023 RMK 8/47/
     -RA E35 CB VC OCNL DROPS=
####018001231####
SADN31 KWBC 080950
METAR
EKAH 080950Z AUTO 20006KT 140V260 9999NDV OVC048/// 22/14
     Q1019=
EKBI 080950Z NIL=
EKCH 080950Z 18013KT CAVOK 21/15 Q1020 NOSIG=
EKEB 080950Z AUTO 22010KT 9999NDV -SHRA FEW023/// BKN056/// 21/14
     Q1018=
EKHO NIL=
EKKA 080950Z 21005KT 170V250 9999 FEW018 BKN045 18/16 Q1018 TEMPO
     4000 SHRA SCT020CB=
EKMB NIL=
EKOD 080950Z 19008KT 160V220 CAVOK 24/12 Q1019=
EKRK 080950Z AUTO 18011KT 150V210 9999NDV SCT050/// BKN065///
     24/12 Q1020=
EKRN 080950Z AUTO 21005KT 180V240 9999NDV NCD 20/15 Q1022=
EKSB 080950Z 18007KT 140V210 CAVOK 24/12 Q1018=
EKSN 080950Z 22009KT 9999 SCT023 BKN047 20/15 Q1017=
EKSP 080950Z 20013KT CAVOK 25/11 Q1018 NOSIG RMK FEW050 BKN120=
EKSV NIL=
EKTS NIL=
EKVA NIL=
EKVD 080950Z 22010KT CAVOK 24/13 Q1018=
EKVG 080950Z 15012KT 9999 -SHRA SCT004 BKN006 BKN010 10/10 Q0992
     RMK/RWY 13/31 CLOSED DUE WIP/ SEE NOTAM E0050/10 WIND 850FT
     15016G30KT 090V220=
EKVG 080950Z 15012KT 9999 -SHRA SCT004 BKN006 BKN010 10/10 Q0992
     RMK/RWY 13/31 CLOSED DUE WIP. SEE NOTAM E0050/10 WIND 850FT
     15016G30KT 090V220=
EKVJ 080950Z NIL=
EKVL NIL=
EKYT 080950Z 22010KT 9999 FEW025 BKN030 20/14 Q1017 NOSIG=
####018000367####
SANO35 ENMI 080950
METAR ENMS 080950Z 21008KT 9999 SCT050 23/08 Q1009 =
METAR ENRM 080950Z 09003KT 030V170 CAVOK 19/10 Q1010=
METAR ENRS 080950Z 20006KT 9999 -SHRA NSC 13/10 Q1010=
METAR ENSK 080950Z 15002KT CAVOK 19/10 Q1010=
METAR ENSO 080950Z 19013KT 9999 SCT020TCU 18/11 Q1013=
METAR ENST 080950Z NIL=
METAR ENVD 080950Z 13005KT 9999 BKN023 12/08 Q1017=
####018000590####
SANO32 ENMI 080950
METAR ENAL 080950Z 18012KT 150V210 9999 SCT060 19/08 Q1009=
METAR ENCN 080950Z 20007KT 5000 BR VV003 16/16 Q1015=
METAR ENHD 080950Z 20011KT 9999 FEW020 16/12 Q1014=
METAR ENRO 080950Z 20010KT 160V230 9999 FEW030 SCT060 BKN110 18/07
           Q1011=
METAR ENRY 080950Z 17007KT 150V210 9999 -RA FEW006 BKN009 16/14 Q1016
           TEMPO SCT008 BKN012=
METAR ENSB 080950Z 27010KT 9999 FEW010 SCT035 BKN060 08/06 1008 NOSIG
           =
METAR ENTC 080950Z 29004KT 9999 FEW065 17/07 Q1011 NOSIG=
METAR ENTO 080950Z 16010KT 9999 VCSH FEW005 BKN013 16/15 Q1016=
####018000028####
SAIY42 KWBC 080950
NIL=
####018000340####
SAMX31 KWBC 080945 RRC
METAR
MMAA 080944Z 12004KT 8SM SCT020TCU SCT090 BKN300 26/23 A2977 RMK
     8/232=
MMMX 080947Z 00000KT 2SM -RA SCT008 BKN020 OVC070 15/14 A3018
     NOSIG RMK 60135 8/47/ VSBY TWR LWR CLOUDS-NE=
MMVR 080945Z 00000KT 7SM SCT012CB BKN080 BKN220 24/24 A2980 RMK
     60945 8/963 +RA INTMT E30 VRB COND=
####018000081####
SABZ24 SBPA 081000
METAR SBPA 081000Z 25002KT 9999 BKN021 OVC045 17/14 Q1018=
####018000119####
SAEN31 KWBC 080920 RRB
METAR
ENGM 080942Z 21010KT 9999 -RA FEW011 SCT013 BKN066 17/14 Q1015
     TEMPO BKN013=
####018000411####
SANO33 ENMI 080950
METAR ENAT 080950Z 17008KT 9999 FEW045 SCT080 20/10 Q1013 =
METAR ENBL 080950Z NIL=
METAR ENEV 080950Z 11007KT 050V140 CAVOK 20/08 Q1010 =
METAR ENFL 080950Z NIL=
METAR ENKB 080950Z 13005KT 070V190 CAVOK 21/11 Q1009=
METAR ENKR 080950Z 17006KT 9999 BKN012 13/09 Q1018 =
METAR ENML 080950Z 08004KT 9999 SCT060 20/09 Q1009=
METAR ENNA 080950Z 18017KT 9999 FEW040 SCT070 19/09 Q1013 =
####018000073####
SANO35 ENMI 080950 RRA
METAR ENST 080950Z VRB03KT CAVOK 18/11 Q1010=
####018000095####
SAGU31 MGGT 081000
METAR
MGGT 081000Z 18006KT 9999 BKN015 17/14 Q1022 A3018 FEW080 NOSIG =
####018000852####
SANO41 KWBC 080950
METAR
ENAL 080950Z 18012KT 150V210 9999 SCT060 19/08 Q1009=
ENAN 080950Z 03005KT 9999 FEW045 SCT200 17/10 Q1011 NOSIG=
ENAT 080950Z 17008KT 9999 FEW045 SCT080 20/10 Q1013=
ENBL 080950Z NIL=
ENBN 080950Z 32005KT 210V030 CAVOK 17/10 Q1010=
ENBV 080950Z 09014KT 9999 BKN025 12/09 Q1017=
ENDI 080950Z NIL=
ENDU 080950Z 13004KT 080V180 9999 FEW050 SCT080 21/06 Q1011
     NOSIG=
ENEK 080950Z 22014KT CAVOK 15/13 Q1015 W15/S3=
ENEV 080950Z 11007KT 050V140 CAVOK 20/08 Q1010=
ENFG 080950Z NIL=
ENFL 080950Z NIL=
ENFR NIL=
ENGC 080950Z 19027KT CAVOK 13/11 Q1008=
ENHF 080950Z 23005KT 200V260 CAVOK 16/08 Q1013=
ENHV 080950Z VRB01KT CAVOK 11/08 Q1014=
ENKB 080950Z 13005KT 070V190 CAVOK 21/11 Q1009=
ENLI NIL=
ENLK 080950Z 19007KT CAVOK 18/10 Q1011=
ENMH 080950Z 16007KT 9999 FEW015 15/09 Q1016=
####018000319####
SAHW31 KMSC 080955
METAR PHMK 080954Z AUTO 05007KT 10SM CLR 22/19 A3006 RMK AO2 SLP180 
    T02220189 402940217 TSNO=
METAR PHOG 080954Z AUTO 04010KT 10SM CLR 24/17 A3004 RMK AO2 SLP176 
    T02390167 403170206 TSNO=
METAR PGSN 080954Z 07012KT 10SM FEW024 SCT031 27/22 A2990 RMK AO2 
    SLPNO T02720217=
####018000088####
SPCN31 KWBC 080956
SPECI
CYKL 080953Z AUTO 05004KT 9SM BKN026 OVC082 14/13 A2990=
####018000028####
SAGR41 KWBC 080950
NIL=
####018000107####
SAUS43 KIWX 080956
MTRFWA
METAR KFWA 080954Z 00000KT 8SM CLR 23/20 A3006 RMK AO2 SLP172 
T02280200
####018002971####
SAUS20 KNKA 080955
METAR KDVL 080955Z AUTO 25007KT 10SM CLR 16/12 A3006 RMK AO1=
METAR KDYL 080954Z AUTO 00000KT 5SM BR CLR 22/21 A3003 RMK AO2 
    SLP160 T02170206 TSNO=
METAR KDYR 080955Z AUTO 00000KT 10SM CLR 24/19 A3006 RMK AO1=
METAR KEAR 080955Z AUTO 00000KT 10SM CLR 15/13 A3023 RMK AO1=
METAR KECG 080954Z AUTO 07005KT 9SM BKN009 BKN100 25/24 A2995 RMK 
    AO2 CIG 007V012 SLP143 T02500239=
METAR KEEN 080955Z AUTO 00000KT 3SM BKN085 22/21 A3006 RMK AO1=
METAR KEGE 080955Z 34003KT 10SM CLR 10/08 A3036 RMK AO1=
METAR KEHR 080955Z AUTO 00000KT 7SM CLR 22/18 A3005 RMK AO1=
METAR KENV 080955Z 19003KT 10SM CLR 20/M01 A3009 RMK AO1=
METAR KESC 080955Z AUTO 00000KT 5SM SCT019 19/16 A2996 RMK AO1=
METAR KEUG 080954Z 20008KT 10SM CLR 14/11 A2992 RMK AO2 SLP128 
    T01390106=
METAR KEUL 080955Z AUTO 00000KT 10SM CLR 14/07 A3005 RMK AO1=
METAR KEVV 080954Z AUTO 00000KT 10SM BKN085 24/22 A3005 RMK AO2 
    SLP171 T02440217=
METAR KEWK 080955Z AUTO 35008KT 10SM OVC006 21/19 A3007 RMK AO1=
METAR KEWN 080954Z 04004KT 4SM BR CLR 24/23 A2993 RMK AO2 SLP134 
    T02440233=
METAR KFAM 080955Z AUTO 17003KT 10SM FEW100 23/22 A3008 RMK AO1=
METAR KFIG 080954Z AUTO 36004KT 1 3/4SM BR CLR 17/17 A3012 RMK AO2 
    SLP187 T01720167=
METAR KFKL 080955Z 00000KT 2SM CLR 19/17 A3014 RMK AO1 54000=
METAR KFLO 080953Z AUTO 32006KT 10SM CLR 26/19 A2994 RMK AO2 SLP136 
    T02560189=
METAR KFLP 080955Z AUTO 12003KT 10SM BKN090 23/21 A3004 RMK AO1=
METAR KFNL 080955Z AUTO 05004KT 4SM OVC002 14/13 A3032 RMK AO1=
METAR KFOD 080955Z AUTO 33003KT 10SM CLR 18/17 A3012 RMK AO1=
METAR KFRM 080955Z AUTO 10SM CLR 16/14 A3013 RMK AO1=
METAR KFZY 080954Z AUTO 00000KT 1 1/2SM BR CLR 21/20 A3004 RMK AO2 
    SLP169 T02060200=
METAR KGAD 080955Z AUTO 00000KT 10SM CLR 22/19 A3005 RMK AO1=
METAR KGAI 080955Z 00000KT 7SM BKN090 OVC110 25/21 A3005 RMK AO1 
     =
METAR KGBD 080955Z AUTO 01006KT 8SM BKN015 19/18 A3016 RMK AO1=
METAR KGCK 080954Z AUTO 04007KT 10SM OVC013 18/17 A3021 RMK AO2 
    SLP202 T01780167=
METAR KGCN 080954Z AUTO 00000KT 10SM CLR 09/M03 A3023 RMK AO2 SLP139 
    T00891028=
METAR KGDV 080955Z AUTO 22003KT 10SM CLR 11/07 A3016 RMK AO1=
METAR KGED 080954Z AUTO 00000KT 2 1/2SM BR CLR 24/23 A3001 RMK AO2 
    SLP162 T02390228=
METAR KGPZ 080955Z AUTO 20004KT 10SM CLR 13/12 A3005 RMK AO1=
METAR KGTR 080955Z 31004KT 10SM CLR 24/23 A3004 RMK AO1=
METAR KGUC 080955Z AUTO 01005KT 10SM FEW120 09/03 A3044 RMK AO1=
METAR KGXY 080955Z AUTO 08003KT 10SM BKN009 BKN014 OVC047 15/12 
    A3032 RMK AO1=
METAR KHDN 080955Z 10007KT 10SM CLR 10/05 A3031 RMK AO1=
METAR KHEF 080955Z AUTO 00000KT 6SM FEW090 23/19 A3001 RMK AO1=
METAR KHEZ 080955Z AUTO 00000KT 10SM CLR 22/21 A3003 RMK AO1=
METAR KHNB 080955Z AUTO 00000KT 5SM FEW026 BKN065 OVC100 23/21 A3006 
    RMK AO1=
METAR KHWD 080954Z AUTO 32007KT 10SM OVC009 14/11 A2992 RMK AO2 
    SLP140 T01390111=
####018000090####
SAOS32 LOWM 080950
METAR LOXZ 080950Z VRB03KT 70KM FEW060CU 21/10 Q1024 NOSIG RMK FEW=
####018002757####
SAUS20 KNKA 080955
METAR KROC 080954Z 24004KT 6SM BR BKN080 BKN120 BKN250 22/20 A3006 
    RMK AO2 SLP175 T02220200=
METAR KRST 080954Z 32005KT 9SM CLR 18/17 A3010 RMK AO2 SLP186 
    T01780172=
METAR KRUT 080955Z AUTO 15005KT 4SM CLR 21/18 A3006 RMK AO1=
METAR KSBY 080954Z 10004KT 5SM BR BKN100 BKN110 24/23 A3000 RMK AO2 
    SLP160 T02440233=
METAR KSDY 080955Z AUTO 22005KT 10SM CLR 12/08 A3015 RMK AO1=
METAR KSET 080954Z AUTO 00000KT 2 1/2SM BR SCT004 24/24 A3002 RMK 
    AO2 RAE10 SLP159 P0000 T02440244=
METAR KSFM 080955Z 00000KT 2 1/2SM OVC003 21/18 A3008 RMK AO1=
METAR KSFZ 080955Z AUTO 14004KT 10SM OVC010 22/21 A3008 RMK AO1=
METAR KSGT 080955Z 13003KT 10SM CLR 23/22 A3006 RMK AO1=
METAR KSGU 080955Z AUTO 09003KT 10SM CLR 26/02 A2995 RMK AO1=
METAR KSJN 080954Z AUTO 09006KT 10SM BKN120 22/05 A3016 RMK AO2 
    SLP107 T02170050=
METAR KSKX 080955Z AUTO 00000KT 10SM FEW100 11/04 A3038 RMK AO1=
METAR KSLG 080955Z AUTO 16004KT 10SM BKN023 BKN080 23/21 A3006 RMK 
    AO1=
METAR KSMN 080955Z AUTO 14003KT 10SM CLR 08/02 A3024 RMK AO1=
METAR KSQI 080955Z 00000KT 5SM BKN004 OVC009 22/22 A3004 RMK AO1=
METAR KSUE 080955Z AUTO 29004KT 8SM SCT008 21/19 A2998 RMK AO1=
METAR KSUS 080954Z AUTO 00000KT 10SM CLR 24/23 A3002 RMK AO2 SLP156 
    T02390228=
METAR KSYR 080954Z 17003KT 8SM FEW090 22/20 A3004 RMK AO2 SLP166 
    T02220200=
METAR KTAD 080954Z AUTO 33005KT 10SM SCT085 14/13 A3036 RMK AO2 
    SLP208 T01390128=
METAR KTEX 080953Z AUTO 11004KT 10SM SCT110 12/03 A3046 RMK AO2=
METAR KTIF 080950Z AUTO 25004KT 10SM OVC100 16/15 A3026 RMK AO2 
     T01570146=
METAR KTQE 080954Z AUTO 36005KT 10SM CLR 18/17 A3014 RMK AO2 SLP194 
    T01830172=
METAR KTRK 080950Z AUTO 00000KT 10SM CLR 12/08 A3015 RMK AO2=
METAR KTVF 080955Z AUTO 24007KT 10SM CLR 13/11 A3004 RMK AO1=
METAR KUIN 080954Z AUTO 20003KT 2 1/2SM BR BKN001 23/22 A3004 RMK 
    AO2 SLP164 T02280222=
METAR KUZA 080954Z AUTO 00000KT 10SM CLR 22/18 A3001 RMK AO2 SLP146 
    T02220183=
METAR KVAY 080954Z AUTO 00000KT M1/4SM FG VV005 23/23 A3002 RMK AO2 
    SLP164 T02330233=
METAR KVBT 080955Z AUTO 00000KT 10SM BKN032 OVC080 23/21 A3003 RMK 
    AO1=
METAR KVIS 080955Z AUTO 26003KT 10SM CLR 19/12 A2980 RMK AO1=
METAR KVSF 080954Z AUTO 00000KT 1 1/2SM BR BKN002 21/20 A3007 RMK 
    AO2 SLP179 T02110200 $=
METAR KVTA 080954Z AUTO 00000KT 1 1/4SM BR SCT060 18/18 A3008 RMK 
    AO2 SLP180 T01830178=
METAR KWLD 080954Z AUTO 00000KT 10SM CLR 22/21 A3007 RMK AO2 SLP172 
    T02220211=
METAR KWVL 080955Z AUTO 17004KT 7SM OVC005 21/19 A3004 RMK AO1=
METAR KWWD 080955Z AUTO 5SM OVC120 23/23 A3003 RMK AO1=
METAR KYKN 080955Z AUTO 00000KT 10SM CLR 17/14 A3017 RMK AO1=
####018000753####
SAGL41 BGSF 080950
METAR BGSF 080950Z 07007KT 9999 BKN070 11/02 Q1009=
METAR BGBW 080955Z NIL=
METAR BGGH 080950Z 28004KT 250V310 9999 OVC004 05/03 Q1010=
METAR BGJN 080950Z 26002KT 9999 VCFG FEW200 07/05 Q1010=
METAR BGKK 080950Z 07011KT 9999 FEW140 SCT160 07/03 Q1009=
METAR BGCO 080950Z 02014KT 9999 VCSH FEW016 SCT067 BKN110 06/02 
Q1008=
METAR BGSS 080950Z 19003KT 0500 FG VV002 04/04 Q1009=
METAR BGAA 080950Z 34002KT 0400 FG VV002 03/02 Q1010=
METAR BGUQ 080955Z NIL=
METAR COR BGMQ 080950Z 14005KT 0500 FG VV002 04/04 Q1009=
METAR BGUK 080950Z AUTO VRB02KT 9999NDV  NCD 06/03 Q1010=
METAR BGQQ 080950Z AUTO 17004KT 9000NDV  NCD ///003/// 04/// 
Q1011 RMK /// =
METAR BGPT 080950Z AUTO 27006KT 0550NDV  FG OVC002/// 04/04 Q1010=
####018002954####
SAUS20 KNKA 080955
METAR KHYS 080955Z AUTO 35006KT 10SM OVC022 19/17 A3018 RMK AO1=
METAR KILN 080954Z AUTO 00000KT 4SM BR CLR 21/19 A3009 RMK AO2 
    SLP175 T02110194=
METAR KIMT 080954Z AUTO 34004KT 5SM BR BKN002 OVC006 20/19 A2998 RMK 
    AO2 SLP149 T02000194=
METAR KIND 080954Z 00000KT 9SM BKN090 OVC120 25/20 A3003 RMK AO2 
    SLP161 T02500200=
METAR KINT 080954Z AUTO 01004KT 10SM SCT090 24/18 A3003 RMK AO2 
    SLP154 T02440178=
METAR KIPT 080954Z AUTO 00000KT 7SM CLR 20/17 A3006 RMK AO2 SLP172 
    T02000167=
METAR KISP 080954Z 15003KT 3SM BR OVC003 24/22 A3003 RMK AO2 SLP167 
    T02440222=
METAR KISW 080954Z AUTO 00000KT 10SM SCT005 19/19 A3002 RMK AO2 
    SLP161 T01940194 TSNO=
METAR KIWD 080955Z AUTO 27003KT 10SM FEW060 SCT070 BKN100 16/15 
    A3000 RMK AO1=
METAR KIZG 080954Z AUTO 00000KT 5SM BR CLR 21/19 A3007 RMK AO2 
    SLP182 T02060194=
METAR KJAC 080955Z AUTO 04007KT 10SM CLR 07/M01 A3034 RMK AO1=
METAR KJHW 080955Z AUTO 00000KT 1SM CLR 19/18 A3012 RMK AO1 54000=
METAR KJST 080954Z AUTO 24004KT 5SM HZ CLR 20/16 A3014 RMK AO2 
    SLP188 T02000156=
METAR KKLS 080955Z AUTO 00000KT 10SM CLR 16/13 A2991 RMK AO1=
METAR KL35 080953Z AUTO 00000KT 10SM CLR 06/M05 A3017 RMK AO2=
METAR KLAF 080954Z AUTO 00000KT 8SM SCT060 SCT100 23/21 A3003 RMK 
    AO2 SLP163 T02280211 TSNO=
METAR KLBL 080955Z 06007KT 10SM SCT041 BKN047 19/17 A3021 RMK AO1=
METAR KLBT 080954Z AUTO 27003KT 10SM CLR 24/18 A2993 RMK AO2 SLP132 
    T02440183=
METAR KLCI 080955Z AUTO 00000KT 10SM BKN100 OVC120 22/19 A3006 RMK 
    AO1=
METAR KLEW 080955Z 16004KT 2 1/2SM OVC003 20/19 A3010 RMK AO1=
METAR KLEX 080954Z AUTO 17003KT 5SM HZ CLR 22/18 A3009 RMK AO2 
    SLP178 T02170183 TSNO=
METAR KLGD 080955Z AUTO 00000KT 10SM CLR 09/04 A3005 RMK AO1=
METAR KLKV 080955Z AUTO 33009KT 10SM CLR 10/01 A3011 RMK AO1=
METAR KLNK 080954Z AUTO 36004KT 10SM OVC032 19/17 A3015 RMK AO2 
    SLP201 T01890172=
METAR KLPC 080955Z AUTO 34003KT 10SM OVC012 14/11 A2991 RMK AO1 PNO=
METAR KLWM 080954Z AUTO 00000KT 3SM BR BKN042 BKN050 OVC070 24/22 
    A3009 RMK AO2 SLP187 T02390217=
METAR KLWT 080954Z AUTO 15005KT 10SM CLR 08/05 A3026 RMK AO2 SLP229 
    T00780050=
METAR KLYH 080954Z AUTO 35003KT 7SM CLR 24/18 A3004 RMK AO2 SLP159 
    T02390183=
METAR KMAI 080953Z AUTO 00000KT 6SM BR CLR 23/22 A3001 RMK AO2 
    SLP160 T02330222=
METAR KMBL 080955Z AUTO 00000KT 10SM FEW065 OVC110 22/19 A2999 RMK 
    AO1=
METAR KMFI 080954Z AUTO 32005KT 9SM CLR 18/18 A3001 RMK AO2 SLP156 
    T01830178=
METAR KMGJ 080954Z AUTO 00000KT 3SM BR CLR 21/19 A3003 RMK AO2 
    SLP167 T02110194=
METAR KMIV 080954Z AUTO 10003KT 1 1/2SM BR FEW003 SCT100 23/22 A3000 
    RMK AO2 SLP156 T02330222=
METAR KMJX 080955Z AUTO 00000KT 1 1/4SM SCT060 BKN090 23/22 A3002 
    RMK AO1=
METAR KMKC 080954Z 00000KT 10SM CLR 23/21 A3004 RMK AO2 SLP165 
    T02280206=
####018002838####
SAUS80 KWBC 081000 RRB
METAR
KLIT 080953Z 00000KT 7SM BKN150 24/23 A3005 RMK AO2 SLP175
     T02440228 $=
KODX 080953Z AUTO 33004KT 10SM OVC090 16/15 A3020 RMK AO2 SLP222
     T01610150=
KORF 080951Z 08006KT 9SM BKN120 26/23 A2996 RMK AO2 SLP145
     T02560233=
KP68 080953Z AUTO 20006KT 08/M03 A3015 RMK AO2 SLP135 T00781028
     PWINO TSNO=
PABE 080953Z VRB05KT 10SM BKN120 09/09 A3001 RMK AO2 SLP171
     T00900087 PNO $=
PABT 080953Z 00000KT 10SM SCT120 12/10 A3007 RMK AO2 SLP189
     T01170100=
PACD 080953Z 15007KT 10SM FEW048 SCT180 05/03 A2994 RMK AO2 SLP137
     T00500033=
PADQ 080953Z 00000KT 10SM OVC018 10/09 A2984 RMK AO2 RAE14 SLP103
     P0000 T01000094 $=
PAFA 080953Z 00000KT 10SM FEW200 13/08 A3003 RMK AO2 SLP173
     T01330078=
PAHO 080953Z AUTO 10011KT 10SM BKN075 12/09 A2989 RMK AO2 SLP122
     T01220089 TSNO=
PAJN 080953Z 00000KT 10SM FEW250 11/09 A3018 RMK AO2 SLP221
     T01060094=
PAMC 080953Z 00000KT 10SM FEW040 BKN110 BKN200 13/08 A2999 RMK AO2
     SLP157 T01330083=
PANC 080953Z 00000KT 10SM FEW070 BKN090 11/11 A2999 RMK AO2 RAE48
     SLP157 P0000 T01110106=
PANN 080953Z AUTO 00000KT 10SM OVC075 12/09 A3002 RMK AO2 SLP170
     T01220094 TSNO=
PANT 080953Z 33009KT 10SM CLR 19/11 A3006 RMK AO2 SLP180
     T01890111=
PAOM 080953Z 04010KT 10SM FEW045 SCT095 SCT200 15/09 A3009 RMK AO2
     SLP190 T01500089=
PAOR 080953Z 00000KT 10SM FEW070 10/09 A3008 RMK AO2 SLP188
     T01000094=
PAOT 080953Z 30010KT 10SM FEW040 SCT090 BKN200 12/07 A3013 RMK AO2
     SLP201 T01170072=
PAQT 080953Z AUTO 23007KT 10SM CLR 08/06 A3005 RMK AO2 SLP178
     T00780061 TSNO=
PASN 080953Z 07011KT 10SM FEW004 SCT035 OVC045 06/04 A2994 RMK AO2
     SLP141 T00560044=
PATK 080953Z AUTO 00000KT 10SM CLR 14/11 A2999 RMK AO2 SLP157
     T01390111 TSNO=
PAYA 080953Z 00000KT 10SM CLR 11/09 A3019 RMK AO2 SLP222
     T01060094=
K40J 080953Z AUTO 00000KT 21/20 A2999 RMK AO2 SLP155 T02110200
     PWINO TSNO=
KAPN 080954Z AUTO 21006KT 10SM -RA FEW075 OVC110 23/21 A2999 RMK
     AO2 RAB35 SLP151 P0001 T02280211=
KSBN 080954Z 00000KT 6SM BR CLR 23/21 A3005 RMK AO2 SLP167
     T02280206=
KDMH 080954Z AUTO 27/22 A3001 RMK AO2 SLP161 T02720222 PWINO
     TSNO=
KAVP 080954Z 00000KT 5SM HZ CLR 21/18 A3007 RMK AO2 SLP168
     T02060178 $=
KMQE 080954Z AUTO 16008KT 21/19 A3009 RMK AO1 SLP194 T02060189=
KBUF 080954Z 18005KT 7SM FEW070 22/19 A3005 RMK AO2 SLP172
     T02220194=
KCOS 080954Z AUTO 20005KT 10SM BKN055 13/11 A3039 RMK AO2 SLP224
     T01280111 TSNO=
KCRW 080954Z 00000KT 4SM BR CLR 21/19 A3009 RMK AO2 SLP176 VLY FG
     T02060194=
KDSM 080954Z 36009KT 10SM FEW150 22/19 A3008 RMK AO2 SLP176
     T02170189=
K1V4 080954Z AUTO 21/19 A3005 RMK AO2 SLP162 T02060194 PWINO
     TSNO=
####018002957####
SAUS20 KNKA 080955
METAR KMKT 080955Z 29005KT 10SM CLR 17/15 A3010 RMK AO1=
METAR KMML 080955Z AUTO 27005KT 10SM CLR 14/12 A3013 RMK AO1=
METAR KMNM 080955Z AUTO 24004KT 8SM OVC011 21/19 A2998 RMK AO1=
METAR KMOT 080954Z AUTO 23008KT 10SM CLR 14/11 A3008 RMK AO2 SLP188 
    T01440111 TSNO=
METAR KMRF 080955Z AUTO 02006KT 10SM SCT095 16/13 A3017 RMK AO1=
METAR KMRY 080954Z AUTO 00000KT 10SM OVC008 13/10 A2993 RMK AO2 
    SLP146 T01330100=
METAR KMSV 080955Z AUTO 00000KT 4SM CLR 20/18 A3010 RMK AO1=
METAR KMTW 080955Z 19005KT 10SM OVC110 22/21 A2998 RMK AO1=
METAR KMVL 080954Z AUTO 00000KT 2SM BR FEW003 21/19 A3007 RMK AO2 
    SLP179 T02060194=
METAR KMVN 080955Z AUTO 00000KT 3/4SM VV005 22/21 A3005 RMK AO1=
METAR KOFP 080954Z AUTO 00000KT 6SM HZ CLR 24/20 A3000 RMK AO2 
    SLP157 T02390200=
METAR KOKK 080955Z AUTO 00000KT 6SM BKN100 22/17 A3005 RMK AO1 54000=
METAR KOLM 080954Z AUTO 00000KT 10SM CLR 15/12 A2995 RMK AO2 SLP139 
    T01500117=
METAR KOLS 080954Z AUTO 11003KT 10SM CLR 24/06 A2998 RMK AO2 SLP068 
    T02390056=
METAR KOLU 080955Z AUTO 31004KT 10SM CLR 17/14 A3018 RMK AO1=
METAR KORH 080954Z AUTO 17005KT 2SM R11/4500VP6000FT BR OVC002 22/22 
    A3010 RMK AO2 SLP185 T02220217=
METAR KOTG 080955Z AUTO 27003KT 10SM CLR 14/13 A3014 RMK AO1=
METAR KOTH 080955Z 23003KT 10SM OVC010 10/08 A3000 RMK AO1=
METAR KPHF 080954Z 07004KT 3SM BR BKN080 BKN100 25/24 A2997 RMK AO2 
    SLP149 T02500244=
METAR KPHL 080954Z 00000KT 3SM HZ FEW100 SCT150 25/22 A3002 RMK AO2 
    SLP164 T02500222 $=
METAR KPIA 080954Z 19004KT 2 1/2SM BR FEW005 BKN010 OVC028 23/22 
    A3003 RMK AO2 CIG 007V011 SLP163 T02280217=
METAR KPIB 080955Z AUTO 00000KT 10SM CLR 23/21 A3004 RMK AO1=
METAR KPLN 080954Z AUTO 00000KT 10SM OVC110 21/21 A2997 RMK AO2 
    SLP144 T02110206=
METAR KPNE 080954Z 12005KT 3SM BR FEW006 24/23 A3004 RMK AO2 SLP169 
    T02390228=
METAR KPQI 080955Z AUTO 14005KT 9SM CLR 21/18 A3000 RMK AO1=
METAR KPSF 080954Z AUTO 00000KT 2SM BR CLR 19/18 A3008 RMK AO2 
    SLP153 T01890183=
METAR KPTN 080955Z AUTO 08004KT 10SM CLR 24/M09 A3000 RMK AO1=
METAR KPTV 080955Z AUTO 18006KT 10SM CLR 19/12 A2984 RMK AO1=
METAR KPTW 080954Z AUTO 00000KT 3SM HZ CLR 23/19 A3004 RMK AO2 
    SLP166 T02330194 $=
METAR KPVC 080955Z 17006KT 9SM OVC004 22/20 A3010 RMK AO1=
METAR KPVJ 080950Z AUTO 28003KT 7SM CLR 24/23 A3003 RMK AO2=
METAR KPVU 080955Z 12004KT 10SM CLR 17/09 A3013 RMK AO1=
METAR KPWT 080955Z AUTO 03007KT 10SM CLR 23/06 A2998 RMK AO1=
METAR KRBL 080954Z AUTO 00000KT 10SM CLR 23/17 A2982 RMK AO2 SLP094 
    T02330172=
METAR KRDG 080954Z 00000KT 6SM HZ CLR 24/21 A3001 RMK AO2 SLP165 
    T02390206=
METAR KRKD 080955Z AUTO 20003KT 1/2SM OVC002 18/17 A3010 RMK AO1=
METAR KRKR 080954Z AUTO 00000KT 10SM OVC031 27/26 A3003 RMK AO2=
METAR KRKS 080954Z AUTO 08007KT 10SM FEW110 08/05 A3034 RMK AO2 
    SLP211 T00830050=
####018002163####
SAXX60 KWBC 081000
METAR
KNZY 080952Z 32006KT 8SM FEW008 OVC014 18/14 A2989 RMK AO2 DZE43
     SLP120 P0000 T01780139 $=
KNFW 080952Z AUTO 10003KT 10SM CLR 26/22 A3004 RMK AO2 SLP156
     T02610222=
KNRB 080952Z AUTO 00000KT 10SM CLR 23/21 A2999 RMK AO2 SLP155
     T02330211=
KBLV 080955Z AUTO 00000KT 10SM FEW045 SCT220 24/24 A3002 RMK AO2
     SLP164 T02420240=
KHMN 080955Z 31006KT 10SM OVC140 21/13 A3013 RMK AO2A SLP124
     T02080135 $=
KLRF 080955Z AUTO 00000KT 10SM OVC170 23/22 A3005 RMK AO2 SLP175
     T02330224=
KNHK 080952Z AUTO 09004KT 3SM BR BKN009 26/24 A2999 RMK AO2 SLP155
     T02610239=
KRDR 080955Z AUTO 25007KT 10SM CLR 14/13 A3004 RMK AO2 SLP182
     T01440128 $=
PWAK 080952Z 08012KT 7SM HZ FEW022 28/24 A2999 RMK AO2A=
KDNK 080953Z AUTO 00000KT 9SM FEW018 24/22 A3000 RMK AO2 SLP156
     T02390217=
KNIP 080953Z 25004KT 10SM CLR 23/21 A3000 RMK AO2 SLP154
     T02280206=
KIAG 080953Z AUTO 20003KT 5SM BR CLR 23/21 A3004 RMK AO2 SLP167
     T02280206=
KNQX 080953Z AUTO 10004KT 10SM SCT080 28/24 A2992 RMK AO2 TSE12
     SLP130 T02780244 $=
PHNL 080953Z 06010KT 10SM FEW032 24/18 A3004 RMK AO2 SLP173
     T02440178 403000222=
PWAK 080952Z 08012KT 7SM HZ FEW022 28/24 A2999 RMK AO2A=
KDTS 080953Z AUTO 00000KT 3SM BR FEW001 25/23 A3001 RMK AO2 SLP160
     T02500233=
PABI 080953Z AUTO 00000KT 10SM CLR 12/08 A3009 RMK AO2 SLP189
     T01170078 TSNO=
KCEF 080955Z AUTO 15003KT 10SM FEW085 24/22 A3005 RMK AO2 SLP176
     T02360217 PWINO $=
KDTS 080953Z AUTO 00000KT 3SM BR FEW001 25/23 A3001 RMK AO2 SLP160
     T02500233=
KGRF 080955Z AUTO 14005KT 10SM CLR 14/11 A2994 RMK AO2 SLP139
     T01400106 $=
KGUS 080955Z AUTO 00000KT 10SM SCT100 23/20 A3004 RMK AO2 SLP167
     T02290204=
KNZY 080952Z 32006KT 8SM FEW008 OVC014 18/14 A2989 RMK AO2 DZE43
     SLP120 P0000 T01780139 $=
KOZR 080955Z AUTO 00000KT 5SM R06/4000V5500FT BR CLR 22/22 A3002
     RMK AO2 SLP162 T02180218=
KPOB 080955Z AUTO 00000KT 10SM CLR 23/20 A2995 RMK AO2 SLP141
     T02300197 $=
KNKT 080954Z AUTO 04004KT 4SM HZ CLR 26/23 A2992 RMK AO2 SLP128
     T02610233 $=
####018000342####
SANL31 KWBC 080950
METAR
EHAM NIL=
EHBD NIL=
EHBK NIL=
EHDL NIL=
EHEH 080955Z AUTO 26006KT 9999NDV NCD 29/12 Q1019 BLU BLU=
EHGG NIL=
EHGR NIL=
EHHO NIL=
EHHV NIL=
EHKD NIL=
EHLE NIL=
EHLW NIL=
EHMZ NIL=
EHRD NIL=
EHSB NIL=
EHTE NIL=
EHTW NIL=
EHTX NIL=
EHVB NIL=
EHVK NIL=
EHVL NIL=
EHWO NIL=
####018001316####
SANO42 KWBC 080950
METAR
ENML 080950Z 08004KT 9999 SCT060 20/09 Q1009=
ENMS 080950Z 21008KT 9999 SCT050 23/08 Q1009=
ENNA 080950Z 18017KT 9999 FEW040 SCT070 19/09 Q1013=
ENNK 080950Z 06005KT 9999 -SHRA FEW040 BKN060 17/10 Q1011=
ENNM 080950Z 24004KT 210V280 CAVOK 18/13 Q1009=
ENNO 080950Z 13007KT 080V200 9999 FEW015 SCT025 BKN120 18/14
     Q1014=
ENOA 080950Z 19025KT CAVOK 13/11 Q1009=
ENOL 080950Z 34011KT 9999 FEW025TCU 17/11 Q1010 NOSIG=
ENOV 080950Z VRB05KT 9999 SCT055 SCT085 19/06 Q1009=
ENRA 080950Z 14003KT 9999 SCT070 21/09 Q1009=
ENRM 080950Z 09003KT 030V170 CAVOK 19/10 Q1010=
ENRO 080950Z 20010KT 160V230 9999 FEW030 SCT060 BKN110 18/07
     Q1011=
ENRS 080950Z 20006KT 9999 -SHRA NSC 13/10 Q1010=
ENRY 080950Z 17007KT 150V210 9999 -RA FEW006 BKN009 16/14 Q1016
     TEMPO SCT008 BKN012=
ENSD 080950Z NIL=
ENSG 080950Z 24009KT 210V280 9999 SCT040 16/09 Q1012=
ENSH 080950Z 10007KT 9999 FEW040 SCT080 16/09 Q1010=
ENSK 080950Z 15002KT CAVOK 19/10 Q1010=
ENSN 080950Z 18007KT 9999 SCT015 BKN070 16/14 Q1015=
ENSO 080950Z 19013KT 9999 SCT020TCU 18/11 Q1013=
ENSR 080950Z 12011KT 9999 FEW040 SCT080 20/09 Q1011=
ENST 080950Z NIL=
ENSV NIL=
ENTO 080950Z 16010KT 9999 VCSH FEW005 BKN013 16/15 Q1016=
ENVD 080950Z 13005KT 9999 BKN023 12/08 Q1017=
####018000028####
SAOM43 KWBC 080950
NIL=
####018001097####
SASN31 KWBC 080950
METAR
ESDB NIL=
ESDF 080950Z 20008KT 160V230 CAVOK 22/11 Q1021=
ESGG 080950Z NIL=
ESGJ 080950Z AUTO 22015KT 9999NDV BKN042/// BKN050/// 22/10
     Q1019=
ESGP 080950Z 19013KT 9999 -RA SCT033CB OVC061 19/15 Q1018=
ESKN 080950Z 25010KT 230V290 9999 FEW045 24/12 Q1018=
ESMK 080950Z 19004KT 140V240 CAVOK 25/12 Q1020=
ESMS 080950Z 20011KT CAVOK 23/10 Q1021=
ESMX 080950Z 25009KT CAVOK 23/11 Q1020=
ESNN 080950Z 14010KT CAVOK 22/13 Q1013=
ESNO 080950Z AUTO 16012KT 9999NDV FEW050/// 20/11 Q1014=
ESNQ 080950Z 20009KT 9999 VCSHRA BKN057 17/09 Q1013=
ESNS 080950Z AUTO 13009KT 110V170 9999NDV ////// 22/10 Q1015=
ESNU 080950Z 16007KT CAVOK 19/13 Q1015=
ESOK 080950Z 20011KT 9999 BKN025 19/13 Q1017=
ESOW 080950Z 22011KT CAVOK 22/13 Q1017=
ESPA 080950Z 15012KT CAVOK 19/14 Q1016=
ESPC NIL=
ESSA 080950Z 23011KT 190V260 CAVOK 23/12 Q1017 NOSIG=
ESSB 080950Z 26010KT CAVOK 24/11 Q1017=
ESSD 080950Z AUTO 24010KT 9999NDV BKN026/// 19/12 Q1016=
ESSN NIL=
ESSP 080950Z 24014KT CAVOK 22/11 Q1018=
ESSV 080950Z 26006KT CAVOK 20/11 Q1019=
####018000491####
SASW31 KWBC 080950
METAR
LSGC 080950Z NIL=
LSGG 080950Z VRB03KT CAVOK 27/11 Q1022 NOSIG=
LSGL NIL=
LSGN NIL=
LSGS 080950Z 23005KT 190V270 9999 FEW100 27/12 Q1021=
LSZA 080950Z 18004KT 140V220 9999 BKN055 26/13 Q1023 NOSIG=
LSZB 080950Z 33004KT 280V020 CAVOK 26/14 Q1022 NOSIG=
LSZD NIL=
LSZG 080950Z NIL=
LSZH 080950Z VRB02KT CAVOK 25/13 Q1022 NOSIG=
LSZL NIL=
LSZR 080950Z 29004KT 260V340 CAVOK 22/15 Q1022 NOSIG RMK G=
LSZS 080950Z 22008KT CAVOK 21/11 Q1027=
####018001092####
SAUK31 KWBC 080950
METAR
EGAA 080950Z 22014KT 9999 SCT024 16/10 Q1014=
EGBB 080950Z 24008KT 180V290 CAVOK 19/10 Q1018=
EGCC 080950Z 23012KT 9999 FEW032 19/10 Q1017=
EGFF 080950Z 20006KT 160V250 9999 SCT019 19/12 Q1019=
EGGD 080950Z 20004KT 130V280 9999 SCT022 SCT026 18/12 Q1019=
EGGP 080950Z 21010KT 170V230 9999 SCT030 SCT044 18/10 Q1017=
EGGW 080950Z 24004KT 170V290 9999 SCT030 20/13 Q1019=
EGHD 080950Z 25001KT 9999 FEW022 19/13 Q1019=
EGHH 080950Z 02002KT 9999 FEW006 BKN012 17/16 Q1019=
EGHI 080950Z 36003KT 310V060 9999 SCT007 BKN013 18/14 Q1019=
EGJB 080950Z VRB03KT 9999 SCT008 BKN010 19/17 Q1019=
EGJJ 080950Z 34004KT 280V030 9999 FEW001 20/17 Q1019 NOSIG=
EGKA 080950Z 21009KT 9999 FEW017 20/17 Q1019=
EGKB 080950Z 25005KT 190V290 9999 BKN025 20/15 Q1019=
EGKK 080950Z 24006KT 9999 BKN018 21/14 Q1018=
EGLF 080950Z 34004KT 300V010 9999 VCSH BKN009 16/14 Q1019=
EGLL 080950Z VRB03KT 9999 SCT012 SCT015 19/14 Q1019=
EGMC 080950Z 22004KT 210V280 9999 FEW024 21/16 Q1019=
EGMD 080950Z 28007KT 9999 BKN015 21/16 Q1019=
EGNH NIL=
EGNJ NIL=
####018000651####
SAUK32 KWBC 080950
METAR
EGNM 080950Z 22011KT 190V250 9999 SCT025 17/10 Q1017=
EGNS 080950Z NIL=
EGNT 080950Z 24010KT 190V290 9999 SCT040 18/10 Q1014=
EGNV 080950Z 22010KT 9999 FEW019 SCT026 18/11 Q1016=
EGNX 080950Z 20011KT CAVOK 19/09 Q1018=
EGPA NIL=
EGPB 080950Z 20016KT CAVOK 15/11 Q1006 NOSIG=
EGPC NIL=
EGPD 080950Z 23016KT 9999 FEW030 17/08 Q1010 NOSIG=
EGPF 080950Z 22017KT 9999 FEW020 SCT030 16/11 Q1013=
EGPH 080950Z 22014KT 9999 FEW030 16/09 Q1013=
EGPK 080950Z 23016KT 9999 SCT025 16/10 Q1014=
EGSH NIL=
EGTE 080950Z 20006KT 070V310 9999 FEW030 21/14 Q1018=
EGTG 080950Z 25007KT 9999 SCT020 18/12 Q1019=
####018000581####
SAUK41 KWBC 080950
METAR
EGAC 080950Z 21014KT 9999 FEW020 SCT031 17/09 Q1014=
EGAE NIL=
EGBE NIL=
EGBJ NIL=
EGDC NIL=
EGDG NIL=
EGDL NIL=
EGDM NIL=
EGDN NIL=
EGDP NIL=
EGDR NIL=
EGDY NIL=
EGFH NIL=
EGGP 080950Z 21010KT 170V230 9999 SCT030 SCT044 18/10 Q1017=
EGGW 080950Z 24004KT 170V290 9999 SCT030 20/13 Q1019=
EGHE 080950Z 19005KT 9999 FEW018 18/13 Q1018=
EGJA 080950Z 24004KT 9999 SCT003 BKN015 17/16 Q1019=
EGLC 080950Z 30008KT 250V340 9999 FEW018 BKN024 19/15 Q1019=
EGNC NIL=
EGNT 080950Z 24010KT 190V290 9999 SCT040 18/10 Q1014=
####018000410####
SAUK42 KWBC 080950
METAR
EGOS NIL=
EGOV NIL=
EGPC NIL=
EGPE NIL=
EGPF 080950Z 22017KT 9999 FEW020 SCT030 16/11 Q1013=
EGPL NIL=
EGPM NIL=
EGPN NIL=
EGPO NIL=
EGPT NIL=
EGPU NIL=
EGPW NIL=
EGQJ NIL=
EGQK NIL=
EGQL NIL=
EGQM NIL=
EGQS NIL=
EGSC NIL=
EGSS 080950Z 24006KT 9999 BKN017 19/14 Q1019=
EGTC 080950Z 21006KT 170V250 9999 -SHRA FEW020 17/12 Q1018=
EGTI NIL=
####018000028####
SAUR31 KWBC 080950
NIL=
####018000261####
SAXX99 KWBC 080900 RRX
METAR
K4O4 080948Z AUTO 10003KT 7SM SCT001 SCT007 23/22 A3004 RMK
     AO2=
MMAN 080949Z 28006KT 10SM SCT040 24/23 A2989 RMK 8/500 RTS=
MMQT 080945Z 06005KT 6SM SCT015 BKN025 BKN120 OVC250 17/015 A3014
     RMK 8/432 DROPS=
####018000639####
SAIY32 LIIB 080950
METAR LIBD 080950Z 36014KT CAVOK 25/12 Q1020=
METAR LIBR 080945Z /////KT 9999 FEW020 25/16 Q1017 NOSIG=
METAR LICC 080950Z 08098KT CAVOK 29/20 Q1018=
METAR LICJ 080950Z NIL=
METAR LIPB 080950Z 16007KT 9999 FEW060 27/12 Q1021=
METAR LIPE 080950Z 11007KT 060V150 CAVOK 28/15 Q1021=
METAR LIPH 080945Z 10001KT 9999 FEW020 SCT080 26/19 Q1023=
METAR LIPK 080950Z 11006KT CAVOK 27/11 Q1021=
METAR LIPQ 080950Z VRB02KT 9999 SCT050 25/13 Q1022=
METAR LIPR 080945Z 08009KT CAVOK 28/17 Q1021=
METAR LIPX 080945Z 12004KT 9999 FEW040 28/12 Q1021=
METAR LIPZ 080950Z 13008KT 9999 FEW050 SCT070 26/17 Q1022=
####018000723####
SAIY31 LIIB 080950
METAR LIEA 080950Z 02004KT 320V100 CAVOK 30/21 Q1019=
METAR LIEE 080950Z NIL=
METAR LIEO 080950Z 05009KT 020V080 9999 FEW030 31/18 Q1020=
METAR LIMC 080950Z NIL=
METAR LIME 080950Z 16007KT 110V190 9999 FEW055 26/14 Q1023=
METAR LIMF 080950Z VRB02KT 9999 FEW030 BKN045 23/15 Q1022=
METAR LIMJ 080950Z 15005KT 9999 FEW035 29/25 Q1020=
METAR LIML 080950Z 13007KT 9999 FEW030 SCT080 26/16 Q1022 NOSIG=
METAR LIRA 080945Z 21007KT 150V290 9999 SCT018 29/19 Q1019=
METAR LIRF 080950Z 21010KT 180V250 9999 FEW020 29/17 Q1020 NOSIG=
METAR LIRN 080950Z 04010KT CAVOK 27/14 Q1019=
METAR LIRP 080945Z 10008KT 060V130 CAVOK 29/15 Q1020 NOSIG=
METAR LIRQ 080950Z VRB02KT CAVOK 30/12 Q1020=
####018000082####
SABZ24 SBPA 081000
METAR SBPA 081000Z 25002KT 9999 BKN021 OVC045 17/14 Q1018=
####018000092####
SALI20 GLRB 081000
METAR GLRB 081000Z 00000KT 9999 SCT016 FEW025CB 28/25 Q1015 CB-S/SW=
####018000377####
SABX31 EBBR 080950
METAR EBAW 080950Z 23007KT 170V290 CAVOK 27/12 Q1019 NOSIG=
METAR EBBR 080950Z 22006KT 190V260 CAVOK 28/11 Q1020 NOSIG=
METAR EBCI 080950Z VRB04KT CAVOK 28/11 Q1020 NOSIG=
METAR EBLG 080950Z 26005KT 200V300 CAVOK 28/08 Q1020 NOSIG=
METAR EBOS 080950Z 29008KT 260V320 CAVOK 20/16 Q1020 NOSIG=
METAR ELLX 080950Z VRB02KT CAVOK 27/09 Q1021 NOSIG=
####018000071####
SALY31 HLLB 081000
METAR HLLB 080950Z 
34019KT CAVOK 30/16 Q1016=
####018000381####
SAOS31 LOWM 080950
METAR LOWW 080950Z 04006KT 330V070 9999 FEW050 22/10 Q1023 NOSIG=
METAR LOWL 080950Z VRB04KT CAVOK 22/09 Q1023 NOSIG=
METAR LOWS 080950Z VRB05KT CAVOK 23/07 Q1023 NOSIG=
METAR LOWI 080950Z VRB01KT CAVOK 23/12 Q1022 NOSIG=
METAR LOWG 080950Z 20003KT 130V260 CAVOK 23/09 Q1023 NOSIG=
METAR LOWK 080950Z 08003KT 330V120 9999 FEW060 22/10 Q1023 NOSIG=
####018000091####
SAOS32 LOWM 080950
METAR LOXZ 080950Z VRB03KT 70KM FEW060CU 21/10 Q1024 NOSIG RMK FEW=
####018000294####
SAFI33 EFHK 080950
EFJO 080950Z AUTO 01004KT 320V050 CAVOK 24/19 Q1015=
EFLP 080950Z VRB05KT CAVOK 30/15 Q1014=
EFMI 080950Z AUTO VRB03KT 9999 SCT034 BKN041 28/19 Q1014=
EFSA 080950Z 35002KT 9999 FEW035 28/18 Q1014=
EFUT 080950Z 14003KT CAVOK 30/17 Q1013=
METAR EFVR 080955Z NIL=
####018000085####
SAUK33 EGGY 080950 RRA
METAR EGNS 080950Z 20010KT 9999 FEW025 17/12 Q1016 NOSIG=
####018000073####
SAMP31 LMMM 081000 RRA
METAR HLLB 080950Z 34019KT CAVOK 30/16 Q1016=
####018000075####
SAMP31 LMMM 081000 RRA
METAR HLLB 080950Z 
34019KT CAVOK 30/16 Q1016=
####018000078####
SAMP31 LMMM 081000 RRB
METAR HLLT 080950Z
VRB02KT 8000 SKC 30/19 Q1019=
####018000078####
SAMP31 LMMM 081000 RRB
METAR HLLT 080950Z 
VRB02KT 8000 SKC 30/19 Q1019=
####018000074####
SAMP31 LMMM 081000 RRA
METAR HLLB 080950Z
34019KT CAVOK 30/16 Q1016=
####018000096####
SAUK31 EGGY 080950 CCA
METAR COR EGLL 080950Z VRB03KT 9999 SCT012 SCT015 19/14 Q1019 NOSIG=
####018000085####
SAIY31 LIIB 080950 RRA
METAR LIMC 080950Z VRB02KT 9999 FEW050 27/15 Q1022 NOSIG=
####018000073####
SAIY32 LIIB 080950 RRA
METAR LICJ 080950Z 06009KT CAVOK 28/22 Q1018=
####018000074####
SALY31 HLLT 081000
METAR HLLT 080950Z 
VRB02KT 8000 SKC 30/19 Q1019=
####018001667####
SAEU KAWN 081000 RRC
METAR EBAW 080950Z 23007KT 170V290 CAVOK 27/12 Q1019 NOSIG=
METAR EBBR 080950Z 22006KT 190V260 CAVOK 28/11 Q1020 NOSIG=
METAR EBCI 080950Z VRB04KT CAVOK 28/11 Q1020 NOSIG=
METAR EBLG 080950Z 26005KT 200V300 CAVOK 28/08 Q1020 NOSIG=
METAR EBOS 080950Z 29008KT 260V320 CAVOK 20/16 Q1020 NOSIG=
METAR EDFH 080950Z 13006KT 070V210 CAVOK 25/09 Q1022=
METAR EDHI 080950Z 19007KT 150V250 CAVOK 27/10 Q1019=
METAR EDHL 080950Z 15009KT 120V190 CAVOK 27/14 Q1020=
METAR EDLN 080950Z 22005KT 150V260 CAVOK 28/10 Q1019=
METAR EDLW 080950Z 20009KT CAVOK 29/09 Q1020=
METAR EDMA 080950Z 13006KT 090V170 CAVOK 24/09 Q1023=
METAR EDMO 080950Z 11006KT 080V160 CAVOK 23/08 Q1023=
METAR EDNY 080950Z 20004KT CAVOK 24/14 Q1022=
METAR EDSB 080950Z 33004KT 280V360 CAVOK 27/13 Q1021=
METAR EDTL 080950Z VRB02KT CAVOK 27/11 Q1020=
METAR EDVK 080950Z 19010KT CAVOK 25/10 Q1022=
METAR EDXW 080950Z 21012KT CAVOK 23/12 Q1018=
METAR ELLX 080950Z VRB02KT CAVOK 27/09 Q1021 NOSIG=
METAR ENEK 080950Z 22014KT CAVOK 15/13 Q1015 W15/S3=
METAR ENGC 080950Z 19027KT CAVOK 13/11 Q1008=
METAR ENHE 080950Z 18023KT 9999 FEW040 SCT100 14/11 Q1008=
METAR ENNO 080950Z 13007KT 080V200 9999 FEW015 SCT025 BKN120 18/14
      Q1014=
METAR ENOA 080950Z 19025KT CAVOK 13/11 Q1009=
METAR LOWG 080950Z 20003KT 130V260 CAVOK 23/09 Q1023 NOSIG=
METAR LOWI 080950Z VRB01KT CAVOK 23/12 Q1022 NOSIG=
METAR LOWK 080950Z 08003KT 330V120 9999 FEW060 22/10 Q1023 NOSIG=
METAR LOWL 080950Z VRB04KT CAVOK 22/09 Q1023 NOSIG=
METAR LOWS 080950Z VRB05KT CAVOK 23/07 Q1023 NOSIG=
METAR LOWW 080950Z 04006KT 330V070 9999 FEW050 22/10 Q1023 NOSIG=
####018001370####
SAUS17 KAWN 081000 RRA
METAR KBAD 080955Z AUTO 00000KT 10SM CLR 24/23 A3003 RMK AO2 SLP169
      T02390232 $=
METAR KBLV 080955Z AUTO 00000KT 10SM FEW045 SCT220 24/24 A3002 RMK
      AO2 SLP164 T02420240=
METAR KCEF 080955Z AUTO 15003KT 10SM FEW085 24/22 A3005 RMK AO2 SLP176
      T02360217 PWINO $=
METAR KDAA 080955Z AUTO 00000KT 8SM FEW095 24/21 A2999 RMK AO2 SLP157
      T02360210=
METAR KEDW 080955Z AUTO 20005KT 10SM CLR 20/05 A2986 RMK AO2 SLP059
      T01960055=
METAR KFBG 080955Z AUTO 34004KT 10SM CLR 25/19 A2994 RMK AO2 SLP137
      T02510186 $=
METAR KFHU 080955Z 14005KT 10SM FEW120 23/10 A3006 RMK SLP101=
METAR KGRF 080955Z AUTO 14005KT 10SM CLR 14/11 A2994 RMK AO2 SLP139
      T01400106 $=
METAR KGUS 080955Z AUTO 00000KT 10SM SCT100 23/20 A3004 RMK AO2 SLP167
      T02290204=
METAR KHMN 080955Z 31006KT 10SM OVC140 21/13 A3013 RMK AO2A SLP124
      T02080135 $=
METAR KIAB 080955Z AUTO 34009KT 10SM CLR 22/20 A3008 RMK AO2 SLP175
      T02160204=
METAR KLRF 080955Z AUTO 00000KT 10SM OVC170 23/22 A3005 RMK AO2 SLP175
      T02330224=
METAR KMGE 080955Z 00000KT 10SM CLR 22/19 A3004 RMK AO2A SLP162 T02180191
      $=
METAR KMMT 080955Z AUTO 30005KT 10SM CLR 22/19 A2998 RMK AO2 SLP150
      T02250188=
METAR KMTC 080955Z 00000KT 5SM BR FEW040 FEW140 SCT240 22/22 A3001
      RMK SLP167=
####018001404####
SAZZ40 KAWN 081000 RRC
METAR KBAD 080955Z AUTO 00000KT 10SM CLR 24/23 A3003 RMK AO2 SLP169
      T02390232 $=
METAR KDAA 080955Z AUTO 00000KT 8SM FEW095 24/21 A2999 RMK AO2 SLP157
      T02360210=
METAR KEDW 080955Z AUTO 20005KT 10SM CLR 20/05 A2986 RMK AO2 SLP059
      T01960055=
METAR KFBG 080955Z AUTO 34004KT 10SM CLR 25/19 A2994 RMK AO2 SLP137
      T02510186 $=
METAR KFHU 080955Z 14005KT 10SM FEW120 23/10 A3006 RMK SLP101=
METAR KIAB 080955Z AUTO 34009KT 10SM CLR 22/20 A3008 RMK AO2 SLP175
      T02160204=
METAR KMGE 080955Z 00000KT 10SM CLR 22/19 A3004 RMK AO2A SLP162 T02180191
      $=
METAR KMMT 080955Z AUTO 30005KT 10SM CLR 22/19 A2998 RMK AO2 SLP150
      T02250188=
METAR KMTC 080955Z 00000KT 5SM BR FEW040 FEW140 SCT240 22/22 A3001
      RMK SLP167=
METAR KRND 080955Z AUTO 05006KT 10SM SCT012 BKN020 25/24 A2994 RMK
      AO2 SLP127 T02480236=
METAR KSUU 080955Z AUTO 23019G27KT 10SM BKN170 12/10 A2982 RMK AO2
      PK WND 24028/0915 SLP101 T01240101 RVRNO $=
METAR KTOI 080953Z AUTO 00000KT 10SM CLR 22/21 A3003 RMK AO2 SLP163
      T02170211=
METAR TIST 080953Z AUTO 10006KT 10SM CLR 27/24 A2997 RMK AO2 SLP150
      T02720239 TSNO=
METAR TISX 080953Z 07007KT 10SM BKN023 OVC029 27/24 A2997 RMK AO2 SLP148
      T02720239=
METAR TXKF 080955Z 17014KT 9999 FEW013TCU SCT060 BKN170 BKN300 25/23
      Q1018 RMK TCU DSNT N=
####018000117####
SAUS41 KLWX 080956
MTRRSP
METAR KRSP 080954Z AUTO 08005KT 7SM FEW080 26/16 A3010 RMK AO2 
SLP177 T02560156 $
####018000093####
SAIN90 VECC 080950
METAR VECC 080950Z 19012KT 4500 HZ SCT018 FEW030CB 33/25 Q1004 NOSIG=
####018001701####
SAEU KAWN 081000 RRD
METAR EGUL 080955Z AUTO 24009KT 9999 BKN028 OVC170 20/13 A3007 RMK
      AO2 SLP183 T01970126=
METAR ENCN 080950Z 20007KT 5000 BR VV003 16/16 Q1015=
METAR ENOV 080950Z VRB05KT 9999 SCT055 SCT085 19/06 Q1009=
METAR ENSB 080950Z 27010KT 9999 FEW010 SCT035 BKN060 08/06 1008 NOSIG=
METAR ENSG 080950Z 24009KT 210V280 9999 SCT040 16/09 Q1012=
METAR ENSN 080950Z 18007KT 9999 SCT015 BKN070 16/14 Q1015=
METAR ENSR 080950Z 12011KT 9999 FEW040 SCT080 20/09 Q1011=
METAR ENSS 080950Z 06002KT 999 BKN014 09/08 Q1018=
METAR ENTC 080950Z 29004KT 9999 FEW065 17/07 Q1011 NOSIG=
METAR ENTO 080950Z 16010KT 9999 VCSH FEW005 BKN013 16/15 Q1016=
METAR ETAD 080955Z AUTO 00000KT 9999 CLR 27/10 A3017 RMK AO2 SLP200
      T02670097 $=
METAR LIBD 080950Z 36014KT CAVOK 25/12 Q1020=
METAR LIBR 080945Z /////KT 9999 FEW020 25/16 Q1017 NOSIG=
METAR LICC 080950Z 08098KT CAVOK 29/20 Q1018=
METAR LIEA 080950Z 02004KT 320V100 CAVOK 30/21 Q1019=
METAR LIME 080950Z 16007KT 110V190 9999 FEW055 26/14 Q1023=
METAR LIML 080950Z 13007KT 9999 FEW030 SCT080 26/16 Q1022 NOSIG=
METAR LIPB 080950Z 16007KT 9999 FEW060 27/12 Q1021=
METAR LIPE 080950Z 11007KT 060V150 CAVOK 28/15 Q1021=
METAR LIPH 080945Z 10001KT 9999 FEW020 SCT080 26/19 Q1023=
METAR LIPK 080950Z 11006KT CAVOK 27/11 Q1021=
METAR LIPQ 080950Z VRB02KT 9999 SCT050 25/13 Q1022=
METAR LIPR 080945Z 08009KT CAVOK 28/17 Q1021=
METAR LIPX 080945Z 12004KT 9999 FEW040 28/12 Q1021=
METAR LIPZ 080950Z 13008KT 9999 FEW050 SCT070 26/17 Q1022=
METAR LIRA 080945Z 21007KT 150V290 9999 SCT018 29/19 Q1019=
METAR LIRN 080950Z 04010KT CAVOK 27/14 Q1019=
METAR LIRQ 080950Z VRB02KT CAVOK 30/12 Q1020=
####018000616####
SPNA14 KAWN 080956 RRI
SPECI KEGI 080950Z AUTO 00000KT 1SM R18/1000V5000FT BR CLR 21/21 A3002
      RMK AO2 VIS 1/2V5 SLP166 $=
SPECI KEGI 080952Z AUTO 00000KT 3/4SM R18/1000V5000FT BR CLR 21/21
      A3002 RMK AO2 SLP167 $=
SPECI KNSE 080941Z AUTO 00000KT 2SM BR CLR 23/21 A3002 RMK AO2 VIS
      1V4 $=
SPECI KNSE 080948Z AUTO 00000KT 1 1/4SM BR CLR 23/21 A3002 RMK AO2
      $=
SPECI KOZR 080950Z AUTO 00000KT 6SM R06/4500V5500FT BR CLR 22/22 A3002
      RMK AO2 SLP163=
SPECI KWRI 080951Z AUTO 11005KT M1/4SM R18/0200V1800FT R24/0300V0700FT
      FG VV001 23/23 A3000 RMK AO2 SLP160 $=
####018001239####
SAXX70 KAWN 081000 RRC
METAR KQEQ 080950Z AUTO 04001KT 7SM DZ BKN080 24/21 A2979 RMK A02=
METAR KQEX 080950Z AUTO 08002KT 6SM BR CLR 28/19 A2973 RMK A02=
METAR KQAQ 080955Z 30011G20KT 8000 BLDU HZ CLR 44/08 A2964 RMK SLP034
      PA +377 DA +3709=
METAR KQCQ 080955Z 33027G36KT 9999 CLR 47/M02 A2956 RMK PK WND 32037/30
      SLP008=
METAR KQGX 080955Z VRB05KT 9999 FEW190 FEW220 44/18 A2952 RMK AO2A
      SLP995=
METAR KQHT 080955Z 30005G12KT 9999 SCT150 SCT200 34/M11 A2992 RMK SLP093
      WND DATA ESTMD ALSTG/SLP ESTMD=
METAR KQHY 080955Z AUTO 35003KT 12SM FEW009 24/23 A3005 RMK AO2 SLP175
      T02390225=
METAR KQMG 080955Z AUTO 04010KT 12SM CLR 20/14 A3016 RMK AO2 SLP137
      T02030139 $=
METAR KQRH 080955Z AUTO 11003G11KT 9999 CLR 36/23 A2960 RMK AO2 SLP023=
METAR KQSA 080955Z VRB05KT 9999 SCT120 35/12 A2994 RMK SLP330 WND DATA
      ESTMD ALSTG/SLP ESTMD=
METAR KQTI 080955Z AUTO 31003G11KT 9999 FEW200 43/01 A2968 RMK AO2
      SLP024 T04310005 $=
METAR KQTZ 080955Z 31010G18KT 9000 HZ CLR 43/07 A2963 RMK SLP027 QNH1003MB
      ALSTG/SLP ESTMD WND DATA ESTMD 56003=
METAR KQVF 080955Z AUTO 20008G17KT 170V230 12SM SCT027 BKN040 27/20
      A3003 RMK AO2 SLP167 T02690200=
####018000281####
SPUS17 KAWN 080956 RRF
SPECI KAFF 080950Z AUTO 18008KT 10SM OVC010 12/12 A3039 RMK AO2 CIG
      006V013 SLP203=
SPECI KDOV 080954Z AUTO 07003KT 1 3/4SM BR FEW007 24/ A3000 RMK AO2
      SLP161 $=
SPECI KFCS 080949Z AUTO 19005KT 10SM BKN030 14/11 A3037 RMK AO2 SLP213=
####018001770####
SAUS20 KNKA 080956
METAR K04W 080954Z AUTO 00000KT 10SM CLR 15/15 A3007 RMK AO2 
     T01520147=
METAR K4BM 080954Z AUTO 21005KT 1/4SM FG 05/04 A3063 RMK AO2=
METAR K5SM 080953Z AUTO 11004KT 10SM CLR 08/01 A3055 RMK AO2=
METAR K7BM 080956Z AUTO 00000KT 10SM OVC028 10/06 A3055 RMK AO2=
METAR KBDU 080957Z AUTO 28004KT 10SM BKN005 BKN010 15/14 A3032 RMK
     AO2=
METAR KBJC 080957Z AUTO 00000KT 7SM BKN075 13/12 A3033 RMK AO2=
METAR KC29 080955Z AUTO 25003KT 10SM CLR 21/20 A3002 RMK AO2 
     T02100195=
METAR KCCU 080956Z AUTO 18022KT 10SM CLR 05/02 A3064 RMK AO2=
METAR KDEQ 080953Z AUTO 08003KT 10SM BKN006 BKN015 OVC032 24/23 
    A3002 RMK AO2 SLP161 T02440233=
METAR KDLL 080954Z AUTO 27003KT 5SM BR OVC004 21/20 A3002 RMK AO2=
METAR KGGG 080953Z AUTO 09003KT 10SM CLR 24/24 A3002 RMK AO2 SLP159 
    T02440239=
METAR KGOK 080953Z AUTO 36003KT 10SM FEW025 BKN049 23/21 A3004 RMK 
    AO2 SLP163 T02280211=
METAR KGTU 080955Z 09004KT 3SM SCT008 BKN015 OVC022 24/22 A3000 RMK 
    AO1 P0016=
METAR KHYI 080955Z AUTO 04005KT 10SM SCT013 BKN020 OVC049 25/24 
    A2994 RMK AO1=
METAR KILE 080955Z 10005KT 10SM BKN010 BKN019 OVC035 24/22 A2997 RMK 
    AO1=
METAR KMYP 080856Z AUTO 06008KT M1/4SM +SN OVC001 03/02 A3075 RMK
     AO2=
METAR KOCH 080955Z AUTO 09005KT 10SM CLR 24/19 A3000 RMK AO1=
METAR KPRX 080955Z 11004KT 5SM FEW005 BKN011 OVC021 24/22 A3003 RMK 
    AO1=
METAR KPWG 080955Z AUTO 10005KT 9SM SCT011 BKN026 OVC033 25/22 A2999 
    RMK AO1=
METAR KTPL 080955Z 09006KT 7SM SCT010 BKN025 OVC038 24/23 A2998 RMK 
    AO1 
      P0001=
METAR KVTP 081000Z AUTO 08004KT 1/2SM BKN001 05/05 A3056 RMK AO2
     VIS 1/4V5=
METAR KWYS 080950Z AUTO 00000KT 10SM CLR 00/M01 A3036 RMK AO2=
####018000122####
SAUS45 KABQ 080956 COR
MTRCQC
METAR KCQC 080953Z AUTO 05007KT 10SM CLR 12/09 A3035 RMK AO2 SLP219 
T01170089 TSNO
####018000119####
SAUS44 KMAF 080956 COR
MTR6R6
METAR K6R6 080953Z AUTO 01004KT 22/21 A3000 RMK AO2 SLP123 T02220206 
PWINO TSNO
####018001666####
SAEU KAWN 081000 RRE
METAR ENAL 080950Z 18012KT 150V210 9999 SCT060 19/08 Q1009=
METAR ENAT 080950Z 17008KT 9999 FEW045 SCT080 20/10 Q1013=
METAR ENBS 080950Z 04006KT 9999 FEW002 SCT025 11/09 Q1017=
METAR ENHD 080950Z 20011KT 9999 FEW020 16/12 Q1014=
METAR ENHV 080950Z VRB01KT CAVOK 11/08 Q1014=
METAR ENKB 080950Z 13005KT 070V190 CAVOK 21/11 Q1009=
METAR ENKR 080950Z 17006KT 9999 BKN012 13/09 Q1018=
METAR ENLK 080950Z 19007KT CAVOK 18/10 Q1011=
METAR ENMH 080950Z 16007KT 9999 FEW015 15/09 Q1016=
METAR ENML 080950Z 08004KT 9999 SCT060 20/09 Q1009=
METAR ENMS 080950Z 21008KT 9999 SCT050 23/08 Q1009=
METAR ENNA 080950Z 18017KT 9999 FEW040 SCT070 19/09 Q1013=
METAR ENNK 080950Z 06005KT 9999 -SHRA FEW040 BKN060 17/10 Q1011=
METAR ENNM 080950Z 24004KT 210V280 CAVOK 18/13 Q1009=
METAR ENRM 080950Z 09003KT 030V170 CAVOK 19/10 Q1010=
METAR ENRO 080950Z 20010KT 160V230 9999 FEW030 SCT060 BKN110 18/07
      Q1011=
METAR ENRS 080950Z 20006KT 9999 -SHRA NSC 13/10 Q1010=
METAR ENRY 080950Z 17007KT 150V210 9999 -RA FEW006 BKN009 16/14 Q1016
      TEMPO SCT008 BKN012=
METAR ENSK 080950Z 15002KT CAVOK 19/10 Q1010=
METAR ENSO 080950Z 19013KT 9999 SCT020TCU 18/11 Q1013=
METAR ENVD 080950Z 13005KT 9999 BKN023 12/08 Q1017=
METAR ETOU 080955Z AUTO 17006KT 9999 CLR 27/11 A3016 RMK AO2 SLP209
      T02720110=
METAR LIEO 080950Z 05009KT 020V080 9999 FEW030 31/18 Q1020=
METAR LIMF 080950Z VRB02KT 9999 FEW030 BKN045 23/15 Q1022=
METAR LIMJ 080950Z 15005KT 9999 FEW035 29/25 Q1020=
METAR LIRF 080950Z 21010KT 180V250 9999 FEW020 29/17 Q1020 NOSIG=
METAR LIRP 080945Z 10008KT 060V130 CAVOK 29/15 Q1020 NOSIG=
####018001614####
SANA14 KAWN 081000
METAR KEGI 080955Z AUTO 00000KT 3/4SM R18/1000V5000FT BR CLR 21/21
      A3002 RMK AO2 SLP167 T02130208 $=
METAR KNHK 080952Z AUTO 09004KT 3SM BR BKN009 26/24 A2999 RMK AO2 SLP155
      T02610239=
METAR KNZY 080952Z 32006KT 8SM FEW008 OVC014 18/14 A2989 RMK AO2 DZE43
      SLP120 P0000 T01780139 $=
METAR KOFF 080955Z AUTO 36003KT 10SM CLR 20/20 A3012 RMK AO2 DZB0918E0930
      SLP189 P0000 T01990196 $=
METAR KOZR 080955Z AUTO 00000KT 5SM R06/4000V5500FT BR CLR 22/22 A3002
      RMK AO2 SLP162 T02180218=
METAR KPOB 080955Z AUTO 00000KT 10SM CLR 23/20 A2995 RMK AO2 SLP141
      T02300197 $=
METAR KRDR 080955Z AUTO 25007KT 10SM CLR 14/13 A3004 RMK AO2 SLP182
      T01440128 $=
METAR KRND 080955Z AUTO 05006KT 10SM SCT012 BKN020 25/24 A2994 RMK
      AO2 SLP127 T02480236=
METAR KSKF 080955Z 05006KT 10SM OVC013 25/ A2992 RMK AO2A RAB0909E0945DZB0910E0912B0929E0935
      CIG 011V017 OVC V BKN SLP122 P0000 T0254 $=
METAR KSSC 080955Z AUTO 29008KT 10SM CLR 25/19 A2995 RMK AO2 SLP141
      T02530186 $=
METAR KSUU 080955Z AUTO 23019G27KT 10SM BKN170 12/10 A2982 RMK AO2
      PK WND 24028/0915 SLP101 T01240101 RVRNO $=
METAR KTBN 080955Z AUTO 00000KT 10SM BKN020 23/ A3006 RMK AO2 SLP162
      T0227 $=
METAR KVAD 080955Z AUTO 00000KT 10SM CLR 21/19 A3001 RMK AO2 SLP161
      T02090195 $=
METAR KWRI 080955Z AUTO 11006KT M1/4SM R18/0200V0300FT R24/0300V0700FT
      FG VV001 23/23 A3001 RMK AO2 SLP162 T02280228 $=
METAR MSLP 080950Z 10002KT 9999 SCT023 BKN060 24/23 Q1010 A2985=
METAR SBBR 081000Z 33002KT CAVOK 13/09 Q1023=
####018001475####
SAZZ40 KAWN 081000 RRD
METAR ETAD 080955Z AUTO 00000KT 9999 CLR 27/10 A3017 RMK AO2 SLP200
      T02670097 $=
METAR ETOU 080955Z AUTO 17006KT 9999 CLR 27/11 A3016 RMK AO2 SLP209
      T02720110=
METAR KCBM 080955Z AUTO 34003KT 10SM CLR 24/23 A3004 RMK AO2 SLP173
      T02410227 $=
METAR KDYS 080955Z AUTO 02005KT 10SM R16/5500VP6000FT CLR 21/21 A3004
      RMK AO2 SLP153 T02100208 $=
METAR KFTK 080955Z AUTO 00000KT 10SM CLR 22/21 A3007 RMK AO2 SLP176
      T02230210=
METAR KHIF 080955Z AUTO VRB03KT 10SM CLR 18/07 A3012 RMK AO2 SLP094
      T01770071 $=
METAR KMUI 080955Z AUTO 00000KT 9SM CLR 22/19 A3003 RMK AO2 SLP166
      T02180194 $=
METAR KMUO 080955Z AUTO 00000KT 10SM CLR 15/01 A3006 RMK AO2 SLP155
      T01490009=
METAR KOFF 080955Z AUTO 36003KT 10SM CLR 20/20 A3012 RMK AO2 DZB0918E0930
      SLP189 P0000 T01990196 $=
METAR KWRI 080955Z AUTO 11006KT M1/4SM R18/0200V0300FT R24/0300V0700FT
      FG VV001 23/23 A3001 RMK AO2 SLP162 T02280228 $=
METAR PABI 080953Z AUTO 00000KT 10SM CLR 12/08 A3009 RMK AO2 SLP189
      T01170078 TSNO=
METAR PAEI 080955Z AUTO 00000KT 10SM CLR 11/07 A3004 RMK AO2 SLP175
      T01120066 $=
METAR PASC 080953Z 25010KT 10SM OVC028 11/07 A3001 RMK AO2 SLP163 T01060072=
METAR PHHI 080955Z AUTO 04004KT 10SM CLR 21/18 A3006 RMK AO2 RAE0901
      SLP168 P0000 T02110180 402750188=
METAR RODN 080955Z AUTO 18011G17KT 9999 FEW075 29/26 A2983 RMK AO2
      SLP099 T02910260=
####018001686####
SANA35 KAWN 081000
METAR KBAD 080955Z AUTO 00000KT 10SM CLR 24/23 A3003 RMK AO2 SLP169
      T02390232 $=
METAR KBRO 080953Z 32004KT 10SM -RA SCT021 SCT027 BKN040 26/25 A2977
      RMK AO2 RAB50 SLP078 P0000 T02610250=
METAR KDOV 080955Z AUTO 08003KT 1 3/4SM BR FEW007 24/ A3000 RMK AO2
      SLP161 T0235 $=
METAR KFLL 080953Z 06007KT 10SM FEW020 28/24 A2992 RMK AO2 SLP132 T02780244=
METAR KHST 080955Z AUTO 05004KT 9SM -RA FEW085 25/24 A2993 RMK AO2
      RAB0902E0920B0938DZB0856E0902 SLP136 P0003 T02520236 $=
METAR KJFK 080951Z 13003KT 3SM BR SCT005 SCT090 BKN120 BKN250 26/23
      A3003 RMK AO2 SLP168 T02560233 $=
METAR KMCO 080953Z 35003KT 10SM FEW015 22/21 A2999 RMK AO2 SLP153 T02170206=
METAR KNHK 080952Z AUTO 09004KT 3SM BR BKN009 26/24 A2999 RMK AO2 SLP155
      T02610239=
METAR KOFF 080955Z AUTO 36003KT 10SM CLR 20/20 A3012 RMK AO2 DZB0918E0930
      SLP189 P0000 T01990196 $=
METAR KPBI 080953Z 04007KT 10SM SCT023TCU BKN040 BKN250 27/24 A2993
      RMK AO2 SLP134 TCU OHD AND NE CB DSNT SE T02720239=
METAR KPOB 080955Z AUTO 00000KT 10SM CLR 23/20 A2995 RMK AO2 SLP141
      T02300197 $=
METAR KWRI 080955Z AUTO 11006KT M1/4SM R18/0200V0300FT R24/0300V0700FT
      FG VV001 23/23 A3001 RMK AO2 SLP162 T02280228 $=
METAR MMVR 080945Z 00000KT 7SM SCT012CB BKN080 BKN220 24/24 A2980 RMK
      60945 8/963 +RA INTMT E30 VRB COND=
METAR TIST 080953Z AUTO 10006KT 10SM CLR 27/24 A2997 RMK AO2 SLP150
      T02720239 TSNO=
METAR TISX 080953Z 07007KT 10SM BKN023 OVC029 27/24 A2997 RMK AO2 SLP148
      T02720239=
METAR TXKF 080955Z 17014KT 9999 FEW013TCU SCT060 BKN170 BKN300 25/23
      Q1018 RMK TCU DSNT N=
####018000118####
SPCN47 CWAO 080956
SPECI CYZE 080956Z AUTO 00000KT 3SM BR OVC002 20/20 A2998 RMK SLP152
 DENSITY ALT 1300FT=

####018000148####
SAUS44 KMRX 080956 COR
MTRGDP
METAR KGDP 080951Z AUTO 06014G21KT 1/4SM FG VV005 17/17 A3023 RMK 
AO2 RAB0853E36 SLP161 P0000 T01670167 TSNO
####018000160####
SAUS44 KCRP 080956 COR
MTRVCT
METAR KVCT 080951Z AUTO 07009KT 3SM +RA BR SCT015 BKN026 OVC095 
25/24 A2988 RMK AO2 RAB0853E21B47 SLP116 P0017 T02500244
####018000078####
SAET20 HAAB 081000
METAR HAAB 081000Z 21010KT 9999 BKN025 21/14 Q1024=

####018001642####
SAXN17 KAWN 081000 RRA
METAR MGGT 081000Z 18006KT 9999 BKN015 17/14 Q1022 A3018 FEW080 NOSIG=
METAR MMMX 080947Z 00000KT 2SM -RA SCT008 BKN020 OVC070 15/14 A3018
      NOSIG RMK 60135 8/47/ VSBY TWR LWR CLOUDS-NE=
METAR MMQT 080945Z 06005KT 6SM SCT015 BKN025 BKN120 OVC250 17/015 A3014
      RMK 8/432 DROPS=
METAR MMTO 080945Z 00000KT 3SM HZ SCT015 OVC070 13/11 A3023 RMK 8/47/
      -RA E35 CB VC OCNL DROPS=
METAR MMVR 080945Z 00000KT 7SM SCT012CB BKN080 BKN220 24/24 A2980 RMK
      60945 8/963 +RA INTMT E30 VRB COND=
METAR NFFN 081000Z 14006KT 40KM FEW030 22/19 Q1014 NOSIG RMK RR NIL=
PACZ SA 0955 AWOS MM 10 50/49/0308/007=
METAR PAED 080955Z AUTO 00000KT 10SM FEW080 11/10 A2999 RMK AO2 RAB0905E0919DZB0919E0921
      SLP157 P0000 T01140101 $=
METAR PAEI 080955Z AUTO 00000KT 10SM CLR 11/07 A3004 RMK AO2 SLP175
      T01120066 $=
PAIM SA 0955 AWOS CLR BLO 120 10 52/45/3104/009=
PALU SA 0955 AWOS CLR BLO 120 10 55/35/2116/010=
PASV SA 0955 AWOS 36 SCT 80 SCT M90 BKN 10 49/46/0000/997=
PATL SA 0955 AWOS CLR BLO 120 10 60/43/0305/000=
METAR PHHI 080955Z AUTO 04004KT 10SM CLR 21/18 A3006 RMK AO2 RAE0901
      SLP168 P0000 T02110180 402750188=
METAR PHJR 080953Z 00000KT 10SM SCT050 23/18 A3005 RMK AO2 SLP183 T02330183
      403060217=
METAR PTRO 080953Z 00000KT 14SM SCT016TCU BKN120 BKN300 26/24 A2985
      RMK TCU VC ALQDS=
METAR RODN 080955Z AUTO 18011G17KT 9999 FEW075 29/26 A2983 RMK AO2
      SLP099 T02910260=
METAR TAPA 081000Z 06011KT 9999 FEW020 28/24 Q1015=
METAR TXKF 080955Z 17014KT 9999 FEW013TCU SCT060 BKN170 BKN300 25/23
      Q1018 RMK TCU DSNT N=
####018001491####
SAUS17 KAWN 081000 RRB
METAR KAFF 080955Z AUTO 18007KT 10SM SCT007 OVC012 12/12 A3039 RMK
      AO2 CIG 011V015 SLP204 T01230118=
METAR KBAB 080955Z AUTO 15005KT 10SM SCT180 17/12 A2981 RMK AO2 SLP096
      T01700118 $=
METAR KCBM 080955Z AUTO 34003KT 10SM CLR 24/23 A3004 RMK AO2 SLP173
      T02410227 $=
METAR KDOV 080955Z AUTO 08003KT 1 3/4SM BR FEW007 24/ A3000 RMK AO2
      SLP161 T0235 $=
METAR KDYS 080955Z AUTO 02005KT 10SM R16/5500VP6000FT CLR 21/21 A3004
      RMK AO2 SLP153 T02100208 $=
METAR KFSI 080955Z AUTO 03004KT 10SM FEW230 23/22 A3005 RMK AO2 SLP157
      T02260218=
METAR KFTK 080955Z AUTO 00000KT 10SM CLR 22/21 A3007 RMK AO2 SLP176
      T02230210=
METAR KGSB 080955Z AUTO 06003KT 10SM FEW170 25/20 A2992 RMK AO2 SLP131
      T02540199 $=
METAR KHFF 080955Z AUTO 32004KT 10SM CLR 22/18 A2997 RMK AO2 SLP145
      T02160176 $=
METAR KHIF 080955Z AUTO VRB03KT 10SM CLR 18/07 A3012 RMK AO2 SLP094
      T01770071 $=
METAR KHST 080955Z AUTO 05004KT 9SM -RA FEW085 25/24 A2993 RMK AO2
      RAB0902E0920B0938DZB0856E0902 SLP136 P0003 T02520236 $=
METAR KLHW 080955Z AUTO 23003KT 10SM CLR 22/20 A2998 RMK AO2 SLP155
      T02160199=
METAR KLSF 080955Z AUTO 00000KT 4SM R15/2800VP6000FT BR CLR 21/20 A3001
      RMK AO2 SLP162 T02100204 $=
METAR KMUI 080955Z AUTO 00000KT 9SM CLR 22/19 A3003 RMK AO2 SLP166
      T02180194 $=
METAR KMUO 080955Z AUTO 00000KT 10SM CLR 15/01 A3006 RMK AO2 SLP155
      T01490009=
####018001558####
SAZZ40 KAWN 081000 RRE
METAR KAFF 080955Z AUTO 18007KT 10SM SCT007 OVC012 12/12 A3039 RMK
      AO2 CIG 011V015 SLP204 T01230118=
METAR KDOV 080955Z AUTO 08003KT 1 3/4SM BR FEW007 24/ A3000 RMK AO2
      SLP161 T0235 $=
METAR KFSI 080955Z AUTO 03004KT 10SM FEW230 23/22 A3005 RMK AO2 SLP157
      T02260218=
METAR KGSB 080955Z AUTO 06003KT 10SM FEW170 25/20 A2992 RMK AO2 SLP131
      T02540199 $=
METAR KGTB 080955Z AUTO 16004KT 10SM CLR 22/21 A3004 RMK AO2 SLP169
      T02200205=
METAR KHST 080955Z AUTO 05004KT 9SM -RA FEW085 25/24 A2993 RMK AO2
      RAB0902E0920B0938DZB0856E0902 SLP136 P0003 T02520236 $=
METAR KLHW 080955Z AUTO 23003KT 10SM CLR 22/20 A2998 RMK AO2 SLP155
      T02160199=
METAR KLSF 080955Z AUTO 00000KT 4SM R15/2800VP6000FT BR CLR 21/20 A3001
      RMK AO2 SLP162 T02100204 $=
METAR KRIV 080955Z 31004KT 4SM BR BKN004 11/10 A2991 RMK AO2A SLP124
      T01110100=
METAR KSKF 080955Z 05006KT 10SM OVC013 25/ A2992 RMK AO2A RAB0909E0945DZB0910E0912B0929E0935
      CIG 011V017 OVC V BKN SLP122 P0000 T0254 $=
METAR KSSC 080955Z AUTO 29008KT 10SM CLR 25/19 A2995 RMK AO2 SLP141
      T02530186 $=
METAR KTBN 080955Z AUTO 00000KT 10SM BKN020 23/ A3006 RMK AO2 SLP162
      T0227 $=
METAR KTCM 080955Z AUTO 16003KT 10SM CLR 15/12 A2994 RMK AO2 SLP140
      T01490122=
METAR KVAD 080955Z AUTO 00000KT 10SM CLR 21/19 A3001 RMK AO2 SLP161
      T02090195 $=
METAR PAED 080955Z AUTO 00000KT 10SM FEW080 11/10 A2999 RMK AO2 RAB0905E0919DZB0919E0921
      SLP157 P0000 T01140101 $=
####018000200####
SAAK41 KNKA 080956
METAR PAHN 080954Z AUTO 00000KT 10SM CLR 11/10 A3020 RMK AO2 SLP228 
    T01110100 TSNO=
METAR PAKN 080954Z 33004KT 10SM OVC060 10/09 A2991 RMK AO2 SLP127 
    T01000094=
####018000119####
SAUS45 KREV 080956
MTRDRA
METAR KDRA 080955Z AUTO 09005KT 10SM CLR 23/M11 A2992 RMK AO2 SLP078 
T02281111 TSNO
####018000117####
SAUS43 KLOT 080956
MTRRFD
METAR KRFD 080954Z 22004KT 9SM SCT011 OVC090 22/21 A3002 RMK AO2 
SLP163 T02220206
####018000075####
SAET20 HAAB 081000
METAR HAAB 081000Z 21010KT 9999 BKN025 21/14 Q1024=
####018000121####
SAUS45 KFGZ 080956
MTRRQE
METAR KRQE 080953Z AUTO 12003KT 10SM OVC110 18/06 A3026 RMK AO2 
SLP107 T01830061 TSNO
####018000118####
SAUS46 KSEW 080956
MTRAST
METAR KAST 080955Z AUTO 23005KT 5SM BR OVC003 12/11 A2994 RMK AO2 
SLP139 T01220111
####018000118####
SAUS43 KABR 080956
MTRMBG
METAR KMBG 080955Z AUTO 01003KT 10SM CLR 12/10 A3013 RMK AO2 SLP199 
T01170100 TSNO
####018000138####
SAUS45 KABQ 080956
MTRCAO
METAR KCAO 080955Z AUTO 36006KT 10SM -RA FEW042 OVC095 15/13 A3029 
RMK AO2 SLP198 P0004 T01500133 TSNO
####018000132####
SAUS45 KABQ 080956 COR
MTRRTN
METAR KRTN 080953Z AUTO 05005KT 10SM SCT075 OVC100 14/11 A3035 RMK 
AO2 SLP208 T01390111 TSNO
####018001621####
SAZZ40 KAWN 081000 RRF
METAR BGCO 080950Z 02014KT 9999 VCSH FEW016 SCT067 BKN110 06/02 Q1008=
METAR ETAR 080955Z AUTO 16006KT 9999 CLR 28/13 A3014 RMK AO2 SLP199
      T02790135 $=
METAR KBAB 080955Z AUTO 15005KT 10SM SCT180 17/12 A2981 RMK AO2 SLP096
      T01700118 $=
METAR KBKF 080955Z 19005KT 25SM BKN020 BKN040 14/14 A3033 RMK SLP228=
METAR KLFI 080955Z 00000KT 10SM SCT090 BKN140 26/23 A2997 RMK AO2A
      SLP151 T02570228 $=
METAR KMCF 080955Z AUTO 05003KT 10SM CLR 23/22 A2998 RMK AO2 SLP153
      T02250223=
METAR KNFW 080952Z AUTO 10003KT 10SM CLR 26/22 A3004 RMK AO2 SLP156
      T02610222=
METAR KNIP 080953Z 25004KT 10SM CLR 23/21 A3000 RMK AO2 SLP154 T02280206=
METAR KNKT 080954Z AUTO 04004KT 4SM HZ CLR 26/23 A2992 RMK AO2 SLP128
      T02610233 $=
METAR KNQX 080953Z AUTO 10004KT 10SM SCT080 28/24 A2992 RMK AO2 TSE12
      SLP130 T02780244 $=
METAR KNRB 080952Z AUTO 00000KT 10SM CLR 23/21 A2999 RMK AO2 SLP155
      T02330211=
METAR KSLI 080955Z AUTO 00000KT 10SM OVC016 17/13 A2990 RMK AO2 SLP127
      T01670134=
METAR KTIK 080955Z AUTO 34004KT 10SM SCT012 SCT017 OVC024 23/23 A3004
      RMK AO2 CIG 022V030 SLP160 T02340226 $=
METAR MGGT 081000Z 18006KT 9999 BKN015 17/14 Q1022 A3018 FEW080 NOSIG=
METAR MHLC 081000Z 22002KT 9999 FEW026 SCT200 25/24 Q1009 A2980 NOSIG=
METAR MHLM 081000Z 21002KT 9999 FEW025 BKN080 26/25 Q1009 A2980 NOSIG=
METAR MHTG 081000Z 00000KT 9999 BKN025 SCT080 19/19 Q1016 A3000 NOSIG=
METAR MUGM 080956Z 35005KT 9999 FEW040 26/22 A2995 RMK SLP140 T02560222=
METAR TAPA 081000Z 06011KT 9999 FEW020 28/24 Q1015=
####018000108####
SAUS42 KJAX 080956
MTRJAX
METAR KJAX 080956Z 26003KT 10SM CLR 19/18 A2999 RMK AO2 SLP156 
T01940183
####018000116####
SAUS43 KDLH 080956
MTRINL
METAR KINL 080955Z AUTO 21004KT 10SM FEW090 13/12 A3000 RMK AO2 
SLP159 T01280122
####018003693####
SAUS99 KWBC 080957 RRB
METAR
KGTR 080955Z 31004KT 10SM CLR 24/23 A3004 RMK AO1=
KGUC 080955Z AUTO 01005KT 10SM FEW120 09/03 A3044 RMK AO1=
KGXY 080955Z AUTO 08003KT 10SM BKN009 BKN014 OVC047 15/12 A3032
     RMK AO1=
KHDN 080955Z 10007KT 10SM CLR 10/05 A3031 RMK AO1=
KHEF 080955Z AUTO 00000KT 6SM FEW090 23/19 A3001 RMK AO1=
KHEZ 080955Z AUTO 00000KT 10SM CLR 22/21 A3003 RMK AO1=
KHNB 080955Z AUTO 00000KT 5SM FEW026 BKN065 OVC100 23/21 A3006 RMK
     AO1=
KHWD 080954Z AUTO 32007KT 10SM OVC009 14/11 A2992 RMK AO2 SLP140
     T01390111=
KHYS 080955Z AUTO 35006KT 10SM OVC022 19/17 A3018 RMK AO1=
KILN 080954Z AUTO 00000KT 4SM BR CLR 21/19 A3009 RMK AO2 SLP175
     T02110194=
KIMT 080954Z AUTO 34004KT 5SM BR BKN002 OVC006 20/19 A2998 RMK AO2
     SLP149 T02000194=
KIND 080954Z 00000KT 9SM BKN090 OVC120 25/20 A3003 RMK AO2 SLP161
     T02500200=
KINT 080954Z AUTO 01004KT 10SM SCT090 24/18 A3003 RMK AO2 SLP154
     T02440178=
KIPT 080954Z AUTO 00000KT 7SM CLR 20/17 A3006 RMK AO2 SLP172
     T02000167=
KISP 080954Z 15003KT 3SM BR OVC003 24/22 A3003 RMK AO2 SLP167
     T02440222=
KISW 080954Z AUTO 00000KT 10SM SCT005 19/19 A3002 RMK AO2 SLP161
     T01940194 TSNO=
KIWD 080955Z AUTO 27003KT 10SM FEW060 SCT070 BKN100 16/15 A3000
     RMK AO1=
KIZG 080954Z AUTO 00000KT 5SM BR CLR 21/19 A3007 RMK AO2 SLP182
     T02060194=
KJAC 080955Z AUTO 04007KT 10SM CLR 07/M01 A3034 RMK AO1=
KJHW 080955Z AUTO 00000KT 1SM CLR 19/18 A3012 RMK AO1 54000=
KJST 080954Z AUTO 24004KT 5SM HZ CLR 20/16 A3014 RMK AO2 SLP188
     T02000156=
KKLS 080955Z AUTO 00000KT 10SM CLR 16/13 A2991 RMK AO1=
KL35 080953Z AUTO 00000KT 10SM CLR 06/M05 A3017 RMK AO2=
KLAF 080954Z AUTO 00000KT 8SM SCT060 SCT100 23/21 A3003 RMK AO2
     SLP163 T02280211 TSNO=
KLBL 080955Z 06007KT 10SM SCT041 BKN047 19/17 A3021 RMK AO1=
KLBT 080954Z AUTO 27003KT 10SM CLR 24/18 A2993 RMK AO2 SLP132
     T02440183=
KLCI 080955Z AUTO 00000KT 10SM BKN100 OVC120 22/19 A3006 RMK
     AO1=
KLEW 080955Z 16004KT 2 1/2SM OVC003 20/19 A3010 RMK AO1=
KLEX 080954Z AUTO 17003KT 5SM HZ CLR 22/18 A3009 RMK AO2 SLP178
     T02170183 TSNO=
KLGD 080955Z AUTO 00000KT 10SM CLR 09/04 A3005 RMK AO1=
KLKV 080955Z AUTO 33009KT 10SM CLR 10/01 A3011 RMK AO1=
KLNK 080954Z AUTO 36004KT 10SM OVC032 19/17 A3015 RMK AO2 SLP201
     T01890172=
KLPC 080955Z AUTO 34003KT 10SM OVC012 14/11 A2991 RMK AO1 PNO=
KLWM 080954Z AUTO 00000KT 3SM BR BKN042 BKN050 OVC070 24/22 A3009
     RMK AO2 SLP187 T02390217=
KLWT 080954Z AUTO 15005KT 10SM CLR 08/05 A3026 RMK AO2 SLP229
     T00780050=
KLYH 080954Z AUTO 35003KT 7SM CLR 24/18 A3004 RMK AO2 SLP159
     T02390183=
KMAI 080953Z AUTO 00000KT 6SM BR CLR 23/22 A3001 RMK AO2 SLP160
     T02330222=
KMBL 080955Z AUTO 00000KT 10SM FEW065 OVC110 22/19 A2999 RMK
     AO1=
KMFI 080954Z AUTO 32005KT 9SM CLR 18/18 A3001 RMK AO2 SLP156
     T01830178=
KMGJ 080954Z AUTO 00000KT 3SM BR CLR 21/19 A3003 RMK AO2 SLP167
     T02110194=
KMIV 080954Z AUTO 10003KT 1 1/2SM BR FEW003 SCT100 23/22 A3000 RMK
     AO2 SLP156 T02330222=
KMJX 080955Z AUTO 00000KT 1 1/4SM SCT060 BKN090 23/22 A3002 RMK
     AO1=
KMKC 080954Z 00000KT 10SM CLR 23/21 A3004 RMK AO2 SLP165
     T02280206=
KMKT 080955Z 29005KT 10SM CLR 17/15 A3010 RMK AO1=
KMML 080955Z AUTO 27005KT 10SM CLR 14/12 A3013 RMK AO1=
KMNM 080955Z AUTO 24004KT 8SM OVC011 21/19 A2998 RMK AO1=
KMOT 080954Z AUTO 23008KT 10SM CLR 14/11 A3008 RMK AO2 SLP188
     T01440111 TSNO=
KMRF 080955Z AUTO 02006KT 10SM SCT095 16/13 A3017 RMK AO1=
KMRY 080954Z AUTO 00000KT 10SM OVC008 13/10 A2993 RMK AO2 SLP146
     T01330100=
####018003734####
SAUS99 KWBC 080957
METAR
KAAO 080954Z AUTO 30006KT 10SM CLR 21/19 A3008 RMK AO2 SLP175
     T02110194=
KAFJ 080955Z AUTO 00000KT M1/4SM OVC003 17/16 A3011 RMK AO1
     52003=
KAIZ 080955Z AUTO 00000KT 10SM FEW028 FEW039 OVC080 22/21 A3006
     RMK AO1=
KAKH 080954Z AUTO 34003KT 10SM CLR 23/17 A3001 RMK AO2 SLP153
     T02330167=
KAKR 080954Z AUTO 00000KT 4SM BR CLR 21/19 A3009 RMK AO2 SLP178
     T02060189=
KALO 080954Z AUTO 32004KT 10SM CLR 19/19 A3005 RMK AO2 SLP170
     T01940189=
KAPC 080954Z AUTO 27012KT 10SM OVC008 12/11 A2991 RMK AO2 SLP118
     T01170106=
KARG 080955Z AUTO 22006KT 10SM CLR 24/22 A3005 RMK AO1=
KAUO 080955Z AUTO 00000KT 10SM CLR 25/21 A3003 RMK AO1=
KAUW 080954Z AUTO 31008KT 6SM BR OVC002 19/19 A3000 RMK AO2 SLP158
     P0001 T01940189 $=
KAVL 080954Z AUTO 00000KT 8SM FEW080 18/17 A3014 RMK AO2 SLP174
     T01780172=
KAWO 080955Z AUTO 00000KT 10SM CLR 14/14 A2997 RMK AO1=
KBFL 080954Z AUTO 36005KT 10SM CLR 23/11 A2982 RMK AO2 SLP091
     T02330106=
KBHB 080955Z AUTO 18009KT 2 1/2SM OVC002 18/18 A3011 RMK AO1=
KBID 080955Z AUTO 13005KT 1/4SM OVC002 21/20 A3007 RMK AO1=
KBKX 080955Z AUTO 00000KT 10SM CLR 13/12 A3017 RMK AO1=
KBLM 080955Z AUTO 13005KT 2SM BKN003 OVC100 24/21 A3006 RMK
     AO1=
KBOS 080954Z 16008KT 10SM CLR 22/20 A3008 RMK AO2 SLP186
     T02220200=
KBTP 080955Z AUTO 02004KT 1 1/2SM CLR 18/18 A3010 RMK AO1
     57003=
KBUF 080954Z 18005KT 7SM FEW070 22/19 A3005 RMK AO2 SLP172
     T02220194=
KBUY 080954Z AUTO 00000KT 7SM CLR 22/19 A2999 RMK AO2 SLP146
     T02220194 $=
KBVX 080955Z AUTO 00000KT 10SM CLR 24/22 A3006 RMK AO1=
KBWI 080954Z 11004KT 5SM HZ FEW090 SCT150 26/22 A3000 RMK AO2
     SLP158 T02610222=
KCEU 080954Z AUTO 00000KT 10SM CLR 24/21 A3003 RMK AO2 SLP157
     T02440206=
KCGZ 080955Z AUTO 12003KT 10SM CLR 29/00 A2980 RMK AO1=
KCIU 080955Z AUTO 23005KT 10SM BKN120 19/18 A2995 RMK AO1=
KCOD 080955Z 15006KT 10SM CLR 12/03 A3032 RMK AO1=
KCOE 080955Z AUTO 07006KT 10SM CLR 15/08 A3009 RMK AO1=
KCOS 080954Z AUTO 20005KT 10SM BKN055 13/11 A3039 RMK AO2 SLP224
     T01280111 TSNO=
KCRW 080954Z 00000KT 4SM BR CLR 21/19 A3009 RMK AO2 SLP176 VLY FG
     T02060194=
KCVN 080955Z AUTO 05005KT 10SM BKN120 17/14 A3021 RMK AO1=
KCVO 080955Z AUTO 28009KT 10SM CLR 14/09 A2991 RMK AO1=
KCWI 080955Z 00000KT 3/4SM OVC003 A3003 RMK AO1=
KDDH 080954Z AUTO 00000KT 2SM BR CLR 19/18 A3006 RMK AO2 SLP172
     T01890183=
KDEC 080954Z AUTO 21003KT 8SM FEW100 24/22 A3004 RMK AO2 SLP163
     T02390217=
KDSM 080954Z 36009KT 10SM FEW150 22/19 A3008 RMK AO2 SLP176
     T02170189=
KDSV 080954Z AUTO 13006KT 5SM BR CLR 21/19 A3009 RMK AO2 SLP192
     T02110189=
KROC 080954Z 24004KT 6SM BR BKN080 BKN120 BKN250 22/20 A3006 RMK
     AO2 SLP175 T02220200=
KRST 080954Z 32005KT 9SM CLR 18/17 A3010 RMK AO2 SLP186
     T01780172=
KRUT 080955Z AUTO 15005KT 4SM CLR 21/18 A3006 RMK AO1=
KSBY 080954Z 10004KT 5SM BR BKN100 BKN110 24/23 A3000 RMK AO2
     SLP160 T02440233=
KSDY 080955Z AUTO 22005KT 10SM CLR 12/08 A3015 RMK AO1=
KSET 080954Z AUTO 00000KT 2 1/2SM BR SCT004 24/24 A3002 RMK AO2
     RAE10 SLP159 P0000 T02440244=
KSFM 080955Z 00000KT 2 1/2SM OVC003 21/18 A3008 RMK AO1=
KSFZ 080955Z AUTO 14004KT 10SM OVC010 22/21 A3008 RMK AO1=
KSGT 080955Z 13003KT 10SM CLR 23/22 A3006 RMK AO1=
KSGU 080955Z AUTO 09003KT 10SM CLR 26/02 A2995 RMK AO1=
KSJN 080954Z AUTO 09006KT 10SM BKN120 22/05 A3016 RMK AO2 SLP107
     T02170050=
KSKX 080955Z AUTO 00000KT 10SM FEW100 11/04 A3038 RMK AO1=
KSLG 080955Z AUTO 16004KT 10SM BKN023 BKN080 23/21 A3006 RMK
     AO1=
KSMN 080955Z AUTO 14003KT 10SM CLR 08/02 A3024 RMK AO1=
####018000420####
SAUS99 KWBC 080957 RRD
METAR
KTPL 080955Z 09006KT 7SM SCT010 BKN025 OVC038 24/23 A2998 RMK AO1
     P0001=
KVTP 081000Z AUTO 08004KT 1/2SM BKN001 05/05 A3056 RMK AO2 VIS
     1/4V5=
KWYS 080950Z AUTO 00000KT 10SM CLR 00/M01 A3036 RMK AO2=
PAHN 080954Z AUTO 00000KT 10SM CLR 11/10 A3020 RMK AO2 SLP228
     T01110100 TSNO=
PAKN 080954Z 33004KT 10SM OVC060 10/09 A2991 RMK AO2 SLP127
     T01000094=
####018003723####
SAUS99 KWBC 080957 RRC
METAR
KMSV 080955Z AUTO 00000KT 4SM CLR 20/18 A3010 RMK AO1=
KMTW 080955Z 19005KT 10SM OVC110 22/21 A2998 RMK AO1=
KMVL 080954Z AUTO 00000KT 2SM BR FEW003 21/19 A3007 RMK AO2 SLP179
     T02060194=
KMVN 080955Z AUTO 00000KT 3/4SM VV005 22/21 A3005 RMK AO1=
KOFP 080954Z AUTO 00000KT 6SM HZ CLR 24/20 A3000 RMK AO2 SLP157
     T02390200=
KOKK 080955Z AUTO 00000KT 6SM BKN100 22/17 A3005 RMK AO1 54000=
KOLM 080954Z AUTO 00000KT 10SM CLR 15/12 A2995 RMK AO2 SLP139
     T01500117=
KOLS 080954Z AUTO 11003KT 10SM CLR 24/06 A2998 RMK AO2 SLP068
     T02390056=
KOLU 080955Z AUTO 31004KT 10SM CLR 17/14 A3018 RMK AO1=
KORH 080954Z AUTO 17005KT 2SM R11/4500VP6000FT BR OVC002 22/22
     A3010 RMK AO2 SLP185 T02220217=
KOTG 080955Z AUTO 27003KT 10SM CLR 14/13 A3014 RMK AO1=
KOTH 080955Z 23003KT 10SM OVC010 10/08 A3000 RMK AO1=
KPHF 080954Z 07004KT 3SM BR BKN080 BKN100 25/24 A2997 RMK AO2
     SLP149 T02500244=
KPHL 080954Z 00000KT 3SM HZ FEW100 SCT150 25/22 A3002 RMK AO2
     SLP164 T02500222 $=
KPIA 080954Z 19004KT 2 1/2SM BR FEW005 BKN010 OVC028 23/22 A3003
     RMK AO2 CIG 007V011 SLP163 T02280217=
KPIB 080955Z AUTO 00000KT 10SM CLR 23/21 A3004 RMK AO1=
KPLN 080954Z AUTO 00000KT 10SM OVC110 21/21 A2997 RMK AO2 SLP144
     T02110206=
KPNE 080954Z 12005KT 3SM BR FEW006 24/23 A3004 RMK AO2 SLP169
     T02390228=
KPQI 080955Z AUTO 14005KT 9SM CLR 21/18 A3000 RMK AO1=
KPSF 080954Z AUTO 00000KT 2SM BR CLR 19/18 A3008 RMK AO2 SLP153
     T01890183=
KPTN 080955Z AUTO 08004KT 10SM CLR 24/M09 A3000 RMK AO1=
KPTV 080955Z AUTO 18006KT 10SM CLR 19/12 A2984 RMK AO1=
KPTW 080954Z AUTO 00000KT 3SM HZ CLR 23/19 A3004 RMK AO2 SLP166
     T02330194 $=
KPVC 080955Z 17006KT 9SM OVC004 22/20 A3010 RMK AO1=
KPVJ 080950Z AUTO 28003KT 7SM CLR 24/23 A3003 RMK AO2=
KPVU 080955Z 12004KT 10SM CLR 17/09 A3013 RMK AO1=
KPWT 080955Z AUTO 03007KT 10SM CLR 23/06 A2998 RMK AO1=
KRBL 080954Z AUTO 00000KT 10SM CLR 23/17 A2982 RMK AO2 SLP094
     T02330172=
KRDG 080954Z 00000KT 6SM HZ CLR 24/21 A3001 RMK AO2 SLP165
     T02390206=
KRKD 080955Z AUTO 20003KT 1/2SM OVC002 18/17 A3010 RMK AO1=
KRKR 080954Z AUTO 00000KT 10SM OVC031 27/26 A3003 RMK AO2=
KRKS 080954Z AUTO 08007KT 10SM FEW110 08/05 A3034 RMK AO2 SLP211
     T00830050=
K04W 080954Z AUTO 00000KT 10SM CLR 15/15 A3007 RMK AO2
     T01520147=
K4BM 080954Z AUTO 21005KT 1/4SM FG 05/04 A3063 RMK AO2=
K5SM 080953Z AUTO 11004KT 10SM CLR 08/01 A3055 RMK AO2=
K7BM 080956Z AUTO 00000KT 10SM OVC028 10/06 A3055 RMK AO2=
KBDU 080957Z AUTO 28004KT 10SM BKN005 BKN010 15/14 A3032 RMK
     AO2=
KBJC 080957Z AUTO 00000KT 7SM BKN075 13/12 A3033 RMK AO2=
KC29 080955Z AUTO 25003KT 10SM CLR 21/20 A3002 RMK AO2
     T02100195=
KCCU 080956Z AUTO 18022KT 10SM CLR 05/02 A3064 RMK AO2=
KDEQ 080953Z AUTO 08003KT 10SM BKN006 BKN015 OVC032 24/23 A3002
     RMK AO2 SLP161 T02440233=
KDLL 080954Z AUTO 27003KT 5SM BR OVC004 21/20 A3002 RMK AO2=
KGGG 080953Z AUTO 09003KT 10SM CLR 24/24 A3002 RMK AO2 SLP159
     T02440239=
KGOK 080953Z AUTO 36003KT 10SM FEW025 BKN049 23/21 A3004 RMK AO2
     SLP163 T02280211=
KGTU 080955Z 09004KT 3SM SCT008 BKN015 OVC022 24/22 A3000 RMK AO1
     P0016=
KHYI 080955Z AUTO 04005KT 10SM SCT013 BKN020 OVC049 25/24 A2994
     RMK AO1=
KILE 080955Z 10005KT 10SM BKN010 BKN019 OVC035 24/22 A2997 RMK
     AO1=
KMYP 080856Z AUTO 06008KT M1/4SM +SN OVC001 03/02 A3075 RMK
     AO2=
KOCH 080955Z AUTO 09005KT 10SM CLR 24/19 A3000 RMK AO1=
KPRX 080955Z 11004KT 5SM FEW005 BKN011 OVC021 24/22 A3003 RMK
     AO1=
KPWG 080955Z AUTO 10005KT 9SM SCT011 BKN026 OVC033 25/22 A2999 RMK
     AO1=
####018000229####
SAMX43 MMMZ 081000
METAR MMHO 080945Z 00000KT 10SM  BKN080 28/15 A2979 RMK 8/050 HZY=
METAR MMMZ 080951Z 00000KT 10SM  SCT070 OVC200 26/22 A2975 RMK 8/077=
METAR MMTJ 080947Z 00000KT 5SM  OVC013 16/14 A2993 RMK 8/5// HZY=
####018003737####
SAUS99 KWBC 080957 RRA
METAR
KSQI 080955Z 00000KT 5SM BKN004 OVC009 22/22 A3004 RMK AO1=
KSUE 080955Z AUTO 29004KT 8SM SCT008 21/19 A2998 RMK AO1=
KSUS 080954Z AUTO 00000KT 10SM CLR 24/23 A3002 RMK AO2 SLP156
     T02390228=
KSYR 080954Z 17003KT 8SM FEW090 22/20 A3004 RMK AO2 SLP166
     T02220200=
KTAD 080954Z AUTO 33005KT 10SM SCT085 14/13 A3036 RMK AO2 SLP208
     T01390128=
KTEX 080953Z AUTO 11004KT 10SM SCT110 12/03 A3046 RMK AO2=
KTIF 080950Z AUTO 25004KT 10SM OVC100 16/15 A3026 RMK AO2
     T01570146=
KTQE 080954Z AUTO 36005KT 10SM CLR 18/17 A3014 RMK AO2 SLP194
     T01830172=
KTRK 080950Z AUTO 00000KT 10SM CLR 12/08 A3015 RMK AO2=
KTVF 080955Z AUTO 24007KT 10SM CLR 13/11 A3004 RMK AO1=
KUIN 080954Z AUTO 20003KT 2 1/2SM BR BKN001 23/22 A3004 RMK AO2
     SLP164 T02280222=
KUZA 080954Z AUTO 00000KT 10SM CLR 22/18 A3001 RMK AO2 SLP146
     T02220183=
KVAY 080954Z AUTO 00000KT M1/4SM FG VV005 23/23 A3002 RMK AO2
     SLP164 T02330233=
KVBT 080955Z AUTO 00000KT 10SM BKN032 OVC080 23/21 A3003 RMK
     AO1=
KVIS 080955Z AUTO 26003KT 10SM CLR 19/12 A2980 RMK AO1=
KVSF 080954Z AUTO 00000KT 1 1/2SM BR BKN002 21/20 A3007 RMK AO2
     SLP179 T02110200 $=
KVTA 080954Z AUTO 00000KT 1 1/4SM BR SCT060 18/18 A3008 RMK AO2
     SLP180 T01830178=
KWLD 080954Z AUTO 00000KT 10SM CLR 22/21 A3007 RMK AO2 SLP172
     T02220211=
KWVL 080955Z AUTO 17004KT 7SM OVC005 21/19 A3004 RMK AO1=
KWWD 080955Z AUTO 5SM OVC120 23/23 A3003 RMK AO1=
KYKN 080955Z AUTO 00000KT 10SM CLR 17/14 A3017 RMK AO1=
KDVL 080955Z AUTO 25007KT 10SM CLR 16/12 A3006 RMK AO1=
KDYL 080954Z AUTO 00000KT 5SM BR CLR 22/21 A3003 RMK AO2 SLP160
     T02170206 TSNO=
KDYR 080955Z AUTO 00000KT 10SM CLR 24/19 A3006 RMK AO1=
KEAR 080955Z AUTO 00000KT 10SM CLR 15/13 A3023 RMK AO1=
KECG 080954Z AUTO 07005KT 9SM BKN009 BKN100 25/24 A2995 RMK AO2
     CIG 007V012 SLP143 T02500239=
KEEN 080955Z AUTO 00000KT 3SM BKN085 22/21 A3006 RMK AO1=
KEGE 080955Z 34003KT 10SM CLR 10/08 A3036 RMK AO1=
KEHR 080955Z AUTO 00000KT 7SM CLR 22/18 A3005 RMK AO1=
KENV 080955Z 19003KT 10SM CLR 20/M01 A3009 RMK AO1=
KESC 080955Z AUTO 00000KT 5SM SCT019 19/16 A2996 RMK AO1=
KEUG 080954Z 20008KT 10SM CLR 14/11 A2992 RMK AO2 SLP128
     T01390106=
KEUL 080955Z AUTO 00000KT 10SM CLR 14/07 A3005 RMK AO1=
KEVV 080954Z AUTO 00000KT 10SM BKN085 24/22 A3005 RMK AO2 SLP171
     T02440217=
KEWK 080955Z AUTO 35008KT 10SM OVC006 21/19 A3007 RMK AO1=
KEWN 080954Z 04004KT 4SM BR CLR 24/23 A2993 RMK AO2 SLP134
     T02440233=
KFAM 080955Z AUTO 17003KT 10SM FEW100 23/22 A3008 RMK AO1=
KFIG 080954Z AUTO 36004KT 1 3/4SM BR CLR 17/17 A3012 RMK AO2
     SLP187 T01720167=
KFKL 080955Z 00000KT 2SM CLR 19/17 A3014 RMK AO1 54000=
KFLO 080953Z AUTO 32006KT 10SM CLR 26/19 A2994 RMK AO2 SLP136
     T02560189=
KFLP 080955Z AUTO 12003KT 10SM BKN090 23/21 A3004 RMK AO1=
KFNL 080955Z AUTO 05004KT 4SM OVC002 14/13 A3032 RMK AO1=
KFOD 080955Z AUTO 33003KT 10SM CLR 18/17 A3012 RMK AO1=
KFRM 080955Z AUTO 10SM CLR 16/14 A3013 RMK AO1=
KFZY 080954Z AUTO 00000KT 1 1/2SM BR CLR 21/20 A3004 RMK AO2
     SLP169 T02060200=
KGAD 080955Z AUTO 00000KT 10SM CLR 22/19 A3005 RMK AO1=
KGAI 080955Z 00000KT 7SM BKN090 OVC110 25/21 A3005 RMK AO1=
KGBD 080955Z AUTO 01006KT 8SM BKN015 19/18 A3016 RMK AO1=
KGCK 080954Z AUTO 04007KT 10SM OVC013 18/17 A3021 RMK AO2 SLP202
     T01780167=
KGCN 080954Z AUTO 00000KT 10SM CLR 09/M03 A3023 RMK AO2 SLP139
     T00891028=
KGDV 080955Z AUTO 22003KT 10SM CLR 11/07 A3016 RMK AO1=
KGED 080954Z AUTO 00000KT 2 1/2SM BR CLR 24/23 A3001 RMK AO2
     SLP162 T02390228=
KGPZ 080955Z AUTO 20004KT 10SM CLR 13/12 A3005 RMK AO1=
####018000361####
SAUK39 EGRR 080950
METAR EGDL 080950Z 21006KT 9999 FEW018 SCT150 18/12 Q1019 BLU NOSIG=
METAR EGOP 080950Z 21009KT 9999 FEW020 SCT090 BKN250 18/14 Q1018
BLU=
METAR EGQA 080950Z 19020KT 9999 VCSH FEW018 SCT050 15/// Q1008 BLU
NOSIG=
METAR EGXJ 080950Z 26010KT 9999 FEW030 SCT100 18/10 Q1018 BLU=
METAR EGXP 080950Z 22012KT CAVOK 17/10 Q1017 BLU=
####018000458####
SAMX42 MMGL 080956
METAR MMGL 080942Z 00000KT 7SM RA  OVC080 19/17 A3003 
      RMK 6//// 8/07/ RAB40=
METAR MMLO 080945Z 16004KT 7SM  BKN025 OVC200 18/18 A3009 
      RMK 60085 8/77/ OCNL DROPS -DZ E14=
METAR MMPR 080944Z 00000KT 12SM  SCT025 BKN070 25/23 A2980 RMK 8/430=
METAR MMSP 080944Z 00000KT 8SM  SCT010 SCT020 BKN080 17/17 A3012 
      RMK 8/530 HZY MSGTX MMZC=
METAR MMZC 080941Z 12006KT 8SM  BKN020 BKN070 16/12 A3016 RMK 8/760=
####018000066####
SAEW LEJR 081000
METAR LEJR 081000Z VRB03KT CAVOK 27/18 Q1016=
####018000117####
SAUS44 KLIX 080956
MTRNBG
METAR KNBG 080955Z AUTO 04003KT 5SM HZ FEW017 A3001 RMK AO2 SLP163 
PWINO FZRANO $
####018000375####
SAFI34 EFHK 080950
EFET 080950Z AUTO 20010KT 160V230 CAVOK 20/07 Q1014=
EFIV 080950Z AUTO 21004KT 130V290 CAVOK 19/12 Q1016=
EFKE 080950Z AUTO 21004KT 150V270 9999 FEW041 20/13 Q1016=
EFKI 080950Z AUTO 32005KT 290V360 CAVOK 22/13 Q1016=
EFKS 080950Z VRB03KT 9999 SCT026 18/11 Q1017=
EFKT 080950Z AUTO 17008KT 100V240 9999 BKN045 20/09 Q1015=
METAR EFSO 080956Z NIL=
####018000348####
SANO34 ENMI 080950
METAR ENBN 080950Z 32005KT 210V030 CAVOK 17/10 Q1010=
METAR ENBV 080950Z 09014KT 9999 BKN025 12/09 Q1017=
METAR ENDI 080950Z NIL=
METAR ENFG 080950Z NIL=
METAR ENHF 080950Z 23005KT 200V260 CAVOK 16/08 Q1013 =
METAR ENRA 080950Z 14003KT 9999 SCT070 21/09 Q1009=
METAR ENSH 080950Z 10007KT 9999 FEW040 SCT080 16/09 Q1010=
####018000074####
SAET20 HAAB 081000
METAR HAAB 081000Z 21010KT 9999 BKN025 21/14 Q1024=
####018000118####
SAUS46 KMTR 080956
MTRAAT
METAR KAAT 080955Z AUTO 00000KT 10SM CLR 11/08 A3007 RMK AO2 SLP138 
T01110078 TSNO
####018000072####
SAIY32 LIIB 080950 RRA
METAR LICJ 080950Z 06009KT CAVOK 28/22 Q1018=
####018000072####
SANO35 ENMI 080950 RRA
METAR ENST 080950Z VRB03KT CAVOK 18/11 Q1010=
####018000643####
SANO31 ENMI 080950
METAR ENAN 080950Z 03005KT 9999 FEW045 SCT200 17/10 Q1011 NOSIG =
METAR ENBR 080950Z 19013KT 9999 FEW015 FEW025TCU SCT075 18/11 Q1012
           NOSIG =
METAR ENBO 080950Z 01007KT 9999 FEW035 SCT070 17/09 Q1009 NOSIG=
METAR ENDU 080950Z 13004KT 080V180 9999 FEW050 SCT080 21/06 Q1011
           NOSIG=
METAR ENGM 080942Z 21010KT 9999 -RA FEW011 SCT013 BKN066 17/14 Q1015
           TEMPO BKN013=
METAR ENOL 080950Z 34011KT 9999 FEW025TCU 17/11 Q1010 NOSIG=
METAR ENVA 080950Z 22006KT 170V250 9999 FEW055TCU SCT100 23/10 Q1009
           NOSIG =
METAR ENZV 080950Z 21009KT 9999 FEW025 SCT120 18/12 Q1014 NOSIG=
####018000269####
SAZA42 FAJS 081000
METAR FAVV 081000Z AUTO 04009KT //// // ////// 14/05 Q1033=
METAR FAJB 081000Z AUTO 07004KT //// // ////// 14/05 Q1034=
METAR FASI 081000Z AUTO 06005KT //// // ////// 16/02 Q1034=
METAR FAGC 081000Z AUTO 04008KT //// // ////// 15/04 Q1035=
####018000084####
SAIY31 LIIB 080950 RRA
METAR LIMC 080950Z VRB02KT 9999 FEW050 27/15 Q1022 NOSIG=
####018000095####
SAUK31 EGGY 080950 CCA
METAR COR EGLL 080950Z VRB03KT 9999 SCT012 SCT015 19/14 Q1019 NOSIG=
####018000130####
SAPY SGAS 081000
METAR SGAS 081000Z  17010KT 9999  BKN008 OVC015
17/15 Q1015=
METAR SGES 081000Z 17004KT CAVOK 16/15  Q1015=
####018001775####
SAUS20 KNKA 080956
METAR KMSN 080953Z VRB03KT 9SM BKN120 21/20 A3001 RMK AO2 SLP156
     T02110200=
METAR KMWM 080953Z AUTO 24003KT 10SM CLR 14/14 A3013 RMK AO2=
METAR KMWT 080953Z AUTO 00000KT 4SM BR BKN002 23/22 A3004 RMK AO2
     SLP160 T02280222 TSNO=
METAR KNQA 080955Z AUTO 00000KT 10SM CLR 23/23 A3007 RMK=
METAR KOWB 080956Z AUTO 00000KT 10SM FEW060 BKN090 26/23 A3006 RMK 
    AO2 T02550233 SLP173=
METAR KPNM 080953Z AUTO 00000KT 3/4SM BR VV005 14/13 A3009 RMK
     AO2=
METAR KPQN 080953Z AUTO 32007KT 10SM CLR 17/14 A3016 RMK AO2=
METAR KPWC 080953Z AUTO 00000KT 10SM CLR 10/09 A3008 RMK AO2=
METAR KRCE 080955Z AUTO 33003KT 5SM BR CLR 22/22 A3007 RMK AO2 =
METAR KRIL 080953Z AUTO 01003KT 10SM CLR 16/08 A3024 RMK AO2
     SLP164 T01560078 TSNO=
METAR KRNO 080955Z 00000KT 10SM FEW100 SCT150 22/03 A3004 RMK AO2 
    SLP109 T02220033=
METAR KSAV 080953Z 24003KT 10SM FEW024 21/19 A2999 RMK AO2 SLP154
     T02110194=
METAR KSBN 080954Z 00000KT 6SM BR CLR 23/21 A3005 RMK AO2 SLP167
     T02280206=
METAR KSCK 080955Z AUTO 01005KT 10SM CLR 14/11 A2984 RMK AO2 SLP105 
    T01440111=
METAR KSGR 080953Z AUTO 07006KT 10SM CLR 26/23 A2990 RMK AO2
     SLP132 T02610233 TSNO=
METAR KSMS 080955Z AUTO 00000KT 10SM CLR 24/19 A2997 RMK AO2 =
METAR KSRR 080955Z AUTO 22006KT 10SM BKN020 BKN025 OVC110 13/13 
     A3034 RMK AO2 =
METAR KTLH 080953Z 00000KT 10SM CLR 22/21 A3001 RMK AO2 SLP161
     T02220206=
METAR KTWM 080953Z AUTO 00000KT 7SM CLR 16/13 A3002 RMK AO2=
METAR KUCP 080956Z AUTO 00000KT 1/4SM FG BKN001 18/18 A3010 RMK AO2 
    T01770177 SLP200 $=
METAR KULM 080955Z AUTO 28005KT 10SM CLR 14/13 A3011 RMK AO2=
METAR KVQQ 080955Z AUTO 00000KT 1/2SM FG VV005 17/17 A3000 RMK AO2 
     =
####018002925####
SAUS20 KNKA 080956
METAR KLAX 080953Z 22005KT 10SM OVC012 16/12 A2991 RMK AO2 SLP125
     T01610122=
METAR K0A9 080955Z AUTO 00000KT 6SM BR CLR 19/18 A3012 RMK=
METAR KABI 080952Z 02004KT 9SM CLR 22/21 A3005 RMK AO2 SLP148
     T02170211 $=
METAR KAIT 080953Z AUTO 00000KT 1SM BR VV007 12/11 A3006 RMK
     AO2=
METAR KAVP 080954Z 00000KT 5SM HZ CLR 21/18 A3007 RMK AO2 SLP168
     T02060178 $=
METAR KBBB 080953Z AUTO 00000KT 7SM CLR 13/13 A3011 RMK AO2=
METAR KBBG 080955Z AUTO 00000KT 5SM BR CLR 22/22 A3007 RMK AO2 =
METAR KBBP 080955Z AUTO 27004KT 10SM CLR 22/19 A2995 RMK AO2=
METAR KBKN 080955Z AUTO 36005KT 10SM CLR 22/22 A3003 RMK AO2 =
METAR KBMI 080956Z AUTO 00000KT 8SM FEW001 23/22 A3005 RMK AO2 PWINO 
    T02270222 LTG DSNT NE TSB07E30 P0010 SLP161 $=
METAR KBOK 080956Z AUTO 00000KT 3/4SM BR OVC002 09/09 A2996 RMK AO2 
    T00880088 SLP149 $=
METAR KBTV 080954Z 00000KT 4SM BR CLR 23/21 A3001 RMK AO2 SLP161
     T02330211=
METAR KCHA 080953Z 00000KT 10SM CLR 23/19 A3006 RMK AO2 SLP168
     T02280189=
METAR KCIC 080955Z AUTO 13007KT 10SM CLR 22/13 A2982 RMK AO1 =
METAR KCMR 080955Z AUTO 17007KT 10SM BKN100 18/02 A3025 RMK AO1 =
METAR KCNK 080955Z AUTO 03005KT 10SM FEW016 OVC029 20/19 A3015 RMK 
    AO2 SLP195 T02000189=
SPECI KCNM 080955Z AUTO 35009KT 5SM RA BR SCT007 OVC010 20/19 A3013 
    RMK AO2 LTG DSNT NE AND S TSE55 P0001=
METAR KDLH 080955Z 31008KT 10SM CLR 16/14 A3005 RMK AO2 SLP173 
    T01610139=
METAR KEAT 080955Z AUTO 29006KT 10SM CLR 18/06 A3003 RMK AO2 SLP161 
    T01780061=
METAR KFFM 080953Z AUTO 21004KT 10SM CLR 14/14 A3008 RMK AO2=
METAR KFGN 080954Z AUTO 26009KT 3/4SM -DZ VV005 17/13 A2996 RMK
     AO2=
METAR KGDB 080952Z AUTO 25003KT 10SM CLR 14/13 A3013 RMK AO2
     T01360130=
METAR KGGE 080955Z AUTO 28006KT 10SM CLR 23/22 A2994 RMK AO2=
METAR KGHW 080953Z AUTO 23005KT 10SM CLR 14/13 A3013 RMK AO2=
METAR KGPI 080955Z AUTO 00000KT 10SM CLR 09/07 A3017 RMK AO2 SLP209 
    T00890067=
METAR KHVS 080955Z AUTO 33003KT 10SM CLR 25/18 A2998 RMK AO2=
METAR KIRK 080955Z AUTO 00000KT 7SM CLR 19/19 A3007 RMK AO2 SLP180 
    T01940189=
METAR KLBB 080953Z COR 01010KT 10SM -RA FEW011 SCT075 OVC100 19/17 
    A3014 RMK AO2 RAB53 SLP160  P0000 T01940172=
METAR KLIC 080955Z AUTO 15007KT 8SM CLR 13/13 A3033 RMK AO2 SLP213 
    T01330133=
METAR KLLJ 080955Z AUTO 00000KT 10SM FEW090 09/00 A3025 RMK AO2 
    SLP194 T00890000=
METAR KLXV 080953Z AUTO 00000KT 10SM FEW013 BKN031 OVC100 07/06
     A3055 RMK AO2 SLP199 T00670061 TSNO=
METAR KMAO 080955Z AUTO 30005KT 10SM CLR 24/19 A2993 RMK AO2=
METAR KMGG 080955Z AUTO 27003KT 10SM CLR 16/15 A3010 RMK AO2
     T01600149=
METAR KMKG 080955Z 23003KT 4SM -RA BR SCT007 BKN035 OVC085 23/22 
    A3003 RMK AO2 RAB16 CIG 028 RWY 14 SLP163 P0003 T02330217 $=
METAR KMOX 080950Z AUTO 23004KT 10SM CLR 14/14 A3007 RMK AO2=
####018000108####
SAUS45 KPSR 080956
MTRNYL
METAR KNYL 080955Z 16005KT 10SM CLR 27/03 A2971 RMK AO2 SLP057 
T02670033
####018000123####
SAUS46 KLOX 080957
MTRVBG
METAR KVBG 080955Z AUTO 30003KT 10SM OVC006 12/11 A2992 RMK AO2 
SLP124 T01220111 TSNO $
####018000120####
SAUS43 KUNR 080957
MTRPHP
METAR KPHP 080955Z AUTO 26007KT 10SM CLR 12/10 A3021 RMK AO2 SLP218 
T01220100 TSNO $
####018000113####
SAUS43 KFSD 080957
MTRHON
METAR KHON 080955Z AUTO 22005KT 10SM CLR 16/13 A3014 RMK AO2 SLP203 
T01610133
####018000140####
SAUS43 KAPX 080957
MTRANJ
METAR KANJ 080955Z AUTO 00000KT 6SM BR BKN004 BKN009 20/19 A2994 RMK 
AO2 RAB22E31 SLP134 P0000 T02000194
####018000118####
SAUS42 TJSJ 080957
MTRSJU
METAR TJSJ 080956Z 00000KT 10SM FEW018 SCT028 27/24 A2999 RMK AO2 
SLP155 T02720244
####018000086####
SPUS41 KWBC 080957
SPECI
KDOV 080954Z AUTO 07003KT 1 3/4SM BR FEW007 24/ A3000=
####018000529####
SANL40 EHWX 080955
METAR EHDL 080955Z AUTO 22008KT 9999NDV NCD 28/13 Q1019 
BLU=
METAR EHEH 080955Z AUTO 26006KT 9999NDV NCD 29/12 Q1019 
BLU BLU=
METAR EHGR 080955Z AUTO 29008KT 9999NDV BKN140 28/13 Q1019 
BLU BLU=
METAR EHLW 080955Z AUTO 22010KT 9999NDV SCT063 BKN100 23/17 Q1018 
BLU BLU=
METAR EHVK 080955Z AUTO 22006KT 9999NDV NCD 28/12 Q1019 
BLU BLU=
METAR EHVL 080955Z AUTO 24012KT 9999NDV BKN049 OVC053 19/15 Q1019 
BLU=
METAR EHWO 080955Z AUTO 27005KT 9999NDV FEW410 26/12 Q1019 
BLU BLU=
####018000382####
SAFI34 EFHK 080950
EFET 080950Z AUTO 20010KT 160V230 CAVOK 20/07 Q1014=
EFIV 080950Z AUTO 21004KT 130V290 CAVOK 19/12 Q1016=
EFKE 080950Z AUTO 21004KT 150V270 9999 FEW041 20/13 Q1016=
EFKI 080950Z AUTO 32005KT 290V360 CAVOK 22/13 Q1016=
EFKS 080950Z VRB03KT 9999 SCT026 18/11 Q1017=
EFKT 080950Z AUTO 17008KT 100V240 9999 BKN045 20/09 Q1015=
METAR EFSO 080956Z NIL=
####018000110####
SAUS43 KLMK 080957
MTRSDF
METAR KSDF 080956Z 14003KT 7SM FEW120 26/21 A3005 RMK AO2 SLP170 
T02560206
####018000107####
SAUS42 KCHS 080957
MTRCHS
METAR KCHS 080956Z 28005KT 9SM CLR 24/19 A2996 RMK AO2 SLP143 
T02440194
####018000081####
SAUS51 KWBC 080900 RRG
METAR
KMYR 080945Z 31008KT 10SM FEW090 25/19 A2996=
####018000077####
SAMP31 LMMM 081000 RRB
METAR HLLT 080950Z
VRB02KT 8000 SKC 30/19 Q1019=
####018000086####
SAUS54 KWBC 080900 RRJ
METAR
KIZA 080949Z AUTO 00000KT 10SM OVC009 13/11 A2990=
####018000076####
SAMP31 LMMM 081000 RRB
METAR HLLT 080950Z VRB02KT 8000 SKC 30/19 Q1019=
####018000118####
SAUS45 KABQ 080957
MTRABQ
METAR KABQ 080956Z 08016KT 10SM BKN100 BKN200 20/09 A3026 RMK AO2 
SLP159 T02000094
####018000118####
SAUS44 KSHV 080957
MTRSHV
METAR KSHV 080956Z 12003KT 10SM SCT160 BKN280 24/23 A3002 RMK AO2 
SLP162 T02390233
####018000122####
SAUS46 KPQR 080957 COR
MTRBNO
METAR KBNO 080953Z AUTO 24008KT 10SM CLR 09/01 A3011 RMK AO2 SLP166 
T00890011 TSNO
####018000126####
SAUS44 KFWD 080957
MTRHLR
METAR KHLR 080956Z AUTO 06003KT 10SM BKN015 BKN021 OVC032 25/ A2999 
RMK AO2 SLP145 T0250 $
####018000111####
SAUS45 KSLC 080957
MTRNKX
METAR KNKX 080955Z 34005KT 10SM OVC014 16/13 A2989 RMK AO2 SLP118 
T01610133
####018000678####
SACN60 CWAO 080900 RRD
PET SA 0900 AUTO8 M M M M/09/08/MMMM/M/ M 82MM=
PFM SA 0900 AUTO8 M M M M/09/08/MMMM/M/ M 38MM=
PHU SA 0900 AUTO8 M M M M/11/10/MMMM/M/ M 34MM=
PIA SA 0900 AUTO8 M M M M/11/10/MMMM/M/ M 26MM=
PKA SA 0900 AUTO8 M M M M/10/09/MMMM/M/ M 14MM=
PKI SA 0900 AUTO8 M M M M/13/11/MMMM/M/ M 62MM=
PLA SA 0900 AUTO8 M M M M/08/07/MMMM/M/ M 97MM=
PMA SA 0900 AUTO8 M M M M/14/12/MMMM/M/ M 91MM=
PMB SA 0900 AUTO8 M M M M/06/06/MMMM/M/ M 38MM=
PML SA 0900 AUTO8 M M M M/11/11/MMMM/M/ M 47MM=
PPL SA 0900 AUTO8 M M M M/11/10/MMMM/M/ M 45MM=
PRH SA 0900 AUTO8 M M M M/08/08/MMMM/M/ M 36MM=
PRS SA 0900 AUTO8 M M M M/11/10/MMMM/M/ M 70MM=

####018000083####
SACN92 CWAO 080900 RRF
WJN SA 0900 AUTO8 M M M 174/04/02/3112/M/ 1010 62MM=

####018000108####
SACN89 CWAO 080900 RRF
WCI SA 0900 AUTO8 M M M 138/16/16/0508/M/0130 PCPN 1.2MM PAST HR
8010 08MM=

####018000079####
SACN88 CWAO 080900 RRI
AHD SA 0900 AUTO7 M M M M/17/16/1305/M/M M 85MM=

####018000083####
SACN90 CWAO 080900 RRE
WFZ SA 0900 AUTO8 M M M 130/07/06/3303/M/ 3003 23MM=

####018000139####
SACN96 CWAO 080900 RRE
WYW SA 0900 AUTO8 M M M 145/12/12/2102/M/ 8007 15MM=
XEL SA 0900 AUTO8 M M M 130/16/13/2911/M/M 8004 65MM=

####018000104####
SACN93 CWAO 080900 RRF
WND SA 0900 AUTO8 M M M 150/05/03/3116/M/M PK WND 3123 0814Z 1014
72MM=

####018000632####
SACN59 CWAO 080900 RRJ
PAA SA 0900 AUTO8 M M M M/12/11/2505/M/ M 38MM=
PBA SA 0900 AUTO8 M M M M/11/09/MMMM/M/ M 90MM=
PBE SA 0900 AUTO8 M M M M/09/08/1601/M/ M 10MM=
PBS SA 0900 AUTO8 M M M M/10/09/2703/M/0004 M 92MM=
PBT SA 0900 AUTO8 M M M M/10/10/2905/M/ M 36MM=
PCA SA 0900 AUTO8 M M M M/11/10/2505/M/ M 89MM=
PEH SA 0900 AUTO8 M M M M/10/10/2502/M/ M 38MM=
PGE SA 0900 AUTO8 M M M M/12/11/2303/M/ M 32MM=
PIR SA 0900 AUTO8 M M M M/12/10/2607/M/ M 10MM=
PQL SA 0900 AUTO8 M M M M/11/10/2203/M/ M 34MM=
PRA SA 0900 AUTO8 M M M M/12/11/MMMM/M/ M 96MM=
PXL SA 0900 AUTO8 M M M M/10/09/1702/M/ M 22MM=

####018000113####
SAUS44 KSHV 080957
MTRPOE
METAR KPOE 080955Z AUTO 09004KT 10SM CLR 24/22 A3000 RMK AO2 SLP159 
T02390222
####018000118####
SAUS46 KSGX 080957
MTRNJK
METAR KNJK 080956Z AUTO 16006KT 10SM CLR 23/13 A2969 RMK AO2 SLP068 
T02330133 TSNO
####018000482####
SASA KAWN 081000
METAR SBBE 081000Z 10005KT 9999 FEW017 BKN080 25/22 Q1013=
METAR SBBR 081000Z 33002KT CAVOK 13/09 Q1023=
METAR SBCB 081000Z 04003KT CAVOK 17/15 Q1018=
METAR SBCY 081000Z 02007KT CAVOK 19/14 Q1014=
METAR SBFI 081000Z 24002KT 9999 FEW020 SCT100 15/13 Q1015=
METAR SBFZ 081000Z 15005KT 9999 SCT017 BKN100 25/21 Q1014=
METAR SBMO 081000Z 05003KT 3000 -DZ BR SCT006 SCT020 BKN100 21/21 Q1017=
METAR SBPA 081000Z 25002KT 9999 BKN021 OVC045 17/14 Q1018=
####018000188####
SAAK17 KAWN 081000 RRB
PALU SA 0955 AWOS CLR BLO 120 10 55/35/2116/010=
PASV SA 0955 AWOS 36 SCT 80 SCT M90 BKN 10 49/46/0000/997=
PATL SA 0955 AWOS CLR BLO 120 10 60/43/0305/000=
####018000608####
SAXX70 KAWN 081000 RRD
METAR KQAD 080955Z AUTO 27009G15KT 230V320 4300 HZ CLR 45/04 A2957
      RMK AO2 SLP011 T04490044 $=
METAR KQDM 080955Z AUTO 24008G16KT 9SM FEW035 SCT180 30/09 A3021 RMK
      AO2 LTG DSNT S SLP104 T03010094 PWINO $=
METAR KQDP 080955Z AUTO VRB05KT 6SM CLR 36/09 A2990 RMK AO2 SLP016
      T03600092 $=
METAR KQSL 080955Z 32015G20KT 9999 CLR 44/02 A2966 RMK SLP031 Q1004MB=
METAR KQSR 080955Z 32006KT 9999 FEW100 SCT160 30/M04 A3014 RMK AO2A
      SLP073 WND DATA/ALSTG ESTMD=
METAR KQXR 080955Z AUTO 04007G11KT 9000 CLR 49/ A2949 RMK AO2 SLP986
      T0486 $=
####018000088####
SAXX70 KAWN 080900 RRX
METAR KQFW 080940Z AUTO 20002KT 7SM CLR 27/19 A2988 RMK A02=
####018001425####
SAXX60 KAWN 081000
METAR PGSN 080954Z 07012KT 10SM FEW024 SCT031 27/22 A2990 RMK AO2 SLPNO
      T02720217=
METAR PGUA 080955Z AUTO 08015KT 10SM BKN017 27/ A2990 RMK AO2 CIG 015V021
      SLP106 T0270 VISNO RWY24L $=
METAR PGUM 080954Z 08008KT 10SM SCT019 SCT025 SCT030 28/24 A2989 RMK
      AO2 SLP113 T02830244=
METAR PHHI 080955Z AUTO 04004KT 10SM CLR 21/18 A3006 RMK AO2 RAE0901
      SLP168 P0000 T02110180 402750188=
METAR PHJR 080953Z 00000KT 10SM SCT050 23/18 A3005 RMK AO2 SLP183 T02330183
      403060217=
METAR PHKO 080953Z AUTO 14009KT 10SM CLR 24/18 A2999 RMK AO2 SLP155
      T02390178 402780222 TSNO=
METAR PHMK 080954Z AUTO 05007KT 10SM CLR 22/19 A3006 RMK AO2 SLP180
      T02220189 402940217 TSNO=
METAR PHNL 080953Z 06010KT 10SM FEW032 24/18 A3004 RMK AO2 SLP173 T02440178
      403000222=
METAR PHOG 080954Z AUTO 04010KT 10SM CLR 24/17 A3004 RMK AO2 SLP176
      T02390167 403170206 TSNO=
METAR PHTO 080953Z AUTO 25006KT 10SM FEW028 OVC065 22/19 A3005 RMK
      AO2 RAE37 SLP173 P0010 T02170194 402830189 TSNO=
METAR PTKK 080950Z VRB04KT 15SM SCT014CB OVC120 25/23 A2984 RMK CB
      ALQDS SLP106 T02490229=
METAR PWAK 080952Z 08012KT 7SM HZ FEW022 28/24 A2999 RMK AO2A=
METAR RJTY 080955Z AUTO 18010KT 9999 CLR 26/22 A2987 RMK AO2 SLP107
      T02550215 $=
METAR RODN 080955Z AUTO 18011G17KT 9999 FEW075 29/26 A2983 RMK AO2
      SLP099 T02910260=
####018001105####
SPZZ40 KAWN 080957 RRN
SPECI CWZZ 080951Z AUTO ///// 4SM SCT019 BKN052 BKN066 11/ A2979=
SPECI CYEK 080952Z AUTO 09003KT 9SM BKN004 BKN026 OVC047 OVC095 07/07
      A2960=
SPECI CYKL 080953Z AUTO 05004KT 9SM BKN026 OVC082 14/13 A2990=
SPECI CYPQ 080953Z AUTO ///// 3/8SM CLR 20/20 A3003=
SPECI CYPY 080952Z AUTO 22002KT 9SM CLR 11/11 A2992=
SPECI CYUS 080952Z AUTO ///// 9SM CLR 10/ A2979=
SPECI CYZE 080954Z AUTO VRB02KT 2 1/2SM BR OVC002 20/20 A2998 RMK SLP152
      DENSITY ALT 1300FT=
SPECI CYZE 080956Z AUTO 00000KT 3SM BR OVC002 20/20 A2998 RMK SLP152
      DENSITY ALT 1300FT=
SPECI KDOV 080954Z AUTO 07003KT 1 3/4SM BR FEW007 24/ A3000 RMK AO2
      SLP161 $=
SPECI KEGI 080952Z AUTO 00000KT 3/4SM R18/1000V5000FT BR CLR 21/21
      A3002 RMK AO2 SLP167 $=
SPECI KEGI 080955Z AUTO 00000KT 3/4SM R18/1000V3000FT BR CLR 21/21
      A3002 RMK AO2 SLP166 $=
SPECI KNSE 080948Z AUTO 00000KT 1 1/4SM BR CLR 23/21 A3002 RMK AO2
      $=
SPECI RJNY 080947Z 16004KT 9999 FEW010 FEW030TCU BKN130 BKN230 24/23
      Q1010 RMK 1CU010 1TCU030 5AC130 A2983 TCU SE-S=
####018002988####
SAUS20 KNKA 080957
METAR KSDF 080956Z 14003KT 7SM FEW120 26/21 A3005 RMK AO2 SLP170 
    T02560206=
METAR K1A6 080955Z AUTO 00000KT 3SM BR CLR 21/21 A3010 RMK AO2=
METAR K1M4 080956Z AUTO 00000KT 10SM CLR 22/21 A3010 RMK AO2 
    T02220211 SLP189=
METAR K21D 080958Z AUTO 31004KT 10SM CLR 17/16 A3008 RMK AO2=
METAR KAIG 080955Z AUTO 32004KT 10SM CLR 18/17 A3001 RMK AO2=
METAR KAND 080956Z AUTO 00000KT 10SM CLR 21/19 A3001 RMK AO2 SLP152 
    T02110194=
METAR KART 080956Z AUTO 00000KT 5SM BR CLR 22/20 A3003 RMK AO2 
    SLP161 T02220200=
METAR KARV 080952Z AUTO 36004KT 10SM SCT013 18/15 A3003 RMK AO2 
     T01760153=
METAR KATW 080955Z AUTO 25005KT 5SM BR OVC003 22/21 A3001 RMK AO2=
METAR KBED 080956Z AUTO 17006KT 4SM BR BKN017 OVC075 24/22 A3006 RMK 
    AO2 SLP189 T02390217=
METAR KBJI 080954Z AUTO 24006KT 10SM CLR 14/13 A3005 RMK AO2=
METAR KBUU 080954Z AUTO 00000KT 7SM BKN100 BKN120 21/21 A3000 RMK 
     AO2=
METAR KBWP 080951Z AUTO 24004KT 10SM CLR 15/13 A3009 RMK AO1 
     T01450131=
METAR KBZN 080956Z AUTO 00000KT 10SM CLR 07/04 A3027 RMK AO2 SLP225 
    T00720039=
METAR KCEC 080956Z AUTO 27003KT 3SM BR OVC003 10/09 A2996 RMK AO2 
    SLP147 T01000094=
METAR KCEF 080955Z AUTO 15003KT 10SM FEW085 24/22 A3005 RMK AO2 SLP176
      T02360217 PWINO $=
SPECI KCQX 080956Z AUTO 00000KT 4SM BR OVC001 19/19 A3011 RMK AO2=
METAR KCTB 080956Z AUTO 27003KT 10SM CLR 08/05 A3024 RMK AO2 SLP225 
    T00780050=
METAR KD39 080954Z AUTO 00000KT 10SM CLR 16/15 A3011 RMK AO2 
     T01600150=
METAR KDAY 080956Z 00000KT 6SM HZ OVC150 22/18 A3010 RMK AO2 SLP181 
    T02170183 $=
METAR KDIK 080956Z AUTO 21003KT 10SM CLR 09/08 A3015 RMK AO2 SLP203 
    T00940083=
METAR KDUG 080956Z AUTO 08021G26KT 10SM CLR 26/12 A3001 RMK AO2 PK 
    WND 08030/0929 SLP074 T02560122 $=
METAR KDUJ 080956Z AUTO 08004KT 4SM BR FEW060 19/17 A3012 RMK AO2 
    SLP183 T01940172=
METAR KDVK 080957Z AUTO 00000KT 5SM 21/19 A3009 RMK AO1=
METAR KEAU 080956Z AUTO 00000KT 10SM CLR 19/18 A3002 RMK AO2 SLP160 
    P0001 T01890178=
METAR KEED 080956Z AUTO 00000KT 10SM CLR 29/M03 A2975 RMK AO2 SLP035 
    T02941033 TSNO=
METAR KEKO 080956Z AUTO 00000KT 10SM CLR 12/M01 A3011 RMK AO2 SLP144 
    T01221006=
METAR KFBG 080955Z AUTO 34004KT 10SM CLR 25/19 A2994 RMK AO2 SLP137
      T02510186 $=
METAR KGON 080956Z AUTO 10008KT 7SM OVC002 23/21 A3006 RMK AO2 
    SLP178 T02280211=
METAR KGRD 080956Z AUTO 25004KT 10SM CLR 22/20 A3003 RMK AO2 SLP159 
    T02220200=
METAR KGUS 080955Z AUTO 00000KT 10SM SCT100 23/20 A3004 RMK AO2 SLP167
      T02290204=
SPECI KHAO 080956Z AUTO 00000KT 1 1/4SM BR CLR 21/19 A3008 RMK AO2=
METAR KHFF 080955Z AUTO 32004KT 10SM CLR 22/18 A2997 RMK AO2 SLP145
      T02160176 $=
METAR KHND 080956Z AUTO 17007KT 10SM CLR 26/M02 A2988 RMK AO2 
    T02611016 SLP059=
METAR KHYA 080956Z 00000KT 2 1/2SM BR OVC001 21/21 A3009 RMK AO2 
    SLP190 T02110206=
####018002805####
SAUS20 KNKA 080957
METAR KIGX 080956Z AUTO 02004KT 7SM CLR 25/18 A2999 RMK AO2 SLP148 
    T02500178 $=
METAR KINW 080956Z AUTO 14006KT 10SM CLR 23/01 A3009 RMK AO2 SLP100 
    T02280006=
METAR KIWA 080956Z AUTO 00000KT 10SM CLR 34/01 A2980 RMK AO2=
METAR KJMS 080956Z AUTO 00000KT 10SM CLR 12/11 A3009 RMK AO2 SLP189 
    T01170111=
METAR KLAS 080956Z 25005KT 10SM CLR 29/M04 A2981 RMK AO2 SLP061 
    T02891044=
METAR KLNR 080956Z AUTO 00000KT 10SM OVC006 21/19 A3002 RMK AO2 
    SLP157 T02060194=
METAR KLRF 080955Z AUTO 00000KT 10SM OVC170 23/22 A3005 RMK AO2 SLP175
      T02330224=
METAR KM19 080956Z AUTO 19005KT 10SM CLR 24/23 A3006 RMK AO2 
    T02440227 SLP177=
SPECI KMHT 080956Z 18007KT 3SM BR BKN006 OVC080 23/22 A3005 RMK AO2=
METAR KMMT 080955Z AUTO 30005KT 10SM CLR 22/19 A2998 RMK AO2 SLP150
      T02250188=
METAR KMOB 080956Z 00000KT 5SM BR BCFG CLR 23/22 A3003 RMK AO2 
    SLP166 T02330222=
METAR KMQY 080956Z AUTO 00000KT 10SM CLR 23/22 A3008 RMK AO2 
    T02330222 SLP176=
METAR KMRH 080956Z AUTO 04006KT 4SM HZ CLR 27/24 A2990 RMK AO2 
    SLP127 T02670239 TSNO=
SPECI KNSE 080948Z AUTO 00000KT 1 1/4SM BR CLR 23/21 A3002 RMK AO2
      $=
METAR KOFK 080956Z AUTO 25003KT 10SM BKN090 BKN120 16/14 A3018 RMK 
    AO2 SLP214 T01560144=
SPECI KOZR 080950Z AUTO 00000KT 6SM R06/4500V5500FT BR CLR 22/22 A3002
      RMK AO2 SLP163=
METAR KOZR 080955Z AUTO 00000KT 5SM R06/4000V5500FT BR CLR 22/22 A3002
      RMK AO2 SLP162 T02180218=
METAR KRDM 080956Z AUTO 15003KT 10SM CLR 11/03 A3006 RMK AO2 SLP154 
    T01060028 $=
METAR KSBP 080956Z AUTO 10SM OVC009 13/11 A2991 RMK AO2 SLP127 
    T01330111 $=
METAR KSFO 080956Z 26010KT 10SM BKN008 OVC013 13/11 A2993 RMK AO2 
    SLP133 T01330106=
METAR KSGH 080956Z AUTO 00000KT 4SM BR CLR 19/19 A3010 RMK AO2 
    T01940194 SLP185=
METAR KSLE 080956Z AUTO 16005KT 10SM CLR 18/12 A2987 RMK AO2 SLP113 
    T01830122=
METAR KSME 080955Z AUTO 00000KT 3SM BR 20/20 A3009 RMK AO2=
METAR KSRC 080956Z AUTO 00000KT 10SM CLR 23/23 A3006 RMK AO2 TSNO 
    T02330227 SLP182=
METAR KSSC 080955Z AUTO 29008KT 10SM CLR 25/19 A2995 RMK AO2 SLP141
      T02530186 $=
METAR KTPH 080956Z AUTO 36008KT 10SM CLR 16/M04 A3010 RMK AO2 SLP109 
    T01561044=
METAR KTZR 080956Z AUTO 00000KT 5SM BR CLR 20/18 A3008 RMK AO2=
METAR KUKI 080956Z AUTO 00000KT 10SM CLR 13/11 A2991 RMK AO2 SLP119 
    T01280106=
METAR KVAD 080955Z AUTO 00000KT 10SM CLR 21/19 A3001 RMK AO2 SLP161
      T02090195 $=
METAR KY51 080955Z AUTO 30003KT 7SM CLR 19/19 A3004 RMK AO1 
     T01930190=
METAR PAAK 080956Z AUTO 07017G23KT 10SM BKN013 BKN022 OVC120 07/04 
    A2961 RMK AO1 PNO=
METAR PAHP 080956Z AUTO 34005KT 10SM OVC075 11/08 A3006 RMK AO1 PNO 
    TSNO=
####018000080####
SAYE20 OYSY 081000
METAR OYSY 081000Z 10005KT 010V160 6000 NSC 42/08 Q1002=
####018000072####
SAYE20 OYRN 081000
METAR OYRN 081000Z 19016KT 7000 NSC 31/24 Q1001=
####018000075####
SAYE20 OYAG 081000
METAR OYAG 081000Z 10010KT 9999 SCT030 30/25 Q1002=
####018001575####
SAEU KAWN 081000 RRF
METAR COR EGLL 080950Z VRB03KT 9999 SCT012 SCT015 19/14 Q1019 NOSIG=
METAR EGNS 080950Z 20010KT 9999 FEW025 17/12 Q1016 NOSIG=
METAR EGQA 080950Z 19020KT 9999 VCSH FEW018 SCT050 15/// Q1008 BLU
      NOSIG=
METAR EGUN 080955Z AUTO VRB04KT 9999 OVC027 19/18 A3008 RMK AO2 CIG
      023V030 SLP174 T01910181=
METAR ENAN 080950Z 03005KT 9999 FEW045 SCT200 17/10 Q1011 NOSIG=
METAR ENBN 080950Z 32005KT 210V030 CAVOK 17/10 Q1010=
METAR ENBO 080950Z 01007KT 9999 FEW035 SCT070 17/09 Q1009 NOSIG=
METAR ENBR 080950Z 19013KT 9999 FEW015 FEW025TCU SCT075 18/11 Q1012
      NOSIG=
METAR ENBV 080950Z 09014KT 9999 BKN025 12/09 Q1017=
METAR ENDU 080950Z 13004KT 080V180 9999 FEW050 SCT080 21/06 Q1011 NOSIG=
METAR ENEV 080950Z 11007KT 050V140 CAVOK 20/08 Q1010=
METAR ENHF 080950Z 23005KT 200V260 CAVOK 16/08 Q1013=
METAR ENOL 080950Z 34011KT 9999 FEW025TCU 17/11 Q1010 NOSIG=
METAR ENRA 080950Z 14003KT 9999 SCT070 21/09 Q1009=
METAR ENSH 080950Z 10007KT 9999 FEW040 SCT080 16/09 Q1010=
METAR ENST 080950Z VRB03KT CAVOK 18/11 Q1010=
METAR ENVA 080950Z 22006KT 170V250 9999 FEW055TCU SCT100 23/10 Q1009
      NOSIG=
METAR ENZV 080950Z 21009KT 9999 FEW025 SCT120 18/12 Q1014 NOSIG=
METAR ETAR 080955Z AUTO 16006KT 9999 CLR 28/13 A3014 RMK AO2 SLP199
      T02790135 $=
METAR ETIC 080956Z AUTO 00000KT 9999 CLR 24/09 A3021 RMK AO2 SLP221
      T02350086 $=
METAR LEJR 081000Z VRB03KT CAVOK 27/18 Q1016=
METAR LICJ 080950Z 06009KT CAVOK 28/22 Q1018=
METAR LIMC 080950Z VRB02KT 9999 FEW050 27/15 Q1022 NOSIG=
####018000127####
SAUS41 KBUF 080957
MTRROC
METAR KROC 080954Z 24004KT 6SM BR BKN080 BKN120 BKN250 22/20 A3006 
RMK AO2 SLP175 T02220200
####018000084####
SPCN49 CWAO 080955
SPECI CYCX 080955Z 19006KT 12SM FEW006 BKN060 RMK SC2CU3=

####018001457####
SAZZ40 KAWN 081000 RRG
METAR BGTL 080955Z AUTO 25003KT 1600 BR VV002 04/04 A2984 RMK AO2 VIS
      4000 RWY26 SLP109 T00410040=
METAR EFKI 080950Z AUTO 32005KT 290V360 CAVOK 22/13 Q1016=
METAR KDLF 080955Z AUTO 00000KT 10SM CLR 24/23 A2995 RMK AO2 SLP125
      T02390226 $=
METAR KEND 080955Z AUTO 03005KT 10SM SCT220 22/21 A3006 RMK AO2 SLP166
      T02190211 $=
METAR KLSV 080955Z AUTO 00000KT 10SM CLR 25/M04 A2983 RMK AO2 SLP077
      T02521038 PWINO=
METAR KMIB 080955Z AUTO 25005KT 10SM FEW095 11/11 A3008 RMK AO2 SLP191
      T01120108 $=
METAR KMXF 080955Z AUTO 00000KT 10SM CLR 25/24 A3001 RMK AO2 SLP161
      T02480237=
METAR KPAM 080955Z AUTO 35004KT 10SM CLR 24/24 A3000 RMK AO2 SLP161
      T02430241=
METAR KSKA 080955Z AUTO 04006KT 10SM CLR 16/08 A3007 RMK AO2 SLP169
      T01560084=
METAR KSVN 080955Z 23003KT 10SM SKC 22/20 A2997 RMK SLP152=
METAR KTTS 080955Z 01002KT 9SM MIFG FEW055 FEW290 19/19 A2998 RMK SLP154
      1SC /0/ 1CI /0/=
METAR KVOK 080955Z 00000KT 10SM SCT200 18/18 A3001 RMK AO2A SLP159
      T01820182=
METAR KVPS 080955Z 31002KT 6SM BR SKC 23/23 A3002 RMK SLP167 T02330233=
METAR KXMR 080955Z AUTO 00000KT 10SM CLR 19/18 A2997 RMK AO2 SLP151
      T01920182=
METAR MHSC 080955Z AUTO 06003KT 9999 BKN140 22/19 A2994 RMK AO2 SLP097
      T02190193 $=
METAR PGUA 080955Z AUTO 08015KT 10SM BKN017 27/ A2990 RMK AO2 CIG 015V021
      SLP106 T0270 VISNO RWY24L $=
####018002889####
SAAK41 KNKA 080957
METAR PAAK 080956Z AUTO 07017G23KT 10SM BKN013 BKN022 OVC120 07/04 
    A2961 RMK AO1 PNO=
METAR PABL 080956Z AUTO 34005KT 10SM CLR 09/06 A3016 RMK AO1 PNO=
METAR PABV 080956Z AUTO 12004KT 10SM CLR 12/08 RMK AO1 PNO=
METAR PADK 080956Z 05013KT 10SM SCT014 OVC021 07/06 A2957 RMK AO1 
    PNO=
METAR PADL 080956Z 33008KT 10SM OVC075 11/08 A2998 RMK AO1 PNO TSNO=
METAR PAEM 080956Z AUTO 35005KT 10SM BKN080 OVC120 11/08 A3004 RMK 
    AO1 PNO=
METAR PAFE 080956Z AUTO 09004KT 10SM CLR 11/09 A3018 RMK AO1 PNO=
METAR PAFM 080956Z AUTO 32004KT 10SM CLR 15/09 A3011 RMK AO1 PNO=
METAR PAGL 080956Z AUTO 35009KT 10SM CLR 14/08 A3014 RMK AO1 PNO=
METAR PAGS 080956Z AUTO 00000KT 10SM CLR 10/09 A3019 RMK AO1 PNO=
METAR PAHP 080956Z AUTO 34005KT 10SM OVC075 11/08 A3006 RMK AO1 PNO 
    TSNO=
METAR PAHY 080956Z AUTO 33006KT 10SM CLR 16/10 A3012 RMK AO1 PNO=
METAR PAII 080956Z AUTO 01005KT 10SM SCT044 BKN055 OVC085 10/08 
    A2997 RMK AO1 PNO=
METAR PAIN 080956Z AUTO 00000KT 10SM CLR 09/06 A3008 RMK AO1 PNO=
METAR PAJC 080956Z AUTO 20003KT 10SM BKN017 OVC024 08/04 A2995 RMK 
    AO1 PNO=
METAR PAKK 080956Z AUTO 01011G16KT 10SM CLR 13/08 A3006 RMK AO1 PNO=
METAR PAKP 080956Z AUTO 04006KT 10SM OVC033 11/03 A3012 RMK AO1=
METAR PAMD 080956Z AUTO 09016KT 7SM FEW008 SCT017 BKN024 09/08 A3002 
    RMK AO1 PNO=
METAR PAMH 080956Z 00000KT 10SM CLR 14/05 A3000 RMK AO1 PNO=
METAR PAMM 080956Z AUTO 33006KT 10SM CLR 18/11 A3009 RMK AO1 PNO=
METAR PAMY 080956Z 29009KT 1SM OVC002 05/04 A3006 RMK AO1=
METAR PANI 080956Z AUTO 00000KT 9SM CLR 09/08 A3002 RMK AO1 PNO=
METAR PANV 080956Z AUTO 27005KT 10SM OVC085 13/08 A2999 RMK AO1 PNO=
METAR PAOU 080956Z AUTO 05009KT 10SM OVC050 07/07 A2997 RMK AO2 
    PWINO TSNO T00720066 SLP151 $=
METAR PAPG 080956Z 04005KT 10SM CLR 12/09 A3014 RMK AO1 
      PNO=
METAR PAPH 080956Z AUTO 00000KT 10SM CLR 05/04 A2997 RMK AO1 PNO=
METAR PAPN 080956Z AUTO 00000KT 3/4SM BR OVC060 06/05 A2994 RMK AO2 
    PWINO TSNO T00550050 SLP142 $=
METAR PARC 080956Z AUTO 08005KT 10SM FEW060 11/02 A3005 RMK AO1 PNO=
METAR PASA 080956Z AUTO 06003KT 10SM CLR 05/03 A3020 RMK AO1 PNO=
METAR PASD 080956Z AUTO 00000KT 10SM FEW044 07/06 A2995 RMK AO1 PNO=
METAR PASH 080956Z AUTO 00000KT 10SM CLR 07/06 A3019 RMK AO1 PNO=
METAR PASK 080956Z 25007KT 10SM CLR 12/07 A3011 RMK AO1 PNO=
METAR PASM 080956Z AUTO 04005KT 10SM OVC070 09/08 A3006 RMK AO1 PNO=
METAR PASX 080956Z 00000KT 10SM OVC060 13/09 A2996 RMK AO1 PNO=
METAR PAUN 080956Z AUTO 11007KT 10SM CLR 13/04 A3002 RMK AO1 PNO=
METAR PAVD 080956Z 10005KT 10SM OVC080 11/08 A3009 RMK AO1 
      PNO=
METAR PAWG 080956Z AUTO 29004KT 10SM CLR 13/10 A3014 RMK AO1 PNO=
METAR PAWN 080956Z AUTO 26007KT 10SM CLR 09/02 A3016 RMK AO1 PNO=
METAR PAWS 080956Z AUTO 04005KT 10SM OVC090 12/09 A3000 RMK AO1 PNO=
####018000080####
SPCN42 CWAO 080956
SPECI CYUA 080956Z AUTO 26007KT 9SM OVC003 05/ A3007=

####018000120####
SAUS41 KLWX 080957
MTRNYG
METAR KNYG 080956Z 30004KT 6SM HZ SCT080 BKN200 26/23 A2999 RMK AO2 
SLP157 T02560228
####018000115####
SAUS46 KLOX 080957
MTR9L2
METAR K9L2 080956Z AUTO 19007KT 10SM CLR 18/04 A2987 RMK AO2 SLP092 
T01830039 $
####018000121####
SAUS45 KFGZ 080957
MTRFLG
METAR KFLG 080956Z AUTO 00000KT 10SM FEW100 12/01 A3026 RMK AO2 
SLP138 T01170006 TSNO
####018000115####
SAUS45 KTFX 080957
MTRGFA
METAR KGFA 080956Z AUTO 17005KT 10SM CLR 09/06 A3021 RMK AO2 SLP245 
T00890061 $
####018000114####
SAUS45 KLKN 080957
MTRWMC
METAR KWMC 080956Z AUTO 04009KT 10SM CLR 19/M05 A3005 RMK AO2 SLP122 
T01891050
####018000110####
SAUS46 KLOX 080957
MTRNXP
METAR KNXP 080956Z AUTO 30005KT CLR 24/00 A2991 RMK AO2 SLP088 
T02440000 $
####018000116####
SAUS42 KMHX 080957
MTRNBT
METAR KNBT 080956Z AUTO 06009KT 3SM BR CLR 28/ A2991 RMK AO2 SLP132 
T0283 TSNO $
####018000101####
SAUS41 KCAR 080957
MTRGNR
METAR KGNR 080956Z AUTO 12003KT 19/19 A3008 RMK AO1 SLP179 T01890189
####018000118####
SAUS46 KPDT 080957
MTRMEH
METAR KMEH 080956Z AUTO 00000KT 10SM CLR 07/06 A3011 RMK AO2 SLP176 
T00670056 TSNO
####018000119####
SAUS44 KBMX 080957
MTRLOR
METAR KLOR 080953Z AUTO 00000KT 8SM CLR 21/19 A3001 RMK AO2 SLP159 
T02060189 TSNO $
####018000117####
SAUS46 KMFR 080957
MTRSXT
METAR KSXT 080956Z AUTO 01007KT 9SM CLR 20/11 A3002 RMK AO2 SLP097 
T02000106 TSNO
####018000110####
SAUS42 KCHS 080957
MTRNBC
METAR KNBC 080956Z 24003KT 7SM FEW250 23/19 A2997 RMK AO2 SLP150 
T02330194
####018000115####
SAUS43 KDLH 080957
MTRGNA
METAR KGNA 080956Z AUTO 00000KT 18/16 A2998 RMK AO2 SLP146 T01780156 
PWINO TSNO
####018000120####
SAUS46 KSGX 080957
MTRNXF
METAR KNXF 080956Z AUTO 32003KT 7SM OVC015 17/13 A2989 RMK AO2 
SLP208 T01670133 TSNO
####018000826####
SAUS90 KWBC 081000 CCA
METAR KCQC 080953Z AUTO 05007KT 10SM CLR 12/09 A3035 RMK AO2
     SLP219 T01170089 TSNO=
METAR K6R6 080953Z AUTO 01004KT 22/21 A3000 RMK AO2 SLP123
     T02220206 PWINO TSNO=
METAR KGDP 080951Z AUTO 06014G21KT 1/4SM FG VV005 17/17 A3023 RMK
     AO2 RAB0853E36 SLP161 P0000 T01670167 TSNO=
METAR KVCT 080951Z AUTO 07009KT 3SM +RA BR SCT015 BKN026 OVC095
     25/24 A2988 RMK AO2 RAB0853E21B47 SLP116 P0017 T02500244=
METAR KRTN 080953Z AUTO 05005KT 10SM SCT075 OVC100 14/11 A3035 RMK
     AO2 SLP208 T01390111 TSNO=
METAR KBNO 080953Z AUTO 24008KT 10SM CLR 09/01 A3011 RMK AO2
     SLP166 T00890011 TSNO=
METAR KTRI 080953Z 00000KT 5SM BR FEW030 21/19 A3010 RMK AO2
     SLP173 T02060189 $=
METAR KTYS 080953Z 00000KT 8SM CLR 22/19 A3006 RMK AO2 SLP165
     T02220189=
####018001198####
SAUS90 KWBC 081000 RRA
METAR KNBT 080956Z AUTO 06009KT 3SM BR CLR 28/ A2991 RMK AO2
     SLP132 T0283 TSNO $=
METAR KGNA 080956Z AUTO 00000KT 18/16 A2998 RMK AO2 SLP146
     T01780156 PWINO TSNO=
METAR KMEH 080956Z AUTO 00000KT 10SM CLR 07/06 A3011 RMK AO2
     SLP176 T00670056 TSNO=
METAR KNFE 080956Z AUTO 00000KT 1 1/4SM HZ FEW055 25/22 A2996 RMK
     AO2 RAB39E49 SLP147 P0000 T02500222 $=
METAR KCAE 080956Z 26004KT 10SM CLR 23/19 A2998 RMK AO2 SLP146
     T02330189=
METAR KBIH 080956Z AUTO 02005KT 10SM CLR 15/02 A2998 RMK AO2
     SLP099 T01500017 TSNO=
METAR KAQV 080956Z AUTO 00000KT 10SM OVC018 23/23 A3001 RMK AO2
     SLP158 T02330228 $=
METAR KNRS 080956Z AUTO 30008KT 10SM OVC014 17/14 A2990 RMK AO2
     SLP123 T01670139 TSNO $=
METAR PACZ 080955Z AUTO 03008KT 10SM 10/09 A3007 RMK AO1
     T01000095=
METAR PALU 080955Z AUTO 21016KT 10SM CLR 13/02 A3010 RMK AO1
     T01280017=
METAR PAIM 080955Z AUTO 31004KT 10SM CLR 11/07 A3009 RMK AO1
     T01110073=
METAR PATL 080955Z AUTO 03005KT 10SM CLR 16/06 A3000 RMK AO1
     T01560062=
METAR PASV 080955Z AUTO 00000KT 10SM SCT036 SCT080 BKN090 09/08
     A2997 RMK AO1 T00940078=
####018003699####
SAUS90 KWBC 081000
METAR K1V4 080954Z AUTO 21/19 A3005 RMK AO2 SLP162 T02060194 PWINO
     TSNO=
METAR K12N 080954Z AUTO 00000KT 21/21 A3005 RMK AO2 SLP164
     T02110206 PWINO TSNO=
METAR PATC 080955Z AUTO 02009KT 10SM CLR 08/07 A3016 RMK AO1
     T00780067=
METAR PAEH 080955Z AUTO 00000KT 10SM BKN016 09/M29 A3000 RMK AO1
     T00891288=
METAR KCOU 080954Z AUTO 00000KT 7SM SCT015 SCT021 23/22 A3006 RMK
     AO2 RAE0857 SLP170 P0000 T02280222 TSNO=
METAR KCAR 080954Z AUTO 17005KT 7SM FEW040 22/19 A3001 RMK AO2
     SLP160 T02170194=
METAR KNAK 080954Z AUTO 00000KT 3SM HZ 26/22 A3000 RMK AO2 SLP159
     T02560222 PWINO TSNO $=
METAR KBKB 080954Z AUTO 00000KT 10SM FEW016 SCT021 24/23 A2999 RMK
     AO2 SLP179 T02440228=
METAR KGSO 080954Z 01003KT 8SM BKN095 25/18 A3002 RMK AO2 SLP152
     T02500178=
METAR KACY 080954Z 00000KT 5SM BR CLR 24/22 A3004 RMK AO2 SLP171
     T02390222=
METAR KMTP 080954Z AUTO 00000KT 21/19 A3007 RMK AO2 SLP184
     T02110194 PWINO TSNO=
METAR KFWA 080954Z 00000KT 8SM CLR 23/20 A3006 RMK AO2 SLP172
     T02280200=
METAR KRFD 080954Z 22004KT 9SM SCT011 OVC090 22/21 A3002 RMK AO2
     SLP163 T02220206=
METAR KDRA 080955Z AUTO 09005KT 10SM CLR 23/M11 A2992 RMK AO2
     SLP078 T02281111 TSNO=
METAR KRQE 080953Z AUTO 12003KT 10SM OVC110 18/06 A3026 RMK AO2
     SLP107 T01830061 TSNO=
METAR KAST 080955Z AUTO 23005KT 5SM BR OVC003 12/11 A2994 RMK AO2
     SLP139 T01220111=
METAR KMBG 080955Z AUTO 01003KT 10SM CLR 12/10 A3013 RMK AO2
     SLP199 T01170100 TSNO=
METAR KCAO 080955Z AUTO 36006KT 10SM -RA FEW042 OVC095 15/13 A3029
     RMK AO2 SLP198 P0004 T01500133 TSNO=
METAR KJAX 080956Z 26003KT 10SM CLR 19/18 A2999 RMK AO2 SLP156
     T01940183=
METAR KINL 080955Z AUTO 21004KT 10SM FEW090 13/12 A3000 RMK AO2
     SLP159 T01280122=
METAR KAAT 080955Z AUTO 00000KT 10SM CLR 11/08 A3007 RMK AO2
     SLP138 T01110078 TSNO=
METAR KHON 080955Z AUTO 22005KT 10SM CLR 16/13 A3014 RMK AO2
     SLP203 T01610133=
METAR KPHP 080955Z AUTO 26007KT 10SM CLR 12/10 A3021 RMK AO2
     SLP218 T01220100 TSNO $=
METAR TJSJ 080956Z 00000KT 10SM FEW018 SCT028 27/24 A2999 RMK AO2
     SLP155 T02720244=
METAR KANJ 080955Z AUTO 00000KT 6SM BR BKN004 BKN009 20/19 A2994
     RMK AO2 RAB22E31 SLP134 P0000 T02000194=
METAR KVBG 080955Z AUTO 30003KT 10SM OVC006 12/11 A2992 RMK AO2
     SLP124 T01220111 TSNO $=
METAR KCHS 080956Z 28005KT 9SM CLR 24/19 A2996 RMK AO2 SLP143
     T02440194=
METAR KSDF 080956Z 14003KT 7SM FEW120 26/21 A3005 RMK AO2 SLP170
     T02560206=
METAR KSHV 080956Z 12003KT 10SM SCT160 BKN280 24/23 A3002 RMK AO2
     SLP162 T02390233=
METAR KABQ 080956Z 08016KT 10SM BKN100 BKN200 20/09 A3026 RMK AO2
     SLP159 T02000094=
METAR KPOE 080955Z AUTO 09004KT 10SM CLR 24/22 A3000 RMK AO2
     SLP159 T02390222=
METAR KROC 080954Z 24004KT 6SM BR BKN080 BKN120 BKN250 22/20 A3006
     RMK AO2 SLP175 T02220200=
METAR K9L2 080956Z AUTO 19007KT 10SM CLR 18/04 A2987 RMK AO2
     SLP092 T01830039 $=
METAR KSXT 080956Z AUTO 01007KT 9SM CLR 20/11 A3002 RMK AO2 SLP097
     T02000106 TSNO=
METAR KFLG 080956Z AUTO 00000KT 10SM FEW100 12/01 A3026 RMK AO2
     SLP138 T01170006 TSNO=
METAR KNXP 080956Z AUTO 30005KT CLR 24/00 A2991 RMK AO2 SLP088
     T02440000 $=
METAR KGNR 080956Z AUTO 12003KT 19/19 A3008 RMK AO1 SLP179
     T01890189=
METAR KWMC 080956Z AUTO 04009KT 10SM CLR 19/M05 A3005 RMK AO2
     SLP122 T01891050=
METAR KLOR 080953Z AUTO 00000KT 8SM CLR 21/19 A3001 RMK AO2 SLP159
     T02060189 TSNO $=
METAR KGFA 080956Z AUTO 17005KT 10SM CLR 09/06 A3021 RMK AO2
     SLP245 T00890061 $=
####018000084####
SPCN48 CWAO 080956
SPECI CYPH 080956Z AUTO 24014KT 5/8SM OVC001 06/05 A2979=

####018000075####
SALY31 HLLM 081000
METAR HLLM 080950Z 32007KT 6000 BKN025 27/20 Q1020=
####018000133####
SAPY SGAS 081000
METAR SGAS 081000Z  17010KT 9999  BKN008 OVC015
17/15 Q1015=
METAR SGES 081000Z 17004KT CAVOK 16/15  Q1015=
####018000135####
SAPY59 SGAS 081000
METAR SGAS 081000Z  17010KT 9999  BKN008 OVC015
17/15 Q1015=
METAR SGES 081000Z 17004KT CAVOK 16/15  Q1015=
####018000115####
SAUS44 KMRX 080957
MTRNMM
METAR KNMM 080956Z AUTO 00000KT 10SM CLR 24/22 A3005 RMK AO2 SLP181 
T02390217 $
####018000123####
SAUS46 KSGX 080957
MTRNRS
METAR KNRS 080956Z AUTO 30008KT 10SM OVC014 17/14 A2990 RMK AO2 
SLP123 T01670139 TSNO $
####018000112####
SAUS41 KAKQ 080957
MTRNCA
METAR KNCA 080956Z AUTO 03004KT 9SM CLR 25/20 A2992 RMK AO2 SLP132 
T02500200
####018000118####
SAUS46 KLOX 080957
MTRBIH
METAR KBIH 080956Z AUTO 02005KT 10SM CLR 15/02 A2998 RMK AO2 SLP099 
T01500017 TSNO
####018000117####
SAUS41 KAKQ 080957
MTRNXX
METAR KNXX 080956Z AUTO 00000KT 3SM HZ CLR 23/20 A3004 RMK AO2 
SLP174 T02330200 $
####018000119####
SAUS44 KMRX 080957 COR
MTRTRI
METAR KTRI 080953Z 00000KT 5SM BR FEW030 21/19 A3010 RMK AO2 SLP173 
T02060189 $
####018000118####
SAUS44 KSHV 080957
MTRAQV
METAR KAQV 080956Z AUTO 00000KT 10SM OVC018 23/23 A3001 RMK AO2 
SLP158 T02330228 $
####018000115####
SAUS44 KBMX 080957
MTRPRN
METAR KPRN 080956Z AUTO 00000KT 10SM CLR 23/22 A3002 RMK AO2 SLP159 
T02330217 $
####018000139####
SAUS41 KAKQ 080957
MTRNFE
METAR KNFE 080956Z AUTO 00000KT 1 1/4SM HZ FEW055 25/22 A2996 RMK 
AO2 RAB39E49 SLP147 P0000 T02500222 $
####018000108####
SAUS42 KCAE 080957
MTRCAE
METAR KCAE 080956Z 26004KT 10SM CLR 23/19 A2998 RMK AO2 SLP146 
T02330189
####018000111####
SAUS44 KMRX 080957 COR
MTRTYS
METAR KTYS 080953Z 00000KT 8SM CLR 22/19 A3006 RMK AO2 SLP165 
T02220189
####018000515####
SAAT31 TAPA 080957
METAR TAPA COR 081000Z 07011KT 9999  FEW020 28/24 Q1015=MPO 0812/0912 SHRA BKN015=

TAF TRPG 081000Z 0812/0912 08013KT 9999 SCT022 PROB40 TEMPO 0812/0912 SHRA BKN015= 

TAF TKPN 081000Z 0812/0912 08013KT 9999 SCT022 PROB40 TEMPO 0812/0912 SHRA BKN015=

TAF TQPF 081000Z 0812/0912 09014KT 9999 SCT022 PROB30 TEMPO 0812/0912 SHRA=

TAF TUPJ 081000Z 0812/0912 09014KT 9999 SCT023 PROB30 TEMPO 0812/0912 SHRA=        0700/0724 5000 SHRA FEW013CB BKN015 BKN080 PROB30 TEMPO 0700/0708 TSRA SCT012CB==####018000412####
SAUS98 KWBC 080958
METAR PACZ 080955Z AUTO 03008KT 10SM 10/09 A3007 RMK AO1 T01000095=
METAR PALU 080955Z AUTO 21016KT 10SM CLR 13/02 A3010 RMK AO1
T01280017=
METAR PAIM 080955Z AUTO 31004KT 10SM CLR 11/07 A3009 RMK AO1
T01110073=
METAR PATL 080955Z AUTO 03005KT 10SM CLR 16/06 A3000 RMK AO1
T01560062=
METAR PASV 080955Z AUTO 00000KT 10SM SCT036 SCT080 BKN090 09/08
A2997 RMK AO1 T00940078=
####018003689####
SAUS99 KWBC 080958
METAR
KMSN 080953Z VRB03KT 9SM BKN120 21/20 A3001 RMK AO2 SLP156
     T02110200=
KMWM 080953Z AUTO 24003KT 10SM CLR 14/14 A3013 RMK AO2=
KMWT 080953Z AUTO 00000KT 4SM BR BKN002 23/22 A3004 RMK AO2 SLP160
     T02280222 TSNO=
KNQA 080955Z AUTO 00000KT 10SM CLR 23/23 A3007 RMK=
KOWB 080956Z AUTO 00000KT 10SM FEW060 BKN090 26/23 A3006 RMK AO2
     T02550233 SLP173=
KPNM 080953Z AUTO 00000KT 3/4SM BR VV005 14/13 A3009 RMK AO2=
KPQN 080953Z AUTO 32007KT 10SM CLR 17/14 A3016 RMK AO2=
KPWC 080953Z AUTO 00000KT 10SM CLR 10/09 A3008 RMK AO2=
KRCE 080955Z AUTO 33003KT 5SM BR CLR 22/22 A3007 RMK AO2=
KRIL 080953Z AUTO 01003KT 10SM CLR 16/08 A3024 RMK AO2 SLP164
     T01560078 TSNO=
KRNO 080955Z 00000KT 10SM FEW100 SCT150 22/03 A3004 RMK AO2 SLP109
     T02220033=
KSAV 080953Z 24003KT 10SM FEW024 21/19 A2999 RMK AO2 SLP154
     T02110194=
KSBN 080954Z 00000KT 6SM BR CLR 23/21 A3005 RMK AO2 SLP167
     T02280206=
KSCK 080955Z AUTO 01005KT 10SM CLR 14/11 A2984 RMK AO2 SLP105
     T01440111=
KSGR 080953Z AUTO 07006KT 10SM CLR 26/23 A2990 RMK AO2 SLP132
     T02610233 TSNO=
KSMS 080955Z AUTO 00000KT 10SM CLR 24/19 A2997 RMK AO2=
KSRR 080955Z AUTO 22006KT 10SM BKN020 BKN025 OVC110 13/13 A3034
     RMK AO2=
KTLH 080953Z 00000KT 10SM CLR 22/21 A3001 RMK AO2 SLP161
     T02220206=
KTWM 080953Z AUTO 00000KT 7SM CLR 16/13 A3002 RMK AO2=
KUCP 080956Z AUTO 00000KT 1/4SM FG BKN001 18/18 A3010 RMK AO2
     T01770177 SLP200 $=
KULM 080955Z AUTO 28005KT 10SM CLR 14/13 A3011 RMK AO2=
KVQQ 080955Z AUTO 00000KT 1/2SM FG VV005 17/17 A3000 RMK AO2=
KLAX 080953Z 22005KT 10SM OVC012 16/12 A2991 RMK AO2 SLP125
     T01610122=
K0A9 080955Z AUTO 00000KT 6SM BR CLR 19/18 A3012 RMK=
KABI 080952Z 02004KT 9SM CLR 22/21 A3005 RMK AO2 SLP148 T02170211
     $=
KAIT 080953Z AUTO 00000KT 1SM BR VV007 12/11 A3006 RMK AO2=
KAVP 080954Z 00000KT 5SM HZ CLR 21/18 A3007 RMK AO2 SLP168
     T02060178 $=
KBBB 080953Z AUTO 00000KT 7SM CLR 13/13 A3011 RMK AO2=
KBBG 080955Z AUTO 00000KT 5SM BR CLR 22/22 A3007 RMK AO2=
KBBP 080955Z AUTO 27004KT 10SM CLR 22/19 A2995 RMK AO2=
KBKN 080955Z AUTO 36005KT 10SM CLR 22/22 A3003 RMK AO2=
KBMI 080956Z AUTO 00000KT 8SM FEW001 23/22 A3005 RMK AO2 PWINO
     T02270222 LTG DSNT NE TSB07E30 P0010 SLP161 $=
KBOK 080956Z AUTO 00000KT 3/4SM BR OVC002 09/09 A2996 RMK AO2
     T00880088 SLP149 $=
KBTV 080954Z 00000KT 4SM BR CLR 23/21 A3001 RMK AO2 SLP161
     T02330211=
KCHA 080953Z 00000KT 10SM CLR 23/19 A3006 RMK AO2 SLP168
     T02280189=
KCIC 080955Z AUTO 13007KT 10SM CLR 22/13 A2982 RMK AO1=
KCMR 080955Z AUTO 17007KT 10SM BKN100 18/02 A3025 RMK AO1=
KCNK 080955Z AUTO 03005KT 10SM FEW016 OVC029 20/19 A3015 RMK AO2
     SLP195 T02000189=
KDLH 080955Z 31008KT 10SM CLR 16/14 A3005 RMK AO2 SLP173
     T01610139=
KEAT 080955Z AUTO 29006KT 10SM CLR 18/06 A3003 RMK AO2 SLP161
     T01780061=
KFFM 080953Z AUTO 21004KT 10SM CLR 14/14 A3008 RMK AO2=
KFGN 080954Z AUTO 26009KT 3/4SM -DZ VV005 17/13 A2996 RMK AO2=
KGDB 080952Z AUTO 25003KT 10SM CLR 14/13 A3013 RMK AO2
     T01360130=
KGGE 080955Z AUTO 28006KT 10SM CLR 23/22 A2994 RMK AO2=
KGHW 080953Z AUTO 23005KT 10SM CLR 14/13 A3013 RMK AO2=
KGPI 080955Z AUTO 00000KT 10SM CLR 09/07 A3017 RMK AO2 SLP209
     T00890067=
KHVS 080955Z AUTO 33003KT 10SM CLR 25/18 A2998 RMK AO2=
KIRK 080955Z AUTO 00000KT 7SM CLR 19/19 A3007 RMK AO2 SLP180
     T01940189=
KLBB 080953Z COR 01010KT 10SM -RA FEW011 SCT075 OVC100 19/17 A3014
     RMK AO2 RAB53 SLP160 P0000 T01940172=
KLIC 080955Z AUTO 15007KT 8SM CLR 13/13 A3033 RMK AO2 SLP213
     T01330133=
####018003717####
SAUS99 KWBC 080958 RRA
METAR
KLLJ 080955Z AUTO 00000KT 10SM FEW090 09/00 A3025 RMK AO2 SLP194
     T00890000=
KLXV 080953Z AUTO 00000KT 10SM FEW013 BKN031 OVC100 07/06 A3055
     RMK AO2 SLP199 T00670061 TSNO=
KMAO 080955Z AUTO 30005KT 10SM CLR 24/19 A2993 RMK AO2=
KMGG 080955Z AUTO 27003KT 10SM CLR 16/15 A3010 RMK AO2
     T01600149=
KMKG 080955Z 23003KT 4SM -RA BR SCT007 BKN035 OVC085 23/22 A3003
     RMK AO2 RAB16 CIG 028 RWY 14 SLP163 P0003 T02330217 $=
KMOX 080950Z AUTO 23004KT 10SM CLR 14/14 A3007 RMK AO2=
KSDF 080956Z 14003KT 7SM FEW120 26/21 A3005 RMK AO2 SLP170
     T02560206=
K1A6 080955Z AUTO 00000KT 3SM BR CLR 21/21 A3010 RMK AO2=
K1M4 080956Z AUTO 00000KT 10SM CLR 22/21 A3010 RMK AO2 T02220211
     SLP189=
K21D 080958Z AUTO 31004KT 10SM CLR 17/16 A3008 RMK AO2=
KAIG 080955Z AUTO 32004KT 10SM CLR 18/17 A3001 RMK AO2=
KAND 080956Z AUTO 00000KT 10SM CLR 21/19 A3001 RMK AO2 SLP152
     T02110194=
KART 080956Z AUTO 00000KT 5SM BR CLR 22/20 A3003 RMK AO2 SLP161
     T02220200=
KARV 080952Z AUTO 36004KT 10SM SCT013 18/15 A3003 RMK AO2
     T01760153=
KATW 080955Z AUTO 25005KT 5SM BR OVC003 22/21 A3001 RMK AO2=
KBED 080956Z AUTO 17006KT 4SM BR BKN017 OVC075 24/22 A3006 RMK AO2
     SLP189 T02390217=
KBJI 080954Z AUTO 24006KT 10SM CLR 14/13 A3005 RMK AO2=
KBUU 080954Z AUTO 00000KT 7SM BKN100 BKN120 21/21 A3000 RMK
     AO2=
KBWP 080951Z AUTO 24004KT 10SM CLR 15/13 A3009 RMK AO1
     T01450131=
KBZN 080956Z AUTO 00000KT 10SM CLR 07/04 A3027 RMK AO2 SLP225
     T00720039=
KCEC 080956Z AUTO 27003KT 3SM BR OVC003 10/09 A2996 RMK AO2 SLP147
     T01000094=
KCEF 080955Z AUTO 15003KT 10SM FEW085 24/22 A3005 RMK AO2 SLP176
     T02360217 PWINO $=
KCTB 080956Z AUTO 27003KT 10SM CLR 08/05 A3024 RMK AO2 SLP225
     T00780050=
KD39 080954Z AUTO 00000KT 10SM CLR 16/15 A3011 RMK AO2
     T01600150=
KDAY 080956Z 00000KT 6SM HZ OVC150 22/18 A3010 RMK AO2 SLP181
     T02170183 $=
KDIK 080956Z AUTO 21003KT 10SM CLR 09/08 A3015 RMK AO2 SLP203
     T00940083=
KDUG 080956Z AUTO 08021G26KT 10SM CLR 26/12 A3001 RMK AO2 PK WND
     08030/0929 SLP074 T02560122 $=
KDUJ 080956Z AUTO 08004KT 4SM BR FEW060 19/17 A3012 RMK AO2 SLP183
     T01940172=
KDVK 080957Z AUTO 00000KT 5SM 21/19 A3009 RMK AO1=
KEAU 080956Z AUTO 00000KT 10SM CLR 19/18 A3002 RMK AO2 SLP160
     P0001 T01890178=
KEED 080956Z AUTO 00000KT 10SM CLR 29/M03 A2975 RMK AO2 SLP035
     T02941033 TSNO=
KEKO 080956Z AUTO 00000KT 10SM CLR 12/M01 A3011 RMK AO2 SLP144
     T01221006=
KFBG 080955Z AUTO 34004KT 10SM CLR 25/19 A2994 RMK AO2 SLP137
     T02510186 $=
KGON 080956Z AUTO 10008KT 7SM OVC002 23/21 A3006 RMK AO2 SLP178
     T02280211=
KGRD 080956Z AUTO 25004KT 10SM CLR 22/20 A3003 RMK AO2 SLP159
     T02220200=
KGUS 080955Z AUTO 00000KT 10SM SCT100 23/20 A3004 RMK AO2 SLP167
     T02290204=
KHFF 080955Z AUTO 32004KT 10SM CLR 22/18 A2997 RMK AO2 SLP145
     T02160176 $=
KHND 080956Z AUTO 17007KT 10SM CLR 26/M02 A2988 RMK AO2 T02611016
     SLP059=
KHYA 080956Z 00000KT 2 1/2SM BR OVC001 21/21 A3009 RMK AO2 SLP190
     T02110206=
KIGX 080956Z AUTO 02004KT 7SM CLR 25/18 A2999 RMK AO2 SLP148
     T02500178 $=
KINW 080956Z AUTO 14006KT 10SM CLR 23/01 A3009 RMK AO2 SLP100
     T02280006=
KIWA 080956Z AUTO 00000KT 10SM CLR 34/01 A2980 RMK AO2=
KJMS 080956Z AUTO 00000KT 10SM CLR 12/11 A3009 RMK AO2 SLP189
     T01170111=
KLAS 080956Z 25005KT 10SM CLR 29/M04 A2981 RMK AO2 SLP061
     T02891044=
KLNR 080956Z AUTO 00000KT 10SM OVC006 21/19 A3002 RMK AO2 SLP157
     T02060194=
KLRF 080955Z AUTO 00000KT 10SM OVC170 23/22 A3005 RMK AO2 SLP175
     T02330224=
####018003705####
SAUS99 KWBC 080958 RRB
METAR
KM19 080956Z AUTO 19005KT 10SM CLR 24/23 A3006 RMK AO2 T02440227
     SLP177=
KMMT 080955Z AUTO 30005KT 10SM CLR 22/19 A2998 RMK AO2 SLP150
     T02250188=
KMOB 080956Z 00000KT 5SM BR BCFG CLR 23/22 A3003 RMK AO2 SLP166
     T02330222=
KMQY 080956Z AUTO 00000KT 10SM CLR 23/22 A3008 RMK AO2 T02330222
     SLP176=
KMRH 080956Z AUTO 04006KT 4SM HZ CLR 27/24 A2990 RMK AO2 SLP127
     T02670239 TSNO=
KOFK 080956Z AUTO 25003KT 10SM BKN090 BKN120 16/14 A3018 RMK AO2
     SLP214 T01560144=
KOZR 080955Z AUTO 00000KT 5SM R06/4000V5500FT BR CLR 22/22 A3002
     RMK AO2 SLP162 T02180218=
KRDM 080956Z AUTO 15003KT 10SM CLR 11/03 A3006 RMK AO2 SLP154
     T01060028 $=
KSBP 080956Z AUTO 10SM OVC009 13/11 A2991 RMK AO2 SLP127 T01330111
     $=
KSFO 080956Z 26010KT 10SM BKN008 OVC013 13/11 A2993 RMK AO2 SLP133
     T01330106=
KSGH 080956Z AUTO 00000KT 4SM BR CLR 19/19 A3010 RMK AO2 T01940194
     SLP185=
KSLE 080956Z AUTO 16005KT 10SM CLR 18/12 A2987 RMK AO2 SLP113
     T01830122=
KSME 080955Z AUTO 00000KT 3SM BR 20/20 A3009 RMK AO2=
KSRC 080956Z AUTO 00000KT 10SM CLR 23/23 A3006 RMK AO2 TSNO
     T02330227 SLP182=
KSSC 080955Z AUTO 29008KT 10SM CLR 25/19 A2995 RMK AO2 SLP141
     T02530186 $=
KTPH 080956Z AUTO 36008KT 10SM CLR 16/M04 A3010 RMK AO2 SLP109
     T01561044=
KTZR 080956Z AUTO 00000KT 5SM BR CLR 20/18 A3008 RMK AO2=
KUKI 080956Z AUTO 00000KT 10SM CLR 13/11 A2991 RMK AO2 SLP119
     T01280106=
KVAD 080955Z AUTO 00000KT 10SM CLR 21/19 A3001 RMK AO2 SLP161
     T02090195 $=
KY51 080955Z AUTO 30003KT 7SM CLR 19/19 A3004 RMK AO1
     T01930190=
PAAK 080956Z AUTO 07017G23KT 10SM BKN013 BKN022 OVC120 07/04 A2961
     RMK AO1 PNO=
PAHP 080956Z AUTO 34005KT 10SM OVC075 11/08 A3006 RMK AO1 PNO
     TSNO=
PAAK 080956Z AUTO 07017G23KT 10SM BKN013 BKN022 OVC120 07/04 A2961
     RMK AO1 PNO=
PABL 080956Z AUTO 34005KT 10SM CLR 09/06 A3016 RMK AO1 PNO=
PABV 080956Z AUTO 12004KT 10SM CLR 12/08 RMK AO1 PNO=
PADK 080956Z 05013KT 10SM SCT014 OVC021 07/06 A2957 RMK AO1
     PNO=
PADL 080956Z 33008KT 10SM OVC075 11/08 A2998 RMK AO1 PNO TSNO=
PAEM 080956Z AUTO 35005KT 10SM BKN080 OVC120 11/08 A3004 RMK AO1
     PNO=
PAFE 080956Z AUTO 09004KT 10SM CLR 11/09 A3018 RMK AO1 PNO=
PAFM 080956Z AUTO 32004KT 10SM CLR 15/09 A3011 RMK AO1 PNO=
PAGL 080956Z AUTO 35009KT 10SM CLR 14/08 A3014 RMK AO1 PNO=
PAGS 080956Z AUTO 00000KT 10SM CLR 10/09 A3019 RMK AO1 PNO=
PAHP 080956Z AUTO 34005KT 10SM OVC075 11/08 A3006 RMK AO1 PNO
     TSNO=
PAHY 080956Z AUTO 33006KT 10SM CLR 16/10 A3012 RMK AO1 PNO=
PAII 080956Z AUTO 01005KT 10SM SCT044 BKN055 OVC085 10/08 A2997
     RMK AO1 PNO=
PAIN 080956Z AUTO 00000KT 10SM CLR 09/06 A3008 RMK AO1 PNO=
PAJC 080956Z AUTO 20003KT 10SM BKN017 OVC024 08/04 A2995 RMK AO1
     PNO=
PAKK 080956Z AUTO 01011G16KT 10SM CLR 13/08 A3006 RMK AO1 PNO=
PAKP 080956Z AUTO 04006KT 10SM OVC033 11/03 A3012 RMK AO1=
PAMD 080956Z AUTO 09016KT 7SM FEW008 SCT017 BKN024 09/08 A3002 RMK
     AO1 PNO=
PAMH 080956Z 00000KT 10SM CLR 14/05 A3000 RMK AO1 PNO=
PAMM 080956Z AUTO 33006KT 10SM CLR 18/11 A3009 RMK AO1 PNO=
PAMY 080956Z 29009KT 1SM OVC002 05/04 A3006 RMK AO1=
PANI 080956Z AUTO 00000KT 9SM CLR 09/08 A3002 RMK AO1 PNO=
PANV 080956Z AUTO 27005KT 10SM OVC085 13/08 A2999 RMK AO1 PNO=
PAOU 080956Z AUTO 05009KT 10SM OVC050 07/07 A2997 RMK AO2 PWINO
     TSNO T00720066 SLP151 $=
PAPG 080956Z 04005KT 10SM CLR 12/09 A3014 RMK AO1 PNO=
PAPH 080956Z AUTO 00000KT 10SM CLR 05/04 A2997 RMK AO1 PNO=
PAPN 080956Z AUTO 00000KT 3/4SM BR OVC060 06/05 A2994 RMK AO2
     PWINO TSNO T00550050 SLP142 $=
####018000780####
SAUS99 KWBC 080958 RRC
METAR
PARC 080956Z AUTO 08005KT 10SM FEW060 11/02 A3005 RMK AO1 PNO=
PASA 080956Z AUTO 06003KT 10SM CLR 05/03 A3020 RMK AO1 PNO=
PASD 080956Z AUTO 00000KT 10SM FEW044 07/06 A2995 RMK AO1 PNO=
PASH 080956Z AUTO 00000KT 10SM CLR 07/06 A3019 RMK AO1 PNO=
PASK 080956Z 25007KT 10SM CLR 12/07 A3011 RMK AO1 PNO=
PASM 080956Z AUTO 04005KT 10SM OVC070 09/08 A3006 RMK AO1 PNO=
PASX 080956Z 00000KT 10SM OVC060 13/09 A2996 RMK AO1 PNO=
PAUN 080956Z AUTO 11007KT 10SM CLR 13/04 A3002 RMK AO1 PNO=
PAVD 080956Z 10005KT 10SM OVC080 11/08 A3009 RMK AO1 PNO=
PAWG 080956Z AUTO 29004KT 10SM CLR 13/10 A3014 RMK AO1 PNO=
PAWN 080956Z AUTO 26007KT 10SM CLR 09/02 A3016 RMK AO1 PNO=
PAWS 080956Z AUTO 04005KT 10SM OVC090 12/09 A3000 RMK AO1 PNO=
####018000113####
SACN94 KWBC 080958
METAR CWND 080900Z AUTO 31016KT 05/03 RMK AO1 PK WND 31023/0814
SLP150 T00470032 51014=
####018000487####
SPUS99 KWBC 080958
SPECI
KCNM 080955Z AUTO 35009KT 5SM RA BR SCT007 OVC010 20/19 A3013 RMK
     AO2 LTG DSNT NE AND S TSE55 P0001=
KCQX 080956Z AUTO 00000KT 4SM BR OVC001 19/19 A3011 RMK AO2=
KHAO 080956Z AUTO 00000KT 1 1/4SM BR CLR 21/19 A3008 RMK AO2=
KMHT 080956Z 18007KT 3SM BR BKN006 OVC080 23/22 A3005 RMK AO2=
KNSE 080948Z AUTO 00000KT 1 1/4SM BR CLR 23/21 A3002 RMK AO2 $=
KOZR 080950Z AUTO 00000KT 6SM R06/4500V5500FT BR CLR 22/22 A3002
     RMK AO2 SLP163=
####018000115####
SACN89 KWBC 080958
METAR CWCI 080900Z AUTO 05008KT 16/16 RMK AO1 2PAST HR 8010 SLP138
P0005 T01600158 50130=
####018003682####
SAUS80 KWBC 081000
METAR
K12N 080954Z AUTO 00000KT 21/21 A3005 RMK AO2 SLP164 T02110206
     PWINO TSNO=
KCOU 080954Z AUTO 00000KT 7SM SCT015 SCT021 23/22 A3006 RMK AO2
     RAE0857 SLP170 P0000 T02280222 TSNO=
KCAR 080954Z AUTO 17005KT 7SM FEW040 22/19 A3001 RMK AO2 SLP160
     T02170194=
KNAK 080954Z AUTO 00000KT 3SM HZ 26/22 A3000 RMK AO2 SLP159
     T02560222 PWINO TSNO $=
KGSO 080954Z 01003KT 8SM BKN095 25/18 A3002 RMK AO2 SLP152
     T02500178=
KACY 080954Z 00000KT 5SM BR CLR 24/22 A3004 RMK AO2 SLP171
     T02390222=
KMTP 080954Z AUTO 00000KT 21/19 A3007 RMK AO2 SLP184 T02110194
     PWINO TSNO=
PHOG 080954Z AUTO 04010KT 10SM CLR 24/17 A3004 RMK AO2 SLP176
     T02390167 403170206 TSNO=
KFWA 080954Z 00000KT 8SM CLR 23/20 A3006 RMK AO2 SLP172
     T02280200=
KROC 080954Z 24004KT 6SM BR BKN080 BKN120 BKN250 22/20 A3006 RMK
     AO2 SLP175 T02220200=
KSUS 080954Z AUTO 00000KT 10SM CLR 24/23 A3002 RMK AO2 SLP156
     T02390228=
KSYR 080954Z 17003KT 8SM FEW090 22/20 A3004 RMK AO2 SLP166
     T02220200=
KDVL 080955Z AUTO 25007KT 10SM CLR 16/12 A3006 RMK AO1=
KEAR 080955Z AUTO 00000KT 10SM CLR 15/13 A3023 RMK AO1=
KGPZ 080955Z AUTO 20004KT 10SM CLR 13/12 A3005 RMK AO1=
KLEX 080954Z AUTO 17003KT 5SM HZ CLR 22/18 A3009 RMK AO2 SLP178
     T02170183 TSNO=
KLYH 080954Z AUTO 35003KT 7SM CLR 24/18 A3004 RMK AO2 SLP159
     T02390183=
KORH 080954Z AUTO 17005KT 2SM R11/4500VP6000FT BR OVC002 22/22
     A3010 RMK AO2 SLP185 T02220217=
KPIA 080954Z 19004KT 2 1/2SM BR FEW005 BKN010 OVC028 23/22 A3003
     RMK AO2 CIG 007V011 SLP163 T02280217=
K4BM 080954Z AUTO 21005KT 1/4SM FG 05/04 A3063 RMK AO2=
KRFD 080954Z 22004KT 9SM SCT011 OVC090 22/21 A3002 RMK AO2 SLP163
     T02220206=
KDRA 080955Z AUTO 09005KT 10SM CLR 23/M11 A2992 RMK AO2 SLP078
     T02281111 TSNO=
KRQE 080953Z AUTO 12003KT 10SM OVC110 18/06 A3026 RMK AO2 SLP107
     T01830061 TSNO=
KAST 080955Z AUTO 23005KT 5SM BR OVC003 12/11 A2994 RMK AO2 SLP139
     T01220111=
KMBG 080955Z AUTO 01003KT 10SM CLR 12/10 A3013 RMK AO2 SLP199
     T01170100 TSNO=
KCAO 080955Z AUTO 36006KT 10SM -RA FEW042 OVC095 15/13 A3029 RMK
     AO2 SLP198 P0004 T01500133 TSNO=
KJAX 080956Z 26003KT 10SM CLR 19/18 A2999 RMK AO2 SLP156
     T01940183=
KINL 080955Z AUTO 21004KT 10SM FEW090 13/12 A3000 RMK AO2 SLP159
     T01280122=
KAAT 080955Z AUTO 00000KT 10SM CLR 11/08 A3007 RMK AO2 SLP138
     T01110078 TSNO=
KMSN 080953Z VRB03KT 9SM BKN120 21/20 A3001 RMK AO2 SLP156
     T02110200=
KMWT 080953Z AUTO 00000KT 4SM BR BKN002 23/22 A3004 RMK AO2 SLP160
     T02280222 TSNO=
KRNO 080955Z 00000KT 10SM FEW100 SCT150 22/03 A3004 RMK AO2 SLP109
     T02220033=
KSAV 080953Z 24003KT 10SM FEW024 21/19 A2999 RMK AO2 SLP154
     T02110194=
KSBN 080954Z 00000KT 6SM BR CLR 23/21 A3005 RMK AO2 SLP167
     T02280206=
KSCK 080955Z AUTO 01005KT 10SM CLR 14/11 A2984 RMK AO2 SLP105
     T01440111=
KSMS 080955Z AUTO 00000KT 10SM CLR 24/19 A2997 RMK AO2=
KTLH 080953Z 00000KT 10SM CLR 22/21 A3001 RMK AO2 SLP161
     T02220206=
KLAX 080953Z 22005KT 10SM OVC012 16/12 A2991 RMK AO2 SLP125
     T01610122=
KABI 080952Z 02004KT 9SM CLR 22/21 A3005 RMK AO2 SLP148 T02170211
     $=
KAVP 080954Z 00000KT 5SM HZ CLR 21/18 A3007 RMK AO2 SLP168
     T02060178 $=
KBTV 080954Z 00000KT 4SM BR CLR 23/21 A3001 RMK AO2 SLP161
     T02330211=
KCHA 080953Z 00000KT 10SM CLR 23/19 A3006 RMK AO2 SLP168
     T02280189=
KCNK 080955Z AUTO 03005KT 10SM FEW016 OVC029 20/19 A3015 RMK AO2
     SLP195 T02000189=
KDLH 080955Z 31008KT 10SM CLR 16/14 A3005 RMK AO2 SLP173
     T01610139=
####018003724####
SAUS70 KWBC 081000 RRA
METAR
KGAD 080955Z AUTO 00000KT 10SM CLR 22/19 A3005 RMK AO1=
KGAI 080955Z 00000KT 7SM BKN090 OVC110 25/21 A3005 RMK AO1=
KGBD 080955Z AUTO 01006KT 8SM BKN015 19/18 A3016 RMK AO1=
KGCK 080954Z AUTO 04007KT 10SM OVC013 18/17 A3021 RMK AO2 SLP202
     T01780167=
KGCN 080954Z AUTO 00000KT 10SM CLR 09/M03 A3023 RMK AO2 SLP139
     T00891028=
KGDV 080955Z AUTO 22003KT 10SM CLR 11/07 A3016 RMK AO1=
KGED 080954Z AUTO 00000KT 2 1/2SM BR CLR 24/23 A3001 RMK AO2
     SLP162 T02390228=
KGTR 080955Z 31004KT 10SM CLR 24/23 A3004 RMK AO1=
KGUC 080955Z AUTO 01005KT 10SM FEW120 09/03 A3044 RMK AO1=
KGXY 080955Z AUTO 08003KT 10SM BKN009 BKN014 OVC047 15/12 A3032
     RMK AO1=
KHDN 080955Z 10007KT 10SM CLR 10/05 A3031 RMK AO1=
KHEF 080955Z AUTO 00000KT 6SM FEW090 23/19 A3001 RMK AO1=
KHEZ 080955Z AUTO 00000KT 10SM CLR 22/21 A3003 RMK AO1=
KHNB 080955Z AUTO 00000KT 5SM FEW026 BKN065 OVC100 23/21 A3006 RMK
     AO1=
KHWD 080954Z AUTO 32007KT 10SM OVC009 14/11 A2992 RMK AO2 SLP140
     T01390111=
KHYS 080955Z AUTO 35006KT 10SM OVC022 19/17 A3018 RMK AO1=
KILN 080954Z AUTO 00000KT 4SM BR CLR 21/19 A3009 RMK AO2 SLP175
     T02110194=
KIMT 080954Z AUTO 34004KT 5SM BR BKN002 OVC006 20/19 A2998 RMK AO2
     SLP149 T02000194=
KIND 080954Z 00000KT 9SM BKN090 OVC120 25/20 A3003 RMK AO2 SLP161
     T02500200=
KINT 080954Z AUTO 01004KT 10SM SCT090 24/18 A3003 RMK AO2 SLP154
     T02440178=
KIPT 080954Z AUTO 00000KT 7SM CLR 20/17 A3006 RMK AO2 SLP172
     T02000167=
KISP 080954Z 15003KT 3SM BR OVC003 24/22 A3003 RMK AO2 SLP167
     T02440222=
KISW 080954Z AUTO 00000KT 10SM SCT005 19/19 A3002 RMK AO2 SLP161
     T01940194 TSNO=
KIWD 080955Z AUTO 27003KT 10SM FEW060 SCT070 BKN100 16/15 A3000
     RMK AO1=
KIZG 080954Z AUTO 00000KT 5SM BR CLR 21/19 A3007 RMK AO2 SLP182
     T02060194=
KJAC 080955Z AUTO 04007KT 10SM CLR 07/M01 A3034 RMK AO1=
KJHW 080955Z AUTO 00000KT 1SM CLR 19/18 A3012 RMK AO1 54000=
KJST 080954Z AUTO 24004KT 5SM HZ CLR 20/16 A3014 RMK AO2 SLP188
     T02000156=
KKLS 080955Z AUTO 00000KT 10SM CLR 16/13 A2991 RMK AO1=
KL35 080953Z AUTO 00000KT 10SM CLR 06/M05 A3017 RMK AO2=
KLAF 080954Z AUTO 00000KT 8SM SCT060 SCT100 23/21 A3003 RMK AO2
     SLP163 T02280211 TSNO=
KLBL 080955Z 06007KT 10SM SCT041 BKN047 19/17 A3021 RMK AO1=
KLBT 080954Z AUTO 27003KT 10SM CLR 24/18 A2993 RMK AO2 SLP132
     T02440183=
KLCI 080955Z AUTO 00000KT 10SM BKN100 OVC120 22/19 A3006 RMK
     AO1=
KLEW 080955Z 16004KT 2 1/2SM OVC003 20/19 A3010 RMK AO1=
KLGD 080955Z AUTO 00000KT 10SM CLR 09/04 A3005 RMK AO1=
KLKV 080955Z AUTO 33009KT 10SM CLR 10/01 A3011 RMK AO1=
KLNK 080954Z AUTO 36004KT 10SM OVC032 19/17 A3015 RMK AO2 SLP201
     T01890172=
KLPC 080955Z AUTO 34003KT 10SM OVC012 14/11 A2991 RMK AO1 PNO=
KLWM 080954Z AUTO 00000KT 3SM BR BKN042 BKN050 OVC070 24/22 A3009
     RMK AO2 SLP187 T02390217=
KLWT 080954Z AUTO 15005KT 10SM CLR 08/05 A3026 RMK AO2 SLP229
     T00780050=
KMAI 080953Z AUTO 00000KT 6SM BR CLR 23/22 A3001 RMK AO2 SLP160
     T02330222=
KMBL 080955Z AUTO 00000KT 10SM FEW065 OVC110 22/19 A2999 RMK
     AO1=
KMFI 080954Z AUTO 32005KT 9SM CLR 18/18 A3001 RMK AO2 SLP156
     T01830178=
KMGJ 080954Z AUTO 00000KT 3SM BR CLR 21/19 A3003 RMK AO2 SLP167
     T02110194=
KMIV 080954Z AUTO 10003KT 1 1/2SM BR FEW003 SCT100 23/22 A3000 RMK
     AO2 SLP156 T02330222=
KMJX 080955Z AUTO 00000KT 1 1/4SM SCT060 BKN090 23/22 A3002 RMK
     AO1=
KMKC 080954Z 00000KT 10SM CLR 23/21 A3004 RMK AO2 SLP165
     T02280206=
KMKT 080955Z 29005KT 10SM CLR 17/15 A3010 RMK AO1=
KMML 080955Z AUTO 27005KT 10SM CLR 14/12 A3013 RMK AO1=
####018003703####
SAUS70 KWBC 081000
METAR
PHMK 080954Z AUTO 05007KT 10SM CLR 22/19 A3006 RMK AO2 SLP180
     T02220189 402940217 TSNO=
KRST 080954Z 32005KT 9SM CLR 18/17 A3010 RMK AO2 SLP186
     T01780172=
KRUT 080955Z AUTO 15005KT 4SM CLR 21/18 A3006 RMK AO1=
KSBY 080954Z 10004KT 5SM BR BKN100 BKN110 24/23 A3000 RMK AO2
     SLP160 T02440233=
KSDY 080955Z AUTO 22005KT 10SM CLR 12/08 A3015 RMK AO1=
KSET 080954Z AUTO 00000KT 2 1/2SM BR SCT004 24/24 A3002 RMK AO2
     RAE10 SLP159 P0000 T02440244=
KSFM 080955Z 00000KT 2 1/2SM OVC003 21/18 A3008 RMK AO1=
KSFZ 080955Z AUTO 14004KT 10SM OVC010 22/21 A3008 RMK AO1=
KSGT 080955Z 13003KT 10SM CLR 23/22 A3006 RMK AO1=
KSGU 080955Z AUTO 09003KT 10SM CLR 26/02 A2995 RMK AO1=
KSJN 080954Z AUTO 09006KT 10SM BKN120 22/05 A3016 RMK AO2 SLP107
     T02170050=
KSKX 080955Z AUTO 00000KT 10SM FEW100 11/04 A3038 RMK AO1=
KSLG 080955Z AUTO 16004KT 10SM BKN023 BKN080 23/21 A3006 RMK
     AO1=
KSMN 080955Z AUTO 14003KT 10SM CLR 08/02 A3024 RMK AO1=
KSQI 080955Z 00000KT 5SM BKN004 OVC009 22/22 A3004 RMK AO1=
KSUE 080955Z AUTO 29004KT 8SM SCT008 21/19 A2998 RMK AO1=
KTAD 080954Z AUTO 33005KT 10SM SCT085 14/13 A3036 RMK AO2 SLP208
     T01390128=
KTEX 080953Z AUTO 11004KT 10SM SCT110 12/03 A3046 RMK AO2=
KTIF 080950Z AUTO 25004KT 10SM OVC100 16/15 A3026 RMK AO2
     T01570146=
KTQE 080954Z AUTO 36005KT 10SM CLR 18/17 A3014 RMK AO2 SLP194
     T01830172=
KTRK 080950Z AUTO 00000KT 10SM CLR 12/08 A3015 RMK AO2=
KTVF 080955Z AUTO 24007KT 10SM CLR 13/11 A3004 RMK AO1=
KUIN 080954Z AUTO 20003KT 2 1/2SM BR BKN001 23/22 A3004 RMK AO2
     SLP164 T02280222=
KUZA 080954Z AUTO 00000KT 10SM CLR 22/18 A3001 RMK AO2 SLP146
     T02220183=
KVAY 080954Z AUTO 00000KT M1/4SM FG VV005 23/23 A3002 RMK AO2
     SLP164 T02330233=
KVBT 080955Z AUTO 00000KT 10SM BKN032 OVC080 23/21 A3003 RMK
     AO1=
KVIS 080955Z AUTO 26003KT 10SM CLR 19/12 A2980 RMK AO1=
KVSF 080954Z AUTO 00000KT 1 1/2SM BR BKN002 21/20 A3007 RMK AO2
     SLP179 T02110200 $=
KVTA 080954Z AUTO 00000KT 1 1/4SM BR SCT060 18/18 A3008 RMK AO2
     SLP180 T01830178=
KWLD 080954Z AUTO 00000KT 10SM CLR 22/21 A3007 RMK AO2 SLP172
     T02220211=
KWVL 080955Z AUTO 17004KT 7SM OVC005 21/19 A3004 RMK AO1=
KWWD 080955Z AUTO 5SM OVC120 23/23 A3003 RMK AO1=
KYKN 080955Z AUTO 00000KT 10SM CLR 17/14 A3017 RMK AO1=
KDYL 080954Z AUTO 00000KT 5SM BR CLR 22/21 A3003 RMK AO2 SLP160
     T02170206 TSNO=
KDYR 080955Z AUTO 00000KT 10SM CLR 24/19 A3006 RMK AO1=
KEEN 080955Z AUTO 00000KT 3SM BKN085 22/21 A3006 RMK AO1=
KEGE 080955Z 34003KT 10SM CLR 10/08 A3036 RMK AO1=
KEHR 080955Z AUTO 00000KT 7SM CLR 22/18 A3005 RMK AO1=
KENV 080955Z 19003KT 10SM CLR 20/M01 A3009 RMK AO1=
KESC 080955Z AUTO 00000KT 5SM SCT019 19/16 A2996 RMK AO1=
KEUG 080954Z 20008KT 10SM CLR 14/11 A2992 RMK AO2 SLP128
     T01390106=
KEUL 080955Z AUTO 00000KT 10SM CLR 14/07 A3005 RMK AO1=
KEVV 080954Z AUTO 00000KT 10SM BKN085 24/22 A3005 RMK AO2 SLP171
     T02440217=
KEWK 080955Z AUTO 35008KT 10SM OVC006 21/19 A3007 RMK AO1=
KEWN 080954Z 04004KT 4SM BR CLR 24/23 A2993 RMK AO2 SLP134
     T02440233=
KFAM 080955Z AUTO 17003KT 10SM FEW100 23/22 A3008 RMK AO1=
KFIG 080954Z AUTO 36004KT 1 3/4SM BR CLR 17/17 A3012 RMK AO2
     SLP187 T01720167=
KFKL 080955Z 00000KT 2SM CLR 19/17 A3014 RMK AO1 54000=
KFLO 080953Z AUTO 32006KT 10SM CLR 26/19 A2994 RMK AO2 SLP136
     T02560189=
KFLP 080955Z AUTO 12003KT 10SM BKN090 23/21 A3004 RMK AO1=
KFNL 080955Z AUTO 05004KT 4SM OVC002 14/13 A3032 RMK AO1=
KFOD 080955Z AUTO 33003KT 10SM CLR 18/17 A3012 RMK AO1=
KFRM 080955Z AUTO 10SM CLR 16/14 A3013 RMK AO1=
####018003671####
SAXX60 KWBC 081000 RRA
METAR
KOZR 080955Z AUTO 00000KT 5SM R06/4000V5500FT BR CLR 22/22 A3002
     RMK AO2 SLP162 T02180218=
KPOB 080955Z AUTO 00000KT 10SM CLR 23/20 A2995 RMK AO2 SLP141
     T02300197 $=
KRDR 080955Z AUTO 25007KT 10SM CLR 14/13 A3004 RMK AO2 SLP182
     T01440128 $=
KRND 080955Z AUTO 05006KT 10SM SCT012 BKN020 25/24 A2994 RMK AO2
     SLP127 T02480236=
KSKF 080955Z 05006KT 10SM OVC013 25/ A2992 RMK AO2A
     RAB0909E0945DZB0910E0912B0929E0935 CIG 011V017 OVC V BKN
     SLP122 P0000 T0254 $=
KSSC 080955Z AUTO 29008KT 10SM CLR 25/19 A2995 RMK AO2 SLP141
     T02530186 $=
KSUU 080955Z AUTO 23019G27KT 10SM BKN170 12/10 A2982 RMK AO2 PK
     WND 24028/0915 SLP101 T01240101 RVRNO $=
KTBN 080955Z AUTO 00000KT 10SM BKN020 23/ A3006 RMK AO2 SLP162
     T0227 $=
KVAD 080955Z AUTO 00000KT 10SM CLR 21/19 A3001 RMK AO2 SLP161
     T02090195 $=
KWRI 080955Z AUTO 11006KT M1/4SM R18/0200V0300FT R24/0300V0700FT
     FG VV001 23/23 A3001 RMK AO2 SLP162 T02280228 $=
KCBM 080955Z AUTO 34003KT 10SM CLR 24/23 A3004 RMK AO2 SLP173
     T02410227 $=
KDYS 080955Z AUTO 02005KT 10SM R16/5500VP6000FT CLR 21/21 A3004
     RMK AO2 SLP153 T02100208 $=
KFTK 080955Z AUTO 00000KT 10SM CLR 22/21 A3007 RMK AO2 SLP176
     T02230210=
KHIF 080955Z AUTO VRB03KT 10SM CLR 18/07 A3012 RMK AO2 SLP094
     T01770071 $=
KMUI 080955Z AUTO 00000KT 9SM CLR 22/19 A3003 RMK AO2 SLP166
     T02180194 $=
KMUO 080955Z AUTO 00000KT 10SM CLR 15/01 A3006 RMK AO2 SLP155
     T01490009=
KOFF 080955Z AUTO 36003KT 10SM CLR 20/20 A3012 RMK AO2
     DZB0918E0930 SLP189 P0000 T01990196 $=
KWRI 080955Z AUTO 11006KT M1/4SM R18/0200V0300FT R24/0300V0700FT
     FG VV001 23/23 A3001 RMK AO2 SLP162 T02280228 $=
PABI 080953Z AUTO 00000KT 10SM CLR 12/08 A3009 RMK AO2 SLP189
     T01170078 TSNO=
PAEI 080955Z AUTO 00000KT 10SM CLR 11/07 A3004 RMK AO2 SLP175
     T01120066 $=
PHHI 080955Z AUTO 04004KT 10SM CLR 21/18 A3006 RMK AO2 RAE0901
     SLP168 P0000 T02110180 402750188=
KAFF 080955Z AUTO 18007KT 10SM SCT007 OVC012 12/12 A3039 RMK AO2
     CIG 011V015 SLP204 T01230118=
KDOV 080955Z AUTO 08003KT 1 3/4SM BR FEW007 24/ A3000 RMK AO2
     SLP161 T0235 $=
KFSI 080955Z AUTO 03004KT 10SM FEW230 23/22 A3005 RMK AO2 SLP157
     T02260218=
KGSB 080955Z AUTO 06003KT 10SM FEW170 25/20 A2992 RMK AO2 SLP131
     T02540199 $=
KGTB 080955Z AUTO 16004KT 10SM CLR 22/21 A3004 RMK AO2 SLP169
     T02200205=
KHST 080955Z AUTO 05004KT 9SM -RA FEW085 25/24 A2993 RMK AO2
     RAB0902E0920B0938DZB0856E0902 SLP136 P0003 T02520236 $=
KLHW 080955Z AUTO 23003KT 10SM CLR 22/20 A2998 RMK AO2 SLP155
     T02160199=
KLSF 080955Z AUTO 00000KT 4SM R15/2800VP6000FT BR CLR 21/20 A3001
     RMK AO2 SLP162 T02100204 $=
KRIV 080955Z 31004KT 4SM BR BKN004 11/10 A2991 RMK AO2A SLP124
     T01110100=
KSKF 080955Z 05006KT 10SM OVC013 25/ A2992 RMK AO2A
     RAB0909E0945DZB0910E0912B0929E0935 CIG 011V017 OVC V BKN
     SLP122 P0000 T0254 $=
KSSC 080955Z AUTO 29008KT 10SM CLR 25/19 A2995 RMK AO2 SLP141
     T02530186 $=
KTBN 080955Z AUTO 00000KT 10SM BKN020 23/ A3006 RMK AO2 SLP162
     T0227 $=
KTCM 080955Z AUTO 16003KT 10SM CLR 15/12 A2994 RMK AO2 SLP140
     T01490122=
KVAD 080955Z AUTO 00000KT 10SM CLR 21/19 A3001 RMK AO2 SLP161
     T02090195 $=
PAED 080955Z AUTO 00000KT 10SM FEW080 11/10 A2999 RMK AO2
     RAB0905E0919DZB0919E0921 SLP157 P0000 T01140101 $=
KAFF 080955Z AUTO 18007KT 10SM SCT007 OVC012 12/12 A3039 RMK AO2
     CIG 011V015 SLP204 T01230118=
KBAB 080955Z AUTO 15005KT 10SM SCT180 17/12 A2981 RMK AO2 SLP096
     T01700118 $=
####018003709####
SAUS70 KWBC 081000 RRB
METAR
KMNM 080955Z AUTO 24004KT 8SM OVC011 21/19 A2998 RMK AO1=
KMOT 080954Z AUTO 23008KT 10SM CLR 14/11 A3008 RMK AO2 SLP188
     T01440111 TSNO=
KMRF 080955Z AUTO 02006KT 10SM SCT095 16/13 A3017 RMK AO1=
KMRY 080954Z AUTO 00000KT 10SM OVC008 13/10 A2993 RMK AO2 SLP146
     T01330100=
KMSV 080955Z AUTO 00000KT 4SM CLR 20/18 A3010 RMK AO1=
KMTW 080955Z 19005KT 10SM OVC110 22/21 A2998 RMK AO1=
KMVL 080954Z AUTO 00000KT 2SM BR FEW003 21/19 A3007 RMK AO2 SLP179
     T02060194=
KMVN 080955Z AUTO 00000KT 3/4SM VV005 22/21 A3005 RMK AO1=
KOFP 080954Z AUTO 00000KT 6SM HZ CLR 24/20 A3000 RMK AO2 SLP157
     T02390200=
KOKK 080955Z AUTO 00000KT 6SM BKN100 22/17 A3005 RMK AO1 54000=
KOLM 080954Z AUTO 00000KT 10SM CLR 15/12 A2995 RMK AO2 SLP139
     T01500117=
KOLS 080954Z AUTO 11003KT 10SM CLR 24/06 A2998 RMK AO2 SLP068
     T02390056=
KOLU 080955Z AUTO 31004KT 10SM CLR 17/14 A3018 RMK AO1=
KOTG 080955Z AUTO 27003KT 10SM CLR 14/13 A3014 RMK AO1=
KOTH 080955Z 23003KT 10SM OVC010 10/08 A3000 RMK AO1=
KPHF 080954Z 07004KT 3SM BR BKN080 BKN100 25/24 A2997 RMK AO2
     SLP149 T02500244=
KPHL 080954Z 00000KT 3SM HZ FEW100 SCT150 25/22 A3002 RMK AO2
     SLP164 T02500222 $=
KPIB 080955Z AUTO 00000KT 10SM CLR 23/21 A3004 RMK AO1=
KPLN 080954Z AUTO 00000KT 10SM OVC110 21/21 A2997 RMK AO2 SLP144
     T02110206=
KPNE 080954Z 12005KT 3SM BR FEW006 24/23 A3004 RMK AO2 SLP169
     T02390228=
KPQI 080955Z AUTO 14005KT 9SM CLR 21/18 A3000 RMK AO1=
KPSF 080954Z AUTO 00000KT 2SM BR CLR 19/18 A3008 RMK AO2 SLP153
     T01890183=
KPTN 080955Z AUTO 08004KT 10SM CLR 24/M09 A3000 RMK AO1=
KPTV 080955Z AUTO 18006KT 10SM CLR 19/12 A2984 RMK AO1=
KPTW 080954Z AUTO 00000KT 3SM HZ CLR 23/19 A3004 RMK AO2 SLP166
     T02330194 $=
KPVC 080955Z 17006KT 9SM OVC004 22/20 A3010 RMK AO1=
KPVJ 080950Z AUTO 28003KT 7SM CLR 24/23 A3003 RMK AO2=
KPVU 080955Z 12004KT 10SM CLR 17/09 A3013 RMK AO1=
KPWT 080955Z AUTO 03007KT 10SM CLR 23/06 A2998 RMK AO1=
KRBL 080954Z AUTO 00000KT 10SM CLR 23/17 A2982 RMK AO2 SLP094
     T02330172=
KRDG 080954Z 00000KT 6SM HZ CLR 24/21 A3001 RMK AO2 SLP165
     T02390206=
KRKD 080955Z AUTO 20003KT 1/2SM OVC002 18/17 A3010 RMK AO1=
KRKR 080954Z AUTO 00000KT 10SM OVC031 27/26 A3003 RMK AO2=
KRKS 080954Z AUTO 08007KT 10SM FEW110 08/05 A3034 RMK AO2 SLP211
     T00830050=
KTOI 080953Z AUTO 00000KT 10SM CLR 22/21 A3003 RMK AO2 SLP163
     T02170211=
TIST 080953Z AUTO 10006KT 10SM CLR 27/24 A2997 RMK AO2 SLP150
     T02720239 TSNO=
TISX 080953Z 07007KT 10SM BKN023 OVC029 27/24 A2997 RMK AO2 SLP148
     T02720239=
K04W 080954Z AUTO 00000KT 10SM CLR 15/15 A3007 RMK AO2
     T01520147=
K5SM 080953Z AUTO 11004KT 10SM CLR 08/01 A3055 RMK AO2=
K7BM 080956Z AUTO 00000KT 10SM OVC028 10/06 A3055 RMK AO2=
KBDU 080957Z AUTO 28004KT 10SM BKN005 BKN010 15/14 A3032 RMK
     AO2=
KBJC 080957Z AUTO 00000KT 7SM BKN075 13/12 A3033 RMK AO2=
KC29 080955Z AUTO 25003KT 10SM CLR 21/20 A3002 RMK AO2
     T02100195=
KCCU 080956Z AUTO 18022KT 10SM CLR 05/02 A3064 RMK AO2=
KDEQ 080953Z AUTO 08003KT 10SM BKN006 BKN015 OVC032 24/23 A3002
     RMK AO2 SLP161 T02440233=
KDLL 080954Z AUTO 27003KT 5SM BR OVC004 21/20 A3002 RMK AO2=
KGGG 080953Z AUTO 09003KT 10SM CLR 24/24 A3002 RMK AO2 SLP159
     T02440239=
KGOK 080953Z AUTO 36003KT 10SM FEW025 BKN049 23/21 A3004 RMK AO2
     SLP163 T02280211=
KGTU 080955Z 09004KT 3SM SCT008 BKN015 OVC022 24/22 A3000 RMK AO1
     P0016=
KHYI 080955Z AUTO 04005KT 10SM SCT013 BKN020 OVC049 25/24 A2994
     RMK AO1=
KILE 080955Z 10005KT 10SM BKN010 BKN019 OVC035 24/22 A2997 RMK
     AO1=
####018003714####
SAUS70 KWBC 081000 RRC
METAR
KOCH 080955Z AUTO 09005KT 10SM CLR 24/19 A3000 RMK AO1=
KPRX 080955Z 11004KT 5SM FEW005 BKN011 OVC021 24/22 A3003 RMK
     AO1=
KPWG 080955Z AUTO 10005KT 9SM SCT011 BKN026 OVC033 25/22 A2999 RMK
     AO1=
KTPL 080955Z 09006KT 7SM SCT010 BKN025 OVC038 24/23 A2998 RMK AO1
     P0001=
KWYS 080950Z AUTO 00000KT 10SM CLR 00/M01 A3036 RMK AO2=
KBRO 080953Z 32004KT 10SM -RA SCT021 SCT027 BKN040 26/25 A2977 RMK
     AO2 RAB50 SLP078 P0000 T02610250=
KFLL 080953Z 06007KT 10SM FEW020 28/24 A2992 RMK AO2 SLP132
     T02780244=
KJFK 080951Z 13003KT 3SM BR SCT005 SCT090 BKN120 BKN250 26/23
     A3003 RMK AO2 SLP168 T02560233 $=
KMCO 080953Z 35003KT 10SM FEW015 22/21 A2999 RMK AO2 SLP153
     T02170206=
KPBI 080953Z 04007KT 10SM SCT023TCU BKN040 BKN250 27/24 A2993 RMK
     AO2 SLP134 TCU OHD AND NE CB DSNT SE T02720239=
TIST 080953Z AUTO 10006KT 10SM CLR 27/24 A2997 RMK AO2 SLP150
     T02720239 TSNO=
TISX 080953Z 07007KT 10SM BKN023 OVC029 27/24 A2997 RMK AO2 SLP148
     T02720239=
PASC 080953Z 25010KT 10SM OVC028 11/07 A3001 RMK AO2 SLP163
     T01060072=
KHFF 080955Z AUTO 32004KT 10SM CLR 22/18 A2997 RMK AO2 SLP145
     T02160176 $=
PAHN 080954Z AUTO 00000KT 10SM CLR 11/10 A3020 RMK AO2 SLP228
     T01110100 TSNO=
PAKN 080954Z 33004KT 10SM OVC060 10/09 A2991 RMK AO2 SLP127
     T01000094=
KMWM 080953Z AUTO 24003KT 10SM CLR 14/14 A3013 RMK AO2=
KNQA 080955Z AUTO 00000KT 10SM CLR 23/23 A3007 RMK=
KOWB 080956Z AUTO 00000KT 10SM FEW060 BKN090 26/23 A3006 RMK AO2
     T02550233 SLP173=
KPNM 080953Z AUTO 00000KT 3/4SM BR VV005 14/13 A3009 RMK AO2=
KPQN 080953Z AUTO 32007KT 10SM CLR 17/14 A3016 RMK AO2=
KPWC 080953Z AUTO 00000KT 10SM CLR 10/09 A3008 RMK AO2=
KRCE 080955Z AUTO 33003KT 5SM BR CLR 22/22 A3007 RMK AO2=
KRIL 080953Z AUTO 01003KT 10SM CLR 16/08 A3024 RMK AO2 SLP164
     T01560078 TSNO=
KSGR 080953Z AUTO 07006KT 10SM CLR 26/23 A2990 RMK AO2 SLP132
     T02610233 TSNO=
KSRR 080955Z AUTO 22006KT 10SM BKN020 BKN025 OVC110 13/13 A3034
     RMK AO2=
KTWM 080953Z AUTO 00000KT 7SM CLR 16/13 A3002 RMK AO2=
KUCP 080956Z AUTO 00000KT 1/4SM FG BKN001 18/18 A3010 RMK AO2
     T01770177 SLP200 $=
KULM 080955Z AUTO 28005KT 10SM CLR 14/13 A3011 RMK AO2=
KVQQ 080955Z AUTO 00000KT 1/2SM FG VV005 17/17 A3000 RMK AO2=
K0A9 080955Z AUTO 00000KT 6SM BR CLR 19/18 A3012 RMK=
KAIT 080953Z AUTO 00000KT 1SM BR VV007 12/11 A3006 RMK AO2=
KBBB 080953Z AUTO 00000KT 7SM CLR 13/13 A3011 RMK AO2=
KBBG 080955Z AUTO 00000KT 5SM BR CLR 22/22 A3007 RMK AO2=
KBBP 080955Z AUTO 27004KT 10SM CLR 22/19 A2995 RMK AO2=
KBKN 080955Z AUTO 36005KT 10SM CLR 22/22 A3003 RMK AO2=
KBMI 080956Z AUTO 00000KT 8SM FEW001 23/22 A3005 RMK AO2 PWINO
     T02270222 LTG DSNT NE TSB07E30 P0010 SLP161 $=
KBOK 080956Z AUTO 00000KT 3/4SM BR OVC002 09/09 A2996 RMK AO2
     T00880088 SLP149 $=
KCIC 080955Z AUTO 13007KT 10SM CLR 22/13 A2982 RMK AO1=
KCMR 080955Z AUTO 17007KT 10SM BKN100 18/02 A3025 RMK AO1=
KEAT 080955Z AUTO 29006KT 10SM CLR 18/06 A3003 RMK AO2 SLP161
     T01780061=
KFFM 080953Z AUTO 21004KT 10SM CLR 14/14 A3008 RMK AO2=
KFGN 080954Z AUTO 26009KT 3/4SM -DZ VV005 17/13 A2996 RMK AO2=
KGDB 080952Z AUTO 25003KT 10SM CLR 14/13 A3013 RMK AO2
     T01360130=
KGGE 080955Z AUTO 28006KT 10SM CLR 23/22 A2994 RMK AO2=
KGHW 080953Z AUTO 23005KT 10SM CLR 14/13 A3013 RMK AO2=
KHVS 080955Z AUTO 33003KT 10SM CLR 25/18 A2998 RMK AO2=
KLLJ 080955Z AUTO 00000KT 10SM FEW090 09/00 A3025 RMK AO2 SLP194
     T00890000=
KMAO 080955Z AUTO 30005KT 10SM CLR 24/19 A2993 RMK AO2=
KMGG 080955Z AUTO 27003KT 10SM CLR 16/15 A3010 RMK AO2
     T01600149=
####018003693####
SAUS70 KWBC 081000 RRD
METAR
KMOX 080950Z AUTO 23004KT 10SM CLR 14/14 A3007 RMK AO2=
KSDF 080956Z 14003KT 7SM FEW120 26/21 A3005 RMK AO2 SLP170
     T02560206=
PHJR 080953Z 00000KT 10SM SCT050 23/18 A3005 RMK AO2 SLP183
     T02330183 403060217=
PHMK 080954Z AUTO 05007KT 10SM CLR 22/19 A3006 RMK AO2 SLP180
     T02220189 402940217 TSNO=
KSDF 080956Z 14003KT 7SM FEW120 26/21 A3005 RMK AO2 SLP170
     T02560206=
K1A6 080955Z AUTO 00000KT 3SM BR CLR 21/21 A3010 RMK AO2=
K1M4 080956Z AUTO 00000KT 10SM CLR 22/21 A3010 RMK AO2 T02220211
     SLP189=
K21D 080958Z AUTO 31004KT 10SM CLR 17/16 A3008 RMK AO2=
KAIG 080955Z AUTO 32004KT 10SM CLR 18/17 A3001 RMK AO2=
KAND 080956Z AUTO 00000KT 10SM CLR 21/19 A3001 RMK AO2 SLP152
     T02110194=
KART 080956Z AUTO 00000KT 5SM BR CLR 22/20 A3003 RMK AO2 SLP161
     T02220200=
KARV 080952Z AUTO 36004KT 10SM SCT013 18/15 A3003 RMK AO2
     T01760153=
KATW 080955Z AUTO 25005KT 5SM BR OVC003 22/21 A3001 RMK AO2=
KBED 080956Z AUTO 17006KT 4SM BR BKN017 OVC075 24/22 A3006 RMK AO2
     SLP189 T02390217=
KBJI 080954Z AUTO 24006KT 10SM CLR 14/13 A3005 RMK AO2=
KBUU 080954Z AUTO 00000KT 7SM BKN100 BKN120 21/21 A3000 RMK
     AO2=
KBWP 080951Z AUTO 24004KT 10SM CLR 15/13 A3009 RMK AO1
     T01450131=
KCEC 080956Z AUTO 27003KT 3SM BR OVC003 10/09 A2996 RMK AO2 SLP147
     T01000094=
KCTB 080956Z AUTO 27003KT 10SM CLR 08/05 A3024 RMK AO2 SLP225
     T00780050=
KD39 080954Z AUTO 00000KT 10SM CLR 16/15 A3011 RMK AO2
     T01600150=
KDAY 080956Z 00000KT 6SM HZ OVC150 22/18 A3010 RMK AO2 SLP181
     T02170183 $=
KDIK 080956Z AUTO 21003KT 10SM CLR 09/08 A3015 RMK AO2 SLP203
     T00940083=
KDUG 080956Z AUTO 08021G26KT 10SM CLR 26/12 A3001 RMK AO2 PK WND
     08030/0929 SLP074 T02560122 $=
KDUJ 080956Z AUTO 08004KT 4SM BR FEW060 19/17 A3012 RMK AO2 SLP183
     T01940172=
KEAU 080956Z AUTO 00000KT 10SM CLR 19/18 A3002 RMK AO2 SLP160
     P0001 T01890178=
KEED 080956Z AUTO 00000KT 10SM CLR 29/M03 A2975 RMK AO2 SLP035
     T02941033 TSNO=
KEKO 080956Z AUTO 00000KT 10SM CLR 12/M01 A3011 RMK AO2 SLP144
     T01221006=
KGON 080956Z AUTO 10008KT 7SM OVC002 23/21 A3006 RMK AO2 SLP178
     T02280211=
KGRD 080956Z AUTO 25004KT 10SM CLR 22/20 A3003 RMK AO2 SLP159
     T02220200=
KHFF 080955Z AUTO 32004KT 10SM CLR 22/18 A2997 RMK AO2 SLP145
     T02160176 $=
KHND 080956Z AUTO 17007KT 10SM CLR 26/M02 A2988 RMK AO2 T02611016
     SLP059=
KHYA 080956Z 00000KT 2 1/2SM BR OVC001 21/21 A3009 RMK AO2 SLP190
     T02110206=
KIGX 080956Z AUTO 02004KT 7SM CLR 25/18 A2999 RMK AO2 SLP148
     T02500178 $=
KIWA 080956Z AUTO 00000KT 10SM CLR 34/01 A2980 RMK AO2=
KJMS 080956Z AUTO 00000KT 10SM CLR 12/11 A3009 RMK AO2 SLP189
     T01170111=
KLAS 080956Z 25005KT 10SM CLR 29/M04 A2981 RMK AO2 SLP061
     T02891044=
KLNR 080956Z AUTO 00000KT 10SM OVC006 21/19 A3002 RMK AO2 SLP157
     T02060194=
KM19 080956Z AUTO 19005KT 10SM CLR 24/23 A3006 RMK AO2 T02440227
     SLP177=
KMQY 080956Z AUTO 00000KT 10SM CLR 23/22 A3008 RMK AO2 T02330222
     SLP176=
KMRH 080956Z AUTO 04006KT 4SM HZ CLR 27/24 A2990 RMK AO2 SLP127
     T02670239 TSNO=
KRDM 080956Z AUTO 15003KT 10SM CLR 11/03 A3006 RMK AO2 SLP154
     T01060028 $=
KSBP 080956Z AUTO 10SM OVC009 13/11 A2991 RMK AO2 SLP127 T01330111
     $=
KSGH 080956Z AUTO 00000KT 4SM BR CLR 19/19 A3010 RMK AO2 T01940194
     SLP185=
KSLE 080956Z AUTO 16005KT 10SM CLR 18/12 A2987 RMK AO2 SLP113
     T01830122=
KSME 080955Z AUTO 00000KT 3SM BR 20/20 A3009 RMK AO2=
KSRC 080956Z AUTO 00000KT 10SM CLR 23/23 A3006 RMK AO2 TSNO
     T02330227 SLP182=
####018000107####
SAUS70 KWBC 080900 RRM
METAR
KMYP 080856Z AUTO 06008KT M1/4SM +SN OVC001 03/02 A3075 RMK
     AO2=
####018000463####
SPUS70 KWBC 080958
SPECI
KCNM 080955Z AUTO 35009KT 5SM RA BR SCT007 OVC010 20/19 A3013 RMK
     AO2 LTG DSNT NE AND S TSE55 P0001=
KNSE 080948Z AUTO 00000KT 1 1/4SM BR CLR 23/21 A3002 RMK AO2 $=
KCQX 080956Z AUTO 00000KT 4SM BR OVC001 19/19 A3011 RMK AO2=
KHAO 080956Z AUTO 00000KT 1 1/4SM BR CLR 21/19 A3008 RMK AO2=
KMHT 080956Z 18007KT 3SM BR BKN006 OVC080 23/22 A3005 RMK AO2=
KNSE 080948Z AUTO 00000KT 1 1/4SM BR CLR 23/21 A3002 RMK AO2 $=
####018003702####
SAXX60 KWBC 081000
METAR
PATC 080955Z AUTO 02009KT 10SM CLR 08/07 A3016 RMK AO1
     T00780067=
PAEH 080955Z AUTO 00000KT 10SM BKN016 09/M29 A3000 RMK AO1
     T00891288=
KBKB 080954Z AUTO 00000KT 10SM FEW016 SCT021 24/23 A2999 RMK AO2
     SLP179 T02440228=
KECG 080954Z AUTO 07005KT 9SM BKN009 BKN100 25/24 A2995 RMK AO2
     CIG 007V012 SLP143 T02500239=
KFZY 080954Z AUTO 00000KT 1 1/2SM BR CLR 21/20 A3004 RMK AO2
     SLP169 T02060200=
KBAD 080955Z AUTO 00000KT 10SM CLR 24/23 A3003 RMK AO2 SLP169
     T02390232 $=
KBLV 080955Z AUTO 00000KT 10SM FEW045 SCT220 24/24 A3002 RMK AO2
     SLP164 T02420240=
KCEF 080955Z AUTO 15003KT 10SM FEW085 24/22 A3005 RMK AO2 SLP176
     T02360217 PWINO $=
KDAA 080955Z AUTO 00000KT 8SM FEW095 24/21 A2999 RMK AO2 SLP157
     T02360210=
KEDW 080955Z AUTO 20005KT 10SM CLR 20/05 A2986 RMK AO2 SLP059
     T01960055=
KFBG 080955Z AUTO 34004KT 10SM CLR 25/19 A2994 RMK AO2 SLP137
     T02510186 $=
KFHU 080955Z 14005KT 10SM FEW120 23/10 A3006 RMK SLP101=
KGRF 080955Z AUTO 14005KT 10SM CLR 14/11 A2994 RMK AO2 SLP139
     T01400106 $=
KGUS 080955Z AUTO 00000KT 10SM SCT100 23/20 A3004 RMK AO2 SLP167
     T02290204=
KHMN 080955Z 31006KT 10SM OVC140 21/13 A3013 RMK AO2A SLP124
     T02080135 $=
KIAB 080955Z AUTO 34009KT 10SM CLR 22/20 A3008 RMK AO2 SLP175
     T02160204=
KLRF 080955Z AUTO 00000KT 10SM OVC170 23/22 A3005 RMK AO2 SLP175
     T02330224=
KMGE 080955Z 00000KT 10SM CLR 22/19 A3004 RMK AO2A SLP162
     T02180191 $=
KMMT 080955Z AUTO 30005KT 10SM CLR 22/19 A2998 RMK AO2 SLP150
     T02250188=
KMTC 080955Z 00000KT 5SM BR FEW040 FEW140 SCT240 22/22 A3001 RMK
     SLP167=
KBAD 080955Z AUTO 00000KT 10SM CLR 24/23 A3003 RMK AO2 SLP169
     T02390232 $=
KDAA 080955Z AUTO 00000KT 8SM FEW095 24/21 A2999 RMK AO2 SLP157
     T02360210=
KEDW 080955Z AUTO 20005KT 10SM CLR 20/05 A2986 RMK AO2 SLP059
     T01960055=
KFBG 080955Z AUTO 34004KT 10SM CLR 25/19 A2994 RMK AO2 SLP137
     T02510186 $=
KFHU 080955Z 14005KT 10SM FEW120 23/10 A3006 RMK SLP101=
KIAB 080955Z AUTO 34009KT 10SM CLR 22/20 A3008 RMK AO2 SLP175
     T02160204=
KMGE 080955Z 00000KT 10SM CLR 22/19 A3004 RMK AO2A SLP162
     T02180191 $=
KMMT 080955Z AUTO 30005KT 10SM CLR 22/19 A2998 RMK AO2 SLP150
     T02250188=
KMTC 080955Z 00000KT 5SM BR FEW040 FEW140 SCT240 22/22 A3001 RMK
     SLP167=
KRND 080955Z AUTO 05006KT 10SM SCT012 BKN020 25/24 A2994 RMK AO2
     SLP127 T02480236=
KSUU 080955Z AUTO 23019G27KT 10SM BKN170 12/10 A2982 RMK AO2 PK
     WND 24028/0915 SLP101 T01240101 RVRNO $=
KRSP 080954Z AUTO 08005KT 7SM FEW080 26/16 A3010 RMK AO2 SLP177
     T02560156 $=
KBAD 080955Z AUTO 00000KT 10SM CLR 24/23 A3003 RMK AO2 SLP169
     T02390232 $=
KDOV 080955Z AUTO 08003KT 1 3/4SM BR FEW007 24/ A3000 RMK AO2
     SLP161 T0235 $=
KHST 080955Z AUTO 05004KT 9SM -RA FEW085 25/24 A2993 RMK AO2
     RAB0902E0920B0938DZB0856E0902 SLP136 P0003 T02520236 $=
KNHK 080952Z AUTO 09004KT 3SM BR BKN009 26/24 A2999 RMK AO2 SLP155
     T02610239=
KOFF 080955Z AUTO 36003KT 10SM CLR 20/20 A3012 RMK AO2
     DZB0918E0930 SLP189 P0000 T01990196 $=
KPOB 080955Z AUTO 00000KT 10SM CLR 23/20 A2995 RMK AO2 SLP141
     T02300197 $=
KWRI 080955Z AUTO 11006KT M1/4SM R18/0200V0300FT R24/0300V0700FT
     FG VV001 23/23 A3001 RMK AO2 SLP162 T02280228 $=
KNHK 080952Z AUTO 09004KT 3SM BR BKN009 26/24 A2999 RMK AO2 SLP155
     T02610239=
KNZY 080952Z 32006KT 8SM FEW008 OVC014 18/14 A2989 RMK AO2 DZE43
     SLP120 P0000 T01780139 $=
KOFF 080955Z AUTO 36003KT 10SM CLR 20/20 A3012 RMK AO2
     DZB0918E0930 SLP189 P0000 T01990196 $=
####018000112####
SAUS70 KWBC 071000 RRP
METAR
KVTP 081000Z AUTO 08004KT 1/2SM BKN001 05/05 A3056 RMK AO2 VIS
     1/4V5=
####018000689####
SAUS80 KWBC 081000 CCA
METAR
KCQC 080953Z AUTO 05007KT 10SM CLR 12/09 A3035 RMK AO2 SLP219
     T01170089 TSNO=
K6R6 080953Z AUTO 01004KT 22/21 A3000 RMK AO2 SLP123 T02220206
     PWINO TSNO=
KGDP 080951Z AUTO 06014G21KT 1/4SM FG VV005 17/17 A3023 RMK AO2
     RAB0853E36 SLP161 P0000 T01670167 TSNO=
KVCT 080951Z AUTO 07009KT 3SM +RA BR SCT015 BKN026 OVC095 25/24
     A2988 RMK AO2 RAB0853E21B47 SLP116 P0017 T02500244=
KBNO 080953Z AUTO 24008KT 10SM CLR 09/01 A3011 RMK AO2 SLP166
     T00890011 TSNO=
KTRI 080953Z 00000KT 5SM BR FEW030 21/19 A3010 RMK AO2 SLP173
     T02060189 $=
KTYS 080953Z 00000KT 8SM CLR 22/19 A3006 RMK AO2 SLP165
     T02220189=
####018000200####
SPXX60 KWBC 080958
SPECI
KDOV 080954Z AUTO 07003KT 1 3/4SM BR FEW007 24/ A3000 RMK AO2
     SLP161 $=
KOZR 080950Z AUTO 00000KT 6SM R06/4500V5500FT BR CLR 22/22 A3002
     RMK AO2 SLP163=
####018000486####
SAPQ50 KWBC 081000
METAR
PKMR 080953Z 08010KT 15SM FEW015 SCT045 BKN120 OVC300 27/24 A2982
     RMK SLP100 T02710240=
PGSN 080954Z 07012KT 10SM FEW024 SCT031 27/22 A2990 RMK AO2 SLPNO
     T02720217=
PGSN 080954Z 07012KT 10SM FEW024 SCT031 27/22 A2990 RMK AO2 SLPNO
     T02720217=
PGUM 080954Z 08008KT 10SM SCT019 SCT025 SCT030 28/24 A2989 RMK AO2
     SLP113 T02830244=
PTKK 080950Z VRB04KT 15SM SCT014CB OVC120 25/23 A2984 RMK CB ALQDS
     SLP106 T02490229=
####018002601####
SAXX60 KWBC 081000 RRC
METAR
KDLF 080955Z AUTO 00000KT 10SM CLR 24/23 A2995 RMK AO2 SLP125
     T02390226 $=
KEND 080955Z AUTO 03005KT 10SM SCT220 22/21 A3006 RMK AO2 SLP166
     T02190211 $=
KLSV 080955Z AUTO 00000KT 10SM CLR 25/M04 A2983 RMK AO2 SLP077
     T02521038 PWINO=
KMIB 080955Z AUTO 25005KT 10SM FEW095 11/11 A3008 RMK AO2 SLP191
     T01120108 $=
KMXF 080955Z AUTO 00000KT 10SM CLR 25/24 A3001 RMK AO2 SLP161
     T02480237=
KPAM 080955Z AUTO 35004KT 10SM CLR 24/24 A3000 RMK AO2 SLP161
     T02430241=
KSKA 080955Z AUTO 04006KT 10SM CLR 16/08 A3007 RMK AO2 SLP169
     T01560084=
KSVN 080955Z 23003KT 10SM SKC 22/20 A2997 RMK SLP152=
KVOK 080955Z 00000KT 10SM SCT200 18/18 A3001 RMK AO2A SLP159
     T01820182=
KVPS 080955Z 31002KT 6SM BR SKC 23/23 A3002 RMK SLP167
     T02330233=
KXMR 080955Z AUTO 00000KT 10SM CLR 19/18 A2997 RMK AO2 SLP151
     T01920182=
MHSC 080955Z AUTO 06003KT 9999 BKN140 22/19 A2994 RMK AO2 SLP097
     T02190193 $=
PGUA 080955Z AUTO 08015KT 10SM BKN017 27/ A2990 RMK AO2 CIG
     015V021 SLP106 T0270 VISNO RWY24L $=
K9L2 080956Z AUTO 19007KT 10SM CLR 18/04 A2987 RMK AO2 SLP092
     T01830039 $=
KNXF 080956Z AUTO 32003KT 7SM OVC015 17/13 A2989 RMK AO2 SLP208
     T01670133 TSNO=
KNXP 080956Z AUTO 30005KT CLR 24/00 A2991 RMK AO2 SLP088 T02440000
     $=
KNBC 080956Z 24003KT 7SM FEW250 23/19 A2997 RMK AO2 SLP150
     T02330194=
KLOR 080953Z AUTO 00000KT 8SM CLR 21/19 A3001 RMK AO2 SLP159
     T02060189 TSNO $=
KNBT 080956Z AUTO 06009KT 3SM BR CLR 28/ A2991 RMK AO2 SLP132
     T0283 TSNO $=
KNYG 080956Z 30004KT 6SM HZ SCT080 BKN200 26/23 A2999 RMK AO2
     SLP157 T02560228=
KNCA 080956Z AUTO 03004KT 9SM CLR 25/20 A2992 RMK AO2 SLP132
     T02500200=
KNXX 080956Z AUTO 00000KT 3SM HZ CLR 23/20 A3004 RMK AO2 SLP174
     T02330200 $=
KAQV 080956Z AUTO 00000KT 10SM OVC018 23/23 A3001 RMK AO2 SLP158
     T02330228 $=
KNMM 080956Z AUTO 00000KT 10SM CLR 24/22 A3005 RMK AO2 SLP181
     T02390217 $=
KNRS 080956Z AUTO 30008KT 10SM OVC014 17/14 A2990 RMK AO2 SLP123
     T01670139 TSNO $=
KPRN 080956Z AUTO 00000KT 10SM CLR 23/22 A3002 RMK AO2 SLP159
     T02330217 $=
PACZ 080955Z AUTO 03008KT 10SM 10/09 A3007 RMK AO1 T01000095=
PALU 080955Z AUTO 21016KT 10SM CLR 13/02 A3010 RMK AO1
     T01280017=
PAIM 080955Z AUTO 31004KT 10SM CLR 11/07 A3009 RMK AO1
     T01110073=
PATL 080955Z AUTO 03005KT 10SM CLR 16/06 A3000 RMK AO1
     T01560062=
PASV 080955Z AUTO 00000KT 10SM SCT036 SCT080 BKN090 09/08 A2997
     RMK AO1 T00940078=
####018003223####
SAUS70 KWBC 081000 RRE
METAR
KTPH 080956Z AUTO 36008KT 10SM CLR 16/M04 A3010 RMK AO2 SLP109
     T01561044=
KTZR 080956Z AUTO 00000KT 5SM BR CLR 20/18 A3008 RMK AO2=
KUKI 080956Z AUTO 00000KT 10SM CLR 13/11 A2991 RMK AO2 SLP119
     T01280106=
KY51 080955Z AUTO 30003KT 7SM CLR 19/19 A3004 RMK AO1
     T01930190=
PAAK 080956Z AUTO 07017G23KT 10SM BKN013 BKN022 OVC120 07/04 A2961
     RMK AO1 PNO=
PAHP 080956Z AUTO 34005KT 10SM OVC075 11/08 A3006 RMK AO1 PNO
     TSNO=
PAAK 080956Z AUTO 07017G23KT 10SM BKN013 BKN022 OVC120 07/04 A2961
     RMK AO1 PNO=
PABL 080956Z AUTO 34005KT 10SM CLR 09/06 A3016 RMK AO1 PNO=
PABV 080956Z AUTO 12004KT 10SM CLR 12/08 RMK AO1 PNO=
PADL 080956Z 33008KT 10SM OVC075 11/08 A2998 RMK AO1 PNO TSNO=
PAEM 080956Z AUTO 35005KT 10SM BKN080 OVC120 11/08 A3004 RMK AO1
     PNO=
PAFE 080956Z AUTO 09004KT 10SM CLR 11/09 A3018 RMK AO1 PNO=
PAFM 080956Z AUTO 32004KT 10SM CLR 15/09 A3011 RMK AO1 PNO=
PAGL 080956Z AUTO 35009KT 10SM CLR 14/08 A3014 RMK AO1 PNO=
PAGS 080956Z AUTO 00000KT 10SM CLR 10/09 A3019 RMK AO1 PNO=
PAHP 080956Z AUTO 34005KT 10SM OVC075 11/08 A3006 RMK AO1 PNO
     TSNO=
PAHY 080956Z AUTO 33006KT 10SM CLR 16/10 A3012 RMK AO1 PNO=
PAII 080956Z AUTO 01005KT 10SM SCT044 BKN055 OVC085 10/08 A2997
     RMK AO1 PNO=
PAIN 080956Z AUTO 00000KT 10SM CLR 09/06 A3008 RMK AO1 PNO=
PAJC 080956Z AUTO 20003KT 10SM BKN017 OVC024 08/04 A2995 RMK AO1
     PNO=
PAKK 080956Z AUTO 01011G16KT 10SM CLR 13/08 A3006 RMK AO1 PNO=
PAKP 080956Z AUTO 04006KT 10SM OVC033 11/03 A3012 RMK AO1=
PAMD 080956Z AUTO 09016KT 7SM FEW008 SCT017 BKN024 09/08 A3002 RMK
     AO1 PNO=
PAMH 080956Z 00000KT 10SM CLR 14/05 A3000 RMK AO1 PNO=
PAMM 080956Z AUTO 33006KT 10SM CLR 18/11 A3009 RMK AO1 PNO=
PAMY 080956Z 29009KT 1SM OVC002 05/04 A3006 RMK AO1=
PANI 080956Z AUTO 00000KT 9SM CLR 09/08 A3002 RMK AO1 PNO=
PANV 080956Z AUTO 27005KT 10SM OVC085 13/08 A2999 RMK AO1 PNO=
PAOU 080956Z AUTO 05009KT 10SM OVC050 07/07 A2997 RMK AO2 PWINO
     TSNO T00720066 SLP151 $=
PAPG 080956Z 04005KT 10SM CLR 12/09 A3014 RMK AO1 PNO=
PAPH 080956Z AUTO 00000KT 10SM CLR 05/04 A2997 RMK AO1 PNO=
PARC 080956Z AUTO 08005KT 10SM FEW060 11/02 A3005 RMK AO1 PNO=
PASA 080956Z AUTO 06003KT 10SM CLR 05/03 A3020 RMK AO1 PNO=
PASD 080956Z AUTO 00000KT 10SM FEW044 07/06 A2995 RMK AO1 PNO=
PASH 080956Z AUTO 00000KT 10SM CLR 07/06 A3019 RMK AO1 PNO=
PASK 080956Z 25007KT 10SM CLR 12/07 A3011 RMK AO1 PNO=
PASM 080956Z AUTO 04005KT 10SM OVC070 09/08 A3006 RMK AO1 PNO=
PASX 080956Z 00000KT 10SM OVC060 13/09 A2996 RMK AO1 PNO=
PAUN 080956Z AUTO 11007KT 10SM CLR 13/04 A3002 RMK AO1 PNO=
PAVD 080956Z 10005KT 10SM OVC080 11/08 A3009 RMK AO1 PNO=
PAWG 080956Z AUTO 29004KT 10SM CLR 13/10 A3014 RMK AO1 PNO=
PAWN 080956Z AUTO 26007KT 10SM CLR 09/02 A3016 RMK AO1 PNO=
PAWS 080956Z AUTO 04005KT 10SM OVC090 12/09 A3000 RMK AO1 PNO=
KTTS 080955Z 01002KT 9SM MIFG FEW055 FEW290 19/19 A2998 RMK SLP154
     1SC /0/ 1CI /0/=
KGFA 080956Z AUTO 17005KT 10SM CLR 09/06 A3021 RMK AO2 SLP245
     T00890061 $=
KNFE 080956Z AUTO 00000KT 1 1/4SM HZ FEW055 25/22 A2996 RMK AO2
     RAB39E49 SLP147 P0000 T02500222 $=
####018003719####
SAXX60 KWBC 081000 RRB
METAR
KCBM 080955Z AUTO 34003KT 10SM CLR 24/23 A3004 RMK AO2 SLP173
     T02410227 $=
KDOV 080955Z AUTO 08003KT 1 3/4SM BR FEW007 24/ A3000 RMK AO2
     SLP161 T0235 $=
KDYS 080955Z AUTO 02005KT 10SM R16/5500VP6000FT CLR 21/21 A3004
     RMK AO2 SLP153 T02100208 $=
KFSI 080955Z AUTO 03004KT 10SM FEW230 23/22 A3005 RMK AO2 SLP157
     T02260218=
KFTK 080955Z AUTO 00000KT 10SM CLR 22/21 A3007 RMK AO2 SLP176
     T02230210=
KGSB 080955Z AUTO 06003KT 10SM FEW170 25/20 A2992 RMK AO2 SLP131
     T02540199 $=
KHIF 080955Z AUTO VRB03KT 10SM CLR 18/07 A3012 RMK AO2 SLP094
     T01770071 $=
KHST 080955Z AUTO 05004KT 9SM -RA FEW085 25/24 A2993 RMK AO2
     RAB0902E0920B0938DZB0856E0902 SLP136 P0003 T02520236 $=
KLHW 080955Z AUTO 23003KT 10SM CLR 22/20 A2998 RMK AO2 SLP155
     T02160199=
KLSF 080955Z AUTO 00000KT 4SM R15/2800VP6000FT BR CLR 21/20 A3001
     RMK AO2 SLP162 T02100204 $=
KMUI 080955Z AUTO 00000KT 9SM CLR 22/19 A3003 RMK AO2 SLP166
     T02180194 $=
KMUO 080955Z AUTO 00000KT 10SM CLR 15/01 A3006 RMK AO2 SLP155
     T01490009=
KBAB 080955Z AUTO 15005KT 10SM SCT180 17/12 A2981 RMK AO2 SLP096
     T01700118 $=
KBKF 080955Z 19005KT 25SM BKN020 BKN040 14/14 A3033 RMK SLP228=
KLFI 080955Z 00000KT 10SM SCT090 BKN140 26/23 A2997 RMK AO2A
     SLP151 T02570228 $=
KMCF 080955Z AUTO 05003KT 10SM CLR 23/22 A2998 RMK AO2 SLP153
     T02250223=
KNFW 080952Z AUTO 10003KT 10SM CLR 26/22 A3004 RMK AO2 SLP156
     T02610222=
KNIP 080953Z 25004KT 10SM CLR 23/21 A3000 RMK AO2 SLP154
     T02280206=
KNKT 080954Z AUTO 04004KT 4SM HZ CLR 26/23 A2992 RMK AO2 SLP128
     T02610233 $=
KNQX 080953Z AUTO 10004KT 10SM SCT080 28/24 A2992 RMK AO2 TSE12
     SLP130 T02780244 $=
KNRB 080952Z AUTO 00000KT 10SM CLR 23/21 A2999 RMK AO2 SLP155
     T02330211=
KSLI 080955Z AUTO 00000KT 10SM OVC016 17/13 A2990 RMK AO2 SLP127
     T01670134=
KTIK 080955Z AUTO 34004KT 10SM SCT012 SCT017 OVC024 23/23 A3004
     RMK AO2 CIG 022V030 SLP160 T02340226 $=
KNBG 080955Z AUTO 04003KT 5SM HZ FEW017 A3001 RMK AO2 SLP163 PWINO
     FZRANO $=
KNYL 080955Z 16005KT 10SM CLR 27/03 A2971 RMK AO2 SLP057
     T02670033=
KVBG 080955Z AUTO 30003KT 10SM OVC006 12/11 A2992 RMK AO2 SLP124
     T01220111 TSNO $=
KHLR 080956Z AUTO 06003KT 10SM BKN015 BKN021 OVC032 25/ A2999 RMK
     AO2 SLP145 T0250 $=
KNKX 080955Z 34005KT 10SM OVC014 16/13 A2989 RMK AO2 SLP118
     T01610133=
KNJK 080956Z AUTO 16006KT 10SM CLR 23/13 A2969 RMK AO2 SLP068
     T02330133 TSNO=
KPOE 080955Z AUTO 09004KT 10SM CLR 24/22 A3000 RMK AO2 SLP159
     T02390222=
PGUA 080955Z AUTO 08015KT 10SM BKN017 27/ A2990 RMK AO2 CIG
     015V021 SLP106 T0270 VISNO RWY24L $=
PHHI 080955Z AUTO 04004KT 10SM CLR 21/18 A3006 RMK AO2 RAE0901
     SLP168 P0000 T02110180 402750188=
PHNL 080953Z 06010KT 10SM FEW032 24/18 A3004 RMK AO2 SLP173
     T02440178 403000222=
PWAK 080952Z 08012KT 7SM HZ FEW022 28/24 A2999 RMK AO2A=
KCEF 080955Z AUTO 15003KT 10SM FEW085 24/22 A3005 RMK AO2 SLP176
     T02360217 PWINO $=
KFBG 080955Z AUTO 34004KT 10SM CLR 25/19 A2994 RMK AO2 SLP137
     T02510186 $=
KGUS 080955Z AUTO 00000KT 10SM SCT100 23/20 A3004 RMK AO2 SLP167
     T02290204=
KLRF 080955Z AUTO 00000KT 10SM OVC170 23/22 A3005 RMK AO2 SLP175
     T02330224=
KMMT 080955Z AUTO 30005KT 10SM CLR 22/19 A2998 RMK AO2 SLP150
     T02250188=
KOZR 080955Z AUTO 00000KT 5SM R06/4000V5500FT BR CLR 22/22 A3002
     RMK AO2 SLP162 T02180218=
KSSC 080955Z AUTO 29008KT 10SM CLR 25/19 A2995 RMK AO2 SLP141
     T02530186 $=
KVAD 080955Z AUTO 00000KT 10SM CLR 21/19 A3001 RMK AO2 SLP161
     T02090195 $=
####018002864####
SAUS80 KWBC 081000 RRA
METAR
KGPI 080955Z AUTO 00000KT 10SM CLR 09/07 A3017 RMK AO2 SLP209
     T00890067=
KIRK 080955Z AUTO 00000KT 7SM CLR 19/19 A3007 RMK AO2 SLP180
     T01940189=
KLBB 080953Z COR 01010KT 10SM -RA FEW011 SCT075 OVC100 19/17 A3014
     RMK AO2 RAB53 SLP160 P0000 T01940172=
KLIC 080955Z AUTO 15007KT 8SM CLR 13/13 A3033 RMK AO2 SLP213
     T01330133=
KLXV 080953Z AUTO 00000KT 10SM FEW013 BKN031 OVC100 07/06 A3055
     RMK AO2 SLP199 T00670061 TSNO=
KMKG 080955Z 23003KT 4SM -RA BR SCT007 BKN035 OVC085 23/22 A3003
     RMK AO2 RAB16 CIG 028 RWY 14 SLP163 P0003 T02330217 $=
KHON 080955Z AUTO 22005KT 10SM CLR 16/13 A3014 RMK AO2 SLP203
     T01610133=
KPHP 080955Z AUTO 26007KT 10SM CLR 12/10 A3021 RMK AO2 SLP218
     T01220100 TSNO $=
TJSJ 080956Z 00000KT 10SM FEW018 SCT028 27/24 A2999 RMK AO2 SLP155
     T02720244=
KANJ 080955Z AUTO 00000KT 6SM BR BKN004 BKN009 20/19 A2994 RMK AO2
     RAB22E31 SLP134 P0000 T02000194=
KCHS 080956Z 28005KT 9SM CLR 24/19 A2996 RMK AO2 SLP143
     T02440194=
KSHV 080956Z 12003KT 10SM SCT160 BKN280 24/23 A3002 RMK AO2 SLP162
     T02390233=
KABQ 080956Z 08016KT 10SM BKN100 BKN200 20/09 A3026 RMK AO2 SLP159
     T02000094=
PHKO 080953Z AUTO 14009KT 10SM CLR 24/18 A2999 RMK AO2 SLP155
     T02390178 402780222 TSNO=
PHOG 080954Z AUTO 04010KT 10SM CLR 24/17 A3004 RMK AO2 SLP176
     T02390167 403170206 TSNO=
PHTO 080953Z AUTO 25006KT 10SM FEW028 OVC065 22/19 A3005 RMK AO2
     RAE37 SLP173 P0010 T02170194 402830189 TSNO=
KBZN 080956Z AUTO 00000KT 10SM CLR 07/04 A3027 RMK AO2 SLP225
     T00720039=
KDVK 080957Z AUTO 00000KT 5SM 21/19 A3009 RMK AO1=
KINW 080956Z AUTO 14006KT 10SM CLR 23/01 A3009 RMK AO2 SLP100
     T02280006=
KMOB 080956Z 00000KT 5SM BR BCFG CLR 23/22 A3003 RMK AO2 SLP166
     T02330222=
KOFK 080956Z AUTO 25003KT 10SM BKN090 BKN120 16/14 A3018 RMK AO2
     SLP214 T01560144=
KSFO 080956Z 26010KT 10SM BKN008 OVC013 13/11 A2993 RMK AO2 SLP133
     T01330106=
KROC 080954Z 24004KT 6SM BR BKN080 BKN120 BKN250 22/20 A3006 RMK
     AO2 SLP175 T02220200=
PADK 080956Z 05013KT 10SM SCT014 OVC021 07/06 A2957 RMK AO1
     PNO=
KSXT 080956Z AUTO 01007KT 9SM CLR 20/11 A3002 RMK AO2 SLP097
     T02000106 TSNO=
KFLG 080956Z AUTO 00000KT 10SM FEW100 12/01 A3026 RMK AO2 SLP138
     T01170006 TSNO=
KGNR 080956Z AUTO 12003KT 19/19 A3008 RMK AO1 SLP179 T01890189=
KWMC 080956Z AUTO 04009KT 10SM CLR 19/M05 A3005 RMK AO2 SLP122
     T01891050=
KGNA 080956Z AUTO 00000KT 18/16 A2998 RMK AO2 SLP146 T01780156
     PWINO TSNO=
KMEH 080956Z AUTO 00000KT 10SM CLR 07/06 A3011 RMK AO2 SLP176
     T00670056 TSNO=
KCAE 080956Z 26004KT 10SM CLR 23/19 A2998 RMK AO2 SLP146
     T02330189=
KBIH 080956Z AUTO 02005KT 10SM CLR 15/02 A2998 RMK AO2 SLP099
     T01500017 TSNO=
####018000241####
SABX31 KWBC 080950 RRA
METAR
EBAW 080950Z 23007KT 170V290 CAVOK 27/12 Q1019 NOSIG=
EBCI 080950Z VRB04KT CAVOK 28/11 Q1020 NOSIG=
EBOS 080950Z 29008KT 260V320 CAVOK 20/16 Q1020 NOSIG=
ELLX 080950Z VRB02KT CAVOK 27/09 Q1021 NOSIG=
####018000149####
SAEN31 KWBC 080950 RRA
METAR
EFIV 080950Z AUTO 21004KT 130V290 CAVOK 19/12 Q1016=
EFKE 080950Z AUTO 21004KT 150V270 9999 FEW041 20/13 Q1016=
####018000357####
SAEM31 KWBC 080930 RRC
METAR
LOWG 080950Z 20003KT 130V260 CAVOK 23/09 Q1023 NOSIG=
LOWI 080950Z VRB01KT CAVOK 23/12 Q1022 NOSIG=
LOWK 080950Z 08003KT 330V120 9999 FEW060 22/10 Q1023 NOSIG=
LOWL 080950Z VRB04KT CAVOK 22/09 Q1023 NOSIG=
LOWS 080950Z VRB05KT CAVOK 23/07 Q1023 NOSIG=
LOWW 080950Z 04006KT 330V070 9999 FEW050 22/10 Q1023 NOSIG=
####018000144####
SPJP43 KWBC 080958
SPECI
RJNY 080947Z 16004KT 9999 FEW010 FEW030TCU BKN130 BKN230 24/23
Q1010 RMK 1CU010 1TCU030 5AC130 A2983 TCU SE-S=
####018000599####
SAIY31 KWBC 080950 RRA
METAR
LIBD 080950Z 36014KT CAVOK 25/12 Q1020=
LICC 080950Z 08098KT CAVOK 29/20 Q1018=
LICJ 080950Z 06009KT CAVOK 28/22 Q1018=
LICJ 080950Z NIL=
LIEA 080950Z 02004KT 320V100 CAVOK 30/21 Q1019=
LIEE 080950Z NIL=
LIEO 080950Z 05009KT 020V080 9999 FEW030 31/18 Q1020=
LIMC 080950Z VRB02KT 9999 FEW050 27/15 Q1022 NOSIG=
LIMC 080950Z NIL=
LIME 080950Z 16007KT 110V190 9999 FEW055 26/14 Q1023=
LIMF 080950Z VRB02KT 9999 FEW030 BKN045 23/15 Q1022=
LIMJ 080950Z 15005KT 9999 FEW035 29/25 Q1020=
LIML 080950Z 13007KT 9999 FEW030 SCT080 26/16 Q1022 NOSIG=
####018000087####
SAIY31 KWBC 080850 RRD
METAR
LIBR 080945Z /////KT 9999 FEW020 25/16 Q1017 NOSIG=
####018000380####
SAIY32 KWBC 080950 RRA
METAR
LIPB 080950Z 16007KT 9999 FEW060 27/12 Q1021=
LIPE 080950Z 11007KT 060V150 CAVOK 28/15 Q1021=
LIPK 080950Z 11006KT CAVOK 27/11 Q1021=
LIPQ 080950Z VRB02KT 9999 SCT050 25/13 Q1022=
LIPZ 080950Z 13008KT 9999 FEW050 SCT070 26/17 Q1022=
LIRF 080950Z 21010KT 180V250 9999 FEW020 29/17 Q1020 NOSIG=
LIRQ 080950Z VRB02KT CAVOK 30/12 Q1020=
####018000081####
SAIY43 KWBC 080850 RRE
METAR
LIPX 080945Z 12004KT 9999 FEW040 28/12 Q1021=
####018000107####
SAIY41 KWBC 080950 RRA
METAR
LIMC 080950Z VRB02KT 9999 FEW050 27/15 Q1022 NOSIG=
LIMC 080950Z NIL=
####018000290####
SAIY32 KWBC 080850 RRC
METAR
LIPH 080945Z 10001KT 9999 FEW020 SCT080 26/19 Q1023=
LIPR 080945Z 08009KT CAVOK 28/17 Q1021=
LIPX 080945Z 12004KT 9999 FEW040 28/12 Q1021=
LIRA 080945Z 21007KT 150V290 9999 SCT018 29/19 Q1019=
LIRP 080945Z 10008KT 060V130 CAVOK 29/15 Q1020 NOSIG=
####018000098####
SAMX31 KWBC 080945 RRD
METAR
MMMZ 080951Z 00000KT 10SM SCT070 OVC200 26/22 A2975 RMK 8/077=
####018000431####
SANL31 KWBC 080950 RRA
METAR
EHDL 080955Z AUTO 22008KT 9999NDV NCD 28/13 Q1019 BLU=
EHGR 080955Z AUTO 29008KT 9999NDV BKN140 28/13 Q1019 BLU BLU=
EHLW 080955Z AUTO 22010KT 9999NDV SCT063 BKN100 23/17 Q1018 BLU
     BLU=
EHVK 080955Z AUTO 22006KT 9999NDV NCD 28/12 Q1019 BLU BLU=
EHVL 080955Z AUTO 24012KT 9999NDV BKN049 OVC053 19/15 Q1019
     BLU=
EHWO 080955Z AUTO 27005KT 9999NDV FEW410 26/12 Q1019 BLU BLU=
####018000075####
SANO42 KWBC 080950 RRA
METAR
ENST 080950Z VRB03KT CAVOK 18/11 Q1010=
####018000095####
SAMX41 KWBC 080945 RRB
METAR
MMHO 080945Z 00000KT 10SM BKN080 28/15 A2979 RMK 8/050 HZY=
####018000094####
SAMX42 KWBC 080945 RRB
METAR
MMTJ 080947Z 00000KT 5SM OVC013 16/14 A2993 RMK 8/5// HZY=
####018000094####
SAUK31 KWBC 080950 CCA
METAR
EGLL 080950Z VRB03KT 9999 SCT012 SCT015 19/14 Q1019 NOSIG=
####018000087####
SAUK32 KWBC 080950 RRA
METAR
EGNS 080950Z 20010KT 9999 FEW025 17/12 Q1016 NOSIG=
####018000098####
SAUK41 KWBC 080950 RRA
METAR
EGDL 080950Z 21006KT 9999 FEW018 SCT150 18/12 Q1019 BLU NOSIG=
####018001658####
SAEW KAWN 081000 RRB
METAR EBAW 080950Z 23007KT 170V290 CAVOK 27/12 Q1019 NOSIG=
METAR EBCI 080950Z VRB04KT CAVOK 28/11 Q1020 NOSIG=
METAR EBOS 080950Z 29008KT 260V320 CAVOK 20/16 Q1020 NOSIG=
METAR EDHL 080950Z 15009KT 120V190 CAVOK 27/14 Q1020=
METAR EDXW 080950Z 21012KT CAVOK 23/12 Q1018=
METAR EHAM 080955Z 27008KT 190V340 CAVOK 24/16 Q1019 NOSIG=
METAR EHBK 080955Z AUTO 22006KT 170V270 9999NDV NCD 28/11 Q1020 NOSIG=
METAR EHDL 080955Z AUTO 22008KT 9999NDV NCD 28/13 Q1019 BLU=
METAR EHGG 080955Z AUTO 22010KT 190V250 9999NDV NSC 26/13 Q1018 NOSIG=
METAR EHGR 080955Z AUTO 29008KT 9999NDV BKN140 28/13 Q1019 BLU BLU=
METAR EHLW 080955Z AUTO 22010KT 9999NDV SCT063 BKN100 23/17 Q1018 BLU
      BLU=
METAR EHRD 080955Z 27008KT 230V320 CAVOK 25/13 Q1019 NOSIG=
METAR EHVK 080955Z AUTO 22006KT 9999NDV NCD 28/12 Q1019 BLU BLU=
METAR EHVL 080955Z AUTO 24012KT 9999NDV BKN049 OVC053 19/15 Q1019 BLU=
METAR EHWO 080955Z AUTO 27005KT 9999NDV FEW410 26/12 Q1019 BLU BLU=
METAR EKBI 080950Z 21009KT 170V240 9999 FEW041 SCT075 BKN100 23/15
      Q1018=
METAR EKVJ 080950Z 18006KT 8000 RA SCT020 BKN040 20/17 Q1017=
METAR ELLX 080950Z VRB02KT CAVOK 27/09 Q1021 NOSIG=
METAR ETAD 080955Z AUTO 00000KT 9999 CLR 27/10 A3017 RMK AO2 SLP200
      T02670097 $=
METAR ETAR 080955Z AUTO 16006KT 9999 CLR 28/13 A3014 RMK AO2 SLP199
      T02790135 $=
METAR ETIC 080956Z AUTO 00000KT 9999 CLR 24/09 A3021 RMK AO2 SLP221
      T02350086 $=
METAR ETIK 080955Z AUTO VRB05KT 9999 CLR 25/10 A3021 RMK AO2 SLP215
      T02540095 $=
METAR ETOU 080955Z AUTO 17006KT 9999 CLR 27/11 A3016 RMK AO2 SLP209
      T02720110=
####018001521####
SANA14 KAWN 081000 RRA
METAR KGTB 080955Z AUTO 16004KT 10SM CLR 22/21 A3004 RMK AO2 SLP169
      T02200205=
METAR KNIP 080953Z 25004KT 10SM CLR 23/21 A3000 RMK AO2 SLP154 T02280206=
METAR KNKT 080954Z AUTO 04004KT 4SM HZ CLR 26/23 A2992 RMK AO2 SLP128
      T02610233 $=
METAR KNQX 080953Z AUTO 10004KT 10SM SCT080 28/24 A2992 RMK AO2 TSE12
      SLP130 T02780244 $=
METAR KNRB 080952Z AUTO 00000KT 10SM CLR 23/21 A2999 RMK AO2 SLP155
      T02330211=
METAR KPAM 080955Z AUTO 35004KT 10SM CLR 24/24 A3000 RMK AO2 SLP161
      T02430241=
METAR KPSM 080955Z 16005KT 5SM BR OVC007 22/21 A3007 RMK AO2A SLP183
      T02170206=
METAR KRIV 080955Z 31004KT 4SM BR BKN004 11/10 A2991 RMK AO2A SLP124
      T01110100=
METAR KSKA 080955Z AUTO 04006KT 10SM CLR 16/08 A3007 RMK AO2 SLP169
      T01560084=
METAR KSLI 080955Z AUTO 00000KT 10SM OVC016 17/13 A2990 RMK AO2 SLP127
      T01670134=
METAR KSZL 080955Z 08003KT 10SM FEW007 BKN050 23/22 A3002 RMK AO2A
      RAB0904E0942DZB0942E0950 SLP160 P0000 T02260219 $=
METAR KTCM 080955Z AUTO 16003KT 10SM CLR 15/12 A2994 RMK AO2 SLP140
      T01490122=
METAR KTIK 080955Z AUTO 34004KT 10SM SCT012 SCT017 OVC024 23/23 A3004
      RMK AO2 CIG 022V030 SLP160 T02340226 $=
METAR KTTS 080955Z 01002KT 9SM MIFG FEW055 FEW290 19/19 A2998 RMK SLP154
      1SC /0/ 1CI /0/=
METAR KVOK 080955Z 00000KT 10SM SCT200 18/18 A3001 RMK AO2A SLP159
      T01820182=
METAR KVPS 080955Z 31002KT 6SM BR SKC 23/23 A3002 RMK SLP167 T02330233=
####018000172####
SAHW31 KMSC 080957
METAR PMDY 080956Z AUTO 00000KT 10SM CLR 25/20 A3012 RMK AO2 TSNO 
    T02500200 SLP505=
METAR PGRO 080955Z 11011G15KT 7SM SCT020 27/25 A2990
=
####018002141####
SAUS20 KNKA 080957
METAR K1P1 080955Z AUTO 00000KT 1/2SM FG OVC001 22/21 A3007 RMK AO2
      T02160205=
METAR KBJJ 080956Z AUTO 00000KT 1 3/4SM BR CLR 18/17 A3010 RMK AO2 
    SLP183 T01780172=
METAR KBVU 080955Z AUTO 03003KT 10SM CLR 23/05 A2986 RMK AO2 =
METAR KCXY 080956Z AUTO 00000KT 4SM HZ CLR 23/21 A3002 RMK AO2 
    SLP162 T02330206=
METAR KE80 080955Z AUTO 26004KT 10SM CLR 18/12 A3023 RMK AO2 
     T01810115=
METAR KEDC 080955Z AUTO 08006KT BKN010 BKN015 OVC034 25/24 A2996 
     RMK AO2 =
METAR KEIK 080955Z AUTO 00000KT 7SM CLR 12/11 A3031 RMK AO2=
METAR KELZ 080956Z AUTO 00000KT 1/4SM FG VV001 18/18 A3016 RMK AO2 
    SLP197 T01780178=
METAR KEOE 080955Z AUTO 23004KT 10SM CLR 22/20 A3003 RMK AO2=
METAR KFMH 080955Z AUTO 16006KT 6SM BR OVC003 21/20 A3010 RMK AO2 
     =
METAR KHPN 080956Z 11004KT 2 1/2SM BR VV004 23/22 A3004 RMK AO2 
    SLP166 T02330217=
METAR KHWV 080956Z AUTO 14005KT 3SM BR BKN002 OVC007 24/23 A3005 RMK 
    AO2 SLP175 T02390233=
METAR KIFP 080955Z AUTO 00000KT 10SM CLR 29/00 A2974 RMK AO2 =
METAR KITH 080956Z AUTO 06004KT 3SM BR CLR 19/18 A3011 RMK AO2 
    T01940183 SLP187=
METAR KJXN 080956Z 00000KT 9SM CLR 21/20 A3005 RMK AO2 SLP166 
    T02110200=
METAR KMAN 080955Z AUTO 12005KT 10SM CLR 14/06 A3004 RMK AO1 =
METAR KMDT 080956Z 00000KT 3SM HZ CLR 25/20 A3001 RMK AO2 SLP159 
    T02500200=
METAR KMTN 080955Z 08003KT 4SM BR SCT080 26/25 A3002 RMK FIRST=
METAR KPVF 080955Z AUTO 03005KT 10SM CLR 22/13 A2993 RMK AO1 =
METAR KRBW 080955Z AUTO 27003KT 10SM CLR 22/20 A2997 RMK AO2=
METAR KRCM 080955Z AUTO 33003KT 7SM BKN005 22/22 A3003 RMK AO2 
     P0008=
METAR KSGJ 080958Z AUTO 26003KT 10SM CLR 22/21 A3000 RMK AO2 SLP157 
    T02170206=
METAR KSNC 080955Z AUTO 14003KT M1/4SM  FG OVC001 22/ A3007 RMK AO2
      =
METAR KTME 080955Z AUTO 03006KT 5SM 25/25 A2992 RMK AO1 =
METAR KUOX 080955Z AUTO 00000KT 10SM CLR 22/20 A3009 RMK AO2 =
METAR KWJF 080956Z 26007KT 10SM CLR 19/02 A2988 RMK AO2 SLP096 
    T01940022=
METAR TJSJ 080956Z 00000KT 10SM FEW018 SCT028 27/24 A2999 RMK AO2 
    SLP155 T02720244=
####018000115####
SAUS46 KLOX 080958
MTRNID
METAR KNID 080956Z AUTO 00000KT CLR 22/03 A2984 RMK AO2 SLP082 
T02170028 TSNO $
####018000115####
SAUS43 KUNR 080958
MTRD07
METAR KD07 080956Z AUTO 25003KT 15/07 A3020 RMK AO2 SLP217 T01500072 
PWINO TSNO
####018000115####
SAUS43 KABR 080958
MTR8D3
METAR K8D3 080956Z AUTO 26007KT 18/14 A3010 RMK AO2 SLP178 T01780144 
PWINO TSNO
####018000115####
SAUS43 KMQT 080958
MTRP53
METAR KP53 080956Z AUTO 02003KT 18/18 A2996 RMK AO2 SLP143 T01830178 
PWINO TSNO
####018000121####
SAUS45 KPUB 080958
MTRSPD
METAR KSPD 080956Z AUTO 35008KT 16/15 A3029 RMK AO2 SLP200 P0002 
T01560150 PWINO TSNO
####018000101####
SAUS43 KUNR 080958
MTR2WX
METAR K2WX 080956Z AUTO 26005KT 12/08 A3015 RMK AO1 SLP202 T01220083
####018000117####
SAUS45 KRIW 080958 COR
MTRLND
METAR KLND 080953Z AUTO 21003KT 10SM CLR 11/03 A3033 RMK AO2 SLP224 
T01060028
####018000115####
SAUS43 KDDC 080957
MTRP28
METAR KP28 080956Z AUTO 36004KT 21/20 A3010 RMK AO2 SLP178 T02110200 
PWINO TSNO
####018000121####
SAUS46 KSTO 080958
MTRNUQ
METAR KNUQ 080956Z AUTO 36008KT 10SM OVC013 15/12 A2992 RMK AO2 
SLP134 T01500122 TSNO
####018000134####
SAUS46 KLOX 080958
MTRNTD
METAR KNTD 080956Z AUTO 27006KT 9SM OVC013 15/13 A2989 RMK AO2 
SLP122 T01500128 TSNO PNO VISNO N $
####018000111####
SAUS45 KVEF 080958
MTRINS
METAR KINS 080956Z 00000KT 10SM CLR 19/M11 A2992 RMK AO2 SLP077 
T01941111 $
####018000115####
SAUS43 KEAX 080957
MTRCDJ
METAR KCDJ 080956Z AUTO 00000KT 21/20 A3006 RMK AO2 SLP170 T02110200 
PWINO TSNO
####018000125####
SPCN46 CWAO 080957
SPECI CYSC 080957Z AUTO 00000KT 3SM BR SCT071 BKN086 21/20 A3004 RMK
 SLP171 DENSITY ALT 1500FT=

####018000118####
SAUS46 KPQR 080958
MTRNFL
METAR KNFL 080956Z AUTO 00000KT 10SM CLR 18/01 A2997 RMK AO2 SLP121 
T01830011 TSNO
####018000123####
SAUS45 KRIW 080958
MTRP60
METAR KP60 080956Z AUTO 00000KT 01/M01 A3043 RMK AO2 SLP257 
T00061011 PWINO FZRANO TSNO
####018000127####
SAUS41 KAKQ 080958
MTRNTU
METAR KNTU 080956Z 09009KT 10SM SCT005 BKN050 BKN100 25/24 A2996 RMK 
AO2 SLP146 T02500239 $
####018000118####
SAUS46 KMTR 080958
MTRBAN
METAR KBAN 080956Z AUTO 00000KT 10SM CLR 07/01 A3019 RMK AO2 SLP127 
T00670011 TSNO
####018000121####
SAUS46 KLOX 080958
MTRNFG
METAR KNFG 080956Z AUTO 00000KT 10SM OVC013 16/13 A2989 RMK AO2 
SLP122 T01610133 TSNO
####018000117####
SAUS42 KMLB 080958 COR
MTRDAB
METAR KDAB 080953Z 00000KT 10SM FEW026 20/19 A2999 RMK AO2 SLP156 
T02000194 $
####018000118####
SAIQ01 ORBI 091000
METAR ORBI 081000Z 35010KT CAVOK 43/10 Q1003=
METAR ORMM 081000Z 29020KT CAVOK 48/M02 Q0999=
####018000066####
SAOR01 ORSU 081000
ORSU 081000Z 24008KT 8000 SKC 41/M03 Q1010
####018000087####
SAVN22 SVMI 081000
METAR SVMI 081000Z 05002KT 8000 TSDZ FEW013 BKN016 25/25 Q1013=
####018000089####
SADN32 EKCH 080950 RRA
METAR EKVJ 080950Z 18006KT 8000 RA SCT020 BKN040 20/17 Q1017=
####018000588####
SAGR31 LGAT 080950
METAR LGAD 080950Z 32012KT 9999 FEW020 27/17 Q1014=
METAR LGAV 080950Z 02016KT 340V040 9999 FEW020 SCT030 27/13 Q1013
      NOSIG=
METAR LGIR 080950Z 01007KT 9999 FEW020 29/23 Q1011 NOSIG=
METAR LGKL 080950Z 32008KT 9999 FEW030 33/12 Q1011=
METAR LGKO 080950Z 30017KT CAVOK 29/17 Q1010=
METAR LGKR 080950Z 32014KT CAVOK 28/13 Q1013 NOSIG=
METAR LGLM 080950Z NIL=
METAR LGRP 080950Z NIL=
METAR LGSA 080950Z 29010KT 9999 FEW020 33/15 Q1011=
METAR LGSM 080950Z 35014KT CAVOK 31/13 Q1010=
METAR LGTS 080950Z 33022KT 9999 SCT025 23/11 Q1016 NOSIG=
####018000103####
SADN31 EKCH 080950 RRA
METAR EKBI 080950Z 21009KT 170V240 9999 FEW041 SCT075 BKN100
23/15 Q1018=
####018000086####
SAGR32 LGAT 080950 RRA
METAR LGAL 080950Z 01009KT 9999 FEW008 BKN025 18/16 Q1015=
####018000088####
SAGL31 BGSF 080950 RRA
METAR BGBW 080950Z 27003KT 9999 FEW070 11/04 Q1009 RMK 1AC =
####018000430####
SAGR33 LGAT 080950
METAR LGHI 080950Z 02012KT 9999 FEW020 SCT080 26/19 Q1011=
METAR LGKC 080950Z NIL=
METAR LGKF 080950Z 33016KT 9999 FEW030 26/17 Q1014=
METAR LGKP 080950Z 32021KT CAVOK 29/17 Q1009=
METAR LGKZ 080950Z NIL=
METAR LGMK 080950Z 02024G34KT 9999 SCT012 25/18 Q1012=
METAR LGNX 080950Z 01020G30KT 9999 FEW020 26/19 Q1011=
METAR LGPA 080950Z NIL=
METAR LGSO 080950Z 36018KT 9999 FEW018 25/18 Q1012=
####018000295####
SANL31 EHDB 080955
METAR EHAM 080955Z 27008KT 190V340 CAVOK 24/16 Q1019 NOSIG=
METAR EHBK 080955Z AUTO 22006KT 170V270 9999NDV NCD 28/11 Q1020
NOSIG=
METAR EHGG 080955Z AUTO 22010KT 190V250 9999NDV NSC 26/13 Q1018
NOSIG=
METAR EHRD 080955Z 27008KT 230V320 CAVOK 25/13 Q1019 NOSIG=
####018000470####
SAGR32 LGAT 080950
METAR LGAL 080950Z NIL=
METAR LGEL 080950Z 36013G23KT 9999 FEW025 27/13 Q1012=
METAR LGKV 080950Z 17007KT 9999 SCT020TCU 22/17 Q1013=
METAR LGMT 080950Z 29008KT 9999 FEW025 SCT100 24/17 Q1011=
METAR LGPZ 080950Z 26015KT 9999 FEW025 28/19 Q1013 NOSIG=
METAR LGRX 080950Z 27010KT 9999 FEW025 28/19 Q1013 NOSIG=
METAR LGSK 080950Z NIL=
METAR LGSR 080950Z 35019KT CAVOK 28/19 Q1010 NOSIG=
METAR LGZA 080950Z 32017KT CAVOK 30/07 Q1013=
####018000103####
SADN31 EKCH 080950 RRB
METAR EKBI 080950Z 21009KT 170V240 9999 FEW041 SCT075 BKN100
23/15 Q1018=
####018000081####
SASW39 LSSW 080950 RRA
METAR LSMD 080950Z VRB02KT CAVOK 24/11 Q1022 RMK BLU=
####018000088####
SPCN44 CWAO 080956
SPECI CYPE 080956Z 00000KT 15SM VCSH BKN060 RMK SC5 TCU EMBD=

####018000112####
SAUS44 KBMX 080958 COR
MTRMGM
METAR KMGM 080953Z 00000KT 10SM CLR 24/22 A3002 RMK AO2 SLP161 
T02390222
####018000123####
SAUS44 KLIX 080958 COR
MTRBTR
METAR KBTR 080953Z 06003KT 7SM SCT003 BKN200 24/23 A3000 RMK AO2 
SLP157 T02390228 $
####018000499####
SAGL KAWN 081000
METAR BGBW 080950Z 27003KT 9999 FEW070 11/04 Q1009 RMK 1AC=
METAR BGCO 080950Z 02014KT 9999 VCSH FEW016 SCT067 BKN110 06/02 Q1008=
METAR BGGH 080950Z 28004KT 250V310 9999 OVC004 05/03 Q1010=
METAR BGJN 080950Z 26002KT 9999 VCFG FEW200 07/05 Q1010=
METAR BGKK 080950Z 07011KT 9999 FEW140 SCT160 07/03 Q1009=
METAR BGSF 080950Z 07007KT 9999 BKN070 11/02 Q1009=
METAR BGTL 080955Z AUTO 25003KT 1600 BR VV002 04/04 A2984 RMK AO2 VIS
      4000 RWY26 SLP109 T00410040=
####018000118####
SAUS46 KMTR 080958
MTRMHS
METAR KMHS 080956Z AUTO 00000KT 10SM CLR 13/07 A3000 RMK AO2 SLP142 
T01330072 TSNO
####018000060####
SAUS45 KTFX 080958
MTR8S0
METAR K8S0 080855Z 27005KT 
####018000120####
SAAK48 PANC 080958
MTRASY
METAR PASY 080956Z AUTO 02016KT 10SM OVC006 A2974 RMK AO2 CIG
 004V010 SLPNO TSNO PNO
####018001518####
SAZZ40 KAWN 081000 RRH
METAR BGBW 080950Z 27003KT 9999 FEW070 11/04 Q1009 RMK 1AC=
METAR KAPG 080953Z 00000KT 4SM BR SKC 25/23 A3001=
METAR KBIX 080955Z AUTO 05004KT 10SM CLR 25/25 A3001 RMK AO2 SLP164
      T02510248=
METAR KFCS 080955Z AUTO 20006KT 10SM BKN030 14/11 A3037 RMK AO2 SLP213
      T01380107=
METAR KFRI 080955Z AUTO 01005KT 10SM FEW012 OVC022 22/21 A3010 RMK
      AO2 CIG 018V026 SLP183 T02170214=
METAR KGRK 080955Z 07005KT 7SM FEW007 BKN020 BKN035 26/23 A2998 RMK
      SLP130=
METAR KHLR 080956Z AUTO 06003KT 10SM BKN015 BKN021 OVC032 25/ A2999
      RMK AO2 SLP145 T0250 $=
METAR KLTS 080955Z AUTO 02004KT 10SM CLR 23/23 A3005 RMK AO2 CIG 027
      RWY35L SLP162 T02300227 $=
METAR KNKX 080955Z 34005KT 10SM OVC014 16/13 A2989 RMK AO2 SLP118 T01610133=
METAR KNMM 080956Z AUTO 00000KT 10SM CLR 24/22 A3005 RMK AO2 SLP181
      T02390217 $=
METAR KNRS 080956Z AUTO 30008KT 10SM OVC014 17/14 A2990 RMK AO2 SLP123
      T01670139 TSNO $=
METAR KNYG 080956Z 30004KT 6SM HZ SCT080 BKN200 26/23 A2999 RMK AO2
      SLP157 T02560228=
METAR KPSM 080955Z 16005KT 5SM BR OVC007 22/21 A3007 RMK AO2A SLP183
      T02170206=
METAR KSGH 080956Z AUTO 00000KT 4SM BR CLR 19/19 A3010 RMK AO2 T01940194
      SLP185=
METAR KSZL 080955Z 08003KT 10SM FEW007 BKN050 23/22 A3002 RMK AO2A
      RAB0904E0942DZB0942E0950 SLP160 P0000 T02260219 $=
METAR LQBK 081000Z 32003KT 9999 FEW036 23/11 Q1022 NOSIG=
METAR TAPA 081000Z COR 07011KT 9999 FEW020 28/24 Q1015=
####018001769####
SAEU KAWN 081000 RRG
METAR EGDL 080950Z 21006KT 9999 FEW018 SCT150 18/12 Q1019 BLU NOSIG=
METAR EGOP 080950Z 21009KT 9999 FEW020 SCT090 BKN250 18/14 Q1018 BLU=
METAR EGVA 080955Z AUTO 24004KT 9999 FEW021 SCT110 18/13 A3008 RMK
      AO2 SLP186 T01850132=
METAR EGXJ 080950Z 26010KT 9999 FEW030 SCT100 18/10 Q1018 BLU=
METAR EHAM 080955Z 27008KT 190V340 CAVOK 24/16 Q1019 NOSIG=
METAR EHBK 080955Z AUTO 22006KT 170V270 9999NDV NCD 28/11 Q1020 NOSIG=
METAR EHDL 080955Z AUTO 22008KT 9999NDV NCD 28/13 Q1019 BLU=
METAR EHGG 080955Z AUTO 22010KT 190V250 9999NDV NSC 26/13 Q1018 NOSIG=
METAR EHGR 080955Z AUTO 29008KT 9999NDV BKN140 28/13 Q1019 BLU BLU=
METAR EHLW 080955Z AUTO 22010KT 9999NDV SCT063 BKN100 23/17 Q1018 BLU
      BLU=
METAR EHRD 080955Z 27008KT 230V320 CAVOK 25/13 Q1019 NOSIG=
METAR EHVK 080955Z AUTO 22006KT 9999NDV NCD 28/12 Q1019 BLU BLU=
METAR EHVL 080955Z AUTO 24012KT 9999NDV BKN049 OVC053 19/15 Q1019 BLU=
METAR EHWO 080955Z AUTO 27005KT 9999NDV FEW410 26/12 Q1019 BLU BLU=
METAR EKBI 080950Z 21009KT 170V240 9999 FEW041 SCT075 BKN100 23/15
      Q1018=
METAR EKVJ 080950Z 18006KT 8000 RA SCT020 BKN040 20/17 Q1017=
METAR ETIK 080955Z AUTO VRB05KT 9999 CLR 25/10 A3021 RMK AO2 SLP215
      T02540095 $=
METAR LGEL 080950Z 36013G23KT 9999 FEW025 27/13 Q1012=
METAR LGHI 080950Z 02012KT 9999 FEW020 SCT080 26/19 Q1011=
METAR LGKO 080950Z 30017KT CAVOK 29/17 Q1010=
METAR LGKV 080950Z 17007KT 9999 SCT020TCU 22/17 Q1013=
METAR LGMK 080950Z 02024G34KT 9999 SCT012 25/18 Q1012=
METAR LGSA 080950Z 29010KT 9999 FEW020 33/15 Q1011=
METAR LGTS 080950Z 33022KT 9999 SCT025 23/11 Q1016 NOSIG=
METAR LGZA 080950Z 32017KT CAVOK 30/07 Q1013=
METAR LQBK 081000Z 32003KT 9999 FEW036 23/11 Q1022 NOSIG=
####018001499####
SAUS17 KAWN 081000 RRC
METAR KAPG 080953Z 00000KT 4SM BR SKC 25/23 A3001=
METAR KBIX 080955Z AUTO 05004KT 10SM CLR 25/25 A3001 RMK AO2 SLP164
      T02510248=
METAR KBKF 080955Z 19005KT 25SM BKN020 BKN040 14/14 A3033 RMK SLP228=
METAR KDLF 080955Z AUTO 00000KT 10SM CLR 24/23 A2995 RMK AO2 SLP125
      T02390226 $=
METAR KEND 080955Z AUTO 03005KT 10SM SCT220 22/21 A3006 RMK AO2 SLP166
      T02190211 $=
METAR KFCS 080955Z AUTO 20006KT 10SM BKN030 14/11 A3037 RMK AO2 SLP213
      T01380107=
METAR KFRI 080955Z AUTO 01005KT 10SM FEW012 OVC022 22/21 A3010 RMK
      AO2 CIG 018V026 SLP183 T02170214=
METAR KGRK 080955Z 07005KT 7SM FEW007 BKN020 BKN035 26/23 A2998 RMK
      SLP130=
METAR KIWA 080956Z AUTO 00000KT 10SM CLR 34/01 A2980 RMK AO2=
METAR KLFI 080955Z 00000KT 10SM SCT090 BKN140 26/23 A2997 RMK AO2A
      SLP151 T02570228 $=
METAR KLSV 080955Z AUTO 00000KT 10SM CLR 25/M04 A2983 RMK AO2 SLP077
      T02521038 PWINO=
METAR KLTS 080955Z AUTO 02004KT 10SM CLR 23/23 A3005 RMK AO2 CIG 027
      RWY35L SLP162 T02300227 $=
METAR KMCF 080955Z AUTO 05003KT 10SM CLR 23/22 A2998 RMK AO2 SLP153
      T02250223=
METAR KMIB 080955Z AUTO 25005KT 10SM FEW095 11/11 A3008 RMK AO2 SLP191
      T01120108 $=
METAR KMXF 080955Z AUTO 00000KT 10SM CLR 25/24 A3001 RMK AO2 SLP161
      T02480237=
METAR KNFW 080952Z AUTO 10003KT 10SM CLR 26/22 A3004 RMK AO2 SLP156
      T02610222=
METAR KSVN 080955Z 23003KT 10SM SKC 22/20 A2997 RMK SLP152=
####018001581####
SANA35 KAWN 081000 RRA
METAR KACY 080954Z 00000KT 5SM BR CLR 24/22 A3004 RMK AO2 SLP171 T02390222=
METAR KBIX 080955Z AUTO 05004KT 10SM CLR 25/25 A3001 RMK AO2 SLP164
      T02510248=
METAR KBOS 080954Z 16008KT 10SM CLR 22/20 A3008 RMK AO2 SLP186 T02220200=
METAR KGSB 080955Z AUTO 06003KT 10SM FEW170 25/20 A2992 RMK AO2 SLP131
      T02540199 $=
METAR KLFI 080955Z 00000KT 10SM SCT090 BKN140 26/23 A2997 RMK AO2A
      SLP151 T02570228 $=
METAR KMCF 080955Z AUTO 05003KT 10SM CLR 23/22 A2998 RMK AO2 SLP153
      T02250223=
METAR KNIP 080953Z 25004KT 10SM CLR 23/21 A3000 RMK AO2 SLP154 T02280206=
METAR KNKT 080954Z AUTO 04004KT 4SM HZ CLR 26/23 A2992 RMK AO2 SLP128
      T02610233 $=
METAR KNQX 080953Z AUTO 10004KT 10SM SCT080 28/24 A2992 RMK AO2 TSE12
      SLP130 T02780244 $=
METAR KNRB 080952Z AUTO 00000KT 10SM CLR 23/21 A2999 RMK AO2 SLP155
      T02330211=
METAR KPAM 080955Z AUTO 35004KT 10SM CLR 24/24 A3000 RMK AO2 SLP161
      T02430241=
METAR KPHL 080954Z 00000KT 3SM HZ FEW100 SCT150 25/22 A3002 RMK AO2
      SLP164 T02500222 $=
METAR KSAV 080953Z 24003KT 10SM FEW024 21/19 A2999 RMK AO2 SLP154 T02110194=
METAR KSSC 080955Z AUTO 29008KT 10SM CLR 25/19 A2995 RMK AO2 SLP141
      T02530186 $=
METAR KSYR 080954Z 17003KT 8SM FEW090 22/20 A3004 RMK AO2 SLP166 T02220200=
METAR KVAD 080955Z AUTO 00000KT 10SM CLR 21/19 A3001 RMK AO2 SLP161
      T02090195 $=
METAR KVPS 080955Z 31002KT 6SM BR SKC 23/23 A3002 RMK SLP167 T02330233=
METAR MUGM 080956Z 35005KT 9999 FEW040 26/22 A2995 RMK SLP140 T02560222=
####018000132####
SAUS45 KABQ 080958 COR
MTRRTN
METAR KRTN 080953Z AUTO 05005KT 10SM SCT075 OVC100 14/11 A3035 RMK 
AO2 SLP208 T01390111 TSNO
####018000117####
SAUS44 KMEG 080958 COR
MTRTUP
METAR KTUP 080953Z AUTO 00000KT 10SM CLR 24/22 A3006 RMK AO2 SLP173 
T02390217
####018000128####
SAUS41 KAKQ 080958
MTRWAL
METAR KWAL 080954Z AUTO 11005KT 10SM SCT090 BKN110 24/22 A2999 RMK 
AO2 SLP154 T02440222 TSNO
####018000122####
SAUS45 KABQ 080958 COR
MTRCQC
METAR KCQC 080953Z AUTO 05007KT 10SM CLR 12/09 A3035 RMK AO2 SLP219 
T01170089 TSNO
####018000107####
SAUS41 KRNK 080958
MTRROA
METAR KROA 080954Z 00000KT 7SM CLR 24/18 A3008 RMK AO2 SLP168 
T02390183
####018000130####
SAUS41 KAKQ 080958
MTRAKQ
METAR KAKQ 080954Z AUTO 00000KT 3SM BR FEW075 BKN120 24/22 A2998 RMK 
AO2 SLP151 T02390217 TSNO
####018000090####
SAMJ41 LWOH 081000
METAR LWOH 081000Z 09006KT 050V120 9999 FEW035 SCT045 19/08 Q1019=
####018000113####
SAUS45 KPSR 080958
MTRALK
METAR KALK 080956Z AUTO 10010KT 10SM CLR 23/08 A3007 RMK AO2 SLP080 
T02280083
####018002994####
SAUS20 KNKA 080958
METAR KABQ 080956Z 08016KT 10SM BKN100 BKN200 20/09 A3026 RMK AO2
     SLP159 T02000094=
METAR KJAX 080956Z 26003KT 10SM CLR 19/18 A2999 RMK AO2 SLP156
     T01940183=
METAR K14Y 080958Z AUTO 00000KT 7SM CLR 15/15 A3010 RMK AO2 
     T01490145=
SPECI KABR 080957Z AUTO 00000KT 3/4SM BR CLR 14/13 A3012 RMK AO2=
METAR KAJO 080956Z AUTO 00000KT 5SM BR FEW013 12/12 A2991 RMK AO2 
    T01220122 SLP123 $=
METAR KCAE 080956Z 26004KT 10SM CLR 23/19 A2998 RMK AO2 SLP146
     T02330189=
METAR KCHS 080956Z 28005KT 9SM CLR 24/19 A2996 RMK AO2 SLP143
     T02440194=
METAR KCLI 080955Z AUTO 00000KT 3SM BR OVC003 22/21 A2999 RMK AO2=
METAR KCMY 080955Z AUTO 22003KT 10SM CLR 20/19 A3002 RMK AO2 
     T01950186=
METAR KCWA 080955Z AUTO 31007KT 3SM BR OVC003 19/19 A3002 RMK AO2 
     T01910192=
METAR KDIJ 080956Z AUTO 04006KT 10SM CLR 06/02 A3029 RMK AO2 
    T00610022 SLP188 $=
METAR KEFT 080955Z AUTO 27006KT 10SM CLR 21/19 A3003 RMK AO2 
     T02070190=
METAR KEGV 080952Z AUTO 31005KT 10SM BKN010 19/19 A3002 RMK AO2 
     T01870189=
METAR KEKQ 080956Z AUTO 00000KT 1 3/4SM BR CLR 18/18 A3011 RMK AO2 
    T01830177 SLP190=
METAR KETB 080953Z AUTO 00000KT 7SM RA SCT018 SCT070 BKN100 22/21 
     A3001 RMK AO2 P0001 T02150205=
METAR KEZS 080955Z AUTO 24003KT 7SM OVC005 23/22 A2999 RMK AO2 
     T02250216=
METAR KFWA 080954Z 00000KT 8SM CLR 23/20 A3006 RMK AO2 SLP172
     T02280200=
METAR KGLW 080953Z AUTO 00000KT 5SM BR CLR 21/20 A3007 RMK AO2 
     T02060196=
METAR KGSO 080954Z 01003KT 8SM BKN095 25/18 A3002 RMK AO2 SLP152
     T02500178=
METAR KGTB 080955Z AUTO 16004KT 10SM CLR 22/21 A3004 RMK AO2 SLP169
      T02200205=
METAR KHFJ 080955Z AUTO 00000KT 7SM CLR 22/22 A3003 RMK AO1=
METAR KJVL 080955Z AUTO 22003KT 10SM SCT120 22/20 A3001 RMK AO2 
     T02170199=
METAR KLCK 080955Z AUTO 00000KT 2 1/2SM BR CLR 22/21 A3007 RMK 
     AO2 T02160206=
METAR KLNL 080955Z AUTO 32005KT 10SM SCT010 OVC016 18/16 A3005 
     RMK AO2 T01800164=
METAR KLRD 080956Z AUTO 04008KT 10SM OVC020 27/24 A2989 RMK AO2 
    T02660244 SLP109 $=
METAR KLUM 080955Z AUTO 29005KT 10SM CLR 18/17 A3005 RMK AO2=
METAR KM89 080956Z AUTO 00000KT 5SM BR OVC004 24/24 A3005 RMK AO2 
    T02440238 SLP187=
METAR KMDZ 080955Z AUTO 00000KT 1/4SM FG BKN001 OVC006 18/18 
     A3003 RMK AO2=
METAR KMRJ 080955Z AUTO 25004KT 7SM OVC008 21/19 A3004 RMK AO2 
     T02060190=
METAR KMWO 080955Z AUTO 00000KT 3SM BR CLR 20/20 A3009 RMK AO2=
METAR KNQX 080953Z AUTO 10004KT 10SM SCT080 28/24 A2992 RMK AO2 TSE12
      SLP130 T02780244 $=
METAR KNRB 080952Z AUTO 00000KT 10SM CLR 23/21 A2999 RMK AO2 SLP155
      T02330211=
METAR KPAM 080955Z AUTO 35004KT 10SM CLR 24/24 A3000 RMK AO2 SLP161
      T02430241=
METAR KPSM 080955Z 16005KT 5SM BR OVC007 22/21 A3007 RMK AO2A SLP183
      T02170206=
METAR KPVB 080953Z AUTO 24003KT 1/2SM OVC001 20/20 A3004 RMK AO1 
     T02020195=
####018001195####
SAUS20 KNKA 080958
METAR KRFD 080954Z 22004KT 9SM SCT011 OVC090 22/21 A3002 RMK AO2
     SLP163 T02220206=
METAR KROG 080957Z AUTO 16003KT 10SM BKN034 BKN040 23/22 A3007 RMK 
    AO2 SLP170 T02280217=
METAR KRZN 080954Z AUTO 29003KT 10SM CLR 16/15 A3007 RMK AO2 
     T01610151=
METAR KSHV 080956Z 12003KT 10SM SCT160 BKN280 24/23 A3002 RMK AO2
     SLP162 T02390233=
METAR KTRI 080953Z 00000KT 5SM BR FEW030 21/19 A3010 RMK AO2
     SLP173 T02060189 $=
METAR KTTS 080955Z 01002KT 9SM MIFG FEW055 FEW290 19/19 A2998 RMK SLP154
      1SC /0/ 1CI /0/=
METAR KTYS 080953Z 00000KT 8SM CLR 22/19 A3006 RMK AO2 SLP165
     T02220189=
METAR KUNI 080955Z AUTO 00000KT 3/4SM HZ VV005 21/17 A3008 RMK 
     AO2 T02110166=
METAR KVES 080954Z AUTO 00000KT 3SM BR CLR 20/19 A3008 RMK AO2 
     T01950187=
METAR KY63 081000Z AUTO 21004KT 10SM CLR 14/14 A3010 RMK AO2 
     T01430136=
METAR PACM 080956Z AUTO 28006KT 10SM BKN030 OVC065 11/09 A3009 RMK 
    AO2 TSNO T01110094 RAB0857E11 P0000 SLP185 $=
METAR PAGN 080956Z AUTO 00000KT CLR RMK AO2 PWINO TSNO SLPNO $=
METAR PATQ 080956Z AUTO 26014KT 10SM CLR 09/03 A3004 RMK AO2 TSNO 
    T00940033 SLP178 $=
####018000901####
SAAK41 KNKA 080958
METAR PACM 080956Z AUTO 28006KT 10SM BKN030 OVC065 11/09 A3009 RMK 
    AO2 TSNO T01110094 RAB0857E11 P0000 SLP185 $=
METAR PAGN 080956Z AUTO 00000KT CLR RMK AO2 PWINO TSNO SLPNO $=
METAR PAHC 080956Z AUTO 00000KT 10SM SCT100 12/11 A2999 RMK AO2 TSNO 
    T01220105 SLP158 $=
METAR PAIG 080956Z AUTO 00000KT 10SM SCT055 09/08 A2994 RMK AO2 
    PWINO TSNO T00940083 SLP142 $=
METAR PAMO 080956Z AUTO 01006KT 10SM FEW065 OVC095 11/09 A3006 RMK 
    AO2 TSNO T01050094 SLP178 $=
METAR PAOH 080956Z AUTO 00000KT 10SM CLR 09/09 A3021 RMK AO2 TSNO 
    T00880088 SLP230=
METAR PAPM 080956Z AUTO 00000KT RA CLR 09/08 A3000 RMK AO2 TSNO 
    T00940083 P0000 SLP160 $=
METAR PARS 080956Z AUTO 00000KT 10SM OVC065 12/09 A3001 RMK AO2 TSNO 
    T01160088 SLP165 $=
METAR PATQ 080956Z AUTO 26014KT 10SM CLR 09/03 A3004 RMK AO2 TSNO 
    T00940033 SLP178 $=
####018000118####
SAUS44 KFWD 080958
MTRNQI
METAR KNQI 080956Z AUTO 01008KT 10SM FEW060 27/24 A2983 RMK AO2 
SLP097 T02670244 $
####018000146####
SAHW40 PHFO 080958
MTRNGF
METAR PHNG 080957Z 09009KT 10SM -RA SCT026 BKN040 24/21 A3005 RMK 
AO2 RAB53 SLP172 P0000 T02440206 402830222 $
####018001487####
SAZZ40 KAWN 081000 RRI
METAR KFAF 080955Z 00000KT 6SM BR FEW095 BKN150 25/25 A2997 RMK AO2A
      SLP149 T02520252=
METAR KFMH 080955Z AUTO 16006KT 6SM BR OVC003 21/20 A3010 RMK AO2=
METAR KLUF 080955Z 22004KT 10SM CLR 30/04 A2976 RMK AO2A SLP044 T02980037
      $=
METAR KNBC 080956Z 24003KT 7SM FEW250 23/19 A2997 RMK AO2 SLP150 T02330194=
METAR KNBG 080955Z AUTO 04003KT 5SM HZ FEW017 A3001 RMK AO2 SLP163
      PWINO FZRANO $=
METAR KNCA 080956Z AUTO 03004KT 9SM CLR 25/20 A2992 RMK AO2 SLP132
      T02500200=
METAR KNJK 080956Z AUTO 16006KT 10SM CLR 23/13 A2969 RMK AO2 SLP068
      T02330133 TSNO=
METAR KNXP 080956Z AUTO 30005KT CLR 24/00 A2991 RMK AO2 SLP088 T02440000
      $=
METAR KNXX 080956Z AUTO 00000KT 3SM HZ CLR 23/20 A3004 RMK AO2 SLP174
      T02330200 $=
METAR KNYL 080955Z 16005KT 10SM CLR 27/03 A2971 RMK AO2 SLP057 T02670033=
METAR KPOE 080955Z AUTO 09004KT 10SM CLR 24/22 A3000 RMK AO2 SLP159
      T02390222=
METAR KVBG 080955Z AUTO 30003KT 10SM OVC006 12/11 A2992 RMK AO2 SLP124
      T01220111 TSNO $=
METAR KWJF 080956Z 26007KT 10SM CLR 19/02 A2988 RMK AO2 SLP096 T01940022=
METAR ORBI 081000Z 35010KT CAVOK 43/10 Q1003=
METAR ORMM 081000Z 29020KT CAVOK 48/M02 Q0999=
METAR ORSU 081000Z 24008KT 8000 SKC 41/M03 Q1010=
METAR PMDY 080956Z AUTO 00000KT 10SM CLR 25/20 A3012 RMK AO2 TSNO T02500200
      SLP505=
METAR TJSJ 080956Z 00000KT 10SM FEW018 SCT028 27/24 A2999 RMK AO2 SLP155
      T02720244=
####018003722####
SAUS99 KWBC 080959 RRA
METAR
KCBG 080955Z AUTO 00000KT 10SM CLR 16/14 A3008 RMK AO2=
KADC 080956Z AUTO 24006KT 10SM CLR 13/12 A3008 RMK AO2=
KHAF 080950Z AUTO 00000KT 10SM OVC006 12/10 A2994 RMK AO2=
KCKC 080955Z AUTO 31006KT 10SM CLR 15/13 A3003 RMK AO2=
KJYG 080955Z AUTO 00000KT 10SM CLR 16/16 A3013 RMK AO2=
KCOQ 080956Z AUTO 28006KT 10SM CLR 14/14 A3005 RMK AO2=
KACQ 080958Z AUTO 00000KT 3/4SM BR VV005 16/15 A3011 RMK AO2 VIS
     1/4V5=
KRGK 080955Z AUTO 27003KT 10SM CLR 19/17 A3006 RMK AO2=
KFSE 080954Z AUTO 18005KT 10SM CLR 12/11 A3005 RMK AO2=
KY70 080954Z AUTO 00000KT 4SM BR SCT046 BKN080 OVC110 23/22 A3003
     RMK AO2 P0001 T02260217=
KUKT 080950Z AUTO 00000KT 3SM CLR 20/20 A3004 RMK AO1=
KTEW 080953Z AUTO 29006KT 10SM CLR 22/20 A3005 RMK AO2=
KCVH 080950Z AUTO 00000KT 10SM OVC010 13/11 A2992 RMK AO1=
KDYT 080954Z AUTO 18004KT 10SM CLR 19/16 A3004 RMK AO2=
KFSO 080959Z AUTO 16003KT 4SM BR SCT060 OVC075 23/22 A3001 RMK
     AO2=
KFBL 080954Z AUTO 30003KT 10SM CLR 17/16 A3009 RMK AO2=
KLYV 080958Z AUTO 00000KT 10SM CLR 14/13 A3016 RMK AO2=
KEFK 080956Z AUTO 19004KT 4SM BR CLR 20/19 A3006 RMK AO2=
KRRT 080954Z AUTO 24005KT 10SM CLR 14/12 A3001 RMK AO2=
KTOB 080955Z AUTO 00000KT 10SM CLR 18/16 A3008 RMK AO2=
KLXL 080955Z AUTO 00000KT 1/4SM FG VV002 12/11 A3008 RMK AO2=
KEVM 080952Z AUTO 25003KT 7SM CLR 15/13 A3002 RMK AO1=
KELO 080953Z AUTO 22003KT 10SM CLR 14/13 A3002 RMK AO2=
KANE 080955Z AUTO 00000KT 10SM 17/16 A3008 RMK AO2=
KROX 080955Z AUTO 21005KT 10SM CLR 14/12 A3001 RMK AO2=
KSYN 081010Z AUTO 00000KT 10SM CLR 17/16 A3007 RMK AO2
     T01720160=
KVVV 080956Z AUTO 29005KT 10SM CLR 17/14 A3011 RMK AO2=
KROS 080955Z AUTO 26003KT 10SM CLR 15/14 A3007 RMK AO2
     T01500141=
KHCD 080952Z AUTO 26004KT 5SM BR CLR 14/13 A3011 RMK AO2
     T01380130=
KSGS 080953Z AUTO 00000KT 10SM CLR 19/16 A3008 RMK AO2
     T01870160=
KMJQ 080952Z AUTO 29004KT 7SM CLR 15/14 A3014 RMK AO2=
KHCO 080954Z AUTO 19004KT 10SM SCT120 12/12 A3004 RMK AO2=
KLVN 080949Z AUTO 00000KT 10SM CLR 16/16 A3008 RMK AO2=
KPEX 080953Z AUTO 26004KT 7SM CLR 12/12 A3011 RMK AO2
     T01210120=
KJMR 080958Z AUTO 28003KT 10SM CLR 15/13 A3009 RMK AO2=
KJKJ 080954Z AUTO 00000KT 10SM CLR 15/14 A3006 RMK AO2=
KMVE 080954Z AUTO 29004KT 10SM CLR 16/14 A3010 RMK AO2=
KTKC 080953Z AUTO 26004KT 10SM CLR 16/13 A3014 RMK AO2
     T01580130=
KGYL 080955Z AUTO 00000KT 10SM CLR 15/14 A3010 RMK AO2
     T01500141=
KDXX 080954Z AUTO 00000KT 10SM CLR 14/14 A3011 RMK AO2=
KHZX 080951Z AUTO 00000KT 10SM CLR 13/13 A3007 RMK AO2=
KSAZ 080954Z AUTO 23003KT 10SM CLR 15/15 A3008 RMK AO2=
KONA 080951Z AUTO 30006KT 10SM SCT013 20/18 A3003 RMK AO2=
KOVL 080954Z AUTO 30005KT 10SM CLR 13/12 A3011 RMK AO2
     T01320118=
KLJF 080952Z AUTO 27003KT 10SM CLR 17/16 A3011 RMK AO2=
KAEL 080951Z AUTO 32003KT 10SM CLR 17/17 A3008 RMK AO2=
K29G 080954Z AUTO 00000KT 5SM SCT060 19/18 A3009 RMK AO2 T01930181
     PWINO=
KMRT 080953Z AUTO 00000KT 3SM CLR 21/19 A3011 RMK AO2
     T02050189=
KIKW 080954Z AUTO 27004KT 10SM SCT060 SCT090 OVC110 23/21 A3002
     RMK AO2 T02310212=
KMDS 080945Z AUTO 29005KT 10SM CLR 15/15 A3017 RMK AO2=
KABQ 080956Z 08016KT 10SM BKN100 BKN200 20/09 A3026 RMK AO2 SLP159
     T02000094=
KJAX 080956Z 26003KT 10SM CLR 19/18 A2999 RMK AO2 SLP156
     T01940183=
K14Y 080958Z AUTO 00000KT 7SM CLR 15/15 A3010 RMK AO2
     T01490145=
KAJO 080956Z AUTO 00000KT 5SM BR FEW013 12/12 A2991 RMK AO2
     T01220122 SLP123 $=
KCAE 080956Z 26004KT 10SM CLR 23/19 A2998 RMK AO2 SLP146
     T02330189=
KCHS 080956Z 28005KT 9SM CLR 24/19 A2996 RMK AO2 SLP143
     T02440194=
####018003714####
SAUS99 KWBC 080959
METAR
K1P1 080955Z AUTO 00000KT 1/2SM FG OVC001 22/21 A3007 RMK AO2
     T02160205=
KBJJ 080956Z AUTO 00000KT 1 3/4SM BR CLR 18/17 A3010 RMK AO2
     SLP183 T01780172=
KBVU 080955Z AUTO 03003KT 10SM CLR 23/05 A2986 RMK AO2=
KCXY 080956Z AUTO 00000KT 4SM HZ CLR 23/21 A3002 RMK AO2 SLP162
     T02330206=
KE80 080955Z AUTO 26004KT 10SM CLR 18/12 A3023 RMK AO2
     T01810115=
KEDC 080955Z AUTO 08006KT BKN010 BKN015 OVC034 25/24 A2996 RMK
     AO2=
KEIK 080955Z AUTO 00000KT 7SM CLR 12/11 A3031 RMK AO2=
KELZ 080956Z AUTO 00000KT 1/4SM FG VV001 18/18 A3016 RMK AO2
     SLP197 T01780178=
KEOE 080955Z AUTO 23004KT 10SM CLR 22/20 A3003 RMK AO2=
KFMH 080955Z AUTO 16006KT 6SM BR OVC003 21/20 A3010 RMK AO2=
KHPN 080956Z 11004KT 2 1/2SM BR VV004 23/22 A3004 RMK AO2 SLP166
     T02330217=
KHWV 080956Z AUTO 14005KT 3SM BR BKN002 OVC007 24/23 A3005 RMK AO2
     SLP175 T02390233=
KIFP 080955Z AUTO 00000KT 10SM CLR 29/00 A2974 RMK AO2=
KITH 080956Z AUTO 06004KT 3SM BR CLR 19/18 A3011 RMK AO2 T01940183
     SLP187=
KJXN 080956Z 00000KT 9SM CLR 21/20 A3005 RMK AO2 SLP166
     T02110200=
KMAN 080955Z AUTO 12005KT 10SM CLR 14/06 A3004 RMK AO1=
KMDT 080956Z 00000KT 3SM HZ CLR 25/20 A3001 RMK AO2 SLP159
     T02500200=
KMTN 080955Z 08003KT 4SM BR SCT080 26/25 A3002 RMK FIRST=
KPVF 080955Z AUTO 03005KT 10SM CLR 22/13 A2993 RMK AO1=
KRBW 080955Z AUTO 27003KT 10SM CLR 22/20 A2997 RMK AO2=
KRCM 080955Z AUTO 33003KT 7SM BKN005 22/22 A3003 RMK AO2 P0008=
KSGJ 080958Z AUTO 26003KT 10SM CLR 22/21 A3000 RMK AO2 SLP157
     T02170206=
KSNC 080955Z AUTO 14003KT M1/4SM FG OVC001 22/ A3007 RMK AO2=
KTME 080955Z AUTO 03006KT 5SM 25/25 A2992 RMK AO1=
KUOX 080955Z AUTO 00000KT 10SM CLR 22/20 A3009 RMK AO2=
KWJF 080956Z 26007KT 10SM CLR 19/02 A2988 RMK AO2 SLP096
     T01940022=
TJSJ 080956Z 00000KT 10SM FEW018 SCT028 27/24 A2999 RMK AO2 SLP155
     T02720244=
KFKA 081003Z AUTO 32006KT 10SM CLR 19/18 A3008 RMK AO2
     T01870181=
KFPK 080955Z AUTO 00000KT 5SM BR CLR 22/20 A3003 RMK AO2=
KMOP 080954Z AUTO 24005KT 10SM SCT075 BKN090 OVC110 23/22 A3002
     RMK AO2=
KCAD 080954Z AUTO 23004KT 10SM BKN110 22/20 A3003 RMK AO2=
KMGN 080955Z AUTO 00000KT 10SM BKN110 21/20 A2996 RMK AO2=
KHAI 080954Z AUTO 00000KT 5SM BR SCT060 SCT075 21/21 A3005 RMK
     AO2=
KLWA 080956Z AUTO 00000KT 10SM CLR 23/21 A3003 RMK AO2=
KDRM 080956Z AUTO 15004KT 1/4SM FG OVC002 20/20 A2995 RMK AO2=
KVLL 080954Z AUTO 00000KT 10SM CLR 25/21 A3005 RMK AO2=
KCFS 080955Z AUTO 00000KT 1 3/4SM BR VV007 20/20 A3002 RMK AO2=
KOZW 080955Z AUTO 00000KT 7SM CLR 23/21 A3004 RMK AO2=
KRNP 080955Z AUTO 26010KT 10SM SCT055 23/21 A3004 RMK AO2=
KDUH 080955Z AUTO 00000KT 10SM SCT070 22/18 A3005 RMK AO2=
KJYM 080955Z AUTO 00000KT 7SM CLR 21/18 A3006 RMK AO2=
KBAX 080955Z AUTO 00000KT 5SM BR CLR 21/20 A3000 RMK AO2=
KIRS 080955Z AUTO 00000KT 7SM CLR 22/19 A3004 RMK AO2=
KACB 080955Z AUTO 00000KT 10SM OVC100 24/21 A2997 RMK AO2=
KRQB 080955Z AUTO 20003KT 10SM OVC090 22/21 A3003 RMK AO2=
KOEB 080955Z AUTO 00000KT 7SM CLR 22/20 A3005 RMK AO2=
K4I3 080956Z AUTO 00000KT 7SM SCT060 20/19 A3010 RMK AO2=
KAUM 080955Z AUTO 33004KT 7SM CLR 18/17 A3007 RMK AO2=
KFFX 080954Z AUTO 22003KT 5SM -RA BKN110 22/22 A3003 RMK AO2=
KCNB 080957Z AUTO 25006KT 10SM CLR 16/13 A3013 RMK AO2
     T01610130=
KCKN 080955Z AUTO 23005KT 10SM CLR 13/11 A3005 RMK AO2=
KCFE 080954Z AUTO 00000KT 10SM CLR 17/16 A3010 RMK AO2
     T01710161=
KCQM 080957Z AUTO 00000KT 10SM CLR 14/14 A3003 RMK AO2=
KDTL 080955Z AUTO 00000KT 10SM CLR 16/10 A3010 RMK AO2=
KBDH 080955Z AUTO 24003KT 10SM CLR 15/14 A3013 RMK AO2=
####018003692####
SAUS99 KWBC 080959 RRB
METAR
KCLI 080955Z AUTO 00000KT 3SM BR OVC003 22/21 A2999 RMK AO2=
KCMY 080955Z AUTO 22003KT 10SM CLR 20/19 A3002 RMK AO2
     T01950186=
KCWA 080955Z AUTO 31007KT 3SM BR OVC003 19/19 A3002 RMK AO2
     T01910192=
KDIJ 080956Z AUTO 04006KT 10SM CLR 06/02 A3029 RMK AO2 T00610022
     SLP188 $=
KEFT 080955Z AUTO 27006KT 10SM CLR 21/19 A3003 RMK AO2
     T02070190=
KEGV 080952Z AUTO 31005KT 10SM BKN010 19/19 A3002 RMK AO2
     T01870189=
KEKQ 080956Z AUTO 00000KT 1 3/4SM BR CLR 18/18 A3011 RMK AO2
     T01830177 SLP190=
KETB 080953Z AUTO 00000KT 7SM RA SCT018 SCT070 BKN100 22/21 A3001
     RMK AO2 P0001 T02150205=
KEZS 080955Z AUTO 24003KT 7SM OVC005 23/22 A2999 RMK AO2
     T02250216=
KFWA 080954Z 00000KT 8SM CLR 23/20 A3006 RMK AO2 SLP172
     T02280200=
KGLW 080953Z AUTO 00000KT 5SM BR CLR 21/20 A3007 RMK AO2
     T02060196=
KGSO 080954Z 01003KT 8SM BKN095 25/18 A3002 RMK AO2 SLP152
     T02500178=
KGTB 080955Z AUTO 16004KT 10SM CLR 22/21 A3004 RMK AO2 SLP169
     T02200205=
KHFJ 080955Z AUTO 00000KT 7SM CLR 22/22 A3003 RMK AO1=
KJVL 080955Z AUTO 22003KT 10SM SCT120 22/20 A3001 RMK AO2
     T02170199=
KLCK 080955Z AUTO 00000KT 2 1/2SM BR CLR 22/21 A3007 RMK AO2
     T02160206=
KLNL 080955Z AUTO 32005KT 10SM SCT010 OVC016 18/16 A3005 RMK AO2
     T01800164=
KLRD 080956Z AUTO 04008KT 10SM OVC020 27/24 A2989 RMK AO2
     T02660244 SLP109 $=
KLUM 080955Z AUTO 29005KT 10SM CLR 18/17 A3005 RMK AO2=
KM89 080956Z AUTO 00000KT 5SM BR OVC004 24/24 A3005 RMK AO2
     T02440238 SLP187=
KMDZ 080955Z AUTO 00000KT 1/4SM FG BKN001 OVC006 18/18 A3003 RMK
     AO2=
KMRJ 080955Z AUTO 25004KT 7SM OVC008 21/19 A3004 RMK AO2
     T02060190=
KMWO 080955Z AUTO 00000KT 3SM BR CLR 20/20 A3009 RMK AO2=
KNQX 080953Z AUTO 10004KT 10SM SCT080 28/24 A2992 RMK AO2 TSE12
     SLP130 T02780244 $=
KNRB 080952Z AUTO 00000KT 10SM CLR 23/21 A2999 RMK AO2 SLP155
     T02330211=
KPAM 080955Z AUTO 35004KT 10SM CLR 24/24 A3000 RMK AO2 SLP161
     T02430241=
KPSM 080955Z 16005KT 5SM BR OVC007 22/21 A3007 RMK AO2A SLP183
     T02170206=
KPVB 080953Z AUTO 24003KT 1/2SM OVC001 20/20 A3004 RMK AO1
     T02020195=
KRFD 080954Z 22004KT 9SM SCT011 OVC090 22/21 A3002 RMK AO2 SLP163
     T02220206=
KROG 080957Z AUTO 16003KT 10SM BKN034 BKN040 23/22 A3007 RMK AO2
     SLP170 T02280217=
KRZN 080954Z AUTO 29003KT 10SM CLR 16/15 A3007 RMK AO2
     T01610151=
KSHV 080956Z 12003KT 10SM SCT160 BKN280 24/23 A3002 RMK AO2 SLP162
     T02390233=
KTRI 080953Z 00000KT 5SM BR FEW030 21/19 A3010 RMK AO2 SLP173
     T02060189 $=
KTTS 080955Z 01002KT 9SM MIFG FEW055 FEW290 19/19 A2998 RMK SLP154
     1SC /0/ 1CI /0/=
KTYS 080953Z 00000KT 8SM CLR 22/19 A3006 RMK AO2 SLP165
     T02220189=
KUNI 080955Z AUTO 00000KT 3/4SM HZ VV005 21/17 A3008 RMK AO2
     T02110166=
KVES 080954Z AUTO 00000KT 3SM BR CLR 20/19 A3008 RMK AO2
     T01950187=
KY63 081000Z AUTO 21004KT 10SM CLR 14/14 A3010 RMK AO2
     T01430136=
PACM 080956Z AUTO 28006KT 10SM BKN030 OVC065 11/09 A3009 RMK AO2
     TSNO T01110094 RAB0857E11 P0000 SLP185 $=
PAGN 080956Z AUTO 00000KT CLR RMK AO2 PWINO TSNO SLPNO $=
PATQ 080956Z AUTO 26014KT 10SM CLR 09/03 A3004 RMK AO2 TSNO
     T00940033 SLP178 $=
PACM 080956Z AUTO 28006KT 10SM BKN030 OVC065 11/09 A3009 RMK AO2
     TSNO T01110094 RAB0857E11 P0000 SLP185 $=
PAGN 080956Z AUTO 00000KT CLR RMK AO2 PWINO TSNO SLPNO $=
PAHC 080956Z AUTO 00000KT 10SM SCT100 12/11 A2999 RMK AO2 TSNO
     T01220105 SLP158 $=
PAIG 080956Z AUTO 00000KT 10SM SCT055 09/08 A2994 RMK AO2 PWINO
     TSNO T00940083 SLP142 $=
####018000091####
SPUS99 KWBC 080959
SPECI
KABR 080957Z AUTO 00000KT 3/4SM BR CLR 14/13 A3012 RMK AO2=
####018000493####
SAUS99 KWBC 080959 RRC
METAR
PAMO 080956Z AUTO 01006KT 10SM FEW065 OVC095 11/09 A3006 RMK AO2
     TSNO T01050094 SLP178 $=
PAOH 080956Z AUTO 00000KT 10SM CLR 09/09 A3021 RMK AO2 TSNO
     T00880088 SLP230=
PAPM 080956Z AUTO 00000KT RA CLR 09/08 A3000 RMK AO2 TSNO
     T00940083 P0000 SLP160 $=
PARS 080956Z AUTO 00000KT 10SM OVC065 12/09 A3001 RMK AO2 TSNO
     T01160088 SLP165 $=
PATQ 080956Z AUTO 26014KT 10SM CLR 09/03 A3004 RMK AO2 TSNO
     T00940033 SLP178 $=
####018000094####
SPUS52 KWBC 080959
SPECI
KCNM 080955Z AUTO 35009KT 5SM RA BR SCT007 OVC010 20/19 A3013=
####018000120####
SAUS46 KLOX 080959
MTRNLC
METAR KNLC 080956Z AUTO 31007KT 10SM CLR 18/11 A2982 RMK AO2 SLP095 
T01830111 TSNO $
####018000110####
SAUS46 KPQR 080959
MTRNUW
METAR KNUW 080956Z 00000KT 10SM CLR 14/11 A2996 RMK AO2 SLP150 
T01440106 $
####018000094####
SPUS72 KWBC 080959
SPECI
KCNM 080955Z AUTO 35009KT 5SM RA BR SCT007 OVC010 20/19 A3013=
####018000089####
SAUK31 EGGY 080950 CCB
METAR COR EGCC 080950Z 23012KT 9999 FEW032 19/10 Q1017 NOSIG=
####018000167####
SANL32 EHDB 080955
METAR EHEH 080955Z AUTO 26006KT 9999NDV NCD 29/12 Q1019 
BLU BLU=
METAR EHKD 080955Z AUTO 25011KT 9999NDV OVC064/// 19/16 Q1019 
BLU BLU=
####018000089####
SAUK34 EGGY 080950 CCA
METAR COR EGHK 080950Z 15005KT 9999 FEW025 17/15 Q1018 NOSIG=
####018000124####
SAUS46 KSEW 080959 COR
MTRSMP
METAR KSMP 080956Z AUTO 00000KT 10SM CLR 16/04 A3016 RMK AO2 SLP177 
T01610039 TSNO $
####018000113####
SAUS45 KBOI 080959
MTRLWS
METAR KLWS 080956Z AUTO 00000KT 10SM CLR 18/07 A3002 RMK AO2 SLP156 
T01780072
####018000106####
SABA31 MYNN 080958
METAR MYNN 081000Z 00000KT 9999 FEW012CB FEW015TCU 27/27 A2993=


NNNN


####018000077####
SALY31 HLLM 081000
METAR HLLM 080950Z 
32007KT 6000 BKN025 27/20 Q1020=
####018000462####
SAGR32 LGAT 080950
METAR LGAL 080950Z NIL=
METAR LGEL 080950Z 36013G23KT 9999 FEW025 27/13 Q1012=
METAR LGKV 080950Z 17007KT 9999 SCT020TCU 22/17 Q1013=
METAR LGMT 080950Z 29008KT 9999 FEW025 SCT100 24/17 Q1011=
METAR LGPZ 080950Z 26015KT 9999 FEW025 28/19 Q1013 NOSIG=
METAR LGRX 080950Z 27010KT 9999 FEW025 28/19 Q1013 NOSIG=
METAR LGSK 080950Z NIL=
METAR LGSR 080950Z 35019KT CAVOK 28/19 Q1010 NOSIG=
METAR LGZA 080950Z 32017KT CAVOK 30/07 Q1013=
####018000422####
SAGR33 LGAT 080950
METAR LGHI 080950Z 02012KT 9999 FEW020 SCT080 26/19 Q1011=
METAR LGKC 080950Z NIL=
METAR LGKF 080950Z 33016KT 9999 FEW030 26/17 Q1014=
METAR LGKP 080950Z 32021KT CAVOK 29/17 Q1009=
METAR LGKZ 080950Z NIL=
METAR LGMK 080950Z 02024G34KT 9999 SCT012 25/18 Q1012=
METAR LGNX 080950Z 01020G30KT 9999 FEW020 26/19 Q1011=
METAR LGPA 080950Z NIL=
METAR LGSO 080950Z 36018KT 9999 FEW018 25/18 Q1012=
####018000577####
SAGR31 LGAT 080950
METAR LGAD 080950Z 32012KT 9999 FEW020 27/17 Q1014=
METAR LGAV 080950Z 02016KT 340V040 9999 FEW020 SCT030 27/13 Q1013
      NOSIG=
METAR LGIR 080950Z 01007KT 9999 FEW020 29/23 Q1011 NOSIG=
METAR LGKL 080950Z 32008KT 9999 FEW030 33/12 Q1011=
METAR LGKO 080950Z 30017KT CAVOK 29/17 Q1010=
METAR LGKR 080950Z 32014KT CAVOK 28/13 Q1013 NOSIG=
METAR LGLM 080950Z NIL=
METAR LGRP 080950Z NIL=
METAR LGSA 080950Z 29010KT 9999 FEW020 33/15 Q1011=
METAR LGSM 080950Z 35014KT CAVOK 31/13 Q1010=
METAR LGTS 080950Z 33022KT 9999 SCT025 23/11 Q1016 NOSIG=
####018000132####
SAUS41 KAKQ 080959 COR
MTRWAL
METAR KWAL 080954Z AUTO 11005KT 10SM SCT090 BKN110 24/22 A2999 RMK 
AO2 SLP154 T02440222 TSNO
####018000077####
SALY31 HLLS 081000
METAR HLLS 080955Z O9O12KT  CAVOK  35/11 Q1O17 NOSIG=
####018002937####
SAUS20 KNKA 080959
METAR K4M9 080955Z AUTO 22005KT 8SM CLR 24/24 A3005 RMK AO2 =
METAR KAEJ 080955Z AUTO 13004KT 10SM BKN048 OVC110 09/08 A3046 RMK 
     AO2=
METAR KAPG 080953Z 00000KT 4SM BR SKC 25/23 A3001=
METAR KBBF 081055Z AUTO 13018KT 8SM FEW025 SCT041 SCT049 29/27
     A2979 RMK A01=
METAR KBIX 080955Z AUTO 05004KT 10SM CLR 25/25 A3001 RMK AO2 SLP164
      T02510248=
METAR KBQX 080955Z AUTO 12017G29KT 9SM FEW048 SCT090 BKN110 28/25
     A2983 RMK A01=
METAR KDCM 080955Z AUTO 00000KT 10SM CLR 21/21 A3001 RMK AO2=
METAR KDLP 080955Z AUTO 10011KT 10SM FEW017 28/25 A2998 RMK A01=
METAR KEDU 080955Z AUTO 17005KT 10SM CLR 14/10 A2982 RMK AO1=
METAR KEHC 080955Z AUTO 12021G27KT 7SM FEW019 FEW025 SCT039 29/25
     A2991 RMK A01=
METAR KEIR 080955Z AUTO VRB04G13KT 10SM FEW016 FEW021 FEW036 28/25
     A2995 RMK A01=
METAR KEMK 080955Z AUTO 14024KT 8SM FEW029 FEW038 BKN070 29/25
     A2985 RMK A01=
METAR KGBK 080955Z AUTO 09014G20KT 10SM FEW032 29/25 A2989 RMK A01=
METAR KGVX 080955Z AUTO 12029KT 8SM FEW004 SCT034 BKN046 M40/
     A2988 RMK A01=
METAR KGYH 080955Z AUTO 00000KT 10SM CLR 23/20 A3003 RMK AO2=
METAR KHQI 080955Z AUTO 11025G31KT 7SM FEW018 SCT030 SCT055 29/26
     A2987 RMK A01=
METAR KHXD 080955Z AUTO 21005KT 10SM CLR 24/21 A2999 RMK AO2 P0000 
     =
METAR KHYW 080955Z AUTO 00000KT 7SM SCT090 SCT120 23/22 A2993 RMK 
     AO2=
METAR KIPN 080955Z AUTO 09014KT 10SM SCT020 SCT026 /56 A2998 RMK
     A01=
METAR KJZI 080955Z AUTO 29005KT 10SM CLR 23/23 A2996 RMK A02 P000 
     =
METAR KLFI 080955Z 00000KT 10SM SCT090 BKN140 26/23 A2997 RMK AO2A
      SLP151 T02570228 $=
METAR KMCF 080955Z AUTO 05003KT 10SM CLR 23/22 A2998 RMK AO2 SLP153
      T02250223=
METAR KMCJ 080955Z AUTO 10009KT 9SM SCT023 SCT028 SCT037 27/24 
     A2989 RMK AO1 =
METAR KMDJ 080955Z AUTO 12012KT 10SM FEW018 BKN065 28/25 A2999 RMK
     A01=
METAR KMEI 080958Z AUTO 00000KT 10SM CLR 22/22 A3004 RMK AO2 SLP169 
    T02220217=
METAR KMHR 080955Z AUTO 17006KT 10SM CLR 13/10 A2985 RMK AO1=
METAR KMIU 080955Z AUTO 14016KT 10SM FEW014 SCT050 BKN060 28/26
     A2980 RMK A01=
METAR KMWC 080955Z AUTO 00000KT 5SM RA SCT007 BKN041 OVC065 21/20 
     A3001 RMK AO2 P0003=
METAR KMXF 080955Z AUTO 00000KT 10SM CLR 25/24 A3001 RMK AO2 SLP161
      T02480237=
METAR KMYT 080955Z AUTO 13014KT CLR 28/24 A2995 RMK A01=
METAR KMZG 080955Z AUTO 00000KT 10SM FEW043 29/25 A2980 RMK A01=
METAR KOEO 080955Z AUTO 00000KT 10SM CLR 17/16 A3009 RMK AO2=
METAR KPBH 080955Z AUTO 00000KT 10SM CLR 19/18 A3004 RMK AO2=
METAR KPCZ 080955Z AUTO 00000KT 3SM BR CLR 22/21 A2999 RMK AO2 
     T02240210=
METAR KPDC 080953Z AUTO 29006KT 10SM CLR 22/21 A3002 RMK AO2 
     T02170205=
METAR KRCX 080955Z AUTO 32006KT 10SM CLR 18/17 A3005 RMK AO2 
     T01800165=
METAR KRNH 080956Z AUTO 30006KT 10SM CLR 17/16 A3007 RMK AO2 
     T01680161=
####018001004####
SAUS20 KNKA 080959
METAR KRPD 080954Z AUTO 00000KT 10SM BKN045 18/17 A3006 RMK AO2 
     T01800168=
METAR KRRL 080955Z AUTO 00000KT 2 1/2SM BR OVC002 18/17 A3003 RMK 
     AO2 T01750170=
METAR KSCF 081000Z AUTO 15019KT 9SM FEW017 SCT022 SCT027 29/25
     A2990 RMK A01=
METAR KSPF 080955Z AUTO 34003KT 10SM CLR 11/08 A3028 RMK AO2 =
METAR KSTE 080955Z AUTO 00000KT 10SM CLR 20/19 A3001 RMK AO2=
METAR KSUW 080955Z AUTO 20005KT 10SM CLR 15/14 A3002 RMK AO2=
METAR KTKV 080955Z AUTO 00000KT 1/2SM FG OVC001 17/16 A3002 RMK 
     AO2 T01700163=
METAR KUES 080955Z AUTO 23003KT 7SM RA BKN006 OVC014 21/20 A3002 
     RMK AO2 T02100195=
METAR KUNU 080952Z AUTO 22003KT 4SM BR BKN003 BKN120 21/20 A3002 
     RMK AO2 P0001 T02070195=
METAR KVBS 080955Z AUTO 13023KT 10SM BKN020 BKN024 OVC032 29/25
     A2991 RMK A01=
METAR KVNP 080955Z AUTO VRB07KT 070V150 9SM 28/25 A2996 RMK A01=
METAR KY50 080956Z AUTO 27004KT 7SM CLR 22/22 A3000 RMK AO2 
    T02160216 SLP153 $=
####018000087####
SARS18 KAWN 081000 RRA
METAR ESSA 080950Z 23011KT 190V260 CAVOK 23/12 Q1017 NOSIG=
####018001176####
SAUK KAWN 081000 RRA
METAR EGDL 080950Z 21006KT 9999 FEW018 SCT150 18/12 Q1019 BLU NOSIG=
METAR EGHH 080950Z 02002KT 9999 FEW006 BKN012 17/16 Q1019=
METAR EGKA 080950Z 21009KT 9999 FEW017 20/17 Q1019=
METAR EGKB 080950Z 25005KT 190V290 9999 BKN025 20/15 Q1019=
METAR EGLF 080950Z 34004KT 300V010 9999 VCSH BKN009 16/14 Q1019=
METAR COR EGLL 080950Z VRB03KT 9999 SCT012 SCT015 19/14 Q1019 NOSIG=
METAR EGMC 080950Z 22004KT 210V280 9999 FEW024 21/16 Q1019=
METAR EGMD 080950Z 28007KT 9999 BKN015 21/16 Q1019=
METAR EGNS 080950Z 20010KT 9999 FEW025 17/12 Q1016 NOSIG=
METAR EGOP 080950Z 21009KT 9999 FEW020 SCT090 BKN250 18/14 Q1018 BLU=
METAR EGQA 080950Z 19020KT 9999 VCSH FEW018 SCT050 15/// Q1008 BLU
      NOSIG=
METAR EGTC 080950Z 21006KT 170V250 9999 -SHRA FEW020 17/12 Q1018=
METAR EGUL 080955Z AUTO 24009KT 9999 BKN028 OVC170 20/13 A3007 RMK
      AO2 SLP183 T01970126=
METAR EGUN 080955Z AUTO VRB04KT 9999 OVC027 19/18 A3008 RMK AO2 CIG
      023V030 SLP174 T01910181=
METAR EGVA 080955Z AUTO 24004KT 9999 FEW021 SCT110 18/13 A3008 RMK
      AO2 SLP186 T01850132=
METAR EGXJ 080950Z 26010KT 9999 FEW030 SCT100 18/10 Q1018 BLU=
####018000723####
SAXX70 KAWN 081000 RRE
METAR KQAY 080955Z AUTO 03009G17KT 9999 CLR 48/M02 A2955 RMK AO2 SLP001
      T04751016 $=
METAR KQBL 080955Z AUTO 01002KT 10SM FEW009 24/23 A3005 RMK AO2 SLP174
      T02390230=
METAR KQD9 080955Z 06007KT 9999 SCT060 SCT170 34/14 A2990 RMK SLP042
      WND DATA ESTMD ALSTG/SLP ESTMD=
METAR KQIU 080955Z AUTO 08007G24KT 4300 +TSRA FEW041 SCT060 BKN085
      BKN130 23/05 A3018 RMK AO2 SLP129=
METAR KQL5 080955Z 06008KT 9999 FEW150 39/16 A2963 RMK AO2A SLP985
      WND DATA ESTMD ALSTG/SLP ESTMD=
METAR KQPV 080955Z AUTO 25009G14KT 9999 CLR 44/07 A2968 RMK AO2 SLP043
      T04370068=
METAR KQWM 080955Z 32030G39KT 5000 BLDU CLR 47/M02 A2956 RMK SLP999
      QNH1001=
####018000118####
SAUS44 KCRP 080959
MTRNGP
METAR KNGP 080956Z AUTO 10005KT 10SM FEW080 28/26 A2981 RMK AO2 
SLP092 T02830261 $
####018000072####
SABZ18 SBKP 081000
METAR SBKP 081000Z 09005KT 8000 NSC 10/08 Q1021=
####018000425####
SAAK41 KNKA 080959
METAR PAFS 080956Z AUTO 06005KT 10SM CLR 16/06 A3000 RMK AO2 TSNO 
    T01550055 SLP164 $=
METAR PAMB 080956Z AUTO 02005KT 10SM FEW031 BKN042 11/07 A2993 RMK 
    AO2 PWINO TSNO T01050072 SLP139 $=
METAR PAVA 080957Z AUTO 36010KT 10SM OVC075 11/09 A3008 RMK AO2 
    RAE34 SLP190 P0000 T01110094=
METAR PPIZ 080956Z AUTO 20010KT 10SM CLR 07/02 A3010 RMK AO2 TSNO 
    T00660016 SLP197 $=
####018000101####
SAUS46 KLOX 080959
MTR3A6
METAR K3A6 081050Z AUTO 36002KT 11/10 A2989 RMK AO1 SLP141 T01130100
####018001650####
SAEU KAWN 081000 RRH
METAR EDHL 080950Z 15009KT 120V190 CAVOK 27/14 Q1020 RMK L=
METAR EDLN 080950Z 22005KT 150V260 CAVOK 28/10 Q1019 RMK ATIS K=
METAR EDLP 080950Z VRB03KT CAVOK 29/11 Q1020 RMK RWY24 TRL60 JP ATIS
      P=
METAR EDLW 080950Z 20009KT CAVOK 29/09 Q1020 RMK ATIS N=
METAR EDNY 080950Z 20004KT CAVOK 24/14 Q1022 RMK ATIS N=
METAR EDXW 080950Z 21012KT CAVOK 23/12 Q1018 RMK ATIS INFO S=
METAR COR EGCC 080950Z 23012KT 9999 FEW032 19/10 Q1017 NOSIG=
METAR EHKD 080955Z AUTO 25011KT 9999NDV OVC064/// 19/16 Q1019 BLU BLU=
METAR LGAD 080950Z 32012KT 9999 FEW020 27/17 Q1014=
METAR LGAL 080950Z 01009KT 9999 FEW008 BKN025 18/16 Q1015=
METAR LGBL 080950Z 34004KT 9999 FEW030 SCT080 27/11 Q1014 NOSIG BLU=
METAR LGIR 080950Z 01007KT 9999 FEW020 29/23 Q1011 NOSIG=
METAR LGKF 080950Z 33016KT 9999 FEW030 26/17 Q1014=
METAR LGKL 080950Z 32008KT 9999 FEW030 33/12 Q1011=
METAR LGKP 080950Z 32021KT CAVOK 29/17 Q1009=
METAR LGKR 080950Z 32014KT CAVOK 28/13 Q1013 NOSIG=
METAR LGMT 080950Z 29008KT 9999 FEW025 SCT100 24/17 Q1011=
METAR LGPZ 080950Z 26015KT 9999 FEW025 28/19 Q1013 NOSIG=
METAR LGRX 080950Z 27010KT 9999 FEW025 28/19 Q1013 NOSIG BLU=
METAR LGSM 080950Z 35014KT CAVOK 31/13 Q1010=
METAR LGSO 080950Z 36018KT 9999 FEW018 25/18 Q1012=
METAR LGSR 080950Z 35019KT CAVOK 28/19 Q1010 NOSIG BLU=
METAR LGSY 080950Z 36008KT 9999 FEW008 BKN020 BKN080 22/17 Q1013 NOSIG
      BLU=
METAR LGTG 080950Z 36016KT 9999 FEW030 BKN070 24/11 Q1014 NOSIG BLU=
METAR LOXT 080950Z VRB04KT 50KM FEW050CU 23/11 Q1023 NOSIG RMK FEW=
METAR LWOH 081000Z 09006KT 050V120 9999 FEW035 SCT045 19/08 Q1019=
####018000122####
SAUS42 KFFC 080959 COR
MTRMCN
METAR KMCN 080953Z AUTO 00000KT 10SM CLR 21/19 A3002 RMK AO2 SLP161 
T02060194 TSNO
