####018000073####
SAIN31 EGGY 080800
METAR VOBG 080800Z NIL=
METAR VOCI 080800Z NIL=
####018000083####
SALC31 TLPL 080830 RTD
METAR TLPL 080800Z 12014KT 9999 SCT023 BKN300 29/24 Q1013=####018002984####
SAUS20 KNKA 080810
SPECI KAKO 080809Z AUTO 13007KT 6SM BR SCT004 OVC009 14/14 A3031 RMK 
    AO2 TSNO=
METAR KCCA 080815Z AUTO 00000KT 5SM  BR CLR 22/22 A3006 RMK AO2 =
METAR KCDN 080815Z AUTO 26003KT 10SM CLR 26/22 A2998 RMK A02 P000 
     =
METAR KCKI 080815Z AUTO 00000KT 10SM CLR 23/21 A2995 RMK AO2=
SPECI KEMP 080809Z AUTO 12003KT 9SM SCT005 OVC070 22/20 A3008 RMK 
    AO2=
SPECI KGRR 080809Z AUTO 25006KT 5SM RA BR SCT016 BKN027 OVC060 24/22 
    A3006 RMK AO2 P0012=
SPECI KHWV 080809Z AUTO 14005KT 3SM BR OVC002 24/24 A3003 RMK AO2=
SPECI KITR 080809Z AUTO 00000KT 10SM SCT010 OVC030 17/15 A3029 RMK 
    AO2=
SPECI KLRD 080808Z AUTO 00000KT 10SM BKN013 26/24 A2989 RMK AO2 BKN 
    V SCT $=
METAR KLRO 080815Z AUTO 29004KT 10SM CLR 24/19 A2995 RMK AO2 =
SPECI KM89 080808Z AUTO 00000KT 4SM BR OVC002 24/23 A3004 RMK AO2 =
METAR KMKS 080815Z AUTO 00000KT 7SM CLR 23/20 A2995 RMK AO2 TSNO=
METAR KMNZ 080810Z AUTO 13004KT 10SM CLR 25/24 A3000 RMK AO2 
     T02450236=
METAR KMQB 080805Z AUTO 00000KT 10SM OVC006 23/23 A3004 RMK AO2 
     T02300230=
METAR KMWA 080805Z AUTO 16003KT 10SM CLR 24/23 A3006 RMK AO2 
     T02440232=
METAR KOSA 080804Z AUTO 00000KT 7SM SCT012 25/24 A3003 RMK AO1 
     T02470240=
METAR KPEZ 080805Z AUTO 05007KT 7SM SCT015 BKN021 BKN031 25/23 
     A2992 RMK AO2 T02520229=
METAR KPKV 080806Z AUTO 05006KT 7SM -RA SCT013 BKN020 OVC075 
     25/24 A2986 RMK AO2 T02500235=
METAR KPPA 080805Z AUTO 03006KT 10SM SCT008 BKN070 OVC120 17/16 
     A3018 RMK AO2 LTG DSNT N=
METAR KPSN 080805Z AUTO 11003KT 7SM 24/24 A3001 RMK AO2 T02430236=
METAR KPYX 080810Z AUTO 05007KT 4SM SCT006 BKN021 OVC027 19/18 
     A3018 RMK AO2 P0001 T01930183=
METAR KRAS 080805Z AUTO 11014G18KT 7SM BKN015 BKN020 28/26 A2985 
     RMK AO2=
METAR KRFI 080805Z AUTO 00000KT 5SM BR CLR 24/23 A3000 RMK AO2 
     T02400230=
METAR KRPH 080805Z AUTO 00000KT 10SM CLR 23/21 A2999 RMK AO2 
     T02300212=
METAR KRWV 080800Z AUTO 00000KT 9SM FEW019 24/24 A2998 RMK AO2=
METAR KRYW 080805Z AUTO 07003KT 5SM BR OVC008 24/23 A2999 RMK AO2=
METAR KSAR 080805Z AUTO 19004KT 10SM SCT055 26/23 A3004 RMK AO2=
METAR KSEP 080805Z AUTO 00000KT 10SM CLR 23/21 A3001 RMK AO1=
METAR KSLO 080800Z AUTO 19003KT 10SM CLR 25/21 A3005 RMK AO2 
     T02450214=
METAR KSLR 080802Z AUTO 12003KT 10SM SCT008 SCT015 SCT020 25/23 
     A3003 RMK AO2 T02480233=
METAR KSNK 080806Z AUTO 00000KT 7SM -RA SCT039 BKN120 21/20 A3008 
     RMK AO2 T02080200=
METAR KSOA 080800Z AUTO 02005KT 10SM 23/21 A3007 RMK AO2=
METAR KSWW 080805Z AUTO 18004KT 10SM CLR 22/21 A3006 RMK AO1 
     T02220208=
METAR KT65 080805Z AUTO 36004KT 7SM CLR 26/25 A2979 RMK AO2 
     T02560249=
METAR KT82 080805Z AUTO 00000KT 23/22 A3002 RMK AO1 T02330220=
METAR KTAZ 080805Z AUTO 00000KT 7SM CLR 23/23 A3003 RMK AO2=
METAR KTFP 080805Z AUTO 10004KT 10SM SCT018 SCT028 OVC050 27/26 
     A2982 RMK AO2 T02700255=
####018000738####
SPUS99 KWBC 080811
SPECI
KMWT 080804Z AUTO 00000KT 9SM SCT013 BKN020 OVC025 23/23 A3004 RMK
     AO2 TSNO=
KUIN 080808Z AUTO 00000KT 3SM RA BR FEW014 SCT020 OVC046 23/22
     A3003 RMK AO2 P0005=
KAKO 080809Z AUTO 13007KT 6SM BR SCT004 OVC009 14/14 A3031 RMK AO2
     TSNO=
KEMP 080809Z AUTO 12003KT 9SM SCT005 OVC070 22/20 A3008 RMK
     AO2=
KGRR 080809Z AUTO 25006KT 5SM RA BR SCT016 BKN027 OVC060 24/22
     A3006 RMK AO2 P0012=
KHWV 080809Z AUTO 14005KT 3SM BR OVC002 24/24 A3003 RMK AO2=
KITR 080809Z AUTO 00000KT 10SM SCT010 OVC030 17/15 A3029 RMK
     AO2=
KLRD 080808Z AUTO 00000KT 10SM BKN013 26/24 A2989 RMK AO2 BKN V
     SCT $=
KM89 080808Z AUTO 00000KT 4SM BR OVC002 24/23 A3004 RMK AO2=
####018003661####
SAUS99 KWBC 080811
METAR
KJDD 080805Z AUTO 00000KT 3SM BR BKN003 BKN011 24/24 A3002 RMK
     AO2=
KJSO 080810Z AUTO 00000KT 5SM BR CLR 24/24 A3003 RMK AO2
     T02350235=
KJWY 080805Z AUTO 00000KT 10SM 24/23 A3000 RMK AO2 T02420225=
KJXI 080805Z AUTO 00000KT BKN008 25/25 A3002 RMK AO2=
KLBR 080805Z AUTO 00000KT 10SM SCT002 24/23 A3002 RMK AO2
     T02400230=
KLHB 080804Z AUTO 09004KT 5SM BR BKN120 25/24 A2996 RMK AO2
     T02520235=
KLNC 080805Z AUTO 00000KT 10SM SCT014 24/24 A3000 RMK AO2
     T02400237=
KLUD 080805Z AUTO 15005KT 10SM CLR 25/22 A3000 RMK AO2
     T02480215=
KM30 080806Z AUTO 00000KT 7SM CLR 22/21 A3004 RMK AO2=
KMDD 080800Z AUTO 00000KT 10SM BKN120 22/20 A3009 RMK AO2
     T02240203=
KMKN 080800Z AUTO 00000KT 10SM 24/23 A3002 RMK AO2=
KOLY 080803Z AUTO 00000KT 5SM BR CLR 23/22 A3004 RMK AO2=
KPNT 080805Z AUTO 00000KT 3SM BR SCT032 BKN055 OVC085 23/22 A3004
     RMK AO2=
KPRG 080805Z AUTO 00000KT 5SM BR SCT060 SCT075 OVC110 22/21 A3005
     RMK AO2 T02270218=
KRPJ 080805Z AUTO 00000KT 5SM BR BKN011 OVC055 21/20 A3003 RMK AO2
     T02070197=
KRSV 080802Z AUTO 00000KT 7SM CLR 24/23 A3005 RMK AO2
     T02420228=
KASW 080805Z AUTO 00000KT 7SM CLR 22/21 A3005 RMK AO2
     T02170205=
KBKS 080806Z AUTO 02005KT 10SM SCT021 BKN085 BKN120 26/25 A2982
     RMK AO1 T02620248=
KBPC 080807Z AUTO 34006KT 10SM RA SCT004 SCT013 OVC050 18/17 A3016
     RMK AO2 P0001=
KBPG 080805Z AUTO 19003KT 10SM CLR 22/21 A3009 RMK AO1
     T02200205=
KBYY 080806Z AUTO 09005KT 10SM CLR 27/26 A2988 RMK AO2
     T02720256=
KC75 080804Z AUTO 16005KT 4SM -DZ BKN065 OVC075 24/24 A3002 RMK
     AO2=
KCPT 080805Z AUTO 11006KT 10SM CLR 24/24 A3001 RMK AO2=
KCVB 080804Z AUTO 08004KT 10SM OVC017 25/24 A2994 RMK AO2
     T02520238=
KCWC 080805Z AUTO 05004KT 10SM CLR 24/22 A3002 RMK AO2
     T02370220=
KDUX 080807Z AUTO 00000KT 10SM -RA SCT029 SCT047 OVC100 17/16
     A3021 RMK AO2 P0001 T01730163=
KE38 080805Z AUTO 00000KT 10SM CLR 19/17 A3019 RMK AO2
     T01930168=
KEBG 080806Z AUTO 00000KT 10SM CLR 26/25 A2981 RMK AO2
     T02620247=
KECU 080805Z AUTO 00000KT 10SM CLR 22/21 A3007 RMK AO2=
KENL 080804Z AUTO 19003KT 10SM CLR 24/16 A3004 RMK AO2
     T02400160=
KERV 080805Z AUTO 07005KT 10SM SCT007 BKN022 OVC034 23/22 A2999
     RMK AO2 T02330215=
KF05 080804Z AUTO 01003KT 10SM SCT120 24/22 A3003 RMK AO2
     T02400220=
KFEP 080805Z AUTO 17004KT 7SM -RA SCT085 22/20 A3001 RMK AO2
     T02240204=
KFOA 080805Z AUTO 13003KT 7SM CLR 26/25 A3004 RMK AO2
     T02550252=
KFWC 080805Z AUTO 00000KT 7SM CLR 24/23 A3004 RMK AO2=
KFWS 080805Z AUTO 14003KT 10SM SCT013 BKN018 25/23 A3001 RMK AO2
     T02480231=
KGBG 080805Z AUTO 21006KT 7SM OVC004 23/22 A3001 RMK AO2=
KGDJ 080804Z AUTO 00000KT 10SM OVC014 25/22 A3000 RMK AO2
     T02500223=
KGNC 080805Z AUTO 04004KT 10SM SCT015 SCT055 OVC070 21/19 A3014
     RMK AO2 T02050193=
KGOP 080800Z AUTO 00000KT 10SM OVC018 25/23 A3001 RMK AO2=
KGVT 080805Z AUTO 17004KT 10SM CLR 25/23 A3001 RMK AO2=
KGWB 080805Z AUTO 00000KT 7SM CLR 23/17 A3006 RMK AO2=
KGYB 080805Z AUTO 04003KT 7SM SCT008 SCT014 BKN024 25/24 A2998 RMK
     AO2 T02450237=
KGYI 080805Z AUTO 14007KT 10SM SCT024 BKN070 BKN080 26/24 A3001
     RMK AO2 T02570236=
KHBV 080800Z AUTO 03004KT 10SM SCT007 OVC013 25/24 A2986 RMK AO2
     T02530240=
KHHF 080805Z AUTO 00000KT 10SM SCT014 OVC024 23/21 A3012 RMK AO2
     T02300214=
KHRX 080805Z AUTO 00000KT 10SM RA BKN035 BKN045 OVC080 17/17 A3021
     RMK AO2 T01730165=
KHSB 080805Z AUTO 00000KT 7SM CLR 22/21 A3004 RMK AO2=
####018002515####
SAUS99 KWBC 080811 RRA
METAR
KIJX 080805Z AUTO 00000KT 3SM BR SCT034 BKN050 BKN090 24/23 A3004
     RMK AO2 T02350226=
KINJ 080805Z AUTO 12003KT 10SM CLR 25/23 A2999 RMK AO2
     T02480227=
KJAS 080806Z AUTO 00000KT 7SM CLR 25/24 A3001 RMK AO2
     T02480238=
KMZZ 080755Z AUTO 00000KT 7SM CLR 20/18 A3007 RMK AO2=
KCCA 080815Z AUTO 00000KT 5SM BR CLR 22/22 A3006 RMK AO2=
KCDN 080815Z AUTO 26003KT 10SM CLR 26/22 A2998 RMK A02 P000=
KCKI 080815Z AUTO 00000KT 10SM CLR 23/21 A2995 RMK AO2=
KLRO 080815Z AUTO 29004KT 10SM CLR 24/19 A2995 RMK AO2=
KMKS 080815Z AUTO 00000KT 7SM CLR 23/20 A2995 RMK AO2 TSNO=
KMNZ 080810Z AUTO 13004KT 10SM CLR 25/24 A3000 RMK AO2
     T02450236=
KMQB 080805Z AUTO 00000KT 10SM OVC006 23/23 A3004 RMK AO2
     T02300230=
KMWA 080805Z AUTO 16003KT 10SM CLR 24/23 A3006 RMK AO2
     T02440232=
KOSA 080804Z AUTO 00000KT 7SM SCT012 25/24 A3003 RMK AO1
     T02470240=
KPEZ 080805Z AUTO 05007KT 7SM SCT015 BKN021 BKN031 25/23 A2992 RMK
     AO2 T02520229=
KPKV 080806Z AUTO 05006KT 7SM -RA SCT013 BKN020 OVC075 25/24 A2986
     RMK AO2 T02500235=
KPPA 080805Z AUTO 03006KT 10SM SCT008 BKN070 OVC120 17/16 A3018
     RMK AO2 LTG DSNT N=
KPSN 080805Z AUTO 11003KT 7SM 24/24 A3001 RMK AO2 T02430236=
KPYX 080810Z AUTO 05007KT 4SM SCT006 BKN021 OVC027 19/18 A3018 RMK
     AO2 P0001 T01930183=
KRAS 080805Z AUTO 11014G18KT 7SM BKN015 BKN020 28/26 A2985 RMK
     AO2=
KRFI 080805Z AUTO 00000KT 5SM BR CLR 24/23 A3000 RMK AO2
     T02400230=
KRPH 080805Z AUTO 00000KT 10SM CLR 23/21 A2999 RMK AO2
     T02300212=
KRWV 080800Z AUTO 00000KT 9SM FEW019 24/24 A2998 RMK AO2=
KRYW 080805Z AUTO 07003KT 5SM BR OVC008 24/23 A2999 RMK AO2=
KSAR 080805Z AUTO 19004KT 10SM SCT055 26/23 A3004 RMK AO2=
KSEP 080805Z AUTO 00000KT 10SM CLR 23/21 A3001 RMK AO1=
KSLO 080800Z AUTO 19003KT 10SM CLR 25/21 A3005 RMK AO2
     T02450214=
KSLR 080802Z AUTO 12003KT 10SM SCT008 SCT015 SCT020 25/23 A3003
     RMK AO2 T02480233=
KSNK 080806Z AUTO 00000KT 7SM -RA SCT039 BKN120 21/20 A3008 RMK
     AO2 T02080200=
KSOA 080800Z AUTO 02005KT 10SM 23/21 A3007 RMK AO2=
KSWW 080805Z AUTO 18004KT 10SM CLR 22/21 A3006 RMK AO1
     T02220208=
KT65 080805Z AUTO 36004KT 7SM CLR 26/25 A2979 RMK AO2
     T02560249=
KT82 080805Z AUTO 00000KT 23/22 A3002 RMK AO1 T02330220=
KTAZ 080805Z AUTO 00000KT 7SM CLR 23/23 A3003 RMK AO2=
KTFP 080805Z AUTO 10004KT 10SM SCT018 SCT028 OVC050 27/26 A2982
     RMK AO2 T02700255=
####018000078####
SAEW31 LEMM 080800 RRA
METAR LEBL 080800Z 22008KT CAVOK 27/18 Q1019 NOSIG=
####018000452####
SAAL40 DAMM 080800
METAR DAAG 080800Z 22003KT 180V270 CAVOK 28/17 Q1019=
METAR DAAT 080800Z 12018KT CAVOK 30/02 Q1022=
METAR DABB 080800Z 02003KT CAVOK 27/17 Q1019=
METAR DABC 080800Z 00000KT CAVOK 25/11 Q1023=
METAR DABS 080800Z 00000KT CAVOK 26/13 Q1023=
METAR DAON 080800Z 00000KT CAVOK 30/19 Q1017=
METAR DAOO 080800Z 03008KT CAVOK 27/21 Q1016=
METAR DAUH 080800Z 11012KT CAVOK 32/21 Q1018=
METAR DAUZ 080800Z 05013KT CAVOK 33/07 Q1017=
####018000547####
SARA31 RUMS 080800
METAR UEEE 080800Z 00000MPS 9999 SCT050CB BKN200 24/08 Q1007 NOSIG
RMK QFE747 2309//60=
METAR UELL 080800Z 15002MPS 9999 SCT030CB BKN200 20/14 Q1010 TEMPO TS
RMK QFE683 08CLRD70=
METAR UERP 080800Z 01005MPS 9999 SCT033CB BKN048 15/08 Q1014 NOSIG
RMK QFE716 35090065=
METAR UERR 080800Z 34004G07MPS 9999 -DZ BKN013 OVC020CB 13/13 Q1011
NOSIG RMK QFE727 24290255=
METAR UESO 080800Z 26009G13MPS 9999 OVC008 07/05 Q1004 NOSIG RMK
QFE751 SC060=
METAR UEST 080800Z 11003MPS CAVOK 08/02 Q1016 NOSIG RMK QFE761
21000060=
####018000087####
SAKN61 HKJK 080800
METAR HKJK 080800Z 15008KT 9999 BKN018 0VC090 16/14 Q1025 NOSIG=
####018000076####
SPAK32 KWBC 080811
SPECI
PASY 080806Z AUTO 02016KT 10SM OVC004 A2973=
####018000389####
SARS33 RUMS 080800
METAR ULLI 080800Z 11002MPS 050V210 CAVOK 29/19 Q1013 NOSIG=
METAR UUDD 080800Z 16004MPS 100V200 CAVOK 26/16 Q1015 NOSIG=
METAR UUEE 080800Z 13004MPS 090V150 9999 SCT050TCU BKN200 26/15 Q1015
NOSIG=
METAR UUEM 080800Z NIL=
METAR UUWW 080800Z 14003MPS CAVOK 23/17 Q1015 06000070 NOSIG=
METAR UUMO 080800Z VRB02MPS CAVOK 24/17 Q1015 NOSIG RMK QFE746/0995
SC060=
####018000378####
SARA33 RUMS 080800
METAR UIAA 080800Z 15005MPS 9999 BKN050CB OVC200 30/09 Q1005 NOSIG
RMK QFE695 29CLRD70=
METAR UIBB 080800Z 06004MPS 9999 FEW033 BKN200 28/12 Q1006 NOSIG RMK
QFE711/0948 30CLRD60=
METAR UIII 080800Z 16004MPS CAVOK 22/12 Q1006 NOSIG RMK QFE710/0947
30CLRD60=
METAR UIUU 080800Z 24005MPS 180V290 9999 SCT040CB OVC100 24/12 Q1007
NOSIG RMK QFE711/0948=
####018000336####
SAAL31 DAAA 080800
METAR DAAG 080800Z 22003KT 180V270 CAVOK 28/17 Q1019=
METAR DAAT 080800Z NIL=
METAR DABB 080800Z 02003KT CAVOK 27/17 Q1019=
METAR DABC 080800Z 00000KT CAVOK 25/11 Q1023=
METAR DAON 080800Z 00000KT CAVOK 30/19 Q1017=
METAR DAOO 080800Z 03008KT CAVOK 27/21 Q1016=
METAR DAUH 080800Z 11012KT CAVOK 32/21 Q1018=
####018001281####
SAAL41 DAMM 080800
METAR DAAD 080800Z 00000KT CAVOK 31/12 Q1022=
METAR DAAE 080800Z 26007KT CAVOK 26/18 Q1018=
METAR DAAJ 080800Z 09012KT CAVOK 32/07 Q1021=
METAR DAAP 080800Z 16016KT CAVOK 37/10 Q1016=
METAR DAAS 080800Z 18005KT CAVOK 27/17 Q1024=
METAR DAAV 080800Z 00000KT CAVOK 27/18 Q1018=
METAR DAAY 080800Z 00000KT 9999 FEW033 29/13 Q1025=
METAR DABT 080800Z 36004KT CAVOK 25/12 Q1022=
METAR DAFH 080800Z 12012KT CAVOK 31/17 Q1022=
METAR DAMH 080800Z 03010KT CAVOK 33/14 Q1016=
METAR DAOB 080800Z 00000KT CAVOK 29/09 Q1023=
METAR DAOF 080800Z 10008KT 4000 HZ NSC 34/06 Q1012=
METAR DAOI 080800Z 00000KT CAVOK 28/19 Q1018=
METAR DAOL 080800Z NIL=
METAR DAOR 080800Z 09006KT CAVOK 34/05 Q1023=
METAR DAOV 080800Z 36006KT CAVOK 30/14 Q1019=
METAR DATF 080800Z 04014KT CAVOK 33/10 Q1017=
METAR DATG 080800Z NIL=
METAR DATM 080800Z NIL=
METAR DAUA 080800Z 01026KT 3000 DRSA NSC 36/07 Q1014=
METAR DAUB 080800Z 11014KT CAVOK 31/15 Q1018=
METAR DAUE 080800Z 03007KT CAVOK 32/12 Q1020=
METAR DAUG 080800Z NIL=
METAR DAUI 080800Z NIL=
METAR DAUK 080800Z 14006KT CAVOK 28/18 Q1017=
METAR DAUL 080800Z NIL=
METAR DAUO 080800Z 10008KT CAVOK 30/18 Q1018=
METAR DAUT 080800Z ///19KT 7000 DRSA  NSC 34/10 Q1016=
METAR DAUU 080800Z 12012KT CAVOK 33/18 Q1018=
####018000084####
SACH10 SCSC 080800 RRA
METAR
SCAT 080800Z AUTO 07006KT 9999 // NCD 06/04 Q1016=
####018000854####
SARA34 RUMS 080800
METAR UNAA 080800Z 36006MPS 5000 -TSRA BKN019CB OVC100 15/13 Q1010
TEMPO 34010G15MPS 2000 TSRAGR RMK QFE735 201///65=
METAR UNBB 080800Z 16007MPS 9999 SCT033CB SCT100 17/07 Q1009 NOSIG
RMK QFE734=
METAR UNEE 080800Z 25008MPS 9999 SCT026 BKN200 19/08 Q1008 NOSIG RMK
QFE733 23CLRD60=
METAR UNKL 080800Z VRB01MPS 9999 -SHRA BKN020CB OVC083 17/15 Q1009
NOSIG RMK QFE731 29////55=
METAR UNNT 080800Z VRB01MPS 9999 BKN050CB BKN100 20/05 Q1007 NOSIG
RMK QFE745/0994 25090070=
METAR UNOO 080800Z 29006G09MPS 9999 BKN023CB 14/09 Q1007 NOSIG
25CLRD06 RMK QFE747=
METAR UNWW 080800Z25007MPS 9999 BKN026CB OVC130 20/09 Q1009 NOSIG RMK
QFE730 19CLRD70=
METAR USTR 080800Z 32009G12MPS CAVOK 20/03 Q1011 NOSIG RMK
QFE749/0998 30CLRD65=
METAR USHH 080800Z VRB02G06MPS 9999 -SHRA BKN018CB OVC080 11/09 Q1008
NOSIG RMK QFE752 SC06=
####018000258####
SARS34 RUMS 080800
METAR UUYH 080800Z 24002MPS CAVOK 24/07 Q1017 NOSIG RMK QFE 751
18CLRD60=
METAR UUYS 080800Z 16003MPS CAVOK 20/07 Q1017 NOSIG RMK QFE756
14CLRD60=
METAR UUYY 080800Z 00000MPS 9999 FEW026 30/15 Q1016 NOSIG 19CLRD61
RMK QFE753/1004=
####018000428####
SARA35 RUMS 080800
METAR ULDD 080800Z 07009MPS CAVOK 07/03 Q1019 NOSIG RMK QFE764=
METAR UOHH 080800Z 06001MPS 9999 FEW030 11/03 Q1023 NOSIG RMK QFE761
06090060=
METAR UOII 080800Z 10005MPS 9999 FEW040TCU BKN200 28/16 Q1005 NOSIG
RMK QFE751 30////60=
METAR UOOO 080800Z 02005G06MPS CAVOK 23/10 Q1010 NOSIG RMK QFE743
010///60=
METAR USCM 080800Z 06002G07MPS 300V180 7000 FEW050 24/01 Q1016 NOSIG
01090065 RMK QFE723=
####018000764####
SARA36 RUMS 080800
METAR UWUU 080800Z 04003G07MPS 020V090 9999 FEW046 27/08 Q1016
82010060 NOSIG RMK QFE751/1001 MOD TURB 500-1600=
METAR USCC 080800Z 34007G13MPS 9999 SCT040 24/03 Q1014 NOSIG RMK
QFE741 27000070=
METAR USDD 080800Z 04009G13MPS CAVOK 16/01 Q1016 NOSIG RMK
QFE756/1008 SC060=
METAR USMU 080800Z 02006MPS 8000 -SHRA SCT022CB OVC066 11/09 Q1005
NOSIG RMK QFE748 09250345=
METAR COR USNN 080800Z 17005MPS P6000 SCT026 BKN200 18/11 Q1002 NOSIG
RMK QFE746 SC065=
METAR USRK 080800Z 34005MPS 6000 BKN012 OVC066 13/11 Q1002 TEMPO 2000
BR BKN004 RMK QFE745 351///55=
METAR USRR 080800Z 35004MPS 6000 OVC009 12/10 Q1003 TEMPO BKN005 RMK
QFE747  25////60=
METAR USSS 080800Z 35005G09MPS 320V020 CAVOK 23/02 Q1015 NOSIG RMK
QFE741 260///70=
####018000408####
SAPO61 LPAM 080800
METAR LPAR 080800Z /////KT CAVOK 22/18 Q1014 RMK ESTMD WND 00000KT=
METAR LPBJ 080800Z 21006KT 170V250 CAVOK 23/18 Q1015=
METAR LPMR 080800Z 16003KT CAVOK 20/18 Q1014=
METAR LPMT 080800Z VRB02KT CAVOK 20/18 Q1014=
METAR LPOV 080800Z 14002KT 8000 NSC 21/18 Q1013=
METAR LPST 080800Z 28006KT 8000 FEW003 19/18 Q1015=
METAR LPLA 080800Z 32010KT 7000 -SHRA SCT016 BKN028 20/18 Q1024=
####018001489####
SAIY43 LIIB 080800
METAR LIBA 080755Z /////KT 9999 FEW040 25/13 Q1019 RMK FEW VIS MIN
      9999 WIND THR29 29001KT BLU=
METAR LIBC 080750Z 01017KT CAVOK 26/12 Q1018 RMK VIS MIN 9999=
METAR COR LIBD 080750Z 36012KT 9999 FEW030 24/11 Q1019 RMK VIS MIN
9999=
METAR LIBG 080750Z 36016KT 330V030 CAVOK 25/10 Q1018 RMK VIS MIN
9999=
METAR LIBN 080755Z 33016G26KT 9999 FEW030 24/11 Q1017 RMK FEW VIS MIN
      9999 WIND THR14 33017KT BLU=
METAR LIBP 080750Z 33004KT CAVOK 25/09 Q1021 RMK VIS MIN 9999=
METAR LIBQ 080755Z 08006KT CAVOK 14/11 Q1024 RMK SKC MON LIB VAL NIL
      VIS MIN 9999=
METAR LIBR 080745Z /////KT 9999 FEW020 24/16 Q1017 NOSIG RMK FEW VIS
      MIN 9999 WIND THR13 WIND THR31 34020KT BLU=
METAR LIBV 080755Z 01017G27KT 9999 FEW030 23/13 Q1017 RMK FEW VIS MIN
      9999 WIND THR14 36017KT BLU=
METAR LICA 080750Z 22007KT 9999 FEW020 26/22 Q1017 RMK VIS MIN 9999=
METAR LICC 080750Z VRB01KT CAVOK 28/21 Q1018 RMK VIS MIN 9999=
METAR LICD 080750Z 01010KT 260V010 CAVOK 25/21 Q1018 RMK VIS MIN
9999=
METAR LICG 080755Z 30007KT 9999 FEW010 SCT020 23/20 Q1019 RMK BKN VIS
      MIN 9999 WIND THR08 29007KT WIND THR21 30008KT BLU=
METAR LICJ 080750Z 04014KT CAVOK 27/22 Q1018 RMK VIS MIN 9999=
METAR LICR 080750Z 34010KT CAVOK 29/20 Q1017 RMK VIS MIN 9999=
METAR LICT 080755Z 32007KT CAVOK 29/23 Q1017 RMK SKC VIS MIN 9999
      WIND THR13 33006KT BLU=
METAR LICZ 080755Z 12006KT CAVOK 27/16 Q1017 RMK SKC VIS MIN 9999
      WIND THR28 //////KT BLU=
####018001530####
SAIY40 LIIB 080800
METAR LIMG 080750Z 00000KT 9999 BKN080 26/21 Q1020 RMK VIS MIN 9999=
METAR LIMK 080755Z 03005KT 9999 SCT020 SCT030 18/13 Q1023 RMK OVC VAL
      NIL VIS MIN 9999=
METAR LIMN 080755Z /////KT 9999 SCT050 25/15 Q1022 RMK SCT VIS MIN
      9999 BLU=
METAR LIMP 080750Z 04005KT 8000 NSC 24/17 Q1022 RMK VIS MIN 8000=
METAR LIMS 080755Z 09009KT 060V140 CAVOK 24/18 Q1021 RMK FEW FEW200
      VIS MIN 9999 WIND THR30 06007KT BLU=
METAR LIMZ 080750Z 35006KT 8000 SCT015 BKN045 22/17 Q1024 RMK VIS
MIN 8000=
METAR LIPA 080755Z 24002KT 9999 FEW045 SCT080 23/15 Q1022 RMK BKN VIS
      MIN 9999 A3020 BLU=
METAR LIPB 080750Z 15003KT 9999 SCT070 25/14 Q1022 RMK MON LIB VIS
MIN 9999=
METAR LIPC 080755Z 17007KT CAVOK 26/13 Q1021 RMK FEW FEW200 VIS MIN
      9999 WIND THR12 13008KT BLU=
METAR LIPF 080755Z 09003KT CAVOK 24/20 Q1021 RMK FEW FEW250 VIS MIN
      9999=
METAR LIPH 080745Z 01002KT 9999 SCT040 BKN070 22/18 Q1023 RMK OVC VIS
      MIN 9999 WIND THR07 /////KT BLU=
METAR LIPI 080755Z 08006KT 9999 SCT030 BKN060 24/18 Q1022 RMK BKN
     VIS MIN 9999 WIND THR06 09004KT BLU=
METAR LIPL 080755Z 10006KT 040V160 9999 BKN060 24/19 Q1022 RMK BKN
      VIS MIN 9999 BLU=
METAR LIPO 080750Z 11004KT 060V150 9999 BKN070 25/15 Q1021 RMK VIS
MIN 9999=
METAR LIPQ 080750Z VRB02KT 9999 FEW030 BKN050 23/15 Q1022=
METAR LIPR 080745Z 13006KT CAVOK 26/18 Q1021 RMK SKC VIS MIN 9999
      WIND THR31 14006KT BLU=
METAR LIPS 080755Z 04005KT 9999 BKN040 22/15 Q1022 RMK BKN VIS MIN
      9999 BLU=
####018001719####
SAIY42 LIIB 080800
METAR LIBF 080750Z 33011KT CAVOK 25/09 Q1020 RMK VIS MIN 9999=
METAR LIEA 080750Z 35005KT 250V050 CAVOK 27/20 Q1019 RMK VIS MIN
9999=
METAR LIED 080755Z 30004KT CAVOK 26/18 Q1017 RMK SKC VIS MIN 9999
      BLU=
METAR LIEO 080750Z VRB04KT 9999 FEW030 28/22 Q1019 RMK VIS MIN
9999=
METAR LIMA 080750Z VRB03KT 9999 SCT040 23/15 Q1023 RMK VIS MIN 9999=
METAR LIQN 080800Z NIL=
METAR LIQO 080755Z 01004KT CAVOK 23/13 Q1020 RMK FEW FEW200 VAL NIL
      NC VIS MIN 9999=
METAR LIQW 080755Z 26002KT CAVOK 27/20 Q1020 RMK SKC VIS MIN 9999
      BLU=
METAR LIRE 080755Z 19007KT 9999 FEW015 27/19 Q1018 RMK FEW VIS MIN
      9999 WIND THR31 19008KT 170V230 BLU=
METAR LIRG 080755Z 24001KT 9999 FEW040 27/18 Q1019 RMK SCT MON NE
     LIB NC VIS MIN 9999 BLU=
METAR LIRH 080755Z 11001KT 9999 FEW035 25/16 Q1020 RMK FEW MON LIB NC
      VIS MIN 9999 WIND THR16 15002KT BLU=
METAR LIRI 080750Z 03014KT CAVOK 27/09 Q1019 RMK VIS MIN 9999=
METAR LIRK 080755Z 13006KT CAVOK 15/11 Q1026 RMK SKC MON NE LIB NC
      VAL NIL NC VIS MIN 9999=
METAR LIRL 080755Z 29003KT 9999 FEW018 27/20 Q1018 RMK FEW MON LIB NC
      VIS MIN 9999 BLU=
METAR LIRM 080755Z 08014KT CAVOK 27/16 Q1019 RMK SKC VIS MIN 9999
      WIND THR06 07013KT BLU=
METAR LIRS 080755Z 02005KT 9999 FEW040 28/10 Q1019 RMK FEW VIS MIN
      9999 WIND THR21 /////KT BLU=
METAR LIRT 080755Z 36008KT 9999 FEW015 17/08 Q1022 RMK FEW MON LIB
      VAL NIL VIS MIN 9999=
METAR LIRU 080750Z 34004KT 9999 SCT040 26/18 Q1020 RMK VIS MIN 9999=
METAR LIRV 080755Z 05008KT 9999 FEW024 24/15 Q1020 RMK FEW MON E SE
      LIB NC VIS MIN 9999 BLU=
METAR LIRX 080800Z NIL=
METAR LIRZ 080750Z VRB02KT CAVOK 26/13 Q1021 RMK VIS MIN 9999=
####018000123####
SPXX61 KWBC 080811
SPECI
EGUL 080809Z AUTO 26006KT 6000 -DZ BR BKN005 OVC015 17/16 A3007
RMK AO2 OVC V BKN SLP184=
####018000084####
SAAG01 SABM 080800 RRB
METAR SASJ 080800Z  20003KT 9999  BKN040  12/09
Q1019=
####018000257####
SABC40 FBSK 080800
METAR FBSK 080800Z 09012KT 9999 SCT020 15/10 Q1033 NOSIG=
METAR FBFT 080800Z 10013KT 9999 SCT015 17/11 Q1033=
METAR FBMN 080800Z 09012KT CAVOK 18/05 Q1029=
METAR FBKE 080800Z 09014KT CAVOK 18/07 Q1028=
METAR FBSP 080800Z NIL=
####018001660####
SASD20 OEJD 080800
METAR OEAB 080800Z 05018KT 7000 FEW020 SCT200 30/M01 Q1022 NOSIG=
METAR OEAH 080800Z 06013KT 9000 NSC 43/09 Q1002 NOSIG=
METAR OEBA 080800Z 09007KT 9000 SKC 35/05 Q1018 NOSIG=
METAR OEBH 080800Z 02010KT CAVOK 37/04 Q1012 NOSIG=
METAR OEDF 080800Z 36012KT 8000 NSC 43/07 Q1000 NOSIG=
METAR OEDM 080800Z NIL=
METAR OEDR 080800Z 36012KT 7000 SKC 44/09 Q0999 NOSIG=
METAR OEGN 080800Z 19007KT CAVOK 37/27 Q1003 NOSIG=
METAR OEGS 080800Z 10007KT 42/08 Q1009=
METAR OEGT 080800Z 29008KT CAVOK 33/01 Q1010=
METAR OEHL 080800Z 18018KT CAVOK 40/04 Q1013=
METAR OEJN 080800Z 30010KT CAVOK 36/25 Q1002 NOSIG=
METAR OEKB 080800Z 14010KT CAVOK 43/24=
METAR OEKJ 080800Z NIL=
METAR OEKK 080800Z 06010KT CAVOK 43/11 Q1007=
METAR OEKM 080800Z 09018KT 8000 SKC 31/05 Q1021 NOSIG=
METAR OEMA 080800Z 12008KT CAVOK 44/00 Q1007 NOSIG=
METAR OEMH 080800Z NIL=
METAR OEMK 080800Z 04002KT CAVOK 40/22 Q1001=
METAR OENG 080800Z 06008KT 5000 DU SKC 38/00 Q1013 NOSIG=
METAR OEPA 080800Z NIL=
METAR OERF 080800Z 04003KT CAVOK 41/12 Q1007=
METAR OERK 080800Z 02014KT CAVOK 41/00 Q1008 NOSIG=
METAR OERR 080800Z 14013KT CAVOK 42/10 Q1007=
METAR OERY 080800Z 06012G22KT 5000 DU NSC 42/02 Q1009 NOSIG=
METAR OESH 080800Z 01010KT 5000 DU SKC 41/13 Q1004 NOSIG=
METAR OESK 080800Z 29007KT CAVOK 39/01 Q1010=
METAR OETB 080800Z 24004KT CAVOK 34/08 Q1011 NOSIG=
METAR OETF 080800Z 12008KT CAVOK 36/05 Q1016 NOSIG=
METAR OETR 080800Z 07006KT CAVOK 36/04 Q1011=
METAR OEWD 080800Z 07014KT 8000 SKC 42/09 Q1006=
METAR OEWJ 080800Z 30018KT CAVOK 33/27 Q1004=
METAR OEYN 080800Z 18004KT CAVOK 39/15 Q1001 NOSIG=
####018000075####
SASD32 OEJD 080800
METAR OETF 080800Z 12008KT CAVOK 36/05 Q1016 NOSIG=
####018000949####
SAYE20 OYSC 080800
METAR OYAA 080800Z NIL=
METAR OYAG 080800Z 11012KT 9999 SCT025 BKN070 30/24 Q1003=
METAR OYAM 080800Z NIL=
METAR OYAR 080800Z 06008KT 7000 NSC 27/03 Q////=
METAR OYAS 080800Z 18004G16KT 7000 NSC 35/25 Q1007=
METAR OYAT 080800Z NIL=
METAR OYDM 080800Z 05015KT CAVOK 29/01 Q////=
METAR OYHD 080800Z 23008KT 6000 NSC 35/26 Q1002=
METAR OYIB 080800Z 07005KT 5000 DU NSC 28/14 Q1017=
METAR OYKD 080800Z 23010KT 9999 FEW025 35/25 Q////=
METAR OYMB 080800Z 06010KT 6000 FEW030 39/M03 Q1007=
METAR OYMK 080800Z 00000KT 8000 NSC 34/26 Q////=
METAR OYMT 080800Z 00000KT 7000 NSC 27/09 Q////=
METAR OYRN 080800Z 16010KT 7000 NSC 31/24 Q1003=
METAR OYSD 080800Z 09010KT CAVOK 27/M03 Q////=
METAR OYSH 080800Z NIL=
METAR OYSN 080800Z 06012G23KT 4000 DU NSC 30/M04 Q1023=
METAR OYSQ 080800Z NIL=
METAR OYSY 080800Z 24005KT 170V340 8000 NSC 40/11 Q1004=
METAR OYTZ 080800Z 27010KT 7000 NSC 29/13 Q1010=
####018000090####
SPUS81 KWBC 080811
SPECI
PADQ 080807Z 31004KT 3SM -RA BR BKN010 OVC015 10/09 A2982=
####018000123####
SACZ41 LKPW 080800
METAR LKKU 080800Z 33006KT 9999 FEW030 20/12 Q1023=
METAR LKLB 080800Z VRB04KT CAVOK 21/05 Q1024=
####018000202####
SAID33 WIII 080800
METAR WATT 080800Z 32004KT 9999 SCT017 29/24 Q1009= 
METAR WABP NIL=
METAR WAJJ NIL=
METAR WAKK NIL=
METAR WAPP NIL=
METAR WARS NIL=
METAR WIAT NIL=
METAR WALR NIL=
####018000229####
SANG31 YBBN 080800
METAR AYPY 080800Z NIL=
METAR AYWK 080800Z NIL=
METAR AYVN 080800Z NIL=
METAR AYNZ 080800Z NIL=
METAR AYMH 080800Z NIL=
METAR AYGN 080800Z NIL=
METAR AYMO 080800Z NIL=
METAR AGGH 080800Z NIL=
####018000073####
SAAL31 DAAA 080800 RRA
METAR DAAT 080800Z 12018KT CAVOK 30/02 Q1022=
####018000113####
SATH33 VTBB 080800 RRB
METAR VTBO 080800Z 16005KT 8000 -TSRA FEW018CB BKN020 29/25 Q1008
           CB AD=
####018000088####
SAID31 WIII 080800
METAR WABB 080800Z 33007KT 9999 FEW017CB SCT020 27/24 Q1008 NSG=
####018000408####
SAID31 WIII 080800
METAR WIMM 080800Z 01007KT 7000 SCT017 33/23 Q1008 NOSIG= 
METAR WIDD 080800Z 25005KT 9999 FEW017 30/24 Q1009= 
METAR WADD 080800Z 10007KT 9999 FEW018CB FEW018 29/25 Q1008 NOSIG= 
METAR WAAA 080800Z 21005KT 9999 SCT020 30/25 Q1008= 
METAR WIII 080800Z 14010KT 110V190 8000 FEW019CB SCT02027/23 Q1009 RM
K CB TO W NOSIG= 
METAR WIHH NIL=
METAR WABB NIL=
METAR WARR NIL=
####018000079####
SAAO33 DRRN 080800 RRA
METAR DNKN 080800Z 22010KT CAVOK 26/21 Q1014 NOSIG=
####018000445####
SAID32 WIII 080800
METAR WIPT 080800Z VRB02KT 9999 FEW020TCU 29/23 Q1010= 
METAR WIOO 080800Z 26006KT 9999 BKN012 29/25 Q.1009 NOSIG = 
METAR WIPP 080800Z 00000KT 9999 FEW015 27/23 Q1009= 
METAR WAOO 080800Z 19008KT 9999 FEW017 29/24 Q1008 NOSIG= 
METAR WALL 080800Z 14004KTP9999 FEW020 31/27 Q1007 NOSIG= 
METAR WAMM 080800Z 36004KT 9999 RE RA (21) FEW025 29/23 Q1008 NOSIG= 
METAR WIBB NIL=
METAR WIKN NIL=
METAR WADA NIL=
####018000302####
SAEE31 LOWM 080800
METAR UACK 080800Z 32008G12MPS 9999 BKN053 FEW230 18/03 Q1011
02010070 NOSIG RMK QFE734=
METAR UACP 080800Z NIL=
METAR UAII 080800Z NIL=
METAR UADD 080800Z 03003MPS 020V090 9999 NSC 33/03 Q1013
NOSIG RMK QFE703/0938=
METAR UASK 080800Z NIL=
METAR UASP 080800Z NIL=
####018000092####
SATH32 VTBB 080800 RRA
METAR VTSH 080800Z 03010KT 9999 FEW020 SCT300 34/23 Q1007 A2975=
####018000456####
SAAO33 DRRN 080800
METAR DBBB 080800Z 23007KT 200V270 6000 SCT011 BKN110 27/25 Q1014
NOSIG=
METAR DFFD 080800Z 0000KT 9999 -RA FEW016 BKN100 23/22 Q1017 NOSIG=
METAR DGAA 080800Z NIL=
METAR DNKN 080800Z NIL=
METAR DNMM 080800Z 00000KT 6000 SCT010 26/25 Q1015 NOSIG=
METAR DRRN 080800Z 00000KT CAVOK 26/21 Q1013 NOSIG=
METAR DXXX 080800Z 25005KT 210V300 8000 FEW010 26/24 Q1015 NOSIG=
METAR FTTJ 080800Z 20010KT CAVOK 26/23 Q1014 NOSIG=
####018001403####
SAAU32 YBBN 080800
METAR YAMB 080800Z 18009KT 9999 BKN050 BKN075 17/10 Q1020=
METAR YMAV 080800Z AUTO 14004KT 9999NDV // OVC050 09/07 Q1028=
METAR YBRM 080800Z 04008KT 9999 SCT034 BKN054 28/21 Q1010=
METAR YCIN 080800Z AUTO 09005KT //// // ////// 26/19 Q1012=
METAR YSDU 080800Z AUTO 11008KT 9999NDV // NCD 10/06 Q1024=
METAR YFRT 080800Z AUTO 02013KT //// // ////// 17/03 Q1014=
METAR YGEL 080800Z NIL=
METAR YPGV 080800Z 14012KT 9999 FEW018 BKN350 25/21 Q1012=
METAR YBHM 080800Z AUTO 15018KT //// // ////// 19/16 Q1017=
METAR YMHB 080800Z 00000KT CAVOK 06/03 Q1029=
METAR YPKG 080800Z AUTO 35012KT 9999NDV // OVC088 19/04 Q1005=
METAR YMLT 080800Z AUTO 17003KT 9999NDV // OVC037 06/03 Q1029=
METAR YBMA 080800Z AUTO 18012KT 9999NDV // NCD 14/11 Q1019=
METAR YSNF 080800Z 11010KT 3000 -DZ BR SCT010 BKN017 14/12 Q1017=
METAR YPEA 080800Z 36013KT 9999 SCT016 SCT025 16/13 Q1000
RMK USE TAF FOR ARRIVALS AFTER 0900Z
INTER 0800/1100 34020G30KT 3000 SHRA BKN010=
METAR YPPD 080800Z AUTO 04016KT 9999NDV // SCT026 BKN033 BKN120 24/20
Q1009=
METAR YSRI 080800Z AUTO 00000KT 9999NDV // OVC054 12/11 Q1027=
METAR YBRK 080800Z 25004KT 9999 VCSH FEW005 BKN030 13/12 Q1019=
METAR YWLM 080800Z 25007KT 9999 SCT020 BKN040 13/12 Q1025
USE TAF FOR ARRIVALS AFTER 1000Z
INTER 0800/1000 4000 SHRA BKN010=
METAR YPWR 080800Z AUTO 07005KT 9999NDV // NCD 13/M01 Q1023=
####018000512####
SAMS32 WMKK 080800
METAR 080800Z
METAR WBGG 080800Z 27005KT 8000 -SHRA FEW015CB BKN020 BKN150 26/24
Q1007
     NOSIG=
METAR WBKK 080800Z 10010KT 9000 -TSRA FEW013 FEW016CB SCT035 OVC260
25/24
     Q1008 NOSIG=
METAR WMKJ 080800Z 22003KT 9999 FEW018 BKN280 29/25 Q1009=
METAR WMKK 080800Z 22004KT 160V280 9999 SCT018 BKN140 BKN280 31/26
Q1008
     NOSIG=
METAR WMKP 080800Z 21010KT 9999 FEW020 BKN300 31/25 Q1008 NOSIG=
METAR WMSA 080800Z 34004KT 9999 FEW020 BKN140 34/24 Q1008 NOSIG=
####018001397####
SAAU31 YBBN 080800
METAR YPAD 080800Z 00000KT 9999 FEW045 12/09 Q1025=
METAR YBAS 080800Z 11009KT 9999 FEW034 15/06 Q1019=
METAR YBBN 080800Z 19009KT 9999 FEW040 BKN077 BKN105 18/10 Q1019
NOSIG=
METAR YBCS 080800Z 15007KT 9999 FEW024 BKN045 24/19 Q1015=
METAR YSCB 080800Z 08005KT 9999 FEW050 07/03 Q1027
RMK USE TAF FOR ARRIVALS AFTER 0900Z
NOSIG=
METAR YPXM 080800Z NIL=
METAR YPCC 080800Z 13008KT 9999 FEW021 28/22 Q1012=
METAR YCFS 080800Z NIL=
METAR YPDN 080800Z 02013KT CAVOK 29/20 Q1011=
METAR YBCG 080800Z AUTO 19010KT 9000NDV // SCT022 BKN033 OVC055 15/13
Q1020=
METAR YHID 080800Z AUTO 13012KT 9999NDV // SCT019 BKN035 OVC057 26/23
Q1011=
METAR YPJT 080800Z AUTO 35012KT 6000NDV // SCT013 SCT034 BKN054 16/15
Q0999=
METAR YPKU 080800Z AUTO 13005KT 9999NDV // NCD 27/14 Q1012=
METAR YPLM 080800Z AUTO 07004KT 9999NDV // BKN057 20/17 Q1008=
METAR YMML 080800Z 19002KT 9999 FEW030 BKN042 10/04 Q1028
NOSIG=
METAR YPPH 080800Z 01011KT 9999 FEW010 SCT022 16/14 Q0999
FM0800 33018G28KT 9999 -SHRA BKN020
INTER 0800/1100 27025G35KT 3000 +SHRA BKN010=
METAR YSSY 080800Z 21010KT 9999 VCSH FEW010 SCT045 BKN055 12/12
Q1026
INTER 0815/1100 5000 SHRA BKN015=
METAR YSTW 080800Z AUTO 17010KT 9999NDV // BKN058 12/06 Q1023=
METAR YPTN 080800Z 12008KT CAVOK 28/14 Q1012=
METAR YBTL 080800Z 07008KT 9999 FEW019 SCT050 BKN170 23/20 Q1015=
####018001658####
SAEU KAWN 080800 RRV
METAR EGUO 080750Z 00000KT 9999 FEW015 SCT020 BKN090 15/13 Q1020 WHT=
METAR EGVO 080805Z 31006KT 4000 -RADZ FEW003 OVC004 16/15 Q1019 YLO2
      BECMG BKN012 GRN=
METAR EGYH 080750Z 26006KT 9999 FEW030 BKN100 17/// Q1018 BLU=
METAR LFQG 080800Z 13006KT 090V190 CAVOK 24/16 Q1020=
METAR LIBH 080755Z 34014G25KT CAVOK 25/11 Q1017 RMK SKC QUK 2 QUL 1
      E VIS MAR 20 KM VIS MIN 9999=
METAR LIBY 080755Z 34013KT 9999 FEW020 25/11 Q1016 RMK FEW QUK 3 QUL
      1 N VIS MAR 20 KM VIS MIN 9999=
METAR LICF 080755Z 35002KT 9999 FEW030 29/24 Q1017 RMK SCT SCT080 QUK
      1 QUL 0 VIS MAR 10 KM MON LIB NC VIS MIN 9999=
METAR LICL 080755Z 23003KT CAVOK 24/21 Q1018 RMK SKC QUK 1 QUL 0 VIS
      MAR 10 KM VIS MIN 9999=
METAR LIEB 080755Z 07008KT 9999 SCT020TCU 29/25 Q1017 RMK SCT QUK 1
      QUL 0 VIS MAR 15 KM MON INVIS VIS MIN 8000W=
METAR LIEC 080755Z 03015KT 9999 FEW020 26/23 Q1018 RMK FEW QUK 2 QUL
      0 VIS MAR 15 KM VIS MIN 9999=
METAR LIEE 080755Z 26004KT CAVOK 25/19 Q1018 RMK VIS MIN 9999 WIND
      THR14 26004KT BLU=
METAR LIQC 080755Z 19002KT 9999 SCT030 25/14 Q1019 RMK SCT QUK 2 QUL
      1 NW VIS MAR 15 KM VIS MIN 9999=
METAR LKPR 080800Z 15004KT 060V180 CAVOK 20/09 Q1024 NOSIG RMK REG
      QNH 1021=
METAR LKTB 080800Z 01008KT 340V050 9999 FEW046 21/07 Q1023 NOSIG RMK
      REG QNH 1021=
METAR LPAR 080800Z /////KT CAVOK 22/18 Q1014 RMK ESTMD WND 00000KT=
METAR LPBJ 080800Z 21006KT 170V250 CAVOK 23/18 Q1015=
METAR LPMR 080800Z 16003KT CAVOK 20/18 Q1014=
METAR LPMT 080800Z VRB02KT CAVOK 20/18 Q1014=
METAR LPST 080800Z 28006KT 8000 FEW003 19/18 Q1015=
####018000854####
SAEW KAWN 080800 RRG
METAR LFBD 080805Z 09007KT 060V130 CAVOK 27/14 Q1017 NOSIG=
METAR LFCG 080800Z 12005KT 070V170 CAVOK 26/16 Q1019=
METAR LFDB 080800Z VRB03KT CAVOK 24/15 Q1019=
METAR LFDH 080800Z 03004KT 350V080 CAVOK 26/17 Q1018=
METAR LFHP 080800Z VRB02KT CAVOK 20/13 Q1023=
METAR LFLD 080800Z 12004KT 080V150 CAVOK 25/14 Q1019=
METAR LFLM 080800Z VRB02KT CAVOK 24/13 Q1021=
METAR LFLQ 080800Z VRB03KT CAVOK 24/14 Q1020=
METAR LFLV 080800Z VRB02KT CAVOK 23/15 Q1020=
METAR LFLW 080800Z 09004KT 050V130 CAVOK 24/13 Q1022=
METAR LFMC 080800Z VRB02KT 8000 SKC 27/20 Q1020=
METAR LFOF 080800Z 00000KT CAVOK 23/12 Q1019 NOSIG=
METAR LFOI 080800Z VRB03KT CAVOK 21/09 Q1019=
METAR LFOR 080800Z VRB03KT CAVOK 26/11 Q1019=
METAR LFQG 080800Z 13006KT 090V190 CAVOK 24/16 Q1020=
METAR LFXA 080800Z VRB02KT CAVOK 24/15 Q1021=
####018000079####
SAEU KAWN 080700 RRX
METAR ETSA 080720Z 10006KT 9999 20/09 Q1023 BLU/BLU/=
####018000079####
SAEW KAWN 080700 RRP
METAR ETSA 080720Z 10006KT 9999 20/09 Q1023 BLU/BLU/=
####018000076####
SAMC32 GMMC 080800 RRA
METAR GMTN 080800Z 00000KT 8000 NSC 25/18 Q1015=
####018000088####
SAUS90 KWBC 080800 RRE
METAR KMZZ 080755Z AUTO 00000KT 7SM CLR 20/18 A3007 RMK AO2=
####018000101####
SAUS90 KWBC 080812
METAR KEHA 080808Z AUTO 36002KT 17/17 RMK AO1 PK WND 04 008
     T01720167=
####018000189####
SANG31 AMMC 080800
METAR AYMO 080800Z AUTO 18004KT //// // ////// 29/23 Q1008=
METAR AYPY 080800Z 18007KT 9999 FEW020CB FEW020 BKN140 27/23 Q1008
     RMKS: CB TO N/ HZ IN AREA=

####018001634####
SAZZ40 KAWN 080800 RRN
METAR DAAE 080800Z 26007KT CAVOK 26/18 Q1018=
METAR DAAJ 080800Z 09012KT CAVOK 32/07 Q1021=
METAR DAAP 080800Z 16016KT CAVOK 37/10 Q1016=
METAR DAAV 080800Z 00000KT CAVOK 27/18 Q1018=
METAR DAAY 080800Z 00000KT 9999 FEW033 29/13 Q1025=
METAR DABT 080800Z 36004KT CAVOK 25/12 Q1022=
METAR DAOB 080800Z 00000KT CAVOK 29/09 Q1023=
METAR DAOF 080800Z 10008KT 4000 HZ NSC 34/06 Q1012=
METAR DAOR 080800Z 09006KT CAVOK 34/05 Q1023=
METAR DAUA 080800Z 01026KT 3000 DRSA NSC 36/07 Q1014=
METAR DAUB 080800Z 11014KT CAVOK 31/15 Q1018=
METAR DAUE 080800Z 03007KT CAVOK 32/12 Q1020=
METAR DAUK 080800Z 14006KT CAVOK 28/18 Q1017=
METAR DAUO 080800Z 10008KT CAVOK 30/18 Q1018=
METAR DAUT 080800Z ///19KT 7000 DRSA NSC 34/10 Q1016=
METAR DAUU 080800Z 12012KT CAVOK 33/18 Q1018=
METAR LKKV 080800Z VRB01KT CAVOK 18/11 Q1024 RMK REG QNH 1021=
METAR MKJS 080800Z 00000KT 9999 SCT022 SCT200 25/22 Q1012=
METAR MROC 080800Z 26003KT 0800 FG SCT001 BKN004 20/20 A3001=
METAR OEHL 080800Z 18018KT CAVOK 40/04 Q1013=
METAR OERF 080800Z 04003KT CAVOK 41/12 Q1007=
METAR TLPL 080800Z 12014KT 9999 SCT023 BKN300 29/24 Q1013=
METAR UUYY 080800Z 00000MPS 9999 FEW026 30/15 Q1016 NOSIG 19CLRD61
      RMK QFE753/1004=
METAR WMKJ 080800Z 22003KT 9999 FEW018 BKN280 29/25 Q1009=
METAR WMSA 080800Z 34004KT 9999 FEW020 BKN140 34/24 Q1008 NOSIG=
METAR ZBHH 080800Z 21003MPS 170V310 9999 SCT040 30/10 Q1009 NOSIG=
METAR ZHHH 080800Z 06007MPS 9999 -TSRA SCT010 FEW030CB OVC040 24/24
      Q1002 RESHRA TEMPO SHRA=
METAR ZSNJ 080800Z 09004MPS 060V120 3000 HZ SCT026 29/22 Q1004 NOSIG=
####018001155####
SAUS20 KNKA 080811
SPECI KAUS 080810Z 06005KT 10SM BKN016 OVC025 26/23 A2995 RMK AO2=
METAR KBNL 080815Z AUTO 27005KT 10SM CLR 24/18 A2999 RMK AO2 =
METAR KCQW 080815Z AUTO 01005KT 7SM CLR 24/18 A2997 RMK AO2 =
METAR KIGQ 080800Z AUTO 00000KT 10SM BKN041 BKN049 24/22 A3004 
     RMK AO2=
METAR KLKR 080815Z AUTO 00000KT 7SM CLR 19/19 A2998 RMK AO2 =
SPECI KOJC 080810Z AUTO 35005KT 10SM FEW004 SCT014 OVC100 23/22 
    A3006 RMK AO2=
METAR KOLV 080815Z AUTO 00000KT 7SM CLR 23/23 A3007 RMK A01 P000 =
SPECI KSAT 080810Z 07005KT 10SM BKN014 BKN250 26/23 A2995 RMK AO2=
SPECI KSTC 080810Z AUTO 00000KT 10SM CLR 14/13 A3008 RMK AO2=
METAR KTIP 080805Z AUTO 00000KT 10SM SCT060 SCT075 SCT100 24/23 
     A3004 RMK AO2 T02420228=
METAR KTYQ 080805Z AUTO 00000KT 7SM CLR 21/20 A3007 RMK AO2=
SPECI KUCP 080811Z AUTO 00000KT 1/2SM FG CLR 18/18 A3009 RMK AO2 $=
METAR KUVA 080805Z AUTO 07004KT 10SM CLR 24/23 A2994 RMK AO2 
     T02410228=
METAR KVYS 080805Z AUTO 00000KT 3SM BR SCT004 BKN037 OVC050 23/22 
     A3003 RMK AO2 T02330219=
METAR KXBP 080805Z AUTO 13003KT 10SM SCT025 25/22 A3001 RMK AO2 
     T02460221=
####018000073####
SAAL40 DAMM 080730 RRB
METAR DAAT 080730Z 11014KT CAVOK 30/02 Q1022=
####018000085####
SPCN48 CWAO 080810
SPECI CYPH 080810Z AUTO 24017G22KT 1SM OVC001 05/05 A2977=

####018000096####
SAUS98 KWBC 080812
METAR KEHA 080808Z AUTO 36002KT 17/17 RMK AO1 PK WND 04 008
T01720167=
####018000734####
SAUS99 KWBC 080812
METAR
KBNL 080815Z AUTO 27005KT 10SM CLR 24/18 A2999 RMK AO2=
KCQW 080815Z AUTO 01005KT 7SM CLR 24/18 A2997 RMK AO2=
KIGQ 080800Z AUTO 00000KT 10SM BKN041 BKN049 24/22 A3004 RMK
     AO2=
KLKR 080815Z AUTO 00000KT 7SM CLR 19/19 A2998 RMK AO2=
KOLV 080815Z AUTO 00000KT 7SM CLR 23/23 A3007 RMK A01 P000=
KTIP 080805Z AUTO 00000KT 10SM SCT060 SCT075 SCT100 24/23 A3004
     RMK AO2 T02420228=
KTYQ 080805Z AUTO 00000KT 7SM CLR 21/20 A3007 RMK AO2=
KUVA 080805Z AUTO 07004KT 10SM CLR 24/23 A2994 RMK AO2
     T02410228=
KVYS 080805Z AUTO 00000KT 3SM BR SCT004 BKN037 OVC050 23/22 A3003
     RMK AO2 T02330219=
KXBP 080805Z AUTO 13003KT 10SM SCT025 25/22 A3001 RMK AO2
     T02460221=
####018000359####
SPUS99 KWBC 080812
SPECI
KAUS 080810Z 06005KT 10SM BKN016 OVC025 26/23 A2995 RMK AO2=
KOJC 080810Z AUTO 35005KT 10SM FEW004 SCT014 OVC100 23/22 A3006
     RMK AO2=
KSAT 080810Z 07005KT 10SM BKN014 BKN250 26/23 A2995 RMK AO2=
KSTC 080810Z AUTO 00000KT 10SM CLR 14/13 A3008 RMK AO2=
KUCP 080811Z AUTO 00000KT 1/2SM FG CLR 18/18 A3009 RMK AO2 $=
####018001529####
SAIY42 LIIB 080800
METAR LIBF 080750Z 33011KT CAVOK 25/09 Q1020 RMK VIS MIN 9999=
METAR LIEA 080750Z 35005KT 250V050 CAVOK 27/20 Q1019 RMK VIS MIN
9999=
METAR LIED 080755Z 30004KT CAVOK 26/18 Q1017 RMK SKC VIS MIN 9999
      BLU=
METAR LIEO 080750Z VRB04KT 9999 FEW030 28/22 Q1019 RMK VIS MIN
9999=
METAR LIMA 080750Z VRB03KT 9999 SCT040 23/15 Q1023 RMK VIS MIN 9999=
METAR LIQN 080800Z NIL=
METAR LIQO 080755Z 01004KT CAVOK 23/13 Q1020 RMK FEW FEW200 VAL NIL
      NC VIS MIN 9999=
METAR LIQW 080755Z 26002KT CAVOK 27/20 Q1020 RMK SKC VIS MIN 9999
      BLU=
METAR LIRE 080755Z 19007KT 9999 FEW015 27/19 Q1018 RMK FEW VIS MIN
      9999 WIND THR31 19008KT 170V230 BLU=
METAR LIRG 080755Z 24001KT 9999 FEW040 27/18 Q1019 RMK SCT MON NE
     LIB NC VIS MIN 9999 BLU=
METAR LIRH 080755Z 11001KT 9999 FEW035 25/16 Q1020 RMK FEW MON LIB NC
      VIS MIN 9999 WIND THR16 15002KT BLU=
METAR LIRI 080750Z 03014KT CAVOK 27/09 Q1019 RMK VIS MIN 9999=
METAR LIRK 080755Z 13006KT CAVOK 15/11 Q1026 RMK SKC MON NE LIB NC
      VAL NIL NC VIS MIN 9999=
METAR LIRL 080755Z 29003KT 9999 FEW018 27/20 Q1018 RMK FEW MON LIB NC
      VIS MIN 9999 BLU=
METAR LIRM 080755Z 08014KT CAVOK 27/16 Q1019 RMK SKC VIS MIN 9999
      WIND THR06 07013KT BLU=
METAR LIRS 080755Z 02005KT 9999 FEW040 28/10 Q1019 RMK FEW VIS MIN
      9999 WIND THR21 /////KT BLU=
METAR LIRT 080755Z 36008KT 9999 FEW015 17/08 Q1022 RMK FEW MON LIB
      VAL NIL VIS MIN 9999=
METAR LIRU 080750Z 34004KT 9999 SCT040 26/18 Q1020 RMK VIS MIN 9999=
####018000916####
SARS31 RUMS 080800
METAR ULAA 080800Z 31004MPS 290V360 9999 FEW030TCU FEW/// 26/19 Q1015
NOSIG RMK QFE759/1013 SC070=
METAR ULKK 080800Z VRB01MPS 6000 FEW033 FEW099 31/16 Q1015 NOSIG RMK
QFE757=
METAR ULMM 080800Z 33003MPS 290V360 9999 BKN017CB 13/08 Q1017 NOSIG
RMK QFE755 32190060=
METAR ULOL 080800Z NIL=
METAR ULOO 080800Z VRB01MPS P6000 SCT036 BKN200 27/18 Q1012 NOSIG RMK
QFE755=
METAR ULWW 080800Z 11005MPS CAVOK 30/17 Q1016 NOSIG RMK QFE751
15CLRD60=
METAR UMKK 080800Z 30006MPS P8000 BKN200 22/15 Q1019 NOSIG RMK QFE
763 SC07=
METAR UUBP 080800Z 19002MPS 9999 FEW033 SCT/// 25/18 Q1012 NOSIG=
METAR UUOB 080800Z VRB02MPS 9999 SCT040 BKN200 26/17 Q1014 NOSIG RMK
SC065=
METAR UUOK 080800Z 19004MPS 9999 BKN026 26/17 Q1013 NOSIG=
METAR UUOO 080800Z VRB02MPS 9999 SCT033 27/15 Q1014 NOSIG RMK
13090070=
METAR UWGG 080800Z 10003MPS 070V160 8000 SKC 32/10 Q1016 NOSIG RMK
QFE755 18090070=
####018000101####
SAKY31 RUMS 080800 RRA
METAR UAFO 080800Z 26002MPS 9999 FEW050TCU 34/19 Q1018 NOSIG RMK
QFEM685=
####018000657####
SARA32 RUMS 080800
METAR UHHH 080800Z 03005MPS 9999 BKN030CB OVC100 18/14 Q1010 NOSIG
RMK QFE751/1001 55090060=
METAR UHMA 080800Z NIL=
METAR UHMM 080800Z 23003MPS 200V260 9999 BKN012 OVC028 13/12 Q1016
NOSIG RMK QFE747 88010070 MT OBSC=
METAR UHMP 080800Z NIL=
METAR UHNN 080800Z 08003MPS 9999 -SHRA BKN013CB OVC070 12/11 Q1012
RMK QBB390 QFE754=
METAR UHPP 080800Z 18006MPS 9999 NSC 10/07 Q1017 NOSIG RMK
QFE759/1012 MT OBS SC070=
METAR UHSH 080800Z NIL=
METAR UHSS 080800Z 15003MPS 9999 BKN021 15/12 Q1010 NOSIG RMK MT OBSC
QFE756/1009 19CLRD70=
METAR UHWW 080800Z 23007MPS 9999 BKN021 OVC070 19/16 Q1009 NOSIG RMK
QFE756/1008 75CLRD70=
####018000880####
SARS35 RUMS 080800
METAR USPP 080800Z 01003MPS CAVOK 27/09 Q1016 NOSIG RMK QFE751/1002
21090060=
METAR UWKD 080800Z 01002MPS CAVOK 31/12 Q1015 NOSIG RMK QFE750/1000
79CLRD70=
METAR UWKE 080800Z 00000MPS CAVOK 29/11 Q1016 NOSIG RMK QFE745/0993
22090070=
METAR UWKS 080800Z NIL=
METAR UWLL 080800Z 09003MPS CAVOK 29/10 Q1016 NOSIG RMK QFE749/0999
SC065=
METAR UWLW 080800Z 29002MPS 8000 FEW040 31/13 Q1015 NOSIG 02CLRD60
RMK QFE755=
METAR UWOR 080800Z 07010MPS CAVOK 26/04 Q1014 07CLRD65 NOSIG RMK
QFE735/0981=
METAR UWOO 080800Z 05006MPS P5000 SCT070 30/04 Q1013 08LRD65 NOSIG
RMK QFE749/0999=
METAR UWPP 080800Z 11004MPS 9999 SCT033CB BKN100 28/09 Q1014 NOSIG
RMK QFE746 11090060=
METAR UWSS 080800Z 05003MPS 9999 FEW050TCU BKN066 27/13 Q1015 NOSIG
RMK QFE749 120///60=
METAR UWWW 080800Z 07006MPS CAVOK 29/09 Q1015 NOSIG RMK QFE748/0998
05CLRD60 15//99//=
####018000128####
SPIV20 DIAP 080810
SPECI DIAP 080810Z 27005KT 4000 -RA SCT005 BKN012 BKN080 25/24 Q1015
TEMPO 2000 RA BKN005 BKN012 OVC080=
####018000075####
SAKB31 PLCH 080800
METAR PLCH 080800Z 11015KT 20KM FEW018 26/24 Q1010 =
####018000076####
SAAG SASJ 080800
METAR SASJ 080800Z  20003KT 9999  BKN040  12/09
Q1019=
####018000073####
SAAG05 SABM 080700 RRD
METAR SADF 080700Z  29002KT CAVOK 03/02 Q1019=
####018000915####
SARS32 RUMS 080800
METAR URKA 080800Z 05004MPS 9999 SCT030 27/18 Q1013 NOSIG RMK  065=
METAR URKK 080800Z 07004G07MPS 040V110 9999 SCT030 28/18 Q1013 NOSIG
RMK QFE756 SC070=
METAR URKM 080800Z 13002MPS 9999 SCT040 BKN100 29/18 Q1013 NOSIG RMK
QFE741=
METAR URML 080800Z 36004G09MPS 9999 SKC 31/21 Q1013 NOSIG RMK QFE759
/ 07=
METAR URMM 080800Z 11004MPS 9999 SCT040 27/19 Q1013 NOSIG RMK /
SC070=
METAR URMN 080800Z 04001MPS 9999 SCT026 BKN110 26/20 Q1014 NOSIG RMK
/ QFE724 SC07=
METAR URMT 080800Z 06005G08MPS 9999 FEW020 27/16 Q1015 NOSIG RMK
QFE721 SC07=
METAR URRR 080800Z 00000MPS 9999 FEW026 29/17 Q1014 NOSIG RMK SC070=
METAR URSS 080800Z 26002MPS 9999 SKC 28/22 Q1011 NOSIG RMK / QFE757
06CLRD70=
METAR URWA 080800Z 02003MPS CAVOK 34/14 Q1011 NOSIG RMK SC07=
METAR URWI 080800Z VRB02MPS CAVOK 28/17 Q1014 NOSIG RMK SC065=
METAR URWW 080800Z 33004MPS CAVOK 28/17 Q1014 NOSIG RMK SC070=
####018000283####
SAAF18 LFPW 080800 RRA
METAR FMEE 080800Z 13017KT 9999 FEW023 23/16 Q1023 TEMPO 13028G38KT=
METAR FMMI 080800Z 14009KT 090V180 9999 BKN016 SCT020 18/12 Q1027
 NOSIG=
METAR FMMT 080800Z 22016KT 9999 VCSH FEW007 SCT017 23/20 Q1023=
METAR FMNM 080800Z ///10KT CAVOK 28/15 Q1019=
####018000072####
SAEW34 LEMM 080800 RRA
METAR LEDA 080800Z 09007KT CAVOK 28/17 Q1020=
####018000133####
SAAF20 LFPW 080800 RRA
METAR FABL 080800Z 03011KT CAVOK 12/06 Q1034 NOSIG=
METAR FAGG 080800Z 36003KT 320V030 CAVOK 12/07 Q1023=
####018002335####
SAUS70 KWBC 080812 RRA
METAR
KCKI 080815Z AUTO 00000KT 10SM CLR 23/21 A2995 RMK AO2=
KLRO 080815Z AUTO 29004KT 10SM CLR 24/19 A2995 RMK AO2=
KMKS 080815Z AUTO 00000KT 7SM CLR 23/20 A2995 RMK AO2 TSNO=
KMNZ 080810Z AUTO 13004KT 10SM CLR 25/24 A3000 RMK AO2
     T02450236=
KMQB 080805Z AUTO 00000KT 10SM OVC006 23/23 A3004 RMK AO2
     T02300230=
KMWA 080805Z AUTO 16003KT 10SM CLR 24/23 A3006 RMK AO2
     T02440232=
KOSA 080804Z AUTO 00000KT 7SM SCT012 25/24 A3003 RMK AO1
     T02470240=
KPEZ 080805Z AUTO 05007KT 7SM SCT015 BKN021 BKN031 25/23 A2992 RMK
     AO2 T02520229=
KPKV 080806Z AUTO 05006KT 7SM -RA SCT013 BKN020 OVC075 25/24 A2986
     RMK AO2 T02500235=
KPPA 080805Z AUTO 03006KT 10SM SCT008 BKN070 OVC120 17/16 A3018
     RMK AO2 LTG DSNT N=
KPYX 080810Z AUTO 05007KT 4SM SCT006 BKN021 OVC027 19/18 A3018 RMK
     AO2 P0001 T01930183=
KRAS 080805Z AUTO 11014G18KT 7SM BKN015 BKN020 28/26 A2985 RMK
     AO2=
KRPH 080805Z AUTO 00000KT 10SM CLR 23/21 A2999 RMK AO2
     T02300212=
KRYW 080805Z AUTO 07003KT 5SM BR OVC008 24/23 A2999 RMK AO2=
KSAR 080805Z AUTO 19004KT 10SM SCT055 26/23 A3004 RMK AO2=
KSLR 080802Z AUTO 12003KT 10SM SCT008 SCT015 SCT020 25/23 A3003
     RMK AO2 T02480233=
KSNK 080806Z AUTO 00000KT 7SM -RA SCT039 BKN120 21/20 A3008 RMK
     AO2 T02080200=
KSWW 080805Z AUTO 18004KT 10SM CLR 22/21 A3006 RMK AO1
     T02220208=
KT65 080805Z AUTO 36004KT 7SM CLR 26/25 A2979 RMK AO2
     T02560249=
KT82 080805Z AUTO 00000KT 23/22 A3002 RMK AO1 T02330220=
KTAZ 080805Z AUTO 00000KT 7SM CLR 23/23 A3003 RMK AO2=
KTFP 080805Z AUTO 10004KT 10SM SCT018 SCT028 OVC050 27/26 A2982
     RMK AO2 T02700255=
KBNL 080815Z AUTO 27005KT 10SM CLR 24/18 A2999 RMK AO2=
KCQW 080815Z AUTO 01005KT 7SM CLR 24/18 A2997 RMK AO2=
KLKR 080815Z AUTO 00000KT 7SM CLR 19/19 A2998 RMK AO2=
KOLV 080815Z AUTO 00000KT 7SM CLR 23/23 A3007 RMK A01 P000=
KTIP 080805Z AUTO 00000KT 10SM SCT060 SCT075 SCT100 24/23 A3004
     RMK AO2 T02420228=
KTYQ 080805Z AUTO 00000KT 7SM CLR 21/20 A3007 RMK AO2=
KUVA 080805Z AUTO 07004KT 10SM CLR 24/23 A2994 RMK AO2
     T02410228=
KVYS 080805Z AUTO 00000KT 3SM BR SCT004 BKN037 OVC050 23/22 A3003
     RMK AO2 T02330219=
KXBP 080805Z AUTO 13003KT 10SM SCT025 25/22 A3001 RMK AO2
     T02460221=
####018000301####
SAUS80 KWBC 080812
METAR
KPSN 080805Z AUTO 11003KT 7SM 24/24 A3001 RMK AO2 T02430236=
KRFI 080805Z AUTO 00000KT 5SM BR CLR 24/23 A3000 RMK AO2
     T02400230=
KSEP 080805Z AUTO 00000KT 10SM CLR 23/21 A3001 RMK AO1=
KEHA 080808Z AUTO 36002KT 17/17 RMK AO1 PK WND 04 008
     T01720167=
####018000081####
SAAF32 KWBC 080800 RRA
METAR
FTTJ 080800Z 20010KT CAVOK 26/23 Q1014 NOSIG=
####018000403####
SPUS80 KWBC 080812
SPECI
KMWT 080804Z AUTO 00000KT 9SM SCT013 BKN020 OVC025 23/23 A3004 RMK
     AO2 TSNO=
KEMP 080809Z AUTO 12003KT 9SM SCT005 OVC070 22/20 A3008 RMK
     AO2=
KGRR 080809Z AUTO 25006KT 5SM RA BR SCT016 BKN027 OVC060 24/22
     A3006 RMK AO2 P0012=
KSAT 080810Z 07005KT 10SM BKN014 BKN250 26/23 A2995 RMK AO2=
KSTC 080810Z AUTO 00000KT 10SM CLR 14/13 A3008 RMK AO2=
####018000092####
SAHK31 VHHH 080800 CCA
METAR RCTP 080800Z 25017KT 9999 FEW025 BKN150 31/25 Q1007
NOSIG=
####018000310####
SAAF21 LFPW 080800 RRA
METAR FAJS 080800Z 08012KT 9000 SCT006 10/09 Q1037 NOSIG=
METAR FALA 080800Z 07009KT 020V110 9999 FEW025 14/08 Q1036 NOSIG=
METAR FAMM 080800Z 02013KT CAVOK 15/05 Q1034 NOSIG=
METAR FAPE 080800Z 36009KT CAVOK 12/10 Q1027 NOSIG=
METAR FAUP 080800Z 01023KT CAVOK 19/02 Q1028 NOSIG=
####018000294####
SAEE31 LOWM 080800
METAR UACK 080800Z 32008G12MPS 9999 BKN053 FEW230 18/03 Q1011
02010070 NOSIG RMK QFE734=
METAR UACP 080800Z NIL=
METAR UAII 080800Z NIL=
METAR UADD 080800Z 03003MPS 020V090 9999 NSC 33/03 Q1013
NOSIG RMK QFE703/0938=
METAR UASK 080800Z NIL=
METAR UASP 080800Z NIL=
####018000084####
SAAF05 LFPW 080800 RRA
METAR DNMM 080800Z 00000KT 6000 SCT010 26/25 Q1015 NOSIG=
####018000245####
SAAF31 KWBC 080800 RRB
METAR
DBBB 080800Z 23007KT 200V270 6000 SCT011 BKN110 27/25 Q1014
     NOSIG=
DGAA 080800Z NIL=
DNKN 080800Z 22010KT CAVOK 26/21 Q1014 NOSIG=
DNKN 080800Z NIL=
DRRN 080800Z 00000KT CAVOK 26/21 Q1013 NOSIG=
####018000094####
SAAF36 KWBC 080800 RRB
METAR
HKJK 080800Z 15008KT 9999 BKN018 0VC090 16/14 Q1025 NOSIG=
####018000467####
SAUS70 KWBC 080800 RRK
METAR
KMDD 080800Z AUTO 00000KT 10SM BKN120 22/20 A3009 RMK AO2
     T02240203=
KGOP 080800Z AUTO 00000KT 10SM OVC018 25/23 A3001 RMK AO2=
KHBV 080800Z AUTO 03004KT 10SM SCT007 OVC013 25/24 A2986 RMK AO2
     T02530240=
KRWV 080800Z AUTO 00000KT 9SM FEW019 24/24 A2998 RMK AO2=
KSLO 080800Z AUTO 19003KT 10SM CLR 25/21 A3005 RMK AO2
     T02450214=
KIGQ 080800Z AUTO 00000KT 10SM BKN041 BKN049 24/22 A3004 RMK
     AO2=
####018000095####
SAAF34 KWBC 080800 RRB
METAR
FBMN 080800Z 09012KT CAVOK 18/05 Q1029=
FBSP 080800Z NIL=
####018000178####
SPXX60 KWBC 080812
SPECI
KFAF 080805Z 00000KT 8SM FEW065 BKN090 26/26 A2995 RMK AO2A
     RAE0805 SLP142=
PASY 080806Z AUTO 02016KT 10SM OVC004 A2973 RMK AO2 TSNO PNO=
####018003749####
SAUS70 KWBC 080812
METAR
KJDD 080805Z AUTO 00000KT 3SM BR BKN003 BKN011 24/24 A3002 RMK
     AO2=
KJSO 080810Z AUTO 00000KT 5SM BR CLR 24/24 A3003 RMK AO2
     T02350235=
KJWY 080805Z AUTO 00000KT 10SM 24/23 A3000 RMK AO2 T02420225=
KJXI 080805Z AUTO 00000KT BKN008 25/25 A3002 RMK AO2=
KLBR 080805Z AUTO 00000KT 10SM SCT002 24/23 A3002 RMK AO2
     T02400230=
KLHB 080804Z AUTO 09004KT 5SM BR BKN120 25/24 A2996 RMK AO2
     T02520235=
KLNC 080805Z AUTO 00000KT 10SM SCT014 24/24 A3000 RMK AO2
     T02400237=
KLUD 080805Z AUTO 15005KT 10SM CLR 25/22 A3000 RMK AO2
     T02480215=
KM30 080806Z AUTO 00000KT 7SM CLR 22/21 A3004 RMK AO2=
KOLY 080803Z AUTO 00000KT 5SM BR CLR 23/22 A3004 RMK AO2=
KPNT 080805Z AUTO 00000KT 3SM BR SCT032 BKN055 OVC085 23/22 A3004
     RMK AO2=
KPRG 080805Z AUTO 00000KT 5SM BR SCT060 SCT075 OVC110 22/21 A3005
     RMK AO2 T02270218=
KRPJ 080805Z AUTO 00000KT 5SM BR BKN011 OVC055 21/20 A3003 RMK AO2
     T02070197=
KRSV 080802Z AUTO 00000KT 7SM CLR 24/23 A3005 RMK AO2
     T02420228=
KASW 080805Z AUTO 00000KT 7SM CLR 22/21 A3005 RMK AO2
     T02170205=
KBKS 080806Z AUTO 02005KT 10SM SCT021 BKN085 BKN120 26/25 A2982
     RMK AO1 T02620248=
KBPC 080807Z AUTO 34006KT 10SM RA SCT004 SCT013 OVC050 18/17 A3016
     RMK AO2 P0001=
KBPG 080805Z AUTO 19003KT 10SM CLR 22/21 A3009 RMK AO1
     T02200205=
KBYY 080806Z AUTO 09005KT 10SM CLR 27/26 A2988 RMK AO2
     T02720256=
KC75 080804Z AUTO 16005KT 4SM -DZ BKN065 OVC075 24/24 A3002 RMK
     AO2=
KCPT 080805Z AUTO 11006KT 10SM CLR 24/24 A3001 RMK AO2=
KCVB 080804Z AUTO 08004KT 10SM OVC017 25/24 A2994 RMK AO2
     T02520238=
KCWC 080805Z AUTO 05004KT 10SM CLR 24/22 A3002 RMK AO2
     T02370220=
KDUX 080807Z AUTO 00000KT 10SM -RA SCT029 SCT047 OVC100 17/16
     A3021 RMK AO2 P0001 T01730163=
KE38 080805Z AUTO 00000KT 10SM CLR 19/17 A3019 RMK AO2
     T01930168=
KEBG 080806Z AUTO 00000KT 10SM CLR 26/25 A2981 RMK AO2
     T02620247=
KECU 080805Z AUTO 00000KT 10SM CLR 22/21 A3007 RMK AO2=
KENL 080804Z AUTO 19003KT 10SM CLR 24/16 A3004 RMK AO2
     T02400160=
KERV 080805Z AUTO 07005KT 10SM SCT007 BKN022 OVC034 23/22 A2999
     RMK AO2 T02330215=
KF05 080804Z AUTO 01003KT 10SM SCT120 24/22 A3003 RMK AO2
     T02400220=
KFEP 080805Z AUTO 17004KT 7SM -RA SCT085 22/20 A3001 RMK AO2
     T02240204=
KFOA 080805Z AUTO 13003KT 7SM CLR 26/25 A3004 RMK AO2
     T02550252=
KFWC 080805Z AUTO 00000KT 7SM CLR 24/23 A3004 RMK AO2=
KFWS 080805Z AUTO 14003KT 10SM SCT013 BKN018 25/23 A3001 RMK AO2
     T02480231=
KGBG 080805Z AUTO 21006KT 7SM OVC004 23/22 A3001 RMK AO2=
KGDJ 080804Z AUTO 00000KT 10SM OVC014 25/22 A3000 RMK AO2
     T02500223=
KGNC 080805Z AUTO 04004KT 10SM SCT015 SCT055 OVC070 21/19 A3014
     RMK AO2 T02050193=
KGVT 080805Z AUTO 17004KT 10SM CLR 25/23 A3001 RMK AO2=
KGWB 080805Z AUTO 00000KT 7SM CLR 23/17 A3006 RMK AO2=
KGYB 080805Z AUTO 04003KT 7SM SCT008 SCT014 BKN024 25/24 A2998 RMK
     AO2 T02450237=
KGYI 080805Z AUTO 14007KT 10SM SCT024 BKN070 BKN080 26/24 A3001
     RMK AO2 T02570236=
KHHF 080805Z AUTO 00000KT 10SM SCT014 OVC024 23/21 A3012 RMK AO2
     T02300214=
KHRX 080805Z AUTO 00000KT 10SM RA BKN035 BKN045 OVC080 17/17 A3021
     RMK AO2 T01730165=
KHSB 080805Z AUTO 00000KT 7SM CLR 22/21 A3004 RMK AO2=
KIJX 080805Z AUTO 00000KT 3SM BR SCT034 BKN050 BKN090 24/23 A3004
     RMK AO2 T02350226=
KINJ 080805Z AUTO 12003KT 10SM CLR 25/23 A2999 RMK AO2
     T02480227=
KJAS 080806Z AUTO 00000KT 7SM CLR 25/24 A3001 RMK AO2
     T02480238=
KCCA 080815Z AUTO 00000KT 5SM BR CLR 22/22 A3006 RMK AO2=
KCDN 080815Z AUTO 26003KT 10SM CLR 26/22 A2998 RMK A02 P000=
####018000075####
SAAL31 KWBC 080700 RRF
METAR
DAAT 080730Z 11014KT CAVOK 30/02 Q1022=
####018000141####
SAUS80 KWBC 080800 RRE
METAR
KMKN 080800Z AUTO 00000KT 10SM 24/23 A3002 RMK AO2=
KSOA 080800Z AUTO 02005KT 10SM 23/21 A3007 RMK AO2=
####018000694####
SPUS70 KWBC 080812
SPECI
KUIN 080808Z AUTO 00000KT 3SM RA BR FEW014 SCT020 OVC046 23/22
     A3003 RMK AO2 P0005=
KAKO 080809Z AUTO 13007KT 6SM BR SCT004 OVC009 14/14 A3031 RMK AO2
     TSNO=
KHWV 080809Z AUTO 14005KT 3SM BR OVC002 24/24 A3003 RMK AO2=
KITR 080809Z AUTO 00000KT 10SM SCT010 OVC030 17/15 A3029 RMK
     AO2=
KLRD 080808Z AUTO 00000KT 10SM BKN013 26/24 A2989 RMK AO2 BKN V
     SCT $=
KM89 080808Z AUTO 00000KT 4SM BR OVC002 24/23 A3004 RMK AO2=
KAUS 080810Z 06005KT 10SM BKN016 OVC025 26/23 A2995 RMK AO2=
KOJC 080810Z AUTO 35005KT 10SM FEW004 SCT014 OVC100 23/22 A3006
     RMK AO2=
KUCP 080811Z AUTO 00000KT 1/2SM FG CLR 18/18 A3009 RMK AO2 $=
####018000078####
SAAO31 KWBC 080800 RRA
METAR
GMTN 080800Z 00000KT 8000 NSC 25/18 Q1015=
####018000073####
SAAS31 KWBC 080805 RRA
METAR
VOBG 080800Z NIL=
VOCI 080800Z NIL=
####018001648####
SAAU31 KWBC 080800 RRA
METAR
YBAS 080800Z 11009KT 9999 FEW034 15/06 Q1019=
YBBN 080800Z 19009KT 9999 FEW040 BKN077 BKN105 18/10 Q1019
     NOSIG=
YBCG 080800Z AUTO 19010KT 9000NDV // SCT022 BKN033 OVC055 15/13
     Q1020=
YBCS 080800Z 15007KT 9999 FEW024 BKN045 24/19 Q1015=
YBMA 080800Z AUTO 18012KT 9999NDV // NCD 14/11 Q1019=
YBRK 080800Z 25004KT 9999 VCSH FEW005 BKN030 13/12 Q1019=
YBRM 080800Z 04008KT 9999 SCT034 BKN054 28/21 Q1010=
YBTL 080800Z 07008KT 9999 FEW019 SCT050 BKN170 23/20 Q1015=
YMHB 080800Z 00000KT CAVOK 06/03 Q1029=
YMML 080800Z 19002KT 9999 FEW030 BKN042 10/04 Q1028 NOSIG=
YPAD 080800Z 00000KT 9999 FEW045 12/09 Q1025=
YPCC 080800Z 13008KT 9999 FEW021 28/22 Q1012=
YPDN 080800Z 02013KT CAVOK 29/20 Q1011=
YPEA 080800Z 36013KT 9999 SCT016 SCT025 16/13 Q1000 RMK USE TAF
     FOR ARRIVALS AFTER 0900Z INTER 0800/1100 34020G30KT 3000 SHRA
     BKN010=
YPLM 080800Z AUTO 07004KT 9999NDV // BKN057 20/17 Q1008=
YPPD 080800Z AUTO 04016KT 9999NDV // SCT026 BKN033 BKN120 24/20
     Q1009=
YPPH 080800Z 01011KT 9999 FEW010 SCT022 16/14 Q0999 FM0800
     33018G28KT 9999 -SHRA BKN020 INTER 0800/1100 27025G35KT 3000
     +SHRA BKN010=
YPTN 080800Z 12008KT CAVOK 28/14 Q1012=
YPXM 080800Z NIL=
YSCB 080800Z 08005KT 9999 FEW050 07/03 Q1027 RMK USE TAF FOR
     ARRIVALS AFTER 0900Z NOSIG=
YSDU 080800Z AUTO 11008KT 9999NDV // NCD 10/06 Q1024=
YSNF 080800Z 11010KT 3000 -DZ BR SCT010 BKN017 14/12 Q1017=
YSRI 080800Z AUTO 00000KT 9999NDV // OVC054 12/11 Q1027=
YSSY 080800Z 21010KT 9999 VCSH FEW010 SCT045 BKN055 12/12 Q1026
     INTER 0815/1100 5000 SHRA BKN015=
####018000240####
SAAW33 KWBC 080800 RRC
METAR
OYAA 080800Z NIL=
OYAR 080800Z 06008KT 7000 NSC 27/03 Q////=
OYHD 080800Z 23008KT 6000 NSC 35/26 Q1002=
OYSN 080800Z 06012G23KT 4000 DU NSC 30/M04 Q1023=
OYTZ 080800Z 27010KT 7000 NSC 29/13 Q1010=
####018000176####
SAAW34 KWBC 080745 RRG
METAR
UACP 080800Z NIL=
UADD 080800Z 03003MPS 020V090 9999 NSC 33/03 Q1013 NOSIG RMK
     QFE703/0938=
UAII 080800Z NIL=
UASP 080800Z NIL=
####018000088####
SACA31 KWBC 080800 RRB
METAR
MKJS 080800Z 00000KT 9999 SCT022 SCT200 25/22 Q1012=
####018000088####
SACA33 KWBC 080800 RRA
METAR
TLPL 080800Z 12014KT 9999 SCT023 BKN300 29/24 Q1013=
####018000199####
SAEM31 KWBC 080800 RRB
METAR
LKPR 080800Z 15004KT 060V180 CAVOK 20/09 Q1024 NOSIG RMK REG QNH
     1021=
LKTB 080800Z 01008KT 340V050 9999 FEW046 21/07 Q1023 NOSIG RMK REG
     QNH 1021=
####018000286####
SAID31 KWBC 080800 RRA
METAR
WAAA 080800Z 21005KT 9999 SCT020 30/25 Q1008=
WABB 080800Z 33007KT 9999 FEW017CB SCT020 27/24 Q1008 NSG=
WIII 080800Z 14010KT 110V190 8000 FEW019CB SCT02027/23 Q1009 RM K
     CB TO W NOSIG=
WIMM 080800Z 01007KT 7000 SCT017 33/23 Q1008 NOSIG=
####018000122####
SAIY31 KWBC 080750 RRC
METAR
LIEE 080755Z 26004KT CAVOK 25/19 Q1018 RMK VIS MIN 9999 WIND THR14
     26004KT BLU=
####018000373####
SAIY41 KWBC 080750 RRC
METAR
LIBY 080755Z 34013KT 9999 FEW020 25/11 Q1016 RMK FEW QUK 3 QUL 1 N
     VIS MAR 20 KM VIS MIN 9999=
LICF 080755Z 35002KT 9999 FEW030 29/24 Q1017 RMK SCT SCT080 QUK 1
     QUL 0 VIS MAR 10 KM MON LIB NC VIS MIN 9999=
LIEB 080755Z 07008KT 9999 SCT020TCU 29/25 Q1017 RMK SCT QUK 1 QUL
     0 VIS MAR 15 KM MON INVIS VIS MIN 8000W=
####018000138####
SAIY43 KWBC 080750 RRC
METAR
LIQC 080755Z 19002KT 9999 SCT030 25/14 Q1019 RMK SCT QUK 2 QUL 1
     NW VIS MAR 15 KM VIS MIN 9999=
####018000083####
SAAL41 DAMM 080800 RRA
METAR DAUI 080800Z 06028KT 0400 BLSA VV/// ///// Q1012=
####018000298####
SAJP31 KWBC 080800 RRB
METAR
RJAA 080800Z 20008KT 9999 FEW025 BKN/// 28/23 Q1009 NOSIG RMK
     1CU025 A2981=
RJCC 080800Z 18007KT 3000 -DZ BR SCT002 BKN003 18/17 Q1009 RMK
     3ST002 7ST003 A2981=
RJFK 080800Z 19008KT 150V230 9000 FEW030 BKN/// 28/19 Q1009 RMK
     1CU030 A2982=
####018000130####
SAPA31 KWBC 080800 RRA
METAR
AYPY 080800Z 18007KT 9999 FEW020CB FEW020 BKN140 27/23 Q1008 RMKS:
     CB TO N/ HZ IN AREA=
####018000083####
SANT31 KWBC 080800 RRB
METAR
LPBJ 080800Z 21006KT 170V250 CAVOK 23/18 Q1015=
####018000081####
SASA31 KWBC 080800 RRB
METAR
SYCJ 080800Z 00000KT 9000 FEW016 24/23 Q1011=
####018000260####
SAPO31 KWBC 080800 RRB
METAR
LPBJ 080800Z 21006KT 170V250 CAVOK 23/18 Q1015=
LPMR 080800Z 16003KT CAVOK 20/18 Q1014=
LPMT 080800Z VRB02KT CAVOK 20/18 Q1014=
LPOV 080800Z 14002KT 8000 NSC 21/18 Q1013=
LPST 080800Z 28006KT 8000 FEW003 19/18 Q1015=
####018000293####
SASD41 KWBC 080800 RRA
METAR
OEAB 080800Z 05018KT 7000 FEW020 SCT200 30/M01 Q1022 NOSIG=
OEAH 080800Z 06013KT 9000 NSC 43/09 Q1002 NOSIG=
OEBA 080800Z 09007KT 9000 SKC 35/05 Q1018 NOSIG=
OEBH 080800Z 02010KT CAVOK 37/04 Q1012 NOSIG=
OEGN 080800Z 19007KT CAVOK 37/27 Q1003 NOSIG=
####018000302####
SASD42 KWBC 080800 RRA
METAR
OEGS 080800Z 10007KT 42/08 Q1009=
OEGT 080800Z 29008KT CAVOK 33/01 Q1010=
OEHL 080800Z 18018KT CAVOK 40/04 Q1013=
OEKB 080800Z 14010KT CAVOK 43/24=
OEKK 080800Z 06010KT CAVOK 43/11 Q1007=
OEKM 080800Z 09018KT 8000 SKC 31/05 Q1021 NOSIG=
OEMH 080800Z NIL=
####018000306####
SASD44 KWBC 080800 RRA
METAR
OETB 080800Z 24004KT CAVOK 34/08 Q1011 NOSIG=
OETF 080800Z 12008KT CAVOK 36/05 Q1016 NOSIG=
OETR 080800Z 07006KT CAVOK 36/04 Q1011=
OEWD 080800Z 07014KT 8000 SKC 42/09 Q1006=
OEWJ 080800Z 30018KT CAVOK 33/27 Q1004=
OEYN 080800Z 18004KT CAVOK 39/15 Q1001 NOSIG=
####018000329####
SASD43 KWBC 080800 RRA
METAR
OEMK 080800Z 04002KT CAVOK 40/22 Q1001=
OENG 080800Z 06008KT 5000 DU SKC 38/00 Q1013 NOSIG=
OEPA 080800Z NIL=
OERF 080800Z 04003KT CAVOK 41/12 Q1007=
OERR 080800Z 14013KT CAVOK 42/10 Q1007=
OESH 080800Z 01010KT 5000 DU SKC 41/13 Q1004 NOSIG=
OESK 080800Z 29007KT CAVOK 39/01 Q1010=
####018000125####
SAXX99 KWBC 080700 RRX
METAR
ETSA 080720Z 10006KT 9999 20/09 Q1023 BLU/BLU/=
SADF 080700Z 29002KT CAVOK 03/02 Q1019=
####018001684####
SAXX99 KWBC 080800 RRL
METAR
AYMO 080800Z AUTO 18004KT //// // ////// 29/23 Q1008=
DFFD 080800Z 0000KT 9999 -RA FEW016 BKN100 23/22 Q1017 NOSIG=
EGVO 080805Z 31006KT 4000 -RADZ FEW003 OVC004 16/15 Q1019 YLO2
     BECMG BKN012 GRN=
LKKU 080800Z 33006KT 9999 FEW030 20/12 Q1023=
LKLB 080800Z VRB04KT CAVOK 21/05 Q1024=
LPAR 080800Z /////KT CAVOK 22/18 Q1014 RMK ESTMD WND 00000KT=
OEDM 080800Z NIL=
OEKJ 080800Z NIL=
OYAG 080800Z 11012KT 9999 SCT025 BKN070 30/24 Q1003=
OYAM 080800Z NIL=
OYAT 080800Z NIL=
OYDM 080800Z 05015KT CAVOK 29/01 Q////=
OYIB 080800Z 07005KT 5000 DU NSC 28/14 Q1017=
OYRN 080800Z 16010KT 7000 NSC 31/24 Q1003=
OYSH 080800Z NIL=
OYSQ 080800Z NIL=
OYSY 080800Z 24005KT 170V340 8000 NSC 40/11 Q1004=
UACK 080800Z 32008G12MPS 9999 BKN053 FEW230 18/03 Q1011 02010070
     NOSIG RMK QFE734=
VTBO 080800Z 16005KT 8000 -TSRA FEW018CB BKN020 29/25 Q1008 CB
     AD=
WADD 080800Z 10007KT 9999 FEW018CB FEW018 29/25 Q1008 NOSIG=
WALL 080800Z 14004KTP9999 FEW020 31/27 Q1007 NOSIG=
YAMB 080800Z 18009KT 9999 BKN050 BKN075 17/10 Q1020=
YBHM 080800Z AUTO 15018KT //// // ////// 19/16 Q1017=
YCIN 080800Z AUTO 09005KT //// // ////// 26/19 Q1012=
YFRT 080800Z AUTO 02013KT //// // ////// 17/03 Q1014=
YMAV 080800Z AUTO 14004KT 9999NDV // OVC050 09/07 Q1028=
YMLT 080800Z AUTO 17003KT 9999NDV // OVC037 06/03 Q1029=
YPGV 080800Z 14012KT 9999 FEW018 BKN350 25/21 Q1012=
YPKG 080800Z AUTO 35012KT 9999NDV // OVC088 19/04 Q1005=
YPKU 080800Z AUTO 13005KT 9999NDV // NCD 27/14 Q1012=
YWLM 080800Z 25007KT 9999 SCT020 BKN040 13/12 Q1025 USE TAF FOR
     ARRIVALS AFTER 1000Z INTER 0800/1000 4000 SHRA BKN010=
####018000082####
SPUS42 KWBC 080812
SPECI
KLRD 080808Z AUTO 00000KT 10SM BKN013 26/24 A2989=
####018000086####
SAUS42 KWBC 080800 RRB
METAR
KGLE 080804Z AUTO 00000KT 10SM SCT048 26/23 A3002=
####018000093####
SANM40 FYWW 080800 RRA
METAR FYND 080800Z AUTO 22017G58KT //// // ////// ///// Q1024=

####018000103####
SPUS43 KWBC 080812
SPECI
KGRR 080809Z AUTO 25006KT 5SM RA BR SCT016 BKN027 OVC060 24/22
A3006=
####018001464####
SAUS43 KWBC 080800 RRB
METAR
K1H2 080805Z AUTO 00000KT 7SM SCT120 25/24 A3003=
KAAA 080803Z AUTO 00000KT 5SM BR BKN026 BKN050 OVC070 23/22
     A3004=
KC09 080804Z AUTO 00000KT 2 1/2SM -DZ BKN110 21/21 A3003=
KC75 080804Z AUTO 16005KT 4SM -DZ BKN065 OVC075 24/24 A3002=
KDKB 080801Z AUTO 00000KT 4SM BR BKN065 BKN075 BKN090 22/21
     A3003=
KDNV 080805Z AUTO 00000KT 7SM SCT060 SCT090 23/21 A3001=
KENL 080804Z AUTO 19003KT 10SM CLR 24/16 A3004=
KFEP 080805Z AUTO 17004KT 7SM -RA SCT085 22/20 A3001=
KFOA 080805Z AUTO 13003KT 7SM CLR 26/25 A3004=
KFWC 080805Z AUTO 00000KT 7SM CLR 24/23 A3004=
KGBG 080805Z AUTO 21006KT 7SM OVC004 23/22 A3001=
KHSB 080805Z AUTO 00000KT 7SM CLR 22/21 A3004=
KIJX 080805Z AUTO 00000KT 3SM BR SCT034 BKN050 BKN090 24/23
     A3004=
KJOT 080806Z AUTO 00000KT 2 1/2SM DZ 23/22 A3003=
KLOT 080801Z AUTO 00000KT 7SM -RA SCT033 SCT060 OVC100 22/21
     A3004=
KMQB 080805Z AUTO 00000KT 10SM OVC006 23/23 A3004=
KMWA 080805Z AUTO 16003KT 10SM CLR 24/23 A3006=
KOLY 080803Z AUTO 00000KT 5SM BR CLR 23/22 A3004=
KPNT 080805Z AUTO 00000KT 3SM BR SCT032 BKN055 OVC085 23/22
     A3004=
KPPQ 080805Z AUTO 00000KT 3SM RA SCT003 SCT020 OVC035 23/23
     A3005=
KPRG 080805Z AUTO 00000KT 5SM BR SCT060 SCT075 OVC110 22/21
     A3005=
KSAR 080805Z AUTO 19004KT 10SM SCT055 26/23 A3004=
KSLO 080800Z AUTO 19003KT 10SM CLR 25/21 A3005=
KTAZ 080805Z AUTO 00000KT 7SM CLR 23/23 A3003=
####018000083####
SACN70 CWAO 080800 RRA
PSU SA 0800 AUTO8 M M M 193/15/14/2902/M/ 3003 98MM=

####018000083####
SACN60 CWAO 080800 RRA
PCI SA 0800 AUTO8 M M M 217/14/10/MMMM/M/ 8001 39MM=

####018000247####
SACN50 CWAO 080800 RRA
VQZ SA 0800 AUTO8 M M M 187/13/11/0000/M/ 1011 28MM=
VSL SA 0800 AUTO8 M M M 190/13/09/0403/M/ 1005 96MM=
VXS SA 0800 AUTO8 M M M 185/11/08/2003/M/ 2004 91MM=
ZKA SA 0800 AUTO8 M M M 176/19/M/1302/M/ 2020 1MMM=

####018000078####
SACN97 CWAO 080700 RRG
XNM SA 0700 AUTO7 M M M M/19/16/2408/M/ M 52MM=

####018000583####
SACN95 CWAO 080800 RRA
WTG SA 0800 AUTO8 M M M 161/12/M/0416/M/ PK WND 0418 0727Z 3006
3MMM=
WTN SA 0800 AUTO8 M M M 155/16/16/1302/M/ 3006 37MM=
WTS SA 0800 AUTO8 M M M 182/10/09/1801/M/ 0001 14MM=
WTT SA 0800 AUTO8 M M M M/24/24/2102/M/M M 25MM=
WVC SA 0800 AUTO8 M M M 208/13/11/2305/M/ 2002 98MM=
WVO SA 0800 AUTO8 M M M M/13/11/2603/M/ M 08MM=
WVP SA 0800 AUTO8 M M M 220/10/07/3301/M/ 0002 11MM=
WVU SA 0800 AUTO8 M M M 198/15/15/1611/M/ 5005 07MM=
WWP SA 0800 AUTO8 M M M 177/12/09/3204/M/ 1004 11MM=
WXB SA 0800 AUTO8 M M M M/08/07/3004/M/ M 86MM=

####018000083####
SACN95 CWAO 080700 RRF
WTN SA 0700 AUTO8 M M M 153/17/16/0903/M/ 1008 81MM=

####018000405####
SACN90 CWAO 080800 RRA
WEI SA 0800 AUTO8 M M M 180/14/13/2503/M/ 3005 65MM=
WFE SA 0800 AUTO8 M M M M/14/11/2202/M/ M 01MM=
WFF SA 0800 AUTO8 M M M 189/10/07/2706/M/ 0000 03MM=
WFO SA 0800 AUTO8 M M M 147/14/09/2805/M/M 1001 02MM=
WFW SA 0800 AUTO7 M M M 163/14/13/0502/M/ 3005 53MM=
WGM SA 0800 AUTO8 M M M M/07/06/2105/M/ M 75MM=
WGN SA 0800 AUTO8 M M M 153/15/12/2608/M/M 8001 90MM=

####018000248####
SACN82 CWAO 080800 RRA
MFM SA 0800 AUTO8 M M M 167/17/16/2901/M/ 6001 14MM=
MLU SA 0800 AUTO8 M M M 150/23/22/1903/M/ 1001 90MM=
MSI SA 0800 AUTO8 M M M 163/24/22/2003/M/ 1001 73MM=
MTH SA 0800 AUTO8 M M M 161/21/20/1501/M/ 5001 04MM=

####018000083####
SACN63 CWAO 080800 RRA
XAR SA 0800 AUTO8 M M M 022/08/07/0606/M/ 5004 62MM=

####018000138####
SACN59 CWAO 080800 RRA
WCT SA 0800 AUTO8 M M M 215/11/11/2505/M/ 2001 77MM=
WLB SA 0800 AUTO8 M M M 179/15/12/2603/M/ 8003 63MM=

####018000516####
SACN88 CWAO 080800 RRA
ABR SA 0800 AUTO7 M M M 207/17/17/0000/M/ 3003 17MM=
AFC SA 0800 AUTO8 M M M 174/20/18/1904/M/ 5000 55MM=
AHK SA 0800 AUTO7 M M M 194/16/16/2404/M/M 3002 07MM=
AHW SA 0800 AUTO7 M M M M/17/16/1001/M/M M 08MM=
AOS SA 0800 AUTO7 M M M M/15/15/2105/M/M M 22MM=
ARP SA 0800 AUTO8 M M M 153/19/19/0601/M/ 2003 17MM=
AVA SA 0800 AUTO8 M M M 229/08/08/1511/M/ 6002 35MM=
WBK SA 0800 AUTO8 M M M 187/18/17/2005/M/ 3003 30MM=
XGD SA 0800 AUTO8 M M M 215/09/08/MMMM/M/ 8004 33MM=

####018000323####
SACN98 CWAO 080800 RRA
XTO SA 0800 AUTO8 M M M 163/26/23/MMMM/M/ 8004 72MM=
XVN SA 0800 AUTO8 M M M 152/24/21/2005/M/ 8006 70MM=
XZV SA 0800 AUTO8 M M M 170/12/12/1303/M/0003 PCPN 0.3MM PAST HR
2002 22MM=
ZKD SA 0800 AUTO8 M M M M/12/10/2703/M/ M 37MM=
ZMJ SA 0800 AUTO8 M M M 203/13/11/3006/M/ 3006 63MM=

####018000593####
SACN89 CWAO 080800 RRA
WBL SA 0800 AUTO8 M M M 153/15/11/2913+18/M/M PK WND 2918 0758Z
3001 27MM=
WBM SA 0800 AUTO8 M M M 170/16/08/1301/M/ 8002 41MM=
WBT SA 0800 AUTO8 M M M 173/13/13/0703/M/ 3001 99MM=
WBZ SA 0800 AUTO8 M M M 151/24/22/2403/M/ 1001 36MM=
WCO SA 0800 AUTO8 M M M 150/24/21/1902/M/ 6005 72MM=
WDI SA 0800 AUTO8 M M M M/11/11/2301/M/ M 28MM=
WDJ SA 0800 AUTO8 M M M 194/12/11/3406/M/ 2005 77MM=
WDU SA 0800 AUTO8 M M M M/13/09/1809/M/M M 58MM=
WDV SA 0800 AUTO8 M M M 158/13/13/2403/M/ 8009 28MM=
WDW SA 0800 AUTO8 M M M 192/07/06/MMMM/M/ 6011 80MM=

####018000271####
SACN47 CWAO 080800 RRA
METAR CYGP 080800Z 00000KT 15SM BKN120 16/15 A2997 RMK AC5 VIA YQB
FIC SLP149=
METAR CYQT 080800Z 21003KT 15SM FEW004 BKN040 OVC100 18/17 A2998 RMK
ST1SC6AC2 SLP152=
METAR CYRJ 080800Z 25005KT 12SM FEW045 22/19 A2997 RMK SC2 SLP147=

####018000242####
SACN91 CWAO 080800 RRA
WGX SA 0800 AUTO8 M M M 089/12/10/2504/M/ 6007 69MM=
WIP SA 0800 AUTO7 M M M M/12/M/1303/M/ M 2MMM=
WIW SA 0800 AUTO8 M M M 196/11/10/2705/M/ 0000 70MM=
WJH SA 0800 AUTO8 M M M 133/10/07/2703/M/ 8003 33MM=

####018000097####
SACN41 CWAO 080800 RRA
METAR CYMA 080800Z 00000KT 20SM FEW050 13/07 A3006 RMK SC1 SLP190=

####018000243####
SACN93 CWAO 080800 RRA
WNE SA 0800 AUTO8 M M M 160/21/17/2210/M/ 3003 11MM=
WOE SA 0800 AUTO8 M M M M/12/07/3509/M/ M 22MM=
WOK SA 0800 AUTO8 M M M 199/12/10/0603/M/ 1003 93MM=
WPG SA 0800 AUTO8 M M M 159/16/13/2604/M/ 3004 62MM=

####018000138####
SACN66 CWAO 080800 RRA
WBD SA 0800 AUTO8 M M M 187/11/10/2703/M/ 7002 92MM=
WIK SA 0800 AUTO8 M M M 185/12/12/3003/M/ 1001 25MM=

####018000601####
SACN97 CWAO 080800 RRA
XBO SA 0800 AUTO8 M M M M/18/17/0910/M/ M 43MM=
XDW SA 0800 AUTO8 M M M M/16/13/2609/M/ M 05MM=
XEA SA 0800 AUTO8 M M M 134/14/12/2002/M/ 6007 24MM=
XHA SA 0800 AUTO8 M M M 152/25/21/2404/M/ 8006 97MM=
XHF SA 0800 AUTO8 M M M M/19/19/MMMM/M/ M 37MM=
XMY SA 0800 AUTO8 M M M M/18/17/MMMM/M/ M 56MM=
XNM SA 0800 AUTO7 M M M M/19/16/2510+16/M/ M 68MM=
XRH SA 0800 AUTO7 M M M M/14/12/0903/M/ M 53MM=
XSW SA 0800 AUTO7 M M M M/07/06/1402/M/ M 24MM=
XVG SA 0800 AUTO8 M M M 164/16/09/1806/M/ 7002 73MM=
XZU SA 0800 AUTO8 M M M 187/13/10/0000/M/ 7001 33MM=

####018000428####
SACN94 CWAO 080800 RRA
WQF SA 0800 AUTO8 M M M M/16/08/2702/M/ M 61MM=
WQP SA 0800 AUTO8 M M M 159/23/22/2506/M/ 8005 65MM=
WQY SA 0800 AUTO8 M M M 105/09/09/3610/M/0002 PCPN 0.2MM PAST HR
2003 39MM=
WRM SA 0800 AUTO8 M M M 213/08/07/1302/M/ 7003 20MM=
WRT SA 0800 AUTO8 M M M M/06/06/0000/M/ M 11MM=
WSF SA 0800 AUTO8 M M M 164/12/12/2807/M/ 3015 87MM=
WSN SA 0800 AUTO8 M M M 175/21/19/MMMM/M/ 7006 50MM=

####018000083####
SACN82 CWAO 080700 RRB
MSI SA 0700 AUTO8 M M M 163/24/22/2003/M/ 6001 12MM=

####018000584####
SACN96 CWAO 080800 RRA
WXS SA 0800 AUTO8 M M M 149/16/16/1701/M/ 2002 47MM=
WYY SA 0800 AUTO8 M M M 167/16/14/0202/M/0016 PCPN 1.6MM PAST HR
1015 95MM=
WZA SA 0800 AUTO8 M M M 146/20/16/2902/M/ 1015 46MM=
WZE SA 0800 AUTO8 M M M M/11/10/2904/M/ M 23MM=
WZL SA 0800 AUTO8 M M M 182/23/07/2909/M/ 0000 93MM=
WZQ SA 0800 AUTO8 M M M 183/22/17/1809/M/M 5000 55MM=
WZT SA 0800 AUTO8 M M M M/11/M/MMMM/M/ M 6MMM=
XOA SA 0800 AUTO8 M M M 143/23/20/3102/M/ 8002 40MM=
XPT SA 0800 AUTO8 M M M M/26/22/MMMM/M/M M 62MM=
ZUG SA 0800 AUTO8 M M M M/16/12/2811/M/ M 63MM=

####018000359####
SACN78 CWAO 080800 RRA
TAG SA 0800 AUTO8 M M M 162/15/14/2203/M/ 8006 47MM=
TKR SA 0800 AUTO8 M M M 143/17/12/2607/M/ 8006 84MM=
TMS SA 0800 AUTO8 M M M 139/19/17/0000/M/ 8012 62MM=
WAJ SA 0800 AUTO8 M M M 164/24/21/MMMM/M/M 7005 67MM=
WLS SA 0800 AUTO8 M M M 173/21/20/1702/M/ 6006 46MM=
XZC SA 0800 AUTO8 M M M 116/19/15/2801/M/ 7013 33MM=

####018000407####
SACN92 CWAO 080800 RRA
WJT SA 0800 AUTO8 M M M 157/18/17/0401/M/ 0000 79MM=
WJX SA 0800 AUTO8 M M M 208/12/11/2603/M/ 3003 87MM=
WKA SA 0800 AUTO8 M M M M/M/M/2803/M/M M MMMM=
WLV SA 0800 AUTO8 M M M 186/09/06/2101/M/ 8001 63MM=
WMI SA 0800 AUTO8 M M M 151/16/15/1504/M/ 3002 78MM=
WMJ SA 0800 AUTO8 M M M 159/19/19/2701/M/ 8003 05MM=
WMQ SA 0800 AUTO8 M M M 213/11/09/2105/M/ 1001 19MM=

####018000136####
SACN85 CWAO 080800 RRA
WPK SA 0800 AUTO8 M M M 169/17/M/3102/M/ 4000 9MMM=
WWE SA 0800 AUTO8 M M M 201/15/M/2404/M/ 5003 8MMM=

####018000203####
SACN31 CWAO 080800 RRA
METAR CYUL 080800Z 24005KT 15SM BKN075 25/21 A2998 RMK AC6 VIA YQB
FIC SLP152=
METAR CYZX 080800Z 14002KT 1/2SM FG VV002 16/16 A3012 RMK FG8 WNDY
HILL 22006KT SLP201=

####018000182####
SAUS44 KWBC 080800 RRB
METAR
K11R 080804Z AUTO 06005KT 7SM CLR 25/24 A2994=
KBPG 080805Z AUTO 19003KT 10SM CLR 22/21 A3009=
KBYY 080806Z AUTO 09005KT 10SM CLR 27/26 A2988=
####018000083####
SAUS52 KWBC 080800 RRB
METAR
KSEP 080805Z AUTO 00000KT 10SM CLR 23/21 A3001=
####018000316####
SAPS31 NZKL 080800
METAR NCRG 080800Z 08003KT 9999 SCT014 BKN290 24/23 Q1017=
METAR NFTF 080800Z 19002KT 9999 FEW015 18/18 Q1015=
METAR NGFU 080800Z 08080Z 07007KT 50KM FEW020 SCT310 28/24 1009=
METAR NIUE 080800Z AUTO 15004KT //// ////// 25/24 Q1014=
METAR NSFA 080800Z 07006KT 45KM FEW020 27/25 Q1011=
####018000113####
SAUS45 KCYS 080812
MTRECS
SAUS70 KECS 080807
METAR KECS 080759Z AUTO 09004KT 10SM CLR 13/09 A3030 RMK

####018000113####
SAUS45 KCYS 080812
MTRW43
SAUS70 KW43 080705
METAR KW43 080655Z AUTO 19009KT 10SM CLR 09/07 A3029 RMK

####018000086####
SAUS53 KWBC 080800 RRC
METAR
KLNC 080805Z AUTO 00000KT 10SM SCT014 24/24 A3000=
####018000103####
SPUS53 KWBC 080812
SPECI
KUIN 080808Z AUTO 00000KT 3SM RA BR FEW014 SCT020 OVC046 23/22
A3003=
####018000079####
SPAL40 DAMM 080807
SPECI
DAUA 080807Z 01030KT 0700 BLSA NSC 36/07 Q1014=
####018000079####
SAFR32 LFPW 080800 RRB
METAR LFLB 080809Z VRB02KT CAVOK 24/16 Q1021 NOSIG=
####018000130####
SPIV20 DIAP 080810
SPECI DIAP 080810Z 27005KT 4000 -RA SCT005 BKN012 BKN080 25/24 Q1015
TEMPO 2000 RA BKN005 BKN012 OVC080=
####018000082####
SPUS72 KWBC 080812
SPECI
KLRD 080808Z AUTO 00000KT 10SM BKN013 26/24 A2989=
####018000083####
SASD31 OEJD 080800 RRA
METAR OYSN 080800Z 06012G23KT 4000 DU NSC 30/M04 Q1023=
####018000665####
SAUZ31 UTTW 080800
UTFN NIL=
METAR UTNN 080800Z 19006MPS 160V220 CAVOK 41/08 Q1008 R15/CLRD70
NOSIG=
METAR UTNU 080800Z 21003MPS 170V250 CAVOK 41/13 Q1008 R13/CLRD60
NOSIG=
UTSA NIL=
METAR UTSB 080800Z 02006MPS CAVOK 40/06 Q1008 R01/CLRD70 NOSIG=
METAR UTSH 080800Z 18002MPS 9999 NSC 39/13 Q1014 R99/CLRD070=
METAR UTSK 080800Z 32003MPS CAVOK 40/13 Q1007 R16/CLRD70=
METAR UTSS 080800Z 09004MPS 9999 NSC 34/12 Q1011 R88/CLRD70 NOSIG=
METAR UTST 080830Z VRB01MPS CAVOK 40/02 Q1007 R88/CLRD70 NOSIG=
METAR UTTT 080800Z 27003MPS 180V350 CAVOK 38/09 Q1011 R08R/CLRD70
NOSIG=
METAR UTTP 080800Z 07001MPS CAVOK 37/10 Q1011 R88/CLRD70 NOSIG=
####018000103####
SPUS73 KWBC 080812
SPECI
KGRR 080809Z AUTO 25006KT 5SM RA BR SCT016 BKN027 OVC060 24/22
A3006=
####018000103####
SPUS73 KWBC 080812
SPECI
KUIN 080808Z AUTO 00000KT 3SM RA BR FEW014 SCT020 OVC046 23/22
A3003=
####018000083####
SAUS73 KWBC 080800 RRD
METAR
KALN 080803Z AUTO 00000KT 10SM CLR 25/24 A3003=
####018000088####
SPUS81 KWBC 080812
SPECI
KEMP 080809Z AUTO 12003KT 9SM SCT005 OVC070 22/20 A3008=
####018000103####
SPUS81 KWBC 080812
SPECI
KGRR 080809Z AUTO 25006KT 5SM RA BR SCT016 BKN027 OVC060 24/22
A3006=
####018000085####
SANA14 KAWN 080800 RRD
METAR SEGU 080800Z 20005KT 9999 BKN030 23/19 Q1011 NOSIG=
####018000749####
SAXX70 KAWN 080800 RRK
METAR KQFU 080750Z AUTO 07004KT 7SM OVC050 26/17 A2988 RMK A02=
METAR KQCC 080755Z AUTO VRB05KT 9999 CLR 40/14 A2982 RMK AO2 SLP027
      T03970137 $=
METAR KQEI 080810Z AUTO 24007KT 7SM CLR 27/18 A2992 RMK A02=
METAR KQEN 080810Z AUTO 23006KT 7SM FEW003 SCT021 SCT070 19/17 A3039
      RMK A02=
METAR KQEP 080810Z AUTO 25004KT 7SM CLR 29/17 A2983 RMK A02=
METAR KQER 080810Z AUTO 34001KT 7SM -RA FEW040 26/18 A2988 RMK A02=
METAR KQES 080810Z AUTO 30005KT 5SM BR FEW100 21/18 A2983 RMK A02=
METAR KQEY 080810Z AUTO 32004KT 7SM CLR 29/15 A2958 RMK A02=
METAR KQFV 080810Z AUTO 02004KT 7SM FEW009 SCT015 BKN039 26/18 A3000
      RMK A02=
METAR KQEV 080820Z AUTO 29003KT 7SM CLR 30/16 A2976 RMK A02=
####018000106####
SAUS46 KLOX 080812
MTRSMX
SPECI KSMX 080811Z AUTO 32003KT 10SM OVC009 13/11 A2992 RMK AO2 TSNO 
$
####018000228####
SANG31 YBBN 080800
METAR AYPY 080800Z NIL=
METAR AYWK 080800Z NIL=
METAR AYVN 080800Z NIL=
METAR AYNZ 080800Z NIL=
METAR AYMH 080800Z NIL=
METAR AYGN 080800Z NIL=
METAR AYMO 080800Z NIL=
METAR AGGH 080800Z NIL=
####018000132####
SPAF31 KWBC 080813
SPECI
DIAP 080810Z 27005KT 4000 -RA SCT005 BKN012 BKN080 25/24 Q1015
TEMPO 2000 RA BKN005 BKN012 OVC080=
####018000077####
SPAL40 DAMM 080807
SPECI
DAUA 080807Z 01030KT 0700 BLSA NSC 36/07 Q1014=
####018001396####
SAAU31 YBBN 080800
METAR YPAD 080800Z 00000KT 9999 FEW045 12/09 Q1025=
METAR YBAS 080800Z 11009KT 9999 FEW034 15/06 Q1019=
METAR YBBN 080800Z 19009KT 9999 FEW040 BKN077 BKN105 18/10 Q1019
NOSIG=
METAR YBCS 080800Z 15007KT 9999 FEW024 BKN045 24/19 Q1015=
METAR YSCB 080800Z 08005KT 9999 FEW050 07/03 Q1027
RMK USE TAF FOR ARRIVALS AFTER 0900Z
NOSIG=
METAR YPXM 080800Z NIL=
METAR YPCC 080800Z 13008KT 9999 FEW021 28/22 Q1012=
METAR YCFS 080800Z NIL=
METAR YPDN 080800Z 02013KT CAVOK 29/20 Q1011=
METAR YBCG 080800Z AUTO 19010KT 9000NDV // SCT022 BKN033 OVC055 15/13
Q1020=
METAR YHID 080800Z AUTO 13012KT 9999NDV // SCT019 BKN035 OVC057 26/23
Q1011=
METAR YPJT 080800Z AUTO 35012KT 6000NDV // SCT013 SCT034 BKN054 16/15
Q0999=
METAR YPKU 080800Z AUTO 13005KT 9999NDV // NCD 27/14 Q1012=
METAR YPLM 080800Z AUTO 07004KT 9999NDV // BKN057 20/17 Q1008=
METAR YMML 080800Z 19002KT 9999 FEW030 BKN042 10/04 Q1028
NOSIG=
METAR YPPH 080800Z 01011KT 9999 FEW010 SCT022 16/14 Q0999
FM0800 33018G28KT 9999 -SHRA BKN020
INTER 0800/1100 27025G35KT 3000 +SHRA BKN010=
METAR YSSY 080800Z 21010KT 9999 VCSH FEW010 SCT045 BKN055 12/12
Q1026
INTER 0815/1100 5000 SHRA BKN015=
METAR YSTW 080800Z AUTO 17010KT 9999NDV // BKN058 12/06 Q1023=
METAR YPTN 080800Z 12008KT CAVOK 28/14 Q1012=
METAR YBTL 080800Z 07008KT 9999 FEW019 SCT050 BKN170 23/20 Q1015=
####018000121####
SACZ41 LKPW 080800
METAR LKKU 080800Z 33006KT 9999 FEW030 20/12 Q1023=
METAR LKLB 080800Z VRB04KT CAVOK 21/05 Q1024=
####018001402####
SAAU32 YBBN 080800
METAR YAMB 080800Z 18009KT 9999 BKN050 BKN075 17/10 Q1020=
METAR YMAV 080800Z AUTO 14004KT 9999NDV // OVC050 09/07 Q1028=
METAR YBRM 080800Z 04008KT 9999 SCT034 BKN054 28/21 Q1010=
METAR YCIN 080800Z AUTO 09005KT //// // ////// 26/19 Q1012=
METAR YSDU 080800Z AUTO 11008KT 9999NDV // NCD 10/06 Q1024=
METAR YFRT 080800Z AUTO 02013KT //// // ////// 17/03 Q1014=
METAR YGEL 080800Z NIL=
METAR YPGV 080800Z 14012KT 9999 FEW018 BKN350 25/21 Q1012=
METAR YBHM 080800Z AUTO 15018KT //// // ////// 19/16 Q1017=
METAR YMHB 080800Z 00000KT CAVOK 06/03 Q1029=
METAR YPKG 080800Z AUTO 35012KT 9999NDV // OVC088 19/04 Q1005=
METAR YMLT 080800Z AUTO 17003KT 9999NDV // OVC037 06/03 Q1029=
METAR YBMA 080800Z AUTO 18012KT 9999NDV // NCD 14/11 Q1019=
METAR YSNF 080800Z 11010KT 3000 -DZ BR SCT010 BKN017 14/12 Q1017=
METAR YPEA 080800Z 36013KT 9999 SCT016 SCT025 16/13 Q1000
RMK USE TAF FOR ARRIVALS AFTER 0900Z
INTER 0800/1100 34020G30KT 3000 SHRA BKN010=
METAR YPPD 080800Z AUTO 04016KT 9999NDV // SCT026 BKN033 BKN120 24/20
Q1009=
METAR YSRI 080800Z AUTO 00000KT 9999NDV // OVC054 12/11 Q1027=
METAR YBRK 080800Z 25004KT 9999 VCSH FEW005 BKN030 13/12 Q1019=
METAR YWLM 080800Z 25007KT 9999 SCT020 BKN040 13/12 Q1025
USE TAF FOR ARRIVALS AFTER 1000Z
INTER 0800/1000 4000 SHRA BKN010=
METAR YPWR 080800Z AUTO 07005KT 9999NDV // NCD 13/M01 Q1023=
####018000103####
SPCN51 CWAO 080811
SPECI CWZZ 080811Z AUTO ///// 5/8SM SCT013 BKN041 BKN048 BKN059 10/
A2981=

####018000079####
SPAL31 KWBC 080813
SPECI
DAUA 080807Z 01030KT 0700 BLSA NSC 36/07 Q1014=
####018001627####
SASD20 OEJD 080800
METAR OEAB 080800Z 05018KT 7000 FEW020 SCT200 30/M01 Q1022 NOSIG=
METAR OEAH 080800Z 06013KT 9000 NSC 43/09 Q1002 NOSIG=
METAR OEBA 080800Z 09007KT 9000 SKC 35/05 Q1018 NOSIG=
METAR OEBH 080800Z 02010KT CAVOK 37/04 Q1012 NOSIG=
METAR OEDF 080800Z 36012KT 8000 NSC 43/07 Q1000 NOSIG=
METAR OEDM 080800Z NIL=
METAR OEDR 080800Z 36012KT 7000 SKC 44/09 Q0999 NOSIG=
METAR OEGN 080800Z 19007KT CAVOK 37/27 Q1003 NOSIG=
METAR OEGS 080800Z 10007KT 42/08 Q1009=
METAR OEGT 080800Z 29008KT CAVOK 33/01 Q1010=
METAR OEHL 080800Z 18018KT CAVOK 40/04 Q1013=
METAR OEJN 080800Z 30010KT CAVOK 36/25 Q1002 NOSIG=
METAR OEKB 080800Z 14010KT CAVOK 43/24=
METAR OEKJ 080800Z NIL=
METAR OEKK 080800Z 06010KT CAVOK 43/11 Q1007=
METAR OEKM 080800Z 09018KT 8000 SKC 31/05 Q1021 NOSIG=
METAR OEMA 080800Z 12008KT CAVOK 44/00 Q1007 NOSIG=
METAR OEMH 080800Z NIL=
METAR OEMK 080800Z 04002KT CAVOK 40/22 Q1001=
METAR OENG 080800Z 06008KT 5000 DU SKC 38/00 Q1013 NOSIG=
METAR OEPA 080800Z NIL=
METAR OERF 080800Z 04003KT CAVOK 41/12 Q1007=
METAR OERK 080800Z 02014KT CAVOK 41/00 Q1008 NOSIG=
METAR OERR 080800Z 14013KT CAVOK 42/10 Q1007=
METAR OERY 080800Z 06012G22KT 5000 DU NSC 42/02 Q1009 NOSIG=
METAR OESH 080800Z 01010KT 5000 DU SKC 41/13 Q1004 NOSIG=
METAR OESK 080800Z 29007KT CAVOK 39/01 Q1010=
METAR OETB 080800Z 24004KT CAVOK 34/08 Q1011 NOSIG=
METAR OETF 080800Z 12008KT CAVOK 36/05 Q1016 NOSIG=
METAR OETR 080800Z 07006KT CAVOK 36/04 Q1011=
METAR OEWD 080800Z 07014KT 8000 SKC 42/09 Q1006=
METAR OEWJ 080800Z 30018KT CAVOK 33/27 Q1004=
METAR OEYN 080800Z 18004KT CAVOK 39/15 Q1001 NOSIG=
####018000622####
SAAL33 DAAA 080800
METAR DAAD 080800Z 00000KT CAVOK 31/12 Q1022=
METAR DAAE 080800Z 26007KT CAVOK 26/18 Q1018=
METAR DAAJ 080800Z 09012KT CAVOK 32/07 Q1021=
METAR DAAP 080800Z 16016KT CAVOK 37/10 Q1016=
METAR DAAV 080800Z 00000KT CAVOK 27/18 Q1018=
METAR DABT 080800Z 36004KT CAVOK 25/12 Q1022=
METAR DAFH 080800Z 12012KT CAVOK 31/17 Q1022=
METAR DATG 080800Z NIL=
METAR DATM 080800Z NIL=
METAR DAUE 080800Z 03007KT CAVOK 32/12 Q1020=
METAR DAUI 080800Z NIL=
METAR DAUK 080800Z 14006KT CAVOK 28/18 Q1017=
METAR DAUO 080800Z 10008KT CAVOK 30/18 Q1018=
METAR DAUT 080800Z ///19KT 7000 DRSA  NSC 34/10 Q1016=
####018000455####
SAAL32 DAAA 080800
METAR DAAS 080800Z 18005KT CAVOK 27/17 Q1024=
METAR DABS 080800Z 00000KT CAVOK 26/13 Q1023=
METAR DAOB 080800Z 00000KT CAVOK 29/09 Q1023=
METAR DAOF 080800Z NIL=
METAR DAOR 080800Z 09006KT CAVOK 34/05 Q1023=
METAR DAUA 080800Z 01026KT 3000 DRSA NSC 36/07 Q1014=
METAR DAUB 080800Z 11014KT CAVOK 31/15 Q1018=
METAR DAUG 080800Z NIL=
METAR DAUU 080800Z 12012KT CAVOK 33/18 Q1018=
METAR DAUZ 080800Z 05013KT CAVOK 33/07 Q1017=
####018000447####
SAAO33 DRRN 080800
METAR DBBB 080800Z 23007KT 200V270 6000 SCT011 BKN110 27/25 Q1014
NOSIG=
METAR DFFD 080800Z 0000KT 9999 -RA FEW016 BKN100 23/22 Q1017 NOSIG=
METAR DGAA 080800Z NIL=
METAR DNKN 080800Z NIL=
METAR DNMM 080800Z 00000KT 6000 SCT010 26/25 Q1015 NOSIG=
METAR DRRN 080800Z 00000KT CAVOK 26/21 Q1013 NOSIG=
METAR DXXX 080800Z 25005KT 210V300 8000 FEW010 26/24 Q1015 NOSIG=
METAR FTTJ 080800Z 20010KT CAVOK 26/23 Q1014 NOSIG=
####018000072####
SAAL31 DAAA 080800 RRA
METAR DAAT 080800Z 12018KT CAVOK 30/02 Q1022=
####018001008####
SAAG05 SABM 080800
METAR SAAR 080800Z  00000KT CAVOK 02/M00 Q1019=
METAR SABE 080800Z NIL=
METAR SACO 080800Z  36008KT CAVOK 07/M01 Q1020=
METAR SADF 080800Z NIL=
METAR SAEZ 080800Z 28006KT CAVOK 04/00 Q1019=
METAR SAME 080800Z 00000KT CAVOK 04//M04 Q1015=
METAR SANT 080800Z  32006KT 9999  08/06 Q1019=
METAR SAOC 080800Z NIL=
METAR SARC 080800Z  18008KT 9999  10/08 Q1018=
METAR SARE 080800Z 16005KT CAVOK 09/08 Q1018=
METAR SARF 080800Z  18010KT 9999  OVC007  14/13
Q1017=
METAR SARI 080800Z  00000KT CAVOK 15/14 Q1018=
METAR SARL 080800Z NIL=
METAR SARP 080800Z  11003KT 9999 BR OVC005  14/13
Q1017=
METAR SASA 080800Z 34004KT 9999SCT025 OVC100 12/08 Q 1021=
METAR SASJ 080800Z NIL=
METAR SAVC 080800Z  27015KT CAVOK 06/M02 Q0998=
METAR SAWE 080800Z NIL=
METAR SAWG 080800Z  29008KT 9999  SCT030 SCT100
M03/M04 Q0990=
METAR SAWH 080800Z  27003KT 9999  SCT035 BKN100
02/M01 Q0985=
METAR SAZM 080800Z  32007KT CAVOK 03/00 Q1014=
METAR SAZN 080800Z NIL=
METAR SAZS 080800Z NIL=
####018000078####
SAAO33 DRRN 080800 RRA
METAR DNKN 080800Z 22010KT CAVOK 26/21 Q1014 NOSIG=
####018000074####
SAAG01 SABM 080800 RRC
METAR SADF 080800Z  00000KT CAVOK 04/02 Q1019=
####018000634####
SAUS20 KNKA 080812
METAR K36U 080815Z AUTO 00000KT 10SM CLR 12/04 A3019 RMK AO2=
SPECI KBED 080811Z AUTO 18003KT 4SM BR OVC011 24/22 A3004 RMK AO2=
METAR KDUC 080812Z AUTO 09003KT 10SM CLR 22/22 A3003 RMK AO2=
SPECI KHIB 080811Z AUTO 00000KT 1/2SM FG CLR 09/09 A3005 RMK AO2=
SPECI KHTS 080811Z 00000KT 1SM BR CLR 21/21 A3007 RMK AO2=
SPECI KMIV 080811Z AUTO 00000KT 3SM BR OVC004 24/23 A2999 RMK AO2=
METAR KMZZ 080755Z AUTO 00000KT 7SM CLR 20/18 A3007 RMK AO2=
METAR KONM 080807Z AUTO 00000KT 10SM SCT060 19/14 A3022 RMK AO2 
     T01900140=
SPECI KSLK 080811Z AUTO 00000KT 2 1/2SM BR CLR 17/16 A3008 RMK AO2=
####018000084####
SPUS42 KWBC 080813
SPECI
KAUS 080810Z 06005KT 10SM BKN016 OVC025 26/23 A2995=
####018000084####
SPUS42 KWBC 080813
SPECI
KSAT 080810Z 07005KT 10SM BKN014 BKN250 26/23 A2995=
####018000084####
SPUS52 KWBC 080813
SPECI
KAUS 080810Z 06005KT 10SM BKN016 OVC025 26/23 A2995=
####018000079####
SAIR32 OIII 080800 RRA
METAR OITR 080750Z 02004KT CAVOK 31/12 Q1015 A2998=
####018000079####
SPUS53 KWBC 080813
SPECI
KSTC 080810Z AUTO 00000KT 10SM CLR 14/13 A3008=
####018000082####
SPUS54 KWBC 080813
SPECI
KSMX 080811Z AUTO 32003KT 10SM OVC009 13/11 A2992=
####018000084####
SPUS72 KWBC 080813
SPECI
KAUS 080810Z 06005KT 10SM BKN016 OVC025 26/23 A2995=
####018000084####
SPUS72 KWBC 080813
SPECI
KSAT 080810Z 07005KT 10SM BKN014 BKN250 26/23 A2995=
####018000079####
SPUS73 KWBC 080813
SPECI
KSTC 080810Z AUTO 00000KT 10SM CLR 14/13 A3008=
####018000082####
SPUS74 KWBC 080813
SPECI
KSMX 080811Z AUTO 32003KT 10SM OVC009 13/11 A2992=
####018000084####
SPUS81 KWBC 080813
SPECI
KSAT 080810Z 07005KT 10SM BKN014 BKN250 26/23 A2995=
####018000082####
SPUS81 KWBC 080813
SPECI
KSMX 080811Z AUTO 32003KT 10SM OVC009 13/11 A2992=
####018000079####
SPUS81 KWBC 080813
SPECI
KSTC 080810Z AUTO 00000KT 10SM CLR 14/13 A3008=
####018000762####
SACO20 SKBO 080800
METAR
SKAR 080800Z NIL=
SKBG 080800Z NIL=
SKBO 080800Z VRB02KT 9999 BKN012 11/11 A3029=
SKBQ 080800Z 29004KT 2000 BCFG BKN002 25/25 A2987=
SKCC 080800Z NIL=
SKCG 080800Z VRB02KT 9999 FEW012 SCT070 28/26 A2987=
SKCL 080800Z 00000KT 9999 FEW025 BKN100 20/18 A2999=
SKEJ 080800Z NIL=
SKIB 080800Z NIL=
SKIP 080800Z NIL=
SKLC 080800Z NIL=
SKLT 080800Z NIL=
SKMD 080800Z NIL=
SKMR 080800Z NIL=
SKMZ 080800Z NIL=
SKNV 080800Z NIL=
SKPC 080800Z NIL=
SKPE 080800Z NIL=
SKPS 080800Z NIL=
SKPV 080800Z NIL=
SKRG 080800Z 00000KT 9999 BKN006 BKN080 14/14 A3027=
SKRH 080800Z NIL=
SKSM 080800Z NIL=
SKSP 080800Z NIL=
SKUC 080800Z NIL=
SKUI 080800Z NIL=
SKVP 080800Z NIL=
SKVV 080800Z NIL=
NNNN
####018000184####
SANA35 KAWN 080800 RRE
METAR KVPS 080755Z COR 33001KT 10SM SKC 24/24 A3002 RMK AO2A SLP166
      T02430238 COR 0811=
METAR MKJS 080800Z 00000KT 9999 SCT022 SCT200 25/22 Q1012=
####018000126####
SATH32 VTBB 080800 RRB
METAR VTSG 080800Z 21010KT 180V240 9999 SCT020 BKN300 31/25 Q1008
           A2979 RWY32 INFO I=
####018000083####
SAGL31 BGSF 080750 CCA
METAR COR BGGH 080750Z 01003KT 9999 OVC003 05/03 Q1010=
####018000073####
SAAL31 DAAA 080730 RRB
METAR DAAT 080730Z 11014KT CAVOK 30/02 Q1022=
####018000094####
SPCN46 CWAO 080812
SPECI CYVQ 080812Z 08002KT 30SM BKN040 BKN080 BKN270 RMK SC6AC1CI1=

####018000412####
SPUS17 KAWN 080813
SPECI KFAF 080805Z 00000KT 8SM FEW065 BKN090 26/26 A2995 RMK AO2A RAE0805
      SLP142=
SPECI KFFO 080800Z 00000KT 9SM R23R/5500VP6000FT CLR 22/21 A3007 RMK
      AO2A VIS 2 1/2 RWY05L SLP176=
SPECI KLFI 080807Z 11005KT 9SM R08/5500FT BKN008 OVC150 26/24 A2996
      RMK AO2A SLP146 $=
SPECI KLTS 080807Z AUTO 01004KT 10SM -DZ CLR 23/22 A3005 RMK AO2 DZB0807
      SLP157 $=
####018000102####
SPUS90 KWBC 080814
SPECI KSMX 080811Z AUTO 32003KT 10SM OVC009 13/11 A2992 RMK AO2
     TSNO $=
####018000104####
SAAH10 OAKN 080800
METAR OAKN 080750Z 00000KT 9000 HZ SKC 40/10 Q1009 BLU NOSIG RMK A2981
DA6900=
####018000109####
SACN99 CQCM 080800
METAR CQCM 080800Z  30004KT 8SM  SKC 42/18 A2956 RMK
WND/ALTM ESTD T04240177=


####018000148####
SAAE31 VTBB 080800 CCA
METAR COR VTBS 080800Z 26006KT 180V280 9999 TS FEW020CB SCT035
           BKN300 34/22 Q1006 TS NW CB N, NE,NW  NOSIG=
####018000128####
SAAK41 KNKA 080813
SPECI PACM 080811Z AUTO 31006KT 1 1/2SM RA FEW004 SCT019 BKN044 
    12/08 A3009 RMK AO2 TSNO P0007 $=
####018002932####
SAUS20 KNKA 080813
METAR K1F0 080808Z AUTO 00000KT 10SM OVC032 24/24 A3000 RMK AO2=
METAR K4O4 080808Z AUTO 09003KT 10SM SCT001 BKN013 23/22 A3004 
     RMK AO2=
METAR KADH 080810Z AUTO 00000KT 5SM BR BKN004 OVC070 23/22 A3002 
     RMK AO2=
METAR KADM 080810Z AUTO 00000KT 10SM BKN033 OVC039 23/23 A3001 
     RMK AO2=
METAR KALM 080810Z AUTO 32009KT 10SM CLR 20/13 A3014 RMK AO2=
METAR KATS 080810Z AUTO 35008KT 9SM -RA BKN049 BKN055 18/17 A3015 
     RMK AO2=
SPECI KAVX 080812Z AUTO 29003KT 2SM BR OVC001 12/12 A2993 RMK AO2 
    VIS 1 1/2V4 TSNO=
METAR KAXS 080810Z AUTO 02003KT 10SM -RA CLR 24/22 A3006 RMK AO2 
     T02350215=
METAR KAXX 080810Z AUTO 00000KT 10SM CLR 06/05 A3047 RMK AO2=
METAR KBVS 080810Z AUTO 05006KT 10SM CLR 21/15 A2997 RMK A01 P000=
METAR KCHK 080811Z AUTO 36003KT 7SM SCT021 SCT095 23/23 A3004 RMK 
     AO2=
METAR KCLK 080813Z AUTO 03005KT 10SM CLR 22/21 A3007 RMK AO2=
METAR KCQB 080810Z AUTO 07005KT 10SM 23/23 A3003 RMK AO2 TSNO=
METAR KCUH 080810Z AUTO 36006KT 10SM OVC016 24/23 A3003 RMK AO2=
METAR KDUA 080817Z AUTO 16005KT 10SM SCT080 25/23 A3001 RMK AO2=
METAR KFET 080810Z AUTO 34003KT 10SM CLR 18/17 A3014 RMK AO2=
METAR KGCD 080810Z AUTO 10006KT 10SM CLR 17/04 A3010 RMK AO2 
     T01650042=
METAR KGCM 080815Z AUTO 36003KT 10SM SCT012 SCT047 SCT055 22/22 
     A3005 RMK AO2 LTG DSNT SW AND W=
METAR KGMJ 080815Z AUTO 34003KT 26/26 A3003 RMK AO2 PWINO=
METAR KIDP 080810Z AUTO 36007KT 10SM BKN032 BKN039 21/20 A3003 
     RMK AO2=
SPECI KIRK 080812Z AUTO 21003KT 2 1/2SM BR CLR 19/19 A3006 RMK AO2=
SPECI KISW 080812Z AUTO 27003KT 10SM FEW015 21/20 A3001 RMK AO2 TSNO=
METAR KIZA 080809Z AUTO 00000KT 10SM OVC009 14/11 A2991 RMK AO2=
METAR KJSV 080810Z AUTO 12003KT 10SM BKN028 BKN060 23/23 A3003 
     RMK AO2=
METAR KL35 080811Z AUTO 00000KT 10SM CLR 07/M06 A3018 RMK AO2=
METAR KLAM 080810Z AUTO 00000KT 10SM SCT080 15/09 A3037 RMK AO2=
METAR KLRU 080811Z AUTO 04008KT 10SM CLR 20/15 A3016 RMK AO2=
METAR KOJA 080810Z AUTO 00000KT 10SM BKN075 22/21 A3008 RMK AO2=
METAR KONP 080810Z AUTO 20009KT 10SM OVC002 11/10 A2999 RMK AO1=
METAR KORS 080810Z AUTO 10SM CLR 17/13 A2994 RMK AO2=
METAR KPLU 080810Z AUTO 00000KT 10SM FEW033 SCT041 SCT060 16/13 
     A2993 RMK AO2=
METAR KPTS 080810Z AUTO 00000KT 10SM CLR 22/22 A3002 RMK AO2 
     T02200221=
METAR KPVJ 080807Z AUTO 00000KT 10SM SCT007 BKN019 OVC030 24/23 
     A3002 RMK AO2=
METAR KSNL 080812Z AUTO 31003KT 10SM SCT006 OVC010 24/23 A3003 
     RMK AO2=
METAR KSVC 080810Z AUTO 05013KT 5SM RA FEW001 SCT023 BKN042 16/14 
     A3023 RMK AO2 P0002=
METAR KTEX 080811Z AUTO 12007KT 10SM SCT110 13/04 A3045 RMK AO2=
METAR KTMK 080813Z AUTO 00000KT 10SM OVC006 13/12 A2995 RMK AO2=
METAR KTQH 080814Z AUTO 00000KT 7SM SCT024 BKN040 23/23 A3004 RMK 
     AO2=
METAR KWDG 080810Z AUTO 01006KT 10SM CLR 22/22 A3007 RMK AO2=
####018000210####
SAUS20 KNKA 080813
METAR KWWR 080809Z AUTO 04007KT 10SM CLR 22/21 A3015 RMK AO2 
     T02220207=
SPECI PACM 080811Z AUTO 31006KT 1 1/2SM RA FEW004 SCT019 BKN044 
    12/08 A3009 RMK AO2 TSNO P0007 $=
####018000102####
SPBY31 UMMN 080800
SPECI UMOO 080800Z 33001MPS 9000 BKN011 BKN/// 21/19 Q1015
R31/290056 NOSIG=
####018000755####
SPUS99 KWBC 080814
SPECI
KBED 080811Z AUTO 18003KT 4SM BR OVC011 24/22 A3004 RMK AO2=
KHIB 080811Z AUTO 00000KT 1/2SM FG CLR 09/09 A3005 RMK AO2=
KHTS 080811Z 00000KT 1SM BR CLR 21/21 A3007 RMK AO2=
KMIV 080811Z AUTO 00000KT 3SM BR OVC004 24/23 A2999 RMK AO2=
KSLK 080811Z AUTO 00000KT 2 1/2SM BR CLR 17/16 A3008 RMK AO2=
PACM 080811Z AUTO 31006KT 1 1/2SM RA FEW004 SCT019 BKN044 12/08
     A3009 RMK AO2 TSNO P0007 $=
PACM 080811Z AUTO 31006KT 1 1/2SM RA FEW004 SCT019 BKN044 12/08
     A3009 RMK AO2 TSNO P0007 $=
KAVX 080812Z AUTO 29003KT 2SM BR OVC001 12/12 A2993 RMK AO2 VIS 1
     1/2V4 TSNO=
KIRK 080812Z AUTO 21003KT 2 1/2SM BR CLR 19/19 A3006 RMK AO2=
KISW 080812Z AUTO 27003KT 10SM FEW015 21/20 A3001 RMK AO2 TSNO=
####018002799####
SAUS99 KWBC 080814
METAR
K36U 080815Z AUTO 00000KT 10SM CLR 12/04 A3019 RMK AO2=
KDUC 080812Z AUTO 09003KT 10SM CLR 22/22 A3003 RMK AO2=
KMZZ 080755Z AUTO 00000KT 7SM CLR 20/18 A3007 RMK AO2=
KONM 080807Z AUTO 00000KT 10SM SCT060 19/14 A3022 RMK AO2
     T01900140=
KWWR 080809Z AUTO 04007KT 10SM CLR 22/21 A3015 RMK AO2
     T02220207=
K1F0 080808Z AUTO 00000KT 10SM OVC032 24/24 A3000 RMK AO2=
K4O4 080808Z AUTO 09003KT 10SM SCT001 BKN013 23/22 A3004 RMK
     AO2=
KADH 080810Z AUTO 00000KT 5SM BR BKN004 OVC070 23/22 A3002 RMK
     AO2=
KADM 080810Z AUTO 00000KT 10SM BKN033 OVC039 23/23 A3001 RMK
     AO2=
KALM 080810Z AUTO 32009KT 10SM CLR 20/13 A3014 RMK AO2=
KATS 080810Z AUTO 35008KT 9SM -RA BKN049 BKN055 18/17 A3015 RMK
     AO2=
KAXS 080810Z AUTO 02003KT 10SM -RA CLR 24/22 A3006 RMK AO2
     T02350215=
KAXX 080810Z AUTO 00000KT 10SM CLR 06/05 A3047 RMK AO2=
KBVS 080810Z AUTO 05006KT 10SM CLR 21/15 A2997 RMK A01 P000=
KCHK 080811Z AUTO 36003KT 7SM SCT021 SCT095 23/23 A3004 RMK
     AO2=
KCLK 080813Z AUTO 03005KT 10SM CLR 22/21 A3007 RMK AO2=
KCQB 080810Z AUTO 07005KT 10SM 23/23 A3003 RMK AO2 TSNO=
KCUH 080810Z AUTO 36006KT 10SM OVC016 24/23 A3003 RMK AO2=
KDUA 080817Z AUTO 16005KT 10SM SCT080 25/23 A3001 RMK AO2=
KFET 080810Z AUTO 34003KT 10SM CLR 18/17 A3014 RMK AO2=
KGCD 080810Z AUTO 10006KT 10SM CLR 17/04 A3010 RMK AO2
     T01650042=
KGCM 080815Z AUTO 36003KT 10SM SCT012 SCT047 SCT055 22/22 A3005
     RMK AO2 LTG DSNT SW AND W=
KGMJ 080815Z AUTO 34003KT 26/26 A3003 RMK AO2 PWINO=
KIDP 080810Z AUTO 36007KT 10SM BKN032 BKN039 21/20 A3003 RMK
     AO2=
KIZA 080809Z AUTO 00000KT 10SM OVC009 14/11 A2991 RMK AO2=
KJSV 080810Z AUTO 12003KT 10SM BKN028 BKN060 23/23 A3003 RMK
     AO2=
KL35 080811Z AUTO 00000KT 10SM CLR 07/M06 A3018 RMK AO2=
KLAM 080810Z AUTO 00000KT 10SM SCT080 15/09 A3037 RMK AO2=
KLRU 080811Z AUTO 04008KT 10SM CLR 20/15 A3016 RMK AO2=
KOJA 080810Z AUTO 00000KT 10SM BKN075 22/21 A3008 RMK AO2=
KONP 080810Z AUTO 20009KT 10SM OVC002 11/10 A2999 RMK AO1=
KORS 080810Z AUTO 10SM CLR 17/13 A2994 RMK AO2=
KPLU 080810Z AUTO 00000KT 10SM FEW033 SCT041 SCT060 16/13 A2993
     RMK AO2=
KPTS 080810Z AUTO 00000KT 10SM CLR 22/22 A3002 RMK AO2
     T02200221=
KPVJ 080807Z AUTO 00000KT 10SM SCT007 BKN019 OVC030 24/23 A3002
     RMK AO2=
KSNL 080812Z AUTO 31003KT 10SM SCT006 OVC010 24/23 A3003 RMK
     AO2=
KSVC 080810Z AUTO 05013KT 5SM RA FEW001 SCT023 BKN042 16/14 A3023
     RMK AO2 P0002=
KTEX 080811Z AUTO 12007KT 10SM SCT110 13/04 A3045 RMK AO2=
KTMK 080813Z AUTO 00000KT 10SM OVC006 13/12 A2995 RMK AO2=
KTQH 080814Z AUTO 00000KT 7SM SCT024 BKN040 23/23 A3004 RMK
     AO2=
KWDG 080810Z AUTO 01006KT 10SM CLR 22/22 A3007 RMK AO2=
####018000399####
SAID31 WIII 080800
METAR WIMM 080800Z 01007KT 7000 SCT017 33/23 Q1008 NOSIG= 
METAR WIDD 080800Z 25005KT 9999 FEW017 30/24 Q1009= 
METAR WADD 080800Z 10007KT 9999 FEW018CB FEW018 29/25 Q1008 NOSIG= 
METAR WAAA 080800Z 21005KT 9999 SCT020 30/25 Q1008= 
METAR WIII 080800Z 14010KT 110V190 8000 FEW019CB SCT02027/23 Q1009 RM
K CB TO W NOSIG= 
METAR WIHH NIL=
METAR WABB NIL=
METAR WARR NIL=
####018000735####
SAAO32 GOOY 080800
METAR GABS 080800Z 22004KT CAVOK 26/24 Q1016 NOSIG=
METAR GGOV 080800Z 20003KT 160V240 9999 FEW009 BKN014TCU FEW020CB
           27/25 Q1012  NOSIG=
METAR GOOY 080800Z 16005KT 140V200 9999 FEW013 28/24 Q1011 NOSIG=
METAR DIAP 080800Z 00000KT 5000 -RA FEW005 BKN012 BKN080 26/25 Q1015
TEMPO 3000 RA BKN005 BKN012 OVC080=
METAR GQNN 080800Z 19006KT 6000 FEW010 27/23 Q1011 NOSIG=
METAR GQPP 080800Z 35012KT 8000 NSC 22/20 Q1011 NOSIG=
METAR GUCY 080800Z 09008KT 9999 SCT015 SCT116 B25/24 Q1013=
METAR GVAC 080800Z 05012KT 9999 SCT014 BKN016 24/19 Q1012 NOSIG=
METAR GFLL 080800Z NIL=
METAR GBYD 080800Z 00000KT 9999 SCT012 26/24 Q1012=
METAR GLRB 080800Z 03004KT 9999 BKN013 FEW024CB 25/23 Q1015 CB-SW=
####018000084####
SAGL41 BGSF 080750 CCA
METAR COR BGSS 080750Z 11002KT 0300 FG VV001 04/04 Q1009=
####018000078####
SAAL32 DAAA 080800 RRA
METAR DAOF 080800Z 10008KT 4000 HZ NSC 34/06 Q1012=
####018000154####
SACN93 KWBC 080814
METAR CWNE 080800Z AUTO 22010KT 21/17 RMK AO1 SLP160 T02110171
53003=
METAR CWOE 080800Z AUTO 35009KT 12/07 RMK AO1 T01220072=
####018000523####
SACN90 KWBC 080814
METAR CWFF 080800Z AUTO 27006KT 10/07 RMK AO1 SLP189 T01000073
50000=
METAR CWGM 080800Z AUTO 21005KT 07/06 RMK AO1 T00670055=
METAR CWFF 080800Z AUTO 27006KT 10/07 RMK AO1 SLP189 T01000073
50000=
METAR CWGM 080800Z AUTO 21005KT 07/06 RMK AO1 T00670055=
METAR CWGM 080800Z AUTO 21005KT 07/06 RMK AO1 T00670055=
METAR CWGM 080800Z AUTO 21005KT 07/06 RMK AO1 T00670055=
METAR CWGM 080800Z AUTO 21005KT 07/06 RMK AO1 T00670055=
METAR CWGM 080800Z AUTO 21005KT 07/06 RMK AO1 T00670055=
####018000095####
SACN88 KWBC 080814
METAR CWBK 080800Z AUTO 20005KT 18/17 RMK AO1 SLP187 T01830170
53003=
####018000307####
SACN86 KWBC 080814
METAR CWAJ 080800Z AUTO 24/21 RMK AO1 SLP164 T02360207 57005=
METAR CWLS 080800Z AUTO 17002KT 21/20 RMK AO1 SLP173 T02140196
56006=
METAR CWDV 080800Z AUTO 24003KT 13/13 RMK AO1 SLP158 T01320128
58009=
METAR CWDV 080800Z AUTO 24003KT 13/13 RMK AO1 SLP158 T01320128
58009=
####018000613####
SACN89 KWBC 080814
METAR CWBT 080800Z AUTO 07003KT 13/13 RMK AO1 SLP173 T01290129
53001=
METAR CWBZ 080800Z AUTO 24003KT 24/22 RMK AO1 SLP151 T02430216
51001=
METAR CWCO 080800Z AUTO 19002KT 24/21 RMK AO1 SLP150 T02370212
56005=
METAR CWDJ 080800Z AUTO 34006KT 12/11 RMK AO1 SLP194 T01170107
52005=
METAR CWBT 080800Z AUTO 07003KT 13/13 RMK AO1 SLP173 T01290129
53001=
METAR CWBZ 080800Z AUTO 24003KT 24/22 RMK AO1 SLP151 T02430216
51001=
METAR CWCO 080800Z AUTO 19002KT 24/21 RMK AO1 SLP150 T02370212
56005=
METAR CWDJ 080800Z AUTO 34006KT 12/11 RMK AO1 SLP194 T01170107
52005=
####018000317####
SACN92 KWBC 080814
METAR CWJT 080800Z AUTO 04001KT 18/17 RMK AO1 SLP157 T01770169
50000=
METAR CWJX 080800Z AUTO 26003KT 12/11 RMK AO1 SLP208 T01180107
53003=
METAR CWMJ 080800Z AUTO 27001KT 19/19 RMK AO1 SLP159 T01900185
58003=
METAR CWMQ 080800Z AUTO 21005KT 11/09 RMK AO1 SLP213 T01110089
51001=
####018000243####
SACN87 KWBC 080814
METAR CWCT 080800Z AUTO 25005KT 11/11 RMK AO1 SLP215 T01070107
52001=
METAR CWLB 080800Z AUTO 26003KT 15/12 RMK AO1 SLP179 T01460123
58003=
METAR CWRM 080800Z AUTO 13002KT 08/07 RMK AO1 SLP213 T00820070
57003=
####018000095####
SACN78 KWBC 080814
METAR CXZC 080800Z AUTO 28001KT 19/15 RMK AO1 SLP116 T01930153
57013=
####018000296####
SACN91 KWBC 080814
METAR CWGX 080800Z AUTO 25004KT 12/10 RMK AO1 SLP089 T01160099
56007=
METAR CWIP 080800Z AUTO 13003KT 12/ RMK AO1 T0122=
METAR CWIW 080800Z AUTO 27005KT 11/10 RMK AO1 SLP196 T01070100
50000=
METAR CWJH 080800Z AUTO 27003KT 10/07 RMK AO1 SLP133 T01030073
58003=
####018000337####
SACN96 KWBC 080814
METAR CWYY 080800Z AUTO 02002KT 16/14 RMK AO1 6PAST HR 1015 SLP167
P0006 T01590135 50016=
METAR CWZA 080800Z AUTO 29002KT 20/16 RMK AO1 SLP146 T02040156
51015=
METAR CWZL 080800Z AUTO 29009KT 23/07 RMK AO1 SLP182 T02290073
50000=
METAR CWZQ 080800Z AUTO 18009KT 22/17 RMK AO1 SLP183 T02150165
55000=
####018000227####
SACN85 KWBC 080814
METAR CWPK 080800Z AUTO 31002KT 17/ RMK AO1 SLP169 T0169 54000=
METAR CWWE 080800Z AUTO 24004KT 15/ RMK AO1 SLP201 T0148 55003=
METAR CWSF 080800Z AUTO 28007KT 12/12 RMK AO1 SLP164 T01180117
53015=
####018000817####
SACN95 KWBC 080814
METAR CWTN 080700Z AUTO 09003KT 17/16 RMK AO1 SLP153 T01680161
51008=
METAR CWTG 080800Z AUTO 04016KT 12/ RMK AO1 PK WND 04018/0727
SLP161 T0123 53006=
METAR CWTN 080800Z AUTO 13002KT 16/16 RMK AO1 SLP155 T01630157
53006=
METAR CWTT 080800Z AUTO 21002KT 24/24 RMK AO1 T02420235=
METAR CWVP 080800Z AUTO 33001KT 10/07 RMK AO1 SLP220 T01010071
50002=
METAR CWVU 080800Z AUTO 16011KT 15/15 RMK AO1 SLP198 T01500147
55005=
METAR CWTT 080800Z AUTO 21002KT 24/24 RMK AO1 T02420235=
METAR CWVP 080800Z AUTO 33001KT 10/07 RMK AO1 SLP220 T01010071
50002=
METAR CWVU 080800Z AUTO 16011KT 15/15 RMK AO1 SLP198 T01500147
55005=
METAR CWVP 080800Z AUTO 33001KT 10/07 RMK AO1 SLP220 T01010071
50002=
METAR CWVU 080800Z AUTO 16011KT 15/15 RMK AO1 SLP198 T01500147
55005=
####018000087####
SAID31 WIII 080800
METAR WABB 080800Z 33007KT 9999 FEW017CB SCT020 27/24 Q1008 NSG=
####018000154####
SACN94 KWBC 080814
METAR CWQP 080800Z AUTO 25006KT 23/22 RMK AO1 SLP159 T02260215
58005=
METAR CWRT 080800Z AUTO 00000KT 06/06 RMK AO1 T00610061=
####018000702####
SACN97 KWBC 080814
METAR CXNM 080700Z AUTO 24008KT 19/16 RMK AO1 T01850162=
METAR CXBO 080800Z AUTO 09010KT 18/17 RMK AO1 T01840173=
METAR CXDW 080800Z AUTO 26009KT 16/13 RMK AO1 T01600125=
METAR CXEA 080800Z AUTO 20002KT 14/12 RMK AO1 SLP134 T01420124
56007=
METAR CXHA 080800Z AUTO 24004KT 25/21 RMK AO1 SLP152 T02490207
58006=
METAR CXHF 080800Z AUTO 19/19 RMK AO1 T01930187=
METAR CXMY 080800Z AUTO 18/17 RMK AO1 T01750166=
METAR CXNM 080800Z AUTO 25010G16KT 19/16 RMK AO1 T01860158=
METAR CXRH 080800Z AUTO 09003KT 14/12 RMK AO1 T01350123=
METAR CXSW 080800Z AUTO 14002KT 07/06 RMK AO1 T00720064=
METAR CXZU 080800Z AUTO 00000KT 13/10 RMK AO1 SLP187 T01330103
57001=
####018000074####
SASD32 OEJD 080800
METAR OETF 080800Z 12008KT CAVOK 36/05 Q1016 NOSIG=
####018000090####
SAUS70 KWBC 080800 RRL
METAR
KMZZ 080755Z AUTO 00000KT 7SM CLR 20/18 A3007 RMK AO2=
####018000082####
SASD31 OEJD 080800 RRA
METAR OYSN 080800Z 06012G23KT 4000 DU NSC 30/M04 Q1023=
####018002606####
SAUS70 KWBC 080814
METAR
K36U 080815Z AUTO 00000KT 10SM CLR 12/04 A3019 RMK AO2=
KDUC 080812Z AUTO 09003KT 10SM CLR 22/22 A3003 RMK AO2=
KONM 080807Z AUTO 00000KT 10SM SCT060 19/14 A3022 RMK AO2
     T01900140=
KWWR 080809Z AUTO 04007KT 10SM CLR 22/21 A3015 RMK AO2
     T02220207=
K1F0 080808Z AUTO 00000KT 10SM OVC032 24/24 A3000 RMK AO2=
K4O4 080808Z AUTO 09003KT 10SM SCT001 BKN013 23/22 A3004 RMK
     AO2=
KADH 080810Z AUTO 00000KT 5SM BR BKN004 OVC070 23/22 A3002 RMK
     AO2=
KADM 080810Z AUTO 00000KT 10SM BKN033 OVC039 23/23 A3001 RMK
     AO2=
KALM 080810Z AUTO 32009KT 10SM CLR 20/13 A3014 RMK AO2=
KATS 080810Z AUTO 35008KT 9SM -RA BKN049 BKN055 18/17 A3015 RMK
     AO2=
KAXS 080810Z AUTO 02003KT 10SM -RA CLR 24/22 A3006 RMK AO2
     T02350215=
KAXX 080810Z AUTO 00000KT 10SM CLR 06/05 A3047 RMK AO2=
KBVS 080810Z AUTO 05006KT 10SM CLR 21/15 A2997 RMK A01 P000=
KCHK 080811Z AUTO 36003KT 7SM SCT021 SCT095 23/23 A3004 RMK
     AO2=
KCLK 080813Z AUTO 03005KT 10SM CLR 22/21 A3007 RMK AO2=
KCQB 080810Z AUTO 07005KT 10SM 23/23 A3003 RMK AO2 TSNO=
KCUH 080810Z AUTO 36006KT 10SM OVC016 24/23 A3003 RMK AO2=
KDUA 080817Z AUTO 16005KT 10SM SCT080 25/23 A3001 RMK AO2=
KFET 080810Z AUTO 34003KT 10SM CLR 18/17 A3014 RMK AO2=
KGCD 080810Z AUTO 10006KT 10SM CLR 17/04 A3010 RMK AO2
     T01650042=
KGCM 080815Z AUTO 36003KT 10SM SCT012 SCT047 SCT055 22/22 A3005
     RMK AO2 LTG DSNT SW AND W=
KGMJ 080815Z AUTO 34003KT 26/26 A3003 RMK AO2 PWINO=
KIDP 080810Z AUTO 36007KT 10SM BKN032 BKN039 21/20 A3003 RMK
     AO2=
KJSV 080810Z AUTO 12003KT 10SM BKN028 BKN060 23/23 A3003 RMK
     AO2=
KL35 080811Z AUTO 00000KT 10SM CLR 07/M06 A3018 RMK AO2=
KLAM 080810Z AUTO 00000KT 10SM SCT080 15/09 A3037 RMK AO2=
KLRU 080811Z AUTO 04008KT 10SM CLR 20/15 A3016 RMK AO2=
KOJA 080810Z AUTO 00000KT 10SM BKN075 22/21 A3008 RMK AO2=
KONP 080810Z AUTO 20009KT 10SM OVC002 11/10 A2999 RMK AO1=
KORS 080810Z AUTO 10SM CLR 17/13 A2994 RMK AO2=
KPLU 080810Z AUTO 00000KT 10SM FEW033 SCT041 SCT060 16/13 A2993
     RMK AO2=
KPVJ 080807Z AUTO 00000KT 10SM SCT007 BKN019 OVC030 24/23 A3002
     RMK AO2=
KSNL 080812Z AUTO 31003KT 10SM SCT006 OVC010 24/23 A3003 RMK
     AO2=
KSVC 080810Z AUTO 05013KT 5SM RA FEW001 SCT023 BKN042 16/14 A3023
     RMK AO2 P0002=
KTEX 080811Z AUTO 12007KT 10SM SCT110 13/04 A3045 RMK AO2=
KTMK 080813Z AUTO 00000KT 10SM OVC006 13/12 A2995 RMK AO2=
KTQH 080814Z AUTO 00000KT 7SM SCT024 BKN040 23/23 A3004 RMK
     AO2=
KWDG 080810Z AUTO 01006KT 10SM CLR 22/22 A3007 RMK AO2=
####018000165####
SAUS80 KWBC 080814
METAR
KIZA 080809Z AUTO 00000KT 10SM OVC009 14/11 A2991 RMK AO2=
KPTS 080810Z AUTO 00000KT 10SM CLR 22/22 A3002 RMK AO2
     T02200221=
####018000636####
SPUS70 KWBC 080814
SPECI
KBED 080811Z AUTO 18003KT 4SM BR OVC011 24/22 A3004 RMK AO2=
KHIB 080811Z AUTO 00000KT 1/2SM FG CLR 09/09 A3005 RMK AO2=
KMIV 080811Z AUTO 00000KT 3SM BR OVC004 24/23 A2999 RMK AO2=
KSLK 080811Z AUTO 00000KT 2 1/2SM BR CLR 17/16 A3008 RMK AO2=
PACM 080811Z AUTO 31006KT 1 1/2SM RA FEW004 SCT019 BKN044 12/08
     A3009 RMK AO2 TSNO P0007 $=
PACM 080811Z AUTO 31006KT 1 1/2SM RA FEW004 SCT019 BKN044 12/08
     A3009 RMK AO2 TSNO P0007 $=
KAVX 080812Z AUTO 29003KT 2SM BR OVC001 12/12 A2993 RMK AO2 VIS 1
     1/2V4 TSNO=
KISW 080812Z AUTO 27003KT 10SM FEW015 21/20 A3001 RMK AO2 TSNO=
####018000124####
SAXX60 KWBC 080800 RRH
METAR
KVPS 080755Z COR 33001KT 10SM SKC 24/24 A3002 RMK AO2A SLP166
     T02430238 COR 0811=
####018000114####
SAAG41 KWBC 080800 RRA
METAR
SANT 080800Z 32006KT 9999 08/06 Q1019=
SARL 080800Z NIL=
SAZN 080800Z NIL=
####018000072####
SAAL40 DAMM 080730 RRB
METAR DAAT 080730Z 11014KT CAVOK 30/02 Q1022=
####018000223####
SPUS80 KWBC 080814
SPECI
KSMX 080811Z AUTO 32003KT 10SM OVC009 13/11 A2992 RMK AO2 TSNO
     $=
KHTS 080811Z 00000KT 1SM BR CLR 21/21 A3007 RMK AO2=
KIRK 080812Z AUTO 21003KT 2 1/2SM BR CLR 19/19 A3006 RMK AO2=
####018000072####
SAAL31 DAAA 080730 RRB
METAR DAAT 080730Z 11014KT CAVOK 30/02 Q1022=
####018000153####
SAAF05 LFPW 080800 RRB
METAR DBBB 080800Z 23007KT 200V270 6000 SCT011 BKN110 27/25 Q1014
NOSIG=
METAR DNKN 080800Z 22010KT CAVOK 26/21 Q1014 NOSIG=
####018000311####
SAAF13 LFPW 080800 RRA
METAR GBYD 080800Z 00000KT 9999 SCT012 26/24 Q1012=
METAR GGOV 080800Z 20003KT 160V240 9999 FEW009 BKN014TCU FEW020CB
           27/25 Q1012  NOSIG=
METAR GLRB 080800Z 03004KT 9999 BKN013 FEW024CB 25/23 Q1015 CB-SW=
METAR GVAC 080800Z 05012KT 9999 SCT014 BKN016 24/19 Q1012 NOSIG=
####018000206####
SACN31 KWBC 080800 RRB
METAR
CYUL 080800Z 24005KT 15SM BKN075 25/21 A2998 RMK AC6 VIA YQB FIC
     SLP152=
CYZX 080800Z 14002KT 1/2SM FG VV002 16/16 A3012 RMK FG8 WNDY HILL
     22006KT SLP201=
####018000100####
SPBY31 UMMN 080800
SPECI UMOO 080800Z 33001MPS 9000 BKN011 BKN/// 21/19 Q1015
R31/290056 NOSIG=
####018000081####
SAAW32 KWBC 080730 RRD
METAR
OITR 080750Z 02004KT CAVOK 31/12 Q1015 A2998=
####018000110####
SPKO31 RKSI 080801
SPECI RKTN 080801Z 07005KT 9999 -RA FEW025 BKN040 OVC200 29/21
           Q1007 NOSIG=
####018000082####
SAGL41 BGSF 080750 CCC
METAR COR BGGH 080750Z 01003KT 9999 OVC003 05/03 Q1010=
####018000139####
SAAS31 KWBC 080805 CCA
METAR
VTBS 080800Z 26006KT 180V280 9999 TS FEW020CB SCT035 BKN300 34/22
     Q1006 TS NW CB N, NE,NW NOSIG=
####018000082####
SAAG05 SABM 080800 RRA
METAR SASJ 080800Z  20003KT 9999  BKN040  12/09
Q1019=
####018000081####
SAPA31 KWBC 080800 RRB
METAR
PLCH 080800Z 11015KT 20KM FEW018 26/24 Q1010=
####018000245####
SAAG31 KWBC 080800 RRA
METAR
SAAR 080800Z 00000KT CAVOK 02/M00 Q1019=
SABE 080800Z NIL=
SARC 080800Z 18008KT 9999 10/08 Q1018=
SASJ 080800Z NIL=
SASJ 080800Z 20003KT 9999 BKN040 12/09 Q1019=
SAWE 080800Z NIL=
SAZS 080800Z NIL=
####018000147####
SAAF08 LFPW 080800 RRA
METAR DFFD 080800Z 0000KT 9999 -RA FEW016 BKN100 23/22 Q1017 NOSIG=
METAR GABS 080800Z 22004KT CAVOK 26/24 Q1016 NOSIG=
####018000086####
SAAF27 LFPW 080800 RRA
METAR GUCY 080800Z 09008KT 9999 SCT015 SCT116 B25/24 Q1013=
####018000131####
SAAF14 LFPW 080800 RRA
METAR DRRN 080800Z 00000KT CAVOK 26/21 Q1013 NOSIG=
METAR FTTJ 080800Z 20010KT CAVOK 26/23 Q1014 NOSIG=
####018000420####
SARA31 KWBC 080800 RRC
METAR
UTNN 080800Z 19006MPS 160V220 CAVOK 41/08 Q1008 R15/CLRD70
     NOSIG=
UTNU 080800Z 21003MPS 170V250 CAVOK 41/13 Q1008 R13/CLRD60
     NOSIG=
UTSB 080800Z 02006MPS CAVOK 40/06 Q1008 R01/CLRD70 NOSIG=
UTSK 080800Z 32003MPS CAVOK 40/13 Q1007 R16/CLRD70=
UTSS 080800Z 09004MPS 9999 NSC 34/12 Q1011 R88/CLRD70 NOSIG=
UTST 080830Z VRB01MPS CAVOK 40/02 Q1007 R88/CLRD70 NOSIG=
####018000146####
SASW39 LSSW 080750 RRB
METAR LSMM 080750Z 00000KT CAVOK 23/13 Q1022 RMK BLU=
METAR LSMP 080750Z AUTO VRB01KT 9999NDV NCD 22/11 Q1022 RMK BLU=
####018000096####
SAAW34 KWBC 080745 RRH
METAR
UTSS 080800Z 09004MPS 9999 NSC 34/12 Q1011 R88/CLRD70 NOSIG=
####018000081####
SAFR31 KWBC 080800 RRB
METAR
LFLB 080809Z VRB02KT CAVOK 24/16 Q1021 NOSIG=
####018000082####
SAGL31 BGSF 080750 CCA
METAR COR BGGH 080750Z 01003KT 9999 OVC003 05/03 Q1010=
####018000299####
SASA31 KWBC 080800 RRC
METAR
SKBO 080800Z VRB02KT 9999 BKN012 11/11 A3029=
SKBQ 080800Z 29004KT 2000 BCFG BKN002 25/25 A2987=
SKCG 080800Z VRB02KT 9999 FEW012 SCT070 28/26 A2987=
SKCL 080800Z 00000KT 9999 FEW025 BKN100 20/18 A2999=
SKRG 080800Z 00000KT 9999 BKN006 BKN080 14/14 A3027=
####018000067####
SAAG SADF 080800
METAR SADF 080800Z  00000KT CAVOK 04/02 Q1019=
####018000082####
SAAL41 DAMM 080800 RRA
METAR DAUI 080800Z 06028KT 0400 BLSA VV/// ///// Q1012=
####018000075####
SAMC32 GMMC 080800 RRA
METAR GMTN 080800Z 00000KT 8000 NSC 25/18 Q1015=
####018000082####
SAAL33 DAAA 080800 RRA
METAR DAUI 080800Z 06028KT 0400 BLSA VV/// ///// Q1012=
####018000671####
SAXX99 KWBC 080800 RRM
METAR
CQCM 080800Z 30004KT 8SM SKC 42/18 A2956 RMK WND/ALTM ESTD
     T04240177=
CYGP 080800Z 00000KT 15SM BKN120 16/15 A2997 RMK AC5 VIA YQB FIC
     SLP149=
CYMA 080800Z 00000KT 20SM FEW050 13/07 A3006 RMK SC1 SLP190=
CYQT 080800Z 21003KT 15SM FEW004 BKN040 OVC100 18/17 A2998 RMK
     ST1SC6AC2 SLP152=
CYRJ 080800Z 25005KT 12SM FEW045 22/19 A2997 RMK SC2 SLP147=
DAOF 080800Z NIL=
DAUI 080800Z 06028KT 0400 BLSA VV/// ///// Q1012=
SADF 080800Z NIL=
SAOC 080800Z NIL=
UTTP 080800Z 07001MPS CAVOK 37/10 Q1011 R88/CLRD70 NOSIG=
VTSG 080800Z 21010KT 180V240 9999 SCT020 BKN300 31/25 Q1008 A2979
     RWY32 INFO I=
####018000072####
SAGD31 TGPY 080830
METAR TGPY 080830Z 08009KT 9999 FEW021 28/25 Q1012=####018000128####
SAUS43 KAPX 080814
MTRANJ
SPECI KANJ 080812Z AUTO 15005KT 2 1/2SM RA BR SCT014 BKN022 OVC055 
21/19 A2996 RMK AO2 P0007
####018001529####
SPZZ40 KAWN 080814 RRB
SPECI CWZZ 080808Z AUTO ///// 2 1/8SM SCT012 BKN038 BKN056 10/ A2982=
SPECI CWZZ 080809Z AUTO ///// 1 1/4SM SCT012 BKN039 BKN046 BKN057 10/
      A2982=
SPECI CWZZ 080811Z AUTO ///// 5/8SM SCT013 BKN041 BKN048 BKN059 10/
      A2981=
SPECI CYPH 080810Z AUTO 24017G22KT 1SM OVC001 05/05 A2977=
SPECI CYQA 080809Z AUTO VRB02KT 3SM BR CLR 20/20 A3003 RMK SLP169 DENSITY
      ALT 1500FT=
SPECI CYUS 080804Z AUTO ///// 9SM CLR 11/ A2980=
SPECI CYVQ 080812Z 08002KT 30SM BKN040 BKN080 BKN270 RMK SC6AC1CI1=
SPECI DAUA 080807Z 01030KT 0700 BLSA NSC 36/07 Q1014=
SPECI DIAP 080810Z 27005KT 4000 -RA SCT005 BKN012 BKN080 25/24 Q1015
      TEMPO 2000 RA BKN005 BKN012 OVC080=
SPECI EGUN 080809Z AUTO 25006KT 9999 SCT006 BKN014 OVC021 17/17 A3008
      RMK AO2 RAB0751E0801 SLP174=
SPECI ETIK 080810Z AUTO 00000KT 9999 CLR 24/09 A3021 RMK AO2 RAB0809E0810DZE0809
      SLP215 $=
SPECI KFFO 080800Z 00000KT 9SM R23R/5500VP6000FT CLR 22/21 A3007 RMK
      AO2A VIS 2 1/2 RWY05L SLP176=
SPECI KLFI 080807Z 11005KT 9SM R08/5500FT BKN008 OVC150 26/24 A2996
      RMK AO2A SLP146 $=
SPECI KLTS 080807Z AUTO 01004KT 10SM -DZ CLR 23/22 A3005 RMK AO2 DZB0807
      SLP157 $=
SPECI KVOK 080810Z 31004KT 10SM BKN009 OVC014 22/22 A3000 RMK AO2A
      CIG 008V012 SLP153=
PAEH SP 0815 AWOS 9 SCT M20 OVC 10 48/-20/0403/001=
PATC SP 0815 AWOS CLR BLO 120 10 51/44/0304/016=
SPECI RJCC 080809Z 17008KT 2300 -DZ BR BKN002 BKN003 18/17 Q1009 RMK
      5ST002 7ST003 A2981=
####018000148####
SASW39 LSSW 080750 RRB
METAR LSMM 080750Z 00000KT CAVOK 23/13 Q1022 RMK BLU=
METAR LSMP 080750Z AUTO VRB01KT 9999NDV NCD 22/11 Q1022 RMK BLU=
####018000257####
SAUK KAWN 080800 RRD
METAR EGUO 080750Z 00000KT 9999 FEW015 SCT020 BKN090 15/13 Q1020 WHT=
METAR EGVO 080805Z 31006KT 4000 -RADZ FEW003 OVC004 16/15 Q1019 YLO2
      BECMG BKN012 GRN=
METAR EGYH 080750Z 26006KT 9999 FEW030 BKN100 17/// Q1018 BLU=
####018000355####
SARS18 KAWN 080800 RRE
METAR ULWW 080800Z 11005MPS CAVOK 30/17 Q1016 NOSIG RMK QFE751 15CLRD60=
METAR UTSS 080800Z 09004MPS 9999 NSC 34/12 Q1011 R88/70D NOSIG=
METAR UWGG 080800Z 10003MPS 070V160 8000 SKC 32/10 Q1016 NOSIG RMK
      QFE755 18090070=
METAR UWOO 080800Z 05006MPS P5000 SCT070 30/04 Q1013 08/LRD65 NOSIG
      RMK QFE749/0999=
####018000959####
SAUS20 KNKA 080814
METAR KAIK 080815Z AUTO 00000KT 10SM CLR 23/22 A3003 RMK AO2 PNO=
METAR KARW 080815Z AUTO 27006KT 10SM CLR 24/18 A2997 RMK AO2=
METAR KBDN 080815Z AUTO 29006KT 10SM CLR 19/03 A3010 RMK AO2 =
SPECI KFAF 080805Z 00000KT 8SM FEW065 BKN090 26/26 A2995 RMK AO2A RAE0805
      SLP142=
METAR KFDW 080815Z AUTO 26004KT 10SM CLR 26/17 A2999 RMK AO1=
METAR KGLY 080815Z AUTO 00000KT 10SM BKN005 OVC010 23/23 A3005 RMK 
     AO2 =
SPECI KLFI 080807Z 11005KT 9SM R08/5500FT BKN008 OVC150 26/24 A2996
      RMK AO2A SLP146 $=
METAR KMEZ 080815Z AUTO 20003KT 10SM BKN014 OVC022 26/23 A3006 RMK 
     AO2=
METAR KMYR 080815Z AUTO 29008KT 10SM FEW100 26/19 A2996 RMK AO1=
METAR KOAJ 080815Z AUTO 00000KT 10SM CLR 22/21 A2992 RMK AO1=
METAR KOCF 080815Z AUTO 36003KT 1/2SM BKN002 21/21 A3001 RMK AO1=
METAR KSOP 080815Z AUTO 00000KT 10SM CLR 24/17 A2996 RMK AO1=
METAR KUDG 080815Z 29003KT 10SM BKN100 26/18 A2997 RMK AO1=
####018000454####
SAXX70 KAWN 080800 RRL
METAR KQD2 080755Z AUTO 24009G19KT 230V290 9999 CLR 33/10 A3003 RMK
      AO2 SLP042 T03250102 $=
METAR KQEJ 080800Z AUTO 24005KT 7SM CLR 27/18 A2990 RMK A02=
METAR KQEL 080810Z AUTO 10002KT 7SM FEW036 27/20 A2970 RMK A02=
METAR KQEQ 080810Z AUTO 21004KT 7SM CLR 25/20 A2980 RMK A02=
METAR KQEW 080810Z AUTO 01001KT 7SM CLR 28/20 A2980 RMK A02=
METAR KQFB 080810Z AUTO 08002KT 6SM -SHRA SCT038 25/22 A2990 RMK A02=
####018000088####
SAMD90 KWBC 080814
METAR K2G4 080810Z AUTO 00000KT 10SM SCT070 22/13 A3019 RMK AO1=
####018000084####
SAMD90 KWBC 080814
METAR K2W6 080813Z AUTO 00000KT 5SM CLR 24/23 A2999 RMK AO1=
####018000094####
SAMD90 KWBC 080814
METAR KCGE 080811Z AUTO 10003KT 4SM SCT005 SCT120 25/24 A2999 RMK AO1=
####018000087####
SAMD90 KWBC 080814
METAR KESN 080818Z AUTO 00000KT 4SM BR CLR 23/23 A3002 RMK AO2=
####018000084####
SAMD90 KWBC 080814
METAR KCBE 080813Z AUTO 00000KT 7SM CLR 22/18 A3010 RMK AO1=
####018000084####
SAMD90 KWBC 080814
METAR KDMW 080813Z AUTO 00000KT 7SM CLR 26/21 A3004 RMK AO2=
####018000084####
SAMD90 KWBC 080814
METAR KCGS 080815Z AUTO 00000KT 7SM CLR 26/23 A2998 RMK AO1=
####018000090####
SAMD90 KWBC 080814
METAR KFDK 080812Z AUTO 00000KT 5SM HZ SCT090 24/22 A3003 RMK AO2=
####018000093####
SAMD90 KWBC 080814
METAR KFME 080815Z AUTO 00000KT 3SM 20/20 A3001 RMK AO1 SKY OBSCURED=
####018000956####
SAKO51 RJTD 080800
METAR RKPC 080800Z 07011KT 4500 BR FEW010 SCT030 BKN190 24/21 Q1008
           NOSIG=
METAR RKPC 080800Z 07011KT 4500 BR FEW010 SCT030 BKN190 24/21 Q1008
           NOSIG=
METAR RKPK 080800Z 10008KT 9999 SCT030 BKN200 26/17 Q1008 NOSIG=
METAR RKPK 080800Z 10008KT 9999 SCT030 BKN200 26/17 Q1008 NOSIG=
METAR RKSI 080800Z 23004KT 9999 FEW040 OVC120 24/19 Q1008 TEMPO -RA=
METAR RKSM 080800Z 21003KT 9999 FEW030 SCT100 BKN200 28/21 A2977=
METAR RKSS 080800Z 29005KT 9999 FEW030 OVC120 26/16 Q1008 NOSIG=
METAR RKSS 080800Z 29005KT 9999 FEW030 OVC120 26/16 Q1008 NOSIG=
METAR RKTN 080800Z 11008KT 9999 FEW025 BKN040 BKN200 29/21 Q1007
           NOSIG=
METAR RKTN 080800Z 11008KT 9999 FEW025 BKN040 BKN200 29/21 Q1007
           NOSIG=
METAR RKTU 080800Z 28003KT 9000 SCT030 SCT100 BKN200 28/19 Q1008
           NOSIG=
METAR RKTU 080800Z 28003KT 9000 SCT030 SCT100 BKN200 28/19 Q1008
           NOSIG=
####018000087####
SPCN51 CWAO 080813
SPECI CWZZ 080813Z AUTO ///// 5/8SM SCT012 SCT016 10/ A2981=

####018002156####
SAUS20 KNKA 080814
METAR KPMV 080810Z AUTO 32006KT 10SM CLR 20/19 A3011 RMK AO2 
     T02020193=
METAR KAFK 080810Z AUTO 35007KT 5SM BR CLR 20/19 A3010 RMK AO2 
     T02030193=
METAR KANW 080810Z AUTO 27003KT 10SM OVC110 17/15 A3023 RMK AO2 
     T01700150=
METAR KAUH 080810Z AUTO 33005KT 10SM CLR 16/15 A3018 RMK AO2 
     T01600150=
METAR KAUN 080810Z AUTO 09004KT 10SM CLR 22/13 A2988 RMK AO1=
METAR KBIE 080810Z AUTO 36006KT 10SM CLR 20/18 A3012 RMK AO2 
     T01950182=
METAR KBTA 080810Z AUTO 35009KT 10SM SCT023 20/17 A3012 RMK AO2 
     T01970172=
METAR KBVN 080810Z AUTO 00000KT 10SM OVC090 16/15 A3018 RMK AO2 
     T01590148=
METAR KDVO 080810Z AUTO 31003KT 10SM OVC010 12/12 A2994 RMK AO2=
SPECI KGLH 080813Z AUTO 00000KT 1/2SM FG CLR 22/22 A3004 RMK AO2=
METAR KHDE 080810Z AUTO 35004KT 10SM CLR 16/15 A3020 RMK AO2 
     T01600145=
METAR KHJH 080810Z AUTO 34003KT 10SM OVC021 19/18 A3015 RMK AO2 
     T01940181=
METAR KIBM 080810Z AUTO 00000KT 10SM OVC018 12/11 A3031 RMK AO2 
     T01230113=
METAR KJYR 080810Z AUTO 35003KT 10SM BKN024 17/15 A3016 RMK AO2=
METAR KLCG 080810Z AUTO 00000KT 10SM CLR 16/15 A3016 RMK AO2 
     T01550147=
METAR KLHM 080811Z AUTO 16012KT 10SM CLR 19/11 A2981 RMK AO1 
     T01870112=
SPECI KLIT 080813Z 00000KT 7SM SCT007 SCT150 24/23 A3005 RMK AO2=
SPECI KLUK 080813Z AUTO 00000KT 2SM BR CLR 22/21 A3007 RMK AO2=
METAR KLXN 080810Z AUTO 00000KT 10SM BKN047 BKN075 16/15 A3022 
     RMK AO2 T01580151=
METAR KMLE 080810Z AUTO 34004KT 10SM SCT020 20/17 A3011 RMK AO2 
     T02040170=
METAR KMMH 080810Z AUTO 27005KT 10SM CLR 13/02 A3021 RMK AO1=
SPECI KMVL 080813Z AUTO 00000KT 2SM BR FEW050 SCT070 20/19 A3006 RMK 
    AO2=
METAR KOGA 080810Z AUTO 00000KT 10SM SCT070 16/15 A3027 RMK AO2 
     T01560145=
METAR KOKM 080812Z AUTO 08003KT 10SM SCT003 OVC013 24/24 A3002 
     RMK AO1 LTG DSNT N=
METAR KONL 080810Z AUTO 00000KT 10SM OVC110 16/14 A3019 RMK AO2 
     T01580144=
METAR KSRE 080810Z AUTO 17004KT 3SM RA 24/24 A3002 RMK AO2=
SPECI KVAY 080813Z AUTO 00000KT 1/2SM FG FEW003 OVC006 23/23 A3001 
    RMK AO2=
####018000084####
SAMD90 KWBC 080814
METAR KMTN 080815Z AUTO 00000KT 7SM CLR 26/24 A3000 RMK AO2=
####018000084####
SAMD90 KWBC 080814
METAR KW29 080813Z AUTO 00000KT 5SM CLR 24/22 A2998 RMK AO1=
####018000100####
SAUS46 KSGX 080814
MTRNXF
SPECI KNXF 080813Z AUTO 31004KT 7SM OVC013 17/13 A2991 RMK AO2 TSNO
####018000073####
SAAL41 DAMM 080800 RRB
METAR DAUL 080800Z 00000KT CAVOK 31/12 Q1023=
####018000269####
SANI20 DNMM 080800
METAR DNIM 080800Z 00000KT 9999 BKN012 26/24 Q1015=
METAR DNMA 080800Z 18012KT 5000 -TSRA SCT012 FEW020CB 25/24 Q1012=
METAR DNKA 080800Z 21005KT 9999 FEW009 23/22 Q1019=
METAR DNAA 080800Z 06005KT 020V090 9999 FEW012 24/21 Q1016 NOSIG=

####018000135####
SPCN46 CWAO 080814
SPECI CYKF 080814Z AUTO 00000KT 2 1/4SM BR CLR 19/19 A3006 RMK SLP175
 DENSITY ALT 1600FT VIS VRB 1 1/2-3=

####018000544####
SPUS99 KWBC 080815
SPECI
KFAF 080805Z 00000KT 8SM FEW065 BKN090 26/26 A2995 RMK AO2A
     RAE0805 SLP142=
KLFI 080807Z 11005KT 9SM R08/5500FT BKN008 OVC150 26/24 A2996 RMK
     AO2A SLP146 $=
KGLH 080813Z AUTO 00000KT 1/2SM FG CLR 22/22 A3004 RMK AO2=
KLIT 080813Z 00000KT 7SM SCT007 SCT150 24/23 A3005 RMK AO2=
KLUK 080813Z AUTO 00000KT 2SM BR CLR 22/21 A3007 RMK AO2=
KMVL 080813Z AUTO 00000KT 2SM BR FEW050 SCT070 20/19 A3006 RMK
     AO2=
KVAY 080813Z AUTO 00000KT 1/2SM FG FEW003 OVC006 23/23 A3001 RMK
     AO2=
####018002326####
SAUS99 KWBC 080815
METAR
KAIK 080815Z AUTO 00000KT 10SM CLR 23/22 A3003 RMK AO2 PNO=
KARW 080815Z AUTO 27006KT 10SM CLR 24/18 A2997 RMK AO2=
KBDN 080815Z AUTO 29006KT 10SM CLR 19/03 A3010 RMK AO2=
KFDW 080815Z AUTO 26004KT 10SM CLR 26/17 A2999 RMK AO1=
KGLY 080815Z AUTO 00000KT 10SM BKN005 OVC010 23/23 A3005 RMK
     AO2=
KMEZ 080815Z AUTO 20003KT 10SM BKN014 OVC022 26/23 A3006 RMK
     AO2=
KMYR 080815Z AUTO 29008KT 10SM FEW100 26/19 A2996 RMK AO1=
KOAJ 080815Z AUTO 00000KT 10SM CLR 22/21 A2992 RMK AO1=
KOCF 080815Z AUTO 36003KT 1/2SM BKN002 21/21 A3001 RMK AO1=
KSOP 080815Z AUTO 00000KT 10SM CLR 24/17 A2996 RMK AO1=
KUDG 080815Z 29003KT 10SM BKN100 26/18 A2997 RMK AO1=
KPMV 080810Z AUTO 32006KT 10SM CLR 20/19 A3011 RMK AO2
     T02020193=
KAFK 080810Z AUTO 35007KT 5SM BR CLR 20/19 A3010 RMK AO2
     T02030193=
KANW 080810Z AUTO 27003KT 10SM OVC110 17/15 A3023 RMK AO2
     T01700150=
KAUH 080810Z AUTO 33005KT 10SM CLR 16/15 A3018 RMK AO2
     T01600150=
KAUN 080810Z AUTO 09004KT 10SM CLR 22/13 A2988 RMK AO1=
KBIE 080810Z AUTO 36006KT 10SM CLR 20/18 A3012 RMK AO2
     T01950182=
KBTA 080810Z AUTO 35009KT 10SM SCT023 20/17 A3012 RMK AO2
     T01970172=
KBVN 080810Z AUTO 00000KT 10SM OVC090 16/15 A3018 RMK AO2
     T01590148=
KDVO 080810Z AUTO 31003KT 10SM OVC010 12/12 A2994 RMK AO2=
KHDE 080810Z AUTO 35004KT 10SM CLR 16/15 A3020 RMK AO2
     T01600145=
KHJH 080810Z AUTO 34003KT 10SM OVC021 19/18 A3015 RMK AO2
     T01940181=
KIBM 080810Z AUTO 00000KT 10SM OVC018 12/11 A3031 RMK AO2
     T01230113=
KJYR 080810Z AUTO 35003KT 10SM BKN024 17/15 A3016 RMK AO2=
KLCG 080810Z AUTO 00000KT 10SM CLR 16/15 A3016 RMK AO2
     T01550147=
KLHM 080811Z AUTO 16012KT 10SM CLR 19/11 A2981 RMK AO1
     T01870112=
KLXN 080810Z AUTO 00000KT 10SM BKN047 BKN075 16/15 A3022 RMK AO2
     T01580151=
KMLE 080810Z AUTO 34004KT 10SM SCT020 20/17 A3011 RMK AO2
     T02040170=
KMMH 080810Z AUTO 27005KT 10SM CLR 13/02 A3021 RMK AO1=
KOGA 080810Z AUTO 00000KT 10SM SCT070 16/15 A3027 RMK AO2
     T01560145=
KOKM 080812Z AUTO 08003KT 10SM SCT003 OVC013 24/24 A3002 RMK AO1
     LTG DSNT N=
KONL 080810Z AUTO 00000KT 10SM OVC110 16/14 A3019 RMK AO2
     T01580144=
KSRE 080810Z AUTO 17004KT 3SM RA 24/24 A3002 RMK AO2=
####018000107####
SAAH10 OAKN 080800
METAR OAKN 080750Z 00000KT 9000 HZ SKC 40/10 Q1009 BLU NOSIG RMK
    A2981
DA6900=
####018000072####
SAAL41 DAMM 080800 RRB
METAR DAUL 080800Z 00000KT CAVOK 31/12 Q1023=
####018000122####
SAAG05 SABM 080800 RRB
METAR SADF 080800Z  00000KT CAVOK 04/02 Q1019=
METAR SAOC 080800Z  36015KT 9999  04/M01 Q1016=
####018000083####
SPAK32 KWBC 080815
SPECI
PAEH SP 0815 AWOS 9 SCT M20 OVC 10 48/-20/0403/001=
####018000080####
SPAK32 KWBC 080815
SPECI
PATC SP 0815 AWOS CLR BLO 120 10 51/44/0304/016=
####018001029####
SAAU31 AMMC 080800
METAR YBAS 080800Z 11009KT 9999 FEW034 15/06 Q1019=
METAR YBBN 080800Z 19009KT 9999 FEW040 BKN077 BKN105 18/10 Q1019
     NOSIG=
METAR YBCS 080800Z 15007KT 9999 FEW024 BKN045 24/19 Q1015
     NOSIG=
METAR YBTL 080800Z 07008KT 9999 FEW019 SCT050 BKN170 23/20 Q1015
     NOSIG=
METAR YMML 080800Z 19002KT 9999 FEW030 BKN042 10/04 Q1028
     NOSIG=
METAR YPAD 080800Z 00000KT 9999 FEW045 12/09 Q1025
     NOSIG=
METAR YPCC 080800Z 13008KT 9999 FEW021 28/22 Q1012=
METAR YPDN 080800Z 02013KT CAVOK 29/20 Q1011
     NOSIG=
METAR YPKU 080800Z AUTO 13005KT 9999NDV // NCD 27/14 Q1012=
METAR YPLM 080800Z AUTO 07004KT 9999NDV // BKN057 20/17 Q1008=
METAR YPPH 080800Z 01011KT 9999 FEW010 SCT022 16/14 Q0999
     FM0800 33018G28KT 9999 -SHRA BKN020
     INTER 0800/1100 27025G35KT 3000 +SHRA BKN010=
METAR YPTN 080800Z 12008KT CAVOK 28/14 Q1012=
METAR YPXM NIL=
METAR YSSY 080800Z 21010KT 9999 VCSH FEW010 SCT045 BKN055 12/12 Q1026
     INTER 0815/1100 5000 SHRA BKN015=
