####018000662####
SAUS20 KNKA 081010
METAR KSNK 081006Z AUTO 03005KT 7SM CLR 21/20 A3009 RMK AO2 
     T02080198=
METAR KSOA 081000Z AUTO 33003KT 10SM 22/21 A3006 RMK AO2=
METAR KSWW 081005Z AUTO 36004KT 5SM SCT002 21/21 A3009 RMK AO1 
     T02110206=
METAR KT65 081005Z AUTO 03004KT 10SM BKN004 OVC050 26/25 A2979 
     RMK AO2 LTG DSNT S T02570250=
METAR KT82 081005Z AUTO 00000KT 22/22 A3002 RMK AO1 T02230215=
SPECI KTAD 081009Z AUTO 35005KT 10SM BKN009 BKN085 14/13 A3036 RMK 
    AO2=
METAR KUVA 081005Z AUTO 06007KT 10SM OVC023 24/23 A2995 RMK AO2 
     T02410230=
METAR KXBP 081005Z AUTO 00000KT 10SM CLR 24/22 A3003 RMK AO2 
     T02370222=
####018002975####
SAUS20 KNKA 081010
SPECI KACV 081009Z AUTO 00000KT 2 1/2SM BR OVC001 10/09 A2997 RMK 
    AO2=
SPECI KBEH 081009Z AUTO 00000KT 4SM BR CLR 22/22 A3003 RMK AO2 $=
METAR KCCA 081015Z AUTO 00000KT 5SM  BR OVC007 22/22 A3006 RMK AO2 
     =
METAR KCDN 081015Z AUTO 00000KT 10SM CLR 23/19 A2998 RMK A02 P000 
     =
METAR KCKI 081015Z AUTO 00000KT BKN100 21/21 A2994 RMK AO2 PWINO=
SPECI KEKN 081009Z AUTO 00000KT 1SM BR BKN075 17/16 A3016 RMK AO2 
    TSNO=
SPECI KFIT 081009Z AUTO 14005KT 4SM HZ OVC010 24/21 A3009 RMK AO2 
    CIG 007V014=
SPECI KHLG 081009Z AUTO 00000KT 1 1/2SM BR FEW055 21/20 A3010 RMK 
    AO2=
METAR KLBR 081005Z AUTO 00000KT 7SM OVC004 24/23 A3004 RMK AO2 
     T02400230=
METAR KLHB 081003Z AUTO 06003KT 7SM SCT030 SCT120 25/23 A2996 RMK 
     AO2 T02510231=
SPECI KLOZ 081009Z AUTO 00000KT 2 1/2SM BR CLR 19/19 A3010 RMK AO2=
METAR KLRO 081015Z AUTO 27004KT 9SM CLR 23/19 A2995 RMK AO2 =
METAR KLUD 081005Z AUTO 12003KT 10SM CLR 25/22 A3002 RMK AO2 
     T02450223=
METAR KMKN 081000Z AUTO 09003KT 10SM 24/23 A3003 RMK AO2=
METAR KMKS 081015Z AUTO 00000KT 7SM CLR 22/20 A2995 RMK AO2 TSNO=
METAR KMNZ 081009Z AUTO 14003KT 10SM SCT011 24/24 A3001 RMK AO2 
     T02420240=
METAR KMQB 081005Z AUTO 27006KT 7SM OVC004 23/23 A3005 RMK AO2 
     T02300228=
METAR KMWA 081005Z AUTO 00000KT 10SM SCT110 24/24 A3006 RMK AO2 
     T02430236=
METAR KOSA 081004Z AUTO 00000KT 7SM CLR 25/24 A3004 RMK AO1 
     T02450238=
METAR KPEZ 081005Z AUTO 02005KT 10SM BKN009 OVC014 25/23 A2992 
     RMK AO2 T02500233=
METAR KPKV 081006Z AUTO 18005KT 3SM +RA SCT015 BKN029 OVC060 
     24/23 A2986 RMK AO2 P0007 T02420227=
METAR KPPA 081005Z AUTO 35006KT 10SM -RA BKN110 17/16 A3018 RMK 
     AO2=
METAR KPSN 081005Z AUTO 09004KT 7SM 24/24 A3001 RMK AO2 T02410235=
METAR KPYX 081010Z AUTO 02005KT 7SM OVC100 19/18 A3019 RMK AO2 
     P0001 T01880177=
METAR KRAS 081005Z AUTO 08011KT 3SM -RA FEW001 SCT019 BKN034 
     28/25 A2984 RMK AO2 LTG DSNT NE=
METAR KRBO 081005Z AUTO 02007KT 10SM -RA SCT017 BKN033 BKN040 
     26/25 A2984 RMK AO2 LTG DSNT NE T02600250=
METAR KRFI 081005Z AUTO 00000KT 7SM CLR 24/23 A3001 RMK AO2 
     T02400228=
SPECI KRHI 081009Z AUTO 31003KT 1/2SM FG SCT001 BKN006 17/16 A3003 
    RMK AO2=
SPECI KRKP 081009Z AUTO 14011G22KT 4SM +RA BR FEW009 BKN018 OVC070 
    26/24 A2983 RMK AO2 P0003=
METAR KRPH 081005Z AUTO 00000KT 10SM CLR 22/21 A3001 RMK AO2 
     T02220209=
METAR KRWV 081000Z AUTO 00000KT 7SM CLR 24/24 A2998 RMK AO2 LTG 
     DSNT SE=
METAR KRYW 081005Z AUTO 07004KT 5SM BR SCT008 BKN012 OVC042 23/22 
     A2999 RMK AO2=
METAR KSAR 081005Z AUTO 18004KT 10SM BKN065 26/23 A3004 RMK AO2=
METAR KSEP 081005Z AUTO 00000KT 10SM CLR 23/21 A3002 RMK AO1=
METAR KSLO 081002Z AUTO 20004KT 10SM CLR 24/22 A3004 RMK AO2 
     T02380216=
METAR KSLR 081002Z AUTO 12004KT 10SM OVC029 25/23 A3004 RMK AO2 
     T02510234=
####018001697####
SASA KAWN 081000 RRD
METAR SARF 081000Z 18009KT 9999 OVC007 14/13 Q1017=
METAR SARI 081000Z 23006KT 5000 SCT100 15/15 Q1018=
METAR SASA 081000Z 36004KT CAVOK 10/07 Q 1020=
METAR SASJ 081000Z 00000KT CAVOK 09/07 Q1018=
METAR SAWE 081000Z 27006KT 9999 BKN050 M01/M02 Q0987=
METAR SCDA 081000Z 01009KT 9999 OVC026 14/08 Q1016=
METAR SEGU 081000Z 21007KT 9999 BKN030 23/19 Q1011 NOSIG=
METAR SEMT 081000Z 19005KT 9999 OVC016 23/20 Q1012=
METAR SEQU 081000Z 08001KT 9999 SCT100 08/07 Q1026 RMK A3032 NOSIG=
METAR SLCA 081000Z 00000KT 9999 BKN036 15/14 Q1020=
METAR SLCO 081000Z 00000KT 9999 NSC 23/22 Q1012=
METAR SLCP 081000Z 18008KT 9999 OVC017 21/20 Q1016=
METAR SLJO 081000Z 00000KT 9999 FEW080 SCT200 22/21 Q1011=
METAR SLMG 081000Z 03004KT 9999 SKC 23/22 Q1013=
METAR SLPS 081000Z 09008KT 9999 BKN070 26/15 Q1012=
METAR SLRB 081000Z 00000KT 9999 SCT070 18/15 Q1018=
METAR SLRI 081000Z 00000KT 5000 BR SKC 24/24 Q1011=
METAR SLRQ 081000Z 00000KT 3000 BR FEW023 FEW033CB 22/21 Q1011=
METAR SLRY 081000Z 00000KT 3000 BR FEW070 FEW023CB SCT200 21/21 Q1011=
METAR SLSA 081000Z 36004KT 9999 FEW020 FEW023CB BKN200 24/23 Q1011=
METAR SLSI 081000Z 18005KT 9999 BKN070 19/17 Q1015=
METAR SLSU 081000Z 03006KT 9999 SCT010 08/05 Q1028=
METAR SLVM 081000Z 00000KT 9999 FEW070 16/15 Q1026=
METAR SLYA 081000Z 00000KT 9999 NSC 12/11 Q1021=
METAR SMJP 081000Z 00000KT 8000 FEW005 FEW018CB 23/23 Q1013 NOSIG=
METAR SPIM 081000Z 17003KT 6000 OVC022 16/14 Q1013 NOSIG RMK PP000=
METAR SPIM 081000Z AUTO 17003KT 6000 HZ FEW001 OVC024 16/14 Q1013 NOSIG
      RMK PP000=
METAR SYCJ 081000Z 00000KT 5000 VCFG SCT015 FEW016CB 24/24 Q1012 CB-E/
      WSW-W=
####018000290####
SPUS17 KAWN 081010
SPECI KAFF 081008Z AUTO 16005KT 10SM SCT012 BKN027 12/12 A3039 RMK
      AO2 SLP207=
SPECI KDOV 081005Z AUTO 10004KT 2SM BR FEW007 24/ A3000 RMK AO2 SLP161
      $=
SPECI KHRT 081001Z 00000KT 5SM R18/3000VP6000FT BR CLR 23/23 A3001
      RMK AO2A SLP163 $=
####018000901####
SAAM20 FCBB 081000
METAR FCBB 081000Z 21008KT 6000  BKN016 24/20 Q1015 NOSIG=
METAR FCPP 081000Z 22006KT 8000 SCT015 BKN030 25/21 Q1015 NOSIG=
METAR FKKD 081000Z VRB02KT 9999 BKN013 FEW016CB BKN120 28/25 Q1015
           BECMG BKN016 FEW020CB BKN120=
METAR FKYS 081000Z 30005KT 240V360 9999 BKN006 25/20 Q1019 NOSIG=
METAR FKKR NIL=
METAR FKKN NIL=
METAR FKKL NIL=
METAR FEFT 081000Z 32006KT 9999 SCT006 BKN150 26/22 Q1017=
METAR FEFG 081000Z /////KT 9999 FEW002 OVC140 22/21 Q//// RETSRA=
METAR FEFF 081000Z 28004KT 9999 FEW020 SCT300 28/23 Q1014 NOSIG=
METAR FOOL 081000Z 15004KT 120V190 8000 SCT010 OVC040 27/22 Q1015
           NOSIG=
METAR FOON NIL=
METAR FOOG NIL=
METAR FGBT NIL=
METAR FGSL NIL=
METAR FZRF NIL=
METAR FZOS NIL=
METAR FZAA NIL=
METAR FZIC NIL=
METAR FZFK NIL=
METAR FZQA NIL=
METAR FNHU NIL=
METAR FNLU NIL=
METAR FPST NIL=
####018000182####
SPAU31 AMMC 081010
SPECI YBCS 081006Z 17008KT 9999 5000S FU FEW024 SCT050 23/20 Q1016
     FM1010 17008KT 5000 FU FEW025 SCT050
     FM1200 17008KT 9999 FEW025 SCT045=


####018001697####
SAEU KAWN 081000 RRV
METAR EGDM 080950Z AUTO 23003KT 9999NDV FEW015/// SCT031/// BKN110///
      19/14 Q1019=
METAR EGDR 080950Z AUTO 23007KT 9999NDV // FEW017/// SCT150/// 18/13
      Q1018=
METAR EGDY 080950Z AUTO 25005KT 9999NDV BKN023/// 20/14 Q1018=
METAR EGUB 080950Z AUTO 22004KT 9999NDV // FEW030/// 19/15 Q1018=
METAR EGUW 080950Z AUTO 27007KT 9999NDV FEW006/// BKN012/// 18/14 Q1019
      RERA=
METAR EGVN 080950Z AUTO 24004KT 9999NDV BKN110/// 18/12 Q1019 RERA=
METAR EGVO 080950Z AUTO 33002KT 9999NDV BKN004/// BKN011/// 17/15 Q1019=
METAR EGVP 080950Z AUTO 16002KT 9999NDV // BKN011/// 19/15 Q1018=
METAR EGWU 080950Z AUTO 28003KT 9999NDV // BKN014/// BKN028/// 19/14
      Q1019=
METAR EGXG 080950Z AUTO 22009KT 9999NDV FEW029/// BKN090/// 19/10 Q1016=
METAR ETUO 080950Z AUTO 17003KT 9999NDV // ///////// 28/10 Q1020=
METAR GVAC 081000Z 06010KT 9999 BKN014 SCT100 25/19 Q1013 NOSIG=
METAR LEBG 081000Z 17008KT 140V200 CAVOK 32/08 Q1021=
METAR LIBH 080955Z 33013G29KT 9999 FEW030 27/09 Q1017 RMK FEW QUK 2
      QUL 1 E VIS MAR 20 KM VIS MIN 9999=
METAR LIBP 080950Z VRB06KT CAVOK 26/07 Q1022 RMK VIS MIN 9999=
METAR LIBY 080955Z 36018KT 9999 FEW020 25/10 Q1016 RMK FEW QUK 3 QUL
      1 N VIS MAR 20 KM VIS MIN 9999=
METAR LICA 080950Z 13009KT 360V270 9999 SCT020 28/24 Q1017 RMK VIS
      MIN 9999=
METAR LICF 080955Z 33002KT 9999 SCT030 30/25 Q1017 RMK BKN SCT080 QUK
      1 QUL 0 VIS MAR 10 KM MON LIB NC VIS MIN 9999=
METAR LKMT 081000Z 04005KT 320V120 CAVOK 20/10 Q1023 NOSIG RMK REG
      QNH 1021=
METAR LOIH 081000Z 33004KT 35KM SKC 25/13 Q1021 RMK SKC=
METAR LOWZ 081000Z 06004KT 50KM SKC 21/08 Q1023 RMK SKC=
####018000176####
SPAU31 AMMC 081010
SPECI YBCS 081006Z 17008KT 9999 5000S FU FEW024 SCT050 23/20 Q1016
     FM1010 17008KT 5000 FU FEW025 SCT050
     FM1200 17008KT 9999 FEW025 SCT045=
####018000119####
SPCN46 CWAO 081010
SPECI CYQA 081010Z AUTO 16003KT 2 1/2SM BR CLR 19/19 A3003 RMK SLP170
 DENSITY ALT 1400FT=

####018000711####
SPUS99 KWBC 081011
SPECI
KACV 081009Z AUTO 00000KT 2 1/2SM BR OVC001 10/09 A2997 RMK
     AO2=
KBEH 081009Z AUTO 00000KT 4SM BR CLR 22/22 A3003 RMK AO2 $=
KEKN 081009Z AUTO 00000KT 1SM BR BKN075 17/16 A3016 RMK AO2
     TSNO=
KFIT 081009Z AUTO 14005KT 4SM HZ OVC010 24/21 A3009 RMK AO2 CIG
     007V014=
KHLG 081009Z AUTO 00000KT 1 1/2SM BR FEW055 21/20 A3010 RMK
     AO2=
KLOZ 081009Z AUTO 00000KT 2 1/2SM BR CLR 19/19 A3010 RMK AO2=
KRHI 081009Z AUTO 31003KT 1/2SM FG SCT001 BKN006 17/16 A3003 RMK
     AO2=
KRKP 081009Z AUTO 14011G22KT 4SM +RA BR FEW009 BKN018 OVC070 26/24
     A2983 RMK AO2 P0003=
KTAD 081009Z AUTO 35005KT 10SM BKN009 BKN085 14/13 A3036 RMK
     AO2=
####018002629####
SAUS99 KWBC 081011
METAR
KCCA 081015Z AUTO 00000KT 5SM BR OVC007 22/22 A3006 RMK AO2=
KCDN 081015Z AUTO 00000KT 10SM CLR 23/19 A2998 RMK A02 P000=
KCKI 081015Z AUTO 00000KT BKN100 21/21 A2994 RMK AO2 PWINO=
KLBR 081005Z AUTO 00000KT 7SM OVC004 24/23 A3004 RMK AO2
     T02400230=
KLHB 081003Z AUTO 06003KT 7SM SCT030 SCT120 25/23 A2996 RMK AO2
     T02510231=
KLRO 081015Z AUTO 27004KT 9SM CLR 23/19 A2995 RMK AO2=
KLUD 081005Z AUTO 12003KT 10SM CLR 25/22 A3002 RMK AO2
     T02450223=
KMKN 081000Z AUTO 09003KT 10SM 24/23 A3003 RMK AO2=
KMKS 081015Z AUTO 00000KT 7SM CLR 22/20 A2995 RMK AO2 TSNO=
KMNZ 081009Z AUTO 14003KT 10SM SCT011 24/24 A3001 RMK AO2
     T02420240=
KMQB 081005Z AUTO 27006KT 7SM OVC004 23/23 A3005 RMK AO2
     T02300228=
KMWA 081005Z AUTO 00000KT 10SM SCT110 24/24 A3006 RMK AO2
     T02430236=
KOSA 081004Z AUTO 00000KT 7SM CLR 25/24 A3004 RMK AO1
     T02450238=
KPEZ 081005Z AUTO 02005KT 10SM BKN009 OVC014 25/23 A2992 RMK AO2
     T02500233=
KPKV 081006Z AUTO 18005KT 3SM +RA SCT015 BKN029 OVC060 24/23 A2986
     RMK AO2 P0007 T02420227=
KPPA 081005Z AUTO 35006KT 10SM -RA BKN110 17/16 A3018 RMK AO2=
KPSN 081005Z AUTO 09004KT 7SM 24/24 A3001 RMK AO2 T02410235=
KPYX 081010Z AUTO 02005KT 7SM OVC100 19/18 A3019 RMK AO2 P0001
     T01880177=
KRAS 081005Z AUTO 08011KT 3SM -RA FEW001 SCT019 BKN034 28/25 A2984
     RMK AO2 LTG DSNT NE=
KRBO 081005Z AUTO 02007KT 10SM -RA SCT017 BKN033 BKN040 26/25
     A2984 RMK AO2 LTG DSNT NE T02600250=
KRFI 081005Z AUTO 00000KT 7SM CLR 24/23 A3001 RMK AO2
     T02400228=
KRPH 081005Z AUTO 00000KT 10SM CLR 22/21 A3001 RMK AO2
     T02220209=
KRWV 081000Z AUTO 00000KT 7SM CLR 24/24 A2998 RMK AO2 LTG DSNT
     SE=
KRYW 081005Z AUTO 07004KT 5SM BR SCT008 BKN012 OVC042 23/22 A2999
     RMK AO2=
KSAR 081005Z AUTO 18004KT 10SM BKN065 26/23 A3004 RMK AO2=
KSEP 081005Z AUTO 00000KT 10SM CLR 23/21 A3002 RMK AO1=
KSLO 081002Z AUTO 20004KT 10SM CLR 24/22 A3004 RMK AO2
     T02380216=
KSLR 081002Z AUTO 12004KT 10SM OVC029 25/23 A3004 RMK AO2
     T02510234=
KSNK 081006Z AUTO 03005KT 7SM CLR 21/20 A3009 RMK AO2
     T02080198=
KSOA 081000Z AUTO 33003KT 10SM 22/21 A3006 RMK AO2=
KSWW 081005Z AUTO 36004KT 5SM SCT002 21/21 A3009 RMK AO1
     T02110206=
KT65 081005Z AUTO 03004KT 10SM BKN004 OVC050 26/25 A2979 RMK AO2
     LTG DSNT S T02570250=
KT82 081005Z AUTO 00000KT 22/22 A3002 RMK AO1 T02230215=
KUVA 081005Z AUTO 06007KT 10SM OVC023 24/23 A2995 RMK AO2
     T02410230=
KXBP 081005Z AUTO 00000KT 10SM CLR 24/22 A3003 RMK AO2
     T02370222=
####018000088####
SAMG20 FMMI 081000
METAR FMMI 081000Z 11007KT 060V160 9999 BKN020 19/12 Q1025 NOSIG=
####018000423####
SARO32 LROM 081000
METAR LRAR 081000Z 04008KT 350V080 9999 SCT032 22/15 Q1020=
METAR LRBM 081000Z 25004KT 9999 SCT009 17/16 Q1019 10CLRD//=
METAR LRCL 081000Z 30006KT 9999 FEW012 SCT018 BKN024 16/13 Q1020
0821//95=
METAR LROD 081000Z 36010KT 330V030 9999 SCT036 22/13 Q1021=
METAR LRSM 081000Z 05008KT 020V080 9999 SCT040 22/15 Q1020=
METAR LRTM 081000Z 25008KT 220V280 9999 -RA FEW010 SCT020 BKN025
16/14 Q1020=
####018000382####
SACZ43 LKPW 081000
METAR LKCV 081000Z VRB02KT CAVOK 22/07 Q1023 NOSIG=
METAR LKKB 081000Z VRB03KT 9999 FEW041 23/11 Q1023 NOSIG=
METAR LKLN 081000Z AUTO VRB03KT CAVOK 23/11 Q1024=
METAR LKNA 081000Z 35004KT CAVOK 20/08 Q1024 NOSIG=
METAR COR LKPD 081000Z 26003KT 210V010 9999 FEW040 23/08 Q1023
           NOSIG=
METAR LKPO 081000Z 30004KT 230V040 CAVOK 21/10 Q1023 NOSIG=
####018000333####
SARO33 LROM 081000
METAR LRBC 081000Z 36014KT 340V040 9999 BKN028 23/18 Q1017=
METAR LRCV 081000Z 05006KT 360V090 9999 SCT031 21/14 Q1017=
METAR LRIA 081000Z 30010KT 9999 FEW020 SCT034 22/17 Q1017=
METAR LRSV 081000Z 32016KT 9999 SCT010 BKN026 17/15 Q1019=
METAR LRTC 081000Z 35010KT 310V020 9999 FEW030CB BKN040 23/17 Q1015=
####018000067####
SAAG SANT 081000
METAR SANT 081000Z  32008KT 9999  07/05 Q1018=
####018000079####
SACH10 SCSC 081000 RRA
METAR
SCDA 081000Z 01009KT 9999 OVC026 14/08 Q1016=
####018000131####
SAEW40 LEMM 081000
METAR LEBG 081000Z 17008KT 140V200 CAVOK 32/08 Q1021=
METAR LEHC 081000Z 12007KT 080V170 CAVOK 32/15 Q1021=
####018000082####
SAGD31 TGPY 081000
METAR TGPY 081000Z 08011KT 9999 FEW021 BKN280 28/25 Q1012,HZ=####018000067####
SAAG SAVC 081000
METAR SAVC 081000Z 23004KT CAVOK 04/M00 Q0999=
####018000168####
SPAU31 KWBC 081011
SPECI
YBCS 081006Z 17008KT 9999 5000S FU FEW024 SCT050 23/20 Q1016
FM1010 17008KT 5000 FU FEW025 SCT050 FM1200 17008KT 9999 FEW025
SCT045=
####018000512####
SABO SLLP 081000
METAR SLLP 081000Z 07006KT 9999 FEW010 M04/M05 Q1036=
METAR SLVR 081000Z 15009KT 9999 FEW013 BKN023 BKN070 20/18 Q1015=
METAR SLCB 081000Z 00000KT 8000 FEW027CB SCT200 06/02 Q1025=
METAR SLTJ 081000Z 00000KT 9999 NSC 07/04 Q1022=
METAR SLTR 081000Z 03005KT 8000 TS VCSH SCT013 FEW020CB OVC070 22/21
Q1013=
METAR SLCO 081000Z 00000KT 9999 NSC 23/22 Q1012=
METAR SLSU 081000Z 03006KT 9999 SCT010 08/05 Q1028=
METAR SLET 081000Z NIL=
METAR SLPS 081000Z 09008KT 9999 BKN070 26/15 Q1012=
####018000758####
SAZA31 FAPR 081000
METAR FABL 081000Z 36010KT CAVOK 16/06 Q1033 NOSIG=
METAR FACT 081000Z VRB02KT CAVOK 19/05 Q1020 NOSIG=
METAR FAEL 081000Z 04012KT 010V070 CAVOK 21/08 Q1027=
METAR FAGG 081000Z VRB02KT CAVOK 16/05 Q1022=
METAR FAJS 081000Z 06009KT 030V110 9999 SCT030 14/06 Q1036 NOSIG=
METAR FAKN 081000Z 18003KT 9999 BKN020 17/11 Q1034 NOSIG=
METAR COR FALA 081000Z 05004KT 350V120 9999 SCT035 17/06 Q1035=
METAR FALE 081000Z 07008KT CAVOK 22/12 Q1030 NOSIG=
METAR FAMM 081000Z 02011KT 9999 FEW045 18/05 Q1032 NOSIG=
METAR FAPE 081000Z 03011KT CAVOK 15/11 Q1025 NOSIG=
METAR FAPN 081000Z AUTO 09005KT //// // ////// 18/06 Q1033=
METAR FAPP 081000Z 11006KT 9999 BKN030 15/07 Q1033 NOSIG=
METAR FAUP 081000Z 01019KT CAVOK 22/02 Q1027 NOSIG=
####018000093####
SAJM31 MKJS 081000
METAR MKJS 081000Z 12002KT 9999 FEW024 BKN034 26/22 Q1012=
DUPE
DUPE
####018000079####
SAAG SARE 081000
METAR SARE 081000Z 16009KT 9999 FEW006 SCT100 10/08 Q1018=
####018000082####
SAAG SARP 081000
METAR SARP 081000Z  14005KT 9999  BKN005 OVC015
15/13 Q1018=
####018000094####
SPUS31 KWBC 081011
SPECI
KIAH 081004Z COR 04008KT 7SM SCT007 BKN032 BKN130 25/24 A2993=
####018000123####
SAAG01 SABM 081000 RRC
METAR SADF 081000Z  00000KT CAVOK 04/01 Q1019=
METAR SAZM 081000Z  32008KT CAVOK 05/02 Q1014=
####018000077####
SPUS42 KWBC 081011
SPECI
KFTW 081008Z 14006KT 10SM BKN013 25/23 A2999=
####018000096####
SPUS42 KWBC 081011
SPECI
KHRL 081008Z AUTO 36006KT 10SM SCT017 BKN025 OVC110 26/26 A2977=
####018000073####
SAIN31 EGGY 081000
METAR VOBG 081000Z NIL=
METAR VOCI 081000Z NIL=
####018000484####
SAAM31 FCBB 081000
METAR FCBB 081000Z 21008KT 6000  BKN016 24/20 Q1015 NOSIG=
METAR FCPP 081000Z 22006KT 8000 SCT015 BKN030 25/21 Q1015 NOSIG=
METAR FKKD 081000Z VRB02KT 9999 BKN013 FEW016CB BKN120 28/25 Q1015
           BECMG BKN016 FEW020CB BKN120=
METAR FKYS 081000Z 30005KT 240V360 9999 BKN006 25/20 Q1019 NOSIG=
METAR FEFF 081000Z 28004KT 9999 FEW020 SCT300 28/23 Q1014 NOSIG=
METAR FOOL 081000Z 15004KT 120V190 8000 SCT010 OVC040 27/22 Q1015
           NOSIG=
####018000081####
SPUS51 KWBC 081011
SPECI
KSMQ 081008Z AUTO 00000KT 3SM BR CLR 22/21 A3001=
####018000085####
SPUS52 KWBC 081011
SPECI
KABR 081008Z AUTO 19003KT 1 3/4SM BR CLR 14/13 A3013=
####018000117####
SACZ41 LKPW 081000
METAR LKKU 081000Z 34011KT CAVOK 23/09 Q1022=
METAR LKLB 081000Z VRB05KT CAVOK 22/06 Q1024=
####018000358####
SAID32 WIII 081000
METAR WAMM 081000Z 00000KT 9999 FEW025 28/23 Q1009 NOSIG= 
METAR WIBB 081000Z 00000KT 9999 NIL SCT015 31/24 Q1007= 
METAR WIOO 081000Z 25006KT 8000 FEW011CB BKN010 28/26 Q.1009 NOSIG = 
METAR WIPP 081000Z 00000KT 7000 FEW015 27/23 Q1009= 
METAR WIKN NIL=
METAR WIPT NIL=
METAR WAOO NIL=
METAR WALL NIL=
METAR WADA NIL=
####018000051####
SAID31 EGGY 081000 RRA
METAR WALL 081000Z NIL=
####018000047####
SAID31 EGGY 081000
METAR WALL 081000Z NIL=
####018000319####
SANG31 YBBN 081000
METAR AYPY 081000Z 18015KT 9999 BKN040 26/23 Q1010 RMKS: HZ IN AREA=
METAR AYWK 081000Z NIL=
METAR AYVN 081000Z NIL=
METAR AYNZ 081000Z NIL=
METAR AYMH 081000Z NIL=
METAR AYGN 081000Z NIL=
METAR AYMO 081000Z NIL=
METAR AGGH 081000Z 00000KT 9999 HZ FEW015 SCT030 OVC300 25/24 Q1009=
####018000511####
SAID31 WIII 081000
METAR WIMM 081000Z 36006KT 6000 FEW017 32/24 Q1008 NOSIG= 
METAR WIDD 081000Z 24005KT 9999 FEW017 29/25 Q1008= 
METAR WAAA 081000Z 10003KT 9999 FEW020 27/26 Q1008= 
METAR WIHH 081000Z WIHH 30009KT 5000 TS FEW018CB BKN018 28/23 Q1011 C
B PS RA TO SOUTH= 
METAR WARR 081000Z 11004KT 9999 FEW020 29/23 Q1008 NSG= 
METAR WIII 081000Z 19006KT 4000 RA FEW018CB SCT020 25/22Q1010 RMK CB 
TO SE NOSIG= 
METAR WADD 081000Z 00000KT 9999 SCT018 28/25 Q1008 NOSIG= 
METAR WABB NIL=
####018000443####
SAAO33 DRRN 081000
METAR DBBB 081000Z 21008KT 8000 SCT012 BKN120 28/25 Q1014 NOSIG=
METAR DFFD 081000Z 23005KT CAVOK 27/22 Q1015 NOSIG=
METAR DGAA 081000Z 24006KT 9999 BKN015 SCT250 29/23 Q1015 NOSIG=
METAR DNKN 081000Z NIL=
METAR DNMM 081000Z 25009KT 9999 BKN012 28/25 Q1015 NOSIG=
METAR DRRN 081000Z VRB02KT CAVOK 28/21 Q1014 NOSIG=
METAR DXXX 081000Z 21007KT 160V280 9999 FEW015 29/24 Q1015 NOSIG=
METAR FTTJ 081000Z NIL=
####018000202####
SAID33 WIII 081000
METAR WATT 081000Z 00000KT 9999 SCT017 27/25 Q1010= 
METAR WABP NIL=
METAR WAJJ NIL=
METAR WAKK NIL=
METAR WAPP NIL=
METAR WARS NIL=
METAR WIAT NIL=
METAR WALR NIL=
####018001703####
SASD20 OEJD 081000
METAR OEAB 081000Z 09012KT 8000 FEW020 SCT200 33/M01 Q1020 NOSIG=
METAR OEAH 081000Z 36010KT CAVOK 45/07 Q1001 NOSIG=
METAR OEBA 081000Z 15003KT 9000 SKC 35/04 Q1016 NOSIG=
METAR OEBH 081000Z 01010KT CAVOK 40/03 Q1011 NOSIG=
METAR OEDF 081000Z 01016KT CAVOK 45/04 Q0999 NOSIG=
METAR OEDM 081000Z 04010KT CAVOK 42/05 Q1010=
METAR OEDR 081000Z 04012KT 8000 SKC 44/09 Q0998 NOSIG=
METAR OEGN 081000Z 23008KT CAVOK 36/29 Q1001 NOSIG=
METAR OEGS 081000Z 05011KT CAVOK 45/08 Q1008=
METAR OEGT 081000Z NIL=
METAR OEHL 081000Z 27002KT CAVOK 43/03 Q1012 NOSIG=
METAR OEJN 081000Z 34012KT CAVOK 38/25 Q1001 NOSIG=
METAR OEKB 081000Z 16008KT 9999 FEW045 45/22=
METAR OEKJ 081000Z NIL=
METAR OEKK 081000Z 03013KT CAVOK 45/15 Q1006=
METAR OEKM 081000Z 09014KT 7000 NSC 32/04 Q1020 NOSIG=
METAR OEMA 081000Z 10008KT CAVOK 46/00 Q1006 NOSIG=
METAR OEMH 081000Z NIL=
METAR OEMK 081000Z 32002KT CAVOK 44/24 Q1001=
METAR OENG 081000Z 05012KT 5000 DU SCT030 39/00 Q1012 NOSIG=
METAR OEPA 081000Z 35016KT CAVOK 45/05 Q1004=
METAR OERF 081000Z 01003KT CAVOK 43/12 Q1006=
METAR OERK 081000Z 02016KT 8000 SKC 42/M01 Q1007 NOSIG=
METAR OERR 081000Z 17007KT CAVOK 45/11 Q1007=
METAR OERY 081000Z 03015G25KT 5000 SA SKC 43/01 Q1008 NOSIG=
METAR OESH 081000Z 04018KT 3000 BLDU SKC 42/14 Q1002 NOSIG=
METAR OESK 081000Z 24008KT CAVOK 43/00 Q1009=
METAR OETB 081000Z 00000KT CAVOK 38/06 Q1010 NOSIG=
METAR OETF 081000Z 08009KT CAVOK 38/01 Q1015 NOSIG=
METAR OETR 081000Z 32006KT CAVOK 38/04 Q1010=
METAR OEWD 081000Z 03010KT 6000 SKC 43/11 Q1004=
METAR OEWJ 081000Z 30024KT CAVOK 34/27 Q1004=
METAR OEYN 081000Z 26017KT CAVOK 42/19 Q1000 NOSIG=
####018000387####
SAEE31 LOWM 081000
METAR UACK 081000Z 31007G11MPS 9999 BKN053CB SCT067 18/03 Q1011
02010070 NOSIG RMK QFE735=
METAR UACP 081000Z NIL=
METAR UAII 081000Z NIL=
METAR UADD 081000Z 34004MPS 300V360 9999 NSC 34/04 Q1013
NOSIG RMK QFE703/0937=
METAR UASK 081000Z 34002MPS 9999 SCT035 BKN100 22/11 Q1012
                   300/0060 NOSIG RMK QFE734=
METAR UASP 081000Z NIL=
####018001577####
SAAU31 YBBN 081000
METAR YPAD 081000Z 09006KT CAVOK 08/06 Q1026=
METAR YBAS 081000Z AUTO 09008KT 9999NDV // NCD 11/06 Q1020=
METAR YBBN 081000Z 19008KT CAVOK 17/11 Q1021
RMK 7SC080
NOSIG=
METAR YBCS 081000Z 16008KT 9999 FEW024 SCT050 23/20 Q1016
RMK FU
FM1010 16008KT 6000 FU FEW025 SCT050=
METAR YSCB 081000Z AUTO 10009KT 9999NDV // NCD 06/03 Q1028=
METAR YPXM 081000Z AUTO 20004KT 9999NDV // NCD 24/21 Q1012=
METAR YPCC 081000Z NIL=
METAR YCFS 081000Z AUTO 23011KT 9999NDV // SCT086 BKN115 14/11 Q1023=
METAR YPDN 081000Z 04007KT CAVOK 26/20 Q1012=
METAR YBCG 081000Z AUTO 19008KT 9000NDV // SCT026 BKN043 OVC057 15/13
Q1021=
METAR YHID 081000Z AUTO 16013KT 9999NDV // SCT026 BKN045 OVC055 24/22
Q1012=
METAR YPJT 081000Z AUTO 01009KT 9999NDV // SCT033 SCT040 BKN055 14/13
Q0998=
METAR YPKU 081000Z AUTO 12004KT 9999NDV // NCD 25/15 Q1014=
METAR YPLM 081000Z AUTO 13002KT 9999NDV // SCT019 OVC031 21/17 Q1008=
METAR YMML 081000Z 17005KT 9999 BKN043 08/05 Q1028
NOSIG=
METAR YPPH 081000Z 01011KT 9999 FEW023 SCT038 BKN140 15/13 Q0999
FM1000 33018G28KT 9999 -SHRA BKN020
INTER 1000/1130 27025G35KT 3000 +SHRA BKN010
INTER 1130/1300 27030G50KT 2000 TSGS BKN010 FEW030CB=
METAR YSSY 081000Z 22012KT 7000 -SHRA FEW008 SCT020 BKN040 12/11
Q1027
RMK VIS RED TO SE
FM1020 22010KT 9999 -SHRA SCT025 BKN040
INTER 1020/1300 5000 SHRA BKN010=
METAR YSTW 081000Z AUTO 15010KT 9999NDV // NCD 10/06 Q1024=
METAR YPTN 081000Z 08006KT CAVOK 24/15 Q1014=
METAR YBTL 081000Z 11005KT 9999 FEW030 SCT040 BKN170 22/19 Q1017=
####018000094####
SARS32 RUMS 081000 RRA
METAR COR URWI 081000Z VRB01MPS CAVOK 30/16 Q1014 NOSIG RMK SC065=
####018001352####
SAAU32 YBBN 081000
METAR YAMB 081000Z 19007KT CAVOK 16/10 Q1021
RMK 8SC075=
METAR YMAV 081000Z AUTO 13003KT 9999NDV // OVC046 10/07 Q1028=
METAR YBRM 081000Z 05008KT 9999 -SHRA SCT034 BKN064 25/22 Q1011=
METAR YCIN 081000Z AUTO 13004KT //// // ////// 23/19 Q1012=
METAR YSDU 081000Z AUTO 11009KT 9999NDV // NCD 10/05 Q1025=
METAR YFRT 081000Z AUTO 05012KT //// // ////// 15/02 Q1014=
METAR YGEL 081000Z AUTO 34013KT 9999NDV // SCT057 SCT067 OVC079 17/15
Q1003=
METAR YPGV 081000Z 15010KT 9999 FEW021 BKN350 24/21 Q1013=
METAR YBHM 081000Z AUTO 15016KT //// // ////// 19/16 Q1018=
METAR YMHB 081000Z 31006KT CAVOK 04/02 Q1030=
METAR YPKG 081000Z AUTO 35010KT 9999NDV // BKN064 OVC085 19/03 Q1005=
METAR YMLT 081000Z AUTO 00000KT 9999NDV // NCD 04/02 Q1030=
METAR YBMA 081000Z AUTO 14005KT 9999NDV // ////// 11/10 Q1019=
METAR YSNF 081000Z 10011KT 9999 FEW020 SCT028 BKN060 15/10 Q1017=
METAR YPEA 081000Z AUTO 01009KT 9999NDV // NCD 14/12 Q0998=
METAR YPPD 081000Z AUTO 05014KT 9999NDV // ////// 23/20 Q1009=
METAR YSRI 081000Z AUTO 23004KT 9999NDV // BKN042 OVC051 11/10 Q1028=
METAR YBRK 081000Z 22001KT 9999 SCT012 OVC030 14/13 Q1020=
METAR YWLM 081000Z 36003KT 9999 SCT020 BKN045 11/11 Q1026
RMK USE TAF FOR ARRIVALS. NEXT MANUAL OBS 2000Z=
METAR YPWR 081000Z AUTO 07008KT 9999NDV // NCD 10/00 Q1023=
####018000089####
SPUS52 KWBC 081011
SPECI
KHDO 081008Z AUTO 04005KT 10SM SCT026 SCT031 24/23 A2995=
####018000076####
SPUS52 KWBC 081011
SPECI
KPWA 081009Z 35004KT 7SM FEW004 23/21 A3005=
####018000089####
SPUS53 KWBC 081011
SPECI
KJLN 081008Z 08004KT 10SM VCTS BKN014 OVC028 23/22 A3005=
####018000077####
SPUS72 KWBC 081011
SPECI
KFTW 081008Z 14006KT 10SM BKN013 25/23 A2999=
####018000094####
SPUS72 KWBC 081011
SPECI
KIAH 081004Z COR 04008KT 7SM SCT007 BKN032 BKN130 25/24 A2993=
####018000096####
SPUS72 KWBC 081011
SPECI
KHRL 081008Z AUTO 36006KT 10SM SCT017 BKN025 OVC110 26/26 A2977=
####018000116####
SAIY42 LIIB 081000 RRA
METAR LIRX 080955Z 19004KT CAVOK 25/08 Q1019 RMK SKC VIS MIN 9999E
      VIS MAR 25 KM=
####018000088####
SPUS72 KWBC 081011
SPECI
KTXK 081008Z AUTO 00000KT 1 3/4SM BR OVC001 23/23 A3004=
####018000085####
SPUS73 KWBC 081011
SPECI
KABR 081008Z AUTO 19003KT 1 3/4SM BR CLR 14/13 A3013=
####018000089####
SPUS73 KWBC 081011
SPECI
KJLN 081008Z 08004KT 10SM VCTS BKN014 OVC028 23/22 A3005=
####018000089####
SPUS81 KWBC 081011
SPECI
KJLN 081008Z 08004KT 10SM VCTS BKN014 OVC028 23/22 A3005=
####018000075####
SASD32 OEJD 081000
METAR OETF 081000Z 08009KT CAVOK 38/01 Q1015 NOSIG=
####018000208####
SAUS17 KAWN 081000 RRF
METAR K79J 080956Z AUTO 00000KT 9SM CLR 24/21 A3002 RMK AO2 SLP159
      T02390211 TSNO $=
METAR KFFO 080955Z COR 00000KT 3SM BR CLR 21/20 A3008 RMK VIS SE-SW
      2 SLP179=
####018001271####
SPZZ40 KAWN 081011 RRB
SPECI CYBC 081008Z AUTO 08003KT 1 1/2SM OVC000 13/12 A3002=
SPECI CYKF 081008Z AUTO 00000KT 1/8SM FG FEW003 19/19 A3006 RMK SLP177
      DENSITY ALT 1600FT=
SPECI CYPY 081008Z AUTO 28003KT 240V300 1 3/8SM FEW001 11/11 A2993
      RMK VSBY VRBL 0.7V9.+=
SPECI CYUA 081002Z AUTO ///// 9SM FEW003 OVC006 05/ A3007=
SPECI CYUS 081004Z AUTO ///// 9SM FEW092 10/ A2979=
SPECI KAFF 081008Z AUTO 16005KT 10SM SCT012 BKN027 12/12 A3039 RMK
      AO2 SLP207=
SPECI KEGI 081007Z AUTO 00000KT 3/4SM R18/1200V1800FT BR CLR 21/21
      A3002 RMK AO2 SLP166 $=
SPECI KNQX 081008Z 10005KT 10SM SCT022CB BKN100 BKN200 28/24 A2992
      RMK AO2 OCNL LTGIC DSNT E CB DSNT E T2 SET $=
SPECI KVBG 081006Z AUTO 00000KT 10SM OVC004 12/11 A2993 RMK AO2 TSNO
      $=
SPECI LFRT 080935Z 04004KT 330V140 9999 FEW012 SCT250 19/15 Q1019 RMK
      B3=
PATC SP 1015 AWOS CLR BLO 120 10 46/43/0206/016=
SPECI YBCS 081006Z 17008KT 9999 5000S FU FEW024 SCT050 23/20 Q1016
      FM1010 17008KT 5000 FU FEW025 SCT050 FM1200 17008KT 9999
      FEW025 SCT045=
SPECI YSSY 081000Z 22012KT 7000 -SHRA FEW008 SCT020 BKN040 12/11 Q1027
      RMK VIS RED TO SE FM1020 22010KT 9999 -SHRA SCT025 BKN040
      INTER 1020/1300 5000 SHRA BKN010=
####018001589####
SAZZ40 KAWN 081000 RRO
METAR DAAY 081000Z 00000KT CAVOK 33/13 Q1025=
METAR DABT 081000Z 34008KT CAVOK 31/12 Q1023=
METAR DAOF 081000Z 10006KT 3500 HZ NSC 38/05 Q1014=
METAR DAOR 081000Z 12004KT CAVOK 36/05 Q1023=
METAR DAUE 081000Z 04014KT CAVOK 35/10 Q1020=
METAR DAUG 081000Z 00000KT CAVOK 35/12 Q1021=
METAR DAUI 081000Z 07026KT 0700 BLSA VV/// 41/07 Q1013=
METAR DAUK 081000Z 18006KT CAVOK 33/16 Q1017=
METAR DAUO 081000Z 09004KT CAVOK 34/17 Q1018=
METAR DAUU 081000Z 10008KT CAVOK 36/18 Q1018=
METAR FKKD 081000Z VRB02KT 9999 BKN013 FEW016CB BKN120 28/25 Q1015
      BECMG BKN016 FEW020CB BKN120=
METAR FKYS 081000Z 30005KT 240V360 9999 BKN006 25/20 Q1019 NOSIG=
METAR KFFO 080955Z COR 00000KT 3SM BR CLR 21/20 A3008 RMK VIS SE-SW
      2 SLP179=
METAR KNEL 081006Z AUTO 00000KT 2SM BR FEW016 OVC100 24/22 A3003 RMK
      AO2 SLP166 T02390217 $=
METAR MKJS 081000Z 12002KT 9999 FEW024 BKN034 26/22 Q1012=
METAR OEAH 081000Z 36010KT CAVOK 45/07 Q1001 NOSIG=
METAR OEKK 081000Z 03013KT CAVOK 45/15 Q1006=
METAR OEMA 081000Z 10008KT CAVOK 46/00 Q1006 NOSIG=
METAR OERF 081000Z 01003KT CAVOK 43/12 Q1006=
METAR OERR 081000Z 17007KT CAVOK 45/11 Q1007=
METAR OEWJ 081000Z 30024KT CAVOK 34/27 Q1004=
METAR TNCM 081000Z 08010KT 9999 SCT017 28/23 Q1015=
METAR UUYY 081000Z VRB01MPS 9999 FEW030 SCT200 30/13 Q1016 NOSIG 01CLRD61
      RMK QFE753/1004=
METAR WMKJ 081000Z 16004KT 9999 FEW022 BKN280 29/24 Q1008=
METAR WMSA 081000Z 29005KT 9999 FEW020 BKN280 33/25 Q1008=
METAR ZUCK 081000Z VRB01MPS 3000 BR SCT020 30/24 Q1001 NOSIG=
####018000076####
SAMC32 GMMC 081000 RRA
METAR GMTN 081000Z 00000KT 8000 NSC 26/20 Q1016=
####018001199####
SAUS20 KNKA 081011
SPECI KABR 081010Z AUTO 19003KT 4SM BR CLR 14/13 A3013 RMK AO2=
METAR KBNL 081015Z AUTO 00000KT 10SM CLR 23/18 A2999 RMK AO2 =
METAR KC75 081006Z AUTO 15004KT 5SM BR BKN014 BKN040 BKN048 24/24 
     A3001 RMK AO2 LTG DSNT E=
METAR KCQW 081015Z AUTO 00000KT 7SM CLR 21/18 A2997 RMK AO2 =
METAR KIGQ 081000Z AUTO 00000KT 5SM BR SCT060 SCT090 BKN110 23/22 
     A3002 RMK AO2 LTG DSNT S=
METAR KLAL 080955Z 05003KT 10SM SKC 24/20 A2997 RMK FIRST=
METAR KLKR 081015Z AUTO 00000KT 6SM BR CLR 18/18 A3000 RMK AO2 =
METAR KOLV 081015Z AUTO 00000KT 8SM CLR 23/23 A3008 RMK A01 P000 =
METAR KPEQ 081006Z AUTO 00000KT 10SM CLR 22/21 A3006 RMK AO2=
SPECI KPHD 081010Z AUTO 00000KT 1 1/2SM BR CLR 19/17 A3010 RMK AO2=
METAR KTAZ 081005Z AUTO 00000KT 3SM BR CLR 23/23 A3002 RMK AO2=
METAR KTFP 081005Z AUTO 00000KT 10SM SCT033 SCT070 BKN080 27/26 
     A2982 RMK AO2 LTG DSNT NE T02710255=
METAR KTIP 081005Z AUTO 00000KT 5SM BR CLR 24/23 A3004 RMK AO2 
     T02400230=
METAR KTYQ 081005Z AUTO 00000KT 7SM SCT070 BKN080 OVC110 23/21 
     A3006 RMK AO2=
METAR KVYS 081005Z AUTO 00000KT 4SM BR OVC014 23/22 A3002 RMK AO2 
     LTG DSNT SE T02300215=
####018000108####
SAAK41 KNKA 081011
SPECI PAPN 081010Z AUTO 08004KT 10SM OVC055 06/06 A2994 RMK AO2 
    PWINO TSNO $=
####018000080####
SPCN42 CWAO 081010
SPECI CYUA 081010Z AUTO 27007KT 9SM OVC005 05/ A3007=

####018000130####
SPCN47 CWAO 081011
SPECI CYTZ 081011Z AUTO 19002KT 2 1/4SM BR FEW003 19/18 A3002 RMK
 SLP165 DENSITY ALT 600FT RVR MISG=

####018000115####
SPCN46 CWAO 081011
SPECI CYQA 081011Z AUTO 17002KT 3SM BR CLR 19/19 A3003 RMK SLP170
 DENSITY ALT 1400FT=

####018000112####
SAAE31 VTBB 081000 RRA
METAR VTSP 081000Z 29008KT 9000 FEW018 SCT120 BKN300 29/24 Q1009
           A2981=
####018000101####
SAUS90 KWBC 081012
METAR KEHA 081008Z AUTO 03004KT 17/17 RMK AO1 PK WND 09 044
     T01720167=
####018000096####
SAUS98 KWBC 081012
METAR KEHA 081008Z AUTO 03004KT 17/17 RMK AO1 PK WND 09 044
T01720167=
####018000234####
SPUS99 KWBC 081012
SPECI
KABR 081010Z AUTO 19003KT 4SM BR CLR 14/13 A3013 RMK AO2=
KPHD 081010Z AUTO 00000KT 1 1/2SM BR CLR 19/17 A3010 RMK AO2=
PAPN 081010Z AUTO 08004KT 10SM OVC055 06/06 A2994 RMK AO2 PWINO
     TSNO $=
####018000983####
SAUS99 KWBC 081012
METAR
KBNL 081015Z AUTO 00000KT 10SM CLR 23/18 A2999 RMK AO2=
KC75 081006Z AUTO 15004KT 5SM BR BKN014 BKN040 BKN048 24/24 A3001
     RMK AO2 LTG DSNT E=
KCQW 081015Z AUTO 00000KT 7SM CLR 21/18 A2997 RMK AO2=
KIGQ 081000Z AUTO 00000KT 5SM BR SCT060 SCT090 BKN110 23/22 A3002
     RMK AO2 LTG DSNT S=
KLAL 080955Z 05003KT 10SM SKC 24/20 A2997 RMK FIRST=
KLKR 081015Z AUTO 00000KT 6SM BR CLR 18/18 A3000 RMK AO2=
KOLV 081015Z AUTO 00000KT 8SM CLR 23/23 A3008 RMK A01 P000=
KPEQ 081006Z AUTO 00000KT 10SM CLR 22/21 A3006 RMK AO2=
KTAZ 081005Z AUTO 00000KT 3SM BR CLR 23/23 A3002 RMK AO2=
KTFP 081005Z AUTO 00000KT 10SM SCT033 SCT070 BKN080 27/26 A2982
     RMK AO2 LTG DSNT NE T02710255=
KTIP 081005Z AUTO 00000KT 5SM BR CLR 24/23 A3004 RMK AO2
     T02400230=
KTYQ 081005Z AUTO 00000KT 7SM SCT070 BKN080 OVC110 23/21 A3006 RMK
     AO2=
KVYS 081005Z AUTO 00000KT 4SM BR OVC014 23/22 A3002 RMK AO2 LTG
     DSNT SE T02300215=
####018000344####
SAEW37 LEMM 081000
METAR LEBR 081000Z AUTO 12012KT 090V150 9999 ////// 33/16 Q1018=
METAR LEGA 081000Z 36007KT CAVOK 36/15 Q1019=
METAR LEGT 081000Z NIL=
METAR LEMO 081000Z 29003KT 240V020 9999 FEW050 27/19
Q1016 NOSIG=
METAR LERI 081000Z 06006KT CAVOK 32/20 Q1019 NOSIG=
METAR LERT 081000Z 28005KT 240V330 9000 NSC 26/20 Q1016 NOSIG=
####018000083####
SAQB31 LQTZ 081000
METAR
LQTZ 081000Z 21004KT 170V260 9999 FEW040 20/// Q1023=
####018000432####
SAAP32 FAPR 081000
METAR FABL 081000Z 36010KT CAVOK 16/06 Q1033 NOSIG=
METAR FAJS 081000Z 06009KT 030V110 9999 SCT030 14/06 Q1036 NOSIG=
METAR FDMS 081000Z 00000KT 9999 BKN030 16/14 Q1031 NOSIG=
METAR FLLS 081000Z 06015KT 9999 BKN030 19/09 Q1028=
METAR FQBR 081000Z 19012KT 9999 SCT020 23/17 Q1026=
METAR FQMA 081000Z 14004KT 090V180 9999 BKN020 24/16 Q1030 NOSIG=
METAR FXMM 081000Z 05015KT 9999 FEW035 16/02 Q1033 NOSIG=
####018000694####
SAKZ31 RUMS 081000
METAR UAAA 081000Z 11003MPS 090V170 9999 SCT050CB BKN100 29/11 Q1013
88CLRD65 TEMPO TS=
METAR UACC 081000Z 26004MPS 220V310 CAVOK 25/03 Q1009 220/0070 NOSIG
RMK QFE725/0967=
METAR UAKK 081000Z 09002MPS 010V160 9999 BKN050CB BKN/// 25/04 Q1009
230///70 NOSIG RMK QFE710/0947=
METAR UAOO 081000Z NIL=
METAR UARR 081000Z NIL=
METAR UATE 081000Z 33009G14MPS CAVOK 38/12 Q1010 300///70 NOSIG RMK
QFE756/1008=
METAR UATG 081000Z 36004G08MPS CAVOK 40/10 Q1009 32CLRD70 NOSIG RMK
QFE758/1011 =
METAR UATT 081000Z 06008MPS 020V090 9999 NSC 32/03 Q1010 13CLRD70
NOSIG RMK QFE738/0984=
METAR UAUU 081000Z 35006G12MPS CAVOK 26/M01 Q1013 33CLRD70 NOSIG RMK
QFE744/0992=
####018000296####
SATR31 RUMS 081000
METAR UTAA 081000Z 07004MPS 030V120 9999 SKC 44/03 Q1007 NOSIG=
METAR UTAK 081000Z 29004MPS CAVOK 38/17 Q1008 NOSIG=
METAR UTAM 081000Z 04005MPS CAVOK 41/06 Q1006 NOSIG=
METAR UTAT 081000Z 18004MPS CAVOK 44/20 Q1007 NOSIG=
METAR UTAV 081000Z 03006MPS CAVOK 40/09 Q1006=
####018000086####
SANL33 EHDB 080955 RRA
METAR EHJR 080955Z AUTO 27015G16KT //// 16/15 Q1018 W15/S3=
####018000086####
SANL33 EHDB 080955 RRB
METAR EHSC 080955Z AUTO 28010G12KT 9999 17/15 Q1020 W///S2=
####018000100####
SAKY31 RUMS 081000
METAR UAFM 081000Z 34004MPS CAVOK 33/06 Q1012 NOSIG=
METAR UAFO 081000Z NIL=
####018000156####
SAAY31 RUMS 081000
METAR UDYZ 081000Z VRB03MPS 9999 FEW050 36/13 Q1010 09010070 NOSIG=
METAR UDSG 081000Z 06008MPS 9999 NSC 31/14 Q1016 02CLRD70 NOSIG=
####018000086####
SANL33 EHDB 080955 RRC
METAR EHSA 080955Z AUTO 25008G09KT 9999 16/15 Q1019 W16/S2=
####018000180####
SAMX41 MMMX 081006
METAR MMIT 081000Z RTD VRB02KT 5SM HZ BKN010 26/24 A2975 RMK 8/600 =
METAR MMTB 081000Z RTD 00000KT 7SM OVC018 23/21 A2983 RMK 8/6// 
           BINOVC =
####018003054####
SAUS70 KWBC 081012
METAR
KCCA 081015Z AUTO 00000KT 5SM BR OVC007 22/22 A3006 RMK AO2=
KCDN 081015Z AUTO 00000KT 10SM CLR 23/19 A2998 RMK A02 P000=
KCKI 081015Z AUTO 00000KT BKN100 21/21 A2994 RMK AO2 PWINO=
KLBR 081005Z AUTO 00000KT 7SM OVC004 24/23 A3004 RMK AO2
     T02400230=
KLHB 081003Z AUTO 06003KT 7SM SCT030 SCT120 25/23 A2996 RMK AO2
     T02510231=
KLRO 081015Z AUTO 27004KT 9SM CLR 23/19 A2995 RMK AO2=
KLUD 081005Z AUTO 12003KT 10SM CLR 25/22 A3002 RMK AO2
     T02450223=
KMKS 081015Z AUTO 00000KT 7SM CLR 22/20 A2995 RMK AO2 TSNO=
KMNZ 081009Z AUTO 14003KT 10SM SCT011 24/24 A3001 RMK AO2
     T02420240=
KMQB 081005Z AUTO 27006KT 7SM OVC004 23/23 A3005 RMK AO2
     T02300228=
KMWA 081005Z AUTO 00000KT 10SM SCT110 24/24 A3006 RMK AO2
     T02430236=
KOSA 081004Z AUTO 00000KT 7SM CLR 25/24 A3004 RMK AO1
     T02450238=
KPEZ 081005Z AUTO 02005KT 10SM BKN009 OVC014 25/23 A2992 RMK AO2
     T02500233=
KPKV 081006Z AUTO 18005KT 3SM +RA SCT015 BKN029 OVC060 24/23 A2986
     RMK AO2 P0007 T02420227=
KPPA 081005Z AUTO 35006KT 10SM -RA BKN110 17/16 A3018 RMK AO2=
KPYX 081010Z AUTO 02005KT 7SM OVC100 19/18 A3019 RMK AO2 P0001
     T01880177=
KRAS 081005Z AUTO 08011KT 3SM -RA FEW001 SCT019 BKN034 28/25 A2984
     RMK AO2 LTG DSNT NE=
KRBO 081005Z AUTO 02007KT 10SM -RA SCT017 BKN033 BKN040 26/25
     A2984 RMK AO2 LTG DSNT NE T02600250=
KRPH 081005Z AUTO 00000KT 10SM CLR 22/21 A3001 RMK AO2
     T02220209=
KRYW 081005Z AUTO 07004KT 5SM BR SCT008 BKN012 OVC042 23/22 A2999
     RMK AO2=
KSAR 081005Z AUTO 18004KT 10SM BKN065 26/23 A3004 RMK AO2=
KSLO 081002Z AUTO 20004KT 10SM CLR 24/22 A3004 RMK AO2
     T02380216=
KSLR 081002Z AUTO 12004KT 10SM OVC029 25/23 A3004 RMK AO2
     T02510234=
KSNK 081006Z AUTO 03005KT 7SM CLR 21/20 A3009 RMK AO2
     T02080198=
KSWW 081005Z AUTO 36004KT 5SM SCT002 21/21 A3009 RMK AO1
     T02110206=
KT65 081005Z AUTO 03004KT 10SM BKN004 OVC050 26/25 A2979 RMK AO2
     LTG DSNT S T02570250=
KT82 081005Z AUTO 00000KT 22/22 A3002 RMK AO1 T02230215=
KUVA 081005Z AUTO 06007KT 10SM OVC023 24/23 A2995 RMK AO2
     T02410230=
KXBP 081005Z AUTO 00000KT 10SM CLR 24/22 A3003 RMK AO2
     T02370222=
KBNL 081015Z AUTO 00000KT 10SM CLR 23/18 A2999 RMK AO2=
KC75 081006Z AUTO 15004KT 5SM BR BKN014 BKN040 BKN048 24/24 A3001
     RMK AO2 LTG DSNT E=
KCQW 081015Z AUTO 00000KT 7SM CLR 21/18 A2997 RMK AO2=
KLKR 081015Z AUTO 00000KT 6SM BR CLR 18/18 A3000 RMK AO2=
KOLV 081015Z AUTO 00000KT 8SM CLR 23/23 A3008 RMK A01 P000=
KPEQ 081006Z AUTO 00000KT 10SM CLR 22/21 A3006 RMK AO2=
KTAZ 081005Z AUTO 00000KT 3SM BR CLR 23/23 A3002 RMK AO2=
KTFP 081005Z AUTO 00000KT 10SM SCT033 SCT070 BKN080 27/26 A2982
     RMK AO2 LTG DSNT NE T02710255=
KTIP 081005Z AUTO 00000KT 5SM BR CLR 24/23 A3004 RMK AO2
     T02400230=
KTYQ 081005Z AUTO 00000KT 7SM SCT070 BKN080 OVC110 23/21 A3006 RMK
     AO2=
KVYS 081005Z AUTO 00000KT 4SM BR OVC014 23/22 A3002 RMK AO2 LTG
     DSNT SE T02300215=
####018000141####
SAUS80 KWBC 081000 RRD
METAR
KMKN 081000Z AUTO 09003KT 10SM 24/23 A3003 RMK AO2=
KSOA 081000Z AUTO 33003KT 10SM 22/21 A3006 RMK AO2=
####018000191####
SAEQ01 SEQU 081000
METAR
SEQU 081000Z 08001KT 9999 SCT100 08/07 Q1026 RMK A3032 NOSIG=
SEGU 081000Z 21007KT 9999 BKN030 23/19 Q1011 NOSIG=
SEMT 081000Z 19005KT 9999 OVC016 23/20 Q1012=
####018000762####
SAUR30 UKMS 081000
METAR UKBB 081000Z 31003MPS 270V330 9999 FEW024
         BKN032 25/18 Q1014    88CLRD95 NOSIG=
METAR UKHH NIL=
METAR UKOO 081000Z 34004MPS 310V030 CAVOK 26/15 Q1014
          34090070 NOSIG=
METAR UKDE 081000Z 24004MPS 160V290 9999 SCT050 28/16
          Q1014 20CLRD70 NOSIG=
METAR UKDD 081000Z VRB02MPS 9999 BKN033CB 28/17 Q1014
          08090070 TEMPO VRB10G15MPS -TSRA SQ
         BKN020CB=
METAR UKFF 081000Z 03002MPS 320V080 9999 FEW040 29/16
          Q1013 19010070 NOSIG=
METAR UKLL 081000Z 32004MPS 220V010 9999 BKN046 18/11
          Q1021 31210365 NOSIG=
METAR UKCC 081000Z 00000MPS CAVOK 28/16 Q1015
         08090070 NOSIG=
METAR UKDR 081000Z VRB01MPS 9999 BKN033 OVC200 29/18
         Q1013 1809//70 NOSIG=
####018000068####
SAAG SABE 081000
METAR SABE 081000Z  27007KT CAVOK 09/M01 Q1019=
####018000090####
SAAF21 LFPW 081000 CCA
METAR COR FALA 081000Z 05004KT 350V120 9999 SCT035 17/06 Q1035=
####018000039####
SAEQ00 SEQU 081005
METAR
SELT NIL=
####018000811####
SACI31 ZBBB 081000
METAR ZBAA 081000Z 16003MPS 110V210 CAVOK 36/10 Q1003 NOSIG=
METAR ZBSJ 081000Z 14003MPS CAVOK 33/19 Q1004 NOSIG=
METAR ZBTJ 081000Z 17006MPS CAVOK 30/16 Q1004 NOSIG=
METAR ZBYN 081000Z 15002MPS CAVOK 30/12 Q1007 NOSIG=
METAR ZGGG 081000Z 15006MPS 9999 FEW050TCU BKN050 34/25 Q1004 NOSIG=
METAR ZSHC 081000Z 29003MPS 6000 -SHRA BKN023 FEW033CB 27/24 Q1005
 TEMPO TSRA
 SCT033CB=
METAR ZSPD 081000Z 12007G12MPS 9999 BKN013 27/24 Q1006 NOSIG=
METAR ZSSS 081000Z 13006MPS 090V150 9999 BKN023 28/23 Q1005 BECMG
 BKN011
 OVC040=
METAR ZWSH 081000Z 13003MPS 070V170 CAVOK 34/01 Q1013 NOSIG=
METAR ZWWW 081000Z 31004MPS 9999 FEW040CB 32/09 Q1011 NOSIG=
METAR ZYTL 081000Z 25004MPS 200V270 9999 SCT033 27/19 Q1006 NOSIG=
METAR ZYTX 081000Z 01002MPS 9999 FEW030CB 23/19 Q1006 NOSIG=
####018000399####
SAAF32 KWBC 081000 RRB
METAR
FCBB 081000Z 21008KT 6000 BKN016 24/20 Q1015 NOSIG=
FCPP 081000Z 22006KT 8000 SCT015 BKN030 25/21 Q1015 NOSIG=
FEFT 081000Z 32006KT 9999 SCT006 BKN150 26/22 Q1017=
FKKD 081000Z VRB02KT 9999 BKN013 FEW016CB BKN120 28/25 Q1015 BECMG
     BKN016 FEW020CB BKN120=
FOOL 081000Z 15004KT 120V190 8000 SCT010 OVC040 27/22 Q1015
     NOSIG=
FTTJ 081000Z NIL=
####018000398####
SAXX60 KWBC 081000 RRH
METAR
PHNG 080957Z 09009KT 10SM -RA SCT026 BKN040 24/21 A3005 RMK AO2
     RAB53 SLP172 P0000 T02440206 402830222 $=
K79J 080956Z AUTO 00000KT 9SM CLR 24/21 A3002 RMK AO2 SLP159
     T02390211 TSNO $=
KFFO 080955Z COR 00000KT 3SM BR CLR 21/20 A3008 RMK VIS SE-SW 2
     SLP179=
KFFO 080955Z COR 00000KT 3SM BR CLR 21/20 A3008 RMK VIS SE-SW 2
     SLP179=
####018000760####
SPUS70 KWBC 081012
SPECI
KACV 081009Z AUTO 00000KT 2 1/2SM BR OVC001 10/09 A2997 RMK
     AO2=
KBEH 081009Z AUTO 00000KT 4SM BR CLR 22/22 A3003 RMK AO2 $=
KFIT 081009Z AUTO 14005KT 4SM HZ OVC010 24/21 A3009 RMK AO2 CIG
     007V014=
KHLG 081009Z AUTO 00000KT 1 1/2SM BR FEW055 21/20 A3010 RMK
     AO2=
KLOZ 081009Z AUTO 00000KT 2 1/2SM BR CLR 19/19 A3010 RMK AO2=
KRHI 081009Z AUTO 31003KT 1/2SM FG SCT001 BKN006 17/16 A3003 RMK
     AO2=
KRKP 081009Z AUTO 14011G22KT 4SM +RA BR FEW009 BKN018 OVC070 26/24
     A2983 RMK AO2 P0003=
KTAD 081009Z AUTO 35005KT 10SM BKN009 BKN085 14/13 A3036 RMK
     AO2=
KABR 081010Z AUTO 19003KT 4SM BR CLR 14/13 A3013 RMK AO2=
KPHD 081010Z AUTO 00000KT 1 1/2SM BR CLR 19/17 A3010 RMK AO2=
####018000125####
SAXX60 KWBC 081012
METAR
KNEL 081006Z AUTO 00000KT 2SM BR FEW016 OVC100 24/22 A3003 RMK AO2
     SLP166 T02390217 $=
####018000347####
SAUS70 KWBC 081000 RRK
METAR
KNSE 080956Z AUTO 00000KT 3/4SM BR CLR 23/21 A3002 RMK AO2 SLP149
     T02280211 $=
KRWV 081000Z AUTO 00000KT 7SM CLR 24/24 A2998 RMK AO2 LTG DSNT
     SE=
KIGQ 081000Z AUTO 00000KT 5SM BR SCT060 SCT090 BKN110 23/22 A3002
     RMK AO2 LTG DSNT S=
KLAL 080955Z 05003KT 10SM SKC 24/20 A2997 RMK FIRST=
####018000104####
SPUS80 KWBC 081012
SPECI
KEKN 081009Z AUTO 00000KT 1SM BR BKN075 17/16 A3016 RMK AO2
     TSNO=
####018000298####
SAUS80 KWBC 081012
METAR
KPSN 081005Z AUTO 09004KT 7SM 24/24 A3001 RMK AO2 T02410235=
KRFI 081005Z AUTO 00000KT 7SM CLR 24/23 A3001 RMK AO2
     T02400228=
KSEP 081005Z AUTO 00000KT 10SM CLR 23/21 A3002 RMK AO1=
KEHA 081008Z AUTO 03004KT 17/17 RMK AO1 PK WND 09 044
     T01720167=
####018000094####
SAAF34 KWBC 081000 RRA
METAR
FEFF 081000Z 28004KT 9999 FEW020 SCT300 28/23 Q1014 NOSIG=
####018000192####
SPAU31 KWBC 081012
SPECI
YSSY 081000Z 22012KT 7000 -SHRA FEW008 SCT020 BKN040 12/11 Q1027
RMK VIS RED TO SE FM1020 22010KT 9999 -SHRA SCT025 BKN040 INTER
1020/1300 5000 SHRA BKN010=
####018000223####
SAAF31 KWBC 081000 RRB
METAR
DBBB 081000Z 21008KT 8000 SCT012 BKN120 28/25 Q1014 NOSIG=
DGAA 081000Z 24006KT 9999 BKN015 SCT250 29/23 Q1015 NOSIG=
DNKN 081000Z NIL=
DRRN 081000Z VRB02KT CAVOK 28/21 Q1014 NOSIG=
####018000080####
SPAK32 KWBC 081012
SPECI
PATC SP 1015 AWOS CLR BLO 120 10 46/43/0206/016=
####018000361####
SAPO31 LPMG 081000
METAR LPFR 081000Z 23007KT 9000 BKN010 BKN012 23/20 Q1016=
METAR LPMA 081000Z 21005KT 150V310 9999 FEW016 23/16 Q1020 RS20002KT
0523004G17KT 2336011KT=
METAR LPPR 081000Z 23007KT 180V260 5000 BR SCT250 22/19 Q1014=
METAR LPPS 081000Z 02010KT 9999 FEW016 SCT030 21/15 Q1020=
METAR LPPT 081000Z 26006KT 230V300 CAVOK 26/19 Q1015 NOSIG=
####018000429####
SAPL31 EPWA 081000
METAR EPWA 081000Z 31010KT 260V360 9999 FEW043 22/12 Q1021
      NOSIG=
METAR EPGD 081000Z 30006KT 240V350 CAVOK 23/09 Q1021=
METAR EPKK 081000Z 27007KT 240V330 9999 FEW046 22/08 Q1022=
METAR EPPO 081000Z 32007KT 250V360 CAVOK 22/09 Q1022=
METAR EPRZ 081000Z 32011KT 9999 SCT040 21/11 Q1021=
METAR EPBY 081000Z 31005KT 210V010 CAVOK 22/09 Q1022=
METAR EPZG 081000Z 20005KT 130V230 CAVOK 24/08 Q1022=
####018000073####
SAAS31 KWBC 081005 RRA
METAR
VOBG 081000Z NIL=
VOCI 081000Z NIL=
####018000078####
SAAO31 KWBC 081000 RRA
METAR
GMTN 081000Z 00000KT 8000 NSC 26/20 Q1016=
####018000076####
SAAG41 KWBC 081000 RRA
METAR
SAVC 081000Z 23004KT CAVOK 04/M00 Q0999=
####018000108####
SAAS33 KWBC 081005 RRA
METAR
VTSP 081000Z 29008KT 9000 FEW018 SCT120 BKN300 29/24 Q1009
     A2981=
####018000110####
SAUK51 EGGY 080950 RRB
METAR EGDM 080950Z 22005KT 9999 FEW016 SCT033 BKN120 19/14 Q1019
    TEMPO SCT018=
####018000109####
SAAS32 KWBC 081005 RRA
METAR
VMMC 081000Z 19014KT 180V260 9999 FEW025 SCT090 30/27 Q1006
     NOSIG=
####018000335####
SAPL32 EPWA 081000
METAR EPKT 081000Z 31008KT CAVOK 20/08 Q1023=
METAR EPLL 081000Z 29006KT 230V330 CAVOK 21/06 Q1022=
METAR EPSC 081000Z 29002KT CAVOK 22/12 Q1022=
METAR EPWR 081000Z 02005KT 340V090 CAVOK 23/11 Q1023=
METAR EPBY 081000Z 31005KT 210V010 CAVOK 22/09 Q1022=
METAR EPZG 081000Z 20005KT 130V230 CAVOK 24/08 Q1022=
####018000278####
SAAG31 KWBC 081000 RRA
METAR
SARE 081000Z 16009KT 9999 FEW006 SCT100 10/08 Q1018=
SARP 081000Z 14005KT 9999 BKN005 OVC015 15/13 Q1018=
SASA 081000Z 36004KT CAVOK 10/07 Q 1020=
SASJ 081000Z 00000KT CAVOK 09/07 Q1018=
SAWE 081000Z 27006KT 9999 BKN050 M01/M02 Q0987=
####018000353####
SPXX60 KWBC 081012
SPECI
KAFF 081008Z AUTO 16005KT 10SM SCT012 BKN027 12/12 A3039 RMK AO2
     SLP207=
KNQX 081008Z 10005KT 10SM SCT022CB BKN100 BKN200 28/24 A2992 RMK
     AO2 OCNL LTGIC DSNT E CB DSNT E T2 SET $=
KVBG 081006Z AUTO 00000KT 10SM OVC004 12/11 A2993 RMK AO2 TSNO
     $=
PATC SP 1015 AWOS CLR BLO 120 10 46/43/0206/016=
####018000139####
SAIY40 LIIB 081000 RRB
METAR LIVP 080955Z VRB01KT 6000 2000SW BR OVC001 12/10 Q1029 RMK OVC
      MON INVIS VAL NE LIB VIS MIN 2000SW=
####018001680####
SAAU31 KWBC 081000 RRA
METAR
YBAS 081000Z AUTO 09008KT 9999NDV // NCD 11/06 Q1020=
YBBN 081000Z 19008KT CAVOK 17/11 Q1021 RMK 7SC080 NOSIG=
YBCG 081000Z AUTO 19008KT 9000NDV // SCT026 BKN043 OVC057 15/13
     Q1021=
YBCS 081000Z 16008KT 9999 FEW024 SCT050 23/20 Q1016 RMK FU FM1010
     16008KT 6000 FU FEW025 SCT050=
YBMA 081000Z AUTO 14005KT 9999NDV // ////// 11/10 Q1019=
YBRK 081000Z 22001KT 9999 SCT012 OVC030 14/13 Q1020=
YBRM 081000Z 05008KT 9999 -SHRA SCT034 BKN064 25/22 Q1011=
YBTL 081000Z 11005KT 9999 FEW030 SCT040 BKN170 22/19 Q1017=
YMHB 081000Z 31006KT CAVOK 04/02 Q1030=
YMML 081000Z 17005KT 9999 BKN043 08/05 Q1028 NOSIG=
YPAD 081000Z 09006KT CAVOK 08/06 Q1026=
YPCC 081000Z NIL=
YPDN 081000Z 04007KT CAVOK 26/20 Q1012=
YPEA 081000Z AUTO 01009KT 9999NDV // NCD 14/12 Q0998=
YPLM 081000Z AUTO 13002KT 9999NDV // SCT019 OVC031 21/17 Q1008=
YPPD 081000Z AUTO 05014KT 9999NDV // ////// 23/20 Q1009=
YPPH 081000Z 01011KT 9999 FEW023 SCT038 BKN140 15/13 Q0999 FM1000
     33018G28KT 9999 -SHRA BKN020 INTER 1000/1130 27025G35KT 3000
     +SHRA BKN010 INTER 1130/1300 27030G50KT 2000 TSGS BKN010
     FEW030CB=
YPTN 081000Z 08006KT CAVOK 24/15 Q1014=
YPXM 081000Z AUTO 20004KT 9999NDV // NCD 24/21 Q1012=
YSCB 081000Z AUTO 10009KT 9999NDV // NCD 06/03 Q1028=
YSDU 081000Z AUTO 11009KT 9999NDV // NCD 10/05 Q1025=
YSNF 081000Z 10011KT 9999 FEW020 SCT028 BKN060 15/10 Q1017=
YSRI 081000Z AUTO 23004KT 9999NDV // BKN042 OVC051 11/10 Q1028=
YSSY 081000Z 22012KT 7000 -SHRA FEW008 SCT020 BKN040 12/11 Q1027
     RMK VIS RED TO SE FM1020 22010KT 9999 -SHRA SCT025 BKN040
     INTER 1020/1300 5000 SHRA BKN010=
####018000140####
SAAW32 KWBC 081000 RRC
METAR
OEMA 081000Z 10008KT CAVOK 46/00 Q1006 NOSIG=
OTBD 081000Z 03008KT 360V070 6000 NSC 37/29 Q0999 NOSIG=
####018000088####
SAAW33 KWBC 081000 RRB
METAR
OBBI 081000Z 36010KT 7000 NSC 37/25 Q1000 BECMG 8KM=
####018000176####
SAAW34 KWBC 080945 RRE
METAR
UACP 081000Z NIL=
UADD 081000Z 34004MPS 300V360 9999 NSC 34/04 Q1013 NOSIG RMK
     QFE703/0937=
UAII 081000Z NIL=
UASP 081000Z NIL=
####018000088####
SAAW42 KWBC 081000 RRA
METAR
OBBI 081000Z 36010KT 7000 NSC 37/25 Q1000 BECMG 8KM=
####018000088####
SACA31 KWBC 081000 RRB
METAR
MKJS 081000Z 12002KT 9999 FEW024 BKN034 26/22 Q1012=
####018000099####
SPFR32 KWBC 081012
SPECI
LFRT 080935Z 04004KT 330V140 9999 FEW012 SCT250 19/15 Q1019 RMK B3=
####018000081####
SACA33 KWBC 081000 RRC
METAR
TNCM 081000Z 08010KT 9999 SCT017 28/23 Q1015=
####018000267####
SACI31 KWBC 081000 RRA
METAR
RCKH 081000Z 27007KT 240V300 9999 FEW013 BKN200 31/26 Q1008
     NOSIG=
RCSS 081000Z 25008KT 210V290 9999 FEW020 BKN035 BKN080 32/23 Q1007
     NOSIG=
RCTP 081000Z 23011KT 9999 FEW025 BKN080 BKN200 30/25 Q1006
     NOSIG=
####018000139####
SAEM31 KWBC 081000 RRB
METAR
LOIH 081000Z 33004KT 35KM SKC 25/13 Q1021 RMK SKC=
LOWZ 081000Z 06004KT 50KM SKC 21/08 Q1023 RMK SKC=
####018000220####
SAID31 KWBC 081000 RRA
METAR
WAAA 081000Z 10003KT 9999 FEW020 27/26 Q1008=
WIII 081000Z 19006KT 4000 RA FEW018CB SCT020 25/22Q1010 RMK CB TO
     SE NOSIG=
WIMM 081000Z 36006KT 6000 FEW017 32/24 Q1008 NOSIG=
####018000081####
SAIO31 KWBC 081000 RRC
METAR
FIMP 081000Z 14017KT 9999 SCT016 25/17 Q1021=
####018000257####
SAIY41 KWBC 080950 RRC
METAR
LIBY 080955Z 36018KT 9999 FEW020 25/10 Q1016 RMK FEW QUK 3 QUL 1 N
     VIS MAR 20 KM VIS MIN 9999=
LICF 080955Z 33002KT 9999 SCT030 30/25 Q1017 RMK BKN SCT080 QUK 1
     QUL 0 VIS MAR 10 KM MON LIB NC VIS MIN 9999=
####018000118####
SAIY43 KWBC 080950 RRC
METAR
LIRX 080955Z 19004KT CAVOK 25/08 Q1019 RMK SKC VIS MIN 9999E VIS
     MAR 25 KM=
####018000446####
SAJP31 KWBC 081000 RRA
METAR
RJAA 081000Z 19005KT 9999 FEW020 BKN/// 25/21 Q1010 NOSIG RMK
     1CU020 A2984=
RJCC 081000Z 16006KT 3500 BR BKN002 18/17 Q1010 RMK 7ST002
     A2983=
RJFK 081000Z 16003KT 110V190 9999 FEW030 BKN/// 25/19 Q1009 RMK
     1CU030 A2982=
RJOO 081000Z 23007KT 200V270 9999 FEW030 BKN/// 28/20 Q1008 RMK
     1CU030 A2977=
RJTT 081000Z 17011KT 9999 FEW018 BKN/// 26/22 Q1010 RMK 1CU018
     A2982=
####018000097####
SAUS43 KMKX 081012
MTRMSN
SPECI KMSN 081010Z 00000KT 8SM SCT006 SCT020 21/20 A3001 RMK AO2
####018000098####
SAPA31 KWBC 081000 RRB
METAR
AYPY 081000Z 18015KT 9999 BKN040 26/23 Q1010 RMKS/ HZ IN AREA=
####018000123####
SAPR41 KWBC 081000 CCA
METAR
SPRU 081000Z 15006KT 6000 FEW008 OVC015 16/14 Q1012 RMK BIRD
     HAZARD RWY20 PP000=
####018000108####
SAPH31 KWBC 081000 RRA
METAR
RPMD 081000Z 20004KT 9999 SCT015CB SCT290 30/25 1008 CB
     SW/NW/NE=
####018000109####
SARA31 KWBC 081000 RRC
METAR
UAFO 081000Z 33002MPS 9999 FEW050CB 34/16 Q1018 NOSIG RMK
     QFEM685=
####018000092####
SARS32 KWBC 081000 RRB
METAR
URWI 081000Z VRB01MPS CAVOK 30/16 Q1014 NOSIG RMK SC065=
####018000120####
SAUR30 UKMS 081000 RRA
METAR UKHH 081000Z 18003MPS 100V270 9999 SCT033
         BKN200  30/15 Q1014 260///65 NOSIG=
####018000449####
SACU31 MUHA 081000
METAR
MUHA 080955Z 05003KT 8000 FEW018 24/23 Q1013=
MUVR 080952Z 00000KT 8000 FEW020 BKN200 24/22 Q1014=
MUCL  NIL=
MUCF 080956Z 08004KT 9999 FEW030 23/22 Q1012=
MUSC 080955Z VRB02KT 9000 FEW022 23/22 Q1014=
MUCC 080953Z 00000KT 9000 FEW020 26/22 Q1014=
MUCM 080953Z 00000KT 9000 FEW018 23/21 Q1014=
MUMZ  NIL=
MUHG 080950Z 17004KT 140V210 9999 FEW020 24/22 Q1015=
MUCU 080958Z 05004KT 9000 FEW020 25/23 Q1015=
DUPE
####018001739####
SAIY40 LIIB 081000 RRA
METAR LIMG 080950Z 05005KT 9999 SCT080 30/25 Q1020 RMK VIS MIN 9999=
METAR LIMK 080955Z 35004KT 9999 BKN025 19/13 Q1023 RMK BKN VAL NIL
      VIS MIN 9999=
METAR LIMN 080955Z /////KT CAVOK 27/14 Q1022 RMK FEW FEW080 VIS MIN
      9999 BLU=
METAR LIMP 080950Z 06005KT 020V130 CAVOK 27/15 Q1022 RMK VIS MIN
9999=
METAR LIMS 080955Z 11009KT 080V190 CAVOK 27/16 Q1021 RMK SKC VIS MIN
      9999 WIND THR30 09008KT BLU=
METAR LIMZ 080950Z 35005KT 8000 SCT015 BKN045 23/18 Q1024 RMK VIS
MIN 8000=
METAR LIPA 080955Z 23009KT 9999 SCT045 24/17 Q1022 RMK SCT VIS MIN
      9999 A3019 BLU=
METAR LIPB 080950Z 16007KT 9999 FEW060 27/12 Q1021 RMK MON LIB VIS
MIN 9999=
METAR LIPC 080955Z 12009KT CAVOK 28/14 Q1022 RMK FEW FEW200 VIS MIN
      9999 WIND THR12 09009KT BLU=
METAR LIPF 080955Z 15002KT 9999 FEW050 26/19 Q1021 RMK FEW VIS MIN
      9999=
METAR LIPH 080945Z 10001KT 9999 FEW020 SCT080 26/19 Q1023 RMK BKN VIS
      MIN 9999 WIND THR07 /////KT BLU=
METAR LIPI 080955Z 13005KT 9999 FEW050 SCT080 25/18 Q1022 RMK SCT
     VIS MIN 9999 WIND THR06 20004KT BLU=
METAR LIPL 080955Z 11005KT 040V160 9999 FEW035 SCT060 26/18 Q1022 RMK
      BKN VIS MIN 9999 BLU=
METAR LIPO 080950Z 15005KT 100V190 9999 FEW045 BKN065 27/13 Q1021
RMK VIS MIN 9999=
METAR LIPQ 080950Z VRB02KT 9999 SCT050 25/13 Q1022=
METAR LIPR 080945Z 08009KT CAVOK 28/17 Q1021 RMK SKC VIS MIN 9999
      WIND THR31 08009KT BLU=
METAR LIPS 081000Z NIL=
METAR LIPX 080945Z 12004KT 9999 FEW040 28/12 Q1021 RMK FEW VIS MIN
      9999 BLU=
METAR LIPY 080950Z 15004KT 080V220 CAVOK 27/11 Q1021 RMK VIS MIN
9999=
METAR LIVC 080955Z 36006KT 9999 SCT000 13/10 Q1030 RMK SCT MON CLD
      CIME CUF VAL CLD SCT ELEV VIS MIN 9999=
####018000090####
SASA31 KWBC 080100 RRD
METAR
SKBO 080100Z VRB02KT 7000 HZ BKN012 12/11 A3029 NOSIG=
####018000114####
SASA31 KWBC 081000 RRC
METAR
SYCJ 081000Z 00000KT 5000 VCFG SCT015 FEW016CB 24/24 Q1012 CB-E/
     WSW-W=
####018000112####
SASA32 KWBC 081000 RRB
METAR
SLTR 081000Z 03005KT 8000 TS VCSH SCT013 FEW020CB OVC070 22/21
     Q1013=
####018000290####
SASD41 KWBC 081000 RRA
METAR
OEAB 081000Z 09012KT 8000 FEW020 SCT200 33/M01 Q1020 NOSIG=
OEAH 081000Z 36010KT CAVOK 45/07 Q1001 NOSIG=
OEBA 081000Z 15003KT 9000 SKC 35/04 Q1016 NOSIG=
OEBH 081000Z 01010KT CAVOK 40/03 Q1011 NOSIG=
OEGN 081000Z 23008KT CAVOK 36/29 Q1001 NOSIG=
####018000298####
SASD42 KWBC 081000 RRA
METAR
OEGS 081000Z 05011KT CAVOK 45/08 Q1008=
OEGT 081000Z NIL=
OEHL 081000Z 27002KT CAVOK 43/03 Q1012 NOSIG=
OEKB 081000Z 16008KT 9999 FEW045 45/22=
OEKK 081000Z 03013KT CAVOK 45/15 Q1006=
OEKM 081000Z 09014KT 7000 NSC 32/04 Q1020 NOSIG=
OEMH 081000Z NIL=
####018000113####
SAUS45 KCYS 081012
MTRW43
SAUS70 KW43 081005
METAR KW43 080955Z AUTO 21003KT 10SM CLR 10/08 A3029 RMK

####018000270####
SASG21 GOOY 081000
METAR GOSS 081000Z 20008KT 160V250 9999 FEW013 BKN230 31/26 Q1013=
METAR GOGS 081000Z 18006KT 9999 SCT016 SCT130 30/26 Q1013=
METAR GOTT 081000Z 20006KT 9999 BKN013 30/26 Q1014=
METAR GOGG 081000Z 18006KT 9999 BKN016 TCU SCT230 30/26 Q1014=
####018000356####
SASD43 KWBC 081000 RRA
METAR
OEMK 081000Z 32002KT CAVOK 44/24 Q1001=
OENG 081000Z 05012KT 5000 DU SCT030 39/00 Q1012 NOSIG=
OEPA 081000Z 35016KT CAVOK 45/05 Q1004=
OERF 081000Z 01003KT CAVOK 43/12 Q1006=
OERR 081000Z 17007KT CAVOK 45/11 Q1007=
OESH 081000Z 04018KT 3000 BLDU SKC 42/14 Q1002 NOSIG=
OESK 081000Z 24008KT CAVOK 43/00 Q1009=
####018000113####
SAUS45 KCYS 081012
MTRECS
SAUS70 KECS 081007
METAR KECS 080959Z AUTO 08004KT 10SM CLR 13/09 A3030 RMK

####018000306####
SASD44 KWBC 081000 RRA
METAR
OETB 081000Z 00000KT CAVOK 38/06 Q1010 NOSIG=
OETF 081000Z 08009KT CAVOK 38/01 Q1015 NOSIG=
OETR 081000Z 32006KT CAVOK 38/04 Q1010=
OEWD 081000Z 03010KT 6000 SKC 43/11 Q1004=
OEWJ 081000Z 30024KT CAVOK 34/27 Q1004=
OEYN 081000Z 26017KT CAVOK 42/19 Q1000 NOSIG=
####018000107####
SAUS42 KWBC 081000 RRB
METAR
KGLE 081004Z AUTO 00000KT 10SM SCT018 SCT024 BKN060 26/23
     A3004=
####018001486####
SAXX99 KWBC 081000 RRL
METAR
DFFD 081000Z 23005KT CAVOK 27/22 Q1015 NOSIG=
FEFG 081000Z /////KT 9999 FEW002 OVC140 22/21 Q//// RETSRA=
FKYS 081000Z 30005KT 240V360 9999 BKN006 25/20 Q1019 NOSIG=
LESA 081000Z 33003KT 260V020 CAVOK 31/14 Q1019=
LKKU 081000Z 34011KT CAVOK 23/09 Q1022=
LKLB 081000Z VRB05KT CAVOK 22/06 Q1024=
OEDM 081000Z 04010KT CAVOK 42/05 Q1010=
OEKJ 081000Z NIL=
RPLI 081000Z NIL=
SAWH 081000Z 36004KT 9999 BKN035 BKN100 01/M01 Q0984=
SLET 081000Z NIL=
UACK 081000Z 31007G11MPS 9999 BKN053CB SCT067 18/03 Q1011 02010070
     NOSIG RMK QFE735=
VTPP 081000Z 17006KT 9999 FEW025CB 36/23 Q1003 CB E=
WADD 081000Z 00000KT 9999 SCT018 28/25 Q1008 NOSIG=
WALL 081000Z NIL=
WARR 081000Z 11004KT 9999 FEW020 29/23 Q1008 NSG=
WIHH 081000Z WIHH 30009KT 5000 TS FEW018CB BKN018 28/23 Q1011 C B
     PS RA TO SOUTH=
YAMB 081000Z 19007KT CAVOK 16/10 Q1021 RMK 8SC075=
YBHM 081000Z AUTO 15016KT //// // ////// 19/16 Q1018=
YCIN 081000Z AUTO 13004KT //// // ////// 23/19 Q1012=
YFRT 081000Z AUTO 05012KT //// // ////// 15/02 Q1014=
YMAV 081000Z AUTO 13003KT 9999NDV // OVC046 10/07 Q1028=
YMLT 081000Z AUTO 00000KT 9999NDV // NCD 04/02 Q1030=
YPGV 081000Z 15010KT 9999 FEW021 BKN350 24/21 Q1013=
YPKG 081000Z AUTO 35010KT 9999NDV // BKN064 OVC085 19/03 Q1005=
YPKU 081000Z AUTO 12004KT 9999NDV // NCD 25/15 Q1014=
YWLM 081000Z 36003KT 9999 SCT020 BKN045 11/11 Q1026 RMK USE TAF
     FOR ARRIVALS. NEXT MANUAL OBS 2000Z=
####018001343####
SAUS43 KWBC 081000 RRB
METAR
K1H2 081005Z AUTO 00000KT 5SM BR CLR 24/23 A3004=
KAAA 081003Z AUTO 00000KT 1 1/2SM BR VV007 22/22 A3003=
KC09 081004Z AUTO 00000KT 2SM BR SCT055 BKN090 21/21 A3001=
KDKB 081001Z AUTO 15007KT 3SM BR SCT002 OVC011 22/21 A3002=
KDNV 081005Z AUTO 00000KT 7SM CLR 22/21 A3001=
KENL 081004Z AUTO 00000KT 10SM CLR 24/16 A3004=
KFEP 081005Z AUTO 28004KT 7SM BKN005 22/20 A3003=
KFOA 081005Z AUTO 00000KT 5SM BR CLR 25/25 A3004=
KFWC 081005Z AUTO 21003KT 7SM CLR 23/22 A3004=
KGBG 081005Z AUTO 00000KT 4SM BR OVC002 23/22 A3003=
KHSB 081005Z AUTO 00000KT 5SM BR BKN120 22/21 A3005=
KIJX 081005Z AUTO 00000KT 4SM BR SCT003 SCT008 SCT016 23/23
     A3004=
KIKK 081005Z AUTO 07004KT 3SM HZ SCT050 25/22 A3002=
KJOT 081006Z AUTO 00000KT 2 1/2SM BR 23/22 A3002=
KLOT 081001Z AUTO 00000KT 3SM -DZ SCT050 BKN070 OVC085 22/22
     A3002=
KMQB 081005Z AUTO 27006KT 7SM OVC004 23/23 A3005=
KMWA 081005Z AUTO 00000KT 10SM SCT110 24/24 A3006=
KOLY 081003Z AUTO 00000KT 3SM BR CLR 23/22 A3004=
KPNT 081005Z AUTO 00000KT 4SM -TSRA SCT027 OVC039 22/22 A3003=
KPPQ 081005Z AUTO 00000KT 10SM RA SCT043 SCT070 BKN100 23/22
     A3005=
KPRG 081005Z AUTO 00000KT 3SM BR CLR 21/21 A3004=
KSAR 081005Z AUTO 18004KT 10SM BKN065 26/23 A3004=
KSLO 081002Z AUTO 20004KT 10SM CLR 24/22 A3004=
####018000183####
SAUS44 KWBC 081000 RRB
METAR
K11R 081004Z AUTO 06004KT 7SM CLR 24/23 A2994=
KBPG 081005Z AUTO 34004KT 7SM CLR 21/20 A3009=
KBYY 081006Z AUTO 05004KT 7SM SCT075 26/25 A2988=
####018000084####
SPUS51 KWBC 081012
SPECI
KEKN 081009Z AUTO 00000KT 1SM BR BKN075 17/16 A3016=
####018000081####
SPUS52 KWBC 081012
SPECI
KABR 081010Z AUTO 19003KT 4SM BR CLR 14/13 A3013=
####018000141####
SAIY40 LIIB 081000 RRB
METAR LIVP 080955Z VRB01KT 6000 2000SW BR OVC001 12/10 Q1029 RMK OVC
      MON INVIS VAL NE LIB VIS MIN 2000SW=
####018001776####
SAIY40 LIIB 081000 RRA
METAR LIMG 080950Z 05005KT 9999 SCT080 30/25 Q1020 RMK VIS MIN 9999=
METAR LIMK 080955Z 35004KT 9999 BKN025 19/13 Q1023 RMK BKN VAL NIL
      VIS MIN 9999=
METAR LIMN 080955Z /////KT CAVOK 27/14 Q1022 RMK FEW FEW080 VIS MIN
      9999 BLU=
METAR LIMP 080950Z 06005KT 020V130 CAVOK 27/15 Q1022 RMK VIS MIN
9999=
METAR LIMS 080955Z 11009KT 080V190 CAVOK 27/16 Q1021 RMK SKC VIS MIN
      9999 WIND THR30 09008KT BLU=
METAR LIMZ 080950Z 35005KT 8000 SCT015 BKN045 23/18 Q1024 RMK VIS
MIN 8000=
METAR LIPA 080955Z 23009KT 9999 SCT045 24/17 Q1022 RMK SCT VIS MIN
      9999 A3019 BLU=
METAR LIPB 080950Z 16007KT 9999 FEW060 27/12 Q1021 RMK MON LIB VIS
MIN 9999=
METAR LIPC 080955Z 12009KT CAVOK 28/14 Q1022 RMK FEW FEW200 VIS MIN
      9999 WIND THR12 09009KT BLU=
METAR LIPF 080955Z 15002KT 9999 FEW050 26/19 Q1021 RMK FEW VIS MIN
      9999=
METAR LIPH 080945Z 10001KT 9999 FEW020 SCT080 26/19 Q1023 RMK BKN VIS
      MIN 9999 WIND THR07 /////KT BLU=
METAR LIPI 080955Z 13005KT 9999 FEW050 SCT080 25/18 Q1022 RMK SCT
     VIS MIN 9999 WIND THR06 20004KT BLU=
METAR LIPL 080955Z 11005KT 040V160 9999 FEW035 SCT060 26/18 Q1022 RMK
      BKN VIS MIN 9999 BLU=
METAR LIPO 080950Z 15005KT 100V190 9999 FEW045 BKN065 27/13 Q1021
RMK VIS MIN 9999=
METAR LIPQ 080950Z VRB02KT 9999 SCT050 25/13 Q1022=
METAR LIPR 080945Z 08009KT CAVOK 28/17 Q1021 RMK SKC VIS MIN 9999
      WIND THR31 08009KT BLU=
METAR LIPS 081000Z NIL=
METAR LIPX 080945Z 12004KT 9999 FEW040 28/12 Q1021 RMK FEW VIS MIN
      9999 BLU=
METAR LIPY 080950Z 15004KT 080V220 CAVOK 27/11 Q1021 RMK VIS MIN
9999=
METAR LIVC 080955Z 36006KT 9999 SCT000 13/10 Q1030 RMK SCT MON CLD
      CIME CUF VAL CLD SCT ELEV VIS MIN 9999=
####018000197####
SACN70 CWAO 081000 RRA
WEX SA 1000 AUTO8 M M M 140/14/13/2604/M/ 3002 87MM=
WSZ SA 1000 AUTO8 M M M 156/13/12/2604/M/0008 3003 77MM=
XWG SA 1000 AUTO8 M M M 144/13/12/2906/M/ 3006 67MM=

####018000686####
SACN97 CWAO 081000 RRA
XCA SA 1000 AUTO8 M M M 149/16/16/1101/M/0012 5005 07MM=
XCH SA 1000 AUTO7 M M M M/19/18/MMMM/M/ M 27MM=
XDI SA 1000 AUTO8 M M M 157/20/18/0000/M/ 3001 61MM=
XEA SA 1000 AUTO8 M M M 134/13/12/2202/M/ 5001 00MM=
XEC SA 1000 AUTO8 M M M M/15/13/MMMM/M/ M 99MM=
XGH SA 1000 AUTO8 M M M M/14/14/3004/M/M M 33MM=
XHF SA 1000 AUTO8 M M M M/19/18/MMMM/M/ M 33MM=
XIB SA 1000 AUTO7 M M M 175/23/16/2510+17/M/ PK WND 2319 0929Z 8001
71MM=
XMY SA 1000 AUTO8 M M M M/17/17/MMMM/M/ M 46MM=
XSW SA 1000 AUTO7 M M M M/07/07/1803/M/ M 48MM=
XWN SA 1000 AUTO8 M M M 149/16/13/2803/M/ 3004 07MM=
XZU SA 1000 AUTO8 M M M 184/12/09/3002/M/ 8003 42MM=

####018000352####
SACN92 CWAO 081000 RRA
WJI SA 1000 AUTO8 M M M 212/11/10/2704/M/ 1004 77MM=
WJT SA 1000 AUTO8 M M M 160/17/16/0101/M/ 3001 70MM=
WJX SA 1000 AUTO8 M M M 210/11/10/2705/M/ 0002 77MM=
WKA SA 1000 AUTO8 M M M M/M/M/3501/M/M M MMMM=
WLV SA 1000 AUTO8 M M M 181/08/06/0000/M/ 8006 20MM=
WMJ SA 1000 AUTO8 M M M 163/18/18/0000/M/ 5000 10MM=

####018000074####
SACN62 CWAO 081000 RRA
LWIS CYDL 081000Z AUTO 04002KT 10/04 A3020=

####018000138####
SACN59 CWAO 081000 RRA
WCT SA 1000 AUTO8 M M M 214/10/08/2506/M/ 8002 72MM=
WLB SA 1000 AUTO8 M M M 173/15/11/2605/M/ 6007 12MM=

####018000109####
SACN41 CWAO 081000 RRA
METAR CYYE 081000Z 20005KT 15SM FEW180 FEW210 13/06 A3003 RMK AC1CI0
SLP172=

####018000403####
SACN94 CWAO 081000 RRA
WQF SA 1000 AUTO8 M M M M/12/07/3503/M/ M 60MM=
WQP SA 1000 AUTO8 M M M 165/22/21/2404/M/ 3003 49MM=
WQQ SA 1000 AUTO8 M M M M/11/10/1403/M/ M 81MM=
WQY SA 1000 AUTO8 M M M 111/09/09/3610/M/0002 3006 29MM=
WRJ SA 1000 AUTO8 M M M 197/11/11/2803/M/ 3001 44MM=
WRT SA 1000 AUTO8 M M M M/05/05/0000/M/M M 66MM=
WSU SA 1000 AUTO8 M M M 157/13/11/2403/M/ 3002 03MM=

####018000192####
SACN31 CWAO 081000 RRA
METAR CYUL 081000Z 24005KT 12SM FEW055 FEW075 25/21 A2999 RMK CU1AC2
VIA YQB FIC SLP156=
METAR CYYT 081000Z 16006KT 4SM BR OVC003 09/09 A3024 RMK SF8 SLP243=

####018000142####
SACN98 CWAO 081000 RRA
XVN SA 1000 AUTO8 M M M 153/24/21/2103/M/ 5002 58MM=
XZV SA 1000 AUTO8 M M M 177/12/12/0802/M/0003 3008 44MM=

####018000083####
SACN60 CWAO 081000 RRA
PCI SA 1000 AUTO8 M M M 216/11/08/MMMM/M/ 8007 44MM=

####018000083####
SACN50 CWAO 080900 RRC
VSL SA 0900 AUTO8 M M M 192/12/09/0701/M/ 3006 98MM=

####018000102####
SACN91 CWAO 080900 RRF
WIP SA 0900 AUTO7 M M M M/12/M/1303/M/0002 PCPN 0.2MM PAST HR M
0MMM=

####018000192####
SACN50 CWAO 081000 RRA
VQZ SA 1000 AUTO8 M M M 190/12/10/0000/M/ 1006 84MM=
VSL SA 1000 AUTO8 M M M 194/11/08/0503/M/ 2005 53MM=
ZKA SA 1000 AUTO8 M M M 187/16/M/1101/M/ 2020 5MMM=

####018000389####
SACN91 CWAO 081000 RRA
WGR SA 1000 AUTO8 M M M 165/20/17/2215+22/M/ PK WND 2122 0956Z 1002
77MM=
WHQ SA 1000 AUTO7 M M M M/20/19/1105/M/M M 20MM=
WII SA 1000 AUTO8 M M M M/18/14/3114/M/M PK WND 3221 0902Z M 73MM=
WIP SA 1000 AUTO7 M M M M/12/M/1003/M/0002 M 1MMM=
WIW SA 1000 AUTO8 M M M 198/09/09/2705/M/ 3001 45MM=
WJH SA 1000 AUTO8 M M M 133/11/07/2803/M/ 6001 51MM=

####018000305####
SACN90 CWAO 081000 RRA
WFF SA 1000 AUTO8 M M M 190/09/07/2506/M/ 5000 17MM=
WFO SA 1000 AUTO8 M M M 146/14/09/2807/M/M 6001 74MM=
WFW SA 1000 AUTO7 M M M 164/14/14/3301/M/ 1003 43MM=
WGD SA 1000 AUTO8 M M M 159/23/20/1402/M/ 5003 20MM=
WGN SA 1000 AUTO8 M M M 158/15/12/2806/M/M 3003 54MM=

####018000083####
SACN82 CWAO 081000 RRA
WDM SA 1000 AUTO8 M M M 188/08/07/0507/M/ 8001 24MM=

####018000570####
SACN89 CWAO 081000 RRA
WAG SA 1000 AUTO8 M M M 204/10/09/1703/M/M 1004 74MM=
WAV SA 1000 AUTO8 M M M 219/06/04/0000/M/ 8006 84MM=
WBA SA 1000 AUTO8 M M M M/20/19/1903/M/ M 63MM=
WBL SA 1000 AUTO8 M M M 154/15/10/2912/M/M 2003 13MM=
WBT SA 1000 AUTO8 M M M 175/14/14/0903/M/ 1006 66MM=
WCH SA 1000 AUTO8 M M M 158/12/11/0000/M/ 6006 69MM=
WDI SA 1000 AUTO8 M M M M/13/12/1802/M/ M 67MM=
WDK SA 1000 AUTO8 M M M 224/11/08/3603/M/ 8006 68MM=
WDV SA 1000 AUTO8 M M M 156/13/13/2303/M/ 6007 28MM=
WDZ SA 1000 AUTO8 M M M 203/10/09/1601/M/ 8002 39MM=

####018000083####
SACN87 CWAO 081000 RRA
WJD SA 1000 AUTO8 M M M 140/10/09/2703/M/ 3004 90MM=

####018000484####
SACN88 CWAO 081000 RRA
ABR SA 1000 AUTO7 M M M 210/18/17/1802/M/ 1011 05MM=
AFC SA 1000 AUTO8 M M M 183/20/18/1705/M/ 3009 69MM=
AHK SA 1000 AUTO7 M M M 195/18/18/2404/M/M 0009 96MM=
AHR SA 1000 AUTO8 M M M 183/19/18/2210+16/M/ PK WND 2017 0906Z 3006
25MM=
AHW SA 1000 AUTO7 M M M M/19/16/2201/M/M M 92MM=
AOH SA 1000 AUTO8 M M M 195/18/17/2203/M/ 3005 24MM=
AOS SA 1000 AUTO7 M M M M/15/15/2005/M/M M 44MM=
APR SA 1000 AUTO8 M M M 200/15/15/1203/M/ 3004 47MM=

####018000138####
SACN66 CWAO 081000 RRA
PIF SA 1000 AUTO8 M M M 129/13/09/2706/M/ 6004 05MM=
WIK SA 1000 AUTO8 M M M 187/11/11/2703/M/ 3002 46MM=

####018000083####
SACN89 CWAO 080900 RRG
WBT SA 0900 AUTO8 M M M 175/13/13/0803/M/ 3005 22MM=

####018000119####
SACN46 CWAO 081000 RRA
METAR CYYH 081000Z 02005KT 15SM FEW025 BKN040 BKN210 11/06 A2982 RMK
SC2SC5CI0 SLP099=

####018000083####
SACN86 CWAO 081000 RRA
WPO SA 1000 AUTO8 M M M 187/13/11/2905/M/ 3004 68MM=

####018000428####
SACN93 CWAO 081000 RRA
WNC SA 1000 AUTO8 M M M 159/20/20/1102/M/ 3001 11MM=
WNE SA 1000 AUTO8 M M M 166/21/18/2212/M/ PK WND 2219 0903Z 1009
68MM=
WNH SA 1000 AUTO8 M M M 159/12/12/3603/M/ 2003 40MM=
WNK SA 1000 AUTO8 M M M M/14/12/2906/M/ M 21MM=
WNQ SA 1000 AUTO7 M M M 150/22/21/1601/M/ 3007 21MM=
WOC SA 1000 AUTO8 M M M 153/17/16/0000/M/ 3005 33MM=
WOK SA 1000 AUTO8 M M M 199/12/10/2103/M/ 0001 11MM=

####018000497####
SACN96 CWAO 081000 RRA
WXL SA 1000 AUTO8 M M M M/10/08/1604/M/ M 94MM=
WXN SA 1000 AUTO8 M M M 230/13/07/1902/M/ 8007 63MM=
WXS SA 1000 AUTO8 M M M 158/17/17/3103/M/ 3010 36MM=
WYJ SA 1000 AUTO8 M M M M/16/12/3201/M/ M 90MM=
WZE SA 1000 AUTO8 M M M M/11/10/2905/M/ M 78MM=
WZL SA 1000 AUTO8 M M M 184/23/07/2909/M/ 3001 70MM=
WZT SA 1000 AUTO8 M M M M/10/M/MMMM/M/ M 3MMM=
XHM SA 1000 AUTO8 M M M M/22/20/2603/M/ M 23MM=
ZPK SA 1000 AUTO8 M M M 115/09/08/2505/M/ 7004 96MM=

####018000303####
SACN78 CWAO 081000 RRA
TBT SA 1000 AUTO8 M M M 180/18/18/0704/M/ 6003 86MM=
TMS SA 1000 AUTO8 M M M 125/20/18/1302/M/ 8016 58MM=
TTR SA 1000 AUTO8 M M M 162/19/19/1703/M/ 6006 47MM=
TXR SA 1000 AUTO8 M M M 137/20/19/1304/M/ 8007 55MM=
WBE SA 1000 AUTO8 M M M 164/18/17/0804/M/ 6009 71MM=

####018000724####
SACN95 CWAO 081000 RRA
WTT SA 1000 AUTO8 M M M M/24/23/2203/M/M M 14MM=
WUK SA 1000 AUTO8 M M M M/17/17/0502/M/ M 95MM=
WUT SA 1000 AUTO8 M M M 181/09/08/3004/M/M 3005 80MM=
WUX SA 1000 AUTO7 M M M 151/19/19/0000/M/ 3001 75MM=
WVN SA 1000 AUTO8 M M M 212/09/08/0104/M/ 4000 40MM=
WVO SA 1000 AUTO8 M M M M/12/10/2402/M/ M 53MM=
WVP SA 1000 AUTO8 M M M 218/10/08/3201/M/ 8002 75MM=
WVU SA 1000 AUTO8 M M M 205/15/15/1711/M/ 3011 96MM=
WWC SA 1000 AUTO8 M M M 116/10/08/MM06/M/ 8006 39MM=
WWF SA 1000 AUTO8 M M M 193/11/10/3102/M/ 2003 10MM=
WWP SA 1000 AUTO8 M M M 181/10/09/3202/M/ 3005 48MM=
WXB SA 1000 AUTO8 M M M M/06/06/2701/M/ M 37MM=
WXG SA 1000 AUTO8 M M M 198/08/M/2905/M/ 3002 1MMM=

####018000120####
SACN45 CWAO 081000 RRA
METAR CYGT 081000Z 00000KT 15SM VCSH BKN040 BKN080 11/04 A2983 RMK
SC6AC1 BR SE SLP106=

####018000121####
SACN47 CWAO 081000 RRA
METAR CYGP 081000Z 09003KT 15SM FEW006 BKN100 15/15 A3000 RMK ST1AC3
VIA YQB FIC SLP160=

####018000082####
SACN85 CWAO 081000 RRA
WWE SA 1000 AUTO8 M M M 214/14/M/1903/M/ 3015 4MMM=

####018000083####
SAUS52 KWBC 081000 RRB
METAR
KSEP 081005Z AUTO 00000KT 10SM CLR 23/21 A3002=
####018000086####
SAUS53 KWBC 081000 RRC
METAR
KLNC 081005Z AUTO 00000KT 10SM OVC014 24/24 A3000=
####018000795####
SAUS20 KNKA 081012
METAR K1F0 081007Z AUTO 00000KT 10SM BKN048 BKN055 24/24 A3001 
     RMK AO2=
METAR K36U 081015Z AUTO 11004KT 10SM CLR 09/05 A3022 RMK AO2=
SPECI KALI 081011Z AUTO 02007KT 10SM -RA SCT026 BKN090 BKN110 25/24 
    A2984 RMK AO2 P0000=
SPECI KBOK 081012Z AUTO 00000KT 3SM BR OVC002 09/09 A2996 RMK AO2 $=
SPECI KCNM 081011Z AUTO 33008KT 6SM RA BR SCT009 BKN017 OVC075 20/19 
    A3013 RMK AO2 LTG DSNT E AND SE TSE0955 CIG 013V026 P0005=
SPECI KH78 081010Z 11008KT 12SM BKN020 27/23 A2999 RMK SEAS 4-5 =
SPECI KMGW 081011Z AUTO 00000KT 2 1/2SM BR CLR 20/18 A3011 RMK AO2=
METAR KONM 081007Z AUTO 20003KT 10SM CLR 19/14 A3021 RMK AO2 
     T01850139=
SPECI KPIL 081011Z AUTO 00000KT 10SM SCT018 BKN024 BKN035 28/26 
    A2976 RMK AO2 RAE11 P0007 $=
####018000694####
SAUZ31 UTTW 081000
METAR UTFN 081000Z 18003MPS 9999 SCT050CB 36/13 Q1010 R28/CLRD70
NOSIG=
METAR UTNN 081000Z 21005MPS 170V250 CAVOK 43/07 Q1007 R15/CLRD70
NOSIG=
UTNU NIL=
METAR UTSA 081000Z 01007MPS 9999 FEW160 41/03 Q1008 R88/CLRD70 NOSIG=
METAR UTSB 081000Z 35007MPS CAVOK 41/03 Q1008 R01/CLRD70 TEMPO
01008MPS=
UTSH NIL=
METAR UTSK 081000Z 36004MPS CAVOK 41/12 Q1007 R16/CLRD70=
METAR UTSS 081000Z 09004MPS 9999 NSC 36/11 Q1010 R88/CLRD70 NOSIG=
METAR UTST 081000Z 21002MPS 170V240 CAVOK 41/04 Q1006 R88/CLRD70
NOSIG=
METAR UTTT 081000Z 28004MPS 240V320 CAVOK 39/07 Q1010 R08R/CLRD70
NOSIG=
METAR UTTP 081000Z 29002MPS CAVOK 38/07 Q1010 R88/CLRD70 NOSIG=
####018000078####
SAID32 WIII 081000
METAR WIPT 081000Z 00000KT 9999 FEW020TCU 29/24 Q1009=
####018000117####
SAIY42 LIIB 081000 RRA
METAR LIRX 080955Z 19004KT CAVOK 25/08 Q1019 RMK SKC VIS MIN 9999E
      VIS MAR 25 KM=
####018000081####
SAUS72 KWBC 081000 RRD
METAR
TNCM 081000Z 08010KT 9999 SCT017 28/23 Q1015=
####018000081####
SPUS73 KWBC 081012
SPECI
KABR 081010Z AUTO 19003KT 4SM BR CLR 14/13 A3013=
####018000085####
SPUS73 KWBC 081012
SPECI
KLOZ 081009Z AUTO 00000KT 2 1/2SM BR CLR 19/19 A3010=
####018000137####
SAUS73 KWBC 081000 RRD
METAR
KALN 081003Z AUTO 00000KT 7SM CLR 25/24 A3003=
KIKK 081005Z AUTO 07004KT 3SM HZ SCT050 25/22 A3002=
####018000088####
SPUS74 KWBC 081012
SPECI
KACV 081009Z AUTO 00000KT 2 1/2SM BR OVC001 10/09 A2997=
####018000433####
SANA35 KAWN 081000 RRD
METAR MKJS 081000Z 12002KT 9999 FEW024 BKN034 26/22 Q1012=
METAR SAWH 081000Z 36004KT 9999 BKN035 BKN100 01/M01 Q0984=
METAR SPIM 081000Z 17003KT 6000 OVC022 16/14 Q1013 NOSIG RMK PP000=
METAR COR SPRU 081000Z 15006KT 6000 FEW008 OVC015 16/14 Q1012 RMK BIRD
      HAZARD RWY20 PP000=
METAR TFFR 081004Z 00000KT 9999 FEW021 26/24 Q1014 NOSIG=
METAR TNCM 081000Z 08010KT 9999 SCT017 28/23 Q1015=
####018000924####
SAXX70 KAWN 081000 RRK
METAR KQFU 080950Z AUTO 00000KT 7SM -DZ OVC045 25/19 A2988 RMK A02=
METAR KQBS 080955Z 33016G25KT 5000 BLDU FEW000 SCT020 48/M01 A2947
      RMK PK WND 33027/30 DU FEW000 SCT020 SLP986
      WND/ALSTG/SLP/QNH ESTMD QNH998=
METAR KQCC 080955Z AUTO VRB03KT 8000 FEW080 41/13 A2977 RMK AO2 SLP007
      T04110130 $=
METAR KQEI 081010Z AUTO 14002KT 7SM CLR 24/19 A2992 RMK A02=
METAR KQEN 081010Z AUTO 27008KT 7SM FEW070 20/16 A3040 RMK A02=
METAR KQEP 081010Z AUTO 36001KT 5SM BR FEW095 26/19 A2985 RMK A02=
METAR KQER 081010Z AUTO 23001KT 7SM -DZ OVC040 24/19 A2988 RMK A02=
METAR KQES 081010Z AUTO 07001KT 7SM FEW060 FEW090 BKN120 23/20 A2982
      RMK A02=
METAR KQEY 081010Z AUTO 29004KT 7SM FEW100 BKN110 27/17 A2958 RMK A02=
METAR KQFV 081010Z AUTO 33001KT 7SM -SHRA OVC030 23/18 A3000 RMK A02=
METAR KQEV 081020Z AUTO 31002KT 7SM SCT090 SCT100 27/19 A2978 RMK A02=
####018000868####
SAUK KAWN 081000 RRD
METAR EGDM 080950Z AUTO 23003KT 9999NDV FEW015/// SCT031/// BKN110///
      19/14 Q1019=
METAR EGDR 080950Z AUTO 23007KT 9999NDV // FEW017/// SCT150/// 18/13
      Q1018=
METAR EGDY 080950Z AUTO 25005KT 9999NDV BKN023/// 20/14 Q1018=
METAR EGQK 080950Z 21012KT 9999 FEW025 SCT045 17/09 Q1009 BLU NOSIG=
METAR EGUB 080950Z AUTO 22004KT 9999NDV // FEW030/// 19/15 Q1018=
METAR EGUW 080950Z AUTO 27007KT 9999NDV FEW006/// BKN012/// 18/14 Q1019
      RERA=
METAR EGVN 080950Z AUTO 24004KT 9999NDV BKN110/// 18/12 Q1019 RERA=
METAR EGVO 080950Z AUTO 33002KT 9999NDV BKN004/// BKN011/// 17/15 Q1019=
METAR EGVP 080950Z AUTO 16002KT 9999NDV // BKN011/// 19/15 Q1018=
METAR EGWU 080950Z AUTO 28003KT 9999NDV // BKN014/// BKN028/// 19/14
      Q1019=
METAR EGXG 080950Z AUTO 22009KT 9999NDV FEW029/// BKN090/// 19/10 Q1016=
####018000084####
SPUS81 KWBC 081012
SPECI
KEKN 081009Z AUTO 00000KT 1SM BR BKN075 17/16 A3016=
####018000311####
SAPS31 NZKL 081000
METAR NCRG 081000Z 05005KT 9999 SCT014 BKN290 25/24 Q1017=
METAR NFTF 081000Z 00000KT 9999 FEW015 20/19 Q1016=
METAR NGFU 081000Z 07009KT 50KM FEW020 28/25 Q1010=
METAR NIUE 081000Z AUTO 12005KT //// ////// 24/23 Q1015=
METAR NSFA 081000Z 08005KT 45KM FEW020 25/25 Q1012 RMK DEW=
####018000080####
SPCN42 CWAO 081011
SPECI CYUA 081011Z AUTO 27006KT 9SM OVC004 05/ A3007=

####018000100####
SAIY40 LIIB 081000 RRA
METAR LIPY 080950Z 15004KT 080V220 CAVOK 27/11 Q1021 RMK VIS MIN
9999=
####018000079####
SASD31 OEJD 081000 RRA
METAR OEMA 081000Z 10008KT CAVOK 46/00 Q1006 NOSIG=
####018000273####
SASG21 GOOY 081000
METAR GOSS 081000Z 20008KT 160V250 9999 FEW013 BKN230 31/26 Q1013=
METAR GOGS 081000Z 18006KT 9999 SCT016 SCT130 30/26 Q1013=
METAR GOTT 081000Z 20006KT 9999 BKN013 30/26 Q1014=
METAR GOGG 081000Z 18006KT 9999 BKN016 TCU SCT230 30/26 Q1014=

####018000520####
SAUS20 KNKA 081012
SPECI KBRL 081011Z AUTO 9SM BKN004 22/21 A3004 RMK AO2 $=
SPECI KCKB 081011Z 00000KT 2SM BR CLR 19/18 A3010 RMK AO2=
SPECI KDEQ 081011Z AUTO 00000KT 10SM SCT006 OVC034 24/23 A3002 RMK 
    AO2=
SPECI KELZ 081011Z AUTO 00000KT 1SM BR CLR 18/18 A3016 RMK AO2=
SPECI KGON 081011Z AUTO 11008KT 1 3/4SM R05/3000VP6000FT BR OVC002 
    23/21 A3006 RMK AO2=
SPECI KLEB 081011Z 00000KT 1 1/4SM BR BKN001 22/21 A3006 RMK AO2=
SPECI KLSE 081011Z AUTO 00000KT 8SM BKN013 20/19 A3003 RMK AO2=
####018000995####
SPUS99 KWBC 081013
SPECI
KALI 081011Z AUTO 02007KT 10SM -RA SCT026 BKN090 BKN110 25/24
     A2984 RMK AO2 P0000=
KBOK 081012Z AUTO 00000KT 3SM BR OVC002 09/09 A2996 RMK AO2 $=
KCNM 081011Z AUTO 33008KT 6SM RA BR SCT009 BKN017 OVC075 20/19
     A3013 RMK AO2 LTG DSNT E AND SE TSE0955 CIG 013V026 P0005=
KH78 081010Z 11008KT 12SM BKN020 27/23 A2999 RMK SEAS 4-5=
KMGW 081011Z AUTO 00000KT 2 1/2SM BR CLR 20/18 A3011 RMK AO2=
KPIL 081011Z AUTO 00000KT 10SM SCT018 BKN024 BKN035 28/26 A2976
     RMK AO2 RAE11 P0007 $=
KBRL 081011Z AUTO 9SM BKN004 22/21 A3004 RMK AO2 $=
KCKB 081011Z 00000KT 2SM BR CLR 19/18 A3010 RMK AO2=
KDEQ 081011Z AUTO 00000KT 10SM SCT006 OVC034 24/23 A3002 RMK
     AO2=
KELZ 081011Z AUTO 00000KT 1SM BR CLR 18/18 A3016 RMK AO2=
KGON 081011Z AUTO 11008KT 1 3/4SM R05/3000VP6000FT BR OVC002 23/21
     A3006 RMK AO2=
KLEB 081011Z 00000KT 1 1/4SM BR BKN001 22/21 A3006 RMK AO2=
KLSE 081011Z AUTO 00000KT 8SM BKN013 20/19 A3003 RMK AO2=
####018000237####
SAUS99 KWBC 081013
METAR
K1F0 081007Z AUTO 00000KT 10SM BKN048 BKN055 24/24 A3001 RMK
     AO2=
K36U 081015Z AUTO 11004KT 10SM CLR 09/05 A3022 RMK AO2=
KONM 081007Z AUTO 20003KT 10SM CLR 19/14 A3021 RMK AO2
     T01850139=
####018000127####
SAZA42 FAJS 081000 RRB
METAR FAWK 081000Z NIL=
METAR FASK 081000Z 08005KT 9000 NSC 15/// Q1035=
METAR FALM 081000Z NIL=
####018000069####
SAAG SAWG 081000
METAR SAWG 081000Z  29008KT CAVOK M05/M06 Q1001=
####018000577####
SABY31 UMMN 081000
METAR UMBB 081000Z 28005G08MPS 8000 FEW033 23/12 Q1019 R29/CLRD//
NOSIG=
METAR UMGG 081000Z 23005MPS 9999 BKN014CB BKN100 27/17 Q1013
R28/190055 NOSIG=
METAR UMII 081000Z 16004MPS P6000 BKN020 22/16 Q1013 R23/CLRD// NOSIG
=
METAR UMMG 081000Z 32006G09MPS 9999 FEW026 BKN200 23/13 Q1016
R17/CLRD// NOSIG=
METAR UMMM 081000Z 27005MPS 9999 OVC020 19/16 Q1014 R30/290050 NOSIG
RMK QFE741=
METAR UMMS 081000Z 29003MPS 260V320 9999 BKN017 20/16 Q1014
R31/CLRD// NOSIG=
METAR UMOO 081000Z 26002MPS 9999 BKN016CB BKN/// 22/16 Q1013
R31/290056 NOSIG=
####018001081####
SAIY41 LIIB 081000
METAR LIMH 080955Z 05010KT CAVOK 05/M07 Q1039 RMK SKC MON LIB VAL S
      CLD SCT VIS MIN 9999=
METAR LIMT 081000Z NIL=
METAR LIMU 080955Z 07009KT 9999 FEW026 28/21 Q1020 RMK SCT QUK 2 QUL
      1 E VIS MAR 15 KM VIS MIN 9999=
METAR LIMV 080955Z 36008KT 6000 FEW012 22/18 Q1022 RMK SCT SCT080 MON
      LIB VAL FOSCHIA VIS MIN 6000=
METAR LIMY 080955Z /////KT 6000 BKN026 BKN036 21/17 Q1023 RMK OVC VAL
      FOSCHIA VIS MIN 6000=
METAR LIVD 080955Z 00000KT CAVOK 20/12 Q1024 RMK SKC VIS MIN 9999=
METAR LIVE 080955Z 18006KT CAVOK 19/10 Q1025 RMK SKC VIS MIN 9999=
METAR LIVF 080955Z 04003KT CAVOK 26/08 Q1022 RMK FEW FEW220 MON LIB
      VAL NIL VIS MIN 9999=
METAR LIVM 080955Z 15006KT CAVOK 27/20 Q1021 RMK SKC QUK 2 QUL 1 SE
      VIS MAR 30 KM VIS MIN 9999=
METAR LIVO 080955Z 15003KT 9999 FEW040 22/12 Q1023 RMK FEW VIS MIN
      9999=
METAR LIVR 080955Z /////KT 9999 FEW025 13/11 Q1028 RMK FEW MON CLD
      SCT VIS MIN 9999=
METAR LIVT 080955Z 26002KT CAVOK 24/18 Q1022 RMK BKN BKN070 QUK 1 QUL
      0 VIS MAR 20 KM VIS MIN 9999=
####018001322####
SAIY43 LIIB 081000
METAR LIBA 080955Z /////KT 9999 FEW040 28/12 Q1019 RMK FEW VIS MIN
      9999 WIND THR29 32010KT BLU=
METAR LIBC 081000Z NIL=
METAR LIBD 080950Z 36014KT CAVOK 25/12 Q1020 RMK VIS MIN 9999=
METAR LIBG 081000Z NIL=
METAR LIBN 080955Z 35020G30KT 9999 FEW030 26/12 Q1017 RMK FEW VIS MIN
      9999 WIND THR14 33017G27KT BLU=
METAR LIBP 081000Z NIL=
METAR LIBQ 080955Z 02007KT 9999 SCT009 16/11 Q1024 RMK SCT MON LIB
      VAL NIL VIS MIN 9999=
METAR LIBR 080945Z /////KT 9999 FEW020 25/16 Q1017 NOSIG RMK FEW VIS
      MIN 9999 WIND THR13 WIND THR31 34019KT BLU=
METAR LIBV 080955Z 36018KT 9999 FEW030 24/12 Q1017 RMK FEW VIS MIN
      9999 WIND THR14 35018KT BLU=
METAR LICA 081000Z NIL=
METAR LICC 080950Z 08098KT CAVOK 29/20 Q1018 RMK VIS MIN 9999=
METAR LICD 080950Z 35011KT 220V360 CAVOK 26/21 Q1019 RMK VIS MIN
9999=
METAR LICG 080955Z 31009KT CAVOK 24/21 Q1019 RMK SKC VIS MIN 9999
      WIND THR08 VRB05KT WIND THR21 VRB06KT BLU=
METAR LICJ 080950Z 06009KT CAVOK 28/22 Q1018 RMK VIS MIN 9999=
METAR LICR 080950Z 36009KT 320V030 9999 FEW020 BKN050 30/18 Q1018
RMK VIS MIN 9999=
METAR LICT 080955Z 33010KT CAVOK 30/23 Q1018 RMK SKC VIS MIN 9999
      WIND THR13 32008KT BLU=
METAR LICZ 080955Z 08012KT CAVOK 31/19 Q1018 RMK SKC VIS MIN 9999
      WIND THR28 //////KT BLU=
####018000193####
SPAU31 YBBN 081008
SPECI YSSY 081000Z 22012KT 7000 -SHRA FEW008 SCT020 BKN040 12/11
Q1027
RMK VIS RED TO SE
FM1020 22010KT 9999 -SHRA SCT025 BKN040
INTER 1020/1300 5000 SHRA BKN010=
####018000087####
SPAU31 YBBN 081008
SPECI YBCS 081006Z 17008KT 9999 5000S FEW024 SCT050 23/20 Q1016=
####018000359####
SAPO32 LPMG 081000
METAR LPAZ 081000Z 25004KT 9999 BKN016 BKN030 20/19 Q1024=
METAR LPFL 081000Z 20007KT 170V240 9999 FEW023TCU BKN045 22/18 Q1022=
METAR LPHR 081000Z 24006KT 9999 FEW016 SCT035 22/19 Q1023=
METAR LPLA 081000Z 22004KT 9999 VCSH FEW008 SCT016 BKN028 20/18
      Q1024=
METAR LPPD 081000Z 25003KT 220V310 9999 FEW017 BKN030 20/15 Q1024=
####018000074####
SPMC32 GMMC 080900 RRA
SPECI GMFM 080940Z 3200KT 5000 SKC 26/19 Q1018=
####018001724####
SAIY42 LIIB 081000
METAR LIBF 080950Z 33014KT CAVOK 27/09 Q1020 RMK VIS MIN 9999=
METAR LIEA 080950Z 02004KT 320V100 CAVOK 30/21 Q1019 RMK VIS MIN
9999=
METAR LIED 080955Z 18010KT 9999 FEW018 32/15 Q1018 RMK FEW VIS MIN
      9999 BLU=
METAR LIEO 080950Z 05009KT 020V080 9999 FEW030 31/18 Q1020 RMK VIS
MIN 9999=
METAR LIMA 080950Z VRB03KT 9999 SCT040 24/15 Q1023 RMK VIS MIN 9999=
METAR LIQN 080950Z VRB03KT CAVOK 26/17 Q1021 RMK VIS MIN 9999=
METAR LIQO 080955Z 00000KT 9999 FEW003 24/19 Q1021 RMK FEW VAL NIL NC
      VIS MIN 9999=
METAR LIQW 081000Z NIL=
METAR LIRE 080955Z 22008KT 9999 FEW020 SCT033 28/20 Q1019 RMK SCT VIS
      MIN 9999 WIND THR31 20009KT BLU=
METAR LIRG 080955Z 31005KT 9999 SCT035 30/19 Q1019 RMK SCT MON NE
     LIB NC VIS MIN 9999 BLU=
METAR LIRH 080955Z 03003KT 9999 FEW035 27/19 Q1020 RMK FEW MON LIB NC
      VIS MIN 9999 WIND THR16 22004KT BLU=
METAR LIRI 080950Z 05010KT CAVOK 28/11 Q1019 RMK VIS MIN 9999=
METAR LIRK 080955Z 12011KT CAVOK 16/14 Q1026 RMK FEW FEW060 MON NE
      LIB NC VAL NIL NC VIS MIN 9999=
METAR LIRL 080955Z 26006KT 9999 FEW020 30/19 Q1018 RMK FEW MON LIB NC
      VIS MIN 9999 BLU=
METAR LIRM 080955Z 07010KT CAVOK 28/15 Q1020 RMK SKC VIS MIN 9999
      WIND THR06 07010KT BLU=
METAR LIRS 080955Z 32002KT CAVOK 31/10 Q1019 RMK SCT SCT200 VIS MIN
      9999 WIND THR21 /////KT BLU=
METAR LIRT 080955Z 01007KT 9999 FEW015 17/07 Q1023 RMK FEW MON LIB
      VAL NIL VIS MIN 9999=
METAR LIRU 080950Z VRB02KT 9999 SCT040 30/19 Q1019 RMK VIS MIN 9999=
METAR LIRV 080955Z 33003KT 9999 FEW024 28/18 Q1021 RMK FEW MON E SE
      LIB NC VIS MIN 9999 YLO=
METAR LIRX 081000Z NIL=
METAR LIRZ 080950Z VRB02KT CAVOK 29/11 Q1021 RMK VIS MIN 9999=
####018001693####
SAIY40 LIIB 081000
METAR LIMG 080950Z 05005KT 9999 SCT080 30/25 Q1020 RMK VIS MIN 9999=
METAR LIMK 080955Z 35004KT 9999 BKN025 19/13 Q1023 RMK BKN VAL NIL
VIS MIN 9999=
METAR LIMN 080955Z /////KT CAVOK 27/14 Q1022 RMK FEW FEW080 VIS MIN
9999 BLU=
METAR LIMP 080950Z 06005KT 020V130 CAVOK 27/15 Q1022 RMK VIS MIN
9999=
METAR LIMS 080955Z 11009KT 080V190 CAVOK 27/16 Q1021 RMK SKC VIS MIN
9999 WIND THR30 09008KT BLU=
METAR LIMZ 080950Z 35005KT 8000 SCT015 BKN045 23/18 Q1024 RMK VIS
MIN 8000=
METAR LIPA 080955Z 23009KT 9999 SCT045 24/17 Q1022 RMK SCT VIS MIN
9999 A3019 BLU=
METAR LIPB 080950Z 16007KT 9999 FEW060 27/12 Q1021 RMK MON LIB VIS
MIN 9999=
METAR LIPC 080955Z 12009KT CAVOK 28/14 Q1022 RMK FEW FEW200 VIS MIN
9999 WIND THR12 09009KT BLU=
METAR LIPF 080955Z 15002KT 9999 FEW050 26/19 Q1021 RMK FEW VIS MIN
9999=
METAR LIPH 080945Z 10001KT 9999 FEW020 SCT080 26/19 Q1023 RMK BKN VIS
MIN 9999 WIND THR07 /////KT BLU=
METAR LIPI 080955Z 13005KT 9999 FEW050 SCT080 25/18 Q1022 RMK SCT
VIS MIN 9999 WIND THR06 20004KT BLU=
METAR LIPL 080955Z 11005KT 040V160 9999 FEW035 SCT060 26/18 Q1022 RMK
BKN VIS MIN 9999 BLU=
METAR LIPO 080950Z 15005KT 100V190 9999 FEW045 BKN065 27/13 Q1021
RMK VIS MIN 9999=
METAR LIPQ 080950Z VRB02KT 9999 SCT050 25/13 Q1022=
METAR LIPR 080945Z 08009KT CAVOK 28/17 Q1021 RMK SKC VIS MIN 9999
WIND THR31 08009KT BLU=
METAR LIPS 081000Z NIL=
METAR LIPX 080945Z 12004KT 9999 FEW040 28/12 Q1021 RMK FEW VIS MIN
9999 BLU=
METAR LIPY 080950Z 15004KT 080V220 CAVOK 27/11 Q1021 RMK VIS MIN
9999=
METAR LIVC 080955Z 36006KT 9999 SCT000 13/10 Q1030 RMK SCT MON CLD
CIME CUF VAL CLD SCT ELEV VIS MIN 9999=
METAR LIVP 080955Z VRB01KT=
####018000083####
SPUS53 KWBC 081013
SPECI
KMSN 081010Z 00000KT 8SM SCT006 SCT020 21/20 A3001=
####018000294####
SABC40 FBSK 081000
METAR FBSK 081000Z 07016KT 9999 BKN020 18/09 Q1032 NOSIG=
METAR FBFT 081000Z 10013KT 9999 BKN015 20/10 Q1031=
METAR FBKE 081000Z 09013KT 9999 FEW020 21/07 Q1028=
METAR FBMN 081000Z 09014KT CAVOK 22/06 Q1028=
METAR FBSP 081000Z /////KT 9999 BKN020 17/10 Q1031=

####018000083####
SPUS73 KWBC 081013
SPECI
KMSN 081010Z 00000KT 8SM SCT006 SCT020 21/20 A3001=
####018000085####
SAGD31 TGPY 081000
METAR TGPY 081000Z 08011KT 9999 FEW021 BKN280 28/25 Q1012,HZ=
####018000075####
SPMC32 GMMC 080900 RRA
SPECI GMFM 080940Z 3200KT 5000 SKC 26/19 Q1018=
####018000078####
SAID32 WIII 081000
METAR WADA 081000Z 10006KT 9999 HZ SCT016 30/23 Q1009=
####018000128####
SAIY42 LIIB 081000 RRB
METAR LIRV 080955Z 33003KT 9999 FEW024 28/18 Q1021 RMK FEW MON E SE
      LIB NC VIS MIN 9999 YLO=
####018000142####
SAIY40 LIIB 081000 RRB
METAR LIVC 080955Z 36006KT 9999 SCT000 13/10 Q1030 RMK SCT MON CLD
      CIME CUF VAL CLD SCT ELEV VIS MIN 9999=
####018000179####
SAUK36 EGGY 080950 RRA
METAR EGVN 080950Z AUTO 24004KT 9999NDV BKN110/// 18/12 Q1019 RERA=
METAR EGWU 080950Z AUTO 28003KT 9999NDV // BKN014/// BKN028///
    19/14 Q1019=
####018000090####
SAIY42 LIIB 081000 RRC
METAR LIRZ 080950Z VRB02KT CAVOK 29/11 Q1021 RMK VIS MIN 9999=
####018000141####
SAIY40 LIIB 081000 RRC
METAR LIVP 080955Z VRB01KT 6000 2000SW BR OVC001 12/10 Q1029 RMK OVC
      MON INVIS VAL NE LIB VIS MIN 2000SW=
####018000083####
SPUS81 KWBC 081013
SPECI
KMSN 081010Z 00000KT 8SM SCT006 SCT020 21/20 A3001=
####018000628####
SPNA14 KAWN 081013 RRA
SPECI KEGI 081007Z AUTO 00000KT 3/4SM R18/1200V1800FT BR CLR 21/21
      A3002 RMK AO2 SLP166 $=
SPECI KEGI 081011Z AUTO 00000KT 3/4SM R18/1200V2000FT BR CLR 21/21
      A3002 RMK AO2 SLP166 $=
SPECI KNQX 081008Z 10005KT 10SM SCT022CB BKN100 BKN200 28/24 A2992
      RMK AO2 OCNL LTGIC DSNT E CB DSNT E T2 SET $=
SPECI KOZR 081009Z 00000KT 3SM R06/0900V2200FT BR FEW002 22/22 A3002
      RMK AO2A SLP164=
SPECI KSKF 081011Z 05009KT 10SM OVC013 25/ A2992 RMK AO2A CIG 011V017
      OVC V BKN SLP121 $=
SPECI KVBG 081006Z AUTO 00000KT 10SM OVC004 12/11 A2993 RMK AO2 TSNO
      $=
####018000347####
SPNA35 KAWN 081013 RRA
SPECI KDOV 081010Z AUTO 10003KT 2 1/2SM BR CLR 24/ A3000 RMK AO2 SLP161
      $=
SPECI KJFK 081007Z 14006KT 2SM BR BKN005 BKN120 BKN250 24/23 A3004
      RMK AO2 SFC VIS 2 1/2 VIS S 1 1/2 $=
SPECI KNQX 081008Z 10005KT 10SM SCT022CB BKN100 BKN200 28/24 A2992
      RMK AO2 OCNL LTGIC DSNT E CB DSNT E T2 SET $=
####018000096####
SPUS90 KWBC 081014
SPECI KMSN 081010Z 00000KT 8SM SCT006 SCT020 21/20 A3001 RMK
     AO2=
####018000291####
SABC40 FBSK 081000
METAR FBSK 081000Z 07016KT 9999 BKN020 18/09 Q1032 NOSIG=
METAR FBFT 081000Z 10013KT 9999 BKN015 20/10 Q1031=
METAR FBKE 081000Z 09013KT 9999 FEW020 21/07 Q1028=
METAR FBMN 081000Z 09014KT CAVOK 22/06 Q1028=
METAR FBSP 081000Z /////KT 9999 BKN020 17/10 Q1031=
####018000102####
SAAK41 KNKA 081013
SPECI PACM 081011Z AUTO 29006KT 10SM OVC028 11/10 A3009 RMK AO2 TSNO 
    $=
####018000187####
SAUS20 KNKA 081013
METAR KWWR 081009Z AUTO 01004KT 10SM SCT110 22/21 A3015 RMK AO2 
     T02200210=
SPECI PACM 081011Z AUTO 29006KT 10SM OVC028 11/10 A3009 RMK AO2 TSNO 
    $=
####018002937####
SAUS20 KNKA 081013
METAR K4O4 081008Z AUTO 11003KT 7SM SCT003 23/22 A3005 RMK AO2=
METAR KADH 081011Z AUTO 18004KT 7SM BKN023 23/22 A3002 RMK AO2 
     LTG DSNT NE=
METAR KADM 081010Z AUTO 00000KT 7SM SCT024 BKN029 BKN037 23/23 
     A3002 RMK AO2=
METAR KALM 081010Z AUTO 15009KT 10SM CLR 17/14 A3014 RMK AO2=
METAR KATS 081010Z AUTO 34008KT 10SM BKN036 BKN042 19/18 A3016 
     RMK AO2=
METAR KAXS 081010Z AUTO 02003KT 10SM BKN031 24/22 A3007 RMK AO2 
     T02350215=
METAR KAXX 081010Z AUTO 00000KT 10SM CLR 04/03 A3048 RMK AO2=
METAR KBVS 081010Z AUTO 04009KT 10SM CLR 20/13 A2997 RMK A01 P000=
METAR KCHK 081011Z AUTO 00000KT 7SM CLR 22/22 A3004 RMK AO2=
METAR KCLK 081013Z AUTO 02008KT 10SM SCT028 SCT080 22/20 A3007 
     RMK AO2=
METAR KCQB 081010Z AUTO 01004KT 4SM +RA 23/23 A3004 RMK AO2 TSNO=
SPECI KCQX 081012Z AUTO VRB03KT 2SM BR OVC001 19/19 A3011 RMK AO2=
METAR KCUH 081010Z AUTO 00000KT 10SM BKN016 BKN038 OVC047 23/23 
     A3003 RMK AO2=
METAR KDUA 081017Z AUTO 14005KT 10SM -DZ SCT085 24/24 A3003 RMK 
     AO2=
METAR KFET 081010Z AUTO 34003KT 10SM CLR 18/16 A3015 RMK AO2=
METAR KGCD 081010Z AUTO 11009KT 10SM CLR 15/04 A3010 RMK AO2 
     T01530040=
METAR KGCM 081015Z AUTO 26006KT 5SM +VCTSRA SCT005 OVC012 23/23 
     A3006 RMK AO2 LTG DSNT S AND SW P0007=
METAR KGMJ 081015Z AUTO 00000KT OVC020 26/26 A3004 RMK AO2 P0001 
     PWINO=
METAR KIDP 081010Z AUTO 05004KT 10SM SCT036 SCT055 21/20 A3003 
     RMK AO2 LTG DSNT E AND S=
SPECI KIRK 081012Z AUTO 00000KT 1 3/4SM BR CLR 19/19 A3007 RMK AO2=
METAR KIZA 081009Z AUTO 00000KT 10SM OVC009 13/11 A2991 RMK AO2=
SPECI KJEF 081012Z AUTO 36003KT 10SM SCT004 BKN028 OVC090 23/22 
    A3003 RMK AO2 P0001=
METAR KJSV 081011Z AUTO 00000KT 10SM CLR 23/23 A3003 RMK AO2 LTG 
     DSNT NW=
METAR KJWG 081010Z AUTO 00000KT 5SM BR SCT004 SCT016 BKN070 22/22 
     A3009 RMK AO2=
METAR KLAM 081010Z AUTO 23006KT 10SM SCT120 14/09 A3037 RMK AO2=
SPECI KLNS 081012Z 11004KT 2SM BR CLR 23/21 A3002 RMK AO2=
METAR KOJA 081010Z AUTO 35003KT 10SM BKN011 BKN016 BKN023 22/21 
     A3008 RMK AO2=
METAR KONP 081010Z AUTO 21008KT 7SM OVC004 11/10 A3000 RMK AO1=
METAR KORS 081010Z AUTO 00000KT 10SM CLR 15/12 A2995 RMK AO2=
METAR KPLU 081010Z AUTO 00000KT 10SM FEW044 FEW120 14/13 A2994 
     RMK AO2=
SPECI KPQL 081012Z AUTO 00000KT 1/2SM FG VV001 23/23 A3002 RMK AO2=
METAR KPTS 081010Z AUTO 04003KT 10SM VCTS BKN026 BKN065 BKN090 
     22/ A3004 RMK AO2 LTG DSNT E THRU SW T0220=
METAR KSNL 081012Z AUTO 35004KT 7SM OVC007 24/23 A3004 RMK AO2 
     LTG DSNT NE=
METAR KSRE 081010Z AUTO 00000KT 5SM BR 24/24 A3002 RMK AO2 LTG 
     DSNT NE=
METAR KSVC 081010Z AUTO 06009KT 10SM BKN100 18/14 A3022 RMK AO2=
SPECI KSWO 081012Z AUTO 00000KT 9SM SCT023 SCT043 BKN075 23/21 A3003 
    RMK AO2 LTG DSNT SE=
METAR KTMK 081013Z AUTO 00000KT 7SM OVC006 12/12 A2996 RMK AO2=
####018000764####
SACO20 SKBO 081000
METAR
SKAR 081000Z NIL=
SKBG 081000Z NIL=
SKBO 081000Z VRB02KT 7000 HZ BKN012 12/11 A3029=
SKBQ 081000Z 20004KT 9999 FEW002 25/25 A2986=
SKCC 081000Z NIL=
SKCG 081000Z 00000KT 9999 FEW013 SCT070 26/25 A2985=
SKCL 081000Z NIL=
SKEJ 081000Z NIL=
SKIB 081000Z NIL=
SKIP 081000Z NIL=
SKLC 081000Z NIL=
SKLT 081000Z 00000KT 9999 FEW015 SCT080 24/24 A2987=
SKMD 081000Z NIL=
SKMR 081000Z NIL=
SKMZ 081000Z NIL=
SKNV 081000Z NIL=
SKPC 081000Z NIL=
SKPE 081000Z NIL=
SKPS 081000Z NIL=
SKPV 081000Z NIL=
SKRG 081000Z 00000KT 8000 -DZ SCT012 BKN080 14/14 A3027=
SKRH 081000Z NIL=
SKSM 081000Z NIL=
SKSP 081000Z NIL=
SKUC 081000Z NIL=
SKUI 081000Z NIL=
SKVP 081000Z NIL=
SKVV 081000Z NIL=
NNNN
####018000096####
SAUK39 EGRR 080950 RRQ
METAR EGUB 080950Z 25004KT 9999 BKN026 BKN120 19/15 Q1018 BLU NOSIG=
####018002349####
SAUS99 KWBC 081014
METAR
KWWR 081009Z AUTO 01004KT 10SM SCT110 22/21 A3015 RMK AO2
     T02200210=
K4O4 081008Z AUTO 11003KT 7SM SCT003 23/22 A3005 RMK AO2=
KADH 081011Z AUTO 18004KT 7SM BKN023 23/22 A3002 RMK AO2 LTG DSNT
     NE=
KADM 081010Z AUTO 00000KT 7SM SCT024 BKN029 BKN037 23/23 A3002 RMK
     AO2=
KALM 081010Z AUTO 15009KT 10SM CLR 17/14 A3014 RMK AO2=
KATS 081010Z AUTO 34008KT 10SM BKN036 BKN042 19/18 A3016 RMK
     AO2=
KAXS 081010Z AUTO 02003KT 10SM BKN031 24/22 A3007 RMK AO2
     T02350215=
KAXX 081010Z AUTO 00000KT 10SM CLR 04/03 A3048 RMK AO2=
KBVS 081010Z AUTO 04009KT 10SM CLR 20/13 A2997 RMK A01 P000=
KCHK 081011Z AUTO 00000KT 7SM CLR 22/22 A3004 RMK AO2=
KCLK 081013Z AUTO 02008KT 10SM SCT028 SCT080 22/20 A3007 RMK
     AO2=
KCQB 081010Z AUTO 01004KT 4SM +RA 23/23 A3004 RMK AO2 TSNO=
KCUH 081010Z AUTO 00000KT 10SM BKN016 BKN038 OVC047 23/23 A3003
     RMK AO2=
KDUA 081017Z AUTO 14005KT 10SM -DZ SCT085 24/24 A3003 RMK AO2=
KFET 081010Z AUTO 34003KT 10SM CLR 18/16 A3015 RMK AO2=
KGCD 081010Z AUTO 11009KT 10SM CLR 15/04 A3010 RMK AO2
     T01530040=
KGCM 081015Z AUTO 26006KT 5SM +VCTSRA SCT005 OVC012 23/23 A3006
     RMK AO2 LTG DSNT S AND SW P0007=
KGMJ 081015Z AUTO 00000KT OVC020 26/26 A3004 RMK AO2 P0001
     PWINO=
KIDP 081010Z AUTO 05004KT 10SM SCT036 SCT055 21/20 A3003 RMK AO2
     LTG DSNT E AND S=
KIZA 081009Z AUTO 00000KT 10SM OVC009 13/11 A2991 RMK AO2=
KJSV 081011Z AUTO 00000KT 10SM CLR 23/23 A3003 RMK AO2 LTG DSNT
     NW=
KJWG 081010Z AUTO 00000KT 5SM BR SCT004 SCT016 BKN070 22/22 A3009
     RMK AO2=
KLAM 081010Z AUTO 23006KT 10SM SCT120 14/09 A3037 RMK AO2=
KOJA 081010Z AUTO 35003KT 10SM BKN011 BKN016 BKN023 22/21 A3008
     RMK AO2=
KONP 081010Z AUTO 21008KT 7SM OVC004 11/10 A3000 RMK AO1=
KORS 081010Z AUTO 00000KT 10SM CLR 15/12 A2995 RMK AO2=
KPLU 081010Z AUTO 00000KT 10SM FEW044 FEW120 14/13 A2994 RMK
     AO2=
KPTS 081010Z AUTO 04003KT 10SM VCTS BKN026 BKN065 BKN090 22/ A3004
     RMK AO2 LTG DSNT E THRU SW T0220=
KSNL 081012Z AUTO 35004KT 7SM OVC007 24/23 A3004 RMK AO2 LTG DSNT
     NE=
KSRE 081010Z AUTO 00000KT 5SM BR 24/24 A3002 RMK AO2 LTG DSNT
     NE=
KSVC 081010Z AUTO 06009KT 10SM BKN100 18/14 A3022 RMK AO2=
KTMK 081013Z AUTO 00000KT 7SM OVC006 12/12 A2996 RMK AO2=
####018000606####
SPUS99 KWBC 081014
SPECI
PACM 081011Z AUTO 29006KT 10SM OVC028 11/10 A3009 RMK AO2 TSNO
     $=
PACM 081011Z AUTO 29006KT 10SM OVC028 11/10 A3009 RMK AO2 TSNO
     $=
KCQX 081012Z AUTO VRB03KT 2SM BR OVC001 19/19 A3011 RMK AO2=
KIRK 081012Z AUTO 00000KT 1 3/4SM BR CLR 19/19 A3007 RMK AO2=
KJEF 081012Z AUTO 36003KT 10SM SCT004 BKN028 OVC090 23/22 A3003
     RMK AO2 P0001=
KLNS 081012Z 11004KT 2SM BR CLR 23/21 A3002 RMK AO2=
KPQL 081012Z AUTO 00000KT 1/2SM FG VV001 23/23 A3002 RMK AO2=
KSWO 081012Z AUTO 00000KT 9SM SCT023 SCT043 BKN075 23/21 A3003 RMK
     AO2 LTG DSNT SE=
####018000333####
SAMG20 FMMI 081000
METAR 081000Z
METAR FMNM 081000Z ///10KT CAVOK 30/15 Q1017=
METAR FMMI 081000Z 11007KT 060V160 9999 BKN020 19/12 Q1025 NOSIG=
METAR FMMT 081000Z 22014KT 9999 SCT017 SCT033 25/20 Q1022=
METAR FMSD 081000Z 06010KT 5000 -RA SCT017 BKN033 19/19 Q1026=
METAR FMCH 081000Z 22018KT 9999 FEW023 29/19 Q1019 NOSIG=
####018000318####
SAMG20 FMMI 081000
METAR FMNM 081000Z ///10KT CAVOK 30/15 Q1017=
METAR FMMI 081000Z 11007KT 060V160 9999 BKN020 19/12 Q1025 NOSIG=
METAR FMMT 081000Z 22014KT 9999 SCT017 SCT033 25/20 Q1022=
METAR FMSD 081000Z 06010KT 5000 -RA SCT017 BKN033 19/19 Q1026=
METAR FMCH 081000Z 22018KT 9999 FEW023 29/19 Q1019 NOSIG=
####018000067####
SAAG SAEZ 081000
METAR SAEZ 081000Z 29002KT CAVOK 04/M00 Q1019=
####018000539####
SACN86 KWBC 081014
METAR CWDV 081000Z AUTO 23003KT 13/13 RMK AO1 SLP156 T01320128
56007=
METAR CWPO 081000Z AUTO 29005KT 13/11 RMK AO1 SLP187 T01260108
53004=
METAR CWDV 081000Z AUTO 23003KT 13/13 RMK AO1 SLP156 T01320128
56007=
METAR CWDV 081000Z AUTO 23003KT 13/13 RMK AO1 SLP156 T01320128
56007=
METAR CWDV 081000Z AUTO 23003KT 13/13 RMK AO1 SLP156 T01320128
56007=
METAR CWBE 081000Z AUTO 08004KT 18/17 RMK AO1 SLP164 T01770171
56009=
METAR CWNC 081000Z AUTO 11002KT 20/20 RMK AO1 SLP159 T02010201
53001=
####018000243####
SACN87 KWBC 081014
METAR CWJD 081000Z AUTO 27003KT 10/09 RMK AO1 SLP140 T00990090
53004=
METAR CWCT 081000Z AUTO 25006KT 10/08 RMK AO1 SLP214 T00970082
58002=
METAR CWLB 081000Z AUTO 26005KT 15/11 RMK AO1 SLP173 T01510112
56007=
####018000235####
SACN85 KWBC 081014
METAR CWDM 081000Z AUTO 05007KT 08/07 RMK AO1 SLP188 T00820074
58001=
METAR CWWE 081000Z AUTO 19003KT 14/ RMK AO1 SLP214 T0144 53015=
METAR CWNH 081000Z AUTO 36003KT 12/12 RMK AO1 SLP159 T01240120
52003=
####018000452####
SAAL40 DAMM 081000
METAR DAAG 081000Z 01008KT 330V040 CAVOK 32/16 Q1019=
METAR DAAT 081000Z 13017KT CAVOK 33/03 Q1022=
METAR DABB 081000Z 02010KT CAVOK 29/15 Q1019=
METAR DABC 081000Z 00000KT CAVOK 31/06 Q1023=
METAR DABS 081000Z 34010KT CAVOK 31/10 Q1023=
METAR DAON 081000Z 36007KT CAVOK 33/21 Q1017=
METAR DAOO 081000Z 36010KT CAVOK 28/21 Q1017=
METAR DAUH 081000Z 09014KT CAVOK 37/20 Q1018=
METAR DAUZ 081000Z 17005KT CAVOK 37/07 Q1017=
####018000306####
SACN88 KWBC 081014
METAR CAHR 081000Z AUTO 22010G16KT 19/18 RMK AO1 PK WND 20017/0906
SLP183 T01920175 53006=
METAR CAHR 081000Z AUTO 22010G16KT 19/18 RMK AO1 PK WND 20017/0906
SLP183 T01920175 53006=
METAR CAHR 081000Z AUTO 22010G16KT 19/18 RMK AO1 PK WND 20017/0906
SLP183 T01920175 53006=
####018000169####
SACN90 KWBC 081014
METAR CWFF 081000Z AUTO 25006KT 09/07 RMK AO1 SLP190 T00910067
55000=
METAR CWGD 081000Z AUTO 14002KT 23/20 RMK AO1 SLP159 T02320200
55003=
####018000825####
SACN91 KWBC 081014
METAR CWGR 081000Z AUTO 22015G22KT 20/17 RMK AO1 PK WND 21022/0956
SLP165 T01970167 51002=
METAR CWHQ 081000Z AUTO 11005KT 20/19 RMK AO1 T02020190=
METAR CWII 081000Z AUTO 31014KT 18/14 RMK AO1 PK WND 32021/0902
T01770143=
METAR CWIP 081000Z AUTO 10003KT 12/ RMK AO1 T0121 50002=
METAR CWIW 081000Z AUTO 27005KT 09/09 RMK AO1 SLP198 T00940085
53001=
METAR CWJH 081000Z AUTO 28003KT 11/07 RMK AO1 SLP133 T01050071
56001=
METAR CWII 081000Z AUTO 31014KT 18/14 RMK AO1 PK WND 32021/0902
T01770143=
METAR CWIP 081000Z AUTO 10003KT 12/ RMK AO1 T0121 50002=
METAR CWIW 081000Z AUTO 27005KT 09/09 RMK AO1 SLP198 T00940085
53001=
METAR CWJH 081000Z AUTO 28003KT 11/07 RMK AO1 SLP133 T01050071
56001=
METAR CWIP 080900Z AUTO 13003KT 12/ RMK AO1 2PAST HR M P0001 T0120
50002=
####018000331####
SACN96 KWBC 081014
METAR CWXL 081000Z AUTO 16004KT 10/08 RMK AO1 T00990084=
METAR CWYJ 081000Z AUTO 32001KT 16/12 RMK AO1 T01590120=
METAR CWZL 081000Z AUTO 29009KT 23/07 RMK AO1 SLP184 T02270070
53001=
METAR CXHM 081000Z AUTO 26003KT 22/20 RMK AO1 T02220203=
METAR CXHM 081000Z AUTO 26003KT 22/20 RMK AO1 T02220203=
####018000317####
SACN92 KWBC 081014
METAR CWJI 081000Z AUTO 27004KT 11/10 RMK AO1 SLP212 T01070097
51004=
METAR CWJT 081000Z AUTO 01001KT 17/16 RMK AO1 SLP160 T01670160
53001=
METAR CWJX 081000Z AUTO 27005KT 11/10 RMK AO1 SLP210 T01070097
50002=
METAR CWMJ 081000Z AUTO 00000KT 18/18 RMK AO1 SLP163 T01810180
55000=
####018000370####
SARA33 RUMS 081000
METAR UIAA 081000Z 36003MPS 9999 BKN043CB OVC100 24/11 Q1006 NOSIG
RMK QFE696 29CLRD70=
METAR UIBB 081000Z 07004MPS 9999 FEW033 BKN200 27/12 Q1005 NOSIG RMK
QFE711/0948 30CLRD60=
METAR UIII 081000Z 15004MPS CAVOK 21/11 Q1006 NOSIG RMK QFE712/0950
12CLRD60=
METAR UIUU 081000Z VRB01MPS 9999 SCT033CB OVC100 22/13 Q1006 NOSIG
RMK QFE710/0947=
####018000228####
SACN94 KWBC 081014
METAR CWQP 081000Z AUTO 24004KT 22/21 RMK AO1 SLP165 T02240209
53003=
METAR CWRJ 081000Z AUTO 28003KT 11/11 RMK AO1 SLP197 T01140114
53001=
METAR CWRT 081000Z AUTO 00000KT 05/05 RMK AO1 T00460046=
####018000320####
SACN93 KWBC 081014
METAR CWNE 081000Z AUTO 22012KT 21/18 RMK AO1 PK WND 22019/0903
SLP166 T02060178 51009=
METAR CWNK 081000Z AUTO 29006KT 14/12 RMK AO1 T01420121=
METAR CWNQ 081000Z AUTO 16001KT 22/21 RMK AO1 SLP150 T02220211
53007=
METAR CWOC 081000Z AUTO 00000KT 17/16 RMK AO1 SLP153 T01730163
53005=
####018000595####
SARA32 RUMS 081000
METAR UHHH 081000Z 04004MPS 9999 SCT032CB OVC100 17/14 Q1010 NOSIG
RMK QFE751/1002 55090060=
METAR UHMA 081000Z NIL=
METAR UHMM 081000Z NIL=
METAR UHMP 081000Z NIL=
METAR UHNN 081000Z 05001MPS 9999 -SHRA FEW010 BKN036CB OVC070 12/11
Q1012 RMK QFE754=
METAR UHPP 081000Z 20002MPS 9999 FEW010 09/06 Q1017 NOSIG RMK QBB300
QFE759/1013 MT OBS SC070=
METAR UHSH 081000Z NIL=
METAR UHSS 081000Z 15002MPS 9999 BKN016 14/12 Q1011 NOSIG RMK MT OBSC
QFE757/1009 19CLRD70=
METAR UHWW 081000Z 19004MPS 9999 SCT013 BKN023 OVC090 17/14 Q1010
NOSIG RMK QFE757/1009 75CLRD70=
####018001547####
SAIY40 LIIB 081000
METAR LIMG 080950Z 05005KT 9999 SCT080 30/25 Q1020 RMK VIS MIN 9999=
METAR LIMK 080955Z 35004KT 9999 BKN025 19/13 Q1023 RMK BKN VAL NIL
      VIS MIN 9999=
METAR LIMN 080955Z /////KT CAVOK 27/14 Q1022 RMK FEW FEW080 VIS MIN
      9999 BLU=
METAR LIMP 080950Z 06005KT 020V130 CAVOK 27/15 Q1022 RMK VIS MIN
9999=
METAR LIMS 080955Z 11009KT 080V190 CAVOK 27/16 Q1021 RMK SKC VIS MIN
      9999 WIND THR30 09008KT BLU=
METAR LIMZ 080950Z 35005KT 8000 SCT015 BKN045 23/18 Q1024 RMK VIS
MIN 8000=
METAR LIPA 080955Z 23009KT 9999 SCT045 24/17 Q1022 RMK SCT VIS MIN
      9999 A3019 BLU=
METAR LIPB 080950Z 16007KT 9999 FEW060 27/12 Q1021 RMK MON LIB VIS
MIN 9999=
METAR LIPC 080955Z 12009KT CAVOK 28/14 Q1022 RMK FEW FEW200 VIS MIN
      9999 WIND THR12 09009KT BLU=
METAR LIPF 080955Z 15002KT 9999 FEW050 26/19 Q1021 RMK FEW VIS MIN
      9999=
METAR LIPH 080945Z 10001KT 9999 FEW020 SCT080 26/19 Q1023 RMK BKN VIS
      MIN 9999 WIND THR07 /////KT BLU=
METAR LIPI 080955Z 13005KT 9999 FEW050 SCT080 25/18 Q1022 RMK SCT
     VIS MIN 9999 WIND THR06 20004KT BLU=
METAR LIPL 080955Z 11005KT 040V160 9999 FEW035 SCT060 26/18 Q1022 RMK
      BKN VIS MIN 9999 BLU=
METAR LIPO 080950Z 15005KT 100V190 9999 FEW045 BKN065 27/13 Q1021
RMK VIS MIN 9999=
METAR LIPQ 080950Z VRB02KT 9999 SCT050 25/13 Q1022=
METAR LIPR 080945Z 08009KT CAVOK 28/17 Q1021 RMK SKC VIS MIN 9999
      WIND THR31 08009KT BLU=
METAR LIPS 081000Z NIL=
METAR LIPX 080945Z 12004KT 9999 FEW040 28/12 Q1021 RMK FEW VIS MIN
      9999 BLU=
####018000524####
SACN95 KWBC 081014
METAR CWTT 081000Z AUTO 22003KT 24/23 RMK AO1 T02410234=
METAR CWUX 081000Z AUTO 00000KT 19/19 RMK AO1 SLP151 T01870185
53001=
METAR CWVN 081000Z AUTO 01004KT 09/08 RMK AO1 SLP212 T00940080
54000=
METAR CWVP 081000Z AUTO 32001KT 10/08 RMK AO1 SLP218 T00970075
58002=
METAR CWVU 081000Z AUTO 17011KT 15/15 RMK AO1 SLP205 T01490146
53011=
METAR CWWF 081000Z AUTO 31002KT 11/10 RMK AO1 SLP193 T01110100
52003=
METAR CWWF 081000Z AUTO 31002KT 11/10 RMK AO1 SLP193 T01110100
52003=
####018001351####
SAAL41 DAMM 081000
METAR DAAD 081000Z 00000KT CAVOK 33/13 Q1022=
METAR DAAE 081000Z 06008KT CAVOK 27/22 Q1019=
METAR DAAJ 081000Z 08014KT CAVOK 34/06 Q1020=
METAR DAAP 081000Z 00000KT CAVOK 38/11 Q1016=
METAR DAAS 081000Z 20004KT CAVOK 32/10 Q1025=
METAR DAAV 081000Z 35008KT CAVOK 29/20 Q1019=
METAR DAAY 081000Z 00000KT CAVOK 33/13 Q1025=
METAR DABT 081000Z 34008KT CAVOK 31/12 Q1023=
METAR DAFH 081000Z 15014KT CAVOK 34/17 Q1023=
METAR DAMH 081000Z 07008KT CAVOK 36/14 Q1016=
METAR DAOB 081000Z 10006KT CAVOK 35/06 Q1023=
METAR DAOF 081000Z 10006KT 3500 HZ NSC 38/05 Q1014=
METAR DAOI 081000Z 08007KT CAVOK 35/15 Q1017=
METAR DAOL 081000Z NIL=
METAR DAOR 081000Z 12004KT CAVOK 36/05 Q1023=
METAR DAOV 081000Z 00000KT CAVOK 38/11 Q1019=
METAR DATF 081000Z 05010KT CAVOK 38/09 Q1017=
METAR DATG 081000Z NIL=
METAR DATM 081000Z 11010KT CAVOK 40/// Q1011=
METAR DAUA 081000Z 03029KT 2000 DRSA NSC 41/07 Q1014=
METAR DAUB 081000Z 11013KT CAVOK 34/15 Q1018=
METAR DAUE 081000Z 04014KT CAVOK 35/10 Q1020=
METAR DAUG 081000Z 00000KT CAVOK 35/12 Q1021=
METAR DAUI 081000Z 07026KT 0700 BLSA VV/// 41/07 Q1013=
METAR DAUK 081000Z 18006KT CAVOK 33/16 Q1017=
METAR DAUL 081000Z NIL=
METAR DAUO 081000Z 09004KT CAVOK 34/17 Q1018=
METAR DAUT 081000Z ///20KT 4000 DRSA  NSC 39/10 Q1016=
METAR DAUU 081000Z 10008KT CAVOK 36/18 Q1018=
####018002551####
SACN97 KWBC 081014
METAR CXCA 081000Z AUTO 11001KT 16/16 RMK AO1 5005 SLP149
T01600157 50012=
METAR CXCH 081000Z AUTO 19/18 RMK AO1 T01920177=
METAR CXDI 081000Z AUTO 00000KT 20/18 RMK AO1 SLP157 T01960181
53001=
METAR CXEA 081000Z AUTO 22002KT 13/12 RMK AO1 SLP134 T01300120
55001=
METAR CXEC 081000Z AUTO 15/13 RMK AO1 T01490129=
METAR CXGH 081000Z AUTO 30004KT 14/14 RMK AO1 T01430143=
METAR CXHF 081000Z AUTO 19/18 RMK AO1 T01930183=
METAR CXIB 081000Z AUTO 25010G17KT 23/16 RMK AO1 PK WND 23019/0929
SLP175 T02270161 58001=
METAR CXMY 081000Z AUTO 17/17 RMK AO1 T01740166=
METAR CXSW 081000Z AUTO 18003KT 07/07 RMK AO1 T00740068=
METAR CXWN 081000Z AUTO 28003KT 16/13 RMK AO1 SLP149 T01600127
53004=
METAR CXZU 081000Z AUTO 30002KT 12/09 RMK AO1 SLP184 T01240092
58003=
METAR CXDI 081000Z AUTO 00000KT 20/18 RMK AO1 SLP157 T01960181
53001=
METAR CXEA 081000Z AUTO 22002KT 13/12 RMK AO1 SLP134 T01300120
55001=
METAR CXEC 081000Z AUTO 15/13 RMK AO1 T01490129=
METAR CXGH 081000Z AUTO 30004KT 14/14 RMK AO1 T01430143=
METAR CXHF 081000Z AUTO 19/18 RMK AO1 T01930183=
METAR CXIB 081000Z AUTO 25010G17KT 23/16 RMK AO1 PK WND 23019/0929
SLP175 T02270161 58001=
METAR CXMY 081000Z AUTO 17/17 RMK AO1 T01740166=
METAR CXSW 081000Z AUTO 18003KT 07/07 RMK AO1 T00740068=
METAR CXWN 081000Z AUTO 28003KT 16/13 RMK AO1 SLP149 T01600127
53004=
METAR CXZU 081000Z AUTO 30002KT 12/09 RMK AO1 SLP184 T01240092
58003=
METAR CXHF 081000Z AUTO 19/18 RMK AO1 T01930183=
METAR CXIB 081000Z AUTO 25010G17KT 23/16 RMK AO1 PK WND 23019/0929
SLP175 T02270161 58001=
METAR CXMY 081000Z AUTO 17/17 RMK AO1 T01740166=
METAR CXSW 081000Z AUTO 18003KT 07/07 RMK AO1 T00740068=
METAR CXWN 081000Z AUTO 28003KT 16/13 RMK AO1 SLP149 T01600127
53004=
METAR CXZU 081000Z AUTO 30002KT 12/09 RMK AO1 SLP184 T01240092
58003=
METAR CXMY 081000Z AUTO 17/17 RMK AO1 T01740166=
METAR CXSW 081000Z AUTO 18003KT 07/07 RMK AO1 T00740068=
METAR CXWN 081000Z AUTO 28003KT 16/13 RMK AO1 SLP149 T01600127
53004=
METAR CXZU 081000Z AUTO 30002KT 12/09 RMK AO1 SLP184 T01240092
58003=
METAR CXSW 081000Z AUTO 18003KT 07/07 RMK AO1 T00740068=
METAR CXWN 081000Z AUTO 28003KT 16/13 RMK AO1 SLP149 T01600127
53004=
METAR CXZU 081000Z AUTO 30002KT 12/09 RMK AO1 SLP184 T01240092
58003=
METAR CXSW 081000Z AUTO 18003KT 07/07 RMK AO1 T00740068=
METAR CXWN 081000Z AUTO 28003KT 16/13 RMK AO1 SLP149 T01600127
53004=
METAR CXZU 081000Z AUTO 30002KT 12/09 RMK AO1 SLP184 T01240092
58003=
####018001619####
SACN89 KWBC 081014
METAR CWAV 081000Z AUTO 00000KT 06/04 RMK AO1 SLP219 T00580044
58006=
METAR CWBA 081000Z AUTO 19003KT 20/19 RMK AO1 T01960193=
METAR CWBT 081000Z AUTO 09003KT 14/14 RMK AO1 SLP175 T01360136
51006=
METAR CWDK 081000Z AUTO 36003KT 11/08 RMK AO1 SLP224 T01060078
58006=
METAR CWDZ 081000Z AUTO 16001KT 10/09 RMK AO1 SLP203 T01030089
58002=
METAR CWBA 081000Z AUTO 19003KT 20/19 RMK AO1 T01960193=
METAR CWBT 081000Z AUTO 09003KT 14/14 RMK AO1 SLP175 T01360136
51006=
METAR CWDK 081000Z AUTO 36003KT 11/08 RMK AO1 SLP224 T01060078
58006=
METAR CWDZ 081000Z AUTO 16001KT 10/09 RMK AO1 SLP203 T01030089
58002=
METAR CWBT 081000Z AUTO 09003KT 14/14 RMK AO1 SLP175 T01360136
51006=
METAR CWDK 081000Z AUTO 36003KT 11/08 RMK AO1 SLP224 T01060078
58006=
METAR CWDZ 081000Z AUTO 16001KT 10/09 RMK AO1 SLP203 T01030089
58002=
METAR CWBT 080900Z AUTO 08003KT 13/13 RMK AO1 SLP175 T01320132
53005=
METAR CWBT 081000Z AUTO 09003KT 14/14 RMK AO1 SLP175 T01360136
51006=
METAR CWDK 081000Z AUTO 36003KT 11/08 RMK AO1 SLP224 T01060078
58006=
METAR CWDZ 081000Z AUTO 16001KT 10/09 RMK AO1 SLP203 T01030089
58002=
METAR CWDZ 081000Z AUTO 16001KT 10/09 RMK AO1 SLP203 T01030089
58002=
METAR CWDZ 081000Z AUTO 16001KT 10/09 RMK AO1 SLP203 T01030089
58002=
METAR CWDZ 081000Z AUTO 16001KT 10/09 RMK AO1 SLP203 T01030089
58002=
METAR CWDZ 081000Z AUTO 16001KT 10/09 RMK AO1 SLP203 T01030089
58002=
METAR CWDZ 081000Z AUTO 16001KT 10/09 RMK AO1 SLP203 T01030089
58002=
METAR CWDZ 081000Z AUTO 16001KT 10/09 RMK AO1 SLP203 T01030089
58002=
####018000739####
SARA36 RUMS 081000
METAR UWUU 081000Z 01003G07MPS 310V010 CAVOK 28/09 Q1015 82010060
NOSIG RMK QFE750/1001 MOD TURB 500-1600=
METAR USCC 081000Z 33007G12MPS 290V360 9999 FEW040 FEW200 25/01 Q1014
NOSIG RMK QFE740 27000070=
METAR USDD 081000Z 04010MPS CAVOK 17/01 Q1016 NOSIG RMK QFE756/1008
SC060=
METAR USMU 081000Z 02006MPS 9999 SCT032CB OVC066 14/11 Q1006 NOSIG
RMK QFE748 09250345=
METAR USNN 081000Z 17005MPS P6000 BKN028 BKN200 18/09 Q1003 NOSIG RMK
QFE747 SC065=
METAR USRK 081000Z 35004MPS 6000 BKN019 OVC066 14/11 Q1003 NOSIG RMK
QFE746 351///55=
METAR USRR 081000Z 34003G06MPS 7000 OVC010 12/10 Q1004 TEMPO BKN007
RMK QFE748 25////60=
METAR USSS 081000Z 36007G10MPS CAVOK 24/01 Q1015 NOSIG RMK QFE740
260///70=
####018000155####
SPUS80 KWBC 081014
SPECI
KMSN 081010Z 00000KT 8SM SCT006 SCT020 21/20 A3001 RMK AO2=
KIRK 081012Z AUTO 00000KT 1 3/4SM BR CLR 19/19 A3007 RMK AO2=
####018000200####
SAUS80 KWBC 081014
METAR
KIZA 081009Z AUTO 00000KT 10SM OVC009 13/11 A2991 RMK AO2=
KPTS 081010Z AUTO 04003KT 10SM VCTS BKN026 BKN065 BKN090 22/ A3004
     RMK AO2 LTG DSNT E THRU SW T0220=
####018000104####
SAIY43 LIIB 081000 RRB
METAR LICA 080950Z 13009KT 360V270 9999 SCT020 28/24 Q1017 RMK VIS
MIN 9999=
####018000090####
SPAU31 YBBN 081009
SPECI YBCS 081006Z 17008KT 9999 5000S FU FEW024 SCT050 23/20 Q1016=
####018000088####
SAUS42 KJAX 081013
MTRNRB
SPECI KNRB 081012Z 30003KT 10SM CLR 24/21 A2999 RMK AO2
####018000120####
SAAG31 KWBC 081000 RRB
METAR
SABE 081000Z 27007KT CAVOK 09/M01 Q1019=
SAWG 081000Z 29008KT CAVOK M05/M06 Q1001=
####018000096####
SAAW34 KWBC 080945 RRF
METAR
UTSS 081000Z 09004MPS 9999 NSC 36/11 Q1010 R88/CLRD70 NOSIG=
####018000082####
SACY42 EGRR 080950
METAR LCRA 080950Z AUTO 21011KT 9999NDV // NCD 28/20 Q1008=
####018000089####
SAIY43 LIIB 081000 RRA
METAR LIBP 080950Z VRB06KT CAVOK 26/07 Q1022 RMK VIS MIN 9999=
####018000951####
SARS31 RUMS 081000
METAR ULAA 081000Z 31004MPS 270V360 9999 FEW030CB 27/17 Q1015 TEMPO
TSRA RMK QFE760/1013 SC070=
METAR ULKK 081000Z VRB02MPS 6000 SCT033 SCT099 31/17 Q1015 NOSIG RMK
QFE757=
METAR ULMM 081000Z 34003MPS 310V020 9999 BKN020 14/08 Q1018 NOSIG RMK
QFE756 32190060=
METAR ULOL 081000Z NIL=
METAR ULOO 081000Z VRB02MPS P6000 SCT033 BKN200 27/16 Q1012 NOSIG RMK
QFE755=
METAR ULWW 081000Z 15004G07MPS 9999 SCT050 BKN/// 32/16 Q1016 NOSIG
RMK QFE751 15CLRD60=
METAR UMKK 081000Z 29006MPS P8000 FEW030 BKN200 22/13 Q1020 NOSIG RMK
QFE 764 SC07=
METAR UUBP 081000Z 17002MPS 9999 BKN033CB 27/17 Q1013 NOSIG=
METAR UUOB 081000Z VRB02MPS 9999 SCT040 BKN200 28/16 Q1014 NOSIG RMK
SC065=
METAR UUOK 081000Z 15002MPS 9999 BKN033 28/17 Q1012 NOSIG=
METAR UUOO 081000Z 00000MPS 9999 SCT033CB 28/15 Q1014 TEMPO VRB16MPS
TSRA SQ RMK 13090070=
METAR UWGG 081000Z 14004MPS 090V170 8000 FEW033 33/09 Q1016 NOSIG RMK
QFE755 18090070=
####018000896####
SARS32 RUMS 081000
METAR URKA 081000Z 07004MPS 9999 SCT026 28/18 Q1013 NOSIG RMK  065=
METAR URKK 081000Z 06004G07MPS 020V090 9999 SCT030 SCT300 30/18 Q1012
NOSIG RMK QFE756 SC070=
METAR URKM 081000Z 09003MPS 9999 SCT040 BKN100 30/18 Q1012 NOSIG RMK
QFE741=
METAR URML 081000Z 03007MPS 9999 SKC 32/21 Q1013 NOSIG RMK QFE759 /
07=
METAR URMM 081000Z 09006MPS 9999 BKN043 30/19 Q1013 NOSIG RMK /
SC070=
METAR URMN 081000Z 09004MPS 9999 BKN030CB BKN110 29/19 Q1014 NOSIG
RMK / QFE723 SC07=
METAR URMT 081000Z 10005G10MPS 070V130 9999 SCT020 27/17 Q1015 NOSIG
RMK QFE722 SC07=
METAR URRR 081000Z 11002MPS 9999 FEW030 30/13 Q1014 NOSIG RMK SC070=
METAR URSS 081000Z 28003MPS 9999 FEW040 28/21 Q1010 NOSIG RMK /
QFE756 06CLRD70=
METAR URWA 081000Z 34002MPS CAVOK 37/11 Q1011 NOSIG RMK SC07=
METAR URWI 081000Z NIL=
METAR URWW 081000Z 34004G07MPS CAVOK 29/16 Q1014 NOSIG RMK SC070=
####018001534####
SAIY42 LIIB 081000
METAR LIBF 080950Z 33014KT CAVOK 27/09 Q1020 RMK VIS MIN 9999=
METAR LIEA 080950Z 02004KT 320V100 CAVOK 30/21 Q1019 RMK VIS MIN
9999=
METAR LIED 080955Z 18010KT 9999 FEW018 32/15 Q1018 RMK FEW VIS MIN
      9999 BLU=
METAR LIEO 080950Z 05009KT 020V080 9999 FEW030 31/18 Q1020 RMK VIS
MIN 9999=
METAR LIMA 080950Z VRB03KT 9999 SCT040 24/15 Q1023 RMK VIS MIN 9999=
METAR LIQN 080950Z VRB03KT CAVOK 26/17 Q1021 RMK VIS MIN 9999=
METAR LIQO 080955Z 00000KT 9999 FEW003 24/19 Q1021 RMK FEW VAL NIL NC
      VIS MIN 9999=
METAR LIQW 081000Z NIL=
METAR LIRE 080955Z 22008KT 9999 FEW020 SCT033 28/20 Q1019 RMK SCT VIS
      MIN 9999 WIND THR31 20009KT BLU=
METAR LIRG 080955Z 31005KT 9999 SCT035 30/19 Q1019 RMK SCT MON NE
     LIB NC VIS MIN 9999 BLU=
METAR LIRH 080955Z 03003KT 9999 FEW035 27/19 Q1020 RMK FEW MON LIB NC
      VIS MIN 9999 WIND THR16 22004KT BLU=
METAR LIRI 080950Z 05010KT CAVOK 28/11 Q1019 RMK VIS MIN 9999=
METAR LIRK 080955Z 12011KT CAVOK 16/14 Q1026 RMK FEW FEW060 MON NE
      LIB NC VAL NIL NC VIS MIN 9999=
METAR LIRL 080955Z 26006KT 9999 FEW020 30/19 Q1018 RMK FEW MON LIB NC
      VIS MIN 9999 BLU=
METAR LIRM 080955Z 07010KT CAVOK 28/15 Q1020 RMK SKC VIS MIN 9999
      WIND THR06 07010KT BLU=
METAR LIRS 080955Z 32002KT CAVOK 31/10 Q1019 RMK SCT SCT200 VIS MIN
      9999 WIND THR21 /////KT BLU=
METAR LIRT 080955Z 01007KT 9999 FEW015 17/07 Q1023 RMK FEW MON LIB
      VAL NIL VIS MIN 9999=
METAR LIRU 080950Z VRB02KT 9999 SCT040 30/19 Q1019 RMK VIS MIN 9999=
####018000258####
SAAO33 KWBC 081000 RRB
METAR
GOGG 081000Z 18006KT 9999 BKN016 TCU SCT230 30/26 Q1014=
GOGS 081000Z 18006KT 9999 SCT016 SCT130 30/26 Q1013=
GOSS 081000Z 20008KT 160V250 9999 FEW013 BKN230 31/26 Q1013=
GOTT 081000Z 20006KT 9999 BKN013 30/26 Q1014=
####018000081####
SAAF34 KWBC 081000 RRB
METAR
FBSP 081000Z /////KT 9999 BKN020 17/10 Q1031=
####018000417####
SARS33 RUMS 081000
METAR ULLI 081000Z 10004MPS 070V140 CAVOK 30/16 Q1013 NOSIG=
METAR UUDD 081000Z 11005MPS 080V160 9999 SCT043 BKN200 27/16 Q1015
NOSIG=
METAR UUEE 081000Z 15005MPS 130V200 9999 SCT050TCU BKN200 28/12 Q1015
NOSIG=
METAR UUEM 081000Z NIL=
METAR UUWW 081000Z 15003MPS 9999 SCT040 BKN100 27/17 Q1015 06000070
NOSIG=
METAR UUMO 081000Z 12003MPS CAVOK 26/17 Q1015 NOSIG RMK QFE746/0995
SC060=
####018001508####
SPUS70 KWBC 081014
SPECI
KALI 081011Z AUTO 02007KT 10SM -RA SCT026 BKN090 BKN110 25/24
     A2984 RMK AO2 P0000=
KBOK 081012Z AUTO 00000KT 3SM BR OVC002 09/09 A2996 RMK AO2 $=
KCNM 081011Z AUTO 33008KT 6SM RA BR SCT009 BKN017 OVC075 20/19
     A3013 RMK AO2 LTG DSNT E AND SE TSE0955 CIG 013V026 P0005=
KH78 081010Z 11008KT 12SM BKN020 27/23 A2999 RMK SEAS 4-5=
KMGW 081011Z AUTO 00000KT 2 1/2SM BR CLR 20/18 A3011 RMK AO2=
KPIL 081011Z AUTO 00000KT 10SM SCT018 BKN024 BKN035 28/26 A2976
     RMK AO2 RAE11 P0007 $=
KBRL 081011Z AUTO 9SM BKN004 22/21 A3004 RMK AO2 $=
KCKB 081011Z 00000KT 2SM BR CLR 19/18 A3010 RMK AO2=
KDEQ 081011Z AUTO 00000KT 10SM SCT006 OVC034 24/23 A3002 RMK
     AO2=
KELZ 081011Z AUTO 00000KT 1SM BR CLR 18/18 A3016 RMK AO2=
KGON 081011Z AUTO 11008KT 1 3/4SM R05/3000VP6000FT BR OVC002 23/21
     A3006 RMK AO2=
KLEB 081011Z 00000KT 1 1/4SM BR BKN001 22/21 A3006 RMK AO2=
KLSE 081011Z AUTO 00000KT 8SM BKN013 20/19 A3003 RMK AO2=
PACM 081011Z AUTO 29006KT 10SM OVC028 11/10 A3009 RMK AO2 TSNO
     $=
PACM 081011Z AUTO 29006KT 10SM OVC028 11/10 A3009 RMK AO2 TSNO
     $=
KCQX 081012Z AUTO VRB03KT 2SM BR OVC001 19/19 A3011 RMK AO2=
KJEF 081012Z AUTO 36003KT 10SM SCT004 BKN028 OVC090 23/22 A3003
     RMK AO2 P0001=
KLNS 081012Z 11004KT 2SM BR CLR 23/21 A3002 RMK AO2=
KPQL 081012Z AUTO 00000KT 1/2SM FG VV001 23/23 A3002 RMK AO2=
KSWO 081012Z AUTO 00000KT 9SM SCT023 SCT043 BKN075 23/21 A3003 RMK
     AO2 LTG DSNT SE=
####018002386####
SAUS70 KWBC 081014
METAR
K1F0 081007Z AUTO 00000KT 10SM BKN048 BKN055 24/24 A3001 RMK
     AO2=
K36U 081015Z AUTO 11004KT 10SM CLR 09/05 A3022 RMK AO2=
KONM 081007Z AUTO 20003KT 10SM CLR 19/14 A3021 RMK AO2
     T01850139=
KWWR 081009Z AUTO 01004KT 10SM SCT110 22/21 A3015 RMK AO2
     T02200210=
K4O4 081008Z AUTO 11003KT 7SM SCT003 23/22 A3005 RMK AO2=
KADH 081011Z AUTO 18004KT 7SM BKN023 23/22 A3002 RMK AO2 LTG DSNT
     NE=
KADM 081010Z AUTO 00000KT 7SM SCT024 BKN029 BKN037 23/23 A3002 RMK
     AO2=
KALM 081010Z AUTO 15009KT 10SM CLR 17/14 A3014 RMK AO2=
KATS 081010Z AUTO 34008KT 10SM BKN036 BKN042 19/18 A3016 RMK
     AO2=
KAXS 081010Z AUTO 02003KT 10SM BKN031 24/22 A3007 RMK AO2
     T02350215=
KAXX 081010Z AUTO 00000KT 10SM CLR 04/03 A3048 RMK AO2=
KBVS 081010Z AUTO 04009KT 10SM CLR 20/13 A2997 RMK A01 P000=
KCHK 081011Z AUTO 00000KT 7SM CLR 22/22 A3004 RMK AO2=
KCLK 081013Z AUTO 02008KT 10SM SCT028 SCT080 22/20 A3007 RMK
     AO2=
KCQB 081010Z AUTO 01004KT 4SM +RA 23/23 A3004 RMK AO2 TSNO=
KCUH 081010Z AUTO 00000KT 10SM BKN016 BKN038 OVC047 23/23 A3003
     RMK AO2=
KDUA 081017Z AUTO 14005KT 10SM -DZ SCT085 24/24 A3003 RMK AO2=
KFET 081010Z AUTO 34003KT 10SM CLR 18/16 A3015 RMK AO2=
KGCD 081010Z AUTO 11009KT 10SM CLR 15/04 A3010 RMK AO2
     T01530040=
KGCM 081015Z AUTO 26006KT 5SM +VCTSRA SCT005 OVC012 23/23 A3006
     RMK AO2 LTG DSNT S AND SW P0007=
KGMJ 081015Z AUTO 00000KT OVC020 26/26 A3004 RMK AO2 P0001
     PWINO=
KIDP 081010Z AUTO 05004KT 10SM SCT036 SCT055 21/20 A3003 RMK AO2
     LTG DSNT E AND S=
KJSV 081011Z AUTO 00000KT 10SM CLR 23/23 A3003 RMK AO2 LTG DSNT
     NW=
KJWG 081010Z AUTO 00000KT 5SM BR SCT004 SCT016 BKN070 22/22 A3009
     RMK AO2=
KLAM 081010Z AUTO 23006KT 10SM SCT120 14/09 A3037 RMK AO2=
KOJA 081010Z AUTO 35003KT 10SM BKN011 BKN016 BKN023 22/21 A3008
     RMK AO2=
KONP 081010Z AUTO 21008KT 7SM OVC004 11/10 A3000 RMK AO1=
KORS 081010Z AUTO 00000KT 10SM CLR 15/12 A2995 RMK AO2=
KPLU 081010Z AUTO 00000KT 10SM FEW044 FEW120 14/13 A2994 RMK
     AO2=
KSNL 081012Z AUTO 35004KT 7SM OVC007 24/23 A3004 RMK AO2 LTG DSNT
     NE=
KSRE 081010Z AUTO 00000KT 5SM BR 24/24 A3002 RMK AO2 LTG DSNT
     NE=
KSVC 081010Z AUTO 06009KT 10SM BKN100 18/14 A3022 RMK AO2=
KTMK 081013Z AUTO 00000KT 7SM OVC006 12/12 A2996 RMK AO2=
####018000190####
SACN31 KWBC 081000 RRB
METAR
CYUL 081000Z 24005KT 12SM FEW055 FEW075 25/21 A2999 RMK CU1AC2 VIA
     YQB FIC SLP156=
CYYT 081000Z 16006KT 4SM BR OVC003 09/09 A3024 RMK SF8 SLP243=
####018000442####
SARA31 KWBC 081000 RRD
METAR
UTNN 081000Z 21005MPS 170V250 CAVOK 43/07 Q1007 R15/CLRD70
     NOSIG=
UTSA 081000Z 01007MPS 9999 FEW160 41/03 Q1008 R88/CLRD70 NOSIG=
UTSB 081000Z 35007MPS CAVOK 41/03 Q1008 R01/CLRD70 TEMPO
     01008MPS=
UTSK 081000Z 36004MPS CAVOK 41/12 Q1007 R16/CLRD70=
UTSS 081000Z 09004MPS 9999 NSC 36/11 Q1010 R88/CLRD70 NOSIG=
UTST 081000Z 21002MPS 170V240 CAVOK 41/04 Q1006 R88/CLRD70
     NOSIG=
####018000139####
SASA31 KWBC 081000 RRD
METAR
SKBO 081000Z VRB02KT 7000 HZ BKN012 12/11 A3029=
SKLT 081000Z 00000KT 9999 FEW015 SCT080 24/24 A2987=
####018000107####
SPUS41 KWBC 081014
SPECI
KGON 081011Z AUTO 11008KT 1 3/4SM R05/3000VP6000FT BR OVC002 23/21
A3006=
####018000115####
SAUK41 KWBC 080950 RRE
METAR
EGDM 080950Z 22005KT 9999 FEW016 SCT033 BKN120 19/14 Q1019 TEMPO
     SCT018=
####018000104####
SAUK39 EGRR 080950 CCC
METAR COR EGXT 080950Z 23008KT 9999 FEW020 SCT090 BKN120 18/09 Q1018
 BLU=
####018000650####
SAXX99 KWBC 081000 RRM
METAR
CYGP 081000Z 09003KT 15SM FEW006 BKN100 15/15 A3000 RMK ST1AC3 VIA
     YQB FIC SLP160=
CYGT 081000Z 00000KT 15SM VCSH BKN040 BKN080 11/04 A2983 RMK
     SC6AC1 BR SE SLP106=
CYYE 081000Z 20005KT 15SM FEW180 FEW210 13/06 A3003 RMK AC1CI0
     SLP172=
CYYH 081000Z 02005KT 15SM FEW025 BKN040 BKN210 11/06 A2982 RMK
     SC2SC5CI0 SLP099=
EGUB 080950Z 25004KT 9999 BKN026 BKN120 19/15 Q1018 BLU NOSIG=
MMIT 081000Z RTD VRB02KT 5SM HZ BKN010 26/24 A2975 RMK 8/600=
MMTB 081000Z RTD 00000KT 7SM OVC018 23/21 A2983 RMK 8/6//
     BINOVC=
UTTP 081000Z 29002MPS CAVOK 38/07 Q1010 R88/CLRD70 NOSIG=
####018000102####
SPUS52 KWBC 081014
SPECI
KALI 081011Z AUTO 02007KT 10SM -RA SCT026 BKN090 BKN110 25/24
A2984=
####018000103####
SPUS52 KWBC 081014
SPECI
KCNM 081011Z AUTO 33008KT 6SM RA BR SCT009 BKN017 OVC075 20/19
A3013=
####018000073####
SPUS53 KWBC 081014
SPECI
KBRL 081011Z AUTO 9SM BKN004 22/21 A3004=
####018000102####
SPUS72 KWBC 081014
SPECI
KALI 081011Z AUTO 02007KT 10SM -RA SCT026 BKN090 BKN110 25/24
A2984=
####018000103####
SPUS72 KWBC 081014
SPECI
KCNM 081011Z AUTO 33008KT 6SM RA BR SCT009 BKN017 OVC075 20/19
A3013=
####018000073####
SPUS73 KWBC 081014
SPECI
KBRL 081011Z AUTO 9SM BKN004 22/21 A3004=
####018000080####
SAAT31 TAPA 080957
METAR COR TAPA  081000Z 07011KT 9999 FEW020 28/24 Q1015=
####018000092####
SATH32 VTBB 081000 RRA
METAR VTSH 081000Z 24010KT 9999 FEW020 SCT300 32/24 Q1007 A2974=
####018000081####
SPUS73 KWBC 081014
SPECI
KLSE 081011Z AUTO 00000KT 8SM BKN013 20/19 A3003=
####018000977####
SAUS20 KNKA 081013
METAR KAIK 081015Z AUTO 28004KT 10SM CLR 22/22 A3003 RMK AO2 PNO=
METAR KARW 081015Z AUTO 26006KT 10SM CLR 23/18 A2997 RMK AO2=
METAR KBDN 081015Z AUTO 00000KT 10SM CLR 13/02 A3010 RMK AO2 =
SPECI KDAL 081013Z 16007KT 10SM BKN014 26/23 A3000 RMK AO2=
METAR KFDW 081015Z AUTO 27004KT 10SM CLR 25/17 A3000 RMK AO1=
METAR KGLY 081015Z AUTO 00000KT 7SM FEW002 SCT110 23/23 A3003 RMK 
     AO2 =
SPECI KGNV 081012Z AUTO 00000KT 3SM BR CLR 19/18 A3000 RMK AO2=
METAR KMEZ 081015Z AUTO 00000KT 10SM SCT013 BKN025 OVC041 25/23 
     A3007 RMK AO2=
METAR KOAJ 081015Z AUTO 00000KT 10SM CLR 22/20 A2993 RMK AO1=
METAR KOCF 081015Z AUTO 00000KT 10SM CLR 19/19 A3001 RMK AO1=
METAR KPSO 081015Z AUTO 00000KT 10SM CLR 11/05 A3039 RMK AO2=
SPECI KRBD 081012Z 10005KT 10SM SCT009 BKN014 BKN028 25/23 A3000 RMK 
    AO2=
METAR KSOP 081015Z AUTO 00000KT 10SM CLR 23/17 A2997 RMK AO1=
METAR KUDG 081015Z 33005KT 10SM CLR 23/18 A2998 RMK AO1=
####018000666####
SARS18 KAWN 081000 RRE
METAR ULWW 081000Z 15004G07MPS 9999 SCT050 BKN/// 32/16 Q1016 NOSIG
      RMK QFE751 15CLRD60=
METAR UMKK 081000Z 29006MPS P8000 FEW030 BKN200 22/13 Q1020 NOSIG RMK
      QFE 764 SC07=
METAR URKA 081000Z 07004MPS 9999 SCT026 28/18 Q1013 NOSIG RMK 065=
METAR URSS 081000Z 28003MPS 9999 FEW040 28/21 Q1010 NOSIG RMK / QFE756
      06CLRD70=
METAR UTSS 081000Z 09004MPS 9999 NSC 36/11 Q1010 R88/70D NOSIG=
METAR UWKD 081000Z 18002MPS 9999 VCTS SCT033CB BKN070 30/11 Q1015 TEMPO
      VRB15MPS 3000 TSRA RMK QFE752/1003 112/0350=
METAR UWOO 081000Z 04006MPS P5000 FEW070 32/04 Q1012 08/LRD65 NOSIG
      RMK QFE749/0998=
####018000474####
SAXX70 KAWN 081000 RRL
METAR KQD2 080957Z AUTO 11003KT 9999 CLR 34/01 A3000 RMK AO2 SLP033
      T03440011 $=
METAR KQEJ 081000Z AUTO 16003KT 7SM CLR 25/19 A2991 RMK A02=
METAR KQEL 081010Z AUTO 10001KT 7SM DZ FEW040 24/21 A2971 RMK A02=
METAR KQEQ 081010Z AUTO 09001KT 7SM -SHRA FEW065 FEW090 SCT120 23/20
      A2979 RMK A02=
METAR KQEW 081010Z AUTO 32004KT 7SM FEW085 26/21 A2981 RMK A02=
METAR KQFB 081010Z AUTO 04003KT 4SM BR CLR 24/22 A2991 RMK A02=
####018000077####
SPCN51 CWAO 081012
SPECI CZBF 081012Z 00000KT 1/4SM FG VV002 RMK FG8=

####018000110####
SAAK41 KNKA 081014
SPECI PAPB 081012Z AUTO 09019G22KT 10SM BKN028 OVC048 07/06 A2992 
    RMK AO2 TSNO=
####018000568####
SAYE20 OYSC 081000 RRA
METAR OYAA NIL=
METAR OYAG 081000Z 10010KT 9999 SCT030 30/25 Q1002=
METAR OYAM NIL=
METAR OYAR NIL=
METAR OYAS 081000Z 21005G16KT 5000 NSC 34/24 Q1006=
METAR OYAT NIL=
METAR OYDM NIL=
METAR OYHD NIL=
METAR OYIB NIL=
METAR OYKD NIL=
METAR OYMB 081000Z 03020KT 6000 FEW030 40/M05 Q1005=
METAR OYMK NIL=
METAR OYMT NIL=
METAR OYRN 081000Z 19016KT 7000 NSC 31/24 Q1001=
METAR OYSD NIL=
METAR OYSH NIL=
METAR OYSN NIL=
METAR OYSQ NIL=
METAR OYSY 081000Z 10005KT 010V160 6000 NSC 42/08 Q1002=
METAR OYTZ NIL=
####018001018####
SAKO51 RJTD 081000
METAR RKPC 081000Z 07007KT 4500 BR SCT030 OVC120 24/21 Q1008 NOSIG=
METAR RKPC 081000Z 07007KT 4500 BR SCT030 OVC120 24/21 Q1008 NOSIG=
METAR RKPK 081000Z 12006KT 9999 SCT030 BKN200 24/17 Q1009 NOSIG=
METAR RKPK 081000Z 12006KT 9999 SCT030 BKN200 24/17 Q1009 NOSIG=
METAR RKSI 081000Z 11005KT 070V140 9999 FEW040 OVC120 24/17 Q1007
           RERA NOSIG=
METAR RKSM 081000Z 26003KT 9999 FEW060 BKN100 OVC200 26/20 A2979=
METAR RKSS 081000Z 07002KT 9999 -RA SCT030 OVC110 24/19 Q1008 NOSIG=
METAR RKSS 081000Z 07002KT 9999 -RA SCT030 OVC110 24/19 Q1008 NOSIG=
METAR RKTN 081000Z 09005KT 8000 -TSRA FEW025CB BKN040 OVC200 26/22
           Q1007 NOSIG RMK OCNL LTGCC TS SW MOV SE=
METAR RKTN 081000Z 09005KT 8000 -TSRA FEW025CB BKN040 OVC200 26/22
           Q1007 NOSIG RMK OCNL LTGCC TS SW MOV SE=
METAR RKTU 081000Z 33002KT 9000 SCT030 SCT100 BKN200 27/18 Q1008
           NOSIG=
METAR RKTU 081000Z 33002KT 9000 SCT030 SCT100 BKN200 27/18 Q1008
           NOSIG=
####018000720####
SAAM31 FCBB 081000
METAR FCBB 081000Z 21008KT 6000  BKN016 24/20 Q1015 NOSIG=
METAR FCPP 081000Z 22006KT 8000 SCT015 BKN030 25/21 Q1015 NOSIG=
METAR FEFF 081000Z 28004KT 9999 FEW020 SCT300 28/23 Q1014 NOSIG=
METAR FGSL 081000Z VRB02KT 9999 SCT013 FEW020CB BKN130 27/27
Q1015 NOSIG=
METAR FKKD 081000Z VRB02KT 9999 BKN013 FEW016CB BKN120 28/25 Q1015
           BECMG BKN016 FEW020CB BKN120=
METAR FKYS 081000Z 30005KT 240V360 9999 BKN006 25/20 Q1019 NOSIG=
METAR FNLU 081000Z NIL=
METAR FOOG 081000Z NIL=
METAR FOOL 081000Z 15004KT 120V190 8000 SCT010 OVC040 27/22 Q1015
           NOSIG=
METAR FOON 081000Z 28004KT 7000 OVC016 25/22 Q1017=
METAR FPST 081000Z NIL=
METAR FZAA 081000Z NIL=
####018000125####
SAUS44 KMAF 081014
MTRGDP
SPECI KGDP 081013Z AUTO 04013KT 8SM BKN004 OVC010 16/16 A3023 RMK 
AO2 RAB01E12 P0000 TSNO
####018002399####
SAUS20 KNKA 081014
METAR KAFK 081010Z AUTO 36006KT 7SM CLR 20/19 A3011 RMK AO2 
     T01950185=
METAR KANW 081010Z AUTO 00000KT 10SM SCT110 17/15 A3024 RMK AO2 
     T01670150=
METAR KAUH 081010Z AUTO 33003KT 10SM CLR 16/14 A3018 RMK AO2 
     T01550143=
METAR KAUN 081010Z AUTO 12003KT 10SM CLR 21/13 A2987 RMK AO1=
METAR KBIE 081010Z AUTO 36004KT 10SM CLR 18/17 A3014 RMK AO2 
     T01820171=
METAR KBTA 081010Z AUTO 01005KT 10SM CLR 19/17 A3014 RMK AO2 
     T01890171=
METAR KBVN 081010Z AUTO 00000KT 10SM OVC090 17/15 A3020 RMK AO2 
     T01650150=
METAR KDUC 081014Z AUTO 09003KT 10SM CLR 22/22 A3004 RMK AO2=
METAR KDVO 081010Z AUTO 00000KT 10SM OVC012 12/11 A2992 RMK AO2=
METAR KHDE 081010Z AUTO 00000KT 10SM BKN050 16/14 A3023 RMK AO2 
     T01550142=
SPECI KHIB 081013Z AUTO 00000KT 1/2SM FG VV001 09/08 A3004 RMK AO2=
METAR KHJH 081010Z AUTO 36003KT 10SM BKN018 OVC023 19/18 A3016 
     RMK AO2 T01920176=
SPECI KHVN 081013Z 11006KT 2SM HZ OVC002 24/23 A3005 RMK AO2=
METAR KIBM 081010Z AUTO 18003KT 7SM SCT004 SCT020 OVC065 12/12 
     A3032 RMK AO2 T01240115=
METAR KJYR 081010Z AUTO 35003KT 10SM CLR 15/15 A3017 RMK AO2=
METAR KLCG 081010Z AUTO 00000KT 10SM CLR 15/14 A3018 RMK AO2 
     T01520141=
METAR KLHM 081011Z AUTO 16009KT 10SM CLR 17/11 A2982 RMK AO1 
     T01650110=
SPECI KLHQ 081013Z AUTO 00000KT 1SM BR CLR 19/18 A3009 RMK AO2=
METAR KLRU 081012Z AUTO 02004KT 10SM SCT065 SCT090 21/15 A3016 
     RMK AO2=
SPECI KLUK 081013Z AUTO 00000KT 1 3/4SM R21L/1400VP6000FT BR CLR 
    21/21 A3008 RMK AO2=
METAR KLXN 081010Z AUTO 34005KT 10SM OVC080 17/16 A3022 RMK AO2 
     T01650157=
METAR KMLE 081010Z AUTO 00000KT 10SM BKN028 20/17 A3013 RMK AO2 
     T02000170=
METAR KMMH 081010Z AUTO 00000KT 10SM CLR 10/01 A3021 RMK AO1=
SPECI KMVL 081013Z AUTO 00000KT 2SM BR FEW003 21/19 A3007 RMK AO2=
METAR KOKM 081011Z AUTO 00000KT 10SM VCTS OVC005 24/24 A3003 RMK 
     AO1 LTG DSNT N THRU E=
METAR KONL 081010Z AUTO 29005KT 10SM BKN110 16/15 A3022 RMK AO2 
     T01630147=
METAR KOUN 081013Z AUTO 00000KT 10SM SCT010 BKN022 OVC033 25/23 
     A3004 RMK AO2 LTG DSNT NE=
SPECI KSLN 081013Z AUTO 34008KT 6SM BR OVC006 21/20 A3012 RMK AO2 
    CIG 004V008=
METAR KTEX 081012Z AUTO 15004KT 10SM SCT120 12/04 A3046 RMK AO2=
METAR KWDG 081010Z AUTO 00000KT 10SM CLR 21/21 A3007 RMK AO2=
####018000721####
SPUS99 KWBC 081015
SPECI
KDAL 081013Z 16007KT 10SM BKN014 26/23 A3000 RMK AO2=
KGNV 081012Z AUTO 00000KT 3SM BR CLR 19/18 A3000 RMK AO2=
KRBD 081012Z 10005KT 10SM SCT009 BKN014 BKN028 25/23 A3000 RMK
     AO2=
PAPB 081012Z AUTO 09019G22KT 10SM BKN028 OVC048 07/06 A2992 RMK
     AO2 TSNO=
KHIB 081013Z AUTO 00000KT 1/2SM FG VV001 09/08 A3004 RMK AO2=
KHVN 081013Z 11006KT 2SM HZ OVC002 24/23 A3005 RMK AO2=
KLHQ 081013Z AUTO 00000KT 1SM BR CLR 19/18 A3009 RMK AO2=
KLUK 081013Z AUTO 00000KT 1 3/4SM R21L/1400VP6000FT BR CLR 21/21
     A3008 RMK AO2=
KMVL 081013Z AUTO 00000KT 2SM BR FEW003 21/19 A3007 RMK AO2=
KSLN 081013Z AUTO 34008KT 6SM BR OVC006 21/20 A3012 RMK AO2 CIG
     004V008=
####018000389####
SARA35 RUMS 081000
METAR ULDD 081000Z NIL=
METAR UOHH 081000Z 02003MPS 9999 FEW030 SCT/// 12/04 Q1023 NOSIG RMK
QFE761 06090060=
METAR UOII 081000Z 17003MPS 9999 SCT033CB BKN040 26/17 Q1006 TEMPO
-TSRA RMK QFE751 30////60=
METAR UOOO 081000Z 02008G10MPS CAVOK 23/11 Q1010 NOSIG RMK QFE743
010///60=
METAR USCM 081000Z 01003MPS 9999 FEW050 26/02 Q1015 NOSIG 01090065
RMK QFE723=
####018002471####
SAUS99 KWBC 081015
METAR
KAIK 081015Z AUTO 28004KT 10SM CLR 22/22 A3003 RMK AO2 PNO=
KARW 081015Z AUTO 26006KT 10SM CLR 23/18 A2997 RMK AO2=
KBDN 081015Z AUTO 00000KT 10SM CLR 13/02 A3010 RMK AO2=
KFDW 081015Z AUTO 27004KT 10SM CLR 25/17 A3000 RMK AO1=
KGLY 081015Z AUTO 00000KT 7SM FEW002 SCT110 23/23 A3003 RMK
     AO2=
KMEZ 081015Z AUTO 00000KT 10SM SCT013 BKN025 OVC041 25/23 A3007
     RMK AO2=
KOAJ 081015Z AUTO 00000KT 10SM CLR 22/20 A2993 RMK AO1=
KOCF 081015Z AUTO 00000KT 10SM CLR 19/19 A3001 RMK AO1=
KPSO 081015Z AUTO 00000KT 10SM CLR 11/05 A3039 RMK AO2=
KSOP 081015Z AUTO 00000KT 10SM CLR 23/17 A2997 RMK AO1=
KUDG 081015Z 33005KT 10SM CLR 23/18 A2998 RMK AO1=
KAFK 081010Z AUTO 36006KT 7SM CLR 20/19 A3011 RMK AO2
     T01950185=
KANW 081010Z AUTO 00000KT 10SM SCT110 17/15 A3024 RMK AO2
     T01670150=
KAUH 081010Z AUTO 33003KT 10SM CLR 16/14 A3018 RMK AO2
     T01550143=
KAUN 081010Z AUTO 12003KT 10SM CLR 21/13 A2987 RMK AO1=
KBIE 081010Z AUTO 36004KT 10SM CLR 18/17 A3014 RMK AO2
     T01820171=
KBTA 081010Z AUTO 01005KT 10SM CLR 19/17 A3014 RMK AO2
     T01890171=
KBVN 081010Z AUTO 00000KT 10SM OVC090 17/15 A3020 RMK AO2
     T01650150=
KDUC 081014Z AUTO 09003KT 10SM CLR 22/22 A3004 RMK AO2=
KDVO 081010Z AUTO 00000KT 10SM OVC012 12/11 A2992 RMK AO2=
KHDE 081010Z AUTO 00000KT 10SM BKN050 16/14 A3023 RMK AO2
     T01550142=
KHJH 081010Z AUTO 36003KT 10SM BKN018 OVC023 19/18 A3016 RMK AO2
     T01920176=
KIBM 081010Z AUTO 18003KT 7SM SCT004 SCT020 OVC065 12/12 A3032 RMK
     AO2 T01240115=
KJYR 081010Z AUTO 35003KT 10SM CLR 15/15 A3017 RMK AO2=
KLCG 081010Z AUTO 00000KT 10SM CLR 15/14 A3018 RMK AO2
     T01520141=
KLHM 081011Z AUTO 16009KT 10SM CLR 17/11 A2982 RMK AO1
     T01650110=
KLRU 081012Z AUTO 02004KT 10SM SCT065 SCT090 21/15 A3016 RMK
     AO2=
KLXN 081010Z AUTO 34005KT 10SM OVC080 17/16 A3022 RMK AO2
     T01650157=
KMLE 081010Z AUTO 00000KT 10SM BKN028 20/17 A3013 RMK AO2
     T02000170=
KMMH 081010Z AUTO 00000KT 10SM CLR 10/01 A3021 RMK AO1=
KOKM 081011Z AUTO 00000KT 10SM VCTS OVC005 24/24 A3003 RMK AO1 LTG
     DSNT N THRU E=
KONL 081010Z AUTO 29005KT 10SM BKN110 16/15 A3022 RMK AO2
     T01630147=
KOUN 081013Z AUTO 00000KT 10SM SCT010 BKN022 OVC033 25/23 A3004
     RMK AO2 LTG DSNT NE=
KTEX 081012Z AUTO 15004KT 10SM SCT120 12/04 A3046 RMK AO2=
KWDG 081010Z AUTO 00000KT 10SM CLR 21/21 A3007 RMK AO2=
####018001013####
SARS35 RUMS 081000
METAR USPP 081000Z 31004MPS 190V340 CAVOK 27/09 Q1016 NOSIG RMK
QFE751/1001 21090060=
METAR UWKD 081000Z 18002MPS 9999 VCTS SCT033CB BKN070 30/11 Q1015
TEMPO VRB15MPS 3000 TSRA RMK QFE752/1003 112/0350=
METAR UWKE 081000Z 03003MPS 9999 FEW040 31/10 Q1016 NOSIG RMK
QFE745/0993 22090070=
METAR UWKS 081000Z 35005MPS 9999 VCTS BKN033CB 32/12 Q1016 NOSIG RMK
QFE747 SC0.60=
METAR UWLL 081000Z 08005MPS 9999 FEW050TCU 32/09 Q1016 NOSIG RMK
QFE749/0999 SC065=
METAR UWLW 081000Z 31003MPS 8000 FEW040CB 32/14 Q1015 NOSIG 02CLRD60
RMK QFE755=
METAR UWOR 081000Z 07008PS CAVOK 29/03 Q1014 07CLRD65 NOSIG RMK
QFE735/0981=
METAR UWOO 081000Z 04006MPS P5000 FEW070 32/04 Q1012 08LRD65 NOSIG
RMK QFE749/0998=
METAR UWPP 081000Z 11004MPS 9999 SCT033 BKN100 31/10 Q1014 NOSIG RMK
QFE746 11090060=
METAR UWSS 081000Z 06006MPS 9999 FEW050TCU BKN066 31/11 Q1014 NOSIG
RMK QFE749 120///60=
METAR UWWW 081000Z 05005G08MPS 010V100 CAVOK 31/10 Q1015 NOSIG RMK
QFE748/0998 05CLRD60 15//99//=
####018000209####
SANM40 FYWW 081000 RRA
METAR FYKX 081000Z AUTO 13015KT //// // ////// ///// Q1025=
METAR FYML 081000Z AUTO 07012KT //// // ////// 17/M02 Q1029=
METAR FYRH 081000Z AUTO 05011KT //// // ////// ///// Q////=
####018000506####
SARA31 RUMS 081000
METAR UEEE 081000Z 06003MPS 9999 BKN050CB BKN100 22/12 Q1008 NOSIG
RMK QFE747 2309//60=
METAR UELL 081000Z VRB02MPS 9999 VCTS -SHRA BKN023CB OVC200 12/12
Q1012 TEMPO TS RMK QFE684 08CLRD70=
METAR COR UERP 081000Z 01005MPS 9999 SCT033CB BKN100 16/06 Q1014
NOSIG RMK QFE716 35090065=
METAR UERR 081000Z 33003MPS 9999 SCT020CB BKN100 OVC200 15/14 Q1012
NOSIG RMK QFE727 24290255=
METAR UESO 081000Z NIL=
METAR UEST 081000Z 11003MPS CAVOK 06/03 Q1017 NOSIG RMK QFE762
21000060=
####018000886####
SAAG SAVC 081000
METAR SAVC 081000Z 23004KT CAVOK 04/M00 Q0999=
METAR SAOC 081000Z  32008KT 9999  05/01 Q1015=
METAR SARC 081000Z  16008KT 8000 BKN007 10/09 Q1019=
METAR SARE 081000Z 16009KT 9999 FEW006 SCT100 10/08 Q1018=
METAR SARF 081000Z  18009KT 9999  OVC007  14/13
Q1017=
METAR SARI 081000Z  23006KT 5000  SCT100  15/15
Q1018=
METAR SARL 081000Z  16005KT 9999  06/05 Q1020=
METAR SARP 081000Z  14005KT 9999  BKN005 OVC015
15/13 Q1018=
METAR SASA 081000Z 36004KT CAVOK 10/07 Q 1020=
METAR SASJ 081000Z  00000KT CAVOK 09/07 Q1018=
METAR SAVC 081000Z 23004KT CAVOK 04/M00 Q0999=
METAR SAWE 081000Z  27006KT 9999  BKN050  M01/M02
Q0987=
METAR SAWG 081000Z NIL=
METAR SAWH 081000Z  36004KT 9999  BKN035 BKN100
01/M01 Q0984=
METAR SAZM 081000Z NIL=
METAR SAZN 081000Z 27013KT CAVOK 09/02 Q1010=
METAR SAZS 081000Z  32010KT 5000 FZRA BKN008
BKN030  01/00 Q1005=
####018000257####
SAAF21 LFPW 081000 RRA
METAR FAJS 081000Z 06009KT 030V110 9999 SCT030 14/06 Q1036 NOSIG=
METAR FAMM 081000Z 02011KT 9999 FEW045 18/05 Q1032 NOSIG=
METAR FAPE 081000Z 03011KT CAVOK 15/11 Q1025 NOSIG=
METAR FAUP 081000Z 01019KT CAVOK 22/02 Q1027 NOSIG=
####018000358####
SAAL31 DAAA 081000
METAR DAAG 081000Z 01008KT 330V040 CAVOK 32/16 Q1019=
METAR DAAT 081000Z 13017KT CAVOK 33/03 Q1022=
METAR DABB 081000Z 02010KT CAVOK 29/15 Q1019=
METAR DABC 081000Z 00000KT CAVOK 31/06 Q1023=
METAR DAON 081000Z 36007KT CAVOK 33/21 Q1017=
METAR DAOO 081000Z 36010KT CAVOK 28/21 Q1017=
METAR DAUH 081000Z 09014KT CAVOK 37/20 Q1018=
####018000834####
SAHK31 VHHH 081000
METAR VHHH 081000Z 22010KT 160V250 9999 FEW020 SCT030 32/25 
Q1006 NOSIG=
METAR RCTP 081000Z 23011KT 9999 FEW025 BKN080 BKN200 30/25
Q1006 NOSIG=
METAR RCKH 081000Z 27007KT 240V300 9999 FEW013 BKN200 31/26
Q1008 NOSIG=
METAR RCSS 081000Z 25008KT 210V290 9999 FEW020 BKN035 BKN080 32/23
Q1007 NOSIG=
METAR VMMC 081000Z 19014KT 180V260 9999 FEW025 SCT090 30/27
     Q1006 NOSIG=
METAR RPLL 081000Z 11005KT 9999 FEW023CB FEW025 BKN300 32/25 Q1008
           NOSIG RMK CB SSE, SSW A2977=
METAR RPVM 081000Z 12004KT 9999 FEW020 SCT100 BKN250 31/26 Q1009
           A2980=
METAR RPMD 081000Z
20004KT 9999 SCT015CB SCT290 30/25 1008 CB SW/NW/NE=
METAR RPLB 081000Z 21007KT 9999 FEW020 OVC280 31/25 Q1009 NOSIG=
METAR RPLI 081000Z NIL=
METAR RPMZ 081000Z 00000KT 9999 FEW018CB SCT350 30/25 Q1010 CB S=
####018000115####
SACZ41 LKPW 081000
METAR LKKU 081000Z 34011KT CAVOK 23/09 Q1022=
METAR LKLB 081000Z VRB05KT CAVOK 22/06 Q1024=
####018000319####
SANG31 YBBN 081000
METAR AYPY 081000Z 18015KT 9999 BKN040 26/23 Q1010 RMKS: HZ IN AREA=
METAR AYWK 081000Z NIL=
METAR AYVN 081000Z NIL=
METAR AYNZ 081000Z NIL=
METAR AYMH 081000Z NIL=
METAR AYGN 081000Z NIL=
METAR AYMO 081000Z NIL=
METAR AGGH 081000Z 00000KT 9999 HZ FEW015 SCT030 OVC300 25/24 Q1009==
####018000180####
SAAF20 LFPW 081000 RRA
METAR FABL 081000Z 36010KT CAVOK 16/06 Q1033 NOSIG=
METAR FAEL 081000Z 04012KT 010V070 CAVOK 21/08 Q1027=
METAR FAGG 081000Z VRB02KT CAVOK 16/05 Q1022=
####018000090####
SAJM31 MKJP 081000
METAR MKJP 081000Z 11010KT 9999 FEW020 FEW022CB BKN220 27/19 Q1012=
####018000067####
SAAG SAZM 081000
METAR SAZM 081000Z  32008KT CAVOK 05/02 Q1014=
####018000265####
SARS34 RUMS 081000
METAR UUYH 081000Z 00000MPS CAVOK 26/08 Q1017 NOSIG RMK QFE 751
18CLRD60=
METAR UUYS 081000Z 16003MPS CAVOK 21/06 Q1016 NOSIG RMK QFE755
14CLRD60=
METAR UUYY 081000Z VRB01MPS 9999 FEW030 SCT200 30/13 Q1016 NOSIG
01CLRD61 RMK QFE753/1004=
####018000328####
SAAF18 LFPW 081000 RRA
METAR FIMR  081000Z 12018KT 9999 SCT018  25/17 Q1019=
METAR FMEE 081000Z 12022G34KT 9999 FEW023 24/16 Q1021 TEMPO
13028G38KT=
METAR FMMI 081000Z 11007KT 060V160 9999 BKN020 19/12 Q1025 NOSIG=
METAR FMMT 081000Z 22014KT 9999 SCT017 SCT033 25/20 Q1022=
METAR FMNM 081000Z ///10KT CAVOK 30/15 Q1017=
####018000084####
SAAF05 LFPW 081000 RRA
METAR DNMM 081000Z 25009KT 9999 BKN012 28/25 Q1015 NOSIG=
####018000100####
SAKY31 RUMS 081000 RRA
METAR UAFO 081000Z 33002MPS 9999 FEW050CB 34/16 Q1018 NOSIG RMK
QFEM685=
####018000323####
SAAG05 SABM 081000
METAR SAAR 081000Z  00000KT CAVOK 02/00 Q1018=
METAR SABE 081000Z  27007KT CAVOK 09/M01 Q1019=
METAR SACO 081000Z  34008KT CAVOK 08/M03 Q1019=
METAR SADF 081000Z NIL=
METAR SAEZ 081000Z NIL=
METAR SAME 081000Z 00000KT CAVOK 00/M03 Q1014=
METAR SANT 081000Z  32008KT 9999  07/05
081002 SAVCYEYE
####018001576####
SAAU31 YBBN 081000
METAR YPAD 081000Z 09006KT CAVOK 08/06 Q1026=
METAR YBAS 081000Z AUTO 09008KT 9999NDV // NCD 11/06 Q1020=
METAR YBBN 081000Z 19008KT CAVOK 17/11 Q1021
RMK 7SC080
NOSIG=
METAR YBCS 081000Z 16008KT 9999 FEW024 SCT050 23/20 Q1016
RMK FU
FM1010 16008KT 6000 FU FEW025 SCT050=
METAR YSCB 081000Z AUTO 10009KT 9999NDV // NCD 06/03 Q1028=
METAR YPXM 081000Z AUTO 20004KT 9999NDV // NCD 24/21 Q1012=
METAR YPCC 081000Z NIL=
METAR YCFS 081000Z AUTO 23011KT 9999NDV // SCT086 BKN115 14/11 Q1023=
METAR YPDN 081000Z 04007KT CAVOK 26/20 Q1012=
METAR YBCG 081000Z AUTO 19008KT 9000NDV // SCT026 BKN043 OVC057 15/13
Q1021=
METAR YHID 081000Z AUTO 16013KT 9999NDV // SCT026 BKN045 OVC055 24/22
Q1012=
METAR YPJT 081000Z AUTO 01009KT 9999NDV // SCT033 SCT040 BKN055 14/13
Q0998=
METAR YPKU 081000Z AUTO 12004KT 9999NDV // NCD 25/15 Q1014=
METAR YPLM 081000Z AUTO 13002KT 9999NDV // SCT019 OVC031 21/17 Q1008=
METAR YMML 081000Z 17005KT 9999 BKN043 08/05 Q1028
NOSIG=
METAR YPPH 081000Z 01011KT 9999 FEW023 SCT038 BKN140 15/13 Q0999
FM1000 33018G28KT 9999 -SHRA BKN020
INTER 1000/1130 27025G35KT 3000 +SHRA BKN010
INTER 1130/1300 27030G50KT 2000 TSGS BKN010 FEW030CB=
METAR YSSY 081000Z 22012KT 7000 -SHRA FEW008 SCT020 BKN040 12/11
Q1027
RMK VIS RED TO SE
FM1020 22010KT 9999 -SHRA SCT025 BKN040
INTER 1020/1300 5000 SHRA BKN010=
METAR YSTW 081000Z AUTO 15010KT 9999NDV // NCD 10/06 Q1024=
METAR YPTN 081000Z 08006KT CAVOK 24/15 Q1014=
METAR YBTL 081000Z 11005KT 9999 FEW030 SCT040 BKN170 22/19 Q1017=
####018001735####
SAIY40 LIIB 081000
METAR LIMG 080950Z 05005KT 9999 SCT080 30/25 Q1020 RMK VIS MIN 9999=
METAR LIMK 080955Z 35004KT 9999 BKN025 19/13 Q1023 RMK BKN VAL NIL
      VIS MIN 9999=
METAR LIMN 080955Z /////KT CAVOK 27/14 Q1022 RMK FEW FEW080 VIS MIN
      9999 BLU=
METAR LIMP 080950Z 06005KT 020V130 CAVOK 27/15 Q1022 RMK VIS MIN
9999=
METAR LIMS 080955Z 11009KT 080V190 CAVOK 27/16 Q1021 RMK SKC VIS MIN
      9999 WIND THR30 09008KT BLU=
METAR LIMZ 080950Z 35005KT 8000 SCT015 BKN045 23/18 Q1024 RMK VIS
MIN 8000=
METAR LIPA 080955Z 23009KT 9999 SCT045 24/17 Q1022 RMK SCT VIS MIN
      9999 A3019 BLU=
METAR LIPB 080950Z 16007KT 9999 FEW060 27/12 Q1021 RMK MON LIB VIS
MIN 9999=
METAR LIPC 080955Z 12009KT CAVOK 28/14 Q1022 RMK FEW FEW200 VIS MIN
      9999 WIND THR12 09009KT BLU=
METAR LIPF 080955Z 15002KT 9999 FEW050 26/19 Q1021 RMK FEW VIS MIN
      9999=
METAR LIPH 080945Z 10001KT 9999 FEW020 SCT080 26/19 Q1023 RMK BKN VIS
      MIN 9999 WIND THR07 /////KT BLU=
METAR LIPI 080955Z 13005KT 9999 FEW050 SCT080 25/18 Q1022 RMK SCT
     VIS MIN 9999 WIND THR06 20004KT BLU=
METAR LIPL 080955Z 11005KT 040V160 9999 FEW035 SCT060 26/18 Q1022 RMK
      BKN VIS MIN 9999 BLU=
METAR LIPO 080950Z 15005KT 100V190 9999 FEW045 BKN065 27/13 Q1021
RMK VIS MIN 9999=
METAR LIPQ 080950Z VRB02KT 9999 SCT050 25/13 Q1022=
METAR LIPR 080945Z 08009KT CAVOK 28/17 Q1021 RMK SKC VIS MIN 9999
      WIND THR31 08009KT BLU=
METAR LIPS 081000Z NIL=
METAR LIPX 080945Z 12004KT 9999 FEW040 28/12 Q1021 RMK FEW VIS MIN
      9999 BLU=
METAR LIPY 080950Z 15004KT 080V220 CAVOK 27/11 Q1021 RMK VIS MIN
9999=
METAR LIVC 080955Z 36006KT 9999 SCT000 13/10 Q1030 RMK SCT MON CLD
      CIME CUF VAL CLD SCT ELEV VIS MIN 9999=
####018001351####
SAAU32 YBBN 081000
METAR YAMB 081000Z 19007KT CAVOK 16/10 Q1021
RMK 8SC075=
METAR YMAV 081000Z AUTO 13003KT 9999NDV // OVC046 10/07 Q1028=
METAR YBRM 081000Z 05008KT 9999 -SHRA SCT034 BKN064 25/22 Q1011=
METAR YCIN 081000Z AUTO 13004KT //// // ////// 23/19 Q1012=
METAR YSDU 081000Z AUTO 11009KT 9999NDV // NCD 10/05 Q1025=
METAR YFRT 081000Z AUTO 05012KT //// // ////// 15/02 Q1014=
METAR YGEL 081000Z AUTO 34013KT 9999NDV // SCT057 SCT067 OVC079 17/15
Q1003=
METAR YPGV 081000Z 15010KT 9999 FEW021 BKN350 24/21 Q1013=
METAR YBHM 081000Z AUTO 15016KT //// // ////// 19/16 Q1018=
METAR YMHB 081000Z 31006KT CAVOK 04/02 Q1030=
METAR YPKG 081000Z AUTO 35010KT 9999NDV // BKN064 OVC085 19/03 Q1005=
METAR YMLT 081000Z AUTO 00000KT 9999NDV // NCD 04/02 Q1030=
METAR YBMA 081000Z AUTO 14005KT 9999NDV // ////// 11/10 Q1019=
METAR YSNF 081000Z 10011KT 9999 FEW020 SCT028 BKN060 15/10 Q1017=
METAR YPEA 081000Z AUTO 01009KT 9999NDV // NCD 14/12 Q0998=
METAR YPPD 081000Z AUTO 05014KT 9999NDV // ////// 23/20 Q1009=
METAR YSRI 081000Z AUTO 23004KT 9999NDV // BKN042 OVC051 11/10 Q1028=
METAR YBRK 081000Z 22001KT 9999 SCT012 OVC030 14/13 Q1020=
METAR YWLM 081000Z 36003KT 9999 SCT020 BKN045 11/11 Q1026
RMK USE TAF FOR ARRIVALS. NEXT MANUAL OBS 2000Z=
METAR YPWR 081000Z AUTO 07008KT 9999NDV // NCD 10/00 Q1023=
####018000087####
SAGH20 DGAA 081000
METAR DGAA 081000Z 24006KT 9999 BKN015 SCT250 29/23 Q1015 NOSIG=
####018000848####
SARA34 RUMS 081000
METAR UNAA 081000Z 02003MPS 340V050 9999 SCT026CB BKN100 19/12 Q1011
RMK QFE735 202///55=
METAR UNBB 081000Z 21008MPS 9999 BKN031CB 19/06 Q1009 NOSIG RMK
QFE735=
METAR UNEE 081000Z 22006MPS 9999 SCT026 BKN200 19/11 Q1008 NOSIG RMK
QFE733 23CLRD60=
METAR UNKL 081000Z 24002MPS 9999 SCT023CB BKN083 17/13 Q1009 NOSIG
RMK QFE731 29////55=
METAR UNNT 081000Z 23004MPS 210V270 9999 BKN060CB BKN100 21/01 Q1007
NOSIG RMK QFE745/0993 25090070=
METAR UNOO 081000Z 31005MPS 9999 -SHRA BKN023CB 14/09 Q1008 NOSIG
25CLRD06 RMK QFE747=
METAR UNWW 081000Z 22005G10MPS 9999 -SHRA BKN026CB OVC100 18/09 Q1010
NOSIG RMK QFE731 19CLRD70=
METAR USTR 081000Z 33008G11MPS 9999 SCT046 20/03 Q1011 NOSIG RMK
QFE749/0999 30CLRD65=
METAR USHH 081000Z 33002G07MPS 270V360 9000 -SHRA BKN020CB OVC080
11/08 Q1009 NOSIG RMK QFE753 SC06=
####018001155####
SAAU31 AMMC 081000
METAR YBAS 081000Z AUTO 09008KT 9999NDV // NCD 11/06 Q1020=
METAR YBBN 081000Z 19008KT CAVOK 17/11 Q1021
     NOSIG=
METAR YBCS 081000Z 16008KT 9999 FEW024 SCT050 23/20 Q1016
     FM1010 16008KT 6000 FU FEW025 SCT050=
METAR YBTL 081000Z 11005KT 9999 FEW030 SCT040 BKN170 22/19 Q1017=
METAR YMML 081000Z 17005KT 9999 BKN043 08/05 Q1028
     NOSIG=
METAR YPAD 081000Z 09006KT CAVOK 08/06 Q1026
     NOSIG=
METAR YPCC NIL=
METAR YPDN 081000Z 04007KT CAVOK 26/20 Q1012
     NOSIG=
METAR YPKU 081000Z AUTO 12004KT 9999NDV // NCD 25/15 Q1014=
METAR YPLM 081000Z AUTO 13002KT 9999NDV // SCT019 OVC031 21/17 Q1008=
METAR YPPH 081000Z 01011KT 9999 FEW023 SCT038 BKN140 15/13 Q0999
     FM1000 33018G28KT 9999 -SHRA BKN020
     INTER 1000/1130 27025G35KT 3000 +SHRA BKN010
     INTER 1130/1300 27030G50KT 2000 TSGS BKN010 FEW030CB=
METAR YPTN 081000Z 08006KT CAVOK 24/15 Q1014=
METAR YPXM 081000Z AUTO 20004KT 9999NDV // NCD 24/21 Q1012=
METAR YSSY 081000Z 22012KT 7000 -SHRA FEW008 SCT020 BKN040 12/11 Q1027
     FM1020 22010KT 9999 -SHRA SCT025 BKN040
     INTER 1020/1300 5000 SHRA BKN010=

####018000076####
SPCN31 KWBC 081015
SPECI
CZBF 081012Z 00000KT 1/4SM FG VV002 RMK FG8=
####018000435####
SAAO33 DRRN 081000
METAR DBBB 081000Z 21008KT 8000 SCT012 BKN120 28/25 Q1014 NOSIG=
METAR DFFD 081000Z 23005KT CAVOK 27/22 Q1015 NOSIG=
METAR DGAA 081000Z 24006KT 9999 BKN015 SCT250 29/23 Q1015 NOSIG=
METAR DNKN 081000Z NIL=
METAR DNMM 081000Z 25009KT 9999 BKN012 28/25 Q1015 NOSIG=
METAR DRRN 081000Z VRB02KT CAVOK 28/21 Q1014 NOSIG=
METAR DXXX 081000Z 21007KT 160V280 9999 FEW015 29/24 Q1015 NOSIG=
METAR FTTJ 081000Z NIL=
####018000067####
SAAG SADF 081000
METAR SADF 081000Z  00000KT CAVOK 04/01 Q1019=
####018000091####
SACY42 EGRR 080950 CCA
METAR COR LCRA 080950Z 21011KT 9999 FEW040TCU 28/20 Q1008 NOSIG=
####018000378####
SAEE31 LOWM 081000
METAR UACK 081000Z 31007G11MPS 9999 BKN053CB SCT067 18/03 Q1011
02010070 NOSIG RMK QFE735=
METAR UACP 081000Z NIL=
METAR UAII 081000Z NIL=
METAR UADD 081000Z 34004MPS 300V360 9999 NSC 34/04 Q1013
NOSIG RMK QFE703/0937=
METAR UASK 081000Z 34002MPS 9999 SCT035 BKN100 22/11 Q1012
                   300/0060 NOSIG RMK QFE734=
METAR UASP 081000Z NIL=
####018001152####
SAAU31 AMMC 081000
METAR YBAS 081000Z AUTO 09008KT 9999NDV // NCD 11/06 Q1020=
METAR YBBN 081000Z 19008KT CAVOK 17/11 Q1021
     NOSIG=
METAR YBCS 081000Z 16008KT 9999 FEW024 SCT050 23/20 Q1016
     FM1010 16008KT 6000 FU FEW025 SCT050=
METAR YBTL 081000Z 11005KT 9999 FEW030 SCT040 BKN170 22/19 Q1017=
METAR YMML 081000Z 17005KT 9999 BKN043 08/05 Q1028
     NOSIG=
METAR YPAD 081000Z 09006KT CAVOK 08/06 Q1026
     NOSIG=
METAR YPCC NIL=
METAR YPDN 081000Z 04007KT CAVOK 26/20 Q1012
     NOSIG=
METAR YPKU 081000Z AUTO 12004KT 9999NDV // NCD 25/15 Q1014=
METAR YPLM 081000Z AUTO 13002KT 9999NDV // SCT019 OVC031 21/17 Q1008=
METAR YPPH 081000Z 01011KT 9999 FEW023 SCT038 BKN140 15/13 Q0999
     FM1000 33018G28KT 9999 -SHRA BKN020
     INTER 1000/1130 27025G35KT 3000 +SHRA BKN010
     INTER 1130/1300 27030G50KT 2000 TSGS BKN010 FEW030CB=
METAR YPTN 081000Z 08006KT CAVOK 24/15 Q1014=
METAR YPXM 081000Z AUTO 20004KT 9999NDV // NCD 24/21 Q1012=
METAR YSSY 081000Z 22012KT 7000 -SHRA FEW008 SCT020 BKN040 12/11 Q1027
     FM1020 22010KT 9999 -SHRA SCT025 BKN040
     INTER 1020/1300 5000 SHRA BKN010=
####018000093####
SARS32 RUMS 081000 RRA
METAR COR URWI 081000Z VRB01MPS CAVOK 30/16 Q1014 NOSIG RMK SC065=
####018000501####
SAID31 WIII 081000
METAR WIMM 081000Z 36006KT 6000 FEW017 32/24 Q1008 NOSIG= 
METAR WIDD 081000Z 24005KT 9999 FEW017 29/25 Q1008= 
METAR WAAA 081000Z 10003KT 9999 FEW020 27/26 Q1008= 
METAR WIHH 081000Z WIHH 30009KT 5000 TS FEW018CB BKN018 28/23 Q1011 C
B PS RA TO SOUTH= 
METAR WARR 081000Z 11004KT 9999 FEW020 29/23 Q1008 NSG= 
METAR WIII 081000Z 19006KT 4000 RA FEW018CB SCT020 25/22Q1010 RMK CB 
TO SE NOSIG= 
METAR WADD 081000Z 00000KT 9999 SCT018 28/25 Q1008 NOSIG= 
METAR WABB NIL=
####018001670####
SASD20 OEJD 081000
METAR OEAB 081000Z 09012KT 8000 FEW020 SCT200 33/M01 Q1020 NOSIG=
METAR OEAH 081000Z 36010KT CAVOK 45/07 Q1001 NOSIG=
METAR OEBA 081000Z 15003KT 9000 SKC 35/04 Q1016 NOSIG=
METAR OEBH 081000Z 01010KT CAVOK 40/03 Q1011 NOSIG=
METAR OEDF 081000Z 01016KT CAVOK 45/04 Q0999 NOSIG=
METAR OEDM 081000Z 04010KT CAVOK 42/05 Q1010=
METAR OEDR 081000Z 04012KT 8000 SKC 44/09 Q0998 NOSIG=
METAR OEGN 081000Z 23008KT CAVOK 36/29 Q1001 NOSIG=
METAR OEGS 081000Z 05011KT CAVOK 45/08 Q1008=
METAR OEGT 081000Z NIL=
METAR OEHL 081000Z 27002KT CAVOK 43/03 Q1012 NOSIG=
METAR OEJN 081000Z 34012KT CAVOK 38/25 Q1001 NOSIG=
METAR OEKB 081000Z 16008KT 9999 FEW045 45/22=
METAR OEKJ 081000Z NIL=
METAR OEKK 081000Z 03013KT CAVOK 45/15 Q1006=
METAR OEKM 081000Z 09014KT 7000 NSC 32/04 Q1020 NOSIG=
METAR OEMA 081000Z 10008KT CAVOK 46/00 Q1006 NOSIG=
METAR OEMH 081000Z NIL=
METAR OEMK 081000Z 32002KT CAVOK 44/24 Q1001=
METAR OENG 081000Z 05012KT 5000 DU SCT030 39/00 Q1012 NOSIG=
METAR OEPA 081000Z 35016KT CAVOK 45/05 Q1004=
METAR OERF 081000Z 01003KT CAVOK 43/12 Q1006=
METAR OERK 081000Z 02016KT 8000 SKC 42/M01 Q1007 NOSIG=
METAR OERR 081000Z 17007KT CAVOK 45/11 Q1007=
METAR OERY 081000Z 03015G25KT 5000 SA SKC 43/01 Q1008 NOSIG=
METAR OESH 081000Z 04018KT 3000 BLDU SKC 42/14 Q1002 NOSIG=
METAR OESK 081000Z 24008KT CAVOK 43/00 Q1009=
METAR OETB 081000Z 00000KT CAVOK 38/06 Q1010 NOSIG=
METAR OETF 081000Z 08009KT CAVOK 38/01 Q1015 NOSIG=
METAR OETR 081000Z 32006KT CAVOK 38/04 Q1010=
METAR OEWD 081000Z 03010KT 6000 SKC 43/11 Q1004=
METAR OEWJ 081000Z 30024KT CAVOK 34/27 Q1004=
METAR OEYN 081000Z 26017KT CAVOK 42/19 Q1000 NOSIG=
####018000344####
SAUS43 KWBC 081000 RRC
METAR
KC75 081006Z AUTO 15004KT 5SM BR BKN014 BKN040 BKN048 24/24
     A3001=
KIGQ 081000Z AUTO 00000KT 5SM BR SCT060 SCT090 BKN110 23/22
     A3002=
KTAZ 081005Z AUTO 00000KT 3SM BR CLR 23/23 A3002=
KTIP 081005Z AUTO 00000KT 5SM BR CLR 24/23 A3004=
KVYS 081005Z AUTO 00000KT 4SM BR OVC014 23/22 A3002=
####018000082####
SAUS44 KWBC 081000 RRC
METAR
KOLV 081015Z AUTO 00000KT 8SM CLR 23/23 A3008=
####018000088####
SPUS52 KWBC 081015
SPECI
KGDP 081013Z AUTO 04013KT 8SM BKN004 OVC010 16/16 A3023=
####018000085####
SPUS53 KWBC 081015
SPECI
KIRK 081012Z AUTO 00000KT 1 3/4SM BR CLR 19/19 A3007=
####018000075####
SACN96 CWAO 080940
WZQ SA 0940 AUTO8 M M M M/22/16/1808/M/M M 19MM=

####018000075####
SACN96 CWAO 080920
WZQ SA 0920 AUTO8 M M M M/22/16/1708/M/M M 88MM=

####018000084####
SABA31 MYGF 081009
METAR MYGF 081000Z 07003KT 9999 FEW020 SCT030 24/23 A2996
####018000068####
SAUS53 KWBC 081000 RRD
METAR
KEHA 081008Z AUTO 03004KT 17/17=
####018000086####
SAUS54 KWBC 081000 RRB
METAR
KIZA 081009Z AUTO 00000KT 10SM OVC009 13/11 A2991=
####018000085####
SPUS73 KWBC 081015
SPECI
KIRK 081012Z AUTO 00000KT 1 3/4SM BR CLR 19/19 A3007=
####018000365####
SAEU KAWN 081000 RRW
METAR COR EGXT 080950Z 23008KT 9999 FEW020 SCT090 BKN120 18/09 Q1018
      BLU=
METAR LECV 081000Z 14004KT 9999 FEW070 27/12 Q1023=
METAR LESA 081000Z 33003KT 260V020 CAVOK 31/14 Q1019=
METAR LFOI 081007Z 26005KT 170V320 CAVOK 25/12 Q1019=
METAR LIRX 080955Z 19004KT CAVOK 25/08 Q1019 RMK SKC VIS MIN 9999E
      VIS MAR 25 KM=
####018000079####
SAEW KAWN 081000 RRH
METAR LFOI 081007Z 26005KT 170V320 CAVOK 25/12 Q1019=
####018000128####
SANA14 KAWN 081000 RRE
METAR KNEL 081006Z AUTO 00000KT 2SM BR FEW016 OVC100 24/22 A3003 RMK
      AO2 SLP166 T02390217 $=
####018000709####
SASA KAWN 081000 RRE
METAR SABE 081000Z 27007KT CAVOK 09/M01 Q1019=
METAR SAEZ 081000Z 29002KT CAVOK 04/M00 Q1019=
METAR SARE 081000Z 16009KT 9999 FEW006 SCT100 10/08 Q1018=
METAR SARP 081000Z 14005KT 9999 BKN005 OVC015 15/13 Q1018=
METAR SAVC 081000Z 23004KT CAVOK 04/M00 Q0999=
METAR SAWG 081000Z 29008KT CAVOK M05/M06 Q1001=
METAR SAWH 081000Z 36004KT 9999 BKN035 BKN100 01/M01 Q0984=
METAR SKBO 081000Z VRB02KT 7000 HZ BKN012 12/11 A3029=
METAR SKLT 081000Z 00000KT 9999 FEW015 SCT080 24/24 A2987=
METAR SLTR 081000Z 03005KT 8000 TS VCSH SCT013 FEW020CB OVC070 22/21
      Q1013=
METAR COR SPRU 081000Z 15006KT 6000 FEW008 OVC015 16/14 Q1012 RMK BIRD
      HAZARD RWY20 PP000=
####018000441####
SAXN17 KAWN 081000 RRE
METAR NCRG 081000Z 05005KT 9999 SCT014 BKN290 25/24 Q1017=
METAR NFTF 081000Z 00000KT 9999 FEW015 20/19 Q1016=
METAR SKBO 081000Z VRB02KT 7000 HZ BKN012 12/11 A3029=
METAR SKLT 081000Z 00000KT 9999 FEW015 SCT080 24/24 A2987=
METAR TGPY 081000Z 08011KT 9999 FEW021 BKN280 28/25 Q1012/HZ=
METAR TNCM 081000Z 08010KT 9999 SCT017 28/23 Q1015=
METAR YBBN 081000Z 19008KT CAVOK 17/11 Q1021 RMK 7SC080 NOSIG=
####018001463####
SPZZ40 KAWN 081015 RRC
SPECI CYQA 081010Z AUTO 16003KT 2 1/2SM BR CLR 19/19 A3003 RMK SLP170
      DENSITY ALT 1400FT=
SPECI CYQA 081011Z AUTO 17002KT 3SM BR CLR 19/19 A3003 RMK SLP170 DENSITY
      ALT 1400FT=
SPECI CYTZ 081011Z AUTO 19002KT 2 1/4SM BR FEW003 19/18 A3002 RMK SLP165
      DENSITY ALT 600FT RVR MISG=
SPECI CYUA 081010Z AUTO 27007KT 9SM OVC005 05/ A3007=
SPECI CYUA 081011Z AUTO 27006KT 9SM OVC004 05/ A3007=
SPECI CZBF 081012Z 00000KT 1/4SM FG VV002 RMK FG8=
SPECI EGUN 081009Z AUTO 21009KT 9999 SCT029 BKN150 BKN170 20/16 A3007
      RMK AO2 CIG 130 RWY11 SLP172=
SPECI GMFM 080940Z 3200KT 5000 SKC 26/19 Q1018=
SPECI KAFF 081010Z AUTO 16005KT 10SM SCT012 SCT027 12/11 A3039 RMK
      AO2 SLP207=
SPECI KDOV 081010Z AUTO 10003KT 2 1/2SM BR CLR 24/ A3000 RMK AO2 SLP161
      $=
SPECI KEGI 081011Z AUTO 00000KT 3/4SM R18/1200V2000FT BR CLR 21/21
      A3002 RMK AO2 SLP166 $=
SPECI KFRI 081010Z AUTO 02003KT 10SM BKN013 OVC024 22/21 A3010 RMK
      AO2 CIG 012V019 SLP183=
SPECI KOZR 081009Z 00000KT 3SM R06/0900V2200FT BR FEW002 22/22 A3002
      RMK AO2A SLP164=
SPECI KRIV 081014Z AUTO 31006KT 4SM BR BKN003 12/11 A2990 RMK AO2 BKN
      V SCT SLP123=
SPECI KSKF 081011Z 05009KT 10SM OVC013 25/ A2992 RMK AO2A CIG 011V017
      OVC V BKN SLP121 $=
PACZ SP 1015 AWOS MM 10 50/49/0508/007=
PAEH SP 1015 AWOS 16 SCT 10 48/-20/0000/000=
PAIM SP 1015 AWOS CLR BLO 120 10 51/45/3105/009=
####018000680####
SAZZ40 KAWN 081000 RRP
METAR DBBB 081000Z 21008KT 8000 SCT012 BKN120 28/25 Q1014 NOSIG=
METAR DFFD 081000Z 23005KT CAVOK 27/22 Q1015 NOSIG=
METAR NGFU 081000Z 07009KT 50KM FEW020 28/25 Q1010=
METAR NSFA 081000Z 08005KT 45KM FEW020 25/25 Q1012 RMK DEW=
METAR OEGS 081000Z 05011KT CAVOK 45/08 Q1008=
METAR OEHL 081000Z 27002KT CAVOK 43/03 Q1012 NOSIG=
METAR OEPA 081000Z 35016KT CAVOK 45/05 Q1004=
METAR OESK 081000Z 24008KT CAVOK 43/00 Q1009=
METAR OETB 081000Z 00000KT CAVOK 38/06 Q1010 NOSIG=
METAR OETR 081000Z 32006KT CAVOK 38/04 Q1010=
METAR OEYN 081000Z 26017KT CAVOK 42/19 Q1000 NOSIG=
METAR TGPY 081000Z 08011KT 9999 FEW021 BKN280 28/25 Q1012/HZ=
####018000088####
SPUS81 KWBC 081015
SPECI
KGDP 081013Z AUTO 04013KT 8SM BKN004 OVC010 16/16 A3023=
####018000085####
SPUS81 KWBC 081015
SPECI
KIRK 081012Z AUTO 00000KT 1 3/4SM BR CLR 19/19 A3007=
