####018002105####
SAUS90 KWBC 081300
METAR KALK 081256Z AUTO 07010KT 10SM CLR 22/11 A3010 RMK AO2
     SLP091 T02170106=
METAR KNGP 081256Z VRB04KT 10SM FEW010 SCT021CB BKN033 28/25 A2983
     RMK AO2 RAE31 SLP101 CB DSNT SE TCU DSNT S-SW WR// VCSH W-NW
     P0002 T02770252=
METAR K9L2 081256Z AUTO 03003KT 10SM CLR 14/02 A2990 RMK AO2
     SLP106 T01390017 $=
METAR KD07 081256Z AUTO 28008KT 17/09 A3022 RMK AO2 SLP224
     T01670094 PWINO TSNO=
METAR KNUQ 081256Z AUTO 03003KT 10SM OVC011 15/12 A2993 RMK AO2
     SLP138 T01500122 TSNO=
METAR KMHS 081256Z AUTO 05003KT 10SM CLR 12/07 A3002 RMK AO2
     SLP150 T01220067 TSNO=
METAR KSPD 081256Z AUTO 03007KT 16/15 A3030 RMK AO2 SLP207 P0002
     T01610150 PWINO TSNO=
METAR K8D3 081256Z AUTO 28007KT 21/14 A3010 RMK AO2 SLP175
     T02110144 PWINO TSNO=
METAR KCDJ 081256Z AUTO VRB03KT 23/22 A3009 RMK AO2 SLP179
     T02280217 PWINO TSNO=
METAR KNTU 081256Z 07007KT 10SM SCT015 BKN050 BKN100 26/22 A2999
     RMK AO2 SLP156 T02610222 $=
METAR KINS 081256Z 00000KT 8SM CLR 18/M10 A2996 RMK AO2 SLP091
     T01831100 $=
METAR KP53 081256Z AUTO 00000KT 19/18 A3000 RMK AO2 SLP158
     T01890178 PWINO TSNO=
METAR KCAE 081256Z 32004KT 10SM CLR 29/21 A3000 RMK AO2 SLP155
     T02940206=
METAR KFSD 081256Z 00000KT 10SM R03/5500VP6000FT CLR 19/16 A3017
     RMK AO2 SLP212 SCT ABV 120 T01890156=
METAR KAKQ 081254Z AUTO 00000KT 3SM HZ FEW070 27/23 A3000 RMK AO2
     SLP159 T02720233 TSNO=
METAR KROA 081254Z 01004KT 6SM HZ FEW085 29/18 A3010 RMK AO2
     SLP176 T02940178=
METAR KWMC 081256Z AUTO 20003KT 10SM CLR 12/M04 A3008 RMK AO2
     SLP142 T01171044=
METAR KNRS 081256Z AUTO 29005KT 10SM OVC016 17/13 A2991 RMK AO2
     SLP128 T01670133 TSNO $=
METAR KFWA 081254Z COR 20003KT 8SM FEW060 SCT250 27/21 A3006 RMK
     AO2 SLP172 T02720211=
METAR PALU 081255Z AUTO 21026G31KT 10SM CLR 12/03 A3005 RMK AO1
     T01170034=
METAR PATL 081255Z AUTO 05004KT 10SM CLR 12/06 A2999 RMK AO1
     T01170062=
METAR PASV 081255Z AUTO 00000KT 10SM SCT110 09/07 A2994 RMK AO1
     T00940073=
####018000055####
SAUS90 KWBC 081200 RRJ
METAR K8S0 081155Z 26006KT=
####018000100####
SAUS90 KWBC 081400
METAR K3A6 081350Z AUTO 36001KT 11/10 A2989 RMK AO1 SLP143
     T01120102=
####018000666####
SAUS90 KWBC 081300 CCA
METAR KDAB 081253Z 33003KT 10SM FEW024 SCT250 27/21 A3002 RMK AO2
     SLP164 T02670206 $=
METAR KTUP 081253Z 05005KT 10SM CLR 27/22 A3008 RMK AO2 SLP181
     T02670222=
METAR KMGM 081253Z 33003KT 10SM CLR 28/22 A3004 RMK AO2 SLP167
     T02830222=
METAR KBTR 081253Z 06006KT 6SM BR BKN003 OVC007 25/24 A3004 RMK
     AO2 SLP170 T02500239=
METAR KWAL 081254Z 09008KT 10SM BKN011 BKN120 OVC250 26/22 A3002
     RMK AO2 SLP163 T02560217=
METAR KMTP 081254Z AUTO VRB03KT 23/20 A3010 RMK AO2 SLP192
     T02280200 PWINO TSNO=
METAR KSMP 081256Z AUTO VRB03KT 10SM CLR 15/04 A3016 RMK AO2
     SLP181 T01500039 TSNO $=
####018000087####
SPCN45 CWAO 081254
SPECI CYRT 081254Z 07010KT 1 1/2SM -DZ BR OVC003 RMK FG2ST6=

####018000075####
SAYE20 OYAG 081300
METAR OYAG 081300Z 08016KT 9999 SCT025 28/24 Q1001=
####018000326####
SABN31 OBBI 081200
METAR OBBI 081200Z 03009KT 5000 HZ SKC 35/27 Q0999 BECMG 3000=
METAR OEDF 081200Z 36016KT CAVOK 45/04 Q0999 NOSIG=
METAR OEDR 081200Z 02011KT 8000 SKC 43/09 Q0997 NOSIG=
METAR OTBD 081200Z 04008KT 360V090 6000 NSC 37/29Q0999 NOSIG=
METAR OKBK WPIQWPPZ 35020KT 6000 -BLDU SKC 48/M07 Q0999 NOSIG=
####018000091####
SAAJ31 UBBB 081300
METAR UBBB 081300Z 35018KT CAVOK 32/26 Q1010 NOSIG RMK
R88CLRD70=
####018000255####
SAUS98 KWBC 081300
METAR PALU 081255Z AUTO 21026G31KT 10SM CLR 12/03 A3005 RMK AO1
T01170034=
METAR PATL 081255Z AUTO 05004KT 10SM CLR 12/06 A2999 RMK AO1
T01170062=
METAR PASV 081255Z AUTO 00000KT 10SM SCT110 09/07 A2994 RMK AO1
T00940073=
####018003462####
SAUS99 KWBC 081300
METAR
KBBF 081355Z AUTO 14021G35KT 1/4SM FG BKN003 BKN022 OVC100 26/24
     A2984 RMK A01=
KBQX 081255Z AUTO 12015G22KT 9SM SCT023 SCT028 29/26 A2987 RMK
     A01=
KDLP 081255Z AUTO 10011KT 9SM FEW017 28/25 A3002 RMK A01=
KEDU 081255Z AUTO 00000KT 10SM CLR 13/10 A2983 RMK AO1=
KEHC 081255Z AUTO 12021KT 6SM HZ SCT018 BKN023 BKN030 29/25 A2995
     RMK A01=
KEMK 081255Z AUTO 14021KT 8SM FEW028 FEW080 SCT095 29/25 A2990 RMK
     A01=
KGBK 081255Z AUTO 09009G18KT 10SM BKN018 BKN024 BKN032 29/26 A2994
     RMK A01=
KGTB 081255Z AUTO VRB04KT 10SM CLR 29/22 A3004 RMK AO2 SLP171
     T02920220=
KGVX 081255Z AUTO 13024KT 9SM FEW060 FEW075 M40/ A2991 RMK A01=
KHQI 081255Z AUTO 11021KT 6SM HZ CLR 29/26 A2992 RMK A01=
KIPN 081250Z AUTO 08015KT 10SM FEW023 /54 A3001 RMK A01=
KLFI 081255Z 10006KT 10SM FEW013 BKN100 26/22 A3001 RMK AO2A
     SLP163 T02580217 $=
KMDJ 081255Z AUTO 10014KT 10SM FEW022 29/24 A3002 RMK A01=
KMHR 081255Z AUTO 17005KT 9SM CLR 12/10 A2985 RMK AO1=
KMIU 081255Z AUTO 12020KT 3SM HZ SCT018 BKN033 BKN042 28/26 A2982
     RMK A01=
KMMT 081255Z 33006KT 8SM FEW100 28/20 A3000 RMK AO2A SLP159
     T02800203=
KMXF 081255Z AUTO 00000KT 10SM CLR 28/24 A3003 RMK AO2 SLP167
     T02820237=
KMYT 081255Z AUTO 11017KT 10SM FEW022 28/24 A2998 RMK A01=
KMZG 081255Z AUTO 00000KT 9SM SCT020 SCT025 BKN045 29/25 A2983 RMK
     A01=
KNCA 081256Z 04006KT 4SM HZ FEW090 28/24 A2995 RMK AO2 SLP143
     T02780239=
KNQX 081253Z 05005KT 10SM SCT022CB SCT100 BKN200 29/25 A2996 RMK
     AO2 SLP144 CB DSNT S TCU DSNT SE W T2 SET T02940250 $=
KOEO 081255Z AUTO 00000KT 10SM CLR 19/17 A3012 RMK AO2=
KPBH 081255Z AUTO 35003KT 10SM SCT048 20/17 A3008 RMK AO2=
KPCZ 081255Z AUTO 31006KT 10SM OVC008 22/20 A3002 RMK AO2
     T02240200=
KPDC 081253Z AUTO 31006KT 7SM OVC010 23/21 A3006 RMK AO2
     T02250206=
KPSM 081255Z 17005KT 10SM FEW040 BKN200 25/21 A3009 RMK AO2A
     SLP190 T02510207=
KRCX 081255Z AUTO 32007KT 10SM OVC050 20/17 A3009 RMK AO2
     T01960171=
KRNH 081256Z AUTO 31004KT 10SM CLR 19/17 A3011 RMK AO2
     T01920169=
KRRL 081255Z AUTO 34003KT 10SM BKN008 20/19 A3006 RMK AO2
     T01980194=
KRYV 081255Z AUTO 26003KT 5SM BR OVC005 23/21 A3004 RMK AO2=
KSCF 081300Z AUTO 13018KT 7SM 29/25 A2993 RMK A01=
KSTE 081255Z AUTO 00000KT 10SM OVC007 21/19 A3004 RMK AO2=
KSUW 081255Z AUTO 22005KT 10SM CLR 19/16 A3004 RMK AO2=
KTKV 081255Z AUTO 32005KT 10SM CLR 18/17 A3005 RMK AO2
     T01800173=
KUNU 081252Z AUTO 26003KT 5SM BR OVC003 22/20 A3004 RMK AO2
     T02160202=
KVAD 081255Z AUTO 32006KT 10SM CLR 26/20 A3004 RMK AO2 SLP170
     T02600204 $=
KVBS 081255Z AUTO 12022KT SCT019 SCT025 29/25 A2995 RMK A01=
KVNP 081255Z AUTO 11011G17KT 8SM SCT019 SCT028 28/25 A2999 RMK
     A01=
KWRB 081255Z 34006KT 10SM CLR 27/22 A3003 RMK AO2A SLP166
     T02680218 $=
PACM 081256Z AUTO 00000KT 10SM CLR 11/09 A3006 RMK AO2 TSNO
     T01050088 SLP175 $=
PACM 081256Z AUTO 00000KT 10SM CLR 11/09 A3006 RMK AO2 TSNO
     T01050088 SLP175 $=
PAFS 081256Z AUTO 00000KT 10SM CLR 11/06 A2999 RMK AO2 TSNO
     T01110061 SLP161 $=
PAMB 081256Z AUTO 36005KT 10SM OVC042 11/09 A2992 RMK AO2 PWINO
     TSNO T01050088 SLP134 $=
PAVA 081257Z AUTO 01009KT 10SM CLR 10/09 A3006 RMK AO2 SLP183
     T01000089=
PPIZ 081256Z AUTO 21010KT 3SM HZ CLR 06/02 A3008 RMK AO2 TSNO
     T00610016 SLP189 $=
####018000073####
SAZB40 FLLS 081300
METAR FLLS 081300Z 07014KT 9/9 BKN040 19/08 Q1027=
####018000117####
SAMH31 PKMR 081300
METAR PKMR 081256Z 06012KT 15SM SCT015 BKN045 BKN120 OVC140 27/24
A2981 RMK SLP095 T02720238
####018000109####
SAMX52 MMGL 081300
METAR MMIA 081259Z RTD 00000KT 5SM HZ BKN030 21/18 A2992 RMK 8/700=





TX OPMET V1
####018000080####
SASM20 SMJP 081300
METAR SMJP 081300Z 11007KT 9999 SCT018 29/25 Q1013 NOSIG=
####018000095####
SAMX44 MMMD 081258
METAR MMMT 081259Z RTD 24010KT 10SM BKN020 OVC100 24/22 A2979 RMK 8/57/=
####018001149####
SAMX41 MMMX 081257
METAR MMMX 081248Z 18003KT 2 1/2SM -RA HZ SCT008 BKN010 OVC020 15/14 
      A3020 NOSIG RMK 8/7// VSBY TWR=
METAR MMAA 081245Z 04003KT 8SM SCT015CB BKN090 OVC300 26/23 A2979
      RMK 8/367=
METAR MMBT 081240Z 00000KT 6SM SCT030 OVC130 23/22 A2989 
      RMK 8/76/ VRB COND=
METAR MMCB 081240Z 00000KT 1/4SM FG  BKN004 OVC100 18/16 A3001 
      RMK 8/77/ OCNL DROPS=
METAR MMOX 081248Z NIL=
METAR MMPA 081250Z NIL=
METAR MMPB 081252Z 16006KT 2SM -RA BR  SCT004 BKN010 OVC100 14/14 
      A3021 RMK 6//// 8/72/ VRBL CONDS=
METAR MMPS 081250Z 06006KT 15SM SCT015 BKN070 OVC240 25/19 A2998
      RMK  8/263=
METAR MMQT 081245Z 09005KT 5SM BKN015 BKN120 OVC180 17/15 A3018 RMK 8/532=
METAR MMTM 081249Z 21006KT 6SM  SCT010 BKN035 OVC200 26/24 A2981 
      RMK 8/807 BINOVC=
METAR MMTO 081245Z 00000KT 1SM -RA BR BKN005 OVC007 13/11 A3026
      RMK 8/7// -RA B38=
METAR MMVR 081248Z 00000KT 6SM  SCT012 BKN090 OVC250 25/25 A2980 
      RMK 8/467 HZ DSNT CB NW-N=
METAR MMZH 081245Z 00000KT 7SM SCT030 BKN100 BKN250 25/23 A2978 RMK 8/232=
METAR MMIT 081245Z NIL=
METAR MMTB 081245Z NIL=
####018000090####
SAMX42 MMGL 081300
METAR MMIA 081259Z RTD 00000KT 5SM HZ BKN030 21/18 A2992 RMK 8/700=
####018000467####
SAUK37 EGGY 081250
METAR EGAE 081250Z 23013KT 9999 FEW020 SCT040 19/09 Q1012=
METAR EGNC 081250Z 24016KT 210V270 9999 FEW020 SCT035 18/09 Q1015=
METAR EGNH 081250Z 24012KT 9999 FEW030 19/11 Q1017=
METAR EGNJ 081250Z 23011KT 190V270 9999 SCT040 22/10 Q1017=
METAR EGNR 081250Z 27008KT 230V320 9999 SCT040 21/10 Q1017=
METAR EGPE 081250Z 23019KT 9999 VCSH FEW015 SCT034 19/10 Q1009=
METAR EGPI 081250Z NIL=
METAR EGPN 081250Z 23019KT 9999 SCT045 18/10 Q1012=
####018000528####
SAUK36 EGGY 081250
METAR EGBE 081250Z NIL=
METAR EGBJ 081250Z 22006G16KT 020V270 9999 FEW035 22/09 Q1018=
METAR EGCN 081250Z 25011KT 220V280 9999 SCT048 23/09 Q1017=
METAR EGDL 081250Z 20007KT 9999 FEW035 BKN220 22/10 Q1018 NOSIG=
METAR EGSC 081250Z 21007KT 160V270 9999 SCT035 23/14 Q1018=
METAR COR EGSD 081250Z 23007KT 9999 BKN025 24/18 Q1018 NOSIG=
METAR COR EGSH 081250Z 26007KT 210V310 9999 SCT023 24/15 Q1018
    NOSIG=
METAR EGVN 081250Z NIL=
METAR EGWU 081250Z 24008KT 9999 SCT032 BKN250 23/14 Q1018 NOSIG=
####018000067####
SAAG SADF 081300
METAR SADF 081300Z  29002KT CAVOK 09/04 Q1019=
####018000151####
SAUK51 EGGY 081250 RRA
METAR EGDM 081250Z 22008KT 9999 SCT025 BKN250 22/14 Q1018 NOSIG=
METAR EGXT 081250Z 25008KT 9999 FEW040 BKN250 23/06 Q1017=
####018000353####
SAUK51 EGGY 081250
METAR EGDL 081250Z 20007KT 9999 FEW035 BKN220 22/10 Q1018 NOSIG=
METAR EGDM 081250Z NIL=
METAR EGDY 081250Z NIL=
METAR EGOV 081250Z NIL=
METAR EGUB 081250Z NIL=
METAR EGVN 081250Z NIL=
METAR EGWU 081250Z 24008KT 9999 SCT032 BKN250 23/14 Q1018 NOSIG=
METAR EGXC 081250Z NIL=
METAR EGXT 081250Z NIL=
METAR EGYD 081250Z NIL=
####018000688####
SANL33 EHDB 081255
METAR EHAK 081255Z AUTO 21011KT 9999NDV 17/13 Q1017=
METAR EHDV 081255Z NIL=
METAR EHFD 081255Z AUTO 23013KT 9999NDV SCT024/// BKN028/// BKN037///
17/16 Q1018=
METAR EHFZ 081255Z AUTO 22009KT 9999NDV BKN035/// BKN040/// 17/15
Q1018=
METAR EHJA 081255Z AUTO 24011KT 9999NDV 16/13 Q1018=
METAR EHJR 081255Z NIL=
METAR EHKV 081255Z AUTO 22010KT 9999NDV BKN029/// 17/15 Q1019=
METAR EHMA 081255Z AUTO 25009KT 9999NDV 21/17 Q1019=
METAR EHMG 081255Z AUTO 23011KT 9999NDV 17/15 Q1018=
METAR EHPG 081255Z AUTO 22011KT 180V240 9999NDV ///////// 16/15
Q1019=
METAR EHQE 081255Z AUTO 22010KT 9999NDV 16/15 Q1019=
METAR EHSA 081255Z NIL=
METAR EHSC 081255Z NIL=
####018000141####
SAPY SGAS 081300
METAR SGAS 081300Z 14007KT 9000 BKN010 OVC015 17/15 Q1016=
METAR SGES 081300Z 15007KT 9999  FEW030 BKN080 18/16  Q1016=
####018000089####
SAAJ31 UBBB 081300
METAR UBBB 081300Z 35018KT CAVOK 32/26 Q1010 NOSIG RMK
R88CLRD70=
####018000078####
SAUK37 EGGY 081250 RRA
METAR EGPI 081250Z 22014KT 9999 FEW022 17/11 Q1013=
####018000412####
SAUK38 EGGY 081250
METAR EGEC 081250Z 24010KT 9999 FEW024 SCT036 16/10 Q1013=
METAR EGPA 081250Z 21014KT 9999 VCSH FEW020CB SCT045 18/11 Q1008=
METAR EGPC 081250Z 20012KT 9999 VCSH FEW020 15/13 Q1009=
METAR EGPL 081250Z 22021KT 9999 VCSH FEW018 16/11 Q1008=
METAR COR EGPM 081250Z 23027KT 9999 FEW026 16/09 Q1006 NOSIG=
METAR EGPO 081250Z 23024KT 9999 FEW024 SCT032 18/10 Q1007=
METAR EGPU 081250Z NIL=
####018000248####
SAPQ50 KWBC 081300 RRC
METAR
PTRO 081257Z 06007KT 13SM TS BKN016CB BKN120 OVC300 26/24 A2991
     RMK OCNL LTGCA SE-S TS SE MOV W CB VC ALQDS=
PKMR 081256Z 06012KT 15SM SCT015 BKN045 BKN120 OVC140 27/24 A2981
     RMK SLP095 T02720238=
####018001338####
SAUS70 KWBC 081300 RRB
METAR
KPBH 081255Z AUTO 35003KT 10SM SCT048 20/17 A3008 RMK AO2=
KPCZ 081255Z AUTO 31006KT 10SM OVC008 22/20 A3002 RMK AO2
     T02240200=
KPDC 081253Z AUTO 31006KT 7SM OVC010 23/21 A3006 RMK AO2
     T02250206=
KRCX 081255Z AUTO 32007KT 10SM OVC050 20/17 A3009 RMK AO2
     T01960171=
KRNH 081256Z AUTO 31004KT 10SM CLR 19/17 A3011 RMK AO2
     T01920169=
KRRL 081255Z AUTO 34003KT 10SM BKN008 20/19 A3006 RMK AO2
     T01980194=
KRYV 081255Z AUTO 26003KT 5SM BR OVC005 23/21 A3004 RMK AO2=
KSTE 081255Z AUTO 00000KT 10SM OVC007 21/19 A3004 RMK AO2=
KSUW 081255Z AUTO 22005KT 10SM CLR 19/16 A3004 RMK AO2=
KUNU 081252Z AUTO 26003KT 5SM BR OVC003 22/20 A3004 RMK AO2
     T02160202=
KVBS 081255Z AUTO 12022KT SCT019 SCT025 29/25 A2995 RMK A01=
KVNP 081255Z AUTO 11011G17KT 8SM SCT019 SCT028 28/25 A2999 RMK
     A01=
PACM 081256Z AUTO 00000KT 10SM CLR 11/09 A3006 RMK AO2 TSNO
     T01050088 SLP175 $=
PACM 081256Z AUTO 00000KT 10SM CLR 11/09 A3006 RMK AO2 TSNO
     T01050088 SLP175 $=
PAFS 081256Z AUTO 00000KT 10SM CLR 11/06 A2999 RMK AO2 TSNO
     T01110061 SLP161 $=
PAMB 081256Z AUTO 36005KT 10SM OVC042 11/09 A2992 RMK AO2 PWINO
     TSNO T01050088 SLP134 $=
PPIZ 081256Z AUTO 21010KT 3SM HZ CLR 06/02 A3008 RMK AO2 TSNO
     T00610016 SLP189 $=
####018003726####
SAUS70 KWBC 081300
METAR
KFMH 081255Z AUTO 15010KT 10SM BKN012 OVC019 24/21 A3011 RMK
     AO2=
KCWF 081250Z 06007KT 5SM BRFT BKN005 25/25 A3001=
KSGJ 081258Z 29004KT 10SM CLR 26/22 A3002 RMK AO2 SLP166
     T02560217=
PAGN 081256Z AUTO 00000KT CLR RMK AO2 PWINO TSNO SLPNO $=
PATQ 081256Z AUTO 24012KT 10SM CLR 08/04 A3003 RMK AO2 TSNO
     T00830038 SLP173 $=
KSGH 081256Z 00000KT 4SM BR CLR 26/23 A3011 RMK AO2 T02610233
     SLP187=
PAGN 081256Z AUTO 00000KT CLR RMK AO2 PWINO TSNO SLPNO $=
PAHC 081256Z AUTO 00000KT 2SM BR CLR 08/07 A2998 RMK AO2 TSNO
     T00770072 SLP156 $=
PAIG 081256Z AUTO 00000KT 10SM FEW041 BKN050 OVC065 09/09 A2993
     RMK AO2 PWINO TSNO T00940088 BKN V SCT P0002 SLP140 $=
PAMO 081256Z AUTO 36007KT 10SM FEW075 BKN100 12/09 A3003 RMK AO2
     TSNO T01160094 BKN V OVC SLP167 $=
PAOH 081256Z AUTO 00000KT 10SM CLR 08/08 A3019 RMK AO2 TSNO
     T00770077 SLP223=
PAPM 081256Z AUTO 13003KT RA BKN060 05/04 A2997 RMK AO2 TSNO
     T00500044 P0000 SLP150 $=
PARS 081256Z AUTO 25003KT 10SM FEW070 09/08 A3000 RMK AO2 TSNO
     T00880083 SLP162 $=
PATQ 081256Z AUTO 24012KT 10SM CLR 08/04 A3003 RMK AO2 TSNO
     T00830038 SLP173 $=
K14Y 081259Z AUTO 24005KT 10SM CLR 19/16 A3011 RMK AO2
     T01900164=
K4M9 081255Z AUTO 9SM FEW090 27/26 A3007 RMK AO2=
KAEJ 081255Z AUTO 00000KT 10SM SCT014 07/06 A3045 RMK AO2=
KAEL 081250Z AUTO 34003KT 10SM CLR 19/17 A3012 RMK AO2=
KAIT 081253Z AUTO 25005KT 10SM CLR 18/17 A3007 RMK AO2=
KAJO 081256Z AUTO 33003KT 6SM BR SCT011 15/13 A2992 RMK AO2
     T01500133 SLP127 $=
KARV 081252Z AUTO 34004KT 10SM BKN049 19/16 A3007 RMK AO2
     T01870160=
KBBB 081253Z AUTO 00000KT 10SM CLR 18/16 A3012 RMK AO2=
KBVU 081255Z AUTO 00000KT 10SM CLR 24/M01 A2989 RMK AO2=
KBWP 081251Z AUTO 26005KT 10SM CLR 18/16 A3010 RMK AO1
     T01780156=
KCMY 081255Z AUTO 32007KT 280V340 10SM SCT015 22/18 A3007 RMK AO2
     T02200184=
KCVH 081250Z AUTO 00000KT 9SM OVC006 13/11 A2993 RMK AO1=
KDIJ 081256Z AUTO 04005KT 10SM CLR 09/03 A3031 RMK AO2 T00940033
     SLP192 $=
KDXX 081254Z AUTO 00000KT 10SM CLR 18/17 A3012 RMK AO2=
KEFK 081255Z AUTO 19004KT 7SM CLR 26/21 A3006 RMK AO2=
KEFT 081255Z AUTO 31007KT 4SM BR BKN004 OVC015 22/20 A3006 RMK AO2
     T02150201=
KEGV 081252Z AUTO 36003KT 10SM CLR 19/17 A3005 RMK AO2
     T01920174=
KEKQ 081256Z AUTO 00000KT 3SM HZ CLR 25/22 A3013 RMK AO2 T02500216
     SLP197=
KELO 081253Z AUTO 24006KT 10SM CLR 18/15 A3002 RMK AO2=
KEVM 081252Z AUTO 27005KT 10SM CLR 17/15 A3003 RMK AO1=
KEZS 081255Z AUTO 01004KT 10SM SCT010 23/21 A3001 RMK AO2
     T02310207=
KFBL 081254Z AUTO 30003KT 10SM CLR 19/15 A3013 RMK AO2=
KFFM 081253Z AUTO 30004KT 10SM CLR 17/16 A3009 RMK AO2=
KFGN 081254Z AUTO 28009KT 1/2SM -DZ BKN070 OVC100 17/14 A2999 RMK
     AO2=
KFSO 081258Z AUTO 00000KT 7SM BKN060 27/23 A3002 RMK AO2=
KGDB 081253Z AUTO 25005KT 10SM CLR 18/16 A3015 RMK AO2
     T01770156=
KGHW 081253Z AUTO 27007KT 10SM CLR 19/14 A3014 RMK AO2=
KGLW 081253Z AUTO 00000KT 10SM CLR 26/22 A3009 RMK AO2
     T02640216=
KGYL 081254Z AUTO 26003KT 10SM CLR 19/16 A3012 RMK AO2
     T01850156=
KHCD 081252Z AUTO 28005KT 10SM CLR 18/16 A3012 RMK AO2 T01770164
     TSNO=
KHCO 081254Z AUTO 31007KT 10SM CLR 17/16 A3008 RMK AO2=
KHFJ 081255Z AUTO 00000KT 10SM SCT023 BKN030 OVC036 23/23 A3007
     RMK AO1=
KHYW 081255Z AUTO 36003KT 10SM CLR 28/23 A2994 RMK AO2=
KHZX 081251Z AUTO 27005KT 10SM CLR 18/16 A3008 RMK AO2=
KJKJ 081254Z AUTO 24003KT 10SM CLR 18/16 A3008 RMK AO2=
KJMR 081258Z AUTO 29004KT 10SM CLR 18/14 A3010 RMK AO2=
KLCK 081255Z AUTO 00000KT 7SM CLR 26/22 A3008 RMK AO2
     T02590218=
####018003723####
SAXX60 KWBC 081300 RRA
METAR
KTIK 081255Z AUTO 35003KT 10SM FEW006 BKN033 24/23 A3006 RMK AO2
     SLP167 T02360226 $=
KVAD 081255Z AUTO 32006KT 10SM CLR 26/20 A3004 RMK AO2 SLP170
     T02600204 $=
KVOK 081255Z 31005KT 10SM OVC008 21/21 A3005 RMK AO2A=
KWRB 081255Z 34006KT 10SM CLR 27/22 A3003 RMK AO2A SLP166
     T02680218 $=
KNID 081256Z 00000KT 10SM CLR 18/03 A2988 RMK AO2 SLP096 T01830028
     $=
KMRT 081253Z AUTO 25004KT 10SM CLR 27/20 A3012 RMK AO2
     T02650198=
KADW 081255Z AUTO 10003KT 10SM CLR 27/23 A3002 RMK AO2 SLP166
     T02730234=
KBYH 081251Z 00000KT 10SM FEW250 29/23 A3007=
KDYS 081255Z 00000KT 10SM SCT004 OVC009 22/22 A3007 RMK AO2A CIG
     005 RWY34 SLP164 T02200217 $=
KEDW 081255Z 11004KT 90SM FEW100 15/03 A2989 RMK AO2A SLP077 RADAT
     20160 T01530026=
KFCS 081255Z AUTO 12003KT 10SM CLR 14/11 A3034 RMK AO2 SLP207
     T01380109=
KFFO 081255Z 00000KT 6SM HZ CLR 27/22 A3009 RMK AO2A SLP182=
KFRI 081255Z AUTO 01009KT 8SM OVC008 22/21 A3012 RMK AO2 CIG
     007V010 SLP187 T02200212=
KGRK 081255Z 05007KT 6SM BR SCT008 BKN014 BKN025 26/24 A3000 RMK
     SLP140=
KLFI 081255Z 10006KT 10SM FEW013 BKN100 26/22 A3001 RMK AO2A
     SLP163 T02580217 $=
KLSF 081255Z 00000KT 10SM SKC 27/22 A3003 RMK AO2A SLP169
     T02660216 $=
KLSV 081255Z AUTO 02004KT 10SM FEW140 23/M03 A2985 RMK AO2 SLP089
     T02331028 PWINO=
KMIB 081255Z AUTO 26005KT 10SM OVC080 15/13 A3011 RMK AO2 SLP196
     T01480125 $=
KMMT 081255Z 33006KT 8SM FEW100 28/20 A3000 RMK AO2A SLP159
     T02800203=
KMXF 081255Z AUTO 00000KT 10SM CLR 28/24 A3003 RMK AO2 SLP167
     T02820237=
KNCA 081256Z 04006KT 4SM HZ FEW090 28/24 A2995 RMK AO2 SLP143
     T02780239=
KADW 081255Z AUTO 10003KT 10SM CLR 27/23 A3002 RMK AO2 SLP166
     T02730234=
KBIX 081255Z AUTO 02005KT 10SM CLR 27/26 A3005 RMK AO2 SLP177
     T02660256=
KHST 081255Z AUTO 02004KT 10SM BKN021 BKN027 28/26 A2996 RMK AO2
     CIG 018V024 SLP148 T02820256 $=
KLFI 081255Z 10006KT 10SM FEW013 BKN100 26/22 A3001 RMK AO2A
     SLP163 T02580217 $=
KMCF 081255Z AUTO 05007KT 10SM CLR 26/24 A3002 RMK AO2 SLP166
     T02610236=
KNCA 081256Z 04006KT 4SM HZ FEW090 28/24 A2995 RMK AO2 SLP143
     T02780239=
KNIP 081253Z 26005KT 10SM CLR 26/21 A3002 RMK AO2 SLP162
     T02560211=
KNKT 081254Z 06011KT 8SM FEW014 BKN060 BKN150 27/24 A2995 RMK AO2
     SLP139 T02720239=
KNQX 081253Z 05005KT 10SM SCT022CB SCT100 BKN200 29/25 A2996 RMK
     AO2 SLP144 CB DSNT S TCU DSNT SE W T2 SET T02940250 $=
KNRB 081252Z 28004KT 10SM CLR 27/20 A3002 RMK AO2 SLP163
     T02670200=
KSSC 081255Z AUTO 30008KT 10SM CLR 29/20 A2998 RMK AO2 SLP149
     T02860203 $=
KVAD 081255Z AUTO 32006KT 10SM CLR 26/20 A3004 RMK AO2 SLP170
     T02600204 $=
KWRI 081255Z AUTO 15007KT 9SM FEW100 26/24 A3003 RMK AO2 SLP168
     T02590238 $=
KFFO 081255Z 00000KT 6SM HZ CLR 27/22 A3009 RMK AO2A SLP182=
KFRI 081255Z AUTO 01009KT 8SM OVC008 22/21 A3012 RMK AO2 CIG
     007V010 SLP187 T02200212=
KNCA 081256Z 04006KT 4SM HZ FEW090 28/24 A2995 RMK AO2 SLP143
     T02780239=
KNFG 081256Z AUTO 00000KT 9SM OVC011 16/14 A2991 RMK AO2 SLP128
     T01560139 TSNO=
KNMM 081256Z 35003KT 10SM FEW250 28/22 A3007 RMK AO2 SLP188
     T02780217=
KNUW 081256Z 00000KT 10SM CLR 16/10 A2997 RMK AO2 SLP154 T01630098
     $=
KNXP 081256Z AUTO 28007KT CLR 23/00 A2994 RMK AO2 SLP099 T02280000
     $=
KNXX 081256Z 13008KT 5SM HZ FEW045 27/22 A3006 RMK AO2 SLP182
     T02720217 $=
KNYG 081256Z 00000KT 6SM HZ FEW090 BKN200 28/23 A3002 RMK AO2
     SLP166 T02780228=
KNYL 081255Z AUTO 00000KT 10SM CLR 27/M03 A2974 RMK AO2 SLP065
     T02671033=
####018000127####
SPUS70 KWBC 081300
SPECI
KRKP 081257Z AUTO 05006KT 1 1/4SM -RA SCT010 BKN015 OVC023 A2985
     RMK AO2 P0000 FZRANO $=
####018000095####
SAUS80 KWBC 081400
METAR
K3A6 081350Z AUTO 36001KT 11/10 A2989 RMK AO1 SLP143 T01120102=
####018003112####
SAUS80 KWBC 081300
METAR
KALK 081256Z AUTO 07010KT 10SM CLR 22/11 A3010 RMK AO2 SLP091
     T02170106=
KD07 081256Z AUTO 28008KT 17/09 A3022 RMK AO2 SLP224 T01670094
     PWINO TSNO=
KMHS 081256Z AUTO 05003KT 10SM CLR 12/07 A3002 RMK AO2 SLP150
     T01220067 TSNO=
KSPD 081256Z AUTO 03007KT 16/15 A3030 RMK AO2 SLP207 P0002
     T01610150 PWINO TSNO=
K8D3 081256Z AUTO 28007KT 21/14 A3010 RMK AO2 SLP175 T02110144
     PWINO TSNO=
KCDJ 081256Z AUTO VRB03KT 23/22 A3009 RMK AO2 SLP179 T02280217
     PWINO TSNO=
KP53 081256Z AUTO 00000KT 19/18 A3000 RMK AO2 SLP158 T01890178
     PWINO TSNO=
KCAE 081256Z 32004KT 10SM CLR 29/21 A3000 RMK AO2 SLP155
     T02940206=
KISM 081250Z 06004KT 10SM CLR 26/21 A3004=
KSPS 081252Z COR 04006KT 10SM FEW008 FEW250 24/22 A3004 RMK AO2
     SLP160 T02390222=
KFSD 081256Z 00000KT 10SM R03/5500VP6000FT CLR 19/16 A3017 RMK AO2
     SLP212 SCT ABV 120 T01890156=
KAKQ 081254Z AUTO 00000KT 3SM HZ FEW070 27/23 A3000 RMK AO2 SLP159
     T02720233 TSNO=
KROA 081254Z 01004KT 6SM HZ FEW085 29/18 A3010 RMK AO2 SLP176
     T02940178=
KABQ 081256Z 10014KT 10SM SCT100 OVC200 19/09 A3028 RMK AO2 SLP171
     T01940094=
KJAX 081256Z 28005KT 10SM CLR 24/21 A3002 RMK AO2 SLP166
     T02440211=
K29G 081254Z AUTO 00000KT 7SM CLR 26/19 A3009 RMK AO2 T02610190
     PWINO=
KCHS 081256Z 31006KT 8SM CLR 27/21 A2997 RMK AO2 SLP148
     T02670206=
KCLI 081255Z AUTO 34003KT 10SM CLR 23/20 A3001 RMK AO2=
KDVK 081257Z AUTO 21003KT 7SM 26/20 A3010 RMK AO1=
KGSO 081254Z 03004KT 5SM HZ CLR 29/18 A3004 RMK AO2 SLP158
     T02940183=
KIKW 081253Z AUTO 00000KT 10SM OVC080 23/21 A3002 RMK AO2
     T02320210=
KLYV 081258Z AUTO 00000KT 10SM CLR 17/15 A3018 RMK AO2=
KRFD 081254Z 30006KT 10SM SCT006 OVC180 24/21 A3006 RMK AO2 SLP173
     T02390211=
KROS 081255Z AUTO 27004KT 10SM CLR 19/16 A3010 RMK AO2
     T01900158=
KSFO 081256Z COR 27012KT 10SM OVC008 13/11 A2993 RMK AO2 SLP135
     T01330106=
KSHV 081256Z 15003KT 10SM BKN090 BKN280 25/24 A3005 RMK AO2 SLP172
     T02500239=
KSNC 081255Z AUTO 14005KT 10SM OVC009 23/ A3010 RMK AO2=
KSYN 081310Z AUTO 31004KT 10SM CLR 20/17 A3011 RMK AO2
     T01990171=
KTKC 081253Z AUTO 26005KT 10SM CLR 19/14 A3016 RMK AO2
     T01870144=
KTRI 081253Z 00000KT 6SM HZ CLR 25/20 A3013 RMK AO2 SLP181
     T02500200=
KTYS 081253Z 00000KT 6SM HZ CLR 27/19 A3009 RMK AO2 SLP175
     T02670194=
KSAV 081253Z 29007KT 10SM CLR 27/20 A3000 RMK AO2 SLP158 T02670200
     $=
TJSJ 081256Z 08006KT 10SM FEW020 SCT036 29/26 A3001 RMK AO2 SLP161
     T02890256=
KMYT 081255Z AUTO 11017KT 10SM FEW022 28/24 A2998 RMK A01=
KSCF 081300Z AUTO 13018KT 7SM 29/25 A2993 RMK A01=
KTKV 081255Z AUTO 32005KT 10SM CLR 18/17 A3005 RMK AO2
     T01800173=
KWMC 081256Z AUTO 20003KT 10SM CLR 12/M04 A3008 RMK AO2 SLP142
     T01171044=
KFWA 081254Z COR 20003KT 8SM FEW060 SCT250 27/21 A3006 RMK AO2
     SLP172 T02720211=
PHNY 081256Z AUTO 03012KT 10SM BKN036 BKN045 19/18 A3005 RMK AO2
     TSNO T01940183 BKN V OVC RAE03 P0000 SLP155 $=
####018000078####
SAUK38 EGGY 081250 RRA
METAR EGPU 081250Z 23020KT 9999 SCT023 16/12 Q1010=
####018000632####
SAUS80 KWBC 081300 CCA
METAR
KDAB 081253Z 33003KT 10SM FEW024 SCT250 27/21 A3002 RMK AO2 SLP164
     T02670206 $=
KTUP 081253Z 05005KT 10SM CLR 27/22 A3008 RMK AO2 SLP181
     T02670222=
KMGM 081253Z 33003KT 10SM CLR 28/22 A3004 RMK AO2 SLP167
     T02830222=
KBTR 081253Z 06006KT 6SM BR BKN003 OVC007 25/24 A3004 RMK AO2
     SLP170 T02500239=
KWAL 081254Z 09008KT 10SM BKN011 BKN120 OVC250 26/22 A3002 RMK AO2
     SLP163 T02560217=
KMTP 081254Z AUTO VRB03KT 23/20 A3010 RMK AO2 SLP192 T02280200
     PWINO TSNO=
KSMP 081256Z AUTO VRB03KT 10SM CLR 15/04 A3016 RMK AO2 SLP181
     T01500039 TSNO $=
####018003749####
SAXX60 KWBC 081300
METAR
KNJK 081256Z 00000KT 10SM CLR 23/14 A2972 RMK AO2 SLP078
     T02330144=
PMDY 081256Z AUTO 00000KT 10SM CLR 24/19 A3008 RMK AO2 TSNO
     T02380194 SLP491=
KBYH 081251Z 00000KT 10SM FEW250 29/23 A3007=
KDYS 081255Z 00000KT 10SM SCT004 OVC009 22/22 A3007 RMK AO2A CIG
     005 RWY34 SLP164 T02200217 $=
KEDW 081255Z 11004KT 90SM FEW100 15/03 A2989 RMK AO2A SLP077 RADAT
     20160 T01530026=
KFCS 081255Z AUTO 12003KT 10SM CLR 14/11 A3034 RMK AO2 SLP207
     T01380109=
KGRK 081255Z 05007KT 6SM BR SCT008 BKN014 BKN025 26/24 A3000 RMK
     SLP140=
KLSF 081255Z 00000KT 10SM SKC 27/22 A3003 RMK AO2A SLP169
     T02660216 $=
KLSV 081255Z AUTO 02004KT 10SM FEW140 23/M03 A2985 RMK AO2 SLP089
     T02331028 PWINO=
KMIB 081255Z AUTO 26005KT 10SM OVC080 15/13 A3011 RMK AO2 SLP196
     T01480125 $=
KPSM 081255Z 17005KT 10SM FEW040 BKN200 25/21 A3009 RMK AO2A
     SLP190 T02510207=
KRND 081255Z 05007KT 9SM BKN007 BKN017 OVC026 25/24 A2995 RMK AO2A
     DZE1205 SLP133 P0000 T02480238=
KTBN 081255Z 00000KT 10SM FEW003 SCT011 BKN047 OVC060 23/21 A3009
     RMK AO2A FEW V SCT SLP172 T02290206 $=
KVOK 081255Z 31005KT 10SM OVC008 21/21 A3005 RMK AO2A=
PAED 081255Z AUTO 00000KT 10SM -RA FEW003 BKN075 BKN090 BKN100
     12/11 A2997 RMK AO2 RAB1208E1209B1239DZB1209E1219B1238E1239
     SLP151 P0000 T01180106 $=
KNGP 081256Z VRB04KT 10SM FEW010 SCT021CB BKN033 28/25 A2983 RMK
     AO2 RAE31 SLP101 CB DSNT SE TCU DSNT S-SW WR// VCSH W-NW
     P0002 T02770252=
KHLR 081256Z AUTO 09004KT 8SM -RA OVC007 26/ A3001 RMK AO2 RAB54
     SLP154 P0000 T0256 $=
K9L2 081256Z AUTO 03003KT 10SM CLR 14/02 A2990 RMK AO2 SLP106
     T01390017 $=
KBAN 081256Z AUTO 00000KT CLR 04/01 A3021 RMK AO2 SLP157 T00440006
     TSNO $=
KNUQ 081256Z AUTO 03003KT 10SM OVC011 15/12 A2993 RMK AO2 SLP138
     T01500122 TSNO=
KNXF 081256Z AUTO 31003KT 7SM OVC013 16/13 A2991 RMK AO2 SLP213
     T01610128 TSNO=
KNTD 081256Z 28006KT 7SM SCT009 OVC011 14/13 A2990 RMK AO2 SLP127
     LAG PK 12/12/27007 T01440128 PNO $=
KNTU 081256Z 07007KT 10SM SCT015 BKN050 BKN100 26/22 A2999 RMK AO2
     SLP156 T02610222 $=
KINS 081256Z 00000KT 8SM CLR 18/M10 A2996 RMK AO2 SLP091 T01831100
     $=
KNFL 081256Z AUTO 27005KT 10SM CLR 17/01 A3002 RMK AO2 SLP134
     T01720006 TSNO=
KNQI 081256Z COR 03008KT 9SM FEW006 BKN016CB BKN140 BKN280 27/25
     A2983 RMK AO2 TSE40RAB16E40 SLP099 OCNL LTGICCG DSNT W-N CB
     DSNT SE-S AND W-N P0004 T02720250 $=
KHUA 081257Z 01007KT 12SM SKC 29/23 A3012=
PGUA 081255Z AUTO 11010KT 10SM CLR 26/ A2992 RMK AO2 SLP113 T0260
     VISNO RWY24L $=
KGTB 081255Z AUTO VRB04KT 10SM CLR 29/22 A3004 RMK AO2 SLP171
     T02920220=
KNIP 081253Z 26005KT 10SM CLR 26/21 A3002 RMK AO2 SLP162
     T02560211=
KNKT 081254Z 06011KT 8SM FEW014 BKN060 BKN150 27/24 A2995 RMK AO2
     SLP139 T02720239=
KNQX 081253Z 05005KT 10SM SCT022CB SCT100 BKN200 29/25 A2996 RMK
     AO2 SLP144 CB DSNT S TCU DSNT SE W T2 SET T02940250 $=
KPSM 081255Z 17005KT 10SM FEW040 BKN200 25/21 A3009 RMK AO2A
     SLP190 T02510207=
KRND 081255Z 05007KT 9SM BKN007 BKN017 OVC026 25/24 A2995 RMK AO2A
     DZE1205 SLP133 P0000 T02480238=
KSKA 081255Z AUTO 06005KT 10SM CLR 15/09 A3008 RMK AO2 SLP174
     T01510086=
KSLI 081255Z AUTO 18003KT 10SM OVC013 16/14 A2991 RMK AO2 SLP130
     T01640140=
KSZL 081255Z 00000KT 3SM -DZ BR OVC004 23/22 A3008 RMK AO2A VIS 2
     1/2 RWY01 DZB1247 CIG 003V007 SLP181 P2400 T02290224 $=
KTBN 081255Z 00000KT 10SM FEW003 SCT011 BKN047 OVC060 23/21 A3009
     RMK AO2A FEW V SCT SLP172 T02290206 $=
KTCM 081255Z AUTO 00000KT 10SM CLR 12/10 A2996 RMK AO2 SLP146
     T01150104=
####018000118####
SAUS70 KWBC 081400
METAR
KBBF 081355Z AUTO 14021G35KT 1/4SM FG BKN003 BKN022 OVC100 26/24
     A2984 RMK A01=
####018003077####
SAXX60 KWBC 081300 RRB
METAR
KRDR 081255Z 31005KT 10SM CLR 18/15 A3007 RMK AO2A SLP192
     T01790147 $=
KSZL 081255Z 00000KT 3SM -DZ BR OVC004 23/22 A3008 RMK AO2A VIS 2
     1/2 RWY01 DZB1247 CIG 003V007 SLP181 P2400 T02290224 $=
KVBG 081255Z AUTO 33006KT 10SM OVC004 12/11 A2994 RMK AO2 SLP130
     T01170111 TSNO $=
KNLC 081256Z AUTO 31008KT 10SM CLR 17/10 A2984 RMK AO2 SLP103
     T01670100 TSNO $=
PHBK 081256Z AUTO 12003KT 10SM BKN060 OVC070 24/18 A3000 RMK AO2
     SLP162 T02440178 TSNO $=
KDMA 081255Z AUTO 07007KT 10SM CLR 29/11 A2991 RMK AO2 SLP052
     T02860111 $=
KDOV 081257Z 13008KT 10SM FEW130 26/23 A3002 RMK AO2A SLP168=
KEND 081255Z 02007KT 10SM SCT007 SCT060 BKN090 BKN200 23/22 A3009
     RMK AO2A SLP177 T02320219=
KFAF 081255Z 13005KT 10SM FEW016 27/26 A3000 RMK AO2A SLP159
     T02710262=
KGSB 081255Z 06007KT 8SM CLR 27/21 A2996 RMK AO2A SLP144 WND DATA
     ESTMD T02750214 $=
KHOP 081255Z AUTO 00000KT 10SM CLR 28/22 A3009 RMK AO2 SLP184
     T02760224=
KHUA 081257Z 01007KT 12SM SKC 29/23 A3012=
KNBG 081255Z 06003KT 7SM SCT015 BKN250 26/23 A3004 RMK AO2 SLP171
     T02620233 $=
KNKX 081255Z 00000KT 10SM -RA OVC010 16/14 A2991 RMK AO2 RAB53 CIG
     005V011 SLP123 P0000 T01560139=
KPOE 081255Z AUTO 08006KT 10SM CLR 25/23 A3004 RMK AO2 SLP171
     T02500233 $=
KRCA 081255Z 00000KT 25SM CLR 14/10 A3025 RMK AO2A SLP233
     T01430102 $=
KSKF 081255Z 03006KT 7SM BKN015 BKN045 25/24 A2993 RMK AO2A SLP126
     P0000 T02540240 $=
PMDY 081256Z AUTO 00000KT 10SM CLR 24/19 A3008 RMK AO2 TSNO
     T02380194 SLP491=
PWAK 081255Z 07013KT 6SM BR SKC 27/26 A2998 RMK AO2A=
KGBK 081255Z AUTO 09009G18KT 10SM BKN018 BKN024 BKN032 29/26 A2994
     RMK A01=
KGTB 081255Z AUTO VRB04KT 10SM CLR 29/22 A3004 RMK AO2 SLP171
     T02920220=
KLFI 081255Z 10006KT 10SM FEW013 BKN100 26/22 A3001 RMK AO2A
     SLP163 T02580217 $=
KMHR 081255Z AUTO 17005KT 9SM CLR 12/10 A2985 RMK AO1=
KMMT 081255Z 33006KT 8SM FEW100 28/20 A3000 RMK AO2A SLP159
     T02800203=
KMXF 081255Z AUTO 00000KT 10SM CLR 28/24 A3003 RMK AO2 SLP167
     T02820237=
KNCA 081256Z 04006KT 4SM HZ FEW090 28/24 A2995 RMK AO2 SLP143
     T02780239=
KNQX 081253Z 05005KT 10SM SCT022CB SCT100 BKN200 29/25 A2996 RMK
     AO2 SLP144 CB DSNT S TCU DSNT SE W T2 SET T02940250 $=
KPSM 081255Z 17005KT 10SM FEW040 BKN200 25/21 A3009 RMK AO2A
     SLP190 T02510207=
KVAD 081255Z AUTO 32006KT 10SM CLR 26/20 A3004 RMK AO2 SLP170
     T02600204 $=
KWRB 081255Z 34006KT 10SM CLR 27/22 A3003 RMK AO2A SLP166
     T02680218 $=
KNBC 081256Z 29007KT 6SM HZ CLR 27/20 A2999 RMK AO2 SLP156
     T02720200 PNO $=
KNRS 081256Z AUTO 29005KT 10SM OVC016 17/13 A2991 RMK AO2 SLP128
     T01670133 TSNO $=
PWAK 081255Z 07013KT 6SM BR SKC 27/26 A2998 RMK AO2A=
PALU 081255Z AUTO 21026G31KT 10SM CLR 12/03 A3005 RMK AO1
     T01170034=
PATL 081255Z AUTO 05004KT 10SM CLR 12/06 A2999 RMK AO1
     T01170062=
PASV 081255Z AUTO 00000KT 10SM SCT110 09/07 A2994 RMK AO1
     T00940073=
####018000099####
SAAJ31 UBBB 081300
UBBN 081300Z 14008KT 9999 NSC 39/07 Q1007 R14R/CLRD60
NOSIG RMK G/O QFE681=
####018003710####
SAUS70 KWBC 081300 RRA
METAR
KLJF 081252Z AUTO 29006KT 10SM CLR 20/17 A3013 RMK AO2=
KLNL 081255Z AUTO 00000KT 10SM SCT080 19/15 A3007 RMK AO2
     T01870145=
KLRD 081256Z 03009KT 9SM FEW008 BKN044 27/24 A2991 RMK AO2
     T02660244 SLP114 $=
KLUM 081255Z AUTO 32008KT 10SM CLR 20/16 A3009 RMK AO2=
KLVN 081248Z AUTO 28004KT 10SM CLR 19/17 A3012 RMK AO2=
KLXL 081254Z AUTO 26004KT 10SM CLR 18/15 A3008 RMK AO2=
KM89 081256Z AUTO 00000KT 5SM BR OVC004 24/24 A3008 RMK AO2
     T02440238 CIG 002V006 SLP199=
KMCJ 081255Z AUTO 08010KT 5SM SCT006 SCT037 BKN060 24/23 A2993 RMK
     AO1 P0019=
KMDS 081245Z AUTO 27005KT 10SM CLR 19/16 A3018 RMK AO2=
KMDZ 081255Z AUTO 33005KT 10SM SCT006 19/18 A3006 RMK AO2=
KMGG 081255Z AUTO 26005KT 10SM CLR 20/16 A3012 RMK AO2
     T01950162=
KMJQ 081252Z AUTO 30005KT 10SM CLR 18/15 A3017 RMK AO2=
KMOX 081250Z AUTO 27006KT 10SM CLR 19/17 A3008 RMK AO2=
KMRJ 081255Z AUTO 29003KT 4SM BR OVC005 23/21 A3007 RMK AO2
     T02250209=
KMVE 081254Z AUTO 29004KT 10SM CLR 18/16 A3012 RMK AO2=
KMWM 081253Z AUTO 28006KT 10SM CLR 18/16 A3016 RMK AO2=
KMWO 081255Z AUTO 00000KT 4SM HZ CLR 26/23 A3009 RMK AO2=
KONA 081250Z AUTO 33008KT 10SM CLR 21/16 A3007 RMK AO2=
KOVL 081253Z AUTO 31005KT 10SM CLR 17/13 A3012 RMK AO2
     T01700133=
KPEX 081253Z AUTO 26005KT 10SM CLR 18/17 A3012 RMK AO2
     T01800165=
KPNM 081253Z AUTO 26004KT 10SM CLR 19/16 A3010 RMK AO2=
KPQN 081253Z AUTO 31003KT 10SM CLR 19/14 A3018 RMK AO2=
KPVB 081253Z AUTO 00000KT 5SM BKN002 BKN008 22/21 A3007 RMK AO1
     T02150209=
KPWC 081253Z AUTO 27005KT 10SM CLR 17/15 A3009 RMK AO2=
KRCM 081255Z AUTO 07005KT 10SM OVC004 22/22 A3008 RMK AO2 LTG DSNT
     S=
KROG 081257Z 00000KT 10SM OVC020 23/22 A3010 RMK AO2 SLP180
     T02330217=
KROX 081254Z AUTO 28006KT 10SM CLR 17/14 A3003 RMK AO2=
KRRT 081254Z AUTO 25006KT 10SM SCT070 16/13 A3002 RMK AO2=
KRZN 081254Z AUTO 26003KT 10SM CLR 19/16 A3009 RMK AO2
     T01920160=
KSAZ 081253Z AUTO 27005KT 10SM CLR 18/18 A3009 RMK AO2=
KSGS 081253Z AUTO 31004KT 10SM CLR 21/16 A3011 RMK AO2
     T02070164=
KSME 081255Z AUTO 00000KT 4SM HZ 25/21 A3011 RMK AO2=
KTEW 081253Z AUTO 00000KT 10SM CLR 25/21 A3005 RMK AO2=
KTOB 081254Z AUTO 00000KT 10SM CLR 19/17 A3012 RMK AO2=
KTWM 081253Z AUTO 28006KT 10SM CLR 20/14 A3003 RMK AO2=
KULM 081255Z AUTO 30007KT 10SM CLR 18/15 A3013 RMK AO2=
KUNI 081255Z AUTO 00000KT 10SM SCT065 26/19 A3009 RMK AO2
     T02580187=
KVES 081254Z AUTO 16004KT 7SM CLR 25/21 A3009 RMK AO2
     T02490211=
KVVV 081245Z AUTO 24004KT 10SM CLR 19/14 A3012 RMK AO2=
KY63 081300Z AUTO 29003KT 10SM CLR 18/16 A3011 RMK AO2
     T01790160=
KFMH 081255Z AUTO 15010KT 10SM BKN012 OVC019 24/21 A3011 RMK
     AO2=
KSGH 081256Z 00000KT 4SM BR CLR 26/23 A3011 RMK AO2 T02610233
     SLP187=
KWJF 081256Z 17003KT 10SM CLR 17/04 A2991 RMK AO2 SLP110
     T01720039=
KBQX 081255Z AUTO 12015G22KT 9SM SCT023 SCT028 29/26 A2987 RMK
     A01=
KDLP 081255Z AUTO 10011KT 9SM FEW017 28/25 A3002 RMK A01=
KEHC 081255Z AUTO 12021KT 6SM HZ SCT018 BKN023 BKN030 29/25 A2995
     RMK A01=
KEMK 081255Z AUTO 14021KT 8SM FEW028 FEW080 SCT095 29/25 A2990 RMK
     A01=
KGVX 081255Z AUTO 13024KT 9SM FEW060 FEW075 M40/ A2991 RMK A01=
KHQI 081255Z AUTO 11021KT 6SM HZ CLR 29/26 A2992 RMK A01=
KIPN 081250Z AUTO 08015KT 10SM FEW023 /54 A3001 RMK A01=
KMDJ 081255Z AUTO 10014KT 10SM FEW022 29/24 A3002 RMK A01=
KMIU 081255Z AUTO 12020KT 3SM HZ SCT018 BKN033 BKN042 28/26 A2982
     RMK A01=
KMZG 081255Z AUTO 00000KT 9SM SCT020 SCT025 BKN045 29/25 A2983 RMK
     A01=
KOEO 081255Z AUTO 00000KT 10SM CLR 19/17 A3012 RMK AO2=
####018000116####
SABH31 MZBZ 081300
METAR MZBZ 081300Z 14005KT 9999 FEW014 SCT030 BKN220 26/24 A2986
Q1011 DIS CBTOP-S,SW NOSIG=
####018000156####
SAAW34 KWBC 081245 RRB
METAR
OPKC 081300Z 24009KTS 8000 SCT030 SCT100 34/24 Q1002 NOSIG=
OPPS 081255Z NE-12KTS 6000 HZ FEW040 FEW100 38/24 Q1001.7=
####018000119####
SAUS44 KBMX 081259
MTREUF
METAR KEUF 081258Z AUTO 00000KT 10SM CLR 28/21 A3003 RMK AO2 SLP166 
T02780206 PNO $
####018000150####
SAAW32 KWBC 081200 RRC
METAR
OKBK WPIQWPPZ 35020KT 6000 -BLDU SKC 48/M07 Q0999 NOSIG=
OTBD 081200Z 04008KT 360V090 6000 NSC 37/29Q0999 NOSIG=
####018000426####
SAUS20 KNKA 081259
SPECI KDFW 081259Z 00000KT 5SM -RA BR BKN027 BKN043 OVC070 26/24 
    A3003 RMK AO2 P0000=
METAR KJQF 081255Z 36005KT 10SM SCT100 29/17 A3002=
METAR KMEI 081258Z 33006KT 10SM CLR 26/23 A3007 RMK AO2 SLP178 
    T02610233=
METAR KY50 081256Z AUTO 31005KT 5SM BR BKN009 OVC013 22/22 A3004 RMK 
    AO2 T02160216 CIG 006V011 SLP164 $=
METAR TUPJ 081300Z 11011KT 9999 SCT021 28/24 A3001 RMK =
####018000161####
SADL32 KWBC 081250 RRA
METAR
EDLP 081250Z VRB04KT CAVOK 30/10 Q1020 RMK RWY24 TRL60 RG ATIS
     V=
EDLW 081250Z VRB05KT CAVOK 30/10 Q1020 RMK ATIS T=
####018000089####
SADL31 KWBC 081250 RRA
METAR
EDHL 081250Z 22008KT 170V280 CAVOK 30/14 Q1019 RMK S=
####018000168####
SADL33 KWBC 081245 RRC
METAR
EDNY 081250Z 18005KT CAVOK 28/11 Q1021 RMK ATIS S=
EDXW 081250Z 23008KT 4600 -RA FEW020 BKN070 18/16 Q1019 RMK ATIS
     INFO Y=
####018000260####
SAGR41 KWBC 081250 RRB
METAR
LGKZ 081250Z NIL=
LGMK 081250Z 36021G31KT 9999 FEW015 24/17 Q1012=
LGPZ 081250Z 26013KT 9999 FEW025 29/18 Q1013 NOSIG BLU=
LGRX 081250Z 28011KT 9999 FEW025 27/13 Q1012 NOSIG BLU=
LGSK 081250Z NIL=
LGZA 081250Z NIL=
####018000248####
SAGR31 KWBC 081250 RRB
METAR
LGAD 081250Z 29009KT 9999 FEW020 27/14 Q1014=
LGLM 081250Z 04013KT 9999 FEW008 SCT020 22/15 Q1014=
LGRP 081250Z 25013KT 9999 FEW020 29/19 Q1007 NOSIG=
LGSR 081250Z 02013KT 9999 FEW025 26/18 Q1010 NOSIG BLU=
####018000128####
SAMX31 KWBC 081345
METAR
MNMG 081300Z 27006KT 9000 FEW015 SCT018 24/23 Q1011 A2988 REDZ
     CBRA/NW/N/NE/SE/CB/SW/W/E=
####018000234####
SAMX42 KWBC 081245 RRC
METAR
MMTJ 081242Z 00000KT 3SM BR OVC008 16/14 A2994 RMK 8/6//=
MMZC 081243Z 05004KT 10SM BKN030 15/11 A3019 RMK 8/700=
MMZO 081244Z 00000KT 10SM BKN100 BKN210 25/24 A2976 RMK SLP067
     8/035 HZY=
####018000844####
SAMX41 KWBC 081245 RRB
METAR
MMAS 081240Z 04003KT 8SM SCT020 BKN070 OVC200 17/14 A3009 RMK
     8/537 HZ=
MMCL 081243Z 15003KT 8SM FEW030 SCT090 SCT230 26/23 A2976 RMK
     8/534 HZY=
MMCU 081240Z 07008KT 10SM OVC030 22/13 A3012 RMK 8/5//
     BINOV/NW=
MMDO 081244Z 04006KT 12SM OVC020 17/16 A3013 RMK 8/4// BINOVC LWR
     ST=
MMHO 081241Z 00000KT 10SM BKN080 27/16 A2980 RMK 8/050 HZY=
MMLP 081241Z 18008KT 10SM SKC 18/15 A2979 RMK ISOL SC AC=
MMML 081253Z 15010KT 10SM SKC 22/// A2970 METAR MMMZ 081248Z
     36004KT 8SM FEW015 BKN025 OVC070 26/22 A2976 RMK 8/47/=
MMMM 081242Z 00000KT 4SM BKN015 OVC040 17/15 A3010 RMK 8/5// HZY
     ST LWR HILL=
MMNL 081240Z 04006KT 8SM FEW007 SCT020 SCT100 BKN250 26/24 A2988
     RMK 8/572=
MMRX 081242Z 33006KT 7SM BKN010 OVC015 26/24 A2982 RMK 8/8//
     HZY=
####018000107####
SANL31 KWBC 081250 RRB
METAR
EHKD 081255Z AUTO 23009KT 9999NDV FEW210/// 22/15 Q1019 BLU
     BLU=
####018000099####
SANO41 KWBC 081150 RRB
METAR
ENBL 081150Z 20012G22KT 9999 VCSH FEW025 SCT035TCU 15/08 Q1011=
####018000089####
SAUK31 KWBC 081250 RRA
METAR
EGFF 081250Z 22007KT 180V260 9999 FEW030 21/11 Q1019=
####018000112####
SAUS42 KFFC 081300 COR
MTRMCN
METAR KMCN 081253Z 30005KT 10SM CLR 27/20 A3003 RMK AO2 SLP165 
T02670200
####018000304####
SAXX99 KWBC 081200 RRX
METAR
K8S0 081155Z 26006KT=
MMAN 081242Z 30008KT 15SM SCT040 SCT080 25/21 A2990 RMK 8/570=
MMLM 081243Z 00000KT 10SM SKC 25/21 A//// RMK ISOL AC HZY=
MMMV 081240Z 25005KT 8SM HZ BKN050 23/18 A2998 RMK 8/200=
MMPG 081244Z 03005KT 8SM BKN020 26/22 A2999 RMK 8/500 HZY=
####018000095####
SAAH39 OAHR 081255
METAR OAHR 081255Z 02011KT CAVOK 38/M02 Q1009 RMK SKC VIS MIN 9999 BLU=
####018000259####
SASQ51 LZIB 081300
METAR LZKC 081300Z 36008KT 300V080 CAVOK 23/09 Q1020=
METAR LZLU 081300Z 19004KT 9999 FEW060 25/11 Q1021=
METAR LZNI 081300Z 33008KT 280V070 9999 FEW070 26/08
Q1021=
METAR LZPE 081300Z 32005KT 230V360 9999 FEW056 25/09
Q1021=
####018000117####
SAUS41 KLWX 081300
MTRRYT
METAR KRYT 081253Z AUTO 00000KT 6SM HZ CLR 28/19 A3005 RMK AO2 
SLP157 T02830194 $
####018000088####
SAHA31 MTPP 081300
METAR MTPP 081300Z 09010KT 7000 FEW024 SCT200 29/24 Q1015 A2999=
####018002308####
SAUS20 KNKA 081300
METAR KAWG 081255Z AUTO 35007KT 10SM CLR 22/20 A3008 RMK AO2=
METAR KAXA 081255Z AUTO 35003KT 10SM CLR 20/17 A3015 RMK AO2=
METAR KBJC 081252Z 34008KT 8SM BKN006 BKN025 13/10 A3033=
METAR KBNW 081255Z AUTO 34007G17KT 10SM CLR 21/17 A3014 RMK AO2=
METAR KBTR 081253Z 06006KT 6SM BR BKN003 OVC007 25/24 A3004 RMK
     AO2 SLP170 T02500239=
METAR KBWD 081255Z AUTO 08006KT 10SM FEW050 24/23 A3004 RMK AO2 =
METAR KCAE 081256Z 32004KT 10SM CLR 29/21 A3000 RMK AO2 SLP155
     T02940206=
METAR KCAV 081255Z AUTO 35005KT 10SM CLR 21/18 A3013 RMK AO2=
METAR KCBF 081255Z AUTO 01007KT 10SM CLR 20/16 A3016 RMK AO2=
METAR KCCY 081255Z AUTO 35006KT 10SM CLR 21/17 A3011 RMK AO2=
METAR KCIN 081255Z AUTO 35006KT 10SM CLR 19/16 A3016 RMK AO2=
METAR KCNC 081255Z AUTO 36007KT 10SM CLR 21/18 A3010 RMK AO2=
METAR KCSQ 081255Z AUTO 02012KT 10SM CLR 22/20 A3013 RMK AO2=
METAR KDAB 081253Z 33003KT 10SM FEW024 SCT250 27/21 A3002 RMK AO2
     SLP164 T02670206 $=
METAR KDEH 081255Z AUTO 35004KT 10SM CLR 22/18 A3011 RMK AO2=
METAR KDNS 081255Z AUTO 02003KT 10SM CLR 20/16 A3018 RMK AO2=
METAR KEOK 081255Z AUTO 00000KT 10SM SCT005 23/20 A3007 RMK AO2=
METAR KETB 081254Z AUTO 27006KT 10SM OVC009 22/20 A3003 RMK AO2 
     T02220202=
METAR KFFL 081255Z AUTO 35007KT 10SM CLR 22/21 A3008 RMK AO2=
METAR KFSD 081256Z 00000KT 10SM R03/5500VP6000FT CLR 19/16 A3017
     RMK AO2 SLP212 SCT ABV 120 T01890156=
METAR KFSW 081255Z AUTO 33004KT 7SM OVC004 23/21 A3006 RMK AO2=
METAR KFWA 081254Z COR 20003KT 8SM FEW060 SCT250 27/21 A3006 RMK
     AO2 SLP172 T02720211=
METAR KFXY 081255Z AUTO 34007KT 10SM CLR 19/16 A3013 RMK AO2=
METAR KHSA 081251Z 04004KT 7SM CLR 25/25 A3004=
METAR KJZI 081255Z AUTO 30007KT 10SM CLR 28/24 A2997 RMK A02 P000 
     =
METAR KNTU 081256Z 07007KT 10SM SCT015 BKN050 BKN100 26/22 A2999
     RMK AO2 SLP156 T02610222 $=
METAR KPVU 081250Z 14010KT 15SM BKN120  18/07 A3016=
SPECI KPWK 081259Z 24003KT 4SM -RA BR FEW006 BKN019 OVC029 24/22 
    A3004 RMK AO2 RAB54 P0000=
SPECI KRAC 081259Z AUTO 27005KT 7SM BKN010 BKN016 OVC080 24/22 A3004 
    RMK AO2=
METAR KROA 081254Z 01004KT 6SM HZ FEW085 29/18 A3010 RMK AO2
     SLP176 T02940178=
METAR KSPF 081255Z AUTO 00000KT 10SM CLR 13/10 A3030 RMK AO2 =
####018000419####
SAUK38 EGGY 081250
METAR EGEC 081250Z 24010KT 9999 FEW024 SCT036 16/10 Q1013=
METAR EGPA 081250Z 21014KT 9999 VCSH FEW020CB SCT045 18/11 Q1008=
METAR EGPC 081250Z 20012KT 9999 VCSH FEW020 15/13 Q1009=
METAR EGPL 081250Z 22021KT 9999 VCSH FEW018 16/11 Q1008=
METAR COR EGPM 081250Z 23027KT 9999 FEW026 16/09 Q1006 NOSIG=
METAR EGPO 081250Z 23024KT 9999 FEW024 SCT032 18/10 Q1007=
METAR EGPU 081250Z NIL=
####018000077####
SALY31 HLLB 081300
METAR HLLB 081250Z 
33022KT 9999 FEW025 31/17 Q1016=
####018000704####
SANL33 EHDB 081255
METAR EHAK 081255Z AUTO 21011KT 9999NDV 17/13 Q1017=
METAR EHDV 081255Z NIL=
METAR EHFD 081255Z AUTO 23013KT 9999NDV SCT024/// BKN028/// BKN037///
17/16 Q1018=
METAR EHFZ 081255Z AUTO 22009KT 9999NDV BKN035/// BKN040/// 17/15
Q1018=
METAR EHJA 081255Z AUTO 24011KT 9999NDV 16/13 Q1018=
METAR EHJR 081255Z NIL=
METAR EHKV 081255Z AUTO 22010KT 9999NDV BKN029/// 17/15 Q1019=
METAR EHMA 081255Z AUTO 25009KT 9999NDV 21/17 Q1019=
METAR EHMG 081255Z AUTO 23011KT 9999NDV 17/15 Q1018=
METAR EHPG 081255Z AUTO 22011KT 180V240 9999NDV ///////// 16/15
Q1019=
METAR EHQE 081255Z AUTO 22010KT 9999NDV 16/15 Q1019=
METAR EHSA 081255Z NIL=
METAR EHSC 081255Z NIL=
####018000475####
SAUK37 EGGY 081250
METAR EGAE 081250Z 23013KT 9999 FEW020 SCT040 19/09 Q1012=
METAR EGNC 081250Z 24016KT 210V270 9999 FEW020 SCT035 18/09 Q1015=
METAR EGNH 081250Z 24012KT 9999 FEW030 19/11 Q1017=
METAR EGNJ 081250Z 23011KT 190V270 9999 SCT040 22/10 Q1017=
METAR EGNR 081250Z 27008KT 230V320 9999 SCT040 21/10 Q1017=
METAR EGPE 081250Z 23019KT 9999 VCSH FEW015 SCT034 19/10 Q1009=
METAR EGPI 081250Z NIL=
METAR EGPN 081250Z 23019KT 9999 SCT045 18/10 Q1012=
####018000081####
SAMP31 LMMM 081300 RRB
METAR HLLB 081250Z
33022KT 9999 FEW025 31/17 Q1016=
####018000079####
SAUK38 EGGY 081250 RRA
METAR EGPU 081250Z 23020KT 9999 SCT023 16/12 Q1010=
####018000081####
SAMP31 LMMM 081300 RRB
METAR HLLB 081250Z 
33022KT 9999 FEW025 31/17 Q1016=
####018000079####
SAUK37 EGGY 081250 RRA
METAR EGPI 081250Z 22014KT 9999 FEW022 17/11 Q1013=
####018000538####
SAUK36 EGGY 081250
METAR EGBE 081250Z NIL=
METAR EGBJ 081250Z 22006G16KT 020V270 9999 FEW035 22/09 Q1018=
METAR EGCN 081250Z 25011KT 220V280 9999 SCT048 23/09 Q1017=
METAR EGDL 081250Z 20007KT 9999 FEW035 BKN220 22/10 Q1018 NOSIG=
METAR EGSC 081250Z 21007KT 160V270 9999 SCT035 23/14 Q1018=
METAR COR EGSD 081250Z 23007KT 9999 BKN025 24/18 Q1018 NOSIG=
METAR COR EGSH 081250Z 26007KT 210V310 9999 SCT023 24/15 Q1018
    NOSIG=
METAR EGVN 081250Z NIL=
METAR EGWU 081250Z 24008KT 9999 SCT032 BKN250 23/14 Q1018 NOSIG=
####018000080####
SAMP31 LMMM 081300 RRB
METAR HLLB 081250Z
33022KT 9999 FEW025 31/17 Q1016=
####018000407####
SAPK31 OPKC 081300
METAR OPGD 081300Z NIL=
METAR OPKC 081300Z 24009KTS 8000 SCT030 SCT100 34/24 Q1002 NOSIG=
METAR OPLA 081300Z NIL=
METAR OPNH 081300Z 36005KT 6000M SCT035 SCT100 36/24 Q.1001=
METAR OPPS 081255Z NE-12KTS 6000 HZ FEW040 FEW100 38/24 Q1001.7=
METAR OPRN 081300Z 23014KT 9999 SCT040 39/18 Q1004.0=
METAR OPSK 081255Z 13006KTS 2500 HZ SCT040 SCT100 34/24 QNH 1001 R.H.
56PC=
####018000243####
SPNA14 KAWN 081300 RRI
SPECI KSKF 081253Z 03007KT 10SM BKN012 BKN019 25/ A2993 RMK AO2A RAE1157B1232E1233DZB1222E1232
      CIG 010V016 SLP126 $=
SPECI KTIK 081256Z AUTO 33004KT 10SM BKN007 BKN035 24/23 A3006 RMK
      AO2 SLP168 $=
####018000179####
SPUS17 KAWN 081300 RRI
SPECI KHLR 081252Z AUTO 09003KT 9SM OVC007 26/ A3001 RMK AO2 T0256
      $=
SPECI KIAB 081259Z AUTO 03008KT 10SM SCT008 22/21 A3011 RMK AO2 SLP185=
####018001588####
SAXN17 KAWN 081300 RRB
METAR MMEP 081253Z 00000KT 4SM BKN003 OVC009 22/21 A2999 RMK 8/8//
      BR ARND=
METAR MMGL 081251Z 00000KT 10SM FEW010 BKN080 OVC300 19/16 A3003 RMK
      8/577=
METAR MMLO 081248Z 00000KT 7SM BKN025 BKN070 OVC200 18/18 A3012 RMK
      8/577 HZY BINOVC=
METAR MMML 081253Z 15010KT 10SM SKC 22/// A2970=
METAR MMMT 081259Z RTD 24010KT 10SM BKN020 OVC100 24/22 A2979 RMK 8/57/=
METAR MMMZ 081248Z 36004KT 8SM FEW015 BKN025 OVC070 26/22 A2976 RMK
      8/47/=
METAR MMPR 081250Z 00000KT 10SM BKN025 OVC080 25/24 A2980 RMK 8/57/=
METAR MMSP 081246Z 00000KT 7SM SCT010 BKN015 BKN080 17/17 A3013 RMK
      8/550 HZY MSGTX MMMM=
METAR MNMG 081300Z 27006KT 9000 FEW015 SCT018 24/23 Q1011 A2988 REDZ
      CBRA/NW/N/NE/SE/CB/SW/W/E=
METAR MPTO 081300Z 07005KT 9999 SCT018 27/25 Q1011 NOSIG=
METAR MYGF 081300Z 08006KT 9999 FEW015CB 29/25 A2998 RMK CB S /=
METAR PACZ 081255Z AUTO 05008KT 10SM 11/08 A3003 RMK AO1 T01060084=
METAR PAED 081255Z AUTO 00000KT 10SM -RA FEW003 BKN075 BKN090 BKN100
      12/11 A2997 RMK AO2 RAB1208E1209B1239DZB1209E1219B1238E1239
      SLP151 P0000 T01180106 $=
METAR PASY 081256Z AUTO 02014KT 7SM OVC002 A2974 RMK AO2 SLPNO TSNO
      PNO=
METAR PTRO 081257Z 06007KT 13SM TS BKN016CB BKN120 OVC300 26/24 A2991
      RMK OCNL LTGCA SE-S TS SE MOV W CB VC ALQDS=
METAR PWAK 081255Z 07013KT 6SM BR SKC 27/26 A2998 RMK AO2A=
METAR RJOI 081300Z 00000KT 9000 HZ SCT045 BKN120 OVC230 27/23 A2983
      RMK SLP100 T02670228=
METAR TBPB 081300Z 08020KT 9999 SCT020 BKN280 31/25 Q1014 NOSIG=
####018001220####
SPZZ40 KAWN 081300 RRL
SPECI BGTL 081254Z AUTO 26005KT 9999 FEW001 05/05 A2982 RMK AO2 SLP103=
SPECI CYBC 081256Z AUTO 12003KT 8SM OVC002 13/13 A3003=
SPECI CYNA 081254Z AUTO 09009G15KT 9SM OVC005 OVC051 OVC056 15/12 A3004=
SPECI CYPH 081253Z AUTO 24011KT 1 1/8SM OVC001 08/08 A2981=
SPECI CYPH 081255Z AUTO 24012KT 1SM OVC001 08/08 A2981=
SPECI CYPH 081256Z AUTO 24012KT 5/8SM OVC001 08/08 A2981=
SPECI CYYD 081258Z AUTO 00000KT 9SM CLR 09/08 A3011 RMK SLP200=
SPECI EGVA 081256Z AUTO 24008KT 9999 FEW100 SCT180 BKN210 22/09 A3006
      RMK AO2 DZE1256 SLP179=
SPECI KHLR 081252Z AUTO 09003KT 9SM OVC007 26/ A3001 RMK AO2 T0256
      $=
SPECI KIAB 081259Z AUTO 03008KT 10SM SCT008 22/21 A3011 RMK AO2 SLP185=
SPECI KSKF 081253Z 03007KT 10SM BKN012 BKN019 25/ A2993 RMK AO2A RAE1157B1232E1233DZB1222E1232
      CIG 010V016 SLP126 $=
SPECI KTIK 081256Z AUTO 33004KT 10SM BKN007 BKN035 24/23 A3006 RMK
      AO2 SLP168 $=
SPECI RJTE 081250Z 20007KT 150V240 6000 SHRA FEW006 FEW015CB BKN020
      OVC040 24/22 Q1011 RMK 2ST006 1CB015 5CU020 8SC040 A2987 FBL
      LIGHTNING 25KM SW MOV NE=
SPECI RJTJ 081246Z 15002KT 9999 FEW050 BKN130 25/21 Q1010 RMK 1SC050
      5AC130 A2984=
####018000139####
SPXX70 KAWN 081200 RRC
SPECI KQAY 081254Z AUTO 01018G26KT 4200 HZ SCT023 BKN028 48/M01 A2949
      RMK AO2 PK WND 36026/1200 SLP981=
####018000094####
SPCN51 CWAO 081259
SPECI CZCP 081259Z AUTO 28022KT 9SM OVC005 OVC013 OVC024 03/ A2987=

####018000102####
SAAH10 OAKN 081300
METAR OAKN 081250Z 25007KT 9999 FEW150 41/04 Q1006 BLU NOSIG RMK A2972 DA7200=
####018000079####
SANO38 ENMI 081250 RRA
METAR ENOA 081250Z 19023KT 9999 FEW045 13/11 Q1011=
####018000060####
SAUS45 KTFX 081300
MTR8S0
METAR K8S0 081155Z 26006KT 
####018001488####
SANA14 KAWN 081300 RRB
METAR KNFG 081256Z AUTO 00000KT 9SM OVC011 16/14 A2991 RMK AO2 SLP128
      T01560139 TSNO=
METAR KNGP 081256Z VRB04KT 10SM FEW010 SCT021CB BKN033 28/25 A2983
      RMK AO2 RAE31 SLP101 CB DSNT SE TCU DSNT S-SW WR// VCSH W-NW
      P0002 T02770252=
METAR KNKX 081255Z 00000KT 10SM -RA OVC010 16/14 A2991 RMK AO2 RAB53
      CIG 005V011 SLP123 P0000 T01560139=
METAR KNMM 081256Z 35003KT 10SM FEW250 28/22 A3007 RMK AO2 SLP188 T02780217=
METAR KNUW 081256Z 00000KT 10SM CLR 16/10 A2997 RMK AO2 SLP154 T01630098
      $=
METAR KNXP 081256Z AUTO 28007KT CLR 23/00 A2994 RMK AO2 SLP099 T02280000
      $=
METAR KNXX 081256Z 13008KT 5SM HZ FEW045 27/22 A3006 RMK AO2 SLP182
      T02720217 $=
METAR KNYG 081256Z 00000KT 6SM HZ FEW090 BKN200 28/23 A3002 RMK AO2
      SLP166 T02780228=
METAR KNYL 081255Z AUTO 00000KT 10SM CLR 27/M03 A2974 RMK AO2 SLP065
      T02671033=
METAR KPOE 081255Z AUTO 08006KT 10SM CLR 25/23 A3004 RMK AO2 SLP171
      T02500233 $=
METAR KRCA 081255Z 00000KT 25SM CLR 14/10 A3025 RMK AO2A SLP233 T01430102
      $=
METAR KRDR 081255Z 31005KT 10SM CLR 18/15 A3007 RMK AO2A SLP192 T01790147
      $=
METAR KSKF 081255Z 03006KT 7SM BKN015 BKN045 25/24 A2993 RMK AO2A SLP126
      P0000 T02540240 $=
METAR KVBG 081255Z AUTO 33006KT 10SM OVC004 12/11 A2994 RMK AO2 SLP130
      T01170111 TSNO $=
METAR KVPS 081255Z COR 34002KT 10SM CLR 27/24 A3004 RMK SLP173 T02660237
      $ COR 1258=
####018001547####
SAZZ40 KAWN 081300 RRJ
METAR KCOF 081255Z 03006KT 10SM CLR 28/21 A3000 RMK AO2A SLP160 T0277=
METAR KCVS 081255Z 04012KT 10SM FEW010 BKN190 17/15 A3023 RMK AO2A
      SLP199 T01700150 $=
METAR KHUA 081255Z 01007KT 12SM SKC 29/23 A3012 RMK AO2A SLP187 T02850000
      $=
METAR KNBC 081256Z 29007KT 6SM HZ CLR 27/20 A2999 RMK AO2 SLP156 T02720200
      PNO $=
METAR KNGP 081256Z VRB04KT 10SM FEW010 SCT021CB BKN033 28/25 A2983
      RMK AO2 RAE31 SLP101 CB DSNT SE TCU DSNT S-SW WR// VCSH W-NW
      P0002 T02770252=
METAR KNID 081256Z 00000KT 10SM CLR 18/03 A2988 RMK AO2 SLP096 T01830028
      $=
METAR KNJK 081256Z 00000KT 10SM CLR 23/14 A2972 RMK AO2 SLP078 T02330144=
METAR KNLC 081256Z AUTO 31008KT 10SM CLR 17/10 A2984 RMK AO2 SLP103
      T01670100 TSNO $=
METAR KNRS 081256Z AUTO 29005KT 10SM OVC016 17/13 A2991 RMK AO2 SLP128
      T01670133 TSNO $=
METAR KNTU 081256Z 07007KT 10SM SCT015 BKN050 BKN100 26/22 A2999 RMK
      AO2 SLP156 T02610222 $=
METAR KNUQ 081256Z AUTO 03003KT 10SM OVC011 15/12 A2993 RMK AO2 SLP138
      T01500122 TSNO=
METAR KVPS 081255Z COR 34002KT 10SM CLR 27/24 A3004 RMK SLP173 T02660237
      $ COR 1258=
METAR OAMS 081250Z 35006KT 9999 SKC 42/M01 Q1005 BLU/=
METAR ORER 081300Z 23007KT CAVOK 43/M04 Q1004=
METAR PASY 081256Z AUTO 02014KT 7SM OVC002 A2974 RMK AO2 SLPNO TSNO
      PNO=
METAR SADF 081300Z 29002KT CAVOK 09/04 Q1019=
METAR SVJC 081300Z 09009KT 9999 FEW030 27/25 Q1012=
METAR TBPB 081300Z 08020KT 9999 SCT020 BKN280 31/25 Q1014 NOSIG=
####018000124####
SAUS44 KBMX 081300 COR
MTRLOR
METAR KLOR 081253Z AUTO 00000KT 10SM CLR 25/22 A3003 RMK AO2 SLP165 
T02500217 TSNO $
####018000759####
SAAK41 KNKA 081300
METAR PADM 081301Z AUTO 05005KT 10SM SCT065 OVC095 09/08 A3004 RMK 
    AO2 TSNO T00940077 OVC V BKN SLP159 $=
METAR PADU 081258Z AUTO 11015G27KT 080V140 10SM OVC021 08/04 A2977 
    RMK AO2 PK WND 10029/1229 RAB22E37 SLP088 P0000 T00830044=
METAR PAGA 081258Z AUTO 00000KT 10SM CLR 10/08 A3006 RMK AO2 SLP225 
    T01000078=
METAR PAJZ 081256Z AUTO 31003KT 10SM CLR 08/08 A2999 RMK AO2 PWINO 
    TSNO T00830077 SLP145 $=
METAR PAKI 081256Z AUTO 36005KT 1/4SM FG CLR 06/06 A3000 RMK AO2 
    PWINO TSNO T00610061 SLP161 $=
METAR PALG 081256Z AUTO 00000KT 9SM FEW065 07/07 A2999 RMK AO2 TSNO 
    T00720066 SLP159=
METAR PARY 081256Z AUTO 36006KT 10SM CLR 14/06 A3005 RMK AO2 PWINO 
    TSNO T01440061 SLP179=
####018000117####
SARH32 LDZM 081300
METAR LDLO 081300Z 31011KT CAVOK 28/10 Q1021=
METAR LDSB 081300Z VRB02KT CAVOK 24/11 Q1021=
####018000122####
SAUS41 KLWX 081300 COR
MTRNAK
METAR KNAK 081254Z AUTO 13008KT 5SM HZ 27/22 A3002 RMK AO2 SLP167 
T02720222 TSNO $
####018000089####
SASG20 GOOY 081300
METAR GOOY 081300Z 16009KT 120V210 9999 SCT013 31/25 Q1012 NOSIG=
####018000077####
SARE03 FMEE 081300
METAR
FMEP 081300Z 12029KT 9999 FEW021 23/14 Q1020=
####018000143####
SAPY SGAS 081300
METAR SGAS 081300Z 14007KT 9000 BKN010 OVC015 17/15 Q1016=
METAR SGES 081300Z 15007KT 9999  FEW030 BKN080 18/16  Q1016=
####018000207####
SABO SLLP 081300
METAR SLLP 081300Z VRB02KT 9999 FEW015 04/M04 Q1038=
METAR SLCB 081300Z 15003KT 4000E FU FEW027 SCT200 14/08 Q1027=
METAR SLVR 081300Z 17012KT 9999 FEW025 BKN070 BKN200 20/16 Q1017=
####018000145####
SAPY59 SGAS 081300
METAR SGAS 081300Z 14007KT 9000 BKN010 OVC015 17/15 Q1016=
METAR SGES 081300Z 15007KT 9999  FEW030 BKN080 18/16  Q1016=
####018000209####
SABO59 SLLP 081300
METAR SLLP 081300Z VRB02KT 9999 FEW015 04/M04 Q1038=
METAR SLCB 081300Z 15003KT 4000E FU FEW027 SCT200 14/08 Q1027=
METAR SLVR 081300Z 17012KT 9999 FEW025 BKN070 BKN200 20/16 Q1017=
####018000122####
SAMH31 PKWA 081300
METAR PKWA 081300Z AUTO 15008KT 10SM -DZ SCT010 BKN047 OVC065 26/23 A2983 RMK AO2 P0003 T02600232=
####018000106####
SAUS44 KSJT 081300
MTRJCT
SPECI KJCT 081259Z AUTO 00000KT 5SM BR FEW004 23/22 A3003 RMK AO2 
TSNO
####018000294####
SPUS99 KWBC 081301
SPECI
KDFW 081259Z 00000KT 5SM -RA BR BKN027 BKN043 OVC070 26/24 A3003
     RMK AO2 P0000=
KPWK 081259Z 24003KT 4SM -RA BR FEW006 BKN019 OVC029 24/22 A3004
     RMK AO2 RAB54 P0000=
KRAC 081259Z AUTO 27005KT 7SM BKN010 BKN016 OVC080 24/22 A3004 RMK
     AO2=
####018003699####
SAUS99 KWBC 081301
METAR
KJQF 081255Z 36005KT 10SM SCT100 29/17 A3002=
KMEI 081258Z 33006KT 10SM CLR 26/23 A3007 RMK AO2 SLP178
     T02610233=
KY50 081256Z AUTO 31005KT 5SM BR BKN009 OVC013 22/22 A3004 RMK AO2
     T02160216 CIG 006V011 SLP164 $=
TUPJ 081300Z 11011KT 9999 SCT021 28/24 A3001 RMK=
KFPK 081256Z AUTO 00000KT 7SM CLR 25/21 A3004 RMK AO2=
KMOP 081255Z AUTO 26005KT 10SM BKN060 BKN075 OVC120 23/23 A3002
     RMK AO2=
KCAD 081254Z AUTO 24006KT 4SM RA SCT006 BKN050 OVC080 22/21 A3005
     RMK AO2=
KMGN 081255Z AUTO 26005KT 4SM DZ OVC010 21/20 A3000 RMK AO2=
KHAI 081255Z AUTO 00000KT 10SM CLR 25/22 A3004 RMK AO2=
KLWA 081256Z AUTO 00000KT 10SM SCT048 BKN085 BKN110 23/21 A3003
     RMK AO2=
KDRM 081256Z AUTO 23005KT 4SM -RA BKN010 OVC019 21/21 A2998 RMK
     AO2=
KVLL 081254Z AUTO 25005KT 10SM CLR 29/19 A3005 RMK AO2=
KCFS 081255Z AUTO 00000KT 10SM CLR 26/21 A3002 RMK AO2=
KOZW 081255Z AUTO 00000KT 10SM SCT050 SCT070 26/21 A3005 RMK
     AO2=
KRNP 081255Z AUTO 20004KT 10SM CLR 26/21 A3004 RMK AO2=
KDUH 081255Z AUTO 00000KT 10SM CLR 28/20 A3004 RMK AO2=
KJYM 081255Z AUTO 00000KT 10SM CLR 26/21 A3008 RMK AO2=
KBAX 081255Z AUTO 25004KT 7SM CLR 26/23 A3001 RMK AO2=
KIRS 081255Z AUTO 10005KT 10SM CLR 26/22 A3004 RMK AO2=
KACB 081255Z AUTO 00000KT 5SM DZ OVC011 23/22 A3001 RMK AO2=
KRQB 081255Z AUTO 00000KT 2SM +RA SCT013 BKN028 OVC055 22/21 A3004
     RMK AO2 VIS 1V4=
KOEB 081255Z AUTO 09003KT 7SM CLR 26/22 A3006 RMK AO2=
K4I3 081256Z AUTO 00000KT 7SM CLR 25/21 A3010 RMK AO2=
KAUM 081255Z AUTO 34007KT 10SM CLR 19/17 A3011 RMK AO2=
KFFX 081255Z AUTO 17003KT 4SM BR SCT002 OVC065 23/22 A3002 RMK
     AO2=
KCNB 081258Z AUTO 25008KT 10SM CLR 20/14 A3014 RMK AO2
     T01990143=
KCKN 081255Z AUTO 28004KT 10SM CLR 17/14 A3007 RMK AO2=
KCFE 081255Z AUTO 26005KT 10SM CLR 20/16 A3013 RMK AO2
     T01960164=
KCQM 081257Z AUTO 24005KT 10SM CLR 18/15 A3004 RMK AO2=
KDTL 081255Z AUTO 29004KT 10SM CLR 18/12 A3011 RMK AO2=
KBDH 081255Z AUTO 27003KT 10SM CLR 18/16 A3014 RMK AO2=
KCBG 081255Z AUTO 26005KT 10SM CLR 19/16 A3009 RMK AO2=
KADC 081257Z AUTO 27005KT 10SM CLR 17/14 A3010 RMK AO2=
KHAF 081250Z AUTO 00000KT 8SM OVC006 12/10 A2994 RMK AO2=
KCKC 081255Z AUTO 26004KT 10SM CLR 19/14 A3004 RMK AO2=
KJYG 081255Z AUTO 00000KT 10SM CLR 20/19 A3015 RMK AO2=
KCOQ 081256Z AUTO 27008KT 10SM CLR 19/18 A3007 RMK AO2=
KACQ 081259Z AUTO 32005KT 10SM CLR 17/16 A3015 RMK AO2=
KRGK 081255Z AUTO 29004KT 10SM CLR 20/17 A3010 RMK AO2=
KFSE 081254Z AUTO 22004KT 10SM CLR 16/13 A3007 RMK AO2=
KY70 081255Z AUTO 24004KT 5SM HZ SCT006 25/23 A3004 RMK AO2
     T02470225=
KUKT 081255Z AUTO 00000KT 8SM CLR 28/22 A3006 RMK AO1=
KAWG 081255Z AUTO 35007KT 10SM CLR 22/20 A3008 RMK AO2=
KAXA 081255Z AUTO 35003KT 10SM CLR 20/17 A3015 RMK AO2=
KBJC 081252Z 34008KT 8SM BKN006 BKN025 13/10 A3033=
KBNW 081255Z AUTO 34007G17KT 10SM CLR 21/17 A3014 RMK AO2=
KBTR 081253Z 06006KT 6SM BR BKN003 OVC007 25/24 A3004 RMK AO2
     SLP170 T02500239=
KBWD 081255Z AUTO 08006KT 10SM FEW050 24/23 A3004 RMK AO2=
KCAE 081256Z 32004KT 10SM CLR 29/21 A3000 RMK AO2 SLP155
     T02940206=
KCAV 081255Z AUTO 35005KT 10SM CLR 21/18 A3013 RMK AO2=
KCBF 081255Z AUTO 01007KT 10SM CLR 20/16 A3016 RMK AO2=
KCCY 081255Z AUTO 35006KT 10SM CLR 21/17 A3011 RMK AO2=
KCIN 081255Z AUTO 35006KT 10SM CLR 19/16 A3016 RMK AO2=
KCNC 081255Z AUTO 36007KT 10SM CLR 21/18 A3010 RMK AO2=
KCSQ 081255Z AUTO 02012KT 10SM CLR 22/20 A3013 RMK AO2=
KDAB 081253Z 33003KT 10SM FEW024 SCT250 27/21 A3002 RMK AO2 SLP164
     T02670206 $=
KDEH 081255Z AUTO 35004KT 10SM CLR 22/18 A3011 RMK AO2=
####018000078####
SANO38 ENMI 081250 RRA
METAR ENOA 081250Z 19023KT 9999 FEW045 13/11 Q1011=
####018000162####
SAGY31 SYCJ 081300
METAR SYCJ  081300Z 10010KT 9999 BKN019 SCT300 30/26 Q1009 JP SW AND 
N-NE TEMPO SHRA SHRA=

SYGO 1300Z 10010KT 9999 BKN018 30/24 Q1012=
####018003646####
SAUS99 KWBC 081301 RRA
METAR
KDNS 081255Z AUTO 02003KT 10SM CLR 20/16 A3018 RMK AO2=
KEOK 081255Z AUTO 00000KT 10SM SCT005 23/20 A3007 RMK AO2=
KETB 081254Z AUTO 27006KT 10SM OVC009 22/20 A3003 RMK AO2
     T02220202=
KFFL 081255Z AUTO 35007KT 10SM CLR 22/21 A3008 RMK AO2=
KFSD 081256Z 00000KT 10SM R03/5500VP6000FT CLR 19/16 A3017 RMK AO2
     SLP212 SCT ABV 120 T01890156=
KFSW 081255Z AUTO 33004KT 7SM OVC004 23/21 A3006 RMK AO2=
KFWA 081254Z COR 20003KT 8SM FEW060 SCT250 27/21 A3006 RMK AO2
     SLP172 T02720211=
KFXY 081255Z AUTO 34007KT 10SM CLR 19/16 A3013 RMK AO2=
KHSA 081251Z 04004KT 7SM CLR 25/25 A3004=
KJZI 081255Z AUTO 30007KT 10SM CLR 28/24 A2997 RMK A02 P000=
KNTU 081256Z 07007KT 10SM SCT015 BKN050 BKN100 26/22 A2999 RMK AO2
     SLP156 T02610222 $=
KPVU 081250Z 14010KT 15SM BKN120 18/07 A3016=
KROA 081254Z 01004KT 6SM HZ FEW085 29/18 A3010 RMK AO2 SLP176
     T02940178=
KSPF 081255Z AUTO 00000KT 10SM CLR 13/10 A3030 RMK AO2=
KCVX 081255Z AUTO 23005KT 3SM -RA SCT004 BKN010 OVC050 21/20 A3002
     RMK AO2=
KFKS 081255Z AUTO 26003KT 4SM BR BKN004 21/20 A3001 RMK AO2=
KSLH 081255Z AUTO 24005KT 5SM -RA SCT009 BKN029 OVC047 22/21 A2998
     RMK AO2=
KSJX 081255Z AUTO 25004KT 1/4SM FG OVC002 19/18 A2999 RMK AO2=
KLDM 081255Z AUTO 25004KT 5SM -RA OVC005 22/21 A3002 RMK AO2
     P0003=
KGOV 081255Z AUTO 25003KT 7SM -RA BKN048 OVC050 22/22 A3004 RMK
     AO2=
KPZQ 081255Z AUTO 25006KT 7SM DZ SCT050 SCT070 OVC090 22/20 A3000
     RMK AO2=
KHYX 081255Z AUTO 25004KT 10SM SCT085 SCT120 25/21 A3002 RMK
     AO2=
KPHN 081255Z AUTO 19004KT 10SM CLR 27/21 A3002 RMK AO2=
KONZ 081257Z AUTO 00000KT 10SM CLR 28/22 A3002 RMK AO2=
KISQ 081255Z AUTO 35006KT 10SM OVC004 20/18 A2999 RMK AO2=
KRMY 081255Z AUTO 00000KT 10SM CLR 25/22 A3005 RMK AO2=
KOSC 081254Z AUTO 23004KT 7SM SCT060 BKN075 BKN090 23/21 A3000 RMK
     AO2=
KTTF 081254Z AUTO 00000KT 10SM CLR 28/22 A3002 RMK AO2=
KAMN 081255Z AUTO 26003KT 7SM CLR 24/22 A3002 RMK AO2=
KMCD 081256Z AUTO 26004KT 1SM -RA OVC001 20/17 A3000 RMK AO2=
KERY 081255Z AUTO 32004KT 5SM BR OVC003 18/17 A3001 RMK AO2=
KDVP 081256Z AUTO 28004KT 10SM CLR 19/14 A3019 RMK AO2
     T01850140=
KCDD 081251Z AUTO 00000KT 10SM CLR 20/18 A3003 RMK AO2=
KFOZ 081253Z AUTO 24004KT 10SM CLR 17/16 A3006 RMK AO2=
KAQP 081253Z AUTO 25005KT 10SM CLR 17/17 A3011 RMK AO2=
KETH 081254Z AUTO 27004KT 10SM CLR 19/16 A3011 RMK AO2=
KXVG 081256Z AUTO 26004KT 10SM CLR 18/16 A3006 RMK AO2=
KORB 081254Z AUTO 27005KT 10SM CLR 17/14 A3001 RMK AO2=
KMZH 081251Z AUTO 28005KT 10SM CLR 18/16 A3006 RMK AO2=
KBFW 081253Z AUTO 31005KT 10SM CLR 22/16 A3002 RMK AO2=
KVWU 081251Z AUTO 26009KT 10SM CLR 19/14 A3004 RMK AO2=
KOWA 081254Z AUTO 33004KT 10SM CLR 18/17 A3011 RMK AO2=
KCDA 081255Z AUTO 00000KT 7SM CLR 26/21 A3010 RMK AO2=
KFKA 081303Z AUTO 35007KT 10SM CLR 20/18 A3011 RMK AO2
     T01970177=
PADM 081301Z AUTO 05005KT 10SM SCT065 OVC095 09/08 A3004 RMK AO2
     TSNO T00940077 OVC V BKN SLP159 $=
PADU 081258Z AUTO 11015G27KT 080V140 10SM OVC021 08/04 A2977 RMK
     AO2 PK WND 10029/1229 RAB22E37 SLP088 P0000 T00830044=
PAGA 081258Z AUTO 00000KT 10SM CLR 10/08 A3006 RMK AO2 SLP225
     T01000078=
PAJZ 081256Z AUTO 31003KT 10SM CLR 08/08 A2999 RMK AO2 PWINO TSNO
     T00830077 SLP145 $=
PAKI 081256Z AUTO 36005KT 1/4SM FG CLR 06/06 A3000 RMK AO2 PWINO
     TSNO T00610061 SLP161 $=
PALG 081256Z AUTO 00000KT 9SM FEW065 07/07 A2999 RMK AO2 TSNO
     T00720066 SLP159=
PARY 081256Z AUTO 36006KT 10SM CLR 14/06 A3005 RMK AO2 PWINO TSNO
     T01440061 SLP179=
####018000068####
SABZ23 SBCF 081300
METAR SBCF 081300Z 14006KT CAVOK 17/10 Q1024=
####018000069####
SABZ22 SBBR 081300
METAR SBBR 081300Z 07013KT CAVOK 21/09 Q1024 =
####018000286####
SACS31 MROC 081300
METAR
MRPV 081300Z 00000KT CAVOK 20/19 A3001 RMK BKN120
     DUST APCH RNY 09 WET RNY TEMPO 24004KT=
MRLB 081300Z 00000KT 9999 FEW005 SCT020 BKN100 23/23 A2988
     RMK LOW ST ARND=
MRLM 081300Z  21003KT 9999 -DZ BKN010 SCT090 24/22 A2988
     RMK RN DST N=
####018000096####
SAGB20 GBYD 081300

METAR GBYD 081300Z VRB03KT SCT012 FEWCB018 BKN120 30/27 Q1013 CB
S-NW=
####018000184####
SPJP44 KWBC 081301
SPECI
RJTE 081250Z 20007KT 150V240 6000 SHRA FEW006 FEW015CB BKN020
OVC040 24/22 Q1011 RMK 2ST006 1CB015 5CU020 8SC040 A2987 FBL
LIGHTNING 25KM SW MOV NE=
####018000110####
SPJP45 KWBC 081301
SPECI
RJTJ 081246Z 15002KT 9999 FEW050 BKN130 25/21 Q1010 RMK 1SC050
5AC130 A2984=
####018000097####
SPNT31 KWBC 081301
SPECI
BGTL 081254Z AUTO 26005KT 9999 FEW001 05/05 A2982 RMK AO2 SLP103=
####018000121####
SPXX61 KWBC 081301
SPECI
EGVA 081256Z AUTO 24008KT 9999 FEW100 SCT180 BKN210 22/09 A3006
RMK AO2 DZE1256 SLP179=
####018000451####
SAUS20 KNKA 081300
METAR KHOB 081250Z 01008KT 10SM SCT005 BKN012 BKN049 19/19 A3018=
SPECI KJLN 081259Z 00000KT 1SM VCTS BR BKN004 BKN017 OVC033 22/22 
    A3009 RMK AO2 P0003=
METAR KNFG 081256Z AUTO 00000KT 9SM OVC011 16/14 A2991 RMK AO2 SLP128
      T01560139 TSNO=
METAR KNMM 081256Z 35003KT 10SM FEW250 28/22 A3007 RMK AO2 SLP188 T02780217=
METAR KNXX 081256Z 13008KT 5SM HZ FEW045 27/22 A3006 RMK AO2 SLP182
      T02720217 $=
####018000397####
SASD31 OEJD 081300
METAR OEDF 081300Z 01015KT CAVOK 44/04 Q0998 NOSIG=
METAR OEDR 081300Z 04011KT 8000 SKC 41/13 Q0997 NOSIG=
METAR OEJN 081300Z 30014KT CAVOK 37/25 Q1001 NOSIG=
METAR OEMA 081300Z 08008KT 9999 SCT045 47/M04 Q1004 NOSIG=
METAR OERK 081300Z 01016KT 8000 BLDU SKC 43/M03 Q1006 NOSIG=
METAR OERY 081300Z 04015KT 5000 SA SKC 44/M02 Q1006 NOSIG=
METAR OYSN 081300Z NIL=
####018000101####
SAAJ31 UBBB 081300
UBBN 081300Z 14008KT 9999 NSC 39/07 Q1007 R14R/CLRD60
NOSIG RMK G/O QFE681=
####018000090####
SAUZ31 UTTT 081300
METAR UTTT 081300Z 00000MPS CAVOK 38/06 Q1009 R08R/CLRD70
NOSIG=
####018000092####
SASG20 GOOY 081300
METAR GOOY 081300Z 16009KT 120V210 9999 SCT013 31/25 Q1012 NOSIG=

####018000122####
SAUS45 KGJT 081301 COR
MTRRIL
METAR KRIL 081253Z AUTO 00000KT 10SM CLR 12/08 A3029 RMK AO2 SLP193 
T01220083 TSNO
####018000093####
SAZA42 FAJS 081300 RRA
METAR FAJS 081300Z 03008KT 350V070 9999 SCT045 17/02 Q1032 NOSIG=
####018000423####
SATU32 LTAA 081250
METAR LTAN 081250Z 20004KT 9999 SCT040 32/07 Q1009 NOSIG=
METAR LTAU 081250Z 26008KT 230V310 9999 SCT040 33/12 Q1009 NOSIG=
METAR LTBR 081250Z 32017G27KT 9999 SCT035TCU BKN100 25/18 Q1011 
TEMPO -TSRA=
METAR LTBU 081250Z 33010KT 9999 -SHRA SCT030TCU BKN100 18/15 Q1014=
METAR LTCC 081250Z 17008KT 130V210 CAVOK 41/02 Q1005 NOSIG=
METAR LTCE 081250Z VRB04KT 9999 SCT030 31/09 Q1016 NOSIG=
####018000092####
SARM31 LUKK 081300
METAR LUKK 081300Z 36009KT 9999 SCT035 26/16 Q1015 26CLRD65
NOSIG=
####018000094####
SAUK35 EGGY 081250 RRA
METAR EGLF 081250Z 28006KT 220V330 9999 SCT032 BKN038 23/05 Q1018=
####018000085####
SAPK31 OPKC 081300 RRA
METAR OPLA 081255Z 14007KT 6000 SCT040 37/23 Q1002 NOSIG=
####018000411####
SABU31 LBSM 081300
METAR LBSF 081300Z 29005MPS 260V320 9999 FEW030 BKN045 20/12
 Q1018 NOSIG=
METAR LBWN 081300Z 30006MPS 9999 FEW030 SCT045 22/17 Q1013
 NOSIG=
METAR LBBG 081300Z 30006MPS 260V340 9999 -RA BKN021 BKN033 18/16
 Q1014 NOSIG=
METAR LBPD 081300Z VRB02MPS 9999 -RA SCT035 OVC050 17/15 Q1017
 NOSIG=
METAR LBGO 081300Z 27003MPS 8000 -DZ SCT013 BKN030 OVC050 16/15
 Q1017 NOSIG=
####018001743####
SATU20 LTAA 081250
METAR LTAB 081250Z 05010KT 9999 TS FEW025CB BKN035 30/11 Q1008 TEMPO
-TSRA RMK RWY06 06010KT=
METAR LTAD 081250Z 08008KT 050V110 9999 TS FEW030CB BKN035 30/12 
Q1009 TEMPO 25015G25KT -TSRA RMK RWY29 07008KT 040V100=
METAR LTAE 081250Z 02005KT 9999 -TSRA FEW030CB BKN035 29/13 Q1009 
RETS BECMG TL1350 NSW RMK RWY21 04013KT=
METAR LTAG 081250Z 19013KT 9999 SCT035 31/20 Q1007 NOSIG=
METAR LTAH 081250Z 32006KT 240V360 9999 FEW025CB SCT035 30/10 Q1011 
RETS  RMK RWY13 VRB05KT=
METAR LTAN 081250Z 20004KT 9999 SCT040 32/07 Q1009 NOSIG RMK RWY19 
18008KT=
METAR LTAP 081250Z 03021KT 9999 SCT040 28/18 Q1009 NOSIG RMK RWY23 
02019KT=
METAR LTAT 081250Z 06006KT 9999 FEW040 38/01 Q1007 BECMG TL1400 
21015KT RMK RWY03 04006KT=
METAR LTAU 081250Z 26008KT 230V310 9999 SCT040 33/12 Q1009 NOSIG RMK 
RWY07 23008KT 190V270=
METAR LTBF 081250Z 36013KT 320V020 9999 SCT035 SCT100 25/15 Q1011 
NOSIG RMK RWY18 35013KT 300V020=
METAR LTBG 081250Z 36013KT 9999 SCT035 BKN100 21/15 Q1012 NOSIG RMK 
RWY18 35014KT=
METAR LTBI 081250Z 30018KT 9999 SCT035 SCT100 28/13 Q1010 TEMPO -TSRA
RMK RWY09 31016KT=
METAR LTBL 081250Z 28019KT 9999 FEW040 28/17 Q1010 NOSIG RMK RWY17 
30017KT=
METAR LTBQ 081250Z 04008KT 9999 FEW020CB BKN027 BKN080 24/19 Q1011 
RESHRA NOSIG RMK RWY09 05008KT=
METAR LTBR 081250Z 32017G27KT 9999 SCT035TCU BKN100 25/18 Q1011 TEMPO
-TSRA RMK RWY07 31011KT=
METAR LTBU 081250Z 33010KT 9999 -SHRA SCT030TCU BKN100 18/15 Q1014 
RMK RWY23
32011KT=
METAR LTCC 081250Z 17008KT 130V210 CAVOK 41/02 Q1005 NOSIG RMK RWY16 
21011KT=
METAR LTCE 081250Z VRB04KT 9999 SCT030 31/09 Q1016 NOSIG RMK RWY08R 
10004KT 030V150 RWY26R 01004KT 330V050 RWY08L VRB02KT=
####018000088####
SABR31 TBPB 081300
METAR TBPB 081300Z 08020KT 9999 SCT020 BKN280 31/25 Q1014 NOSIG=
####018000955####
SATU31 LTAA 081250
METAR LTAC 081250Z 06012KT 9999 FEW030CB SCT035 29/14 Q1010 TEMPO 
-TSRA=
METAR LTAF 081250Z /////KT 9999 SCT035 30/21 Q1007 NOSIG=
METAR LTAI 081250Z 19010KT 9999 SCT030 29/22 Q1007 NOSIG=
METAR LTAJ 081250Z 21009KT 150V260 CAVOK 37/11 Q1007 NOSIG=
METAR LTAZ 081250Z 11008KT 9999 FEW040 SCT100 34/11 Q1008=
METAR LTBA 081250Z 35022KT 9999 BKN035 23/16 Q1012 TEMPO 4000 -TSRA=
METAR LTBJ 081250Z 35018KT 9999 FEW030 30/13 Q1010 NOSIG=
METAR LTBS 081250Z 21012KT 9999 FEW030 31/20 Q1007 NOSIG=
METAR LTCF 081250Z 11011KT 080V140 9999 FEW035 29/08 Q1018=
METAR LTCG 081250Z 08006KT 9999 SCT035 28/22 Q1010 NOSIG=
METAR LTCI 081250Z 25007KT CAVOK 26/19 Q1016 NOSIG=
METAR LTCS 081250Z VRB05KT CAVOK 37/01 Q1009=
METAR LTFE 081250Z 26022KT 9999 FEW035 32/15 Q1008 NOSIG=
METAR LTFH 081250Z 05008KT 010V100 9999 SCT036 BKN100 27/23 Q1009 
NOSIG=
METAR LTFJ 081250Z 01017KT 9999 BKN030 23/17 Q1011 NOSIG=
####018000455####
SARH31 LDZM 081300
METAR LDSP 081300Z 23010KT 190V250 CAVOK 28/08 Q1019 NOSIG =
METAR LDPL 081300Z 24009KT 190V300 9999 FEW058 26/13 Q1021 NOSIG =
METAR LDDU 081300Z 30010KT 260V340 9999 FEW045 26/10 Q1018 NOSIG =
METAR LDZA 081300Z VRB03KT CAVOK 26/09 Q1021 NOSIG =
METAR LDZD 081300Z 30015KT 250V350 CAVOK 28/07 Q1020 =
METAR LDRI 081300Z VRB02KT 9999 FEW043 26/10 Q10210 NOSIG=
METAR LDOS 081300Z VRB05KT 9999 FEW033 25/08 Q1021 NOSIG=
####018000098####
SAIV20 DIAP 081300
METAR DIAP 081300Z 19006KT 160V240 8000 SCT012 BKN020 29/25 Q1014
NOSIG=
####018000124####
SAUS41 KAKQ 081301 COR
MTRRIC
METAR KRIC 081254Z 13007KT 5SM HZ FEW150 SCT250 28/22 A3000 RMK AO2 
SLP162 T02830222
####018000169####
SAEU KAWN 081200 RRX
METAR ENBL 081150Z 20012G22KT 9999 VCSH FEW025 SCT035TCU 15/08 Q1011=
METAR ENGM 081240Z 18017KT 9999 FEW017 SCT026 BKN055 17/13 Q1015 NOSIG=
####018000080####
SANC01 NWWW 081300
METAR NWWW 081300Z AUTO VRB02KT 9999NDV NCD 16/15 Q1016=
####018000124####
SAUS44 KMOB 081301 COR
MTR79J
METAR K79J 081256Z AUTO 00000KT 10SM CLR 28/22 A3003 RMK AO2 SLP165 
T02780222 TSNO $
####018001785####
SAEU KAWN 081300 RRJ
METAR EDLN 081250Z 26005KT 200V310 CAVOK 31/10 Q1019 RMK ATIS Q=
METAR EGAE 081250Z 23013KT 9999 FEW020 SCT040 19/09 Q1012=
METAR EGBJ 081250Z 22006G16KT 020V270 9999 FEW035 22/09 Q1018=
METAR EGEC 081250Z 24010KT 9999 FEW024 SCT036 16/10 Q1013=
METAR EGFF 081250Z 22007KT 180V260 9999 FEW030 21/11 Q1019=
METAR EGNC 081250Z 24016KT 210V270 9999 FEW020 SCT035 18/09 Q1015=
METAR EGNH 081250Z 24012KT 9999 FEW030 19/11 Q1017=
METAR EGNJ 081250Z 23011KT 190V270 9999 SCT040 22/10 Q1017=
METAR EGPA 081250Z 21014KT 9999 VCSH FEW020CB SCT045 18/11 Q1008=
METAR EGPC 081250Z 20012KT 9999 VCSH FEW020 15/13 Q1009=
METAR EGPE 081250Z 23019KT 9999 VCSH FEW015 SCT034 19/10 Q1009=
METAR EGPL 081250Z 22021KT 9999 VCSH FEW018 16/11 Q1008=
METAR COR EGPM 081250Z 23027KT 9999 FEW026 16/09 Q1006 NOSIG=
METAR EGPN 081250Z 23019KT 9999 SCT045 18/10 Q1012=
METAR EGPO 081250Z 23024KT 9999 FEW024 SCT032 18/10 Q1007=
METAR EGPU 081250Z 23020KT 9999 SCT023 16/12 Q1010=
METAR EGSC 081250Z 21007KT 160V270 9999 SCT035 23/14 Q1018=
METAR COR EGSH 081250Z 26007KT 210V310 9999 SCT023 24/15 Q1018 NOSIG=
METAR ENOA 081250Z 19023KT 9999 FEW045 13/11 Q1011=
METAR GVAC 081300Z 08010KT 9999 BKN014 BKN018 25/20 Q1014 NOSIG=
METAR LBSF 081300Z 29005MPS 260V320 9999 FEW030 BKN045 20/12 Q1018
      NOSIG=
METAR LBWN 081300Z 30006MPS 9999 FEW030 SCT045 22/17 Q1013 NOSIG=
METAR LDDU 081300Z 30010KT 260V340 9999 FEW045 26/10 Q1018 NOSIG=
METAR LDPL 081300Z 24009KT 190V300 9999 FEW058 26/13 Q1021 NOSIG=
METAR LDRI 081300Z VRB02KT 9999 FEW043 26/10 Q10210 NOSIG=
METAR LDSP 081300Z 23010KT 190V250 CAVOK 28/08 Q1019 NOSIG=
METAR LDZA 081300Z VRB03KT CAVOK 26/09 Q1021 NOSIG=
METAR LDZD 081300Z 30015KT 250V350 CAVOK 28/07 Q1020=
####018001572####
SAXN17 KAWN 081300 RRC
METAR MMAA 081245Z 04003KT 8SM SCT015CB BKN090 OVC300 26/23 A2979 RMK
      8/367=
METAR MMIA 081259Z RTD 00000KT 5SM HZ BKN030 21/18 A2992 RMK 8/700=
METAR MMMX 081248Z 18003KT 2 1/2SM -RA HZ SCT008 BKN010 OVC020 15/14
      A3020 NOSIG RMK 8/7// VSBY TWR=
METAR MMPB 081252Z 16006KT 2SM -RA BR SCT004 BKN010 OVC100 14/14 A3021
      RMK 6//// 8/72/ VRBL CONDS=
METAR MMPS 081250Z 06006KT 15SM SCT015 BKN070 OVC240 25/19 A2998 RMK
      8/263=
METAR MMQT 081245Z 09005KT 5SM BKN015 BKN120 OVC180 17/15 A3018 RMK
      8/532=
METAR MMTM 081249Z 21006KT 6SM SCT010 BKN035 OVC200 26/24 A2981 RMK
      8/807 BINOVC=
METAR MMTO 081245Z 00000KT 1SM -RA BR BKN005 OVC007 13/11 A3026 RMK
      8/7// -RA B38=
METAR MMVR 081248Z 00000KT 6SM SCT012 BKN090 OVC250 25/25 A2980 RMK
      8/467 HZ DSNT CB NW-N=
METAR MMZH 081245Z 00000KT 7SM SCT030 BKN100 BKN250 25/23 A2978 RMK
      8/232=
METAR MRPV 081300Z 00000KT CAVOK 20/19 A3001 RMK BKN120 DUST APCH RNY
      09 WET RNY TEMPO 24004KT=
METAR MTPP 081300Z 09010KT 7000 FEW024 SCT200 29/24 Q1015 A2999=
METAR MZBZ 081300Z 14005KT 9999 FEW014 SCT030 BKN220 26/24 A2986 Q1011
      DIS CBTOP-S/SW NOSIG=
METAR PAGA 081258Z AUTO 00000KT 10SM CLR 10/08 A3006 RMK AO2 SLP225
      T01000078=
METAR PALU 081255Z AUTO 21026G31KT 10SM CLR 12/03 A3005 RMK AO1 T01170034=
METAR PASV 081255Z AUTO 00000KT 10SM SCT110 09/07 A2994 RMK AO1 T00940073=
METAR PKWA 081300Z AUTO 15008KT 10SM -DZ SCT010 BKN047 OVC065 26/23
      A2983 RMK AO2 P0003 T02600232=
####018001514####
SAUS17 KAWN 081300 RRC
METAR KCOF 081255Z 03006KT 10SM CLR 28/21 A3000 RMK AO2A SLP160 T0277=
METAR KCVS 081255Z 04012KT 10SM FEW010 BKN190 17/15 A3023 RMK AO2A
      SLP199 T01700150 $=
METAR KDMA 081255Z AUTO 07007KT 10SM CLR 29/11 A2991 RMK AO2 SLP052
      T02860111 $=
METAR KDOV 081257Z 13008KT 10SM FEW130 26/23 A3002 RMK AO2A SLP168=
METAR KEND 081255Z 02007KT 10SM SCT007 SCT060 BKN090 BKN200 23/22 A3009
      RMK AO2A SLP177 T02320219=
METAR KFAF 081255Z 13005KT 10SM FEW016 27/26 A3000 RMK AO2A SLP159
      T02710262=
METAR KGSB 081255Z 06007KT 8SM CLR 27/21 A2996 RMK AO2A SLP144 WND
      DATA ESTMD T02750214 $=
METAR KHIF 081255Z 06010G19KT 10SM CLR 18/06 A3015 RMK AO2A SLP103
      MIDFLD WND 060/15G21KT T01810057=
METAR KHLR 081256Z AUTO 09004KT 8SM -RA OVC007 26/ A3001 RMK AO2 RAB54
      SLP154 P0000 T0256 $=
METAR KHOP 081255Z AUTO 00000KT 10SM CLR 28/22 A3009 RMK AO2 SLP184
      T02760224=
METAR KNBC 081256Z 29007KT 6SM HZ CLR 27/20 A2999 RMK AO2 SLP156 T02720200
      PNO $=
METAR KNBG 081255Z 06003KT 7SM SCT015 BKN250 26/23 A3004 RMK AO2 SLP171
      T02620233 $=
METAR KNJK 081256Z 00000KT 10SM CLR 23/14 A2972 RMK AO2 SLP078 T02330144=
METAR KNRS 081256Z AUTO 29005KT 10SM OVC016 17/13 A2991 RMK AO2 SLP128
      T01670133 TSNO $=
METAR KNUQ 081256Z AUTO 03003KT 10SM OVC011 15/12 A2993 RMK AO2 SLP138
      T01500122 TSNO=
METAR PPIZ 081256Z AUTO 21010KT 3SM HZ CLR 06/02 A3008 RMK AO2 TSNO
      T00610016 SLP189 $=
####018001621####
SAZZ40 KAWN 081300 RRK
METAR KHIF 081255Z 06010G19KT 10SM CLR 18/06 A3015 RMK AO2A SLP103
      MIDFLD WND 060/15G21KT T01810057=
METAR KHLR 081256Z AUTO 09004KT 8SM -RA OVC007 26/ A3001 RMK AO2 RAB54
      SLP154 P0000 T0256 $=
METAR KHRT 081255Z 00000KT 10SM CLR 27/26 A3003 RMK AO2A SLP170 T02660261
      $=
METAR KNFL 081256Z AUTO 27005KT 10SM CLR 17/01 A3002 RMK AO2 SLP134
      T01720006 TSNO=
METAR KNQI 081256Z COR 03008KT 9SM FEW006 BKN016CB BKN140 BKN280 27/25
      A2983 RMK AO2 TSE40RAB16E40 SLP099 OCNL LTGICCG DSNT W-N CB
      DSNT SE-S AND W-N P0004 T02720250 $=
METAR KNTD 081256Z 28006KT 7SM SCT009 OVC011 14/13 A2990 RMK AO2 SLP127
      LAG PK 12/12/27007 T01440128 PNO $=
METAR KSZL 081255Z COR 00000KT 3SM -DZ BR OVC004 23/22 A3008 RMK A02A
      VIS 2 1/2 RWY01 CIG003V007 SLP181 P0000 T02290224 COR 1300=
METAR MRPV 081300Z 00000KT CAVOK 20/19 A3001 RMK BKN120 DUST APCH RNY
      09 WET RNY TEMPO 24004KT=
METAR MTPP 081300Z 09010KT 7000 FEW024 SCT200 29/24 Q1015 A2999=
METAR MZBZ 081300Z 14005KT 9999 FEW014 SCT030 BKN220 26/24 A2986 Q1011
      DIS CBTOP-S/SW NOSIG=
METAR OAHR 081255Z 02011KT CAVOK 38/M02 Q1009 RMK SKC VIS MIN 9999
      BLU=
METAR OAKN 081250Z 25007KT 9999 FEW150 41/04 Q1006 BLU NOSIG RMK A2972
      DA7200=
METAR OEDR 081300Z 04011KT 8000 SKC 41/13 Q0997 NOSIG=
METAR PAGA 081258Z AUTO 00000KT 10SM CLR 10/08 A3006 RMK AO2 SLP225
      T01000078=
METAR PHBK 081256Z AUTO 12003KT 10SM BKN060 OVC070 24/18 A3000 RMK
      AO2 SLP162 T02440178 TSNO $=
METAR TUPJ 081300Z 11011KT 9999 SCT021 28/24 A3001 RMK=
####018000455####
SAXX70 KAWN 081300 RRF
METAR KQFT 081250Z AUTO 17001KT 2SM BR BKN033 23/21 A2987 RMK A02=
METAR KQBS 081255Z 33017G23KT 9999 FEW028 48/M01 A2944 RMK DU FEW028
      SLP976 WND/ALSTG/SLP/QNH ESTMD QNH997=
METAR KQGX 081255Z 09004KT 9999 CLR 44/17 A2948 RMK AO2A SLP983 T04450173=
METAR KQW3 081255Z AUTO VRB05KT 9999 CLR 35/12 A2976 RMK AO2 SLP986=
METAR KQXF 081255Z AUTO 32010G19KT 9999 CLR 45/M02 A2959 RMK AO2 SLP010
      T04501022 $=
####018000070####
SABZ22 SBBR 081300
METAR SBBR 081300Z 07013KT CAVOK 21/09 Q1024 =
####018000082####
SABZ24 SBFL 081300
METAR SBFL 081300Z 15010KT 9999 FEW023 SCT100 21/16 Q1018=
####018000082####
SABZ24 SBFI 081300
METAR SBFI 081300Z 14007KT 9999 FEW020 BKN100 17/15 Q1018=
####018000080####
SANC01 NWWL 081300
METAR NWWL 081300Z AUTO 00000KT 9999NDV NCD 13/13 Q1016=
####018000086####
SANC01 NWWU 081300
METAR NWWU 081300Z AUTO VRB02KT 9999NDV FEW042/// 19/17 Q1015=
####018000080####
SANC01 NWWM 081300
METAR NWWM 081300Z AUTO 34003KT 9999NDV NCD 17/16 Q1015=
####018000098####
SASR31 WSSS 081300
METAR WSSS 081300Z 20003KT 170V240 9999 FEW016 SCT190 28/24 Q1010
NOSIG=
####018000090####
SATG20 DXXX 081300
METAR DXXX 081300Z 20012KT 9999 FEW016 FEW025CB 29/24 Q1013 NOSIG=
####018000078####
SAMT20 GQNN 081300
METAR GQNN 081300Z 21013KT 6000 NSC 32/23 Q1012 NOSIG=
####018000116####
SAUS44 KMOB 081301 COR
MTRNSE
METAR KNSE 081256Z 00000KT 9SM FEW250 28/24 A3004 RMK AO2 SLP156 
T02780239 $
####018000117####
SAUS42 KRAH 081301
MTRNJM
METAR KNJM 081257Z AUTO 01005KT 7SM FEW014 29/24 A2994 RMK AO2 
SLP143 T02890244 $
####018000115####
SARA31 UHHH 081300
METAR 081300Z
METAR METAR UHHH 081300Z 04002MPS 9999 SCT033CB OVC100 16/15 Q1011
NOSIG=
####018003733####
SAUS90 KWBC 081300 RRA
METAR KEUF 081258Z AUTO 00000KT 10SM CLR 28/21 A3003 RMK AO2
     SLP166 T02780206 PNO $=
METAR KFPK 081256Z AUTO 00000KT 7SM CLR 25/21 A3004 RMK AO2=
METAR KMOP 081255Z AUTO 26005KT 10SM BKN060 BKN075 OVC120 23/23
     A3002 RMK AO2=
METAR KCAD 081254Z AUTO 24006KT 4SM RA SCT006 BKN050 OVC080 22/21
     A3005 RMK AO2=
METAR KMGN 081255Z AUTO 26005KT 4SM DZ OVC010 21/20 A3000 RMK
     AO2=
METAR KHAI 081255Z AUTO 00000KT 10SM CLR 25/22 A3004 RMK AO2=
METAR KLWA 081256Z AUTO 00000KT 10SM SCT048 BKN085 BKN110 23/21
     A3003 RMK AO2=
METAR KDRM 081256Z AUTO 23005KT 4SM -RA BKN010 OVC019 21/21 A2998
     RMK AO2=
METAR KVLL 081254Z AUTO 25005KT 10SM CLR 29/19 A3005 RMK AO2=
METAR KCFS 081255Z AUTO 00000KT 10SM CLR 26/21 A3002 RMK AO2=
METAR KOZW 081255Z AUTO 00000KT 10SM SCT050 SCT070 26/21 A3005 RMK
     AO2=
METAR KRNP 081255Z AUTO 20004KT 10SM CLR 26/21 A3004 RMK AO2=
METAR KDUH 081255Z AUTO 00000KT 10SM CLR 28/20 A3004 RMK AO2=
METAR KJYM 081255Z AUTO 00000KT 10SM CLR 26/21 A3008 RMK AO2=
METAR KBAX 081255Z AUTO 25004KT 7SM CLR 26/23 A3001 RMK AO2=
METAR KIRS 081255Z AUTO 10005KT 10SM CLR 26/22 A3004 RMK AO2=
METAR KACB 081255Z AUTO 00000KT 5SM DZ OVC011 23/22 A3001 RMK
     AO2=
METAR KRQB 081255Z AUTO 00000KT 2SM +RA SCT013 BKN028 OVC055 22/21
     A3004 RMK AO2 VIS 1V4=
METAR KOEB 081255Z AUTO 09003KT 7SM CLR 26/22 A3006 RMK AO2=
METAR K4I3 081256Z AUTO 00000KT 7SM CLR 25/21 A3010 RMK AO2=
METAR KAUM 081255Z AUTO 34007KT 10SM CLR 19/17 A3011 RMK AO2=
METAR KFFX 081255Z AUTO 17003KT 4SM BR SCT002 OVC065 23/22 A3002
     RMK AO2=
METAR KCNB 081258Z AUTO 25008KT 10SM CLR 20/14 A3014 RMK AO2
     T01990143=
METAR KCKN 081255Z AUTO 28004KT 10SM CLR 17/14 A3007 RMK AO2=
METAR KCFE 081255Z AUTO 26005KT 10SM CLR 20/16 A3013 RMK AO2
     T01960164=
METAR KCQM 081257Z AUTO 24005KT 10SM CLR 18/15 A3004 RMK AO2=
METAR KDTL 081255Z AUTO 29004KT 10SM CLR 18/12 A3011 RMK AO2=
METAR KBDH 081255Z AUTO 27003KT 10SM CLR 18/16 A3014 RMK AO2=
METAR KCBG 081255Z AUTO 26005KT 10SM CLR 19/16 A3009 RMK AO2=
METAR KADC 081257Z AUTO 27005KT 10SM CLR 17/14 A3010 RMK AO2=
METAR KHAF 081250Z AUTO 00000KT 8SM OVC006 12/10 A2994 RMK AO2=
METAR KCKC 081255Z AUTO 26004KT 10SM CLR 19/14 A3004 RMK AO2=
METAR KJYG 081255Z AUTO 00000KT 10SM CLR 20/19 A3015 RMK AO2=
METAR KCOQ 081256Z AUTO 27008KT 10SM CLR 19/18 A3007 RMK AO2=
METAR KACQ 081259Z AUTO 32005KT 10SM CLR 17/16 A3015 RMK AO2=
METAR KRGK 081255Z AUTO 29004KT 10SM CLR 20/17 A3010 RMK AO2=
METAR KFSE 081254Z AUTO 22004KT 10SM CLR 16/13 A3007 RMK AO2=
METAR KY70 081255Z AUTO 24004KT 5SM HZ SCT006 25/23 A3004 RMK AO2
     T02470225=
METAR KUKT 081255Z AUTO 00000KT 8SM CLR 28/22 A3006 RMK AO1=
METAR KCVX 081255Z AUTO 23005KT 3SM -RA SCT004 BKN010 OVC050 21/20
     A3002 RMK AO2=
METAR KFKS 081255Z AUTO 26003KT 4SM BR BKN004 21/20 A3001 RMK
     AO2=
METAR KSLH 081255Z AUTO 24005KT 5SM -RA SCT009 BKN029 OVC047 22/21
     A2998 RMK AO2=
METAR KSJX 081255Z AUTO 25004KT 1/4SM FG OVC002 19/18 A2999 RMK
     AO2=
METAR KLDM 081255Z AUTO 25004KT 5SM -RA OVC005 22/21 A3002 RMK AO2
     P0003=
METAR KGOV 081255Z AUTO 25003KT 7SM -RA BKN048 OVC050 22/22 A3004
     RMK AO2=
METAR KPZQ 081255Z AUTO 25006KT 7SM DZ SCT050 SCT070 OVC090 22/20
     A3000 RMK AO2=
METAR KHYX 081255Z AUTO 25004KT 10SM SCT085 SCT120 25/21 A3002 RMK
     AO2=
METAR KPHN 081255Z AUTO 19004KT 10SM CLR 27/21 A3002 RMK AO2=
METAR KONZ 081257Z AUTO 00000KT 10SM CLR 28/22 A3002 RMK AO2=
METAR KISQ 081255Z AUTO 35006KT 10SM OVC004 20/18 A2999 RMK
     AO2=
METAR KRMY 081255Z AUTO 00000KT 10SM CLR 25/22 A3005 RMK AO2=
####018000055####
SAUS90 KWBC 081200 RRK
METAR K8S0 081155Z 26006KT=
####018001268####
SAUS90 KWBC 081300 RRB
METAR KOSC 081254Z AUTO 23004KT 7SM SCT060 BKN075 BKN090 23/21
     A3000 RMK AO2=
METAR KTTF 081254Z AUTO 00000KT 10SM CLR 28/22 A3002 RMK AO2=
METAR KAMN 081255Z AUTO 26003KT 7SM CLR 24/22 A3002 RMK AO2=
METAR KMCD 081256Z AUTO 26004KT 1SM -RA OVC001 20/17 A3000 RMK
     AO2=
METAR KERY 081255Z AUTO 32004KT 5SM BR OVC003 18/17 A3001 RMK
     AO2=
METAR KDVP 081256Z AUTO 28004KT 10SM CLR 19/14 A3019 RMK AO2
     T01850140=
METAR KCDD 081251Z AUTO 00000KT 10SM CLR 20/18 A3003 RMK AO2=
METAR KFOZ 081253Z AUTO 24004KT 10SM CLR 17/16 A3006 RMK AO2=
METAR KAQP 081253Z AUTO 25005KT 10SM CLR 17/17 A3011 RMK AO2=
METAR KETH 081254Z AUTO 27004KT 10SM CLR 19/16 A3011 RMK AO2=
METAR KXVG 081256Z AUTO 26004KT 10SM CLR 18/16 A3006 RMK AO2=
METAR KORB 081254Z AUTO 27005KT 10SM CLR 17/14 A3001 RMK AO2=
METAR KMZH 081251Z AUTO 28005KT 10SM CLR 18/16 A3006 RMK AO2=
METAR KBFW 081253Z AUTO 31005KT 10SM CLR 22/16 A3002 RMK AO2=
METAR KVWU 081251Z AUTO 26009KT 10SM CLR 19/14 A3004 RMK AO2=
METAR KOWA 081254Z AUTO 33004KT 10SM CLR 18/17 A3011 RMK AO2=
METAR KCDA 081255Z AUTO 00000KT 7SM CLR 26/21 A3010 RMK AO2=
METAR KNEL 081300Z AUTO 14006KT 9SM BKN100 26/20 A3005 RMK AO2
     SLP174 T02560200 $=
####018000102####
SAUS90 KWBC 081302
METAR KFKA 081303Z AUTO 35007KT 10SM CLR 20/18 A3011 RMK AO2
     T01970177=
####018000582####
SAUS90 KWBC 081300 CCB
METAR KMCN 081253Z 30005KT 10SM CLR 27/20 A3003 RMK AO2 SLP165
     T02670200=
METAR KLOR 081253Z AUTO 00000KT 10SM CLR 25/22 A3003 RMK AO2
     SLP165 T02500217 TSNO $=
METAR KNAK 081254Z AUTO 13008KT 5SM HZ 27/22 A3002 RMK AO2 SLP167
     T02720222 TSNO $=
METAR KRIL 081253Z AUTO 00000KT 10SM CLR 12/08 A3029 RMK AO2
     SLP193 T01220083 TSNO=
METAR KRIC 081254Z 13007KT 5SM HZ FEW150 SCT250 28/22 A3000 RMK
     AO2 SLP162 T02830222=
METAR KP60 081256Z AUTO 00000KT 02/M01 A3045 RMK AO2 SLP265
     T00171006 PWINO FZRANO TSNO=
####018000102####
SPUS90 KWBC 081302
SPECI KJCT 081259Z AUTO 00000KT 5SM BR FEW004 23/22 A3003 RMK AO2
     TSNO=
####018000127####
SAUS45 KRIW 081301 COR
MTRP60
METAR KP60 081256Z AUTO 00000KT 02/M01 A3045 RMK AO2 SLP265 
T00171006 PWINO FZRANO TSNO
####018002118####
SAUS20 KNKA 081301
METAR KBOW 081255Z 04005KT 15SM FEW250 26/21 A3002=
SPECI KCNM 081300Z AUTO 31008KT 10SM -RA OVC015 19/18 A3016 RMK AO2 
    P0001=
METAR KEBS 081255Z AUTO 35006KT 10SM CLR 19/17 A3014 RMK AO2=
METAR KESN 081253Z 13005KT 5SM BR SKC 27/24 A3006=
METAR KGGI 081255Z AUTO 33004KT 10SM CLR 22/20 A3011 RMK AO2=
SPECI KGRB 081300Z 30004KT 2 1/2SM BR OVC004 22/21 A3001 RMK AO2 CIG 
    002V008=
METAR KHNR 081255Z AUTO 01003KT 10SM CLR 19/17 A3019 RMK AO2=
METAR KI75 081255Z AUTO 36008KT 10SM CLR 20/18 A3011 RMK AO2=
METAR KICL 081255Z AUTO 01008KT 10SM CLR 21/18 A3012 RMK AO2=
METAR KIFA 081255Z AUTO 34007KT 10SM CLR 21/19 A3013 RMK AO2=
METAR KIIB 081255Z AUTO 35006KT 10SM CLR 21/20 A3009 RMK AO1=
METAR KIKV 081255Z AUTO 34006KT 10SM CLR 21/18 A3012 RMK AO2=
SPECI KLMT 081300Z 00000KT 10SM FEW050 SCT100 BKN200 14/09 A3007 RMK 
    AO2=
METAR KLRJ 081255Z AUTO 00000KT 10SM CLR 18/16 A3018 RMK AO2=
SPECI KMHT 081300Z 20005KT 6SM HZ OVC016 26/22 A3007 RMK AO2=
METAR KMPZ 081255Z AUTO 35006KT 10SM SCT011 22/21 A3007 RMK AO2=
METAR KMUT 081255Z AUTO 33007KT 7SM CLR 23/22 A3005 RMK AO2=
METAR KMXO 081255Z AUTO 34003KT 7SM BKN005 21/20 A3006 RMK AO2=
METAR KORC 081255Z AUTO 33005KT 10SM CLR 19/18 A3017 RMK AO2=
METAR KOXV 081255Z AUTO 35008KT 10SM CLR 22/20 A3010 RMK AO2=
METAR KPEA 081255Z AUTO 35006KT 10SM CLR 23/20 A3010 RMK AO2=
METAR KPKB 081253Z COR 00000KT 4SM BCFG BR CLR 24/21 A3012 RMK AO2 
    SLP190 VIS N-E 1 T02390211=
METAR KRDK 081255Z AUTO 00000KT 10SM CLR 22/18 A3013 RMK AO2=
METAR KRHP 081302Z AUTO 00000KT 10SM CLR 22/19 A3014 RMK AO2=
SPECI KRKP 081300Z AUTO 04006KT 3SM -RA SCT010 BKN015 OVC023 A2986 
    RMK AO2 P0000 FZRANO $=
METAR KSDA 081255Z AUTO 03007KT 10SM CLR 22/19 A3014 RMK AO2=
METAR KSHL 081255Z AUTO 00000KT 10SM CLR 18/17 A3019 RMK AO2=
METAR KTIX 081255Z VRB04KT 7SM SKC 26/20 A3001=
METAR KTNU 081255Z AUTO 36008KT 10SM CLR 23/21 A3011 RMK AO2=
METAR KTVK 081255Z AUTO 35006KT 10SM SCT005 20/20 A3011 RMK AO2=
METAR KVTI 081255Z AUTO 34006KT 10SM BKN007 23/21 A3008 RMK AO2=
####018000092####
SAPF20 NTAA 081300
METAR NTAA 081300Z 09003KT 9999 FEW023 25/22 Q1015 WS ALL RWY NOSIG=
####018001867####
SAUS99 KWBC 081302
METAR
KHOB 081250Z 01008KT 10SM SCT005 BKN012 BKN049 19/19 A3018=
KNFG 081256Z AUTO 00000KT 9SM OVC011 16/14 A2991 RMK AO2 SLP128
     T01560139 TSNO=
KNMM 081256Z 35003KT 10SM FEW250 28/22 A3007 RMK AO2 SLP188
     T02780217=
KNXX 081256Z 13008KT 5SM HZ FEW045 27/22 A3006 RMK AO2 SLP182
     T02720217 $=
KBOW 081255Z 04005KT 15SM FEW250 26/21 A3002=
KEBS 081255Z AUTO 35006KT 10SM CLR 19/17 A3014 RMK AO2=
KESN 081253Z 13005KT 5SM BR SKC 27/24 A3006=
KGGI 081255Z AUTO 33004KT 10SM CLR 22/20 A3011 RMK AO2=
KHNR 081255Z AUTO 01003KT 10SM CLR 19/17 A3019 RMK AO2=
KI75 081255Z AUTO 36008KT 10SM CLR 20/18 A3011 RMK AO2=
KICL 081255Z AUTO 01008KT 10SM CLR 21/18 A3012 RMK AO2=
KIFA 081255Z AUTO 34007KT 10SM CLR 21/19 A3013 RMK AO2=
KIIB 081255Z AUTO 35006KT 10SM CLR 21/20 A3009 RMK AO1=
KIKV 081255Z AUTO 34006KT 10SM CLR 21/18 A3012 RMK AO2=
KLRJ 081255Z AUTO 00000KT 10SM CLR 18/16 A3018 RMK AO2=
KMPZ 081255Z AUTO 35006KT 10SM SCT011 22/21 A3007 RMK AO2=
KMUT 081255Z AUTO 33007KT 7SM CLR 23/22 A3005 RMK AO2=
KMXO 081255Z AUTO 34003KT 7SM BKN005 21/20 A3006 RMK AO2=
KORC 081255Z AUTO 33005KT 10SM CLR 19/18 A3017 RMK AO2=
KOXV 081255Z AUTO 35008KT 10SM CLR 22/20 A3010 RMK AO2=
KPEA 081255Z AUTO 35006KT 10SM CLR 23/20 A3010 RMK AO2=
KPKB 081253Z COR 00000KT 4SM BCFG BR CLR 24/21 A3012 RMK AO2
     SLP190 VIS N-E 1 T02390211=
KRDK 081255Z AUTO 00000KT 10SM CLR 22/18 A3013 RMK AO2=
KRHP 081302Z AUTO 00000KT 10SM CLR 22/19 A3014 RMK AO2=
KSDA 081255Z AUTO 03007KT 10SM CLR 22/19 A3014 RMK AO2=
KSHL 081255Z AUTO 00000KT 10SM CLR 18/17 A3019 RMK AO2=
KTIX 081255Z VRB04KT 7SM SKC 26/20 A3001=
KTNU 081255Z AUTO 36008KT 10SM CLR 23/21 A3011 RMK AO2=
KTVK 081255Z AUTO 35006KT 10SM SCT005 20/20 A3011 RMK AO2=
KVTI 081255Z AUTO 34006KT 10SM BKN007 23/21 A3008 RMK AO2=
####018000507####
SPUS99 KWBC 081302
SPECI
KJLN 081259Z 00000KT 1SM VCTS BR BKN004 BKN017 OVC033 22/22 A3009
     RMK AO2 P0003=
KCNM 081300Z AUTO 31008KT 10SM -RA OVC015 19/18 A3016 RMK AO2
     P0001=
KGRB 081300Z 30004KT 2 1/2SM BR OVC004 22/21 A3001 RMK AO2 CIG
     002V008=
KLMT 081300Z 00000KT 10SM FEW050 SCT100 BKN200 14/09 A3007 RMK
     AO2=
KMHT 081300Z 20005KT 6SM HZ OVC016 26/22 A3007 RMK AO2=
KRKP 081300Z AUTO 04006KT 3SM -RA SCT010 BKN015 OVC023 A2986 RMK
     AO2 P0000 FZRANO $=
####018000117####
SAUS41 KPHI 081301
MTRNEL
METAR KNEL 081300Z AUTO 14006KT 9SM BKN100 26/20 A3005 RMK AO2 
SLP174 T02560200 $
####018000081####
SABZ24 SBFI 081300
METAR SBFI 081300Z 14007KT 9999 FEW020 BKN100 17/15 Q1018=
####018000068####
SABZ18 SBSJ 081300
METAR SBSJ 081300Z 00000KT CAVOK 17/11 Q1023=
####018000069####
SABZ20 SBRB 081300
METAR SBRB 081300Z 04008KT CAVOK 29/24 Q1013 =
####018000081####
SABZ24 SBFL 081300
METAR SBFL 081300Z 15010KT 9999 FEW023 SCT100 21/16 Q1018=
####018000081####
SABZ21 SBRF 081300
METAR SBRF 081300Z 18006KT 9999 FEW020 BKN070 27/22 Q1016=
####018000068####
SABZ24 SBCT 081300
METAR SBCT 081300Z 04004KT CAVOK 17/13 Q1022=
####018000068####
SABZ22 SBCY 081300
METAR SBCY 081300Z 01007KT CAVOK 26/14 Q1015=
####018000068####
SABZ20 SBEG 081300
METAR SBEG 081300Z 00000KT CAVOK 28/22 Q1013=
####018000081####
SABZ20 SBBV 081300
METAR SBBV 081300Z 00000KT 9999 SCT020 SCT070 27/23 Q1013=
####018000069####
SABZ24 SBUG 081300
METAR SBUG 081300Z 11012KT CAVOK 11/06 Q1021 =
####018000081####
SABZ21 SBFZ 081300
METAR SBFZ 081300Z 13011KT 9999 FEW018 BKN090 29/20 Q1014=
####018000091####
SABZ24 SBPA 081300
METAR SBPA 081300Z 18005KT 5000 BR BKN010 SCT015 OVC030 14/12 Q1021=
####018000068####
SABZ18 SBSP 081300
METAR SBSP 081300Z 32005KT CAVOK 20/08 Q1023=
####018000091####
SABZ21 SBFN 081300
METAR SBFN 081300Z 10010KT 9999 SCT017 FEW025TCU BKN100 25/23 Q1015=
####018000071####
SABZ18 SBKP 081300
METAR SBKP 081300Z 01004KT 8000 NSC 21/09 Q1022=
####018000068####
SABZ19 SBCJ 081300
METAR SBCJ 081300Z 08004KT CAVOK 27/17 Q1019=
####018000068####
SABZ18 SBGR 081300
METAR SBGR 081300Z 01004KT CAVOK 21/08 Q1023=
####018000068####
SABZ24 SBCG 081300
METAR SBCG 081300Z 06013KT CAVOK 25/08 Q1017=
####018000096####
SABZ21 SBSV 081300
METAR SBSV 081300Z 21010KT 3000 -RA BR BKN007 SCT017 BKN070 24/22
Q1019=
####018000374####
SPXX60 KWBC 081302
SPECI
KHLR 081252Z AUTO 09003KT 9SM OVC007 26/ A3001 RMK AO2 T0256 $=
KIAB 081259Z AUTO 03008KT 10SM SCT008 22/21 A3011 RMK AO2
     SLP185=
KSKF 081253Z 03007KT 10SM BKN012 BKN019 25/ A2993 RMK AO2A
     RAE1157B1232E1233DZB1222E1232 CIG 010V016 SLP126 $=
KTIK 081256Z AUTO 33004KT 10SM BKN007 BKN035 24/23 A3006 RMK AO2
     SLP168 $=
####018000757####
SPUS70 KWBC 081302
SPECI
KDFW 081259Z 00000KT 5SM -RA BR BKN027 BKN043 OVC070 26/24 A3003
     RMK AO2 P0000=
KPWK 081259Z 24003KT 4SM -RA BR FEW006 BKN019 OVC029 24/22 A3004
     RMK AO2 RAB54 P0000=
KRAC 081259Z AUTO 27005KT 7SM BKN010 BKN016 OVC080 24/22 A3004 RMK
     AO2=
KJCT 081259Z AUTO 00000KT 5SM BR FEW004 23/22 A3003 RMK AO2
     TSNO=
KCNM 081300Z AUTO 31008KT 10SM -RA OVC015 19/18 A3016 RMK AO2
     P0001=
KGRB 081300Z 30004KT 2 1/2SM BR OVC004 22/21 A3001 RMK AO2 CIG
     002V008=
KLMT 081300Z 00000KT 10SM FEW050 SCT100 BKN200 14/09 A3007 RMK
     AO2=
KMHT 081300Z 20005KT 6SM HZ OVC016 26/22 A3007 RMK AO2=
KRKP 081300Z AUTO 04006KT 3SM -RA SCT010 BKN015 OVC023 A2986 RMK
     AO2 P0000 FZRANO $=
####018001747####
SAXX60 KWBC 081300 RRD
METAR
KSZL 081255Z COR 00000KT 3SM -DZ BR OVC004 23/22 A3008 RMK A02A
     VIS 2 1/2 RWY01 CIG003V007 SLP181 P0000 T02290224 COR
     1300=
PHBK 081256Z AUTO 12003KT 10SM BKN060 OVC070 24/18 A3000 RMK AO2
     SLP162 T02440178 TSNO $=
KCOF 081255Z 03006KT 10SM CLR 28/21 A3000 RMK AO2A SLP160
     T0277=
KCVS 081255Z 04012KT 10SM FEW010 BKN190 17/15 A3023 RMK AO2A
     SLP199 T01700150 $=
KDMA 081255Z AUTO 07007KT 10SM CLR 29/11 A2991 RMK AO2 SLP052
     T02860111 $=
KDOV 081257Z 13008KT 10SM FEW130 26/23 A3002 RMK AO2A SLP168=
KEND 081255Z 02007KT 10SM SCT007 SCT060 BKN090 BKN200 23/22 A3009
     RMK AO2A SLP177 T02320219=
KFAF 081255Z 13005KT 10SM FEW016 27/26 A3000 RMK AO2A SLP159
     T02710262=
KGSB 081255Z 06007KT 8SM CLR 27/21 A2996 RMK AO2A SLP144 WND DATA
     ESTMD T02750214 $=
KHIF 081255Z 06010G19KT 10SM CLR 18/06 A3015 RMK AO2A SLP103
     MIDFLD WND 060/15G21KT T01810057=
KHLR 081256Z AUTO 09004KT 8SM -RA OVC007 26/ A3001 RMK AO2 RAB54
     SLP154 P0000 T0256 $=
KHOP 081255Z AUTO 00000KT 10SM CLR 28/22 A3009 RMK AO2 SLP184
     T02760224=
KNBC 081256Z 29007KT 6SM HZ CLR 27/20 A2999 RMK AO2 SLP156
     T02720200 PNO $=
KNBG 081255Z 06003KT 7SM SCT015 BKN250 26/23 A3004 RMK AO2 SLP171
     T02620233 $=
KNJK 081256Z 00000KT 10SM CLR 23/14 A2972 RMK AO2 SLP078
     T02330144=
KNRS 081256Z AUTO 29005KT 10SM OVC016 17/13 A2991 RMK AO2 SLP128
     T01670133 TSNO $=
KNUQ 081256Z AUTO 03003KT 10SM OVC011 15/12 A2993 RMK AO2 SLP138
     T01500122 TSNO=
KNJM 081257Z AUTO 01005KT 7SM FEW014 29/24 A2994 RMK AO2 SLP143
     T02890244 $=
KNEL 081300Z AUTO 14006KT 9SM BKN100 26/20 A3005 RMK AO2 SLP174
     T02560200 $=
####018000119####
SPUS80 KWBC 081302
SPECI
KJLN 081259Z 00000KT 1SM VCTS BR BKN004 BKN017 OVC033 22/22 A3009
     RMK AO2 P0003=
####018000068####
SABZ23 SBRJ 081300
METAR SBRJ 081300Z 01005KT CAVOK 23/17 Q1018=
####018000211####
SAXX60 KWBC 081300 CCA
METAR
KLOR 081253Z AUTO 00000KT 10SM CLR 25/22 A3003 RMK AO2 SLP165
     T02500217 TSNO $=
K79J 081256Z AUTO 00000KT 10SM CLR 28/22 A3003 RMK AO2 SLP165
     T02780222 TSNO $=
####018000074####
SABZ21 SBAR 081300
METAR SBAR 081300Z 18007KT 9999 SCT015 27/24 Q1018=
####018000068####
SABZ19 SBMA 081300
METAR SBMA 081300Z 12006KT CAVOK 31/21 Q1015=
####018003748####
SAXX60 KWBC 081300 RRC
METAR
KEUF 081258Z AUTO 00000KT 10SM CLR 28/21 A3003 RMK AO2 SLP166
     T02780206 PNO $=
KRYT 081253Z AUTO 00000KT 6SM HZ CLR 28/19 A3005 RMK AO2 SLP157
     T02830194 $=
KNTU 081256Z 07007KT 10SM SCT015 BKN050 BKN100 26/22 A2999 RMK AO2
     SLP156 T02610222 $=
KNFG 081256Z AUTO 00000KT 9SM OVC011 16/14 A2991 RMK AO2 SLP128
     T01560139 TSNO=
KNGP 081256Z VRB04KT 10SM FEW010 SCT021CB BKN033 28/25 A2983 RMK
     AO2 RAE31 SLP101 CB DSNT SE TCU DSNT S-SW WR// VCSH W-NW
     P0002 T02770252=
KNKX 081255Z 00000KT 10SM -RA OVC010 16/14 A2991 RMK AO2 RAB53 CIG
     005V011 SLP123 P0000 T01560139=
KNMM 081256Z 35003KT 10SM FEW250 28/22 A3007 RMK AO2 SLP188
     T02780217=
KNUW 081256Z 00000KT 10SM CLR 16/10 A2997 RMK AO2 SLP154 T01630098
     $=
KNXP 081256Z AUTO 28007KT CLR 23/00 A2994 RMK AO2 SLP099 T02280000
     $=
KNXX 081256Z 13008KT 5SM HZ FEW045 27/22 A3006 RMK AO2 SLP182
     T02720217 $=
KNYG 081256Z 00000KT 6SM HZ FEW090 BKN200 28/23 A3002 RMK AO2
     SLP166 T02780228=
KNYL 081255Z AUTO 00000KT 10SM CLR 27/M03 A2974 RMK AO2 SLP065
     T02671033=
KPOE 081255Z AUTO 08006KT 10SM CLR 25/23 A3004 RMK AO2 SLP171
     T02500233 $=
KRCA 081255Z 00000KT 25SM CLR 14/10 A3025 RMK AO2A SLP233
     T01430102 $=
KRDR 081255Z 31005KT 10SM CLR 18/15 A3007 RMK AO2A SLP192
     T01790147 $=
KSKF 081255Z 03006KT 7SM BKN015 BKN045 25/24 A2993 RMK AO2A SLP126
     P0000 T02540240 $=
KVBG 081255Z AUTO 33006KT 10SM OVC004 12/11 A2994 RMK AO2 SLP130
     T01170111 TSNO $=
KVPS 081255Z COR 34002KT 10SM CLR 27/24 A3004 RMK SLP173 T02660237
     $ COR 1258=
KCOF 081255Z 03006KT 10SM CLR 28/21 A3000 RMK AO2A SLP160
     T0277=
KCVS 081255Z 04012KT 10SM FEW010 BKN190 17/15 A3023 RMK AO2A
     SLP199 T01700150 $=
KHUA 081255Z 01007KT 12SM SKC 29/23 A3012 RMK AO2A SLP187
     T02850000 $=
KNBC 081256Z 29007KT 6SM HZ CLR 27/20 A2999 RMK AO2 SLP156
     T02720200 PNO $=
KNGP 081256Z VRB04KT 10SM FEW010 SCT021CB BKN033 28/25 A2983 RMK
     AO2 RAE31 SLP101 CB DSNT SE TCU DSNT S-SW WR// VCSH W-NW
     P0002 T02770252=
KNID 081256Z 00000KT 10SM CLR 18/03 A2988 RMK AO2 SLP096 T01830028
     $=
KNJK 081256Z 00000KT 10SM CLR 23/14 A2972 RMK AO2 SLP078
     T02330144=
KNLC 081256Z AUTO 31008KT 10SM CLR 17/10 A2984 RMK AO2 SLP103
     T01670100 TSNO $=
KNRS 081256Z AUTO 29005KT 10SM OVC016 17/13 A2991 RMK AO2 SLP128
     T01670133 TSNO $=
KNTU 081256Z 07007KT 10SM SCT015 BKN050 BKN100 26/22 A2999 RMK AO2
     SLP156 T02610222 $=
KNUQ 081256Z AUTO 03003KT 10SM OVC011 15/12 A2993 RMK AO2 SLP138
     T01500122 TSNO=
KVPS 081255Z COR 34002KT 10SM CLR 27/24 A3004 RMK SLP173 T02660237
     $ COR 1258=
PASY 081256Z AUTO 02014KT 7SM OVC002 A2974 RMK AO2 SLPNO TSNO
     PNO=
KNFG 081256Z AUTO 00000KT 9SM OVC011 16/14 A2991 RMK AO2 SLP128
     T01560139 TSNO=
KNMM 081256Z 35003KT 10SM FEW250 28/22 A3007 RMK AO2 SLP188
     T02780217=
KNXX 081256Z 13008KT 5SM HZ FEW045 27/22 A3006 RMK AO2 SLP182
     T02720217 $=
KHIF 081255Z 06010G19KT 10SM CLR 18/06 A3015 RMK AO2A SLP103
     MIDFLD WND 060/15G21KT T01810057=
KHLR 081256Z AUTO 09004KT 8SM -RA OVC007 26/ A3001 RMK AO2 RAB54
     SLP154 P0000 T0256 $=
KHRT 081255Z 00000KT 10SM CLR 27/26 A3003 RMK AO2A SLP170
     T02660261 $=
KNFL 081256Z AUTO 27005KT 10SM CLR 17/01 A3002 RMK AO2 SLP134
     T01720006 TSNO=
KNQI 081256Z COR 03008KT 9SM FEW006 BKN016CB BKN140 BKN280 27/25
     A2983 RMK AO2 TSE40RAB16E40 SLP099 OCNL LTGICCG DSNT W-N CB
     DSNT SE-S AND W-N P0004 T02720250 $=
KNTD 081256Z 28006KT 7SM SCT009 OVC011 14/13 A2990 RMK AO2 SLP127
     LAG PK 12/12/27007 T01440128 PNO $=
####018003623####
SAUS70 KWBC 081300 RRC
METAR
KMEI 081258Z 33006KT 10SM CLR 26/23 A3007 RMK AO2 SLP178
     T02610233=
KY50 081256Z AUTO 31005KT 5SM BR BKN009 OVC013 22/22 A3004 RMK AO2
     T02160216 CIG 006V011 SLP164 $=
KAWG 081255Z AUTO 35007KT 10SM CLR 22/20 A3008 RMK AO2=
KAXA 081255Z AUTO 35003KT 10SM CLR 20/17 A3015 RMK AO2=
KBJC 081252Z 34008KT 8SM BKN006 BKN025 13/10 A3033=
KBNW 081255Z AUTO 34007G17KT 10SM CLR 21/17 A3014 RMK AO2=
KBWD 081255Z AUTO 08006KT 10SM FEW050 24/23 A3004 RMK AO2=
KCAV 081255Z AUTO 35005KT 10SM CLR 21/18 A3013 RMK AO2=
KCBF 081255Z AUTO 01007KT 10SM CLR 20/16 A3016 RMK AO2=
KCCY 081255Z AUTO 35006KT 10SM CLR 21/17 A3011 RMK AO2=
KCIN 081255Z AUTO 35006KT 10SM CLR 19/16 A3016 RMK AO2=
KCNC 081255Z AUTO 36007KT 10SM CLR 21/18 A3010 RMK AO2=
KCSQ 081255Z AUTO 02012KT 10SM CLR 22/20 A3013 RMK AO2=
KDEH 081255Z AUTO 35004KT 10SM CLR 22/18 A3011 RMK AO2=
KDNS 081255Z AUTO 02003KT 10SM CLR 20/16 A3018 RMK AO2=
KEOK 081255Z AUTO 00000KT 10SM SCT005 23/20 A3007 RMK AO2=
KETB 081254Z AUTO 27006KT 10SM OVC009 22/20 A3003 RMK AO2
     T02220202=
KFFL 081255Z AUTO 35007KT 10SM CLR 22/21 A3008 RMK AO2=
KFSW 081255Z AUTO 33004KT 7SM OVC004 23/21 A3006 RMK AO2=
KFXY 081255Z AUTO 34007KT 10SM CLR 19/16 A3013 RMK AO2=
KHSA 081251Z 04004KT 7SM CLR 25/25 A3004=
KJZI 081255Z AUTO 30007KT 10SM CLR 28/24 A2997 RMK A02 P000=
KPVU 081250Z 14010KT 15SM BKN120 18/07 A3016=
KSPF 081255Z AUTO 00000KT 10SM CLR 13/10 A3030 RMK AO2=
PADU 081258Z AUTO 11015G27KT 080V140 10SM OVC021 08/04 A2977 RMK
     AO2 PK WND 10029/1229 RAB22E37 SLP088 P0000 T00830044=
PAGA 081258Z AUTO 00000KT 10SM CLR 10/08 A3006 RMK AO2 SLP225
     T01000078=
PAJZ 081256Z AUTO 31003KT 10SM CLR 08/08 A2999 RMK AO2 PWINO TSNO
     T00830077 SLP145 $=
PAKI 081256Z AUTO 36005KT 1/4SM FG CLR 06/06 A3000 RMK AO2 PWINO
     TSNO T00610061 SLP161 $=
PALG 081256Z AUTO 00000KT 9SM FEW065 07/07 A2999 RMK AO2 TSNO
     T00720066 SLP159=
PARY 081256Z AUTO 36006KT 10SM CLR 14/06 A3005 RMK AO2 PWINO TSNO
     T01440061 SLP179=
KHOB 081250Z 01008KT 10SM SCT005 BKN012 BKN049 19/19 A3018=
PAGA 081258Z AUTO 00000KT 10SM CLR 10/08 A3006 RMK AO2 SLP225
     T01000078=
PPIZ 081256Z AUTO 21010KT 3SM HZ CLR 06/02 A3008 RMK AO2 TSNO
     T00610016 SLP189 $=
KBOW 081255Z 04005KT 15SM FEW250 26/21 A3002=
KEBS 081255Z AUTO 35006KT 10SM CLR 19/17 A3014 RMK AO2=
KGGI 081255Z AUTO 33004KT 10SM CLR 22/20 A3011 RMK AO2=
KHNR 081255Z AUTO 01003KT 10SM CLR 19/17 A3019 RMK AO2=
KICL 081255Z AUTO 01008KT 10SM CLR 21/18 A3012 RMK AO2=
KIFA 081255Z AUTO 34007KT 10SM CLR 21/19 A3013 RMK AO2=
KIIB 081255Z AUTO 35006KT 10SM CLR 21/20 A3009 RMK AO1=
KIKV 081255Z AUTO 34006KT 10SM CLR 21/18 A3012 RMK AO2=
KLRJ 081255Z AUTO 00000KT 10SM CLR 18/16 A3018 RMK AO2=
KMPZ 081255Z AUTO 35006KT 10SM SCT011 22/21 A3007 RMK AO2=
KMUT 081255Z AUTO 33007KT 7SM CLR 23/22 A3005 RMK AO2=
KMXO 081255Z AUTO 34003KT 7SM BKN005 21/20 A3006 RMK AO2=
KORC 081255Z AUTO 33005KT 10SM CLR 19/18 A3017 RMK AO2=
KOXV 081255Z AUTO 35008KT 10SM CLR 22/20 A3010 RMK AO2=
KPEA 081255Z AUTO 35006KT 10SM CLR 23/20 A3010 RMK AO2=
KPKB 081253Z COR 00000KT 4SM BCFG BR CLR 24/21 A3012 RMK AO2
     SLP190 VIS N-E 1 T02390211=
KRDK 081255Z AUTO 00000KT 10SM CLR 22/18 A3013 RMK AO2=
KSDA 081255Z AUTO 03007KT 10SM CLR 22/19 A3014 RMK AO2=
KSHL 081255Z AUTO 00000KT 10SM CLR 18/17 A3019 RMK AO2=
KTIX 081255Z VRB04KT 7SM SKC 26/20 A3001=
KTNU 081255Z AUTO 36008KT 10SM CLR 23/21 A3011 RMK AO2=
KTVK 081255Z AUTO 35006KT 10SM SCT005 20/20 A3011 RMK AO2=
####018000196####
SAUS70 KWBC 081302
METAR
PADM 081301Z AUTO 05005KT 10SM SCT065 OVC095 09/08 A3004 RMK AO2
     TSNO T00940077 OVC V BKN SLP159 $=
KRHP 081302Z AUTO 00000KT 10SM CLR 22/19 A3014 RMK AO2=
####018000722####
SAUS80 KWBC 081300 RRA
METAR
KJQF 081255Z 36005KT 10SM SCT100 29/17 A3002=
KBTR 081253Z 06006KT 6SM BR BKN003 OVC007 25/24 A3004 RMK AO2
     SLP170 T02500239=
KCAE 081256Z 32004KT 10SM CLR 29/21 A3000 RMK AO2 SLP155
     T02940206=
KDAB 081253Z 33003KT 10SM FEW024 SCT250 27/21 A3002 RMK AO2 SLP164
     T02670206 $=
KFSD 081256Z 00000KT 10SM R03/5500VP6000FT CLR 19/16 A3017 RMK AO2
     SLP212 SCT ABV 120 T01890156=
KFWA 081254Z COR 20003KT 8SM FEW060 SCT250 27/21 A3006 RMK AO2
     SLP172 T02720211=
KROA 081254Z 01004KT 6SM HZ FEW085 29/18 A3010 RMK AO2 SLP176
     T02940178=
KESN 081253Z 13005KT 5SM BR SKC 27/24 A3006=
KVTI 081255Z AUTO 34006KT 10SM BKN007 23/21 A3008 RMK AO2=
####018000068####
SABZ23 SBGL 081300
METAR SBGL 081300Z 10002KT CAVOK 24/14 Q1018=
####018000069####
SABZ22 SBGO 081300
METAR SBGO 081300Z 05010KT CAVOK 26/12 Q1021 =
####018000082####
SABZ21 SBJP 081300
METAR SBJP 081300Z 19008KT 9999 SCT020 BKN070 27/22 Q1016 =
####018000074####
SABZ19 SBMQ 081300
METAR SBMQ 081300Z 08006KT 9999 SCT020 32/26 Q1014=
####018000378####
SAUS80 KWBC 081300 CCB
METAR
KMCN 081253Z 30005KT 10SM CLR 27/20 A3003 RMK AO2 SLP165
     T02670200=
KNAK 081254Z AUTO 13008KT 5SM HZ 27/22 A3002 RMK AO2 SLP167
     T02720222 TSNO $=
KRIC 081254Z 13007KT 5SM HZ FEW150 SCT250 28/22 A3000 RMK AO2
     SLP162 T02830222=
KP60 081256Z AUTO 00000KT 02/M01 A3045 RMK AO2 SLP265 T00171006
     PWINO FZRANO TSNO=
####018000068####
SABZ24 SBPP 081300
METAR SBPP 081300Z 01006KT CAVOK 24/11 Q1018=
####018000081####
SABZ20 SBTF 081300
METAR SBTF 081300Z 13005KT 9999 FEW020 BKN100 29/26 Q1013=
####018000390####
SAAW31 KWBC 081230 RRB
METAR
LTAC 081250Z 06012KT 9999 FEW030CB SCT035 29/14 Q1010 TEMPO
     -TSRA=
LTAF 081250Z /////KT 9999 SCT035 30/21 Q1007 NOSIG=
LTAI 081250Z 19010KT 9999 SCT030 29/22 Q1007 NOSIG=
LTBA 081250Z 35022KT 9999 BKN035 23/16 Q1012 TEMPO 4000 -TSRA=
LTBJ 081250Z 35018KT 9999 FEW030 30/13 Q1010 NOSIG=
LTBS 081250Z 21012KT 9999 FEW030 31/20 Q1007 NOSIG=
####018001759####
SAAW41 KWBC 081250 RRE
METAR
LTAD 081250Z 08008KT 050V110 9999 TS FEW030CB BKN035 30/12 Q1009
     TEMPO 25015G25KT -TSRA RMK RWY29 07008KT 040V100=
LTAG 081250Z 19013KT 9999 SCT035 31/20 Q1007 NOSIG=
LTAH 081250Z 32006KT 240V360 9999 FEW025CB SCT035 30/10 Q1011 RETS
     RMK RWY13 VRB05KT=
LTAJ 081250Z 21009KT 150V260 CAVOK 37/11 Q1007 NOSIG=
LTAN 081250Z 20004KT 9999 SCT040 32/07 Q1009 NOSIG RMK RWY19
     18008KT=
LTAN 081250Z 20004KT 9999 SCT040 32/07 Q1009 NOSIG=
LTAP 081250Z 03021KT 9999 SCT040 28/18 Q1009 NOSIG RMK RWY23
     02019KT=
LTAT 081250Z 06006KT 9999 FEW040 38/01 Q1007 BECMG TL1400 21015KT
     RMK RWY03 04006KT=
LTAU 081250Z 26008KT 230V310 9999 SCT040 33/12 Q1009 NOSIG RMK
     RWY07 23008KT 190V270=
LTAU 081250Z 26008KT 230V310 9999 SCT040 33/12 Q1009 NOSIG=
LTBF 081250Z 36013KT 320V020 9999 SCT035 SCT100 25/15 Q1011 NOSIG
     RMK RWY18 35013KT 300V020=
LTBG 081250Z 36013KT 9999 SCT035 BKN100 21/15 Q1012 NOSIG RMK
     RWY18 35014KT=
LTBI 081250Z 30018KT 9999 SCT035 SCT100 28/13 Q1010 TEMPO -TSRA
     RMK RWY09 31016KT=
LTBL 081250Z 28019KT 9999 FEW040 28/17 Q1010 NOSIG RMK RWY17
     30017KT=
LTBQ 081250Z 04008KT 9999 FEW020CB BKN027 BKN080 24/19 Q1011
     RESHRA NOSIG RMK RWY09 05008KT=
LTCC 081250Z 17008KT 130V210 CAVOK 41/02 Q1005 NOSIG RMK RWY16
     21011KT=
LTCC 081250Z 17008KT 130V210 CAVOK 41/02 Q1005 NOSIG=
LTCE 081250Z VRB04KT 9999 SCT030 31/09 Q1016 NOSIG RMK RWY08R
     10004KT 030V150 RWY26R 01004KT 330V050 RWY08L VRB02KT=
LTCE 081250Z VRB04KT 9999 SCT030 31/09 Q1016 NOSIG=
LTCG 081250Z 08006KT 9999 SCT035 28/22 Q1010 NOSIG=
LTCI 081250Z 25007KT CAVOK 26/19 Q1016 NOSIG=
LTFE 081250Z 26022KT 9999 FEW035 32/15 Q1008 NOSIG=
####018000068####
SABZ23 SBCP 081300
METAR SBCP 081300Z 33004KT CAVOK 25/18 Q1020=
####018000456####
SAAW34 KWBC 081245 RRC
METAR
OAKN 081250Z 25007KT 9999 FEW150 41/04 Q1006 BLU NOSIG RMK A2972
     DA7200=
OPGD 081300Z NIL=
OPLA 081300Z NIL=
OPLA 081255Z 14007KT 6000 SCT040 37/23 Q1002 NOSIG=
OPNH 081300Z 36005KT 6000M SCT035 SCT100 36/24 Q.1001=
OPRN 081300Z 23014KT 9999 SCT040 39/18 Q1004.0=
OPSK 081255Z 13006KTS 2500 HZ SCT040 SCT100 34/24 QNH 1001 R.H.
     56PC=
UTTT 081300Z 00000MPS CAVOK 38/06 Q1009 R08R/CLRD70 NOSIG=
####018000201####
SAUS70 KWBC 081300 CCA
METAR
KRIL 081253Z AUTO 00000KT 10SM CLR 12/08 A3029 RMK AO2 SLP193
     T01220083 TSNO=
KNSE 081256Z 00000KT 9SM FEW250 28/24 A3004 RMK AO2 SLP156
     T02780239 $=
####018000068####
SABZ24 SBLO 081300
METAR SBLO 081300Z 22001KT CAVOK 19/13 Q1021=
####018000081####
SABZ21 SBPS 081300
METAR SBPS 081300Z 27005KT 9999 SCT010 BKN100 21/19 Q1020=
####018000094####
SADL32 KWBC 081250 RRB
METAR
EDLN 081250Z 26005KT 200V310 CAVOK 31/10 Q1019 RMK ATIS Q=
####018000081####
SABZ20 SBBE 081300
METAR SBBE 081300Z 10009KT 9999 FEW013 SCT100 31/22 Q1014=
####018000097####
SPUS31 KWBC 081302
SPECI
KDFW 081259Z 00000KT 5SM -RA BR BKN027 BKN043 OVC070 26/24 A3003=
####018000618####
SAMX31 KWBC 081245 RRD
METAR
MMAA 081245Z 04003KT 8SM SCT015CB BKN090 OVC300 26/23 A2979 RMK
     8/367=
MMGL 081251Z 00000KT 10SM FEW010 BKN080 OVC300 19/16 A3003 RMK
     8/577=
MMMX 081248Z 18003KT 2 1/2SM -RA HZ SCT008 BKN010 OVC020 15/14
     A3020 NOSIG RMK 8/7// VSBY TWR=
MMMZ 081248Z 36004KT 8SM FEW015 BKN025 OVC070 26/22 A2976 RMK
     8/47/=
MMPR 081250Z 00000KT 10SM BKN025 OVC080 25/24 A2980 RMK 8/57/=
MMTM 081249Z 21006KT 6SM SCT010 BKN035 OVC200 26/24 A2981 RMK
     8/807 BINOVC=
MMVR 081248Z 00000KT 6SM SCT012 BKN090 OVC250 25/25 A2980 RMK
     8/467 HZ DSNT CB NW-N=
####018000290####
SAMX42 KWBC 081245 RRD
METAR
MMSP 081246Z 00000KT 7SM SCT010 BKN015 BKN080 17/17 A3013 RMK
     8/550 HZY MSGTX MMMM=
MMTO 081245Z 00000KT 1SM -RA BR BKN005 OVC007 13/11 A3026 RMK
     8/7// -RA B38=
MMZH 081245Z 00000KT 7SM SCT030 BKN100 BKN250 25/23 A2978 RMK
     8/232=
####018000313####
SAMX41 KWBC 081245 RRC
METAR
MMBT 081240Z 00000KT 6SM SCT030 OVC130 23/22 A2989 RMK 8/76/ VRB
     COND=
MMGL 081251Z 00000KT 10SM FEW010 BKN080 OVC300 19/16 A3003 RMK
     8/577=
MMML 081253Z 15010KT 10SM SKC 22/// A2970=
MMMT 081259Z RTD 24010KT 10SM BKN020 OVC100 24/22 A2979 RMK
     8/57/=
####018000081####
SANO42 KWBC 081250 RRB
METAR
ENOA 081250Z 19023KT 9999 FEW045 13/11 Q1011=
####018000413####
SAUK39 EGRR 081250 RRA
METAR EGDX 081250Z 26007KT 9999 FEW020 20/11 Q1018 BLU=
METAR EGOM 081250Z 25015KT 9999 SCT026 SCT032 17/10 Q1015 BLU=
METAR EGOW 081250Z 26013KT 9999 FEW036 BKN250 20/11 Q1017 BLU=
METAR EGQA 081250Z 21013KT 9999 -SHRA FEW020 SCT030 15/// Q1010 BLU=
METAR EGUB 081250Z 21009KT 9999 SCT038 BKN220 24/19 Q1018 BLU NOSIG=
METAR EGXZ 081250Z 25013KT 9999 SCT040 21/09 Q1016 BLU=
####018000200####
SAUK31 KWBC 081250 RRB
METAR
EGLF 081250Z 28006KT 220V330 9999 SCT032 BKN038 23/05 Q1018=
EGNH 081250Z 24012KT 9999 FEW030 19/11 Q1017=
EGNJ 081250Z 23011KT 190V270 9999 SCT040 22/10 Q1017=
####018000210####
SAUK32 KWBC 081250 RRB
METAR
EGPA 081250Z 21014KT 9999 VCSH FEW020CB SCT045 18/11 Q1008=
EGPC 081250Z 20012KT 9999 VCSH FEW020 15/13 Q1009=
EGSH 081250Z 26007KT 210V310 9999 SCT023 24/15 Q1018 NOSIG=
####018000392####
SAUK41 KWBC 081250 RRB
METAR
EGAE 081250Z 23013KT 9999 FEW020 SCT040 19/09 Q1012=
EGBE 081250Z NIL=
EGBJ 081250Z 22006G16KT 020V270 9999 FEW035 22/09 Q1018=
EGDL 081250Z 20007KT 9999 FEW035 BKN220 22/10 Q1018 NOSIG=
EGDM 081250Z NIL=
EGDM 081250Z 22008KT 9999 SCT025 BKN250 22/14 Q1018 NOSIG=
EGDY 081250Z NIL=
EGNC 081250Z 24016KT 210V270 9999 FEW020 SCT035 18/09 Q1015=
####018000500####
SAUK42 KWBC 081250 RRB
METAR
EGOV 081250Z NIL=
EGPC 081250Z 20012KT 9999 VCSH FEW020 15/13 Q1009=
EGPE 081250Z 23019KT 9999 VCSH FEW015 SCT034 19/10 Q1009=
EGPL 081250Z 22021KT 9999 VCSH FEW018 16/11 Q1008=
EGPM 081250Z 23027KT 9999 FEW026 16/09 Q1006 NOSIG=
EGPN 081250Z 23019KT 9999 SCT045 18/10 Q1012=
EGPO 081250Z 23024KT 9999 FEW024 SCT032 18/10 Q1007=
EGPU 081250Z 23020KT 9999 SCT023 16/12 Q1010=
EGPU 081250Z NIL=
EGSC 081250Z 21007KT 160V270 9999 SCT035 23/14 Q1018=
####018000347####
SAXX99 KWBC 081200 RRX
METAR
MMCB 081240Z 00000KT 1/4SM FG BKN004 OVC100 18/16 A3001 RMK 8/77/
     OCNL DROPS=
MMIT 081245Z NIL=
MMLO 081248Z 00000KT 7SM BKN025 BKN070 OVC200 18/18 A3012 RMK
     8/577 HZY BINOVC=
MMOX 081248Z NIL=
MMQT 081245Z 09005KT 5SM BKN015 BKN120 OVC180 17/15 A3018 RMK
     8/532=
MMTB 081245Z NIL=
####018000124####
SAUS44 KMOB 081302 COR
MTR79J
METAR K79J 081256Z AUTO 00000KT 10SM CLR 28/22 A3003 RMK AO2 SLP165 
T02780222 TSNO $
####018000207####
SASQ31 LZIB 081300
METAR LZIB 081300Z 35007KT 270V040 CAVOK 25/07 Q1021=
METAR LZKZ 081300Z 01006KT 330V110 CAVOK 24/06 Q1020 NOSIG=
METAR LZTT 081300Z 08011KT 040V120 9999 FEW053 21/07 Q1022 NOSIG=
####018000099####
SAAJ31 UBBB 081300
METAR UBBY 081300Z 14005KT 9999 NSC 34/15 Q1014 NOSIG
RMK R33/CLRD70 G/O=
####018000191####
SARW20 HRYR 081300
METAR
HRYR 081300Z 20003KT 9999 BKN030 26/13 Q1020 NOSIG=
HRZA 081300Z 14016KT 9999 SCT024 24/11 Q1021 NOSIG=
HRYG 081300Z 24006KT 9999 FEW025 25/12 Q1019 NOSIG=
####018000152####
SAJD20 OJAM 081300
METAR OJAI 081300Z NIL=
METAR OJAM 081300Z 28009KT 6000 NSC 33/07 Q1011 NOSIG=
METAR OJAQ 081300Z 36016KT CAVOK 39/30 Q1005=
####018000152####
SAJD31 OJAI 081300
METAR OJAI 081300Z NIL=
METAR OJAM 081300Z 28009KT 6000 NSC 33/07 Q1011 NOSIG=
METAR OJAQ 081300Z 36016KT CAVOK 39/30 Q1005=
####018000189####
SASQ41 LZIB 081300
METAR LZPP 081300Z 36006KT 330V060 CAVOK 24/11 Q1021=
METAR LZSL 081300Z 23006KT 090V260 CAVOK 27/11 Q1020=
METAR LZZI 081300Z 04005KT 340V100 CAVOK 24/08 Q1021=
####018000083####
SAHU31 LHBM 081300
METAR LHBP 081300Z 27006KT 220V020 CAVOK 25/10 Q1021 NOSIG=
####018000083####
SPAU32 YBBN 081300
SPECI YBMA 081300Z AUTO 00000KT 8000NDV // NCD 08/07 Q1020=
####018000084####
SPUS52 KWBC 081302
SPECI
KJCT 081259Z AUTO 00000KT 5SM BR FEW004 23/22 A3003=
####018000416####
SATU32 LTAA 081250
METAR LTAN 081250Z 20004KT 9999 SCT040 32/07 Q1009 NOSIG=
METAR LTAU 081250Z 26008KT 230V310 9999 SCT040 33/12 Q1009 NOSIG=
METAR LTBR 081250Z 32017G27KT 9999 SCT035TCU BKN100 25/18 Q1011
TEMPO -TSRA=
METAR LTBU 081250Z 33010KT 9999 -SHRA SCT030TCU BKN100 18/15 Q1014=
METAR LTCC 081250Z 17008KT 130V210 CAVOK 41/02 Q1005 NOSIG=
METAR LTCE 081250Z VRB04KT 9999 SCT030 31/09 Q1016 NOSIG=
####018000028####
SATU33 LTAA 081250
NIL=
####018000085####
SASW32 LSSW 081250 RRA
METAR LSZG 081250Z VRB02KT 9999 FEW050 30/12 Q1021 NOSIG=
####018000027####
SATU33 LTAA 081250
NIL
####018000098####
SAFG20 SOCA 081300
METAR SOCA 081300Z 11006KT 070V160 9999 FEW013 SCT020 30/25 Q1013
NOSIG=
####018000091####
SAAJ31 UBBB 081300
METAR UBBL 081300Z 14007KT 9999 NSC 33/16 Q1010 NOSIG RMK G/O SC07=
####018000937####
SATU31 LTAA 081250
METAR LTAC 081250Z 06012KT 9999 FEW030CB SCT035 29/14 Q1010 TEMPO
-TSRA=
METAR LTAF 081250Z /////KT 9999 SCT035 30/21 Q1007 NOSIG=
METAR LTAI 081250Z 19010KT 9999 SCT030 29/22 Q1007 NOSIG=
METAR LTAJ 081250Z 21009KT 150V260 CAVOK 37/11 Q1007 NOSIG=
METAR LTAZ 081250Z 11008KT 9999 FEW040 SCT100 34/11 Q1008=
METAR LTBA 081250Z 35022KT 9999 BKN035 23/16 Q1012 TEMPO 4000 -TSRA=
METAR LTBJ 081250Z 35018KT 9999 FEW030 30/13 Q1010 NOSIG=
METAR LTBS 081250Z 21012KT 9999 FEW030 31/20 Q1007 NOSIG=
METAR LTCF 081250Z 11011KT 080V140 9999 FEW035 29/08 Q1018=
METAR LTCG 081250Z 08006KT 9999 SCT035 28/22 Q1010 NOSIG=
METAR LTCI 081250Z 25007KT CAVOK 26/19 Q1016 NOSIG=
METAR LTCS 081250Z VRB05KT CAVOK 37/01 Q1009=
METAR LTFE 081250Z 26022KT 9999 FEW035 32/15 Q1008 NOSIG=
METAR LTFH 081250Z 05008KT 010V100 9999 SCT036 BKN100 27/23 Q1009
NOSIG=
METAR LTFJ 081250Z 01017KT 9999 BKN030 23/17 Q1011 NOSIG=
####018000101####
SASR31 WSSL 081300
METAR WSSL 081300Z 21004KT 9999 FEW018 BKN280 28/24 Q1010 RMK 1030Z
Q1008 =
####018000097####
SPUS72 KWBC 081302
SPECI
KDFW 081259Z 00000KT 5SM -RA BR BKN027 BKN043 OVC070 26/24 A3003=
####018002253####
SAUS20 KNKA 081302
METAR K0R3 081259Z AUTO 08006KT 7SM OVC003 27/26 A3002 RMK AO2=
METAR K1A5 081300Z AUTO 00000KT 10SM CLR 20/19 A3017 RMK AO2 
     T02000187=
METAR K3I2 081300Z AUTO 00000KT 7SM CLR 25/21 A3010 RMK AO2=
METAR K47A 081300Z AUTO 00000KT 10SM CLR 27/17 A3008 RMK AO2 LTG 
     DSNT NE AND SW T02660171=
METAR K4CR 081258Z 08004KT 15SM OVC050 13/11
=
METAR KASJ 081257Z AUTO 04003KT 4SM HZ SCT010 27/23 A3000 RMK AO2=
METAR KAVC 081300Z AUTO 00000KT 5SM HZ CLR 29/21 A3005 RMK AO2=
METAR KBCB 081300Z AUTO 00000KT 5SM HZ BKN060 26/23 A3017 RMK AO2=
METAR KBIJ 081300Z AUTO 00000KT 10SM CLR 28/23 A3004 RMK AO2=
SPECI KBRO 081301Z 32008KT 10SM SCT005 BKN026 26/25 A2977 RMK AO2=
METAR KCTZ 081300Z AUTO 03006KT 5SM HZ CLR 29/22 A2996 RMK AO2=
METAR KCWV 081309Z AUTO 28004KT 10SM CLR 29/23 A3001 RMK AO2=
METAR KDMA 081255Z AUTO 07007KT 10SM CLR 29/11 A2991 RMK AO2 SLP052
      T02860111 $=
METAR KDPL 081300Z AUTO 05004KT 4SM HZ CLR 28/22 A2997 RMK AO2=
METAR KE33 081250Z 36004KT 20SM BKN070  12/07 RMK 402670078
=
METAR KEXX 081259Z AUTO 35003KT 7SM CLR 27/20 A3002 RMK AO2=
METAR KFAF 081255Z 13005KT 10SM FEW016 27/26 A3000 RMK AO2A SLP159
      T02710262=
METAR KFQD 081259Z AUTO 10003KT 10SM CLR 27/19 A3006 RMK AO2=
METAR KFYJ 081301Z AUTO 13003KT 7SM SCT011 SCT075 29/26 A3002 RMK 
     AO1=
METAR KGEV 081301Z AUTO 00000KT 7SM CLR 25/19 A3020 RMK AO2=
METAR KHRJ 081301Z AUTO 04007KT 7SM CLR 31/22 A2997 RMK AO2=
METAR KJNX 081259Z AUTO 02003KT 7SM CLR 28/21 A2997 RMK AO2=
METAR KJYL 081301Z AUTO 31003KT 10SM CLR 27/22 A3001 RMK AO2=
METAR KLWB 081300Z AUTO 00000KT 7SM SCT055 24/18 A3018 RMK AO2=
METAR KMQI 081256Z AUTO 06011KT 10SM SCT013 27/23 A2997 RMK AO2=
METAR KMRN 081259Z AUTO 28003KT 10SM SCT085 26/17 A3012 RMK AO2=
METAR KNBG 081255Z 06003KT 7SM SCT015 BKN250 26/23 A3004 RMK AO2 SLP171
      T02620233 $=
METAR KO22 081255Z AUTO 00000KT 10SM CLR 15/12 A2991 RMK AO1 =
METAR KTVI 081300Z AUTO 35003KT 10SM CLR 27/22 A3004 RMK AO2=
METAR KUKF 081301Z AUTO 00000KT 7SM CLR 26/20 A3010 RMK AO1=
METAR KUNV 081300Z AUTO 00000KT 10SM CLR 25/19 A3010 RMK AO2 
     T02520190=
METAR KW99 081259Z AUTO 00000KT 7SM CLR 26/17 A3010 RMK AO2=
####018000553####
SACN60 CWAO 081200 RRE
PCC SA 1200 AUTO8 M M M M/13/10/2401/M/ M 50MM=
PDA SA 1200 AUTO8 M M M M/13/09/MMMM/M/ M 80MM=
PDU SA 1200 AUTO8 M M M M/13/12/MMMM/M/ M 98MM=
PEB SA 1200 AUTO8 M M M M/11/09/MMMM/M/ M 55MM=
PGI SA 1200 AUTO8 M M M M/11/10/2005/M/ M 07MM=
PHR SA 1200 AUTO8 M M M M/07/06/2301/M/ M 80MM=
PKI SA 1200 AUTO8 M M M M/13/11/MMMM/M/ M 79MM=
PLF SA 1200 AUTO8 M M M M/14/11/MMMM/M/ M 84MM=
PMN SA 1200 AUTO8 M M M M/12/11/MMMM/M/ M 18MM=
PSL SA 1200 AUTO8 M M M M/15/12/MMMM/M/0004 PCPN 0.4MM PAST HR M
61MM=

####018000081####
SACN95 CWAO 081200 RRF
WTD SA 1200 AUTO8 M M M 120/08/08/3606/M/M M 55MM=

####018000082####
SACN91 CWAO 081200 RRE
WHI SA 1200 AUTO8 M M M M/12/08/2008/M/0007 M 53MM=

####018000078####
SACN93 CWAO 081200 RRG
WOV SA 1200 AUTO8 M M M M/12/09/1302/M/ M 52MM=

####018000104####
SACN90 CWAO 081200 RRF
WFX SA 1200 AUTO8 M M M 147/09/06/3212/M/M PK WND 3218 1121Z 2011
95MM=

####018000104####
SACN92 CWAO 081200 RRF
WLG SA 1200 AUTO8 M M M 196/09/07/2907/M/M PK WND 3117 1117Z 1016
45MM=

####018000078####
SACN98 CWAO 081200 RRG
XBW SA 1200 AUTO8 M M M M/10/09/2505/M/ M 87MM=

####018000282####
SACN59 CWAO 081200 RRJ
PEA SA 1200 AUTO8 M M M M/12/10/MMMM/M/ M 39MM=
PSD SA 1200 AUTO8 M M M M/10/09/MMMM/M/ M 39MM=
PSP SA 1200 AUTO8 M M M M/10/09/MMMM/M/ M 45MM=
PTU SA 1200 AUTO8 M M M M/13/12/MMMM/M/0006 M 97MM=
PWB SA 1200 AUTO8 M M M M/09/07/MMMM/M/ M 85MM=

####018000069####
SAYE20 OYAT 081300
METAR OYAT 081300Z 35010KT CAVOK 39/09 Q0998=
####018000619####
SABN32 OBBI 081200
METAROMAA 081200Z 25003KT CAVOK 44/15 Q0997 A2947 NOSIG=
METAR OMAD 081200Z 36008KT CAVOK 43/19 Q0998 A2947=
METAR OMAL 081200Z NIL=
METAR OMDB 081200Z 36013KT 7000 FEW035 40/23 Q0999 NOSIG=
METAR OMDW 081200Z 32016KT 6000 FEW035 40/22 Q0999 NOSIG=
METAR OMFJ 081200Z 10009KT 040M130 6000 FEW025 34/25 Q1001 A2955=
METAR OMRK PPIQWPPZ 34010KT CAVOK 41/33 Q0998 A2947=
METAR OMSJ 081200Z 32012KT 290V360 7000 =?32030 40/23 Q0999=
METAR OOMS 081200Z 07005KT 040V110 6000 SCT025 SCT120
33/28 Q1000 NOSIG=
METAR OOSA 08120,Z 16008KT 8000 FEW008 SMT012 BKN020
28/23 Q1002 NOSIG=
####018000069####
SABZ24 SBCG 081300
METAR SBCG 081300Z 06013KT CAVOK 25/08 Q1017=
####018000069####
SABZ23 SBGL 081300
METAR SBGL 081300Z 10002KT CAVOK 24/14 Q1018=
####018000069####
SABZ24 SBPP 081300
METAR SBPP 081300Z 01006KT CAVOK 24/11 Q1018=
####018000125####
SAUS41 KAKQ 081302
MTRNGU
METAR KNGU 081259Z 07008KT 10SM FEW012 SCT070 BKN100 27/20 A3001 RMK 
AO2 SLP163 T02720200
####018000078####
SAMZ40 FQMA 081300
METAR FQQL 081300Z 14010KT 9999 BKN020 26/18 Q1022=

####018000154####
SAEW KAWN 081000 RRS
METAR EBFN 081025Z 32006KT 9999 FEW042 BKN200 22/16 Q1020 BLU BLU=
METAR EBFS 081025Z 20004KT 9999 FEW250 27/11 Q1021 BLU BLU=
####018000154####
SAEU KAWN 081000 RRX
METAR EBFN 081025Z 32006KT 9999 FEW042 BKN200 22/16 Q1020 BLU BLU=
METAR EBFS 081025Z 20004KT 9999 FEW250 27/11 Q1021 BLU BLU=
####018001244####
SAUK KAWN 081300 RRB
METAR EGAE 081250Z 23013KT 9999 FEW020 SCT040 19/09 Q1012=
METAR EGBJ 081250Z 22006G16KT 020V270 9999 FEW035 22/09 Q1018=
METAR EGEC 081250Z 24010KT 9999 FEW024 SCT036 16/10 Q1013=
METAR EGFF 081250Z 22007KT 180V260 9999 FEW030 21/11 Q1019=
METAR EGLF 081250Z 28006KT 220V330 9999 SCT032 BKN038 23/05 Q1018=
METAR EGNC 081250Z 24016KT 210V270 9999 FEW020 SCT035 18/09 Q1015=
METAR EGNH 081250Z 24012KT 9999 FEW030 19/11 Q1017=
METAR EGNJ 081250Z 23011KT 190V270 9999 SCT040 22/10 Q1017=
METAR EGPA 081250Z 21014KT 9999 VCSH FEW020CB SCT045 18/11 Q1008=
METAR EGPC 081250Z 20012KT 9999 VCSH FEW020 15/13 Q1009=
METAR EGPE 081250Z 23019KT 9999 VCSH FEW015 SCT034 19/10 Q1009=
METAR EGPL 081250Z 22021KT 9999 VCSH FEW018 16/11 Q1008=
METAR COR EGPM 081250Z 23027KT 9999 FEW026 16/09 Q1006 NOSIG=
METAR EGPN 081250Z 23019KT 9999 SCT045 18/10 Q1012=
METAR EGPO 081250Z 23024KT 9999 FEW024 SCT032 18/10 Q1007=
METAR EGPU 081250Z 23020KT 9999 SCT023 16/12 Q1010=
METAR EGSC 081250Z 21007KT 160V270 9999 SCT035 23/14 Q1018=
METAR COR EGSH 081250Z 26007KT 210V310 9999 SCT023 24/15 Q1018 NOSIG=
METAR EGUN 081255Z 26008KT 9999 BKN033 BKN043 22/17 A3006 RMK AO2A
      SLP170 T02190166 BLU=
####018000587####
SAEW KAWN 081300 RRC
METAR EDHL 081250Z 22008KT 170V280 CAVOK 30/14 Q1019 RMK S=
METAR EDLN 081250Z 26005KT 200V310 CAVOK 31/10 Q1019 RMK ATIS Q=
METAR EDLP 081250Z VRB04KT CAVOK 30/10 Q1020 RMK RWY24 TRL60 RG ATIS
      V=
METAR EDLW 081250Z VRB05KT CAVOK 30/10 Q1020 RMK ATIS T=
METAR EDNY 081250Z 18005KT CAVOK 28/11 Q1021 RMK ATIS S=
METAR EDXW 081250Z 23008KT 4600 -RA FEW020 BKN070 18/16 Q1019 RMK ATIS
      INFO Y=
METAR EHKD 081255Z AUTO 23009KT 9999NDV FEW210/// 22/15 Q1019 BLU BLU=
METAR EHVL 081255Z AUTO 24010KT 9999NDV FEW075 BKN160 21/16 Q1019 BLU=
####018000092####
SABZ24 SBPA 081300
METAR SBPA 081300Z 18005KT 5000 BR BKN010 SCT015 OVC030 14/12 Q1021=
####018000072####
SABZ18 SBKP 081300
METAR SBKP 081300Z 01004KT 8000 NSC 21/09 Q1022=
####018000085####
SASR31 WSAP 081300
METAR WSAP 081300Z 23002KT 9999 
FEW016 BKN220 29/24 Q1010=
####018000075####
SAMA20 FIMP 081300
METAR FIMP 081300Z 14015KT 9999 SCT016 23/16 Q1021=
####018001688####
SASA KAWN 081300 RRA
METAR SADF 081300Z 29002KT CAVOK 09/04 Q1019=
METAR SARI 081300Z 20006KT 2000 BR BKN002 SCT100 17/17 Q1020=
METAR SBBR 081300Z 07013KT CAVOK 21/09 Q1024=
METAR SBBV 081300Z 00000KT 9999 SCT020 SCT070 27/23 Q1013=
METAR SBCF 081300Z 14006KT CAVOK 17/10 Q1024=
METAR SBCG 081300Z 06013KT CAVOK 25/08 Q1017=
METAR SBEG 081300Z 00000KT CAVOK 28/22 Q1013=
METAR SBFI 081300Z 14007KT 9999 FEW020 BKN100 17/15 Q1018=
METAR SBFL 081300Z 15010KT 9999 FEW023 SCT100 21/16 Q1018=
METAR SBGR 081300Z 01004KT CAVOK 21/08 Q1023=
METAR SBRB 081300Z 04008KT CAVOK 29/24 Q1013=
METAR SBRF 081300Z 18006KT 9999 FEW020 BKN070 27/22 Q1016=
METAR SBRJ 081300Z 01005KT CAVOK 23/17 Q1018=
METAR SBSJ 081300Z 00000KT CAVOK 17/11 Q1023=
METAR SBSP 081300Z 32005KT CAVOK 20/08 Q1023=
METAR SBSV 081300Z 21010KT 3000 -RA BR BKN007 SCT017 BKN070 24/22 Q1019=
METAR SBUG 081300Z 11012KT CAVOK 11/06 Q1021=
METAR SGAS 081300Z 14007KT 9000 BKN010 OVC015 17/15 Q1016=
METAR SGES 081300Z 15007KT 9999 FEW030 BKN080 18/16 Q1016=
METAR SLCB 081300Z 15003KT 4000E FU FEW027 SCT200 14/08 Q1027=
METAR SLLP 081300Z VRB02KT 9999 FEW015 04/M04 Q1038=
METAR SLVR 081300Z 17012KT 9999 FEW025 BKN070 BKN200 20/16 Q1017=
METAR SMJP 081300Z 11007KT 9999 SCT018 29/25 Q1013 NOSIG=
METAR SVCR 081300Z 00000KT 9999 SCT016 BKN060 25/23 Q1012=
METAR SVJC 081300Z 09009KT 9999 FEW030 27/25 Q1012=
METAR SVLF 081300Z 00000KT 9999 BKN040 XX/XX Q1014=
METAR SVMC 081300Z 36003KT 9999 SCT013 SCT070 28/26 Q1012=
METAR SVSA 081300Z 00000KT 9999 BKN020 25/20 Q1016=
METAR SYCJ 081300Z 10010KT 9999 BKN019 SCT300 30/26 Q1009 JP SW AND
      N-NE TEMPO SHRA SHRA=
####018001668####
SANA35 KAWN 081300 RRB
METAR KACY 081254Z 10006KT 6SM -RA BR SCT013 BKN020 24/22 A3006 RMK
      AO2 RAB37 SLP178 P0001 T02440222=
METAR KCHS 081256Z 31006KT 8SM CLR 27/21 A2997 RMK AO2 SLP148 T02670206=
METAR KCOF 081255Z 03006KT 10SM CLR 28/21 A3000 RMK AO2A SLP160 T0277=
METAR KDAB 081253Z 33003KT 10SM FEW024 SCT250 27/21 A3002 RMK AO2 SLP164
      T02670206 $=
METAR KDAB 081253Z 33003KT 10SM FEW024 SCT250 27/21 A3002 RMK AO2 SLP164
      T02670206 $=
METAR KDOV 081257Z 13008KT 10SM FEW130 26/23 A3002 RMK AO2A SLP168=
METAR KGSB 081255Z 06007KT 8SM CLR 27/21 A2996 RMK AO2A SLP144 WND
      DATA ESTMD T02750214 $=
METAR KNBC 081256Z 29007KT 6SM HZ CLR 27/20 A2999 RMK AO2 SLP156 T02720200
      PNO $=
METAR KNBG 081255Z 06003KT 7SM SCT015 BKN250 26/23 A3004 RMK AO2 SLP171
      T02620233 $=
METAR KNGP 081256Z VRB04KT 10SM FEW010 SCT021CB BKN033 28/25 A2983
      RMK AO2 RAE31 SLP101 CB DSNT SE TCU DSNT S-SW WR// VCSH W-NW
      P0002 T02770252=
METAR KNJM 081257Z AUTO 01005KT 7SM FEW014 29/24 A2994 RMK AO2 SLP143
      T02890244 $=
METAR KNTU 081256Z 07007KT 10SM SCT015 BKN050 BKN100 26/22 A2999 RMK
      AO2 SLP156 T02610222 $=
METAR KPAM 081255Z 36006KT 10SM CLR 27/25 A3003 RMK AO2A SLP169 T02730248=
METAR KVPS 081255Z COR 34002KT 10SM CLR 27/24 A3004 RMK SLP173 T02660237
      $ COR 1258=
METAR MMVR 081248Z 00000KT 6SM SCT012 BKN090 OVC250 25/25 A2980 RMK
      8/467 HZ DSNT CB NW-N=
METAR MTPP 081300Z 09010KT 7000 FEW024 SCT200 29/24 Q1015 A2999=
METAR MYGF 081300Z 08006KT 9999 FEW015CB 29/25 A2998 RMK CB S /=
METAR TBPB 081300Z 08020KT 9999 SCT020 BKN280 31/25 Q1014 NOSIG=
####018000098####
SAUS41 KAKQ 081302
MTRWAL
SPECI KWAL 081301Z 08008KT 10SM FEW011 SCT110 27/22 A3002 RMK AO2
####018000127####
SAUS45 KRIW 081302 COR
MTRP60
METAR KP60 081256Z AUTO 00000KT 02/M01 A3045 RMK AO2 SLP265 
T00171006 PWINO FZRANO TSNO
####018000523####
SAAU69 AMMC 081300
METAR YSTW 081300Z AUTO 14007KT 9999NDV // NCD 06/04 Q1024=
METAR YSWG 081300Z AUTO 12004KT 9999NDV // NCD 04/02 Q1027=
METAR YTEF 081300Z AUTO 01006KT //// // ////// 21/16 Q1012=
METAR YTNK 081300Z AUTO 10008KT 9999NDV // NCD 15/11 Q1019=
METAR YTRE 081300Z AUTO 26004KT //// // ////// 11/11 Q1026=
METAR YWGT 081300Z AUTO 23005KT //// // ////// 02/02 Q1028=
METAR YWHA 081300Z AUTO 06003KT 9999NDV // NCD 03/01 Q1024=
METAR YWLM 081300Z AUTO 25007KT 9999NDV // ////// 10/10 Q1026=

####018002433####
SAUS20 KNKA 081302
METAR KIRS 081255Z AUTO 10005KT 10SM CLR 26/22 A3004 RMK AO2=
METAR KISQ 081255Z AUTO 35006KT 10SM OVC004 20/18 A2999 RMK
     AO2=
SPECI KJCT 081259Z AUTO 00000KT 5SM BR FEW004 23/22 A3003 RMK AO2
     TSNO=
METAR KJYG 081255Z AUTO 00000KT 10SM CLR 20/19 A3015 RMK AO2=
METAR KJYM 081255Z AUTO 00000KT 10SM CLR 26/21 A3008 RMK AO2=
METAR KLDM 081255Z AUTO 25004KT 5SM -RA OVC005 22/21 A3002 RMK AO2
     P0003=
METAR KLWA 081256Z AUTO 00000KT 10SM SCT048 BKN085 BKN110 23/21
     A3003 RMK AO2=
METAR KMCD 081256Z AUTO 26004KT 1SM -RA OVC001 20/17 A3000 RMK
     AO2=
METAR KMGN 081255Z AUTO 26005KT 4SM DZ OVC010 21/20 A3000 RMK
     AO2=
METAR KMHR 081250Z 15005KT 10SM FEW150 12/10 A2986=
METAR KMOP 081255Z AUTO 26005KT 10SM BKN060 BKN075 OVC120 23/23
     A3002 RMK AO2=
METAR KMZH 081251Z AUTO 28005KT 10SM CLR 18/16 A3006 RMK AO2=
METAR KOEB 081255Z AUTO 09003KT 7SM CLR 26/22 A3006 RMK AO2=
METAR KONZ 081257Z AUTO 00000KT 10SM CLR 28/22 A3002 RMK AO2=
METAR KORB 081254Z AUTO 27005KT 10SM CLR 17/14 A3001 RMK AO2=
METAR KOSC 081254Z AUTO 23004KT 7SM SCT060 BKN075 BKN090 23/21
     A3000 RMK AO2=
METAR KOWA 081254Z AUTO 33004KT 10SM CLR 18/17 A3011 RMK AO2=
METAR KOZW 081255Z AUTO 00000KT 10SM SCT050 SCT070 26/21 A3005 RMK
     AO2=
METAR KPHN 081255Z AUTO 19004KT 10SM CLR 27/21 A3002 RMK AO2=
METAR KPZQ 081255Z AUTO 25006KT 7SM DZ SCT050 SCT070 OVC090 22/20
     A3000 RMK AO2=
METAR KRGK 081255Z AUTO 29004KT 10SM CLR 20/17 A3010 RMK AO2=
METAR KRIL 081253Z AUTO 00000KT 10SM CLR 12/08 A3029 RMK AO2
     SLP193 T01220083 TSNO=
METAR KRMY 081255Z AUTO 00000KT 10SM CLR 25/22 A3005 RMK AO2=
METAR KRNP 081255Z AUTO 20004KT 10SM CLR 26/21 A3004 RMK AO2=
METAR KRQB 081255Z AUTO 00000KT 2SM +RA SCT013 BKN028 OVC055 22/21
     A3004 RMK AO2 VIS 1V4=
METAR KSJX 081255Z AUTO 25004KT 1/4SM FG OVC002 19/18 A2999 RMK
     AO2=
METAR KSLH 081255Z AUTO 24005KT 5SM -RA SCT009 BKN029 OVC047 22/21
     A2998 RMK AO2=
METAR KTTF 081254Z AUTO 00000KT 10SM CLR 28/22 A3002 RMK AO2=
METAR KUKT 081255Z AUTO 00000KT 8SM CLR 28/22 A3006 RMK AO1=
METAR KVLL 081254Z AUTO 25005KT 10SM CLR 29/19 A3005 RMK AO2=
METAR KVWU 081251Z AUTO 26009KT 10SM CLR 19/14 A3004 RMK AO2=
METAR KXVG 081256Z AUTO 26004KT 10SM CLR 18/16 A3006 RMK AO2=
METAR KY70 081255Z AUTO 24004KT 5SM HZ SCT006 25/23 A3004 RMK AO2
     T02470225=
####018002981####
SAUS20 KNKA 081302
METAR KRIC 081254Z 13007KT 5SM HZ FEW150 SCT250 28/22 A3000 RMK
     AO2 SLP162 T02830222=
METAR K4I3 081256Z AUTO 00000KT 7SM CLR 25/21 A3010 RMK AO2=
METAR KACB 081255Z AUTO 00000KT 5SM DZ OVC011 23/22 A3001 RMK
     AO2=
METAR KACQ 081259Z AUTO 32005KT 10SM CLR 17/16 A3015 RMK AO2=
METAR KADC 081257Z AUTO 27005KT 10SM CLR 17/14 A3010 RMK AO2=
METAR KAMN 081255Z AUTO 26003KT 7SM CLR 24/22 A3002 RMK AO2=
METAR KAQP 081253Z AUTO 25005KT 10SM CLR 17/17 A3011 RMK AO2=
METAR KAUM 081255Z AUTO 34007KT 10SM CLR 19/17 A3011 RMK AO2=
METAR KBAX 081255Z AUTO 25004KT 7SM CLR 26/23 A3001 RMK AO2=
METAR KBDH 081255Z AUTO 27003KT 10SM CLR 18/16 A3014 RMK AO2=
METAR KBFW 081253Z AUTO 31005KT 10SM CLR 22/16 A3002 RMK AO2=
METAR KCAD 081254Z AUTO 24006KT 4SM RA SCT006 BKN050 OVC080 22/21
     A3005 RMK AO2=
METAR KCBG 081255Z AUTO 26005KT 10SM CLR 19/16 A3009 RMK AO2=
METAR KCDA 081255Z AUTO 00000KT 7SM CLR 26/21 A3010 RMK AO2=
METAR KCDD 081251Z AUTO 00000KT 10SM CLR 20/18 A3003 RMK AO2=
METAR KCFE 081255Z AUTO 26005KT 10SM CLR 20/16 A3013 RMK AO2
     T01960164=
METAR KCFS 081255Z AUTO 00000KT 10SM CLR 26/21 A3002 RMK AO2=
METAR KCKC 081255Z AUTO 26004KT 10SM CLR 19/14 A3004 RMK AO2=
METAR KCKN 081255Z AUTO 28004KT 10SM CLR 17/14 A3007 RMK AO2=
METAR KCNB 081258Z AUTO 25008KT 10SM CLR 20/14 A3014 RMK AO2
     T01990143=
METAR KCOQ 081256Z AUTO 27008KT 10SM CLR 19/18 A3007 RMK AO2=
METAR KCQM 081257Z AUTO 24005KT 10SM CLR 18/15 A3004 RMK AO2=
METAR KCVX 081255Z AUTO 23005KT 3SM -RA SCT004 BKN010 OVC050 21/20
     A3002 RMK AO2=
SPECI KDEN 081301Z 00000KT 1 1/2SM R35L/4500VP6000FT BR OVC003 14/14 
    A3032 RMK AO2 SFC VIS 2=
METAR KDRM 081256Z AUTO 23005KT 4SM -RA BKN010 OVC019 21/21 A2998
     RMK AO2=
METAR KDTL 081255Z AUTO 29004KT 10SM CLR 18/12 A3011 RMK AO2=
METAR KDUH 081255Z AUTO 00000KT 10SM CLR 28/20 A3004 RMK AO2=
METAR KDVP 081256Z AUTO 28004KT 10SM CLR 19/14 A3019 RMK AO2
     T01850140=
METAR KERY 081255Z AUTO 32004KT 5SM BR OVC003 18/17 A3001 RMK
     AO2=
METAR KETH 081254Z AUTO 27004KT 10SM CLR 19/16 A3011 RMK AO2=
SPECI KEWR 081301Z 16003KT 2SM BR BKN005 OVC009 26/25 A3005 RMK AO2 
    SFC VIS 4 CIG 004V006=
METAR KFFX 081255Z AUTO 17003KT 4SM BR SCT002 OVC065 23/22 A3002
     RMK AO2=
METAR KFKA 081303Z AUTO 35007KT 10SM CLR 20/18 A3011 RMK AO2
     T01970177=
METAR KFKS 081255Z AUTO 26003KT 4SM BR BKN004 21/20 A3001 RMK
     AO2=
METAR KFOZ 081253Z AUTO 24004KT 10SM CLR 17/16 A3006 RMK AO2=
METAR KFPK 081256Z AUTO 00000KT 7SM CLR 25/21 A3004 RMK AO2=
METAR KFSE 081254Z AUTO 22004KT 10SM CLR 16/13 A3007 RMK AO2=
METAR KGOV 081255Z AUTO 25003KT 7SM -RA BKN048 OVC050 22/22 A3004
     RMK AO2=
METAR KHAF 081250Z AUTO 00000KT 8SM OVC006 12/10 A2994 RMK AO2=
METAR KHAI 081255Z AUTO 00000KT 10SM CLR 25/22 A3004 RMK AO2=
METAR KHYX 081255Z AUTO 25004KT 10SM SCT085 SCT120 25/21 A3002 RMK
     AO2=
####018000075####
SACN50 CWAO 081230
VOM SA 1230 AUTO8 M M M M/19/10/3303/M/M M 37MM=

####018000075####
SACN50 CWAO 081245
VOM SA 1245 AUTO8 M M M M/20/10/3001/M/M M 63MM=

####018000075####
SACN50 CWAO 081230
VOP SA 1230 AUTO8 M M M M/13/11/0602/M/M M 98MM=

####018000075####
SACN50 CWAO 081215
VOP SA 1215 AUTO8 M M M M/14/11/1003/M/M M 56MM=

####018000075####
SACN50 CWAO 081245
VOP SA 1245 AUTO8 M M M M/13/11/0603/M/M M 90MM=

####018000075####
SACN50 CWAO 081215
VOM SA 1215 AUTO8 M M M M/20/10/2201/M/M M 36MM=

####018000456####
SAMC31 GMMC 081300
METAR GMAD 081300Z 24009KT 190V270 9999 FEW020 28/18 Q1014 NOSIG=
METAR GMFF 081300Z 28008KT 8000 SCT033 BKN100 33/20 Q1018 NOSIG=
METAR GMME 081300Z 35006KT 310V020 6000 SCT010 BKN016 26/19 Q1016
NOSIG=
METAR GMMN 081300Z 35010KT 320V060 9999 SCT016 BKN023 28/19 Q1017
NOSIG=
METAR GMMX 081300Z 30008KT 250V340 8000 FEW026 37/16 Q1016 NOSIG=
METAR GMTT 081300Z 27008KT 240V300 8000  FEW016 SCT100 27/20 Q1016
NOSIG=
####018003735####
SAUS99 KWBC 081303
METAR
K0R3 081259Z AUTO 08006KT 7SM OVC003 27/26 A3002 RMK AO2=
K1A5 081300Z AUTO 00000KT 10SM CLR 20/19 A3017 RMK AO2
     T02000187=
K3I2 081300Z AUTO 00000KT 7SM CLR 25/21 A3010 RMK AO2=
K47A 081300Z AUTO 00000KT 10SM CLR 27/17 A3008 RMK AO2 LTG DSNT NE
     AND SW T02660171=
K4CR 081258Z 08004KT 15SM OVC050 13/11=
KASJ 081257Z AUTO 04003KT 4SM HZ SCT010 27/23 A3000 RMK AO2=
KAVC 081300Z AUTO 00000KT 5SM HZ CLR 29/21 A3005 RMK AO2=
KBCB 081300Z AUTO 00000KT 5SM HZ BKN060 26/23 A3017 RMK AO2=
KBIJ 081300Z AUTO 00000KT 10SM CLR 28/23 A3004 RMK AO2=
KCTZ 081300Z AUTO 03006KT 5SM HZ CLR 29/22 A2996 RMK AO2=
KCWV 081309Z AUTO 28004KT 10SM CLR 29/23 A3001 RMK AO2=
KDMA 081255Z AUTO 07007KT 10SM CLR 29/11 A2991 RMK AO2 SLP052
     T02860111 $=
KDPL 081300Z AUTO 05004KT 4SM HZ CLR 28/22 A2997 RMK AO2=
KE33 081250Z 36004KT 20SM BKN070 12/07 RMK 402670078=
KEXX 081259Z AUTO 35003KT 7SM CLR 27/20 A3002 RMK AO2=
KFAF 081255Z 13005KT 10SM FEW016 27/26 A3000 RMK AO2A SLP159
     T02710262=
KFQD 081259Z AUTO 10003KT 10SM CLR 27/19 A3006 RMK AO2=
KFYJ 081301Z AUTO 13003KT 7SM SCT011 SCT075 29/26 A3002 RMK
     AO1=
KGEV 081301Z AUTO 00000KT 7SM CLR 25/19 A3020 RMK AO2=
KHRJ 081301Z AUTO 04007KT 7SM CLR 31/22 A2997 RMK AO2=
KJNX 081259Z AUTO 02003KT 7SM CLR 28/21 A2997 RMK AO2=
KJYL 081301Z AUTO 31003KT 10SM CLR 27/22 A3001 RMK AO2=
KLWB 081300Z AUTO 00000KT 7SM SCT055 24/18 A3018 RMK AO2=
KMQI 081256Z AUTO 06011KT 10SM SCT013 27/23 A2997 RMK AO2=
KMRN 081259Z AUTO 28003KT 10SM SCT085 26/17 A3012 RMK AO2=
KNBG 081255Z 06003KT 7SM SCT015 BKN250 26/23 A3004 RMK AO2 SLP171
     T02620233 $=
KO22 081255Z AUTO 00000KT 10SM CLR 15/12 A2991 RMK AO1=
KTVI 081300Z AUTO 35003KT 10SM CLR 27/22 A3004 RMK AO2=
KUKF 081301Z AUTO 00000KT 7SM CLR 26/20 A3010 RMK AO1=
KUNV 081300Z AUTO 00000KT 10SM CLR 25/19 A3010 RMK AO2
     T02520190=
KW99 081259Z AUTO 00000KT 7SM CLR 26/17 A3010 RMK AO2=
KIRS 081255Z AUTO 10005KT 10SM CLR 26/22 A3004 RMK AO2=
KISQ 081255Z AUTO 35006KT 10SM OVC004 20/18 A2999 RMK AO2=
KJYG 081255Z AUTO 00000KT 10SM CLR 20/19 A3015 RMK AO2=
KJYM 081255Z AUTO 00000KT 10SM CLR 26/21 A3008 RMK AO2=
KLDM 081255Z AUTO 25004KT 5SM -RA OVC005 22/21 A3002 RMK AO2
     P0003=
KLWA 081256Z AUTO 00000KT 10SM SCT048 BKN085 BKN110 23/21 A3003
     RMK AO2=
KMCD 081256Z AUTO 26004KT 1SM -RA OVC001 20/17 A3000 RMK AO2=
KMGN 081255Z AUTO 26005KT 4SM DZ OVC010 21/20 A3000 RMK AO2=
KMHR 081250Z 15005KT 10SM FEW150 12/10 A2986=
KMOP 081255Z AUTO 26005KT 10SM BKN060 BKN075 OVC120 23/23 A3002
     RMK AO2=
KMZH 081251Z AUTO 28005KT 10SM CLR 18/16 A3006 RMK AO2=
KOEB 081255Z AUTO 09003KT 7SM CLR 26/22 A3006 RMK AO2=
KONZ 081257Z AUTO 00000KT 10SM CLR 28/22 A3002 RMK AO2=
KORB 081254Z AUTO 27005KT 10SM CLR 17/14 A3001 RMK AO2=
KOSC 081254Z AUTO 23004KT 7SM SCT060 BKN075 BKN090 23/21 A3000 RMK
     AO2=
KOWA 081254Z AUTO 33004KT 10SM CLR 18/17 A3011 RMK AO2=
KOZW 081255Z AUTO 00000KT 10SM SCT050 SCT070 26/21 A3005 RMK
     AO2=
KPHN 081255Z AUTO 19004KT 10SM CLR 27/21 A3002 RMK AO2=
KPZQ 081255Z AUTO 25006KT 7SM DZ SCT050 SCT070 OVC090 22/20 A3000
     RMK AO2=
KRGK 081255Z AUTO 29004KT 10SM CLR 20/17 A3010 RMK AO2=
KRIL 081253Z AUTO 00000KT 10SM CLR 12/08 A3029 RMK AO2 SLP193
     T01220083 TSNO=
KRMY 081255Z AUTO 00000KT 10SM CLR 25/22 A3005 RMK AO2=
KRNP 081255Z AUTO 20004KT 10SM CLR 26/21 A3004 RMK AO2=
KRQB 081255Z AUTO 00000KT 2SM +RA SCT013 BKN028 OVC055 22/21 A3004
     RMK AO2 VIS 1V4=
KSJX 081255Z AUTO 25004KT 1/4SM FG OVC002 19/18 A2999 RMK AO2=
KSLH 081255Z AUTO 24005KT 5SM -RA SCT009 BKN029 OVC047 22/21 A2998
     RMK AO2=
####018000358####
SPUS99 KWBC 081303
SPECI
KBRO 081301Z 32008KT 10SM SCT005 BKN026 26/25 A2977 RMK AO2=
KJCT 081259Z AUTO 00000KT 5SM BR FEW004 23/22 A3003 RMK AO2
     TSNO=
KDEN 081301Z 00000KT 1 1/2SM R35L/4500VP6000FT BR OVC003 14/14
     A3032 RMK AO2 SFC VIS 2=
KEWR 081301Z 16003KT 2SM BR BKN005 OVC009 26/25 A3005 RMK AO2 SFC
     VIS 4 CIG 004V006=
####018002904####
SAUS99 KWBC 081303 RRA
METAR
KTTF 081254Z AUTO 00000KT 10SM CLR 28/22 A3002 RMK AO2=
KUKT 081255Z AUTO 00000KT 8SM CLR 28/22 A3006 RMK AO1=
KVLL 081254Z AUTO 25005KT 10SM CLR 29/19 A3005 RMK AO2=
KVWU 081251Z AUTO 26009KT 10SM CLR 19/14 A3004 RMK AO2=
KXVG 081256Z AUTO 26004KT 10SM CLR 18/16 A3006 RMK AO2=
KY70 081255Z AUTO 24004KT 5SM HZ SCT006 25/23 A3004 RMK AO2
     T02470225=
KRIC 081254Z 13007KT 5SM HZ FEW150 SCT250 28/22 A3000 RMK AO2
     SLP162 T02830222=
K4I3 081256Z AUTO 00000KT 7SM CLR 25/21 A3010 RMK AO2=
KACB 081255Z AUTO 00000KT 5SM DZ OVC011 23/22 A3001 RMK AO2=
KACQ 081259Z AUTO 32005KT 10SM CLR 17/16 A3015 RMK AO2=
KADC 081257Z AUTO 27005KT 10SM CLR 17/14 A3010 RMK AO2=
KAMN 081255Z AUTO 26003KT 7SM CLR 24/22 A3002 RMK AO2=
KAQP 081253Z AUTO 25005KT 10SM CLR 17/17 A3011 RMK AO2=
KAUM 081255Z AUTO 34007KT 10SM CLR 19/17 A3011 RMK AO2=
KBAX 081255Z AUTO 25004KT 7SM CLR 26/23 A3001 RMK AO2=
KBDH 081255Z AUTO 27003KT 10SM CLR 18/16 A3014 RMK AO2=
KBFW 081253Z AUTO 31005KT 10SM CLR 22/16 A3002 RMK AO2=
KCAD 081254Z AUTO 24006KT 4SM RA SCT006 BKN050 OVC080 22/21 A3005
     RMK AO2=
KCBG 081255Z AUTO 26005KT 10SM CLR 19/16 A3009 RMK AO2=
KCDA 081255Z AUTO 00000KT 7SM CLR 26/21 A3010 RMK AO2=
KCDD 081251Z AUTO 00000KT 10SM CLR 20/18 A3003 RMK AO2=
KCFE 081255Z AUTO 26005KT 10SM CLR 20/16 A3013 RMK AO2
     T01960164=
KCFS 081255Z AUTO 00000KT 10SM CLR 26/21 A3002 RMK AO2=
KCKC 081255Z AUTO 26004KT 10SM CLR 19/14 A3004 RMK AO2=
KCKN 081255Z AUTO 28004KT 10SM CLR 17/14 A3007 RMK AO2=
KCNB 081258Z AUTO 25008KT 10SM CLR 20/14 A3014 RMK AO2
     T01990143=
KCOQ 081256Z AUTO 27008KT 10SM CLR 19/18 A3007 RMK AO2=
KCQM 081257Z AUTO 24005KT 10SM CLR 18/15 A3004 RMK AO2=
KCVX 081255Z AUTO 23005KT 3SM -RA SCT004 BKN010 OVC050 21/20 A3002
     RMK AO2=
KDRM 081256Z AUTO 23005KT 4SM -RA BKN010 OVC019 21/21 A2998 RMK
     AO2=
KDTL 081255Z AUTO 29004KT 10SM CLR 18/12 A3011 RMK AO2=
KDUH 081255Z AUTO 00000KT 10SM CLR 28/20 A3004 RMK AO2=
KDVP 081256Z AUTO 28004KT 10SM CLR 19/14 A3019 RMK AO2
     T01850140=
KERY 081255Z AUTO 32004KT 5SM BR OVC003 18/17 A3001 RMK AO2=
KETH 081254Z AUTO 27004KT 10SM CLR 19/16 A3011 RMK AO2=
KFFX 081255Z AUTO 17003KT 4SM BR SCT002 OVC065 23/22 A3002 RMK
     AO2=
KFKA 081303Z AUTO 35007KT 10SM CLR 20/18 A3011 RMK AO2
     T01970177=
KFKS 081255Z AUTO 26003KT 4SM BR BKN004 21/20 A3001 RMK AO2=
KFOZ 081253Z AUTO 24004KT 10SM CLR 17/16 A3006 RMK AO2=
KFPK 081256Z AUTO 00000KT 7SM CLR 25/21 A3004 RMK AO2=
KFSE 081254Z AUTO 22004KT 10SM CLR 16/13 A3007 RMK AO2=
KGOV 081255Z AUTO 25003KT 7SM -RA BKN048 OVC050 22/22 A3004 RMK
     AO2=
KHAF 081250Z AUTO 00000KT 8SM OVC006 12/10 A2994 RMK AO2=
KHAI 081255Z AUTO 00000KT 10SM CLR 25/22 A3004 RMK AO2=
KHYX 081255Z AUTO 25004KT 10SM SCT085 SCT120 25/21 A3002 RMK
     AO2=
####018000068####
SABZ24 SBPK 081300
METAR SBPK 081300Z 27008KT CAVOK 13/06 Q1021=
####018000068####
SABZ23 SBCB 081300
METAR SBCB 081300Z 07007KT CAVOK 23/16 Q1018=
####018000081####
SABZ24 SBNF 081300
METAR SBNF 081300Z 13007KT 9999 FEW045 SCT100 22/19 Q1018=
####018000081####
SABZ20 SBCZ 081300
METAR SBCZ 081300Z 00000KT 9999 SCT030 BKN100 26/24 Q1013=
####018000081####
SABZ21 SBPB 081300
METAR SBPB 081300Z 06010KT 9999 FEW020 SCT100 31/22 Q1013=
####018000071####
SABZ18 SBRP 081300
METAR SBRP 081300Z 13004KT 9000 NSC 21/11 Q1021=
####018000068####
SABZ20 SBPV 081300
METAR SBPV 081300Z 06006KT CAVOK 28/23 Q1013=
####018000074####
SABZ19 SBSN 081300
METAR SBSN 081300Z 09010KT 9999 SCT020 30/24 Q1013=
####018000081####
SABZ21 SBNT 081300
METAR SBNT 081300Z 14009KT 9999 SCT023 BKN100 28/23 Q1015=
####018000121####
SAMX41 MMMX 081259
METAR MMPA 081255Z RTD 34004KT 5SM SCT070 BKN280 26/24 A2987
      RMK 8/033 DSNT CB, TCU ALQDS=
####018000074####
SABZ20 SBMN 081300
METAR SBMN 081300Z 10003KT 9999 FEW015 29/25 Q1013=
####018000074####
SABZ23 SBVT 081300
METAR SBVT 081300Z 02008KT 9999 FEW026 26/19 Q1021=
####018000687####
SAPR82 SPIM 081300
METAR
SPHI 081300Z 16009KT 9999 SCT012 SCT100 16/13 Q1015 RMK
             BIRD HAZARD RWY 19/01 PP000=
METAR
SPIM 081300Z 18004KT 6000 SCT015 OVC023 16/14 Q1014 NOSIG
         RMK BIRD HAZARD RWY 15 PP000=
METAR
SPQT 081300Z /////KT 9999 BKN010 26/24 Q1012 NOSIG
             RMK BIRD HAZARD RWY 06/24 PP000=
METAR
SPQU 081300Z 07004KT CAVOK 13/M13 Q1025 NOSIG RMK PP000=
METAR
SPRU 081300Z VRB02KT 6000 OVC015 16/13 Q1014 RMK BIRD HAZARD
RWY20 PP000=
METAR
SPSO 081300Z 11005KT CAVOK 14/11 Q1014 RMK PP000=
METAR
SPTN 081300Z 12003KT 8000 OVC012 11/09 Q1013 RMK PP000=
METAR
SPZO 081300Z 00000KT 9999 FEW033 SCT033 09/03 Q1034 NOSIG RMK PP000=
####018000074####
SABZ21 SBTE 081300
METAR SBTE 081300Z 23003KT 9999 BKN020 29/24 Q1015=
####018000090####
SARM31 LUKK 081300
METAR LUKK 081300Z 36009KT 9999 SCT035 26/16 Q1015 26CLRD65
NOSIG=
####018000081####
SAJM31 MKJP 081300
METAR MKJP 081300Z 11012KT 9999 FEW022 SCT250 29/20 Q1013=
####018000088####
SAUZ31 UTTT 081300
METAR UTTT 081300Z 00000MPS CAVOK 38/06 Q1009 R08R/CLRD70
NOSIG=
####018000074####
SABZ21 SBPL 081300
METAR SBPL 081300Z 16011KT 9999 SCT023 26/18 Q1019=
####018000572####
SAMC32 GMMC 081300
METAR GMFF 081300Z 28008KT 8000 SCT033 BKN100 33/20 Q1018 NOSIG=
METAR GMFK 081300Z 16002KT CAVOK 37/07 Q1024=
METAR GMFM 081300Z 34005KT 6000 FEW026 31/20 Q1018=
METAR GMFO 081300Z 21007KT 140V280 CAVOK 44/09 Q1017 NOSIG=
METAR GMMH 081300Z 01020KT 8000 BKN080 23/17 Q1014=
METAR GMML 081300Z 03017KT 8000 SCT020 28/17 Q1016=
METAR GMMW 081300Z 06015KT CAVOK 30/20 Q1016=
METAR GMMZ 081300Z 12010KT 9999 FEW040 FEW050TCU 38/00 Q1024=
METAR GMTA 081300Z 36010KT CAVOK 24/20 Q1016=
METAR GMMC 081300Z NIL=
METAR GMTN 081300Z NIL=
####018000089####
SAHK31 VHHH 081300
METAR VHHH 081300Z 19007KT 140V240 9999 FEW020 31/25 Q1007 NOSIG=
####018000083####
SPUS43 KWBC 081303
SPECI
KGRB 081300Z 30004KT 2 1/2SM BR OVC004 22/21 A3001=
####018000075####
SAEG31 HECA 081300
METAR HECA 081300Z 31008KT CAVOK 33/17 Q1010 NOSIG=
####018000073####
SANO36 ENMI 081250 RRB
METAR ENHK 081250Z 13009KT CAVOK 18/09 Q1011=
####018000079####
SAMP31 LMMM 081300 RRB
METAR HLLB 081250Z 33022KT 9999 FEW025 31/17 Q1016=
####018000922####
SAUR30 UKMS 081300
METAR UKBB 081300Z 30003MPS 260V330 9999 BKN040 26/17
         Q1014 88CLRD95    NOSIG=
METAR UKHH 081300Z 19002MPS 120V270 9999 SCT040
         BKN200  30/14 Q1014 080///65 NOSIG=
METAR UKOO 081300Z 33005MPS 300V360 CAVOK 27/14 Q1014
          34090070 NOSIG=
METAR UKDE 081300Z 24002MPS 160V300 9999 SCT050 30/17
          Q1014 20CLRD70 NOSIG=
METAR UKDD 081300Z VRB02MPS 9999 SCT033CB BKN200
         29/19  Q1014 08090070 TEMPO VRB10G15MPS -TSRA
         SQ BKN020CB=
METAR UKFF 081300Z 03003MPS 340V060 CAVOK 29/17 Q1012
          01010070 NOSIG=
METAR UKLL 081300Z 32004MPS 260V030 9999 SCT035
         BKN100  21/12 Q1021 31210365 NOSIG=
METAR UKCC 081300Z 08003MPS 010V150 CAVOK 29/16 Q1014
          08090070 NOSIG=
METAR UKDR 081300Z 00000MPS 9999 VCTS SCT033CB BKN200
          28/17 Q1013 1809//70 TEMPO 26006G14MPS
         3100 -TSRAGR BKN015CB=
####018000104####
SAUK35 EGGY 081250 CCA
METAR COR EGLF 081250Z 28006KT 220V330 9999 SCT032 BKN038 23/15
    Q1018=
####018000081####
SADN32 EKCH 081250 RRB
METAR EKSB 081301Z 24006KT 200V270 CAVOK 26/12 Q1018=
####018000083####
SPAU32 YBBN 081301
SPECI YBMA 081301Z AUTO 00000KT 8000NDV // NCD 08/07 Q1020=
####018000084####
SPUS51 KWBC 081303
SPECI
KWAL 081301Z 08008KT 10SM FEW011 SCT110 27/22 A3002=
####018000086####
SPUS52 KWBC 081303
SPECI
KCNM 081300Z AUTO 31008KT 10SM -RA OVC015 19/18 A3016=
####018000098####
SPUS53 KWBC 081303
SPECI
KJLN 081259Z 00000KT 1SM VCTS BR BKN004 BKN017 OVC033 22/22 A3009=
####018000086####
SPUS72 KWBC 081303
SPECI
KCNM 081300Z AUTO 31008KT 10SM -RA OVC015 19/18 A3016=
####018000083####
SPUS73 KWBC 081303
SPECI
KGRB 081300Z 30004KT 2 1/2SM BR OVC004 22/21 A3001=
####018000098####
SPUS73 KWBC 081303
SPECI
KJLN 081259Z 00000KT 1SM VCTS BR BKN004 BKN017 OVC033 22/22 A3009=
####018000084####
SAGL KAWN 081300 RRA
METAR BGGH 081250Z VRB03KT 9999 SCT004 OVC008 06/03 Q1009=
####018000185####
SANA14 KAWN 081200 RRI
METAR KNQI 081240Z COR 04007KT 10SM FEW010 SCT012CB BKN045 BKN140 BKN280
      27/25 A2984 RMK TSE40RAB16E40 OCNL LTGICCG W-NW TS W-NW MOV
      W P0002=
####018000355####
SAZZ40 KAWN 081200 RRX
METAR KLTS 081155Z 04007KT 9SM RA BKN009 BKN015 BKN027 22/22 A3008
      RMK A02 RAB1110 BKN009 V SCT SLP171 P0022 60022 70026
      T02220222 10239 20222 53010 $=
METAR KNQI 081240Z COR 04007KT 10SM FEW010 SCT012CB BKN045 BKN140 BKN280
      27/25 A2984 RMK TSE40RAB16E40 OCNL LTGICCG W-NW TS W-NW MOV
      W P0002=
####018001046####
SAXX70 KAWN 081300 RRG
METAR KQIR 081255Z 08013G17KT 8000 HZ CLR 42/26 A2949 RMK AO2A SLP983
      T04160258=
METAR KQLT 081255Z AUTO 20008G16KT 2400 HZ 37/04 A2985 RMK AO2 SLP985
      T03700035 $=
METAR KQQS 081255Z AUTO 01011G20KT 9999 CLR 28/05 A3010 RMK AO2 SLP076
      T02830046 $=
METAR KQRY 081255Z AUTO 02007G13KT 9999 CLR 30/02 A3008 RMK AO2 SLP050
      T03010017 PWINO $=
METAR KQA7 081257Z AUTO VRB06KT 9000 DU HZ CLR 39/M02 A2987 RMK AO2
      SLP002 T03911018=
METAR KQEL 081300Z AUTO 07001KT 2SM BR FEW006 FEW095 22/20 A2976 RMK
      A02=
METAR KQEN 081300Z AUTO 24004KT 7SM SCT075 18/16 A3042 RMK A02=
METAR KQEP 081300Z AUTO 17002KT 4SM -SHRA BR SCT037 BKN090 22/19 A2990
      RMK A02=
METAR KQEQ 081300Z AUTO 16002KT 5SM BR BKN085 22/20 A2984 RMK A02=
METAR KQEW 081300Z AUTO 26002KT 6SM BR FEW085 FEW100 24/21 A2985 RMK
      A02=
METAR KQEY 081300Z AUTO 30002KT 7SM SCT080 SCT095 BKN100 25/18 A2964
      RMK A02=
METAR KQFB 081300Z AUTO 00000KT 2SM BR CLR 24/19 A2995 RMK A02=
####018000075####
SAMY20 FMCZ 081300
METAR FMCZ 081300Z 13009KT 9999 SCT023 26/18 Q1016=
####018000091####
SPUS74 KWBC 081303
SPECI
KLMT 081300Z 00000KT 10SM FEW050 SCT100 BKN200 14/09 A3007=
####018000080####
SAAT31 TKPK 081300
METAR TKPK 081300Z 08014KT 9999 VCSH SCT016 30/25 Q1016=
####018000089####
SAMF20 TFFR 081300
METAR TFFR 081300Z 11009KT 070V130 9999 SCT026 30/24 Q1015 NOSIG=
####018000098####
SPUS81 KWBC 081303
SPECI
KJLN 081259Z 00000KT 1SM VCTS BR BKN004 BKN017 OVC033 22/22 A3009=
####018000084####
SASV40 FDMS 081300
METAR FDMS 081300Z 00000KT 9999 SCT035 19/12 Q1029 NOSIG=

####018000487####
SAHU41 LHBM 081300
METAR LHDC 081245Z 01009KT 9999 FEW046 23/10 Q1021 NOSIG=
METAR LHKE 081245Z 27002MPS CAVOK 24/12 Q1020 NOSIG RMK BLU=
METAR LHPA 081245Z 35004MPS CAVOK 24/09 Q1023 NOSIG RMK BLU=
METAR LHPP 081245Z 28006KT CAVOK 24/09 Q1022 NOSIG=
METAR LHPR 081245Z 32009KT CAVOK 25/10 Q1022=
METAR LHSM 081245Z 32008KT CAVOK 25/10 Q1022 NOSIG=
METAR LHSN 081245Z 30002MPS CAVOK 24/11 Q1021 NOSIG RMK BLU=
METAR LHUD 081245Z 30005KT 9999 SCT040 SCT046 25/12 Q1021=
####018000494####
SAER32 OMAE 081300
METAR OMAA 081300Z 34013KT 9000 NSC 41/23 Q0997 A2946 NOSIG=
METAR OMAD 081300Z NIL=
METAR OMAL 081300Z 22009KT 180V250 9999 FEW045TCU 34/25 Q1001 A2956=
METAR OMDB 081300Z 35011KT 7000 FEW035 40/22 Q0999 NOSIG=
METAR OMDW 081300Z 35014KT 8000 FEW030 FEW35TCU 40/21 Q0999 NOSIG=
METAR OMFJ 081300Z 11007KT 040V140 6000 FEW025 34/27 Q1000 A2955=
METAR OMRK 081300Z 35009KT CAVOK 41/35 Q0998 A2947=
METAR OMSJ 081300Z 35010KT 320V020 7000 FEW030 40/21 Q0999=
####018000084####
SPUS81 KWBC 081303
SPECI
KWAL 081301Z 08008KT 10SM FEW011 SCT110 27/22 A3002=
####018000545####
SAHO31 MHTG 081300
METAR
MHAM 081300Z 00000KT 9999 FEW018 +DZ OVC070 24/24=
MHTR 081300Z 00000KT 9999 FEW025 BKN250 27/24 FEW080 HZ=
MHTE 081300Z 36006KT 9999 BKN024TCU BKN080 23/22 Q1009 TCU TD HZ=
MHYR 081300Z 36004KT 9999 SCT020 BKN080 22/22 BR=
MHPL 081300Z NIL=
MHCA 081300Z 180004KT 9999 SCT028TCU BKN070 22/22 TCU TD=
MHSR 081300Z NIL=
MHNO 081300Z 00000KT 9999 FEW035 BKN090 20/// HZ=
MHLE 081300Z 00000KT 9999 FEW008 SCT070 BKN200 15/15 Q1022=
MHCH 081300Z 00000KT 9999 FEW006 BKN070 24/23 FEW028 REDZ CL TD BR=
####018000127####
SAIQ01 ORBI 081300
METAR ORBI 081300Z 32012KT CAVOK 44/05 Q1003 NOSIG=
METAR ORMM 081300Z 32020KT 8000 SKC 49/M02 Q0997=
####018000084####
SABC40 FBSK 081300
METAR FBSK 081300Z 07012KT 9999 BKN020 21/07 Q1028 NOSIG=

####018002980####
SAUS20 KNKA 081303
METAR K3A1 081300Z AUTO 03005KT 10SM CLR 26/23 A3012 RMK AO2 
     T02620226=
METAR K3J7 081301Z AUTO 00000KT 10SM CLR 28/22 A3000 RMK AO2=
METAR K4A9 081300Z AUTO 02003KT 10SM CLR 26/20 A3008 RMK AO2 
     T02590201=
METAR K4R4 081300Z AUTO 00000KT 7SM CLR 28/26 A3004 RMK AO2 
     T02780258=
METAR K8A0 081259Z AUTO 01006KT 10SM CLR 27/21 A3009 RMK AO2=
METAR KACP 081259Z AUTO 00000KT 7SM CLR 26/25 A3003 RMK AO2=
METAR KAFP 081300Z AUTO 34003KT 10SM CLR 28/18 A2999 RMK AO2 
     T02780180=
METAR KALX 081300Z AUTO 00000KT 10SM CLR 27/22 A3006 RMK AO1=
METAR KAYS 081300Z AUTO 27008KT 10SM CLR 26/23 A3003 RMK AO1=
METAR KBGE 081300Z AUTO 00000KT 5SM BR BKN001 23/22 A3005 RMK AO2=
SPECI KBMQ 081302Z AUTO 08003KT 7SM BKN008 BKN015 OVC039 24/22 A3003 
    RMK AO2 CIG 006V012=
METAR KBQK 081257Z AUTO 28006KT 10SM CLR 26/23 A3002 RMK AO1 
     T02620225 PNO=
METAR KBQP 081309Z AUTO 10003KT 7SM CLR 27/26 A3008 RMK AO2=
METAR KCCO 081300Z AUTO 00000KT 10SM CLR 24/21 A3007 RMK AO1=
METAR KCDH 081300Z AUTO 00000KT 8SM BKN003 23/23 A3007 RMK AO2=
SPECI KCOT 081302Z AUTO 02007KT 10SM BKN019 BKN026 OVC060 26/23 
    A2990 RMK AO2 RAE1257 P0000=
METAR KCPC 081300Z AUTO 01004KT 10SM CLR 28/21 A2995 RMK AO2 
     T02780210=
METAR KCTJ 081300Z AUTO 35005KT 10SM CLR 29/20 A3008 RMK AO2 
     T02860203=
METAR KDBN 081300Z AUTO 33004KT 10SM CLR 29/19 A3001 RMK AO1=
SPECI KDGW 081302Z AUTO 00000KT 1/4SM FG BKN001 BKN006 07/07 A3036 
    RMK AO2 $=
METAR KDNN 081258Z AUTO 00000KT 10SM CLR 23/21 A3008 RMK AO2=
METAR KDQH 081300Z AUTO 30003KT 7SM CLR 28/19 A3003 RMK AO1=
METAR KDRI 081300Z AUTO 07004KT 7SM BKN008 OVC015 24/24 A3005 RMK 
     AO2=
METAR KEHO 081300Z AUTO 00000KT 10SM CLR 26/19 A3004 RMK AO2 
     T02570186=
METAR KEMV 081257Z AUTO 00000KT 5SM HZ BKN090 27/23 A2999 RMK AO2=
METAR KEYF 081300Z AUTO RMK TEMPORAIRILY INOPERATIVE=
METAR KEZF 081258Z AUTO 13006KT 7SM CLR 30/26 A3000 RMK AO2 
     T02950262=
METAR KF24 081259Z AUTO 10SM CLR 26/24 A3010 RMK AO2 T02580235=
METAR KFKN 081300Z AUTO 08004KT 5SM SCT012 BKN017 28/24 A3000 RMK 
     AO1=
METAR KGHG 081300Z AUTO 11007KT 10SM SCT014 26/22 A3012 RMK AO2=
SPECI KGLR 081302Z AUTO 25005KT 1 3/4SM RA BR FEW007 BKN042 OVC060 
    21/21 A3004 RMK AO2 P0003=
METAR KHBI 081302Z AUTO 00000KT 7SM CLR 27/19 A3004 RMK AO2=
METAR KHLX 081301Z AUTO 00000KT 5SM HZ CLR 25/22 A3019 RMK AO2=
METAR KHOE 081259Z AUTO 29005KT 10SM CLR 25/25 A3003 RMK AO2 
     T02530247=
METAR KHQU 081301Z AUTO 00000KT 10SM CLR 28/20 A3006 RMK AO1=
METAR KHSP 081300Z AUTO 06006KT 10SM CLR 25/17 A3028 RMK AO2=
METAR KHWY 081300Z AUTO 06005KT 7SM SCT120 28/21 A3002 RMK AO2=
METAR KIDI 081300Z AUTO 10003KT 10SM SCT070 24/20 A3011 RMK AO2=
METAR KIPJ 081300Z AUTO 00000KT 10SM CLR 27/19 A3004 RMK AO2 
     T02730194=
METAR KJES 081300Z AUTO 30006KT 10SM CLR 26/24 A3002 RMK AO2 
     T02610239=
####018000072####
SACA01 KMSC 081303
METAR TJBQ 081250Z 07007KT 10SM SKC 30/26 A3001=
####018000548####
SAAK41 KNKA 081303
METAR PABA 081301Z AUTO 28014KT 10SM BKN042 OVC055 07/04 A3001 RMK 
    AO2 SLP162 T00720044=
METAR PAIK 081301Z AUTO 21003KT 10SM CLR 11/09 A3013 RMK AO2 SLP241 
    T01060089=
METAR PAJV 081250Z 00000KT 10SM SCT040 BKN080 OVC110 10/07 A2996 RMK 
     NOSPECI =
SPECI PAKF 081301Z AUTO 15004KT 10SM BKN012 OVC019 08/07 A2988 RMK 
    AO2=
METAR PANW 081256Z AUTO 35007KT SCT055 OVC075 09/08 A2997 RMK AO2 
    PWINO TSNO T00940083 SLP125 $=
SPECI PASN 081301Z 07010KT 1/2SM FG VV001 05/05 A2993 RMK AO2=
####018001740####
SAUS20 KNKA 081303
METAR KJGG 081300Z AUTO 11005KT 10SM SCT015 SCT021 29/24 A3001 
     RMK AO1=
METAR KJKA 081300Z AUTO 00000KT 10SM CLR 30/27 A3004 RMK AO2 
     T02960267=
METAR KJYO 081300Z AUTO 00000KT 5SM VCTSHZ CLR 30/22 A3003 RMK AO2=
SPECI KLBX 081302Z AUTO 11009G21KT 3SM -RA BR SCT021 BKN039 BKN060 
    25/23 A2993 RMK AO2 P0001=
METAR KLGC 081255Z AUTO 00000KT 10SM CLR 27/27 A3006 RMK AO1=
METAR KLOM 081300Z AUTO 13004KT 7SM CLR 29/22 A3004 RMK AO1 
     T02880220=
METAR KMFV 081302Z AUTO 09005KT 10SM CLR 27/22 A3001 RMK AO2 LTG 
     DSNT SE=
METAR KMGR 081300Z AUTO 31003KT 10SM CLR 27/21 A3005 RMK AO2=
SPECI KMHK 081302Z 02008KT 5SM BR OVC008 22/20 A3012 RMK AO2 CIG 
    007V012=
METAR KMLJ 081303Z AUTO 00000KT 10SM CLR 27/21 A3003 RMK AO2=
METAR KMQS 081300Z AUTO 14004KT 8SM CLR 27/22 A3007 RMK AO2=
METAR KMWK 081302Z AUTO 00000KT 7SM CLR 28/21 A3007 RMK AO2=
METAR KOCW 081300Z AUTO 04005KT 7SM CLR 27/22 A2998 RMK AO2=
METAR KPSK 081302Z AUTO 00000KT 7SM CLR 28/17 A3017 RMK AO2=
METAR KPTB 081302Z AUTO 08007KT 5SM HZ SCT090 29/24 A3000 RMK AO2=
METAR KROC 081254Z COR 22006KT 9SM CLR 26/21 A3005 RMK AO2 SLP173 
    T02610206=
METAR KRUQ 081301Z AUTO 35004KT 7SM BKN095 27/21 A3003 RMK AO2=
METAR KSIF 081300Z AUTO 36003KT 7SM CLR 30/22 A3003 RMK AO2=
METAR KSVH 081300Z AUTO 00000KT 7SM CLR 28/19 A3006 RMK AO2 
     T02820193=
METAR KTDF 081302Z AUTO 00000KT 5SM CLR 27/21 A3002 RMK AO1=
METAR KTPF 081300Z AUTO 07004KT 10SM CLR 26/23 A3001 RMK AO2=
METAR KTSP 081255Z AUTO 00000KT 10SM CLR 09/03 A3003 RMK AO2 =
METAR KVJI 081302Z AUTO 00000KT 5SM HZ CLR 26/20 A3016 RMK AO2=
METAR KVUJ 081258Z AUTO 00000KT 10SM SCT090 28/21 A2999 RMK AO2=
####018001702####
SASA KAWN 081300 RRB
METAR SBAR 081300Z 18007KT 9999 SCT015 27/24 Q1018=
METAR SBBE 081300Z 10009KT 9999 FEW013 SCT100 31/22 Q1014=
METAR SBCB 081300Z 07007KT CAVOK 23/16 Q1018=
METAR SBCT 081300Z 04004KT CAVOK 17/13 Q1022=
METAR SBCY 081300Z 01007KT CAVOK 26/14 Q1015=
METAR SBCZ 081300Z 00000KT 9999 SCT030 BKN100 26/24 Q1013=
METAR SBFN 081300Z 10010KT 9999 SCT017 FEW025TCU BKN100 25/23 Q1015=
METAR SBFZ 081300Z 13011KT 9999 FEW018 BKN090 29/20 Q1014=
METAR SBGL 081300Z 10002KT CAVOK 24/14 Q1018=
METAR SBGO 081300Z 05010KT CAVOK 26/12 Q1021=
METAR SBJP 081300Z 19008KT 9999 SCT020 BKN070 27/22 Q1016=
METAR SBKP 081300Z 01004KT 8000 NSC 21/09 Q1022=
METAR SBLO 081300Z 22001KT CAVOK 19/13 Q1021=
METAR SBMA 081300Z 12006KT CAVOK 31/21 Q1015=
METAR SBMN 081300Z 10003KT 9999 FEW015 29/25 Q1013=
METAR SBMQ 081300Z 08006KT 9999 SCT020 32/26 Q1014=
METAR SBNT 081300Z 14009KT 9999 SCT023 BKN100 28/23 Q1015=
METAR SBPA 081300Z 18005KT 5000 BR BKN010 SCT015 OVC030 14/12 Q1021=
METAR SBPB 081300Z 06010KT 9999 FEW020 SCT100 31/22 Q1013=
METAR SBPK 081300Z 27008KT CAVOK 13/06 Q1021=
METAR SBPP 081300Z 01006KT CAVOK 24/11 Q1018=
METAR SBPV 081300Z 06006KT CAVOK 28/23 Q1013=
METAR SBRP 081300Z 13004KT 9000 NSC 21/11 Q1021=
METAR SBSN 081300Z 09010KT 9999 SCT020 30/24 Q1013=
METAR SBTE 081300Z 23003KT 9999 BKN020 29/24 Q1015=
METAR SBTF 081300Z 13005KT 9999 FEW020 BKN100 29/26 Q1013=
METAR SBVT 081300Z 02008KT 9999 FEW026 26/19 Q1021=
METAR SOCA 081300Z 11006KT 070V160 9999 FEW013 SCT020 30/25 Q1013 NOSIG=
METAR SPQU 081300Z 07004KT CAVOK 13/M13 Q1025 NOSIG RMK PP000=
METAR SPTN 081300Z 12003KT 8000 OVC012 11/09 Q1013 RMK PP000=
####018001672####
SAZZ40 KAWN 081300 RRL
METAR K79J 081256Z AUTO 00000KT 10SM CLR 28/22 A3003 RMK AO2 SLP165
      T02780222 TSNO $=
METAR KNEL 081300Z AUTO 14006KT 9SM BKN100 26/20 A3005 RMK AO2 SLP174
      T02560200 $=
METAR KNSE 081256Z 00000KT 9SM FEW250 28/24 A3004 RMK AO2 SLP156 T02780239
      $=
METAR KPAM 081255Z 36006KT 10SM CLR 27/25 A3003 RMK AO2A SLP169 T02730248=
METAR MKJP 081300Z 11012KT 9999 FEW022 SCT250 29/20 Q1013=
METAR MRLB 081300Z 00000KT 9999 FEW005 SCT020 BKN100 23/23 A2988 RMK
      LOW ST ARND=
METAR MRLM 081300Z 21003KT 9999 -DZ BKN010 SCT090 24/22 A2988 RMK RN
      DST N=
METAR MUCL 081251Z 14006KT 9999 FEW018 28/26 Q1015=
METAR MUCM 081250Z VRB02KT 9000 FEW020 27/23 Q1015=
METAR COR MUCU 081257Z VRB02KT 9000 FEW020CB 27/23 Q1016=
METAR MUHA 081255Z 07004KT 040V100 8000 FEW040 28/24 Q1014=
METAR MUHG 081250Z 20006KT 160V250 9000 FEW020 28/23 Q1015=
METAR MUMZ 081251Z 08004KT 9000 FEW025 XX/XX Q1014=
METAR MUVR 081250Z /////KT 9000 FEW020 27/23 Q1015=
METAR NTAA 081300Z 09003KT 9999 FEW023 25/22 Q1015 WS ALL RWY NOSIG=
METAR OEMA 081300Z 08008KT 9999 SCT045 47/M04 Q1004 NOSIG=
METAR OERK 081300Z 01016KT 8000 BLDU SKC 43/M03 Q1006 NOSIG=
METAR OERY 081300Z 04015KT 5000 SA SKC 44/M02 Q1006 NOSIG=
METAR OJAM 081300Z 28009KT 6000 NSC 33/07 Q1011 NOSIG=
METAR OJAQ 081300Z 36016KT CAVOK 39/30 Q1005=
METAR RJSM 081300Z VRB01KT 7000 FEW003 SCT040 19/17 Q1010 RMK 1ST003
      4SC040 A2984 WIND BY EQPT/10=
METAR SBCB 081300Z 07007KT CAVOK 23/16 Q1018=
METAR WSAP 081300Z 23002KT 9999 FEW016 BKN220 29/24 Q1010=
METAR WSSS 081300Z 20003KT 170V240 9999 FEW016 SCT190 28/24 Q1010 NOSIG=
####018000093####
SAAU31 AMMC 081200 RRA
METAR YPXM 081200Z AUTO 20004KT 9999NDV // NCD 23/20 Q1013=


####018000197####
SPUS90 KWBC 081304
SPECI KWAL 081301Z 08008KT 10SM FEW011 SCT110 27/22 A3002 RMK
     AO2=
SPECI KHTL 081302Z AUTO 24004KT 6SM -RA BR FEW010 SCT022 OVC065
     22/21 A3005 RMK AO2 P0001=
####018000123####
SAUS90 KWBC 081300 CCC
METAR KP60 081256Z AUTO 00000KT 02/M01 A3045 RMK AO2 SLP265
     T00171006 PWINO FZRANO TSNO=
####018000087####
SAAU31 AMMC 081200 RRA
METAR YPXM 081200Z AUTO 20004KT 9999NDV // NCD 23/20 Q1013=
####018000096####
SPCN43 CWAO 081302
SPECI CYZH 081302Z AUTO 23003KT 9SM BKN029 BKN085 OVC096 15/13 A3005=

####018001737####
SAEU KAWN 081300 RRK
METAR EGDX 081250Z 26007KT 9999 FEW020 20/11 Q1018 BLU=
METAR COR EGLF 081250Z 28006KT 220V330 9999 SCT032 BKN038 23/15 Q1018=
METAR EGLF 081250Z 28006KT 220V330 9999 SCT032 BKN038 23/05 Q1018=
METAR EGOM 081250Z 25015KT 9999 SCT026 SCT032 17/10 Q1015 BLU=
METAR EGQA 081250Z 21013KT 9999 -SHRA FEW020 SCT030 15/// Q1010 BLU=
METAR EGUB 081250Z 21009KT 9999 SCT038 BKN220 24/19 Q1018 BLU NOSIG=
METAR EGXZ 081250Z 25013KT 9999 SCT040 21/09 Q1016 BLU=
METAR EKSB 081301Z 24006KT 200V270 CAVOK 26/12 Q1018=
METAR ENHK 081250Z 13009KT CAVOK 18/09 Q1011=
METAR EPGD 081300Z 08009KT 040V110 9999 FEW036 24/13 Q1021=
METAR EPKK 081300Z VRB03KT CAVOK 24/06 Q1022=
METAR EPKT 081300Z 35004KT CAVOK 23/08 Q1022=
METAR EPPO 081300Z VRB05KT CAVOK 25/07 Q1021=
METAR EPRZ 081300Z 30008KT 260V340 9999 FEW046 23/10 Q1021=
METAR EPWA 081300Z 31010KT 270V340 CAVOK 23/11 Q1020 NOSIG=
METAR EPWR 081300Z 08002KT CAVOK 26/10 Q1022=
METAR LBBG 081300Z 30006MPS 260V340 9999 -RA BKN021 BKN033 18/16 Q1014
      NOSIG=
METAR LBGO 081300Z 27003MPS 8000 -DZ SCT013 BKN030 OVC050 16/15 Q1017
      NOSIG=
METAR LBPD 081300Z VRB02MPS 9999 -RA SCT035 OVC050 17/15 Q1017 NOSIG=
METAR LFSD 081300Z AUTO 18006KT 120V230 9999NDV NSC 32/10 Q1020=
METAR LHBP 081300Z 27006KT 220V020 CAVOK 25/10 Q1021 NOSIG=
METAR LHDC 081245Z 01009KT 9999 FEW046 23/10 Q1021 NOSIG=
METAR LHPP 081245Z 28006KT CAVOK 24/09 Q1022 NOSIG=
METAR LHUD 081245Z 30005KT 9999 SCT040 SCT046 25/12 Q1021=
METAR LIYW 081255Z AUTO 22008KT 9999 FEW049 27/16 A3018 RMK AO2 SLP215
      T02690165=
METAR LZIB 081300Z 35007KT 270V040 CAVOK 25/07 Q1021=
METAR LZTT 081300Z 08011KT 040V120 9999 FEW053 21/07 Q1022 NOSIG=
####018000081####
SABC40 FBSK 081300
METAR FBSK 081300Z 07012KT 9999 BKN020 21/07 Q1028 NOSIG=
####018000075####
SACN50 CWAO 081230
WGP SA 1230 AUTO8 M M M M/11/10/MMMM/M/M M 78MM=

####018000075####
SACN50 CWAO 081245
WGP SA 1245 AUTO8 M M M M/11/10/MMMM/M/M M 67MM=

####018003749####
SAUS99 KWBC 081304
METAR
K3A1 081300Z AUTO 03005KT 10SM CLR 26/23 A3012 RMK AO2
     T02620226=
K3J7 081301Z AUTO 00000KT 10SM CLR 28/22 A3000 RMK AO2=
K4A9 081300Z AUTO 02003KT 10SM CLR 26/20 A3008 RMK AO2
     T02590201=
K4R4 081300Z AUTO 00000KT 7SM CLR 28/26 A3004 RMK AO2
     T02780258=
K8A0 081259Z AUTO 01006KT 10SM CLR 27/21 A3009 RMK AO2=
KACP 081259Z AUTO 00000KT 7SM CLR 26/25 A3003 RMK AO2=
KAFP 081300Z AUTO 34003KT 10SM CLR 28/18 A2999 RMK AO2
     T02780180=
KALX 081300Z AUTO 00000KT 10SM CLR 27/22 A3006 RMK AO1=
KAYS 081300Z AUTO 27008KT 10SM CLR 26/23 A3003 RMK AO1=
KBGE 081300Z AUTO 00000KT 5SM BR BKN001 23/22 A3005 RMK AO2=
KBQK 081257Z AUTO 28006KT 10SM CLR 26/23 A3002 RMK AO1 T02620225
     PNO=
KBQP 081309Z AUTO 10003KT 7SM CLR 27/26 A3008 RMK AO2=
KCCO 081300Z AUTO 00000KT 10SM CLR 24/21 A3007 RMK AO1=
KCDH 081300Z AUTO 00000KT 8SM BKN003 23/23 A3007 RMK AO2=
KCPC 081300Z AUTO 01004KT 10SM CLR 28/21 A2995 RMK AO2
     T02780210=
KCTJ 081300Z AUTO 35005KT 10SM CLR 29/20 A3008 RMK AO2
     T02860203=
KDBN 081300Z AUTO 33004KT 10SM CLR 29/19 A3001 RMK AO1=
KDNN 081258Z AUTO 00000KT 10SM CLR 23/21 A3008 RMK AO2=
KDQH 081300Z AUTO 30003KT 7SM CLR 28/19 A3003 RMK AO1=
KDRI 081300Z AUTO 07004KT 7SM BKN008 OVC015 24/24 A3005 RMK
     AO2=
KEHO 081300Z AUTO 00000KT 10SM CLR 26/19 A3004 RMK AO2
     T02570186=
KEMV 081257Z AUTO 00000KT 5SM HZ BKN090 27/23 A2999 RMK AO2=
KEYF 081300Z AUTO RMK TEMPORAIRILY INOPERATIVE=
KEZF 081258Z AUTO 13006KT 7SM CLR 30/26 A3000 RMK AO2
     T02950262=
KF24 081259Z AUTO 10SM CLR 26/24 A3010 RMK AO2 T02580235=
KFKN 081300Z AUTO 08004KT 5SM SCT012 BKN017 28/24 A3000 RMK
     AO1=
KGHG 081300Z AUTO 11007KT 10SM SCT014 26/22 A3012 RMK AO2=
KHBI 081302Z AUTO 00000KT 7SM CLR 27/19 A3004 RMK AO2=
KHLX 081301Z AUTO 00000KT 5SM HZ CLR 25/22 A3019 RMK AO2=
KHOE 081259Z AUTO 29005KT 10SM CLR 25/25 A3003 RMK AO2
     T02530247=
KHQU 081301Z AUTO 00000KT 10SM CLR 28/20 A3006 RMK AO1=
KHSP 081300Z AUTO 06006KT 10SM CLR 25/17 A3028 RMK AO2=
KHWY 081300Z AUTO 06005KT 7SM SCT120 28/21 A3002 RMK AO2=
KIDI 081300Z AUTO 10003KT 10SM SCT070 24/20 A3011 RMK AO2=
KIPJ 081300Z AUTO 00000KT 10SM CLR 27/19 A3004 RMK AO2
     T02730194=
KJES 081300Z AUTO 30006KT 10SM CLR 26/24 A3002 RMK AO2
     T02610239=
PABA 081301Z AUTO 28014KT 10SM BKN042 OVC055 07/04 A3001 RMK AO2
     SLP162 T00720044=
PAIK 081301Z AUTO 21003KT 10SM CLR 11/09 A3013 RMK AO2 SLP241
     T01060089=
PAJV 081250Z 00000KT 10SM SCT040 BKN080 OVC110 10/07 A2996 RMK
     NOSPECI=
PANW 081256Z AUTO 35007KT SCT055 OVC075 09/08 A2997 RMK AO2 PWINO
     TSNO T00940083 SLP125 $=
KJGG 081300Z AUTO 11005KT 10SM SCT015 SCT021 29/24 A3001 RMK
     AO1=
KJKA 081300Z AUTO 00000KT 10SM CLR 30/27 A3004 RMK AO2
     T02960267=
KJYO 081300Z AUTO 00000KT 5SM VCTSHZ CLR 30/22 A3003 RMK AO2=
KLGC 081255Z AUTO 00000KT 10SM CLR 27/27 A3006 RMK AO1=
KLOM 081300Z AUTO 13004KT 7SM CLR 29/22 A3004 RMK AO1
     T02880220=
KMFV 081302Z AUTO 09005KT 10SM CLR 27/22 A3001 RMK AO2 LTG DSNT
     SE=
KMGR 081300Z AUTO 31003KT 10SM CLR 27/21 A3005 RMK AO2=
KMLJ 081303Z AUTO 00000KT 10SM CLR 27/21 A3003 RMK AO2=
KMQS 081300Z AUTO 14004KT 8SM CLR 27/22 A3007 RMK AO2=
KMWK 081302Z AUTO 00000KT 7SM CLR 28/21 A3007 RMK AO2=
KOCW 081300Z AUTO 04005KT 7SM CLR 27/22 A2998 RMK AO2=
KPSK 081302Z AUTO 00000KT 7SM CLR 28/17 A3017 RMK AO2=
KPTB 081302Z AUTO 08007KT 5SM HZ SCT090 29/24 A3000 RMK AO2=
KROC 081254Z COR 22006KT 9SM CLR 26/21 A3005 RMK AO2 SLP173
     T02610206=
KRUQ 081301Z AUTO 35004KT 7SM BKN095 27/21 A3003 RMK AO2=
KSIF 081300Z AUTO 36003KT 7SM CLR 30/22 A3003 RMK AO2=
####018000401####
SAUS99 KWBC 081304 RRA
METAR
KSVH 081300Z AUTO 00000KT 7SM CLR 28/19 A3006 RMK AO2
     T02820193=
KTDF 081302Z AUTO 00000KT 5SM CLR 27/21 A3002 RMK AO1=
KTPF 081300Z AUTO 07004KT 10SM CLR 26/23 A3001 RMK AO2=
KTSP 081255Z AUTO 00000KT 10SM CLR 09/03 A3003 RMK AO2=
KVJI 081302Z AUTO 00000KT 5SM HZ CLR 26/20 A3016 RMK AO2=
KVUJ 081258Z AUTO 00000KT 10SM SCT090 28/21 A2999 RMK AO2=
####018000125####
SAUS43 KAPX 081303
MTRHTL
SPECI KHTL 081302Z AUTO 24004KT 6SM -RA BR FEW010 SCT022 OVC065 
22/21 A3005 RMK AO2 P0001
####018000704####
SPUS99 KWBC 081304
SPECI
KBMQ 081302Z AUTO 08003KT 7SM BKN008 BKN015 OVC039 24/22 A3003 RMK
     AO2 CIG 006V012=
KCOT 081302Z AUTO 02007KT 10SM BKN019 BKN026 OVC060 26/23 A2990
     RMK AO2 RAE1257 P0000=
KDGW 081302Z AUTO 00000KT 1/4SM FG BKN001 BKN006 07/07 A3036 RMK
     AO2 $=
KGLR 081302Z AUTO 25005KT 1 3/4SM RA BR FEW007 BKN042 OVC060 21/21
     A3004 RMK AO2 P0003=
PAKF 081301Z AUTO 15004KT 10SM BKN012 OVC019 08/07 A2988 RMK
     AO2=
PASN 081301Z 07010KT 1/2SM FG VV001 05/05 A2993 RMK AO2=
KLBX 081302Z AUTO 11009G21KT 3SM -RA BR SCT021 BKN039 BKN060 25/23
     A2993 RMK AO2 P0001=
KMHK 081302Z 02008KT 5SM BR OVC008 22/20 A3012 RMK AO2 CIG
     007V012=
####018000086####
SACN91 KWBC 081304
METAR CWHI 081200Z AUTO 20008KT 12/08 RMK AO1 T01150083 50007=
####018000067####
SAAG SANT 081300
METAR SANT 081300Z  18004KT 8000  11/06 Q1018=
####018000096####
SAIV20 DIAP 081300
METAR DIAP 081300Z 19006KT 160V240 8000 SCT012 BKN020 29/25 Q1014
NOSIG=
####018000486####
SACU31 MUHA 081300
METAR
MUHA 081255Z 07004KT 040V100 8000 FEW040 28/24 Q1014=
MUVR 081250Z /////KT 9000 FEW020 27/23 Q1015=
MUCL 081251Z 14006KT 9999 FEW018 28/26 Q1015=
MUCF  NIL=
MUSC 081254Z VRB02KT 9000 SCT085 27/23 Q1015=
MUCC 081252Z 21004KT 9000 FEW020 28/22 Q1014=
MUCM 081250Z VRB02KT 9000 FEW020 27/23 Q1015=
MUMZ 081251Z 08004KT 9000 FEW025 XX/XX Q1014=
MUHG 081250Z 20006KT 160V250 9000 FEW020 28/23 Q1015=
COR  MUCU 081257Z VRB02KT 9000 FEW020CB 27/23 Q1016=
####018000131####
SAMX51 MMMX 081303
METAR MMOX 081350Z RTD 07002KT 4SM SCT005 SCT015 OVC100 17/15
      A3009 RMK 8/72/ RA INMTE LWR ST/VIS S=
####018000091####
SAPF20 NTAA 081300
METAR NTAA 081300Z 09003KT 9999 FEW023 25/22 Q1015 WS ALL RWY NOSIG=
####018000066####
SAAG SASA 081300
METAR SASA 081300Z 00000KT CAVOK 11/06 Q1021=
####018000401####
SABU31 LBSM 081300
METAR LBSF 081300Z 29005MPS 260V320 9999 FEW030 BKN045 20/12
 Q1018 NOSIG=
METAR LBWN 081300Z 30006MPS 9999 FEW030 SCT045 22/17 Q1013
 NOSIG=
METAR LBBG 081300Z 30006MPS 260V340 9999 -RA BKN021 BKN033 18/16
 Q1014 NOSIG=
METAR LBPD 081300Z VRB02MPS 9999 -RA SCT035 OVC050 17/15 Q1017
 NOSIG=
METAR LBGO 081300Z 27003MPS 8000 -DZ SCT013 BKN030 OVC050 16/15
 Q1017 NOSIG=
####018000084####
SAPK31 OPKC 081300 RRA
METAR OPLA 081255Z 14007KT 6000 SCT040 37/23 Q1002 NOSIG=
####018000822####
SPUS70 KWBC 081304
SPECI
KBRO 081301Z 32008KT 10SM SCT005 BKN026 26/25 A2977 RMK AO2=
KJCT 081259Z AUTO 00000KT 5SM BR FEW004 23/22 A3003 RMK AO2
     TSNO=
KDEN 081301Z 00000KT 1 1/2SM R35L/4500VP6000FT BR OVC003 14/14
     A3032 RMK AO2 SFC VIS 2=
KEWR 081301Z 16003KT 2SM BR BKN005 OVC009 26/25 A3005 RMK AO2 SFC
     VIS 4 CIG 004V006=
KBMQ 081302Z AUTO 08003KT 7SM BKN008 BKN015 OVC039 24/22 A3003 RMK
     AO2 CIG 006V012=
KCOT 081302Z AUTO 02007KT 10SM BKN019 BKN026 OVC060 26/23 A2990
     RMK AO2 RAE1257 P0000=
KDGW 081302Z AUTO 00000KT 1/4SM FG BKN001 BKN006 07/07 A3036 RMK
     AO2 $=
KGLR 081302Z AUTO 25005KT 1 3/4SM RA BR FEW007 BKN042 OVC060 21/21
     A3004 RMK AO2 P0003=
KLBX 081302Z AUTO 11009G21KT 3SM -RA BR SCT021 BKN039 BKN060 25/23
     A2993 RMK AO2 P0001=
####018000195####
SAXX60 KWBC 081200 RRQ
METAR
KLTS 081155Z 04007KT 9SM RA BKN009 BKN015 BKN027 22/22 A3008 RMK
     A02 RAB1110 BKN009 V SCT SLP171 P0022 60022 70026 T02220222
     10239 20222 53010 $=
####018000093####
SAUK35 EGGY 081250 RRA
METAR EGLF 081250Z 28006KT 220V330 9999 SCT032 BKN038 23/05 Q1018=
####018000499####
SAPR94 SPIM 081300
METAR
SPHO 081300Z 00000KT 9999 FEW060 SCT100 11/05 Q1027 RMK PP000=
SPHY 081300Z /////KT 9999 FEWW018 SCT070 01/M03 Q1022 RMK PP000=
METAR
SPJL 081300Z 00000KT CAVOK 03/M05 Q1039 RMK PP000=
METAR
SPME 081300Z /////KT 9999 OVC020 22/21 Q1012 
             RMK BIRD HAZARD RWY 32/14 PP000=
METAR
SPTU 081300Z 00000KT 6000 4000S VCRA SCT008 BKN045 24/23 Q1013 RMK
PP000=
METAR 
SPYL 081300Z /////KT 9999 OVC015 17/14 Q1014 RMK BIRD HAZARD RWY 35
             PP000=
####018001271####
SAUS70 KWBC 081300 RRF
METAR
KIPJ 081300Z AUTO 00000KT 10SM CLR 27/19 A3004 RMK AO2
     T02730194=
KJES 081300Z AUTO 30006KT 10SM CLR 26/24 A3002 RMK AO2
     T02610239=
PAJV 081250Z 00000KT 10SM SCT040 BKN080 OVC110 10/07 A2996 RMK
     NOSPECI=
PANW 081256Z AUTO 35007KT SCT055 OVC075 09/08 A2997 RMK AO2 PWINO
     TSNO T00940083 SLP125 $=
KJGG 081300Z AUTO 11005KT 10SM SCT015 SCT021 29/24 A3001 RMK
     AO1=
KJKA 081300Z AUTO 00000KT 10SM CLR 30/27 A3004 RMK AO2
     T02960267=
KJYO 081300Z AUTO 00000KT 5SM VCTSHZ CLR 30/22 A3003 RMK AO2=
KLGC 081255Z AUTO 00000KT 10SM CLR 27/27 A3006 RMK AO1=
KLOM 081300Z AUTO 13004KT 7SM CLR 29/22 A3004 RMK AO1
     T02880220=
KMGR 081300Z AUTO 31003KT 10SM CLR 27/21 A3005 RMK AO2=
KMQS 081300Z AUTO 14004KT 8SM CLR 27/22 A3007 RMK AO2=
KOCW 081300Z AUTO 04005KT 7SM CLR 27/22 A2998 RMK AO2=
KSIF 081300Z AUTO 36003KT 7SM CLR 30/22 A3003 RMK AO2=
KSVH 081300Z AUTO 00000KT 7SM CLR 28/19 A3006 RMK AO2
     T02820193=
KTPF 081300Z AUTO 07004KT 10SM CLR 26/23 A3001 RMK AO2=
KTSP 081255Z AUTO 00000KT 10SM CLR 09/03 A3003 RMK AO2=
KVUJ 081258Z AUTO 00000KT 10SM SCT090 28/21 A2999 RMK AO2=
KNSE 081256Z 00000KT 9SM FEW250 28/24 A3004 RMK AO2 SLP156
     T02780239 $=
####018001589####
SAXX60 KWBC 081300 RRE
METAR
KDMA 081255Z AUTO 07007KT 10SM CLR 29/11 A2991 RMK AO2 SLP052
     T02860111 $=
KFAF 081255Z 13005KT 10SM FEW016 27/26 A3000 RMK AO2A SLP159
     T02710262=
KNBG 081255Z 06003KT 7SM SCT015 BKN250 26/23 A3004 RMK AO2 SLP171
     T02620233 $=
KNGU 081259Z 07008KT 10SM FEW012 SCT070 BKN100 27/20 A3001 RMK AO2
     SLP163 T02720200=
KCOF 081255Z 03006KT 10SM CLR 28/21 A3000 RMK AO2A SLP160
     T0277=
KDOV 081257Z 13008KT 10SM FEW130 26/23 A3002 RMK AO2A SLP168=
KGSB 081255Z 06007KT 8SM CLR 27/21 A2996 RMK AO2A SLP144 WND DATA
     ESTMD T02750214 $=
KNBC 081256Z 29007KT 6SM HZ CLR 27/20 A2999 RMK AO2 SLP156
     T02720200 PNO $=
KNBG 081255Z 06003KT 7SM SCT015 BKN250 26/23 A3004 RMK AO2 SLP171
     T02620233 $=
KNGP 081256Z VRB04KT 10SM FEW010 SCT021CB BKN033 28/25 A2983 RMK
     AO2 RAE31 SLP101 CB DSNT SE TCU DSNT S-SW WR// VCSH W-NW
     P0002 T02770252=
KNJM 081257Z AUTO 01005KT 7SM FEW014 29/24 A2994 RMK AO2 SLP143
     T02890244 $=
KNTU 081256Z 07007KT 10SM SCT015 BKN050 BKN100 26/22 A2999 RMK AO2
     SLP156 T02610222 $=
KPAM 081255Z 36006KT 10SM CLR 27/25 A3003 RMK AO2A SLP169
     T02730248=
KVPS 081255Z COR 34002KT 10SM CLR 27/24 A3004 RMK SLP173 T02660237
     $ COR 1258=
KMHR 081250Z 15005KT 10SM FEW150 12/10 A2986=
K79J 081256Z AUTO 00000KT 10SM CLR 28/22 A3003 RMK AO2 SLP165
     T02780222 TSNO $=
KNEL 081300Z AUTO 14006KT 9SM BKN100 26/20 A3005 RMK AO2 SLP174
     T02560200 $=
KPAM 081255Z 36006KT 10SM CLR 27/25 A3003 RMK AO2A SLP169
     T02730248=
####018003729####
SAUS70 KWBC 081300 RRD
METAR
K0R3 081259Z AUTO 08006KT 7SM OVC003 27/26 A3002 RMK AO2=
K1A5 081300Z AUTO 00000KT 10SM CLR 20/19 A3017 RMK AO2
     T02000187=
K3I2 081300Z AUTO 00000KT 7SM CLR 25/21 A3010 RMK AO2=
K47A 081300Z AUTO 00000KT 10SM CLR 27/17 A3008 RMK AO2 LTG DSNT NE
     AND SW T02660171=
KASJ 081257Z AUTO 04003KT 4SM HZ SCT010 27/23 A3000 RMK AO2=
KAVC 081300Z AUTO 00000KT 5SM HZ CLR 29/21 A3005 RMK AO2=
KBCB 081300Z AUTO 00000KT 5SM HZ BKN060 26/23 A3017 RMK AO2=
KBIJ 081300Z AUTO 00000KT 10SM CLR 28/23 A3004 RMK AO2=
KCTZ 081300Z AUTO 03006KT 5SM HZ CLR 29/22 A2996 RMK AO2=
KDPL 081300Z AUTO 05004KT 4SM HZ CLR 28/22 A2997 RMK AO2=
KE33 081250Z 36004KT 20SM BKN070 12/07 RMK 402670078=
KEXX 081259Z AUTO 35003KT 7SM CLR 27/20 A3002 RMK AO2=
KFQD 081259Z AUTO 10003KT 10SM CLR 27/19 A3006 RMK AO2=
KLWB 081300Z AUTO 00000KT 7SM SCT055 24/18 A3018 RMK AO2=
KMQI 081256Z AUTO 06011KT 10SM SCT013 27/23 A2997 RMK AO2=
KMRN 081259Z AUTO 28003KT 10SM SCT085 26/17 A3012 RMK AO2=
KO22 081255Z AUTO 00000KT 10SM CLR 15/12 A2991 RMK AO1=
KTVI 081300Z AUTO 35003KT 10SM CLR 27/22 A3004 RMK AO2=
KUNV 081300Z AUTO 00000KT 10SM CLR 25/19 A3010 RMK AO2
     T02520190=
KW99 081259Z AUTO 00000KT 7SM CLR 26/17 A3010 RMK AO2=
KIRS 081255Z AUTO 10005KT 10SM CLR 26/22 A3004 RMK AO2=
KISQ 081255Z AUTO 35006KT 10SM OVC004 20/18 A2999 RMK AO2=
KJYG 081255Z AUTO 00000KT 10SM CLR 20/19 A3015 RMK AO2=
KJYM 081255Z AUTO 00000KT 10SM CLR 26/21 A3008 RMK AO2=
KLDM 081255Z AUTO 25004KT 5SM -RA OVC005 22/21 A3002 RMK AO2
     P0003=
KLWA 081256Z AUTO 00000KT 10SM SCT048 BKN085 BKN110 23/21 A3003
     RMK AO2=
KMCD 081256Z AUTO 26004KT 1SM -RA OVC001 20/17 A3000 RMK AO2=
KMGN 081255Z AUTO 26005KT 4SM DZ OVC010 21/20 A3000 RMK AO2=
KMOP 081255Z AUTO 26005KT 10SM BKN060 BKN075 OVC120 23/23 A3002
     RMK AO2=
KMZH 081251Z AUTO 28005KT 10SM CLR 18/16 A3006 RMK AO2=
KOEB 081255Z AUTO 09003KT 7SM CLR 26/22 A3006 RMK AO2=
KONZ 081257Z AUTO 00000KT 10SM CLR 28/22 A3002 RMK AO2=
KORB 081254Z AUTO 27005KT 10SM CLR 17/14 A3001 RMK AO2=
KOSC 081254Z AUTO 23004KT 7SM SCT060 BKN075 BKN090 23/21 A3000 RMK
     AO2=
KOWA 081254Z AUTO 33004KT 10SM CLR 18/17 A3011 RMK AO2=
KOZW 081255Z AUTO 00000KT 10SM SCT050 SCT070 26/21 A3005 RMK
     AO2=
KPHN 081255Z AUTO 19004KT 10SM CLR 27/21 A3002 RMK AO2=
KRGK 081255Z AUTO 29004KT 10SM CLR 20/17 A3010 RMK AO2=
KRIL 081253Z AUTO 00000KT 10SM CLR 12/08 A3029 RMK AO2 SLP193
     T01220083 TSNO=
KRMY 081255Z AUTO 00000KT 10SM CLR 25/22 A3005 RMK AO2=
KRNP 081255Z AUTO 20004KT 10SM CLR 26/21 A3004 RMK AO2=
KRQB 081255Z AUTO 00000KT 2SM +RA SCT013 BKN028 OVC055 22/21 A3004
     RMK AO2 VIS 1V4=
KSJX 081255Z AUTO 25004KT 1/4SM FG OVC002 19/18 A2999 RMK AO2=
KSLH 081255Z AUTO 24005KT 5SM -RA SCT009 BKN029 OVC047 22/21 A2998
     RMK AO2=
KTTF 081254Z AUTO 00000KT 10SM CLR 28/22 A3002 RMK AO2=
KUKT 081255Z AUTO 00000KT 8SM CLR 28/22 A3006 RMK AO1=
KVLL 081254Z AUTO 25005KT 10SM CLR 29/19 A3005 RMK AO2=
KVWU 081251Z AUTO 26009KT 10SM CLR 19/14 A3004 RMK AO2=
KXVG 081256Z AUTO 26004KT 10SM CLR 18/16 A3006 RMK AO2=
KY70 081255Z AUTO 24004KT 5SM HZ SCT006 25/23 A3004 RMK AO2
     T02470225=
K4I3 081256Z AUTO 00000KT 7SM CLR 25/21 A3010 RMK AO2=
KACB 081255Z AUTO 00000KT 5SM DZ OVC011 23/22 A3001 RMK AO2=
KACQ 081259Z AUTO 32005KT 10SM CLR 17/16 A3015 RMK AO2=
KADC 081257Z AUTO 27005KT 10SM CLR 17/14 A3010 RMK AO2=
KAMN 081255Z AUTO 26003KT 7SM CLR 24/22 A3002 RMK AO2=
KAQP 081253Z AUTO 25005KT 10SM CLR 17/17 A3011 RMK AO2=
KAUM 081255Z AUTO 34007KT 10SM CLR 19/17 A3011 RMK AO2=
KBAX 081255Z AUTO 25004KT 7SM CLR 26/23 A3001 RMK AO2=
####018001418####
SAUS70 KWBC 081304
METAR
KCWV 081309Z AUTO 28004KT 10SM CLR 29/23 A3001 RMK AO2=
KFYJ 081301Z AUTO 13003KT 7SM SCT011 SCT075 29/26 A3002 RMK
     AO1=
KGEV 081301Z AUTO 00000KT 7SM CLR 25/19 A3020 RMK AO2=
KHRJ 081301Z AUTO 04007KT 7SM CLR 31/22 A2997 RMK AO2=
KJYL 081301Z AUTO 31003KT 10SM CLR 27/22 A3001 RMK AO2=
KUKF 081301Z AUTO 00000KT 7SM CLR 26/20 A3010 RMK AO1=
KFKA 081303Z AUTO 35007KT 10SM CLR 20/18 A3011 RMK AO2
     T01970177=
K3J7 081301Z AUTO 00000KT 10SM CLR 28/22 A3000 RMK AO2=
KBQP 081309Z AUTO 10003KT 7SM CLR 27/26 A3008 RMK AO2=
KHBI 081302Z AUTO 00000KT 7SM CLR 27/19 A3004 RMK AO2=
KHLX 081301Z AUTO 00000KT 5SM HZ CLR 25/22 A3019 RMK AO2=
KHQU 081301Z AUTO 00000KT 10SM CLR 28/20 A3006 RMK AO1=
PABA 081301Z AUTO 28014KT 10SM BKN042 OVC055 07/04 A3001 RMK AO2
     SLP162 T00720044=
PAIK 081301Z AUTO 21003KT 10SM CLR 11/09 A3013 RMK AO2 SLP241
     T01060089=
KMFV 081302Z AUTO 09005KT 10SM CLR 27/22 A3001 RMK AO2 LTG DSNT
     SE=
KMLJ 081303Z AUTO 00000KT 10SM CLR 27/21 A3003 RMK AO2=
KMWK 081302Z AUTO 00000KT 7SM CLR 28/21 A3007 RMK AO2=
KPSK 081302Z AUTO 00000KT 7SM CLR 28/17 A3017 RMK AO2=
KPTB 081302Z AUTO 08007KT 5SM HZ SCT090 29/24 A3000 RMK AO2=
KRUQ 081301Z AUTO 35004KT 7SM BKN095 27/21 A3003 RMK AO2=
KTDF 081302Z AUTO 00000KT 5SM CLR 27/21 A3002 RMK AO1=
KVJI 081302Z AUTO 00000KT 5SM HZ CLR 26/20 A3016 RMK AO2=
####018000074####
SABZ20 SBOI 081300
METAR SBOI 081300Z 07002KT 9999 SCT015 30/26 Q1014=
####018000106####
SAAH10 OAKN 081300
METAR OAKN 081250Z 25007KT 9999 FEW150 41/04 Q1006 BLU NOSIG RMK
    A2972 DA7200=
####018000390####
SASD31 OEJD 081300
METAR OEDF 081300Z 01015KT CAVOK 44/04 Q0998 NOSIG=
METAR OEDR 081300Z 04011KT 8000 SKC 41/13 Q0997 NOSIG=
METAR OEJN 081300Z 30014KT CAVOK 37/25 Q1001 NOSIG=
METAR OEMA 081300Z 08008KT 9999 SCT045 47/M04 Q1004 NOSIG=
METAR OERK 081300Z 01016KT 8000 BLDU SKC 43/M03 Q1006 NOSIG=
METAR OERY 081300Z 04015KT 5000 SA SKC 44/M02 Q1006 NOSIG=
METAR OYSN 081300Z NIL=
####018000122####
SAXX60 KWBC 081300 CCB
METAR
K79J 081256Z AUTO 00000KT 10SM CLR 28/22 A3003 RMK AO2 SLP165
     T02780222 TSNO $=
####018003687####
SAUS70 KWBC 081300 RRE
METAR
KBDH 081255Z AUTO 27003KT 10SM CLR 18/16 A3014 RMK AO2=
KBFW 081253Z AUTO 31005KT 10SM CLR 22/16 A3002 RMK AO2=
KCAD 081254Z AUTO 24006KT 4SM RA SCT006 BKN050 OVC080 22/21 A3005
     RMK AO2=
KCBG 081255Z AUTO 26005KT 10SM CLR 19/16 A3009 RMK AO2=
KCDA 081255Z AUTO 00000KT 7SM CLR 26/21 A3010 RMK AO2=
KCDD 081251Z AUTO 00000KT 10SM CLR 20/18 A3003 RMK AO2=
KCFE 081255Z AUTO 26005KT 10SM CLR 20/16 A3013 RMK AO2
     T01960164=
KCFS 081255Z AUTO 00000KT 10SM CLR 26/21 A3002 RMK AO2=
KCKC 081255Z AUTO 26004KT 10SM CLR 19/14 A3004 RMK AO2=
KCKN 081255Z AUTO 28004KT 10SM CLR 17/14 A3007 RMK AO2=
KCNB 081258Z AUTO 25008KT 10SM CLR 20/14 A3014 RMK AO2
     T01990143=
KCOQ 081256Z AUTO 27008KT 10SM CLR 19/18 A3007 RMK AO2=
KCQM 081257Z AUTO 24005KT 10SM CLR 18/15 A3004 RMK AO2=
KCVX 081255Z AUTO 23005KT 3SM -RA SCT004 BKN010 OVC050 21/20 A3002
     RMK AO2=
KDRM 081256Z AUTO 23005KT 4SM -RA BKN010 OVC019 21/21 A2998 RMK
     AO2=
KDTL 081255Z AUTO 29004KT 10SM CLR 18/12 A3011 RMK AO2=
KDUH 081255Z AUTO 00000KT 10SM CLR 28/20 A3004 RMK AO2=
KDVP 081256Z AUTO 28004KT 10SM CLR 19/14 A3019 RMK AO2
     T01850140=
KERY 081255Z AUTO 32004KT 5SM BR OVC003 18/17 A3001 RMK AO2=
KETH 081254Z AUTO 27004KT 10SM CLR 19/16 A3011 RMK AO2=
KFFX 081255Z AUTO 17003KT 4SM BR SCT002 OVC065 23/22 A3002 RMK
     AO2=
KFKS 081255Z AUTO 26003KT 4SM BR BKN004 21/20 A3001 RMK AO2=
KFOZ 081253Z AUTO 24004KT 10SM CLR 17/16 A3006 RMK AO2=
KFPK 081256Z AUTO 00000KT 7SM CLR 25/21 A3004 RMK AO2=
KFSE 081254Z AUTO 22004KT 10SM CLR 16/13 A3007 RMK AO2=
KGOV 081255Z AUTO 25003KT 7SM -RA BKN048 OVC050 22/22 A3004 RMK
     AO2=
KHAF 081250Z AUTO 00000KT 8SM OVC006 12/10 A2994 RMK AO2=
KHAI 081255Z AUTO 00000KT 10SM CLR 25/22 A3004 RMK AO2=
KHYX 081255Z AUTO 25004KT 10SM SCT085 SCT120 25/21 A3002 RMK
     AO2=
K3A1 081300Z AUTO 03005KT 10SM CLR 26/23 A3012 RMK AO2
     T02620226=
K4A9 081300Z AUTO 02003KT 10SM CLR 26/20 A3008 RMK AO2
     T02590201=
K4R4 081300Z AUTO 00000KT 7SM CLR 28/26 A3004 RMK AO2
     T02780258=
K8A0 081259Z AUTO 01006KT 10SM CLR 27/21 A3009 RMK AO2=
KACP 081259Z AUTO 00000KT 7SM CLR 26/25 A3003 RMK AO2=
KAFP 081300Z AUTO 34003KT 10SM CLR 28/18 A2999 RMK AO2
     T02780180=
KALX 081300Z AUTO 00000KT 10SM CLR 27/22 A3006 RMK AO1=
KBGE 081300Z AUTO 00000KT 5SM BR BKN001 23/22 A3005 RMK AO2=
KBQK 081257Z AUTO 28006KT 10SM CLR 26/23 A3002 RMK AO1 T02620225
     PNO=
KCCO 081300Z AUTO 00000KT 10SM CLR 24/21 A3007 RMK AO1=
KCDH 081300Z AUTO 00000KT 8SM BKN003 23/23 A3007 RMK AO2=
KCPC 081300Z AUTO 01004KT 10SM CLR 28/21 A2995 RMK AO2
     T02780210=
KCTJ 081300Z AUTO 35005KT 10SM CLR 29/20 A3008 RMK AO2
     T02860203=
KDNN 081258Z AUTO 00000KT 10SM CLR 23/21 A3008 RMK AO2=
KDQH 081300Z AUTO 30003KT 7SM CLR 28/19 A3003 RMK AO1=
KDRI 081300Z AUTO 07004KT 7SM BKN008 OVC015 24/24 A3005 RMK
     AO2=
KEHO 081300Z AUTO 00000KT 10SM CLR 26/19 A3004 RMK AO2
     T02570186=
KEMV 081257Z AUTO 00000KT 5SM HZ BKN090 27/23 A2999 RMK AO2=
KEYF 081300Z AUTO RMK TEMPORAIRILY INOPERATIVE=
KEZF 081258Z AUTO 13006KT 7SM CLR 30/26 A3000 RMK AO2
     T02950262=
KF24 081259Z AUTO 10SM CLR 26/24 A3010 RMK AO2 T02580235=
KFKN 081300Z AUTO 08004KT 5SM SCT012 BKN017 28/24 A3000 RMK
     AO1=
KGHG 081300Z AUTO 11007KT 10SM SCT014 26/22 A3012 RMK AO2=
KHOE 081259Z AUTO 29005KT 10SM CLR 25/25 A3003 RMK AO2
     T02530247=
KHSP 081300Z AUTO 06006KT 10SM CLR 25/17 A3028 RMK AO2=
KHWY 081300Z AUTO 06005KT 7SM SCT120 28/21 A3002 RMK AO2=
KIDI 081300Z AUTO 10003KT 10SM SCT070 24/20 A3011 RMK AO2=
####018000860####
SAUS80 KWBC 081300 RRB
METAR
K4CR 081258Z 08004KT 15SM OVC050 13/11=
KJNX 081259Z AUTO 02003KT 7SM CLR 28/21 A2997 RMK AO2=
KACY 081254Z 10006KT 6SM -RA BR SCT013 BKN020 24/22 A3006 RMK AO2
     RAB37 SLP178 P0001 T02440222=
KCHS 081256Z 31006KT 8SM CLR 27/21 A2997 RMK AO2 SLP148
     T02670206=
KDAB 081253Z 33003KT 10SM FEW024 SCT250 27/21 A3002 RMK AO2 SLP164
     T02670206 $=
KDAB 081253Z 33003KT 10SM FEW024 SCT250 27/21 A3002 RMK AO2 SLP164
     T02670206 $=
KPZQ 081255Z AUTO 25006KT 7SM DZ SCT050 SCT070 OVC090 22/20 A3000
     RMK AO2=
KRIC 081254Z 13007KT 5SM HZ FEW150 SCT250 28/22 A3000 RMK AO2
     SLP162 T02830222=
KAYS 081300Z AUTO 27008KT 10SM CLR 26/23 A3003 RMK AO1=
KDBN 081300Z AUTO 33004KT 10SM CLR 29/19 A3001 RMK AO1=
KROC 081254Z COR 22006KT 9SM CLR 26/21 A3005 RMK AO2 SLP173
     T02610206=
####018000136####
SAMX51 MMMX 081300
SPECI MMMX 081300Z 18003KT 2 1/2SM -RA HZ SCT008 BKN010 OVC020 15/14 A3020
      NOSIG RMK 60235 8/7// VSBY TWR=
####018000333####
SAXX60 KWBC 081304
METAR
KNQI 081240Z COR 04007KT 10SM FEW010 SCT012CB BKN045 BKN140 BKN280
     27/25 A2984 RMK TSE40RAB16E40 OCNL LTGICCG W-NW TS W-NW MOV W
     P0002=
KNQI 081240Z COR 04007KT 10SM FEW010 SCT012CB BKN045 BKN140 BKN280
     27/25 A2984 RMK TSE40RAB16E40 OCNL LTGICCG W-NW TS W-NW MOV W
     P0002=
####018000322####
SPUS80 KWBC 081304
SPECI
KWAL 081301Z 08008KT 10SM FEW011 SCT110 27/22 A3002 RMK AO2=
PASN 081301Z 07010KT 1/2SM FG VV001 05/05 A2993 RMK AO2=
KMHK 081302Z 02008KT 5SM BR OVC008 22/20 A3012 RMK AO2 CIG
     007V012=
KHTL 081302Z AUTO 24004KT 6SM -RA BR FEW010 SCT022 OVC065 22/21
     A3005 RMK AO2 P0001=
####018000082####
SPAU32 YBBN 081300
SPECI YBMA 081300Z AUTO 00000KT 8000NDV // NCD 08/07 Q1020=
####018000125####
SAUS80 KWBC 081300 CCC
METAR
KP60 081256Z AUTO 00000KT 02/M01 A3045 RMK AO2 SLP265 T00171006
     PWINO FZRANO TSNO=
####018000089####
SAAU31 KWBC 081200 RRF
METAR
YPXM 081200Z AUTO 20004KT 9999NDV // NCD 23/20 Q1013=
####018000256####
SAAW33 KWBC 081200 RRF
METAR
OMFJ 081200Z 10009KT 040M130 6000 FEW025 34/25 Q1001 A2955=
OMRK PPIQWPPZ 34010KT CAVOK 41/33 Q0998 A2947=
OMSJ 081200Z 32012KT 290V360 7000=
OOSA 08120,Z 16008KT 8000 FEW008 SMT012 BKN020 28/23 Q1002
     NOSIG=
####018000152####
SABX31 KWBC 081020 RRE
METAR
EBFN 081025Z 32006KT 9999 FEW042 BKN200 22/16 Q1020 BLU BLU=
EBFS 081025Z 20004KT 9999 FEW250 27/11 Q1021 BLU BLU=
####018000083####
SADN31 KWBC 081250 RRB
METAR
EKSB 081301Z 24006KT 200V270 CAVOK 26/12 Q1018=
####018000103####
SPUS31 KWBC 081304
SPECI
KDEN 081301Z 00000KT 1 1/2SM R35L/4500VP6000FT BR OVC003 14/14
A3032=
####018000086####
SPUS31 KWBC 081304
SPECI
KEWR 081301Z 16003KT 2SM BR BKN005 OVC009 26/25 A3005=
####018000087####
SASW31 KWBC 081250 RRA
METAR
LSZG 081250Z VRB02KT 9999 FEW050 30/12 Q1021 NOSIG=
####018000096####
SAUK31 KWBC 081250 CCC
METAR
EGLF 081250Z 28006KT 220V330 9999 SCT032 BKN038 23/15 Q1018=
####018000304####
SAXX99 KWBC 081200 RRX
METAR
LHDC 081245Z 01009KT 9999 FEW046 23/10 Q1021 NOSIG=
LHKE 081245Z 27002MPS CAVOK 24/12 Q1020 NOSIG RMK BLU=
LHPP 081245Z 28006KT CAVOK 24/09 Q1022 NOSIG=
LHSN 081245Z 30002MPS CAVOK 24/11 Q1021 NOSIG RMK BLU=
LHUD 081245Z 30005KT 9999 SCT040 SCT046 25/12 Q1021=
####018000084####
SPUS42 KWBC 081304
SPECI
KBRO 081301Z 32008KT 10SM SCT005 BKN026 26/25 A2977=
####018000105####
SAUS41 KAKQ 081304
MTRNUI
SPECI KNUI 081303Z AUTO 09007KT 7SM BKN013 BKN021 27/24 A3001 RMK 
AO2
####018000323####
SATS41 DTTA 081300
METAR DTTB 081300Z 35010KT CAVOK 30/18 Q1020=
METAR DTTD 081300Z 08006KT CAVOK 33/09 Q1019=
METAR DTTG 081300Z 08010KT CAVOK 33/13 Q1017 NOSIG=
METAR DTTK 081300Z 12004KT CAVOK 37/09 Q1017 SIROCCO=
METAR DTTL 081300Z 36006KT CAVOK 30/21 Q1018=
METAR DTTN 081300Z 33008KT CAVOK 34/15 Q1017=
####018000782####
SAEW32 LEMM 081300
METAR LEAS 081300Z NIL=
METAR LEBB 081300Z 31011KT 280V340 8000 FEW025 26/20 Q1017 TEMPO 
SCT030CB=
METAR LECO 081300Z 01007KT CAVOK 22/19 Q1015=
METAR LEGE 081300Z 19007KT 150V240 CAVOK 33/18 Q1019=
METAR LEST 081300Z 08006KT 050V120 9999 FEW025 29/18 Q1015 NOSIG=
METAR LEZG 081300Z 10009KT 060V150 9999 FEW035 FEW040TCU 37/13 
Q1017=
METAR LESO 081300Z 35003KT 310V070 CAVOK 28/21 Q1015=
METAR LEVT 081300Z 11005KT 070V160 9999 SCT050 33/17 Q1017=
METAR LERS 081300Z 20008KT 150V240 CAVOK 29/14 Q1020=
METAR LEMH 081300Z 08006KT 020V170 CAVOK 30/18 Q1020=
METAR LEAM 081300Z 08016KT 9999 FEW050 39/04 Q1015=
METAR LEGR 081300Z 17015KT 140V200 9999 FEW060 39/06 Q1017=
METAR LERL 081300Z 12009KT 080V150 9999 FEW050 37/05 Q1018=
####018000659####
SAEW31 LEMM 081300
METAR LEMD 081300Z 15010KT 110V170 9999 FEW060TCU 32/12 Q1018   
WS R18L WS R18R NOSIG=
METAR LEBL 081300Z 20014KT CAVOK 28/21 Q1019 NOSIG=
METAR LEPA 081300Z 23014KT CAVOK 31/14 Q1020 NOSIG=
METAR LEZL 081300Z 23007KT 180V280 9999 FEW025 33/14 Q1015 NOSIG=
METAR LEMG 081300Z 11006KT 070V150 9999 FEW040 30/14 Q1017 NOSIG=
METAR LEVC 081300Z 10010KT 050V140 CAVOK 32/17 Q1018 NOSIG=
METAR LEAL 081300Z 08011KT 050V110 CAVOK 31/17 Q1019 NOSIG=
METAR LEIB 081300Z 08007KT 030V120 CAVOK 29/20 Q1020 NOSIG=
METAR LELC 081300Z 06011KT 030V100 CAVOK 28/20 Q1018 NOSIG=
METAR LEVX 081300Z VRB03KT 8000 FEW030 24/19 Q1015=
####018000325####
SAEW33 LEMM 081300
METAR GCLP 081300Z 02025KT 9999 FEW020 25/17 Q1017 NOSIG=
METAR GCXO 081300Z 29012KT 9999 FEW005 23/17 Q1020 NOSIG=
METAR GCTS 081300Z 11016KT 080V140 9999 FEW020 25/18 Q1017 NOSIG=
METAR GCRR 081300Z 36017KT 330V030 9999 FEW020 27/19 Q1017=
METAR GCFV 081300Z 05016KT 9999 FEW020 23/19 Q1017=
####018000140####
SALC31 TLPL 081300
METAR TLPL 081300Z 09020KT 9999 SCT024 BKN280 30/24 Q1014=
METAR TLPC 081300Z 11010KT 9999 FEW026 BKN280 30/25 Q1014=####018000084####
SPUS72 KWBC 081304
SPECI
KBRO 081301Z 32008KT 10SM SCT005 BKN026 26/25 A2977=
####018000240####
SAGG31 UGTB 081300
METAR UGTB 081300Z 06008KT 9999 SCT050 BKN100 34/16 Q1013 NOSIG RMK
      13CLRD80=
METAR UGKO 081300Z 27004KT 9999 SCT050CB BKN100 30/23 Q1010 NOSIG=
METAR UGSB 081300Z 29004KT 9999 BKN020CB 27/23 Q1009 NOSIG=
####018000414####
SAEW35 LEMM 081300
METAR LEAB 081300Z 15016KT CAVOK 35/03 Q1021 NOSIG=
METAR LEBZ 081300Z 31007KT CAVOK 35/13 Q1014=
METAR LELN 081300Z 20012KT 160V240 9999 FEW055TCU 32/09 Q1019=
METAR LESA 081300Z VRB02KT 9999 FEW048 35/15 Q1018=
METAR LETO 081300Z 09006KT 020V150 9999 FEW070 31/12 Q1018 NOSIG=
METAR LEVD 081300Z 18005KT CAVOK 34/08 Q1018=
METAR LEVS 081300Z 13010KT 080V170 CAVOK 32/11 Q1018=
####018000239####
SACZ31 LKPW 081300
METAR LKKV 081300Z VRB03KT CAVOK 24/10 Q1023=
METAR LKMT 081300Z 03004KT 320V090 CAVOK 23/11 Q1023 NOSIG=
METAR LKPR 081300Z VRB03KT CAVOK 24/12 Q1023 NOSIG=
METAR LKTB 081300Z VRB01KT CAVOK 25/08 Q1022 NOSIG=
####018000287####
SAIL31 BICC 081300
METAR BIAR 081300Z 35015KT 9999 -RA BKN020 08/06 Q0996=
METAR BIEG 081300Z 36012KT 9999 VV004 09/08 Q0991 RESHRA=
METAR BIKF 081300Z 03019KT 9999 FEW018 SCT035 BKN110 12/06 Q0995=
METAR BIRK 081300Z 36020G30KT 260V170 9999 -SHRA FEW030 SCT050 11/07
Q0993=
####018000098####
SAMR20 TFFF 081300
METAR TFFF 081300Z 08015KT 020V100 9999 FEW020 SCT026 31/24 Q1014
NOSIG=
####018000361####
SAEW34 LEMM 081300
METAR LEBA 081300Z 27007KT 220V300 9999 FEW045 34/14 Q1015=
METAR LEDA 081300Z 18007KT 150V230 CAVOK 37/14 Q1018=
METAR LEJR 081300Z VRB05KT CAVOK 32/14 Q1015=
METAR LELL 081300Z 14009KT 090V190 CAVOK 31/14 Q1019=
METAR LEPP 081300Z 18010KT 140V230 CAVOK 37/14 Q1018=
METAR LEXJ 081300Z 28008KT 240V310 9999 SCT018 25/19 Q1016=
####018000214####
SAEW36 LEMM 081300
METAR GCHI 081300Z 01012KT 330V060 9999 FEW014 SCT022 23/18 Q1019=
METAR GCLA 081300Z 01013KT 340V040 9999 FEW020 25/18 Q1019=
METAR GEML 081300Z 09008KT 060V140 9999 FEW012 26/21 Q1016=
####018000540####
SAYG31 LYBM 081300
METAR LYBE 081300Z 33010KT CAVOK 23/12 Q1021 NOSIG=
METAR LYBT 081300Z 32013KT CAVOK 24/13 Q1021 NOSIG=
METAR LYKV 081300Z 34009KT 9999 SCT035 20/15 Q1021 NOSIG=
METAR LYNI 081300Z 33012KT 9999 FEW020 SCT026 19/13 Q1020 NOSIG=
METAR LYPG 081300Z 01018KT 300V110 9999 SCT040 28/09 Q1017 NOSIG=
METAR LYPR 081300Z NIL=
METAR LYTV 081300Z 01007KT 9999 FEW053 29/10 Q1017 NOSIG=
METAR LYUZ 081300Z 28005KT 250V310 9999 BKN020 14/10 Q1024 NOSIG=
METAR LYVR 081300Z 35006KT 310V080 9999 BKN033 22/14 Q1020=
####018000100####
SAAJ31 UBBB 081300
METAR UBBG 081300Z 08014KT 9999 SCT083 36/16 Q1009 NOSIG RMK
R12L/CLRD70 =
####018000380####
SAIE31 EIDB 081300
METAR EIDW 081300Z 23012KT 200V260 9999 FEW022 BKN050 BKN100 17/09
     Q1015 NOSIG=
METAR EINN 081300Z 22010KT 9999 -RADZ FEW016 SCT028 BKN050 15/12
     Q1015 NOSIG=
METAR EICK 081300Z 20010KT 9999 -RA SCT008 BKN025 BKN038 14/13 Q1016
     NOSIG=
METAR EIKN 081300Z 19009KT 140V230 9999 FEW015 FEW018CB BKN040 BKN100
     13/12 Q1014 NOSIG=
####018000092####
SAAB31 LATI 081300
METAR LATI 081300Z 36018G28KT 340V050 9999 FEW050 27/12 Q1016 NOSIG=
####018000838####
SAUR31 UKMS 081300
METAR UKLR 081300Z 31006MPS 9999 SCT030 BKN100 22/14
         Q1018 30090070 NOSIG=
METAR UKLI 081300Z 32004MPS 270V010 9999 SCT021CB
         BKN026 18/15 Q1020 28290565 NOSIG=
METAR UKON 081300Z 32004MPS 290V360 9999 FEW033CB
         OVC200 29/17 Q1013 05090075 NOSIG=
METAR UKCM 081300Z 12003MPS 080V190 CAVOK 29/14 Q1013
          20010065 NOSIG=
METAR UKCW 081300Z 07003MPS 010V110 9999 BKN040 30/15
          Q1014 2709//70 NOSIG=
METAR UKLU 081300Z 36003MPS 9999 BKN040 24/12 Q1020
         10090070 NOSIG=
METAR UKKK 081300Z 30003MPS 260V350 9999 BKN035 26/16
         Q1015  26CLRD70 NOSIG=
METAR UKKM 081300Z 33004MPS 300V360 9999 BKN040 25/17
         Q1015  33CLRD70 NOSIG=
METAR UKLN 081300Z 29005MPS 260V330 9999 BKN015
         BKN033CB 16/14 Q1020 3319//65 NOSIG=
####018000075####
SPAU32 YBBN 081300
SPECI YBMA 081300Z AUTO 0000NDV // NCD 08/07 Q1020=
####018000103####
SPUS73 KWBC 081304
SPECI
KDEN 081301Z 00000KT 1 1/2SM R35L/4500VP6000FT BR OVC003 14/14
A3032=
####018000174####
SAUS20 KNKA 081304
METAR KGTU 081249Z 06006KT 5SM BR BKN005 OVC012 24/22 A3003=
SPECI KMWL 081302Z AUTO 12005KT 10SM FEW008 BKN024 BKN031 24/23 
    A3003 RMK AO2 $=
####018000074####
SACN50 CWAO 081245
WPN SA 1245 AUTO8 M M M M/11/M/2401/M/M M 1MMM=

####018000461####
SAMS32 WMKK 081300
METAR 081300Z
METAR WBGG 081300Z 25006KT 9999 FEW015CB SCT020 BKN150 24/22 Q1012 
RETS
     NOSIG=
METAR WBKK 081300Z 11006KT 9999 FEW014 SCT140 BKN270 25/23 Q1010 
NOSIG=
METAR WMKJ 081300Z 21003KT 9999 FEW022 BKN300 27/24 Q1010=
METAR WMKK 081300Z 00000KT 9999 FEW030 BKN280 27/25 Q1009 NOSIG=
METAR WMKP 081300Z 06001KT 9000 FEW025 BKN270 28/25 Q1010 NOSIG=
METAR WMSA 081300Z 25001KT 9000 FEW026 BKN280 29/25 Q1009=
####018000180####
SANA14 KAWN 081100 RRH
METAR KNQI 081134Z COR 02005KT 10SM TS SCT014CB BKN140 BKN280 27/24
      A2983 RMK AO2 OCNL LTGICCG VC NE-SE TSB28RAE19 TS NE-SE MOV
      W P0006=
####018000090####
SAUK39 EGRR 081250 RRB
METAR EGXP 081250Z 23011KT 9999 FEW042 SCT100 21/09 Q1017 BLU=
####018000105####
SAUS46 KLOX 081304
MTRSMX
SPECI KSMX 081303Z 30004KT 3SM BR BKN002 OVC005 12/11 A2994 RMK AO2 
$
####018000533####
SAXX60 KAWN 081300 RRA
METAR KHLR 081256Z AUTO 09004KT 8SM -RA OVC007 26/ A3001 RMK AO2 RAB54
      SLP154 P0000 T0256 $=
METAR PHBK 081256Z AUTO 12003KT 10SM BKN060 OVC070 24/18 A3000 RMK
      AO2 SLP162 T02440178 TSNO $=
METAR PHNY 081256Z AUTO 03012KT 10SM BKN036 BKN045 19/18 A3005 RMK
      AO2 TSNO T01940183 BKN V OVC RAE03 P0000 SLP155 $=
METAR PWAK 081255Z 07013KT 6SM BR SKC 27/26 A2998 RMK AO2A=
METAR RJSM 081300Z VRB01KT 7000 FEW003 SCT040 19/17 Q1010 RMK 1ST003
      4SC040 A2984 WIND BY EQPT/10=
####018000180####
SAZZ40 KAWN 081100 RRW
METAR KNQI 081134Z COR 02005KT 10SM TS SCT014CB BKN140 BKN280 27/24
      A2983 RMK AO2 OCNL LTGICCG VC NE-SE TSB28RAE19 TS NE-SE MOV
      W P0006=
####018000790####
SARS18 KAWN 081300 RRB
METAR BIKF 081300Z 03019KT 9999 FEW018 SCT035 BKN110 12/06 Q0995=
METAR LUKK 081300Z 36009KT 9999 SCT035 26/16 Q1015 26CLRD65 NOSIG=
METAR UBBB 081300Z 35018KT CAVOK 32/26 Q1010 NOSIG RMK R88CLRD70=
METAR UHHH 081300Z METAR 04002MPS 9999 SCT033CB OVC100 16/15 Q1011
      NOSIG=
METAR UKBB 081300Z 30003MPS 260V330 9999 BKN040 26/17 Q1014 88CLRD95
      NOSIG=
METAR UKFF 081300Z 03003MPS 340V060 CAVOK 29/17 Q1012 01010070 NOSIG=
METAR UKKK 081300Z 30003MPS 260V350 9999 BKN035 26/16 Q1015 26CLRD70
      NOSIG=
METAR UKLL 081300Z 32004MPS 260V030 9999 SCT035 BKN100 21/12 Q1021
      31210365 NOSIG=
METAR UKOO 081300Z 33005MPS 300V360 CAVOK 27/14 Q1014 34090070 NOSIG=
METAR UTTT 081300Z 00000MPS CAVOK 38/06 Q1009 R08R/CLRD70 NOSIG=
####018000212####
SAAK41 KNKA 081304
SPECI PAHC 081302Z AUTO 00000KT 1 1/4SM BR CLR 08/07 A2998 RMK AO2 
    TSNO VIS 1/2V5 $=
METAR PAVC 081256Z AUTO 05003KT 10SM 06/06 A2991 RMK AO2 PWINO TSNO 
    T00550055 SLP130 $=
####018001680####
SAEU KAWN 081300 RRL
METAR EICK 081300Z 20010KT 9999 -RA SCT008 BKN025 BKN038 14/13 Q1016
      NOSIG=
METAR EIDW 081300Z 23012KT 200V260 9999 FEW022 BKN050 BKN100 17/09
      Q1015 NOSIG=
METAR EIKN 081300Z 19009KT 140V230 9999 FEW015 FEW018CB BKN040 BKN100
      13/12 Q1014 NOSIG=
METAR EINN 081300Z 22010KT 9999 -RADZ FEW016 SCT028 BKN050 15/12 Q1015
      NOSIG=
METAR LATI 081300Z 36018G28KT 340V050 9999 FEW050 27/12 Q1016 NOSIG=
METAR LEBB 081300Z 31011KT 280V340 8000 FEW025 26/20 Q1017 TEMPO SCT030CB=
METAR LEMH 081300Z 08006KT 020V170 CAVOK 30/18 Q1020=
METAR LEPA 081300Z 23014KT CAVOK 31/14 Q1020 NOSIG=
METAR LEZG 081300Z 10009KT 060V150 9999 FEW035 FEW040TCU 37/13 Q1017=
METAR LHKE 081245Z 27002MPS CAVOK 24/12 Q1020 NOSIG RMK BLU=
METAR LHPA 081245Z 35004MPS CAVOK 24/09 Q1023 NOSIG RMK BLU=
METAR LHSN 081245Z 30002MPS CAVOK 24/11 Q1021 NOSIG RMK BLU=
METAR LKCV 081300Z 16004KT 110V220 CAVOK 24/08 Q1022 NOSIG RMK BLU+
      BLU+=
METAR LKKV 081300Z VRB03KT CAVOK 24/10 Q1023=
METAR LKMT 081300Z 03004KT 320V090 CAVOK 23/11 Q1023 NOSIG=
METAR LKNA 081300Z 05004KT CAVOK 23/08 Q1023 NOSIG RMK BLU+ BLU+=
METAR LKPD 081300Z VRB02KT CAVOK 25/06 Q1022 NOSIG RMK BLU+ BLU+=
METAR COR LKPO 081300Z 31003KT 270V340 CAVOK 23/11 Q1022 NOSIG RMK
      BLU+ BLU+=
METAR LKPR 081300Z VRB03KT CAVOK 24/12 Q1023 NOSIG=
METAR LKTB 081300Z VRB01KT CAVOK 25/08 Q1022 NOSIG=
METAR LYBE 081300Z 33010KT CAVOK 23/12 Q1021 NOSIG=
METAR LYNI 081300Z 33012KT 9999 FEW020 SCT026 19/13 Q1020 NOSIG=
METAR LYPG 081300Z 01018KT 300V110 9999 SCT040 28/09 Q1017 NOSIG=
METAR LYTV 081300Z 01007KT 9999 FEW053 29/10 Q1017 NOSIG=
####018000265####
SAUY SUMU 081300
METAR SUMU 081300Z 29005KT CAVOK 10/07 Q1019 NOSIG=
METAR SUDU 081300Z 24004KT CAVOK 08/04 Q1020=
METAR SUCA 081300Z 32004KT CAVOK 08/03 Q1018=
METAR SULS 081300Z 28010KT CAVOK 10/04 Q1019=
METAR SUAA 081300Z 29006KT CAVOK 06/04 Q1019=
####018000069####
SABZ24 SBPK 081300
METAR SBPK 081300Z 27008KT CAVOK 13/06 Q1021=
####018001031####
SACH72 SCSC 081300
METAR
SCEL 081300Z 25004KT 230V310 4000 BR SCT130 02/01 Q1023 NOSIG=
SCIE 081300Z 28010KT 9999 BKN012 13/11 Q1020=
SCTC 081300Z 28008KT 9999 FEW009 BKN015 10/09 Q1016=
SCPC NIL=
SCVD 081300Z 27013KT 4000 -SHRA BKN020TCU 11/09 Q1014 RMK HR89=
SCJO 081300Z 30004KT 9999 SCT020 BKN040 08/07 Q1012=
SCTE 081300Z 22008KT 9999 BKN027 BKN050 07/06 Q1013 NOSIG=
SCMK NIL=
SCON 081300Z 29004KT 99999 SCT023 04/02 Q1013=
SCFT NIL=
SCAP 081300Z 21010KT 9999 SCT040 03/02 Q1012=
SCAS 081300Z 33006KT 8000 VCSH OVC020 03/00 Q1009=
SCCY 081300Z 00000KT 9999 BKN025 M01/M01 Q1007=
SCBA 081300Z AUTO 26006KT CAVOK M04/M07 Q1003=
SCCC 081300Z 27016KT 9999 FEW030 02/M05 Q1002=
SCHR 081300Z 34004KT 9999 BKN030 M02/M03 Q1002=
SCNT 081300Z 31024G34KT 9999 SCT020 03/M05 Q0989=
SCCI 081300Z 34016KT 9999 FEW025 SCT070 M03/M05 Q0985 NOSIG=
SCFM 081300Z 36013KT 9999 SCT030 M01/M03 Q0986=
SCGZ 081300Z 15004KT CAVOK M01/M02 Q0984=
SCRM 081300Z 01026KT 0100 FG OVC001 M02/M02 Q0988 NOSIG=
####018000955####
SACH71 SCSC 081300
METAR
SCAR 081300Z VRB01KT 9999 OVC021 15/09 Q1016=
SCDA 081300Z 03008KT 9999 OVC026 15/09 Q1017=
SCCF 081300Z 10025KT CAVOK 06/M12 Q1025=
SCFA 081300Z 06005KT 9999 BKN022 13/07 Q1017 NOSIG=
SCIP 081300Z 11002KT 9999 SCT020 18/17 Q1022 TEMPO 5000 -SHRA=
SCAT 081300Z 01006KT 2500 BR OVC002 09/08 Q1018=
SCSE 081300Z 13005KT 090V150 CAVOK 08/05 Q1018 NEFO PLAYA SKC=
SCER 081300Z 19003KT 9000 2000NE SKC 05/04 Q1021
=
SCVM 081300Z 09009KT CAVOK SKC 05/05 Q1020=
SCRD 081300Z 17012KT CAVOK 09/04 Q1021=
SCSN 081300Z 12005KT CAVOK 08/06 Q1023=
SCEL 081300Z 25004KT 230V310 4000 BR SCT130 02/01 Q1023 NOSIG=
SCTB 081300Z 00000KT 8000 SCT090 03/03 Q1023=
SCRG 081300Z 00000KT 9999 BKN120 05/04 Q1023=
SCIC 081300Z 05003KT 9999 BKN040 06/05 Q1021=
SCCH 081300Z 36008KT 3000 RA BKN020 OVC030 08/08 Q1020=
SCIE 081300Z 28010KT 9999 BKN012 13/11 Q1020=
SCGE 081300Z 36005KT 2000 -RA OVC006 08/08 Q1018=
####018000851####
SACH10 SCSC 081300
METAR
SCAR 081300Z VRB01KT 9999 OVC021 15/09 Q1016=
SCDA 081300Z 03008KT 9999 OVC026 15/09 Q1017=
SCFA 081300Z 06005KT 9999 BKN022 13/07 Q1017 NOSIG=
SCCF 081300Z 10025KT CAVOK 06/M12 Q1025=
SCAT 081300Z 01006KT 2500 BR OVC002 09/08 Q1018=
SCIP 081300Z 11002KT 9999 SCT020 18/17 Q1022 TEMPO 5000 -SHRA=
SCSE 081300Z 13005KT 090V150 CAVOK 08/05 Q1018 NEFO PLAYA SKC=
SCEL 081300Z 25004KT 230V310 4000 BR SCT130 02/01 Q1023 NOSIG=
SCIE 081300Z 28010KT 9999 BKN012 13/11 Q1020=
SCTC 081300Z 28008KT 9999 FEW009 BKN015 10/09 Q1016=
SCJO 081300Z 30004KT 9999 SCT020 BKN040 08/07 Q1012=
SCTE 081300Z 22008KT 9999 BKN027 BKN050 07/06 Q1013 NOSIG=
SCBA 081300Z AUTO 26006KT CAVOK M04/M07 Q1003=
SCCI 081300Z 34016KT 9999 FEW025 SCT070 M03/M05 Q0985 NOSIG=
SCNT 081300Z 31024G34KT 9999 SCT020 03/M05 Q0989=
####018000069####
SABZ18 SBGR 081300
METAR SBGR 081300Z 01004KT CAVOK 21/08 Q1023=
####018000267####
SAUY59 SUMU 081300
METAR SUMU 081300Z 29005KT CAVOK 10/07 Q1019 NOSIG=
METAR SUDU 081300Z 24004KT CAVOK 08/04 Q1020=
METAR SUCA 081300Z 32004KT CAVOK 08/03 Q1018=
METAR SULS 081300Z 28010KT CAVOK 10/04 Q1019=
METAR SUAA 081300Z 29006KT CAVOK 06/04 Q1019=
####018000557####
SAMS31 WMKK 081300
METAR 081300Z
METAR WBGG 081300Z 25006KT 9999 FEW015CB SCT020 BKN150 24/22 Q1012 
RETS
     NOSIG=
METAR WBKK 081300Z 11006KT 9999 FEW014 SCT140 BKN270 25/23 Q1010 
NOSIG=
METAR WBSB 081300Z 18008KT 9999 FEW005 FEW016CB BKN140 25/24 Q1010 
NOSIG=
METAR WMKK 081300Z 00000KT 9999 FEW030 BKN280 27/25 Q1009 NOSIG=
METAR WMKP 081300Z 06001KT 9000 FEW025 BKN270 28/25 Q1010 NOSIG=
METAR WSSL 081300Z 21004KT 9999 FEW018 BKN280 28/24 Q1010=
METAR WSSS 081300Z 20003KT 170V240 9999 FEW016 SCT190 28/24 Q1010 
NOSIG=
####018000075####
SAAT31 TAPA 081304
METAR TAPA 081300Z 07012KT 9999  FEW022 30/24 Q1015=

####018001624####
SAZZ40 KAWN 081300 RRM
METAR BIAR 081300Z 35015KT 9999 -RA BKN020 08/06 Q0996=
METAR BIEG 081300Z 36012KT 9999 VV004 09/08 Q0991 RESHRA=
METAR BIKF 081300Z 03019KT 9999 FEW018 SCT035 BKN110 12/06 Q0995=
METAR BIRK 081300Z 36020G30KT 260V170 9999 -SHRA FEW030 SCT050 11/07
      Q0993=
METAR K79J 081256Z AUTO 00000KT 10SM CLR 28/22 A3003 RMK AO2 SLP165
      T02780222 TSNO $=
METAR KNGU 081259Z 07008KT 10SM FEW012 SCT070 BKN100 27/20 A3001 RMK
      AO2 SLP163 T02720200=
METAR KNSE 081256Z 00000KT 9SM FEW250 28/24 A3004 RMK AO2 SLP156 T02780239
      $=
METAR LKKV 081300Z VRB03KT CAVOK 24/10 Q1023=
METAR MHAM 081300Z 00000KT 9999 FEW018 +DZ OVC070 24/24=
METAR MHCA 081300Z 180004KT 9999 SCT028TCU BKN070 22/22 TCU TD=
METAR MHCH 081300Z 00000KT 9999 FEW006 BKN070 24/23 FEW028 REDZ CL
      TD BR=
METAR MHLE 081300Z 00000KT 9999 FEW008 SCT070 BKN200 15/15 Q1022=
METAR MHNO 081300Z 00000KT 9999 FEW035 BKN090 20/// HZ=
METAR MHTE 081300Z 36006KT 9999 BKN024TCU BKN080 23/22 Q1009 TCU TD
      HZ=
METAR MHYR 081300Z 36004KT 9999 SCT020 BKN080 22/22 BR=
METAR ORBI 081300Z 32012KT CAVOK 44/05 Q1003 NOSIG=
METAR ORMM 081300Z 32020KT 8000 SKC 49/M02 Q0997=
METAR PABA 081301Z AUTO 28014KT 10SM BKN042 OVC055 07/04 A3001 RMK
      AO2 SLP162 T00720044=
METAR TFFF 081300Z 08015KT 020V100 9999 FEW020 SCT026 31/24 Q1014 NOSIG=
METAR TFFR 081300Z 11009KT 070V130 9999 SCT026 30/24 Q1015 NOSIG=
METAR TJBQ 081250Z 07007KT 10SM SKC 30/26 A3001=
METAR TKPK 081300Z 08014KT 9999 VCSH SCT016 30/25 Q1016=
METAR TLPC 081300Z 11010KT 9999 FEW026 BKN280 30/25 Q1014=
####018002996####
SAUS20 KNKA 081304
METAR KUXL 081300Z AUTO 06007KT 10SM OVC007 26/25 A3000 RMK AO2=
SPECI KACT 081304Z 06005KT 8SM BKN014 OVC020 26/23 A3001 RMK AO2=
SPECI KAFN 081303Z AUTO 18004KT 6SM BR SCT008 BKN032 OVC065 23/21 
    A3013 RMK AO2=
SPECI KARR 081303Z 30003KT 2 1/2SM -RA BR BKN006 BKN016 OVC027 23/22 
    A3005 RMK AO2 RAB1257 P0000 $=
SPECI KCEC 081303Z AUTO 00000KT 2 1/2SM BR OVC001 10/09 A2998 RMK 
    AO2=
SPECI KDPA 081303Z 26005KT 2 1/2SM -RA BR OVC014 23/22 A3004 RMK AO2 
    RAB03 P0000=
SPECI KDXR 081303Z 00000KT 2SM -RA BR OVC003 24/23 A3009 RMK AO2 
    P0000=
METAR KEDE 081258Z AUTO 00000KT 10SM CLR 27/23 A2998 RMK AO2=
METAR KFFA 081258Z AUTO 06006KT 10SM CLR 27/22 A2997 RMK AO2 
     T02690223=
METAR KGAO 081300Z AUTO 07004KT CLR 28/25 A3002 RMK AO2 PWINO=
METAR KGWW 081300Z AUTO 03004KT 5SM HZ SCT080 27/22 A2997 RMK AO2 
     T02700216=
METAR KHDC 081303Z AUTO 08003KT 10SM CLR 28/27 A3006 RMK AO2=
SPECI KHFD 081303Z 17006KT 6SM HZ BKN017 BKN047 27/23 A3007 RMK AO2=
METAR KHNZ 081300Z AUTO 04004KT 7SM SCT110 29/20 A3001 RMK AO2 
     T02870198=
METAR KIER 081300Z AUTO 10004KT 7SM OVC100 25/25 A3005 RMK AO2 
     PWINO=
METAR KIXA 081300Z AUTO 06005KT 7SM SCT075 27/21 A2999 RMK AO2 
     T02710213=
SPECI KJEF 081303Z 00000KT 4SM BR OVC003 24/23 A3007 RMK AO2 CIG 
    002V007=
METAR KJFZ 081300Z AUTO 00000KT 6SM CLR 23/21 A3018 RMK=
METAR KLDJ 081300Z AUTO 13003KT 4SM BR OVC006 26/24 A3005 RMK AO2 
     T02600237=
METAR KLHZ 081300Z AUTO 02006KT 7SM SCT120 30/19 A3000 RMK AO2 
     T02970194=
METAR KLKU 081300Z AUTO 01007KT 7SM CLR 29/20 A3001 RMK AO2=
METAR KLNP 081258Z AUTO 01004KT 10SM CLR 25/19 A3020 RMK AO1=
METAR KMDQ 081300Z AUTO 00000KT 10SM CLR 27/22 A3009 RMK AO2 
     T02690221=
METAR KMKJ 081300Z AUTO 29003KT 7SM CLR 24/11 A3023 RMK AO1=
METAR KMTV 081300Z AUTO 00000KT 7SM CLR 29/22 A3007 RMK AO2=
METAR KOBE 081301Z AUTO 06006KT 10SM CLR 27/23 A3000 RMK AO2=
METAR KOKV 081300Z AUTO 30007KT 10SM CLR 31/18 A3006 RMK AO2 
     T03090181=
METAR KOMH 081300Z AUTO 33005KT 7SM SCT110 29/22 A3004 RMK AO2 
     T02890216=
METAR KONX 081300Z AUTO 05007KT 030V090 10SM CLR 27/22 A2999 RMK 
     AO2 T02730219=
METAR KOPN 081300Z AUTO 27004KT 10SM CLR 29/24 A3006 RMK AO1=
METAR KPCM 081300Z AUTO 06003KT 10SM CLR 27/22 A3003 RMK AO2=
METAR KPGV 081302Z AUTO 05005KT 4SM HZ SCT013 SCT100 SCT120 27/23 
     A2999 RMK AO2=
METAR KRCZ 081300Z AUTO 35004KT 10SM CLR 28/19 A2998 RMK AO2 
     T02750192=
METAR KRMN 081300Z AUTO 00000KT 5SM BR SCT012 SCT090 27/26 A3005 
     RMK AO2=
METAR KSFQ 081300Z AUTO 07004KT 10SM CLR 27/24 A3001 RMK AO2 LTG 
     DSNT E=
METAR KSHD 081300Z AUTO 00000KT 7SM CLR 27/19 A3009 RMK AO2=
METAR KTBR 081300Z AUTO 29005KT 10SM CLR 27/20 A3001 RMK AO2 
     T02740202=
METAR KTNB 081302Z AUTO 28005KT 7SM CLR 26/17 A3021 RMK AO2=
METAR KVDF 081256Z AUTO 00000KT 10SM CLR 27/23 A3002 RMK AO2=
####018000509####
SAUS20 KNKA 081304
METAR KVDI 081303Z AUTO 28003KT 10SM CLR 28/21 A3003 RMK AO1=
METAR KVVG 081255Z AUTO 36003KT 26/22 A3002 RMK AO2=
METAR KW22 081300Z AUTO 00000KT 7SM CLR 24/19 A3014 RMK AO2=
METAR KW45 081300Z AUTO 00000KT 7SM CLR 28/20 A3006 RMK AO2 
     T02760197=
METAR KWDR 081300Z AUTO 34004KT 10SM CLR 27/21 A3008 RMK AO1=
METAR KXLL 081300Z AUTO 00000KT 7SM CLR 28/23 A3005 RMK AO2 
     T02800230=
METAR KXSA 081300Z AUTO 10006KT 7SM SCT014 29/23 A3001 RMK AO2 
     PWINO=
####018000426####
SAIR31 OIII 081300
METAR OIAW 081300Z 24006KT CAVOK 48/07 Q0997 A2944=
METAR OIFM 081300Z 18008KT CAVOK 40/06 Q1015 A2997=
METAR OIII 081300Z NIL=
METAR OIKB 081300Z NIL=
METAR OIKK 081300Z 04004KT CAVOK 36/M02 Q1015 A2999=
METAR OIMM 081300Z 05014KT CAVOK 38/M00 Q1013 A2993=
METAR OISS 081300Z NIL=
METAR OITT 081300Z 03010KT CAVOK 38/05 Q1013 A2993=
METAR OIZH 081300Z 36008KT CAVOK 37/M04 Q1011 A2988=
####018000826####
SPUS99 KWBC 081305
SPECI
KMWL 081302Z AUTO 12005KT 10SM FEW008 BKN024 BKN031 24/23 A3003
     RMK AO2 $=
PAHC 081302Z AUTO 00000KT 1 1/4SM BR CLR 08/07 A2998 RMK AO2 TSNO
     VIS 1/2V5 $=
KACT 081304Z 06005KT 8SM BKN014 OVC020 26/23 A3001 RMK AO2=
KAFN 081303Z AUTO 18004KT 6SM BR SCT008 BKN032 OVC065 23/21 A3013
     RMK AO2=
KARR 081303Z 30003KT 2 1/2SM -RA BR BKN006 BKN016 OVC027 23/22
     A3005 RMK AO2 RAB1257 P0000 $=
KCEC 081303Z AUTO 00000KT 2 1/2SM BR OVC001 10/09 A2998 RMK
     AO2=
KDPA 081303Z 26005KT 2 1/2SM -RA BR OVC014 23/22 A3004 RMK AO2
     RAB03 P0000=
KDXR 081303Z 00000KT 2SM -RA BR OVC003 24/23 A3009 RMK AO2
     P0000=
KHFD 081303Z 17006KT 6SM HZ BKN017 BKN047 27/23 A3007 RMK AO2=
KJEF 081303Z 00000KT 4SM BR OVC003 24/23 A3007 RMK AO2 CIG
     002V007=
####018002706####
SAUS99 KWBC 081305
METAR
KGTU 081249Z 06006KT 5SM BR BKN005 OVC012 24/22 A3003=
PAVC 081256Z AUTO 05003KT 10SM 06/06 A2991 RMK AO2 PWINO TSNO
     T00550055 SLP130 $=
KUXL 081300Z AUTO 06007KT 10SM OVC007 26/25 A3000 RMK AO2=
KEDE 081258Z AUTO 00000KT 10SM CLR 27/23 A2998 RMK AO2=
KFFA 081258Z AUTO 06006KT 10SM CLR 27/22 A2997 RMK AO2
     T02690223=
KGAO 081300Z AUTO 07004KT CLR 28/25 A3002 RMK AO2 PWINO=
KGWW 081300Z AUTO 03004KT 5SM HZ SCT080 27/22 A2997 RMK AO2
     T02700216=
KHDC 081303Z AUTO 08003KT 10SM CLR 28/27 A3006 RMK AO2=
KHNZ 081300Z AUTO 04004KT 7SM SCT110 29/20 A3001 RMK AO2
     T02870198=
KIER 081300Z AUTO 10004KT 7SM OVC100 25/25 A3005 RMK AO2 PWINO=
KIXA 081300Z AUTO 06005KT 7SM SCT075 27/21 A2999 RMK AO2
     T02710213=
KJFZ 081300Z AUTO 00000KT 6SM CLR 23/21 A3018 RMK=
KLDJ 081300Z AUTO 13003KT 4SM BR OVC006 26/24 A3005 RMK AO2
     T02600237=
KLHZ 081300Z AUTO 02006KT 7SM SCT120 30/19 A3000 RMK AO2
     T02970194=
KLKU 081300Z AUTO 01007KT 7SM CLR 29/20 A3001 RMK AO2=
KLNP 081258Z AUTO 01004KT 10SM CLR 25/19 A3020 RMK AO1=
KMDQ 081300Z AUTO 00000KT 10SM CLR 27/22 A3009 RMK AO2
     T02690221=
KMKJ 081300Z AUTO 29003KT 7SM CLR 24/11 A3023 RMK AO1=
KMTV 081300Z AUTO 00000KT 7SM CLR 29/22 A3007 RMK AO2=
KOBE 081301Z AUTO 06006KT 10SM CLR 27/23 A3000 RMK AO2=
KOKV 081300Z AUTO 30007KT 10SM CLR 31/18 A3006 RMK AO2
     T03090181=
KOMH 081300Z AUTO 33005KT 7SM SCT110 29/22 A3004 RMK AO2
     T02890216=
KONX 081300Z AUTO 05007KT 030V090 10SM CLR 27/22 A2999 RMK AO2
     T02730219=
KOPN 081300Z AUTO 27004KT 10SM CLR 29/24 A3006 RMK AO1=
KPCM 081300Z AUTO 06003KT 10SM CLR 27/22 A3003 RMK AO2=
KPGV 081302Z AUTO 05005KT 4SM HZ SCT013 SCT100 SCT120 27/23 A2999
     RMK AO2=
KRCZ 081300Z AUTO 35004KT 10SM CLR 28/19 A2998 RMK AO2
     T02750192=
KRMN 081300Z AUTO 00000KT 5SM BR SCT012 SCT090 27/26 A3005 RMK
     AO2=
KSFQ 081300Z AUTO 07004KT 10SM CLR 27/24 A3001 RMK AO2 LTG DSNT
     E=
KSHD 081300Z AUTO 00000KT 7SM CLR 27/19 A3009 RMK AO2=
KTBR 081300Z AUTO 29005KT 10SM CLR 27/20 A3001 RMK AO2
     T02740202=
KTNB 081302Z AUTO 28005KT 7SM CLR 26/17 A3021 RMK AO2=
KVDF 081256Z AUTO 00000KT 10SM CLR 27/23 A3002 RMK AO2=
KVDI 081303Z AUTO 28003KT 10SM CLR 28/21 A3003 RMK AO1=
KVVG 081255Z AUTO 36003KT 26/22 A3002 RMK AO2=
KW22 081300Z AUTO 00000KT 7SM CLR 24/19 A3014 RMK AO2=
KW45 081300Z AUTO 00000KT 7SM CLR 28/20 A3006 RMK AO2
     T02760197=
KWDR 081300Z AUTO 34004KT 10SM CLR 27/21 A3008 RMK AO1=
KXLL 081300Z AUTO 00000KT 7SM CLR 28/23 A3005 RMK AO2
     T02800230=
KXSA 081300Z AUTO 10006KT 7SM SCT014 29/23 A3001 RMK AO2 PWINO=
####018000079####
SANC01 NWWW 081300
METAR NWWW 081300Z AUTO VRB02KT 9999NDV NCD 16/15 Q1016=
####018000248####
SAMX41 MMMX 081301
SPECI MMMX 081300Z 18003KT 2 1/2SM -RA HZ SCT008 BKN010 OVC020 15/14 A3020
      NOSIG RMK 60235 8/7// VSBY TWR=
METAR MMOX 081350Z RTD 07002KT 4SM SCT005 SCT015 OVC100 17/15
      A3009 RMK 8/72/ RA INMTE LWR ST/VIS S=
####018000096####
SAFG20 SOCA 081300
METAR SOCA 081300Z 11006KT 070V160 9999 FEW013 SCT020 30/25 Q1013
NOSIG=
####018000092####
SAZA42 FAJS 081300 RRA
METAR FAJS 081300Z 03008KT 350V070 9999 SCT045 17/02 Q1032 NOSIG=
####018000189####
SAVN34 SVSR 081300
METAR
METAR SVSR 081300Z 16003KT 9999 BKN016 24/24 Q1012 REDZ=
METAR SVCL 081300Z NIL=
METAR SVPA 081300Z 00000KT 9999 OVC055 26/24 Q1012=
METAR SVVP 081300Z NIL=
####018000084####
SACO20 SKBO 081258
METAR SKBQ 081300Z 00000KT 5000 BR SCT005 BKN070 26/26 A2991=
####018000074####
SABZ20 SBSL 081300
METAR SBSL 081300Z 06010KT 9999 SCT017 30/24 Q1014=
####018000082####
SPAU32 YBBN 081301
SPECI YBMA 081301Z AUTO 00000KT 8000NDV // NCD 08/07 Q1020=
####018000389####
SAVN27 SVBM 081300
METAR SVBM 081300Z 07004KT 9999 OVC010 24/22 Q////=
METAR SVBI 081300Z 00000KT 9999 FEW015 OVC045 XX/XX Q1013=
METAR SVSP 081300Z 00000KT 7000 +HZ BKN040 XX/XX Q1014=
METAR SVVL 081300Z 00000KT 8000 +HZ OVC040CB 22/20 Q1023=
METAR SVAC 081300Z 00000KT 5000 -DZ BKN017 24/23 Q1014=
METAR SVGU 081300Z 23005KT 9000 OVC020 25/24 Q1011=
METAR SVSO 081300Z NIL= 
 
####018000090####
SAAJ31 UBBB 081300
METAR UBBL 081300Z 14007KT 9999 NSC 33/16 Q1010 NOSIG RMK G/O SC07=
####018000080####
SADN32 EKCH 081250 RRB
METAR EKSB 081301Z 24006KT 200V270 CAVOK 26/12 Q1018=
####018000067####
SAAG SAVC 081300
METAR SAVC 081300Z 27009KT CAVOK 04/M01 Q1001=
####018000082####
SAHU31 LHBM 081300
METAR LHBP 081300Z 27006KT 220V020 CAVOK 25/10 Q1021 NOSIG=
####018000177####
SAVN25 SVCB 081300
METAR SVCB 081300Z 00000KT 9999 OVC015 XX/XX QXXXX=
METAR SVPR 081300Z 00000KT 9999 BKN050 XX/XX Q1013=
METAR SVST 081300Z NIL=
METAR SVSE 081300Z NIL=
####018000030####
SAZW40 FVHA 081300
NIL

####018001851####
SAEU KAWN 081300 RRN
METAR LFBD 081300Z 08009KT 030V130 9999 FEW046 BKN230 35/12 Q1016 NOSIG=
METAR LFBI 081300Z 16004KT 090V230 CAVOK 33/10 Q1017 NOSIG=
METAR LFBL 081300Z 15005KT 090V220 CAVOK 31/12 Q1019 NOSIG=
METAR LFBO 081300Z 11011KT CAVOK 35/11 Q1017 NOSIG=
METAR LFBT 081300Z 05006KT 010V100 CAVOK 35/18 Q1017 NOSIG=
METAR LFBZ 081300Z 29009KT 250V310 CAVOK 26/22 Q1015 NOSIG=
METAR LFCR 081300Z AUTO 14006KT 090V200 9999NDV NSC 33/04 Q1021=
METAR LFJL 081300Z AUTO VRB03KT 9999NDV NSC 31/07 Q1020=
METAR LFLS 081300Z 22008KT 190V270 9999 FEW050 32/13 Q1021 NOSIG=
METAR LFLX 081300Z 23005KT 170V280 CAVOK 32/12 Q1018 NOSIG=
METAR LFLY 081300Z 20007KT 150V270 CAVOK 33/12 Q1019 NOSIG=
METAR LFMI 081300Z AUTO 18008KT 120V220 9999NDV NSC 34/13 Q1019=
METAR LFMK 081300Z AUTO 09016KT 9999NDV NSC 34/13 Q1018=
METAR LFML 081300Z 27006KT CAVOK 33/19 Q1019 NOSIG=
METAR LFMN 081300Z 12005KT 9999 FEW016 29/23 Q1020 NOSIG=
METAR LFMT 081300Z 18008KT CAVOK 30/15 Q1020 NOSIG=
METAR LFMU 081300Z AUTO 15007KT 100V200 9999NDV NSC 30/14 Q1020=
METAR LFOB 081300Z 20005KT 140V310 CAVOK 31/10 Q1018 NOSIG=
METAR LFOH 081300Z AUTO 34012KT 9999NDV NSC 22/15 Q1019=
METAR LFOP 081300Z VRB03KT CAVOK 31/13 Q1018 NOSIG=
METAR LFPB 081300Z VRB04KT CAVOK 32/09 Q1018 NOSIG=
METAR LFPG 081300Z VRB03KT CAVOK 31/10 Q1018 NOSIG=
METAR LFRB 081300Z VRB03KT 9999 FEW030 24/16 Q1019 NOSIG=
METAR LFRN 081300Z AUTO 20005G16KT 140V280 9999NDV NSC 31/11 Q1018=
METAR LFRS 081300Z 26008KT 230V290 CAVOK 33/11 Q1017 NOSIG=
METAR LFRZ 081300Z AUTO 21010KT 9999NDV NSC 31/09 Q1018=
METAR LFSB 081300Z 35004KT 290V080 CAVOK 31/11 Q1020 NOSIG=
METAR LFSN 081300Z VRB04KT CAVOK 31/13 Q1019 NOSIG=
METAR LFST 081300Z VRB03KT CAVOK 31/11 Q1020 NOSIG=
METAR LFTH 081300Z 22007KT 160V250 9999 FEW026 28/22 Q1020 NOSIG=
####018000070####
SAAG SAME 081300
METAR SAME 081300Z 00000KT 9999 NSC 04/M03 Q1015=
####018000447####
SAMC31 GMMC 081300
METAR GMAD 081300Z 24009KT 190V270 9999 FEW020 28/18 Q1014 NOSIG=
METAR GMFF 081300Z 28008KT 8000 SCT033 BKN100 33/20 Q1018 NOSIG=
METAR GMME 081300Z 35006KT 310V020 6000 SCT010 BKN016 26/19 Q1016
NOSIG=
METAR GMMN 081300Z 35010KT 320V060 9999 SCT016 BKN023 28/19 Q1017
NOSIG=
METAR GMMX 081300Z 30008KT 250V340 8000 FEW026 37/16 Q1016 NOSIG=
METAR GMTT 081300Z 27008KT 240V300 8000  FEW016 SCT100 27/20 Q1016
NOSIG=
####018000683####
SACO20 SKBO 081258
METAR SKBO 081300Z 04004KT 9000 FEW015 BKN070 13/11 A3034 RMK HZ 
NOSIG=
METAR SKBQ 081300Z 00000KT 5000 BR SCT005 BKN070 26/26 A2991=
METAR SKCL 081300Z VRB02KT 9999 FEW017 BKN090 22/20 A3003=
METAR SKCG 081300Z 09004KT 9999 FEW015CB SCT200 28/25 A2988 RMK
           CB/N/S=
METAR SKCC 081300Z 00000KT 9999 SCT018 SCT090 25/22 A2999=
METAR SKLT 081300Z 00000KT 9999 FEW015 BKN070 27/25 A2991 RMK APCLO=
METAR SKRG 081300Z VRB02KT 4000 BR BKN004 SCT080 15/14 A3032=
METAR SKSP 081300Z 10007KT 9999 SCT015TCU 29/26 A2987 REDZ=
METAR SKBG 081300Z 00000KT 9999 2000S BCFG SCST012 20/19 A3005=
METAR SKPE 081300Z 00000KT 9999 FEW018 SCT090 20/17 A3012=
####018000088####
SAMF20 TFFR 081300
METAR TFFR 081300Z 11009KT 070V130 9999 SCT026 30/24 Q1015 NOSIG=
####018000096####
SASR31 WSSS 081300
METAR WSSS 081300Z 20003KT 170V240 9999 FEW016 SCT190 28/24 Q1010
NOSIG=
####018000479####
SAHU41 LHBM 081300
METAR LHDC 081245Z 01009KT 9999 FEW046 23/10 Q1021 NOSIG=
METAR LHKE 081245Z 27002MPS CAVOK 24/12 Q1020 NOSIG RMK BLU=
METAR LHPA 081245Z 35004MPS CAVOK 24/09 Q1023 NOSIG RMK BLU=
METAR LHPP 081245Z 28006KT CAVOK 24/09 Q1022 NOSIG=
METAR LHPR 081245Z 32009KT CAVOK 25/10 Q1022=
METAR LHSM 081245Z 32008KT CAVOK 25/10 Q1022 NOSIG=
METAR LHSN 081245Z 30002MPS CAVOK 24/11 Q1021 NOSIG RMK BLU=
METAR LHUD 081245Z 30005KT 9999 SCT040 SCT046 25/12 Q1021=
####018000106####
SAVN31 SVVA 081300
METAR
METAR SVVA 081300Z 14003KT 9999 BKN016 25/23 Q1014=
METAR SVPC 081300Z NIL=
####018000835####
SACH10 SCSC 081300
METAR
SCAR 081300Z VRB01KT 9999 OVC021 15/09 Q1016=
SCDA 081300Z 03008KT 9999 OVC026 15/09 Q1017=
SCFA 081300Z 06005KT 9999 BKN022 13/07 Q1017 NOSIG=
SCCF 081300Z 10025KT CAVOK 06/M12 Q1025=
SCAT 081300Z 01006KT 2500 BR OVC002 09/08 Q1018=
SCIP 081300Z 11002KT 9999 SCT020 18/17 Q1022 TEMPO 5000 -SHRA=
SCSE 081300Z 13005KT 090V150 CAVOK 08/05 Q1018 NEFO PLAYA SKC=
SCEL 081300Z 25004KT 230V310 4000 BR SCT130 02/01 Q1023 NOSIG=
SCIE 081300Z 28010KT 9999 BKN012 13/11 Q1020=
SCTC 081300Z 28008KT 9999 FEW009 BKN015 10/09 Q1016=
SCJO 081300Z 30004KT 9999 SCT020 BKN040 08/07 Q1012=
SCTE 081300Z 22008KT 9999 BKN027 BKN050 07/06 Q1013 NOSIG=
SCBA 081300Z AUTO 26006KT CAVOK M04/M07 Q1003=
SCCI 081300Z 34016KT 9999 FEW025 SCT070 M03/M05 Q0985 NOSIG=
SCNT 081300Z 31024G34KT 9999 SCT020 03/M05 Q0989=
####018000102####
SAUK35 EGGY 081250 CCA
METAR COR EGLF 081250Z 28006KT 220V330 9999 SCT032 BKN038 23/15
    Q1018=
####018000084####
SASW32 LSSW 081250 RRA
METAR LSZG 081250Z VRB02KT 9999 FEW050 30/12 Q1021 NOSIG=
####018000402####
SAIR33 OIII 081300
METAR OIBB 081300Z 26010KT CAVOK 35/28 Q0999 A2950=
METAR OIBL 081300Z NIL=
METAR OIBP 081300Z 21010KT 5000 HZ SKC 39/23 Q0998 A2949=
METAR OICK 081300Z NIL=
METAR OICS 081300Z 19014KT CAVOK 41/M03 Q1011 A2986=
METAR OIHH 081300Z NIL=
METAR OINZ 081300Z 28008KT CAVOK 33/23 Q1010 A2983=
METAR OITL 081300Z 07022KT CAVOK 24/12 Q1017 A3004=
METAR OIZC 081300Z NIL=
####018000097####
SAAJ31 UBBB 081300
METAR UBBY 081300Z 14005KT 9999 NSC 34/15 Q1014 NOSIG
RMK R33/CLRD70 G/O=
####018000066####
SAAG SAEZ 081300
METAR SAEZ 081300Z 32004KT CAVOK 09/01 Q1019=
####018001839####
SAEW KAWN 081300 RRD
METAR EKSB 081301Z 24006KT 200V270 CAVOK 26/12 Q1018=
METAR LFBD 081300Z 08009KT 030V130 9999 FEW046 BKN230 35/12 Q1016 NOSIG=
METAR LFBI 081300Z 16004KT 090V230 CAVOK 33/10 Q1017 NOSIG=
METAR LFBL 081300Z 15005KT 090V220 CAVOK 31/12 Q1019 NOSIG=
METAR LFBO 081300Z 11011KT CAVOK 35/11 Q1017 NOSIG=
METAR LFBZ 081300Z 29009KT 250V310 CAVOK 26/22 Q1015 NOSIG=
METAR LFCR 081300Z AUTO 14006KT 090V200 9999NDV NSC 33/04 Q1021=
METAR LFJL 081300Z AUTO VRB03KT 9999NDV NSC 31/07 Q1020=
METAR LFLS 081300Z 22008KT 190V270 9999 FEW050 32/13 Q1021 NOSIG=
METAR LFLY 081300Z 20007KT 150V270 CAVOK 33/12 Q1019 NOSIG=
METAR LFMK 081300Z AUTO 09016KT 9999NDV NSC 34/13 Q1018=
METAR LFML 081300Z 27006KT CAVOK 33/19 Q1019 NOSIG=
METAR LFMN 081300Z 12005KT 9999 FEW016 29/23 Q1020 NOSIG=
METAR LFMT 081300Z 18008KT CAVOK 30/15 Q1020 NOSIG=
METAR LFMU 081300Z AUTO 15007KT 100V200 9999NDV NSC 30/14 Q1020=
METAR LFOB 081300Z 20005KT 140V310 CAVOK 31/10 Q1018 NOSIG=
METAR LFOH 081300Z AUTO 34012KT 9999NDV NSC 22/15 Q1019=
METAR LFOP 081300Z VRB03KT CAVOK 31/13 Q1018 NOSIG=
METAR LFPB 081300Z VRB04KT CAVOK 32/09 Q1018 NOSIG=
METAR LFPG 081300Z VRB03KT CAVOK 31/10 Q1018 NOSIG=
METAR LFPO 081300Z 27007KT 240V310 CAVOK 32/09 Q1018 NOSIG=
METAR LFQQ 081300Z 20009KT 150V260 CAVOK 31/12 Q1018 NOSIG=
METAR LFRB 081300Z VRB03KT 9999 FEW030 24/16 Q1019 NOSIG=
METAR LFRN 081300Z AUTO 20005G16KT 140V280 9999NDV NSC 31/11 Q1018=
METAR LFRS 081300Z 26008KT 230V290 CAVOK 33/11 Q1017 NOSIG=
METAR LFRZ 081300Z AUTO 21010KT 9999NDV NSC 31/09 Q1018=
METAR LFSB 081300Z 35004KT 290V080 CAVOK 31/11 Q1020 NOSIG=
METAR LFSD 081300Z AUTO 18006KT 120V230 9999NDV NSC 32/10 Q1020=
METAR LFSN 081300Z VRB04KT CAVOK 31/13 Q1019 NOSIG=
METAR LFST 081300Z VRB03KT CAVOK 31/11 Q1020 NOSIG=
####018001769####
SAEU KAWN 081300 RRM
METAR LEAB 081300Z 15016KT CAVOK 35/03 Q1021 NOSIG=
METAR LEAL 081300Z 08011KT 050V110 CAVOK 31/17 Q1019 NOSIG=
METAR LEAM 081300Z 08016KT 9999 FEW050 39/04 Q1015=
METAR LEBA 081300Z 27007KT 220V300 9999 FEW045 34/14 Q1015=
METAR LEBL 081300Z 20014KT CAVOK 28/21 Q1019 NOSIG=
METAR LEBZ 081300Z 31007KT CAVOK 35/13 Q1014=
METAR LECO 081300Z 01007KT CAVOK 22/19 Q1015=
METAR LEGE 081300Z 19007KT 150V240 CAVOK 33/18 Q1019=
METAR LEGR 081300Z 17015KT 140V200 9999 FEW060 39/06 Q1017=
METAR LEIB 081300Z 08007KT 030V120 CAVOK 29/20 Q1020 NOSIG=
METAR LELC 081300Z 06011KT 030V100 CAVOK 28/20 Q1018 NOSIG=
METAR LELN 081300Z 20012KT 160V240 9999 FEW055TCU 32/09 Q1019=
METAR LEMD 081300Z 15010KT 110V170 9999 FEW060TCU 32/12 Q1018 WS R18L
      WS R18R NOSIG=
METAR LEMG 081300Z 11006KT 070V150 9999 FEW040 30/14 Q1017 NOSIG=
METAR LEPP 081300Z 18010KT 140V230 CAVOK 37/14 Q1018=
METAR LERS 081300Z 20008KT 150V240 CAVOK 29/14 Q1020=
METAR LESA 081300Z VRB02KT 9999 FEW048 35/15 Q1018=
METAR LESO 081300Z 35003KT 310V070 CAVOK 28/21 Q1015=
METAR LEST 081300Z 08006KT 050V120 9999 FEW025 29/18 Q1015 NOSIG=
METAR LETO 081300Z 09006KT 020V150 9999 FEW070 31/12 Q1018 NOSIG=
METAR LEVC 081300Z 10010KT 050V140 CAVOK 32/17 Q1018 NOSIG=
METAR LEVD 081300Z 18005KT CAVOK 34/08 Q1018=
METAR LEVS 081300Z 13010KT 080V170 CAVOK 32/11 Q1018=
METAR LEVT 081300Z 11005KT 070V160 9999 SCT050 33/17 Q1017=
METAR LEVX 081300Z VRB03KT 8000 FEW030 24/19 Q1015=
METAR LEXJ 081300Z 28008KT 240V310 9999 SCT018 25/19 Q1016=
METAR LEZL 081300Z 23007KT 180V280 9999 FEW025 33/14 Q1015 NOSIG=
METAR LFPO 081300Z 27007KT 240V310 CAVOK 32/09 Q1018 NOSIG=
METAR LFQQ 081300Z 20009KT 150V260 CAVOK 31/12 Q1018 NOSIG=
####018000600####
SANM40 FYWW 081300
METAR FYKB 081300Z AUTO 01009G57KT //// // ////// 24/01 Q1022=
METAR FYKT 081300Z AUTO 03015KT //// // ////// 25/00 Q1024=
METAR FYKX 081300Z AUTO 13009G23KT //// // ////// ///// Q1022=
METAR FYML 081300Z AUTO 08010KT //// // ////// 19/M04 Q1025=
METAR FYOT 081300Z AUTO 05008G18KT //// // ////// 24/03 Q////=
METAR FYRU 081300Z 09008KT CAVOK 25/03 Q1022=
METAR FYWB 081300Z 04016KT CAVOK 34/08 Q1016=
METAR FYWB 081300Z 04016KT CAVOK 34/08 Q1016=
METAR FYWH 081300Z AUTO 02010KT //// // ////// 21/M01 Q1026=
METAR FYWW 081300Z 03007KT CAVOK 21/M00 Q1025=

####018000798####
SAZA31 FAPR 081300
METAR FABL 081300Z 36008KT 320V040 9999 FEW050 18/04 Q1030 NOSIG=
METAR FACT 081300Z VRB02KT CAVOK 23/00 Q1017 NOSIG=
METAR FAEL 081300Z 06012KT 9999 FEW050 21/13 Q1023=
METAR FAGG 081300Z 16005KT CAVOK 19/10 Q1019=
METAR FAJS 081300Z 03008KT 350V070 9999 SCT045 17/02 Q1032 NOSIG=
METAR FAKN 081300Z 06004KT 9999 SCT030 FEW030TCU 19/09 Q1031 NOSIG=
METAR FALA 081300Z 03008KT 350V090 9999 FEW049 18/04 Q1031 NOSIG=
METAR FALE 081300Z 06015KT CAVOK 22/16 Q1026 NOSIG=
METAR FAMM 081300Z 04008KT 9999 FEW040 20/03 Q1029 NOSIG=
METAR FAPE 081300Z 06012KT CAVOK 18/12 Q1021 NOSIG=
METAR FAPN 081300Z AUTO 10005KT //// // ////// 21/04 Q1029=
METAR FAPP 081300Z 06008KT 9999 BKN035 17/06 Q1030 NOSIG=
METAR FAUP 081300Z 35015KT CAVOK 24/02 Q1025 NOSIG=

####018000187####
SABC40 FBSK 081300
METAR FBFT 081300Z 11010KT 9999 BKN020 20/10 Q1029 =
METAR FBMN 081300Z 07013KT CAVOK 25/05 Q1025=
METAR FBSK 081300Z 07012KT 9999 BKN020 21/07 Q1028 NOSIG=

####018000260####
SAUY SUMU 081300
METAR SUMU 081300Z 29005KT CAVOK 10/07 Q1019 NOSIG=
METAR SUDU 081300Z 24004KT CAVOK 08/04 Q1020=
METAR SUCA 081300Z 32004KT CAVOK 08/03 Q1018=
METAR SULS 081300Z 28010KT CAVOK 10/04 Q1019=
METAR SUAA 081300Z 29006KT CAVOK 06/04 Q1019=
####018000082####
SAVG31 TVSV 081300
METAR
TVSV 081300Z 11016KT 9999 BKN022 BKN280 30/25 Q1014=
####018000072####
SANO36 ENMI 081250 RRB
METAR ENHK 081250Z 13009KT CAVOK 18/09 Q1011=
####018000235####
SACZ31 LKPW 081300
METAR LKKV 081300Z VRB03KT CAVOK 24/10 Q1023=
METAR LKMT 081300Z 03004KT 320V090 CAVOK 23/11 Q1023 NOSIG=
METAR LKPR 081300Z VRB03KT CAVOK 24/12 Q1023 NOSIG=
METAR LKTB 081300Z VRB01KT CAVOK 25/08 Q1022 NOSIG=
####018000561####
SAMC32 GMMC 081300
METAR GMFF 081300Z 28008KT 8000 SCT033 BKN100 33/20 Q1018 NOSIG=
METAR GMFK 081300Z 16002KT CAVOK 37/07 Q1024=
METAR GMFM 081300Z 34005KT 6000 FEW026 31/20 Q1018=
METAR GMFO 081300Z 21007KT 140V280 CAVOK 44/09 Q1017 NOSIG=
METAR GMMH 081300Z 01020KT 8000 BKN080 23/17 Q1014=
METAR GMML 081300Z 03017KT 8000 SCT020 28/17 Q1016=
METAR GMMW 081300Z 06015KT CAVOK 30/20 Q1016=
METAR GMMZ 081300Z 12010KT 9999 FEW040 FEW050TCU 38/00 Q1024=
METAR GMTA 081300Z 36010KT CAVOK 24/20 Q1016=
METAR GMMC 081300Z NIL=
METAR GMTN 081300Z NIL=
####018000902####
SAUR30 UKMS 081300
METAR UKBB 081300Z 30003MPS 260V330 9999 BKN040 26/17
         Q1014 88CLRD95    NOSIG=
METAR UKHH 081300Z 19002MPS 120V270 9999 SCT040
         BKN200  30/14 Q1014 080///65 NOSIG=
METAR UKOO 081300Z 33005MPS 300V360 CAVOK 27/14 Q1014
          34090070 NOSIG=
METAR UKDE 081300Z 24002MPS 160V300 9999 SCT050 30/17
          Q1014 20CLRD70 NOSIG=
METAR UKDD 081300Z VRB02MPS 9999 SCT033CB BKN200
         29/19  Q1014 08090070 TEMPO VRB10G15MPS -TSRA
         SQ BKN020CB=
METAR UKFF 081300Z 03003MPS 340V060 CAVOK 29/17 Q1012
          01010070 NOSIG=
METAR UKLL 081300Z 32004MPS 260V030 9999 SCT035
         BKN100  21/12 Q1021 31210365 NOSIG=
METAR UKCC 081300Z 08003MPS 010V150 CAVOK 29/16 Q1014
          08090070 NOSIG=
METAR UKDR 081300Z 00000MPS 9999 VCTS SCT033CB BKN200
          28/17 Q1013 1809//70 TEMPO 26006G14MPS
         3100 -TSRAGR BKN015CB=
####018000098####
SAAJ31 UBBB 081300
METAR UBBG 081300Z 08014KT 9999 SCT083 36/16 Q1009 NOSIG RMK
R12L/CLRD70 =
####018000082####
SAJM31 MKJS 081300
METAR MKJS 081300Z  13001KT 9999 FEW024 BKN220 29/23 Q1013=
####018000893####
SAAG01 SABM 081300
METAR SAAR 081300Z  00000KT 9000  NSC  07/04 Q1018=
METAR SABE 081300Z NIL=
METAR SACO 081300Z NIL=
METAR SADD 081300Z NIL=
METAR SADF 081300Z  29002KT CAVOK 09/04 Q1019=
METAR SAEZ 081300Z 32004KT CAVOK 09/01 Q1019=
METAR SAME 081300Z 00000KT 9999 NSC 04/M03 Q1015=
METAR SANT 081300Z  18004KT 8000  11/06 Q1018=
METAR SARE 081300Z NIL=
METAR SARF 081300Z  16014KT 9999  OVC008  15/12
Q1018=
METAR SARI 081300Z  20006KT 2000 BR BKN002 SCT100
17/17 Q1020=
METAR SARP 081300Z NIL=
METAR SASA 081300Z 00000KT CAVOK 11/06 Q1021=
METAR SASJ 081300Z  00000KT CAVOK 15/09 Q1018=
METAR SAVC 081300Z 27009KT CAVOK 04/M01 Q1001=
METAR SAWE 081300Z NIL=
METAR SAWG 081300Z NIL=
METAR SAWH 081300Z NIL=
METAR SAZM 081300Z  32013KT CAVOK 08/02 Q1014=
METAR SAZN 081300Z 23004KT 9999 -RA BKN035 SCT060 10/04 Q1010=
METAR SAZS 081300Z NIL=
####018000478####
SAIR32 OIII 081300
METAR OIAA 081300Z 30006KT 8000 SKC 49/02 Q0997=
METAR OIBK 081300Z 20008KT 5000 HZ SKC 37/24 Q0999 A2951=
METAR OICC 081300Z 20008KT CAVOK 42/M03 Q1012 A2991
864.4=
METAR OIGG 081300Z 05004KT CAVOK 31/21 Q1010 A2983=
METAR OIIE 081300Z 12014KT CAVOK 42/M06 Q1009 A2980 
896.5 05:=
METAR OITR 081300Z 10006KT CAVOK 35/10 Q1012 A2989=
METAR OIYY 081300Z 04006KT CAVOK 41/M09 Q1012 A2990=
METAR OAKN 081300Z NIL=
METAR OAKB 081300Z NIL=
####018000805####
SAJP51 RJTD 081300
METAR RJAA 081300Z 15004KT 9999 FEW020 SCT150 BKN/// 22/21 Q1011
           NOSIG=
METAR RJBB 081300Z 23008KT 9999 FEW050 BKN/// 26/23 Q1009 NOSIG=
METAR RJCC 081300Z 19004KT 160V240 1100 R19R/1600VP1800N
           R01R/0900V1400D -DZ BR BKN002 17/17 Q1010=
METAR RJFS 081300Z VRB02KT 9999 FEW030 BKN/// 25/22 Q1008=
METAR RJFF 081300Z 25002KT 8000 FEW020 BKN/// 25/21 Q1009=
METAR RJFR 081300Z 08005KT 9000 SCT025 BKN/// 26/22 Q1009=
METAR RJGG 081300Z 12005KT 9999 FEW010 BKN/// 25/23 Q1010 NOSIG=
METAR RJOH 081300Z 07005KT 6000 FEW015 SCT025 BKN100 25/22 Q1010=
METAR RJTT 081300Z 18014KT 9999 FEW007 SCT010 BKN150 25/23 Q1011=
METAR ROAH 081300Z 18016KT 9999 FEW010 SCT100 BKN150 29/27 Q1010=
METAR RJAH 081300Z 00000KT 9999 FEW030 SCT/// 23/22 Q1010=
####018000096####
SPUS52 KWBC 081305
SPECI
KCOT 081302Z AUTO 02007KT 10SM BKN019 BKN026 OVC060 26/23 A2990=
####018000104####
SPUS53 KWBC 081305
SPECI
KHTL 081302Z AUTO 24004KT 6SM -RA BR FEW010 SCT022 OVC065 22/21
A3005=
####018000336####
SAEW37 LEMM 081300
METAR LEBR 081300Z AUTO 10011KT CAVOK 38/15 Q1017=
METAR LEGA 081300Z NIL=
METAR LEGT 081300Z 14009KT CAVOK 30/14 Q1019=
METAR LEMO 081300Z 26005KT 190V300 CAVOK 32/18
Q1016 NOSIG=
METAR LERI 081300Z 07012KT 020V120 CAVOK 34/21 Q1018 NOSIG=
METAR LERT 081300Z 29007KT 230V340 CAVOK 26/20 Q1016 NOSIG=
####018000079####
SPUS53 KWBC 081305
SPECI
KMHK 081302Z 02008KT 5SM BR OVC008 22/20 A3012=
####018000086####
SPUS54 KWBC 081305
SPECI
KSMX 081303Z 30004KT 3SM BR BKN002 OVC005 12/11 A2994=
