####018003683####
SAUS90 KWBC 081200
METAR KCZZ 081152Z AUTO 00000KT 08/07 A2988 RMK AO2 SLP093
     T00780072 10128 20072 55001 PWINO TSNO=
METAR KN60 081152Z AUTO 00000KT 12/11 A3012 RMK AO1 SLP199 70002
     T01220106 10156 20106 53007=
METAR K9V9 081152Z AUTO 27003KT 15/13 A3020 RMK AO2 SLP218 70004
     T01500128 10183 20139 53003 PWINO TSNO=
METAR KP69 081152Z AUTO 00000KT 11/10 A3013 RMK AO2 SLP185
     T01110100 10150 20111 52009 PWINO TSNO $=
METAR KRTN 081153Z AUTO 34009KT 10SM SCT060 SCT075 13/10 A3037 RMK
     AO2 SLP220 70121 T01330100 10150 20133 53005 TSNO=
METAR KCQC 081153Z AUTO 08008KT 10SM CLR 11/09 A3037 RMK AO2
     SLP224 70321 T01110089 10122 20106 53005 TSNO=
METAR K6R6 081153Z AUTO 06004KT 23/21 A3002 RMK AO2 SLP130
     T02280211 10233 20222 53008 PWINO TSNO=
METAR KBNO 081153Z AUTO 26007KT 10SM CLR 08/00 A3013 RMK AO2
     SLP170 T00830000 10150 20072 53003 TSNO=
METAR KLND 081153Z AUTO 00000KT 10SM CLR 09/03 A3034 RMK AO2
     SLP229 T00940033 10139 20072 53005=
METAR KFAR 081153Z 21004KT 10SM CLR 16/13 A3008 RMK AO2 SLP185
     T01610128 10172 20133 53006=
METAR KUIL 081153Z AUTO 09006KT 10SM CLR 16/10 A2994 RMK AO2
     SLP138 T01560100 10200 20139 53004 TSNO=
METAR KCHA 081153Z 00000KT 10SM CLR 23/19 A3008 RMK AO2 SLP176
     T02330194 10250 20217 51009=
METAR KCTY 081153Z AUTO 00000KT 22/21 A3002 RMK AO2 SLP163
     T02170211 10228 20194 53007 PWINO TSNO $=
METAR KLAX 081153Z 29003KT 9SM OVC012 16/13 A2990 RMK AO2 SLP124
     T01610128 10167 20161 55003=
METAR KP92 081153Z AUTO 00000KT 26/25 A2999 RMK AO2 SLP154
     T02560250 10256 20256 53004 PWINO TSNO=
METAR KDNK 081153Z AUTO 08003KT 5SM BR CLR 24/22 A3003 RMK AO2
     SLP165 70009 T02390222 10244 20233 53009=
METAR KTLH 081153Z 00000KT 10SM BCFG FEW010 23/22 A3003 RMK AO2
     SLP168 T02330217 10239 20217 53008=
METAR KTCS 081153Z AUTO 36005KT 10SM BKN110 18/14 A3019 RMK AO2
     SLP154 60000 70042 T01830139 10200 20183 56002 TSNO=
METAR KMWT 081153Z AUTO 00000KT 10SM FEW016 SCT022 BKN027 23/23
     A3006 RMK AO2 SLP167 70028 T02330228 10239 20228 52008
     TSNO=
METAR KGNT 081153Z AUTO 15011KT 16/09 A3032 RMK AO2 SLP171 70002
     T01560089 10189 20156 53009 PWINO TSNO=
METAR KSGR 081153Z 08004KT 9SM FEW008 BKN025 OVC070 26/24 A2993
     RMK AO2 RAB37E47 SLP142 P0000 60000 70034 T02610239 10261
     20256 53008=
METAR KRQE 081153Z AUTO 00000KT 10SM CLR 16/07 A3028 RMK AO2
     SLP123 T01610067 10206 20150 51009 TSNO=
METAR KSAV 081153Z 27005KT 10SM CLR 23/20 A3000 RMK AO2 SLP159
     T02280200 10228 20211 53005 $=
METAR KOQT 081153Z AUTO 00000KT 5SM HZ CLR 23/20 A3010 RMK AO2
     SLP175 T02280200 10239 20217 53007 TSNO=
METAR KLXV 081153Z AUTO 00000KT 1/2SM FG OVC002 05/05 A3052 RMK
     AO2 SLP215 70011 T00500050 10072 20050 56008 TSNO=
METAR PGUM 081154Z 11010G16KT 10SM FEW025 SCT045 27/24 A2992 RMK
     AO2 RAB21E30 SLP124 60001 70001 8842577 T02720239 10306 20261
     53014=
METAR KSDM 081153Z AUTO 00000KT 10SM OVC010 16/13 A2990 RMK AO2
     SLP121 T01610133 10167 20156 55000 TSNO=
METAR KJAN 081154Z 00000KT 8SM CLR 23/22 A3007 RMK AO2 SLP177
     70043 T02330222 10244 20228 53011 $=
METAR KELY 081153Z AUTO 19003KT 10SM CLR 07/M04 A3023 RMK AO2
     SLP144 70078 T00671039 10183 20067 53008 $=
METAR KBTV 081154Z 00000KT 7SM CLR 27/21 A3003 RMK AO2 SLP166
     T02670211 10267 20228 53006=
METAR KCUT 081153Z AUTO 32003KT 10SM CLR 06/06 A3035 RMK AO2
     SLP247 T00610056 10089 20061 52002 TSNO=
METAR KHTL 081153Z AUTO 21005KT 9SM OVC065 23/21 A3004 RMK AO2
     SLP165 60013 70091 T02280211 10239 20211 53002=
####018001309####
SAUS90 KWBC 081200 RRA
METAR KMSN 081153Z VRB03KT 8SM BKN006 OVC010 22/21 A3003 RMK AO2
     SLP162 60000 70057 T02170206 10222 20211 51006=
METAR KP68 081153Z AUTO 22006KT 07/M03 A3016 RMK AO2 SLP143
     T00671028 10167 20061 53007 PWINO TSNO=
METAR KCOU 081154Z 00000KT 6SM BR FEW002 BKN011 OVC016 23/22 A3006
     RMK AO2 SLP171 VIS N 2 60004 70071 T02280222 10228 20222
     53007=
METAR KSBN 081154Z 36003KT 6SM HZ BKN100 24/21 A3005 RMK AO2
     SLP167 T02440211 10250 20222 55001=
METAR KDMH 081154Z AUTO 28/23 A3002 RMK AO2 SLP164 T02830228 10300
     20267 51006 PWINO TSNO=
METAR KAPN 081154Z AUTO 23003KT 10SM OVC095 23/21 A2998 RMK AO2
     SLP150 60001 70001 T02280211 10228 20183 50000=
METAR K40J 081153Z AUTO 00000KT 22/21 A3001 RMK AO2 SLP162
     T02170211 10228 20194 53006 PWINO TSNO=
METAR K1V4 081154Z AUTO 23/20 A3006 RMK AO2 SLP164 T02280200 10228
     20200 51003 PWINO TSNO=
METAR KMQE 081154Z AUTO 15005KT 23/19 A3011 RMK AO1 SLP200
     T02330189 10233 20206 51011=
METAR KBKB 081154Z AUTO 00000KT 8SM CLR 24/23 A3001 RMK AO2 SLP188
     70003 T02440233 10250 20239 51009=
METAR PATC 081155Z AUTO 01010KT 10SM CLR 07/06 A3014 RMK AO1
     T00720062=
METAR PAEH 081155Z AUTO 14004KT 10SM CLR 08/M29 A2998 RMK AO1
     T00831288=
####018000420####
SANO37 ENMI 081150
METAR ENNO 081150Z NIL=
METAR ENOV 081150Z 26007KT 210V330 9999 VCSH FEW040CB SCT052 SCT085
           18/07 Q1010 =
METAR ENSD 081150Z NIL=
METAR ENSG 081150Z 24008G18KT 170V290 9999 SCT055 18/07 Q1012=
METAR ENSN 081150Z 18010KT 120V210 8000 BKN007 OVC009 17/14 Q1016=
METAR ENSR 081150Z 32008KT 9999 FEW050 SCT070 19/10 Q1011=
METAR ENSS 081150Z 14006KT 9999 BKN025 10/08 Q1018 =
####018000524####
SANO33 ENMI 081150
METAR ENAT 081150Z 18006KT 140V230 9999 FEW045 BKN070 22/09 Q1012 =
METAR ENBL 081150Z 20011KT 9999 -SHRA SCT035TCU 15/08 Q1011=
METAR ENEV 081150Z 10009KT 9999 FEW050 BKN080 21/07 Q1010 =
METAR ENFL 081150Z 20014KT 150V250 9999 FEW015 SCT040 16/11 Q1011=
METAR ENKB 081150Z VRB02KT 9999 FEW055 BKN087 22/06 Q1009=
METAR ENKR 081150Z 18007KT 9999 BKN020 15/10 Q1018 =
METAR ENML 081150Z 26006KT 9999 VCSH SCT060 20/06 Q1009=
METAR ENNA 081150Z 14011KT 9999 FEW045CB SCT070 22/10 Q1013 =
####018000306####
SANO38 ENMI 081150
METAR ENDR 081150Z NIL=
METAR ENEK 081150Z 24011KT CAVOK 16/12 Q1015 W15/S3=
METAR ENGC 081150Z 19025KT CAVOK 13/11 Q1009=
METAR ENHE 081150Z 20019KT 9999 BKN040 14/11 Q1009=
METAR ENOA 081150Z 19023KT 9999 FEW045 13/11 Q1010=
METAR ENSL 081150Z 22022KT CAVOK 14/10 Q1012=
####018000647####
SANO32 ENMI 081150
METAR ENAL 081150Z 26006KT 220V300 9999 SHRA FEW030TCU BKN055 15/11
           Q1010=
METAR ENCN 081150Z 17005KT 9000 BKN035 17/16 Q1016=
METAR ENHD 081150Z 20012KT 9999 FEW020 SCT210 16/12 Q1014=
METAR ENRO 081150Z AUTO 19003KT 120V250 9999NDV BKN068/// BKN100///
           OVC200/// 17/06 Q1011=
METAR ENRY 081150Z 18012KT 9000 -SHRA SCT007 BKN010 17/15 Q1016 TEMPO
           BKN007=
METAR ENSB 081150Z 27012KT 9999 FEW015 SCT025 BKN035 09/05 Q1009
           NOSIG =
METAR ENTC 081150Z 33003KT 260V040 9999 FEW065 SCT082 19/07 Q1011=
METAR ENTO 081150Z 18012KT 9999 -DZ SCT005 BKN007 16/15 Q1016=
####018000355####
SANO34 ENMI 081150
METAR ENBN 081150Z 34011KT 9999 FEW050 SCT070 16/10 Q1010=
METAR ENBV 081150Z NIL=
METAR ENDI 081150Z NIL=
METAR ENFG 081150Z NIL=
METAR ENHF 081150Z 20008KT CAVOK 19/09 Q1012 =
METAR ENRA 081150Z 32010KT 9999 TS SCT050CB 20/09 Q1009=
METAR ENSH 081150Z 07005KT 340V120 9999 VCSH FEW030 BKN060 15/10
           Q1010=
####018000145####
SAUS43 KAPX 081155
MTRHTL
METAR KHTL 081153Z AUTO 21005KT 9SM OVC065 23/21 A3004 RMK AO2 
SLP165 60013 70091 T02280211 10239 20211 53002
####018000154####
SAGC31 MWCR 081200
METAR MWCR 081200Z 12006KT 9999 FEW018 BKN250 28/25 Q1013 NOSIG=

METAR MWCB 081200Z 15006KT 9999 FEW016CB BKN200 29/25 Q1013=
####018000095####
SPUS17 KAWN 081155 RRH
SPECI KBKF 081149Z 12003KT 6SM BR FEW020 FEW120 SCT220 13/13 A3032=
####018000424####
SPNA14 KAWN 081155 RRI
SPECI KRND 081147Z 04005KT 9SM BKN009 BKN014 25/24 A2994 RMK AO2A DZB1118E1134
      BKN014 V OVC SLP129=
SPECI KRND 081151Z 05006KT 9SM BKN007 OVC013 25/24 A2994 RMK AO2A DZB1118E1134
      OVC V BKN SLP129=
SPECI KWRI 081152Z AUTO 14006KT 3SM BR SCT005 25/25 A3002 RMK AO2 SCT
      V BKN SLP167 $=
SPECI KWRI 081153Z AUTO 14006KT 3SM BR BKN005 25/25 A3002 RMK AO2 SLP168
      $=
####018000147####
SAUS43 KMKX 081155
MTRMSN
METAR KMSN 081153Z VRB03KT 8SM BKN006 OVC010 22/21 A3003 RMK AO2 
SLP162 60000 70057 T02170206 10222 20211 51006
####018000623####
SANO31 ENMI 081150
METAR ENAN 081150Z 32006KT 9999 FEW045 BKN200 16/10 Q1010 NOSIG=
METAR ENBR 081150Z 21014KT 9999 FEW020 17/11 Q1013 NOSIG =
METAR ENBO 081150Z 26009KT 9999 SCT050CB 15/10 Q1010 TEMPO SHRA=
METAR ENDU 081150Z 24005KT 9999 VCSH SCT050 BKN070 19/08 Q1010
           NOSIG=
METAR ENGM 081141Z 17014KT 9999 FEW010 SCT030 BKN140 17/14 Q1015
           NOSIG=
METAR ENOL 081150Z 33005KT 9999 FEW025TCU BKN080 19/09 Q1010 NOSIG=
METAR ENVA 081150Z 08006KT 040V140 9999 TS SCT040CB SCT070 21/11
           Q1009 TEMPO NSW =
METAR ENZV 081150Z 21011KT 9999 FEW018 BKN200 18/12 Q1015 NOSIG=
####018000456####
SANO35 ENMI 081150
METAR ENMS 081150Z 36009KT 9999 FEW050 SCT060 20/10 Q1009 =
METAR ENRM 081150Z 01008KT 9999 -SHRA FEW015 SCT035 13/11 Q1010=
METAR ENRS 081150Z 15005KT 100V190 CAVOK 14/11 Q1010=
METAR ENSK 081150Z 27002KT 9999 VCSH FEW025 SCT040 BKN060 20/10
           Q1010=
METAR ENSO 081150Z 23010KT 9999 SCT030 18/11 Q1014=
METAR ENST 081150Z 02007KT 320V080 CAVOK 18/11 Q1010=
METAR ENVD 081150Z 11007KT 9999 BKN022 12/08 Q1018=
####018002885####
SAUS20 KNKA 081155
METAR KAAO 081154Z AUTO 02004KT 9SM BKN006 BKN011 22/21 A3009 RMK 
    AO2 SLP177 70138 T02170206 10228 20211 51004=
METAR KAEG 081155Z AUTO 00000KT 10SM FEW120 15/08 A3029 RMK AO1  =
METAR KAFJ 081155Z AUTO 00000KT 2 1/2SM CLR 21/19 A3012 RMK AO1 10210
     20170=
METAR KAIZ 081155Z AUTO 00000KT 10SM BKN015 BKN024 OVC060 22/21 
    A3008 RMK AO1 LTG DSNT E 60013 70087 10230 20220 52010=
METAR KAKH 081154Z AUTO 35004KT 10SM CLR 27/17 A3003 RMK AO2 SLP160 
    T02670172 10267 20211 51009=
METAR KALN 081150Z 00000KT 7SM BKN033 OVC075 25/25 A3004=
METAR KALO 081154Z AUTO 33007KT 10SM CLR 19/19 A3008 RMK AO2 SLP180 
    70099 T01940189 10206 20189 51014=
METAR KAPC 081154Z AUTO 26010KT 10SM OVC008 12/11 A2990 RMK AO2 
    SLP117 T01170106 10128 20117 55002=
METAR KARA 081153Z 06007KT 3SM BR BKN003 25/24 A3001 RMK AO2 SLP162 
    7//// T02500244 10250 20244 51008=
METAR KARG 081155Z AUTO 19006KT 10SM CLR 24/22 A3006 RMK AO1 10260
     20240 52003=
METAR KAUO 081155Z AUTO 32005KT 10SM CLR 26/22 A3004 RMK AO1 10270
     20240 52003=
METAR KAUW 081154Z AUTO 33004KT 9SM OVC006 19/18 A3002 RMK AO2 
    SLP164 60002 7//// T01940183 10206 20189 51011=
METAR KAVL 081154Z 34003KT 8SM CLR 21/18 A3016 RMK AO2 SLP181 
    T02110178 10211 20178 53008=
METAR KAWO 081155Z AUTO 00000KT 6SM CLR 12/12 A2998 RMK AO1 10190
     20120 52003=
METAR KBFL 081154Z AUTO 00000KT 10SM CLR 19/09 A2984 RMK AO2 SLP098 
    T01940094 10267 20194 53005=
METAR KBKX 081155Z AUTO 10003KT 10SM CLR 14/13 A3017 RMK AO1 10160
     20130 52003=
METAR KBTP 081155Z AUTO 00000KT 3SM CLR 21/19 A3011 RMK AO1 10210
     20180=
METAR KBUY 081154Z AUTO 00000KT 4SM HZ CLR 26/19 A3001 RMK AO2 
    SLP153 7//// T02610189 10261 20217 51011=
METAR KBVX 081155Z AUTO 19003KT 10SM CLR 23/22 A3007 RMK AO1 10260
     20230 52007=
METAR KBWI 081154Z 06005KT 3SM HZ FEW110 28/23 A3001 RMK AO2 SLP161 
    T02780228 10289 20261 51007=
METAR KCEU 081154Z AUTO 00000KT 7SM CLR 26/22 A3006 RMK AO2 SLP164 
    T02560222 10261 20233 53009=
METAR KCGC 081155Z AUTO 00000KT 10SM CLR 22/21 A3000 RMK=
METAR KCGZ 081155Z AUTO 00000KT 10SM CLR 26/00 A2981 RMK AO1 10340
     20260 52010=
METAR KCIU 081155Z AUTO 30006KT 2SM OVC002 20/18 A2998 RMK AO1 60001 
    10200 20190 52010=
METAR KCOE 081155Z AUTO 08006KT 10SM CLR 13/08 A3010 RMK AO1 10190
     20130 52003=
METAR KCRW 081154Z 00000KT 2SM BR CLR 22/20 A3010 RMK AO2 SLP181 
    T02220200 10228 20206 51004=
METAR KCVN 081155Z AUTO 36010KT 10SM SCT005 SCT009 16/14 A3023 RMK 
    AO1 70018 10180 20160 52007=
METAR KCVO 081155Z AUTO 27007KT 10SM CLR 12/09 A2994 RMK AO1 52014=
METAR KCWI 081155Z 28003KT 4SM OVC008 A3006 RMK AO1 70103 52014=
METAR KDEC 081154Z 00000KT 5SM HZ CLR 26/23 A3005 RMK AO2 SLP168 
    T02610233 10267 20239 53005=
####018002923####
SAUS20 KNKA 081155
METAR KMRF 081155Z AUTO 36004KT 10SM FEW120 16/14 A3019 RMK AO1 
    70001 10190 20150 52010=
METAR KMRY 081154Z AUTO 00000KT 10SM OVC006 13/10 A2993 RMK AO2 
    SLP146 T01280100 10139 20128 55003=
METAR KMTW 081155Z 00000KT 7SM CLR 22/21 A3000 RMK AO1 10220 20210 
    52010=
METAR KMVN 081155Z AUTO 00000KT 8SM CLR 24/22 A3006 RMK AO1 10240
     20210 52003=
METAR KOFP 081154Z AUTO 07003KT 5SM HZ FEW080 28/21 A3002 RMK AO2 
    SLP162 T02830211 10283 20233 53005=
METAR KOKK 081155Z AUTO 18003KT 4SM SCT060 BKN070 OVC100 24/18 A3005 
    RMK AO1 10240 20220=
METAR KOLM 081154Z AUTO 00000KT 10SM CLR 12/11 A2995 RMK AO2 SLP142 
    T01170106 10200 20117 51004=
METAR KOLS 081154Z AUTO 00000KT 10SM CLR 24/08 A2999 RMK AO2 SLP075 
    T02390078 10289 20228 53004=
METAR KOLU 081155Z AUTO 00000KT 10SM OVC090 17/15 A3020 RMK AO1 
    70008 10170 20160 52014=
METAR KOTG 081155Z AUTO 27006KT 10SM CLR 16/14 A3017 RMK AO1 10160
     20140 52010=
METAR KOTH 081155Z 00000KT 10SM OVC006 10/08 A3000 RMK AO1 70004 
    10110 20090 54000=
METAR KPHF 081154Z 08007KT 10SM FEW016 26/24 A3000 RMK AO2 SLP158 
    60000 T02610239 10261 20239 53014=
METAR KPIA 081154Z 22003KT 3SM BR BKN004 OVC014 23/22 A3004 RMK AO2 
    CIG 002V007 SLP166 60002 70077 T02330222 10233 20228 51003=
METAR KPIB 081155Z AUTO 00000KT 9SM CLR 24/21 A3006 RMK AO1 10240
     20220 52010=
METAR KPLN 081154Z AUTO VRB03KT 7SM OVC007 22/21 A2999 RMK AO2 RAE27 
    CIG 005V010 SLP153 P0000 60000 70051 T02170211 10222 20211 53009=
METAR KPSO 081155Z AUTO 00000KT 10SM CLR 08/05 A3040 RMK AO2=
METAR KPTN 081155Z AUTO 08004KT 10SM CLR 25/M08 A3002 RMK AO1 70011 
    10250 20240 52003=
METAR KPTV 081155Z AUTO 17004KT 10SM CLR 17/11 A2985 RMK AO1 10230
     20170 52003=
METAR KPVC 081155Z 17009KT 10SM CLR 24/21 A3011 RMK AO1 10240 20210 
    52007=
METAR KPVU 081155Z 00000KT 8SM CLR 17/09 A3014 RMK AO1 10210 20140 
    52007=
METAR KPWT 081155Z AUTO 03008KT 10SM CLR 21/07 A2998 RMK AO1 10240
     20210 52003=
METAR KRBL 081154Z AUTO 17004KT 10SM CLR 22/14 A2983 RMK AO2 SLP097 
    T02170144 10283 20217 53002=
METAR KRKS 081154Z AUTO 06011KT 10SM FEW120 08/06 A3035 RMK AO2 
    SLP219 T00830056 10128 20078 51005=
METAR KRST 081154Z 32007KT 7SM CLR 18/17 A3012 RMK AO2 SLP195 
    T01830172 10206 20172 51015=
METAR KSBY 081154Z 10007KT 10SM CLR 26/23 A3002 RMK AO2 SLP166 
    T02560228 10256 20239 51010=
METAR KSET 081154Z AUTO 20003KT 8SM BKN006 BKN038 OVC060 24/24 A3004 
    RMK AO2 CIG 003V011 SLP166 60002 70005 T02440239 10261 20239 
    51011=
METAR KSGT 081155Z 00000KT 10SM CLR 23/22 A3008 RMK AO1 70004 52014=
METAR KSGU 081155Z AUTO 00000KT 10SM CLR 24/01 A2997 RMK AO1 10310
     20230 52010=
METAR KSJN 081154Z AUTO 11004KT 10SM OVC100 20/06 A3019 RMK AO2 
    SLP119 T02000056 10244 20200 53007=
####018002986####
SAUS20 KNKA 081155
METAR KDSM 081154Z 32003KT 10SM FEW180 BKN250 21/19 A3010 RMK AO2 
    SLP186 70007 T02110189 10233 20211 53012=
METAR KDVL 081155Z AUTO 29006KT 10SM CLR 16/13 A3009 RMK AO1 10170
     20140 52010=
METAR KDYB 081155Z AUTO 00000KT 10SM CLR 22/21 A2997 RMK AO1=
METAR KDYR 081155Z AUTO 00000KT 10SM CLR 25/21 A3008 RMK AO1 10250
     20230 52007=
METAR KEAR 081155Z AUTO 33005KT 10SM CLR 15/13 A3024 RMK AO1 10160
     20140 52007=
METAR KECG 081154Z 09007KT 10SM BKN100 26/23 A2998 RMK AO2 SLP151 
    T02560233 10256 20250 53013=
METAR KEHR 081155Z AUTO 00000KT 9SM CLR 24/20 A3006 RMK AO1 10240
     20220 52003=
METAR KEKM 081154Z 00000KT 07SM SKC 25/22 A3005 RMK AO2=
METAR KENV 081155Z 00000KT 10SM CLR 16/01 A3010 RMK AO1 10240 20160 
    52007=
METAR KESC 081155Z AUTO 00000KT 7SM OVC019 19/17 A2998 RMK AO1 10200
     20190 52010=
METAR KEUG 081154Z 18008KT 10SM CLR 13/10 A2994 RMK AO2 SLP135 
    T01280100 10189 20128 53008=
METAR KEUL 081155Z AUTO 10003KT 10SM CLR 12/06 A3007 RMK AO1 10190
     20110 52007=
METAR KEVV 081154Z 00000KT 10SM CLR 27/23 A3006 RMK AO2 SLP174 
    T02670228 10267 20239 50004=
METAR KEWK 081155Z AUTO 02007KT 9SM OVC004 21/19 A3008 RMK AO1 10210
     20210 52003=
METAR KEWN 081154Z 04007KT 3SM BR SCT008 26/24 A2996 RMK AO2 SLP145 
    T02610239 10261 20233 53014=
METAR KFAM 081155Z AUTO 21003KT 10SM BKN080 23/22 A3010 RMK AO1 
    70010 10230 20220 52007=
METAR KFET 081153Z AUTO 32003KT 10SM CLR 18/17 A3017 RMK AO2=
METAR KFKL 081155Z 00000KT 5SM CLR 22/19 A3014 RMK AO1 10220 20180=
METAR KFLP 081155Z AUTO 00000KT 10SM OVC065 23/21 A3007 RMK AO1 
    70001 10250 20230 52010=
METAR KFOD 081155Z AUTO 35004KT 10SM CLR 17/17 A3014 RMK AO1 10200
     20170 52010=
METAR KFRM 081155Z AUTO 10SM CLR 17/15 A3015 RMK AO1 70178 10180
     20160 52007=
METAR KGAD 081155Z AUTO 00000KT 10SM CLR 22/19 A3007 RMK AO1 10230
     20210 52010=
METAR KGAI 081155Z 00000KT 4SM BKN090 26/22 A3006 RMK AO1 
      10270 20240 52010=
METAR KGBD 081155Z AUTO 36007KT 10SM OVC008 19/18 A3018 RMK AO1 
    70016 10190 20190 52007=
METAR KGCK 081154Z 02010KT 10SM BKN007 OVC013 17/16 A3024 RMK AO2 
    CIG 006V011 SLP210 T01720161 10183 20172 53009=
METAR KGCN 081154Z AUTO 00000KT 10SM BKN110 09/M03 A3025 RMK AO2 
    SLP152 7//// T00891028 10117 20067 53006=
METAR KGPZ 081155Z AUTO 24005KT 10SM CLR 17/14 A3006 RMK AO1 10170
     20120 52003=
METAR KHEF 081155Z AUTO 00000KT 7SM OVC100 27/21 A3002 RMK AO1 10270
     20220 52010=
METAR KHEZ 081155Z AUTO 00000KT 7SM CLR 22/21 A3006 RMK AO1 70006 
    10240 20210 52010=
METAR KHNB 081155Z AUTO 00000KT 6SM CLR 24/22 A3007 RMK AO1 10240
     20220 52007=
METAR KHWD 081154Z AUTO 28006KT 10SM OVC007 14/12 A2991 RMK AO2 
    SLP138 T01390117 10144 20139 56004=
METAR KHYS 081155Z AUTO 02007KT 10SM SCT018 BKN025 OVC035 18/16 
    A3020 RMK AO1 70100 10190 20180 52010=
####018002929####
SAUS20 KNKA 081155
METAR KILN 081154Z AUTO 00000KT 3SM HZ CLR 24/21 A3010 RMK AO2 
    SLP178 T02390211 10239 20200 51003=
METAR KIMT 081154Z AUTO 32003KT 10SM BKN008 OVC014 21/19 A3001 RMK 
    AO2 CIG 002V012 SLP158 70006 T02060194 10206 20194 51013=
METAR KIND 081154Z 16003KT 7SM SCT060 SCT110 BKN210 26/21 A3004 RMK 
    AO2 SLP162 TCU DSNT W T02610211 10261 20244 51002=
METAR KINT 081154Z 02004KT 10SM CLR 27/18 A3005 RMK AO2 SLP160 
    T02670178 10278 20233 51008=
METAR KISM 081150Z 01004KT 10SM SKC 24/22 A3002=
METAR KISW 081154Z AUTO 00000KT 10SM CLR 20/19 A3005 RMK AO2 SLP170 
    70004 T02000189 10222 20189 53011 TSNO=
METAR KIWD 081155Z AUTO 32006KT 10SM FEW048 SCT060 17/15 A3002 RMK 
    AO1 10180 20150 52010=
METAR KJHW 081155Z AUTO 00000KT 6SM CLR 22/19 A3012 RMK AO1 10220
     20190=
METAR KKLS 081155Z AUTO 35003KT 10SM CLR 16/13 A2994 RMK AO1 10220
     20150 52010=
METAR KLAF 081154Z 00000KT 3SM BR BKN065 24/22 A3004 RMK AO2 SLP166 
    7//// T02390222 10244 20217 53002=
METAR KLBE 081150Z 00000KT 4SM BR SCT150 21/18 A3011=
METAR KLBL 081155Z 01007KT 5SM OVC006 19/17 A3023 RMK AO1 P0001 
    60001 70007 10210 20190 52007=
METAR KLBT 081154Z AUTO 01005KT 9SM CLR 27/18 A2995 RMK AO2 SLP139 
    T02670183 10278 20239 52009=
METAR KLEX 081154Z 00000KT 3SM HZ CLR 24/19 A3010 RMK AO2 SLP180 
    T02390194 10244 20211 51006=
METAR KLGD 081155Z AUTO 00000KT 10SM CLR 10/04 A3006 RMK AO1 10170
     20090 52003=
METAR KLKV 081155Z AUTO 34003KT 10SM CLR 11/00 A3012 RMK AO1 10190
     20090 54000=
METAR KLNK 081154Z 34007KT 10SM BKN034 18/17 A3017 RMK AO2 SLP207 
    70006 T01830167 10206 20178 53006=
METAR KLPC 081155Z AUTO 00000KT 9SM OVC008 13/11 A2992 RMK AO1 10140
     20130 54000 PNO=
METAR KLUX 081155Z AUTO 00000KT 10SM CLR 24/24 A3004 RMK AO2=
METAR KLWT 081154Z AUTO 13007KT 10SM CLR 07/05 A3026 RMK AO2 SLP231 
    T00720050 10100 20072 56001=
METAR KLYH 081154Z 02003KT 6SM HZ CLR 27/19 A3006 RMK AO2 SLP166 
    T02670189 10267 20228 53006=
METAR KMBL 081155Z AUTO 00000KT 4SM BKN008 OVC046 22/20 A3002 RMK 
    AO1 P0002 10220 20210=
METAR KMER 081155Z AUTO 33006KT 10SM CLR 16/11 A2983 RMK AO1 =
METAR KMFI 081154Z AUTO 32006KT 3SM BR OVC003 19/19 A3003 RMK AO2 
    SLP164 T01940189 10200 20183 51008=
METAR KMKC 081154Z 01003KT 10SM CLR 23/20 A3006 RMK AO2 SLP170 70011 
    T02330200 10233 20217 53006=
METAR KMKT 081155Z 00000KT 10SM CLR 17/16 A3013 RMK AO1 70093 10190
     20160 52014=
METAR KMML 081155Z AUTO 27007KT 10SM CLR 16/13 A3014 RMK AO1 10160
     20140 52003=
METAR KMNI 081155Z AUTO 34004KT 7SM BKN095 26/23 A2997 RMK AO2=
METAR KMNM 081155Z AUTO 28004KT 5SM BKN004 OVC019 21/19 A2999 RMK 
    AO1 60001 70021 10210 20210 52007=
METAR KMOT 081154Z AUTO 24005KT 10SM SCT080 BKN090 15/11 A3010 RMK 
    AO2 SLP193 70001 T01500111 10172 20133 53007 TSNO=
####018002272####
SAUS20 KNKA 081155
METAR KSKX 081155Z AUTO 33004KT 10SM CLR 11/06 A3039 RMK AO1 10150
     20100 52003=
METAR KSLG 081155Z AUTO 12004KT 10SM OVC021 23/21 A3008 RMK AO1 10240
     20220 52007=
METAR KSMN 081155Z AUTO 00000KT 10SM CLR 07/01 A3027 RMK AO1 10140
     20060 52017=
METAR KSOW 081150Z AUTO 13005KT 9SM BKN100 19/03 A3025 RMK AO2=
METAR KSPA 081155Z AUTO 35005KT 10SM CLR 25/22 A3003 RMK AO2=
METAR KSPL 081155Z AUTO 36007G17KT 27/26 A2976 RMK AO2 PWINO PNO =
METAR KSQI 081155Z 28003KT 5SM SCT005 OVC012 23/22 A3006 RMK AO1 
    60002 70017 10230 20220 52010=
METAR KSUE 081155Z AUTO 27005KT 10SM OVC009 21/21 A3000 RMK AO1 
    60003 70051 10210 20200 52014=
METAR KSUN 081151Z AUTO 30010G16KT 10SM CLR 10/00 A3024 RMK AO2=
METAR KSUS 081154Z 28003KT 8SM -RA FEW001 BKN024 OVC038 24/23 A3004 
    RMK AO2 RAB51 SLP162 P0000 60005 70020 T02440233 10256 20239 
    51007=
METAR KSZT 081150Z AUTO 00000KT 10SM CLR 08/07 A3011 RMK AO2=
METAR KTIF 081150Z AUTO 00000KT 10SM SCT120 15/14 A3027 RMK AO2 
     T01460137 10160 20145=
METAR KTQE 081154Z AUTO 34006KT 9SM CLR 18/17 A3016 RMK AO2 SLP201 
    T01830172 10200 20172 53010=
METAR KTRK 081150Z AUTO 00000KT 10SM CLR 08/07 A3016 RMK AO2=
METAR KTVF 081155Z AUTO 23006KT 10SM CLR 14/12 A3006 RMK AO1 10160
     20130 52010=
METAR KUIN 081154Z AUTO 00000KT 6SM BR OVC004 23/22 A3005 RMK AO2 
    SLP167 60009 70172 T02280222 10228 20228 51008=
METAR KUTA 081155Z AUTO 00000KT 10SM CLR 24/22 A3007 RMK AO2=
METAR KUZA 081154Z AUTO 36003KT 10SM CLR 25/19 A3003 RMK AO2 SLP152 
    T02500189 10256 20211 53008=
METAR KVBT 081155Z AUTO 00000KT 10SM OVC022 23/21 A3006 RMK AO1 
    60001 70044 10240 20230 52010=
METAR KVIS 081155Z AUTO 27003KT 10SM CLR 18/12 A2982 RMK AO1 10250
     20180 52007=
METAR KVTA 081154Z AUTO 00000KT 4SM BR FEW065 22/19 A3009 RMK AO2 
    SLP181 T02170194 10217 20183 53003=
METAR KWLD 081154Z AUTO 34006KT 10SM CLR 22/21 A3008 RMK AO2 SLP175 
    60001 70161 T02170206 10228 20217 53001=
METAR KX40 081155Z AUTO 00000KT 10SM CLR 24/23 A3002 RMK AO2 
     T02350228=
METAR KXFL 081152Z 00000KT 8SM CLR 24/22 A3001=
METAR KYKN 081155Z AUTO 19004KT 10SM CLR 18/15 A3019 RMK AO1 10180
     20160 52010=
####018000134####
SAUS45 KLKN 081155
MTRP68
METAR KP68 081153Z AUTO 22006KT 07/M03 A3016 RMK AO2 SLP143 
T00671028 10167 20061 53007 PWINO TSNO
####018000165####
SAUS43 KLSX 081155
MTRCOU
METAR KCOU 081154Z 00000KT 6SM BR FEW002 BKN011 OVC016 23/22 A3006 
RMK AO2 SLP171 VIS N 2 60004 70071 T02280222 10228 20222 53007
####018000134####
SAZS31 NSTU 081200
METAR NSTU 081152Z 07011KT 10SM FEW016 28/26 A2989 RMK SLP122 60006 
70018 8/100 T02770256 10281 20267 57002=
####018000131####
SAUS43 KIWX 081155
MTRSBN
METAR KSBN 081154Z 36003KT 6SM HZ BKN100 24/21 A3005 RMK AO2 SLP167 
T02440211 10250 20222 55001
####018000125####
SAUS41 KLWX 081155
MTRDMH
METAR KDMH 081154Z AUTO 28/23 A3002 RMK AO2 SLP164 T02830228 10300 
20267 51006 PWINO TSNO
####018000146####
SAUS43 KAPX 081155
MTRAPN
METAR KAPN 081154Z AUTO 23003KT 10SM OVC095 23/21 A2998 RMK AO2 
SLP150 60001 70001 T02280211 10228 20183 50000
####018000131####
SAFK41 EGYP 081150
METAR EGYP 081150Z 01031G41KT 3500 RADZ FEW006 BKN010 OVC018 05/04
 Q0992 YLO1 TEMPO 5000 -RA BKN010 GRN=
####018002931####
SAAK41 KNKA 081155
METAR PAAQ 081153Z AUTO 00000KT 10SM OVC100 11/09 A2999 RMK AO2 
    SLP151 60000 T01110094 10150 20111 58011 TSNO=
METAR PABE 081153Z 36004KT 10SM OVC120 10/10 A3001 RMK AO2 SLP171 
    70004 T00980095 10150 20089 51005 PNO $=
METAR PABI 081153Z AUTO 00000KT 10SM CLR 11/07 A3008 RMK AO2 SLP188 
    T01060072 10189 20106 58002 TSNO=
METAR PABR 081153Z 24018KT 10SM FEW150 SCT190 06/03 A2997 RMK AO2 
    SLP150 T00610033 10061 20050 CHINO NE $=
METAR PABT 081153Z 00000KT 10SM SCT120 11/09 A3007 RMK AO2 SLP190 
    T01060094 10189 20106 51003=
METAR PACD 081153Z 09004KT 10SM FEW050 SCT180 06/05 A2990 RMK AO2 
    SLP126 T00560050 10106 20044 58013=
METAR PACV 081153Z 17010G14KT 10SM OVC036 14/11 A3009 RMK AO2 
    RAE1059 SLP189 P0000 60003 70019 T01390106 10167 20139 51003=
METAR PADE 081153Z AUTO 20007KT 10SM CLR 03/03 A3013 RMK AO2 SLP204 
    T00330028 10111 20033 58004 TSNO=
METAR PADQ 081153Z 28005KT 10SM FEW020 OVC033 11/09 A2985 RMK AO2 
    RAB12E21 SLP109 P0000 60008 70087 T01060089 10106 20100 51005 $=
METAR PAEG 081153Z AUTO 00000KT 10SM CLR 04/03 A3005 RMK AO2 SLP179 
    T00390028 10183 20033 51010 TSNO=
METAR PAEN 081153Z AUTO 02012KT 10SM FEW065 14/12 A2993 RMK AO2 
    SLP137 60000 70005 T01390117 10156 20139 58012 TSNO=
METAR PAFA 081153Z 00000KT 10SM FEW200 11/07 A3004 RMK AO2 SLP175 
    T01060072 10222 20100 52001=
METAR PAGK 081153Z AUTO 00000KT 10SM CLR 06/04 A3006 RMK AO2 SLP186 
    70004 T00610044 10172 20056 58004 TSNO=
METAR PAGY 081153Z AUTO 00000KT 10SM CLR 09/09 A3020 RMK AO2 SLP226 
    T00940089 10139 20094 57003 TSNO=
METAR PAHO 081153Z AUTO 00000KT 10SM FEW055 BKN090 OVC120 11/09 
    A2992 RMK AO2 SLP132 70026 T01060094 10133 20106 53010 TSNO=
METAR PAIL 081153Z AUTO 13003KT 9SM FEW001 BKN080 OVC095 09/08 A2993 
    RMK AO2 RAB33E44 SLP136 P0000 60000 70042 T00890083 10117 20083 
    55002 TSNO=
METAR PAJN 081153Z 00000KT 10SM FEW230 09/08 A3018 RMK AO2 SLP218 
    T00940083 10150 20094 57004=
METAR PAKT 081153Z AUTO VRB05KT 10SM CLR 17/11 A3008 RMK AO2 SLP187 
    T01720111 10211 20161 53003 TSNO=
METAR PAKV 081153Z AUTO 22003KT 10SM CLR 06/04 A3010 RMK AO2 SLP195 
    60000 T00610044 10183 20061 51003 TSNO=
METAR PAKW 081153Z AUTO 18003KT 10SM CLR 10/08 A3013 RMK AO2 SLP201 
    T01000083 10139 20100 57001 TSNO=
METAR PALH 081153Z 00000KT 9SM -RA FEW055 OVC080 13/11 A2998 RMK AO2 
    RAB29 SLP154 P0000 60002 70004 T01330106 10150 20128 57009=
METAR PAMC 081153Z 00000KT 10SM SCT080 BKN200 11/09 A2999 RMK AO2 
    SLP156 T01060089 10200 20106 52001=
METAR PAMR 081153Z 00000KT 10SM FEW060 SCT080 BKN090 BKN200 12/11 
    A2998 RMK AO2 RAB01E50 SLP152 P0000 6//// 7//// T01220106 10150 
    20117 56008 $=
METAR PANC 081153Z 00000KT 8SM RA BKN075 BKN200 12/11 A2997 RMK AO2 
    SLP150 P0001 60001 70002 T01170111 10133 20111 56009=
####018001839####
SAAK41 KNKA 081155
METAR PANN 081153Z AUTO 00000KT 10SM CLR 09/08 A3001 RMK AO2 SLP168 
    T00940078 10217 20089 58003 TSNO=
METAR PANT 081153Z 33008KT 10SM CLR 17/11 A3007 RMK AO2 SLP181 
    T01720111 10206 20167 51004=
METAR PAOM 081153Z 33008KT 10SM SCT200 13/08 A3008 RMK AO2 SLP187 
    T01280078 10194 20128 58002=
METAR PAOR 081153Z 00000KT 10SM FEW070 09/08 A3007 RMK AO2 SLP185 
    T00940083 10183 20083 58003=
METAR PAOT 081153Z 28009KT 10SM FEW038 SCT090 BKN200 11/07 A3011 RMK 
    AO2 SLP198 T01110072 10128 20111 58004=
METAR PAPB 081153Z AUTO 09017KT 10SM OVC048 07/06 A2991 RMK AO2 
    SLP115 T00720056 10083 20072 58002 TSNO=
METAR PAQT 081153Z AUTO 23009KT 10SM CLR 08/06 A3006 RMK AO2 SLP181 
    70004 T00780056 10139 20072 51004 TSNO=
METAR PASC 081153Z 24010KT 10SM OVC230 08/06 A3002 RMK AO2 SLP167 
    70003 T00830061 10111 20083 51006=
METAR PASI 081153Z 00000KT 3/4SM BR OVC002 13/12 A3017 RMK AO2 
    SLP217 70001 T01280122 10144 20128 58004=
METAR PASN 081153Z 07013KT 10SM OVC044 05/05 A2994 RMK AO2 SLP137 
    T00500050 10067 20050 58003=
METAR PASO 081153Z AUTO 00000KT 10SM -RA FEW008 OVC060 10/09 A2990 
    RMK AO2 RAE19B45 SLP127 P0000 60001 70036 T01000094 10122 20100 
    51005 TSNO=
METAR PATK 081153Z AUTO 09004KT 10SM FEW120 12/11 A2998 RMK AO2 
    SLP154 T01220106 10183 20122 56007 TSNO=
METAR PATO 081153Z AUTO 09017G38KT 4SM -RA FEW025 BKN034 OVC042 
    13/10 A2999 RMK AO2 PK WND 08044/1123 SLP155 P0004 60090 70172 
    T01280100 10133 20117 58008 TSNO $=
METAR PAWD 081153Z AUTO 00000KT 10SM FEW010 OVC065 11/09 A2995 RMK 
    AO2 SLP141 60010 70091 T01060094 10106 20094 56009 TSNO=
METAR PAYA 081153Z 00000KT 10SM BKN110 11/09 A3018 RMK AO2 SLP219 
    BAY TWR WND 130MMKT 60000 70004 T01110094 10144 20106 58002=
####018000138####
SAUS41 KGYX 081155
MTRNKT
METAR KNKT 081154Z 03010KT 4SM HZ FEW012 BKN150 27/24 A2994 RMK AO2 
SLP137 T02670239 10267 20250 53011
####018000122####
SAUS41 KBOX 081155
MTRMQE
METAR KMQE 081154Z AUTO 15005KT 23/19 A3011 RMK AO1 SLP200 T02330189 
10233 20206 51011
####018000125####
SAUS41 KBTV 081155
MTR1V4
METAR K1V4 081154Z AUTO 23/20 A3006 RMK AO2 SLP164 T02280200 10228 
20200 51003 PWINO TSNO
####018000136####
SAUS44 KSHV 081155
MTRBKB
METAR KBKB 081154Z AUTO 00000KT 8SM CLR 24/23 A3001 RMK AO2 SLP188 
70003 T02440233 10250 20239 51009
####018000133####
SAUS42 KTAE 081155
MTR40J
METAR K40J 081153Z AUTO 00000KT 22/21 A3001 RMK AO2 SLP162 T02170211 
10228 20194 53006 PWINO TSNO
####018000080####
SAPS31 NIUE 081200
METAR NIUE 081200Z AUTO 15004KT //// ////// 24/24 Q1015=
####018003730####
SAUS99 KWBC 081156
METAR
KCRG 081153Z 00000KT 10SM CLR 23/22 A3001 RMK AO2 SLP163 T02330217
     10233 20189 53007=
KCSM 081153Z AUTO 04006KT 10SM BKN017 BKN110 23/21 A3012 RMK AO2
     SLP173 60000 T02280206 10228 20228 53007=
KCYS 081153Z 00000KT 10SM OVC008 12/11 A3037 RMK AO2 CIG 005V010
     SLP235 60000 70002 T01170106 10117 20111 50002=
KDEN 081153Z 36005KT 4SM BR BKN025 BKN120 14/13 A3031 RMK AO2
     SLP209 70009 T01390128 10150 20139 55003 $=
KDET 081153Z AUTO 24004KT 8SM CLR 27/22 A3003 RMK AO2 SLP164
     T02670217 10267 20239 50002 TSNO $=
KDFI 081153Z AUTO 19003KT 5SM HZ CLR 24/20 A3005 RMK AO2 SLP171
     T02390200 10239 20206 50002=
KDFW 081153Z 13003KT 6SM -RA BR BKN014 BKN019 OVC025 26/23 A3002
     RMK AO2 SLP156 P0002 60002 70026 T02560233 10261 20250
     51012=
KDGW 081153Z AUTO 00000KT 10SM CLR 05/04 A3035 RMK AO2 SLP254
     70001 T00500044 10094 20044 53006 $=
KDKK 081153Z AUTO 00000KT 10SM CLR 25/20 A3006 RMK AO2 SLP175
     T02500200 10250 20189 50002=
KDLN 081153Z AUTO 19007KT 10SM CLR 06/02 A3030 RMK AO2 SLP229
     T00560022 10122 20044 53008=
KDMO 081153Z AUTO 00000KT 6SM BR SCT002 OVC009 24/22 A3007 RMK AO2
     SLP176 60000 70167 T02390222 10239 20228 53010=
KDNL 081153Z AUTO 31006KT 10SM CLR 28/18 A3002 RMK AO2 SLP159
     T02830183 10283 20261 53005=
KDRO 081153Z AUTO 00000KT 10SM CLR 12/06 A3032 RMK AO2 SLP184
     60000 T01170056 10172 20111 53006=
KDTW 081153Z 00000KT 6SM HZ FEW150 26/21 A3003 RMK AO2 SLP165
     T02560211 10261 20233 50002=
KDXR 081153Z 00000KT 1 1/2SM BR OVC003 23/22 A3008 RMK AO2 SLP182
     T02330222 10239 20222 51006=
KECP 081153Z 32004KT 8SM CLR 24/24 A3002 RMK AO2 SLP177 7////
     T02440239 10244 20228 53005=
KEEO 081153Z AUTO 06003KT 10SM CLR 07/06 A3031 RMK AO2 SLP194
     6//// 7//// T00720056 10144 20072 $=
KELD 081153Z AUTO 00000KT 5SM BR CLR 23/22 A3006 RMK AO2 SLP173
     70071 T02280222 10233 20222 53008=
KELM 081153Z 00000KT 2 1/2SM HZ CLR 22/19 A3009 RMK AO2 SLP181
     T02170189 10217 20167 51003=
KEMP 081153Z AUTO 36005KT 7SM FEW006 22/19 A3009 RMK AO2 SLP180
     70009 T02170194 10222 20211 53004=
KEVW 081153Z AUTO 08012KT 10SM CLR 10/03 A3033 RMK AO2 SLP187
     T01000033 10139 20100 51009 TSNO=
KEWB 081153Z 13005KT 10SM OVC004 23/21 A3009 RMK AO2 SLP189
     T02330211 10233 20217 51009=
KEYE 081153Z AUTO 00000KT 6SM HZ CLR 26/21 A3005 RMK AO2 SLP168
     T02560206 10256 20233 50002=
KEYW 081153Z 08004KT 10SM FEW019 28/24 A2995 RMK AO2 SLP140 60000
     70001 T02780244 10283 20272 53008=
KFCM 081153Z 27003KT 10SM CLR 19/16 A3010 RMK AO2 SLP189 70008
     T01890161 10211 20172 53010=
KFDY 081153Z AUTO 00000KT 4SM HZ CLR 24/21 A3006 RMK AO2 SLP169
     T02390206 10239 20211 51004=
KFFT 081153Z AUTO 00000KT 4SM BR CLR 23/22 A3008 RMK AO2 SLP177
     T02330217 10233 20206 51003=
KFLL 081153Z 08007KT 10SM CLR 29/24 A2994 RMK AO2 SLP138 T02890239
     10289 20278 53008=
KFLO 081153Z 32005KT 10SM CLR 27/19 A2996 RMK AO2 SLP142 T02670189
     10267 20250 53006=
KFMY 081153Z 04005KT 10SM CLR 25/23 A2997 RMK AO2 SLP152 70001
     T02500228 10250 20233 53010=
KFNB 081153Z AUTO 35009KT 9SM CLR 21/19 A3010 RMK AO2 SLP185 70068
     T02110194 10222 20211 53006=
KFNT 081153Z AUTO 29003KT 9SM CLR 26/21 A3004 RMK AO2 SLP165
     T02560206 10256 20211 50004=
KFOE 081153Z 33006KT 10SM SCT007 BKN012 22/20 A3009 RMK AO2 SLP177
     60033 70102 T02170200 10222 20206 52010=
KFOK 081153Z 12005KT 10SM FEW004 OVC013 24/21 A3009 RMK AO2 SLP187
     T02440211 10250 20239 51012=
KFPR 081153Z 00000KT 10SM FEW020 26/23 A2998 RMK AO2 SLP152
     T02560228 10267 20217 53009=
####018003717####
SAUS99 KWBC 081156 RRH
METAR
KAWO 081155Z AUTO 00000KT 6SM CLR 12/12 A2998 RMK AO1 10190 20120
     52003=
KBFL 081154Z AUTO 00000KT 10SM CLR 19/09 A2984 RMK AO2 SLP098
     T01940094 10267 20194 53005=
KBKX 081155Z AUTO 10003KT 10SM CLR 14/13 A3017 RMK AO1 10160 20130
     52003=
KBTP 081155Z AUTO 00000KT 3SM CLR 21/19 A3011 RMK AO1 10210
     20180=
KBUY 081154Z AUTO 00000KT 4SM HZ CLR 26/19 A3001 RMK AO2 SLP153
     7//// T02610189 10261 20217 51011=
KBVX 081155Z AUTO 19003KT 10SM CLR 23/22 A3007 RMK AO1 10260 20230
     52007=
KBWI 081154Z 06005KT 3SM HZ FEW110 28/23 A3001 RMK AO2 SLP161
     T02780228 10289 20261 51007=
KCEU 081154Z AUTO 00000KT 7SM CLR 26/22 A3006 RMK AO2 SLP164
     T02560222 10261 20233 53009=
KCGC 081155Z AUTO 00000KT 10SM CLR 22/21 A3000 RMK=
KCGZ 081155Z AUTO 00000KT 10SM CLR 26/00 A2981 RMK AO1 10340 20260
     52010=
KCIU 081155Z AUTO 30006KT 2SM OVC002 20/18 A2998 RMK AO1 60001
     10200 20190 52010=
KCOE 081155Z AUTO 08006KT 10SM CLR 13/08 A3010 RMK AO1 10190 20130
     52003=
KCRW 081154Z 00000KT 2SM BR CLR 22/20 A3010 RMK AO2 SLP181
     T02220200 10228 20206 51004=
KCVN 081155Z AUTO 36010KT 10SM SCT005 SCT009 16/14 A3023 RMK AO1
     70018 10180 20160 52007=
KCVO 081155Z AUTO 27007KT 10SM CLR 12/09 A2994 RMK AO1 52014=
KCWI 081155Z 28003KT 4SM OVC008 A3006 RMK AO1 70103 52014=
KDEC 081154Z 00000KT 5SM HZ CLR 26/23 A3005 RMK AO2 SLP168
     T02610233 10267 20239 53005=
KDSM 081154Z 32003KT 10SM FEW180 BKN250 21/19 A3010 RMK AO2 SLP186
     70007 T02110189 10233 20211 53012=
KDVL 081155Z AUTO 29006KT 10SM CLR 16/13 A3009 RMK AO1 10170 20140
     52010=
KDYB 081155Z AUTO 00000KT 10SM CLR 22/21 A2997 RMK AO1=
KDYR 081155Z AUTO 00000KT 10SM CLR 25/21 A3008 RMK AO1 10250 20230
     52007=
KEAR 081155Z AUTO 33005KT 10SM CLR 15/13 A3024 RMK AO1 10160 20140
     52007=
KECG 081154Z 09007KT 10SM BKN100 26/23 A2998 RMK AO2 SLP151
     T02560233 10256 20250 53013=
KEHR 081155Z AUTO 00000KT 9SM CLR 24/20 A3006 RMK AO1 10240 20220
     52003=
KEKM 081154Z 00000KT 07SM SKC 25/22 A3005 RMK AO2=
KENV 081155Z 00000KT 10SM CLR 16/01 A3010 RMK AO1 10240 20160
     52007=
KESC 081155Z AUTO 00000KT 7SM OVC019 19/17 A2998 RMK AO1 10200
     20190 52010=
KEUG 081154Z 18008KT 10SM CLR 13/10 A2994 RMK AO2 SLP135 T01280100
     10189 20128 53008=
KEUL 081155Z AUTO 10003KT 10SM CLR 12/06 A3007 RMK AO1 10190 20110
     52007=
KEVV 081154Z 00000KT 10SM CLR 27/23 A3006 RMK AO2 SLP174 T02670228
     10267 20239 50004=
KEWK 081155Z AUTO 02007KT 9SM OVC004 21/19 A3008 RMK AO1 10210
     20210 52003=
KEWN 081154Z 04007KT 3SM BR SCT008 26/24 A2996 RMK AO2 SLP145
     T02610239 10261 20233 53014=
KFAM 081155Z AUTO 21003KT 10SM BKN080 23/22 A3010 RMK AO1 70010
     10230 20220 52007=
KFET 081153Z AUTO 32003KT 10SM CLR 18/17 A3017 RMK AO2=
KFKL 081155Z 00000KT 5SM CLR 22/19 A3014 RMK AO1 10220 20180=
KFLP 081155Z AUTO 00000KT 10SM OVC065 23/21 A3007 RMK AO1 70001
     10250 20230 52010=
KFOD 081155Z AUTO 35004KT 10SM CLR 17/17 A3014 RMK AO1 10200 20170
     52010=
KFRM 081155Z AUTO 10SM CLR 17/15 A3015 RMK AO1 70178 10180 20160
     52007=
KGAD 081155Z AUTO 00000KT 10SM CLR 22/19 A3007 RMK AO1 10230 20210
     52010=
KGAI 081155Z 00000KT 4SM BKN090 26/22 A3006 RMK AO1 10270 20240
     52010=
KGBD 081155Z AUTO 36007KT 10SM OVC008 19/18 A3018 RMK AO1 70016
     10190 20190 52007=
KGCK 081154Z 02010KT 10SM BKN007 OVC013 17/16 A3024 RMK AO2 CIG
     006V011 SLP210 T01720161 10183 20172 53009=
KGCN 081154Z AUTO 00000KT 10SM BKN110 09/M03 A3025 RMK AO2 SLP152
     7//// T00891028 10117 20067 53006=
####018000174####
SAUS98 KWBC 081156
METAR PATC 081155Z AUTO 01010KT 10SM CLR 07/06 A3014 RMK AO1
T00720062=
METAR PAEH 081155Z AUTO 14004KT 10SM CLR 08/M29 A2998 RMK AO1
T00831288=
####018003679####
SAUS99 KWBC 081156 RRB
METAR
KCDW 081153Z 00000KT 4SM HZ CLR 26/22 A3005 RMK AO2 SLP178
     T02610222 10261 20233 51008=
KCEZ 081153Z AUTO 05003KT 10SM CLR 14/06 A3024 RMK AO2 SLP162
     7//// T01390056 10222 20133 53005=
KCGI 081153Z AUTO 00000KT 10SM FEW100 24/23 A3005 RMK AO2 SLP171
     70043 T02440233 10256 20233 51007 TSNO=
KCKB 081153Z 00000KT 2 1/2SM HZ CLR 22/19 A3011 RMK AO2 SLP178
     T02170189 10217 20183 51006=
KCMX 081153Z AUTO 00000KT 10SM OVC090 19/17 A3000 RMK AO2 SLP156
     T01940167 10194 20178 53008=
KCNY 081153Z AUTO VRB03KT 10SM CLR 20/04 A3012 RMK AO2 SLP137
     T02000044 10239 20183 53006=
KCPR 081153Z 24004KT 10SM CLR 04/03 A3035 RMK AO2 SLP245 T00440028
     10094 20033 53003 $=
KCPS 081153Z 18003KT 10SM OVC043 25/22 A3004 RMK AO2 SLP167
     T02500222 10256 20233 53006=
KCRE 081153Z 33005KT 10SM CLR 27/20 A2992 RMK AO2 SLP134 T02670200
     10272 20256 53003=
KAAF 081153Z AUTO 36006KT 7SM CLR 25/24 A3002 RMK AO2 SLP164
     T02500239 10250 20233 53008=
KABR 081153Z AUTO 00000KT 10SM CLR 16/14 A3014 RMK AO2 SLP201
     T01560139 10161 20133 51006=
KABY 081153Z 00000KT 10SM CLR 23/21 A3005 RMK AO2 SLP172 T02280206
     10228 20206 53004=
KACK 081153Z 12011KT 10SM CLR 21/19 A3011 RMK AO2 SLP194 T02110194
     10211 20183 52010=
KADG 081153Z AUTO 00000KT 5SM HZ CLR 23/20 A3006 RMK AO2 SLP172
     T02330200 10239 20211 50002=
KAFW 081153Z 13005KT 10SM -RA FEW012 SCT070 BKN120 26/23 A3002 RMK
     AO2 RAB23 SLP148 P0000 60000 70002 T02560228 10267 20256
     53009=
KAGC 081153Z 00000KT 3SM HZ CLR 23/21 A3010 RMK AO2 SLP186
     T02330206 10261 20211 51006=
KAIA 081153Z AUTO 00000KT 10SM SCT031 BKN046 14/13 A3030 RMK AO2
     SLP237 T01390128 10161 20139 53007 $=
KAKO 081153Z AUTO 14007KT 7SM SCT003 BKN013 OVC022 14/14 A3032 RMK
     AO2 RAB1057E21B39E51 SLP236 P0001 60001 70001 T01440139 10150
     20144 53004 TSNO=
KAMG 081153Z AUTO 29003KT 9SM CLR 23/21 A3002 RMK AO2 SLP163
     T02330206 10233 20206 53006=
KAMW 081153Z AUTO 34007KT 9SM CLR 20/18 A3011 RMK AO2 SLP188 70007
     T02000183 10211 20194 52009=
KAOH 081153Z AUTO 00000KT 5SM HZ 24/21 A3008 RMK AO2 SLP175
     T02390206 10239 20217 50003 $=
KAPA 081153Z 15005KT 6SM BR FEW007 BKN027 BKN120 13/12 A3033 RMK
     AO2 SLP228 70002 T01330117 10144 20128 57005 $=
KAPF 081153Z 04006KT 10SM CLR 26/23 A2997 RMK AO2 SLP148 T02610228
     10261 20244 53008=
KARB 081153Z AUTO 00000KT 7SM SCT065 23/22 A3004 RMK AO2 SLP165
     T02330217 10233 20189 50003=
KASE 081153Z 11004KT 10SM FEW100 09/05 A3037 RMK AO2 SLP195 60010
     70017 T00890050 10106 20072 57002=
KASX 081153Z AUTO 24003KT 10SM CLR 18/17 A3005 RMK AO2 SLP176
     T01780167 10189 20150 53011=
KATY 081153Z AUTO 00000KT 10SM CLR 16/14 A3015 RMK AO2 SLP203
     T01560139 10161 20139 50001=
KAUG 081153Z AUTO VRB03KT 4SM BR OVC003 21/20 A3010 RMK AO2 SLP192
     T02110200 10211 20206 53008=
KAXN 081153Z AUTO 25006KT 10SM CLR 17/16 A3013 RMK AO2 SLP201
     60001 70001 T01720156 10172 20144 53005=
KBAF 081153Z 17005KT 5SM HZ FEW011 SCT080 25/22 A3007 RMK AO2
     SLP178 T02500217 10250 20233 51012=
KBBW 081153Z AUTO 00000KT 10SM BKN090 OVC110 17/16 A3024 RMK AO2
     SLP225 T01720161 10183 20156 51005=
KBCE 081153Z AUTO 00000KT 10SM SCT100 14/00 A3032 RMK AO2 RAB10E20
     SLP145 P0000 60000 70001 T01390000 10183 20083 53003 TSNO=
KBDE 081153Z AUTO 00000KT 10SM CLR 16/12 A3000 RMK AO2 SLP160
     70002 T01560122 10167 20139 50005=
KBFF 081153Z AUTO 00000KT 10SM SCT026 SCT034 OVC055 14/13 A3031
     RMK AO2 SLP234 T01440128 10161 20144 53004=
####018003665####
SAUS99 KWBC 081156 RRE
METAR
KMIA 081153Z 04005KT 10SM FEW023 SCT100 SCT250 28/25 A2995 RMK AO2
     SLP141 70001 T02830250 10283 20272 53008=
KMIC 081153Z 29005KT 10SM CLR 19/16 A3009 RMK AO2 SLP187 70003
     T01890161 10206 20167 53010=
KMIE 081153Z 18003KT 9SM SCT060 26/20 A3007 RMK AO2 SLP170
     T02560200 10256 20211 51002=
KMKO 081153Z AUTO 16003KT 10SM OVC021 23/23 A3005 RMK AO2 SLP167
     60000 70221 T02330228 10239 20233 53008=
KMLB 081153Z 00000KT 10SM CLR 24/22 A2999 RMK AO2 SLP155 T02440222
     10256 20206 53006=
KMLC 081153Z AUTO 19003KT 10SM SCT065 SCT075 24/23 A3004 RMK AO2
     SLP164 70201 T02390228 10239 20239 51008=
KMLS 081153Z AUTO 16005KT 10SM CLR 11/10 A3020 RMK AO2 SLP214
     70001 T01110100 10167 20106 53002=
KMLT 081153Z AUTO VRB03KT 4SM BR OVC007 22/20 A3007 RMK AO2 SLP185
     T02170200 10222 20194 53004=
KMLU 081153Z 00000KT 5SM BR SCT002 25/23 A3006 RMK AO2 SLP178
     70003 T02500233 10256 20244 53009=
KMMK 081153Z AUTO 15004KT 2SM BR OVC010 25/23 A3007 RMK AO2 CIG
     007V012 SLP179 T02500228 10250 20228 52010=
KMNN 081153Z AUTO 19003KT 5SM HZ CLR 22/19 A3009 RMK AO2 SLP182
     T02220194 10222 20194 51004=
KMPO 081153Z AUTO 00000KT 8SM FEW090 25/19 A3012 RMK AO2 SLP182
     T02500189 10250 20183 51006=
KMSO 081153Z 36003KT 10SM CLR 10/06 A3021 RMK AO2 SLP214 T01000056
     10156 20094 53003 $=
KMSP 081153Z 27003KT 10SM CLR 19/17 A3011 RMK AO2 SLP191 70022
     T01890167 10211 20172 53012=
KITR 081153Z AUTO 00000KT 10SM -RA FEW006 OVC011 17/15 A3031 RMK
     AO2 RAB51 CIG 008V014 SLP224 P0000 60000 T01670150 10167
     20156 53006=
KIWI 081153Z AUTO VRB05KT 10SM OVC005 21/19 A3012 RMK AO2 CIG
     003V008 SLP199 T02060189 10206 20194 51011=
KIXD 081153Z 33003KT 4SM BR FEW003 22/21 A3008 RMK AO2 SLP175
     70009 T02170206 10233 20211 53004=
KJEF 081153Z 00000KT 10SM OVC005 24/23 A3005 RMK AO2 CIG 003V008
     SLP162 60021 70030 T02390228 10239 20233 53010=
KJER 081153Z AUTO 06012KT 10SM CLR 14/01 A3012 RMK AO2 SLP165
     T01390011 10178 20122 53002=
KJKL 081153Z AUTO 00000KT 3SM HZ CLR 23/21 A3012 RMK AO2 SLP184
     T02330206 10250 20222 51007=
KJLN 081153Z 01006KT 10SM SCT003 BKN022 OVC100 22/22 A3007 RMK AO2
     TSE1056 SLP171 60086 70090 T02220217 10233 20222 51008=
KLAA 081153Z AUTO 11006KT 10SM -RA FEW005 BKN060 OVC100 17/16
     A3026 RMK AO2 RAB39 SLP208 P0001 60003 70044 T01670161 10189
     20167 53001=
KLAN 081153Z 00000KT 7SM FEW120 SCT180 24/21 A3005 RMK AO2 SLP167
     T02390211 10250 20228 50005=
KLAR 081153Z AUTO 07005KT 6SM BR BKN004 06/06 A3041 RMK AO2 CIG
     001V006 SLP235 70002 T00610061 10094 20056 51005=
KLAW 081153Z AUTO 00000KT 10SM CLR 22/22 A3006 RMK AO2 SLP167
     T02220217 10244 20222 51008=
KLBB 081153Z 01004KT 10SM BKN041 BKN055 BKN100 19/17 A3015 RMK AO2
     SLP165 60000 70001 T01890167 10211 20189 51004=
KLBF 081153Z AUTO 00000KT 10SM CLR 15/14 A3026 RMK AO2 SLP233
     T01500144 10167 20150 53006=
KLEB 081153Z 27003KT 4SM HZ BKN013 25/22 A3007 RMK AO2 SLP168
     T02500217 10250 20211 51007=
KLEE 081153Z 04004KT 10SM CLR 24/22 A3001 RMK AO2 SLP162 T02390217
     10239 20217 53003=
KLHQ 081153Z AUTO 00000KT 2 1/2SM BR CLR 23/21 A3010 RMK AO2
     SLP184 T02280206 10228 20183 53006=
KLHX 081153Z AUTO 04005KT 10SM BKN080 OVC100 16/14 A3030 RMK AO2
     SLP211 6//// 7//// T01610144 10172 20156 53003 PNO $=
KLNS 081153Z 00000KT 3SM HZ CLR 26/21 A3003 RMK AO2 SLP165
     T02610211 10267 20228 51004=
KLOU 081153Z 17003KT 5SM HZ CLR 26/22 A3006 RMK AO2 SLP174
     T02560217 10272 20239 50004=
####018000387####
SAOS31 LOWM 081150
METAR LOWW 081150Z 35005KT 310V030 9999 FEW055 23/10 Q1023 NOSIG=
METAR LOWL 081150Z 07006KT 360V140 CAVOK 24/10 Q1023 NOSIG=
METAR LOWS 081150Z VRB02KT 9999 FEW070 25/08 Q1022 NOSIG=
METAR LOWI 081150Z 08006KT 040V140 9999 FEW080 27/14 Q1021 NOSIG=
METAR LOWG 081150Z VRB03KT CAVOK 27/11 Q1022 NOSIG=
METAR LOWK 081150Z VRB02KT 9999 FEW060 25/10 Q1022 NOSIG=
####018003692####
SAUS99 KWBC 081156 RRA
METAR
KFRG 081153Z 19005KT 9SM BKN012 OVC021 25/23 A3006 RMK AO2 SLP178
     60000 T02500228 10256 20244 53007=
KFST 081153Z AUTO 14004KT 10SM BKN120 22/19 A3008 RMK AO2 SLP135
     T02220194 10228 20217 53005=
KFVE 081153Z AUTO 15005KT 3SM BR OVC003 23/23 A3002 RMK AO2 SLP156
     T02280228 10233 20217 51006=
KFWN 081153Z AUTO 00000KT 4SM HZ CLR 24/21 A3006 RMK AO2 SLP175
     T02440211 10244 20206 51008=
KFXE 081153Z 06006KT 10SM FEW019 29/24 A2994 RMK AO2 SLP142 60000
     T02890239 10289 20272 53009=
KGAG 081153Z AUTO 36006KT 10SM OVC009 21/19 A3015 RMK AO2 RAE1056
     SLP183 P0000 60000 T02060194 10228 20206 53008=
KGCC 081153Z AUTO 17004KT 10SM CLR 10/07 A3029 RMK AO2 SLP230
     T01000067 10117 20078 53002=
KGEY 081153Z AUTO 00000KT 10SM CLR 09/03 A3027 RMK AO2 SLP227
     T00940028 10178 20094 53006=
KGEZ 081153Z AUTO 14003KT 5SM HZ CLR 24/21 A3005 RMK AO2 SLP166
     T02390211 10239 20206 50002=
KGFK 081153Z 24003KT 10SM FEW080 16/13 A3005 RMK AO2 SLP174 7////
     T01560133 10161 20139 53006=
KGFL 081153Z AUTO 00000KT 5SM HZ CLR 26/22 A3003 RMK AO2 SLP166
     T02560222 10256 20200 50004=
KGGW 081153Z AUTO 05004KT 10SM CLR 11/08 A3015 RMK AO2 SLP206
     T01110083 10167 20094 53005 TSNO $=
KGIF 081153Z AUTO 00000KT 10SM CLR 24/22 A3001 RMK AO2 SLP160
     T02390217 10239 20217 52006 TSNO=
KGJT 081153Z 12005KT 10SM CLR 18/07 A3019 RMK AO2 SLP153 T01780067
     10233 20178 53008=
KGKJ 081153Z AUTO 00000KT 9SM CLR 24/18 A3011 RMK AO2 SLP184
     T02440183 10244 20194 50004=
KGLD 081153Z AUTO 36003KT 10SM OVC004 17/16 A3030 RMK AO2 CIG
     003V009 SLP228 T01670161 10172 20167 53006=
KGLR 081153Z AUTO 25008KT 6SM -RA BR FEW019 BKN046 OVC065 22/20
     A3003 RMK AO2 RAB08 SLP161 P0001 60001 70001 T02170200 10233
     20211 53007=
KBGM 081153Z 00000KT 4SM HZ CLR 23/20 A3013 RMK AO2 SLP187
     T02330200 10250 20200 52002=
KBGR 081153Z 18008KT 5SM BR OVC005 21/19 A3010 RMK AO2 SLP191
     60004 7//// T02060194 10211 20194 53012=
KBHK 081153Z AUTO 00000KT 10SM CLR 12/08 A3021 RMK AO2 SLP218
     T01220083 10139 20089 53001=
KBIL 081153Z 25005KT 10SM FEW120 13/05 A3025 RMK AO2 SLP223
     T01280050 10189 20111 53004=
KBKL 081153Z VRB04KT 5SM HZ SCT060 27/18 A3006 RMK AO2 SLP171
     T02670183 10267 20244 53004=
KBMG 081153Z 00000KT 6SM BR FEW070 24/22 A3006 RMK AO2 SLP170
     T02390222 10239 20211 53003=
KBOI 081153Z 13005KT 10SM CLR 18/06 A3006 RMK AO2 SLP151 T01780061
     10217 20178 53004=
KBPI 081153Z AUTO 34007KT 10SM BKN095 05/01 A3040 RMK AO2 SLP220
     T00500006 10128 20044 52002=
KBRD 081153Z AUTO 23005KT 10SM CLR 17/14 A3008 RMK AO2 SLP185
     T01720139 10172 20139 53003=
KBRL 081153Z AUTO 3SM BR OVC002 22/21 A3004 RMK AO2 SLP169 70202
     T02220211 10239 20222 50009 $=
KBTM 081153Z AUTO 14004KT 10SM CLR 04/01 A3033 RMK AO2 SLP238
     T00440006 10128 20044 53005=
KBVO 081153Z AUTO 00000KT 10SM FEW040 22/22 A3005 RMK AO2 SLP165
     T02220217 10233 20217 53005=
KBVY 081153Z 21004KT 10SM CLR 24/20 A3009 RMK AO2 SLP183 6////
     7//// T02390200 10239 20211 51010 PNO=
KBYG 081153Z AUTO 26006KT 10SM CLR 11/02 A3031 RMK AO2 SLP227
     T01060017 10128 20089 53000=
KBYI 081153Z AUTO 10005KT 10SM CLR 11/04 A3014 RMK AO2 SLP169
     T01110039 10144 20083 53004=
KCAG 081153Z AUTO 00000KT 10SM CLR 08/06 A3032 RMK AO2 SLP212
     T00830061 10139 20078 53010=
KCDC 081153Z AUTO 00000KT 10SM SCT120 14/02 A3016 RMK AO2 SLP135
     T01440017 10178 20111 53009 $=
KCDR 081153Z AUTO 23005KT 10SM CLR 09/08 A3030 RMK AO2 SLP258
     T00890078 10128 20083 53007=
####018003648####
SAUS99 KWBC 081156 RRD
METAR
KOJC 081153Z 02003KT 10SM CLR 22/21 A3007 RMK AO2 SLP170 70014
     T02220211 10233 20217 53007=
KOLF 081153Z AUTO 21003KT 10SM FEW085 10/09 A3015 RMK AO2 SLP209
     T01000094 10156 20089 53004=
KOLV 081150Z 00000KT 7SM FEW250 23/23 A3008=
KONO 081153Z AUTO 29006KT 10SM CLR 10/06 A3006 RMK AO2 SLP167
     T01000061 10194 20100 51007=
KOPF 081153Z 35003KT 10SM CLR 28/25 A2995 RMK AO2 SLP143 T02780250
     10278 20261 53008=
KORL 081153Z 03005KT 10SM CLR 24/22 A3000 RMK AO2 SLP161 T02440217
     10244 20222 53003=
KOSU 081153Z 00000KT 4SM HZ CLR 24/21 A3010 RMK AO2 SLP182
     T02390206 10239 20211 53007=
KOTM 081153Z AUTO 33007KT 6SM BR CLR 21/20 A3008 RMK AO2 SLP180
     T02060200 10211 20200 53012=
KOVE 081153Z AUTO 15006KT 10SM CLR 18/12 A2985 RMK AO2 SLP107
     T01780117 10267 20178 53005 TSNO=
KOWD 081153Z 18005KT 10SM CLR 24/19 A3009 RMK AO2 SLP189 T02390189
     10244 20206 51012=
KPBG 081153Z AUTO 13005KT 5SM HZ CLR 26/22 A3001 RMK AO2 SLP161
     60000 T02560222 10256 20211 51005=
KPBI 081153Z 08004KT 6SM -RA BR SCT022 BKN028CB BKN050 26/24 A2996
     RMK AO2 RAB16 SLP143 CB OHD MOV SW P0001 60001 70011
     T02610244 10278 20261 53011=
KPEO 081153Z AUTO 23006KT 5SM HZ CLR 24/21 A3008 RMK AO2 SLP178
     T02390206 10239 20211 51001=
KPGD 081153Z AUTO 04005KT 10SM CLR 24/22 A3001 RMK AO2 SLP163
     T02390222 10239 20222 53010 TSNO=
KPHD 081153Z AUTO 00000KT 3SM HZ CLR 21/18 A3010 RMK AO2 SLP185
     T02110183 10211 20183 50001=
KPIE 081153Z 00000KT 10SM CLR 26/22 A3000 RMK AO2 SLP157 T02560222
     10261 20228 53007=
KPIH 081153Z 00000KT 10SM CLR 06/02 A3018 RMK AO2 SLP184 T00610022
     10156 20050 53005=
KPIR 081153Z AUTO 23006KT 10SM CLR 14/12 A3017 RMK AO2 SLP209
     T01390122 10172 20133 53004=
KVRB 081153Z 00000KT 10SM SCT033 26/23 A2998 RMK AO2 SLP151
     T02610233 10267 20211 53006=
KWRL 081153Z AUTO 00000KT 10SM CLR 09/04 A3028 RMK AO2 SLP227
     T00940039 10161 20094 53005=
KWST 081153Z AUTO 08005KT 10SM FEW008 24/21 A3009 RMK AO2 SLP189
     7//// T02390211 10239 20217 50002=
KYIP 081153Z 00000KT 8SM CLR 26/22 A3005 RMK AO2 SLP165 T02560217
     10256 20222 50003=
KZZV 081153Z AUTO 00000KT 4SM BR SCT065 22/21 A3009 RMK AO2 SLP181
     T02220206 10222 20189 50004=
KLWV 081153Z AUTO 00000KT 3SM HZ CLR 26/23 A3004 RMK AO2 SLP167
     T02560228 10261 20233 51005=
KLXT 081153Z AUTO 07005KT 10SM CLR 22/21 A3007 RMK AO2 SLP174
     70012 T02170206 10233 20217 53006=
KMAE 081153Z AUTO 30005KT 10SM CLR 16/11 A2983 RMK AO2 SLP097
     T01610106 10217 20156 53002=
KMAI 081153Z AUTO 00000KT 1 1/4SM BR OVC001 24/23 A3003 RMK AO2
     SLP166 T02390228 10239 20228 53007=
KMBS 081153Z 24003KT 6SM BR SCT080 SCT110 24/22 A3002 RMK AO2
     RAE23 SLP159 P0000 60000 T02390222 10256 20233 50001=
KMCI 081153Z 34006KT 5SM BR BKN004 22/21 A3007 RMK AO2 SLP173
     70005 T02220211 10228 20217 53005 $=
KMCK 081153Z AUTO 00000KT 10SM SCT070 17/16 A3025 RMK AO2 SLP228
     70001 T01670161 10167 20161 52004=
KMCO 081153Z 01005KT 10SM FEW250 24/21 A3000 RMK AO2 SLP157
     T02440206 10244 20211 53004=
KMCW 081153Z AUTO 33006KT 8SM CLR 18/17 A3013 RMK AO2 SLP194 70005
     T01780172 10200 20172 51010 $=
KMGY 081153Z AUTO 00000KT 4SM HZ FEW060 24/21 A3009 RMK AO2 SLP178
     T02440211 10250 20217 51005=
KMHE 081153Z AUTO 23003KT 10SM CLR 18/14 A3017 RMK AO2 SLP210
     T01830144 10194 20161 52003 TSNO=
KMHT 081153Z 18005KT 3SM HZ BKN012 OVC050 24/21 A3007 RMK AO2 SFC
     VIS 5 SLP189 60000 T02440211 10250 20233 51011=
####018003727####
SAUS99 KWBC 081156 RRF
METAR
KLOZ 081153Z AUTO 00000KT 2SM BR CLR 21/19 A3012 RMK AO2 SLP185
     T02110194 10222 20194 53009=
KLPR 081153Z AUTO 17005KT 7SM FEW065 25/19 A3008 RMK AO2 SLP177
     T02500189 10250 20217 53003=
KLSE 081153Z 32009KT 10SM CLR 22/19 A3005 RMK AO2 SLP164 T02170194
     10228 20194 51008=
KLUK 081153Z 00000KT 1 3/4SM BR CLR 23/22 A3008 RMK AO2 SLP182
     P0001 60001 70001 T02330217 10233 20211 50003=
KLVM 081153Z AUTO 29003KT 10SM CLR 04/02 A3030 RMK AO2 SLP240
     T00440022 10144 20028 53005=
KLWD 081153Z AUTO 01008KT 7SM BKN007 21/20 A3010 RMK AO2 CIG
     003V009 SLP186 70116 T02110200 10217 20200 51006=
KSNY 081153Z AUTO 00000KT 10SM SCT043 BKN050 16/14 A3033 RMK AO2
     SLP235 7//// T01610144 10167 20150 $=
KSPG 081153Z 08005KT 10SM CLR 27/22 A2998 RMK AO2 SLP151 T02670222
     10272 20261 53006=
KSPW 081153Z AUTO 32005KT 7SM CLR 16/14 A3016 RMK AO2 SLP209 70058
     T01610144 10167 20144 53009=
KSRQ 081153Z 08004KT 10SM CLR 24/22 A2998 RMK AO2 SLP152 T02440222
     10250 20228 53008=
KSSI 081153Z AUTO 27004KT 10SM CLR 24/21 A3000 RMK AO2 PK WND
     32038/1104 SLP160 T02390206 10239 20228 53004=
KSTC 081153Z 00000KT 6SM BR CLR 16/14 A3010 RMK AO2 SLP196
     T01610144 10167 20133 51005=
KSTJ 081153Z AUTO 35008KT 6SM BR OVC007 22/21 A3008 RMK AO2 SLP177
     60003 70012 T02220206 10239 20222 53006=
KSTP 081153Z 31004KT 10SM CLR 19/17 A3010 RMK AO2 SLP189 70014
     T01940167 10206 20178 51013=
KSWO 081153Z AUTO 00000KT 6SM BR SCT032 23/21 A3005 RMK AO2 SLP162
     70016 T02280211 10233 20228 53004=
KTDZ 081153Z AUTO 23004KT 8SM CLR 25/19 A3005 RMK AO2 SLP170
     T02500194 10250 20228 50003=
KTHV 081153Z AUTO 00000KT 4SM HZ CLR 26/21 A3004 RMK AO2 SLP169
     T02610211 10261 20206 53006=
KTMB 081153Z 03004KT 10SM FEW017 28/26 A2994 RMK AO2 SLP139
     T02780256 10278 20261 53008=
KTOP 081153Z 34003KT 9SM CLR 22/21 A3008 RMK AO2 SLP176 60071
     70118 T02170206 10222 20211 53007=
KTOR 081153Z AUTO 00000KT 9SM CLR 11/09 A3031 RMK AO2 SLP242 P0001
     60001 70001 T01060094 10150 20100 51006=
KTPA 081153Z 00000KT 10SM SCT200 25/22 A3000 RMK AO2 SLP158
     T02500217 10261 20233 53007=
KTTN 081153Z 00000KT 1 3/4SM HZ CLR 26/23 A3004 RMK AO2 SLP165
     T02610228 10261 20233 51011=
KTUL 081153Z 00000KT 10SM FEW010 SCT033 BKN070 23/23 A3004 RMK AO2
     TSE04RAE1055 SLP164 TS MOV N P0000 60077 70077 T02330228
     10244 20228 52011=
KTVC 081153Z 00000KT 8SM BKN070 OVC095 23/21 A2999 RMK AO2
     RAB1059E42 SLP154 P0000 60000 T02280211 10239 20222 53010=
KTWF 081153Z 11010KT 10SM CLR 14/M03 A3013 RMK AO2 SLP149
     T01441033 10156 20072 53003=
KTYR 081153Z 06003KT 9SM CLR 25/23 A3005 RMK AO2 SLP167 70008
     T02500233 10250 20244 53009=
KUNO 081153Z AUTO 21006KT 10SM CLR 23/21 A3010 RMK AO2 SLP176
     T02330211 10250 20222 53008 TSNO=
KUUU 081153Z AUTO 11005KT 3/4SM BR OVC001 21/21 A3011 RMK AO2
     SLP193 T02110206 10222 20206 53011=
KVEL 081153Z AUTO 09005KT 10SM CLR 13/06 A3024 RMK AO2 SLP187
     T01330056 10189 20133 53008=
KVIH 081153Z AUTO 00000KT 7SM FEW011 BKN033 OVC049 23/22 A3006 RMK
     AO2 LTG DSNT W RAB38E44 SLP167 P0000 60000 70005 T02330217
     10239 20222 53004=
KVPC 081153Z AUTO 00000KT 7SM CLR 22/20 A3007 RMK AO2 SLP169
     T02170200 10217 20189 51007=
KPKB 081153Z 00000KT 1/4SM R03/1200FT FG CLR 21/21 A3012 RMK AO2
     SLP190 VIS SW-W 3/4 T02110206 10217 20194 51007=
KPKD 081153Z AUTO 23003KT 10SM CLR 15/14 A3009 RMK AO2 SLP187
     60001 70001 T01500139 10156 20133 53005=
KPMP 081153Z 06006KT 10SM CLR 28/24 A2995 RMK AO2 SLP143 T02830244
     10283 20272 51009=
####018003734####
SAUS99 KWBC 081156 RRC
METAR
KGOK 081153Z AUTO 00000KT 6SM BR CLR 23/21 A3006 RMK AO2 SLP168
     70022 T02280211 10239 20228 53005=
KGRB 081153Z 00000KT 1 3/4SM BR OVC002 22/21 A3000 RMK AO2 SLP156
     60003 70168 T02170211 10217 20206 52002=
KGRI 081153Z 34005KT 10SM CLR 16/14 A3021 RMK AO2 SLP221 T01610144
     10167 20150 50008=
KGTF 081153Z 21007KT 10SM CLR 09/06 A3023 RMK AO2 SLP223 T00890056
     10139 20067 55001 $=
KGUP 081153Z AUTO 08003KT 10SM CLR 18/07 A3027 RMK AO2 SLP063
     T01780072 10211 20172 53007=
KGUY 081153Z AUTO 01003KT 8SM -RA OVC110 18/17 A3022 RMK AO2
     SLP188 P0002 60043 70043 T01830172 10211 20178 51003=
KHAO 081153Z AUTO 00000KT 2 1/2SM BR CLR 24/22 A3009 RMK AO2
     SLP183 T02390217 10239 20200 50003=
KHEI 081153Z AUTO 29003KT 10SM CLR 11/08 A3020 RMK AO2 SLP218
     T01060078 10117 20083 53005=
KHFD 081153Z 00000KT 3SM HZ OVC010 26/23 A3006 RMK AO2 CIG 007V012
     SLP179 60000 T02560228 10261 20244 52008=
KHIB 081153Z AUTO 00000KT 10SM CLR 13/12 A3005 RMK AO2 SLP177
     P0001 60001 70001 T01280122 10128 20083 53001=
KHLC 081153Z AUTO 03004KT 10SM OVC027 18/16 A3023 RMK AO2 SLP219
     70003 T01780161 10178 20167 53007=
KHLN 081153Z 00000KT 10SM CLR 10/04 A3025 RMK AO2 SLP238 T01000039
     10161 20089 51003=
KHSI 081153Z AUTO 35005KT 10SM CLR 16/14 A3021 RMK AO2 SLP221
     T01560144 10167 20150 51010=
KHUF 081153Z 00000KT 4SM BR CLR 25/23 A3005 RMK AO2 SLP170
     T02500228 10250 20222 53005 $=
KHUL 081153Z AUTO 20007KT 5SM HZ FEW009 22/19 A3004 RMK AO2 SLP169
     T02220194 10222 20200 51007=
KHVN 081153Z 12006KT 6SM HZ FEW004 BKN017 OVC023 25/22 A3007 RMK
     AO2 SLP181 T02500222 10250 20239 51004=
KHVR 081153Z AUTO 24004KT 10SM CLR 08/07 A3020 RMK AO2 SLP221
     T00780067 10139 20072 53003=
KHWO 081153Z AUTO VRB03KT 10SM CLR 26/24 A2996 RMK AO2 SLP146
     T02610244 10261 20250 53008=
KHYR 081153Z AUTO 00000KT 10SM CLR 18/16 A3008 RMK AO2 SLP180
     60000 T01830156 10200 20156 51013=
KHZY 081153Z AUTO 15004KT 6SM HZ CLR 23/21 A3009 RMK AO2 SLP180
     60001 70001 T02330206 10233 20178 50003=
KIAG 081153Z 23006KT 8SM FEW080 26/21 A3005 RMK AO2 SLP167 8/030
     T02560211 10256 20228 51003=
KICR 081153Z AUTO 26004KT 10SM CLR 17/11 A3021 RMK AO2 SLP222
     7//// T01670111 10183 20161 53002 TSNO $=
KICT 081153Z 36007KT 9SM FEW080 SCT120 OVC200 22/21 A3009 RMK AO2
     SLP177 T02220211 10233 20217 51002 $=
KIDA 081153Z AUTO 36008KT 10SM CLR 08/05 A3021 RMK AO2 SLP198
     T00830050 10117 20072 53007=
KIML 081153Z AUTO 00000KT 8SM OVC085 16/14 A3028 RMK AO2 SLP237
     T01610144 10172 20156 53006=
KINK 081153Z AUTO 36006KT 10SM BKN019 22/19 A3009 RMK AO2 SLP146
     60000 7//// T02170194 10239 20211 53011 TSNO=
KMSS 081153Z AUTO 22006KT 6SM HZ CLR 26/22 A3002 RMK AO2 SLP162
     T02610217 10261 20217 51005=
KMTH 081153Z AUTO 06004KT 8SM UP FEW060 BKN100 A2994 RMK AO2
     RAE18UPB47 SLP140 P0002 60007 70100 53010 FZRANO $=
KMTJ 081153Z AUTO 11007KT 10SM CLR 14/05 A3028 RMK AO2 SLP182
     T01390050 10211 20139 53001=
KMTO 081153Z AUTO 21003KT 8SM CLR 24/23 A3005 RMK AO2 SLP167
     T02440228 10250 20233 53005=
KMVY 081153Z 14009KT 10SM CLR 24/21 A3010 RMK AO2 SLP191 T02390206
     10239 20211 53005=
KMWL 081153Z AUTO 10SM FEW085 23/22 A3002 RMK AO2 SLP150 70016
     T02330222 10244 20222 53006 $=
KODX 081153Z AUTO 00000KT 10SM BKN090 BKN110 17/16 A3022 RMK AO2
     SLP228 T01670156 10167 20144 53008=
KOGB 081153Z AUTO 32006KT 10SM CLR 25/19 A2999 RMK AO2 SLP152
     T02500194 10261 20233 53004=
KOGD 081153Z 18007KT 10SM CLR 17/07 A3011 RMK AO2 SLP141 T01670067
     10211 20167 53006=
####018003749####
SAUS99 KWBC 081156 RRJ
METAR
KINT 081154Z 02004KT 10SM CLR 27/18 A3005 RMK AO2 SLP160 T02670178
     10278 20233 51008=
KISM 081150Z 01004KT 10SM SKC 24/22 A3002=
KISW 081154Z AUTO 00000KT 10SM CLR 20/19 A3005 RMK AO2 SLP170
     70004 T02000189 10222 20189 53011 TSNO=
KIWD 081155Z AUTO 32006KT 10SM FEW048 SCT060 17/15 A3002 RMK AO1
     10180 20150 52010=
KJHW 081155Z AUTO 00000KT 6SM CLR 22/19 A3012 RMK AO1 10220
     20190=
KKLS 081155Z AUTO 35003KT 10SM CLR 16/13 A2994 RMK AO1 10220 20150
     52010=
KLAF 081154Z 00000KT 3SM BR BKN065 24/22 A3004 RMK AO2 SLP166
     7//// T02390222 10244 20217 53002=
KLBE 081150Z 00000KT 4SM BR SCT150 21/18 A3011=
KLBL 081155Z 01007KT 5SM OVC006 19/17 A3023 RMK AO1 P0001 60001
     70007 10210 20190 52007=
KLBT 081154Z AUTO 01005KT 9SM CLR 27/18 A2995 RMK AO2 SLP139
     T02670183 10278 20239 52009=
KLEX 081154Z 00000KT 3SM HZ CLR 24/19 A3010 RMK AO2 SLP180
     T02390194 10244 20211 51006=
KLGD 081155Z AUTO 00000KT 10SM CLR 10/04 A3006 RMK AO1 10170 20090
     52003=
KLKV 081155Z AUTO 34003KT 10SM CLR 11/00 A3012 RMK AO1 10190 20090
     54000=
KLNK 081154Z 34007KT 10SM BKN034 18/17 A3017 RMK AO2 SLP207 70006
     T01830167 10206 20178 53006=
KLPC 081155Z AUTO 00000KT 9SM OVC008 13/11 A2992 RMK AO1 10140
     20130 54000 PNO=
KLUX 081155Z AUTO 00000KT 10SM CLR 24/24 A3004 RMK AO2=
KLWT 081154Z AUTO 13007KT 10SM CLR 07/05 A3026 RMK AO2 SLP231
     T00720050 10100 20072 56001=
KLYH 081154Z 02003KT 6SM HZ CLR 27/19 A3006 RMK AO2 SLP166
     T02670189 10267 20228 53006=
KMBL 081155Z AUTO 00000KT 4SM BKN008 OVC046 22/20 A3002 RMK AO1
     P0002 10220 20210=
KMER 081155Z AUTO 33006KT 10SM CLR 16/11 A2983 RMK AO1=
KMFI 081154Z AUTO 32006KT 3SM BR OVC003 19/19 A3003 RMK AO2 SLP164
     T01940189 10200 20183 51008=
KMKC 081154Z 01003KT 10SM CLR 23/20 A3006 RMK AO2 SLP170 70011
     T02330200 10233 20217 53006=
KMKT 081155Z 00000KT 10SM CLR 17/16 A3013 RMK AO1 70093 10190
     20160 52014=
KMML 081155Z AUTO 27007KT 10SM CLR 16/13 A3014 RMK AO1 10160 20140
     52003=
KMNI 081155Z AUTO 34004KT 7SM BKN095 26/23 A2997 RMK AO2=
KMNM 081155Z AUTO 28004KT 5SM BKN004 OVC019 21/19 A2999 RMK AO1
     60001 70021 10210 20210 52007=
KMOT 081154Z AUTO 24005KT 10SM SCT080 BKN090 15/11 A3010 RMK AO2
     SLP193 70001 T01500111 10172 20133 53007 TSNO=
KSKX 081155Z AUTO 33004KT 10SM CLR 11/06 A3039 RMK AO1 10150 20100
     52003=
KSLG 081155Z AUTO 12004KT 10SM OVC021 23/21 A3008 RMK AO1 10240
     20220 52007=
KSMN 081155Z AUTO 00000KT 10SM CLR 07/01 A3027 RMK AO1 10140 20060
     52017=
KSOW 081150Z AUTO 13005KT 9SM BKN100 19/03 A3025 RMK AO2=
KSPA 081155Z AUTO 35005KT 10SM CLR 25/22 A3003 RMK AO2=
KSPL 081155Z AUTO 36007G17KT 27/26 A2976 RMK AO2 PWINO PNO=
KSQI 081155Z 28003KT 5SM SCT005 OVC012 23/22 A3006 RMK AO1 60002
     70017 10230 20220 52010=
KSUE 081155Z AUTO 27005KT 10SM OVC009 21/21 A3000 RMK AO1 60003
     70051 10210 20200 52014=
KSUN 081151Z AUTO 30010G16KT 10SM CLR 10/00 A3024 RMK AO2=
KSUS 081154Z 28003KT 8SM -RA FEW001 BKN024 OVC038 24/23 A3004 RMK
     AO2 RAB51 SLP162 P0000 60005 70020 T02440233 10256 20239
     51007=
KSZT 081150Z AUTO 00000KT 10SM CLR 08/07 A3011 RMK AO2=
KTIF 081150Z AUTO 00000KT 10SM SCT120 15/14 A3027 RMK AO2
     T01460137 10160 20145=
KTQE 081154Z AUTO 34006KT 9SM CLR 18/17 A3016 RMK AO2 SLP201
     T01830172 10200 20172 53010=
KTRK 081150Z AUTO 00000KT 10SM CLR 08/07 A3016 RMK AO2=
KTVF 081155Z AUTO 23006KT 10SM CLR 14/12 A3006 RMK AO1 10160 20130
     52010=
KUIN 081154Z AUTO 00000KT 6SM BR OVC004 23/22 A3005 RMK AO2 SLP167
     60009 70172 T02280222 10228 20228 51008=
####018003682####
SAUS99 KWBC 081156 RRG
METAR
KPNC 081153Z AUTO 00000KT 10SM SCT026 22/21 A3006 RMK AO2 SLP168
     70005 T02220211 10228 20217 53004=
KPOF 081153Z AUTO 21004KT 7SM CLR 25/24 A3005 RMK AO2 SLP170
     T02500239 10256 20244 51006 $=
KPOU 081153Z 00000KT 5SM HZ SCT110 26/22 A3004 RMK AO2 SLP166
     T02610222 10261 20217 51009=
KPTK 081153Z 25004KT 9SM FEW140 SCT250 26/21 A3004 RMK AO2 SLP162
     T02610211 10267 20239 50003=
KPUB 081153Z 00000KT 10SM CLR 14/13 A3030 RMK AO2 SLP215 60001
     70034 T01390128 10156 20139 58009=
KPUC 081153Z AUTO 12007KT 10SM CLR 14/02 A3023 RMK AO2 SLP171
     T01390017 10194 20139 53006 TSNO=
KPUW 081153Z AUTO 00000KT 10SM CLR 09/06 A3008 RMK AO2 SLP176
     T00890061 10128 20089 53002=
KRHI 081153Z AUTO 00000KT 10SM CLR 19/17 A3005 RMK AO2 SLP171
     70040 T01940172 10200 20167 53009=
KRIW 081153Z AUTO 30006KT 10SM CLR 07/04 A3035 RMK AO2 SLP233
     T00720039 10150 20072 51004=
KRME 081153Z 00000KT 7SM CLR 24/21 A3007 RMK AO2 SLP177 6////
     7//// T02440206 10322 20211 $=
KRSL 081153Z AUTO 35007KT 10SM BKN015 OVC033 18/18 A3018 RMK AO2
     SLP205 70007 T01830178 10194 20183 53009=
KRSW 081153Z 03003KT 10SM CLR 25/23 A2998 RMK AO2 SLP149 T02500228
     10250 20233 53010=
KRVS 081153Z 00000KT 10SM FEW048 BKN075 23/22 A3004 RMK AO2 SLP175
     60238 70239 T02280222 10250 20228 51012=
KRWF 081153Z AUTO 28005KT 10SM CLR 16/14 A3013 RMK AO2 SLP200
     T01610144 10167 20150 53006=
KRWI 081153Z AUTO 04003KT 5SM HZ CLR 26/21 A2998 RMK AO2 SLP150
     T02560206 10256 20222 51013=
KRWL 081153Z AUTO 08010KT 9SM OVC005 09/08 A3039 RMK AO2 SLP228
     T00890078 10100 20072 53006=
KRXE 081153Z AUTO 05005KT 10SM CLR 08/05 A3023 RMK AO2 SLP205
     T00780050 10128 20078 53009=
KSBM 081153Z AUTO 00000KT 9SM OVC012 22/21 A3000 RMK AO2 SLP156
     60002 70121 T02220211 10228 20217 $=
KSEG 081153Z AUTO 00000KT 5SM HZ CLR 27/18 A3005 RMK AO2 SLP172
     T02670183 10267 20211 51004=
KSHR 081153Z AUTO 21004KT 10SM CLR 07/05 A3027 RMK AO2 SLP235
     T00720050 10100 20061 53002=
KSLC 081153Z 15006KT 10SM FEW090 SCT130 18/07 A3010 RMK AO2 SLP140
     VIRGA N AND DSNT W AND NW T01830067 10211 20167 53007=
KSLN 081153Z 35009KT 5SM BR SCT006 BKN016 21/19 A3012 RMK AO2
     SLP189 70001 T02060194 10228 20206 51004=
KSMQ 081153Z AUTO 00000KT 4SM HZ OVC009 25/22 A3003 RMK AO2 SLP167
     T02500222 10250 20211 51011=
KAAO 081154Z AUTO 02004KT 9SM BKN006 BKN011 22/21 A3009 RMK AO2
     SLP177 70138 T02170206 10228 20211 51004=
KAEG 081155Z AUTO 00000KT 10SM FEW120 15/08 A3029 RMK AO1=
KAFJ 081155Z AUTO 00000KT 2 1/2SM CLR 21/19 A3012 RMK AO1 10210
     20170=
KAIZ 081155Z AUTO 00000KT 10SM BKN015 BKN024 OVC060 22/21 A3008
     RMK AO1 LTG DSNT E 60013 70087 10230 20220 52010=
KAKH 081154Z AUTO 35004KT 10SM CLR 27/17 A3003 RMK AO2 SLP160
     T02670172 10267 20211 51009=
KALN 081150Z 00000KT 7SM BKN033 OVC075 25/25 A3004=
KALO 081154Z AUTO 33007KT 10SM CLR 19/19 A3008 RMK AO2 SLP180
     70099 T01940189 10206 20189 51014=
KAPC 081154Z AUTO 26010KT 10SM OVC008 12/11 A2990 RMK AO2 SLP117
     T01170106 10128 20117 55002=
KARA 081153Z 06007KT 3SM BR BKN003 25/24 A3001 RMK AO2 SLP162
     7//// T02500244 10250 20244 51008=
KARG 081155Z AUTO 19006KT 10SM CLR 24/22 A3006 RMK AO1 10260 20240
     52003=
KAUO 081155Z AUTO 32005KT 10SM CLR 26/22 A3004 RMK AO1 10270 20240
     52003=
KAUW 081154Z AUTO 33004KT 9SM OVC006 19/18 A3002 RMK AO2 SLP164
     60002 7//// T01940183 10206 20189 51011=
KAVL 081154Z 34003KT 8SM CLR 21/18 A3016 RMK AO2 SLP181 T02110178
     10211 20178 53008=
####018000090####
SAOS32 LOWM 081150
METAR LOXZ 081150Z VRB04KT 70KM FEW060CU 24/08 Q1023 NOSIG RMK FEW=
####018003667####
SAUS99 KWBC 081156 RRI
METAR
KGPZ 081155Z AUTO 24005KT 10SM CLR 17/14 A3006 RMK AO1 10170 20120
     52003=
KHEF 081155Z AUTO 00000KT 7SM OVC100 27/21 A3002 RMK AO1 10270
     20220 52010=
KHEZ 081155Z AUTO 00000KT 7SM CLR 22/21 A3006 RMK AO1 70006 10240
     20210 52010=
KHNB 081155Z AUTO 00000KT 6SM CLR 24/22 A3007 RMK AO1 10240 20220
     52007=
KHWD 081154Z AUTO 28006KT 10SM OVC007 14/12 A2991 RMK AO2 SLP138
     T01390117 10144 20139 56004=
KHYS 081155Z AUTO 02007KT 10SM SCT018 BKN025 OVC035 18/16 A3020
     RMK AO1 70100 10190 20180 52010=
KMRF 081155Z AUTO 36004KT 10SM FEW120 16/14 A3019 RMK AO1 70001
     10190 20150 52010=
KMRY 081154Z AUTO 00000KT 10SM OVC006 13/10 A2993 RMK AO2 SLP146
     T01280100 10139 20128 55003=
KMTW 081155Z 00000KT 7SM CLR 22/21 A3000 RMK AO1 10220 20210
     52010=
KMVN 081155Z AUTO 00000KT 8SM CLR 24/22 A3006 RMK AO1 10240 20210
     52003=
KOFP 081154Z AUTO 07003KT 5SM HZ FEW080 28/21 A3002 RMK AO2 SLP162
     T02830211 10283 20233 53005=
KOKK 081155Z AUTO 18003KT 4SM SCT060 BKN070 OVC100 24/18 A3005 RMK
     AO1 10240 20220=
KOLM 081154Z AUTO 00000KT 10SM CLR 12/11 A2995 RMK AO2 SLP142
     T01170106 10200 20117 51004=
KOLS 081154Z AUTO 00000KT 10SM CLR 24/08 A2999 RMK AO2 SLP075
     T02390078 10289 20228 53004=
KOLU 081155Z AUTO 00000KT 10SM OVC090 17/15 A3020 RMK AO1 70008
     10170 20160 52014=
KOTG 081155Z AUTO 27006KT 10SM CLR 16/14 A3017 RMK AO1 10160 20140
     52010=
KOTH 081155Z 00000KT 10SM OVC006 10/08 A3000 RMK AO1 70004 10110
     20090 54000=
KPHF 081154Z 08007KT 10SM FEW016 26/24 A3000 RMK AO2 SLP158 60000
     T02610239 10261 20239 53014=
KPIA 081154Z 22003KT 3SM BR BKN004 OVC014 23/22 A3004 RMK AO2 CIG
     002V007 SLP166 60002 70077 T02330222 10233 20228 51003=
KPIB 081155Z AUTO 00000KT 9SM CLR 24/21 A3006 RMK AO1 10240 20220
     52010=
KPLN 081154Z AUTO VRB03KT 7SM OVC007 22/21 A2999 RMK AO2 RAE27 CIG
     005V010 SLP153 P0000 60000 70051 T02170211 10222 20211
     53009=
KPSO 081155Z AUTO 00000KT 10SM CLR 08/05 A3040 RMK AO2=
KPTN 081155Z AUTO 08004KT 10SM CLR 25/M08 A3002 RMK AO1 70011
     10250 20240 52003=
KPTV 081155Z AUTO 17004KT 10SM CLR 17/11 A2985 RMK AO1 10230 20170
     52003=
KPVC 081155Z 17009KT 10SM CLR 24/21 A3011 RMK AO1 10240 20210
     52007=
KPVU 081155Z 00000KT 8SM CLR 17/09 A3014 RMK AO1 10210 20140
     52007=
KPWT 081155Z AUTO 03008KT 10SM CLR 21/07 A2998 RMK AO1 10240 20210
     52003=
KRBL 081154Z AUTO 17004KT 10SM CLR 22/14 A2983 RMK AO2 SLP097
     T02170144 10283 20217 53002=
KRKS 081154Z AUTO 06011KT 10SM FEW120 08/06 A3035 RMK AO2 SLP219
     T00830056 10128 20078 51005=
KRST 081154Z 32007KT 7SM CLR 18/17 A3012 RMK AO2 SLP195 T01830172
     10206 20172 51015=
KSBY 081154Z 10007KT 10SM CLR 26/23 A3002 RMK AO2 SLP166 T02560228
     10256 20239 51010=
KSET 081154Z AUTO 20003KT 8SM BKN006 BKN038 OVC060 24/24 A3004 RMK
     AO2 CIG 003V011 SLP166 60002 70005 T02440239 10261 20239
     51011=
KSGT 081155Z 00000KT 10SM CLR 23/22 A3008 RMK AO1 70004 52014=
KSGU 081155Z AUTO 00000KT 10SM CLR 24/01 A2997 RMK AO1 10310 20230
     52010=
KSJN 081154Z AUTO 11004KT 10SM OVC100 20/06 A3019 RMK AO2 SLP119
     T02000056 10244 20200 53007=
KILN 081154Z AUTO 00000KT 3SM HZ CLR 24/21 A3010 RMK AO2 SLP178
     T02390211 10239 20200 51003=
KIMT 081154Z AUTO 32003KT 10SM BKN008 OVC014 21/19 A3001 RMK AO2
     CIG 002V012 SLP158 70006 T02060194 10206 20194 51013=
KIND 081154Z 16003KT 7SM SCT060 SCT110 BKN210 26/21 A3004 RMK AO2
     SLP162 TCU DSNT W T02610211 10261 20244 51002=
####018001656####
SAUS99 KWBC 081156 RRL
METAR
PANT 081153Z 33008KT 10SM CLR 17/11 A3007 RMK AO2 SLP181 T01720111
     10206 20167 51004=
PAOM 081153Z 33008KT 10SM SCT200 13/08 A3008 RMK AO2 SLP187
     T01280078 10194 20128 58002=
PAOR 081153Z 00000KT 10SM FEW070 09/08 A3007 RMK AO2 SLP185
     T00940083 10183 20083 58003=
PAOT 081153Z 28009KT 10SM FEW038 SCT090 BKN200 11/07 A3011 RMK AO2
     SLP198 T01110072 10128 20111 58004=
PAPB 081153Z AUTO 09017KT 10SM OVC048 07/06 A2991 RMK AO2 SLP115
     T00720056 10083 20072 58002 TSNO=
PAQT 081153Z AUTO 23009KT 10SM CLR 08/06 A3006 RMK AO2 SLP181
     70004 T00780056 10139 20072 51004 TSNO=
PASC 081153Z 24010KT 10SM OVC230 08/06 A3002 RMK AO2 SLP167 70003
     T00830061 10111 20083 51006=
PASI 081153Z 00000KT 3/4SM BR OVC002 13/12 A3017 RMK AO2 SLP217
     70001 T01280122 10144 20128 58004=
PASN 081153Z 07013KT 10SM OVC044 05/05 A2994 RMK AO2 SLP137
     T00500050 10067 20050 58003=
PASO 081153Z AUTO 00000KT 10SM -RA FEW008 OVC060 10/09 A2990 RMK
     AO2 RAE19B45 SLP127 P0000 60001 70036 T01000094 10122 20100
     51005 TSNO=
PATK 081153Z AUTO 09004KT 10SM FEW120 12/11 A2998 RMK AO2 SLP154
     T01220106 10183 20122 56007 TSNO=
PATO 081153Z AUTO 09017G38KT 4SM -RA FEW025 BKN034 OVC042 13/10
     A2999 RMK AO2 PK WND 08044/1123 SLP155 P0004 60090 70172
     T01280100 10133 20117 58008 TSNO $=
PAWD 081153Z AUTO 00000KT 10SM FEW010 OVC065 11/09 A2995 RMK AO2
     SLP141 60010 70091 T01060094 10106 20094 56009 TSNO=
PAYA 081153Z 00000KT 10SM BKN110 11/09 A3018 RMK AO2 SLP219 BAY
     TWR WND 130MMKT 60000 70004 T01110094 10144 20106 58002=
####018003676####
SAUS99 KWBC 081156 RRK
METAR
KUTA 081155Z AUTO 00000KT 10SM CLR 24/22 A3007 RMK AO2=
KUZA 081154Z AUTO 36003KT 10SM CLR 25/19 A3003 RMK AO2 SLP152
     T02500189 10256 20211 53008=
KVBT 081155Z AUTO 00000KT 10SM OVC022 23/21 A3006 RMK AO1 60001
     70044 10240 20230 52010=
KVIS 081155Z AUTO 27003KT 10SM CLR 18/12 A2982 RMK AO1 10250 20180
     52007=
KVTA 081154Z AUTO 00000KT 4SM BR FEW065 22/19 A3009 RMK AO2 SLP181
     T02170194 10217 20183 53003=
KWLD 081154Z AUTO 34006KT 10SM CLR 22/21 A3008 RMK AO2 SLP175
     60001 70161 T02170206 10228 20217 53001=
KX40 081155Z AUTO 00000KT 10SM CLR 24/23 A3002 RMK AO2
     T02350228=
KXFL 081152Z 00000KT 8SM CLR 24/22 A3001=
KYKN 081155Z AUTO 19004KT 10SM CLR 18/15 A3019 RMK AO1 10180 20160
     52010=
PAAQ 081153Z AUTO 00000KT 10SM OVC100 11/09 A2999 RMK AO2 SLP151
     60000 T01110094 10150 20111 58011 TSNO=
PABE 081153Z 36004KT 10SM OVC120 10/10 A3001 RMK AO2 SLP171 70004
     T00980095 10150 20089 51005 PNO $=
PABI 081153Z AUTO 00000KT 10SM CLR 11/07 A3008 RMK AO2 SLP188
     T01060072 10189 20106 58002 TSNO=
PABR 081153Z 24018KT 10SM FEW150 SCT190 06/03 A2997 RMK AO2 SLP150
     T00610033 10061 20050 CHINO NE $=
PABT 081153Z 00000KT 10SM SCT120 11/09 A3007 RMK AO2 SLP190
     T01060094 10189 20106 51003=
PACD 081153Z 09004KT 10SM FEW050 SCT180 06/05 A2990 RMK AO2 SLP126
     T00560050 10106 20044 58013=
PACV 081153Z 17010G14KT 10SM OVC036 14/11 A3009 RMK AO2 RAE1059
     SLP189 P0000 60003 70019 T01390106 10167 20139 51003=
PADE 081153Z AUTO 20007KT 10SM CLR 03/03 A3013 RMK AO2 SLP204
     T00330028 10111 20033 58004 TSNO=
PADQ 081153Z 28005KT 10SM FEW020 OVC033 11/09 A2985 RMK AO2
     RAB12E21 SLP109 P0000 60008 70087 T01060089 10106 20100 51005
     $=
PAEG 081153Z AUTO 00000KT 10SM CLR 04/03 A3005 RMK AO2 SLP179
     T00390028 10183 20033 51010 TSNO=
PAEN 081153Z AUTO 02012KT 10SM FEW065 14/12 A2993 RMK AO2 SLP137
     60000 70005 T01390117 10156 20139 58012 TSNO=
PAFA 081153Z 00000KT 10SM FEW200 11/07 A3004 RMK AO2 SLP175
     T01060072 10222 20100 52001=
PAGK 081153Z AUTO 00000KT 10SM CLR 06/04 A3006 RMK AO2 SLP186
     70004 T00610044 10172 20056 58004 TSNO=
PAGY 081153Z AUTO 00000KT 10SM CLR 09/09 A3020 RMK AO2 SLP226
     T00940089 10139 20094 57003 TSNO=
PAHO 081153Z AUTO 00000KT 10SM FEW055 BKN090 OVC120 11/09 A2992
     RMK AO2 SLP132 70026 T01060094 10133 20106 53010 TSNO=
PAIL 081153Z AUTO 13003KT 9SM FEW001 BKN080 OVC095 09/08 A2993 RMK
     AO2 RAB33E44 SLP136 P0000 60000 70042 T00890083 10117 20083
     55002 TSNO=
PAJN 081153Z 00000KT 10SM FEW230 09/08 A3018 RMK AO2 SLP218
     T00940083 10150 20094 57004=
PAKT 081153Z AUTO VRB05KT 10SM CLR 17/11 A3008 RMK AO2 SLP187
     T01720111 10211 20161 53003 TSNO=
PAKV 081153Z AUTO 22003KT 10SM CLR 06/04 A3010 RMK AO2 SLP195
     60000 T00610044 10183 20061 51003 TSNO=
PAKW 081153Z AUTO 18003KT 10SM CLR 10/08 A3013 RMK AO2 SLP201
     T01000083 10139 20100 57001 TSNO=
PALH 081153Z 00000KT 9SM -RA FEW055 OVC080 13/11 A2998 RMK AO2
     RAB29 SLP154 P0000 60002 70004 T01330106 10150 20128
     57009=
PAMC 081153Z 00000KT 10SM SCT080 BKN200 11/09 A2999 RMK AO2 SLP156
     T01060089 10200 20106 52001=
PAMR 081153Z 00000KT 10SM FEW060 SCT080 BKN090 BKN200 12/11 A2998
     RMK AO2 RAB01E50 SLP152 P0000 6//// 7//// T01220106 10150
     20117 56008 $=
PANC 081153Z 00000KT 8SM RA BKN075 BKN200 12/11 A2997 RMK AO2
     SLP150 P0001 60001 70002 T01170111 10133 20111 56009=
PANN 081153Z AUTO 00000KT 10SM CLR 09/08 A3001 RMK AO2 SLP168
     T00940078 10217 20089 58003 TSNO=
####018000090####
SAFI32 EFHK 081150 RRA
EFHF 081150Z 36004KT 300V110 9999 FEW042TCU SCT050 28/18 Q1013=
####018000735####
SAGL41 BGSF 081150
METAR BGSF 081150Z VRB03KT 9999 FEW070 14/01 Q1008=
METAR BGBW 081155Z NIL=
METAR BGGH 081155Z NIL=
METAR BGJN 081150Z 32004KT 280V040 9999 0600NE PRFG FEW001 07/04 
Q1009 RMK 1ST =
METAR BGKK 081150Z VRB05KT 9999 FEW080 SCT120 08/03 Q1009=
METAR BGCO 081150Z 02018KT 9999 SCT071 SCT120 BKN220 09/02 Q1008=
METAR BGSS 081150Z 25003KT 0900 FG VV002 04/04 Q1008=
METAR BGAA 081150Z 33002KT 0400 FG VV002 04/03 Q1009=
METAR BGUQ 081150Z 07011KT 9999 VCFG SKC 10/06 Q1009=
METAR BGMQ 081150Z 17005KT 1200 BR VV003 05/05 Q1009=
METAR BGUK 081150Z VRB01KT 9999 SKC 07/03 Q1009=
METAR BGQQ 081150Z 22002KT 4000 BR BKN002 04/// Q1010 RMK 7ST 
=
METAR BGPT 081150Z 31004KT 260V340 0400 FG VV003 04/04 Q1009=
####018000379####
SABX31 EBBR 081150
METAR EBAW 081150Z 23006KT 200V290 CAVOK 29/13 Q1019 NOSIG=
METAR EBBR 081150Z 26005KT 190V320 CAVOK 29/11 Q1019 NOSIG=
METAR EBCI 081150Z 24007KT 200V330 CAVOK 30/10 Q1020 NOSIG=
METAR EBLG 081150Z 27006KT 210V330 CAVOK 30/09 Q1020 NOSIG=
METAR EBOS 081150Z 35006KT CAVOK 21/16 Q1020 NOSIG=
METAR ELLX 081150Z 20006KT 140V310 CAVOK 29/08 Q1021 NOSIG=
####018000310####
SAFI33 EFHK 081150
EFJO 081150Z AUTO 03004KT 300V100 CAVOK 27/18 Q1014=
EFLP 081150Z AUTO 15006KT 100V230 CAVOK 31/14 Q1014=
EFMI 081150Z AUTO VRB01KT 9999 BKN042 28/17 Q1014=
EFSA 081150Z 11003KT CAVOK 30/17 Q1014=
EFUT 081150Z 15009KT 130V210 9999 VCSH FEW050TCU 30/16 Q1013=
METAR EFVR 081155Z NIL=
####018000068####
SABZ22 SBCY 081200
METAR SBCY 081200Z 01010KT CAVOK 23/14 Q1015=
####018000091####
SAFJ31 NFFN 081200
METAR NFFN 081200Z 11004KT 40KM FEW030 21/19 Q1014 NOSIG RMK RR NIL=
####018000080####
SAAL41 DAMM 081100 RRD
METAR DAUA 081100Z 01026KT 4000 DRSA NSC 43/08 Q1014=
####018000080####
SAAL32 DAAA 081100 RRA
METAR DAUA 081100Z 01026KT 4000 DRSA NSC 43/08 Q1014=
####018000349####
SAMX42 MMGL 081155
METAR MMAS 081145Z 00000KT 8SM  SCT020 BKN070 OVC200 17/14 A3008 
      RMK SLP047 8/537 HZ=
METAR MMGL 081141Z 00000KT 10SM  SCT010 BKN080 OVC300 19/16 A3003 
      RMK SLP040 52003 901 8/577=
METAR MMIA 081140Z 00000KT 5SM HZ BKN030 20/18 A2991 
      RMK SLP///  6//// 8/700 9//=
METAR MMLO 081145Z 00000KT gFQ
####018000154####
SAKA31 PTYA 081200
METAR PTYA 081152Z 08009KT 12SM SCT016 SCT030 BKN130 OVC300 28/23
A2988 RMK SLP118 60001 70001 8/878 T02800228 10320 20261 51015=
####018000108####
SAUK31 EGGY 081150 CCA
METAR COR EGLL 081150Z 24006KT 200V290 9999 SCT021 SCT033 22/15
    Q1019 NOSIG=
####018000412####
SANO37 ENMI 081150
METAR ENNO 081150Z NIL=
METAR ENOV 081150Z 26007KT 210V330 9999 VCSH FEW040CB SCT052 SCT085
           18/07 Q1010 =
METAR ENSD 081150Z NIL=
METAR ENSG 081150Z 24008G18KT 170V290 9999 SCT055 18/07 Q1012=
METAR ENSN 081150Z 18010KT 120V210 8000 BKN007 OVC009 17/14 Q1016=
METAR ENSR 081150Z 32008KT 9999 FEW050 SCT070 19/10 Q1011=
METAR ENSS 081150Z 14006KT 9999 BKN025 10/08 Q1018 =
####018000635####
SANO32 ENMI 081150
METAR ENAL 081150Z 26006KT 220V300 9999 SHRA FEW030TCU BKN055 15/11
           Q1010=
METAR ENCN 081150Z 17005KT 9000 BKN035 17/16 Q1016=
METAR ENHD 081150Z 20012KT 9999 FEW020 SCT210 16/12 Q1014=
METAR ENRO 081150Z AUTO 19003KT 120V250 9999NDV BKN068/// BKN100///
           OVC200/// 17/06 Q1011=
METAR ENRY 081150Z 18012KT 9000 -SHRA SCT007 BKN010 17/15 Q1016 TEMPO
           BKN007=
METAR ENSB 081150Z 27012KT 9999 FEW015 SCT025 BKN035 09/05 Q1009
           NOSIG =
METAR ENTC 081150Z 33003KT 260V040 9999 FEW065 SCT082 19/07 Q1011=
METAR ENTO 081150Z 18012KT 9999 -DZ SCT005 BKN007 16/15 Q1016=
####018000082####
SAEW LEMO 081200
METAR LEMO 081200Z 26005KT 200V330 CAVOK 30/19 
Q1016 NOSIG=
####018000153####
SAUS46 KSGX 081155
MTRRNM
METAR KRNM 081153Z AUTO 31003KT 5SM BR OVC004 14/13 A2990 RMK AO2 
CIG 002V006 SLP115 T01390128 10150 20139 55001 TSNO
####018000081####
SABZ21 SBFZ 081200
METAR SBFZ 081200Z 14009KT 9999 FEW018 BKN090 27/20 Q1015=
####018000148####
SAUS41 KLWX 081155
MTRNAK
METAR KNAK 081154Z AUTO 12005KT 2 1/2SM HZ CLR 27/23 A3001 RMK AO2 
SLP165 6//// 7//// T02670233 10289 20256 TSNO
####018000300####
SANO38 ENMI 081150
METAR ENDR 081150Z NIL=
METAR ENEK 081150Z 24011KT CAVOK 16/12 Q1015 W15/S3=
METAR ENGC 081150Z 19025KT CAVOK 13/11 Q1009=
METAR ENHE 081150Z 20019KT 9999 BKN040 14/11 Q1009=
METAR ENOA 081150Z 19023KT 9999 FEW045 13/11 Q1010=
METAR ENSL 081150Z 22022KT CAVOK 14/10 Q1012=
####018003673####
SAUS70 KWBC 081200 RRD
METAR
KAOO 081153Z AUTO 00000KT 3SM HZ CLR 23/18 A3011 RMK AO2 SLP184
     T02280178 10228 20183 52003=
KASD 081153Z AUTO 03003KT 7SM BKN001 24/23 A3003 RMK AO2 SLP168
     T02440233 10250 20233 53011=
KAUN 081150Z AUTO 10004KT 10SM CLR 21/14 A2987 RMK AO1=
KAUS 081153Z 04007KT 9SM BKN012 OVC021 26/24 A2996 RMK AO2 SLP133
     60013 70013 T02560239 10267 20256 53003=
KAWM 081153Z AUTO 00000KT 10SM CLR 24/23 A3006 RMK AO2 SLP174
     T02440228 10256 20233 52004=
KAZO 081153Z 00000KT 5SM HZ CLR 24/21 A3005 RMK AO2 SLP167
     T02440211 10244 20222 50002=
KBEH 081153Z AUTO 00000KT 10SM BKN095 24/22 A3003 RMK AO2 SLP164
     T02390217 10239 20222 56002 $=
KBFD 081153Z AUTO 00000KT 6SM BR CLR 21/18 A3016 RMK AO2 SLP194
     T02060183 10206 20156 51004=
KBFI 081153Z 00000KT 10SM CLR 19/12 A2995 RMK AO2 SLP140 T01890122
     10244 20183 51002=
KBFM 081153Z 00000KT 10SM FEW045 24/23 A3005 RMK AO2 SLP174 60001
     70001 T02440233 10250 20228 51007=
KBHM 081153Z 00000KT 8SM CLR 26/22 A3009 RMK AO2 SLP179 T02560222
     10267 20233 53011=
KBIE 081150Z AUTO 36006KT 10SM SCT030 19/17 A3015 RMK AO2
     T01850172 10207 20181=
KBIV 081153Z AUTO 00000KT 6SM BR FEW090 24/22 A3004 RMK AO2
     RAB19E40 SLP166 P0001 60018 70018 T02440222 10256 20239
     56003=
KBKE 081153Z AUTO 00000KT 10SM CLR 04/04 A3012 RMK AO2 SLP184
     T00440044 10128 20044 53004=
KBLI 081153Z AUTO 00000KT 10SM CLR 14/13 A2997 RMK AO2 SLP154
     70001 T01390128 10200 20133 52004=
KBMQ 081153Z AUTO 06003KT 10SM FEW013 BKN025 OVC030 24/22 A3002
     RMK AO2 SLP147 7//// T02390222 10250 20233 53005 $=
KBNA 081153Z 00000KT 10SM FEW180 SCT250 25/22 A3008 RMK AO2 SLP178
     T02500222 10272 20239 50005=
KBPK 081153Z AUTO 00000KT 8SM BKN060 23/22 A3007 RMK AO2 SLP172
     70007 T02330217 10244 20222 53008=
KIBM 081150Z AUTO 27003KT 7SM BKN070 BKN080 12/12 A3032 RMK AO2
     T01230115 10127 20120=
KILM 081153Z 01003KT 8SM CLR 26/21 A2992 RMK AO2 SLP133 60001
     70002 T02610206 10261 20239 51010=
KIPL 081153Z AUTO 19003KT 10SM CLR 25/16 A2969 RMK AO2 SLP056
     T02500161 10306 20250 51006=
KJCT 081151Z AUTO 00000KT 7SM BKN011 22/21 A3002 RMK AO2 SLP126
     60000 T02220211 10239 20217 53004 TSNO=
KJWG 081152Z AUTO 04004KT 7SM CLR 22/22 A3010 RMK AO2=
KJYR 081150Z AUTO 00000KT 10SM CLR 16/15 A3019 RMK AO2=
KLAL 081152Z 00000KT 12SM SKC 24/21 A2999=
KLCG 081150Z AUTO 00000KT 10SM CLR 15/14 A3020 RMK AO2 T01470140
     10165 20141=
KLBX 081153Z AUTO 09005KT 8SM SCT024 26/25 A2990 RMK AO2 RAE01
     SLP126 P0000 60021 70142 T02610250 10278 20250 53008=
KLCH 081153Z 07007KT 9SM OVC011 26/24 A2999 RMK AO2 SLP162 70002
     T02560239 10261 20250 53009=
KLFK 081153Z AUTO 09005KT 10SM CLR 25/23 A3001 RMK AO2 SLP158
     70173 T02500233 10250 20244 53008=
KLFT 081153Z 07003KT 10SM OVC004 25/24 A3001 RMK AO2 SLP163 70033
     T02500239 10250 20250 53010=
KLGB 081153Z 28004KT 10SM OVC013 17/13 A2990 RMK AO2 SLP124
     T01670133 10172 20167 55004=
KLHM 081151Z AUTO 17008KT 10SM CLR 16/11 A2983 RMK AO1 T01550110
     10222 20155=
KLLQ 081153Z AUTO 00000KT 7SM CLR 23/23 A3008 RMK AO2 SLP181 70074
     T02330228 10233 20228 51008=
KLMT 081153Z AUTO 30005KT 10SM CLR 16/11 A3006 RMK AO2 SLP130
     70019 T01610106 10217 20161 53006=
KLOL 081153Z AUTO 05005KT 10SM CLR 17/M04 A3000 RMK AO2 SLP114
     T01671044 10272 20156 51006=
KLVJ 081153Z AUTO 11007KT 10SM SCT022 SCT041 OVC060 25/23 A2994
     RMK AO2 PK WND 13026/1101 LTG DSNT E TSB20E35RAB02E50 SLP136
     P0041 60041 70139 T02500233 10283 20250 53006=
####018003695####
SAUS70 KWBC 081200 RRG
METAR
KSFF 081153Z AUTO 00000KT 10SM CLR 13/10 A3007 RMK AO2 SLP169
     T01280100 10194 20122 52004=
KSHN 081153Z AUTO 00000KT 10SM CLR 12/09 A2994 RMK AO2 SLP135
     T01170094 10189 20106 53003=
KSIY 081153Z AUTO 00000KT 10SM CLR 16/07 A2998 RMK AO2 SLP134
     T01610072 10289 20161 53010 $=
KSJC 081153Z AUTO 31004KT 9SM OVC013 15/12 A2991 RMK AO2 SLP128
     T01500117 10156 20150 56003=
KSMF 081153Z 14007KT 10SM CLR 13/11 A2983 RMK AO2 SLP101 T01330106
     10189 20133 53004=
KSNA 081153Z 00000KT 8SM OVC015 18/12 A2989 RMK AO2 SLP122 70001
     T01830122 10183 20178 55004=
KSNS 081153Z AUTO 25003KT 9SM OVC009 12/11 A2992 RMK AO2 SLP141
     T01220106 10139 20122 55002=
KSPB 081153Z AUTO 00000KT 10SM CLR 15/12 A2989 RMK AO2 SLP122
     6//// 7//// T01500117 10239 20144 53007 $=
KSSF 081153Z 03006KT 10SM FEW019 BKN037 OVC055 26/23 A2993 RMK AO2
     SLP120 60000 T02610233 10267 20261 53002=
KSTS 081153Z AUTO 00000KT 10SM OVC006 12/10 A2991 RMK AO2 SLP121
     T01170100 10122 20117 55004=
KTCC 081153Z AUTO 02008KT 10SM BKN015 OVC120 18/16 A3024 RMK AO2
     SLP181 60000 70015 T01780156 10178 20172 53007=
KTCL 081153Z 00000KT 6SM BR CLR 25/23 A3006 RMK AO2 SLP175 7////
     T02500228 10261 20239 53007=
KTIW 081153Z AUTO 00000KT 10SM FEW095 18/12 A2995 RMK AO2 SLP138
     T01780117 10233 20178 53003=
KTOI 081153Z 00000KT 7SM CLR 23/22 A3005 RMK AO2 SLP169 T02280222
     10233 20211 53006=
KTTD 081153Z AUTO 00000KT 10SM FEW080 17/14 A2988 RMK AO2 SLP119
     T01670144 10261 20161 53007=
KTVL 081153Z AUTO 18004KT 10SM CLR 09/05 A3016 RMK AO2 SLP155
     T00890050 10161 20083 55001=
KTVR 081153Z AUTO 00000KT 3SM BR CLR 23/22 A3006 RMK AO2 SLP184
     70021 T02280217 10239 20222 53011 $=
KUAO 081153Z AUTO 00000KT 10SM CLR 16/12 A2990 RMK AO2 SLP124
     T01610122 10250 20161 53011=
PATA 081152Z AUTO 00000KT 10SM CLR 07/05 A3005 RMK AO2 SLP176
     T00720050 10211 20072 58000 TSNO=
PHJR 081153Z 00000KT 10SM CLR 22/18 A3003 RMK AO2 SLP174 70001
     T02220178 10250 20222 58010=
KSGR 081153Z 08004KT 9SM FEW008 BKN025 OVC070 26/24 A2993 RMK AO2
     RAB37E47 SLP142 P0000 60000 70034 T02610239 10261 20256
     53008=
KCRG 081153Z 00000KT 10SM CLR 23/22 A3001 RMK AO2 SLP163 T02330217
     10233 20189 53007=
KCSM 081153Z AUTO 04006KT 10SM BKN017 BKN110 23/21 A3012 RMK AO2
     SLP173 60000 T02280206 10228 20228 53007=
KCYS 081153Z 00000KT 10SM OVC008 12/11 A3037 RMK AO2 CIG 005V010
     SLP235 60000 70002 T01170106 10117 20111 50002=
KDEN 081153Z 36005KT 4SM BR BKN025 BKN120 14/13 A3031 RMK AO2
     SLP209 70009 T01390128 10150 20139 55003 $=
KDET 081153Z AUTO 24004KT 8SM CLR 27/22 A3003 RMK AO2 SLP164
     T02670217 10267 20239 50002 TSNO $=
KDFI 081153Z AUTO 19003KT 5SM HZ CLR 24/20 A3005 RMK AO2 SLP171
     T02390200 10239 20206 50002=
KDFW 081153Z 13003KT 6SM -RA BR BKN014 BKN019 OVC025 26/23 A3002
     RMK AO2 SLP156 P0002 60002 70026 T02560233 10261 20250
     51012=
KDGW 081153Z AUTO 00000KT 10SM CLR 05/04 A3035 RMK AO2 SLP254
     70001 T00500044 10094 20044 53006 $=
KDKK 081153Z AUTO 00000KT 10SM CLR 25/20 A3006 RMK AO2 SLP175
     T02500200 10250 20189 50002=
KDLN 081153Z AUTO 19007KT 10SM CLR 06/02 A3030 RMK AO2 SLP229
     T00560022 10122 20044 53008=
KDMO 081153Z AUTO 00000KT 6SM BR SCT002 OVC009 24/22 A3007 RMK AO2
     SLP176 60000 70167 T02390222 10239 20228 53010=
KDNL 081153Z AUTO 31006KT 10SM CLR 28/18 A3002 RMK AO2 SLP159
     T02830183 10283 20261 53005=
KDRO 081153Z AUTO 00000KT 10SM CLR 12/06 A3032 RMK AO2 SLP184
     60000 T01170056 10172 20111 53006=
####018003655####
SAUS70 KWBC 081200 RRB
METAR
KBVN 081150Z AUTO 00000KT 10SM OVC090 17/15 A3021 RMK AO2 70002
     T01670151 10167 20155=
KBWG 081153Z AUTO 00000KT 6SM BR CLR 24/22 A3007 RMK AO2 SLP177
     T02390217 10278 20228 50004=
KCCR 081153Z AUTO 24004KT 10SM SCT013 13/09 A2990 RMK AO2 SLP112
     T01280094 10144 20128 55003=
KCHO 081153Z 00000KT 4SM HZ FEW090 27/19 A3002 RMK AO2 SLP158
     T02670194 10267 20217 53005=
KCLM 081153Z AUTO A2998 RMK AO2 SLPNO 6//// 7//// 53003 PWINO
     FZRANO $=
KCMI 081153Z 22004KT 7SM BKN070 24/23 A3005 RMK AO2 SLP167 60000
     T02440228 10256 20222 53004=
KCNM 081153Z AUTO 33006KT 9SM -RA SCT017 OVC110 19/18 A3015 RMK
     AO2 RAB1051 SLP154 P0014 60052 70110 T01940183 10228 20194
     $=
KCNO 081153Z AUTO 24005KT 4SM BR OVC011 15/13 A2991 RMK AO2 SLP122
     T01500128 10161 20133 56004=
KCOT 081153Z AUTO 02006KT 10SM BKN055 25/23 A2990 RMK AO2 SLP117
     60000 7//// T02500228 10250 20244 51004=
KCSV 081153Z AUTO 00000KT 6SM HZ CLR 23/18 A3016 RMK AO2 SLP186
     T02330183 10233 20206 52008=
KCWF 081150Z 06006KT 7SM SKC 24/24 A3000=
KCXO 081153Z 00000KT 7SM FEW006 SCT019 24/23 A2997 RMK AO2 SLP145
     70026 T02390233 10244 20239 53009=
KDAG 081153Z AUTO 27009KT 10SM CLR 22/02 A2987 RMK AO2 SLP085
     T02170017 10289 20217 53006 TSNO $=
KDAN 081153Z AUTO 00000KT 4SM HZ FEW090 27/19 A3002 RMK AO2 SLP152
     T02720194 10272 20228 50007=
KDCU 081153Z AUTO 00000KT 9SM CLR 25/21 A3008 RMK AO2 SLP179
     T02500211 10256 20222 53009=
KDEW 081153Z AUTO 01004KT 10SM CLR 13/07 A3007 RMK AO2 SLP173
     T01280072 10178 20128 50001=
KDHT 081153Z AUTO 34005KT 10SM BKN100 OVC110 17/16 A3024 RMK AO2
     RAB1055E45 SLP188 P0000 60000 T01670156 10194 20161 58006=
KDLS 081153Z AUTO 00000KT 10SM CLR 14/06 A2996 RMK AO2 SLP144
     T01390056 10233 20139 53006=
KDVO 081150Z AUTO 00000KT 10SM BKN012 12/11 A2992 RMK AO2=
KDVT 081153Z 14003KT 10SM CLR 28/00 A2980 RMK AO2 SLP061 T02780000
     10339 20267 53007=
KDWH 081153Z 06008KT 6SM BR BKN007 BKN020 BKN055 24/24 A2995 RMK
     AO2 CIG 005V011 SLP140 70045 T02440239 10256 20244 53007=
KEET 081153Z AUTO 00000KT 7SM CLR 26/22 A3006 RMK AO2 SLP171
     T02560222 10267 20233 51008=
KELN 081153Z AUTO 00000KT 10SM CLR 12/07 A3005 RMK AO2 SLP165
     7//// T01220067 10206 20117 52005 $=
KENW 081153Z 24005KT 7SM BKN018 OVC023 23/22 A3003 RMK AO2
     RAB1055E28 SLP165 P0001 60008 70361 T02280217 10233 20222
     53005 $=
KEPH 081153Z AUTO 31010KT 10SM CLR 21/04 A3001 RMK AO2 SLP151
     T02060044 10239 20194 53003=
KEQY 081153Z AUTO 33004KT 8SM SCT100 27/18 A3001 RMK AO2 SLP156
     T02670183 10267 20228 53006=
KESF 081153Z AUTO 00000KT 6SM BR SCT011 24/23 A3004 RMK AO2 SLP170
     70002 T02390228 10239 20222 53010=
KFAY 081153Z AUTO 02008KT 7SM CLR 27/19 A2996 RMK AO2 SLP136
     T02720189 10289 20244 53011=
KFFC 081153Z AUTO 00000KT 8SM CLR 22/19 A3006 RMK AO2 SLP170
     T02220194 10222 20200 53007=
KFHR 081153Z AUTO 00000KT 10SM CLR 13/10 A2998 RMK AO2 SLP151
     T01330100 10161 20122 51002=
KFLD 081153Z AUTO 23003KT 9SM SCT007 BKN015 22/21 A3002 RMK AO2
     SLP161 60006 70035 T02170206 10228 20211 51009=
KFSM 081153Z 00000KT 10SM BKN032 25/22 A3004 RMK AO2 SLP167
     T02500222 10250 20239 53007=
KFTW 081153Z 11005KT 10SM BKN010 OVC015 25/23 A3001 RMK AO2 CIG
     008V012 SLP152 T02500233 10261 20250 51009=
KFTY 081153Z 00000KT 7SM CLR 23/19 A3005 RMK AO2 SLP165 T02330194
     10233 20200 53006=
KFUL 081153Z 00000KT 9SM OVC017 17/12 A2989 RMK AO2 SLP119
     T01670122 10172 20161 55004=
####018000516####
SANO33 ENMI 081150
METAR ENAT 081150Z 18006KT 140V230 9999 FEW045 BKN070 22/09 Q1012 =
METAR ENBL 081150Z 20011KT 9999 -SHRA SCT035TCU 15/08 Q1011=
METAR ENEV 081150Z 10009KT 9999 FEW050 BKN080 21/07 Q1010 =
METAR ENFL 081150Z 20014KT 150V250 9999 FEW015 SCT040 16/11 Q1011=
METAR ENKB 081150Z VRB02KT 9999 FEW055 BKN087 22/06 Q1009=
METAR ENKR 081150Z 18007KT 9999 BKN020 15/10 Q1018 =
METAR ENML 081150Z 26006KT 9999 VCSH SCT060 20/06 Q1009=
METAR ENNA 081150Z 14011KT 9999 FEW045CB SCT070 22/10 Q1013 =
####018000088####
SAAS31 KWBC 081130 RRE
METAR
VOTR 081140Z VRB03KT 8000 SCT020 BKN250 33/23 Q1007=
####018000347####
SANO34 ENMI 081150
METAR ENBN 081150Z 34011KT 9999 FEW050 SCT070 16/10 Q1010=
METAR ENBV 081150Z NIL=
METAR ENDI 081150Z NIL=
METAR ENFG 081150Z NIL=
METAR ENHF 081150Z 20008KT CAVOK 19/09 Q1012 =
METAR ENRA 081150Z 32010KT 9999 TS SCT050CB 20/09 Q1009=
METAR ENSH 081150Z 07005KT 340V120 9999 VCSH FEW030 BKN060 15/10
           Q1010=
####018003700####
SAUS70 KWBC 081200 RRJ
METAR
KAPA 081153Z 15005KT 6SM BR FEW007 BKN027 BKN120 13/12 A3033 RMK
     AO2 SLP228 70002 T01330117 10144 20128 57005 $=
KAPF 081153Z 04006KT 10SM CLR 26/23 A2997 RMK AO2 SLP148 T02610228
     10261 20244 53008=
KARB 081153Z AUTO 00000KT 7SM SCT065 23/22 A3004 RMK AO2 SLP165
     T02330217 10233 20189 50003=
KASE 081153Z 11004KT 10SM FEW100 09/05 A3037 RMK AO2 SLP195 60010
     70017 T00890050 10106 20072 57002=
KASX 081153Z AUTO 24003KT 10SM CLR 18/17 A3005 RMK AO2 SLP176
     T01780167 10189 20150 53011=
KATY 081153Z AUTO 00000KT 10SM CLR 16/14 A3015 RMK AO2 SLP203
     T01560139 10161 20139 50001=
KAUG 081153Z AUTO VRB03KT 4SM BR OVC003 21/20 A3010 RMK AO2 SLP192
     T02110200 10211 20206 53008=
KAXN 081153Z AUTO 25006KT 10SM CLR 17/16 A3013 RMK AO2 SLP201
     60001 70001 T01720156 10172 20144 53005=
KBAF 081153Z 17005KT 5SM HZ FEW011 SCT080 25/22 A3007 RMK AO2
     SLP178 T02500217 10250 20233 51012=
KBBW 081153Z AUTO 00000KT 10SM BKN090 OVC110 17/16 A3024 RMK AO2
     SLP225 T01720161 10183 20156 51005=
KBCE 081153Z AUTO 00000KT 10SM SCT100 14/00 A3032 RMK AO2 RAB10E20
     SLP145 P0000 60000 70001 T01390000 10183 20083 53003 TSNO=
KBDE 081153Z AUTO 00000KT 10SM CLR 16/12 A3000 RMK AO2 SLP160
     70002 T01560122 10167 20139 50005=
KGOK 081153Z AUTO 00000KT 6SM BR CLR 23/21 A3006 RMK AO2 SLP168
     70022 T02280211 10239 20228 53005=
KGRB 081153Z 00000KT 1 3/4SM BR OVC002 22/21 A3000 RMK AO2 SLP156
     60003 70168 T02170211 10217 20206 52002=
KGRI 081153Z 34005KT 10SM CLR 16/14 A3021 RMK AO2 SLP221 T01610144
     10167 20150 50008=
KGTF 081153Z 21007KT 10SM CLR 09/06 A3023 RMK AO2 SLP223 T00890056
     10139 20067 55001 $=
KGUP 081153Z AUTO 08003KT 10SM CLR 18/07 A3027 RMK AO2 SLP063
     T01780072 10211 20172 53007=
KGUY 081153Z AUTO 01003KT 8SM -RA OVC110 18/17 A3022 RMK AO2
     SLP188 P0002 60043 70043 T01830172 10211 20178 51003=
KHAO 081153Z AUTO 00000KT 2 1/2SM BR CLR 24/22 A3009 RMK AO2
     SLP183 T02390217 10239 20200 50003=
KHEI 081153Z AUTO 29003KT 10SM CLR 11/08 A3020 RMK AO2 SLP218
     T01060078 10117 20083 53005=
KHFD 081153Z 00000KT 3SM HZ OVC010 26/23 A3006 RMK AO2 CIG 007V012
     SLP179 60000 T02560228 10261 20244 52008=
KHIB 081153Z AUTO 00000KT 10SM CLR 13/12 A3005 RMK AO2 SLP177
     P0001 60001 70001 T01280122 10128 20083 53001=
KHLN 081153Z 00000KT 10SM CLR 10/04 A3025 RMK AO2 SLP238 T01000039
     10161 20089 51003=
KHUF 081153Z 00000KT 4SM BR CLR 25/23 A3005 RMK AO2 SLP170
     T02500228 10250 20222 53005 $=
KHUL 081153Z AUTO 20007KT 5SM HZ FEW009 22/19 A3004 RMK AO2 SLP169
     T02220194 10222 20200 51007=
KHVN 081153Z 12006KT 6SM HZ FEW004 BKN017 OVC023 25/22 A3007 RMK
     AO2 SLP181 T02500222 10250 20239 51004=
KHWO 081153Z AUTO VRB03KT 10SM CLR 26/24 A2996 RMK AO2 SLP146
     T02610244 10261 20250 53008=
KHYR 081153Z AUTO 00000KT 10SM CLR 18/16 A3008 RMK AO2 SLP180
     60000 T01830156 10200 20156 51013=
KHZY 081153Z AUTO 15004KT 6SM HZ CLR 23/21 A3009 RMK AO2 SLP180
     60001 70001 T02330206 10233 20178 50003=
KICR 081153Z AUTO 26004KT 10SM CLR 17/11 A3021 RMK AO2 SLP222
     7//// T01670111 10183 20161 53002 TSNO $=
KICT 081153Z 36007KT 9SM FEW080 SCT120 OVC200 22/21 A3009 RMK AO2
     SLP177 T02220211 10233 20217 51002 $=
KIDA 081153Z AUTO 36008KT 10SM CLR 08/05 A3021 RMK AO2 SLP198
     T00830050 10117 20072 53007=
KIML 081153Z AUTO 00000KT 8SM OVC085 16/14 A3028 RMK AO2 SLP237
     T01610144 10172 20156 53006=
KINK 081153Z AUTO 36006KT 10SM BKN019 22/19 A3009 RMK AO2 SLP146
     60000 7//// T02170194 10239 20211 53011 TSNO=
####018003670####
SAUS70 KWBC 081200 RRE
METAR
KLVK 081153Z AUTO 29006KT 10SM OVC008 13/11 A2990 RMK AO2 SLP122
     T01280111 10139 20122 57002=
KLVS 081153Z AUTO 02005KT 10SM CLR 10/08 A3040 RMK AO2 SLP221
     70033 T01000083 10122 20100 53009 TSNO=
KLXN 081150Z AUTO 00000KT 10SM OVC050 17/16 A3024 RMK AO2
     T01700161 10172 20150=
KMAF 081153Z 02008KT 4SM BR OVC005 21/20 A3009 RMK AO2 SLP146
     T02060200 10228 20206 53006=
KMCB 081153Z AUTO 00000KT 8SM CLR 24/22 A3006 RMK AO2 SLP172 60001
     70015 T02390222 10244 20222 53008=
KMCE 081153Z AUTO 33005KT 10SM CLR 16/09 A2982 RMK AO2 SLP097
     T01610094 10222 20161 55000 $=
KMEM 081153Z 00000KT 10SM FEW150 SCT250 26/23 A3008 RMK AO2 SLP179
     T02560228 10267 20244 52004=
KRTN 081153Z AUTO 34009KT 10SM SCT060 SCT075 13/10 A3037 RMK AO2
     SLP220 70121 T01330100 10150 20133 53005 TSNO=
KPAH 081153Z 23005KT 10SM CLR 25/22 A3005 RMK AO2 SLP171 T02500222
     10250 20228 51006=
KPBF 081153Z AUTO 00000KT 8SM FEW065 24/23 A3007 RMK AO2 SLP179
     70008 T02390228 10244 20233 51008=
KPDK 081153Z 00000KT 10SM CLR 24/19 A3006 RMK AO2 SLP156 T02440194
     10250 20217 53007=
KPDT 081153Z AUTO 09007KT 10SM CLR 14/07 A2998 RMK AO2 SLP136
     T01440067 10206 20133 53005=
KPIL 081153Z AUTO 01006KT 10SM FEW015 SCT049 27/24 A2977 RMK AO2
     RAB31E41 SLP079 P0000 60010 70010 T02720244 10294 20272 57001
     $=
KPMD 081153Z AUTO 00000KT 10SM CLR 17/02 A2990 RMK AO2 SLP098
     T01670017 10244 20167 53000 TSNO $=
KPNA 081150Z AUTO 30005KT 10SM CLR 04/01 A3040 RMK AO2 T00390007
     10138 20027=
KPQL 081153Z 00000KT 8SM CLR 24/24 A3003 RMK AO2 SLP171 T02390239
     10244 20233 53009=
KPRB 081153Z AUTO 33008KT 9SM OVC005 12/11 A2991 RMK AO2 SLP122
     T01220106 10150 20117 53002=
KPRC 081153Z AUTO 00000KT 10SM CLR 17/01 A3010 RMK AO2 SLP103
     60000 T01670006 10228 20167 53003=
KPSC 081153Z AUTO 00000KT 10SM CLR 16/09 A2997 RMK AO2 SLP146
     T01610094 10211 20139 53006=
KPSP 081153Z 00000KT 10SM CLR 23/13 A2973 RMK AO2 SLP063 T02280128
     10294 20228 53002=
KPSX 081153Z AUTO 09011KT 3SM +RA BR FEW002 BKN010 BKN055 26/24
     A2988 RMK AO2 PK WND 10027/1136 RAB35 SLP118 P0023 60040
     70048 T02560244 10278 20256 53008=
KPTT 081150Z AUTO 01010KT 4SM BR OVC002 20/20 A3015 RMK AO2=
KPWA 081153Z 35003KT 6SM BR BKN004 22/21 A3007 RMK AO2 SLP166
     T02220211 10244 20222 53006=
KRAC 081153Z AUTO 21005KT 6SM BR BKN027 BKN033 BKN110 23/22 A3003
     RMK AO2 RAB1054E41 SLP165 P0000 60005 70116 T02330217 10239
     20228 53004=
KRAL 081153Z AUTO 28004KT 4SM BR OVC009 15/13 A2990 RMK AO2 SLP110
     T01500128 10161 20139 55003=
KRBD 081153Z 10006KT 10SM FEW008 BKN011 OVC030 25/23 A3003 RMK AO2
     SLP157 T02500233 10256 20250 53010=
KRBG 081153Z AUTO 36003KT 10SM CLR 17/12 A2993 RMK AO2 SLP132
     T01720117 10239 20172 53007=
KRDD 081153Z AUTO 00000KT 10SM CLR 22/15 A2982 RMK AO2 SLP090
     T02220150 10278 20217 56005=
KRKP 081153Z AUTO 12004KT 10SM FEW040 SCT050 BKN070 A2983 RMK AO2
     RAB1056E47 SLP104 P0015 60024 70052 53003 FZRANO $=
KRNT 081153Z AUTO 00000KT 10SM CLR 16/13 A2995 RMK AO2 SLP145
     T01560133 10233 20156 53003=
KRUE 081153Z AUTO 00000KT 10SM CLR 24/23 A3007 RMK AO2 SLP173
     70023 T02390228 10244 20239 53006=
PHJR 081153Z 00000KT 10SM CLR 22/18 A3003 RMK AO2 SLP174 70001
     T02220178 10250 20222 58010=
KUTS 081153Z AUTO 00000KT 5SM BR FEW006 BKN110 24/23 A2999 RMK AO2
     SLP150 70036 T02390233 10244 20239 53007=
KVCB 081153Z AUTO 24005KT 10SM CLR 15/10 A2984 RMK AO2 SLP102
     T01500100 10228 20150 53009=
####018003681####
SAUS70 KWBC 081200 RRA
METAR
KISN 081152Z 21003KT 10SM CLR 11/09 A3014 RMK AO2 SLP203 T01110094
     10161 20100 53007=
KLWC 081152Z AUTO 33004KT 6SM BR CLR 22/21 A3007 RMK AO2 SLP174
     60000 70001 T02170206 10228 20206 53004=
KLZU 081150Z 00000KT 10SM SKC 23/18 A3006=
KMDH 081152Z 21005KT 10SM SCT070 26/23 A3006 RMK AO2 SLP174 70003
     T02560228 10256 20233 51006=
KMEB 081152Z AUTO 35004KT 10SM CLR 25/17 A2997 RMK AO2 SLP144
     T02500172 10256 20228 53008=
KMEZ 081155Z AUTO 00000KT 4SM RA BKN012 BKN017 OVC025 26/23 A3008
     RMK AO2=
KMKE 081152Z 24004KT 7SM SCT007 OVC016 23/21 A3002 RMK AO2 RAE21
     SLP160 P0000 60002 70076 T02330211 10244 20228 53007=
KMLI 081152Z 30003KT 4SM BR OVC011 23/22 A3004 RMK AO2 CIG 006V015
     SLP169 60001 7//// T02330222 10233 20222 53010 $=
KMWH 081152Z AUTO 35004KT 10SM CLR 13/07 A3002 RMK AO2 SLP160
     T01330067 10206 20133 53005=
KOAJ 081155Z AUTO 36004KT 5SM CLR 25/23 A2995 RMK AO1 10250 20220
     52014=
KOKB 081152Z AUTO 31003KT 8SM OVC014 17/14 A2989 RMK AO2 SLP121
     70001 T01720144 10183 20172 55002=
KOMA 081152Z 34005KT 10SM FEW020 SCT250 19/18 A3015 RMK AO2 SLP203
     70020 T01940183 10211 20189 51011=
KORE 081152Z AUTO 15006KT 6SM HZ SCT010 BKN085 24/21 A3009 RMK AO2
     SLP186 T02390211 10256 20222 53008=
KPPF 081152Z AUTO 00000KT 10SM BKN007 BKN100 22/21 A3006 RMK AO2
     LTG DSNT E SLP170 7//// T02220211 10228 20217 53005=
KPWK 081152Z 21004KT 5SM BR OVC060 23/22 A3004 RMK AO2 RAB1056E50
     SLP167 P0003 60044 70044 T02330222 10256 20222 53000=
KPYM 081152Z AUTO VRB04KT 10SM BKN008 OVC013 24/21 A3011 RMK AO2
     SLP194 T02440206 10244 20206 51009=
KRAP 081152Z AUTO 30004KT 10SM CLR 12/09 A3026 RMK AO2 SLP235
     T01170089 10122 20094 53003=
KSAW 081150Z 30005KT 7SM BKN008 OVC110 19/17 A2999=
KSGF 081152Z 00000KT 5SM BR FEW004 SCT015 BKN021 23/23 A3008 RMK
     AO2 SLP172 70006 T02280228 10239 20222 53009=
KSOP 081155Z AUTO 00000KT 10SM CLR 26/19 A2999 RMK AO1 10260 20230
     52010=
KSPI 081152Z 00000KT 8SM SCT065 24/23 A3005 RMK AO2 RAE23 SLP170
     P0000 60015 70015 T02390233 10244 20233 53006=
KSUX 081152Z 32005KT 9SM CLR 17/16 A3017 RMK AO2 SLP212 70001
     T01720161 10183 20150 53008=
KTAN 081152Z AUTO VRB03KT 10SM OVC010 23/21 A3009 RMK AO2 CIG
     007V011 SLP187 T02280211 10228 20206 53006=
KTIX 081147Z VRB04KT 7SM SKC 22/19 A3000=
KTKI 081153Z 09003KT 8SM -RA BKN010 OVC018 25/24 A3003 RMK AO2
     RAB05 CIG 007V014 SLP163 P0000 60000 T02500239 10261 20250
     52009=
KTRL 081153Z AUTO 11005KT 10SM OVC055 27/23 A3003 RMK AO2 SLP162
     60000 T02670228 10267 20261 53009=
KTRM 081152Z AUTO 00000KT 10SM CLR 22/12 A2970 RMK AO2 SLP062
     T02220122 10300 20222 53008=
KTXK 081153Z 00000KT 1/2SM FG VV001 23/23 A3006 RMK AO2 SLP173
     70013 T02330233 10239 20233 51008=
KUDG 081155Z 34004KT 10SM CLR 26/18 A2998 RMK AO1 10270 20230
     52003=
KUGN 081152Z VRB04KT 6SM BR FEW022 BKN040 BKN055 23/21 A3002 RMK
     AO2 RAE34 SLP156 P0000 60045 70097 T02280211 10239 20228
     53002=
KVQQ 081150Z 00000KT 10SM CLR 20/20 A3002=
KBPT 081153Z 08011KT 8SM SCT009 26/25 A2996 RMK AO2 SLP145 60000
     70082 T02610250 10267 20256 53008 $=
KBRO 081153Z 31005KT 10SM FEW020 26/25 A2977 RMK AO2 SLP078 60001
     70037 T02610250 10272 20261 56002=
KBTA 081150Z AUTO 35006KT 7SM SCT016 19/17 A3016 RMK AO2 70013
     T01850170 10201 20183=
KBTL 081153Z 00000KT 7SM CLR 24/21 A3006 RMK AO2 SLP170 T02440211
     10244 20217 50002=
KBUR 081153Z 00000KT 7SM OVC009 16/13 A2989 RMK AO2 SLP112
     T01560128 10161 20156 55004=
####018003672####
SAUS70 KWBC 081200 RRQ
METAR
KLBL 081155Z 01007KT 5SM OVC006 19/17 A3023 RMK AO1 P0001 60001
     70007 10210 20190 52007=
KLBT 081154Z AUTO 01005KT 9SM CLR 27/18 A2995 RMK AO2 SLP139
     T02670183 10278 20239 52009=
KLGD 081155Z AUTO 00000KT 10SM CLR 10/04 A3006 RMK AO1 10170 20090
     52003=
KLKV 081155Z AUTO 34003KT 10SM CLR 11/00 A3012 RMK AO1 10190 20090
     54000=
KLNK 081154Z 34007KT 10SM BKN034 18/17 A3017 RMK AO2 SLP207 70006
     T01830167 10206 20178 53006=
KLPC 081155Z AUTO 00000KT 9SM OVC008 13/11 A2992 RMK AO1 10140
     20130 54000 PNO=
KLUX 081155Z AUTO 00000KT 10SM CLR 24/24 A3004 RMK AO2=
KLWT 081154Z AUTO 13007KT 10SM CLR 07/05 A3026 RMK AO2 SLP231
     T00720050 10100 20072 56001=
KMBL 081155Z AUTO 00000KT 4SM BKN008 OVC046 22/20 A3002 RMK AO1
     P0002 10220 20210=
KMER 081155Z AUTO 33006KT 10SM CLR 16/11 A2983 RMK AO1=
KMFI 081154Z AUTO 32006KT 3SM BR OVC003 19/19 A3003 RMK AO2 SLP164
     T01940189 10200 20183 51008=
KMKC 081154Z 01003KT 10SM CLR 23/20 A3006 RMK AO2 SLP170 70011
     T02330200 10233 20217 53006=
KMKT 081155Z 00000KT 10SM CLR 17/16 A3013 RMK AO1 70093 10190
     20160 52014=
KMML 081155Z AUTO 27007KT 10SM CLR 16/13 A3014 RMK AO1 10160 20140
     52003=
KMNI 081155Z AUTO 34004KT 7SM BKN095 26/23 A2997 RMK AO2=
KMNM 081155Z AUTO 28004KT 5SM BKN004 OVC019 21/19 A2999 RMK AO1
     60001 70021 10210 20210 52007=
KMOT 081154Z AUTO 24005KT 10SM SCT080 BKN090 15/11 A3010 RMK AO2
     SLP193 70001 T01500111 10172 20133 53007 TSNO=
KSKX 081155Z AUTO 33004KT 10SM CLR 11/06 A3039 RMK AO1 10150 20100
     52003=
KSLG 081155Z AUTO 12004KT 10SM OVC021 23/21 A3008 RMK AO1 10240
     20220 52007=
KSMN 081155Z AUTO 00000KT 10SM CLR 07/01 A3027 RMK AO1 10140 20060
     52017=
KSPA 081155Z AUTO 35005KT 10SM CLR 25/22 A3003 RMK AO2=
KSPL 081155Z AUTO 36007G17KT 27/26 A2976 RMK AO2 PWINO PNO=
KSQI 081155Z 28003KT 5SM SCT005 OVC012 23/22 A3006 RMK AO1 60002
     70017 10230 20220 52010=
KSUE 081155Z AUTO 27005KT 10SM OVC009 21/21 A3000 RMK AO1 60003
     70051 10210 20200 52014=
KSUN 081151Z AUTO 30010G16KT 10SM CLR 10/00 A3024 RMK AO2=
KSZT 081150Z AUTO 00000KT 10SM CLR 08/07 A3011 RMK AO2=
KTIF 081150Z AUTO 00000KT 10SM SCT120 15/14 A3027 RMK AO2
     T01460137 10160 20145=
KTQE 081154Z AUTO 34006KT 9SM CLR 18/17 A3016 RMK AO2 SLP201
     T01830172 10200 20172 53010=
KTRK 081150Z AUTO 00000KT 10SM CLR 08/07 A3016 RMK AO2=
KTVF 081155Z AUTO 23006KT 10SM CLR 14/12 A3006 RMK AO1 10160 20130
     52010=
KUIN 081154Z AUTO 00000KT 6SM BR OVC004 23/22 A3005 RMK AO2 SLP167
     60009 70172 T02280222 10228 20228 51008=
KUTA 081155Z AUTO 00000KT 10SM CLR 24/22 A3007 RMK AO2=
KUZA 081154Z AUTO 36003KT 10SM CLR 25/19 A3003 RMK AO2 SLP152
     T02500189 10256 20211 53008=
KVBT 081155Z AUTO 00000KT 10SM OVC022 23/21 A3006 RMK AO1 60001
     70044 10240 20230 52010=
KVIS 081155Z AUTO 27003KT 10SM CLR 18/12 A2982 RMK AO1 10250 20180
     52007=
KVTA 081154Z AUTO 00000KT 4SM BR FEW065 22/19 A3009 RMK AO2 SLP181
     T02170194 10217 20183 53003=
KWLD 081154Z AUTO 34006KT 10SM CLR 22/21 A3008 RMK AO2 SLP175
     60001 70161 T02170206 10228 20217 53001=
KX40 081155Z AUTO 00000KT 10SM CLR 24/23 A3002 RMK AO2
     T02350228=
KXFL 081152Z 00000KT 8SM CLR 24/22 A3001=
KYKN 081155Z AUTO 19004KT 10SM CLR 18/15 A3019 RMK AO1 10180 20160
     52010=
PAAQ 081153Z AUTO 00000KT 10SM OVC100 11/09 A2999 RMK AO2 SLP151
     60000 T01110094 10150 20111 58011 TSNO=
PABR 081153Z 24018KT 10SM FEW150 SCT190 06/03 A2997 RMK AO2 SLP150
     T00610033 10061 20050 CHINO NE $=
####018003680####
SAUS70 KWBC 081200 RRN
METAR
KPMP 081153Z 06006KT 10SM CLR 28/24 A2995 RMK AO2 SLP143 T02830244
     10283 20272 51009=
KPNC 081153Z AUTO 00000KT 10SM SCT026 22/21 A3006 RMK AO2 SLP168
     70005 T02220211 10228 20217 53004=
KPOU 081153Z 00000KT 5SM HZ SCT110 26/22 A3004 RMK AO2 SLP166
     T02610222 10261 20217 51009=
KPTK 081153Z 25004KT 9SM FEW140 SCT250 26/21 A3004 RMK AO2 SLP162
     T02610211 10267 20239 50003=
KPUB 081153Z 00000KT 10SM CLR 14/13 A3030 RMK AO2 SLP215 60001
     70034 T01390128 10156 20139 58009=
KPUC 081153Z AUTO 12007KT 10SM CLR 14/02 A3023 RMK AO2 SLP171
     T01390017 10194 20139 53006 TSNO=
KPUW 081153Z AUTO 00000KT 10SM CLR 09/06 A3008 RMK AO2 SLP176
     T00890061 10128 20089 53002=
KRHI 081153Z AUTO 00000KT 10SM CLR 19/17 A3005 RMK AO2 SLP171
     70040 T01940172 10200 20167 53009=
KRME 081153Z 00000KT 7SM CLR 24/21 A3007 RMK AO2 SLP177 6////
     7//// T02440206 10322 20211 $=
KRSL 081153Z AUTO 35007KT 10SM BKN015 OVC033 18/18 A3018 RMK AO2
     SLP205 70007 T01830178 10194 20183 53009=
KRSW 081153Z 03003KT 10SM CLR 25/23 A2998 RMK AO2 SLP149 T02500228
     10250 20233 53010=
KRVS 081153Z 00000KT 10SM FEW048 BKN075 23/22 A3004 RMK AO2 SLP175
     60238 70239 T02280222 10250 20228 51012=
KRWF 081153Z AUTO 28005KT 10SM CLR 16/14 A3013 RMK AO2 SLP200
     T01610144 10167 20150 53006=
KRWI 081153Z AUTO 04003KT 5SM HZ CLR 26/21 A2998 RMK AO2 SLP150
     T02560206 10256 20222 51013=
KRWL 081153Z AUTO 08010KT 9SM OVC005 09/08 A3039 RMK AO2 SLP228
     T00890078 10100 20072 53006=
KRXE 081153Z AUTO 05005KT 10SM CLR 08/05 A3023 RMK AO2 SLP205
     T00780050 10128 20078 53009=
KSBM 081153Z AUTO 00000KT 9SM OVC012 22/21 A3000 RMK AO2 SLP156
     60002 70121 T02220211 10228 20217 $=
KSEG 081153Z AUTO 00000KT 5SM HZ CLR 27/18 A3005 RMK AO2 SLP172
     T02670183 10267 20211 51004=
KSHR 081153Z AUTO 21004KT 10SM CLR 07/05 A3027 RMK AO2 SLP235
     T00720050 10100 20061 53002=
KSLC 081153Z 15006KT 10SM FEW090 SCT130 18/07 A3010 RMK AO2 SLP140
     VIRGA N AND DSNT W AND NW T01830067 10211 20167 53007=
KSLN 081153Z 35009KT 5SM BR SCT006 BKN016 21/19 A3012 RMK AO2
     SLP189 70001 T02060194 10228 20206 51004=
KSMQ 081153Z AUTO 00000KT 4SM HZ OVC009 25/22 A3003 RMK AO2 SLP167
     T02500222 10250 20211 51011=
KBUR 081153Z 00000KT 7SM OVC009 16/13 A2989 RMK AO2 SLP112
     T01560128 10161 20156 55004=
PHJR 081153Z 00000KT 10SM CLR 22/18 A3003 RMK AO2 SLP174 70001
     T02220178 10250 20222 58010=
KAAO 081154Z AUTO 02004KT 9SM BKN006 BKN011 22/21 A3009 RMK AO2
     SLP177 70138 T02170206 10228 20211 51004=
KAEG 081155Z AUTO 00000KT 10SM FEW120 15/08 A3029 RMK AO1=
KAFJ 081155Z AUTO 00000KT 2 1/2SM CLR 21/19 A3012 RMK AO1 10210
     20170=
KAIZ 081155Z AUTO 00000KT 10SM BKN015 BKN024 OVC060 22/21 A3008
     RMK AO1 LTG DSNT E 60013 70087 10230 20220 52010=
KAKH 081154Z AUTO 35004KT 10SM CLR 27/17 A3003 RMK AO2 SLP160
     T02670172 10267 20211 51009=
KALN 081150Z 00000KT 7SM BKN033 OVC075 25/25 A3004=
KALO 081154Z AUTO 33007KT 10SM CLR 19/19 A3008 RMK AO2 SLP180
     70099 T01940189 10206 20189 51014=
KAPC 081154Z AUTO 26010KT 10SM OVC008 12/11 A2990 RMK AO2 SLP117
     T01170106 10128 20117 55002=
KARA 081153Z 06007KT 3SM BR BKN003 25/24 A3001 RMK AO2 SLP162
     7//// T02500244 10250 20244 51008=
KARG 081155Z AUTO 19006KT 10SM CLR 24/22 A3006 RMK AO1 10260 20240
     52003=
KAUO 081155Z AUTO 32005KT 10SM CLR 26/22 A3004 RMK AO1 10270 20240
     52003=
KAUW 081154Z AUTO 33004KT 9SM OVC006 19/18 A3002 RMK AO2 SLP164
     60002 7//// T01940183 10206 20189 51011=
####018000282####
SANO36 ENMI 081150
METAR ENBS 081150Z NIL=
METAR ENHK 081150Z 12009KT 9999 FEW028 SCT0052 BKN090 18/09 Q1012=
METAR ENHV 081150Z NIL=
METAR ENLK 081150Z 26004KT 9999SCT045 BKN060 14/11 Q1011=
METAR ENMH 081150Z NIL=
METAR ENNK 081150Z 06006KT 9999 -SHRA BKN050 15/12 Q1010=
####018000133####
SAUS41 KOKX 081155
MTRMTP
METAR KMTP 081154Z AUTO VRB03KT 24/20 A3009 RMK AO2 SLP188 T02390200 
10239 20206 51009 PWINO TSNO
####018003690####
SAUS70 KWBC 081200 RRI
METAR
KBGM 081153Z 00000KT 4SM HZ CLR 23/20 A3013 RMK AO2 SLP187
     T02330200 10250 20200 52002=
KBGR 081153Z 18008KT 5SM BR OVC005 21/19 A3010 RMK AO2 SLP191
     60004 7//// T02060194 10211 20194 53012=
KBHK 081153Z AUTO 00000KT 10SM CLR 12/08 A3021 RMK AO2 SLP218
     T01220083 10139 20089 53001=
KBKL 081153Z VRB04KT 5SM HZ SCT060 27/18 A3006 RMK AO2 SLP171
     T02670183 10267 20244 53004=
KBMG 081153Z 00000KT 6SM BR FEW070 24/22 A3006 RMK AO2 SLP170
     T02390222 10239 20211 53003=
KBOI 081153Z 13005KT 10SM CLR 18/06 A3006 RMK AO2 SLP151 T01780061
     10217 20178 53004=
KBPI 081153Z AUTO 34007KT 10SM BKN095 05/01 A3040 RMK AO2 SLP220
     T00500006 10128 20044 52002=
KBRD 081153Z AUTO 23005KT 10SM CLR 17/14 A3008 RMK AO2 SLP185
     T01720139 10172 20139 53003=
KBRL 081153Z AUTO 3SM BR OVC002 22/21 A3004 RMK AO2 SLP169 70202
     T02220211 10239 20222 50009 $=
KBTM 081153Z AUTO 14004KT 10SM CLR 04/01 A3033 RMK AO2 SLP238
     T00440006 10128 20044 53005=
KBVO 081153Z AUTO 00000KT 10SM FEW040 22/22 A3005 RMK AO2 SLP165
     T02220217 10233 20217 53005=
KBVY 081153Z 21004KT 10SM CLR 24/20 A3009 RMK AO2 SLP183 6////
     7//// T02390200 10239 20211 51010 PNO=
KBYG 081153Z AUTO 26006KT 10SM CLR 11/02 A3031 RMK AO2 SLP227
     T01060017 10128 20089 53000=
KBYI 081153Z AUTO 10005KT 10SM CLR 11/04 A3014 RMK AO2 SLP169
     T01110039 10144 20083 53004=
KCAG 081153Z AUTO 00000KT 10SM CLR 08/06 A3032 RMK AO2 SLP212
     T00830061 10139 20078 53010=
KCDC 081153Z AUTO 00000KT 10SM SCT120 14/02 A3016 RMK AO2 SLP135
     T01440017 10178 20111 53009 $=
KCDW 081153Z 00000KT 4SM HZ CLR 26/22 A3005 RMK AO2 SLP178
     T02610222 10261 20233 51008=
KCEZ 081153Z AUTO 05003KT 10SM CLR 14/06 A3024 RMK AO2 SLP162
     7//// T01390056 10222 20133 53005=
KCGI 081153Z AUTO 00000KT 10SM FEW100 24/23 A3005 RMK AO2 SLP171
     70043 T02440233 10256 20233 51007 TSNO=
KCKB 081153Z 00000KT 2 1/2SM HZ CLR 22/19 A3011 RMK AO2 SLP178
     T02170189 10217 20183 51006=
KCMX 081153Z AUTO 00000KT 10SM OVC090 19/17 A3000 RMK AO2 SLP156
     T01940167 10194 20178 53008=
KCPR 081153Z 24004KT 10SM CLR 04/03 A3035 RMK AO2 SLP245 T00440028
     10094 20033 53003 $=
KCPS 081153Z 18003KT 10SM OVC043 25/22 A3004 RMK AO2 SLP167
     T02500222 10256 20233 53006=
KCRE 081153Z 33005KT 10SM CLR 27/20 A2992 RMK AO2 SLP134 T02670200
     10272 20256 53003=
KABR 081153Z AUTO 00000KT 10SM CLR 16/14 A3014 RMK AO2 SLP201
     T01560139 10161 20133 51006=
KABY 081153Z 00000KT 10SM CLR 23/21 A3005 RMK AO2 SLP172 T02280206
     10228 20206 53004=
KACK 081153Z 12011KT 10SM CLR 21/19 A3011 RMK AO2 SLP194 T02110194
     10211 20183 52010=
KADG 081153Z AUTO 00000KT 5SM HZ CLR 23/20 A3006 RMK AO2 SLP172
     T02330200 10239 20211 50002=
KAFW 081153Z 13005KT 10SM -RA FEW012 SCT070 BKN120 26/23 A3002 RMK
     AO2 RAB23 SLP148 P0000 60000 70002 T02560228 10267 20256
     53009=
KAGC 081153Z 00000KT 3SM HZ CLR 23/21 A3010 RMK AO2 SLP186
     T02330206 10261 20211 51006=
KAIA 081153Z AUTO 00000KT 10SM SCT031 BKN046 14/13 A3030 RMK AO2
     SLP237 T01390128 10161 20139 53007 $=
KAKO 081153Z AUTO 14007KT 7SM SCT003 BKN013 OVC022 14/14 A3032 RMK
     AO2 RAB1057E21B39E51 SLP236 P0001 60001 70001 T01440139 10150
     20144 53004 TSNO=
KAMG 081153Z AUTO 29003KT 9SM CLR 23/21 A3002 RMK AO2 SLP163
     T02330206 10233 20206 53006=
KAMW 081153Z AUTO 34007KT 9SM CLR 20/18 A3011 RMK AO2 SLP188 70007
     T02000183 10211 20194 52009=
KAOH 081153Z AUTO 00000KT 5SM HZ 24/21 A3008 RMK AO2 SLP175
     T02390206 10239 20217 50003 $=
####018000448####
SANO35 ENMI 081150
METAR ENMS 081150Z 36009KT 9999 FEW050 SCT060 20/10 Q1009 =
METAR ENRM 081150Z 01008KT 9999 -SHRA FEW015 SCT035 13/11 Q1010=
METAR ENRS 081150Z 15005KT 100V190 CAVOK 14/11 Q1010=
METAR ENSK 081150Z 27002KT 9999 VCSH FEW025 SCT040 BKN060 20/10
           Q1010=
METAR ENSO 081150Z 23010KT 9999 SCT030 18/11 Q1014=
METAR ENST 081150Z 02007KT 320V080 CAVOK 18/11 Q1010=
METAR ENVD 081150Z 11007KT 9999 BKN022 12/08 Q1018=
####018003632####
SAUS70 KWBC 081200 RRL
METAR
KMCI 081153Z 34006KT 5SM BR BKN004 22/21 A3007 RMK AO2 SLP173
     70005 T02220211 10228 20217 53005 $=
KMCK 081153Z AUTO 00000KT 10SM SCT070 17/16 A3025 RMK AO2 SLP228
     70001 T01670161 10167 20161 52004=
KMCO 081153Z 01005KT 10SM FEW250 24/21 A3000 RMK AO2 SLP157
     T02440206 10244 20211 53004=
KMCW 081153Z AUTO 33006KT 8SM CLR 18/17 A3013 RMK AO2 SLP194 70005
     T01780172 10200 20172 51010 $=
KMGY 081153Z AUTO 00000KT 4SM HZ FEW060 24/21 A3009 RMK AO2 SLP178
     T02440211 10250 20217 51005=
KMHE 081153Z AUTO 23003KT 10SM CLR 18/14 A3017 RMK AO2 SLP210
     T01830144 10194 20161 52003 TSNO=
KMHT 081153Z 18005KT 3SM HZ BKN012 OVC050 24/21 A3007 RMK AO2 SFC
     VIS 5 SLP189 60000 T02440211 10250 20233 51011=
KMIA 081153Z 04005KT 10SM FEW023 SCT100 SCT250 28/25 A2995 RMK AO2
     SLP141 70001 T02830250 10283 20272 53008=
KMIC 081153Z 29005KT 10SM CLR 19/16 A3009 RMK AO2 SLP187 70003
     T01890161 10206 20167 53010=
KMIE 081153Z 18003KT 9SM SCT060 26/20 A3007 RMK AO2 SLP170
     T02560200 10256 20211 51002=
KMKO 081153Z AUTO 16003KT 10SM OVC021 23/23 A3005 RMK AO2 SLP167
     60000 70221 T02330228 10239 20233 53008=
KMLB 081153Z 00000KT 10SM CLR 24/22 A2999 RMK AO2 SLP155 T02440222
     10256 20206 53006=
KMLC 081153Z AUTO 19003KT 10SM SCT065 SCT075 24/23 A3004 RMK AO2
     SLP164 70201 T02390228 10239 20239 51008=
KMLS 081153Z AUTO 16005KT 10SM CLR 11/10 A3020 RMK AO2 SLP214
     70001 T01110100 10167 20106 53002=
KMLT 081153Z AUTO VRB03KT 4SM BR OVC007 22/20 A3007 RMK AO2 SLP185
     T02170200 10222 20194 53004=
KMMK 081153Z AUTO 15004KT 2SM BR OVC010 25/23 A3007 RMK AO2 CIG
     007V012 SLP179 T02500228 10250 20228 52010=
KMNN 081153Z AUTO 19003KT 5SM HZ CLR 22/19 A3009 RMK AO2 SLP182
     T02220194 10222 20194 51004=
KMPO 081153Z AUTO 00000KT 8SM FEW090 25/19 A3012 RMK AO2 SLP182
     T02500189 10250 20183 51006=
KMSO 081153Z 36003KT 10SM CLR 10/06 A3021 RMK AO2 SLP214 T01000056
     10156 20094 53003 $=
KMSP 081153Z 27003KT 10SM CLR 19/17 A3011 RMK AO2 SLP191 70022
     T01890167 10211 20172 53012=
KITR 081153Z AUTO 00000KT 10SM -RA FEW006 OVC011 17/15 A3031 RMK
     AO2 RAB51 CIG 008V014 SLP224 P0000 60000 T01670150 10167
     20156 53006=
KIWI 081153Z AUTO VRB05KT 10SM OVC005 21/19 A3012 RMK AO2 CIG
     003V008 SLP199 T02060189 10206 20194 51011=
KIXD 081153Z 33003KT 4SM BR FEW003 22/21 A3008 RMK AO2 SLP175
     70009 T02170206 10233 20211 53004=
KJEF 081153Z 00000KT 10SM OVC005 24/23 A3005 RMK AO2 CIG 003V008
     SLP162 60021 70030 T02390228 10239 20233 53010=
KJER 081153Z AUTO 06012KT 10SM CLR 14/01 A3012 RMK AO2 SLP165
     T01390011 10178 20122 53002=
KJKL 081153Z AUTO 00000KT 3SM HZ CLR 23/21 A3012 RMK AO2 SLP184
     T02330206 10250 20222 51007=
KLAA 081153Z AUTO 11006KT 10SM -RA FEW005 BKN060 OVC100 17/16
     A3026 RMK AO2 RAB39 SLP208 P0001 60003 70044 T01670161 10189
     20167 53001=
KLAR 081153Z AUTO 07005KT 6SM BR BKN004 06/06 A3041 RMK AO2 CIG
     001V006 SLP235 70002 T00610061 10094 20056 51005=
KLAW 081153Z AUTO 00000KT 10SM CLR 22/22 A3006 RMK AO2 SLP167
     T02220217 10244 20222 51008=
KLBF 081153Z AUTO 00000KT 10SM CLR 15/14 A3026 RMK AO2 SLP233
     T01500144 10167 20150 53006=
KLEB 081153Z 27003KT 4SM HZ BKN013 25/22 A3007 RMK AO2 SLP168
     T02500217 10250 20211 51007=
KLEE 081153Z 04004KT 10SM CLR 24/22 A3001 RMK AO2 SLP162 T02390217
     10239 20217 53003=
KLHQ 081153Z AUTO 00000KT 2 1/2SM BR CLR 23/21 A3010 RMK AO2
     SLP184 T02280206 10228 20183 53006=
####018003699####
SAUS70 KWBC 081200
METAR
KAFN 081152Z AUTO 19003KT 6SM BR SCT009 BKN050 BKN075 23/21 A3012
     RMK AO2 SLP194 7//// T02330211 10244 20217 51011=
KAIK 081155Z AUTO 29004KT 10SM CLR 25/23 A3005 RMK AO2 PNO=
KAQW 081152Z AUTO 00000KT 4SM HZ CLR 23/20 A3007 RMK AO2 SLP178
     T02330200 10233 20183 50006=
KARR 081152Z AUTO 24004KT 3SM BR OVC055 23/22 A3004 RMK AO2 RAE24
     SLP167 P0000 60018 7//// T02280217 10228 20222 53006 $=
KARW 081155Z AUTO 27008KT 10SM CLR 26/19 A2998 RMK AO2=
KASG 081148Z 15005KT 10SM BKN028 23/21 A3009=
KATL 081152Z 00000KT 10SM CLR 26/19 A3005 RMK AO2 SLP164 T02560194
     10272 20239 53006=
KBDN 081155Z AUTO 19005KT 10SM CLR 11/03 A3011 RMK AO2=
KBIS 081152Z 00000KT 10SM CLR 13/10 A3015 RMK AO2 SLP206 T01330100
     10156 20106 53007=
KBLF 081152Z AUTO 26004KT 5SM HZ CLR 23/18 A3020 RMK AO2 SLP180
     T02280178 10233 20211 52004=
KBLH 081152Z AUTO 04004KT 10SM CLR 26/02 A2973 RMK AO2 SLP061
     T02610017 10344 20256 53006=
KBML 081152Z AUTO 00000KT 1/2SM FG OVC001 21/21 A3010 RMK AO2
     SLP187 T02110211 10211 20183 58000 $=
KCDS 081153Z AUTO 05003KT 10SM SCT095 BKN110 23/21 A3011 RMK AO2
     SLP170 T02280211 10239 20222 53004=
KCFV 081152Z AUTO 00000KT 10SM FEW035 23/22 A3005 RMK AO2 SLP168
     7//// T02280217 10233 20222 53004=
KCKV 081152Z AUTO 00000KT 10SM OVC100 25/22 A3008 RMK AO2 SLP178
     T02500222 10250 20228 53006=
KCLT 081152Z 32004KT 10SM FEW100 SCT250 24/17 A3003 RMK AO2 SLP158
     T02440172 10256 20194 51008=
KCQX 081152Z AUTO 17006KT 10SM FEW003 22/20 A3012 RMK AO2 SLP202
     T02220200 10228 20189 51012=
KCUB 081153Z AUTO 29004KT 10SM CLR 27/21 A3000 RMK AO2 SLP155
     T02720206 10278 20233 53005=
KCVG 081152Z 00000KT 6SM HZ CLR 24/21 A3009 RMK AO2 SLP177
     T02390211 10244 20211 50006=
KDCA 081152Z 08005KT 4SM HZ FEW050 SCT100 28/22 A3001 RMK AO2
     SLP162 T02830222 10306 20272 51007=
KDDC 081152Z AUTO 02009KT 2 1/2SM BR OVC003 18/17 A3019 RMK AO2
     SLP197 70007 T01830172 10189 20178 53005=
KDPA 081152Z 23003KT 3SM BR OVC050 23/22 A3003 RMK AO2 RAE22
     SLP164 P0000 60016 70020 T02280222 10233 20222 53003=
KDTN 081153Z AUTO 00000KT 10SM CLR 24/23 A3004 RMK AO2 SLP171
     70014 T02440233 10250 20239 51010=
KDTO 081153Z AUTO 14005KT 10SM CLR 25/23 A3002 RMK AO2 SLP156
     T02500233 10267 20250 53006=
KDVN 081152Z AUTO 30004KT 3SM BR SCT007 OVC012 23/21 A3005 RMK AO2
     SLP171 60000 70099 T02280211 10228 20217 51011=
KEST 081152Z AUTO 31005KT 9SM CLR 17/14 A3016 RMK AO2 SLP207 60001
     70058 T01670144 10172 20156 53010=
KFDW 081155Z AUTO 33003KT 10SM CLR 25/18 A3002 RMK AO1=
KFIT 081152Z AUTO 15005KT 6SM HZ OVC012 25/22 A3010 RMK AO2 SLP189
     T02500217 10256 20233 53005=
KGGG 081153Z 09005KT 10SM FEW006 24/24 A3004 RMK AO2 SLP166 7////
     T02440239 10250 20239 53008=
KGLY 081155Z AUTO 00000KT 5SM BR OVC006 23/23 A3007 RMK AO2=
KHBR 081153Z AUTO 00000KT 3SM RA BR BKN004 OVC007 23/22 A3010 RMK
     AO2 LTG DSNT SW TSE02RAB15 CIG 002V005 SLP176 P0005 60005
     70147 T02280222 10233 20228 53010=
KHSA 081151Z 03003KT 7SM CLR 24/24 A3003=
KHUT 081152Z 36008KT 4SM BR OVC004 21/20 A3012 RMK AO2 SLP178
     70010 T02110200 10217 20211 50000=
KIAD 081152Z 00000KT 5SM HZ SCT055 BKN110 BKN250 27/23 A3002 RMK
     AO2 SLP161 T02720228 10283 20256 51009=
KIEN 081152Z AUTO 00000KT 10SM CLR 07/07 A3029 RMK AO2 SLP249
     T00720067 10133 20072 53007=
KIJD 081152Z AUTO 15004KT 7SM OVC008 24/22 A3009 RMK AO2 SLP186
     T02390217 10239 20222 51006=
KIOW 081152Z AUTO 33004KT 10SM CLR 22/20 A3007 RMK AO2 SLP179
     T02170200 10228 20211 53014=
####018003666####
SAUS70 KWBC 081200 RRC
METAR
KFYV 081153Z 00000KT 10SM FEW020 BKN030 22/22 A3008 RMK AO2
     RAB27E44 SLP173 P0000 60000 T02220217 10233 20217 53008=
KGKY 081153Z 12003KT 10SM FEW009 OVC017 25/23 A3003 RMK AO2 RAE11
     SLP158 P0000 60000 T02500233 10256 20244 53009=
KGLH 081153Z 00000KT 6SM BR CLR 23/23 A3006 RMK AO2 SLP183 7////
     T02280228 10233 20211 53007=
KGMU 081153Z 00000KT 8SM CLR 28/19 A3006 RMK AO2 SLP165 T02780189
     10278 20239 53010=
KGPT 081153Z 03003KT 7SM FEW015 27/24 A3003 RMK AO2 SLP169
     T02670244 10272 20256 53009=
KGSH 081153Z AUTO 00000KT 4SM HZ CLR 24/21 A3005 RMK AO2 SLP170
     T02440211 10244 20206 50002=
KGSP 081153Z 03003KT 8SM CLR 26/19 A3004 RMK AO2 SLP156 T02560194
     10256 20217 53010=
KGTR 081150Z 36003KT 10SM SKC 25/23 A3007=
KGVL 081153Z AUTO 32003KT 10SM CLR 24/20 A3009 RMK AO2 SLP169
     T02390200 10244 20228 53006=
KGWO 081153Z AUTO 00000KT 10SM CLR 23/23 A3007 RMK AO2 SLP179
     70011 T02330228 10239 20217 53006=
KHBG 081153Z AUTO 00000KT 8SM CLR 24/23 A3005 RMK AO2 SLP171
     T02390233 10244 20228 51008=
KHDE 081150Z AUTO 34003KT 10SM BKN085 16/15 A3023 RMK AO2
     T01610145 10165 20152=
KHGR 081153Z 29004KT 4SM HZ CLR 26/17 A3004 RMK AO2 SLP174
     T02560172 10267 20239 51005=
KHHR 081153Z AUTO 00000KT 10SM OVC012 17/13 A2990 RMK AO2 SLP125
     T01670133 10178 20167 55003=
KHIO 081153Z AUTO 00000KT 10SM CLR 14/11 A2989 RMK AO2 SLP119
     T01390111 10228 20133 53005=
KHJH 081150Z AUTO 36005KT 10SM OVC029 19/18 A3018 RMK AO2
     T01930175 10203 20191=
KHJO 081153Z AUTO 31007KT 10SM CLR 18/12 A2982 RMK AO2 SLP099
     T01830117 10256 20183 53004=
KHKA 081153Z AUTO 22005KT 5SM HZ CLR 26/23 A3007 RMK AO2 SLP179
     T02560228 10272 20244 52005=
KHKS 081153Z AUTO 00000KT 8SM CLR 24/23 A3008 RMK AO2 SLP175
     T02440228 10244 20233 53010=
KHKY 081153Z 31003KT 10SM CLR 23/18 A3006 RMK AO2 SLP153 6////
     7//// T02330183 10244 20222 53007 PNO=
KHLG 081153Z 00000KT 2 1/2SM BR CLR 23/21 A3010 RMK AO2 SLP185
     T02280206 10239 20206 51005=
KHOT 081153Z AUTO 00000KT 9SM OVC008 24/23 A3008 RMK AO2 CIG
     004V012 SLP180 70022 T02440233 10244 20239 52011=
KHOU 081153Z 16003KT 10SM FEW029 SCT036 BKN090 24/23 A2992 RMK AO2
     RAB23E49 SLP137 P0022 60022 70110 T02440228 10278 20244
     53006=
KHQM 081153Z AUTO 27009KT 10SM 13/13 A2995 RMK AO2 SLP146
     T01330128 10256 20133 51011 $=
KHRI 081153Z AUTO 00000KT 10SM CLR 11/07 A2996 RMK AO2 SLP139
     T01060072 10200 20106 53008=
KHRL 081152Z 35008KT 10SM CLR 26/26 A2977 RMK AO2 RAE1057 SLP082
     P0000 60004 70004 T02560256 10267 20250 55002=
KHRO 081153Z AUTO 00000KT 10SM FEW040 OVC080 23/21 A3010 RMK AO2
     SLP176 7//// T02280211 10233 20217 53012=
KPMV 081150Z AUTO 33003KT 7SM CLR 20/19 A3014 RMK AO2 T01950187
     10212 20190=
KACV 081153Z AUTO 00000KT 8SM OVC001 10/09 A2996 RMK AO2 SLP152
     T01000094 10106 20100 50000=
KAEX 081153Z AUTO 08003KT 9SM CLR 24/23 A3002 RMK AO2 SLP168 70010
     T02440233 10250 20239 53009=
KAGS 081153Z 00000KT 10SM CLR 27/21 A3000 RMK AO2 SLP155 T02670206
     10267 20211 51005=
KALI 081153Z AUTO 03006KT 10SM CLR 25/24 A2984 RMK AO2 LTG DSNT E
     RAE41 SLP101 P0003 60023 70024 T02500244 10261 20250
     55002=
KALW 081153Z AUTO 15005KT 10SM CLR 17/07 A2999 RMK AO2 SLP146
     T01720072 10217 20161 53008=
KAMA 081153Z 36012G22KT 7SM BKN003 OVC004 17/17 A3021 RMK AO2
     SLP181 60097 70666 T01720167 10172 20161 53007 $=
KANB 081153Z AUTO 00000KT 8SM CLR 22/20 A3006 RMK AO2 SLP169
     T02220200 10233 20211 53008=
####018001704####
SAXX60 KWBC 081200
METAR
KNRB 081152Z 26004KT 10SM CLR 24/22 A3001 RMK AO2 SLP162 T02440217
     10244 20222 53009=
PHNL 081153Z 06005KT 10SM FEW030 24/18 A3001 RMK AO2 SLP163 60000
     70003 T02390178 10250 20239 58012=
KDNK 081153Z AUTO 08003KT 5SM BR CLR 24/22 A3003 RMK AO2 SLP165
     70009 T02390222 10244 20233 53009=
KNIP 081153Z 25005KT 10SM CLR 23/21 A3002 RMK AO2 SLP162 T02330211
     10261 20222 53009=
KIAG 081153Z 23006KT 8SM FEW080 26/21 A3005 RMK AO2 SLP167 8/030
     T02560211 10256 20228 51003=
KNQX 081153Z 06005KT 10SM SCT022TCU BKN100 BKN200 28/25 A2994 RMK
     AO2 SLP138 TCU DSNT SE-W T2 SET 70023 T02830250 10283 20278
     53009 $=
KLRF 081155Z AUTO 00000KT 10SM FEW210 23/22 A3007 RMK AO2 CLDS LWR
     RWY07 SLP182 T02340224 10236 20228 53009=
KNFW 081152Z 13006KT 10SM SCT012 BKN022 26/22 A3006 RMK AO2 SLP161
     T02610222 10272 20261 51010=
KNHK 081152Z 09006KT 4SM HZ FEW010 27/24 A3000 RMK AO2 SLP158
     T02720239 10278 20256 51008=
KNZY 081152Z 31006KT 9SM FEW009 OVC015 18/13 A2989 RMK AO2 DZE30
     SLP121 P0000 60000 T01830133 10189 20178 55001 $=
KECG 081154Z 09007KT 10SM BKN100 26/23 A2998 RMK AO2 SLP151
     T02560233 10256 20250 53013=
PABI 081153Z AUTO 00000KT 10SM CLR 11/07 A3008 RMK AO2 SLP188
     T01060072 10189 20106 58002 TSNO=
KNKT 081154Z 03010KT 4SM HZ FEW012 BKN150 27/24 A2994 RMK AO2
     SLP137 T02670239 10267 20250 53011=
KBKB 081154Z AUTO 00000KT 8SM CLR 24/23 A3001 RMK AO2 SLP188 70003
     T02440233 10250 20239 51009=
PATC 081155Z AUTO 01010KT 10SM CLR 07/06 A3014 RMK AO1
     T00720062=
PAEH 081155Z AUTO 14004KT 10SM CLR 08/M29 A2998 RMK AO1
     T00831288=
####018003712####
SAUS80 KWBC 081200
METAR
KALS 081152Z AUTO 27006KT 10SM CLR 07/07 A3041 RMK AO2 SLP238
     70001 T00720067 10100 20067 51004=
KBDR 081152Z 14005KT 4SM BR BKN006 BKN050 25/23 A3006 RMK AO2
     SLP178 T02500228 10250 20239 53011=
KCID 081152Z 00000KT 8SM FEW003 20/19 A3006 RMK AO2 SLP175 70007
     T02000189 10211 20194 51015=
KCNU 081152Z AUTO 04006KT 1/2SM FG OVC001 22/21 A3005 RMK AO2
     SLP168 70011 T02220211 10222 20211 53002=
KDAL 081153Z 13006KT 10SM -RA BKN014 OVC021 26/23 A3002 RMK AO2
     RAB04E15B48 SLP159 P0000 60000 70007 T02610233 10267 20256
     53007=
KMFD 081152Z 00000KT 4SM HZ CLR 24/19 A3010 RMK AO2 SLP182
     T02390189 10239 20194 52002=
KMHK 081152Z AUTO 01005KT 5SM BR SCT021 22/21 A3010 RMK AO2 SLP183
     70001 T02220206 10222 20211 54000=
KTOL 081152Z 00000KT 7SM CLR 24/19 A3005 RMK AO2 SLP168 T02390194
     10239 20211 50003=
KVTN 081152Z AUTO 24006KT 10SM CLR 14/14 A3024 RMK AO2 SLP233
     T01440139 10167 20139 53003=
KCZZ 081152Z AUTO 00000KT 08/07 A2988 RMK AO2 SLP093 T00780072
     10128 20072 55001 PWINO TSNO=
KN60 081152Z AUTO 00000KT 12/11 A3012 RMK AO1 SLP199 70002
     T01220106 10156 20106 53007=
K9V9 081152Z AUTO 27003KT 15/13 A3020 RMK AO2 SLP218 70004
     T01500128 10183 20139 53003 PWINO TSNO=
KP69 081152Z AUTO 00000KT 11/10 A3013 RMK AO2 SLP185 T01110100
     10150 20111 52009 PWINO TSNO $=
KCAK 081151Z 00000KT 5SM HZ CLR 24/19 A3010 RMK AO2 SLP181
     T02440194 10244 20206 50004=
KCLL 081153Z AUTO 07008KT 8SM OVC007 25/23 A2997 RMK AO2 SLP142
     T02500228 10256 20250 53006=
KCRP 081151Z 05009KT 5SM TSRA BR FEW008 BKN018CB BKN036 26/25
     A2983 RMK AO2 TSB32RAB27 SLP101 OCNL LTGIC S-W TS S-W MOV W
     P0029 60101 7//// T02560250 10267 20256 53003 $=
KCRQ 081153Z AUTO 00000KT 10SM OVC013 17/14 A2989 RMK AO2 SLP119
     70005 T01720139 10172 20167 55002=
KDBQ 081153Z 30004KT 4SM BR BKN003 OVC016 21/21 A3007 RMK AO2
     SLP178 60000 70064 T02060206 10206 20200 51009=
KDMN 081153Z AUTO 07003KT 10SM CLR 21/13 A3013 RMK AO2 SLP119
     60000 T02110128 10228 20211 51005=
KDRT 081153Z AUTO 00000KT 9SM SCT019 SCT024 BKN038 24/22 A2996 RMK
     AO2 SLP128 T02440222 10267 20239 53010=
KFAT 081153Z 30007KT 10SM CLR 19/10 A2982 RMK AO2 SLP095 T01940100
     10261 20194 53003=
KFMN 081153Z 10005KT 10SM CLR 18/06 A3024 RMK AO2 SLP171 T01780056
     10228 20178 53013=
KGEG 081153Z 05006KT 10SM CLR 17/08 A3007 RMK AO2 SLP166 T01670078
     10222 20161 52001=
KGRR 081153Z 24004KT 2SM BR FEW006 BKN050 OVC130 24/22 A3004 RMK
     AO2 SLP167 60027 70027 T02390222 10261 20233 55000=
KHSV 081153Z 00000KT 10SM FEW250 25/23 A3008 RMK AO2 SLP178
     T02500233 10261 20233 53010=
KABI 081152Z 01003KT 7SM OVC010 22/21 A3007 RMK AO2 CIG 009V014
     SLP161 7//// T02170211 10222 20211 53012 $=
KJBR 081153Z AUTO 00000KT 10SM CLR 25/23 A3006 RMK AO2 SLP176
     T02500228 10272 20244 51006 $=
KLIT 081153Z 18003KT 10SM BKN150 BKN250 24/23 A3008 RMK AO2 SLP184
     70002 T02440233 10250 20239 53009 $=
KCQC 081153Z AUTO 08008KT 10SM CLR 11/09 A3037 RMK AO2 SLP224
     70321 T01110089 10122 20106 53005 TSNO=
K6R6 081153Z AUTO 06004KT 23/21 A3002 RMK AO2 SLP130 T02280211
     10233 20222 53008 PWINO TSNO=
KBNO 081153Z AUTO 26007KT 10SM CLR 08/00 A3013 RMK AO2 SLP170
     T00830000 10150 20072 53003 TSNO=
KPDX 081153Z 28004KT 10SM CLR 18/13 A2990 RMK AO2 SLP124 70001
     T01780133 10244 20178 53007=
KPGA 081153Z AUTO 16003KT 10SM CLR 23/03 A3006 RMK AO2 SLP104
     T02330028 10306 20228 53009=
KRMG 081153Z AUTO 00000KT 8SM CLR 22/19 A3005 RMK AO2 SLP166
     T02170189 10228 20194 52007=
####018003709####
SAUS70 KWBC 081200 RRP
METAR
KHYS 081155Z AUTO 02007KT 10SM SCT018 BKN025 OVC035 18/16 A3020
     RMK AO1 70100 10190 20180 52010=
KMRF 081155Z AUTO 36004KT 10SM FEW120 16/14 A3019 RMK AO1 70001
     10190 20150 52010=
KMRY 081154Z AUTO 00000KT 10SM OVC006 13/10 A2993 RMK AO2 SLP146
     T01280100 10139 20128 55003=
KMTW 081155Z 00000KT 7SM CLR 22/21 A3000 RMK AO1 10220 20210
     52010=
KMVN 081155Z AUTO 00000KT 8SM CLR 24/22 A3006 RMK AO1 10240 20210
     52003=
KOFP 081154Z AUTO 07003KT 5SM HZ FEW080 28/21 A3002 RMK AO2 SLP162
     T02830211 10283 20233 53005=
KOKK 081155Z AUTO 18003KT 4SM SCT060 BKN070 OVC100 24/18 A3005 RMK
     AO1 10240 20220=
KOLM 081154Z AUTO 00000KT 10SM CLR 12/11 A2995 RMK AO2 SLP142
     T01170106 10200 20117 51004=
KOLS 081154Z AUTO 00000KT 10SM CLR 24/08 A2999 RMK AO2 SLP075
     T02390078 10289 20228 53004=
KOLU 081155Z AUTO 00000KT 10SM OVC090 17/15 A3020 RMK AO1 70008
     10170 20160 52014=
KOTG 081155Z AUTO 27006KT 10SM CLR 16/14 A3017 RMK AO1 10160 20140
     52010=
KOTH 081155Z 00000KT 10SM OVC006 10/08 A3000 RMK AO1 70004 10110
     20090 54000=
KPHF 081154Z 08007KT 10SM FEW016 26/24 A3000 RMK AO2 SLP158 60000
     T02610239 10261 20239 53014=
KPIB 081155Z AUTO 00000KT 9SM CLR 24/21 A3006 RMK AO1 10240 20220
     52010=
KPLN 081154Z AUTO VRB03KT 7SM OVC007 22/21 A2999 RMK AO2 RAE27 CIG
     005V010 SLP153 P0000 60000 70051 T02170211 10222 20211
     53009=
KPSO 081155Z AUTO 00000KT 10SM CLR 08/05 A3040 RMK AO2=
KPTN 081155Z AUTO 08004KT 10SM CLR 25/M08 A3002 RMK AO1 70011
     10250 20240 52003=
KPTV 081155Z AUTO 17004KT 10SM CLR 17/11 A2985 RMK AO1 10230 20170
     52003=
KPVC 081155Z 17009KT 10SM CLR 24/21 A3011 RMK AO1 10240 20210
     52007=
KPVU 081155Z 00000KT 8SM CLR 17/09 A3014 RMK AO1 10210 20140
     52007=
KPWT 081155Z AUTO 03008KT 10SM CLR 21/07 A2998 RMK AO1 10240 20210
     52003=
KRBL 081154Z AUTO 17004KT 10SM CLR 22/14 A2983 RMK AO2 SLP097
     T02170144 10283 20217 53002=
KRKS 081154Z AUTO 06011KT 10SM FEW120 08/06 A3035 RMK AO2 SLP219
     T00830056 10128 20078 51005=
KRST 081154Z 32007KT 7SM CLR 18/17 A3012 RMK AO2 SLP195 T01830172
     10206 20172 51015=
KSBY 081154Z 10007KT 10SM CLR 26/23 A3002 RMK AO2 SLP166 T02560228
     10256 20239 51010=
KSET 081154Z AUTO 20003KT 8SM BKN006 BKN038 OVC060 24/24 A3004 RMK
     AO2 CIG 003V011 SLP166 60002 70005 T02440239 10261 20239
     51011=
KSGT 081155Z 00000KT 10SM CLR 23/22 A3008 RMK AO1 70004 52014=
KSGU 081155Z AUTO 00000KT 10SM CLR 24/01 A2997 RMK AO1 10310 20230
     52010=
KSJN 081154Z AUTO 11004KT 10SM OVC100 20/06 A3019 RMK AO2 SLP119
     T02000056 10244 20200 53007=
KILN 081154Z AUTO 00000KT 3SM HZ CLR 24/21 A3010 RMK AO2 SLP178
     T02390211 10239 20200 51003=
KIMT 081154Z AUTO 32003KT 10SM BKN008 OVC014 21/19 A3001 RMK AO2
     CIG 002V012 SLP158 70006 T02060194 10206 20194 51013=
KIND 081154Z 16003KT 7SM SCT060 SCT110 BKN210 26/21 A3004 RMK AO2
     SLP162 TCU DSNT W T02610211 10261 20244 51002=
KINT 081154Z 02004KT 10SM CLR 27/18 A3005 RMK AO2 SLP160 T02670178
     10278 20233 51008=
KISW 081154Z AUTO 00000KT 10SM CLR 20/19 A3005 RMK AO2 SLP170
     70004 T02000189 10222 20189 53011 TSNO=
KIWD 081155Z AUTO 32006KT 10SM FEW048 SCT060 17/15 A3002 RMK AO1
     10180 20150 52010=
KJHW 081155Z AUTO 00000KT 6SM CLR 22/19 A3012 RMK AO1 10220
     20190=
KKLS 081155Z AUTO 35003KT 10SM CLR 16/13 A2994 RMK AO1 10220 20150
     52010=
KLAF 081154Z 00000KT 3SM BR BKN065 24/22 A3004 RMK AO2 SLP166
     7//// T02390222 10244 20217 53002=
KLBE 081150Z 00000KT 4SM BR SCT150 21/18 A3011=
####018003697####
SAUS70 KWBC 081200 RRO
METAR
KAVL 081154Z 34003KT 8SM CLR 21/18 A3016 RMK AO2 SLP181 T02110178
     10211 20178 53008=
KAWO 081155Z AUTO 00000KT 6SM CLR 12/12 A2998 RMK AO1 10190 20120
     52003=
KBFL 081154Z AUTO 00000KT 10SM CLR 19/09 A2984 RMK AO2 SLP098
     T01940094 10267 20194 53005=
KBKX 081155Z AUTO 10003KT 10SM CLR 14/13 A3017 RMK AO1 10160 20130
     52003=
KBTP 081155Z AUTO 00000KT 3SM CLR 21/19 A3011 RMK AO1 10210
     20180=
KBUY 081154Z AUTO 00000KT 4SM HZ CLR 26/19 A3001 RMK AO2 SLP153
     7//// T02610189 10261 20217 51011=
KBVX 081155Z AUTO 19003KT 10SM CLR 23/22 A3007 RMK AO1 10260 20230
     52007=
KBWI 081154Z 06005KT 3SM HZ FEW110 28/23 A3001 RMK AO2 SLP161
     T02780228 10289 20261 51007=
KCEU 081154Z AUTO 00000KT 7SM CLR 26/22 A3006 RMK AO2 SLP164
     T02560222 10261 20233 53009=
KCGC 081155Z AUTO 00000KT 10SM CLR 22/21 A3000 RMK=
KCGZ 081155Z AUTO 00000KT 10SM CLR 26/00 A2981 RMK AO1 10340 20260
     52010=
KCIU 081155Z AUTO 30006KT 2SM OVC002 20/18 A2998 RMK AO1 60001
     10200 20190 52010=
KCOE 081155Z AUTO 08006KT 10SM CLR 13/08 A3010 RMK AO1 10190 20130
     52003=
KCVN 081155Z AUTO 36010KT 10SM SCT005 SCT009 16/14 A3023 RMK AO1
     70018 10180 20160 52007=
KCVO 081155Z AUTO 27007KT 10SM CLR 12/09 A2994 RMK AO1 52014=
KCWI 081155Z 28003KT 4SM OVC008 A3006 RMK AO1 70103 52014=
KDEC 081154Z 00000KT 5SM HZ CLR 26/23 A3005 RMK AO2 SLP168
     T02610233 10267 20239 53005=
KDYB 081155Z AUTO 00000KT 10SM CLR 22/21 A2997 RMK AO1=
KDYR 081155Z AUTO 00000KT 10SM CLR 25/21 A3008 RMK AO1 10250 20230
     52007=
KEHR 081155Z AUTO 00000KT 9SM CLR 24/20 A3006 RMK AO1 10240 20220
     52003=
KEKM 081154Z 00000KT 07SM SKC 25/22 A3005 RMK AO2=
KENV 081155Z 00000KT 10SM CLR 16/01 A3010 RMK AO1 10240 20160
     52007=
KESC 081155Z AUTO 00000KT 7SM OVC019 19/17 A2998 RMK AO1 10200
     20190 52010=
KEUG 081154Z 18008KT 10SM CLR 13/10 A2994 RMK AO2 SLP135 T01280100
     10189 20128 53008=
KEUL 081155Z AUTO 10003KT 10SM CLR 12/06 A3007 RMK AO1 10190 20110
     52007=
KEVV 081154Z 00000KT 10SM CLR 27/23 A3006 RMK AO2 SLP174 T02670228
     10267 20239 50004=
KEWK 081155Z AUTO 02007KT 9SM OVC004 21/19 A3008 RMK AO1 10210
     20210 52003=
KEWN 081154Z 04007KT 3SM BR SCT008 26/24 A2996 RMK AO2 SLP145
     T02610239 10261 20233 53014=
KFAM 081155Z AUTO 21003KT 10SM BKN080 23/22 A3010 RMK AO1 70010
     10230 20220 52007=
KFET 081153Z AUTO 32003KT 10SM CLR 18/17 A3017 RMK AO2=
KFKL 081155Z 00000KT 5SM CLR 22/19 A3014 RMK AO1 10220 20180=
KFLP 081155Z AUTO 00000KT 10SM OVC065 23/21 A3007 RMK AO1 70001
     10250 20230 52010=
KFOD 081155Z AUTO 35004KT 10SM CLR 17/17 A3014 RMK AO1 10200 20170
     52010=
KFRM 081155Z AUTO 10SM CLR 17/15 A3015 RMK AO1 70178 10180 20160
     52007=
KGAD 081155Z AUTO 00000KT 10SM CLR 22/19 A3007 RMK AO1 10230 20210
     52010=
KGAI 081155Z 00000KT 4SM BKN090 26/22 A3006 RMK AO1 10270 20240
     52010=
KGBD 081155Z AUTO 36007KT 10SM OVC008 19/18 A3018 RMK AO1 70016
     10190 20190 52007=
KGCK 081154Z 02010KT 10SM BKN007 OVC013 17/16 A3024 RMK AO2 CIG
     006V011 SLP210 T01720161 10183 20172 53009=
KGCN 081154Z AUTO 00000KT 10SM BKN110 09/M03 A3025 RMK AO2 SLP152
     7//// T00891028 10117 20067 53006=
KHEF 081155Z AUTO 00000KT 7SM OVC100 27/21 A3002 RMK AO1 10270
     20220 52010=
KHEZ 081155Z AUTO 00000KT 7SM CLR 22/21 A3006 RMK AO1 70006 10240
     20210 52010=
KHNB 081155Z AUTO 00000KT 6SM CLR 24/22 A3007 RMK AO1 10240 20220
     52007=
KHWD 081154Z AUTO 28006KT 10SM OVC007 14/12 A2991 RMK AO2 SLP138
     T01390117 10144 20139 56004=
####018002249####
SAUS70 KWBC 081200 RRR
METAR
PACV 081153Z 17010G14KT 10SM OVC036 14/11 A3009 RMK AO2 RAE1059
     SLP189 P0000 60003 70019 T01390106 10167 20139 51003=
PADE 081153Z AUTO 20007KT 10SM CLR 03/03 A3013 RMK AO2 SLP204
     T00330028 10111 20033 58004 TSNO=
PAEG 081153Z AUTO 00000KT 10SM CLR 04/03 A3005 RMK AO2 SLP179
     T00390028 10183 20033 51010 TSNO=
PAEN 081153Z AUTO 02012KT 10SM FEW065 14/12 A2993 RMK AO2 SLP137
     60000 70005 T01390117 10156 20139 58012 TSNO=
PAGK 081153Z AUTO 00000KT 10SM CLR 06/04 A3006 RMK AO2 SLP186
     70004 T00610044 10172 20056 58004 TSNO=
PAGY 081153Z AUTO 00000KT 10SM CLR 09/09 A3020 RMK AO2 SLP226
     T00940089 10139 20094 57003 TSNO=
PAIL 081153Z AUTO 13003KT 9SM FEW001 BKN080 OVC095 09/08 A2993 RMK
     AO2 RAB33E44 SLP136 P0000 60000 70042 T00890083 10117 20083
     55002 TSNO=
PAKT 081153Z AUTO VRB05KT 10SM CLR 17/11 A3008 RMK AO2 SLP187
     T01720111 10211 20161 53003 TSNO=
PAKV 081153Z AUTO 22003KT 10SM CLR 06/04 A3010 RMK AO2 SLP195
     60000 T00610044 10183 20061 51003 TSNO=
PAKW 081153Z AUTO 18003KT 10SM CLR 10/08 A3013 RMK AO2 SLP201
     T01000083 10139 20100 57001 TSNO=
PALH 081153Z 00000KT 9SM -RA FEW055 OVC080 13/11 A2998 RMK AO2
     RAB29 SLP154 P0000 60002 70004 T01330106 10150 20128
     57009=
PAMR 081153Z 00000KT 10SM FEW060 SCT080 BKN090 BKN200 12/11 A2998
     RMK AO2 RAB01E50 SLP152 P0000 6//// 7//// T01220106 10150
     20117 56008 $=
PAPB 081153Z AUTO 09017KT 10SM OVC048 07/06 A2991 RMK AO2 SLP115
     T00720056 10083 20072 58002 TSNO=
PASC 081153Z 24010KT 10SM OVC230 08/06 A3002 RMK AO2 SLP167 70003
     T00830061 10111 20083 51006=
PASI 081153Z 00000KT 3/4SM BR OVC002 13/12 A3017 RMK AO2 SLP217
     70001 T01280122 10144 20128 58004=
PASO 081153Z AUTO 00000KT 10SM -RA FEW008 OVC060 10/09 A2990 RMK
     AO2 RAE19B45 SLP127 P0000 60001 70036 T01000094 10122 20100
     51005 TSNO=
PATO 081153Z AUTO 09017G38KT 4SM -RA FEW025 BKN034 OVC042 13/10
     A2999 RMK AO2 PK WND 08044/1123 SLP155 P0004 60090 70172
     T01280100 10133 20117 58008 TSNO $=
PAWD 081153Z AUTO 00000KT 10SM FEW010 OVC065 11/09 A2995 RMK AO2
     SLP141 60010 70091 T01060094 10106 20094 56009 TSNO=
####018000153####
SAGC31 MWCR 081200

METAR MWCR 081200Z 12006KT 9999 FEW018 BKN250 28/25 Q1013 NOSIG=

METAR MWCB 081200Z 15006KT 9999 FEW016CB BKN200 29/25 Q1013=
####018003709####
SAUS70 KWBC 081200 RRK
METAR
KMSS 081153Z AUTO 22006KT 6SM HZ CLR 26/22 A3002 RMK AO2 SLP162
     T02610217 10261 20217 51005=
KMTH 081153Z AUTO 06004KT 8SM UP FEW060 BKN100 A2994 RMK AO2
     RAE18UPB47 SLP140 P0002 60007 70100 53010 FZRANO $=
KMTJ 081153Z AUTO 11007KT 10SM CLR 14/05 A3028 RMK AO2 SLP182
     T01390050 10211 20139 53001=
KMTO 081153Z AUTO 21003KT 8SM CLR 24/23 A3005 RMK AO2 SLP167
     T02440228 10250 20233 53005=
KMVY 081153Z 14009KT 10SM CLR 24/21 A3010 RMK AO2 SLP191 T02390206
     10239 20211 53005=
KMWL 081153Z AUTO 10SM FEW085 23/22 A3002 RMK AO2 SLP150 70016
     T02330222 10244 20222 53006 $=
KOGB 081153Z AUTO 32006KT 10SM CLR 25/19 A2999 RMK AO2 SLP152
     T02500194 10261 20233 53004=
KOGD 081153Z 18007KT 10SM CLR 17/07 A3011 RMK AO2 SLP141 T01670067
     10211 20167 53006=
KOJC 081153Z 02003KT 10SM CLR 22/21 A3007 RMK AO2 SLP170 70014
     T02220211 10233 20217 53007=
KOLF 081153Z AUTO 21003KT 10SM FEW085 10/09 A3015 RMK AO2 SLP209
     T01000094 10156 20089 53004=
KOLV 081150Z 00000KT 7SM FEW250 23/23 A3008=
KONO 081153Z AUTO 29006KT 10SM CLR 10/06 A3006 RMK AO2 SLP167
     T01000061 10194 20100 51007=
KOPF 081153Z 35003KT 10SM CLR 28/25 A2995 RMK AO2 SLP143 T02780250
     10278 20261 53008=
KORL 081153Z 03005KT 10SM CLR 24/22 A3000 RMK AO2 SLP161 T02440217
     10244 20222 53003=
KOSU 081153Z 00000KT 4SM HZ CLR 24/21 A3010 RMK AO2 SLP182
     T02390206 10239 20211 53007=
KOTM 081153Z AUTO 33007KT 6SM BR CLR 21/20 A3008 RMK AO2 SLP180
     T02060200 10211 20200 53012=
KOVE 081153Z AUTO 15006KT 10SM CLR 18/12 A2985 RMK AO2 SLP107
     T01780117 10267 20178 53005 TSNO=
KOWD 081153Z 18005KT 10SM CLR 24/19 A3009 RMK AO2 SLP189 T02390189
     10244 20206 51012=
KPBG 081153Z AUTO 13005KT 5SM HZ CLR 26/22 A3001 RMK AO2 SLP161
     60000 T02560222 10256 20211 51005=
KPBI 081153Z 08004KT 6SM -RA BR SCT022 BKN028CB BKN050 26/24 A2996
     RMK AO2 RAB16 SLP143 CB OHD MOV SW P0001 60001 70011
     T02610244 10278 20261 53011=
KPEO 081153Z AUTO 23006KT 5SM HZ CLR 24/21 A3008 RMK AO2 SLP178
     T02390206 10239 20211 51001=
KPGD 081153Z AUTO 04005KT 10SM CLR 24/22 A3001 RMK AO2 SLP163
     T02390222 10239 20222 53010 TSNO=
KPHD 081153Z AUTO 00000KT 3SM HZ CLR 21/18 A3010 RMK AO2 SLP185
     T02110183 10211 20183 50001=
KPIE 081153Z 00000KT 10SM CLR 26/22 A3000 RMK AO2 SLP157 T02560222
     10261 20228 53007=
KPIH 081153Z 00000KT 10SM CLR 06/02 A3018 RMK AO2 SLP184 T00610022
     10156 20050 53005=
KPIR 081153Z AUTO 23006KT 10SM CLR 14/12 A3017 RMK AO2 SLP209
     T01390122 10172 20133 53004=
KVRB 081153Z 00000KT 10SM SCT033 26/23 A2998 RMK AO2 SLP151
     T02610233 10267 20211 53006=
KWRL 081153Z AUTO 00000KT 10SM CLR 09/04 A3028 RMK AO2 SLP227
     T00940039 10161 20094 53005=
KWST 081153Z AUTO 08005KT 10SM FEW008 24/21 A3009 RMK AO2 SLP189
     7//// T02390211 10239 20217 50002=
KYIP 081153Z 00000KT 8SM CLR 26/22 A3005 RMK AO2 SLP165 T02560217
     10256 20222 50003=
KZZV 081153Z AUTO 00000KT 4SM BR SCT065 22/21 A3009 RMK AO2 SLP181
     T02220206 10222 20189 50004=
KLWV 081153Z AUTO 00000KT 3SM HZ CLR 26/23 A3004 RMK AO2 SLP167
     T02560228 10261 20233 51005=
KLXT 081153Z AUTO 07005KT 10SM CLR 22/21 A3007 RMK AO2 SLP174
     70012 T02170206 10233 20217 53006=
KMAE 081153Z AUTO 30005KT 10SM CLR 16/11 A2983 RMK AO2 SLP097
     T01610106 10217 20156 53002=
KMAI 081153Z AUTO 00000KT 1 1/4SM BR OVC001 24/23 A3003 RMK AO2
     SLP166 T02390228 10239 20228 53007=
KMBS 081153Z 24003KT 6SM BR SCT080 SCT110 24/22 A3002 RMK AO2
     RAE23 SLP159 P0000 60000 T02390222 10256 20233 50001=
####018000612####
SANO31 ENMI 081150
METAR ENAN 081150Z 32006KT 9999 FEW045 BKN200 16/10 Q1010 NOSIG=
METAR ENBR 081150Z 21014KT 9999 FEW020 17/11 Q1013 NOSIG =
METAR ENBO 081150Z 26009KT 9999 SCT050CB 15/10 Q1010 TEMPO SHRA=
METAR ENDU 081150Z 24005KT 9999 VCSH SCT050 BKN070 19/08 Q1010
           NOSIG=
METAR ENGM 081141Z 17014KT 9999 FEW010 SCT030 BKN140 17/14 Q1015
           NOSIG=
METAR ENOL 081150Z 33005KT 9999 FEW025TCU BKN080 19/09 Q1010 NOSIG=
METAR ENVA 081150Z 08006KT 040V140 9999 TS SCT040CB SCT070 21/11
           Q1009 TEMPO NSW =
METAR ENZV 081150Z 21011KT 9999 FEW018 BKN200 18/12 Q1015 NOSIG=
####018003720####
SAUS80 KWBC 081200 RRA
METAR
PHTO 081153Z 24003KT 10SM SCT028 21/18 A3002 RMK AO2 SLP164 60011
     70011 T02060178 10250 20206 58013=
PHKO 081153Z AUTO 10007KT 10SM CLR 23/18 A2997 RMK AO2 SLP148
     T02330183 10256 20233 58008 TSNO=
PHLI 081153Z 07013KT 10SM OVC055 24/18 A3004 RMK AO2 SLP170 60002
     70003 T02400183 58010 $=
KYKM 081153Z AUTO 28006KT 10SM CLR 12/07 A3002 RMK AO2 SLP160
     T01170072 10194 20117 53006=
KORF 081151Z 11005KT 10SM FEW010 SCT055 BKN100 26/23 A2999 RMK AO2
     SLP153 T02610228 10261 20250 53012=
KSAN 081151Z 33006KT 10SM OVC019 17/13 A2991 RMK AO2 SLP128
     T01670133 10178 20161 55001=
KSAT 081153Z 03004KT 6SM -RA BR BKN013 BKN039 OVC250 25/23 A2995
     RMK AO2 RAB26 SLP123 P0001 60001 70001 T02500233 10261 20250
     53001=
KSEA 081153Z 01003KT 10SM CLR 20/12 A2996 RMK AO2 SLP147 T02000117
     10261 20183 50001 $=
KTUS 081153Z 09004KT 10SM CLR 29/09 A2991 RMK AO2 SLP070 T02890094
     10339 20283 51008=
KLND 081153Z AUTO 00000KT 10SM CLR 09/03 A3034 RMK AO2 SLP229
     T00940033 10139 20072 53005=
KFAR 081153Z 21004KT 10SM CLR 16/13 A3008 RMK AO2 SLP185 T01610128
     10172 20133 53006=
KUIL 081153Z AUTO 09006KT 10SM CLR 16/10 A2994 RMK AO2 SLP138
     T01560100 10200 20139 53004 TSNO=
KCHA 081153Z 00000KT 10SM CLR 23/19 A3008 RMK AO2 SLP176 T02330194
     10250 20217 51009=
KCTY 081153Z AUTO 00000KT 22/21 A3002 RMK AO2 SLP163 T02170211
     10228 20194 53007 PWINO TSNO $=
KLAX 081153Z 29003KT 9SM OVC012 16/13 A2990 RMK AO2 SLP124
     T01610128 10167 20161 55003=
KP92 081153Z AUTO 00000KT 26/25 A2999 RMK AO2 SLP154 T02560250
     10256 20256 53004 PWINO TSNO=
KTLH 081153Z 00000KT 10SM BCFG FEW010 23/22 A3003 RMK AO2 SLP168
     T02330217 10239 20217 53008=
KTCS 081153Z AUTO 36005KT 10SM BKN110 18/14 A3019 RMK AO2 SLP154
     60000 70042 T01830139 10200 20183 56002 TSNO=
KMWT 081153Z AUTO 00000KT 10SM FEW016 SCT022 BKN027 23/23 A3006
     RMK AO2 SLP167 70028 T02330228 10239 20228 52008 TSNO=
KGNT 081153Z AUTO 15011KT 16/09 A3032 RMK AO2 SLP171 70002
     T01560089 10189 20156 53009 PWINO TSNO=
KNUI 081153Z AUTO VRB05KT 5SM HZ CLR 27/24 A3000 RMK AO2 SLP157
     T02670239 10267 20239 51008=
KRQE 081153Z AUTO 00000KT 10SM CLR 16/07 A3028 RMK AO2 SLP123
     T01610067 10206 20150 51009 TSNO=
KSAV 081153Z 27005KT 10SM CLR 23/20 A3000 RMK AO2 SLP159 T02280200
     10228 20211 53005 $=
KOQT 081153Z AUTO 00000KT 5SM HZ CLR 23/20 A3010 RMK AO2 SLP175
     T02280200 10239 20217 53007 TSNO=
KLXV 081153Z AUTO 00000KT 1/2SM FG OVC002 05/05 A3052 RMK AO2
     SLP215 70011 T00500050 10072 20050 56008 TSNO=
KEMP 081153Z AUTO 36005KT 7SM FEW006 22/19 A3009 RMK AO2 SLP180
     70009 T02170194 10222 20211 53004=
KFNB 081153Z AUTO 35009KT 9SM CLR 21/19 A3010 RMK AO2 SLP185 70068
     T02110194 10222 20211 53006=
KFNT 081153Z AUTO 29003KT 9SM CLR 26/21 A3004 RMK AO2 SLP165
     T02560206 10256 20211 50004=
KGCC 081153Z AUTO 17004KT 10SM CLR 10/07 A3029 RMK AO2 SLP230
     T01000067 10117 20078 53002=
KBIL 081153Z 25005KT 10SM FEW120 13/05 A3025 RMK AO2 SLP223
     T01280050 10189 20111 53004=
KCDR 081153Z AUTO 23005KT 10SM CLR 09/08 A3030 RMK AO2 SLP258
     T00890078 10128 20083 53007=
KCNY 081153Z AUTO VRB03KT 10SM CLR 20/04 A3012 RMK AO2 SLP137
     T02000044 10239 20183 53006=
KAAF 081153Z AUTO 36006KT 7SM CLR 25/24 A3002 RMK AO2 SLP164
     T02500239 10250 20233 53008=
KBFF 081153Z AUTO 00000KT 10SM SCT026 SCT034 OVC055 14/13 A3031
     RMK AO2 SLP234 T01440128 10161 20144 53004=
KHLC 081153Z AUTO 03004KT 10SM OVC027 18/16 A3023 RMK AO2 SLP219
     70003 T01780161 10178 20167 53007=
####018000299####
SAPQ50 KWBC 081200
METAR
PTKK 081150Z VRB04KT 15SM FEW014 BKN120 OVC280 26/23 A2985 RMK
     SLP110 60002 70100 8/171 T02600228 10261 20244 52008=
PGUM 081154Z 11010G16KT 10SM FEW025 SCT045 27/24 A2992 RMK AO2
     RAB21E30 SLP124 60001 70001 8842577 T02720239 10306 20261
     53014=
####018000725####
SADL31 KWBC 081150
METAR
EDBB NIL=
EDBT NIL=
EDCK NIL=
EDDF 081150Z VRB02KT CAVOK 29/10 Q1020 NOSIG=
EDDH 081150Z 22006KT 180V240 CAVOK 29/12 Q1019 NOSIG=
EDDK 081150Z 16007KT CAVOK 31/10 Q1019 NOSIG=
EDDL 081150Z 21005KT 170V240 CAVOK 30/09 Q1019 NOSIG=
EDDM 081150Z 09006KT CAVOK 24/09 Q1022 NOSIG=
EDDN 081150Z 15006KT CAVOK 27/07 Q1022 NOSIG=
EDDS 081150Z VRB03KT CAVOK 27/08 Q1021 NOSIG=
EDDW 081150Z 19007KT CAVOK 30/09 Q1019 NOSIG=
EDFE 081150Z 07004KT 010V090 CAVOK 29/11 Q1020=
EDFM 081150Z 20005KT 110V330 CAVOK 31/10 Q1020=
EDHI 081150Z 21007KT 140V270 CAVOK 29/13 Q1019=
EDHL 081150Z 21008KT 160V240 CAVOK 29/12 Q1019=
EDKB NIL=
EDKS NIL=
EDLE NIL=
EDLG NIL=
EDLI NIL=
####018000032####
SAAW41 KWBC 081150 RRD
NIL=
####018000083####
SAAL31 KWBC 081100 RRD
METAR
DAUA 081100Z 01026KT 4000 DRSA NSC 43/08 Q1014=
####018003737####
SAUS70 KWBC 081200 RRM
METAR
KLHX 081153Z AUTO 04005KT 10SM BKN080 OVC100 16/14 A3030 RMK AO2
     SLP211 6//// 7//// T01610144 10172 20156 53003 PNO $=
KLNS 081153Z 00000KT 3SM HZ CLR 26/21 A3003 RMK AO2 SLP165
     T02610211 10267 20228 51004=
KLOU 081153Z 17003KT 5SM HZ CLR 26/22 A3006 RMK AO2 SLP174
     T02560217 10272 20239 50004=
KLOZ 081153Z AUTO 00000KT 2SM BR CLR 21/19 A3012 RMK AO2 SLP185
     T02110194 10222 20194 53009=
KLPR 081153Z AUTO 17005KT 7SM FEW065 25/19 A3008 RMK AO2 SLP177
     T02500189 10250 20217 53003=
KLSE 081153Z 32009KT 10SM CLR 22/19 A3005 RMK AO2 SLP164 T02170194
     10228 20194 51008=
KLUK 081153Z 00000KT 1 3/4SM BR CLR 23/22 A3008 RMK AO2 SLP182
     P0001 60001 70001 T02330217 10233 20211 50003=
KLVM 081153Z AUTO 29003KT 10SM CLR 04/02 A3030 RMK AO2 SLP240
     T00440022 10144 20028 53005=
KSNY 081153Z AUTO 00000KT 10SM SCT043 BKN050 16/14 A3033 RMK AO2
     SLP235 7//// T01610144 10167 20150 $=
KSPG 081153Z 08005KT 10SM CLR 27/22 A2998 RMK AO2 SLP151 T02670222
     10272 20261 53006=
KSPW 081153Z AUTO 32005KT 7SM CLR 16/14 A3016 RMK AO2 SLP209 70058
     T01610144 10167 20144 53009=
KSRQ 081153Z 08004KT 10SM CLR 24/22 A2998 RMK AO2 SLP152 T02440222
     10250 20228 53008=
KSSI 081153Z AUTO 27004KT 10SM CLR 24/21 A3000 RMK AO2 PK WND
     32038/1104 SLP160 T02390206 10239 20228 53004=
KSTJ 081153Z AUTO 35008KT 6SM BR OVC007 22/21 A3008 RMK AO2 SLP177
     60003 70012 T02220206 10239 20222 53006=
KSTP 081153Z 31004KT 10SM CLR 19/17 A3010 RMK AO2 SLP189 70014
     T01940167 10206 20178 51013=
KSWO 081153Z AUTO 00000KT 6SM BR SCT032 23/21 A3005 RMK AO2 SLP162
     70016 T02280211 10233 20228 53004=
KTDZ 081153Z AUTO 23004KT 8SM CLR 25/19 A3005 RMK AO2 SLP170
     T02500194 10250 20228 50003=
KTHV 081153Z AUTO 00000KT 4SM HZ CLR 26/21 A3004 RMK AO2 SLP169
     T02610211 10261 20206 53006=
KTMB 081153Z 03004KT 10SM FEW017 28/26 A2994 RMK AO2 SLP139
     T02780256 10278 20261 53008=
KTOP 081153Z 34003KT 9SM CLR 22/21 A3008 RMK AO2 SLP176 60071
     70118 T02170206 10222 20211 53007=
KTOR 081153Z AUTO 00000KT 9SM CLR 11/09 A3031 RMK AO2 SLP242 P0001
     60001 70001 T01060094 10150 20100 51006=
KTPA 081153Z 00000KT 10SM SCT200 25/22 A3000 RMK AO2 SLP158
     T02500217 10261 20233 53007=
KTTN 081153Z 00000KT 1 3/4SM HZ CLR 26/23 A3004 RMK AO2 SLP165
     T02610228 10261 20233 51011=
KTUL 081153Z 00000KT 10SM FEW010 SCT033 BKN070 23/23 A3004 RMK AO2
     TSE04RAE1055 SLP164 TS MOV N P0000 60077 70077 T02330228
     10244 20228 52011=
KTVC 081153Z 00000KT 8SM BKN070 OVC095 23/21 A2999 RMK AO2
     RAB1059E42 SLP154 P0000 60000 T02280211 10239 20222 53010=
KTWF 081153Z 11010KT 10SM CLR 14/M03 A3013 RMK AO2 SLP149
     T01441033 10156 20072 53003=
KTYR 081153Z 06003KT 9SM CLR 25/23 A3005 RMK AO2 SLP167 70008
     T02500233 10250 20244 53009=
KUNO 081153Z AUTO 21006KT 10SM CLR 23/21 A3010 RMK AO2 SLP176
     T02330211 10250 20222 53008 TSNO=
KUUU 081153Z AUTO 11005KT 3/4SM BR OVC001 21/21 A3011 RMK AO2
     SLP193 T02110206 10222 20206 53011=
KVEL 081153Z AUTO 09005KT 10SM CLR 13/06 A3024 RMK AO2 SLP187
     T01330056 10189 20133 53008=
KVIH 081153Z AUTO 00000KT 7SM FEW011 BKN033 OVC049 23/22 A3006 RMK
     AO2 LTG DSNT W RAB38E44 SLP167 P0000 60000 70005 T02330217
     10239 20222 53004=
KVPC 081153Z AUTO 00000KT 7SM CLR 22/20 A3007 RMK AO2 SLP169
     T02170200 10217 20189 51007=
KPKB 081153Z 00000KT 1/4SM R03/1200FT FG CLR 21/21 A3012 RMK AO2
     SLP190 VIS SW-W 3/4 T02110206 10217 20194 51007=
KPKD 081153Z AUTO 23003KT 10SM CLR 15/14 A3009 RMK AO2 SLP187
     60001 70001 T01500139 10156 20133 53005=
####018000092####
SAAH10 OAKB 081150
METAR OAKB 081150Z 35009KT 9999 FEW070 34/05 Q1013 NOSIG RMK BLU BLU=
####018002283####
SAUS80 KWBC 081200 RRC
METAR
PABE 081153Z 36004KT 10SM OVC120 10/10 A3001 RMK AO2 SLP171 70004
     T00980095 10150 20089 51005 PNO $=
PABT 081153Z 00000KT 10SM SCT120 11/09 A3007 RMK AO2 SLP190
     T01060094 10189 20106 51003=
PACD 081153Z 09004KT 10SM FEW050 SCT180 06/05 A2990 RMK AO2 SLP126
     T00560050 10106 20044 58013=
PADQ 081153Z 28005KT 10SM FEW020 OVC033 11/09 A2985 RMK AO2
     RAB12E21 SLP109 P0000 60008 70087 T01060089 10106 20100 51005
     $=
PAFA 081153Z 00000KT 10SM FEW200 11/07 A3004 RMK AO2 SLP175
     T01060072 10222 20100 52001=
PAHO 081153Z AUTO 00000KT 10SM FEW055 BKN090 OVC120 11/09 A2992
     RMK AO2 SLP132 70026 T01060094 10133 20106 53010 TSNO=
PAJN 081153Z 00000KT 10SM FEW230 09/08 A3018 RMK AO2 SLP218
     T00940083 10150 20094 57004=
PAMC 081153Z 00000KT 10SM SCT080 BKN200 11/09 A2999 RMK AO2 SLP156
     T01060089 10200 20106 52001=
PANC 081153Z 00000KT 8SM RA BKN075 BKN200 12/11 A2997 RMK AO2
     SLP150 P0001 60001 70002 T01170111 10133 20111 56009=
PANN 081153Z AUTO 00000KT 10SM CLR 09/08 A3001 RMK AO2 SLP168
     T00940078 10217 20089 58003 TSNO=
PANT 081153Z 33008KT 10SM CLR 17/11 A3007 RMK AO2 SLP181 T01720111
     10206 20167 51004=
PAOM 081153Z 33008KT 10SM SCT200 13/08 A3008 RMK AO2 SLP187
     T01280078 10194 20128 58002=
PAOR 081153Z 00000KT 10SM FEW070 09/08 A3007 RMK AO2 SLP185
     T00940083 10183 20083 58003=
PAOT 081153Z 28009KT 10SM FEW038 SCT090 BKN200 11/07 A3011 RMK AO2
     SLP198 T01110072 10128 20111 58004=
PAQT 081153Z AUTO 23009KT 10SM CLR 08/06 A3006 RMK AO2 SLP181
     70004 T00780056 10139 20072 51004 TSNO=
PASN 081153Z 07013KT 10SM OVC044 05/05 A2994 RMK AO2 SLP137
     T00500050 10067 20050 58003=
PATK 081153Z AUTO 09004KT 10SM FEW120 12/11 A2998 RMK AO2 SLP154
     T01220106 10183 20122 56007 TSNO=
PAYA 081153Z 00000KT 10SM BKN110 11/09 A3018 RMK AO2 SLP219 BAY
     TWR WND 130MMKT 60000 70004 T01110094 10144 20106 58002=
K40J 081153Z AUTO 00000KT 22/21 A3001 RMK AO2 SLP162 T02170211
     10228 20194 53006 PWINO TSNO=
K1V4 081154Z AUTO 23/20 A3006 RMK AO2 SLP164 T02280200 10228 20200
     51003 PWINO TSNO=
KMQE 081154Z AUTO 15005KT 23/19 A3011 RMK AO1 SLP200 T02330189
     10233 20206 51011=
####018000130####
SAUS41 KCAR 081155
MTRCAR
METAR KCAR 081154Z AUTO 19005KT 8SM CLR 24/21 A3002 RMK AO2 SLP165 
T02390206 10239 20211 51008
####018003715####
SAUS70 KWBC 081200 RRH
METAR
KDTW 081153Z 00000KT 6SM HZ FEW150 26/21 A3003 RMK AO2 SLP165
     T02560211 10261 20233 50002=
KDXR 081153Z 00000KT 1 1/2SM BR OVC003 23/22 A3008 RMK AO2 SLP182
     T02330222 10239 20222 51006=
KECP 081153Z 32004KT 8SM CLR 24/24 A3002 RMK AO2 SLP177 7////
     T02440239 10244 20228 53005=
KEEO 081153Z AUTO 06003KT 10SM CLR 07/06 A3031 RMK AO2 SLP194
     6//// 7//// T00720056 10144 20072 $=
KELD 081153Z AUTO 00000KT 5SM BR CLR 23/22 A3006 RMK AO2 SLP173
     70071 T02280222 10233 20222 53008=
KELM 081153Z 00000KT 2 1/2SM HZ CLR 22/19 A3009 RMK AO2 SLP181
     T02170189 10217 20167 51003=
KEVW 081153Z AUTO 08012KT 10SM CLR 10/03 A3033 RMK AO2 SLP187
     T01000033 10139 20100 51009 TSNO=
KEWB 081153Z 13005KT 10SM OVC004 23/21 A3009 RMK AO2 SLP189
     T02330211 10233 20217 51009=
KEYE 081153Z AUTO 00000KT 6SM HZ CLR 26/21 A3005 RMK AO2 SLP168
     T02560206 10256 20233 50002=
KEYW 081153Z 08004KT 10SM FEW019 28/24 A2995 RMK AO2 SLP140 60000
     70001 T02780244 10283 20272 53008=
KFCM 081153Z 27003KT 10SM CLR 19/16 A3010 RMK AO2 SLP189 70008
     T01890161 10211 20172 53010=
KFDY 081153Z AUTO 00000KT 4SM HZ CLR 24/21 A3006 RMK AO2 SLP169
     T02390206 10239 20211 51004=
KFFT 081153Z AUTO 00000KT 4SM BR CLR 23/22 A3008 RMK AO2 SLP177
     T02330217 10233 20206 51003=
KFLL 081153Z 08007KT 10SM CLR 29/24 A2994 RMK AO2 SLP138 T02890239
     10289 20278 53008=
KFLO 081153Z 32005KT 10SM CLR 27/19 A2996 RMK AO2 SLP142 T02670189
     10267 20250 53006=
KFMY 081153Z 04005KT 10SM CLR 25/23 A2997 RMK AO2 SLP152 70001
     T02500228 10250 20233 53010=
KFOE 081153Z 33006KT 10SM SCT007 BKN012 22/20 A3009 RMK AO2 SLP177
     60033 70102 T02170200 10222 20206 52010=
KFOK 081153Z 12005KT 10SM FEW004 OVC013 24/21 A3009 RMK AO2 SLP187
     T02440211 10250 20239 51012=
KFPR 081153Z 00000KT 10SM FEW020 26/23 A2998 RMK AO2 SLP152
     T02560228 10267 20217 53009=
KFRG 081153Z 19005KT 9SM BKN012 OVC021 25/23 A3006 RMK AO2 SLP178
     60000 T02500228 10256 20244 53007=
KFST 081153Z AUTO 14004KT 10SM BKN120 22/19 A3008 RMK AO2 SLP135
     T02220194 10228 20217 53005=
KFVE 081153Z AUTO 15005KT 3SM BR OVC003 23/23 A3002 RMK AO2 SLP156
     T02280228 10233 20217 51006=
KFWN 081153Z AUTO 00000KT 4SM HZ CLR 24/21 A3006 RMK AO2 SLP175
     T02440211 10244 20206 51008=
KFXE 081153Z 06006KT 10SM FEW019 29/24 A2994 RMK AO2 SLP142 60000
     T02890239 10289 20272 53009=
KGAG 081153Z AUTO 36006KT 10SM OVC009 21/19 A3015 RMK AO2 RAE1056
     SLP183 P0000 60000 T02060194 10228 20206 53008=
KGEY 081153Z AUTO 00000KT 10SM CLR 09/03 A3027 RMK AO2 SLP227
     T00940028 10178 20094 53006=
KGEZ 081153Z AUTO 14003KT 5SM HZ CLR 24/21 A3005 RMK AO2 SLP166
     T02390211 10239 20206 50002=
KGFK 081153Z 24003KT 10SM FEW080 16/13 A3005 RMK AO2 SLP174 7////
     T01560133 10161 20139 53006=
KGFL 081153Z AUTO 00000KT 5SM HZ CLR 26/22 A3003 RMK AO2 SLP166
     T02560222 10256 20200 50004=
KGGW 081153Z AUTO 05004KT 10SM CLR 11/08 A3015 RMK AO2 SLP206
     T01110083 10167 20094 53005 TSNO $=
KGIF 081153Z AUTO 00000KT 10SM CLR 24/22 A3001 RMK AO2 SLP160
     T02390217 10239 20217 52006 TSNO=
KGJT 081153Z 12005KT 10SM CLR 18/07 A3019 RMK AO2 SLP153 T01780067
     10233 20178 53008=
KGKJ 081153Z AUTO 00000KT 9SM CLR 24/18 A3011 RMK AO2 SLP184
     T02440183 10244 20194 50004=
KGLD 081153Z AUTO 36003KT 10SM OVC004 17/16 A3030 RMK AO2 CIG
     003V009 SLP228 T01670161 10172 20167 53006=
KGLR 081153Z AUTO 25008KT 6SM -RA BR FEW019 BKN046 OVC065 22/20
     A3003 RMK AO2 RAB08 SLP161 P0001 60001 70001 T02170200 10233
     20211 53007=
####018000028####
SABX31 KWBC 081150
NIL=
####018003659####
SAUS80 KWBC 081200 RRB
METAR
KHSI 081153Z AUTO 35005KT 10SM CLR 16/14 A3021 RMK AO2 SLP221
     T01560144 10167 20150 51010=
KHVR 081153Z AUTO 24004KT 10SM CLR 08/07 A3020 RMK AO2 SLP221
     T00780067 10139 20072 53003=
KSDM 081153Z AUTO 00000KT 10SM OVC010 16/13 A2990 RMK AO2 SLP121
     T01610133 10167 20156 55000 TSNO=
KJAN 081154Z 00000KT 8SM CLR 23/22 A3007 RMK AO2 SLP177 70043
     T02330222 10244 20228 53011 $=
KELY 081153Z AUTO 19003KT 10SM CLR 07/M04 A3023 RMK AO2 SLP144
     70078 T00671039 10183 20067 53008 $=
KBTV 081154Z 00000KT 7SM CLR 27/21 A3003 RMK AO2 SLP166 T02670211
     10267 20228 53006=
KODX 081153Z AUTO 00000KT 10SM BKN090 BKN110 17/16 A3022 RMK AO2
     SLP228 T01670156 10167 20144 53008=
KMLU 081153Z 00000KT 5SM BR SCT002 25/23 A3006 RMK AO2 SLP178
     70003 T02500233 10256 20244 53009=
KJLN 081153Z 01006KT 10SM SCT003 BKN022 OVC100 22/22 A3007 RMK AO2
     TSE1056 SLP171 60086 70090 T02220217 10233 20222 51008=
KLAN 081153Z 00000KT 7SM FEW120 SCT180 24/21 A3005 RMK AO2 SLP167
     T02390211 10250 20228 50005=
KLBB 081153Z 01004KT 10SM BKN041 BKN055 BKN100 19/17 A3015 RMK AO2
     SLP165 60000 70001 T01890167 10211 20189 51004=
KLWD 081153Z AUTO 01008KT 7SM BKN007 21/20 A3010 RMK AO2 CIG
     003V009 SLP186 70116 T02110200 10217 20200 51006=
KSTC 081153Z 00000KT 6SM BR CLR 16/14 A3010 RMK AO2 SLP196
     T01610144 10167 20133 51005=
KPOF 081153Z AUTO 21004KT 7SM CLR 25/24 A3005 RMK AO2 SLP170
     T02500239 10256 20244 51006 $=
KRIW 081153Z AUTO 30006KT 10SM CLR 07/04 A3035 RMK AO2 SLP233
     T00720039 10150 20072 51004=
KSAN 081151Z 33006KT 10SM OVC019 17/13 A2991 RMK AO2 SLP128
     T01670133 10178 20161 55001=
KCUT 081153Z AUTO 32003KT 10SM CLR 06/06 A3035 RMK AO2 SLP247
     T00610056 10089 20061 52002 TSNO=
KHTL 081153Z AUTO 21005KT 9SM OVC065 23/21 A3004 RMK AO2 SLP165
     60013 70091 T02280211 10239 20211 53002=
KMSN 081153Z VRB03KT 8SM BKN006 OVC010 22/21 A3003 RMK AO2 SLP162
     60000 70057 T02170206 10222 20211 51006=
KCRW 081154Z 00000KT 2SM BR CLR 22/20 A3010 RMK AO2 SLP181
     T02220200 10228 20206 51004=
KDSM 081154Z 32003KT 10SM FEW180 BKN250 21/19 A3010 RMK AO2 SLP186
     70007 T02110189 10233 20211 53012=
KDVL 081155Z AUTO 29006KT 10SM CLR 16/13 A3009 RMK AO1 10170 20140
     52010=
KEAR 081155Z AUTO 33005KT 10SM CLR 15/13 A3024 RMK AO1 10160 20140
     52007=
KGPZ 081155Z AUTO 24005KT 10SM CLR 17/14 A3006 RMK AO1 10170 20120
     52003=
KPIA 081154Z 22003KT 3SM BR BKN004 OVC014 23/22 A3004 RMK AO2 CIG
     002V007 SLP166 60002 70077 T02330222 10233 20228 51003=
KISM 081150Z 01004KT 10SM SKC 24/22 A3002=
KLEX 081154Z 00000KT 3SM HZ CLR 24/19 A3010 RMK AO2 SLP180
     T02390194 10244 20211 51006=
KLYH 081154Z 02003KT 6SM HZ CLR 27/19 A3006 RMK AO2 SLP166
     T02670189 10267 20228 53006=
KSOW 081150Z AUTO 13005KT 9SM BKN100 19/03 A3025 RMK AO2=
KSUS 081154Z 28003KT 8SM -RA FEW001 BKN024 OVC038 24/23 A3004 RMK
     AO2 RAB51 SLP162 P0000 60005 70020 T02440233 10256 20239
     51007=
KP68 081153Z AUTO 22006KT 07/M03 A3016 RMK AO2 SLP143 T00671028
     10167 20061 53007 PWINO TSNO=
KCOU 081154Z 00000KT 6SM BR FEW002 BKN011 OVC016 23/22 A3006 RMK
     AO2 SLP171 VIS N 2 60004 70071 T02280222 10228 20222
     53007=
KSBN 081154Z 36003KT 6SM HZ BKN100 24/21 A3005 RMK AO2 SLP167
     T02440211 10250 20222 55001=
KDMH 081154Z AUTO 28/23 A3002 RMK AO2 SLP164 T02830228 10300 20267
     51006 PWINO TSNO=
KAPN 081154Z AUTO 23003KT 10SM OVC095 23/21 A2998 RMK AO2 SLP150
     60001 70001 T02280211 10228 20183 50000=
####018000167####
SADL33 KWBC 081145 RRB
METAR
EDNY 081150Z 19005KT CAVOK 27/11 Q1022=
EDVK 081150Z 19006KT 100V250 CAVOK 27/10 Q1021=
EDXW 081150Z 23011KT CAVOK 21/14 Q1019=
####018000511####
SADL32 KWBC 081150
METAR
EDLN 081150Z VRB05KT CAVOK 30/10 Q1019=
EDLP 081150Z 19005KT 160V240 CAVOK 29/10 Q1020=
EDLS NIL=
EDLW 081150Z 22011KT CAVOK 30/09 Q1020=
EDMA 081150Z 17004KT 050V250 CAVOK 26/09 Q1022=
EDML NIL=
EDMO 081150Z 02005KT 330V110 CAVOK 25/09 Q1023=
EDMS NIL=
EDQD NIL=
EDQM 081150Z VRB03KT CAVOK 24/07 Q1023=
EDRS NIL=
EDRT NIL=
EDTB NIL=
EDTD 081150Z 11004KT 050V160 CAVOK 26/10 Q1023=
EDTF NIL=
EDTK NIL=
EDTO NIL=
EDTY NIL=
EDTZ NIL=
EDVE NIL=
####018003720####
SAUS70 KWBC 081200 RRF
METAR
KVGT 081153Z AUTO 00000KT 10SM CLR 26/M04 A2986 RMK AO2 SLP073
     T02561039 10322 20244 53008 TSNO=
KVPZ 081153Z AUTO 09005KT 2 1/2SM BR SCT050 BKN060 OVC090 22/22
     A3004 RMK AO2 LTG DSNT E AND S TSE16RAB1054E43 SLP168 P0006
     60006 7//// T02220217 10239 20222 50001=
KVUO 081153Z AUTO 00000KT 10SM CLR 16/13 A2989 RMK AO2 SLP123
     T01610128 10233 20150 53008=
KWVI 081153Z AUTO 00000KT 10SM OVC007 13/11 A2992 RMK AO2 SLP132
     T01280111 10133 20122 55003=
KXNA 081153Z 15003KT 10SM OVC021 23/22 A3009 RMK AO2 SLP173 60001
     70020 T02280217 10233 20222 53009=
KMFE 081153Z 35009KT 10SM BKN008 BKN014 OVC041 26/24 A2981 RMK AO2
     CIG 006V012 SLP092 70036 T02610244 10272 20256 53002=
KMFR 081153Z AUTO 00000KT 10SM CLR 19/12 A2990 RMK AO2 SLP111
     T01940122 10289 20194 53009=
KMGW 081153Z 00000KT 5SM HZ CLR 23/19 A3012 RMK AO2 SLP186 7////
     T02280189 10228 20194 51007=
KMIW 081153Z AUTO 32005KT 10SM CLR 19/18 A3009 RMK AO2 SLP184
     70097 T01940183 10200 20189 53013=
KMKL 081153Z 00000KT 10SM CLR 23/22 A3009 RMK AO2 SLP182 70002
     T02330217 10239 20217 53006=
KMLE 081150Z AUTO 31003KT 10SM CLR 19/17 A3015 RMK AO2 70118
     T01920168 10216 20192=
KMLP 081153Z AUTO 12008G16KT 10SM CLR 13/02 A3027 RMK AO2 SLP156
     T01280017 10156 20128 55000 TSNO=
KMMH 081150Z AUTO 00000KT 10SM CLR 07/01 A3022 RMK AO1=
KMMV 081153Z AUTO 26004KT 10SM CLR 13/11 A2991 RMK AO2 SLP125
     T01330106 10244 20133 53010=
KMOD 081153Z AUTO 34004KT 10SM CLR 15/11 A2984 RMK AO2 SLP104
     T01500106 10217 20150 53001=
KMRB 081153Z AUTO 00000KT 4SM HZ CLR 24/19 A3004 RMK AO2 SLP166
     7//// T02440189 10278 20206 51006=
KMSL 081153Z AUTO 00000KT 10SM CLR 24/23 A3010 RMK AO2 SLP184
     70020 T02440228 10250 20228 53008=
KMSY 081153Z 09003KT 9SM FEW016 SCT250 27/23 A3002 RMK AO2 SLP168
     T02670233 10272 20261 53006=
KMYF 081153Z AUTO 32006KT 10SM OVC015 16/14 A2990 RMK AO2 SLP122
     T01610139 10167 20156 55000 TSNO=
KMYV 081153Z AUTO 18006KT 10SM CLR 16/11 A2984 RMK AO2 SLP106
     T01560111 10217 20156 53006=
KNEW 081153Z AUTO 09006KT 10SM CLR 27/25 A3002 RMK AO2 SLP160
     T02720250 10278 20267 53008 TSNO=
KOAK 081153Z 28008KT 10SM OVC007 14/11 A2993 RMK AO2 SLP133
     T01440111 10150 20144 55004=
KOGA 081150Z AUTO 00000KT 10SM BKN100 15/14 A3028 RMK AO2
     T01500140 10167 20150=
KOMK 081153Z AUTO 33005KT 10SM CLR 12/08 A3006 RMK AO2 SLP173
     T01220078 10200 20117 53003=
KONL 081150Z AUTO 25003KT 10SM CLR 17/15 A3022 RMK AO2 70001
     T01650151 10168 20145=
KONT 081153Z 22005KT 4SM HZ OVC010 15/12 A2989 RMK AO2 SLP111
     T01500122 10156 20150 55004=
KORD 081151Z COR 19004KT 6SM BR FEW022 BKN055 OVC200 23/22 A3002
     RMK AO2 RAE40 SLP160 P0000 60015 70035 T02330222 10239 20228
     55000=
KOSH 081153Z 00000KT 8SM SCT006 22/21 A3001 RMK AO2 SLP148 60006
     7//// T02220206 10222 20217 51011=
KOVS 081153Z AUTO 00000KT 9SM SCT009 22/20 A3004 RMK AO2 SLP170
     70031 T02170200 10217 20206 52013=
KOXB 081153Z AUTO 07005KT 10SM BKN110 24/24 A3002 RMK AO2 SLP166
     60000 T02440239 10244 20239 51012=
KPAE 081153Z AUTO 03003KT 10SM CLR 18/12 A2997 RMK AO2 SLP146
     T01830117 10222 20178 52001=
KSAC 081153Z 17004KT 10SM CLR 13/10 A2985 RMK AO2 SLP106 T01330100
     10167 20133 51004=
KSAF 081153Z AUTO 00000KT 10SM CLR 13/10 A3033 RMK AO2 SLP191
     70013 T01280100 10156 20128 53005=
KSBA 081153Z 23004KT 9SM OVC011 14/12 A2991 RMK AO2 SLP126 7////
     T01440122 10144 20122 55000 $=
KSDL 081153Z 00000KT 10SM CLR 29/05 A2982 RMK AO2 SLP065 T02890050
     10339 20289 53007=
####018000982####
SADN31 KWBC 081150
METAR
EKAH 081150Z AUTO 19004KT 140V270 9999NDV RERA BKN067/// 21/17
     Q1019=
EKBI 081150Z 25008KT 210V270 9999 FEW018CB BKN095 22/15 Q1019=
EKBI 081150Z NIL=
EKCH 081150Z 16014KT CAVOK 23/15 Q1020 NOSIG=
EKEB 081150Z AUTO 24010KT 9999NDV BKN066/// BKN082/// 20/16
     Q1019=
EKHO NIL=
EKKA 081150Z 19006KT 150V220 7000 -SHRA FEW009 FEW018TCU BKN030
     18/17 Q1018 TEMPO 4000 SHRA SCT020CB=
EKMB NIL=
EKOD 081150Z NIL=
EKRK 081150Z AUTO 22013KT 9999NDV BKN050/// 25/10 Q1019=
EKRN 081150Z AUTO 20004KT 170V240 9999NDV NCD 20/15 Q1022=
EKSB 081150Z 17007KT 140V210 CAVOK 26/11 Q1018=
EKSN 081150Z 18010KT 9999 SCT025 BKN047 20/15 Q1017=
EKSP 081150Z 22015KT CAVOK 27/10 Q1018 NOSIG RMK BKN090=
EKSV NIL=
EKTS NIL=
EKVA NIL=
EKVD 081150Z 23016KT CAVOK 25/10 Q1018=
EKVD 081150Z NIL=
EKVG NIL=
EKVJ 081150Z NIL=
EKVL NIL=
EKYT 081150Z 18011KT 9999 -RA FEW017 BKN023 20/15 Q1018 TEMPO 7000
     BKN012=
####018001435####
SAEN31 KWBC 081150
METAR
EETN 081150Z 30010KT CAVOK 24/18 Q1014 NOSIG=
EFHF 081154Z NIL=
EFHK 081150Z 29009KT 9999 FEW036 SCT050 27/18 Q1014 NOSIG=
EFIV NIL=
EFJY 081150Z 09003KT 9999 SCT025 SCT080 23/17 Q1015=
EFKE NIL=
EFKK 081154Z NIL=
EFKU 081150Z AUTO 31006KT CAVOK 23/17 Q1015=
EFMA 081150Z 20008KT 150V230 CAVOK 22/14 Q1016=
EFOU 081150Z 16005KT 110V220 9999 FEW040 BKN200 22/10 Q1015=
EFPN NIL=
EFPO 081150Z 29008KT 220V330 CAVOK 24/12 Q1016=
EFRO 081150Z AUTO VRB03KT CAVOK 21/09 Q1016=
EFTN NIL=
EFTP 081150Z VRB05KT 9999 FEW045 SCT200 25/14 Q1015=
EFTU 081150Z AUTO VRB04KT CAVOK 27/09 Q1015=
EFVA 081150Z 18006KT 140V220 9999 FEW030 SCT200 25/12 Q1014=
ENBO 081150Z 26009KT 9999 SCT050CB 15/10 Q1010 TEMPO SHRA=
ENBR 081150Z 21014KT 9999 FEW020 17/11 Q1013 NOSIG=
ENCN 081150Z 17005KT 9000 BKN035 17/16 Q1016=
ENEB NIL=
ENFB NIL=
ENGM NIL=
ENHD 081150Z 20012KT 9999 FEW020 SCT210 16/12 Q1014=
ENKR 081150Z 18007KT 9999 BKN020 15/10 Q1018=
ENSB 081150Z 27012KT 9999 FEW015 SCT025 BKN035 09/05 Q1009
     NOSIG=
ENTC 081150Z 33003KT 260V040 9999 FEW065 SCT082 19/07 Q1011=
ENVA 081150Z 08006KT 040V140 9999 TS SCT040CB SCT070 21/11 Q1009
     TEMPO NSW=
ENZV 081150Z 21011KT 9999 FEW018 BKN200 18/12 Q1015 NOSIG=
EVRA 081150Z 32010KT 280V340 9999 OVC021 20/15 Q1015 NOSIG=
EYVI 081150Z 28013KT 260V320 4000 -SHRA BKN005 OVC014CB 15/14
     Q1015 NOSIG=
####018000108####
SAEN31 KWBC 081120 RRB
METAR
ENGM 081141Z 17014KT 9999 FEW010 SCT030 BKN140 17/14 Q1015
     NOSIG=
####018000288####
SANO36 ENMI 081150
METAR ENBS 081150Z NIL=
METAR ENHK 081150Z 12009KT 9999 FEW028 SCT0052 BKN090 18/09 Q1012=
METAR ENHV 081150Z NIL=
METAR ENLK 081150Z 26004KT 9999SCT045 BKN060 14/11 Q1011=
METAR ENMH 081150Z NIL=
METAR ENNK 081150Z 06006KT 9999 -SHRA BKN050 15/12 Q1010=
####018000028####
SAGR31 KWBC 081150
NIL=
####018000028####
SAGR41 KWBC 081150
NIL=
####018000028####
SAIY31 KWBC 081150
NIL=
####018000028####
SAIY41 KWBC 081150
NIL=
####018000028####
SAIY32 KWBC 081150
NIL=
####018000028####
SAIY42 KWBC 081150
NIL=
####018000028####
SAIY43 KWBC 081150
NIL=
####018000318####
SAMX41 KWBC 081145 RRC
METAR
MMCE 081145Z 16010KT 3SM SCT020 BKN030 OVC070 27/25 A2980 RMK
     SLP090 5//// 924 8/43/=
MMCM 081145Z 00000KT 7SM BKN005 BKN020 OVC050 25/24 A2980 RMK
     SLP093 5//// 8/7// 976=
MMMT 081145Z 23010KT 10SM BKN050 OVC100 23/18 A2979 RMK SLP162
     5//// 913 67308 8/57/=
####018000407####
SAMX31 KWBC 081145 RRB
METAR
MMCZ 081144Z 09005KT 6SM BKN100 BKN200 26/24 A2987 RMK SLP110
     57007 917 8/078 SC HZY=
MMMD 081152Z 10005KT 5SM BKN070 OVC300 18/18 A2985 RMK SLP117
     52005 929 8/077 HZY SC=
MMTP 081140Z 00000KT 10SM BKN020 OVC100 24/22 A2990 RMK SLP096
     57003 904 8/17/=
MMUN 081151Z 10006KT 6SM SCT015TCU OVC090 28/24 A2989 RMK SLP121
     52010 924 8/27/ HZY=
####018000028####
SANL31 KWBC 081150
NIL=
####018000460####
SAHW31 KMSC 081155
METAR PHMK 081154Z AUTO 05006KT 10SM SCT042 21/18 A3003 RMK AO2 
    RAB02E17 SLP171 P0000 60000 70001 T02110178 10228 20211 58008 
    TSNO=
METAR PHOG 081154Z AUTO 06011KT 10SM OVC060 24/17 A3001 RMK AO2 
    SLP166 70001 T02390172 10250 20233 58012 TSNO=
METAR PGSN 081154Z 08009KT 10SM FEW020 28/24 A2992 RMK AO2 SLP129 
    60000 7//// T02780244 10294 20267 53011=
METAR PGRO 081154Z 10013KT 7SM SCT020 27/25 A2993
=
####018000835####
SANO41 KWBC 081150
METAR
ENAL 081150Z 26006KT 220V300 9999 SHRA FEW030TCU BKN055 15/11
     Q1010=
ENAN 081150Z 32006KT 9999 FEW045 BKN200 16/10 Q1010 NOSIG=
ENAT 081150Z 18006KT 140V230 9999 FEW045 BKN070 22/09 Q1012=
ENBL 081150Z 20011KT 9999 -SHRA SCT035TCU 15/08 Q1011=
ENBN 081150Z 34011KT 9999 FEW050 SCT070 16/10 Q1010=
ENBV 081150Z NIL=
ENDI 081150Z NIL=
ENDU 081150Z 24005KT 9999 VCSH SCT050 BKN070 19/08 Q1010 NOSIG=
ENEK 081150Z 24011KT CAVOK 16/12 Q1015 W15/S3=
ENEV 081150Z 10009KT 9999 FEW050 BKN080 21/07 Q1010=
ENFG 081150Z NIL=
ENFL 081150Z 20014KT 150V250 9999 FEW015 SCT040 16/11 Q1011=
ENFR NIL=
ENGC 081150Z 19025KT CAVOK 13/11 Q1009=
ENHF 081150Z 20008KT CAVOK 19/09 Q1012=
ENHV NIL=
ENKB 081150Z VRB02KT 9999 FEW055 BKN087 22/06 Q1009=
ENLI NIL=
ENLK NIL=
ENMH NIL=
####018001336####
SANO42 KWBC 081150
METAR
ENML 081150Z 26006KT 9999 VCSH SCT060 20/06 Q1009=
ENMS 081150Z 36009KT 9999 FEW050 SCT060 20/10 Q1009=
ENNA 081150Z 14011KT 9999 FEW045CB SCT070 22/10 Q1013=
ENNK NIL=
ENNM NIL=
ENNO 081150Z NIL=
ENOA 081150Z 19023KT 9999 FEW045 13/11 Q1010=
ENOL 081150Z 33005KT 9999 FEW025TCU BKN080 19/09 Q1010 NOSIG=
ENOV 081150Z 26007KT 210V330 9999 VCSH FEW040CB SCT052 SCT085
     18/07 Q1010=
ENRA 081150Z 32010KT 9999 TS SCT050CB 20/09 Q1009=
ENRM 081150Z 01008KT 9999 -SHRA FEW015 SCT035 13/11 Q1010=
ENRO 081150Z AUTO 19003KT 120V250 9999NDV BKN068/// BKN100///
     OVC200/// 17/06 Q1011=
ENRS 081150Z 15005KT 100V190 CAVOK 14/11 Q1010=
ENRY 081150Z 18012KT 9000 -SHRA SCT007 BKN010 17/15 Q1016 TEMPO
     BKN007=
ENSD 081150Z NIL=
ENSG 081150Z 24008G18KT 170V290 9999 SCT055 18/07 Q1012=
ENSH 081150Z 07005KT 340V120 9999 VCSH FEW030 BKN060 15/10
     Q1010=
ENSK 081150Z 27002KT 9999 VCSH FEW025 SCT040 BKN060 20/10
     Q1010=
ENSN 081150Z 18010KT 120V210 8000 BKN007 OVC009 17/14 Q1016=
ENSO 081150Z 23010KT 9999 SCT030 18/11 Q1014=
ENSR 081150Z 32008KT 9999 FEW050 SCT070 19/10 Q1011=
ENST 081150Z 02007KT 320V080 CAVOK 18/11 Q1010=
ENSV NIL=
ENTO 081150Z 18012KT 9999 -DZ SCT005 BKN007 16/15 Q1016=
ENVD 081150Z 11007KT 9999 BKN022 12/08 Q1018=
####018000028####
SAOM43 KWBC 081150
NIL=
####018001212####
SASN31 KWBC 081150
METAR
ESDB NIL=
ESDF 081150Z 20011KT CAVOK 23/11 Q1020=
ESGG 081150Z 21012KT 3600 RA BR FEW005 SCT016 BKN020CB 16/15
     Q1020=
ESGJ 081150Z AUTO 22013KT 9999NDV FEW042/// BKN062/// 24/10
     Q1019=
ESGP 081150Z 19013KT 8000 DZ BKN008 OVC014 17/16 Q1019=
ESKN 081150Z 25009KT 190V290 9999 SCT048 24/13 Q1017=
ESMK 081150Z 21008KT 160V240 CAVOK 26/11 Q1020=
ESMS 081150Z 18011KT CAVOK 24/10 Q1021=
ESMX 081150Z 18011KT CAVOK 25/11 Q1020=
ESNN 081150Z AUTO 26006KT 230V290 9999NDV FEW039/// OVC046///
     22/14 Q1013=
ESNO 081150Z AUTO 17012KT 9999NDV FEW086/// 21/10 Q1013=
ESNQ 081150Z 16008KT 9999 FEW021 SCT072 18/10 Q1013 RERA=
ESNS 081150Z AUTO 14010KT 100V180 9999NDV ////// 22/09 Q1014=
ESNU 081150Z 13008KT 110V190 CAVOK 20/13 Q1014=
ESOK 081150Z 24007KT 9999 BKN022 18/14 Q1017=
ESOW 081150Z 23011KT CAVOK 23/14 Q1017=
ESPA 081150Z 14011KT CAVOK 18/13 Q1016=
ESPC NIL=
ESSA 081150Z 22014KT 9999 FEW045 25/13 Q1016 NOSIG=
ESSB 081150Z 28010KT CAVOK 25/11 Q1017=
ESSD 081150Z AUTO 23011KT 9999NDV BKN028/// 19/12 Q1016=
ESSN NIL=
ESSP 081150Z 25013KT 220V280 CAVOK 24/12 Q1018=
ESSV 081150Z 26007KT 230V290 CAVOK 22/12 Q1019=
####018000084####
SPUS41 KWBC 081156
SPECI
KWRI 081152Z AUTO 14006KT 3SM BR SCT005 25/25 A3002=
####018000517####
SASW31 KWBC 081150
METAR
LSGC 081150Z NIL=
LSGG 081150Z 20006KT 130V270 CAVOK 30/12 Q1021 NOSIG=
LSGL NIL=
LSGN NIL=
LSGS 081150Z 25012KT 9999 FEW100 29/14 Q1020=
LSZA 081150Z 19005KT 9999 SCT055 28/15 Q1022 NOSIG=
LSZB 081150Z 31006KT 280V350 CAVOK 29/14 Q1021 NOSIG=
LSZD NIL=
LSZG 081150Z VRB03KT 9999 FEW050 27/13 Q1021 NOSIG=
LSZH 081150Z VRB04KT CAVOK 28/10 Q1022 NOSIG=
LSZL NIL=
LSZR 081150Z 33004KT 280V020 CAVOK 25/13 Q1022 NOSIG RMK I=
LSZS 081150Z VRB05KT CAVOK 25/07 Q1026=
####018000084####
SPUS41 KWBC 081156
SPECI
KWRI 081153Z AUTO 14006KT 3SM BR BKN005 25/25 A3002=
####018001058####
SAUK31 KWBC 081150
METAR
EGAA 081150Z 23013KT 9999 FEW032 18/09 Q1014=
EGBB 081150Z 25006KT 170V300 9999 FEW040 21/09 Q1018=
EGCC 081150Z 22009KT 180V260 9999 FEW037 SCT044 20/10 Q1017=
EGFF 081150Z 17007KT 9999 FEW030 20/10 Q1018=
EGGD 081150Z VRB04KT 9999 FEW032 20/11 Q1019=
EGGP 081150Z 25010KT 9999 SCT042 19/10 Q1017=
EGGW 081150Z 23004KT 170V300 9999 SCT024 22/14 Q1018=
EGHD 081150Z 19006KT 9999 FEW022 20/12 Q1019=
EGHH 081150Z 19008KT 9999 FEW026 SCT035 22/16 Q1018=
EGHI 081150Z 24005KT 160V300 9999 SCT028 BKN037 22/14 Q1018=
EGJB 081150Z 23005KT 180V280 9999 SCT012 20/16 Q1020=
EGJJ 081150Z 35005KT 320V040 9999 FEW008 21/17 Q1019 NOSIG=
EGKA 081150Z 21007KT 9999 FEW017 20/17 Q1019=
EGKB 081150Z NIL=
EGKK 081150Z 20008KT 160V250 9999 SCT035 25/14 Q1018=
EGLF 081150Z 28006KT 210V340 9999 SCT020 SCT030 21/15 Q1019=
EGLL 081150Z 24006KT 200V290 9999 SCT021 SCT033 22/15 Q1019=
EGMC 081150Z 21005KT 180V250 9999 FEW032 24/15 Q1018=
EGMD 081150Z 19008KT 9999 FEW020 21/16 Q1019=
EGNH NIL=
EGNJ NIL=
####018000581####
SAUK32 KWBC 081150
METAR
EGNM 081150Z 25010KT 200V280 9999 SCT040 18/09 Q1016=
EGNS 081150Z NIL=
EGNT 081150Z NIL=
EGNV 081150Z 25018KT 9999 SCT040 21/10 Q1015=
EGNX 081150Z 22010KT 190V270 CAVOK 21/08 Q1017=
EGPA NIL=
EGPB 081150Z 20015KT CAVOK 15/11 Q1007 NOSIG=
EGPC NIL=
EGPD 081150Z 24013KT 9999 SCT041 18/08 Q1011 NOSIG=
EGPF 081150Z 22018KT 9999 SCT030 18/10 Q1013=
EGPH 081150Z 25015KT 9999 FEW035 18/08 Q1013=
EGPK 081150Z 23016KT 9999 FEW024 19/09 Q1014=
EGSH NIL=
EGTE 081150Z 16010KT 120V190 9999 FEW030 22/14 Q1018=
EGTG 081150Z NIL=
####018000488####
SAUK41 KWBC 081150
METAR
EGAC 081150Z 21013KT 9999 FEW023 SCT039 18/08 Q1014=
EGAE NIL=
EGBE NIL=
EGBJ NIL=
EGDC NIL=
EGDG NIL=
EGDL NIL=
EGDM NIL=
EGDN NIL=
EGDP NIL=
EGDR NIL=
EGDY NIL=
EGFH NIL=
EGGP 081150Z 25010KT 9999 SCT042 19/10 Q1017=
EGGW 081150Z 23004KT 170V300 9999 SCT024 22/14 Q1018=
EGHE 081150Z 20009KT 9999 FEW020 19/14 Q1019=
EGJA 081150Z NIL=
EGLC 081150Z 28004KT 240V310 9999 BKN026 22/15 Q1018=
EGNC NIL=
EGNT 081150Z NIL=
####018000397####
SAUK42 KWBC 081150
METAR
EGOS NIL=
EGOV NIL=
EGPC NIL=
EGPE NIL=
EGPF 081150Z 22018KT 9999 SCT030 18/10 Q1013=
EGPL NIL=
EGPM NIL=
EGPN NIL=
EGPO NIL=
EGPT NIL=
EGPU NIL=
EGPW NIL=
EGQJ NIL=
EGQK NIL=
EGQL NIL=
EGQM NIL=
EGQS NIL=
EGSC NIL=
EGSS 081150Z 23009KT 9999 BKN021 22/15 Q1018=
EGTC 081150Z 25007KT 180V280 9999 FEW032 21/12 Q1018=
EGTI NIL=
####018000028####
SAUR31 KWBC 081150
NIL=
####018000074####
SABZ21 SBAR 081200
METAR SBAR 081200Z 20006KT 9999 FEW015 26/23 Q1017=
####018000750####
SAIY31 LIIB 081150
METAR LIEA 081150Z 18005KT 140V210 9999 FEW025 32/21 Q1019=
METAR LIEE 081145Z 15011KT 9999 FEW020 28/21 Q1019 NOSIG=
METAR LIEO 081150Z 05012KT 030V090 CAVOK 30/21 Q1019=
METAR LIMC 081150Z VRB03KT 9999 FEW035 28/15 Q1022 NOSIG=
METAR LIME 081150Z 11006KT 060V180 9999 BKN050 26/15 Q1022=
METAR LIMF 081150Z VRB01KT 9999 BKN060 26/16 Q1023=
METAR LIMJ 081150Z 16005KT 9999 FEW035 29/25 Q1020=
METAR LIML 081150Z 17007KT 9999 FEW030 27/16 Q1021 NOSIG=
METAR LIRA 081145Z 23008KT 170V310 9999 SCT018 29/18 Q1019=
METAR LIRF 081150Z 23013KT 190V250 CAVOK 29/17 Q1020 NOSIG=
METAR LIRN 081150Z 03011KT CAVOK 29/14 Q1019=
METAR LIRP 081145Z 12004KT CAVOK 30/15 Q1020 NOSIG=
METAR LIRQ 081150Z VRB02KT CAVOK 31/13 Q1020=
####018000167####
SAXX99 KWBC 081100 RRX
METAR
K4O4 081148Z AUTO 11004KT 23/23 A3005 RMK AO2=
MMCP 081145Z 10010KT 6SM BKN060 25/22 A2979 RMK SLP088 5//// 919
     8/500 HZY=
####018000130####
SAUS41 KBGM 081156
MTRAVP
METAR KAVP 081154Z 00000KT 6SM HZ CLR 24/19 A3008 RMK AO2 SLP173 
T02390189 10239 20200 51008 $
####018000133####
SAUS41 KPHI 081156
MTR12N
METAR K12N 081154Z AUTO 00000KT 25/22 A3006 RMK AO2 SLP169 T02500217 
10250 20211 51007 PWINO TSNO
####018000135####
SAUS41 KLWX 081156
MTRRSP
METAR KRSP 081154Z AUTO 12003KT 4SM HZ CLR 27/17 A3011 RMK AO2 
SLP180 T02670167 10278 20217 51004 $
####018000128####
SAUS43 KIWX 081156
MTRFWA
METAR KFWA 081154Z 17003KT 8SM FEW060 24/21 A3006 RMK AO2 SLP172 
T02440206 10261 20222 50002
####018000109####
SAAK27 PADN 081156
METAR PAWI 081154Z 21014KT 10SM CLR 08/04 A3001 RMK ASOS VIA PHONE=
$$




####018000237####
SASY31 OSDI 081200
OSDI 081200Z 20018KT CAVOK 37/02 Q1008=
OSAP 081200Z 28016KT CAVOK 34/16 Q1006=
OSLK 081200Z 18004KT 9999 SCT030 28/21 Q1009=
OSDZ 081200Z 09010KT CAVOK 41/12 Q1006=
OSKL 081200Z 23008KT CAVOK 40/06 Q1004=
####018000079####
SAUK34 EGGY 081150 RRA
METAR EGHK 081150Z 16007KT 9999 SCT020 18/15 Q1018=
####018000110####
SAUK31 EGGY 081150 CCA
METAR COR EGLL 081150Z 24006KT 200V290 9999 SCT021 SCT033 22/15
    Q1019 NOSIG=
####018000091####
SAOS32 LOWM 081150
METAR LOXZ 081150Z VRB04KT 70KM FEW060CU 24/08 Q1023 NOSIG RMK FEW=
####018000385####
SABX31 EBBR 081150
METAR EBAW 081150Z 23006KT 200V290 CAVOK 29/13 Q1019 NOSIG=
METAR EBBR 081150Z 26005KT 190V320 CAVOK 29/11 Q1019 NOSIG=
METAR EBCI 081150Z 24007KT 200V330 CAVOK 30/10 Q1020 NOSIG=
METAR EBLG 081150Z 27006KT 210V330 CAVOK 30/09 Q1020 NOSIG=
METAR EBOS 081150Z 35006KT CAVOK 21/16 Q1020 NOSIG=
METAR ELLX 081150Z 20006KT 140V310 CAVOK 29/08 Q1021 NOSIG=
####018000638####
SAIY32 LIIB 081150
METAR LIBD 081150Z 36015KT CAVOK 25/11 Q1020=
METAR LIBR 081145Z /////KT CAVOK 25/13 Q1018 NOSIG=
METAR LICC 081150Z 10012KT 8000 NSC 28/21 Q1018=
METAR LICJ 081150Z 04013KT 9999 FEW018 28/23 Q1018=
METAR LIPB 081150Z 17012KT CAVOK 30/13 Q1020=
METAR LIPE 081150Z 08007KT 030V150 CAVOK 29/14 Q1021=
METAR LIPH 081145Z 16005KT 9999 SCT025 28/21 Q1022=
METAR LIPK 081150Z 07005KT CAVOK 28/10 Q1021=
METAR LIPQ 081150Z 00000KT CAVOK 26/13 Q1022=
METAR LIPR 081145Z 08011KT CAVOK 28/17 Q1021=
METAR LIPX 081145Z 22002KT 9999 FEW040 29/13 Q1021=
METAR LIPZ 081150Z 13008KT 9999 FEW040 26/17 Q1022=
####018000393####
SAOS31 LOWM 081150
METAR LOWW 081150Z 35005KT 310V030 9999 FEW055 23/10 Q1023 NOSIG=
METAR LOWL 081150Z 07006KT 360V140 CAVOK 24/10 Q1023 NOSIG=
METAR LOWS 081150Z VRB02KT 9999 FEW070 25/08 Q1022 NOSIG=
METAR LOWI 081150Z 08006KT 040V140 9999 FEW080 27/14 Q1021 NOSIG=
METAR LOWG 081150Z VRB03KT CAVOK 27/11 Q1022 NOSIG=
METAR LOWK 081150Z VRB02KT 9999 FEW060 25/10 Q1022 NOSIG=
####018000073####
SADN32 EKCH 081150 RRA
METAR EKVD 081150Z 23016KT CAVOK 25/10 Q1018=
####018000316####
SAFI33 EFHK 081150
EFJO 081150Z AUTO 03004KT 300V100 CAVOK 27/18 Q1014=
EFLP 081150Z AUTO 15006KT 100V230 CAVOK 31/14 Q1014=
EFMI 081150Z AUTO VRB01KT 9999 BKN042 28/17 Q1014=
EFSA 081150Z 11003KT CAVOK 30/17 Q1014=
EFUT 081150Z 15009KT 130V210 9999 VCSH FEW050TCU 30/16 Q1013=
METAR EFVR 081155Z NIL=
####018000091####
SAFI32 EFHK 081150 RRA
EFHF 081150Z 36004KT 300V110 9999 FEW042TCU SCT050 28/18 Q1013=
####018000763####
SAIY31 LIIB 081150
METAR LIEA 081150Z 18005KT 140V210 9999 FEW025 32/21 Q1019=
METAR LIEE 081145Z 15011KT 9999 FEW020 28/21 Q1019 NOSIG=
METAR LIEO 081150Z 05012KT 030V090 CAVOK 30/21 Q1019=
METAR LIMC 081150Z VRB03KT 9999 FEW035 28/15 Q1022 NOSIG=
METAR LIME 081150Z 11006KT 060V180 9999 BKN050 26/15 Q1022=
METAR LIMF 081150Z VRB01KT 9999 BKN060 26/16 Q1023=
METAR LIMJ 081150Z 16005KT 9999 FEW035 29/25 Q1020=
METAR LIML 081150Z 17007KT 9999 FEW030 27/16 Q1021 NOSIG=
METAR LIRA 081145Z 23008KT 170V310 9999 SCT018 29/18 Q1019=
METAR LIRF 081150Z 23013KT 190V250 CAVOK 29/17 Q1020 NOSIG=
METAR LIRN 081150Z 03011KT CAVOK 29/14 Q1019=
METAR LIRP 081145Z 12004KT CAVOK 30/15 Q1020 NOSIG=
METAR LIRQ 081150Z VRB02KT CAVOK 31/13 Q1020=
####018002969####
SAUS20 KNKA 081155
METAR KAKR 081154Z AUTO 00000KT 5SM HZ CLR 24/19 A3009 RMK AO2 
    SLP179 T02390194 10239 20189 50002=
METAR KBHB 081155Z AUTO 20008KT 3SM OVC002 18/18 A3013 RMK AO1 10180
     20180 52010=
METAR KBID 081155Z AUTO 09004KT 1/4SM OVC002 22/22 A3009 RMK AO1 
    10230 20210 52014=
METAR KBLM 081155Z AUTO 16005KT 10SM BKN090 24/19 A3008 RMK AO1 10240
     20240 52014=
METAR KBOS 081154Z 17007KT 10SM CLR 23/19 A3010 RMK AO2 SLP191 
    T02330194 10244 20217 51012=
METAR KBUF 081154Z 22003KT 8SM FEW090 25/19 A3005 RMK AO2 SLP172 ACC 
    S T02500194 10250 20217 51001=
METAR KCEW 081153Z AUTO 00000KT 5SM BR CLR 22/21 A3005 RMK AO2 
    SLP171 T02170211 10228 20200 53005=
METAR KCOD 081155Z 13009KT 10SM CLR 11/02 A3033 RMK AO1 10140 20090 
    54000=
METAR KCOS 081154Z 16005KT 10SM CLR 13/11 A3038 RMK AO2 SLP222 70044 
    T01330106 10144 20128 58005=
METAR KCRS 081153Z AUTO 07003KT 10SM OVC075 25/24 A3001 RMK AO2 
    SLP156 60000 T02500239 10256 20250 53006=
METAR KDDH 081154Z AUTO 00000KT 4SM HZ CLR 24/21 A3006 RMK AO2 
    SLP174 T02390206 10239 20183 50005=
METAR KDEQ 081153Z AUTO 08003KT 9SM SCT005 BKN055 24/23 A3004 RMK 
    AO2 SLP166 T02390233 10244 20239 51007=
METAR KDHN 081153Z 00000KT 10SM CLR 24/23 A3008 RMK AO2 SLP179 
    T02440228 10244 20228 53008=
METAR KDSV 081154Z AUTO 13006KT 8SM CLR 23/19 A3009 RMK AO2 SLP193 
    T02330194 10233 20211 50003=
METAR KDTS 081153Z AUTO 00000KT 10SM CLR 26/24 A3002 RMK AO2 SLP165 
    T02610244 10261 20239 53005=
METAR KDYL 081154Z AUTO 00000KT 2 1/2SM BR CLR 24/23 A3004 RMK AO2 
    SLP165 T02440228 10244 20211 52007 TSNO=
METAR KEEN 081155Z AUTO 17007KT 10SM BKN020 BKN120 25/22 A3008 RMK 
    AO1 10250 20210 52010=
METAR KEGE 081155Z 00000KT 10SM CLR 09/08 A3038 RMK AO1 10130 20090 
    57003=
METAR KFDR 081153Z AUTO 02007KT 10SM 23/22 A3004 RMK AO2 SLP157 
    70264 T02330222 10239 20233 53006=
METAR KFIG 081154Z AUTO 00000KT 4SM BR CLR 21/18 A3013 RMK AO2 
    SLP190 T02060183 10211 20172 53004=
METAR KFNL 081155Z AUTO 04003KT 7SM OVC008 14/13 A3032 RMK AO1 70008 
    10140 20130 52003=
METAR KFZY 081154Z AUTO 24003KT 5SM HZ CLR 26/22 A3005 RMK AO2 
    SLP170 T02560222 10256 20200 50002=
METAR KGDV 081155Z AUTO 00000KT 10SM CLR 11/07 A3017 RMK AO1 10130
     20110 52003=
METAR KGED 081154Z AUTO 09007KT 10SM CLR 26/23 A3003 RMK AO2 SLP169 
    T02560228 10256 20239 51012=
METAR KGNV 081153Z 00000KT 10SM CLR 23/21 A3001 RMK AO2 SLP160 
    T02280206 10228 20189 53005=
METAR KGUC 081155Z AUTO 36006KT 10SM CLR 07/03 A3045 RMK AO1 70006 
    10120 20060 52003=
METAR KGXY 081155Z AUTO 04004KT 5SM SCT011 OVC047 15/12 A3032 RMK 
    AO1 10160 20150 54000=
METAR KGZH 081153Z AUTO 00000KT 8SM CLR 23/22 A3005 RMK AO2 SLP172 
    70001 T02280222 10233 20217 53007=
METAR KHDN 081155Z 14007KT 10SM CLR 08/05 A3033 RMK AO1 10130 20080 
    52003=
####018000131####
SAUS42 KRAH 081156
MTRGSO
METAR KGSO 081154Z 04003KT 5SM HZ FEW095 27/18 A3004 RMK AO2 SLP158 
T02720178 10278 20244 51010
####018002993####
SAUS20 KNKA 081155
METAR KHYI 081155Z AUTO 04006KT 5SM BKN018 OVC025 25/24 A2995 RMK 
    AO1 54000=
METAR KILE 081155Z 09005KT 10SM BKN006 OVC016 24/22 A2999 RMK AO1 
    10250 20240 52007=
METAR KIPT 081154Z 32003KT 7SM CLR 23/18 A3007 RMK AO2 SLP176 
    T02330178 10233 20189 51005=
METAR KIZG 081154Z AUTO 00000KT 6SM HZ BKN010 24/20 A3009 RMK AO2 
    SLP188 T02440200 10244 20206 53008=
METAR KJAC 081155Z AUTO 00000KT 10SM CLR 04/M01 A3037 RMK AO1 10140
     20040 52014=
METAR KJST 081154Z AUTO 00000KT 4SM HZ CLR 22/17 A3016 RMK AO2 
    SLP193 T02220167 10222 20189 53005=
METAR KLCI 081155Z AUTO 20003KT 6SM FEW013 SCT025 OVC045 24/20 A3008 
    RMK AO1 10240 20220 52010=
METAR KLEW 081155Z 17006KT 2 1/2SM OVC003 21/20 A3011 RMK AO1 10210
     20200 52007=
METAR KLWM 081154Z 17005KT 10SM BKN015 OVC040 25/20 A3010 RMK AO2 
    SLP192 T02500200 10250 20233 51009=
METAR KMGJ 081154Z AUTO 00000KT 5SM HZ FEW110 26/21 A3005 RMK AO2 
    SLP172 T02560211 10256 20206 51008=
METAR KMIV 081154Z AUTO 12003KT 6SM BR FEW110 24/22 A3002 RMK AO2 
    SLP163 T02440222 10244 20233 52009=
METAR KMJX 081155Z AUTO 00000KT 10SM FEW065 SCT075 BKN090 24/21 
    A3005 RMK AO1 10240 20230 52014=
METAR KMSV 081155Z AUTO 00000KT 7SM CLR 24/20 A3011 RMK AO1 10240
     20200 52007=
METAR KMVL 081154Z AUTO 19003KT 4SM HZ CLR 24/21 A3007 RMK AO2 
    SLP179 T02440211 10244 20194 50002=
METAR KMWC 081154Z 21004KT 10SM BKN022 BKN036 BKN055 21/20 A3002=
METAR KOCH 081155Z AUTO 09006KT 9SM CLR 24/19 A3002 RMK AO1 10240
     20240 52007=
METAR KODO 081153Z AUTO 02006KT 5SM BR OVC003 21/20 A3011 RMK AO2 
    SLP152 60020 70020 T02060200 10222 20206 53008=
SPECI KOKC 081155Z 01004KT 10SM BKN014 BKN025 23/22 A3007 RMK AO2=
METAR KORH 081154Z 16007KT 7SM OVC009 23/21 A3012 RMK AO2 CIG 
    006V012 SLP194 T02330211 10233 20217 51007=
METAR KPHL 081154Z 13006KT 4SM HZ FEW008 SCT150 26/23 A3003 RMK AO2 
    SLP169 T02560228 10267 20244 51006 $=
METAR KPNE 081154Z 12004KT 2 1/2SM BR OVC002 24/23 A3005 RMK AO2 CIG 
    001V006 SLP175 T02440233 10261 20239 51006=
METAR KPNS 081153Z 00000KT 8SM CLR 26/24 A3003 RMK AO2 SLP170 
    T02560244 10256 20239 53005=
METAR KPQI 081155Z AUTO 13007KT 10SM CLR 23/19 A3001 RMK AO1 10230
     20210 52010=
METAR KPRX 081155Z 13007KT 4SM BKN003 OVC031 24/22 A3004 RMK AO1 
    10240 20240 52007=
METAR KPSF 081154Z AUTO 00000KT 4SM HZ CLR 23/20 A3009 RMK AO2 
    SLP156 T02330200 10233 20189 51008=
METAR KPTW 081154Z AUTO VRB03KT 4SM HZ CLR 27/20 A3005 RMK AO2 
    SLP171 T02670200 10267 20233 53007 $=
METAR KPVD 081151Z 16004KT 10SM BKN008 23/21 A3010=
METAR KPWG 081155Z AUTO 09005KT 10SM FEW028 SCT100 SCT120 25/22 
    A3001 RMK AO1 10260 20250 52007=
METAR KRDG 081154Z 00000KT 8SM CLR 27/21 A3002 RMK AO2 SLP167 
    T02720211 10272 20228 50004=
METAR KRKD 081155Z AUTO 21006KT 1/2SM OVC002 19/18 A3012 RMK AO1 
    10190 20180 52010=
####018000160####
SAUS41 KPHI 081156
MTRACY
METAR KACY 081154Z 13003KT 8SM FEW060 25/22 A3004 RMK AO2 
RAE1058B21E39 SLP172 P0001 60001 70001 T02500222 10256 20228 51008
####018001334####
SAUS20 KNKA 081155
METAR KROC 081154Z 21006KT 8SM CLR 24/20 A3006 RMK AO2 SLP173 
    T02440200 10244 20222 50004=
METAR KRUT 081155Z AUTO 13005KT 6SM CLR 24/20 A3006 RMK AO1 10240
     20210 52003=
METAR KSDY 081155Z AUTO 21005KT 10SM BKN080 12/08 A3016 RMK AO1 10150
     20110 52007=
METAR KSFM 081155Z 00000KT 4SM BKN008 OVC015 23/19 A3010 RMK AO1 
    10230 20210 52010=
METAR KSFZ 081155Z AUTO 14004KT 10SM CLR 23/21 A3009 RMK AO1 10230
     20210 52010=
METAR KSYR 081154Z 13003KT 10SM CLR 26/21 A3005 RMK AO2 SLP170 
    T02560211 10256 20222 53003=
METAR KTAD 081154Z AUTO 00000KT 10SM OVC028 14/13 A3036 RMK AO2 
    SLP222 70087 T01440128 10150 20139 50002=
METAR KTPL 081155Z 07004KT 8SM BKN009 BKN013 OVC021 24/23 A3000 RMK 
    AO1 
      60001 10260 20240 52003=
METAR KVAY 081154Z AUTO 00000KT 1 1/2SM BR OVC002 24/23 A3004 RMK 
    AO2 SLP172 T02390233 10244 20233 53010=
METAR KVLD 081153Z 00000KT 10SM CLR 23/21 A3003 RMK AO2 SLP176 
    T02280211 10228 20189 53008=
METAR KVSF 081154Z AUTO 00000KT 4SM HZ OVC012 23/21 A3009 RMK AO2 
    SLP185 T02330206 10233 20206 51008=
METAR KWVL 081155Z AUTO 18006KT 2 1/2SM OVC003 21/19 A3007 RMK AO1 
    10210 20210 52010=
METAR KWWD 081155Z AUTO 10SM FEW060 SCT070 BKN080 24/23 A3004 RMK 
    AO1 10240 20230 52010=
####018000100####
SAUS46 KSGX 081156
MTRNXF
SPECI KNXF 081154Z AUTO 35003KT 8SM OVC013 17/13 A2990 RMK AO2 TSNO
####018000075####
SAAT31 TKPN 081200
METAR TKPN 081200Z 10013KT 9999 BKN019 30/24 Q1015=
####018000066####
SAOR01 ORSU 081155
ORSU 081200Z 23010KT 8000 SKC 41/M04 Q1009
####018000127####
SANO34 ENMI 081150 CCA
METAR COR ENSH 081150Z 07005KT 340V120 9999 VCSH FEW030 BKN060 15/10
               Q1010 RESHRA=
####018001736####
SAEU KAWN 081200 RRC
METAR EDAC 081150Z 24005KT 170V320 CAVOK 26/11 Q1022=
METAR EDAH 081150Z VRB03KT CAVOK 25/09 Q1022=
METAR EDFH 081150Z 16007KT 090V220 CAVOK 27/12 Q1021=
METAR EDLP 081150Z 19005KT 160V240 CAVOK 29/10 Q1020=
METAR EDLW 081150Z 22011KT CAVOK 30/09 Q1020=
METAR EDMA 081150Z 17004KT 050V250 CAVOK 26/09 Q1022=
METAR EDMO 081150Z 02005KT 330V110 CAVOK 25/09 Q1023=
METAR EDTL 081150Z VRB05KT CAVOK 30/12 Q1019=
METAR EDVK 081150Z 19006KT 100V250 CAVOK 27/10 Q1021=
METAR EDXW 081150Z 23011KT CAVOK 21/14 Q1019=
METAR EGCC 081150Z 22009KT 180V260 9999 FEW037 SCT044 20/10 Q1017=
METAR EGGD 081150Z VRB04KT 9999 FEW032 20/11 Q1019=
METAR EGGP 081150Z 25010KT 9999 SCT042 19/10 Q1017=
METAR EGKK 081150Z 20008KT 160V250 9999 SCT035 25/14 Q1018=
METAR EGNV 081150Z 25018KT 9999 SCT040 21/10 Q1015=
METAR COR EGPB 081150Z 20015KT CAVOK 15/11 Q1007 NOSIG=
METAR EGPF 081150Z 22018KT 9999 SCT030 18/10 Q1013=
METAR EGPK 081150Z 23016KT 9999 FEW024 19/09 Q1014=
METAR EGSS 081150Z 23009KT 9999 BKN021 22/15 Q1018=
METAR EHEH 081155Z AUTO 20007KT 9999NDV FEW360 30/11 Q1018 BLU BLU=
METAR EKBI 081150Z 25008KT 210V270 9999 FEW018CB BKN095 22/15 Q1019=
METAR EKVD 081150Z 23016KT CAVOK 25/10 Q1018=
METAR ETEB 081155Z AUTO 00000KT 9999 CLR 25/09 A3020 RMK AO2 SLP210
      T02530088 10253 20173 58004=
METAR LOWG 081150Z VRB03KT CAVOK 27/11 Q1022 NOSIG=
METAR LOWI 081150Z 08006KT 040V140 9999 FEW080 27/14 Q1021 NOSIG=
METAR LOWS 081150Z VRB02KT 9999 FEW070 25/08 Q1022 NOSIG=
METAR LOWW 081150Z 35005KT 310V030 9999 FEW055 23/10 Q1023 NOSIG=
METAR LQSA 081200Z 29007KT 230V010 9999 SCT 22/12 Q1023 NOSIG=
METAR LWOH 081200Z 36010KT 9999 FEW040 BKN050 19/09 Q1019=
####018000671####
SAUS17 KAWN 081200
METAR KBLV 081155Z AUTO 17004KT 10SM FEW042 BKN055 25/25 A3004 RMK
      AO2 SLP170 70058 T02490247 10249 20239 51006=
METAR KEFD 081150Z 14010KT 7SM -RA BKN010 OVC020 25/24 A2995=
METAR KGRF 081155Z AUTO 14003KT 10SM CLR 13/10 A2995 RMK AO2 SLP141
      60000 T01270103 10221 20127 52004 $=
METAR KHMN 081155Z 00000KT 10SM CLR 18/13 A3014 RMK AO2A SLP128 70038
      T01800133 10217 20179 53003 $=
METAR KLRF 081155Z AUTO 00000KT 10SM FEW210 23/22 A3007 RMK AO2 CLDS
      LWR RWY07 SLP182 T02340224 10236 20228 53009=
METAR KNFW 081152Z 13006KT 10SM SCT012 BKN022 26/22 A3006 RMK AO2 SLP161
      T02610222 10272 20261 51010=
####018001666####
SAZZ40 KAWN 081200 RRB
METAR KBAD 081155Z AUTO 12003KT 10SM FEW090 24/23 A3005 RMK AO2 SLP175
      70047 T02350230 10245 20232 52011 $=
METAR KBAF 081153Z 17005KT 5SM HZ FEW011 SCT080 25/22 A3007 RMK AO2
      SLP178 T02500217 10250 20233 51012=
METAR KFHU 081155Z 11006KT 10SM FEW120 23/12 A3008 RMK SLP110 53007=
METAR KGRF 081155Z AUTO 14003KT 10SM CLR 13/10 A2995 RMK AO2 SLP141
      60000 T01270103 10221 20127 52004 $=
METAR KGUS 081155Z AUTO 00000KT 10SM FEW060 24/21 A3005 RMK AO2 SLP168
      T02360212 10241 20221 53003=
METAR KHMN 081155Z 00000KT 10SM CLR 18/13 A3014 RMK AO2A SLP128 70038
      T01800133 10217 20179 53003 $=
METAR KIAB 081155Z AUTO 36009KT 10SM CLR 22/21 A3008 RMK AO2 SLP176
      T02170214 10232 20211 52003=
METAR KMTC 081155Z 00000KT 7SM FEW040 FEW140 FEW240 26/23 A3002 RMK
      SLP168 50002=
METAR KRDR 081155Z 25004KT 10SM FEW080 16/14 A3006 RMK AO2A SLP187
      T01580138 10158 20130 53006 $=
METAR KTOI 081153Z 00000KT 7SM CLR 23/22 A3005 RMK AO2 SLP169 T02280222
      10233 20211 53006=
METAR OAKB 081150Z 35009KT 9999 FEW070 34/05 Q1013 NOSIG RMK BLU BLU=
METAR OSAP 081200Z 28016KT CAVOK 34/16 Q1006=
METAR OSDI 081200Z 20018KT CAVOK 37/02 Q1008=
METAR OSLK 081200Z 18004KT 9999 SCT030 28/21 Q1009=
METAR PAEI 081155Z AUTO 00000KT 10SM CLR 08/06 A3004 RMK AO2 SLP175
      T00790058 10208 20078 54000 $=
METAR TIST 081153Z 08008KT 10SM CLR 29/24 A2999 RMK AO2 SLP156 T02940244
      10294 20272 50007=
METAR TISX 081153Z 09011KT 10SM FEW023 29/24 A3000 RMK AO2 SLP157 T02890244
      10289 20272 51011=
METAR TJMZ 081150Z 04006KT 6SM HZ FEW030 28/25 A3002=
####018000897####
SAXX70 KAWN 081200 RRC
METAR KQEX 081150Z AUTO 19003KT 5SM BR SCT130 26/20 A2975 RMK A02=
METAR KQA4 081155Z 15008KT 9000 HZ SKC 40/M07 A2985 RMK SLP017 57017=
METAR KQAD 081155Z AUTO 27006G12KT 6000 CLR 46/04 A2955 RMK AO2 SLP006
      T04590042 10452 20317 57009 $=
METAR KQCQ 081155Z 34026G32KT 9999 CLR 48/M02 A2954 RMK PK WND 33035/00
      SLP000 57010=
METAR KQGX 081155Z 07003KT 9000 HZ SCT200 45/18 A2948 RMK AO2A SLP982
      56020=
METAR KQHY 081155Z AUTO 03001KT 12SM CLR 24/23 A3006 RMK AO2 SLP180
      70017 T02440231 10252 20233 52007=
METAR KQMG 081155Z AUTO 05007KT 12SM FEW046 20/14 A3017 RMK AO2 SLP146
      T01980139 10310 20226 52007 $=
METAR KQTI 081155Z AUTO 22009G15KT 9999 CLR 43/00 A2966 RMK AO2 SLP018
      T04300002 57011=
METAR KQXJ 081155Z 31018G31KT 1600 BLDU BKN000 47/02 A2953 RMK DU BKN000
      SLP001 546014 PA+384 DA+4102=
####018000288####
SPNA35 KAWN 081156 RRF
SPECI KPHL 081150Z 14007KT 4SM HZ FEW008 SCT150 26/23 A3003 RMK AO2
      $=
SPECI KWRI 081152Z AUTO 14006KT 3SM BR SCT005 25/25 A3002 RMK AO2 SCT
      V BKN SLP167 $=
SPECI KWRI 081153Z AUTO 14006KT 3SM BR BKN005 25/25 A3002 RMK AO2 SLP168
      $=
####018000086####
SPCN47 CWAO 081155
SPECI CYMO 081155Z AUTO 31006KT 9SM -RA OVC019 19/17 A2988=

####018002935####
SAUS20 KNKA 081156
METAR KLAX 081153Z 29003KT 9SM OVC012 16/13 A2990 RMK AO2 SLP124
     T01610128 10167 20161 55003=
METAR K0A9 081155Z AUTO 00000KT 8SM BKN085 22/18 A3013 RMK=
METAR K20V 081156Z AUTO 00000KT 10SM CLR 05/03 A3042 RMK AO2=
METAR K4BM 081154Z AUTO 23005KT 7SM 03/03 A3062 RMK AO2=
METAR K5SM 081153Z AUTO 21003KT 10SM CLR 08/01 A3057 RMK AO2=
METAR K7BM 081156Z AUTO 26004KT 10SM CLR 08/05 A3053 RMK AO2=
METAR KBBP 081155Z AUTO 00000KT 10SM CLR 25/19 A2996 RMK AO2=
METAR KBCT 081147Z AUTO 08007KT 10SM FEW028 SCT120 29/24 A2996 =
METAR KBDU 081156Z AUTO 00000KT 10SM BKN032 BKN043 14/12 A3032 RMK
     AO2=
METAR KBJC 081157Z AUTO 35012KT 7SM SCT004 SCT025 12/11 A3033 RMK
     AO2=
METAR KBKN 081155Z AUTO 36004KT 8SM CLR 22/21 A3005 RMK AO2 =
METAR KBMI 081156Z 00000KT 3SM BR SCT080 23/22 A3006 RMK AO2 53006 
    60010 70010 T02330222 10238 20222 SLP164 $=
METAR KBOK 081156Z AUTO 00000KT 1 1/4SM BR OVC002 09/09 A2998 RMK 
    AO2 53002 T00880088 10100 20088 SLP152 $=
METAR KBTV 081154Z 00000KT 7SM CLR 27/21 A3003 RMK AO2 SLP166
     T02670211 10267 20228 53006=
METAR KBVI 081147Z 00000KT 4SM HZ SCT060 24/21 A3013=
METAR KCCU 081156Z AUTO 18020KT 10SM CLR 07/01 A3062 RMK AO2=
METAR KCHA 081153Z 00000KT 10SM CLR 23/19 A3008 RMK AO2 SLP176
     T02330194 10250 20217 51009=
METAR KCIC 081155Z AUTO 13005KT 10SM CLR 20/13 A2983 RMK AO1 =
METAR KCMR 081155Z AUTO 16007KT 10SM CLR 13/02 A3026 RMK AO1 =
METAR KCNK 081155Z AUTO 02006KT 10SM OVC037 19/18 A3016 RMK AO2 
    SLP201 70066 T01940183 10206 20194 53008=
METAR KDLH 081155Z 29006KT 10SM CLR 18/14 A3006 RMK AO2 SLP177 
    T01780139 10189 20150 53005=
METAR KEAT 081155Z AUTO 30007KT 10SM CLR 17/06 A3004 RMK AO2 SLP163 
    T01720061 10261 20167 51006=
METAR KGGE 081155Z AUTO 29006KT 10SM CLR 25/21 A2994 RMK AO2=
METAR KGPI 081155Z AUTO 02006KT 10SM CLR 11/07 A3018 RMK AO2 SLP207 
    T01110072 10128 20072 51005=
METAR KHVS 081155Z AUTO 00000KT 10SM CLR 25/20 A2998 RMK AO2=
METAR KIRK 081155Z AUTO 33003KT 10SM CLR 21/20 A3008 RMK AO2 SLP182 
    70009 T02060200 10206 20189 51008=
METAR KLIC 081155Z AUTO 13005KT 7SM FEW005 BKN041 13/13 A3035 RMK 
    AO2 SLP223 60000 T01330133 10144 20133 55000=
METAR KLLJ 081155Z AUTO 00000KT 10SM FEW090 07/00 A3027 RMK AO2 
    SLP204 T00720000 10139 20067 51012=
METAR KLND 081153Z AUTO 00000KT 10SM CLR 09/03 A3034 RMK AO2
     SLP229 T00940033 10139 20072 53005=
METAR KLXV 081153Z AUTO 00000KT 1/2SM FG OVC002 05/05 A3052 RMK
     AO2 SLP215 70011 T00500050 10072 20050 56008 TSNO=
METAR KMAO 081155Z AUTO 34003KT 10SM CLR 25/19 A2995 RMK AO2=
METAR KMKG 081155Z 15004KT 5SM BR FEW043 OVC070 23/22 A3002 RMK AO2 
    RAB02E47 SLP161 P0004 60021 70021 T02330217 10239 20228 56005=
METAR KMSN 081153Z VRB03KT 8SM BKN006 OVC010 22/21 A3003 RMK AO2
     SLP162 60000 70057 T02170206 10222 20211 51006=
####018001508####
SAUS20 KNKA 081156
METAR KMWT 081153Z AUTO 00000KT 10SM FEW016 SCT022 BKN027 23/23
     A3006 RMK AO2 SLP167 70028 T02330228 10239 20228 52008
     TSNO=
METAR KMYP 081056Z AUTO 19008KT 10SM CLR 03/02 A3074 RMK AO2=
METAR KNQA 081155Z COR 00000KT 10SM FEW250 24/23 A3008 RMK=
METAR KOWB 081156Z 00000KT 10SM FEW110 27/23 A3007 RMK AO2 53004 
    60000 T02720233 10272 20250 RAB29E40 P0000 SLP177=
METAR KRCE 081155Z AUTO 04004KT 4SM BR OVC002 22/22 A3009 RMK AO2 
     =
METAR KRNO 081155Z 22003KT 10SM FEW120 BKN160 21/05 A3005 RMK AO2 
    SLP115 T02060050 10261 20194 53004=
METAR KSAV 081153Z 27005KT 10SM CLR 23/20 A3000 RMK AO2 SLP159
     T02280200 10228 20211 53005 $=
METAR KSBN 081154Z 36003KT 6SM HZ BKN100 24/21 A3005 RMK AO2
     SLP167 T02440211 10250 20222 55001=
METAR KSCK 081155Z AUTO 02004KT 10SM CLR 13/11 A2985 RMK AO2 SLP107 
    T01330111 10178 20133 53002=
METAR KSGR 081153Z 08004KT 9SM FEW008 BKN025 OVC070 26/24 A2993
     RMK AO2 RAB37E47 SLP142 P0000 60000 70034 T02610239 10261
     20256 53008=
METAR KSMS 081155Z AUTO 32004KT 9SM CLR 25/20 A2999 RMK AO2 =
METAR KSRR 081155Z AUTO 00000KT 10SM BKN002 OVC019 13/12 A3036 RMK 
     AO2 =
METAR KTLH 081153Z 00000KT 10SM BCFG FEW010 23/22 A3003 RMK AO2
     SLP168 T02330217 10239 20217 53008=
METAR KTZR 081150Z 00000KT 4SM HZ SKC 23/21 A3009=
METAR KVTP 081200Z AUTO 10005KT 10SM SCT001 06/04 A3054 RMK AO2=
METAR KWYS 081150Z AUTO 00000KT 10SM CLR M02/M03 A3038 RMK AO2=
####018000080####
SAYE20 OYSY 081200
METAR OYSY 081200Z 14006KT 090V220 7000 NSC 43/08 Q1000=
####018000072####
SAYE20 OYRN 081200
METAR OYRN 081200Z 20018KT 6000 NSC 31/25 Q1000=
####018001718####
SAEU KAWN 081200 RRD
METAR EDHI 081150Z 21007KT 140V270 CAVOK 29/13 Q1019=
METAR EDHL 081150Z 21008KT 160V240 CAVOK 29/12 Q1019=
METAR EDLN 081150Z VRB05KT CAVOK 30/10 Q1019=
METAR EDNY 081150Z 19005KT CAVOK 27/11 Q1022=
METAR EDOP 081150Z 19007KT 140V250 CAVOK 28/08 Q1020=
METAR EDQM 081150Z VRB03KT CAVOK 24/07 Q1023=
METAR EDSB 081150Z 03004KT 320V100 CAVOK 30/11 Q1020=
METAR ENAL 081150Z 26006KT 220V300 9999 SHRA FEW030TCU BKN055 15/11
      Q1010=
METAR ENAT 081150Z 18006KT 140V230 9999 FEW045 BKN070 22/09 Q1012=
METAR ENBL 081150Z 20011KT 9999 -SHRA SCT035TCU 15/08 Q1011=
METAR ENBN 081150Z 34011KT 9999 FEW050 SCT070 16/10 Q1010=
METAR ENCN 081150Z 17005KT 9000 BKN035 17/16 Q1016=
METAR ENEK 081150Z 24011KT CAVOK 16/12 Q1015 W15/S3=
METAR ENGC 081150Z 19025KT CAVOK 13/11 Q1009=
METAR ENHD 081150Z 20012KT 9999 FEW020 SCT210 16/12 Q1014=
METAR ENHE 081150Z 20019KT 9999 BKN040 14/11 Q1009=
METAR ENKB 081150Z VRB02KT 9999 FEW055 BKN087 22/06 Q1009=
METAR ENNA 081150Z 14011KT 9999 FEW045CB SCT070 22/10 Q1013=
METAR ENRO 081150Z AUTO 19003KT 120V250 9999NDV BKN068/// BKN100///
      OVC200/// 17/06 Q1011=
METAR ENRY 081150Z 18012KT 9000 -SHRA SCT007 BKN010 17/15 Q1016 TEMPO
      BKN007=
METAR ENSB 081150Z 27012KT 9999 FEW015 SCT025 BKN035 09/05 Q1009 NOSIG=
METAR ENSG 081150Z 24008G18KT 170V290 9999 SCT055 18/07 Q1012=
METAR ENSN 081150Z 18010KT 120V210 8000 BKN007 OVC009 17/14 Q1016=
METAR ENTC 081150Z 33003KT 260V040 9999 FEW065 SCT082 19/07 Q1011=
METAR ENTO 081150Z 18012KT 9999 -DZ SCT005 BKN007 16/15 Q1016=
METAR LOWK 081150Z VRB02KT 9999 FEW060 25/10 Q1022 NOSIG=
METAR LOWL 081150Z 07006KT 360V140 CAVOK 24/10 Q1023 NOSIG=
####018001773####
SAZZ40 KAWN 081200 RRC
METAR ETAD 081155Z AUTO VRB04KT 9999 CLR 29/10 A3015 RMK AO2 SLP194
      T02880103 10288 20200 58006 $=
METAR ETOU 081155Z AUTO 20006KT 9999 CLR 29/10 A3015 RMK AO2 SLP204
      T02860104 10288 20199 58003=
METAR KCBM 081155Z AUTO 00000KT 10SM CLR 25/23 A3007 RMK AO2 SLP181
      70006 T02460231 10257 20238 53008 $=
METAR KCEF 081155Z 00000KT 5SM BR OVC009 24/22 A3007 RMK AO2A SLP183
      T02420222 10250 20235 51012 PWINO $=
METAR KDAA 081155Z AUTO 12004KT 8SM CLR 27/23 A3001 RMK AO2 SLP162
      70002 T02740231 10274 20231 52007=
METAR KEDW 081155Z AUTO 24004KT 10SM CLR 16/04 A2988 RMK AO2 SLP069
      T01630037 10258 20160 53005=
METAR KFBG 081155Z AUTO 02003KT 10SM CLR 26/20 A2997 RMK AO2 SLP145
      T02610199 10280 20248 53012 $=
METAR KFTK 081155Z AUTO 00000KT 10SM CLR 24/22 A3008 RMK AO2 SLP178
      T02390215 10251 20219 51005=
METAR KHST 081155Z AUTO 35004KT 10SM VCTS CLR 27/25 A2994 RMK AO2 DZB1118E1127
      SLP141 P0000 60007 70007 T02710252 10274 20249 52006 $=
METAR KMGE 081155Z 00000KT 10SM CLR 24/20 A3007 RMK AO2A SLP169 T02350205
      10246 20211 53007 $=
METAR KMUO 081155Z AUTO 07005KT 10SM CLR 13/00 A3008 RMK AO2 SLP163
      T01330002 10184 20131 53007=
METAR KOFF 081155Z AUTO 34003KT 10SM CLR 20/20 A3014 RMK AO2 SLP196
      60000 T02000200 10216 20195 51011 $=
METAR KSUU 081155Z AUTO 24020KT 10SM FEW170 12/10 A2984 RMK AO2 PK
      WND 25028/1121 SLP104 T01190102 10148 20119 53004 RVRNO $=
METAR KSVN 081155Z 24004KT 10SM SKC 21/20 A2999 RMK SLP157 53007=
METAR NFFN 081200Z 11004KT 40KM FEW030 21/19 Q1014 NOSIG RMK RR NIL=
METAR PHHI 081155Z AUTO 28004KT 10SM CLR 18/16 A3004 RMK AO2 SLP161
      60001 70005 T01790162 10223 20179 58010=
####018000135####
SAUS44 KLIX 081156
MTRMSY
METAR KMSY 081153Z 09003KT 9SM FEW016 SCT250 27/23 A3002 RMK AO2 
SLP168 T02670233 10272 20261 53006
####018000132####
SPCN47 CWAO 081156
SPECI CYZE 081156Z AUTO 18007KT 4SM BR SCT004 BKN007 BKN130 20/20
 A2997 RMK SLP147 DENSITY ALT 1300FT=

####018001759####
SAEU KAWN 081200 RRF
METAR EBCI 081150Z 24007KT 200V330 CAVOK 30/10 Q1020 NOSIG=
METAR COR EGLL 081150Z 24006KT 200V290 9999 SCT021 SCT033 22/15 Q1019
      NOSIG=
METAR ENHK 081150Z 12009KT 9999 FEW028 SCT0052 BKN090 18/09 Q1012=
METAR ENLK 081150Z 26004KT 9999SCT045 BKN060 14/11 Q1011=
METAR ENMS 081150Z 36009KT 9999 FEW050 SCT060 20/10 Q1009=
METAR ENNK 081150Z 06006KT 9999 -SHRA BKN050 15/12 Q1010=
METAR ENOL 081150Z 33005KT 9999 FEW025TCU BKN080 19/09 Q1010 NOSIG=
METAR ENRM 081150Z 01008KT 9999 -SHRA FEW015 SCT035 13/11 Q1010=
METAR ENRS 081150Z 15005KT 100V190 CAVOK 14/11 Q1010=
METAR ENSK 081150Z 27002KT 9999 VCSH FEW025 SCT040 BKN060 20/10 Q1010=
METAR ENSO 081150Z 23010KT 9999 SCT030 18/11 Q1014=
METAR ENST 081150Z 02007KT 320V080 CAVOK 18/11 Q1010=
METAR ENVD 081150Z 11007KT 9999 BKN022 12/08 Q1018=
METAR ETIC 081156Z AUTO VRB03KT 9999 CLR 26/09 A3019 RMK AO2 SLP213
      T02640086 10264 20137 58009 $=
METAR LIEA 081150Z 18005KT 140V210 9999 FEW025 32/21 Q1019=
METAR LIEE 081145Z 15011KT 9999 FEW020 28/21 Q1019 NOSIG=
METAR LIEO 081150Z 05012KT 030V090 CAVOK 30/21 Q1019=
METAR LIMC 081150Z VRB03KT 9999 FEW035 28/15 Q1022 NOSIG=
METAR LIME 081150Z 11006KT 060V180 9999 BKN050 26/15 Q1022=
METAR LIMF 081150Z VRB01KT 9999 BKN060 26/16 Q1023=
METAR LIMJ 081150Z 16005KT 9999 FEW035 29/25 Q1020=
METAR LIML 081150Z 17007KT 9999 FEW030 27/16 Q1021 NOSIG=
METAR LIPE 081150Z 08007KT 030V150 CAVOK 29/14 Q1021=
METAR LIRA 081145Z 23008KT 170V310 9999 SCT018 29/18 Q1019=
METAR LIRF 081150Z 23013KT 190V250 CAVOK 29/17 Q1020 NOSIG=
METAR LIRN 081150Z 03011KT CAVOK 29/14 Q1019=
METAR LIRP 081145Z 12004KT CAVOK 30/15 Q1020 NOSIG=
METAR LIRQ 081150Z VRB02KT CAVOK 31/13 Q1020=
####018001766####
SAEU KAWN 081200 RRE
METAR EBAW 081150Z 23006KT 200V290 CAVOK 29/13 Q1019 NOSIG=
METAR EBBR 081150Z 26005KT 190V320 CAVOK 29/11 Q1019 NOSIG=
METAR EBLG 081150Z 27006KT 210V330 CAVOK 30/09 Q1020 NOSIG=
METAR EBOS 081150Z 35006KT CAVOK 21/16 Q1020 NOSIG=
METAR EGUL 081155Z AUTO 22008KT 9999 BKN031 21/14 A3006 RMK AO2 SLP179
      60000 T02150136 10215 20167 57005=
METAR ELLX 081150Z 20006KT 140V310 CAVOK 29/08 Q1021 NOSIG=
METAR ENAN 081150Z 32006KT 9999 FEW045 BKN200 16/10 Q1010 NOSIG=
METAR ENBO 081150Z 26009KT 9999 SCT050CB 15/10 Q1010 TEMPO SHRA=
METAR ENBR 081150Z 21014KT 9999 FEW020 17/11 Q1013 NOSIG=
METAR ENDU 081150Z 24005KT 9999 VCSH SCT050 BKN070 19/08 Q1010 NOSIG=
METAR ENEV 081150Z 10009KT 9999 FEW050 BKN080 21/07 Q1010=
METAR ENFL 081150Z 20014KT 150V250 9999 FEW015 SCT040 16/11 Q1011=
METAR ENHF 081150Z 20008KT CAVOK 19/09 Q1012=
METAR ENKR 081150Z 18007KT 9999 BKN020 15/10 Q1018=
METAR ENML 081150Z 26006KT 9999 VCSH SCT060 20/06 Q1009=
METAR ENOA 081150Z 19023KT 9999 FEW045 13/11 Q1010=
METAR ENOV 081150Z 26007KT 210V330 9999 VCSH FEW040CB SCT052 SCT085
      18/07 Q1010=
METAR ENRA 081150Z 32010KT 9999 TS SCT050CB 20/09 Q1009=
METAR ENSH 081150Z 07005KT 340V120 9999 VCSH FEW030 BKN060 15/10 Q1010=
METAR ENSR 081150Z 32008KT 9999 FEW050 SCT070 19/10 Q1011=
METAR ENSS 081150Z 14006KT 9999 BKN025 10/08 Q1018=
METAR ENVA 081150Z 08006KT 040V140 9999 TS SCT040CB SCT070 21/11 Q1009
      TEMPO NSW=
METAR ENZV 081150Z 21011KT 9999 FEW018 BKN200 18/12 Q1015 NOSIG=
METAR ETAD 081155Z AUTO VRB04KT 9999 CLR 29/10 A3015 RMK AO2 SLP194
      T02880103 10288 20200 58006 $=
METAR ETOU 081155Z AUTO 20006KT 9999 CLR 29/10 A3015 RMK AO2 SLP204
      T02860104 10288 20199 58003=
####018001569####
SAXN17 KAWN 081200 RRA
METAR MGGT 081200Z 00000KT CAVOK 16/14 Q1022 A3018 SCT080 OVC100 VTO
      TEND S NOSIG=
METAR MMCE 081145Z 16010KT 3SM SCT020 BKN030 OVC070 27/25 A2980 RMK
      SLP090 5//// 924 8/43/=
METAR MMCM 081145Z 00000KT 7SM BKN005 BKN020 OVC050 25/24 A2980 RMK
      SLP093 5//// 8/7// 976=
METAR MMCP 081145Z 10010KT 6SM BKN060 25/22 A2979 RMK SLP088 5////
      919 8/500 HZY=
METAR MMMD 081152Z 10005KT 5SM BKN070 OVC300 18/18 A2985 RMK SLP117
      52005 929 8/077 HZY SC=
METAR MMMT 081145Z 23010KT 10SM BKN050 OVC100 23/18 A2979 RMK SLP162
      5//// 913 67308 8/57/=
METAR MMTG 081151Z 00000KT 4SM SCT004 BKN070 OVC300 23/23 A2993 RMK
      SLP095 5//// 919 60015 8/622 BCFG ARND -DZ INTMTE ST OMTNS=
METAR MMUN 081151Z 10006KT 6SM SCT015TCU OVC090 28/24 A2989 RMK SLP121
      52010 924 8/27/ HZY=
METAR MMVA 081150Z 00000KT 7SM SCT100 BKN200 25/24 A2979 RMK SLP097
      5//// 924 8/036=
METAR NFFN 081200Z 11004KT 40KM FEW030 21/19 Q1014 NOSIG RMK RR NIL=
PACZ SA 1155 AWOS MM 10 51/49/0709/004=
METAR PAEI 081155Z AUTO 00000KT 10SM CLR 08/06 A3004 RMK AO2 SLP175
      T00790058 10208 20078 54000 $=
PAIM SA 1155 AWOS CLR BLO 120 10 50/44/2905/008=
PALU SA 1155 AWOS CLR BLO 120 10 54/36/2024/006=
PATL SA 1155 AWOS CLR BLO 120 10 57/44/0405/999=
METAR PHJR 081153Z 00000KT 10SM CLR 22/18 A3003 RMK AO2 SLP174 70001
      T02220178 10250 20222 58010=
METAR PTKK 081150Z VRB04KT 15SM FEW014 BKN120 OVC280 26/23 A2985 RMK
      SLP110 60002 70100 8/171 T02600228 10261 20244 52008=
####018001723####
SAUS17 KAWN 081200 RRA
METAR KBAD 081155Z AUTO 12003KT 10SM FEW090 24/23 A3005 RMK AO2 SLP175
      70047 T02350230 10245 20232 52011 $=
METAR KCBM 081155Z AUTO 00000KT 10SM CLR 25/23 A3007 RMK AO2 SLP181
      70006 T02460231 10257 20238 53008 $=
METAR KCEF 081155Z 00000KT 5SM BR OVC009 24/22 A3007 RMK AO2A SLP183
      T02420222 10250 20235 51012 PWINO $=
METAR KDAA 081155Z AUTO 12004KT 8SM CLR 27/23 A3001 RMK AO2 SLP162
      70002 T02740231 10274 20231 52007=
METAR KEDW 081155Z AUTO 24004KT 10SM CLR 16/04 A2988 RMK AO2 SLP069
      T01630037 10258 20160 53005=
METAR KFBG 081155Z AUTO 02003KT 10SM CLR 26/20 A2997 RMK AO2 SLP145
      T02610199 10280 20248 53012 $=
METAR KFHU 081155Z 11006KT 10SM FEW120 23/12 A3008 RMK SLP110 53007=
METAR KFTK 081155Z AUTO 00000KT 10SM CLR 24/22 A3008 RMK AO2 SLP178
      T02390215 10251 20219 51005=
METAR KGUS 081155Z AUTO 00000KT 10SM FEW060 24/21 A3005 RMK AO2 SLP168
      T02360212 10241 20221 53003=
METAR KHST 081155Z AUTO 35004KT 10SM VCTS CLR 27/25 A2994 RMK AO2 DZB1118E1127
      SLP141 P0000 60007 70007 T02710252 10274 20249 52006 $=
METAR KIAB 081155Z AUTO 36009KT 10SM CLR 22/21 A3008 RMK AO2 SLP176
      T02170214 10232 20211 52003=
METAR KMGE 081155Z 00000KT 10SM CLR 24/20 A3007 RMK AO2A SLP169 T02350205
      10246 20211 53007 $=
METAR KMTC 081155Z 00000KT 7SM FEW040 FEW140 FEW240 26/23 A3002 RMK
      SLP168 50002=
METAR KMUI 081155Z AUTO 00000KT 10SM CLR 26/20 A3004 RMK AO2 SLP170
      T02640201 10264 20214 53007 $=
METAR KMUO 081155Z AUTO 07005KT 10SM CLR 13/00 A3008 RMK AO2 SLP163
      T01330002 10184 20131 53007=
METAR KSVN 081155Z 24004KT 10SM SKC 21/20 A2999 RMK SLP157 53007=
####018001708####
SAEW KAWN 081200 RRA
METAR EDAC 081150Z 24005KT 170V320 CAVOK 26/11 Q1022=
METAR EDAH 081150Z VRB03KT CAVOK 25/09 Q1022=
METAR EDFH 081150Z 16007KT 090V220 CAVOK 27/12 Q1021=
METAR EDHI 081150Z 21007KT 140V270 CAVOK 29/13 Q1019=
METAR EDHL 081150Z 21008KT 160V240 CAVOK 29/12 Q1019=
METAR EDLN 081150Z VRB05KT CAVOK 30/10 Q1019=
METAR EDLP 081150Z 19005KT 160V240 CAVOK 29/10 Q1020=
METAR EDLW 081150Z 22011KT CAVOK 30/09 Q1020=
METAR EDMA 081150Z 17004KT 050V250 CAVOK 26/09 Q1022=
METAR EDMO 081150Z 02005KT 330V110 CAVOK 25/09 Q1023=
METAR EDNY 081150Z 19005KT CAVOK 27/11 Q1022=
METAR EDOP 081150Z 19007KT 140V250 CAVOK 28/08 Q1020=
METAR EDQM 081150Z VRB03KT CAVOK 24/07 Q1023=
METAR EDSB 081150Z 03004KT 320V100 CAVOK 30/11 Q1020=
METAR EDTL 081150Z VRB05KT CAVOK 30/12 Q1019=
METAR EDVK 081150Z 19006KT 100V250 CAVOK 27/10 Q1021=
METAR EDXW 081150Z 23011KT CAVOK 21/14 Q1019=
METAR EGJJ 081150Z 35005KT 320V040 9999 FEW008 21/17 Q1019 NOSIG=
METAR EHEH 081155Z AUTO 20007KT 9999NDV FEW360 30/11 Q1018 BLU BLU=
METAR EKBI 081150Z 25008KT 210V270 9999 FEW018CB BKN095 22/15 Q1019=
METAR EKKA 081150Z 19006KT 150V220 7000 -SHRA FEW009 FEW018TCU BKN030
      18/17 Q1018 TEMPO 4000 SHRA SCT020CB=
METAR EKRK 081150Z AUTO 22013KT 9999NDV BKN050/// 25/10 Q1019=
METAR EKSP 081150Z 22015KT CAVOK 27/10 Q1018 NOSIG RMK BKN090=
METAR EKVD 081150Z 23016KT CAVOK 25/10 Q1018=
METAR ETAD 081155Z AUTO VRB04KT 9999 CLR 29/10 A3015 RMK AO2 SLP194
      T02880103 10288 20200 58006 $=
METAR ETEB 081155Z AUTO 00000KT 9999 CLR 25/09 A3020 RMK AO2 SLP210
      T02530088 10253 20173 58004=
METAR ETOR 081155Z VRB03KT 9999 FEW200 33/08 A3013 RMK 58005 BLU=
####018001679####
SANA35 KAWN 081200
METAR KBAD 081155Z AUTO 12003KT 10SM FEW090 24/23 A3005 RMK AO2 SLP175
      70047 T02350230 10245 20232 52011 $=
METAR KBRO 081153Z 31005KT 10SM FEW020 26/25 A2977 RMK AO2 SLP078 60001
      70037 T02610250 10272 20261 56002=
METAR KFLL 081153Z 08007KT 10SM CLR 29/24 A2994 RMK AO2 SLP138 T02890239
      10289 20278 53008=
METAR KHST 081155Z AUTO 35004KT 10SM VCTS CLR 27/25 A2994 RMK AO2 DZB1118E1127
      SLP141 P0000 60007 70007 T02710252 10274 20249 52006 $=
METAR KJFK 081151Z 14004KT 5SM BR OVC005 25/23 A3006 RMK AO2 SLP178
      T02500228 10256 20244 51006 $=
METAR KMCO 081153Z 01005KT 10SM FEW250 24/21 A3000 RMK AO2 SLP157 T02440206
      10244 20211 53004=
METAR KNHK 081152Z 09006KT 4SM HZ FEW010 27/24 A3000 RMK AO2 SLP158
      T02720239 10278 20256 51008=
METAR KOFF 081155Z AUTO 34003KT 10SM CLR 20/20 A3014 RMK AO2 SLP196
      60000 T02000200 10216 20195 51011 $=
METAR KPBI 081153Z 08004KT 6SM -RA BR SCT022 BKN028CB BKN050 26/24
      A2996 RMK AO2 RAB16 SLP143 CB OHD MOV SW P0001 60001 70011
      T02610244 10278 20261 53011=
METAR KSSC 081155Z AUTO 30007KT 10SM CLR 26/19 A2998 RMK AO2 SLP150
      T02600192 10269 20249 53009 $=
METAR KWRI 081155Z AUTO 14007KT 3SM BR BKN005 25/25 A3003 RMK AO2 SLP168
      T02460246 10246 20227 53011 $=
METAR MWCR 081200Z 12006KT 9999 FEW018 BKN250 28/25 Q1013 NOSIG=
METAR SPIM 081200Z 18003KT 6000 OVC022 16/13 Q1013 NOSIG RMK PP000=
METAR TIST 081153Z 08008KT 10SM CLR 29/24 A2999 RMK AO2 SLP156 T02940244
      10294 20272 50007=
METAR TISX 081153Z 09011KT 10SM FEW023 29/24 A3000 RMK AO2 SLP157 T02890244
      10289 20272 51011=
####018000137####
SAUS45 KREV 081156
MTRDRA
METAR KDRA 081155Z AUTO 32003KT 10SM CLR 19/M11 A2995 RMK AO2 SLP089 
T01941111 10261 20189 53009 TSNO
####018000337####
SAAK41 KNKA 081156
METAR PAHN 081154Z AUTO 00000KT 10SM CLR 11/10 A3018 RMK AO2 SLP223 
    T01060100 10139 20100 57005 TSNO=
METAR PAKN 081154Z 00000KT 10SM OVC060 09/09 A2990 RMK AO2 SLP125 
    60004 70025 T00940089 10111 20094 58002=
METAR PAWR 081154Z 06012G22KT 2SM -RA BR OVC008 12/11 A3008 RMK
     SLP186 NOSPECI=
####018001691####
SANA14 KAWN 081200
METAR KEGI 081155Z AUTO 00000KT 10SM CLR 23/23 A3003 RMK AO2 SLP170
      70003 T02290226 10232 20210 53005 $=
METAR KNHK 081152Z 09006KT 4SM HZ FEW010 27/24 A3000 RMK AO2 SLP158
      T02720239 10278 20256 51008=
METAR KNIP 081153Z 25005KT 10SM CLR 23/21 A3002 RMK AO2 SLP162 T02330211
      10261 20222 53009=
METAR KNKT 081154Z 03010KT 4SM HZ FEW012 BKN150 27/24 A2994 RMK AO2
      SLP137 T02670239 10267 20250 53011=
METAR KNQX 081153Z 06005KT 10SM SCT022TCU BKN100 BKN200 28/25 A2994
      RMK AO2 SLP138 TCU DSNT SE-W T2 SET 70023 T02830250 10283
      20278 53009 $=
METAR KNZY 081152Z 31006KT 9SM FEW009 OVC015 18/13 A2989 RMK AO2 DZE30
      SLP121 P0000 60000 T01830133 10189 20178 55001 $=
METAR KOFF 081155Z AUTO 34003KT 10SM CLR 20/20 A3014 RMK AO2 SLP196
      60000 T02000200 10216 20195 51011 $=
METAR KRDR 081155Z 25004KT 10SM FEW080 16/14 A3006 RMK AO2A SLP187
      T01580138 10158 20130 53006 $=
METAR KSSC 081155Z AUTO 30007KT 10SM CLR 26/19 A2998 RMK AO2 SLP150
      T02600192 10269 20249 53009 $=
METAR KSUU 081155Z AUTO 24020KT 10SM FEW170 12/10 A2984 RMK AO2 PK
      WND 25028/1121 SLP104 T01190102 10148 20119 53004 RVRNO $=
METAR KTCM 081155Z AUTO 00000KT 10SM CLR 12/11 A2996 RMK AO2 SLP145
      T01190107 10210 20119 53004=
METAR KVAD 081155Z AUTO 28006KT 10SM CLR 24/20 A3004 RMK AO2 SLP169
      T02410200 10241 20208 53007 $=
METAR KWRI 081155Z AUTO 14007KT 3SM BR BKN005 25/25 A3003 RMK AO2 SLP168
      T02460246 10246 20227 53011 $=
METAR MSLP 081150Z 00000KT 9999 FEW023 SCT120 BKN300 24/23 Q1010 A2984=
METAR SPIM 081200Z 18003KT 6000 OVC022 16/13 Q1013 NOSIG RMK PP000=
####018001666####
SAZZ40 KAWN 081200 RRE
METAR BGTL 081155Z AUTO 00000KT 9999 CLR 05/05 A2983 RMK AO2 SLP106
      T00490048 10049 20037 57005=
METAR KBAB 081155Z AUTO 20004KT 10SM CLR 16/12 A2983 RMK AO2 SLP102
      T01550116 10214 20155 53005 $=
METAR KBIX 081155Z AUTO 03003KT 10SM CLR 25/25 A3004 RMK AO2 SLP173
      T02520252 10262 20246 53010=
METAR KDTS 081153Z AUTO 00000KT 10SM CLR 26/24 A3002 RMK AO2 SLP165
      T02610244 10261 20239 53005=
METAR KFSI 081155Z AUTO 00000KT 10SM FEW080 22/22 A3006 RMK AO2 SLP164
      T02240217 10237 20222 53006=
METAR KGTB 081155Z AUTO 22003KT 10SM CLR 27/21 A3004 RMK AO2 SLP171
      T02660213 10266 20214 51005=
METAR KNIP 081153Z 25005KT 10SM CLR 23/21 A3002 RMK AO2 SLP162 T02330211
      10261 20222 53009=
METAR KNKT 081154Z 03010KT 4SM HZ FEW012 BKN150 27/24 A2994 RMK AO2
      SLP137 T02670239 10267 20250 53011=
METAR KNRB 081152Z 26004KT 10SM CLR 24/22 A3001 RMK AO2 SLP162 T02440217
      10244 20222 53009=
METAR KRIV 081155Z 30003KT 2 1/2SM BR OVC003 13/12 A2990 RMK AO2A SLP122
      T01310125 10148 20111 55004=
METAR KSLI 081155Z AUTO 22005KT 10SM OVC015 17/14 A2990 RMK AO2 SLP126
      T01670139 10167 20147 55004=
METAR KTCM 081155Z AUTO 00000KT 10SM CLR 12/11 A2996 RMK AO2 SLP145
      T01190107 10210 20119 53004=
METAR KTIK 081155Z AUTO 01005KT 10SM SCT007 OVC013 23/22 A3006 RMK
      AO2 SCT V BKN SLP168 T02310224 10238 20231 53009 $=
METAR PAED 081155Z AUTO 00000KT 10SM FEW060 OVC075 12/11 A2998 RMK
      AO2 RAB1133E1143DZB1143E1146 SLP154 P0000 60000 T01210108
      10141 20109 56009 $=
METAR TKPN 081200Z 10013KT 9999 BKN019 30/24 Q1015=
####018001700####
SAZZ40 KAWN 081200 RRD
METAR BGCO 081150Z 02018KT 9999 SCT071 SCT120 BKN220 09/02 Q1008=
METAR KDOV 081155Z 12007KT 10SM CLR 25/24 A3002 RMK AO2A SLP167 T02520239
      10252 20235 52010 $=
METAR KGRK 081155Z 06005KT 7SM SCT010 BKN015 BKN031 26/24 A2999 RMK
      SLP135 60000 53007=
METAR KLHW 081155Z AUTO 28006KT 10SM CLR 23/20 A3000 RMK AO2 SLP160
      T02340202 10234 20211 53006=
METAR KLSF 081155Z AUTO 00000KT 10SM CLR 23/22 A3003 RMK AO2 SLP167
      T02340215 10234 20206 53005 $=
METAR KMUI 081155Z AUTO 00000KT 10SM CLR 26/20 A3004 RMK AO2 SLP170
      T02640201 10264 20214 53007 $=
METAR KNQX 081153Z 06005KT 10SM SCT022TCU BKN100 BKN200 28/25 A2994
      RMK AO2 SLP138 TCU DSNT SE-W T2 SET 70023 T02830250 10283
      20278 53009 $=
METAR KSSC 081155Z AUTO 30007KT 10SM CLR 26/19 A2998 RMK AO2 SLP150
      T02600192 10269 20249 53009 $=
METAR KVAD 081155Z AUTO 28006KT 10SM CLR 24/20 A3004 RMK AO2 SLP169
      T02410200 10241 20208 53007 $=
METAR KWRI 081155Z AUTO 14007KT 3SM BR BKN005 25/25 A3003 RMK AO2 SLP168
      T02460246 10246 20227 53011 $=
METAR LEMO 081200Z 26005KT 200V330 CAVOK 30/19 Q1016 NOSIG=
METAR MWCR 081200Z 12006KT 9999 FEW018 BKN250 28/25 Q1013 NOSIG=
METAR NSTU 081152Z 07011KT 10SM FEW016 28/26 A2989 RMK SLP122 60006
      70018 8/100 T02770256 10281 20267 57002=
METAR PABI 081153Z AUTO 00000KT 10SM CLR 11/07 A3008 RMK AO2 SLP188
      T01060072 10189 20106 58002 TSNO=
METAR PASC 081153Z 24010KT 10SM OVC230 08/06 A3002 RMK AO2 SLP167 70003
      T00830061 10111 20083 51006=
METAR RODN 081155Z AUTO 17012KT 9999 FEW018 BKN200 29/26 A2984 RMK
      AO2 SLP106 T02880263 10303 20287 51011=
####018000125####
SAUS44 KLIX 081156
MTRNBG
METAR KNBG 081155Z 06004KT 7SM SCT010 BKN250 26/23 A3002 RMK AO2 
SLP166 T02620233 50008 $
####018000131####
SAUS43 KDLH 081156
MTRINL
METAR KINL 081155Z AUTO 26004KT 10SM CLR 15/14 A3001 RMK AO2 SLP162 
T01500139 10150 20117 53004
####018000176####
SAUS45 KABQ 081156
MTRCAO
METAR KCAO 081155Z AUTO 36009KT 10SM -RA OVC100 16/13 A3030 RMK AO2 
RAB00E12B55 SLP202 P0000 60013 70089 T01560133 10161 20150 50004 
TSNO
####018000136####
SAUS43 KABR 081156
MTRMBG
METAR KMBG 081155Z AUTO 00000KT 10SM CLR 13/11 A3015 RMK AO2 SLP204 
T01280106 10144 20106 51007 TSNO
####018000075####
SACH01 SCFA 081200
METAR SCFA 081200Z 00000KT 9999 BKN022 13/07 Q1016=
####018000092####
SPUS99 KWBC 081157
SPECI
KOKC 081155Z 01004KT 10SM BKN014 BKN025 23/22 A3007 RMK AO2=
####018003703####
SAUS99 KWBC 081157
METAR
KROC 081154Z 21006KT 8SM CLR 24/20 A3006 RMK AO2 SLP173 T02440200
     10244 20222 50004=
KRUT 081155Z AUTO 13005KT 6SM CLR 24/20 A3006 RMK AO1 10240 20210
     52003=
KSDY 081155Z AUTO 21005KT 10SM BKN080 12/08 A3016 RMK AO1 10150
     20110 52007=
KSFM 081155Z 00000KT 4SM BKN008 OVC015 23/19 A3010 RMK AO1 10230
     20210 52010=
KSFZ 081155Z AUTO 14004KT 10SM CLR 23/21 A3009 RMK AO1 10230 20210
     52010=
KSYR 081154Z 13003KT 10SM CLR 26/21 A3005 RMK AO2 SLP170 T02560211
     10256 20222 53003=
KTAD 081154Z AUTO 00000KT 10SM OVC028 14/13 A3036 RMK AO2 SLP222
     70087 T01440128 10150 20139 50002=
KTPL 081155Z 07004KT 8SM BKN009 BKN013 OVC021 24/23 A3000 RMK AO1
     60001 10260 20240 52003=
KVAY 081154Z AUTO 00000KT 1 1/2SM BR OVC002 24/23 A3004 RMK AO2
     SLP172 T02390233 10244 20233 53010=
KVLD 081153Z 00000KT 10SM CLR 23/21 A3003 RMK AO2 SLP176 T02280211
     10228 20189 53008=
KVSF 081154Z AUTO 00000KT 4SM HZ OVC012 23/21 A3009 RMK AO2 SLP185
     T02330206 10233 20206 51008=
KWVL 081155Z AUTO 18006KT 2 1/2SM OVC003 21/19 A3007 RMK AO1 10210
     20210 52010=
KWWD 081155Z AUTO 10SM FEW060 SCT070 BKN080 24/23 A3004 RMK AO1
     10240 20230 52010=
KHYI 081155Z AUTO 04006KT 5SM BKN018 OVC025 25/24 A2995 RMK AO1
     54000=
KILE 081155Z 09005KT 10SM BKN006 OVC016 24/22 A2999 RMK AO1 10250
     20240 52007=
KIPT 081154Z 32003KT 7SM CLR 23/18 A3007 RMK AO2 SLP176 T02330178
     10233 20189 51005=
KIZG 081154Z AUTO 00000KT 6SM HZ BKN010 24/20 A3009 RMK AO2 SLP188
     T02440200 10244 20206 53008=
KJAC 081155Z AUTO 00000KT 10SM CLR 04/M01 A3037 RMK AO1 10140
     20040 52014=
KJST 081154Z AUTO 00000KT 4SM HZ CLR 22/17 A3016 RMK AO2 SLP193
     T02220167 10222 20189 53005=
KLCI 081155Z AUTO 20003KT 6SM FEW013 SCT025 OVC045 24/20 A3008 RMK
     AO1 10240 20220 52010=
KLEW 081155Z 17006KT 2 1/2SM OVC003 21/20 A3011 RMK AO1 10210
     20200 52007=
KLWM 081154Z 17005KT 10SM BKN015 OVC040 25/20 A3010 RMK AO2 SLP192
     T02500200 10250 20233 51009=
KMGJ 081154Z AUTO 00000KT 5SM HZ FEW110 26/21 A3005 RMK AO2 SLP172
     T02560211 10256 20206 51008=
KMIV 081154Z AUTO 12003KT 6SM BR FEW110 24/22 A3002 RMK AO2 SLP163
     T02440222 10244 20233 52009=
KMJX 081155Z AUTO 00000KT 10SM FEW065 SCT075 BKN090 24/21 A3005
     RMK AO1 10240 20230 52014=
KMSV 081155Z AUTO 00000KT 7SM CLR 24/20 A3011 RMK AO1 10240 20200
     52007=
KMVL 081154Z AUTO 19003KT 4SM HZ CLR 24/21 A3007 RMK AO2 SLP179
     T02440211 10244 20194 50002=
KMWC 081154Z 21004KT 10SM BKN022 BKN036 BKN055 21/20 A3002=
KOCH 081155Z AUTO 09006KT 9SM CLR 24/19 A3002 RMK AO1 10240 20240
     52007=
KODO 081153Z AUTO 02006KT 5SM BR OVC003 21/20 A3011 RMK AO2 SLP152
     60020 70020 T02060200 10222 20206 53008=
KORH 081154Z 16007KT 7SM OVC009 23/21 A3012 RMK AO2 CIG 006V012
     SLP194 T02330211 10233 20217 51007=
KPHL 081154Z 13006KT 4SM HZ FEW008 SCT150 26/23 A3003 RMK AO2
     SLP169 T02560228 10267 20244 51006 $=
KPNE 081154Z 12004KT 2 1/2SM BR OVC002 24/23 A3005 RMK AO2 CIG
     001V006 SLP175 T02440233 10261 20239 51006=
KPNS 081153Z 00000KT 8SM CLR 26/24 A3003 RMK AO2 SLP170 T02560244
     10256 20239 53005=
KPQI 081155Z AUTO 13007KT 10SM CLR 23/19 A3001 RMK AO1 10230 20210
     52010=
KPRX 081155Z 13007KT 4SM BKN003 OVC031 24/22 A3004 RMK AO1 10240
     20240 52007=
KPSF 081154Z AUTO 00000KT 4SM HZ CLR 23/20 A3009 RMK AO2 SLP156
     T02330200 10233 20189 51008=
KPTW 081154Z AUTO VRB03KT 4SM HZ CLR 27/20 A3005 RMK AO2 SLP171
     T02670200 10267 20233 53007 $=
KPVD 081151Z 16004KT 10SM BKN008 23/21 A3010=
####018003401####
SAUS99 KWBC 081157 RRC
METAR
KBVI 081147Z 00000KT 4SM HZ SCT060 24/21 A3013=
KCCU 081156Z AUTO 18020KT 10SM CLR 07/01 A3062 RMK AO2=
KCHA 081153Z 00000KT 10SM CLR 23/19 A3008 RMK AO2 SLP176 T02330194
     10250 20217 51009=
KCIC 081155Z AUTO 13005KT 10SM CLR 20/13 A2983 RMK AO1=
KCMR 081155Z AUTO 16007KT 10SM CLR 13/02 A3026 RMK AO1=
KCNK 081155Z AUTO 02006KT 10SM OVC037 19/18 A3016 RMK AO2 SLP201
     70066 T01940183 10206 20194 53008=
KDLH 081155Z 29006KT 10SM CLR 18/14 A3006 RMK AO2 SLP177 T01780139
     10189 20150 53005=
KEAT 081155Z AUTO 30007KT 10SM CLR 17/06 A3004 RMK AO2 SLP163
     T01720061 10261 20167 51006=
KGGE 081155Z AUTO 29006KT 10SM CLR 25/21 A2994 RMK AO2=
KGPI 081155Z AUTO 02006KT 10SM CLR 11/07 A3018 RMK AO2 SLP207
     T01110072 10128 20072 51005=
KHVS 081155Z AUTO 00000KT 10SM CLR 25/20 A2998 RMK AO2=
KIRK 081155Z AUTO 33003KT 10SM CLR 21/20 A3008 RMK AO2 SLP182
     70009 T02060200 10206 20189 51008=
KLIC 081155Z AUTO 13005KT 7SM FEW005 BKN041 13/13 A3035 RMK AO2
     SLP223 60000 T01330133 10144 20133 55000=
KLLJ 081155Z AUTO 00000KT 10SM FEW090 07/00 A3027 RMK AO2 SLP204
     T00720000 10139 20067 51012=
KLND 081153Z AUTO 00000KT 10SM CLR 09/03 A3034 RMK AO2 SLP229
     T00940033 10139 20072 53005=
KLXV 081153Z AUTO 00000KT 1/2SM FG OVC002 05/05 A3052 RMK AO2
     SLP215 70011 T00500050 10072 20050 56008 TSNO=
KMAO 081155Z AUTO 34003KT 10SM CLR 25/19 A2995 RMK AO2=
KMKG 081155Z 15004KT 5SM BR FEW043 OVC070 23/22 A3002 RMK AO2
     RAB02E47 SLP161 P0004 60021 70021 T02330217 10239 20228
     56005=
KMSN 081153Z VRB03KT 8SM BKN006 OVC010 22/21 A3003 RMK AO2 SLP162
     60000 70057 T02170206 10222 20211 51006=
KMWT 081153Z AUTO 00000KT 10SM FEW016 SCT022 BKN027 23/23 A3006
     RMK AO2 SLP167 70028 T02330228 10239 20228 52008 TSNO=
KMYP 081056Z AUTO 19008KT 10SM CLR 03/02 A3074 RMK AO2=
KNQA 081155Z COR 00000KT 10SM FEW250 24/23 A3008 RMK=
KOWB 081156Z 00000KT 10SM FEW110 27/23 A3007 RMK AO2 53004 60000
     T02720233 10272 20250 RAB29E40 P0000 SLP177=
KRCE 081155Z AUTO 04004KT 4SM BR OVC002 22/22 A3009 RMK AO2=
KRNO 081155Z 22003KT 10SM FEW120 BKN160 21/05 A3005 RMK AO2 SLP115
     T02060050 10261 20194 53004=
KSAV 081153Z 27005KT 10SM CLR 23/20 A3000 RMK AO2 SLP159 T02280200
     10228 20211 53005 $=
KSBN 081154Z 36003KT 6SM HZ BKN100 24/21 A3005 RMK AO2 SLP167
     T02440211 10250 20222 55001=
KSCK 081155Z AUTO 02004KT 10SM CLR 13/11 A2985 RMK AO2 SLP107
     T01330111 10178 20133 53002=
KSGR 081153Z 08004KT 9SM FEW008 BKN025 OVC070 26/24 A2993 RMK AO2
     RAB37E47 SLP142 P0000 60000 70034 T02610239 10261 20256
     53008=
KSMS 081155Z AUTO 32004KT 9SM CLR 25/20 A2999 RMK AO2=
KSRR 081155Z AUTO 00000KT 10SM BKN002 OVC019 13/12 A3036 RMK
     AO2=
KTLH 081153Z 00000KT 10SM BCFG FEW010 23/22 A3003 RMK AO2 SLP168
     T02330217 10239 20217 53008=
KTZR 081150Z 00000KT 4SM HZ SKC 23/21 A3009=
KVTP 081200Z AUTO 10005KT 10SM SCT001 06/04 A3054 RMK AO2=
KWYS 081150Z AUTO 00000KT 10SM CLR M02/M03 A3038 RMK AO2=
PAHN 081154Z AUTO 00000KT 10SM CLR 11/10 A3018 RMK AO2 SLP223
     T01060100 10139 20100 57005 TSNO=
PAKN 081154Z 00000KT 10SM OVC060 09/09 A2990 RMK AO2 SLP125 60004
     70025 T00940089 10111 20094 58002=
PAWR 081154Z 06012G22KT 2SM -RA BR OVC008 12/11 A3008 RMK SLP186
     NOSPECI=
####018003726####
SAUS99 KWBC 081157 RRA
METAR
KPWG 081155Z AUTO 09005KT 10SM FEW028 SCT100 SCT120 25/22 A3001
     RMK AO1 10260 20250 52007=
KRDG 081154Z 00000KT 8SM CLR 27/21 A3002 RMK AO2 SLP167 T02720211
     10272 20228 50004=
KRKD 081155Z AUTO 21006KT 1/2SM OVC002 19/18 A3012 RMK AO1 10190
     20180 52010=
KAKR 081154Z AUTO 00000KT 5SM HZ CLR 24/19 A3009 RMK AO2 SLP179
     T02390194 10239 20189 50002=
KBHB 081155Z AUTO 20008KT 3SM OVC002 18/18 A3013 RMK AO1 10180
     20180 52010=
KBID 081155Z AUTO 09004KT 1/4SM OVC002 22/22 A3009 RMK AO1 10230
     20210 52014=
KBLM 081155Z AUTO 16005KT 10SM BKN090 24/19 A3008 RMK AO1 10240
     20240 52014=
KBOS 081154Z 17007KT 10SM CLR 23/19 A3010 RMK AO2 SLP191 T02330194
     10244 20217 51012=
KBUF 081154Z 22003KT 8SM FEW090 25/19 A3005 RMK AO2 SLP172 ACC S
     T02500194 10250 20217 51001=
KCEW 081153Z AUTO 00000KT 5SM BR CLR 22/21 A3005 RMK AO2 SLP171
     T02170211 10228 20200 53005=
KCOD 081155Z 13009KT 10SM CLR 11/02 A3033 RMK AO1 10140 20090
     54000=
KCOS 081154Z 16005KT 10SM CLR 13/11 A3038 RMK AO2 SLP222 70044
     T01330106 10144 20128 58005=
KCRS 081153Z AUTO 07003KT 10SM OVC075 25/24 A3001 RMK AO2 SLP156
     60000 T02500239 10256 20250 53006=
KDDH 081154Z AUTO 00000KT 4SM HZ CLR 24/21 A3006 RMK AO2 SLP174
     T02390206 10239 20183 50005=
KDEQ 081153Z AUTO 08003KT 9SM SCT005 BKN055 24/23 A3004 RMK AO2
     SLP166 T02390233 10244 20239 51007=
KDHN 081153Z 00000KT 10SM CLR 24/23 A3008 RMK AO2 SLP179 T02440228
     10244 20228 53008=
KDSV 081154Z AUTO 13006KT 8SM CLR 23/19 A3009 RMK AO2 SLP193
     T02330194 10233 20211 50003=
KDTS 081153Z AUTO 00000KT 10SM CLR 26/24 A3002 RMK AO2 SLP165
     T02610244 10261 20239 53005=
KDYL 081154Z AUTO 00000KT 2 1/2SM BR CLR 24/23 A3004 RMK AO2
     SLP165 T02440228 10244 20211 52007 TSNO=
KEEN 081155Z AUTO 17007KT 10SM BKN020 BKN120 25/22 A3008 RMK AO1
     10250 20210 52010=
KEGE 081155Z 00000KT 10SM CLR 09/08 A3038 RMK AO1 10130 20090
     57003=
KFDR 081153Z AUTO 02007KT 10SM 23/22 A3004 RMK AO2 SLP157 70264
     T02330222 10239 20233 53006=
KFIG 081154Z AUTO 00000KT 4SM BR CLR 21/18 A3013 RMK AO2 SLP190
     T02060183 10211 20172 53004=
KFNL 081155Z AUTO 04003KT 7SM OVC008 14/13 A3032 RMK AO1 70008
     10140 20130 52003=
KFZY 081154Z AUTO 24003KT 5SM HZ CLR 26/22 A3005 RMK AO2 SLP170
     T02560222 10256 20200 50002=
KGDV 081155Z AUTO 00000KT 10SM CLR 11/07 A3017 RMK AO1 10130 20110
     52003=
KGED 081154Z AUTO 09007KT 10SM CLR 26/23 A3003 RMK AO2 SLP169
     T02560228 10256 20239 51012=
KGNV 081153Z 00000KT 10SM CLR 23/21 A3001 RMK AO2 SLP160 T02280206
     10228 20189 53005=
KGUC 081155Z AUTO 36006KT 10SM CLR 07/03 A3045 RMK AO1 70006 10120
     20060 52003=
KGXY 081155Z AUTO 04004KT 5SM SCT011 OVC047 15/12 A3032 RMK AO1
     10160 20150 54000=
KGZH 081153Z AUTO 00000KT 8SM CLR 23/22 A3005 RMK AO2 SLP172 70001
     T02280222 10233 20217 53007=
KHDN 081155Z 14007KT 10SM CLR 08/05 A3033 RMK AO1 10130 20080
     52003=
KTEW 081153Z AUTO 00000KT 7SM CLR 23/21 A3005 RMK AO2=
KCVH 081150Z AUTO 21004KT 7SM OVC006 13/11 A2992 RMK AO1=
KFSO 081158Z AUTO 00000KT 7SM CLR 26/23 A3001 RMK AO2=
KFBL 081154Z AUTO 29003KT 10SM CLR 17/15 A3012 RMK AO2=
KLYV 081158Z AUTO 00000KT 10SM CLR 13/12 A3017 RMK AO2=
KEFK 081155Z AUTO 19005KT 7SM CLR 24/20 A3007 RMK AO2=
KRRT 081154Z AUTO 21006KT 10SM CLR 15/13 A3001 RMK AO2=
KTOB 081154Z AUTO 00000KT 10SM CLR 18/16 A3012 RMK AO2=
KLXL 081154Z AUTO 00000KT 4SM BR CLR 14/13 A3009 RMK AO2=
KEVM 081152Z AUTO 26003KT 7SM CLR 15/13 A3002 RMK AO1=
KELO 081153Z AUTO 22004KT 10SM CLR 15/14 A3002 RMK AO2=
####018003744####
SAUS99 KWBC 081157 RRB
METAR
KROX 081154Z AUTO 23004KT 10SM SCT085 15/13 A3002 RMK AO2=
KSYN 081210Z AUTO 00000KT 10SM CLR 18/17 A3010 RMK AO2
     T01800167=
KVVV 081156Z AUTO 28007KT 10SM CLR 18/14 A3011 RMK AO2=
KROS 081155Z AUTO 00000KT 10SM CLR 16/15 A3009 RMK AO2 T01620152
     10195 20145=
KHCD 081152Z AUTO 00000KT 7SM CLR 14/14 A3012 RMK AO2
     T01430135=
KSGS 081153Z AUTO 32004KT 10SM CLR 19/16 A3010 RMK AO2 70002
     T01940162 10215 20179=
KMJQ 081152Z AUTO 27003KT 7SM CLR 15/15 A3016 RMK AO2=
KHCO 081154Z AUTO 27003KT 10SM SCT070 15/14 A3006 RMK AO2=
KLVN 081148Z AUTO 28004KT 10SM CLR 17/17 A3011 RMK AO2=
KPEX 081153Z AUTO 25004KT 7SM CLR 15/15 A3012 RMK AO2 T01470146
     10147 20116=
KJMR 081158Z AUTO 00000KT 10SM CLR 15/13 A3010 RMK AO2=
KJKJ 081154Z AUTO 19003KT 10SM CLR 16/14 A3008 RMK AO2=
KMVE 081154Z AUTO 00000KT 10SM CLR 17/15 A3011 RMK AO2=
KTKC 081153Z AUTO 26004KT 10SM CLR 17/13 A3015 RMK AO2 T01690131
     10169 20152=
KGYL 081155Z AUTO 23003KT 10SM CLR 16/15 A3011 RMK AO2 T01600146
     10178 20142=
KDXX 081154Z AUTO 00000KT 10SM CLR 16/16 A3011 RMK AO2=
KHZX 081151Z AUTO 00000KT 10SM CLR 16/15 A3007 RMK AO2=
KSAZ 081154Z AUTO 26004KT 10SM CLR 16/16 A3009 RMK AO2=
KONA 081150Z AUTO 31004KT 10SM CLR 20/16 A3006 RMK AO2=
KOVL 081154Z AUTO 29003KT 10SM CLR 14/13 A3012 RMK AO2 T01400126
     10140 20125=
KLJF 081152Z AUTO 24003KT 10SM CLR 18/16 A3012 RMK AO2=
KAEL 081150Z AUTO 33004KT 10SM CLR 17/16 A3011 RMK AO2=
K29G 081154Z AUTO 00000KT 5SM CLR 23/21 A3010 RMK AO2 T02290210
     PWINO=
KMRT 081153Z AUTO 00000KT 5SM CLR 23/20 A3012 RMK AO2 T02290199
     10229 20201=
KIKW 081154Z AUTO 00000KT 7SM BKN090 OVC110 23/21 A3000 RMK AO2
     T02320213 10232 20213=
KMDS 081145Z AUTO 27004KT 10SM CLR 15/15 A3018 RMK AO2=
KPQN 081153Z AUTO 00000KT 10SM CLR 17/14 A3017 RMK AO2=
KFGN 081154Z AUTO 26007KT 1/4SM -DZ VV002 16/13 A2998 RMK AO2=
KPNM 081153Z AUTO 27003KT 10SM CLR 16/15 A3010 RMK AO2=
KPWC 081153Z AUTO 00000KT 10SM CLR 12/12 A3009 RMK AO2=
KFFM 081153Z AUTO 00000KT 10SM CLR 16/14 A3010 RMK AO2=
KGDB 081153Z AUTO 00000KT 10SM CLR 15/14 A3014 RMK AO2 T01460140
     10148 20131=
KAIT 081153Z AUTO 24003KT 10SM CLR 16/16 A3007 RMK AO2=
KGHW 081154Z AUTO 25005KT 10SM CLR 17/14 A3014 RMK AO2=
KMWM 081153Z AUTO 00000KT 7SM CLR 15/14 A3015 RMK AO2=
KULM 081155Z AUTO 27003KT 7SM CLR 15/13 A3013 RMK AO2=
KBBB 081153Z AUTO 00000KT 10SM CLR 14/14 A3012 RMK AO2=
KTWM 081153Z AUTO 29004KT 10SM CLR 17/13 A3002 RMK AO2=
KMGG 081155Z AUTO 27004KT 10SM CLR 18/16 A3012 RMK AO2 T01750155
     10179 20148=
KMOX 081150Z AUTO 27004KT 10SM CLR 17/15 A3008 RMK AO2=
KLAX 081153Z 29003KT 9SM OVC012 16/13 A2990 RMK AO2 SLP124
     T01610128 10167 20161 55003=
K0A9 081155Z AUTO 00000KT 8SM BKN085 22/18 A3013 RMK=
K20V 081156Z AUTO 00000KT 10SM CLR 05/03 A3042 RMK AO2=
K4BM 081154Z AUTO 23005KT 7SM 03/03 A3062 RMK AO2=
K5SM 081153Z AUTO 21003KT 10SM CLR 08/01 A3057 RMK AO2=
K7BM 081156Z AUTO 26004KT 10SM CLR 08/05 A3053 RMK AO2=
KBBP 081155Z AUTO 00000KT 10SM CLR 25/19 A2996 RMK AO2=
KBCT 081147Z AUTO 08007KT 10SM FEW028 SCT120 29/24 A2996=
KBDU 081156Z AUTO 00000KT 10SM BKN032 BKN043 14/12 A3032 RMK
     AO2=
KBJC 081157Z AUTO 35012KT 7SM SCT004 SCT025 12/11 A3033 RMK
     AO2=
KBKN 081155Z AUTO 36004KT 8SM CLR 22/21 A3005 RMK AO2=
KBMI 081156Z 00000KT 3SM BR SCT080 23/22 A3006 RMK AO2 53006 60010
     70010 T02330222 10238 20222 SLP164 $=
KBOK 081156Z AUTO 00000KT 1 1/4SM BR OVC002 09/09 A2998 RMK AO2
     53002 T00880088 10100 20088 SLP152 $=
KBTV 081154Z 00000KT 7SM CLR 27/21 A3003 RMK AO2 SLP166 T02670211
     10267 20228 53006=
####018000131####
SAUS44 KSHV 081156
MTRPOE
METAR KPOE 081155Z 08005KT 10SM FEW015 24/23 A3003 RMK AO2 SLP169 
70021 T02390228 10250 20239 $
####018000157####
SAUS43 KLOT 081156
MTRRFD
METAR KRFD 081154Z 22004KT 6SM BR FEW006 SCT046 OVC180 22/21 A3005 
RMK AO2 SLP171 60002 70004 T02220211 10228 20217 51013
####018000167####
SAUS43 KAPX 081156
MTRANJ
METAR KANJ 081155Z AUTO 25005KT 2SM -RA BR OVC004 21/19 A2996 RMK 
AO2 RAE08B29 SLP140 P0001 60010 70010 T02060194 10222 20200 53007
####018000222####
SAUK39 EGRR 081150
METAR EGDL 081150Z 23009KT 9999 FEW030 BKN250 21/10 Q1018 BLU NOSIG=
METAR EGOW 081150Z 27008KT 9999 FEW036 BKN250 20/11 Q1017 BLU=
METAR EGXZ 081150Z 25013KT 9999 SCT040 SCT050 20/09 Q1016 BLU=
####018000270####
SAZA42 FAJS 081200
METAR FAVV 081200Z AUTO 05010KT //// // ////// 17/01 Q1029=
METAR FAJB 081200Z AUTO 05004KT //// // ////// 17/02 Q1032=
METAR FASI 081200Z AUTO 05008KT //// // ////// 18/M01 Q1031=
METAR FAGC 081200Z AUTO 02007KT //// // ////// 17/02 Q1032=
####018000081####
SABZ21 SBMO 081200
METAR SBMO 081200Z 30002KT 8000 BKN020 SCT100 23/21 Q1017=
####018000125####
SAUS42 KCHS 081156
MTRCHS
METAR KCHS 081156Z 29006KT 7SM CLR 25/20 A2997 RMK AO2 SLP149 
T02500200 10250 20239 53005
####018000141####
SAUS46 KLOX 081156
MTRVBG
METAR KVBG 081155Z AUTO 31003KT 10SM OVC004 12/11 A2993 RMK AO2 
SLP127 T01170111 10128 20117 53002 TSNO $
####018000131####
SAUS45 KPSR 081156
MTRNYL
METAR KNYL 081155Z AUTO 00000KT 10SM CLR 27/00 A2972 RMK AO2 SLP061 
T02670000 10300 20261 53004
####018000136####
SAUS46 KSEW 081157
MTRAST
METAR KAST 081155Z AUTO 24004KT 6SM BR OVC003 12/11 A2995 RMK AO2 
SLP142 T01220111 10122 20117 52005
####018000135####
SAUS45 KSLC 081157
MTRNKX
METAR KNKX 081155Z 32005KT 10SM OVC014 16/14 A2990 RMK AO2 SLP119 
70001 T01560139 10167 20156 55000
####018000088####
SAGL31 BGSF 081150 RRA
METAR BGBW 081150Z 26005KT 9999 FEW030 13/04 Q1008 RMK 1SC =
####018000090####
SAUK33 EGGY 081150 RRA
METAR EGNT 081150Z 24011G22KT 200V270 9999 FEW038 20/08 Q1014=
####018000092####
SAPK31 OPSK 081155
METAR OPSK 081200Z 13015KTS 1700 DRQ SCT040 BKN100 34/24 10001 RH56=
####018000361####
SAFI34 EFHK 081150
EFET 081150Z AUTO 17008KT 130V220 CAVOK 20/06 Q1014=
EFIV 081150Z AUTO 10002KT CAVOK 20/10 Q1016=
EFKE 081150Z AUTO 20007KT 170V240 CAVOK 21/13 Q1015=
EFKI 081150Z AUTO 33004KT 300V020 CAVOK 22/13 Q1016=
EFKS 081150Z AUTO VRB03KT CAVOK 20/10 Q1017=
EFKT 081150Z AUTO 18010KT 140V210 CAVOK 21/08 Q1015=
METAR EFSO 081156Z NIL=
####018000110####
SAUK31 EGGY 081150 CCB
METAR COR EGCC 081150Z 22009KT 180V260 9999 FEW037 SCT044 20/10
    Q1017 NOSIG=
####018000136####
SAUS42 TJSJ 081157
MTRSJU
METAR TJSJ 081156Z 08006KT 10SM FEW026 SCT034 28/25 A3000 RMK AO2 
SLP159 T02780250 10283 20267 51009
####018000131####
SAUS43 KFSD 081157
MTRHON
METAR KHON 081155Z AUTO 23004KT 10SM CLR 16/14 A3015 RMK AO2 SLP206 
T01610139 10178 20150 53004
####018000138####
SAUS43 KUNR 081157
MTRPHP
METAR KPHP 081155Z AUTO 27007KT 10SM CLR 12/09 A3022 RMK AO2 SLP222 
T01170094 10150 20111 53004 TSNO $
####018000126####
SAUS42 KJAX 081157
MTRJAX
METAR KJAX 081156Z 24003KT 10SM CLR 22/21 A3001 RMK AO2 SLP162 
T02170206 10217 20189 53007
####018000142####
SAUS46 KMTR 081157
MTRAAT
METAR KAAT 081155Z AUTO 00000KT 10SM CLR 08/07 A3008 RMK AO2 SLP146 
70001 T00780067 10189 20078 53004 TSNO
####018000515####
SANL40 EHWX 081155
METAR EHDL 081155Z AUTO 20008KT 9999NDV NCD 30/12 Q1018 
BLU=
METAR EHEH 081155Z AUTO 20007KT 9999NDV FEW360 30/11 Q1018 
BLU BLU=
METAR EHGR 081155Z AUTO 21009KT 9999NDV NCD 30/11 Q1018 
BLU BLU=
METAR EHLW 081155Z AUTO 24007KT 9999NDV OVC067 22/17 Q1019 
BLU BLU=
METAR EHVK 081155Z AUTO 20007KT 9999NDV FEW070 31/11 Q1018 
BLU BLU=
METAR EHVL 081155Z AUTO 24011KT 9999NDV OVC058 21/16 Q1019 
BLU=
METAR EHWO 081155Z AUTO 30007KT 9999NDV NCD 27/12 Q1019 
BLU BLU=
####018000324####
SAUS20 KNKA 081156
METAR KEFD 081150Z 14010KT 7SM -RA BKN010 OVC020 25/24 A2995=
METAR KLRF 081155Z AUTO 00000KT 10SM FEW210 23/22 A3007 RMK AO2 CLDS
      LWR RWY07 SLP182 T02340224 10236 20228 53009=
METAR KUCP 081156Z AUTO 00000KT 3/4SM BR VV001 21/19 A3011 RMK AO2 
    51004 T02050194 10205 20177 SLP201 $=
####018000141####
SAUS44 KSHV 081157
MTRSHV
METAR KSHV 081156Z 00000KT 7SM SCT160 BKN280 24/23 A3004 RMK AO2 
SLP169 70057 T02440233 10256 20239 53010
####018000136####
SAUS45 KABQ 081157
MTRABQ
METAR KABQ 081156Z 05008KT 10SM BKN100 OVC200 20/09 A3027 RMK AO2 
SLP166 T02000094 10206 20189 53006
####018000138####
SAUS43 KLMK 081157
MTRSDF
METAR KSDF 081156Z 15003KT 4SM HZ FEW120 SCT150 26/21 A3006 RMK AO2 
SLP172 T02560211 10289 20250 50004
####018000628####
SACN60 CWAO 081100 RRE
PET SA 1100 AUTO8 M M M M/07/07/MMMM/M/ M 40MM=
PFM SA 1100 AUTO8 M M M M/08/07/MMMM/M/ M 76MM=
PHU SA 1100 AUTO8 M M M M/11/10/MMMM/M/ M 95MM=
PIA SA 1100 AUTO8 M M M M/10/09/MMMM/M/ M 20MM=
PKA SA 1100 AUTO8 M M M M/12/10/MMMM/M/ M 42MM=
PLA SA 1100 AUTO8 M M M M/07/06/MMMM/M/ M 58MM=
PMA SA 1100 AUTO8 M M M M/14/11/MMMM/M/ M 57MM=
PMB SA 1100 AUTO8 M M M M/06/05/MMMM/M/ M 03MM=
PML SA 1100 AUTO8 M M M M/12/10/MMMM/M/ M 72MM=
PPL SA 1100 AUTO8 M M M M/09/08/MMMM/M/ M 70MM=
PRH SA 1100 AUTO8 M M M M/08/08/MMMM/M/ M 49MM=
PRS SA 1100 AUTO8 M M M M/13/10/MMMM/M/ M 44MM=

####018000083####
SACN90 CWAO 081100 RRE
WFZ SA 1100 AUTO8 M M M 132/07/06/3102/M/ 1004 82MM=

####018000083####
SACN92 CWAO 081100 RRE
WJN SA 1100 AUTO8 M M M 173/05/04/3109/M/ 1002 57MM=

####018000532####
SACN59 CWAO 081100 RRH
PAA SA 1100 AUTO8 M M M M/12/10/2505/M/ M 31MM=
PBA SA 1100 AUTO8 M M M M/08/07/MMMM/M/ M 33MM=
PBE SA 1100 AUTO8 M M M M/09/08/1003/M/ M 61MM=
PBS SA 1100 AUTO8 M M M M/10/09/2704/M/0004 M 80MM=
PBT SA 1100 AUTO8 M M M M/09/08/2309/M/ M 67MM=
PEH SA 1100 AUTO8 M M M M/10/09/2401/M/ M 92MM=
PIR SA 1100 AUTO8 M M M M/12/10/2808/M/ M 01MM=
PQL SA 1100 AUTO8 M M M M/10/09/2106/M/ M 03MM=
PRA SA 1100 AUTO8 M M M M/12/11/MMMM/M/ M 55MM=
PXL SA 1100 AUTO8 M M M M/09/09/1402/M/ M 27MM=

####018000108####
SACN89 CWAO 081100 RRE
WCI SA 1100 AUTO8 M M M 150/16/15/0205/M/0142 PCPN 0.4MM PAST HR
3007 53MM=

####018000139####
SACN96 CWAO 081100 RRF
WYW SA 1100 AUTO8 M M M 143/14/14/2003/M/ 6004 18MM=
XEL SA 1100 AUTO8 M M M 133/15/12/2908/M/M 3002 28MM=

####018000104####
SACN93 CWAO 081100 RRG
WND SA 1100 AUTO8 M M M 154/05/03/3117/M/M PK WND 2921 1000Z 2007
58MM=

####018000080####
SAMZ40 FQMA 081200
METAR
FQLC 081200Z 14006KT 9999 BKN013 19/07 Q1026=

####018001672####
SAUS17 KAWN 081200 RRB
METAR KADW 081155Z 10004KT 7SM CLR 26/24 A3002 RMK AO2A SLP163 T02630240
      10281 20244 51008=
METAR KBAB 081155Z AUTO 20004KT 10SM CLR 16/12 A2983 RMK AO2 SLP102
      T01550116 10214 20155 53005 $=
METAR KBIX 081155Z AUTO 03003KT 10SM CLR 25/25 A3004 RMK AO2 SLP173
      T02520252 10262 20246 53010=
METAR KDLF 081155Z AUTO 00000KT 10SM FEW017 24/23 A2997 RMK AO2 SLP133
      T02350225 10259 20235 53009 $=
METAR KDOV 081155Z 12007KT 10SM CLR 25/24 A3002 RMK AO2A SLP167 T02520239
      10252 20235 52010 $=
METAR KDYS 081155Z 03004KT 10SM SCT005 OVC009 22/21 A3006 RMK AO2A
      CIG 005 RWY34 SLP161 70117 T02150213 10218 20209 53009 $=
METAR KFSI 081155Z AUTO 00000KT 10SM FEW080 22/22 A3006 RMK AO2 SLP164
      T02240217 10237 20222 53006=
METAR KGRK 081155Z 06005KT 7SM SCT010 BKN015 BKN031 26/24 A2999 RMK
      SLP135 60000 53007=
METAR KHFF 081155Z AUTO 34003KT 10SM CLR 25/18 A2999 RMK AO2 SLP151
      T02500176 10250 20212 51008 $=
METAR KLHW 081155Z AUTO 28006KT 10SM CLR 23/20 A3000 RMK AO2 SLP160
      T02340202 10234 20211 53006=
METAR KLSF 081155Z AUTO 00000KT 10SM CLR 23/22 A3003 RMK AO2 SLP167
      T02340215 10234 20206 53005 $=
METAR KMCF 081155Z AUTO 03003KT 10SM CLR 24/24 A3000 RMK AO2 SLP159
      70001 T02440240 10252 20221 53006=
METAR KMIB 081155Z AUTO 26006KT 10SM SCT080 13/12 A3010 RMK AO2 SLP195
      70001 T01310119 10151 20111 53008 $=
METAR KMMT 081155Z 36003KT 10SM FEW100 25/21 A3000 RMK AO2A SLP158
      T02530213 10253 20210 53008=
METAR KMXF 081155Z AUTO 00000KT 10SM CLR 26/24 A3003 RMK AO2 SLP168
      T02630239 10278 20243 53006=
####018001749####
SAZZ40 KAWN 081200 RRF
METAR BGBW 081150Z 26005KT 9999 FEW030 13/04 Q1008 RMK 1SC=
METAR EFKI 081150Z AUTO 33004KT 300V020 CAVOK 22/13 Q1016=
METAR ETAR 081155Z AUTO VRB03KT 9999 CLR 30/15 A3013 RMK AO2 SLP196
      T02960146 10296 20173 58004 $=
METAR KADW 081155Z 10004KT 7SM CLR 26/24 A3002 RMK AO2A SLP163 T02630240
      10281 20244 51008=
METAR KDLF 081155Z AUTO 00000KT 10SM FEW017 24/23 A2997 RMK AO2 SLP133
      T02350225 10259 20235 53009 $=
METAR KDYS 081155Z 03004KT 10SM SCT005 OVC009 22/21 A3006 RMK AO2A
      CIG 005 RWY34 SLP161 70117 T02150213 10218 20209 53009 $=
METAR KMCF 081155Z AUTO 03003KT 10SM CLR 24/24 A3000 RMK AO2 SLP159
      70001 T02440240 10252 20221 53006=
METAR KMIB 081155Z AUTO 26006KT 10SM SCT080 13/12 A3010 RMK AO2 SLP195
      70001 T01310119 10151 20111 53008 $=
METAR KMMT 081155Z 36003KT 10SM FEW100 25/21 A3000 RMK AO2A SLP158
      T02530213 10253 20210 53008=
METAR KMXF 081155Z AUTO 00000KT 10SM CLR 26/24 A3003 RMK AO2 SLP168
      T02630239 10278 20243 53006=
METAR KSKA 081155Z AUTO 06005KT 10SM CLR 14/08 A3007 RMK AO2 SLP171
      T01400082 10201 20140 53001=
METAR KWRB 081155Z 36002KT 10SM CLR 23/21 A3003 RMK AO2A RAEMM SLP165
      T02300213 10230 20202 53003=
METAR KXMR 081155Z AUTO 36003KT 10SM CLR 25/23 A2999 RMK AO2 SLP156
      T02490235 10249 20184 53004=
METAR MHSC 081155Z AUTO 11004KT 9999 FEW120 22/19 A2996 RMK AO2 RAB1110E1120
      SLP105 P0000 60000 T02160192 10230 20214 53007 $=
METAR ORSU 081200Z 23010KT 8000 SKC 41/M04 Q1009=
METAR PGUA 081155Z AUTO 12012G18KT 10SM FEW019 SCT031 SCT045 26/ A2992
      RMK AO2 PK WND 09026/1115 RAB1118E1128 SLP114 P0003 60003
      T0263 10288 20257 53013 VISNO RWY24L $=
####018003719####
SAUS90 KWBC 081200
METAR KNAK 081154Z AUTO 12005KT 2 1/2SM HZ CLR 27/23 A3001 RMK AO2
     SLP165 6//// 7//// T02670233 10289 20256 TSNO=
METAR KCAR 081154Z AUTO 19005KT 8SM CLR 24/21 A3002 RMK AO2 SLP165
     T02390206 10239 20211 51008=
METAR KMTP 081154Z AUTO VRB03KT 24/20 A3009 RMK AO2 SLP188
     T02390200 10239 20206 51009 PWINO TSNO=
METAR KRNM 081153Z AUTO 31003KT 5SM BR OVC004 14/13 A2990 RMK AO2
     CIG 002V006 SLP115 T01390128 10150 20139 55001 TSNO=
METAR KAVP 081154Z 00000KT 6SM HZ CLR 24/19 A3008 RMK AO2 SLP173
     T02390189 10239 20200 51008 $=
METAR K12N 081154Z AUTO 00000KT 25/22 A3006 RMK AO2 SLP169
     T02500217 10250 20211 51007 PWINO TSNO=
METAR KFWA 081154Z 17003KT 8SM FEW060 24/21 A3006 RMK AO2 SLP172
     T02440206 10261 20222 50002=
METAR KGSO 081154Z 04003KT 5SM HZ FEW095 27/18 A3004 RMK AO2
     SLP158 T02720178 10278 20244 51010=
METAR KACY 081154Z 13003KT 8SM FEW060 25/22 A3004 RMK AO2
     RAE1058B21E39 SLP172 P0001 60001 70001 T02500222 10256 20228
     51008=
METAR KTEW 081153Z AUTO 00000KT 7SM CLR 23/21 A3005 RMK AO2=
METAR KCVH 081150Z AUTO 21004KT 7SM OVC006 13/11 A2992 RMK AO1=
METAR KFSO 081158Z AUTO 00000KT 7SM CLR 26/23 A3001 RMK AO2=
METAR KFBL 081154Z AUTO 29003KT 10SM CLR 17/15 A3012 RMK AO2=
METAR KLYV 081158Z AUTO 00000KT 10SM CLR 13/12 A3017 RMK AO2=
METAR KEFK 081155Z AUTO 19005KT 7SM CLR 24/20 A3007 RMK AO2=
METAR KRRT 081154Z AUTO 21006KT 10SM CLR 15/13 A3001 RMK AO2=
METAR KTOB 081154Z AUTO 00000KT 10SM CLR 18/16 A3012 RMK AO2=
METAR KLXL 081154Z AUTO 00000KT 4SM BR CLR 14/13 A3009 RMK AO2=
METAR KEVM 081152Z AUTO 26003KT 7SM CLR 15/13 A3002 RMK AO1=
METAR KELO 081153Z AUTO 22004KT 10SM CLR 15/14 A3002 RMK AO2=
METAR KROX 081154Z AUTO 23004KT 10SM SCT085 15/13 A3002 RMK
     AO2=
METAR KVVV 081156Z AUTO 28007KT 10SM CLR 18/14 A3011 RMK AO2=
METAR KROS 081155Z AUTO 00000KT 10SM CLR 16/15 A3009 RMK AO2
     T01620152 10195 20145=
METAR KHCD 081152Z AUTO 00000KT 7SM CLR 14/14 A3012 RMK AO2
     T01430135=
METAR KSGS 081153Z AUTO 32004KT 10SM CLR 19/16 A3010 RMK AO2 70002
     T01940162 10215 20179=
METAR KMJQ 081152Z AUTO 27003KT 7SM CLR 15/15 A3016 RMK AO2=
METAR KHCO 081154Z AUTO 27003KT 10SM SCT070 15/14 A3006 RMK
     AO2=
METAR KLVN 081148Z AUTO 28004KT 10SM CLR 17/17 A3011 RMK AO2=
METAR KPEX 081153Z AUTO 25004KT 7SM CLR 15/15 A3012 RMK AO2
     T01470146 10147 20116=
METAR KJMR 081158Z AUTO 00000KT 10SM CLR 15/13 A3010 RMK AO2=
METAR KJKJ 081154Z AUTO 19003KT 10SM CLR 16/14 A3008 RMK AO2=
METAR KMVE 081154Z AUTO 00000KT 10SM CLR 17/15 A3011 RMK AO2=
METAR KTKC 081153Z AUTO 26004KT 10SM CLR 17/13 A3015 RMK AO2
     T01690131 10169 20152=
METAR KGYL 081155Z AUTO 23003KT 10SM CLR 16/15 A3011 RMK AO2
     T01600146 10178 20142=
METAR KDXX 081154Z AUTO 00000KT 10SM CLR 16/16 A3011 RMK AO2=
METAR KHZX 081151Z AUTO 00000KT 10SM CLR 16/15 A3007 RMK AO2=
METAR KSAZ 081154Z AUTO 26004KT 10SM CLR 16/16 A3009 RMK AO2=
METAR KONA 081150Z AUTO 31004KT 10SM CLR 20/16 A3006 RMK AO2=
METAR KOVL 081154Z AUTO 29003KT 10SM CLR 14/13 A3012 RMK AO2
     T01400126 10140 20125=
METAR KLJF 081152Z AUTO 24003KT 10SM CLR 18/16 A3012 RMK AO2=
METAR KAEL 081150Z AUTO 33004KT 10SM CLR 17/16 A3011 RMK AO2=
METAR K29G 081154Z AUTO 00000KT 5SM CLR 23/21 A3010 RMK AO2
     T02290210 PWINO=
METAR KMRT 081153Z AUTO 00000KT 5SM CLR 23/20 A3012 RMK AO2
     T02290199 10229 20201=
METAR KIKW 081154Z AUTO 00000KT 7SM BKN090 OVC110 23/21 A3000 RMK
     AO2 T02320213 10232 20213=
METAR KMDS 081145Z AUTO 27004KT 10SM CLR 15/15 A3018 RMK AO2=
METAR KPQN 081153Z AUTO 00000KT 10SM CLR 17/14 A3017 RMK AO2=
####018001032####
SAUS90 KWBC 081200 RRB
METAR KP60 081156Z AUTO 32003KT M01/M02 A3045 RMK AO2 SLP268
     T10061017 10044 21006 53005 PWINO FZRANO TSNO=
METAR KMEH 081156Z AUTO 00000KT 10SM CLR 05/04 A3012 RMK AO2
     SLP181 T00500044 10117 20050 53002 TSNO=
METAR KAQV 081156Z AUTO 00000KT 10SM FEW100 24/23 A3003 RMK AO2
     SLP165 T02390228 10250 20233 53010 $=
METAR KP53 081156Z AUTO 00000KT 18/18 A2999 RMK AO2 SLP153 60055
     70164 T01830178 10194 20178 53005 PWINO TSNO=
METAR K9L2 081156Z AUTO 00000KT 10SM CLR 16/01 A2989 RMK AO2
     SLP100 T01610011 10250 20156 53006 $=
METAR KGNA 081156Z AUTO 25003KT 18/16 A2999 RMK AO2 SLP151 60001
     70007 T01830161 10194 20167 51007 PWINO TSNO=
METAR PACZ 081155Z AUTO 07009KT 10SM 11/09 A3004 RMK AO1
     T01060095=
METAR PALU 081155Z AUTO 20024KT 10SM CLR 12/02 A3006 RMK AO1
     T01220023=
METAR PAIM 081155Z AUTO 29005KT 10SM CLR 10/07 A3008 RMK AO1
     T01000067=
METAR PATL 081155Z AUTO 04005KT 10SM CLR 14/07 A2999 RMK AO1
     T01390067=
####018000102####
SAUS90 KWBC 081158
METAR KSYN 081210Z AUTO 00000KT 10SM CLR 18/17 A3010 RMK AO2
     T01800167=
####018003652####
SAUS90 KWBC 081200 RRA
METAR KFGN 081154Z AUTO 26007KT 1/4SM -DZ VV002 16/13 A2998 RMK
     AO2=
METAR KPNM 081153Z AUTO 27003KT 10SM CLR 16/15 A3010 RMK AO2=
METAR KPWC 081153Z AUTO 00000KT 10SM CLR 12/12 A3009 RMK AO2=
METAR KFFM 081153Z AUTO 00000KT 10SM CLR 16/14 A3010 RMK AO2=
METAR KGDB 081153Z AUTO 00000KT 10SM CLR 15/14 A3014 RMK AO2
     T01460140 10148 20131=
METAR KAIT 081153Z AUTO 24003KT 10SM CLR 16/16 A3007 RMK AO2=
METAR KGHW 081154Z AUTO 25005KT 10SM CLR 17/14 A3014 RMK AO2=
METAR KMWM 081153Z AUTO 00000KT 7SM CLR 15/14 A3015 RMK AO2=
METAR KULM 081155Z AUTO 27003KT 7SM CLR 15/13 A3013 RMK AO2=
METAR KBBB 081153Z AUTO 00000KT 10SM CLR 14/14 A3012 RMK AO2=
METAR KTWM 081153Z AUTO 29004KT 10SM CLR 17/13 A3002 RMK AO2=
METAR KMGG 081155Z AUTO 27004KT 10SM CLR 18/16 A3012 RMK AO2
     T01750155 10179 20148=
METAR KMOX 081150Z AUTO 27004KT 10SM CLR 17/15 A3008 RMK AO2=
METAR KMSY 081153Z 09003KT 9SM FEW016 SCT250 27/23 A3002 RMK AO2
     SLP168 T02670233 10272 20261 53006=
METAR KDRA 081155Z AUTO 32003KT 10SM CLR 19/M11 A2995 RMK AO2
     SLP089 T01941111 10261 20189 53009 TSNO=
METAR KCAO 081155Z AUTO 36009KT 10SM -RA OVC100 16/13 A3030 RMK
     AO2 RAB00E12B55 SLP202 P0000 60013 70089 T01560133 10161
     20150 50004 TSNO=
METAR KINL 081155Z AUTO 26004KT 10SM CLR 15/14 A3001 RMK AO2
     SLP162 T01500139 10150 20117 53004=
METAR KMBG 081155Z AUTO 00000KT 10SM CLR 13/11 A3015 RMK AO2
     SLP204 T01280106 10144 20106 51007 TSNO=
METAR KPOE 081155Z 08005KT 10SM FEW015 24/23 A3003 RMK AO2 SLP169
     70021 T02390228 10250 20239 $=
METAR KRFD 081154Z 22004KT 6SM BR FEW006 SCT046 OVC180 22/21 A3005
     RMK AO2 SLP171 60002 70004 T02220211 10228 20217 51013=
METAR KANJ 081155Z AUTO 25005KT 2SM -RA BR OVC004 21/19 A2996 RMK
     AO2 RAE08B29 SLP140 P0001 60010 70010 T02060194 10222 20200
     53007=
METAR KCHS 081156Z 29006KT 7SM CLR 25/20 A2997 RMK AO2 SLP149
     T02500200 10250 20239 53005=
METAR KVBG 081155Z AUTO 31003KT 10SM OVC004 12/11 A2993 RMK AO2
     SLP127 T01170111 10128 20117 53002 TSNO $=
METAR KAST 081155Z AUTO 24004KT 6SM BR OVC003 12/11 A2995 RMK AO2
     SLP142 T01220111 10122 20117 52005=
METAR KHON 081155Z AUTO 23004KT 10SM CLR 16/14 A3015 RMK AO2
     SLP206 T01610139 10178 20150 53004=
METAR TJSJ 081156Z 08006KT 10SM FEW026 SCT034 28/25 A3000 RMK AO2
     SLP159 T02780250 10283 20267 51009=
METAR KPHP 081155Z AUTO 27007KT 10SM CLR 12/09 A3022 RMK AO2
     SLP222 T01170094 10150 20111 53004 TSNO $=
METAR KJAX 081156Z 24003KT 10SM CLR 22/21 A3001 RMK AO2 SLP162
     T02170206 10217 20189 53007=
METAR KAAT 081155Z AUTO 00000KT 10SM CLR 08/07 A3008 RMK AO2
     SLP146 70001 T00780067 10189 20078 53004 TSNO=
METAR KABQ 081156Z 05008KT 10SM BKN100 OVC200 20/09 A3027 RMK AO2
     SLP166 T02000094 10206 20189 53006=
METAR KSDF 081156Z 15003KT 4SM HZ FEW120 SCT150 26/21 A3006 RMK
     AO2 SLP172 T02560211 10289 20250 50004=
METAR KSHV 081156Z 00000KT 7SM SCT160 BKN280 24/23 A3004 RMK AO2
     SLP169 70057 T02440233 10256 20239 53010=
METAR KBIH 081156Z AUTO 32005KT 10SM CLR 13/02 A3000 RMK AO2
     SLP107 T01280022 10217 20128 53007 TSNO=
METAR KROC 081154Z 21006KT 8SM CLR 24/20 A3006 RMK AO2 SLP173
     T02440200 10244 20222 50004=
METAR K2WX 081156Z AUTO 23005KT 12/07 A3017 RMK AO1 SLP207
     T01220072 10139 20111 53006=
METAR KP28 081156Z AUTO 00000KT 21/21 A3012 RMK AO2 SLP182 70018
     T02110206 10228 20211 53004 PWINO TSNO=
METAR KNBT 081156Z AUTO 06011KT 4SM HZ CLR 28/ A2994 RMK AO2
     SLP141 T0283 10294 20278 53012 TSNO=
####018000234####
SAUS90 KWBC 081200 CCA
METAR KTRI 081153Z 00000KT 4SM HZ FEW070 23/19 A3012 RMK AO2
     SLP179 T02280194 10244 20194 53008=
METAR KTYS 081153Z 00000KT 6SM HZ CLR 24/19 A3008 RMK AO2 SLP172
     T02390194 10261 20222 53008=
####018002925####
SAAK41 KNKA 081157
METAR PAAK 081156Z AUTO 06013G22KT 10SM SCT024 BKN060 OVC120 07/04 
    A2956 RMK AO1 10070 20070 57020 PNO=
METAR PABL 081156Z AUTO 00000KT 10SM CLR 06/04 A3015 RMK AO1 10160
     20060 57003 PNO=
METAR PABV 081156Z AUTO 00000KT 10SM FEW060 FEW080 BKN090 11/07 RMK 
    AO1 10150 20110 PNO=
METAR PADK 081156Z 04010KT 10SM OVC011 07/06 A2952 RMK AO1 10070
     20070 57024 PNO=
METAR PADL 081156Z 31006KT 10SM OVC044 10/08 A2997 RMK AO1 10110
     20100 57003 PNO TSNO=
METAR PAEM 081156Z AUTO 00000KT 10SM OVC070 12/09 A3004 RMK AO1 10140
     20110 57003 PNO=
METAR PAFE 081156Z AUTO 08004KT 10SM CLR 10/08 A3017 RMK AO1 10130
     20090 57003 PNO=
METAR PAFM 081156Z AUTO 34003KT 10SM CLR 12/08 A3009 RMK AO1 10190
     20120 57007 PNO=
METAR PAGL 081156Z AUTO 35011G16KT 10SM CLR 16/08 A3013 RMK AO1 
    57007 PNO=
METAR PAGS 081156Z AUTO 00000KT 10SM CLR 08/08 A3018 RMK AO1 10160
     20080 57007 PNO=
METAR PAHP 081156Z AUTO 34008KT 10SM CLR 09/07 A3004 RMK AO1 10140
     20090 57010 PNO TSNO=
METAR PAHY 081156Z AUTO 02004KT 10SM CLR 14/10 A3012 RMK AO1 10200
     20140 52003 PNO=
METAR PAII 081156Z AUTO 01007KT 10SM FEW043 BKN065 OVC090 11/08 
    A2997 RMK AO1 10120 20100 54000 PNO=
METAR PAIN 081156Z AUTO 21003KT 10SM CLR 07/06 A3007 RMK AO1 10170
     20070 57003 PNO=
METAR PAJC 081156Z AUTO 17003KT 10SM OVC017 07/04 A2993 RMK AO1 10120
     20070 57007 PNO=
METAR PAKK 081156Z AUTO 01012G17KT 10SM CLR 12/07 A3005 RMK AO1 10180
     20120 54000 PNO=
METAR PAKP 081156Z AUTO 06006KT 10SM SCT039 11/03 A3012 RMK AO1 10110
     20090 52003=
METAR PAMD 081156Z AUTO 09018KT 8SM FEW007 SCT015 BKN023 09/08 A3003 
    RMK AO1 10110 20090 52003 PNO=
METAR PAMH 081156Z 00000KT 10SM CLR 14/05 A2998 RMK AO1 10180 20140 
    57007 PNO=
METAR PAMM 081156Z AUTO 35004KT 10SM CLR 17/11 A3010 RMK AO1 10210
     20170 52007 PNO=
METAR PAMY 081156Z 30007KT 1/4SM OVC002 04/03 A3005 RMK AO1 10080
     20040 57003=
METAR PANI 081156Z AUTO 19003KT 10SM CLR 09/07 A3000 RMK AO1 10140
     20090 57003 PNO=
METAR PANV 081156Z AUTO 00000KT 10SM BKN085 13/08 A2997 RMK AO1 10180
     20120 57010 PNO=
METAR PAOU 081156Z AUTO 05007KT 10SM CLR 07/06 A2995 RMK AO2 PWINO 
    TSNO 57008 T00660061 10083 20066 SLP145 $=
METAR PAPG 081156Z 05005KT 10SM CLR 11/09 A3013 RMK AO1 
      10140 20110 57003 PNO=
METAR PAPH 081156Z AUTO 23005KT 10SM OVC060 06/04 A2994 RMK AO1 10090
     20040 57010 PNO=
METAR PAPN 081156Z AUTO 00000KT 10SM OVC016 08/08 A2994 RMK AO2 
    PWINO TSNO 50002 T00830077 10105 20055 SLP141 $=
METAR PARC 081156Z AUTO 00000KT 10SM CLR 10/01 A3006 RMK AO1 10120
     20090 52007 PNO=
METAR PASA 081156Z AUTO 06005KT 10SM CLR 04/02 A3019 RMK AO1 10090
     20040 57003 PNO=
METAR PASD 081156Z AUTO 15003KT 10SM FEW027 07/06 A2993 RMK AO1 10110
     20060 57010 PNO=
####018001020####
SAAK41 KNKA 081157
METAR PASH 081156Z AUTO 00000KT 10SM CLR 05/04 A3017 RMK AO1 10090
     20040 57007 PNO=
METAR PASK 081156Z 26008KT 10SM CLR 12/08 A3011 RMK AO1 10180 20120 
    54000 PNO=
METAR PASL 081156Z AUTO 23004KT 10SM BKN095 11/08 A3001 RMK AO1 10170
     20100 54000 PNO=
METAR PASM 081156Z AUTO 01005KT 10SM OVC085 10/09 A3003 RMK AO1 10120
     20090 57014 PNO=
METAR PASX 081156Z 00000KT 10SM CLR 12/09 A2993 RMK AO1 10140 20120 
    57014 PNO=
METAR PAUN 081156Z AUTO 06009KT 10SM CLR 12/04 A3001 RMK AO1 10170
     20120 57003 PNO=
METAR PAVD 081156Z 21005KT 10SM OVC080 11/08 A3007 RMK AO1 
      10120 20100 57007 PNO=
METAR PAWG 081156Z AUTO 00000KT 10SM CLR 11/10 A3014 RMK AO1 10160
     20110 52003 PNO=
METAR PAWI 081154Z 21014KT 10SM CLR 08/04 A3001 RMK ASOS VIA PHONE=
METAR PAWS 081156Z AUTO 11004KT 10SM BKN090 12/08 A2998 RMK AO1 10150
     20100 57007 PNO=
METAR PAZK 081156Z AUTO 06007KT 10SM CLR 08/03 A3007 RMK AO1 10130
     20080 57007 PNO=
####018000300####
SASA KAWN 081200
METAR SBAR 081200Z 20006KT 9999 FEW015 26/23 Q1017=
METAR SBCY 081200Z 01010KT CAVOK 23/14 Q1015=
METAR SBFZ 081200Z 14009KT 9999 FEW018 BKN090 27/20 Q1015=
METAR SBSJ 081200Z 00000KT CAVOK 13/11 Q1022=
METAR SPIM 081200Z 18003KT 6000 OVC022 16/13 Q1013 NOSIG RMK PP000=
####018000901####
SPZZ40 KAWN 081157 RRM
SPECI CYMO 081152Z AUTO 31007KT 9SM OVC019 19/17 A2988=
SPECI CYMO 081155Z AUTO 31006KT 9SM -RA OVC019 19/17 A2988=
SPECI CYPH 081153Z AUTO 25015KT 9SM OVC004 07/07 A2981=
SPECI CYUA 081153Z AUTO 23006KT 5SM OVC013 OVC024 05/ A3008=
SPECI CYUS 081152Z AUTO ///// 9SM FEW094 12/ A2979=
SPECI KFAF 081152Z 08005KT 10SM BKN013 27/27 A2999 RMK AO2A CIG 011V018
      SLP157=
SPECI KRND 081151Z 05006KT 9SM BKN007 OVC013 25/24 A2994 RMK AO2A DZB1118E1134
      OVC V BKN SLP129=
SPECI KWRI 081152Z AUTO 14006KT 3SM BR SCT005 25/25 A3002 RMK AO2 SCT
      V BKN SLP167 $=
SPECI KWRI 081153Z AUTO 14006KT 3SM BR BKN005 25/25 A3002 RMK AO2 SLP168
      $=
SPECI OMAL 081146Z 14034G48KT 3000 TSRA FEW045CB 29/23 Q1002 /A2959/
      WIND RWY19 14027G37KT=
SPECI RJCJ 081147Z 16003KT 2000 -DZ BR BKN001 OVC002 17/16 Q1010 RMK
      5ST001 8ST002 A2985=
####018001581####
SANA35 KAWN 081200 RRA
METAR KADW 081155Z 10004KT 7SM CLR 26/24 A3002 RMK AO2A SLP163 T02630240
      10281 20244 51008=
METAR KBIX 081155Z AUTO 03003KT 10SM CLR 25/25 A3004 RMK AO2 SLP173
      T02520252 10262 20246 53010=
METAR KBOS 081154Z 17007KT 10SM CLR 23/19 A3010 RMK AO2 SLP191 T02330194
      10244 20217 51012=
METAR KDOV 081155Z 12007KT 10SM CLR 25/24 A3002 RMK AO2A SLP167 T02520239
      10252 20235 52010 $=
METAR KGSB 081155Z 04005KT 8SM CLR 26/21 A2995 RMK AO2A SLP141 WND
      DATA ESTMD T02580210 10262 20235 53013 $=
METAR KMCF 081155Z AUTO 03003KT 10SM CLR 24/24 A3000 RMK AO2 SLP159
      70001 T02440240 10252 20221 53006=
METAR KNIP 081153Z 25005KT 10SM CLR 23/21 A3002 RMK AO2 SLP162 T02330211
      10261 20222 53009=
METAR KNKT 081154Z 03010KT 4SM HZ FEW012 BKN150 27/24 A2994 RMK AO2
      SLP137 T02670239 10267 20250 53011=
METAR KNQX 081153Z 06005KT 10SM SCT022TCU BKN100 BKN200 28/25 A2994
      RMK AO2 SLP138 TCU DSNT SE-W T2 SET 70023 T02830250 10283
      20278 53009 $=
METAR KNRB 081152Z 26004KT 10SM CLR 24/22 A3001 RMK AO2 SLP162 T02440217
      10244 20222 53009=
METAR KPHL 081154Z 13006KT 4SM HZ FEW008 SCT150 26/23 A3003 RMK AO2
      SLP169 T02560228 10267 20244 51006 $=
METAR KSAV 081153Z 27005KT 10SM CLR 23/20 A3000 RMK AO2 SLP159 T02280200
      10228 20211 53005 $=
METAR KSYR 081154Z 13003KT 10SM CLR 26/21 A3005 RMK AO2 SLP170 T02560211
      10256 20222 53003=
METAR KVAD 081155Z AUTO 28006KT 10SM CLR 24/20 A3004 RMK AO2 SLP169
      T02410200 10241 20208 53007 $=
####018001741####
SAEU KAWN 081200 RRG
METAR COR EGCC 081150Z 22009KT 180V260 9999 FEW037 SCT044 20/10 Q1017
      NOSIG=
METAR EGDL 081150Z 23009KT 9999 FEW030 BKN250 21/10 Q1018 BLU NOSIG=
METAR EGNT 081150Z 24011G22KT 200V270 9999 FEW038 20/08 Q1014=
METAR EGUN 081155Z AUTO 24004KT 9999 OVC029 21/17 A3007 RMK AO2 CIG
      026V030 SLP171 60001 70001 T02100170 10219 20166 57002=
METAR EGVA 081155Z AUTO 30006KT 9999 FEW190 22/11 A3006 RMK AO2 CLDS
      LWR RWY27 SLP180 60000 T02180106 10221 20153 58004=
METAR EGXZ 081150Z 25013KT 9999 SCT040 SCT050 20/09 Q1016 BLU=
METAR EHGR 081155Z AUTO 21009KT 9999NDV NCD 30/11 Q1018 BLU BLU=
METAR EHLW 081155Z AUTO 24007KT 9999NDV OVC067 22/17 Q1019 BLU BLU=
METAR EHVK 081155Z AUTO 20007KT 9999NDV FEW070 31/11 Q1018 BLU BLU=
METAR EHVL 081155Z AUTO 24011KT 9999NDV OVC058 21/16 Q1019 BLU=
METAR EHWO 081155Z AUTO 30007KT 9999NDV NCD 27/12 Q1019 BLU BLU=
METAR COR ENSH 081150Z 07005KT 340V120 9999 VCSH FEW030 BKN060 15/10
      Q1010 RESHRA=
METAR ETAR 081155Z AUTO VRB03KT 9999 CLR 30/15 A3013 RMK AO2 SLP196
      T02960146 10296 20173 58004 $=
METAR LEMO 081200Z 26005KT 200V330 CAVOK 30/19 Q1016 NOSIG=
METAR LIBD 081150Z 36015KT CAVOK 25/11 Q1020=
METAR LIBR 081145Z /////KT CAVOK 25/13 Q1018 NOSIG=
METAR LICC 081150Z 10012KT 8000 NSC 28/21 Q1018=
METAR LICJ 081150Z 04013KT 9999 FEW018 28/23 Q1018=
METAR LIPB 081150Z 17012KT CAVOK 30/13 Q1020=
METAR LIPH 081145Z 16005KT 9999 SCT025 28/21 Q1022=
METAR LIPK 081150Z 07005KT CAVOK 28/10 Q1021=
METAR LIPQ 081150Z 00000KT CAVOK 26/13 Q1022=
METAR LIPR 081145Z 08011KT CAVOK 28/17 Q1021=
METAR LIPX 081145Z 22002KT 9999 FEW040 29/13 Q1021=
METAR LIPZ 081150Z 13008KT 9999 FEW040 26/17 Q1022=
####018000136####
SAUS46 KLOX 081157
MTRBIH
METAR KBIH 081156Z AUTO 32005KT 10SM CLR 13/02 A3000 RMK AO2 SLP107 
T01280022 10217 20128 53007 TSNO
####018000082####
SPCN48 CWAO 081156
SPECI CYPH 081156Z AUTO 24014KT 9SM OVC003 07/07 A2981=

####018000125####
SPCN47 CWAO 081157
SPECI CYZE 081157Z AUTO 19007KT 4SM BR BKN004 BKN130 20/20 A2997 RMK
 SLP147 DENSITY ALT 1300FT=

####018000122####
SAUS43 KUNR 081157
MTR2WX
METAR K2WX 081156Z AUTO 23005KT 12/07 A3017 RMK AO1 SLP207 T01220072 
10139 20111 53006
####018000125####
SAUS41 KBUF 081157
MTRROC
METAR KROC 081154Z 21006KT 8SM CLR 24/20 A3006 RMK AO2 SLP173 
T02440200 10244 20222 50004
####018000139####
SAUS43 KDDC 081157
MTRP28
METAR KP28 081156Z AUTO 00000KT 21/21 A3012 RMK AO2 SLP182 70018 
T02110206 10228 20211 53004 PWINO TSNO
####018002910####
SAUS20 KNKA 081157
METAR KFBG 081155Z AUTO 02003KT 10SM CLR 26/20 A2997 RMK AO2 SLP145
      T02610199 10280 20248 53012 $=
METAR KGON 081156Z 10004KT 5SM HZ SCT006 OVC017 24/21 A3008 RMK AO2 
    SLP185 T02390206 10239 20222 51006=
METAR KGRD 081156Z AUTO 00000KT 10SM CLR 26/21 A3004 RMK AO2 SLP164 
    T02560211 10256 20206 53007=
METAR KGUS 081155Z AUTO 00000KT 10SM FEW060 24/21 A3005 RMK AO2 SLP168
      T02360212 10241 20221 53003=
METAR KHND 081156Z AUTO 14005KT 10SM CLR 25/M02 A2990 RMK AO2 53005 
    T02501022 10300 20244 SLP067=
METAR KHPN 081156Z 11006KT 2SM BR OVC004 24/22 A3006 RMK AO2 SLP171 
    T02440222 10244 20222 51011=
METAR KHWV 081156Z AUTO 13005KT 10SM SCT009 OVC013 25/23 A3008 RMK 
    AO2 SLP183 T02500228 10250 20239 53008=
METAR KHYA 081156Z VRB05KT 10SM SCT018 24/21 A3010 RMK AO2 SLP194 
    T02390206 10239 20206 51004=
METAR KIGX 081156Z AUTO 05003KT 5SM HZ CLR 27/19 A3001 RMK AO2 
    SLP154 7//// T02720189 10272 20228 51012=
METAR KINW 081156Z AUTO 22008KT 10SM CLR 18/01 A3012 RMK AO2 SLP115 
    T01830006 10267 20183 53010=
METAR KISO 081155Z 02006KT 3SM HZ CLR 26/22 A2997=
METAR KISP 081156Z 13009KT 7SM BKN008 BKN011 OVC120 25/21 A3005 RMK 
    AO2 SLP174 60000 T02500211 10256 20244 51012=
METAR KITH 081156Z 00000KT 7SM CLR 24/20 A3010 RMK AO2 50002 
    T02440200 10238 20194 SLP185=
METAR KIWA 081156Z AUTO 12006KT 10SM CLR 29/05 A2982 RMK AO2=
METAR KJMS 081156Z AUTO 00000KT 10SM CLR 14/13 A3010 RMK AO2 SLP191 
    T01390133 10150 20106 53005=
METAR KJXN 081156Z 00000KT 8SM CLR 24/22 A3006 RMK AO2 SLP170 
    T02390217 10239 20206 51005=
METAR KLAS 081156Z 21003KT 10SM SCT150 27/M04 A2982 RMK AO2 SLP067 
    T02721039 10322 20272 53005=
METAR KLNR 081156Z AUTO 00000KT 3SM BR OVC002 22/20 A3005 RMK AO2 
    CIG 001V007 SLP165 60001 70101 T02170200 10217 20206 51013=
METAR KM19 081156Z AUTO 10SM CLR 25/23 A3008 RMK AO2 51007 T02500233 
    10266 20238 SLP181=
METAR KMDT 081156Z 00000KT 3SM HZ CLR 27/22 A3003 RMK AO2 SLP165 
    T02720222 10272 20244 53007=
METAR KMOB 081156Z 00000KT 9SM MIFG FEW020 24/23 A3005 RMK AO2 
    SLP172 T02440233 10244 20222 51007=
METAR KMQY 081156Z 00000KT 10SM CLR 25/23 A3009 RMK AO2 51006 
    T02500227 10266 20227 SLP179=
METAR KMRH 081156Z AUTO 06008G15KT 7SM CLR 28/23 A2993 RMK AO2 
    SLP135 T02830228 10283 20250 53009 TSNO=
METAR KNQX 081153Z 06005KT 10SM SCT022TCU BKN100 BKN200 28/25 A2994
      RMK AO2 SLP138 TCU DSNT SE-W T2 SET 70023 T02830250 10283
      20278 53009 $=
METAR KOFK 081156Z AUTO 27003KT 10SM FEW090 17/15 A3021 RMK AO2 
    SLP222 T01670150 10167 20156 51012=
METAR KRDM 081156Z AUTO 00000KT 10SM CLR 11/02 A3007 RMK AO2 SLP159 
    T01060022 10211 20078 53004 $=
METAR KSBP 081156Z AUTO 28004KT 6SM BR OVC005 13/12 A2992 RMK AO2 
    SLP129 T01280117 10139 20128 53002 $=
####018000132####
SAHW31 KMSC 081157
METAR PMDY 081156Z AUTO 00000KT 10SM CLR 24/19 A3009 RMK AO2 TSNO 
    58007 T02440194 10277 20244 SLP498=
####018002941####
SAUS20 KNKA 081157
METAR KSDF 081156Z 15003KT 4SM HZ FEW120 SCT150 26/21 A3006 RMK AO2 
    SLP172 T02560211 10289 20250 50004=
METAR K04W 081154Z AUTO 26003KT 10SM CLR 17/16 A3008 RMK AO2 
     T01700162 10194 20151=
METAR K1A6 081155Z AUTO 00000KT 1/4SM FG OVC001 21/21 A3012 RMK 
     AO2=
METAR K1M4 081156Z AUTO 00000KT 10SM CLR 24/22 A3012 RMK AO2 52008 
    T02380216 10238 20216 SLP195=
METAR K21D 081158Z AUTO 00000KT 10SM CLR 18/17 A3010 RMK AO2=
METAR KAIG 081155Z AUTO 33003KT 3/4SM BR OVC001 18/18 A3003 RMK 
     AO2=
METAR KAND 081156Z AUTO 00000KT 10SM CLR 24/21 A3004 RMK AO2 SLP159 
    T02390211 10239 20211 53007 PWINO $=
METAR KART 081156Z AUTO 19003KT 7SM CLR 26/22 A3003 RMK AO2 SLP163 
    7//// T02610217 10261 20217 51005=
METAR KBED 081156Z 17006KT 8SM BKN016 25/21 A3008 RMK AO2 SLP196 
    T02500206 10250 20233 51012=
METAR KBJI 081154Z AUTO 25007KT 10SM CLR 16/13 A3006 RMK AO2=
METAR KBJJ 081156Z AUTO 00000KT 2 1/2SM BR CLR 22/20 A3010 RMK AO2 
    SLP185 T02170200 10217 20172 50003=
METAR KBUU 081154Z AUTO 00000KT 7SM BKN070 21/21 A3003 RMK AO2=
METAR KBZN 081156Z 00000KT 10SM CLR 07/03 A3029 RMK AO2 SLP234 7//// 
    T00670033 10128 20061 53009=
METAR KC29 081155Z AUTO 27004KT 10SM OVC004 22/20 A3005 RMK AO2 
     60001 70005 T02150198 10221 20210=
METAR KCEC 081156Z AUTO 25003KT 5SM BR OVC005 10/09 A2998 RMK AO2 
    SLP152 T01000094 10106 20100 53002=
METAR KCEF 081155Z 00000KT 5SM BR OVC009 24/22 A3007 RMK AO2A SLP183
      T02420222 10250 20235 51012 PWINO $=
METAR KCTB 081156Z AUTO 28004KT 10SM CLR 07/04 A3024 RMK AO2 SLP225 
    T00670044 10144 20067 56001=
METAR KCXY 081156Z 00000KT 6SM HZ CLR 27/21 A3004 RMK AO2 SLP168 
    7//// T02720206 10272 20228 53007=
METAR KD39 081154Z AUTO 27003KT 10SM CLR 18/16 A3011 RMK AO2 
     T01750160 10175 20152=
METAR KDAY 081156Z 00000KT 5SM HZ FEW090 26/20 A3010 RMK AO2 SLP184 
    T02560200 10256 20217 50005=
METAR KDIK 081156Z AUTO 00000KT 10SM CLR 10/08 A3016 RMK AO2 SLP207 
    T01000083 10128 20083 53003=
METAR KDLL 081155Z AUTO 28003KT 5SM BR SCT004 BKN022 BKN027 22/21 
     A3004 RMK AO2=
METAR KDUG 081156Z AUTO 08007G17KT 10SM CLR 24/12 A3004 RMK AO2 PK 
    WND 08027/1103 SLP089 60000 7//// T02440117 10294 20244 53011 $=
METAR KDUJ 081156Z AUTO 00000KT 4SM HZ SCT065 22/18 A3013 RMK AO2 
    SLP187 7//// T02170183 10244 20189 53006=
METAR KDVK 081157Z AUTO 00000KT 5SM 22/19 A3010 RMK AO1=
METAR KEAU 081156Z 31003KT 10SM OVC041 19/18 A3005 RMK AO2 SLP174 
    60001 70067 T01890178 10200 20183 53016=
METAR KEED 081156Z AUTO 34007KT 10SM CLR 27/M02 A2976 RMK AO2 SLP043 
    T02721022 10344 20267 53008 TSNO=
METAR KEKO 081156Z AUTO 00000KT 10SM CLR 10/M01 A3013 RMK AO2 SLP151 
    T01001011 10222 20100 53005=
METAR KELZ 081156Z AUTO 00000KT 4SM BR CLR 22/20 A3016 RMK AO2 
    SLP198 T02170200 10222 20178 51002=
####018001401####
SAUS20 KNKA 081157
METAR KSFO 081156Z 28010KT 10SM OVC008 13/11 A2992 RMK AO2 SLP133 
    T01330106 10144 20133 55002=
METAR KSGH 081156Z 00000KT 3SM BR CLR 23/22 A3011 RMK AO2 51006 
    T02330222 10233 20194 SLP187=
METAR KSLE 081156Z AUTO 14005KT 10SM CLR 14/11 A2990 RMK AO2 SLP125 
    T01440111 10267 20144 53015=
METAR KSRC 081156Z AUTO 19004KT 10SM CLR 24/23 A3008 RMK AO2 TSNO 
    53006 T02440227 10244 20227 SLP187=
METAR KSSC 081155Z AUTO 30007KT 10SM CLR 26/19 A2998 RMK AO2 SLP150
      T02600192 10269 20249 53009 $=
METAR KTPH 081156Z AUTO 36009KT 10SM CLR 13/M03 A3011 RMK AO2 SLP119 
    T01331033 10194 20133 53005=
METAR KUKI 081156Z AUTO 00000KT 10SM CLR 12/10 A2990 RMK AO2 SLP118 
    T01220100 10178 20122 55001=
METAR KVAD 081155Z AUTO 28006KT 10SM CLR 24/20 A3004 RMK AO2 SLP169
      T02410200 10241 20208 53007 $=
METAR KWJF 081156Z 07005KT 10SM CLR 13/01 A2990 RMK AO2 SLP106 
    T01330011 10222 20133 53004=
METAR KY51 081155Z AUTO 32008KT 3SM OVC005 20/20 A3007 RMK AO1 
     7//// T02010197 10220 20189=
METAR PAAK 081156Z AUTO 06013G22KT 10SM SCT024 BKN060 OVC120 07/04 
    A2956 RMK AO1 10070 20070 57020 PNO=
METAR PAHP 081156Z AUTO 34008KT 10SM CLR 09/07 A3004 RMK AO1 10140
     20090 57010 PNO TSNO=
METAR TJSJ 081156Z 08006KT 10SM FEW026 SCT034 28/25 A3000 RMK AO2 
    SLP159 T02780250 10283 20267 51009=
####018000129####
SAUS44 KMRX 081157
MTRNMM
METAR KNMM 081156Z 28003KT 10SM FEW250 24/22 A3007 RMK AO2 SLP188 
T02440222 10244 20222 52010
####018000141####
SAUS45 KBOU 081157
MTRABH
METAR KABH 081156Z AUTO 30004KT 8SM BKN003 12/11 A3036 RMK AO2 
SLP228 70092 T01170106 10139 20117 58003 $
####018000136####
SAUS46 KPDT 081157
MTRMEH
METAR KMEH 081156Z AUTO 00000KT 10SM CLR 05/04 A3012 RMK AO2 SLP181 
T00500044 10117 20050 53002 TSNO
####018000136####
SAUS44 KSHV 081157
MTRAQV
METAR KAQV 081156Z AUTO 00000KT 10SM FEW100 24/23 A3003 RMK AO2 
SLP165 T02390228 10250 20233 53010 $
####018000132####
SAUS42 KMHX 081157
MTRNBT
METAR KNBT 081156Z AUTO 06011KT 4SM HZ CLR 28/ A2994 RMK AO2 SLP141 
T0283 10294 20278 53012 TSNO
####018000144####
SAUS46 KSGX 081157
MTRNXF
METAR KNXF 081156Z AUTO 36003KT 8SM OVC013 17/13 A2990 RMK AO2 
SLP209 70001 T01670128 10172 20161 53001 TSNO
####018000133####
SAUS46 KMTR 081157
MTRBAN
METAR KBAN 081156Z AUTO 00000KT CLR 06/01 A3020 RMK AO2 SLP154 
T00560006 10122 20056 53002 TSNO $
####018000132####
SAUS44 KMRX 081157 COR
MTRTYS
METAR KTYS 081153Z 00000KT 6SM HZ CLR 24/19 A3008 RMK AO2 SLP172 
T02390194 10261 20222 53008
####018000145####
SAUS43 KDLH 081157
MTRGNA
METAR KGNA 081156Z AUTO 25003KT 18/16 A2999 RMK AO2 SLP151 60001 
70007 T01830161 10194 20167 51007 PWINO TSNO
####018000142####
SAUS45 KRIW 081157
MTRP60
METAR KP60 081156Z AUTO 32003KT M01/M02 A3045 RMK AO2 SLP268 
T10061017 10044 21006 53005 PWINO FZRANO TSNO
####018000135####
SAUS44 KMRX 081157 COR
MTRTRI
METAR KTRI 081153Z 00000KT 4SM HZ FEW070 23/19 A3012 RMK AO2 SLP179 
T02280194 10244 20194 53008
####018000145####
SAUS43 KMQT 081157
MTRP53
METAR KP53 081156Z AUTO 00000KT 18/18 A2999 RMK AO2 SLP153 60055 
70164 T01830178 10194 20178 53005 PWINO TSNO
####018000133####
SAUS46 KLOX 081157
MTR9L2
METAR K9L2 081156Z AUTO 00000KT 10SM CLR 16/01 A2989 RMK AO2 SLP100 
T01610011 10250 20156 53006 $
####018000138####
SAUS41 KLWX 081157
MTRNYG
METAR KNYG 081156Z 08004KT 6SM HZ FEW090 BKN200 27/22 A3001 RMK AO2 
SLP163 T02670222 10272 20250 51010
####018000133####
SAUS44 KBMX 081157
MTRPRN
METAR KPRN 081156Z AUTO 00000KT 10SM CLR 24/22 A3004 RMK AO2 SLP165 
T02440222 10256 20228 53005 $
####018000319####
SAUS98 KWBC 081158
METAR PACZ 081155Z AUTO 07009KT 10SM 11/09 A3004 RMK AO1 T01060095=
METAR PALU 081155Z AUTO 20024KT 10SM CLR 12/02 A3006 RMK AO1
T01220023=
METAR PAIM 081155Z AUTO 29005KT 10SM CLR 10/07 A3008 RMK AO1
T01000067=
METAR PATL 081155Z AUTO 04005KT 10SM CLR 14/07 A2999 RMK AO1
T01390067=
####018003725####
SAUS99 KWBC 081158
METAR
KEFD 081150Z 14010KT 7SM -RA BKN010 OVC020 25/24 A2995=
KLRF 081155Z AUTO 00000KT 10SM FEW210 23/22 A3007 RMK AO2 CLDS LWR
     RWY07 SLP182 T02340224 10236 20228 53009=
KUCP 081156Z AUTO 00000KT 3/4SM BR VV001 21/19 A3011 RMK AO2 51004
     T02050194 10205 20177 SLP201 $=
PAAK 081156Z AUTO 06013G22KT 10SM SCT024 BKN060 OVC120 07/04 A2956
     RMK AO1 10070 20070 57020 PNO=
PABL 081156Z AUTO 00000KT 10SM CLR 06/04 A3015 RMK AO1 10160 20060
     57003 PNO=
PABV 081156Z AUTO 00000KT 10SM FEW060 FEW080 BKN090 11/07 RMK AO1
     10150 20110 PNO=
PADK 081156Z 04010KT 10SM OVC011 07/06 A2952 RMK AO1 10070 20070
     57024 PNO=
PADL 081156Z 31006KT 10SM OVC044 10/08 A2997 RMK AO1 10110 20100
     57003 PNO TSNO=
PAEM 081156Z AUTO 00000KT 10SM OVC070 12/09 A3004 RMK AO1 10140
     20110 57003 PNO=
PAFE 081156Z AUTO 08004KT 10SM CLR 10/08 A3017 RMK AO1 10130 20090
     57003 PNO=
PAFM 081156Z AUTO 34003KT 10SM CLR 12/08 A3009 RMK AO1 10190 20120
     57007 PNO=
PAGL 081156Z AUTO 35011G16KT 10SM CLR 16/08 A3013 RMK AO1 57007
     PNO=
PAGS 081156Z AUTO 00000KT 10SM CLR 08/08 A3018 RMK AO1 10160 20080
     57007 PNO=
PAHP 081156Z AUTO 34008KT 10SM CLR 09/07 A3004 RMK AO1 10140 20090
     57010 PNO TSNO=
PAHY 081156Z AUTO 02004KT 10SM CLR 14/10 A3012 RMK AO1 10200 20140
     52003 PNO=
PAII 081156Z AUTO 01007KT 10SM FEW043 BKN065 OVC090 11/08 A2997
     RMK AO1 10120 20100 54000 PNO=
PAIN 081156Z AUTO 21003KT 10SM CLR 07/06 A3007 RMK AO1 10170 20070
     57003 PNO=
PAJC 081156Z AUTO 17003KT 10SM OVC017 07/04 A2993 RMK AO1 10120
     20070 57007 PNO=
PAKK 081156Z AUTO 01012G17KT 10SM CLR 12/07 A3005 RMK AO1 10180
     20120 54000 PNO=
PAKP 081156Z AUTO 06006KT 10SM SCT039 11/03 A3012 RMK AO1 10110
     20090 52003=
PAMD 081156Z AUTO 09018KT 8SM FEW007 SCT015 BKN023 09/08 A3003 RMK
     AO1 10110 20090 52003 PNO=
PAMH 081156Z 00000KT 10SM CLR 14/05 A2998 RMK AO1 10180 20140
     57007 PNO=
PAMM 081156Z AUTO 35004KT 10SM CLR 17/11 A3010 RMK AO1 10210 20170
     52007 PNO=
PAMY 081156Z 30007KT 1/4SM OVC002 04/03 A3005 RMK AO1 10080 20040
     57003=
PANI 081156Z AUTO 19003KT 10SM CLR 09/07 A3000 RMK AO1 10140 20090
     57003 PNO=
PANV 081156Z AUTO 00000KT 10SM BKN085 13/08 A2997 RMK AO1 10180
     20120 57010 PNO=
PAOU 081156Z AUTO 05007KT 10SM CLR 07/06 A2995 RMK AO2 PWINO TSNO
     57008 T00660061 10083 20066 SLP145 $=
PAPG 081156Z 05005KT 10SM CLR 11/09 A3013 RMK AO1 10140 20110
     57003 PNO=
PAPH 081156Z AUTO 23005KT 10SM OVC060 06/04 A2994 RMK AO1 10090
     20040 57010 PNO=
PAPN 081156Z AUTO 00000KT 10SM OVC016 08/08 A2994 RMK AO2 PWINO
     TSNO 50002 T00830077 10105 20055 SLP141 $=
PARC 081156Z AUTO 00000KT 10SM CLR 10/01 A3006 RMK AO1 10120 20090
     52007 PNO=
PASA 081156Z AUTO 06005KT 10SM CLR 04/02 A3019 RMK AO1 10090 20040
     57003 PNO=
PASD 081156Z AUTO 15003KT 10SM FEW027 07/06 A2993 RMK AO1 10110
     20060 57010 PNO=
PASH 081156Z AUTO 00000KT 10SM CLR 05/04 A3017 RMK AO1 10090 20040
     57007 PNO=
PASK 081156Z 26008KT 10SM CLR 12/08 A3011 RMK AO1 10180 20120
     54000 PNO=
PASL 081156Z AUTO 23004KT 10SM BKN095 11/08 A3001 RMK AO1 10170
     20100 54000 PNO=
PASM 081156Z AUTO 01005KT 10SM OVC085 10/09 A3003 RMK AO1 10120
     20090 57014 PNO=
PASX 081156Z 00000KT 10SM CLR 12/09 A2993 RMK AO1 10140 20120
     57014 PNO=
PAUN 081156Z AUTO 06009KT 10SM CLR 12/04 A3001 RMK AO1 10170 20120
     57003 PNO=
PAVD 081156Z 21005KT 10SM OVC080 11/08 A3007 RMK AO1 10120 20100
     57007 PNO=
PAWG 081156Z AUTO 00000KT 10SM CLR 11/10 A3014 RMK AO1 10160 20110
     52003 PNO=
####018003692####
SAUS99 KWBC 081158 RRA
METAR
PAWI 081154Z 21014KT 10SM CLR 08/04 A3001 RMK ASOS VIA PHONE=
PAWS 081156Z AUTO 11004KT 10SM BKN090 12/08 A2998 RMK AO1 10150
     20100 57007 PNO=
PAZK 081156Z AUTO 06007KT 10SM CLR 08/03 A3007 RMK AO1 10130 20080
     57007 PNO=
KFBG 081155Z AUTO 02003KT 10SM CLR 26/20 A2997 RMK AO2 SLP145
     T02610199 10280 20248 53012 $=
KGON 081156Z 10004KT 5SM HZ SCT006 OVC017 24/21 A3008 RMK AO2
     SLP185 T02390206 10239 20222 51006=
KGRD 081156Z AUTO 00000KT 10SM CLR 26/21 A3004 RMK AO2 SLP164
     T02560211 10256 20206 53007=
KGUS 081155Z AUTO 00000KT 10SM FEW060 24/21 A3005 RMK AO2 SLP168
     T02360212 10241 20221 53003=
KHND 081156Z AUTO 14005KT 10SM CLR 25/M02 A2990 RMK AO2 53005
     T02501022 10300 20244 SLP067=
KHPN 081156Z 11006KT 2SM BR OVC004 24/22 A3006 RMK AO2 SLP171
     T02440222 10244 20222 51011=
KHWV 081156Z AUTO 13005KT 10SM SCT009 OVC013 25/23 A3008 RMK AO2
     SLP183 T02500228 10250 20239 53008=
KHYA 081156Z VRB05KT 10SM SCT018 24/21 A3010 RMK AO2 SLP194
     T02390206 10239 20206 51004=
KIGX 081156Z AUTO 05003KT 5SM HZ CLR 27/19 A3001 RMK AO2 SLP154
     7//// T02720189 10272 20228 51012=
KINW 081156Z AUTO 22008KT 10SM CLR 18/01 A3012 RMK AO2 SLP115
     T01830006 10267 20183 53010=
KISO 081155Z 02006KT 3SM HZ CLR 26/22 A2997=
KISP 081156Z 13009KT 7SM BKN008 BKN011 OVC120 25/21 A3005 RMK AO2
     SLP174 60000 T02500211 10256 20244 51012=
KITH 081156Z 00000KT 7SM CLR 24/20 A3010 RMK AO2 50002 T02440200
     10238 20194 SLP185=
KIWA 081156Z AUTO 12006KT 10SM CLR 29/05 A2982 RMK AO2=
KJMS 081156Z AUTO 00000KT 10SM CLR 14/13 A3010 RMK AO2 SLP191
     T01390133 10150 20106 53005=
KJXN 081156Z 00000KT 8SM CLR 24/22 A3006 RMK AO2 SLP170 T02390217
     10239 20206 51005=
KLAS 081156Z 21003KT 10SM SCT150 27/M04 A2982 RMK AO2 SLP067
     T02721039 10322 20272 53005=
KLNR 081156Z AUTO 00000KT 3SM BR OVC002 22/20 A3005 RMK AO2 CIG
     001V007 SLP165 60001 70101 T02170200 10217 20206 51013=
KM19 081156Z AUTO 10SM CLR 25/23 A3008 RMK AO2 51007 T02500233
     10266 20238 SLP181=
KMDT 081156Z 00000KT 3SM HZ CLR 27/22 A3003 RMK AO2 SLP165
     T02720222 10272 20244 53007=
KMOB 081156Z 00000KT 9SM MIFG FEW020 24/23 A3005 RMK AO2 SLP172
     T02440233 10244 20222 51007=
KMQY 081156Z 00000KT 10SM CLR 25/23 A3009 RMK AO2 51006 T02500227
     10266 20227 SLP179=
KMRH 081156Z AUTO 06008G15KT 7SM CLR 28/23 A2993 RMK AO2 SLP135
     T02830228 10283 20250 53009 TSNO=
KNQX 081153Z 06005KT 10SM SCT022TCU BKN100 BKN200 28/25 A2994 RMK
     AO2 SLP138 TCU DSNT SE-W T2 SET 70023 T02830250 10283 20278
     53009 $=
KOFK 081156Z AUTO 27003KT 10SM FEW090 17/15 A3021 RMK AO2 SLP222
     T01670150 10167 20156 51012=
KRDM 081156Z AUTO 00000KT 10SM CLR 11/02 A3007 RMK AO2 SLP159
     T01060022 10211 20078 53004 $=
KSBP 081156Z AUTO 28004KT 6SM BR OVC005 13/12 A2992 RMK AO2 SLP129
     T01280117 10139 20128 53002 $=
KSDF 081156Z 15003KT 4SM HZ FEW120 SCT150 26/21 A3006 RMK AO2
     SLP172 T02560211 10289 20250 50004=
K04W 081154Z AUTO 26003KT 10SM CLR 17/16 A3008 RMK AO2 T01700162
     10194 20151=
K1A6 081155Z AUTO 00000KT 1/4SM FG OVC001 21/21 A3012 RMK AO2=
K1M4 081156Z AUTO 00000KT 10SM CLR 24/22 A3012 RMK AO2 52008
     T02380216 10238 20216 SLP195=
K21D 081158Z AUTO 00000KT 10SM CLR 18/17 A3010 RMK AO2=
KAIG 081155Z AUTO 33003KT 3/4SM BR OVC001 18/18 A3003 RMK AO2=
KAND 081156Z AUTO 00000KT 10SM CLR 24/21 A3004 RMK AO2 SLP159
     T02390211 10239 20211 53007 PWINO $=
KART 081156Z AUTO 19003KT 7SM CLR 26/22 A3003 RMK AO2 SLP163 7////
     T02610217 10261 20217 51005=
####018003369####
SAUS99 KWBC 081158 RRB
METAR
KBED 081156Z 17006KT 8SM BKN016 25/21 A3008 RMK AO2 SLP196
     T02500206 10250 20233 51012=
KBJI 081154Z AUTO 25007KT 10SM CLR 16/13 A3006 RMK AO2=
KBJJ 081156Z AUTO 00000KT 2 1/2SM BR CLR 22/20 A3010 RMK AO2
     SLP185 T02170200 10217 20172 50003=
KBUU 081154Z AUTO 00000KT 7SM BKN070 21/21 A3003 RMK AO2=
KBZN 081156Z 00000KT 10SM CLR 07/03 A3029 RMK AO2 SLP234 7////
     T00670033 10128 20061 53009=
KC29 081155Z AUTO 27004KT 10SM OVC004 22/20 A3005 RMK AO2 60001
     70005 T02150198 10221 20210=
KCEC 081156Z AUTO 25003KT 5SM BR OVC005 10/09 A2998 RMK AO2 SLP152
     T01000094 10106 20100 53002=
KCEF 081155Z 00000KT 5SM BR OVC009 24/22 A3007 RMK AO2A SLP183
     T02420222 10250 20235 51012 PWINO $=
KCTB 081156Z AUTO 28004KT 10SM CLR 07/04 A3024 RMK AO2 SLP225
     T00670044 10144 20067 56001=
KCXY 081156Z 00000KT 6SM HZ CLR 27/21 A3004 RMK AO2 SLP168 7////
     T02720206 10272 20228 53007=
KD39 081154Z AUTO 27003KT 10SM CLR 18/16 A3011 RMK AO2 T01750160
     10175 20152=
KDAY 081156Z 00000KT 5SM HZ FEW090 26/20 A3010 RMK AO2 SLP184
     T02560200 10256 20217 50005=
KDIK 081156Z AUTO 00000KT 10SM CLR 10/08 A3016 RMK AO2 SLP207
     T01000083 10128 20083 53003=
KDLL 081155Z AUTO 28003KT 5SM BR SCT004 BKN022 BKN027 22/21 A3004
     RMK AO2=
KDUG 081156Z AUTO 08007G17KT 10SM CLR 24/12 A3004 RMK AO2 PK WND
     08027/1103 SLP089 60000 7//// T02440117 10294 20244 53011
     $=
KDUJ 081156Z AUTO 00000KT 4SM HZ SCT065 22/18 A3013 RMK AO2 SLP187
     7//// T02170183 10244 20189 53006=
KDVK 081157Z AUTO 00000KT 5SM 22/19 A3010 RMK AO1=
KEAU 081156Z 31003KT 10SM OVC041 19/18 A3005 RMK AO2 SLP174 60001
     70067 T01890178 10200 20183 53016=
KEED 081156Z AUTO 34007KT 10SM CLR 27/M02 A2976 RMK AO2 SLP043
     T02721022 10344 20267 53008 TSNO=
KEKO 081156Z AUTO 00000KT 10SM CLR 10/M01 A3013 RMK AO2 SLP151
     T01001011 10222 20100 53005=
KELZ 081156Z AUTO 00000KT 4SM BR CLR 22/20 A3016 RMK AO2 SLP198
     T02170200 10222 20178 51002=
KSFO 081156Z 28010KT 10SM OVC008 13/11 A2992 RMK AO2 SLP133
     T01330106 10144 20133 55002=
KSGH 081156Z 00000KT 3SM BR CLR 23/22 A3011 RMK AO2 51006
     T02330222 10233 20194 SLP187=
KSLE 081156Z AUTO 14005KT 10SM CLR 14/11 A2990 RMK AO2 SLP125
     T01440111 10267 20144 53015=
KSRC 081156Z AUTO 19004KT 10SM CLR 24/23 A3008 RMK AO2 TSNO 53006
     T02440227 10244 20227 SLP187=
KSSC 081155Z AUTO 30007KT 10SM CLR 26/19 A2998 RMK AO2 SLP150
     T02600192 10269 20249 53009 $=
KTPH 081156Z AUTO 36009KT 10SM CLR 13/M03 A3011 RMK AO2 SLP119
     T01331033 10194 20133 53005=
KUKI 081156Z AUTO 00000KT 10SM CLR 12/10 A2990 RMK AO2 SLP118
     T01220100 10178 20122 55001=
KVAD 081155Z AUTO 28006KT 10SM CLR 24/20 A3004 RMK AO2 SLP169
     T02410200 10241 20208 53007 $=
KWJF 081156Z 07005KT 10SM CLR 13/01 A2990 RMK AO2 SLP106 T01330011
     10222 20133 53004=
KY51 081155Z AUTO 32008KT 3SM OVC005 20/20 A3007 RMK AO1 7////
     T02010197 10220 20189=
PAAK 081156Z AUTO 06013G22KT 10SM SCT024 BKN060 OVC120 07/04 A2956
     RMK AO1 10070 20070 57020 PNO=
PAHP 081156Z AUTO 34008KT 10SM CLR 09/07 A3004 RMK AO1 10140 20090
     57010 PNO TSNO=
TJSJ 081156Z 08006KT 10SM FEW026 SCT034 28/25 A3000 RMK AO2 SLP159
     T02780250 10283 20267 51009=
####018000113####
SACN94 KWBC 081158
METAR CWND 081100Z AUTO 31017KT 05/03 RMK AO1 PK WND 29021/1000
SLP154 T00450028 52007=
####018000115####
SACN89 KWBC 081158
METAR CWCI 081100Z AUTO 02005KT 16/15 RMK AO1 4PAST HR 3007 SLP150
P0002 T01550153 50142=
####018000113####
SABA31 MYNN 081156
METAR MYNN 081200Z 00000KT 9999 SCT012CB SCT015TCU BKN220 26/25 A2995=


NNNN


####018000626####
SAIY32 LIIB 081150
METAR LIBD 081150Z 36015KT CAVOK 25/11 Q1020=
METAR LIBR 081145Z /////KT CAVOK 25/13 Q1018 NOSIG=
METAR LICC 081150Z 10012KT 8000 NSC 28/21 Q1018=
METAR LICJ 081150Z 04013KT 9999 FEW018 28/23 Q1018=
METAR LIPB 081150Z 17012KT CAVOK 30/13 Q1020=
METAR LIPE 081150Z 08007KT 030V150 CAVOK 29/14 Q1021=
METAR LIPH 081145Z 16005KT 9999 SCT025 28/21 Q1022=
METAR LIPK 081150Z 07005KT CAVOK 28/10 Q1021=
METAR LIPQ 081150Z 00000KT CAVOK 26/13 Q1022=
METAR LIPR 081145Z 08011KT CAVOK 28/17 Q1021=
METAR LIPX 081145Z 22002KT 9999 FEW040 29/13 Q1021=
METAR LIPZ 081150Z 13008KT 9999 FEW040 26/17 Q1022=
####018000130####
SACS31 MROC 081200
METAR
MROC 081200Z 06004KT 9999 BR FEW003 BKN100 20/20 A3002 RMK
             VIS 5000 N LOW ST SSW SE=

####018000150####
SAKA31 PTKR 081200
METAR PTKR 081151Z 04003KT 15SM FEW017CB SCT120 OVC300 28/24 A2987
RMK CB DSNT SE-S SLP114 8/378 T02750240 10300 20267 52017=
####018000128####
SACS31 MROC 081200
METAR
MROC 081200Z 06004KT 9999 BR FEW003 BKN100 20/20 A3002 RMK
             VIS 5000 N LOW ST SSW SE=
####018000125####
SANO34 ENMI 081150 CCA
METAR COR ENSH 081150Z 07005KT 340V120 9999 VCSH FEW030 BKN060 15/10
               Q1010 RESHRA=
####018000354####
SAFI34 EFHK 081150
EFET 081150Z AUTO 17008KT 130V220 CAVOK 20/06 Q1014=
EFIV 081150Z AUTO 10002KT CAVOK 20/10 Q1016=
EFKE 081150Z AUTO 20007KT 170V240 CAVOK 21/13 Q1015=
EFKI 081150Z AUTO 33004KT 300V020 CAVOK 22/13 Q1016=
EFKS 081150Z AUTO VRB03KT CAVOK 20/10 Q1017=
EFKT 081150Z AUTO 18010KT 140V210 CAVOK 21/08 Q1015=
METAR EFSO 081156Z NIL=
####018000085####
SAAI41 FHAW 081150
METAR FHAW 081150Z 13015KT 9999 FEW028 BKN040 27/19 Q1016 BLU=
####018000087####
SAGL31 BGSF 081150 RRA
METAR BGBW 081150Z 26005KT 9999 FEW030 13/04 Q1008 RMK 1SC =
####018001206####
SAMX41 MMMX 081153
METAR MMMX 081145Z 14004KT 2 1/2SM -RA FEW008 OVC020 15/14 A3018
      NOSIG RMK SLP052 57006 952 60075 8/4// VSBY TWR=
METAR MMAA 081149Z 00000KT 8SM SCT015 BKN090 OVC300 26/23 A2978
      RMK SLP081 57006 909 8/367 OCNL DROPS=
METAR MMBT 081145Z 00000KT 6SM OVC040 23/22 A2988
      RMK SLP096 5//// 910 8/7// BINOVC VRB COND=
METAR MMCB 081144Z NIL=
METAR MMIT 081145Z NIL=
METAR MMOX 081148Z 00000KT 4SM RA SCT006 SCT015 OVC080 16/14 A3008
      RMK SLP081 5//// 906 61138 8/72/ LWR VIS/ST S=
METAR MMPA 081150Z 27004KT 5SM SCT080 BKN280 26/25 A2986
      RMK SLP094 50000 912 8/038 HZY DSNT CB, TCU E=
METAR MMPB 081145Z 00000KT 2SM -RA  VV004 14/14 A3022 
      RMK 6//// 8//// RAE11B-RA=
METAR MMPS 081145Z NIL=
METAR MMQT 081145Z NIL=
METAR MMTB 081145Z NIL=
METAR MMTM 081142Z 24010KT 6SM  SCT010 BKN020 OVC200 25/24 A2979 
      RMK SLP066 57027 980 8/807 BINOVC/VC TCU=
METAR MMTO 081145Z 29003KT 2SM BR HZ SCT010 OVC070 13/11 A3024
      RMK SLP050 57003 957 8/47/ OCNL DROPS=
METAR MMVR 081145Z 00000KT 7SM  SCT010 BKN020 OVC070 25/25 A2981 
      RMK SLP073 57006 904 60045 8/77/ INTMT -RA ISOL CBS=
METAR MMZH 081145Z NIL=
####018000129####
SAFK41 EGYP 081150
METAR EGYP 081150Z 01031G41KT 3500 RADZ FEW006 BKN010 OVC018 05/04
 Q0992 YLO1 TEMPO 5000 -RA BKN010 GRN=
####018000269####
SAZA42 FAJS 081200
METAR FAVV 081200Z AUTO 05010KT //// // ////// 17/01 Q1029=
METAR FAJB 081200Z AUTO 05004KT //// // ////// 17/02 Q1032=
METAR FASI 081200Z AUTO 05008KT //// // ////// 18/M01 Q1031=
METAR FAGC 081200Z AUTO 02007KT //// // ////// 17/02 Q1032=
####018000717####
SAMX43 MMMZ 081200
METAR MMCL 081141Z 00000KT 8SM  SCT015 OVC080 26/24 A2978 
      RMK 8/67/ HZY=
METAR MMCN 081147Z 00000KT 10SM  SCT120 BKN200 26/20 A2973 
      RMK SLP068 8/056 RTS=
METAR MMDO 081140Z 03006KT 8SM  SCT015 OVC020 17/16 A3012 
      RMK SLP071 5//// 914 8/8// BINOVC=
METAR MMHO 081148Z 00000KT 10SM  BKN080 27/18 A2980 
      RMK SLP079 54000 912 8/050 HZY=
METAR MMLM 081145Z 00000KT 10SM  SKC 25/20 A//// RMK SLP/// 5//// 9//=
METAR MMML 081153Z 15010KT 10SM SKC 22/// A2968
METAR MMMZ 081141Z 01004KT 10SM  SCT070 OVC200 26/22 A2975 
      RMK SLP074 57003 967 8/077 ISOL S=
METAR MMTJ 081142Z 00000KT 5SM  OVC013 16/14 A2993 
      RMK SLP134 56007 910 8/5// HZY=
####018000068####
SABZ23 SBCB 081200
METAR SBCB 081200Z 04005KT CAVOK 21/16 Q1019=
####018000137####
SAMX53 MMMZ 081200
METAR MMLP 081156Z 18006KT 10SM  SKC 18/14 A2978 
      RMK SLP102 5//// 957 ISOL SC HZY RTS=





TX OPMET V1
####018000068####
SABZ23 SBCF 081200
METAR SBCF 081200Z 21003KT CAVOK 13/09 Q1024=
####018000087####
SAGL41 BGSF 081150 RRB
METAR BGBW 081150Z 26005KT 9999 FEW030 13/04 Q1008 RMK 1SC =
####018000069####
SABZ22 SBBR 081200
METAR SBBR 081200Z 01004KT CAVOK 19/09 Q1024 =
####018000108####
SAUK31 EGGY 081150 CCB
METAR COR EGCC 081150Z 22009KT 180V260 9999 FEW037 SCT044 20/10
    Q1017 NOSIG=
####018000154####
SASW39 LSSW 081150 RRA
METAR LSMM 081150Z 25007KT 230V330 CAVOK 27/15 Q1022 RMK BLU=
METAR LSMP 081150Z AUTO 00000KT 9999NDV NCD 28/14 Q1021 RMK BLU=
####018000127####
SAYE20 OYAA 081200
METAR OYAA 081200Z 21012KT 6000 NSC 34/20 Q1001=
METAR OYSQ 081200Z 18047G57KT 9999 FEW018 32/23 Q1005=
####018000452####
SAPQ50 KWBC 081200 RRA
METAR
PTYA 081152Z 08009KT 12SM SCT016 SCT030 BKN130 OVC300 28/23 A2988
     RMK SLP118 60001 70001 8/878 T02800228 10320 20261 51015=
PGSN 081154Z 08009KT 10SM FEW020 28/24 A2992 RMK AO2 SLP129 60000
     7//// T02780244 10294 20267 53011=
PGRO 081154Z 10013KT 7SM SCT020 27/25 A2993=
PTKR 081151Z 04003KT 15SM FEW017CB SCT120 OVC300 28/24 A2987 RMK
     CB DSNT SE-S SLP114 8/378 T02750240 10300 20267 52017=
####018000069####
SABZ20 SBRB 081200
METAR SBRB 081200Z 02004KT CAVOK 26/24 Q1013 =
####018003676####
SAXX60 KWBC 081200
METAR
KRSP 081154Z AUTO 12003KT 4SM HZ CLR 27/17 A3011 RMK AO2 SLP180
     T02670167 10278 20217 51004 $=
KDTS 081153Z AUTO 00000KT 10SM CLR 26/24 A3002 RMK AO2 SLP165
     T02610244 10261 20239 53005=
KFZY 081154Z AUTO 24003KT 5SM HZ CLR 26/22 A3005 RMK AO2 SLP170
     T02560222 10256 20200 50002=
KBLV 081155Z AUTO 17004KT 10SM FEW042 BKN055 25/25 A3004 RMK AO2
     SLP170 70058 T02490247 10249 20239 51006=
KGRF 081155Z AUTO 14003KT 10SM CLR 13/10 A2995 RMK AO2 SLP141
     60000 T01270103 10221 20127 52004 $=
KHMN 081155Z 00000KT 10SM CLR 18/13 A3014 RMK AO2A SLP128 70038
     T01800133 10217 20179 53003 $=
KLRF 081155Z AUTO 00000KT 10SM FEW210 23/22 A3007 RMK AO2 CLDS LWR
     RWY07 SLP182 T02340224 10236 20228 53009=
KNFW 081152Z 13006KT 10SM SCT012 BKN022 26/22 A3006 RMK AO2 SLP161
     T02610222 10272 20261 51010=
KBAD 081155Z AUTO 12003KT 10SM FEW090 24/23 A3005 RMK AO2 SLP175
     70047 T02350230 10245 20232 52011 $=
KFHU 081155Z 11006KT 10SM FEW120 23/12 A3008 RMK SLP110 53007=
KGRF 081155Z AUTO 14003KT 10SM CLR 13/10 A2995 RMK AO2 SLP141
     60000 T01270103 10221 20127 52004 $=
KGUS 081155Z AUTO 00000KT 10SM FEW060 24/21 A3005 RMK AO2 SLP168
     T02360212 10241 20221 53003=
KHMN 081155Z 00000KT 10SM CLR 18/13 A3014 RMK AO2A SLP128 70038
     T01800133 10217 20179 53003 $=
KIAB 081155Z AUTO 36009KT 10SM CLR 22/21 A3008 RMK AO2 SLP176
     T02170214 10232 20211 52003=
KMTC 081155Z 00000KT 7SM FEW040 FEW140 FEW240 26/23 A3002 RMK
     SLP168 50002=
KRDR 081155Z 25004KT 10SM FEW080 16/14 A3006 RMK AO2A SLP187
     T01580138 10158 20130 53006 $=
PAEI 081155Z AUTO 00000KT 10SM CLR 08/06 A3004 RMK AO2 SLP175
     T00790058 10208 20078 54000 $=
KCBM 081155Z AUTO 00000KT 10SM CLR 25/23 A3007 RMK AO2 SLP181
     70006 T02460231 10257 20238 53008 $=
KCEF 081155Z 00000KT 5SM BR OVC009 24/22 A3007 RMK AO2A SLP183
     T02420222 10250 20235 51012 PWINO $=
KDAA 081155Z AUTO 12004KT 8SM CLR 27/23 A3001 RMK AO2 SLP162 70002
     T02740231 10274 20231 52007=
KEDW 081155Z AUTO 24004KT 10SM CLR 16/04 A2988 RMK AO2 SLP069
     T01630037 10258 20160 53005=
KFBG 081155Z AUTO 02003KT 10SM CLR 26/20 A2997 RMK AO2 SLP145
     T02610199 10280 20248 53012 $=
KFTK 081155Z AUTO 00000KT 10SM CLR 24/22 A3008 RMK AO2 SLP178
     T02390215 10251 20219 51005=
KHST 081155Z AUTO 35004KT 10SM VCTS CLR 27/25 A2994 RMK AO2
     DZB1118E1127 SLP141 P0000 60007 70007 T02710252 10274 20249
     52006 $=
KMGE 081155Z 00000KT 10SM CLR 24/20 A3007 RMK AO2A SLP169
     T02350205 10246 20211 53007 $=
KMUO 081155Z AUTO 07005KT 10SM CLR 13/00 A3008 RMK AO2 SLP163
     T01330002 10184 20131 53007=
KOFF 081155Z AUTO 34003KT 10SM CLR 20/20 A3014 RMK AO2 SLP196
     60000 T02000200 10216 20195 51011 $=
KSUU 081155Z AUTO 24020KT 10SM FEW170 12/10 A2984 RMK AO2 PK WND
     25028/1121 SLP104 T01190102 10148 20119 53004 RVRNO $=
KSVN 081155Z 24004KT 10SM SKC 21/20 A2999 RMK SLP157 53007=
PHHI 081155Z AUTO 28004KT 10SM CLR 18/16 A3004 RMK AO2 SLP161
     60001 70005 T01790162 10223 20179 58010=
KBAD 081155Z AUTO 12003KT 10SM FEW090 24/23 A3005 RMK AO2 SLP175
     70047 T02350230 10245 20232 52011 $=
KCBM 081155Z AUTO 00000KT 10SM CLR 25/23 A3007 RMK AO2 SLP181
     70006 T02460231 10257 20238 53008 $=
KCEF 081155Z 00000KT 5SM BR OVC009 24/22 A3007 RMK AO2A SLP183
     T02420222 10250 20235 51012 PWINO $=
KDAA 081155Z AUTO 12004KT 8SM CLR 27/23 A3001 RMK AO2 SLP162 70002
     T02740231 10274 20231 52007=
KEDW 081155Z AUTO 24004KT 10SM CLR 16/04 A2988 RMK AO2 SLP069
     T01630037 10258 20160 53005=
####018000081####
SABZ24 SBFI 081200
METAR SBFI 081200Z 22004KT 9999 FEW004 SCT100 17/15 Q1017=
####018000119####
SPAW33 KWBC 081158
SPECI
OMAL 081146Z 14034G48KT 3000 TSRA FEW045CB 29/23 Q1002 /A2959/
WIND RWY19 14027G37KT=
####018000164####
SAAW34 KWBC 081145 RRA
METAR
OAKB 081150Z 35009KT 9999 FEW070 34/05 Q1013 NOSIG RMK BLU BLU=
OPSK 081200Z 13015KTS 1700 DRQ SCT040 BKN100 34/24 10001 RH56=
####018003747####
SAXX60 KWBC 081200 RRC
METAR
KMMT 081155Z 36003KT 10SM FEW100 25/21 A3000 RMK AO2A SLP158
     T02530213 10253 20210 53008=
KMXF 081155Z AUTO 00000KT 10SM CLR 26/24 A3003 RMK AO2 SLP168
     T02630239 10278 20243 53006=
KADW 081155Z 10004KT 7SM CLR 26/24 A3002 RMK AO2A SLP163 T02630240
     10281 20244 51008=
KDLF 081155Z AUTO 00000KT 10SM FEW017 24/23 A2997 RMK AO2 SLP133
     T02350225 10259 20235 53009 $=
KDYS 081155Z 03004KT 10SM SCT005 OVC009 22/21 A3006 RMK AO2A CIG
     005 RWY34 SLP161 70117 T02150213 10218 20209 53009 $=
KMCF 081155Z AUTO 03003KT 10SM CLR 24/24 A3000 RMK AO2 SLP159
     70001 T02440240 10252 20221 53006=
KMIB 081155Z AUTO 26006KT 10SM SCT080 13/12 A3010 RMK AO2 SLP195
     70001 T01310119 10151 20111 53008 $=
KMMT 081155Z 36003KT 10SM FEW100 25/21 A3000 RMK AO2A SLP158
     T02530213 10253 20210 53008=
KMXF 081155Z AUTO 00000KT 10SM CLR 26/24 A3003 RMK AO2 SLP168
     T02630239 10278 20243 53006=
KSKA 081155Z AUTO 06005KT 10SM CLR 14/08 A3007 RMK AO2 SLP171
     T01400082 10201 20140 53001=
KWRB 081155Z 36002KT 10SM CLR 23/21 A3003 RMK AO2A RAEMM SLP165
     T02300213 10230 20202 53003=
KXMR 081155Z AUTO 36003KT 10SM CLR 25/23 A2999 RMK AO2 SLP156
     T02490235 10249 20184 53004=
MHSC 081155Z AUTO 11004KT 9999 FEW120 22/19 A2996 RMK AO2
     RAB1110E1120 SLP105 P0000 60000 T02160192 10230 20214 53007
     $=
PGUA 081155Z AUTO 12012G18KT 10SM FEW019 SCT031 SCT045 26/ A2992
     RMK AO2 PK WND 09026/1115 RAB1118E1128 SLP114 P0003 60003
     T0263 10288 20257 53013 VISNO RWY24L $=
KADW 081155Z 10004KT 7SM CLR 26/24 A3002 RMK AO2A SLP163 T02630240
     10281 20244 51008=
KBIX 081155Z AUTO 03003KT 10SM CLR 25/25 A3004 RMK AO2 SLP173
     T02520252 10262 20246 53010=
KDOV 081155Z 12007KT 10SM CLR 25/24 A3002 RMK AO2A SLP167
     T02520239 10252 20235 52010 $=
KGSB 081155Z 04005KT 8SM CLR 26/21 A2995 RMK AO2A SLP141 WND DATA
     ESTMD T02580210 10262 20235 53013 $=
KMCF 081155Z AUTO 03003KT 10SM CLR 24/24 A3000 RMK AO2 SLP159
     70001 T02440240 10252 20221 53006=
KNIP 081153Z 25005KT 10SM CLR 23/21 A3002 RMK AO2 SLP162 T02330211
     10261 20222 53009=
KNKT 081154Z 03010KT 4SM HZ FEW012 BKN150 27/24 A2994 RMK AO2
     SLP137 T02670239 10267 20250 53011=
KNQX 081153Z 06005KT 10SM SCT022TCU BKN100 BKN200 28/25 A2994 RMK
     AO2 SLP138 TCU DSNT SE-W T2 SET 70023 T02830250 10283 20278
     53009 $=
KNRB 081152Z 26004KT 10SM CLR 24/22 A3001 RMK AO2 SLP162 T02440217
     10244 20222 53009=
KVAD 081155Z AUTO 28006KT 10SM CLR 24/20 A3004 RMK AO2 SLP169
     T02410200 10241 20208 53007 $=
KFBG 081155Z AUTO 02003KT 10SM CLR 26/20 A2997 RMK AO2 SLP145
     T02610199 10280 20248 53012 $=
KGUS 081155Z AUTO 00000KT 10SM FEW060 24/21 A3005 RMK AO2 SLP168
     T02360212 10241 20221 53003=
KNQX 081153Z 06005KT 10SM SCT022TCU BKN100 BKN200 28/25 A2994 RMK
     AO2 SLP138 TCU DSNT SE-W T2 SET 70023 T02830250 10283 20278
     53009 $=
PMDY 081156Z AUTO 00000KT 10SM CLR 24/19 A3009 RMK AO2 TSNO 58007
     T02440194 10277 20244 SLP498=
KCEF 081155Z 00000KT 5SM BR OVC009 24/22 A3007 RMK AO2A SLP183
     T02420222 10250 20235 51012 PWINO $=
KSSC 081155Z AUTO 30007KT 10SM CLR 26/19 A2998 RMK AO2 SLP150
     T02600192 10269 20249 53009 $=
KVAD 081155Z AUTO 28006KT 10SM CLR 24/20 A3004 RMK AO2 SLP169
     T02410200 10241 20208 53007 $=
KABH 081156Z AUTO 30004KT 8SM BKN003 12/11 A3036 RMK AO2 SLP228
     70092 T01170106 10139 20117 58003 $=
KNBT 081156Z AUTO 06011KT 4SM HZ CLR 28/ A2994 RMK AO2 SLP141
     T0283 10294 20278 53012 TSNO=
KNYG 081156Z 08004KT 6SM HZ FEW090 BKN200 27/22 A3001 RMK AO2
     SLP163 T02670222 10272 20250 51010=
####018003694####
SAXX60 KWBC 081200 RRA
METAR
KFBG 081155Z AUTO 02003KT 10SM CLR 26/20 A2997 RMK AO2 SLP145
     T02610199 10280 20248 53012 $=
KFHU 081155Z 11006KT 10SM FEW120 23/12 A3008 RMK SLP110 53007=
KFTK 081155Z AUTO 00000KT 10SM CLR 24/22 A3008 RMK AO2 SLP178
     T02390215 10251 20219 51005=
KGUS 081155Z AUTO 00000KT 10SM FEW060 24/21 A3005 RMK AO2 SLP168
     T02360212 10241 20221 53003=
KHST 081155Z AUTO 35004KT 10SM VCTS CLR 27/25 A2994 RMK AO2
     DZB1118E1127 SLP141 P0000 60007 70007 T02710252 10274 20249
     52006 $=
KIAB 081155Z AUTO 36009KT 10SM CLR 22/21 A3008 RMK AO2 SLP176
     T02170214 10232 20211 52003=
KMGE 081155Z 00000KT 10SM CLR 24/20 A3007 RMK AO2A SLP169
     T02350205 10246 20211 53007 $=
KMTC 081155Z 00000KT 7SM FEW040 FEW140 FEW240 26/23 A3002 RMK
     SLP168 50002=
KMUI 081155Z AUTO 00000KT 10SM CLR 26/20 A3004 RMK AO2 SLP170
     T02640201 10264 20214 53007 $=
KMUO 081155Z AUTO 07005KT 10SM CLR 13/00 A3008 RMK AO2 SLP163
     T01330002 10184 20131 53007=
KSVN 081155Z 24004KT 10SM SKC 21/20 A2999 RMK SLP157 53007=
KBAD 081155Z AUTO 12003KT 10SM FEW090 24/23 A3005 RMK AO2 SLP175
     70047 T02350230 10245 20232 52011 $=
KHST 081155Z AUTO 35004KT 10SM VCTS CLR 27/25 A2994 RMK AO2
     DZB1118E1127 SLP141 P0000 60007 70007 T02710252 10274 20249
     52006 $=
KNHK 081152Z 09006KT 4SM HZ FEW010 27/24 A3000 RMK AO2 SLP158
     T02720239 10278 20256 51008=
KOFF 081155Z AUTO 34003KT 10SM CLR 20/20 A3014 RMK AO2 SLP196
     60000 T02000200 10216 20195 51011 $=
KSSC 081155Z AUTO 30007KT 10SM CLR 26/19 A2998 RMK AO2 SLP150
     T02600192 10269 20249 53009 $=
KWRI 081155Z AUTO 14007KT 3SM BR BKN005 25/25 A3003 RMK AO2 SLP168
     T02460246 10246 20227 53011 $=
KNHK 081152Z 09006KT 4SM HZ FEW010 27/24 A3000 RMK AO2 SLP158
     T02720239 10278 20256 51008=
KNIP 081153Z 25005KT 10SM CLR 23/21 A3002 RMK AO2 SLP162 T02330211
     10261 20222 53009=
KNKT 081154Z 03010KT 4SM HZ FEW012 BKN150 27/24 A2994 RMK AO2
     SLP137 T02670239 10267 20250 53011=
KNQX 081153Z 06005KT 10SM SCT022TCU BKN100 BKN200 28/25 A2994 RMK
     AO2 SLP138 TCU DSNT SE-W T2 SET 70023 T02830250 10283 20278
     53009 $=
KNZY 081152Z 31006KT 9SM FEW009 OVC015 18/13 A2989 RMK AO2 DZE30
     SLP121 P0000 60000 T01830133 10189 20178 55001 $=
KOFF 081155Z AUTO 34003KT 10SM CLR 20/20 A3014 RMK AO2 SLP196
     60000 T02000200 10216 20195 51011 $=
KRDR 081155Z 25004KT 10SM FEW080 16/14 A3006 RMK AO2A SLP187
     T01580138 10158 20130 53006 $=
KSSC 081155Z AUTO 30007KT 10SM CLR 26/19 A2998 RMK AO2 SLP150
     T02600192 10269 20249 53009 $=
KSUU 081155Z AUTO 24020KT 10SM FEW170 12/10 A2984 RMK AO2 PK WND
     25028/1121 SLP104 T01190102 10148 20119 53004 RVRNO $=
KTCM 081155Z AUTO 00000KT 10SM CLR 12/11 A2996 RMK AO2 SLP145
     T01190107 10210 20119 53004=
KVAD 081155Z AUTO 28006KT 10SM CLR 24/20 A3004 RMK AO2 SLP169
     T02410200 10241 20208 53007 $=
KWRI 081155Z AUTO 14007KT 3SM BR BKN005 25/25 A3003 RMK AO2 SLP168
     T02460246 10246 20227 53011 $=
KBAB 081155Z AUTO 20004KT 10SM CLR 16/12 A2983 RMK AO2 SLP102
     T01550116 10214 20155 53005 $=
KBIX 081155Z AUTO 03003KT 10SM CLR 25/25 A3004 RMK AO2 SLP173
     T02520252 10262 20246 53010=
KDTS 081153Z AUTO 00000KT 10SM CLR 26/24 A3002 RMK AO2 SLP165
     T02610244 10261 20239 53005=
KFSI 081155Z AUTO 00000KT 10SM FEW080 22/22 A3006 RMK AO2 SLP164
     T02240217 10237 20222 53006=
KGTB 081155Z AUTO 22003KT 10SM CLR 27/21 A3004 RMK AO2 SLP171
     T02660213 10266 20214 51005=
KNIP 081153Z 25005KT 10SM CLR 23/21 A3002 RMK AO2 SLP162 T02330211
     10261 20222 53009=
####018003748####
SAXX60 KWBC 081200 RRB
METAR
KNKT 081154Z 03010KT 4SM HZ FEW012 BKN150 27/24 A2994 RMK AO2
     SLP137 T02670239 10267 20250 53011=
KNRB 081152Z 26004KT 10SM CLR 24/22 A3001 RMK AO2 SLP162 T02440217
     10244 20222 53009=
KRIV 081155Z 30003KT 2 1/2SM BR OVC003 13/12 A2990 RMK AO2A SLP122
     T01310125 10148 20111 55004=
KSLI 081155Z AUTO 22005KT 10SM OVC015 17/14 A2990 RMK AO2 SLP126
     T01670139 10167 20147 55004=
KTCM 081155Z AUTO 00000KT 10SM CLR 12/11 A2996 RMK AO2 SLP145
     T01190107 10210 20119 53004=
KTIK 081155Z AUTO 01005KT 10SM SCT007 OVC013 23/22 A3006 RMK AO2
     SCT V BKN SLP168 T02310224 10238 20231 53009 $=
PAED 081155Z AUTO 00000KT 10SM FEW060 OVC075 12/11 A2998 RMK AO2
     RAB1133E1143DZB1143E1146 SLP154 P0000 60000 T01210108 10141
     20109 56009 $=
KDOV 081155Z 12007KT 10SM CLR 25/24 A3002 RMK AO2A SLP167
     T02520239 10252 20235 52010 $=
KGRK 081155Z 06005KT 7SM SCT010 BKN015 BKN031 26/24 A2999 RMK
     SLP135 60000 53007=
KLHW 081155Z AUTO 28006KT 10SM CLR 23/20 A3000 RMK AO2 SLP160
     T02340202 10234 20211 53006=
KLSF 081155Z AUTO 00000KT 10SM CLR 23/22 A3003 RMK AO2 SLP167
     T02340215 10234 20206 53005 $=
KMUI 081155Z AUTO 00000KT 10SM CLR 26/20 A3004 RMK AO2 SLP170
     T02640201 10264 20214 53007 $=
KNQX 081153Z 06005KT 10SM SCT022TCU BKN100 BKN200 28/25 A2994 RMK
     AO2 SLP138 TCU DSNT SE-W T2 SET 70023 T02830250 10283 20278
     53009 $=
KSSC 081155Z AUTO 30007KT 10SM CLR 26/19 A2998 RMK AO2 SLP150
     T02600192 10269 20249 53009 $=
KVAD 081155Z AUTO 28006KT 10SM CLR 24/20 A3004 RMK AO2 SLP169
     T02410200 10241 20208 53007 $=
KWRI 081155Z AUTO 14007KT 3SM BR BKN005 25/25 A3003 RMK AO2 SLP168
     T02460246 10246 20227 53011 $=
PABI 081153Z AUTO 00000KT 10SM CLR 11/07 A3008 RMK AO2 SLP188
     T01060072 10189 20106 58002 TSNO=
KNBG 081155Z 06004KT 7SM SCT010 BKN250 26/23 A3002 RMK AO2 SLP166
     T02620233 50008 $=
KPOE 081155Z 08005KT 10SM FEW015 24/23 A3003 RMK AO2 SLP169 70021
     T02390228 10250 20239 $=
KVBG 081155Z AUTO 31003KT 10SM OVC004 12/11 A2993 RMK AO2 SLP127
     T01170111 10128 20117 53002 TSNO $=
KNYL 081155Z AUTO 00000KT 10SM CLR 27/00 A2972 RMK AO2 SLP061
     T02670000 10300 20261 53004=
KNKX 081155Z 32005KT 10SM OVC014 16/14 A2990 RMK AO2 SLP119 70001
     T01560139 10167 20156 55000=
KLRF 081155Z AUTO 00000KT 10SM FEW210 23/22 A3007 RMK AO2 CLDS LWR
     RWY07 SLP182 T02340224 10236 20228 53009=
KADW 081155Z 10004KT 7SM CLR 26/24 A3002 RMK AO2A SLP163 T02630240
     10281 20244 51008=
KBAB 081155Z AUTO 20004KT 10SM CLR 16/12 A2983 RMK AO2 SLP102
     T01550116 10214 20155 53005 $=
KBIX 081155Z AUTO 03003KT 10SM CLR 25/25 A3004 RMK AO2 SLP173
     T02520252 10262 20246 53010=
KDLF 081155Z AUTO 00000KT 10SM FEW017 24/23 A2997 RMK AO2 SLP133
     T02350225 10259 20235 53009 $=
KDOV 081155Z 12007KT 10SM CLR 25/24 A3002 RMK AO2A SLP167
     T02520239 10252 20235 52010 $=
KDYS 081155Z 03004KT 10SM SCT005 OVC009 22/21 A3006 RMK AO2A CIG
     005 RWY34 SLP161 70117 T02150213 10218 20209 53009 $=
KFSI 081155Z AUTO 00000KT 10SM FEW080 22/22 A3006 RMK AO2 SLP164
     T02240217 10237 20222 53006=
KGRK 081155Z 06005KT 7SM SCT010 BKN015 BKN031 26/24 A2999 RMK
     SLP135 60000 53007=
KLHW 081155Z AUTO 28006KT 10SM CLR 23/20 A3000 RMK AO2 SLP160
     T02340202 10234 20211 53006=
KLSF 081155Z AUTO 00000KT 10SM CLR 23/22 A3003 RMK AO2 SLP167
     T02340215 10234 20206 53005 $=
KMCF 081155Z AUTO 03003KT 10SM CLR 24/24 A3000 RMK AO2 SLP159
     70001 T02440240 10252 20221 53006=
KMIB 081155Z AUTO 26006KT 10SM SCT080 13/12 A3010 RMK AO2 SLP195
     70001 T01310119 10151 20111 53008 $=
####018000129####
SAPY SGAS 081200
METAR SGAS 081200Z 14007KT 8000  BKN008 OVC012
17/15 Q1016=
METAR SGES 081200Z 16005KT CAVOK 17/17  Q1016=
####018000361####
SABX31 KWBC 081150 RRA
METAR
EBAW 081150Z 23006KT 200V290 CAVOK 29/13 Q1019 NOSIG=
EBBR 081150Z 26005KT 190V320 CAVOK 29/11 Q1019 NOSIG=
EBCI 081150Z 24007KT 200V330 CAVOK 30/10 Q1020 NOSIG=
EBLG 081150Z 27006KT 210V330 CAVOK 30/09 Q1020 NOSIG=
EBOS 081150Z 35006KT CAVOK 21/16 Q1020 NOSIG=
ELLX 081150Z 20006KT 140V310 CAVOK 29/08 Q1021 NOSIG=
####018000092####
SPUS70 KWBC 081158
SPECI
KOKC 081155Z 01004KT 10SM BKN014 BKN025 23/22 A3007 RMK AO2=
####018003742####
SAUS70 KWBC 081200 RRC
METAR
PAGS 081156Z AUTO 00000KT 10SM CLR 08/08 A3018 RMK AO1 10160 20080
     57007 PNO=
PAHP 081156Z AUTO 34008KT 10SM CLR 09/07 A3004 RMK AO1 10140 20090
     57010 PNO TSNO=
PAHY 081156Z AUTO 02004KT 10SM CLR 14/10 A3012 RMK AO1 10200 20140
     52003 PNO=
PAII 081156Z AUTO 01007KT 10SM FEW043 BKN065 OVC090 11/08 A2997
     RMK AO1 10120 20100 54000 PNO=
PAIN 081156Z AUTO 21003KT 10SM CLR 07/06 A3007 RMK AO1 10170 20070
     57003 PNO=
PAJC 081156Z AUTO 17003KT 10SM OVC017 07/04 A2993 RMK AO1 10120
     20070 57007 PNO=
PAKK 081156Z AUTO 01012G17KT 10SM CLR 12/07 A3005 RMK AO1 10180
     20120 54000 PNO=
PAKP 081156Z AUTO 06006KT 10SM SCT039 11/03 A3012 RMK AO1 10110
     20090 52003=
PAMD 081156Z AUTO 09018KT 8SM FEW007 SCT015 BKN023 09/08 A3003 RMK
     AO1 10110 20090 52003 PNO=
PAMH 081156Z 00000KT 10SM CLR 14/05 A2998 RMK AO1 10180 20140
     57007 PNO=
PAMM 081156Z AUTO 35004KT 10SM CLR 17/11 A3010 RMK AO1 10210 20170
     52007 PNO=
PAMY 081156Z 30007KT 1/4SM OVC002 04/03 A3005 RMK AO1 10080 20040
     57003=
PANI 081156Z AUTO 19003KT 10SM CLR 09/07 A3000 RMK AO1 10140 20090
     57003 PNO=
PANV 081156Z AUTO 00000KT 10SM BKN085 13/08 A2997 RMK AO1 10180
     20120 57010 PNO=
PAOU 081156Z AUTO 05007KT 10SM CLR 07/06 A2995 RMK AO2 PWINO TSNO
     57008 T00660061 10083 20066 SLP145 $=
PAPG 081156Z 05005KT 10SM CLR 11/09 A3013 RMK AO1 10140 20110
     57003 PNO=
PAPH 081156Z AUTO 23005KT 10SM OVC060 06/04 A2994 RMK AO1 10090
     20040 57010 PNO=
PARC 081156Z AUTO 00000KT 10SM CLR 10/01 A3006 RMK AO1 10120 20090
     52007 PNO=
PASA 081156Z AUTO 06005KT 10SM CLR 04/02 A3019 RMK AO1 10090 20040
     57003 PNO=
PASD 081156Z AUTO 15003KT 10SM FEW027 07/06 A2993 RMK AO1 10110
     20060 57010 PNO=
PASH 081156Z AUTO 00000KT 10SM CLR 05/04 A3017 RMK AO1 10090 20040
     57007 PNO=
PASK 081156Z 26008KT 10SM CLR 12/08 A3011 RMK AO1 10180 20120
     54000 PNO=
PASL 081156Z AUTO 23004KT 10SM BKN095 11/08 A3001 RMK AO1 10170
     20100 54000 PNO=
PASM 081156Z AUTO 01005KT 10SM OVC085 10/09 A3003 RMK AO1 10120
     20090 57014 PNO=
PASX 081156Z 00000KT 10SM CLR 12/09 A2993 RMK AO1 10140 20120
     57014 PNO=
PAUN 081156Z AUTO 06009KT 10SM CLR 12/04 A3001 RMK AO1 10170 20120
     57003 PNO=
PAVD 081156Z 21005KT 10SM OVC080 11/08 A3007 RMK AO1 10120 20100
     57007 PNO=
PAWG 081156Z AUTO 00000KT 10SM CLR 11/10 A3014 RMK AO1 10160 20110
     52003 PNO=
PAWI 081154Z 21014KT 10SM CLR 08/04 A3001 RMK ASOS VIA PHONE=
PAWS 081156Z AUTO 11004KT 10SM BKN090 12/08 A2998 RMK AO1 10150
     20100 57007 PNO=
PAZK 081156Z AUTO 06007KT 10SM CLR 08/03 A3007 RMK AO1 10130 20080
     57007 PNO=
KBOS 081154Z 17007KT 10SM CLR 23/19 A3010 RMK AO2 SLP191 T02330194
     10244 20217 51012=
KPHL 081154Z 13006KT 4SM HZ FEW008 SCT150 26/23 A3003 RMK AO2
     SLP169 T02560228 10267 20244 51006 $=
KGON 081156Z 10004KT 5SM HZ SCT006 OVC017 24/21 A3008 RMK AO2
     SLP185 T02390206 10239 20222 51006=
KGRD 081156Z AUTO 00000KT 10SM CLR 26/21 A3004 RMK AO2 SLP164
     T02560211 10256 20206 53007=
KHND 081156Z AUTO 14005KT 10SM CLR 25/M02 A2990 RMK AO2 53005
     T02501022 10300 20244 SLP067=
KHPN 081156Z 11006KT 2SM BR OVC004 24/22 A3006 RMK AO2 SLP171
     T02440222 10244 20222 51011=
KHWV 081156Z AUTO 13005KT 10SM SCT009 OVC013 25/23 A3008 RMK AO2
     SLP183 T02500228 10250 20239 53008=
KHYA 081156Z VRB05KT 10SM SCT018 24/21 A3010 RMK AO2 SLP194
     T02390206 10239 20206 51004=
KIGX 081156Z AUTO 05003KT 5SM HZ CLR 27/19 A3001 RMK AO2 SLP154
     7//// T02720189 10272 20228 51012=
KISO 081155Z 02006KT 3SM HZ CLR 26/22 A2997=
####018003658####
SAUS70 KWBC 081200 RRA
METAR
KRKD 081155Z AUTO 21006KT 1/2SM OVC002 19/18 A3012 RMK AO1 10190
     20180 52010=
KAKR 081154Z AUTO 00000KT 5SM HZ CLR 24/19 A3009 RMK AO2 SLP179
     T02390194 10239 20189 50002=
KBHB 081155Z AUTO 20008KT 3SM OVC002 18/18 A3013 RMK AO1 10180
     20180 52010=
KBID 081155Z AUTO 09004KT 1/4SM OVC002 22/22 A3009 RMK AO1 10230
     20210 52014=
KBLM 081155Z AUTO 16005KT 10SM BKN090 24/19 A3008 RMK AO1 10240
     20240 52014=
KBOS 081154Z 17007KT 10SM CLR 23/19 A3010 RMK AO2 SLP191 T02330194
     10244 20217 51012=
KCEW 081153Z AUTO 00000KT 5SM BR CLR 22/21 A3005 RMK AO2 SLP171
     T02170211 10228 20200 53005=
KCOD 081155Z 13009KT 10SM CLR 11/02 A3033 RMK AO1 10140 20090
     54000=
KCRS 081153Z AUTO 07003KT 10SM OVC075 25/24 A3001 RMK AO2 SLP156
     60000 T02500239 10256 20250 53006=
KDDH 081154Z AUTO 00000KT 4SM HZ CLR 24/21 A3006 RMK AO2 SLP174
     T02390206 10239 20183 50005=
KDEQ 081153Z AUTO 08003KT 9SM SCT005 BKN055 24/23 A3004 RMK AO2
     SLP166 T02390233 10244 20239 51007=
KDHN 081153Z 00000KT 10SM CLR 24/23 A3008 RMK AO2 SLP179 T02440228
     10244 20228 53008=
KDSV 081154Z AUTO 13006KT 8SM CLR 23/19 A3009 RMK AO2 SLP193
     T02330194 10233 20211 50003=
KDYL 081154Z AUTO 00000KT 2 1/2SM BR CLR 24/23 A3004 RMK AO2
     SLP165 T02440228 10244 20211 52007 TSNO=
KEEN 081155Z AUTO 17007KT 10SM BKN020 BKN120 25/22 A3008 RMK AO1
     10250 20210 52010=
KEGE 081155Z 00000KT 10SM CLR 09/08 A3038 RMK AO1 10130 20090
     57003=
KFDR 081153Z AUTO 02007KT 10SM 23/22 A3004 RMK AO2 SLP157 70264
     T02330222 10239 20233 53006=
KFIG 081154Z AUTO 00000KT 4SM BR CLR 21/18 A3013 RMK AO2 SLP190
     T02060183 10211 20172 53004=
KFNL 081155Z AUTO 04003KT 7SM OVC008 14/13 A3032 RMK AO1 70008
     10140 20130 52003=
KGDV 081155Z AUTO 00000KT 10SM CLR 11/07 A3017 RMK AO1 10130 20110
     52003=
KGED 081154Z AUTO 09007KT 10SM CLR 26/23 A3003 RMK AO2 SLP169
     T02560228 10256 20239 51012=
KGNV 081153Z 00000KT 10SM CLR 23/21 A3001 RMK AO2 SLP160 T02280206
     10228 20189 53005=
KGUC 081155Z AUTO 36006KT 10SM CLR 07/03 A3045 RMK AO1 70006 10120
     20060 52003=
KGXY 081155Z AUTO 04004KT 5SM SCT011 OVC047 15/12 A3032 RMK AO1
     10160 20150 54000=
KGZH 081153Z AUTO 00000KT 8SM CLR 23/22 A3005 RMK AO2 SLP172 70001
     T02280222 10233 20217 53007=
KHDN 081155Z 14007KT 10SM CLR 08/05 A3033 RMK AO1 10130 20080
     52003=
KEFD 081150Z 14010KT 7SM -RA BKN010 OVC020 25/24 A2995=
KBAF 081153Z 17005KT 5SM HZ FEW011 SCT080 25/22 A3007 RMK AO2
     SLP178 T02500217 10250 20233 51012=
KTOI 081153Z 00000KT 7SM CLR 23/22 A3005 RMK AO2 SLP169 T02280222
     10233 20211 53006=
TIST 081153Z 08008KT 10SM CLR 29/24 A2999 RMK AO2 SLP156 T02940244
     10294 20272 50007=
TISX 081153Z 09011KT 10SM FEW023 29/24 A3000 RMK AO2 SLP157
     T02890244 10289 20272 51011=
TJMZ 081150Z 04006KT 6SM HZ FEW030 28/25 A3002=
K0A9 081155Z AUTO 00000KT 8SM BKN085 22/18 A3013 RMK=
K20V 081156Z AUTO 00000KT 10SM CLR 05/03 A3042 RMK AO2=
K5SM 081153Z AUTO 21003KT 10SM CLR 08/01 A3057 RMK AO2=
K7BM 081156Z AUTO 26004KT 10SM CLR 08/05 A3053 RMK AO2=
KBBP 081155Z AUTO 00000KT 10SM CLR 25/19 A2996 RMK AO2=
KBCT 081147Z AUTO 08007KT 10SM FEW028 SCT120 29/24 A2996=
KBDU 081156Z AUTO 00000KT 10SM BKN032 BKN043 14/12 A3032 RMK
     AO2=
KBJC 081157Z AUTO 35012KT 7SM SCT004 SCT025 12/11 A3033 RMK
     AO2=
KBKN 081155Z AUTO 36004KT 8SM CLR 22/21 A3005 RMK AO2=
KBMI 081156Z 00000KT 3SM BR SCT080 23/22 A3006 RMK AO2 53006 60010
     70010 T02330222 10238 20222 SLP164 $=
####018000230####
SAUS80 KWBC 081200 CCA
METAR
KTRI 081153Z 00000KT 4SM HZ FEW070 23/19 A3012 RMK AO2 SLP179
     T02280194 10244 20194 53008=
KTYS 081153Z 00000KT 6SM HZ CLR 24/19 A3008 RMK AO2 SLP172
     T02390194 10261 20222 53008=
####018000085####
SAHW31 PWAK 081157
METAR PWAK 081156Z 07013KT 8SM SKC 27/27 A2999 
RMK AO2A
=
####018003689####
SAUS80 KWBC 081200
METAR
KNAK 081154Z AUTO 12005KT 2 1/2SM HZ CLR 27/23 A3001 RMK AO2
     SLP165 6//// 7//// T02670233 10289 20256 TSNO=
KCAR 081154Z AUTO 19005KT 8SM CLR 24/21 A3002 RMK AO2 SLP165
     T02390206 10239 20211 51008=
KMTP 081154Z AUTO VRB03KT 24/20 A3009 RMK AO2 SLP188 T02390200
     10239 20206 51009 PWINO TSNO=
KRNM 081153Z AUTO 31003KT 5SM BR OVC004 14/13 A2990 RMK AO2 CIG
     002V006 SLP115 T01390128 10150 20139 55001 TSNO=
PHOG 081154Z AUTO 06011KT 10SM OVC060 24/17 A3001 RMK AO2 SLP166
     70001 T02390172 10250 20233 58012 TSNO=
KAVP 081154Z 00000KT 6SM HZ CLR 24/19 A3008 RMK AO2 SLP173
     T02390189 10239 20200 51008 $=
K12N 081154Z AUTO 00000KT 25/22 A3006 RMK AO2 SLP169 T02500217
     10250 20211 51007 PWINO TSNO=
KFWA 081154Z 17003KT 8SM FEW060 24/21 A3006 RMK AO2 SLP172
     T02440206 10261 20222 50002=
KROC 081154Z 21006KT 8SM CLR 24/20 A3006 RMK AO2 SLP173 T02440200
     10244 20222 50004=
KSYR 081154Z 13003KT 10SM CLR 26/21 A3005 RMK AO2 SLP170 T02560211
     10256 20222 53003=
KGSO 081154Z 04003KT 5SM HZ FEW095 27/18 A3004 RMK AO2 SLP158
     T02720178 10278 20244 51010=
KORH 081154Z 16007KT 7SM OVC009 23/21 A3012 RMK AO2 CIG 006V012
     SLP194 T02330211 10233 20217 51007=
KPVD 081151Z 16004KT 10SM BKN008 23/21 A3010=
KACY 081154Z 13003KT 8SM FEW060 25/22 A3004 RMK AO2 RAE1058B21E39
     SLP172 P0001 60001 70001 T02500222 10256 20228 51008=
KBUF 081154Z 22003KT 8SM FEW090 25/19 A3005 RMK AO2 SLP172 ACC S
     T02500194 10250 20217 51001=
KCOS 081154Z 16005KT 10SM CLR 13/11 A3038 RMK AO2 SLP222 70044
     T01330106 10144 20128 58005=
KLAX 081153Z 29003KT 9SM OVC012 16/13 A2990 RMK AO2 SLP124
     T01610128 10167 20161 55003=
K4BM 081154Z AUTO 23005KT 7SM 03/03 A3062 RMK AO2=
KBTV 081154Z 00000KT 7SM CLR 27/21 A3003 RMK AO2 SLP166 T02670211
     10267 20228 53006=
KCHA 081153Z 00000KT 10SM CLR 23/19 A3008 RMK AO2 SLP176 T02330194
     10250 20217 51009=
KCNK 081155Z AUTO 02006KT 10SM OVC037 19/18 A3016 RMK AO2 SLP201
     70066 T01940183 10206 20194 53008=
KDLH 081155Z 29006KT 10SM CLR 18/14 A3006 RMK AO2 SLP177 T01780139
     10189 20150 53005=
KGPI 081155Z AUTO 02006KT 10SM CLR 11/07 A3018 RMK AO2 SLP207
     T01110072 10128 20072 51005=
KIRK 081155Z AUTO 33003KT 10SM CLR 21/20 A3008 RMK AO2 SLP182
     70009 T02060200 10206 20189 51008=
KLIC 081155Z AUTO 13005KT 7SM FEW005 BKN041 13/13 A3035 RMK AO2
     SLP223 60000 T01330133 10144 20133 55000=
KLND 081153Z AUTO 00000KT 10SM CLR 09/03 A3034 RMK AO2 SLP229
     T00940033 10139 20072 53005=
KLXV 081153Z AUTO 00000KT 1/2SM FG OVC002 05/05 A3052 RMK AO2
     SLP215 70011 T00500050 10072 20050 56008 TSNO=
KMKG 081155Z 15004KT 5SM BR FEW043 OVC070 23/22 A3002 RMK AO2
     RAB02E47 SLP161 P0004 60021 70021 T02330217 10239 20228
     56005=
KMSN 081153Z VRB03KT 8SM BKN006 OVC010 22/21 A3003 RMK AO2 SLP162
     60000 70057 T02170206 10222 20211 51006=
KMWT 081153Z AUTO 00000KT 10SM FEW016 SCT022 BKN027 23/23 A3006
     RMK AO2 SLP167 70028 T02330228 10239 20228 52008 TSNO=
KRNO 081155Z 22003KT 10SM FEW120 BKN160 21/05 A3005 RMK AO2 SLP115
     T02060050 10261 20194 53004=
KSAV 081153Z 27005KT 10SM CLR 23/20 A3000 RMK AO2 SLP159 T02280200
     10228 20211 53005 $=
KSBN 081154Z 36003KT 6SM HZ BKN100 24/21 A3005 RMK AO2 SLP167
     T02440211 10250 20222 55001=
KSCK 081155Z AUTO 02004KT 10SM CLR 13/11 A2985 RMK AO2 SLP107
     T01330111 10178 20133 53002=
KSMS 081155Z AUTO 32004KT 9SM CLR 25/20 A2999 RMK AO2=
KTLH 081153Z 00000KT 10SM BCFG FEW010 23/22 A3003 RMK AO2 SLP168
     T02330217 10239 20217 53008=
####018000081####
SABZ20 SBBE 081200
METAR SBBE 081200Z 10008KT 9999 FEW013 SCT100 29/23 Q1014=
####018003686####
SAUS70 KWBC 081200
METAR
PHMK 081154Z AUTO 05006KT 10SM SCT042 21/18 A3003 RMK AO2 RAB02E17
     SLP171 P0000 60000 70001 T02110178 10228 20211 58008 TSNO=
KRUT 081155Z AUTO 13005KT 6SM CLR 24/20 A3006 RMK AO1 10240 20210
     52003=
KSDY 081155Z AUTO 21005KT 10SM BKN080 12/08 A3016 RMK AO1 10150
     20110 52007=
KSFM 081155Z 00000KT 4SM BKN008 OVC015 23/19 A3010 RMK AO1 10230
     20210 52010=
KSFZ 081155Z AUTO 14004KT 10SM CLR 23/21 A3009 RMK AO1 10230 20210
     52010=
KTAD 081154Z AUTO 00000KT 10SM OVC028 14/13 A3036 RMK AO2 SLP222
     70087 T01440128 10150 20139 50002=
KTPL 081155Z 07004KT 8SM BKN009 BKN013 OVC021 24/23 A3000 RMK AO1
     60001 10260 20240 52003=
KVAY 081154Z AUTO 00000KT 1 1/2SM BR OVC002 24/23 A3004 RMK AO2
     SLP172 T02390233 10244 20233 53010=
KVLD 081153Z 00000KT 10SM CLR 23/21 A3003 RMK AO2 SLP176 T02280211
     10228 20189 53008=
KVSF 081154Z AUTO 00000KT 4SM HZ OVC012 23/21 A3009 RMK AO2 SLP185
     T02330206 10233 20206 51008=
KWVL 081155Z AUTO 18006KT 2 1/2SM OVC003 21/19 A3007 RMK AO1 10210
     20210 52010=
KWWD 081155Z AUTO 10SM FEW060 SCT070 BKN080 24/23 A3004 RMK AO1
     10240 20230 52010=
KHYI 081155Z AUTO 04006KT 5SM BKN018 OVC025 25/24 A2995 RMK AO1
     54000=
KILE 081155Z 09005KT 10SM BKN006 OVC016 24/22 A2999 RMK AO1 10250
     20240 52007=
KIPT 081154Z 32003KT 7SM CLR 23/18 A3007 RMK AO2 SLP176 T02330178
     10233 20189 51005=
KIZG 081154Z AUTO 00000KT 6SM HZ BKN010 24/20 A3009 RMK AO2 SLP188
     T02440200 10244 20206 53008=
KJAC 081155Z AUTO 00000KT 10SM CLR 04/M01 A3037 RMK AO1 10140
     20040 52014=
KJST 081154Z AUTO 00000KT 4SM HZ CLR 22/17 A3016 RMK AO2 SLP193
     T02220167 10222 20189 53005=
KLCI 081155Z AUTO 20003KT 6SM FEW013 SCT025 OVC045 24/20 A3008 RMK
     AO1 10240 20220 52010=
KLEW 081155Z 17006KT 2 1/2SM OVC003 21/20 A3011 RMK AO1 10210
     20200 52007=
KLWM 081154Z 17005KT 10SM BKN015 OVC040 25/20 A3010 RMK AO2 SLP192
     T02500200 10250 20233 51009=
KMGJ 081154Z AUTO 00000KT 5SM HZ FEW110 26/21 A3005 RMK AO2 SLP172
     T02560211 10256 20206 51008=
KMIV 081154Z AUTO 12003KT 6SM BR FEW110 24/22 A3002 RMK AO2 SLP163
     T02440222 10244 20233 52009=
KMJX 081155Z AUTO 00000KT 10SM FEW065 SCT075 BKN090 24/21 A3005
     RMK AO1 10240 20230 52014=
KMSV 081155Z AUTO 00000KT 7SM CLR 24/20 A3011 RMK AO1 10240 20200
     52007=
KMVL 081154Z AUTO 19003KT 4SM HZ CLR 24/21 A3007 RMK AO2 SLP179
     T02440211 10244 20194 50002=
KMWC 081154Z 21004KT 10SM BKN022 BKN036 BKN055 21/20 A3002=
KOCH 081155Z AUTO 09006KT 9SM CLR 24/19 A3002 RMK AO1 10240 20240
     52007=
KODO 081153Z AUTO 02006KT 5SM BR OVC003 21/20 A3011 RMK AO2 SLP152
     60020 70020 T02060200 10222 20206 53008=
KPHL 081154Z 13006KT 4SM HZ FEW008 SCT150 26/23 A3003 RMK AO2
     SLP169 T02560228 10267 20244 51006 $=
KPNE 081154Z 12004KT 2 1/2SM BR OVC002 24/23 A3005 RMK AO2 CIG
     001V006 SLP175 T02440233 10261 20239 51006=
KPNS 081153Z 00000KT 8SM CLR 26/24 A3003 RMK AO2 SLP170 T02560244
     10256 20239 53005=
KPQI 081155Z AUTO 13007KT 10SM CLR 23/19 A3001 RMK AO1 10230 20210
     52010=
KPRX 081155Z 13007KT 4SM BKN003 OVC031 24/22 A3004 RMK AO1 10240
     20240 52007=
KPSF 081154Z AUTO 00000KT 4SM HZ CLR 23/20 A3009 RMK AO2 SLP156
     T02330200 10233 20189 51008=
KPTW 081154Z AUTO VRB03KT 4SM HZ CLR 27/20 A3005 RMK AO2 SLP171
     T02670200 10267 20233 53007 $=
KPWG 081155Z AUTO 09005KT 10SM FEW028 SCT100 SCT120 25/22 A3001
     RMK AO1 10260 20250 52007=
KRDG 081154Z 00000KT 8SM CLR 27/21 A3002 RMK AO2 SLP167 T02720211
     10272 20228 50004=
####018001027####
SAUS70 KWBC 081200 RRE
METAR
KELZ 081156Z AUTO 00000KT 4SM BR CLR 22/20 A3016 RMK AO2 SLP198
     T02170200 10222 20178 51002=
KSGH 081156Z 00000KT 3SM BR CLR 23/22 A3011 RMK AO2 51006
     T02330222 10233 20194 SLP187=
KSLE 081156Z AUTO 14005KT 10SM CLR 14/11 A2990 RMK AO2 SLP125
     T01440111 10267 20144 53015=
KSRC 081156Z AUTO 19004KT 10SM CLR 24/23 A3008 RMK AO2 TSNO 53006
     T02440227 10244 20227 SLP187=
KTPH 081156Z AUTO 36009KT 10SM CLR 13/M03 A3011 RMK AO2 SLP119
     T01331033 10194 20133 53005=
KUKI 081156Z AUTO 00000KT 10SM CLR 12/10 A2990 RMK AO2 SLP118
     T01220100 10178 20122 55001=
KWJF 081156Z 07005KT 10SM CLR 13/01 A2990 RMK AO2 SLP106 T01330011
     10222 20133 53004=
KY51 081155Z AUTO 32008KT 3SM OVC005 20/20 A3007 RMK AO1 7////
     T02010197 10220 20189=
PAAK 081156Z AUTO 06013G22KT 10SM SCT024 BKN060 OVC120 07/04 A2956
     RMK AO1 10070 20070 57020 PNO=
PAHP 081156Z AUTO 34008KT 10SM CLR 09/07 A3004 RMK AO1 10140 20090
     57010 PNO TSNO=
####018003475####
SAUS80 KWBC 081200 RRA
METAR
KDRA 081155Z AUTO 32003KT 10SM CLR 19/M11 A2995 RMK AO2 SLP089
     T01941111 10261 20189 53009 TSNO=
KCAO 081155Z AUTO 36009KT 10SM -RA OVC100 16/13 A3030 RMK AO2
     RAB00E12B55 SLP202 P0000 60013 70089 T01560133 10161 20150
     50004 TSNO=
KINL 081155Z AUTO 26004KT 10SM CLR 15/14 A3001 RMK AO2 SLP162
     T01500139 10150 20117 53004=
KMBG 081155Z AUTO 00000KT 10SM CLR 13/11 A3015 RMK AO2 SLP204
     T01280106 10144 20106 51007 TSNO=
KRFD 081154Z 22004KT 6SM BR FEW006 SCT046 OVC180 22/21 A3005 RMK
     AO2 SLP171 60002 70004 T02220211 10228 20217 51013=
KANJ 081155Z AUTO 25005KT 2SM -RA BR OVC004 21/19 A2996 RMK AO2
     RAE08B29 SLP140 P0001 60010 70010 T02060194 10222 20200
     53007=
KCHS 081156Z 29006KT 7SM CLR 25/20 A2997 RMK AO2 SLP149 T02500200
     10250 20239 53005=
KAST 081155Z AUTO 24004KT 6SM BR OVC003 12/11 A2995 RMK AO2 SLP142
     T01220111 10122 20117 52005=
KHON 081155Z AUTO 23004KT 10SM CLR 16/14 A3015 RMK AO2 SLP206
     T01610139 10178 20150 53004=
TJSJ 081156Z 08006KT 10SM FEW026 SCT034 28/25 A3000 RMK AO2 SLP159
     T02780250 10283 20267 51009=
KPHP 081155Z AUTO 27007KT 10SM CLR 12/09 A3022 RMK AO2 SLP222
     T01170094 10150 20111 53004 TSNO $=
KJAX 081156Z 24003KT 10SM CLR 22/21 A3001 RMK AO2 SLP162 T02170206
     10217 20189 53007=
KAAT 081155Z AUTO 00000KT 10SM CLR 08/07 A3008 RMK AO2 SLP146
     70001 T00780067 10189 20078 53004 TSNO=
KABQ 081156Z 05008KT 10SM BKN100 OVC200 20/09 A3027 RMK AO2 SLP166
     T02000094 10206 20189 53006=
KSHV 081156Z 00000KT 7SM SCT160 BKN280 24/23 A3004 RMK AO2 SLP169
     70057 T02440233 10256 20239 53010=
PADK 081156Z 04010KT 10SM OVC011 07/06 A2952 RMK AO1 10070 20070
     57024 PNO=
KSAV 081153Z 27005KT 10SM CLR 23/20 A3000 RMK AO2 SLP159 T02280200
     10228 20211 53005 $=
KSYR 081154Z 13003KT 10SM CLR 26/21 A3005 RMK AO2 SLP170 T02560211
     10256 20222 53003=
KBIH 081156Z AUTO 32005KT 10SM CLR 13/02 A3000 RMK AO2 SLP107
     T01280022 10217 20128 53007 TSNO=
KROC 081154Z 21006KT 8SM CLR 24/20 A3006 RMK AO2 SLP173 T02440200
     10244 20222 50004=
K2WX 081156Z AUTO 23005KT 12/07 A3017 RMK AO1 SLP207 T01220072
     10139 20111 53006=
KP28 081156Z AUTO 00000KT 21/21 A3012 RMK AO2 SLP182 70018
     T02110206 10228 20211 53004 PWINO TSNO=
KINW 081156Z AUTO 22008KT 10SM CLR 18/01 A3012 RMK AO2 SLP115
     T01830006 10267 20183 53010=
KMOB 081156Z 00000KT 9SM MIFG FEW020 24/23 A3005 RMK AO2 SLP172
     T02440233 10244 20222 51007=
KOFK 081156Z AUTO 27003KT 10SM FEW090 17/15 A3021 RMK AO2 SLP222
     T01670150 10167 20156 51012=
KBZN 081156Z 00000KT 10SM CLR 07/03 A3029 RMK AO2 SLP234 7////
     T00670033 10128 20061 53009=
KDVK 081157Z AUTO 00000KT 5SM 22/19 A3010 RMK AO1=
KSFO 081156Z 28010KT 10SM OVC008 13/11 A2992 RMK AO2 SLP133
     T01330106 10144 20133 55002=
TJSJ 081156Z 08006KT 10SM FEW026 SCT034 28/25 A3000 RMK AO2 SLP159
     T02780250 10283 20267 51009=
KP60 081156Z AUTO 32003KT M01/M02 A3045 RMK AO2 SLP268 T10061017
     10044 21006 53005 PWINO FZRANO TSNO=
KP53 081156Z AUTO 00000KT 18/18 A2999 RMK AO2 SLP153 60055 70164
     T01830178 10194 20178 53005 PWINO TSNO=
KMEH 081156Z AUTO 00000KT 10SM CLR 05/04 A3012 RMK AO2 SLP181
     T00500044 10117 20050 53002 TSNO=
KGNA 081156Z AUTO 25003KT 18/16 A2999 RMK AO2 SLP151 60001 70007
     T01830161 10194 20167 51007 PWINO TSNO=
####018003672####
SAUS70 KWBC 081200 RRB
METAR
KBOK 081156Z AUTO 00000KT 1 1/4SM BR OVC002 09/09 A2998 RMK AO2
     53002 T00880088 10100 20088 SLP152 $=
KBVI 081147Z 00000KT 4SM HZ SCT060 24/21 A3013=
KCCU 081156Z AUTO 18020KT 10SM CLR 07/01 A3062 RMK AO2=
KCIC 081155Z AUTO 13005KT 10SM CLR 20/13 A2983 RMK AO1=
KCMR 081155Z AUTO 16007KT 10SM CLR 13/02 A3026 RMK AO1=
KEAT 081155Z AUTO 30007KT 10SM CLR 17/06 A3004 RMK AO2 SLP163
     T01720061 10261 20167 51006=
KGGE 081155Z AUTO 29006KT 10SM CLR 25/21 A2994 RMK AO2=
KHVS 081155Z AUTO 00000KT 10SM CLR 25/20 A2998 RMK AO2=
KLLJ 081155Z AUTO 00000KT 10SM FEW090 07/00 A3027 RMK AO2 SLP204
     T00720000 10139 20067 51012=
KMAO 081155Z AUTO 34003KT 10SM CLR 25/19 A2995 RMK AO2=
KNQA 081155Z COR 00000KT 10SM FEW250 24/23 A3008 RMK=
KOWB 081156Z 00000KT 10SM FEW110 27/23 A3007 RMK AO2 53004 60000
     T02720233 10272 20250 RAB29E40 P0000 SLP177=
KRCE 081155Z AUTO 04004KT 4SM BR OVC002 22/22 A3009 RMK AO2=
KSGR 081153Z 08004KT 9SM FEW008 BKN025 OVC070 26/24 A2993 RMK AO2
     RAB37E47 SLP142 P0000 60000 70034 T02610239 10261 20256
     53008=
KSRR 081155Z AUTO 00000KT 10SM BKN002 OVC019 13/12 A3036 RMK
     AO2=
KTZR 081150Z 00000KT 4SM HZ SKC 23/21 A3009=
KWYS 081150Z AUTO 00000KT 10SM CLR M02/M03 A3038 RMK AO2=
KMSY 081153Z 09003KT 9SM FEW016 SCT250 27/23 A3002 RMK AO2 SLP168
     T02670233 10272 20261 53006=
KBRO 081153Z 31005KT 10SM FEW020 26/25 A2977 RMK AO2 SLP078 60001
     70037 T02610250 10272 20261 56002=
KFLL 081153Z 08007KT 10SM CLR 29/24 A2994 RMK AO2 SLP138 T02890239
     10289 20278 53008=
KJFK 081151Z 14004KT 5SM BR OVC005 25/23 A3006 RMK AO2 SLP178
     T02500228 10256 20244 51006 $=
KMCO 081153Z 01005KT 10SM FEW250 24/21 A3000 RMK AO2 SLP157
     T02440206 10244 20211 53004=
KPBI 081153Z 08004KT 6SM -RA BR SCT022 BKN028CB BKN050 26/24 A2996
     RMK AO2 RAB16 SLP143 CB OHD MOV SW P0001 60001 70011
     T02610244 10278 20261 53011=
TIST 081153Z 08008KT 10SM CLR 29/24 A2999 RMK AO2 SLP156 T02940244
     10294 20272 50007=
TISX 081153Z 09011KT 10SM FEW023 29/24 A3000 RMK AO2 SLP157
     T02890244 10289 20272 51011=
PAHN 081154Z AUTO 00000KT 10SM CLR 11/10 A3018 RMK AO2 SLP223
     T01060100 10139 20100 57005 TSNO=
PAKN 081154Z 00000KT 10SM OVC060 09/09 A2990 RMK AO2 SLP125 60004
     70025 T00940089 10111 20094 58002=
PAWR 081154Z 06012G22KT 2SM -RA BR OVC008 12/11 A3008 RMK SLP186
     NOSPECI=
PASC 081153Z 24010KT 10SM OVC230 08/06 A3002 RMK AO2 SLP167 70003
     T00830061 10111 20083 51006=
KEFD 081150Z 14010KT 7SM -RA BKN010 OVC020 25/24 A2995=
KUCP 081156Z AUTO 00000KT 3/4SM BR VV001 21/19 A3011 RMK AO2 51004
     T02050194 10205 20177 SLP201 $=
KSDF 081156Z 15003KT 4SM HZ FEW120 SCT150 26/21 A3006 RMK AO2
     SLP172 T02560211 10289 20250 50004=
KHFF 081155Z AUTO 34003KT 10SM CLR 25/18 A2999 RMK AO2 SLP151
     T02500176 10250 20212 51008 $=
PAAK 081156Z AUTO 06013G22KT 10SM SCT024 BKN060 OVC120 07/04 A2956
     RMK AO1 10070 20070 57020 PNO=
PABL 081156Z AUTO 00000KT 10SM CLR 06/04 A3015 RMK AO1 10160 20060
     57003 PNO=
PABV 081156Z AUTO 00000KT 10SM FEW060 FEW080 BKN090 11/07 RMK AO1
     10150 20110 PNO=
PADL 081156Z 31006KT 10SM OVC044 10/08 A2997 RMK AO1 10110 20100
     57003 PNO TSNO=
PAEM 081156Z AUTO 00000KT 10SM OVC070 12/09 A3004 RMK AO1 10140
     20110 57003 PNO=
PAFE 081156Z AUTO 08004KT 10SM CLR 10/08 A3017 RMK AO1 10130 20090
     57003 PNO=
PAFM 081156Z AUTO 34003KT 10SM CLR 12/08 A3009 RMK AO1 10190 20120
     57007 PNO=
PAGL 081156Z AUTO 35011G16KT 10SM CLR 16/08 A3013 RMK AO1 57007
     PNO=
####018000224####
SAUS44 KFWD 081157
MTRNQI
METAR KNQI 081156Z 01005KT 10SM TS SCT014CB BKN140 BKN280 27/24 
A2983 RMK AO2 SLP097 OCNL LTGICCG NE-E TSB28RAE19 TS NE-E MOV W CB 
DSNT S P0006 60017 70017 T02670244 10272 20267 51003 $
####018000136####
SAUS44 KFWD 081157
MTRHLR
METAR KHLR 081156Z AUTO 07004KT 10SM OVC011 25/ A3000 RMK AO2 SLP150 
60000 T0250 10261 20250 53004 $
####018000126####
SAUS42 KCAE 081157
MTRCAE
METAR KCAE 081156Z 27003KT 10SM CLR 26/20 A2999 RMK AO2 SLP151 
T02610200 10267 20228 53004
####018000445####
SPXX60 KWBC 081158
SPECI
KNXF 081154Z AUTO 35003KT 8SM OVC013 17/13 A2990 RMK AO2 TSNO=
KFAF 081152Z 08005KT 10SM BKN013 27/27 A2999 RMK AO2A CIG 011V018
     SLP157=
KRND 081151Z 05006KT 9SM BKN007 OVC013 25/24 A2994 RMK AO2A
     DZB1118E1134 OVC V BKN SLP129=
KWRI 081152Z AUTO 14006KT 3SM BR SCT005 25/25 A3002 RMK AO2 SCT V
     BKN SLP167 $=
KWRI 081153Z AUTO 14006KT 3SM BR BKN005 25/25 A3002 RMK AO2 SLP168
     $=
####018000513####
SADR31 MDSD 081200
METAR
MDPP 081200Z 00000KT 8000 DU FEW016 25/25 Q1016 DU/ALL QDS=
MDST 081200Z 00000KT 5000 BR OVC016 23/22 Q1016 BR/NE/NW/N=
MDCY 081200Z 00000KT 9999 FEW018 25/25 Q1015=
MDPC 081200Z 00000KT 9999 FEW018 26/24 Q1013=
MDJB 081200Z 00000KT 3000 BR FEW014CB SCT016 BKN300 26/25 Q1015 
CB/NE/E BR/SE/SW/W/NW=
MDLR 081200Z 10005KT 9999 FEW016 BKN280 25/24 Q1016=
MDBH 081200Z 09004KT 9999 FEW016CB FEW017 SCT300 28/26 Q1016 CB/SE=
MDSD 081200Z 04006KT 9999 FEW018 26/24 Q1015=
####018000289####
SANL31 EHDB 081155
METAR EHAM 081155Z 29006KT 210V350 CAVOK 24/15 Q1019 NOSIG=
METAR EHBK 081155Z AUTO 27006KT 220V330 9999NDV NCD 30/11 Q1019
NOSIG=
METAR EHGG 081155Z AUTO 25010KT 210V280 9999NDV NSC 27/13 Q1018
NOSIG=
METAR EHRD 081155Z 28006KT 230V360 CAVOK 25/16 Q1019 NOSIG=
####018003691####
SAUS70 KWBC 081200 RRD
METAR
KISP 081156Z 13009KT 7SM BKN008 BKN011 OVC120 25/21 A3005 RMK AO2
     SLP174 60000 T02500211 10256 20244 51012=
KITH 081156Z 00000KT 7SM CLR 24/20 A3010 RMK AO2 50002 T02440200
     10238 20194 SLP185=
KIWA 081156Z AUTO 12006KT 10SM CLR 29/05 A2982 RMK AO2=
KJMS 081156Z AUTO 00000KT 10SM CLR 14/13 A3010 RMK AO2 SLP191
     T01390133 10150 20106 53005=
KJXN 081156Z 00000KT 8SM CLR 24/22 A3006 RMK AO2 SLP170 T02390217
     10239 20206 51005=
KLAS 081156Z 21003KT 10SM SCT150 27/M04 A2982 RMK AO2 SLP067
     T02721039 10322 20272 53005=
KLNR 081156Z AUTO 00000KT 3SM BR OVC002 22/20 A3005 RMK AO2 CIG
     001V007 SLP165 60001 70101 T02170200 10217 20206 51013=
KM19 081156Z AUTO 10SM CLR 25/23 A3008 RMK AO2 51007 T02500233
     10266 20238 SLP181=
KMDT 081156Z 00000KT 3SM HZ CLR 27/22 A3003 RMK AO2 SLP165
     T02720222 10272 20244 53007=
KMQY 081156Z 00000KT 10SM CLR 25/23 A3009 RMK AO2 51006 T02500227
     10266 20227 SLP179=
KMRH 081156Z AUTO 06008G15KT 7SM CLR 28/23 A2993 RMK AO2 SLP135
     T02830228 10283 20250 53009 TSNO=
KRDM 081156Z AUTO 00000KT 10SM CLR 11/02 A3007 RMK AO2 SLP159
     T01060022 10211 20078 53004 $=
KSBP 081156Z AUTO 28004KT 6SM BR OVC005 13/12 A2992 RMK AO2 SLP129
     T01280117 10139 20128 53002 $=
KSDF 081156Z 15003KT 4SM HZ FEW120 SCT150 26/21 A3006 RMK AO2
     SLP172 T02560211 10289 20250 50004=
K04W 081154Z AUTO 26003KT 10SM CLR 17/16 A3008 RMK AO2 T01700162
     10194 20151=
K1A6 081155Z AUTO 00000KT 1/4SM FG OVC001 21/21 A3012 RMK AO2=
K1M4 081156Z AUTO 00000KT 10SM CLR 24/22 A3012 RMK AO2 52008
     T02380216 10238 20216 SLP195=
K21D 081158Z AUTO 00000KT 10SM CLR 18/17 A3010 RMK AO2=
KAIG 081155Z AUTO 33003KT 3/4SM BR OVC001 18/18 A3003 RMK AO2=
KAND 081156Z AUTO 00000KT 10SM CLR 24/21 A3004 RMK AO2 SLP159
     T02390211 10239 20211 53007 PWINO $=
KART 081156Z AUTO 19003KT 7SM CLR 26/22 A3003 RMK AO2 SLP163 7////
     T02610217 10261 20217 51005=
KBED 081156Z 17006KT 8SM BKN016 25/21 A3008 RMK AO2 SLP196
     T02500206 10250 20233 51012=
KBJI 081154Z AUTO 25007KT 10SM CLR 16/13 A3006 RMK AO2=
KBJJ 081156Z AUTO 00000KT 2 1/2SM BR CLR 22/20 A3010 RMK AO2
     SLP185 T02170200 10217 20172 50003=
KBUU 081154Z AUTO 00000KT 7SM BKN070 21/21 A3003 RMK AO2=
KC29 081155Z AUTO 27004KT 10SM OVC004 22/20 A3005 RMK AO2 60001
     70005 T02150198 10221 20210=
KCEC 081156Z AUTO 25003KT 5SM BR OVC005 10/09 A2998 RMK AO2 SLP152
     T01000094 10106 20100 53002=
KCTB 081156Z AUTO 28004KT 10SM CLR 07/04 A3024 RMK AO2 SLP225
     T00670044 10144 20067 56001=
KCXY 081156Z 00000KT 6SM HZ CLR 27/21 A3004 RMK AO2 SLP168 7////
     T02720206 10272 20228 53007=
KD39 081154Z AUTO 27003KT 10SM CLR 18/16 A3011 RMK AO2 T01750160
     10175 20152=
KDAY 081156Z 00000KT 5SM HZ FEW090 26/20 A3010 RMK AO2 SLP184
     T02560200 10256 20217 50005=
KDIK 081156Z AUTO 00000KT 10SM CLR 10/08 A3016 RMK AO2 SLP207
     T01000083 10128 20083 53003=
KDLL 081155Z AUTO 28003KT 5SM BR SCT004 BKN022 BKN027 22/21 A3004
     RMK AO2=
KDUG 081156Z AUTO 08007G17KT 10SM CLR 24/12 A3004 RMK AO2 PK WND
     08027/1103 SLP089 60000 7//// T02440117 10294 20244 53011
     $=
KDUJ 081156Z AUTO 00000KT 4SM HZ SCT065 22/18 A3013 RMK AO2 SLP187
     7//// T02170183 10244 20189 53006=
KEAU 081156Z 31003KT 10SM OVC041 19/18 A3005 RMK AO2 SLP174 60001
     70067 T01890178 10200 20183 53016=
KEED 081156Z AUTO 34007KT 10SM CLR 27/M02 A2976 RMK AO2 SLP043
     T02721022 10344 20267 53008 TSNO=
KEKO 081156Z AUTO 00000KT 10SM CLR 10/M01 A3013 RMK AO2 SLP151
     T01001011 10222 20100 53005=
####018000091####
SAUS70 KWBC 081100 RRN
METAR
KMYP 081056Z AUTO 19008KT 10SM CLR 03/02 A3074 RMK AO2=
####018000094####
SAUS70 KWBC 071200 RRO
METAR
KVTP 081200Z AUTO 10005KT 10SM SCT001 06/04 A3054 RMK AO2=
####018000242####
SAEO32 EGGY 081150
METAR EEKA 081150Z 31008KT 260V340 CAVOK 22/12 Q1016=
METAR EEKE 081150Z NIL=
METAR EEPU 081150Z 31006KT 200V360 9999 SCT026 25/19 Q1014=
METAR EETU 081150Z 32003KT 300V010 9999 VCSH FEW029CB SCT033 26/20
    Q1013=
####018000944####
SAXX60 KWBC 081200 RRD
METAR
KNMM 081156Z 28003KT 10SM FEW250 24/22 A3007 RMK AO2 SLP188
     T02440222 10244 20222 52010=
KNXF 081156Z AUTO 36003KT 8SM OVC013 17/13 A2990 RMK AO2 SLP209
     70001 T01670128 10172 20161 53001 TSNO=
KAQV 081156Z AUTO 00000KT 10SM FEW100 24/23 A3003 RMK AO2 SLP165
     T02390228 10250 20233 53010 $=
KBAN 081156Z AUTO 00000KT CLR 06/01 A3020 RMK AO2 SLP154 T00560006
     10122 20056 53002 TSNO $=
KPRN 081156Z AUTO 00000KT 10SM CLR 24/22 A3004 RMK AO2 SLP165
     T02440222 10256 20228 53005 $=
K9L2 081156Z AUTO 00000KT 10SM CLR 16/01 A2989 RMK AO2 SLP100
     T01610011 10250 20156 53006 $=
PACZ 081155Z AUTO 07009KT 10SM 11/09 A3004 RMK AO1 T01060095=
PALU 081155Z AUTO 20024KT 10SM CLR 12/02 A3006 RMK AO1
     T01220023=
PAIM 081155Z AUTO 29005KT 10SM CLR 10/07 A3008 RMK AO1
     T01000067=
PATL 081155Z AUTO 04005KT 10SM CLR 14/07 A2999 RMK AO1
     T01390067=
####018000192####
SAUS44 KCRP 081157
MTRNGP
METAR KNGP 081156Z 07003KT 10SM -RA BKN039 BKN050 28/26 A2982 RMK 
AO2 SLP098 TCU N TCU DSNT NE AND W WR// P0002 60012 70015 T02790263 
10289 20278 53006 $
####018000369####
SAEM31 KWBC 081130 RRC
METAR
LOWG 081150Z VRB03KT CAVOK 27/11 Q1022 NOSIG=
LOWI 081150Z 08006KT 040V140 9999 FEW080 27/14 Q1021 NOSIG=
LOWK 081150Z VRB02KT 9999 FEW060 25/10 Q1022 NOSIG=
LOWL 081150Z 07006KT 360V140 CAVOK 24/10 Q1023 NOSIG=
LOWS 081150Z VRB02KT 9999 FEW070 25/08 Q1022 NOSIG=
LOWW 081150Z 35005KT 310V030 9999 FEW055 23/10 Q1023 NOSIG=
####018000201####
SAEN31 KWBC 081150 RRA
METAR
EFHF 081150Z 36004KT 300V110 9999 FEW042TCU SCT050 28/18 Q1013=
EFIV 081150Z AUTO 10002KT CAVOK 20/10 Q1016=
EFKE 081150Z AUTO 20007KT 170V240 CAVOK 21/13 Q1015=
####018000135####
SAIY31 KWBC 081050 RRE
METAR
LIBR 081145Z /////KT CAVOK 25/13 Q1018 NOSIG=
LIEE 081145Z 15011KT 9999 FEW020 28/21 Q1019 NOSIG=
####018000534####
SAIY31 KWBC 081150 RRA
METAR
LIBD 081150Z 36015KT CAVOK 25/11 Q1020=
LICC 081150Z 10012KT 8000 NSC 28/21 Q1018=
LICJ 081150Z 04013KT 9999 FEW018 28/23 Q1018=
LIEA 081150Z 18005KT 140V210 9999 FEW025 32/21 Q1019=
LIEO 081150Z 05012KT 030V090 CAVOK 30/21 Q1019=
LIMC 081150Z VRB03KT 9999 FEW035 28/15 Q1022 NOSIG=
LIME 081150Z 11006KT 060V180 9999 BKN050 26/15 Q1022=
LIMF 081150Z VRB01KT 9999 BKN060 26/16 Q1023=
LIMJ 081150Z 16005KT 9999 FEW035 29/25 Q1020=
LIML 081150Z 17007KT 9999 FEW030 27/16 Q1021 NOSIG=
####018000275####
SAIY32 KWBC 081050 RRC
METAR
LIPH 081145Z 16005KT 9999 SCT025 28/21 Q1022=
LIPR 081145Z 08011KT CAVOK 28/17 Q1021=
LIPX 081145Z 22002KT 9999 FEW040 29/13 Q1021=
LIRA 081145Z 23008KT 170V310 9999 SCT018 29/18 Q1019=
LIRP 081145Z 12004KT CAVOK 30/15 Q1020 NOSIG=
####018000355####
SAIY32 KWBC 081150 RRA
METAR
LIPB 081150Z 17012KT CAVOK 30/13 Q1020=
LIPE 081150Z 08007KT 030V150 CAVOK 29/14 Q1021=
LIPK 081150Z 07005KT CAVOK 28/10 Q1021=
LIPQ 081150Z 00000KT CAVOK 26/13 Q1022=
LIPZ 081150Z 13008KT 9999 FEW040 26/17 Q1022=
LIRF 081150Z 23013KT 190V250 CAVOK 29/17 Q1020 NOSIG=
LIRQ 081150Z VRB02KT CAVOK 31/13 Q1020=
####018000117####
SPJP41 KWBC 081158
SPECI
RJCJ 081147Z 16003KT 2000 -DZ BR BKN001 OVC002 17/16 Q1010 RMK
5ST001 8ST002 A2985=
####018000081####
SAIY43 KWBC 081050 RRC
METAR
LIPX 081145Z 22002KT 9999 FEW040 29/13 Q1021=
####018000087####
SAIY41 KWBC 081150 RRA
METAR
LIMC 081150Z VRB03KT 9999 FEW035 28/15 Q1022 NOSIG=
####018000464####
SANL31 KWBC 081150 RRA
METAR
EHDL 081155Z AUTO 20008KT 9999NDV NCD 30/12 Q1018 BLU=
EHEH 081155Z AUTO 20007KT 9999NDV FEW360 30/11 Q1018 BLU BLU=
EHGR 081155Z AUTO 21009KT 9999NDV NCD 30/11 Q1018 BLU BLU=
EHLW 081155Z AUTO 24007KT 9999NDV OVC067 22/17 Q1019 BLU BLU=
EHVK 081155Z AUTO 20007KT 9999NDV FEW070 31/11 Q1018 BLU BLU=
EHVL 081155Z AUTO 24011KT 9999NDV OVC058 21/16 Q1019 BLU=
EHWO 081155Z AUTO 30007KT 9999NDV NCD 27/12 Q1019 BLU BLU=
####018000127####
SANO41 KWBC 081150 RRA
METAR
ENHV 081150Z NIL=
ENLK 081150Z 26004KT 9999SCT045 BKN060 14/11 Q1011=
ENMH 081150Z NIL=
####018000087####
SANO42 KWBC 081150 RRA
METAR
ENNK 081150Z 06006KT 9999 -SHRA BKN050 15/12 Q1010=
####018000084####
SPUS31 KWBC 081158
SPECI
KOKC 081155Z 01004KT 10SM BKN014 BKN025 23/22 A3007=
####018000115####
SANO42 KWBC 081150 CCA
METAR
ENSH 081150Z 07005KT 340V120 9999 VCSH FEW030 BKN060 15/10 Q1010
     RESHRA=
####018000185####
SAUK31 KWBC 081150 CCA
METAR
EGCC 081150Z 22009KT 180V260 9999 FEW037 SCT044 20/10 Q1017
     NOSIG=
EGLL 081150Z 24006KT 200V290 9999 SCT021 SCT033 22/15 Q1019
     NOSIG=
####018000157####
SAUK41 KWBC 081150 RRA
METAR
EGDL 081150Z 23009KT 9999 FEW030 BKN250 21/10 Q1018 BLU NOSIG=
EGNT 081150Z 24011G22KT 200V270 9999 FEW038 20/08 Q1014=
####018000092####
SAUK32 KWBC 081150 RRA
METAR
EGNT 081150Z 24011G22KT 200V270 9999 FEW038 20/08 Q1014=
####018000070####
SABZ22 SBBR 081200
METAR SBBR 081200Z 01004KT CAVOK 19/09 Q1024 =
####018000131####
SAUS41 KAKQ 081157
MTRNCA
METAR KNCA 081156Z 03005KT 4SM HZ BKN180 26/23 A2994 RMK AO2 SLP140 
T02610228 10267 20233 53010
####018000122####
SAUS41 KCAR 081157
MTRGNR
METAR KGNR 081156Z AUTO 00000KT 19/19 A3009 RMK AO1 SLP183 T01940194 
10206 20189 51005
####018000133####
SAUS45 KTFX 081158
MTRGFA
METAR KGFA 081156Z AUTO 20004KT 10SM CLR 08/06 A3021 RMK AO2 SLP248 
T00830061 10128 20078 55000 $
####018000148####
SAUS41 KAKQ 081157
MTRNFE
METAR KNFE 081156Z AUTO 07004KT 1 1/2SM HZ FEW100 26/22 A2999 RMK 
AO2 SLP156 60000 T02610217 10261 20233 51013 $
####018000129####
SAUS45 KVEF 081158
MTRINS
METAR KINS 081156Z 00000KT 10SM CLR 18/M10 A2994 RMK AO2 SLP084 
T01831100 10278 20167 53007 $
####018000128####
SAUS46 KLOX 081158
MTRNXP
METAR KNXP 081156Z AUTO 31005KT CLR 24/01 A2992 RMK AO2 SLP093 
T02390011 10294 20233 53006 $
####018000164####
SAUS46 KLOX 081157
MTRNTD
METAR KNTD 081156Z AUTO 28006KT 9SM OVC011 14/13 A2990 RMK AO2 
SLP125 6//// 7//// T01440128 10156 20144 55001 TSNO PNO VISNO N $
####018000136####
SAUS46 KLOX 081157
MTRNID
METAR KNID 081156Z AUTO 00000KT FEW090 18/02 A2986 RMK AO2 SLP092 
T01780022 10289 20178 53010 TSNO $
####018000145####
SAUS46 KLOX 081158
MTRNFG
METAR KNFG 081156Z AUTO 00000KT 9SM BKN011 OVC017 16/14 A2990 RMK 
AO2 SLP123 T01560139 10161 20156 55001 TSNO
####018000148####
SAUS41 KAKQ 081157
MTRNTU
METAR KNTU 081156Z 08006KT 10SM CLR 26/23 A2998 RMK AO2 SLP153 60000 
T02560233 10261 20250 53010 CHINO RWY 05R $
####018000131####
SAUS45 KBOI 081158
MTRLWS
METAR KLWS 081156Z AUTO 00000KT 10SM CLR 15/07 A3004 RMK AO2 SLP163 
T01500072 10211 20139 53007
####018000139####
SAUS43 KEAX 081158
MTRCDJ
METAR KCDJ 081156Z AUTO 36003KT 22/21 A3008 RMK AO2 SLP176 70233 
T02170206 10217 20206 53007 PWINO TSNO
####018000132####
SAUS45 KLKN 081158
MTRWMC
METAR KWMC 081156Z AUTO 00000KT 10SM CLR 16/M05 A3007 RMK AO2 SLP133 
T01611050 10228 20161 53009
####018000140####
SAUS43 KFSD 081158
MTRFSD
METAR KFSD 081156Z 00000KT 10SM CLR 17/14 A3017 RMK AO2 SLP212 SCT 
ABV 120 T01670144 10172 20150 53006 $
####018000136####
SAUS46 KSGX 081157
MTRNJK
METAR KNJK 081156Z AUTO 20004KT 10SM CLR 23/16 A2970 RMK AO2 SLP072 
T02280161 10300 20217 52007 TSNO
####018000133####
SAUS43 KABR 081158
MTR8D3
METAR K8D3 081156Z AUTO 28008KT 19/14 A3010 RMK AO2 SLP177 T01890144 
10189 20172 50001 PWINO TSNO
####018000139####
SAUS45 KFGZ 081158
MTRFLG
METAR KFLG 081156Z AUTO 00000KT 10SM FEW120 10/00 A3026 RMK AO2 
SLP142 T01000000 10189 20100 53001 TSNO
####018000135####
SAUS46 KMFR 081158
MTRSXT
METAR KSXT 081156Z AUTO 02006KT 9SM CLR 19/10 A3002 RMK AO2 SLP098 
T01940100 10206 20189 55001 TSNO
####018000128####
SAUS46 KPQR 081158
MTRNUW
METAR KNUW 081156Z 00000KT 10SM CLR 14/11 A2997 RMK AO2 SLP152 
T01390106 10211 20133 53002 $
####018000151####
SAUS45 KPUB 081158
MTRSPD
METAR KSPD 081156Z AUTO 01005KT 16/14 A3030 RMK AO2 SLP203 P0003 
60026 70091 T01560144 10167 20144 51007 PWINO TSNO
####018000131####
SAUS45 KPSR 081157
MTRALK
METAR KALK 081156Z AUTO 08013KT 10SM CLR 22/11 A3009 RMK AO2 SLP085 
T02220106 10261 20217 53005
####018000139####
SAUS46 KSTO 081158
MTRNUQ
METAR KNUQ 081156Z AUTO 02003KT 10SM OVC011 15/12 A2992 RMK AO2 
SLP134 T01500117 10161 20150 56003 TSNO
####018000132####
SAPY SGAS 081200
METAR SGAS 081200Z 14007KT 8000  BKN008 OVC012
17/15 Q1016=
METAR SGES 081200Z 16005KT CAVOK 17/17  Q1016=
####018000134####
SAPY59 SGAS 081200
METAR SGAS 081200Z 14007KT 8000  BKN008 OVC012
17/15 Q1016=
METAR SGES 081200Z 16005KT CAVOK 17/17  Q1016=
####018000140####
SAUS42 KMLB 081158 COR
MTRDAB
METAR KDAB 081153Z 00000KT 10SM FEW020 SCT150 23/21 A3000 RMK AO2 
SLP158 T02330211 10233 20200 51004
####018000129####
SAYE20 OYAA 081200
METAR OYAA 081200Z 21012KT 6000 NSC 34/20 Q1001=
METAR OYSQ 081200Z 18047G57KT 9999 FEW018 32/23 Q1005=
####018000114####
SAPK31 OPKC 081155
METAR OPKC 081200Z 17012KTS 8000 SCT030 SCT100 34/24 Q1002 TEMPO
NE 30KTS TSRA FEW025CB=
####018000085####
SAUK33 EGGY 081150 RRB
METAR EGNS 081150Z 20009KT 9999 FEW025 17/11 Q1016 NOSIG=
####018000156####
SASW39 LSSW 081150 RRA
METAR LSMM 081150Z 25007KT 230V330 CAVOK 27/15 Q1022 RMK BLU=
METAR LSMP 081150Z AUTO 00000KT 9999NDV NCD 28/14 Q1021 RMK BLU=
####018000295####
SANL31 EHDB 081155
METAR EHAM 081155Z 29006KT 210V350 CAVOK 24/15 Q1019 NOSIG=
METAR EHBK 081155Z AUTO 27006KT 220V330 9999NDV NCD 30/11 Q1019
NOSIG=
METAR EHGG 081155Z AUTO 25010KT 210V280 9999NDV NSC 27/13 Q1018
NOSIG=
METAR EHRD 081155Z 28006KT 230V360 CAVOK 25/16 Q1019 NOSIG=
####018000072####
SACA01 KMSC 081157
METAR TJBQ 081150Z 08006KT 10SM SKC 28/28 A3001=
####018001779####
SAUS20 KNKA 081157
METAR K1P1 081155Z AUTO 00000KT 5SM BR CLR 24/23 A3007 RMK AO2 
     T02440232=
METAR KBIX 081155Z AUTO 03003KT 10SM CLR 25/25 A3004 RMK AO2 SLP173
      T02520252 10262 20246 53010=
METAR KBVU 081155Z AUTO 00000KT 10SM CLR 23/05 A2987 RMK AO2 =
METAR KE80 081155Z AUTO 24005KT 10SM CLR 18/12 A3025 RMK AO2 
     T01800120=
METAR KEDC 081155Z AUTO 05006KT -RA 24/24 A2997 RMK AO2 P0005 =
METAR KEIK 081155Z AUTO 30003KT 2SM BR OVC004 13/13 A3032 RMK AO2=
METAR KEOE 081155Z AUTO 00000KT 10SM CLR 23/20 A3006 RMK AO2=
METAR KFMH 081155Z AUTO 14009KT 10SM FEW010 SCT017 23/21 A3011 RMK 
     AO2 =
METAR KHFF 081155Z AUTO 34003KT 10SM CLR 25/18 A2999 RMK AO2 SLP151
      T02500176 10250 20212 51008 $=
METAR KHOB 081150Z 36005KT 10SM SCT043 BKN060 OVC075 19/18 A3017=
METAR KIFP 081155Z AUTO 02004KT 10SM CLR 28/M02 A2976 RMK AO2 =
METAR KMAN 081155Z AUTO 00000KT 10SM CLR 12/06 A3006 RMK AO1 =
METAR KMCF 081155Z AUTO 03003KT 10SM CLR 24/24 A3000 RMK AO2 SLP159
      70001 T02440240 10252 20221 53006=
METAR KMMT 081155Z 36003KT 10SM FEW100 25/21 A3000 RMK AO2A SLP158
      T02530213 10253 20210 53008=
METAR KMXF 081155Z AUTO 00000KT 10SM CLR 26/24 A3003 RMK AO2 SLP168
      T02630239 10278 20243 53006=
METAR KPVF 081155Z AUTO 08005KT 10SM FEW042 22/12 A2993 RMK AO1 =
METAR KRBW 081155Z AUTO 28004KT 10SM CLR 23/21 A2999 RMK AO2=
METAR KRCM 081155Z AUTO 35003KT 10SM OVC004 22/22 A3007 RMK AO2 
     P0001=
METAR KSGJ 081158Z 30005KT 10SM CLR 24/22 A3002 RMK AO2 SLP164 
    T02390222 10239 20217 53007=
METAR KSNC 081155Z AUTO 14005KT 8SM OVC004 22/ A3009 RMK AO2 =
METAR KTME 081155Z AUTO 03008KT 5SM CLR 25/25 A2994 RMK AO1 =
METAR KUOX 081155Z AUTO 00000KT 10SM CLR 23/21 A3009 RMK AO2 =
####018000084####
SPUS72 KWBC 081158
SPECI
KOKC 081155Z 01004KT 10SM BKN014 BKN025 23/22 A3007=
####018001752####
SAZZ40 KAWN 081200 RRG
METAR KAFF 081155Z AUTO 00000KT 10SM CLR 11/11 A3038 RMK AO2 SLP206
      60001 70011 T01140106 10133 20114 58004=
METAR KBKF 081155Z 14002KT 6SM BR FEW020 FEW120 SCT220 13/13 A3032
      RMK SLP224 70002 57003=
METAR KCVS 081155Z 02005KT 10SM FEW010 BKN120 16/15 A3022 RMK AO2A
      SLP196 70045 T01640150 10177 20164 53008 $=
METAR KFCS 081155Z AUTO 24007KT 10SM BKN032 14/10 A3035 RMK AO2 SLP206
      60000 T01380104 10143 20129 58007=
METAR KFRI 081155Z AUTO 02004KT 6SM BR FEW020 SCT160 22/22 A3010 RMK
      AO2 SLP182 70001 T02180215 10221 20212 50001=
METAR KGSB 081155Z 04005KT 8SM CLR 26/21 A2995 RMK AO2A SLP141 WND
      DATA ESTMD T02580210 10262 20235 53013 $=
METAR KHRT 081155Z 00000KT 10SM CLR 25/25 A3002 RMK AO2A SLP169 T02460246
      10248 20229 53006 $=
METAR KLSV 081155Z AUTO 11004KT 10SM CLR 24/M03 A2985 RMK AO2 SLP087
      T02401031 10319 20233 53008 PWINO=
METAR KLUF 081155Z 00000KT 10SM SCT170 27/05 A2978 RMK AO2A SLP053
      T02660053 10331 20253 53008 $=
METAR KPSM 081155Z 14007KT 10SM FEW080 BKN200 23/20 A3008 RMK AO2A
      SLP187 T02310203 10231 20210 51008=
METAR KTBN 081155Z 00000KT 9SM BKN060 BKN070 OVC085 23/21 A3008 RMK
      AO2A LTG DSNT N SLP168 70005 T02280211 10231 20219 53006 $=
METAR KVOK 081155Z 29004KT 10SM BKN010 20/20 A3004 RMK AO2A SLP168
      70020 52012=
METAR MDPC 081200Z 00000KT 9999 FEW018 26/24 Q1013=
METAR MDPP 081200Z 00000KT 8000 DU FEW016 25/25 Q1016 DU/ALL QDS=
METAR MDSD 081200Z 04006KT 9999 FEW018 26/24 Q1015=
METAR MDST 081200Z 00000KT 5000 BR OVC016 23/22 Q1016 BR/NE/NW/N=
METAR MUGM 081156Z 35007KT 9999 FEW100 BKN250 26/23 A2996 RMK SLP146
      70013 T02560228 10261 20244 56004=
####018000130####
SAUS44 KMEG 081158 COR
MTRTUP
METAR KTUP 081153Z 00000KT 10SM CLR 24/22 A3008 RMK AO2 SLP180 
T02440222 10256 20233 51007
####018000079####
SAYE20 OYMB 081200
METAR OYMB 081200Z 03020KT 3000 SA FEW030 41/M09 Q1004=
####018000075####
SAYE20 OYAS 081200
METAR OYAS 081200Z 17006G16KT 6000 NSC 34/23 Q1004=
####018000096####
SPCN46 CWAO 081157
SPECI CYSB 081157Z 18005KT 3/4SM R22/2800VP6000FT/N BR VV003 RMK FG8=

####018000130####
SAUS44 KBMX 081158 COR
MTRMGM
METAR KMGM 081153Z 26003KT 10SM CLR 26/23 A3003 RMK AO2 SLP166 
T02560233 10272 20233 53006
####018000136####
SAUS46 KMTR 081158
MTRMHS
METAR KMHS 081156Z AUTO 04003KT 10SM CLR 14/06 A3002 RMK AO2 SLP147 
T01390061 10200 20117 51007 TSNO
####018000160####
SAUS44 KLIX 081158 COR
MTRBTR
METAR KBTR 081153Z 08004KT 1 SM BR OVC003 24/23 A3002 RMK AO2 SFC 
VIS 1 SLP164 70070 T02390233 10250 20233 53009 RVRNO $
####018000173####
SAAK17 KAWN 081200 RRB
PALU SA 1155 AWOS CLR BLO 120 10 54/36/2024/006=
PASV SA 1155 AWOS 80 SCT 10 47/44/0000/995=
PATL SA 1155 AWOS CLR BLO 120 10 57/44/0405/999=
####018000133####
SAUS43 KUNR 081158
MTRD07
METAR KD07 081156Z AUTO 25004KT 13/08 A3021 RMK AO2 SLP223 T01330078 
10172 20122 51006 PWINO TSNO
####018000125####
SAUS42 KCHS 081158
MTRNBC
METAR KNBC 081156Z 27005KT 7SM CLR 26/19 A2999 RMK AO2 SLP155 
T02560194 10256 20228 53006
####018000461####
SAGL KAWN 081200
METAR BGBW 081150Z 26005KT 9999 FEW030 13/04 Q1008 RMK 1SC=
METAR BGCO 081150Z 02018KT 9999 SCT071 SCT120 BKN220 09/02 Q1008=
METAR BGJN 081150Z 32004KT 280V040 9999 0600NE PRFG FEW001 07/04 Q1009
      RMK 1ST=
METAR BGKK 081150Z VRB05KT 9999 FEW080 SCT120 08/03 Q1009=
METAR BGSF 081150Z VRB03KT 9999 FEW070 14/01 Q1008=
METAR BGTL 081155Z AUTO 00000KT 9999 CLR 05/05 A2983 RMK AO2 SLP106
      T00490048 10049 20037 57005=
####018001384####
SAXX70 KAWN 081200 RRD
METAR KQAE 081155Z 33009G17KT 9000 HZ CLR 45/07 A2963 RMK SLP028 57009=
METAR KQAY 081155Z AUTO 36017G25KT 4900 HZ FEW019 48/M01 A2951 RMK
      AO2 SLP987 60002 70001 T04781014 10483 20402 57019 $=
METAR KQBL 081155Z AUTO 00000KT 10SM CLR 25/24 A3006 RMK AO2 SLP179
      70138 T02500241 10251 20232 52006=
METAR KQDP 081155Z AUTO 21011G15KT 6SM CLR 37/10 A2985 RMK AO2 SLP996
      T03650099 10365 20295 57027 $=
METAR KQGV 081155Z 32026G34KT 4600 BLDU CLR 47/M08 A2955 RMK PK WND
      32036/46 SLP994 57014=
METAR KQHT 081155Z 24012G21KT 9999 FEW150 SCT200 32/02 A2993 RMK SLP099
      WND DATA ESTMD ALSTG/SLP ESTMD 55001=
METAR KQIU 081155Z AUTO VRB03KT 9999 FEW170 27/07 A3016 RMK AO2 SLP103=
METAR KQL5 081155Z 08009KT 9999 FEW150 39/15 A2957 RMK AO2A SLP967
      WND DATA ESTMD ALSTG/SLP ESTMD 56031=
METAR KQSR 081155Z 34017G27KT 9999 SCT080 SCT140 30/M01 A3011 RMK AO2A
      SLP010 WND DATA/ALSTG ESTMD 57016=
METAR KQTU 081155Z 27012KT 9999 CLR 45/M04 A2962 RMK SLP010 57012=
METAR KQTZ 081155Z 30009G20KT 9999 CLR 45/04 A2961 RMK SLP022 QNH1002MB
      ALSTG/SLP ESTMD WND DATA ESTMD 58005=
METAR KQWM 081155Z 33027G34KT 8000 BLDU CLR 47/M02 A2954 RMK PK WND
      33039/08 SLP990 QNH1000 57014=
METAR KQXR 081155Z AUTO 32014G22KT 7000 CLR 49/ A2946 RMK AO2 SLP976
      T0488 10415 20341 57014 $=
####018000091####
SAXX70 KAWN 081100 RRX
METAR KQFW 081140Z AUTO 17002KT 7SM OVC025 25/19 A2991 RMK A02=
####018000060####
SAUS45 KTFX 081158
MTR8S0
METAR K8S0 081055Z 26007KT 
####018000147####
SAUS41 KAKQ 081158
MTRAKQ
METAR KAKQ 081154Z AUTO 00000KT 2SM HZ FEW080 26/23 A3000 RMK AO2 
SLP156 7//// T02560228 10256 20228 51015 TSNO
####018000138####
SAUS41 KAKQ 081158
MTRRIC
METAR KRIC 081154Z 12005KT 4SM HZ FEW150 SCT250 27/22 A2999 RMK AO2 
SLP159 T02720222 10272 20239 51005
####018000148####
SAUS41 KAKQ 081158
MTRNXX
METAR KNXX 081156Z 00000KT 4SM HZ CLR 26/21 A3005 RMK AO2 PK WND 
33030/1106 SLP180 T02610211 10261 20228 53008 $
####018000132####
SPCN47 CWAO 081158
SPECI CYZE 081158Z AUTO 19007KT 4SM BR SCT004 BKN007 BKN130 20/20
 A2997 RMK SLP147 DENSITY ALT 1300FT=

####018000142####
SAUS41 KAKQ 081158
MTRWAL
METAR KWAL 081154Z 11008KT 10SM FEW010 BKN120 26/22 A3002 RMK AO2 
SLP162 60000 T02610217 10261 20244 51012
####018000082####
SABZ24 SBFI 081200
METAR SBFI 081200Z 22004KT 9999 FEW004 SCT100 17/15 Q1017=
####018000102####
SAAH10 OAKN 081200
METAR OAKN 081150Z 27008KT 9999 FEW150 41/02 Q1006 BLU NOSIG RMK A2973 DA7200=
####018002206####
SAUS20 KNKA 081158
METAR KRFD 081154Z 22004KT 6SM BR FEW006 SCT046 OVC180 22/21 A3005
     RMK AO2 SLP171 60002 70004 T02220211 10228 20217 51013=
METAR KROG 081157Z 17004KT 10SM OVC022 23/22 A3010 RMK AO2 SLP178 
    70024 T02330217 10239 20228 53010=
METAR KROS 081155Z AUTO 00000KT 10SM CLR 16/15 A3009 RMK AO2
     T01620152 10195 20145=
METAR KROX 081154Z AUTO 23004KT 10SM SCT085 15/13 A3002 RMK
     AO2=
METAR KRRT 081154Z AUTO 21006KT 10SM CLR 15/13 A3001 RMK AO2=
METAR KRZN 081154Z AUTO 26003KT 10SM CLR 17/16 A3008 RMK AO2 
     T01700156 10205 20151=
METAR KSAZ 081154Z AUTO 26004KT 10SM CLR 16/16 A3009 RMK AO2=
METAR KSGS 081153Z AUTO 32004KT 10SM CLR 19/16 A3010 RMK AO2 70002
     T01940162 10215 20179=
METAR KSHV 081156Z 00000KT 7SM SCT160 BKN280 24/23 A3004 RMK AO2
     SLP169 70057 T02440233 10256 20239 53010=
METAR KSME 081156Z AUTO 00000KT 2 1/2SM BR 22/20 A3010 RMK AO2=
METAR KSYN 081210Z AUTO 00000KT 10SM CLR 18/17 A3010 RMK AO2
     T01800167=
METAR KTEW 081153Z AUTO 00000KT 7SM CLR 23/21 A3005 RMK AO2=
METAR KTKC 081153Z AUTO 26004KT 10SM CLR 17/13 A3015 RMK AO2
     T01690131 10169 20152=
METAR KTOB 081154Z AUTO 00000KT 10SM CLR 18/16 A3012 RMK AO2=
METAR KTRI 081153Z 00000KT 4SM HZ FEW070 23/19 A3012 RMK AO2
     SLP179 T02280194 10244 20194 53008=
METAR KTWM 081153Z AUTO 29004KT 10SM CLR 17/13 A3002 RMK AO2=
METAR KTYS 081153Z 00000KT 6SM HZ CLR 24/19 A3008 RMK AO2 SLP172
     T02390194 10261 20222 53008=
METAR KULM 081155Z AUTO 27003KT 7SM CLR 15/13 A3013 RMK AO2=
METAR KUNI 081155Z AUTO 00000KT 5SM HZ CLR 23/18 A3009 RMK AO2 
     T02300177 10234 20211=
METAR KVES 081154Z AUTO 00000KT 5SM BR CLR 22/20 A3008 RMK AO2 
     T02200204=
METAR KVVV 081156Z AUTO 28007KT 10SM CLR 18/14 A3011 RMK AO2=
METAR KY63 081200Z AUTO 00000KT 10SM CLR 15/15 A3011 RMK AO2 
     T01540148=
METAR PACM 081156Z AUTO 00000KT 10SM CLR 11/09 A3007 RMK AO2 TSNO 
    58004 60037 70045 T01050088 10150 20105 SLP179 $=
METAR PAGN 081156Z AUTO 00000KT CLR RMK AO2 PWINO TSNO 5//// SLPNO $=
METAR PATQ 081156Z AUTO 25013KT 10SM CLR 08/03 A3003 RMK AO2 TSNO 
    58001 T00830033 10111 20083 SLP175 $=
####018002986####
SAUS20 KNKA 081158
METAR KABQ 081156Z 05008KT 10SM BKN100 OVC200 20/09 A3027 RMK AO2
     SLP166 T02000094 10206 20189 53006=
METAR KJAX 081156Z 24003KT 10SM CLR 22/21 A3001 RMK AO2 SLP162
     T02170206 10217 20189 53007=
METAR K14Y 081159Z AUTO 22005KT 10SM CLR 16/15 A3011 RMK AO2 
     T01630153 10163 20142=
METAR K29G 081154Z AUTO 00000KT 5SM CLR 23/21 A3010 RMK AO2
     T02290210 PWINO=
METAR KAEL 081150Z AUTO 33004KT 10SM CLR 17/16 A3011 RMK AO2=
METAR KAIT 081153Z AUTO 24003KT 10SM CLR 16/16 A3007 RMK AO2=
METAR KAJO 081156Z AUTO 34004KT 6SM BR FEW011 15/13 A2990 RMK AO2 
    55004 T01500133 10161 20122 SLP121 $=
METAR KARV 081152Z AUTO 33003KT 10SM CLR 17/16 A3006 RMK AO2 
     70090 T01730155 10195 20166=
METAR KAVP 081154Z 00000KT 6SM HZ CLR 24/19 A3008 RMK AO2 SLP173
     T02390189 10239 20200 51008 $=
METAR KBBB 081153Z AUTO 00000KT 10SM CLR 14/14 A3012 RMK AO2=
METAR KBWP 081151Z AUTO 28003KT 10SM CLR 15/14 A3011 RMK AO1 
     T01500139 10162 20135=
METAR KCHS 081156Z 29006KT 7SM CLR 25/20 A2997 RMK AO2 SLP149
     T02500200 10250 20239 53005=
METAR KCLI 081155Z AUTO 30005KT 4SM BR SCT006 SCT016 22/21 A3002 
     RMK AO2=
METAR KCMY 081155Z AUTO 00000KT 7SM BKN011 20/19 A3005 RMK AO2 
     70021 T01990189 10217 20185=
METAR KCVH 081150Z AUTO 21004KT 7SM OVC006 13/11 A2992 RMK AO1=
METAR KDIJ 081156Z AUTO 36006KT 10SM CLR 06/02 A3031 RMK AO2 53006 
    T00610022 10094 20044 SLP194 $=
METAR KDXX 081154Z AUTO 00000KT 10SM CLR 16/16 A3011 RMK AO2=
METAR KEFK 081155Z AUTO 19005KT 7SM CLR 24/20 A3007 RMK AO2=
METAR KEFT 081155Z AUTO 28005KT 10SM CLR 21/19 A3005 RMK AO2 
     70006 T02110191 10214 20205=
METAR KEGV 081152Z AUTO 36003KT 10SM CLR 18/18 A3004 RMK AO2 
     T01800179=
METAR KEKQ 081156Z AUTO 00000KT 2SM BR CLR 21/20 A3012 RMK AO2 51006 
    T02110200 10211 20183 SLP194=
METAR KELO 081153Z AUTO 22004KT 10SM CLR 15/14 A3002 RMK AO2=
METAR KETB 081152Z AUTO 00000KT 10SM SCT013 SCT018 22/21 A3001 
     RMK AO2 P0001 60004 70032 T02210206 10227 20213=
METAR KEVM 081152Z AUTO 26003KT 7SM CLR 15/13 A3002 RMK AO1=
METAR KEZS 081155Z AUTO 30005KT 7SM SCT005 SCT008 23/22 A3001 RMK 
     AO2 60003 70212 T02280215 10228 20218=
METAR KFBL 081154Z AUTO 29003KT 10SM CLR 17/15 A3012 RMK AO2=
METAR KFFM 081153Z AUTO 00000KT 10SM CLR 16/14 A3010 RMK AO2=
METAR KFGN 081154Z AUTO 26007KT 1/4SM -DZ VV002 16/13 A2998 RMK
     AO2=
METAR KFSO 081158Z AUTO 00000KT 7SM CLR 26/23 A3001 RMK AO2=
METAR KFWA 081154Z 17003KT 8SM FEW060 24/21 A3006 RMK AO2 SLP172
     T02440206 10261 20222 50002=
METAR KGDB 081153Z AUTO 00000KT 10SM CLR 15/14 A3014 RMK AO2
     T01460140 10148 20131=
METAR KGHW 081154Z AUTO 25005KT 10SM CLR 17/14 A3014 RMK AO2=
METAR KGLW 081153Z AUTO 00000KT 7SM CLR 23/21 A3008 RMK AO2 
     T02280206 10228 20196=
METAR KGSO 081154Z 04003KT 5SM HZ FEW095 27/18 A3004 RMK AO2
     SLP158 T02720178 10278 20244 51010=
####018002938####
SAUS20 KNKA 081158
METAR KGYL 081155Z AUTO 23003KT 10SM CLR 16/15 A3011 RMK AO2
     T01600146 10178 20142=
METAR KHCD 081152Z AUTO 00000KT 7SM CLR 14/14 A3012 RMK AO2
     T01430135=
METAR KHCO 081154Z AUTO 27003KT 10SM SCT070 15/14 A3006 RMK
     AO2=
METAR KHFJ 081155Z AUTO 00000KT 7SM SCT014 OVC018 23/22 A3005 RMK 
     AO1=
METAR KHZX 081151Z AUTO 00000KT 10SM CLR 16/15 A3007 RMK AO2=
METAR KIKW 081154Z AUTO 00000KT 7SM BKN090 OVC110 23/21 A3000 RMK
     AO2 T02320213 10232 20213=
METAR KJKJ 081154Z AUTO 19003KT 10SM CLR 16/14 A3008 RMK AO2=
METAR KJMR 081158Z AUTO 00000KT 10SM CLR 15/13 A3010 RMK AO2=
METAR KLCK 081155Z AUTO 19003KT 4SM BR CLR 24/22 A3008 RMK AO2 
     T02400220 10240 20212=
METAR KLJF 081152Z AUTO 24003KT 10SM CLR 18/16 A3012 RMK AO2=
METAR KLNL 081155Z AUTO 34003KT 10SM CLR 17/15 A3007 RMK AO2 
     70014 T01710147 10191 20165=
METAR KLRD 081156Z 02009KT 10SM OVC026 27/24 A2990 RMK AO2 53004 
    T02660244 10272 20261 SLP113 $=
METAR KLUM 081155Z AUTO 29005KT 10SM CLR 18/17 A3008 RMK AO2=
METAR KLVN 081148Z AUTO 28004KT 10SM CLR 17/17 A3011 RMK AO2=
METAR KLXL 081154Z AUTO 00000KT 4SM BR CLR 14/13 A3009 RMK AO2=
METAR KLYV 081158Z AUTO 00000KT 10SM CLR 13/12 A3017 RMK AO2=
METAR KM89 081156Z AUTO 00000KT 4SM BR OVC002 24/24 A3007 RMK AO2 
    53008 70027 T02440238 10244 20238 SLP194=
METAR KMDS 081145Z AUTO 27004KT 10SM CLR 15/15 A3018 RMK AO2=
METAR KMDZ 081155Z AUTO 32006KT 7SM BKN004 19/18 A3005 RMK AO2=
METAR KMGG 081155Z AUTO 27004KT 10SM CLR 18/16 A3012 RMK AO2
     T01750155 10179 20148=
METAR KMJQ 081152Z AUTO 27003KT 7SM CLR 15/15 A3016 RMK AO2=
METAR KMOX 081150Z AUTO 27004KT 10SM CLR 17/15 A3008 RMK AO2=
METAR KMRJ 081155Z AUTO 30003KT 1 1/4SM BR OVC003 22/20 A3006 RMK 
     AO2 60001 70051 T02160200 10216 20202=
METAR KMRT 081153Z AUTO 00000KT 5SM CLR 23/20 A3012 RMK AO2
     T02290199 10229 20201=
METAR KMVE 081154Z AUTO 00000KT 10SM CLR 17/15 A3011 RMK AO2=
METAR KMWM 081153Z AUTO 00000KT 7SM CLR 15/14 A3015 RMK AO2=
METAR KMWO 081155Z AUTO 00000KT 3SM BR CLR 23/22 A3009 RMK AO2=
METAR KOEO 081155Z AUTO 00000KT 10SM CLR 17/17 A3011 RMK AO2=
METAR KONA 081150Z AUTO 31004KT 10SM CLR 20/16 A3006 RMK AO2=
METAR KOVL 081154Z AUTO 29003KT 10SM CLR 14/13 A3012 RMK AO2
     T01400126 10140 20125=
METAR KPBI 081153Z COR 08004KT 6SM -RA BR SCT022 BKN028CB BKN050 
    26/24 A2996 RMK AO2 RAB16 SLP143 VIS N-NE 1 1/2 CB OHD-W-N-E MOV 
    W P0001 60001 70011 T02610244 10278 20261 53011=
METAR KPEX 081153Z AUTO 25004KT 7SM CLR 15/15 A3012 RMK AO2
     T01470146 10147 20116=
METAR KPNM 081153Z AUTO 27003KT 10SM CLR 16/15 A3010 RMK AO2=
METAR KPQN 081153Z AUTO 00000KT 10SM CLR 17/14 A3017 RMK AO2=
METAR KPVB 081153Z AUTO 26003KT 3/4SM OVC002 21/21 A3007 RMK AO1 
     70110 T02110205 10211 20196=
METAR KPWC 081153Z AUTO 00000KT 10SM CLR 12/12 A3009 RMK AO2=
####018001217####
SAAK41 KNKA 081158
METAR PACM 081156Z AUTO 00000KT 10SM CLR 11/09 A3007 RMK AO2 TSNO 
    58004 60037 70045 T01050088 10150 20105 SLP179 $=
METAR PAGM 081157Z AUTO 36005KT 10SM CLR 06/05 A3017 RMK VIA AWOS 
     PHONE =
METAR PAGN 081156Z AUTO 00000KT CLR RMK AO2 PWINO TSNO 5//// SLPNO $=
METAR PAHC 081156Z AUTO 21003KT 10SM CLR 09/09 A2998 RMK AO2 TSNO 
    50005 60000 T00940088 10144 20094 SLP156 $=
METAR PAIG 081156Z AUTO 00000KT 10SM BKN055 BKN075 BKN100 09/09 
    A2993 RMK AO2 PWINO TSNO 58003 70027 T00940088 10100 20088 BKN V 
    SCT SLP140 $=
METAR PAMO 081156Z AUTO 02009KT 10SM BKN050 OVC100 12/10 A3004 RMK 
    AO2 TSNO 58009 60000 70008 T01160100 10122 20094 BKN V SCT 
    SLP171 $=
METAR PAOH 081156Z AUTO 10003KT 10SM CLR 08/08 A3020 RMK AO2 TSNO 
    56003 T00770077 10138 20077 SLP227=
METAR PAPM 081156Z AUTO 00000KT RA CLR 05/04 A2998 RMK AO2 TSNO 
    58004 60000 70010 T00500044 10105 20044 P0000 SLP154 $=
METAR PARS 081156Z AUTO 00000KT 10SM BKN100 11/09 A3000 RMK AO2 TSNO 
    57001 60000 T01050088 10133 20105 BKN V SCT SLP164 $=
METAR PATQ 081156Z AUTO 25013KT 10SM CLR 08/03 A3003 RMK AO2 TSNO 
    58001 T00830033 10111 20083 SLP175 $=
####018001842####
SAXX60 KAWN 081200
METAR NSTU 081152Z 07011KT 10SM FEW016 28/26 A2989 RMK SLP122 60006
      70018 8/100 T02770256 10281 20267 57002=
METAR PGSN 081154Z 08009KT 10SM FEW020 28/24 A2992 RMK AO2 SLP129 60000
      7//// T02780244 10294 20267 53011=
METAR PGUA 081155Z AUTO 12012G18KT 10SM FEW019 SCT031 SCT045 26/ A2992
      RMK AO2 PK WND 09026/1115 RAB1118E1128 SLP114 P0003 60003
      T0263 10288 20257 53013 VISNO RWY24L $=
METAR PGUM 081154Z 11010G16KT 10SM FEW025 SCT045 27/24 A2992 RMK AO2
      RAB21E30 SLP124 60001 70001 8842577 T02720239 10306 20261 53014=
METAR PHHI 081155Z AUTO 28004KT 10SM CLR 18/16 A3004 RMK AO2 SLP161
      60001 70005 T01790162 10223 20179 58010=
METAR PHJR 081153Z 00000KT 10SM CLR 22/18 A3003 RMK AO2 SLP174 70001
      T02220178 10250 20222 58010=
METAR PHKO 081153Z AUTO 10007KT 10SM CLR 23/18 A2997 RMK AO2 SLP148
      T02330183 10256 20233 58008 TSNO=
METAR PHMK 081154Z AUTO 05006KT 10SM SCT042 21/18 A3003 RMK AO2 RAB02E17
      SLP171 P0000 60000 70001 T02110178 10228 20211 58008 TSNO=
METAR PHNL 081153Z 06005KT 10SM FEW030 24/18 A3001 RMK AO2 SLP163 60000
      70003 T02390178 10250 20239 58012=
METAR PHOG 081154Z AUTO 06011KT 10SM OVC060 24/17 A3001 RMK AO2 SLP166
      70001 T02390172 10250 20233 58012 TSNO=
METAR PHTO 081153Z 24003KT 10SM SCT028 21/18 A3002 RMK AO2 SLP164 60011
      70011 T02060178 10250 20206 58013=
METAR PTKK 081150Z VRB04KT 15SM FEW014 BKN120 OVC280 26/23 A2985 RMK
      SLP110 60002 70100 8/171 T02600228 10261 20244 52008=
METAR PWAK 081156Z 07013KT 8SM SKC 27/27 A2999 RMK AO2A=
METAR RJTY 081155Z AUTO 00000KT 9999 CLR 24/22 A2988 RMK AO2 SLP112
      T02440217 10294 20242 51012 $=
METAR RODN 081155Z AUTO 17012KT 9999 FEW018 BKN200 29/26 A2984 RMK
      AO2 SLP106 T02880263 10303 20287 51011=
####018001780####
SAXN17 KAWN 081200 RRB
METAR MDSD 081200Z 04006KT 9999 FEW018 26/24 Q1015=
METAR MMAS 081145Z 00000KT 8SM SCT020 BKN070 OVC200 17/14 A3008 RMK
      SLP047 8/537 HZ=
METAR MMBT 081145Z 00000KT 6SM OVC040 23/22 A2988 RMK SLP096 5////
      910 8/7// BINOVC VRB COND=
METAR MMVR 081145Z 00000KT 7SM SCT010 BKN020 OVC070 25/25 A2981 RMK
      SLP073 57006 904 60045 8/77/ INTMT -RA ISOL CBS=
METAR MUGM 081156Z 35007KT 9999 FEW100 BKN250 26/23 A2996 RMK SLP146
      70013 T02560228 10261 20244 56004=
METAR MYNN 081200Z 00000KT 9999 SCT012CB SCT015TCU BKN220 26/25 A2995=
METAR NSTU 081152Z 07011KT 10SM FEW016 28/26 A2989 RMK SLP122 60006
      70018 8/100 T02770256 10281 20267 57002=
METAR PAED 081155Z AUTO 00000KT 10SM FEW060 OVC075 12/11 A2998 RMK
      AO2 RAB1133E1143DZB1143E1146 SLP154 P0000 60000 T01210108
      10141 20109 56009 $=
PASV SA 1155 AWOS 80 SCT 10 47/44/0000/995=
METAR PGUA 081155Z AUTO 12012G18KT 10SM FEW019 SCT031 SCT045 26/ A2992
      RMK AO2 PK WND 09026/1115 RAB1118E1128 SLP114 P0003 60003
      T0263 10288 20257 53013 VISNO RWY24L $=
METAR PHHI 081155Z AUTO 28004KT 10SM CLR 18/16 A3004 RMK AO2 SLP161
      60001 70005 T01790162 10223 20179 58010=
METAR PTYA 081152Z 08009KT 12SM SCT016 SCT030 BKN130 OVC300 28/23 A2988
      RMK SLP118 60001 70001 8/878 T02800228 10320 20261 51015=
METAR PWAK 081156Z 07013KT 8SM SKC 27/27 A2999 RMK AO2A=
METAR RJTY 081155Z AUTO 00000KT 9999 CLR 24/22 A2988 RMK AO2 SLP112
      T02440217 10294 20242 51012 $=
METAR RKSO 081155Z 08004KT 9999 SCT140 22/22 A2978 RMK AO2A DZE1053
      SLP086 P0000 60000 T02220222 10280 20222 51011 $=
METAR RODN 081155Z AUTO 17012KT 9999 FEW018 BKN200 29/26 A2984 RMK
      AO2 SLP106 T02880263 10303 20287 51011=
####018001638####
SAZZ40 KAWN 081200 RRH
METAR KNBG 081155Z 06004KT 7SM SCT010 BKN250 26/23 A3002 RMK AO2 SLP166
      T02620233 50008 $=
METAR KNKX 081155Z 32005KT 10SM OVC014 16/14 A2990 RMK AO2 SLP119 70001
      T01560139 10167 20156 55000=
METAR KNYG 081156Z 08004KT 6SM HZ FEW090 BKN200 27/22 A3001 RMK AO2
      SLP163 T02670222 10272 20250 51010=
METAR KNYL 081155Z AUTO 00000KT 10SM CLR 27/00 A2972 RMK AO2 SLP061
      T02670000 10300 20261 53004=
METAR KOZR 081155Z 00000KT 1SM R06/1400V2000FT BR FEW002 22/22 A3004
      RMK AO2A SLP169 T02250225 10235 20212 53006=
METAR KPOE 081155Z 08005KT 10SM FEW015 24/23 A3003 RMK AO2 SLP169 70021
      T02390228 10250 20239 $=
METAR KSGH 081156Z 00000KT 3SM BR CLR 23/22 A3011 RMK AO2 51006 T02330222
      10233 20194 SLP187=
METAR KSZL 081155Z 00000KT 4SM OVC003 23/22 A3006 RMK AO2A SLP173 60013
      7//// T02270222 10235 20223 53007 $=
METAR KTTS 081155Z 33003KT 10SM FEW030 FEW290 25/23 A3000 RMK SLP159
      1SC /0/ 1CI /0/ 53005=
METAR KVPS 081155Z 33001KT 10SM BR FEW010 24/23 A3004 RMK AO2A VIS
      NE 2 SLP172 T02420233 10251 20231 53007=
METAR KWJF 081156Z 07005KT 10SM CLR 13/01 A2990 RMK AO2 SLP106 T01330011
      10222 20133 53004=
METAR MYNN 081200Z 00000KT 9999 SCT012CB SCT015TCU BKN220 26/25 A2995=
METAR OAFZ 081156Z AUTO 04005KT 39/M01 Q1013=
METAR PMDY 081156Z AUTO 00000KT 10SM CLR 24/19 A3009 RMK AO2 TSNO 58007
      T02440194 10277 20244 SLP498=
METAR PWAK 081156Z 07013KT 8SM SKC 27/27 A2999 RMK AO2A=
METAR TJSJ 081156Z 08006KT 10SM FEW026 SCT034 28/25 A3000 RMK AO2 SLP159
      T02780250 10283 20267 51009=
####018001709####
SANA14 KAWN 081200 RRA
METAR KGTB 081155Z AUTO 22003KT 10SM CLR 27/21 A3004 RMK AO2 SLP171
      T02660213 10266 20214 51005=
METAR KNRB 081152Z 26004KT 10SM CLR 24/22 A3001 RMK AO2 SLP162 T02440217
      10244 20222 53009=
METAR KOZR 081155Z 00000KT 1SM R06/1400V2000FT BR FEW002 22/22 A3004
      RMK AO2A SLP169 T02250225 10235 20212 53006=
METAR KPSM 081155Z 14007KT 10SM FEW080 BKN200 23/20 A3008 RMK AO2A
      SLP187 T02310203 10231 20210 51008=
METAR KRIV 081155Z 30003KT 2 1/2SM BR OVC003 13/12 A2990 RMK AO2A SLP122
      T01310125 10148 20111 55004=
METAR KSGH 081156Z 00000KT 3SM BR CLR 23/22 A3011 RMK AO2 51006 T02330222
      10233 20194 SLP187=
METAR KSKA 081155Z AUTO 06005KT 10SM CLR 14/08 A3007 RMK AO2 SLP171
      T01400082 10201 20140 53001=
METAR KSLI 081155Z AUTO 22005KT 10SM OVC015 17/14 A2990 RMK AO2 SLP126
      T01670139 10167 20147 55004=
METAR KSZL 081155Z 00000KT 4SM OVC003 23/22 A3006 RMK AO2A SLP173 60013
      7//// T02270222 10235 20223 53007 $=
METAR KTBN 081155Z 00000KT 9SM BKN060 BKN070 OVC085 23/21 A3008 RMK
      AO2A LTG DSNT N SLP168 70005 T02280211 10231 20219 53006 $=
METAR KTIK 081155Z AUTO 01005KT 10SM SCT007 OVC013 23/22 A3006 RMK
      AO2 SCT V BKN SLP168 T02310224 10238 20231 53009 $=
METAR KTTS 081155Z 33003KT 10SM FEW030 FEW290 25/23 A3000 RMK SLP159
      1SC /0/ 1CI /0/ 53005=
METAR KVOK 081155Z 29004KT 10SM BKN010 20/20 A3004 RMK AO2A SLP168
      70020 52012=
METAR KVPS 081155Z 33001KT 10SM BR FEW010 24/23 A3004 RMK AO2A VIS
      NE 2 SLP172 T02420233 10251 20231 53007=
METAR KWRB 081155Z 36002KT 10SM CLR 23/21 A3003 RMK AO2A RAEMM SLP165
      T02300213 10230 20202 53003=
####018000128####
SAUS41 KRNK 081158
MTRROA
METAR KROA 081154Z 28004KT 6SM HZ CLR 26/19 A3010 RMK AO2 SLP175 
T02610189 10267 20233 53007
####018000156####
SAHW40 PHFO 081158
MTRNGF
METAR PHNG 081157Z 07010KT 10SM SCT020 BKN040 24/19 A3003 RMK AO2 
SLP163 P0001 60001 70001 T02440194 10250 20244 58012 $
####018003694####
SAUS99 KWBC 081159
METAR
K1P1 081155Z AUTO 00000KT 5SM BR CLR 24/23 A3007 RMK AO2
     T02440232=
KBIX 081155Z AUTO 03003KT 10SM CLR 25/25 A3004 RMK AO2 SLP173
     T02520252 10262 20246 53010=
KBVU 081155Z AUTO 00000KT 10SM CLR 23/05 A2987 RMK AO2=
KE80 081155Z AUTO 24005KT 10SM CLR 18/12 A3025 RMK AO2
     T01800120=
KEDC 081155Z AUTO 05006KT -RA 24/24 A2997 RMK AO2 P0005=
KEIK 081155Z AUTO 30003KT 2SM BR OVC004 13/13 A3032 RMK AO2=
KEOE 081155Z AUTO 00000KT 10SM CLR 23/20 A3006 RMK AO2=
KFMH 081155Z AUTO 14009KT 10SM FEW010 SCT017 23/21 A3011 RMK
     AO2=
KHFF 081155Z AUTO 34003KT 10SM CLR 25/18 A2999 RMK AO2 SLP151
     T02500176 10250 20212 51008 $=
KHOB 081150Z 36005KT 10SM SCT043 BKN060 OVC075 19/18 A3017=
KIFP 081155Z AUTO 02004KT 10SM CLR 28/M02 A2976 RMK AO2=
KMAN 081155Z AUTO 00000KT 10SM CLR 12/06 A3006 RMK AO1=
KMCF 081155Z AUTO 03003KT 10SM CLR 24/24 A3000 RMK AO2 SLP159
     70001 T02440240 10252 20221 53006=
KMMT 081155Z 36003KT 10SM FEW100 25/21 A3000 RMK AO2A SLP158
     T02530213 10253 20210 53008=
KMXF 081155Z AUTO 00000KT 10SM CLR 26/24 A3003 RMK AO2 SLP168
     T02630239 10278 20243 53006=
KPVF 081155Z AUTO 08005KT 10SM FEW042 22/12 A2993 RMK AO1=
KRBW 081155Z AUTO 28004KT 10SM CLR 23/21 A2999 RMK AO2=
KRCM 081155Z AUTO 35003KT 10SM OVC004 22/22 A3007 RMK AO2
     P0001=
KSGJ 081158Z 30005KT 10SM CLR 24/22 A3002 RMK AO2 SLP164 T02390222
     10239 20217 53007=
KSNC 081155Z AUTO 14005KT 8SM OVC004 22/ A3009 RMK AO2=
KTME 081155Z AUTO 03008KT 5SM CLR 25/25 A2994 RMK AO1=
KUOX 081155Z AUTO 00000KT 10SM CLR 23/21 A3009 RMK AO2=
PACM 081156Z AUTO 00000KT 10SM CLR 11/09 A3007 RMK AO2 TSNO 58004
     60037 70045 T01050088 10150 20105 SLP179 $=
PAGM 081157Z AUTO 36005KT 10SM CLR 06/05 A3017 RMK VIA AWOS
     PHONE=
PAGN 081156Z AUTO 00000KT CLR RMK AO2 PWINO TSNO 5//// SLPNO $=
PAHC 081156Z AUTO 21003KT 10SM CLR 09/09 A2998 RMK AO2 TSNO 50005
     60000 T00940088 10144 20094 SLP156 $=
PAIG 081156Z AUTO 00000KT 10SM BKN055 BKN075 BKN100 09/09 A2993
     RMK AO2 PWINO TSNO 58003 70027 T00940088 10100 20088 BKN V
     SCT SLP140 $=
PAMO 081156Z AUTO 02009KT 10SM BKN050 OVC100 12/10 A3004 RMK AO2
     TSNO 58009 60000 70008 T01160100 10122 20094 BKN V SCT SLP171
     $=
PAOH 081156Z AUTO 10003KT 10SM CLR 08/08 A3020 RMK AO2 TSNO 56003
     T00770077 10138 20077 SLP227=
PAPM 081156Z AUTO 00000KT RA CLR 05/04 A2998 RMK AO2 TSNO 58004
     60000 70010 T00500044 10105 20044 P0000 SLP154 $=
PARS 081156Z AUTO 00000KT 10SM BKN100 11/09 A3000 RMK AO2 TSNO
     57001 60000 T01050088 10133 20105 BKN V SCT SLP164 $=
PATQ 081156Z AUTO 25013KT 10SM CLR 08/03 A3003 RMK AO2 TSNO 58001
     T00830033 10111 20083 SLP175 $=
KRFD 081154Z 22004KT 6SM BR FEW006 SCT046 OVC180 22/21 A3005 RMK
     AO2 SLP171 60002 70004 T02220211 10228 20217 51013=
KROG 081157Z 17004KT 10SM OVC022 23/22 A3010 RMK AO2 SLP178 70024
     T02330217 10239 20228 53010=
KROS 081155Z AUTO 00000KT 10SM CLR 16/15 A3009 RMK AO2 T01620152
     10195 20145=
KROX 081154Z AUTO 23004KT 10SM SCT085 15/13 A3002 RMK AO2=
KRRT 081154Z AUTO 21006KT 10SM CLR 15/13 A3001 RMK AO2=
KRZN 081154Z AUTO 26003KT 10SM CLR 17/16 A3008 RMK AO2 T01700156
     10205 20151=
KSAZ 081154Z AUTO 26004KT 10SM CLR 16/16 A3009 RMK AO2=
KSGS 081153Z AUTO 32004KT 10SM CLR 19/16 A3010 RMK AO2 70002
     T01940162 10215 20179=
KSHV 081156Z 00000KT 7SM SCT160 BKN280 24/23 A3004 RMK AO2 SLP169
     70057 T02440233 10256 20239 53010=
KSME 081156Z AUTO 00000KT 2 1/2SM BR 22/20 A3010 RMK AO2=
KSYN 081210Z AUTO 00000KT 10SM CLR 18/17 A3010 RMK AO2
     T01800167=
####018003696####
SAUS99 KWBC 081159 RRA
METAR
KTEW 081153Z AUTO 00000KT 7SM CLR 23/21 A3005 RMK AO2=
KTKC 081153Z AUTO 26004KT 10SM CLR 17/13 A3015 RMK AO2 T01690131
     10169 20152=
KTOB 081154Z AUTO 00000KT 10SM CLR 18/16 A3012 RMK AO2=
KTRI 081153Z 00000KT 4SM HZ FEW070 23/19 A3012 RMK AO2 SLP179
     T02280194 10244 20194 53008=
KTWM 081153Z AUTO 29004KT 10SM CLR 17/13 A3002 RMK AO2=
KTYS 081153Z 00000KT 6SM HZ CLR 24/19 A3008 RMK AO2 SLP172
     T02390194 10261 20222 53008=
KULM 081155Z AUTO 27003KT 7SM CLR 15/13 A3013 RMK AO2=
KUNI 081155Z AUTO 00000KT 5SM HZ CLR 23/18 A3009 RMK AO2 T02300177
     10234 20211=
KVES 081154Z AUTO 00000KT 5SM BR CLR 22/20 A3008 RMK AO2
     T02200204=
KVVV 081156Z AUTO 28007KT 10SM CLR 18/14 A3011 RMK AO2=
KY63 081200Z AUTO 00000KT 10SM CLR 15/15 A3011 RMK AO2
     T01540148=
PACM 081156Z AUTO 00000KT 10SM CLR 11/09 A3007 RMK AO2 TSNO 58004
     60037 70045 T01050088 10150 20105 SLP179 $=
PAGN 081156Z AUTO 00000KT CLR RMK AO2 PWINO TSNO 5//// SLPNO $=
PATQ 081156Z AUTO 25013KT 10SM CLR 08/03 A3003 RMK AO2 TSNO 58001
     T00830033 10111 20083 SLP175 $=
KABQ 081156Z 05008KT 10SM BKN100 OVC200 20/09 A3027 RMK AO2 SLP166
     T02000094 10206 20189 53006=
KJAX 081156Z 24003KT 10SM CLR 22/21 A3001 RMK AO2 SLP162 T02170206
     10217 20189 53007=
K14Y 081159Z AUTO 22005KT 10SM CLR 16/15 A3011 RMK AO2 T01630153
     10163 20142=
K29G 081154Z AUTO 00000KT 5SM CLR 23/21 A3010 RMK AO2 T02290210
     PWINO=
KAEL 081150Z AUTO 33004KT 10SM CLR 17/16 A3011 RMK AO2=
KAIT 081153Z AUTO 24003KT 10SM CLR 16/16 A3007 RMK AO2=
KAJO 081156Z AUTO 34004KT 6SM BR FEW011 15/13 A2990 RMK AO2 55004
     T01500133 10161 20122 SLP121 $=
KARV 081152Z AUTO 33003KT 10SM CLR 17/16 A3006 RMK AO2 70090
     T01730155 10195 20166=
KAVP 081154Z 00000KT 6SM HZ CLR 24/19 A3008 RMK AO2 SLP173
     T02390189 10239 20200 51008 $=
KBBB 081153Z AUTO 00000KT 10SM CLR 14/14 A3012 RMK AO2=
KBWP 081151Z AUTO 28003KT 10SM CLR 15/14 A3011 RMK AO1 T01500139
     10162 20135=
KCHS 081156Z 29006KT 7SM CLR 25/20 A2997 RMK AO2 SLP149 T02500200
     10250 20239 53005=
KCLI 081155Z AUTO 30005KT 4SM BR SCT006 SCT016 22/21 A3002 RMK
     AO2=
KCMY 081155Z AUTO 00000KT 7SM BKN011 20/19 A3005 RMK AO2 70021
     T01990189 10217 20185=
KCVH 081150Z AUTO 21004KT 7SM OVC006 13/11 A2992 RMK AO1=
KDIJ 081156Z AUTO 36006KT 10SM CLR 06/02 A3031 RMK AO2 53006
     T00610022 10094 20044 SLP194 $=
KDXX 081154Z AUTO 00000KT 10SM CLR 16/16 A3011 RMK AO2=
KEFK 081155Z AUTO 19005KT 7SM CLR 24/20 A3007 RMK AO2=
KEFT 081155Z AUTO 28005KT 10SM CLR 21/19 A3005 RMK AO2 70006
     T02110191 10214 20205=
KEGV 081152Z AUTO 36003KT 10SM CLR 18/18 A3004 RMK AO2
     T01800179=
KEKQ 081156Z AUTO 00000KT 2SM BR CLR 21/20 A3012 RMK AO2 51006
     T02110200 10211 20183 SLP194=
KELO 081153Z AUTO 22004KT 10SM CLR 15/14 A3002 RMK AO2=
KETB 081152Z AUTO 00000KT 10SM SCT013 SCT018 22/21 A3001 RMK AO2
     P0001 60004 70032 T02210206 10227 20213=
KEVM 081152Z AUTO 26003KT 7SM CLR 15/13 A3002 RMK AO1=
KEZS 081155Z AUTO 30005KT 7SM SCT005 SCT008 23/22 A3001 RMK AO2
     60003 70212 T02280215 10228 20218=
KFBL 081154Z AUTO 29003KT 10SM CLR 17/15 A3012 RMK AO2=
KFFM 081153Z AUTO 00000KT 10SM CLR 16/14 A3010 RMK AO2=
KFGN 081154Z AUTO 26007KT 1/4SM -DZ VV002 16/13 A2998 RMK AO2=
KFSO 081158Z AUTO 00000KT 7SM CLR 26/23 A3001 RMK AO2=
KFWA 081154Z 17003KT 8SM FEW060 24/21 A3006 RMK AO2 SLP172
     T02440206 10261 20222 50002=
KGDB 081153Z AUTO 00000KT 10SM CLR 15/14 A3014 RMK AO2 T01460140
     10148 20131=
KGHW 081154Z AUTO 25005KT 10SM CLR 17/14 A3014 RMK AO2=
####018002908####
SAUS99 KWBC 081159 RRB
METAR
KGLW 081153Z AUTO 00000KT 7SM CLR 23/21 A3008 RMK AO2 T02280206
     10228 20196=
KGSO 081154Z 04003KT 5SM HZ FEW095 27/18 A3004 RMK AO2 SLP158
     T02720178 10278 20244 51010=
KGYL 081155Z AUTO 23003KT 10SM CLR 16/15 A3011 RMK AO2 T01600146
     10178 20142=
KHCD 081152Z AUTO 00000KT 7SM CLR 14/14 A3012 RMK AO2
     T01430135=
KHCO 081154Z AUTO 27003KT 10SM SCT070 15/14 A3006 RMK AO2=
KHFJ 081155Z AUTO 00000KT 7SM SCT014 OVC018 23/22 A3005 RMK
     AO1=
KHZX 081151Z AUTO 00000KT 10SM CLR 16/15 A3007 RMK AO2=
KIKW 081154Z AUTO 00000KT 7SM BKN090 OVC110 23/21 A3000 RMK AO2
     T02320213 10232 20213=
KJKJ 081154Z AUTO 19003KT 10SM CLR 16/14 A3008 RMK AO2=
KJMR 081158Z AUTO 00000KT 10SM CLR 15/13 A3010 RMK AO2=
KLCK 081155Z AUTO 19003KT 4SM BR CLR 24/22 A3008 RMK AO2 T02400220
     10240 20212=
KLJF 081152Z AUTO 24003KT 10SM CLR 18/16 A3012 RMK AO2=
KLNL 081155Z AUTO 34003KT 10SM CLR 17/15 A3007 RMK AO2 70014
     T01710147 10191 20165=
KLRD 081156Z 02009KT 10SM OVC026 27/24 A2990 RMK AO2 53004
     T02660244 10272 20261 SLP113 $=
KLUM 081155Z AUTO 29005KT 10SM CLR 18/17 A3008 RMK AO2=
KLVN 081148Z AUTO 28004KT 10SM CLR 17/17 A3011 RMK AO2=
KLXL 081154Z AUTO 00000KT 4SM BR CLR 14/13 A3009 RMK AO2=
KLYV 081158Z AUTO 00000KT 10SM CLR 13/12 A3017 RMK AO2=
KM89 081156Z AUTO 00000KT 4SM BR OVC002 24/24 A3007 RMK AO2 53008
     70027 T02440238 10244 20238 SLP194=
KMDS 081145Z AUTO 27004KT 10SM CLR 15/15 A3018 RMK AO2=
KMDZ 081155Z AUTO 32006KT 7SM BKN004 19/18 A3005 RMK AO2=
KMGG 081155Z AUTO 27004KT 10SM CLR 18/16 A3012 RMK AO2 T01750155
     10179 20148=
KMJQ 081152Z AUTO 27003KT 7SM CLR 15/15 A3016 RMK AO2=
KMOX 081150Z AUTO 27004KT 10SM CLR 17/15 A3008 RMK AO2=
KMRJ 081155Z AUTO 30003KT 1 1/4SM BR OVC003 22/20 A3006 RMK AO2
     60001 70051 T02160200 10216 20202=
KMRT 081153Z AUTO 00000KT 5SM CLR 23/20 A3012 RMK AO2 T02290199
     10229 20201=
KMVE 081154Z AUTO 00000KT 10SM CLR 17/15 A3011 RMK AO2=
KMWM 081153Z AUTO 00000KT 7SM CLR 15/14 A3015 RMK AO2=
KMWO 081155Z AUTO 00000KT 3SM BR CLR 23/22 A3009 RMK AO2=
KOEO 081155Z AUTO 00000KT 10SM CLR 17/17 A3011 RMK AO2=
KONA 081150Z AUTO 31004KT 10SM CLR 20/16 A3006 RMK AO2=
KOVL 081154Z AUTO 29003KT 10SM CLR 14/13 A3012 RMK AO2 T01400126
     10140 20125=
KPBI 081153Z COR 08004KT 6SM -RA BR SCT022 BKN028CB BKN050 26/24
     A2996 RMK AO2 RAB16 SLP143 VIS N-NE 1 1/2 CB OHD-W-N-E MOV W
     P0001 60001 70011 T02610244 10278 20261 53011=
KPEX 081153Z AUTO 25004KT 7SM CLR 15/15 A3012 RMK AO2 T01470146
     10147 20116=
KPNM 081153Z AUTO 27003KT 10SM CLR 16/15 A3010 RMK AO2=
KPQN 081153Z AUTO 00000KT 10SM CLR 17/14 A3017 RMK AO2=
KPVB 081153Z AUTO 26003KT 3/4SM OVC002 21/21 A3007 RMK AO1 70110
     T02110205 10211 20196=
KPWC 081153Z AUTO 00000KT 10SM CLR 12/12 A3009 RMK AO2=
####018000068####
SABZ20 SBPV 081200
METAR SBPV 081200Z 05004KT CAVOK 26/22 Q1013=
####018000074####
SAEW LEJR 081200
METAR LEJR 081200Z 22004KT 160V310 CAVOK 31/15 Q1016=
####018000088####
SAUK34 EGGY 081150 CCA
METAR COR EGHK 081150Z 16007KT 9999 SCT020 18/15 Q1018 NOSIG=
####018000951####
SAMX45 MMMY 081157
METAR MMMY 081145Z 33008KT 15SM  SKC 24/22 A2988 
      RMK SLP104 53007 911 ISOL AC=
METAR MMAN 081140Z 32006KT 12SM  SCT040 23/22 A2990 
      RMK SLP096 5//// 912 8/500=
METAR MMMA 081148Z 32006KT 6SM  SCT012TCU BKN065 BKN200 26/25 A2980 
      RMK SLP071 5//// 900 8/254 HZ=
METAR MMIO 081140Z 00000KT 8SM BKN012 OVC030 18/15 A3010 RMK
8/5// BINOVC=
METAR MMRX 081144Z 35006KT 7SM  SCT006 BKN010 26/24 A2980 
      RMK SLP090 5//// 904 8/800 OCNL DROPS HZY=
METAR MMNL 081141Z 03006KT 8SM  SCT007 OVC020 27/24 A2988 
      RMK SLP142 50003 909 8/5//=
METAR MMCV 081141Z 00000KT 12SM  SCT220 23/23 A2985 
      RMK SLP098 5//// 900 60238 8/005 AC=
METAR MMTC 081143Z 00000KT 10SM BKN030 BKN080 22/18 A3001
      RMK SLP070 51024 924 8/570=
METAR MMMV 081140Z 25005KT 8SM HZ BKN050 23/18 A2998 RMK 8/200 =
METAR MMCU 081146Z 07008KT 10SM OVC030 22/14 A3011 RMK
      SLP085 5//// 927 8/5//=
####018000087####
SAUK35 EGGY 081150 RRA
METAR EGKB 081150Z 21007KT 170V250 9999 BKN030 23/14 Q1019 =
####018000177####
SANL32 EHDB 081155
METAR EHEH 081155Z AUTO 20007KT 9999NDV FEW360 30/11 Q1018 
BLU BLU=
METAR EHKD 081155Z AUTO 22009KT 9999NDV BKN069/// BKN130/// 22/16
Q1019 
BLU BLU=
####018000081####
SABZ21 SBNT 081200
METAR SBNT 081200Z 15009KT 9999 FEW023 BKN100 26/22 Q1015=
####018000088####
SALI20 GLRB 081200
METAR GLRB 081200Z 19006KT 9999 BKN018 FEW026CB 30/25 Q1014 CB-S=
####018000068####
SABZ19 SBCJ 081200
METAR SBCJ 081200Z 08004KT CAVOK 26/17 Q1018=
####018000071####
SABZ23 SBGL 081200
METAR SBGL 081200Z 00000KT 9000 NSC 21/16 Q1019=
####018000138####
SAUS46 KLOX 081158
MTRNLC
METAR KNLC 081156Z AUTO 30005KT 10SM CLR 16/10 A2983 RMK AO2 SLP098 
T01610100 10239 20161 53002 TSNO $
####018000077####
SARE03 FMEE 081200
METAR
FMEP 081200Z 12029KT 9999 FEW010 24/15 Q1020=
####018000141####
SAUS46 KSGX 081158
MTRNRS
METAR KNRS 081156Z AUTO 30006KT 10SM OVC016 17/14 A2990 RMK AO2 
SLP124 T01720139 10172 20161 55001 TSNO $
####018001771####
SAEW KAWN 081200 RRB
METAR EBAW 081150Z 23006KT 200V290 CAVOK 29/13 Q1019 NOSIG=
METAR EBBR 081150Z 26005KT 190V320 CAVOK 29/11 Q1019 NOSIG=
METAR EBCI 081150Z 24007KT 200V330 CAVOK 30/10 Q1020 NOSIG=
METAR EBLG 081150Z 27006KT 210V330 CAVOK 30/09 Q1020 NOSIG=
METAR EBOS 081150Z 35006KT CAVOK 21/16 Q1020 NOSIG=
METAR EDHL 081150Z 21008KT 160V240 CAVOK 29/12 Q1019 RMK P=
METAR EDLW 081150Z 22011KT CAVOK 30/09 Q1020 RMK ATIS R=
METAR EDNY 081150Z 19005KT CAVOK 27/11 Q1022 RMK ATIS Q=
METAR EHAM 081155Z 29006KT 210V350 CAVOK 24/15 Q1019 NOSIG=
METAR EHBK 081155Z AUTO 27006KT 220V330 9999NDV NCD 30/11 Q1019 NOSIG=
METAR EHDL 081155Z AUTO 20008KT 9999NDV NCD 30/12 Q1018 BLU=
METAR EHGG 081155Z AUTO 25010KT 210V280 9999NDV NSC 27/13 Q1018 NOSIG=
METAR EHGR 081155Z AUTO 21009KT 9999NDV NCD 30/11 Q1018 BLU BLU=
METAR EHKD 081155Z AUTO 22009KT 9999NDV BKN069/// BKN130/// 22/16 Q1019
      BLU BLU=
METAR EHLW 081155Z AUTO 24007KT 9999NDV OVC067 22/17 Q1019 BLU BLU=
METAR EHRD 081155Z 28006KT 230V360 CAVOK 25/16 Q1019 NOSIG=
METAR EHVK 081155Z AUTO 20007KT 9999NDV FEW070 31/11 Q1018 BLU BLU=
METAR EHVL 081155Z AUTO 24011KT 9999NDV OVC058 21/16 Q1019 BLU=
METAR EHWO 081155Z AUTO 30007KT 9999NDV NCD 27/12 Q1019 BLU BLU=
METAR ELLX 081150Z 20006KT 140V310 CAVOK 29/08 Q1021 NOSIG=
METAR ETAR 081155Z AUTO VRB03KT 9999 CLR 30/15 A3013 RMK AO2 SLP196
      T02960146 10296 20173 58004 $=
METAR ETIC 081156Z AUTO VRB03KT 9999 CLR 26/09 A3019 RMK AO2 SLP213
      T02640086 10264 20137 58009 $=
METAR ETIK 081155Z AUTO VRB03KT 9999 CLR 27/10 A3019 RMK AO2 SLP208
      60000 T02650098 10270 20183 58006 $=
METAR ETOU 081155Z AUTO 20006KT 9999 CLR 29/10 A3015 RMK AO2 SLP204
      T02860104 10288 20199 58003=
####018000129####
SAAK48 PANC 081158
MTRASY
METAR PASY 081156Z AUTO 02018G23KT 10SM OVC004 A2974 RMK AO2 SLPNO
 6//// 7//// 54000 TSNO PNO
####018000075####
SAYE20 OYAG 081200
METAR OYAG 081200Z 10012KT 9999 SCT030 29/25 Q1001=
####018000069####
SAYE20 OYAT 081200
METAR OYAT 081200Z 34012KT CAVOK 40/09 Q0999=
####018000158####
SAYE20 OYAA 081200
METAR OYAA 081200Z 21012KT 6000 NSC 34/20 Q1001=MAX=360 MIN=290
METAR OYSQ 081200Z 18047G57KT 9999 FEW018 32/23 Q1005=MAX=330 MIN260
####018000083####
SAHW31 KMSC 081158
METAR PWAK 081156Z 07013KT 8SM SKC 27/27 A2999 
RMK AO2A=
####018000088####
SAUK35 EGGY 081150 RRA
METAR EGKB 081150Z 21007KT 170V250 9999 BKN030 23/14 Q1019 =
####018000089####
SAUK34 EGGY 081150 CCA
METAR COR EGHK 081150Z 16007KT 9999 SCT020 18/15 Q1018 NOSIG=
####018000081####
SACV20 GVAC 081200
METAR GVAC 081200Z 07011KT 9999 BKN014 25/20 Q1014 NOSIG=
####018000182####
SANL32 EHDB 081155
METAR EHEH 081155Z AUTO 20007KT 9999NDV FEW360 30/11 Q1018 
BLU BLU=
METAR EHKD 081155Z AUTO 22009KT 9999NDV BKN069/// BKN130/// 22/16
Q1019 
BLU BLU=
####018000072####
SABZ23 SBGL 081200
METAR SBGL 081200Z 00000KT 9000 NSC 21/16 Q1019=
####018001067####
SAUK KAWN 081200 RRA
METAR COR EGCC 081150Z 22009KT 180V260 9999 FEW037 SCT044 20/10 Q1017
      NOSIG=
METAR EGDL 081150Z 23009KT 9999 FEW030 BKN250 21/10 Q1018 BLU NOSIG=
METAR EGGP 081150Z 25010KT 9999 SCT042 19/10 Q1017=
METAR EGKB 081150Z 21007KT 170V250 9999 BKN030 23/14 Q1019=
METAR COR EGLL 081150Z 24006KT 200V290 9999 SCT021 SCT033 22/15 Q1019
      NOSIG=
METAR EGNS 081150Z 20009KT 9999 FEW025 17/11 Q1016 NOSIG=
METAR EGNT 081150Z 24011G22KT 200V270 9999 FEW038 20/08 Q1014=
METAR EGNV 081150Z 25018KT 9999 SCT040 21/10 Q1015=
METAR COR EGPB 081150Z 20015KT CAVOK 15/11 Q1007 NOSIG=
METAR EGUL 081155Z AUTO 22008KT 9999 BKN031 21/14 A3006 RMK AO2 SLP179
      60000 T02150136 10215 20167 57005=
METAR EGUN 081155Z AUTO 24004KT 9999 OVC029 21/17 A3007 RMK AO2 CIG
      026V030 SLP171 60001 70001 T02100170 10219 20166 57002=
METAR EGVA 081155Z AUTO 30006KT 9999 FEW190 22/11 A3006 RMK AO2 CLDS
      LWR RWY27 SLP180 60000 T02180106 10221 20153 58004=
METAR EGXZ 081150Z 25013KT 9999 SCT040 SCT050 20/09 Q1016 BLU=
####018000085####
SARS18 KAWN 081200 RRA
METAR ESSA 081150Z 22014KT 9999 FEW045 25/13 Q1016 NOSIG=
####018003748####
SAUS90 KWBC 081200
METAR KCAE 081156Z 27003KT 10SM CLR 26/20 A2999 RMK AO2 SLP151
     T02610200 10267 20228 53004=
METAR KNGP 081156Z 07003KT 10SM -RA BKN039 BKN050 28/26 A2982 RMK
     AO2 SLP098 TCU N TCU DSNT NE AND W WR// P0002 60012 70015
     T02790263 10289 20278 53006 $=
METAR KGNR 081156Z AUTO 00000KT 19/19 A3009 RMK AO1 SLP183
     T01940194 10206 20189 51005=
METAR KNTU 081156Z 08006KT 10SM CLR 26/23 A2998 RMK AO2 SLP153
     60000 T02560233 10261 20250 53010 CHINO RWY 05R $=
METAR KNXP 081156Z AUTO 31005KT CLR 24/01 A2992 RMK AO2 SLP093
     T02390011 10294 20233 53006 $=
METAR KLWS 081156Z AUTO 00000KT 10SM CLR 15/07 A3004 RMK AO2
     SLP163 T01500072 10211 20139 53007=
METAR KSPD 081156Z AUTO 01005KT 16/14 A3030 RMK AO2 SLP203 P0003
     60026 70091 T01560144 10167 20144 51007 PWINO TSNO=
METAR KINS 081156Z 00000KT 10SM CLR 18/M10 A2994 RMK AO2 SLP084
     T01831100 10278 20167 53007 $=
METAR KFSD 081156Z 00000KT 10SM CLR 17/14 A3017 RMK AO2 SLP212 SCT
     ABV 120 T01670144 10172 20150 53006 $=
METAR KWMC 081156Z AUTO 00000KT 10SM CLR 16/M05 A3007 RMK AO2
     SLP133 T01611050 10228 20161 53009=
METAR KGFA 081156Z AUTO 20004KT 10SM CLR 08/06 A3021 RMK AO2
     SLP248 T00830061 10128 20078 55000 $=
METAR KNUQ 081156Z AUTO 02003KT 10SM OVC011 15/12 A2992 RMK AO2
     SLP134 T01500117 10161 20150 56003 TSNO=
METAR KFLG 081156Z AUTO 00000KT 10SM FEW120 10/00 A3026 RMK AO2
     SLP142 T01000000 10189 20100 53001 TSNO=
METAR K8D3 081156Z AUTO 28008KT 19/14 A3010 RMK AO2 SLP177
     T01890144 10189 20172 50001 PWINO TSNO=
METAR KNFE 081156Z AUTO 07004KT 1 1/2SM HZ FEW100 26/22 A2999 RMK
     AO2 SLP156 60000 T02610217 10261 20233 51013 $=
METAR KSXT 081156Z AUTO 02006KT 9SM CLR 19/10 A3002 RMK AO2 SLP098
     T01940100 10206 20189 55001 TSNO=
METAR KCDJ 081156Z AUTO 36003KT 22/21 A3008 RMK AO2 SLP176 70233
     T02170206 10217 20206 53007 PWINO TSNO=
METAR KALK 081156Z AUTO 08013KT 10SM CLR 22/11 A3009 RMK AO2
     SLP085 T02220106 10261 20217 53005=
METAR KMHS 081156Z AUTO 04003KT 10SM CLR 14/06 A3002 RMK AO2
     SLP147 T01390061 10200 20117 51007 TSNO=
METAR KD07 081156Z AUTO 25004KT 13/08 A3021 RMK AO2 SLP223
     T01330078 10172 20122 51006 PWINO TSNO=
METAR KRIC 081154Z 12005KT 4SM HZ FEW150 SCT250 27/22 A2999 RMK
     AO2 SLP159 T02720222 10272 20239 51005=
METAR KAKQ 081154Z AUTO 00000KT 2SM HZ FEW080 26/23 A3000 RMK AO2
     SLP156 7//// T02560228 10256 20228 51015 TSNO=
METAR KWAL 081154Z 11008KT 10SM FEW010 BKN120 26/22 A3002 RMK AO2
     SLP162 60000 T02610217 10261 20244 51012=
METAR KROA 081154Z 28004KT 6SM HZ CLR 26/19 A3010 RMK AO2 SLP175
     T02610189 10267 20233 53007=
METAR KNRS 081156Z AUTO 30006KT 10SM OVC016 17/14 A2990 RMK AO2
     SLP124 T01720139 10172 20161 55001 TSNO $=
METAR KCVX 081155Z AUTO 24006KT 7SM RA SCT013 BKN019 OVC026 21/20
     A3002 RMK AO2=
METAR KFKS 081155Z AUTO 22007KT 4SM DZ BKN004 OVC007 21/20 A3001
     RMK AO2=
METAR KSLH 081155Z AUTO 27006KT 7SM -RA BKN013 OVC110 22/21 A2998
     RMK AO2=
METAR KSJX 081155Z AUTO 23008KT 1 3/4SM -DZ OVC002 20/18 A2999 RMK
     AO2=
METAR KLDM 081155Z AUTO 22004KT 5SM -RA BKN007 BKN023 OVC033 21/20
     A3002 RMK AO2 P0007=
METAR KGOV 081155Z AUTO 24003KT 7SM DZ SCT055 BKN070 OVC080 22/22
     A3003 RMK AO2=
METAR KPZQ 081155Z AUTO 25003KT 10SM -RA OVC100 23/21 A2999 RMK
     AO2=
METAR KHYX 081155Z AUTO 00000KT 10SM SCT085 BKN120 23/21 A3000 RMK
     AO2=
METAR KPHN 081155Z AUTO 19003KT 7SM CLR 24/21 A3003 RMK AO2=
METAR KONZ 081157Z AUTO 00000KT 10SM CLR 26/21 A3003 RMK AO2=
METAR KISQ 081156Z AUTO 34004KT 2SM BR OVC002 19/18 A2999 RMK
     AO2=
####018003723####
SAUS90 KWBC 081200 RRA
METAR KRMY 081155Z AUTO 00000KT 7SM CLR 23/21 A3005 RMK AO2=
METAR KOSC 081154Z AUTO 22004KT 5SM -RA SCT013 SCT017 SCT110 22/21
     A3000 RMK AO2=
METAR KTTF 081153Z AUTO 00000KT 7SM CLR 25/22 A3003 RMK AO2=
METAR KAMN 081155Z AUTO 24003KT 4SM BR BKN110 23/22 A3002 RMK
     AO2=
METAR KMCD 081156Z AUTO 25003KT 4SM HZ OVC005 21/18 A2999 RMK
     AO2=
METAR KERY 081155Z AUTO 31004KT 7SM -RA OVC003 18/18 A3000 RMK
     AO2=
METAR KDVP 081156Z AUTO 00000KT 10SM CLR 16/13 A3018 RMK AO2
     T01600132 10160 20142=
METAR KCDD 081151Z AUTO 20004KT 10SM CLR 18/17 A3003 RMK AO2=
METAR KFOZ 081153Z AUTO 24003KT 10SM CLR 15/14 A3005 RMK AO2=
METAR KAQP 081153Z AUTO 24003KT 10SM CLR 14/14 A3011 RMK AO2=
METAR KETH 081154Z AUTO 24006KT 10SM CLR 18/16 A3011 RMK AO2=
METAR KXVG 081156Z AUTO 00000KT 10SM CLR 16/15 A3005 RMK AO2=
METAR KORB 081154Z AUTO 00000KT 10SM CLR 15/13 A3000 RMK AO2=
METAR KMZH 081151Z AUTO 00000KT 10SM CLR 15/14 A3005 RMK AO2=
METAR KBFW 081153Z AUTO 28003KT 10SM CLR 19/14 A3001 RMK AO2=
METAR KVWU 081151Z AUTO 26008KT 10SM CLR 18/14 A3003 RMK AO2=
METAR KOWA 081153Z AUTO 31003KT 10SM CLR 17/16 A3011 RMK AO2=
METAR KCDA 081155Z AUTO 00000KT 5SM HZ SCT060 23/19 A3011 RMK
     AO2=
METAR KFKA 081203Z AUTO 33008KT 10SM CLR 19/17 A3010 RMK AO2
     T01850174=
METAR KFPK 081156Z AUTO 00000KT 5SM BR CLR 23/21 A3003 RMK AO2=
METAR KMOP 081154Z AUTO 26004KT 10SM OVC095 23/23 A3002 RMK
     AO2=
METAR KCAD 081154Z AUTO 23006KT 5SM -RA SCT070 OVC090 22/21 A3003
     RMK AO2=
METAR KMGN 081154Z AUTO 26003KT 5SM DZ BKN012 OVC110 22/20 A2999
     RMK AO2=
METAR KHAI 081155Z AUTO 00000KT 5SM BR CLR 23/22 A3005 RMK AO2=
METAR KLWA 081156Z AUTO 00000KT 10SM SCT044 OVC095 23/21 A3003 RMK
     AO2=
METAR KDRM 081156Z AUTO 21003KT 2 1/2SM -RA SCT002 SCT016 OVC110
     20/20 A2997 RMK AO2=
METAR KVLL 081155Z AUTO 24003KT 10SM CLR 27/21 A3006 RMK AO2=
METAR KCFS 081155Z AUTO 25004KT 7SM CLR 25/22 A3002 RMK AO2=
METAR KOZW 081155Z AUTO 00000KT 7SM CLR 25/21 A3005 RMK AO2=
METAR KRNP 081155Z AUTO 00000KT 10SM CLR 25/21 A3003 RMK AO2=
METAR KDUH 081155Z AUTO 00000KT 10SM CLR 25/20 A3005 RMK AO2=
METAR KJYM 081155Z AUTO 00000KT 7SM CLR 23/21 A3007 RMK AO2=
METAR KBAX 081155Z AUTO 24005KT 7SM CLR 25/23 A3001 RMK AO2=
METAR KIRS 081155Z AUTO 00000KT 4SM BR CLR 23/21 A3004 RMK AO2=
METAR KACB 081155Z AUTO 00000KT 5SM -RA SCT016 BKN070 OVC090 23/22
     A3000 RMK AO2=
METAR KRQB 081154Z AUTO 00000KT 5SM RA SCT065 BKN075 OVC090 22/21
     A3004 RMK AO2=
METAR KOEB 081155Z AUTO 00000KT 5SM HZ CLR 24/21 A3006 RMK AO2=
METAR K4I3 081156Z AUTO 00000KT 7SM CLR 22/20 A3010 RMK AO2=
METAR KAUM 081155Z AUTO 32004KT 10SM CLR 18/17 A3010 RMK AO2=
METAR KFFX 081155Z AUTO 17003KT 1 3/4SM BR BKN004 BKN021 OVC060
     22/22 A3002 RMK AO2=
METAR KCNB 081158Z AUTO 25007KT 10SM CLR 18/14 A3014 RMK AO2
     T01750135 10175 20150=
METAR KCKN 081155Z AUTO 00000KT 10SM CLR 14/13 A3006 RMK AO2=
METAR KCFE 081155Z AUTO 27003KT 10SM CLR 18/16 A3012 RMK AO2
     T01820160 10195 20171=
METAR KCQM 081157Z AUTO 24003KT 10SM CLR 16/14 A3003 RMK AO2=
METAR KDTL 081155Z AUTO 22003KT 10SM CLR 16/11 A3011 RMK AO2=
METAR KBDH 081155Z AUTO 25003KT 7SM CLR 16/15 A3014 RMK AO2=
METAR KCBG 081155Z AUTO 00000KT 10SM CLR 17/14 A3009 RMK AO2=
METAR KADC 081157Z AUTO 25004KT 10SM CLR 14/13 A3010 RMK AO2=
METAR KHAF 081150Z AUTO 00000KT 10SM OVC006 12/10 A2993 RMK
     AO2=
METAR KCKC 081155Z AUTO 28006KT 10SM CLR 17/13 A3004 RMK AO2=
METAR KJYG 081155Z AUTO 00000KT 10SM CLR 17/17 A3015 RMK AO2=
METAR KCOQ 081156Z AUTO 27005KT 10SM CLR 16/16 A3006 RMK AO2=
####018000933####
SAUS90 KWBC 081200 RRB
METAR KACQ 081159Z AUTO 30005KT 10SM CLR 17/16 A3014 RMK AO2=
METAR KRGK 081156Z AUTO 27003KT 10SM CLR 19/17 A3009 RMK AO2=
METAR KFSE 081154Z AUTO 20004KT 10SM CLR 13/12 A3006 RMK AO2=
METAR KY70 081155Z AUTO 00000KT 4SM BR CLR 24/22 A3003 RMK AO2
     60012 70012 T02350221 10247 20222=
METAR KUKT 081155Z AUTO 00000KT 6SM CLR 25/22 A3006 RMK AO1=
METAR K3A6 081110Z AUTO 36003KT 11/10 A2988 RMK AO1 SLP138
     T01120101 10130 20110 58009=
METAR PASV 081155Z AUTO 00000KT 10SM SCT080 08/07 A2995 RMK AO1
     T00830067=
METAR KEUF 081158Z AUTO 00000KT 10SM CLR 25/20 A3003 RMK AO2
     SLP163 6//// 7//// T02500200 10250 20206 53005 PNO $=
METAR K4HV 081158Z 00000KT 50SM BKN090 16/M05 RMK NOSPECI
     T01610056 10250 20161 52007=
METAR KNTU 081156Z COR 08006KT 10SM FEW015 SCT050 BKN100 26/23
     A2998 RMK AO2 SLP153 T02560233 10261 20250 53010 CHINO RWY
     05R $=
####018000055####
SAUS90 KWBC 081100 RRH
METAR K8S0 081055Z 26007KT=
####018000795####
SAUS90 KWBC 081200 CCA
METAR KDAB 081153Z 00000KT 10SM FEW020 SCT150 23/21 A3000 RMK AO2
     SLP158 T02330211 10233 20200 51004=
METAR KTUP 081153Z 00000KT 10SM CLR 24/22 A3008 RMK AO2 SLP180
     T02440222 10256 20233 51007=
METAR KBTR 081153Z 08004KT 1 SM BR OVC003 24/23 A3002 RMK AO2 SFC
     VIS 1 SLP164 70070 T02390233 10250 20233 53009 RVRNO $=
METAR KMGM 081153Z 26003KT 10SM CLR 26/23 A3003 RMK AO2 SLP166
     T02560233 10272 20233 53006=
METAR KLOR 081153Z AUTO 00000KT 7SM CLR 22/20 A3003 RMK AO2 SLP166
     T02170200 10222 20206 53007 TSNO $=
METAR KSMP 081156Z AUTO VRB04KT 10SM CLR 16/03 A3015 RMK AO2
     SLP178 T01610033 10183 20156 55003 TSNO $=
METAR KMCN 081153Z 00000KT 10SM CLR 23/21 A3003 RMK AO2 SLP164
     T02280206 10228 20194 53004=
####018000593####
SAAK41 KNKA 081159
METAR PAFS 081156Z AUTO 03005KT 10SM CLR 13/06 A2999 RMK AO2 TSNO 
    56005 T01330061 10205 20127 SLP160 $=
METAR PAIW 081157Z AUTO 00000KT 10SM CLR 08/06 A3016 RMK AO2 SLP310 
    T00780056 10094 20067 58007=
METAR PAMB 081156Z AUTO 01005KT 10SM BKN045 11/08 A2992 RMK AO2 
    PWINO TSNO 58002 T01050077 10116 20100 SLP136 $=
METAR PAVA 081157Z AUTO 02007KT 10SM CLR 10/09 A3007 RMK AO2 SLP186 
    60001 70032 T01000089 10139 20100 56008=
METAR PPIZ 081156Z AUTO 20010KT 10SM CLR 06/02 A3008 RMK AO2 TSNO 
    58006 T00610022 10066 20061 SLP190 $=
####018000582####
SAUS20 KNKA 081159
METAR KUNU 081152Z AUTO 24005KT 3SM BR OVC003 21/20 A3004 RMK AO2 
     60003 70064 T02080196 10216 20205=
METAR KVBS 081155Z AUTO 12023KT 10SM SCT021 29/25 A2994 RMK A01=
METAR KVNP 081155Z AUTO 12013KT 7SM FEW018 SCT026 SCT033 28/25
     A2997 RMK A01=
METAR KWRB 081155Z 36002KT 10SM CLR 23/21 A3003 RMK AO2A RAEMM SLP165
      T02300213 10230 20202 53003=
METAR PGUA 081155Z AUTO 12012G18KT 10SM FEW019 SCT031 SCT045 26/ A2992
      RMK AO2 PK WND 09026/1115 RAB1118E1128 SLP114 P0003 60003
      T0263 10288 20257 53013 VISNO RWY24L $=
####018002903####
SAUS20 KNKA 081159
METAR KBBF 081255Z AUTO 13016G24KT 5SM HZ FEW026 SCT035 BKN046
     28/26 A2982 RMK A01=
METAR KBQX 081155Z AUTO 12015G21KT 7SM FEW019 FEW024 FEW030 29/26
     A2986 RMK A01=
METAR KDLP 081155Z AUTO 10012KT 10SM CLR 28/25 A3000 RMK A01=
METAR KEDU 081155Z AUTO 00000KT 10SM CLR 13/10 A2982 RMK AO1=
METAR KEHC 081155Z AUTO 12024KT 6SM HZ FEW020 29/25 A2993 RMK A01=
METAR KEMK 081155Z AUTO 14024KT 7SM FEW033 FEW040 SCT075 29/25
     A2988 RMK A01=
METAR KESN 081150Z 11004KT 1 1/4SM BR OVC003 24/24 A3005=
METAR KGBK 081155Z AUTO 09012G18KT 10SM FEW019 FEW025 FEW033 29/25
     A2991 RMK A01=
METAR KGTB 081155Z AUTO 22003KT 10SM CLR 27/21 A3004 RMK AO2 SLP171
      T02660213 10266 20214 51005=
METAR KGVX 081155Z AUTO 12023G30KT 7SM FEW023 FEW046 SCT075 M40/
     A2991 RMK A01=
METAR KHQI 081155Z AUTO 11021KT 7SM CLR 29/25 A2991 RMK A01=
METAR KIPN 081155Z AUTO 09015KT 10SM FEW023 FEW029 /53 A3000 RMK
     A01=
METAR KMDJ 081155Z AUTO 11013KT 10SM SCT020 28/24 A3000 RMK A01=
METAR KMHR 081155Z AUTO 17005KT 10SM CLR 12/10 A2985 RMK AO1=
METAR KMIU 081155Z AUTO 10016G21KT 3SM BR FEW021 SCT039 BKN055
     28/26 A2981 RMK A01=
METAR KMYT 081155Z AUTO 12013KT 10SM SCT019 28/24 A2997 RMK A01=
METAR KMZG 081155Z AUTO 00000KT 9SM SCT022 BKN027 OVC055 29/25
     A2982 RMK A01=
METAR KNRB 081152Z 26004KT 10SM CLR 24/22 A3001 RMK AO2 SLP162 T02440217
      10244 20222 53009=
METAR KOZR 081155Z 00000KT 1SM R06/1400V2000FT BR FEW002 22/22 A3004
      RMK AO2A SLP169 T02250225 10235 20212 53006=
METAR KPBH 081155Z AUTO 00000KT 10SM SCT044 19/17 A3007 RMK AO2=
METAR KPCZ 081155Z AUTO 30005KT 7SM SCT006 22/21 A3001 RMK AO2 
     70084 T02220207 10228 20217=
METAR KPDC 081153Z AUTO 29004KT 7SM SCT008 22/20 A3005 RMK AO2 
     70125 T02170203 10225 20217=
METAR KPSM 081155Z 14007KT 10SM FEW080 BKN200 23/20 A3008 RMK AO2A
      SLP187 T02310203 10231 20210 51008=
METAR KRCX 081155Z AUTO 31006KT 10SM SCT044 SCT050 19/17 A3008 
     RMK AO2 70045 T01900170 10203 20175=
METAR KRNH 081156Z AUTO 00000KT 10SM CLR 17/17 A3010 RMK AO2 
     70002 T01740165 10195 20165=
METAR KRPD 081154Z AUTO 30003KT 10SM CLR 18/17 A3009 RMK AO2 
     T01840170 10203 20175=
METAR KRRL 081155Z AUTO 34006KT 5SM BR OVC002 19/18 A3005 RMK AO2 
     70203 T01850180 10192 20170=
METAR KRYV 081155Z AUTO 27004KT 5SM BR BKN005 OVC025 22/21 A3004 
     RMK AO2=
METAR KSCF 081200Z AUTO 13020KT 7SM 29/25 A2990 RMK A01=
METAR KSFB 081153Z 02003KT 10SM SKC 24/22 A3000=
METAR KSTE 081155Z AUTO 36003KT 4SM BR OVC005 20/19 A3004 RMK AO2=
METAR KSUW 081155Z AUTO 22006KT 10SM CLR 17/15 A3003 RMK AO2=
METAR KTKV 081155Z AUTO 00000KT 10SM CLR 18/18 A3005 RMK AO2 
     70026 T01840177 10184 20167=
METAR KTTS 081155Z 33003KT 10SM FEW030 FEW290 25/23 A3000 RMK SLP159
      1SC /0/ 1CI /0/ 53005=
####018000136####
SAUS46 KREV 081159
MTRNFL
METAR KNFL 081156Z AUTO 23004KT 10SM CLR 17/03 A3000 RMK AO2 SLP129 
T01670033 10283 20161 53009 TSNO
####018000141####
SAUS44 KBMX 081159 COR
MTRLOR
METAR KLOR 081153Z AUTO 00000KT 7SM CLR 22/20 A3003 RMK AO2 SLP166 
T02170200 10222 20206 53007 TSNO $
####018000132####
SPCN47 CWAO 081159
SPECI CYZE 081159Z AUTO 19007KT 4SM BR BKN004 BKN110 BKN130 20/20
 A2997 RMK SLP148 DENSITY ALT 1300FT=

####018001656####
SAUS17 KAWN 081200 RRC
METAR KAFF 081155Z AUTO 00000KT 10SM CLR 11/11 A3038 RMK AO2 SLP206
      60001 70011 T01140106 10133 20114 58004=
METAR KBKF 081155Z 14002KT 6SM BR FEW020 FEW120 SCT220 13/13 A3032
      RMK SLP224 70002 57003=
METAR KCVS 081155Z 02005KT 10SM FEW010 BKN120 16/15 A3022 RMK AO2A
      SLP196 70045 T01640150 10177 20164 53008 $=
METAR KFAF 081155Z 09005KT 10SM BKN012 BKN018 27/27 A2999 RMK AO2A
      CIG 011V016 SLP157 60000 T02690269 10269 20249 53012=
METAR KFCS 081155Z AUTO 24007KT 10SM BKN032 14/10 A3035 RMK AO2 SLP206
      60000 T01380104 10143 20129 58007=
METAR KFMH 081155Z AUTO 14009KT 10SM FEW010 SCT017 23/21 A3011 RMK
      AO2=
METAR KFRI 081155Z AUTO 02004KT 6SM BR FEW020 SCT160 22/22 A3010 RMK
      AO2 SLP182 70001 T02180215 10221 20212 50001=
METAR KGSB 081155Z 04005KT 8SM CLR 26/21 A2995 RMK AO2A SLP141 WND
      DATA ESTMD T02580210 10262 20235 53013 $=
METAR KHOP 081155Z AUTO 00000KT 10SM FEW100 25/23 A3008 RMK AO2 SLP182
      T02460226 10255 20231 53006=
METAR KHRT 081155Z 00000KT 10SM CLR 25/25 A3002 RMK AO2A SLP169 T02460246
      10248 20229 53006 $=
METAR KIWA 081156Z AUTO 12006KT 10SM CLR 29/05 A2982 RMK AO2=
METAR KLFI 081155Z 09007KT 10SM FEW011 OVC090 26/22 A3000 RMK AO2A
      SLP159 T02580219 10259 20254 53014 $=
METAR KLSV 081155Z AUTO 11004KT 10SM CLR 24/M03 A2985 RMK AO2 SLP087
      T02401031 10319 20233 53008 PWINO=
METAR KLUF 081155Z 00000KT 10SM SCT170 27/05 A2978 RMK AO2A SLP053
      T02660053 10331 20253 53008 $=
METAR KNBG 081155Z 06004KT 7SM SCT010 BKN250 26/23 A3002 RMK AO2 SLP166
      T02620233 50008 $=
####018000119####
SAUS46 KLOX 081159
MTR3A6
METAR K3A6 081110Z AUTO 36003KT 11/10 A2988 RMK AO1 SLP138 T01120101 10130 20110 58009
####018000142####
SAUS46 KSEW 081159 COR
MTRSMP
METAR KSMP 081156Z AUTO VRB04KT 10SM CLR 16/03 A3015 RMK AO2 SLP178 
T01610033 10183 20156 55003 TSNO $
####018000094####
SACA01 KMSC 081159
METAR MYNN 081200Z 00000KT 9999 SCT012CB SCT015TCU BKN220 26/25 A2995=
####018000843####
SAUS20 KNKA 081159
METAR K4M9 081155Z AUTO 19005KT 6SM BR CLR 25/25 A3006 RMK AO2 =
METAR KAEJ 081155Z AUTO 28003KT 10SM CLR 06/05 A3045 RMK AO2=
METAR KFLL 081153Z COR 08007KT 10SM FEW019 29/24 A2994 RMK AO2 
    SLP138 T02890239 10289 20278 53008=
METAR KHYW 081155Z AUTO 00000KT 7SM CLR 26/23 A2994 RMK AO2=
METAR KJZI 081155Z AUTO 28007KT 10SM CLR 26/24 A2997 RMK A02 P000 
     =
METAR KMCJ 081155Z AUTO 00000KT 1SM BKN001 OVC005 24/23 A2990 RMK 
     AO1 P0026 =
METAR KMEI 081158Z 34003KT 9SM CLR 24/23 A3006 RMK AO2 SLP174 60005 
    70005 T02390228 10239 20217 51008=
METAR KOQU 081152Z 15004KT 3SM BR OVC006 24/ A3013=
METAR KSPF 081155Z AUTO 00000KT 10SM CLR 12/08 A3030 RMK AO2 =
METAR KY50 081156Z AUTO 29005KT 5SM BR OVC005 21/21 A3003 RMK AO2 
    51013 60000 70053 T02050205 10222 20205 SLP162 $=
####018001646####
SAZZ40 KAWN 081200 RRI
METAR KDMA 081155Z AUTO 05011KT 10SM CLR 29/11 A2989 RMK AO2 SLP044
      T02900110 10325 20289 51009 $=
METAR KEND 081155Z 36006KT 10SM FEW040 SCT090 BKN180 BKN220 22/22 A3007
      RMK AO2A SLP170 T02180216 10231 20216 53002=
METAR KFAF 081155Z 09005KT 10SM BKN012 BKN018 27/27 A2999 RMK AO2A
      CIG 011V016 SLP157 60000 T02690269 10269 20249 53012=
METAR KFMH 081155Z AUTO 14009KT 10SM FEW010 SCT017 23/21 A3011 RMK
      AO2=
METAR KHOP 081155Z AUTO 00000KT 10SM FEW100 25/23 A3008 RMK AO2 SLP182
      T02460226 10255 20231 53006=
METAR KLFI 081155Z 09007KT 10SM FEW011 OVC090 26/22 A3000 RMK AO2A
      SLP159 T02580219 10259 20254 53014 $=
METAR KNMM 081156Z 28003KT 10SM FEW250 24/22 A3007 RMK AO2 SLP188 T02440222
      10244 20222 52010=
METAR KPAM 081155Z 35004KT 10SM CLR 25/25 A3002 RMK AO2A SLP167 T02530251
      10253 20229 53007=
METAR KSKF 081155Z 03006KT 7SM -RA FEW011 BKN020 BKN035 25/24 A2993
      RMK AO2A RAE1101B1142 FEW V SCT SLP125 P0000 60000 T02520238
      10264 20252 53001 $=
METAR KVBG 081155Z AUTO 31003KT 10SM OVC004 12/11 A2993 RMK AO2 SLP127
      T01170111 10128 20117 53002 TSNO $=
METAR MROC 081200Z 06004KT 9999 BR FEW003 BKN100 20/20 A3002 RMK VIS
      5000 N LOW ST SSW SE=
METAR OAFZ 081156Z AUTO 04005KT //// ////// 39/M01 Q1013=
METAR OAKN 081150Z 27008KT 9999 FEW150 41/02 Q1006 BLU NOSIG RMK A2973
      DA7200=
METAR PASY 081156Z AUTO 02018G23KT 10SM OVC004 A2974 RMK AO2 SLPNO
      6//// 7//// 54000 TSNO PNO=
METAR SBCB 081200Z 04005KT CAVOK 21/16 Q1019=
METAR TJBQ 081150Z 08006KT 10SM SKC 28/28 A3001=
####018001770####
SAEU KAWN 081200 RRH
METAR EDHL 081150Z 21008KT 160V240 CAVOK 29/12 Q1019 RMK P=
METAR EDLN 081150Z VRB05KT CAVOK 30/10 Q1019 RMK ATIS O=
METAR EDLP 081150Z 19005KT 160V240 CAVOK 29/10 Q1020 RMK RWY24 TRL60
      RU ATIS T=
METAR EDLW 081150Z 22011KT CAVOK 30/09 Q1020 RMK ATIS R=
METAR EDNY 081150Z 19005KT CAVOK 27/11 Q1022 RMK ATIS Q=
METAR EDXW 081150Z 23011KT CAVOK 21/14 Q1019 RMK ATIS INFO W=
METAR EGKB 081150Z 21007KT 170V250 9999 BKN030 23/14 Q1019=
METAR EGNS 081150Z 20009KT 9999 FEW025 17/11 Q1016 NOSIG=
METAR EHAM 081155Z 29006KT 210V350 CAVOK 24/15 Q1019 NOSIG=
METAR EHBK 081155Z AUTO 27006KT 220V330 9999NDV NCD 30/11 Q1019 NOSIG=
METAR EHDL 081155Z AUTO 20008KT 9999NDV NCD 30/12 Q1018 BLU=
METAR EHGG 081155Z AUTO 25010KT 210V280 9999NDV NSC 27/13 Q1018 NOSIG=
METAR EHKD 081155Z AUTO 22009KT 9999NDV BKN069/// BKN130/// 22/16 Q1019
      BLU BLU=
METAR EHRD 081155Z 28006KT 230V360 CAVOK 25/16 Q1019 NOSIG=
METAR ETIK 081155Z AUTO VRB03KT 9999 CLR 27/10 A3019 RMK AO2 SLP208
      60000 T02650098 10270 20183 58006 $=
METAR GVAC 081200Z 07011KT 9999 BKN014 25/20 Q1014 NOSIG=
METAR LEJR 081200Z 22004KT 160V310 CAVOK 31/15 Q1016=
METAR LGBL 081150Z 04006KT 9999 FEW030 SCT080 28/12 Q1013 NOSIG BLU=
METAR LGLR 081150Z 01005KT 9999 FEW030 28/09 Q1014 NOSIG RMK FEW080
      BLU=
METAR LGPZ 081150Z 25011KT 9999 FEW025 27/19 Q1013 NOSIG BLU=
METAR LGRX 081150Z 28011KT 9999 FEW025 28/14 Q1012 NOSIG BLU=
METAR LGSR 081150Z 01014KT 9999 FEW025 27/18 Q1011 NOSIG BLU=
METAR LGSY 081150Z 32012KT 9999 FEW015 SCT020 24/14 Q1013 NOSIG RMK
      SCT080 BLU=
METAR LGTG 081150Z 02010KT 9999 FEW030 SCT070 26/11 Q1014 NOSIG BLU=
METAR LOXT 081150Z 27006KT 50KM FEW050CU 25/12 Q1022 NOSIG RMK FEW=
####018000100####
SAUS98 KWBC 081200
METAR PASV 081155Z AUTO 00000KT 10SM SCT080 08/07 A2995 RMK AO1
T00830067=
####018003714####
SAUS99 KWBC 081200
METAR
KCVX 081155Z AUTO 24006KT 7SM RA SCT013 BKN019 OVC026 21/20 A3002
     RMK AO2=
KFKS 081155Z AUTO 22007KT 4SM DZ BKN004 OVC007 21/20 A3001 RMK
     AO2=
KSLH 081155Z AUTO 27006KT 7SM -RA BKN013 OVC110 22/21 A2998 RMK
     AO2=
KSJX 081155Z AUTO 23008KT 1 3/4SM -DZ OVC002 20/18 A2999 RMK
     AO2=
KLDM 081155Z AUTO 22004KT 5SM -RA BKN007 BKN023 OVC033 21/20 A3002
     RMK AO2 P0007=
KGOV 081155Z AUTO 24003KT 7SM DZ SCT055 BKN070 OVC080 22/22 A3003
     RMK AO2=
KPZQ 081155Z AUTO 25003KT 10SM -RA OVC100 23/21 A2999 RMK AO2=
KHYX 081155Z AUTO 00000KT 10SM SCT085 BKN120 23/21 A3000 RMK
     AO2=
KPHN 081155Z AUTO 19003KT 7SM CLR 24/21 A3003 RMK AO2=
KONZ 081157Z AUTO 00000KT 10SM CLR 26/21 A3003 RMK AO2=
KISQ 081156Z AUTO 34004KT 2SM BR OVC002 19/18 A2999 RMK AO2=
KRMY 081155Z AUTO 00000KT 7SM CLR 23/21 A3005 RMK AO2=
KOSC 081154Z AUTO 22004KT 5SM -RA SCT013 SCT017 SCT110 22/21 A3000
     RMK AO2=
KTTF 081153Z AUTO 00000KT 7SM CLR 25/22 A3003 RMK AO2=
KAMN 081155Z AUTO 24003KT 4SM BR BKN110 23/22 A3002 RMK AO2=
KMCD 081156Z AUTO 25003KT 4SM HZ OVC005 21/18 A2999 RMK AO2=
KERY 081155Z AUTO 31004KT 7SM -RA OVC003 18/18 A3000 RMK AO2=
KDVP 081156Z AUTO 00000KT 10SM CLR 16/13 A3018 RMK AO2 T01600132
     10160 20142=
KCDD 081151Z AUTO 20004KT 10SM CLR 18/17 A3003 RMK AO2=
KFOZ 081153Z AUTO 24003KT 10SM CLR 15/14 A3005 RMK AO2=
KAQP 081153Z AUTO 24003KT 10SM CLR 14/14 A3011 RMK AO2=
KETH 081154Z AUTO 24006KT 10SM CLR 18/16 A3011 RMK AO2=
KXVG 081156Z AUTO 00000KT 10SM CLR 16/15 A3005 RMK AO2=
KORB 081154Z AUTO 00000KT 10SM CLR 15/13 A3000 RMK AO2=
KMZH 081151Z AUTO 00000KT 10SM CLR 15/14 A3005 RMK AO2=
KBFW 081153Z AUTO 28003KT 10SM CLR 19/14 A3001 RMK AO2=
KVWU 081151Z AUTO 26008KT 10SM CLR 18/14 A3003 RMK AO2=
KOWA 081153Z AUTO 31003KT 10SM CLR 17/16 A3011 RMK AO2=
KCDA 081155Z AUTO 00000KT 5SM HZ SCT060 23/19 A3011 RMK AO2=
KFKA 081203Z AUTO 33008KT 10SM CLR 19/17 A3010 RMK AO2
     T01850174=
KFPK 081156Z AUTO 00000KT 5SM BR CLR 23/21 A3003 RMK AO2=
KMOP 081154Z AUTO 26004KT 10SM OVC095 23/23 A3002 RMK AO2=
KCAD 081154Z AUTO 23006KT 5SM -RA SCT070 OVC090 22/21 A3003 RMK
     AO2=
KMGN 081154Z AUTO 26003KT 5SM DZ BKN012 OVC110 22/20 A2999 RMK
     AO2=
KHAI 081155Z AUTO 00000KT 5SM BR CLR 23/22 A3005 RMK AO2=
KLWA 081156Z AUTO 00000KT 10SM SCT044 OVC095 23/21 A3003 RMK
     AO2=
KDRM 081156Z AUTO 21003KT 2 1/2SM -RA SCT002 SCT016 OVC110 20/20
     A2997 RMK AO2=
KVLL 081155Z AUTO 24003KT 10SM CLR 27/21 A3006 RMK AO2=
KCFS 081155Z AUTO 25004KT 7SM CLR 25/22 A3002 RMK AO2=
KOZW 081155Z AUTO 00000KT 7SM CLR 25/21 A3005 RMK AO2=
KRNP 081155Z AUTO 00000KT 10SM CLR 25/21 A3003 RMK AO2=
KDUH 081155Z AUTO 00000KT 10SM CLR 25/20 A3005 RMK AO2=
KJYM 081155Z AUTO 00000KT 7SM CLR 23/21 A3007 RMK AO2=
KBAX 081155Z AUTO 24005KT 7SM CLR 25/23 A3001 RMK AO2=
KIRS 081155Z AUTO 00000KT 4SM BR CLR 23/21 A3004 RMK AO2=
KACB 081155Z AUTO 00000KT 5SM -RA SCT016 BKN070 OVC090 23/22 A3000
     RMK AO2=
KRQB 081154Z AUTO 00000KT 5SM RA SCT065 BKN075 OVC090 22/21 A3004
     RMK AO2=
KOEB 081155Z AUTO 00000KT 5SM HZ CLR 24/21 A3006 RMK AO2=
K4I3 081156Z AUTO 00000KT 7SM CLR 22/20 A3010 RMK AO2=
KAUM 081155Z AUTO 32004KT 10SM CLR 18/17 A3010 RMK AO2=
KFFX 081155Z AUTO 17003KT 1 3/4SM BR BKN004 BKN021 OVC060 22/22
     A3002 RMK AO2=
KCNB 081158Z AUTO 25007KT 10SM CLR 18/14 A3014 RMK AO2 T01750135
     10175 20150=
KCKN 081155Z AUTO 00000KT 10SM CLR 14/13 A3006 RMK AO2=
KCFE 081155Z AUTO 27003KT 10SM CLR 18/16 A3012 RMK AO2 T01820160
     10195 20171=
KCQM 081157Z AUTO 24003KT 10SM CLR 16/14 A3003 RMK AO2=
####018001649####
SAUS99 KWBC 081200 RRB
METAR
KRCX 081155Z AUTO 31006KT 10SM SCT044 SCT050 19/17 A3008 RMK AO2
     70045 T01900170 10203 20175=
KRNH 081156Z AUTO 00000KT 10SM CLR 17/17 A3010 RMK AO2 70002
     T01740165 10195 20165=
KRPD 081154Z AUTO 30003KT 10SM CLR 18/17 A3009 RMK AO2 T01840170
     10203 20175=
KRRL 081155Z AUTO 34006KT 5SM BR OVC002 19/18 A3005 RMK AO2 70203
     T01850180 10192 20170=
KRYV 081155Z AUTO 27004KT 5SM BR BKN005 OVC025 22/21 A3004 RMK
     AO2=
KSCF 081200Z AUTO 13020KT 7SM 29/25 A2990 RMK A01=
KSFB 081153Z 02003KT 10SM SKC 24/22 A3000=
KSTE 081155Z AUTO 36003KT 4SM BR OVC005 20/19 A3004 RMK AO2=
KSUW 081155Z AUTO 22006KT 10SM CLR 17/15 A3003 RMK AO2=
KTKV 081155Z AUTO 00000KT 10SM CLR 18/18 A3005 RMK AO2 70026
     T01840177 10184 20167=
KTTS 081155Z 33003KT 10SM FEW030 FEW290 25/23 A3000 RMK SLP159 1SC
     /0/ 1CI /0/ 53005=
K4M9 081155Z AUTO 19005KT 6SM BR CLR 25/25 A3006 RMK AO2=
KAEJ 081155Z AUTO 28003KT 10SM CLR 06/05 A3045 RMK AO2=
KFLL 081153Z COR 08007KT 10SM FEW019 29/24 A2994 RMK AO2 SLP138
     T02890239 10289 20278 53008=
KHYW 081155Z AUTO 00000KT 7SM CLR 26/23 A2994 RMK AO2=
KJZI 081155Z AUTO 28007KT 10SM CLR 26/24 A2997 RMK A02 P000=
KMCJ 081155Z AUTO 00000KT 1SM BKN001 OVC005 24/23 A2990 RMK AO1
     P0026=
KMEI 081158Z 34003KT 9SM CLR 24/23 A3006 RMK AO2 SLP174 60005
     70005 T02390228 10239 20217 51008=
KOQU 081152Z 15004KT 3SM BR OVC006 24/ A3013=
KSPF 081155Z AUTO 00000KT 10SM CLR 12/08 A3030 RMK AO2=
KY50 081156Z AUTO 29005KT 5SM BR OVC005 21/21 A3003 RMK AO2 51013
     60000 70053 T02050205 10222 20205 SLP162 $=
####018003693####
SAUS99 KWBC 081200 RRA
METAR
KDTL 081155Z AUTO 22003KT 10SM CLR 16/11 A3011 RMK AO2=
KBDH 081155Z AUTO 25003KT 7SM CLR 16/15 A3014 RMK AO2=
KCBG 081155Z AUTO 00000KT 10SM CLR 17/14 A3009 RMK AO2=
KADC 081157Z AUTO 25004KT 10SM CLR 14/13 A3010 RMK AO2=
KHAF 081150Z AUTO 00000KT 10SM OVC006 12/10 A2993 RMK AO2=
KCKC 081155Z AUTO 28006KT 10SM CLR 17/13 A3004 RMK AO2=
KJYG 081155Z AUTO 00000KT 10SM CLR 17/17 A3015 RMK AO2=
KCOQ 081156Z AUTO 27005KT 10SM CLR 16/16 A3006 RMK AO2=
KACQ 081159Z AUTO 30005KT 10SM CLR 17/16 A3014 RMK AO2=
KRGK 081156Z AUTO 27003KT 10SM CLR 19/17 A3009 RMK AO2=
KFSE 081154Z AUTO 20004KT 10SM CLR 13/12 A3006 RMK AO2=
KY70 081155Z AUTO 00000KT 4SM BR CLR 24/22 A3003 RMK AO2 60012
     70012 T02350221 10247 20222=
KUKT 081155Z AUTO 00000KT 6SM CLR 25/22 A3006 RMK AO1=
KUNU 081152Z AUTO 24005KT 3SM BR OVC003 21/20 A3004 RMK AO2 60003
     70064 T02080196 10216 20205=
KVBS 081155Z AUTO 12023KT 10SM SCT021 29/25 A2994 RMK A01=
KVNP 081155Z AUTO 12013KT 7SM FEW018 SCT026 SCT033 28/25 A2997 RMK
     A01=
KWRB 081155Z 36002KT 10SM CLR 23/21 A3003 RMK AO2A RAEMM SLP165
     T02300213 10230 20202 53003=
PGUA 081155Z AUTO 12012G18KT 10SM FEW019 SCT031 SCT045 26/ A2992
     RMK AO2 PK WND 09026/1115 RAB1118E1128 SLP114 P0003 60003
     T0263 10288 20257 53013 VISNO RWY24L $=
PAFS 081156Z AUTO 03005KT 10SM CLR 13/06 A2999 RMK AO2 TSNO 56005
     T01330061 10205 20127 SLP160 $=
PAIW 081157Z AUTO 00000KT 10SM CLR 08/06 A3016 RMK AO2 SLP310
     T00780056 10094 20067 58007=
PAMB 081156Z AUTO 01005KT 10SM BKN045 11/08 A2992 RMK AO2 PWINO
     TSNO 58002 T01050077 10116 20100 SLP136 $=
PAVA 081157Z AUTO 02007KT 10SM CLR 10/09 A3007 RMK AO2 SLP186
     60001 70032 T01000089 10139 20100 56008=
PPIZ 081156Z AUTO 20010KT 10SM CLR 06/02 A3008 RMK AO2 TSNO 58006
     T00610022 10066 20061 SLP190 $=
KBBF 081255Z AUTO 13016G24KT 5SM HZ FEW026 SCT035 BKN046 28/26
     A2982 RMK A01=
KBQX 081155Z AUTO 12015G21KT 7SM FEW019 FEW024 FEW030 29/26 A2986
     RMK A01=
KDLP 081155Z AUTO 10012KT 10SM CLR 28/25 A3000 RMK A01=
KEDU 081155Z AUTO 00000KT 10SM CLR 13/10 A2982 RMK AO1=
KEHC 081155Z AUTO 12024KT 6SM HZ FEW020 29/25 A2993 RMK A01=
KEMK 081155Z AUTO 14024KT 7SM FEW033 FEW040 SCT075 29/25 A2988 RMK
     A01=
KESN 081150Z 11004KT 1 1/4SM BR OVC003 24/24 A3005=
KGBK 081155Z AUTO 09012G18KT 10SM FEW019 FEW025 FEW033 29/25 A2991
     RMK A01=
KGTB 081155Z AUTO 22003KT 10SM CLR 27/21 A3004 RMK AO2 SLP171
     T02660213 10266 20214 51005=
KGVX 081155Z AUTO 12023G30KT 7SM FEW023 FEW046 SCT075 M40/ A2991
     RMK A01=
KHQI 081155Z AUTO 11021KT 7SM CLR 29/25 A2991 RMK A01=
KIPN 081155Z AUTO 09015KT 10SM FEW023 FEW029 /53 A3000 RMK A01=
KMDJ 081155Z AUTO 11013KT 10SM SCT020 28/24 A3000 RMK A01=
KMHR 081155Z AUTO 17005KT 10SM CLR 12/10 A2985 RMK AO1=
KMIU 081155Z AUTO 10016G21KT 3SM BR FEW021 SCT039 BKN055 28/26
     A2981 RMK A01=
KMYT 081155Z AUTO 12013KT 10SM SCT019 28/24 A2997 RMK A01=
KMZG 081155Z AUTO 00000KT 9SM SCT022 BKN027 OVC055 29/25 A2982 RMK
     A01=
KNRB 081152Z 26004KT 10SM CLR 24/22 A3001 RMK AO2 SLP162 T02440217
     10244 20222 53009=
KOZR 081155Z 00000KT 1SM R06/1400V2000FT BR FEW002 22/22 A3004 RMK
     AO2A SLP169 T02250225 10235 20212 53006=
KPBH 081155Z AUTO 00000KT 10SM SCT044 19/17 A3007 RMK AO2=
KPCZ 081155Z AUTO 30005KT 7SM SCT006 22/21 A3001 RMK AO2 70084
     T02220207 10228 20217=
KPDC 081153Z AUTO 29004KT 7SM SCT008 22/20 A3005 RMK AO2 70125
     T02170203 10225 20217=
KPSM 081155Z 14007KT 10SM FEW080 BKN200 23/20 A3008 RMK AO2A
     SLP187 T02310203 10231 20210 51008=
####018000163####
SAUS41 KAKQ 081159
MTRNTU
METAR KNTU 081156Z COR 08006KT 10SM FEW015 SCT050 BKN100 26/23 A2998 
RMK AO2 SLP153 T02560233 10261 20250 53010 CHINO RWY 05R $
####018000130####
SAUS42 KFFC 081159 COR
MTRMCN
METAR KMCN 081153Z 00000KT 10SM CLR 23/21 A3003 RMK AO2 SLP164 
T02280206 10228 20194 53004
####018000149####
SAUS44 KBMX 081159
MTREUF
METAR KEUF 081158Z AUTO 00000KT 10SM CLR 25/20 A3003 RMK AO2 SLP163 
6//// 7//// T02500200 10250 20206 53005 PNO $
####018000131####
SAUS45 KSLC 081159
MTR4HV

METAR K4HV 081158Z 00000KT 50SM BKN090 16/M05 RMK NOSPECI T01610056 
10250 20161 52007 


####018000077####
SAAG SAWH 081200
METAR SAWH 081200Z  00000KT 9999  FEW025  01/M01
Q0983=
####018000424####
SAUK37 EGGY 081150
METAR EGAE 081150Z NIL=
METAR EGNC 081150Z 24014KT 210V290 9999 FEW020 BKN025 17/09 Q1015=
METAR EGNH 081150Z 24011KT 9999 FEW024 19/11 Q1017=
METAR EGNJ 081150Z 22013KT 9999 SCT033 21/10 Q1017=
METAR EGNR 081150Z 24014KT 9999 SCT030 22/09 Q1017=
METAR EGPE 081150Z 22021KT 9999 -SHRA FEW012 SCT036 16/10 Q1010=
METAR EGPI 081150Z NIL=
METAR EGPN 081150Z 24017KT 9999 FEW032 SCT045 17/12 Q1012=
####018000418####
SAUK38 EGGY 081150
METAR EGEC 081150Z 21014KT 9999 FEW020 SCT030 16/09 Q1013=
METAR EGPA 081150Z 21014KT 9999 VCSH FEW020TCU SCT048 15/12
    Q1007=
METAR EGPC 081150Z 20015G25KT 9999 FEW020 15/11 Q1008=
METAR EGPL 081150Z 21022KT 9999 VCSH FEW018 16/12 Q1008=
METAR COR EGPM 081150Z 21024KT 9999 SCT028 17/10 Q1006 NOSIG=
METAR EGPO 081150Z 23025KT 9999 FEW020CB SCT030 18/11 Q1006=
METAR EGPU 081150Z NIL=
####018000312####
SAUK51 EGGY 081150
METAR EGDL 081150Z 23009KT 9999 FEW030 BKN250 21/10 Q1018 NOSIG=
METAR EGDM 081150Z NIL=
METAR EGDY 081150Z NIL=
METAR EGOV 081150Z NIL=
METAR EGUB 081150Z NIL=
METAR EGVN 081150Z NIL=
METAR EGWU 081150Z NIL=
METAR EGXC 081150Z NIL=
METAR EGXT 081150Z NIL=
METAR EGYD 081150Z NIL=
####018000074####
SABZ20 SBSL 081200
METAR SBSL 081200Z 09010KT 9999 SCT017 29/25 Q1014=
####018000482####
SAUK36 EGGY 081150
METAR EGBE 081150Z NIL=
METAR EGBJ 081150Z 25003KT 9999 FEW035 22/08 Q1018=
METAR EGCN 081150Z 23014KT 9999 FEW041 22/09 Q1017=
METAR EGDL 081150Z 23009KT 9999 FEW030 BKN250 21/10 Q1018 NOSIG=
METAR EGSC 081150Z 24008KT 190V270 9999 SCT028 22/13 Q1018=
METAR COR EGSD 081150Z 23006KT 9999 SCT015 BKN030 22/18 Q1018 NOSIG=
METAR COR EGSH 081150Z 25009KT 220V280 9999 SCT018 SCT030 22/15
    Q1018 NOSIG=
METAR EGVN 081150Z NIL=
METAR EGWU 081150Z NIL=
