####018001149####
SAUS90 KWBC 081320 RRA
METAR KOSC 081314Z AUTO 23004KT 7SM OVC075 23/21 A3000 RMK AO2=
METAR KTTF 081314Z AUTO 27003KT 10SM CLR 29/22 A3003 RMK AO2=
METAR KAMN 081316Z AUTO 25003KT 7SM BKN060 24/22 A3002 RMK AO2=
METAR KMCD 081316Z AUTO 00000KT 1/4SM HZ OVC001 20/17 A3001 RMK
     AO2=
METAR KERY 081316Z AUTO 33003KT 7SM OVC003 18/17 A3001 RMK AO2=
METAR KDVP 081316Z AUTO 27006KT 10SM CLR 19/14 A3019 RMK AO2
     T01900140=
METAR KCDD 081311Z AUTO 25003KT 10SM CLR 21/18 A3003 RMK AO2=
METAR KFOZ 081313Z AUTO 24004KT 10SM CLR 18/15 A3006 RMK AO2=
METAR KAQP 081313Z AUTO 26006KT 10SM CLR 18/18 A3012 RMK AO2=
METAR KETH 081314Z AUTO 27004KT 10SM CLR 20/16 A3011 RMK AO2=
METAR KXVG 081316Z AUTO 27005KT 10SM CLR 19/15 A3006 RMK AO2=
METAR KORB 081314Z AUTO 26004KT 10SM CLR 18/14 A3002 RMK AO2=
METAR KMZH 081311Z AUTO 28006KT 10SM CLR 19/15 A3006 RMK AO2=
METAR KBFW 081313Z AUTO 27004KT 10SM CLR 22/16 A3002 RMK AO2=
METAR KVWU 081311Z AUTO 26007KT 10SM CLR 19/15 A3004 RMK AO2=
METAR KOWA 081313Z AUTO 31007KT 10SM CLR 19/17 A3012 RMK AO2=
METAR KCDA 081315Z AUTO 18004KT 7SM CLR 26/21 A3010 RMK AO2=
####018000198####
SPUS90 KWBC 081320
SPECI KNYC 081317Z AUTO VRB04KT 5SM HZ BKN013 OVC020 26/23 A3008
     RMK AO2 TSNO $=
SPECI KATT 081317Z AUTO VRB04KT 9SM FEW007 BKN032 OVC060 26/23
     A2999 RMK AO2=
####018003686####
SAUS90 KWBC 081320
METAR KFKA 081323Z AUTO 36008KT 10SM SCT009 20/18 A3012 RMK AO2
     T02010175=
METAR KFPK 081316Z AUTO 00000KT 10SM CLR 25/21 A3003 RMK AO2=
METAR KMOP 081314Z AUTO 27007KT 10SM -RA OVC060 23/23 A3003 RMK
     AO2=
METAR KCAD 081315Z AUTO 25005KT 4SM -RA SCT008 BKN023 OVC050 22/21
     A3004 RMK AO2=
METAR KMGN 081315Z AUTO 27005KT 3SM -RA SCT002 OVC010 21/20 A3000
     RMK AO2=
METAR KHAI 081315Z AUTO 00000KT 10SM SCT075 25/22 A3004 RMK
     AO2=
METAR KLWA 081316Z AUTO 00000KT 10SM BKN060 BKN100 23/21 A3002 RMK
     AO2=
METAR KDRM 081316Z AUTO 22005KT 5SM -RA SCT006 SCT019 OVC040 21/21
     A2998 RMK AO2=
METAR KVLL 081314Z AUTO 26007KT 10SM CLR 30/19 A3006 RMK AO2=
METAR KCFS 081315Z AUTO 22003KT 10SM CLR 27/21 A3002 RMK AO2=
METAR KOZW 081315Z AUTO 00000KT 10SM CLR 27/21 A3005 RMK AO2=
METAR KRNP 081315Z AUTO 00000KT 10SM CLR 27/21 A3003 RMK AO2=
METAR KDUH 081314Z AUTO 00000KT 10SM CLR 30/20 A3004 RMK AO2=
METAR KJYM 081315Z AUTO 00000KT 10SM CLR 26/21 A3007 RMK AO2=
METAR KBAX 081315Z AUTO 25004KT 10SM CLR 26/23 A3001 RMK AO2=
METAR KIRS 081315Z AUTO 10004KT 10SM CLR 26/21 A3004 RMK AO2=
METAR KACB 081315Z AUTO 20003KT 7SM -DZ OVC011 23/22 A3001 RMK
     AO2=
METAR KRQB 081314Z AUTO 00000KT 5SM -RA SCT012 OVC055 22/22 A3004
     RMK AO2=
METAR KOEB 081315Z AUTO 09004KT 10SM CLR 27/22 A3005 RMK AO2=
METAR K4I3 081316Z AUTO 21003KT 7SM CLR 26/21 A3010 RMK AO2=
METAR KAUM 081315Z AUTO 34007KT 10SM CLR 20/17 A3011 RMK AO2=
METAR KFFX 081315Z AUTO 19003KT 7SM SCT046 BKN055 BKN070 23/22
     A3002 RMK AO2=
METAR KCNB 081318Z AUTO 25007KT 10SM CLR 21/14 A3015 RMK AO2
     T02080144=
METAR KCKN 081315Z AUTO 29006KT 10SM CLR 18/14 A3008 RMK AO2=
METAR KCFE 081315Z AUTO 25005KT 10SM CLR 20/17 A3013 RMK AO2
     T02010165=
METAR KCQM 081317Z AUTO 24007KT 10SM CLR 18/15 A3005 RMK AO2=
METAR KDTL 081315Z AUTO 28005KT 10SM CLR 20/12 A3011 RMK AO2=
METAR KBDH 081315Z AUTO 28004KT 10SM CLR 19/16 A3014 RMK AO2=
METAR KCBG 081315Z AUTO 27005KT 10SM CLR 20/16 A3010 RMK AO2=
METAR KADC 081317Z AUTO 27005KT 10SM CLR 17/15 A3009 RMK AO2=
METAR KHAF 081310Z AUTO 30004KT 7SM OVC006 12/10 A2995 RMK AO2=
METAR KCKC 081315Z AUTO 26004KT 10SM CLR 19/14 A3004 RMK AO2=
METAR KJYG 081314Z AUTO 29006KT 10SM CLR 20/19 A3016 RMK AO2=
METAR KCOQ 081316Z AUTO 27007KT 10SM CLR 19/18 A3007 RMK AO2=
METAR KACQ 081319Z AUTO 32007KT 10SM CLR 18/16 A3015 RMK AO2=
METAR KRGK 081315Z AUTO 30004KT 10SM CLR 21/18 A3009 RMK AO2=
METAR KFSE 081314Z AUTO 23004KT 10SM CLR 17/13 A3006 RMK AO2=
METAR KY70 081315Z AUTO 00000KT 5SM HZ SCT006 SCT120 25/22 A3003
     RMK AO2 T02480222=
METAR KUKT 081310Z AUTO 08004KT 8SM CLR 28/22 A3006 RMK AO1=
METAR KCVX 081315Z AUTO 23004KT 3SM -RA BKN004 BKN015 OVC050 21/20
     A3002 RMK AO2=
METAR KFKS 081315Z AUTO 26005KT 7SM SCT004 SCT017 21/20 A3001 RMK
     AO2=
METAR KSLH 081315Z AUTO 24004KT 5SM -RA SCT011 SCT014 BKN029 22/21
     A2999 RMK AO2=
METAR KSJX 081316Z AUTO 26004KT 1/2SM FG OVC002 20/18 A3000 RMK
     AO2=
METAR KLDM 081316Z AUTO 23004KT 7SM OVC005 22/21 A3002 RMK AO2=
METAR KGOV 081315Z AUTO 28003KT 5SM -RA SCT006 SCT030 BKN046 22/22
     A3004 RMK AO2=
METAR KPZQ 081315Z AUTO 00000KT 10SM SCT043 SCT050 OVC075 22/21
     A3000 RMK AO2=
METAR KHYX 081315Z AUTO 26005KT 10SM CLR 25/21 A3002 RMK AO2=
METAR KPHN 081316Z AUTO 19003KT 10SM CLR 27/21 A3002 RMK AO2=
METAR KONZ 081317Z AUTO 00000KT 10SM CLR 29/21 A3002 RMK AO2=
METAR KISQ 081315Z AUTO 36005KT 10SM OVC004 20/18 A3000 RMK
     AO2=
METAR KRMY 081316Z AUTO 00000KT 10SM CLR 26/22 A3004 RMK AO2=
####018000451####
SPUS99 KWBC 081320
SPECI
PAHC 081317Z AUTO 00000KT 1/4SM FG CLR 07/06 A2998 RMK AO2 TSNO
     $=
KCNO 081318Z AUTO 20004KT 2 1/2SM HZ OVC011 16/13 A2993 RMK
     AO2=
KMKC 081318Z 35005KT 9SM OVC010 23/21 A3009 RMK AO2=
KONT 081318Z 20005KT 2 1/2SM BR OVC010 15/13 A2991 RMK AO2=
KTOR 081318Z AUTO 00000KT 10SM BKN030 13/11 A3031 RMK AO2=
KVIH 081318Z AUTO 00000KT 10SM BKN007 BKN015 OVC046 24/22 A3008
     RMK AO2 RAE12 P0000=
####018000086####
SAFR36 LFPW 081300 RRA
METAR LFBE 081300Z 13006KT 080V170 CAVOK 34/14 Q1016 NOSIG=
####018003741####
SAUS99 KWBC 081320
METAR
KCVX 081315Z AUTO 23004KT 3SM -RA BKN004 BKN015 OVC050 21/20 A3002
     RMK AO2=
KFKS 081315Z AUTO 26005KT 7SM SCT004 SCT017 21/20 A3001 RMK
     AO2=
KSLH 081315Z AUTO 24004KT 5SM -RA SCT011 SCT014 BKN029 22/21 A2999
     RMK AO2=
KSJX 081316Z AUTO 26004KT 1/2SM FG OVC002 20/18 A3000 RMK AO2=
KLDM 081316Z AUTO 23004KT 7SM OVC005 22/21 A3002 RMK AO2=
KGOV 081315Z AUTO 28003KT 5SM -RA SCT006 SCT030 BKN046 22/22 A3004
     RMK AO2=
KPZQ 081315Z AUTO 00000KT 10SM SCT043 SCT050 OVC075 22/21 A3000
     RMK AO2=
KHYX 081315Z AUTO 26005KT 10SM CLR 25/21 A3002 RMK AO2=
KPHN 081316Z AUTO 19003KT 10SM CLR 27/21 A3002 RMK AO2=
KONZ 081317Z AUTO 00000KT 10SM CLR 29/21 A3002 RMK AO2=
KISQ 081315Z AUTO 36005KT 10SM OVC004 20/18 A3000 RMK AO2=
KRMY 081316Z AUTO 00000KT 10SM CLR 26/22 A3004 RMK AO2=
KOSC 081314Z AUTO 23004KT 7SM OVC075 23/21 A3000 RMK AO2=
KTTF 081314Z AUTO 27003KT 10SM CLR 29/22 A3003 RMK AO2=
KAMN 081316Z AUTO 25003KT 7SM BKN060 24/22 A3002 RMK AO2=
KMCD 081316Z AUTO 00000KT 1/4SM HZ OVC001 20/17 A3001 RMK AO2=
KERY 081316Z AUTO 33003KT 7SM OVC003 18/17 A3001 RMK AO2=
KDVP 081316Z AUTO 27006KT 10SM CLR 19/14 A3019 RMK AO2
     T01900140=
KCDD 081311Z AUTO 25003KT 10SM CLR 21/18 A3003 RMK AO2=
KFOZ 081313Z AUTO 24004KT 10SM CLR 18/15 A3006 RMK AO2=
KAQP 081313Z AUTO 26006KT 10SM CLR 18/18 A3012 RMK AO2=
KETH 081314Z AUTO 27004KT 10SM CLR 20/16 A3011 RMK AO2=
KXVG 081316Z AUTO 27005KT 10SM CLR 19/15 A3006 RMK AO2=
KORB 081314Z AUTO 26004KT 10SM CLR 18/14 A3002 RMK AO2=
KMZH 081311Z AUTO 28006KT 10SM CLR 19/15 A3006 RMK AO2=
KBFW 081313Z AUTO 27004KT 10SM CLR 22/16 A3002 RMK AO2=
KVWU 081311Z AUTO 26007KT 10SM CLR 19/15 A3004 RMK AO2=
KOWA 081313Z AUTO 31007KT 10SM CLR 19/17 A3012 RMK AO2=
KCDA 081315Z AUTO 18004KT 7SM CLR 26/21 A3010 RMK AO2=
K14Y 081319Z AUTO 26007KT 10SM CLR 20/16 A3011 RMK AO2
     T02000162=
KBBF 081415Z AUTO 14014G22KT 2 1/2SM BR FEW003 FEW017 SCT055 27/25
     A2983 RMK A01=
KBQX 081315Z AUTO 12016G22KT 8SM FEW022 SCT026 BKN031 29/26 A2987
     RMK A01=
KDLP 081315Z AUTO 09013KT 9SM FEW018 SCT025 28/25 A3002 RMK
     A01=
KEDU 081315Z AUTO 00000KT 10SM CLR 13/10 A2983 RMK AO1=
KEHC 081315Z AUTO 13022KT 6SM HZ SCT021 SCT030 29/25 A2996 RMK
     A01=
KEMK 081315Z AUTO 14021KT 8SM FEW050 SCT080 29/25 A2990 RMK
     A01=
KETB 081312Z AUTO 25003KT 10SM BKN009 OVC032 23/21 A3003 RMK AO2
     T02250205=
KEZS 081315Z AUTO 36004KT 10SM SCT010 24/21 A3001 RMK AO2
     T02350205=
KGBK 081315Z AUTO 08011G41KT 10SM SCT017 29/25 A2994 RMK A01=
KGLW 081313Z AUTO 00000KT 10SM CLR 28/21 A3009 RMK AO2
     T02800213=
KGVX 081315Z AUTO 12025KT 9SM FEW022 SCT070 M40/ A2992 RMK A01=
KHFJ 081315Z AUTO 00000KT 10SM SCT023 OVC034 23/23 A3007 RMK
     AO1=
KHQI 081315Z AUTO 10019KT 6SM HZ FEW017 SCT023 SCT033 29/26 A2992
     RMK A01=
KIPN 081315Z AUTO 07013KT 10SM FEW026 /54 A3001 RMK A01=
KLNL 081315Z AUTO 34007KT 10SM BKN050 BKN080 19/15 A3007 RMK AO2
     T01900146=
KLUM 081315Z AUTO 30008KT 10SM CLR 20/16 A3009 RMK AO2=
KMDJ 081315Z AUTO 11015KT 10SM FEW021 FEW027 29/24 A3002 RMK
     A01=
KMDZ 081315Z AUTO 33006KT 10SM CLR 20/18 A3007 RMK AO2=
KMHR 081315Z AUTO 16005KT 9SM CLR 12/10 A2986 RMK AO1=
KMIU 081315Z AUTO 12024KT 8SM FEW017 SCT039 BKN065 28/26 A2982 RMK
     A01=
KMRJ 081315Z AUTO 00000KT 7SM BKN005 23/20 A3007 RMK AO2
     T02310202=
KMYT 081315Z AUTO 11017KT 10SM FEW022 28/23 A2999 RMK A01=
KMZG 081315Z AUTO 00000KT 9SM SCT020 SCT024 BKN050 28/25 A2984 RMK
     A01=
KOEO 081315Z AUTO 28003KT 10SM CLR 20/17 A3012 RMK AO2=
KPBH 081315Z AUTO 33004KT 10SM CLR 21/18 A3009 RMK AO2=
####018000093####
SPPQ50 KWBC 081320
SPECI
PGRO 081312Z 11011KT 7SM FEW020 SCT050 27/24 A2992 RMK FIRST=
####018003748####
SAUS70 KWBC 081320
METAR
KLCK 081315Z AUTO 00000KT 7SM CLR 27/22 A3008 RMK AO2
     T02710216=
KLJF 081312Z AUTO 30007KT 10SM CLR 21/17 A3013 RMK AO2=
KLVN 081308Z AUTO 29005KT 10SM CLR 19/17 A3012 RMK AO2=
KLXL 081314Z AUTO 28004KT 10SM CLR 19/15 A3008 RMK AO2=
KMCJ 081315Z AUTO 09011KT 9SM FEW070 SCT090 24/23 A2994 RMK
     AO1=
KMDS 081305Z AUTO 27005KT 10SM CLR 19/16 A3018 RMK AO2=
KMGG 081315Z AUTO 27005KT 10SM CLR 20/17 A3013 RMK AO2
     T02030166=
KMJQ 081312Z AUTO 32004KT 10SM CLR 18/15 A3017 RMK AO2=
KMOX 081310Z AUTO 27005KT 10SM CLR 21/17 A3008 RMK AO2=
KMVE 081314Z AUTO 30005KT 10SM CLR 19/17 A3011 RMK AO2=
KMWM 081313Z AUTO 28006KT 10SM CLR 19/16 A3016 RMK AO2=
KMWO 081315Z AUTO 00000KT 5SM HZ CLR 26/22 A3008 RMK AO2=
KONA 081311Z AUTO 33008KT 10SM CLR 21/17 A3008 RMK AO2=
KOVL 081314Z AUTO 29006KT 10SM CLR 18/14 A3013 RMK AO2
     T01810142=
KPEX 081313Z AUTO 26008KT 10SM CLR 19/17 A3012 RMK AO2
     T01920166=
KPNM 081313Z AUTO 24004KT 10SM CLR 20/16 A3011 RMK AO2=
KPQN 081313Z AUTO 32007KT 10SM CLR 19/14 A3018 RMK AO2=
KPVB 081313Z AUTO 00000KT 7SM BKN005 22/21 A3007 RMK AO1
     T02200209=
KPWC 081313Z AUTO 27003KT 10SM CLR 18/15 A3009 RMK AO2=
KRCM 081315Z AUTO 04003KT 10SM BKN006 OVC011 23/23 A3009 RMK
     AO2=
KROX 081314Z AUTO 27007KT 10SM CLR 18/15 A3003 RMK AO2=
KRRT 081314Z AUTO 26008KT 10SM CLR 16/13 A3003 RMK AO2=
KRZN 081314Z AUTO 27005KT 10SM CLR 20/16 A3009 RMK AO2
     T02020164=
KSAZ 081314Z AUTO 27006KT 10SM CLR 19/19 A3009 RMK AO2=
KSGS 081313Z AUTO 30004KT 10SM CLR 21/16 A3011 RMK AO2
     T02110163=
KSME 081316Z AUTO 00000KT 4SM HZ 27/21 A3010 RMK AO2=
KTEW 081312Z AUTO 00000KT 10SM CLR 25/21 A3005 RMK AO2=
KTOB 081315Z AUTO 00000KT 10SM CLR 19/17 A3013 RMK AO2=
KTWM 081313Z AUTO 00000KT 10SM CLR 21/15 A3003 RMK AO2=
KULM 081315Z AUTO 30006KT 10SM CLR 18/15 A3014 RMK AO2=
KUNI 081315Z AUTO 00000KT 7SM SCT065 27/19 A3009 RMK AO2
     T02730186=
KVES 081314Z AUTO 17003KT 7SM CLR 26/21 A3008 RMK AO2
     T02610209=
K1A6 081315Z AUTO 00000KT 4SM BR CLR 24/24 A3013 RMK AO2=
K21D 081318Z AUTO 30005KT 10SM CLR 21/17 A3011 RMK AO2=
K4M9 081315Z AUTO 22007KT 10SM FEW010 FEW090 27/25 A3008 RMK
     AO2=
KAEJ 081315Z AUTO 00000KT 10SM SCT014 08/07 A3046 RMK AO2=
KAEL 081311Z AUTO 33006KT 10SM CLR 19/17 A3013 RMK AO2=
KAIG 081315Z AUTO 33005KT 7SM BKN005 OVC010 19/19 A3004 RMK
     AO2=
KAIT 081313Z AUTO 00000KT 10SM CLR 19/18 A3007 RMK AO2=
KARV 081312Z AUTO 33004KT 10SM OVC049 19/16 A3007 RMK AO2
     T01890158=
KBBB 081313Z AUTO 28003KT 10SM CLR 18/17 A3012 RMK AO2=
KBJI 081314Z AUTO 24007KT 10SM CLR 18/13 A3007 RMK AO2=
KBUU 081314Z AUTO 27006KT 10SM SCT085 22/19 A3004 RMK AO2=
KBVU 081315Z AUTO 34004KT 10SM CLR 23/00 A2990 RMK AO2=
KBWP 081311Z AUTO 28006KT 10SM CLR 19/16 A3010 RMK AO1
     T01860157=
KCMY 081315Z AUTO 32004KT 10SM SCT015 22/18 A3007 RMK AO2
     T02230182=
KCVH 081310Z AUTO 00000KT 9SM OVC006 13/11 A2993 RMK AO1=
KDCM 081315Z AUTO 36003KT 7SM CLR 28/23 A3003 RMK AO2=
KDXX 081314Z AUTO 00000KT 10SM CLR 19/18 A3012 RMK AO2=
KEFK 081316Z AUTO 21006KT 7SM CLR 27/21 A3006 RMK AO2=
KEFT 081315Z AUTO 30007KT 10SM BKN004 BKN014 BKN020 23/20 A3006
     RMK AO2 T02270204=
KEGV 081312Z AUTO 01003KT 10SM CLR 20/17 A3006 RMK AO2
     T01960165=
KELO 081313Z AUTO 25005KT 10SM CLR 19/15 A3003 RMK AO2=
KEVM 081312Z AUTO 24004KT 10SM CLR 18/15 A3003 RMK AO1=
KFBL 081314Z AUTO 31005KT 10SM CLR 19/16 A3013 RMK AO2=
KFFM 081313Z AUTO 28003KT 10SM CLR 18/16 A3008 RMK AO2=
KFGN 081314Z AUTO 28008KT 1 1/4SM HZ OVC070 17/14 A2999 RMK
     AO2=
KFSO 081318Z AUTO 00000KT 7SM OVC060 27/23 A3002 RMK AO2=
####018000837####
SAUS99 KWBC 081320 RRA
METAR
KPCZ 081315Z AUTO 30005KT 10SM SCT008 23/20 A3002 RMK AO2
     T02320203=
KPDC 081313Z AUTO 31006KT 10SM OVC010 22/20 A3006 RMK AO2
     T02210202=
KPVD 081251Z COR 16006KT 10SM BKN010 24/20 A3011=
KRCX 081315Z AUTO 32005KT 10SM SCT050 19/17 A3009 RMK AO2
     T01900166=
KRNH 081316Z AUTO 30003KT 10SM CLR 20/17 A3011 RMK AO2
     T01970171=
KRPD 081314Z AUTO 32004KT 10SM CLR 20/17 A3010 RMK AO2
     T02030166=
KRRL 081315Z AUTO 34005KT 10SM SCT008 21/20 A3006 RMK AO2
     T02080200=
KSCF 081320Z AUTO 13018KT 8SM 29/25 A2994 RMK A01=
KVBS 081315Z AUTO 11019G24KT 10SM FEW019 FEW025 29/25 A2996 RMK
     A01=
KVNP 081315Z AUTO 11012G19KT 8SM SCT020 SCT025 SCT029 28/25 A3000
     RMK A01=
KY63 081320Z AUTO 29004KT 10SM CLR 18/16 A3011 RMK AO2
     T01830162=
####018000101####
SPAU32 YBBN 081319
SPECI YPGV 081315Z AUTO 15008KT 9999NDV // BKN011 BKN018 BKN022 24/22
Q1014=
####018000085####
SAUS80 KWBC 081300 RRH
METAR
KPVD 081251Z COR 16006KT 10SM BKN010 24/20 A3011=
####018000225####
SAXX60 KWBC 081320
METAR
KMRT 081313Z AUTO 26004KT 10SM CLR 27/20 A3012 RMK AO2
     T02730199=
KGBK 081315Z AUTO 08011G41KT 10SM SCT017 29/25 A2994 RMK A01=
KMHR 081315Z AUTO 16005KT 9SM CLR 12/10 A2986 RMK AO1=
####018000757####
SAUS80 KWBC 081320
METAR
KLYV 081318Z AUTO 00000KT 10SM CLR 17/15 A3018 RMK AO2=
KROS 081315Z AUTO 28005KT 10SM CLR 20/16 A3010 RMK AO2
     T01970158=
KSNC 081315Z AUTO 13004KT 10SM BKN009 23/23 A3010 RMK AO2=
KSYN 081330Z AUTO 31007KT 10SM CLR 21/17 A3011 RMK AO2
     T02050172=
KTKC 081313Z AUTO 28004KT 10SM CLR 20/15 A3016 RMK AO2
     T01960149=
K29G 081314Z AUTO 00000KT 10SM CLR 27/18 A3010 RMK AO2 T02670184
     PWINO=
KCLI 081315Z AUTO 36005KT 10SM CLR 23/19 A3001 RMK AO2=
KDVK 081317Z AUTO 21003KT 7SM 28/20 A3010 RMK AO1=
KIKW 081314Z AUTO 25003KT 10SM OVC080 24/21 A3002 RMK AO2
     T02370214=
KMYT 081315Z AUTO 11017KT 10SM FEW022 28/23 A2999 RMK A01=
KSCF 081320Z AUTO 13018KT 8SM 29/25 A2994 RMK A01=
####018000830####
SPUS70 KWBC 081320
SPECI
KLNR 081317Z AUTO 28004KT 6SM HZ OVC006 23/20 A3006 RMK AO2 CIG
     004V010=
KSBM 081317Z AUTO 00000KT 10SM BKN010 23/22 A3002 RMK AO2 $=
KUTS 081317Z AUTO 00000KT 7SM BKN007 BKN085 BKN100 25/23 A3001 RMK
     AO2=
KHQM 081317Z AUTO 27005KT 1/4SM FG 13/13 A2997 RMK AO2 $=
KLBX 081317Z AUTO 09004KT 6SM RA BR BKN021 BKN044 BKN075 25/23
     A2993 RMK AO2 P0003=
PAHC 081317Z AUTO 00000KT 1/4SM FG CLR 07/06 A2998 RMK AO2 TSNO
     $=
KCNO 081318Z AUTO 20004KT 2 1/2SM HZ OVC011 16/13 A2993 RMK
     AO2=
KMKC 081318Z 35005KT 9SM OVC010 23/21 A3009 RMK AO2=
KONT 081318Z 20005KT 2 1/2SM BR OVC010 15/13 A2991 RMK AO2=
KTOR 081318Z AUTO 00000KT 10SM BKN030 13/11 A3031 RMK AO2=
KVIH 081318Z AUTO 00000KT 10SM BKN007 BKN015 OVC046 24/22 A3008
     RMK AO2 RAE12 P0000=
####018002991####
SAUS70 KWBC 081320 RRA
METAR
KGDB 081313Z AUTO 24004KT 10SM CLR 19/16 A3015 RMK AO2
     T01910164=
KGHW 081313Z AUTO 27007KT 10SM CLR 19/14 A3014 RMK AO2=
KGYL 081315Z AUTO 28005KT 10SM CLR 19/16 A3012 RMK AO2
     T01940161=
KHCD 081312Z AUTO 26006KT 10SM CLR 20/17 A3013 RMK AO2
     T01950166=
KHCO 081314Z AUTO 30009KT 10SM CLR 18/16 A3009 RMK AO2=
KHYW 081315Z AUTO 36004KT 10SM CLR 28/23 A2995 RMK AO2=
KHZX 081311Z AUTO 26005KT 10SM CLR 19/16 A3008 RMK AO2=
KJKJ 081314Z AUTO 26004KT 10SM CLR 18/16 A3008 RMK AO2=
KJMR 081318Z AUTO 30003KT 10SM CLR 20/15 A3011 RMK AO2=
KVVV 081316Z AUTO 24004KT 10SM CLR 19/16 A3012 RMK AO2=
K14Y 081319Z AUTO 26007KT 10SM CLR 20/16 A3011 RMK AO2
     T02000162=
KBBF 081415Z AUTO 14014G22KT 2 1/2SM BR FEW003 FEW017 SCT055 27/25
     A2983 RMK A01=
KBQX 081315Z AUTO 12016G22KT 8SM FEW022 SCT026 BKN031 29/26 A2987
     RMK A01=
KDLP 081315Z AUTO 09013KT 9SM FEW018 SCT025 28/25 A3002 RMK
     A01=
KEHC 081315Z AUTO 13022KT 6SM HZ SCT021 SCT030 29/25 A2996 RMK
     A01=
KEMK 081315Z AUTO 14021KT 8SM FEW050 SCT080 29/25 A2990 RMK
     A01=
KETB 081312Z AUTO 25003KT 10SM BKN009 OVC032 23/21 A3003 RMK AO2
     T02250205=
KEZS 081315Z AUTO 36004KT 10SM SCT010 24/21 A3001 RMK AO2
     T02350205=
KGLW 081313Z AUTO 00000KT 10SM CLR 28/21 A3009 RMK AO2
     T02800213=
KGVX 081315Z AUTO 12025KT 9SM FEW022 SCT070 M40/ A2992 RMK A01=
KHFJ 081315Z AUTO 00000KT 10SM SCT023 OVC034 23/23 A3007 RMK
     AO1=
KHQI 081315Z AUTO 10019KT 6SM HZ FEW017 SCT023 SCT033 29/26 A2992
     RMK A01=
KIPN 081315Z AUTO 07013KT 10SM FEW026 /54 A3001 RMK A01=
KLNL 081315Z AUTO 34007KT 10SM BKN050 BKN080 19/15 A3007 RMK AO2
     T01900146=
KLUM 081315Z AUTO 30008KT 10SM CLR 20/16 A3009 RMK AO2=
KMDJ 081315Z AUTO 11015KT 10SM FEW021 FEW027 29/24 A3002 RMK
     A01=
KMDZ 081315Z AUTO 33006KT 10SM CLR 20/18 A3007 RMK AO2=
KMIU 081315Z AUTO 12024KT 8SM FEW017 SCT039 BKN065 28/26 A2982 RMK
     A01=
KMRJ 081315Z AUTO 00000KT 7SM BKN005 23/20 A3007 RMK AO2
     T02310202=
KMZG 081315Z AUTO 00000KT 9SM SCT020 SCT024 BKN050 28/25 A2984 RMK
     A01=
KOEO 081315Z AUTO 28003KT 10SM CLR 20/17 A3012 RMK AO2=
KPBH 081315Z AUTO 33004KT 10SM CLR 21/18 A3009 RMK AO2=
KPCZ 081315Z AUTO 30005KT 10SM SCT008 23/20 A3002 RMK AO2
     T02320203=
KPDC 081313Z AUTO 31006KT 10SM OVC010 22/20 A3006 RMK AO2
     T02210202=
KRCX 081315Z AUTO 32005KT 10SM SCT050 19/17 A3009 RMK AO2
     T01900166=
KRNH 081316Z AUTO 30003KT 10SM CLR 20/17 A3011 RMK AO2
     T01970171=
KRPD 081314Z AUTO 32004KT 10SM CLR 20/17 A3010 RMK AO2
     T02030166=
KRRL 081315Z AUTO 34005KT 10SM SCT008 21/20 A3006 RMK AO2
     T02080200=
KVBS 081315Z AUTO 11019G24KT 10SM FEW019 FEW025 29/25 A2996 RMK
     A01=
KVNP 081315Z AUTO 11012G19KT 8SM SCT020 SCT025 SCT029 28/25 A3000
     RMK A01=
KY63 081320Z AUTO 29004KT 10SM CLR 18/16 A3011 RMK AO2
     T01830162=
####018000194####
SPUS80 KWBC 081320
SPECI
KNYC 081317Z AUTO VRB04KT 5SM HZ BKN013 OVC020 26/23 A3008 RMK AO2
     TSNO $=
KATT 081317Z AUTO VRB04KT 9SM FEW007 BKN032 OVC060 26/23 A2999 RMK
     AO2=
####018000115####
SAAO33 DRRN 081200
METAR FTTJ 081230Z 23004KT 140V270 9999 FEW040 FEW050CB BKN140 33/28
Q1012 TEMPO 3000 TSRA=
####018000083####
SAAG31 KWBC 081300 RRC
METAR
SAWE 081300Z 29009KT 9999 FEW018 M03/M04 Q0986=
####018000098####
SAUS44 KSHV 081319
MTRPOE
SPECI KPOE 081318Z AUTO 09006KT 10SM FEW008 26/24 A3004 RMK AO2 $
####018000028####
SAAW34 KWBC 081315
NIL=
####018000028####
SADL33 KWBC 081315
NIL=
####018000157####
SAMX31 KWBC 081345 RRC
METAR
MMMX 081317Z 15004KT 3SM HZ SCT06 BKN010 OVC020 15/14 A3021 TEMPO
     3SM -RA HZ RMK 8/7// VSBY TWR -RAE15 OCNL DROPS=
####018000099####
SARS32 KWBC 081300 RRD
METAR
URKA 081300Z 06005MPS 9999 SCT026 29/20 Q1012 NOSIG RMK уг 065=
####018000097####
SAPA31 KWBC 081300 RRA
METAR
PGRO 081312Z 11011KT 7SM FEW020 SCT050 27/24 A2992 RMK FIRST=
####018000215####
SAXX99 KWBC 081300 RRP
METAR
CZEV 081300Z AUTO 31006KT 07/04 RMK AO1 SLP187 T00660037 51005=
CZSM 081300Z AUTO 30003KT 15/10 RMK AO1 SLP131 T01540104 51001=
EYPA 081320Z 33005KT 230V040 CAVOK 21/16 Q1019=
####018000079####
SPUS44 KWBC 081320
SPECI
KHQM 081317Z AUTO 27005KT 1/4SM FG 13/13 A2997=
####018000087####
SAFR36 LFPW 081300 RRA
METAR LFBE 081300Z 13006KT 080V170 CAVOK 34/14 Q1016 NOSIG=
####018000102####
SPAU32 YBBN 081319
SPECI YPGV 081315Z AUTO 15008KT 9999NDV // BKN011 BKN018 BKN022 24/22
Q1014=
####018000096####
SAUK39 EGRR 081250 RRI
METAR EGOS 081250Z 25008KT 9999 SCT044 BKN140 20/08 Q1017 BLU NOSIG=
####018000079####
SPUS74 KWBC 081320
SPECI
KHQM 081317Z AUTO 27005KT 1/4SM FG 13/13 A2997=
####018000095####
SPUS81 KWBC 081320
SPECI
KATT 081317Z AUTO VRB04KT 9SM FEW007 BKN032 OVC060 26/23 A2999=
####018000110####
SAUS44 KSJT 081320
MTRJCT
SPECI KJCT 081318Z AUTO 12003KT 7SM SCT006 BKN022 24/22 A3004 RMK 
AO2 TSNO
####018000076####
SAMY31 MBPV 081302
METAR MBPV 081300 26006KT 9999 SCT012 30/25 A3000
####018000084####
SADO31 TDPD 081310

METAR TDCF 081310Z 03002KT 9999 SCT016TCU 30/23 Q1014=
####018000081####
SADO31 TDPD 081300
METAR TDPD 081300Z 09005KT 9999 SCT018TCU 30/24 Q1015=
####018002981####
SAUS20 KNKA 081320
METAR K4I3 081316Z AUTO 21003KT 7SM CLR 26/21 A3010 RMK AO2=
METAR KACB 081315Z AUTO 20003KT 7SM -DZ OVC011 23/22 A3001 RMK
     AO2=
METAR KACQ 081319Z AUTO 32007KT 10SM CLR 18/16 A3015 RMK AO2=
METAR KADC 081317Z AUTO 27005KT 10SM CLR 17/15 A3009 RMK AO2=
METAR KAMN 081316Z AUTO 25003KT 7SM BKN060 24/22 A3002 RMK AO2=
METAR KAQP 081313Z AUTO 26006KT 10SM CLR 18/18 A3012 RMK AO2=
SPECI KARA 081319Z 08006KT 6SM BR OVC005 26/25 A3003 RMK AO2 CIG 
    003V009=
METAR KAUM 081315Z AUTO 34007KT 10SM CLR 20/17 A3011 RMK AO2=
METAR KBAX 081315Z AUTO 25004KT 10SM CLR 26/23 A3001 RMK AO2=
METAR KBDH 081315Z AUTO 28004KT 10SM CLR 19/16 A3014 RMK AO2=
METAR KBFW 081313Z AUTO 27004KT 10SM CLR 22/16 A3002 RMK AO2=
METAR KBWD 081315Z AUTO 09008KT 10SM BKN050 24/23 A3005 RMK AO2 =
METAR KCAD 081315Z AUTO 25005KT 4SM -RA SCT008 BKN023 OVC050 22/21
     A3004 RMK AO2=
METAR KCBG 081315Z AUTO 27005KT 10SM CLR 20/16 A3010 RMK AO2=
METAR KCDA 081315Z AUTO 18004KT 7SM CLR 26/21 A3010 RMK AO2=
METAR KCDD 081311Z AUTO 25003KT 10SM CLR 21/18 A3003 RMK AO2=
METAR KCFE 081315Z AUTO 25005KT 10SM CLR 20/17 A3013 RMK AO2
     T02010165=
METAR KCFS 081315Z AUTO 22003KT 10SM CLR 27/21 A3002 RMK AO2=
METAR KCKC 081315Z AUTO 26004KT 10SM CLR 19/14 A3004 RMK AO2=
METAR KCKN 081315Z AUTO 29006KT 10SM CLR 18/14 A3008 RMK AO2=
METAR KCNB 081318Z AUTO 25007KT 10SM CLR 21/14 A3015 RMK AO2
     T02080144=
METAR KCOQ 081316Z AUTO 27007KT 10SM CLR 19/18 A3007 RMK AO2=
METAR KCQM 081317Z AUTO 24007KT 10SM CLR 18/15 A3005 RMK AO2=
METAR KCVX 081315Z AUTO 23004KT 3SM -RA BKN004 BKN015 OVC050 21/20
     A3002 RMK AO2=
METAR KDRM 081316Z AUTO 22005KT 5SM -RA SCT006 SCT019 OVC040 21/21
     A2998 RMK AO2=
METAR KDTL 081315Z AUTO 28005KT 10SM CLR 20/12 A3011 RMK AO2=
METAR KDUH 081314Z AUTO 00000KT 10SM CLR 30/20 A3004 RMK AO2=
METAR KDVP 081316Z AUTO 27006KT 10SM CLR 19/14 A3019 RMK AO2
     T01900140=
SPECI KENW 081319Z 27006KT 10SM SCT008 BKN014 23/22 A3004 RMK AO2=
METAR KERY 081316Z AUTO 33003KT 7SM OVC003 18/17 A3001 RMK AO2=
METAR KETH 081314Z AUTO 27004KT 10SM CLR 20/16 A3011 RMK AO2=
METAR KFFX 081315Z AUTO 19003KT 7SM SCT046 BKN055 BKN070 23/22
     A3002 RMK AO2=
METAR KFKA 081323Z AUTO 36008KT 10SM SCT009 20/18 A3012 RMK AO2
     T02010175=
METAR KFKS 081315Z AUTO 26005KT 7SM SCT004 SCT017 21/20 A3001 RMK
     AO2=
METAR KFOZ 081313Z AUTO 24004KT 10SM CLR 18/15 A3006 RMK AO2=
METAR KFPK 081316Z AUTO 00000KT 10SM CLR 25/21 A3003 RMK AO2=
METAR KFSE 081314Z AUTO 23004KT 10SM CLR 17/13 A3006 RMK AO2=
SPECI KGLR 081319Z AUTO 24007KT 4SM -RA BR FEW007 SCT024 BKN048 
    21/21 A3003 RMK AO2 P0004=
METAR KGOV 081315Z AUTO 28003KT 5SM -RA SCT006 SCT030 BKN046 22/22
     A3004 RMK AO2=
SPECI KGRB 081319Z 31004KT 2 1/2SM BR BKN004 BKN008 OVC015 23/21 
    A3000 RMK AO2 CIG 002V006=
METAR KHAF 081310Z AUTO 30004KT 7SM OVC006 12/10 A2995 RMK AO2=
####018002866####
SAUS20 KNKA 081320
METAR KHAI 081315Z AUTO 00000KT 10SM SCT075 25/22 A3004 RMK
     AO2=
METAR KHYX 081315Z AUTO 26005KT 10SM CLR 25/21 A3002 RMK AO2=
METAR KIRS 081315Z AUTO 10004KT 10SM CLR 26/21 A3004 RMK AO2=
METAR KISQ 081315Z AUTO 36005KT 10SM OVC004 20/18 A3000 RMK
     AO2=
METAR KJYG 081314Z AUTO 29006KT 10SM CLR 20/19 A3016 RMK AO2=
METAR KJYM 081315Z AUTO 00000KT 10SM CLR 26/21 A3007 RMK AO2=
METAR KJZI 081315Z AUTO 29007KT 10SM CLR 29/24 A2997 RMK A02 P000 
     =
METAR KLDM 081316Z AUTO 23004KT 7SM OVC005 22/21 A3002 RMK AO2=
METAR KLWA 081316Z AUTO 00000KT 10SM BKN060 BKN100 23/21 A3002 RMK
     AO2=
METAR KMCD 081316Z AUTO 00000KT 1/4SM HZ OVC001 20/17 A3001 RMK
     AO2=
METAR KMGN 081315Z AUTO 27005KT 3SM -RA SCT002 OVC010 21/20 A3000
     RMK AO2=
SPECI KMMK 081319Z AUTO 17005KT 4SM HZ SCT012 BKN019 OVC028 26/22 
    A3007 RMK AO2=
METAR KMOP 081314Z AUTO 27007KT 10SM -RA OVC060 23/23 A3003 RMK
     AO2=
METAR KMZH 081311Z AUTO 28006KT 10SM CLR 19/15 A3006 RMK AO2=
METAR KOEB 081315Z AUTO 09004KT 10SM CLR 27/22 A3005 RMK AO2=
METAR KONZ 081317Z AUTO 00000KT 10SM CLR 29/21 A3002 RMK AO2=
METAR KORB 081314Z AUTO 26004KT 10SM CLR 18/14 A3002 RMK AO2=
METAR KOSC 081314Z AUTO 23004KT 7SM OVC075 23/21 A3000 RMK AO2=
METAR KOWA 081313Z AUTO 31007KT 10SM CLR 19/17 A3012 RMK AO2=
METAR KOZW 081315Z AUTO 00000KT 10SM CLR 27/21 A3005 RMK AO2=
METAR KPHN 081316Z AUTO 19003KT 10SM CLR 27/21 A3002 RMK AO2=
METAR KPZQ 081315Z AUTO 00000KT 10SM SCT043 SCT050 OVC075 22/21
     A3000 RMK AO2=
METAR KRGK 081315Z AUTO 30004KT 10SM CLR 21/18 A3009 RMK AO2=
METAR KRMY 081316Z AUTO 00000KT 10SM CLR 26/22 A3004 RMK AO2=
METAR KRNP 081315Z AUTO 00000KT 10SM CLR 27/21 A3003 RMK AO2=
METAR KRQB 081314Z AUTO 00000KT 5SM -RA SCT012 OVC055 22/22 A3004
     RMK AO2=
METAR KRYV 081315Z AUTO 27004KT 7SM OVC005 23/21 A3005 RMK AO2=
METAR KSJX 081316Z AUTO 26004KT 1/2SM FG OVC002 20/18 A3000 RMK
     AO2=
METAR KSLH 081315Z AUTO 24004KT 5SM -RA SCT011 SCT014 BKN029 22/21
     A2999 RMK AO2=
METAR KSPF 081315Z AUTO 00000KT 10SM CLR 14/11 A3030 RMK AO2 =
METAR KSTE 081315Z AUTO 29003KT 10SM BKN009 22/19 A3005 RMK AO2=
METAR KSUW 081315Z AUTO 23006KT 10SM CLR 19/16 A3003 RMK AO2=
METAR KTKV 081315Z AUTO 34005KT 10SM CLR 20/16 A3006 RMK AO2 
     T01950164=
METAR KTTF 081314Z AUTO 27003KT 10SM CLR 29/22 A3003 RMK AO2=
METAR KUKT 081310Z AUTO 08004KT 8SM CLR 28/22 A3006 RMK AO1=
METAR KUNU 081312Z AUTO 26005KT 7SM OVC005 22/20 A3004 RMK AO2 
     T02220202=
METAR KVLL 081314Z AUTO 26007KT 10SM CLR 30/19 A3006 RMK AO2=
METAR KVWU 081311Z AUTO 26007KT 10SM CLR 19/15 A3004 RMK AO2=
METAR KXVG 081316Z AUTO 27005KT 10SM CLR 19/15 A3006 RMK AO2=
METAR KY70 081315Z AUTO 00000KT 5SM HZ SCT006 SCT120 25/22 A3003
     RMK AO2 T02480222=
####018000099####
SANA35 KAWN 081300 RRE
METAR SAZS 081300Z 29012KT 6000 DZ SCT009 SCT025 04/02 Q1007 R29210094=
####018000107####
SAUS46 KLOX 081320
MTR3A6
METAR K3A6 081410Z AUTO 00000KT 11/10 A2989 RMK AO1 SLP143 T01120101 54000
####018000100####
SAUS46 KSGX 081320
MTRNXF
SPECI KNXF 081319Z AUTO 32005KT 7SM OVC015 16/13 A2991 RMK AO2 TSNO
####018000098####
SAMH31 PKWA 081320
METAR PKWA 081320Z AUTO 13005KT 10SM OVC065 26/23 A2983 RMK AO2 T02600232=
####018000442####
SPUS99 KWBC 081321
SPECI
KMMK 081319Z AUTO 17005KT 4SM HZ SCT012 BKN019 OVC028 26/22 A3007
     RMK AO2=
KARA 081319Z 08006KT 6SM BR OVC005 26/25 A3003 RMK AO2 CIG
     003V009=
KENW 081319Z 27006KT 10SM SCT008 BKN014 23/22 A3004 RMK AO2=
KGLR 081319Z AUTO 24007KT 4SM -RA BR FEW007 SCT024 BKN048 21/21
     A3003 RMK AO2 P0004=
KGRB 081319Z 31004KT 2 1/2SM BR BKN004 BKN008 OVC015 23/21 A3000
     RMK AO2 CIG 002V006=
####018003734####
SAUS99 KWBC 081321
METAR
KHAI 081315Z AUTO 00000KT 10SM SCT075 25/22 A3004 RMK AO2=
KHYX 081315Z AUTO 26005KT 10SM CLR 25/21 A3002 RMK AO2=
KIRS 081315Z AUTO 10004KT 10SM CLR 26/21 A3004 RMK AO2=
KISQ 081315Z AUTO 36005KT 10SM OVC004 20/18 A3000 RMK AO2=
KJYG 081314Z AUTO 29006KT 10SM CLR 20/19 A3016 RMK AO2=
KJYM 081315Z AUTO 00000KT 10SM CLR 26/21 A3007 RMK AO2=
KJZI 081315Z AUTO 29007KT 10SM CLR 29/24 A2997 RMK A02 P000=
KLDM 081316Z AUTO 23004KT 7SM OVC005 22/21 A3002 RMK AO2=
KLWA 081316Z AUTO 00000KT 10SM BKN060 BKN100 23/21 A3002 RMK
     AO2=
KMCD 081316Z AUTO 00000KT 1/4SM HZ OVC001 20/17 A3001 RMK AO2=
KMGN 081315Z AUTO 27005KT 3SM -RA SCT002 OVC010 21/20 A3000 RMK
     AO2=
KMOP 081314Z AUTO 27007KT 10SM -RA OVC060 23/23 A3003 RMK AO2=
KMZH 081311Z AUTO 28006KT 10SM CLR 19/15 A3006 RMK AO2=
KOEB 081315Z AUTO 09004KT 10SM CLR 27/22 A3005 RMK AO2=
KONZ 081317Z AUTO 00000KT 10SM CLR 29/21 A3002 RMK AO2=
KORB 081314Z AUTO 26004KT 10SM CLR 18/14 A3002 RMK AO2=
KOSC 081314Z AUTO 23004KT 7SM OVC075 23/21 A3000 RMK AO2=
KOWA 081313Z AUTO 31007KT 10SM CLR 19/17 A3012 RMK AO2=
KOZW 081315Z AUTO 00000KT 10SM CLR 27/21 A3005 RMK AO2=
KPHN 081316Z AUTO 19003KT 10SM CLR 27/21 A3002 RMK AO2=
KPZQ 081315Z AUTO 00000KT 10SM SCT043 SCT050 OVC075 22/21 A3000
     RMK AO2=
KRGK 081315Z AUTO 30004KT 10SM CLR 21/18 A3009 RMK AO2=
KRMY 081316Z AUTO 00000KT 10SM CLR 26/22 A3004 RMK AO2=
KRNP 081315Z AUTO 00000KT 10SM CLR 27/21 A3003 RMK AO2=
KRQB 081314Z AUTO 00000KT 5SM -RA SCT012 OVC055 22/22 A3004 RMK
     AO2=
KRYV 081315Z AUTO 27004KT 7SM OVC005 23/21 A3005 RMK AO2=
KSJX 081316Z AUTO 26004KT 1/2SM FG OVC002 20/18 A3000 RMK AO2=
KSLH 081315Z AUTO 24004KT 5SM -RA SCT011 SCT014 BKN029 22/21 A2999
     RMK AO2=
KSPF 081315Z AUTO 00000KT 10SM CLR 14/11 A3030 RMK AO2=
KSTE 081315Z AUTO 29003KT 10SM BKN009 22/19 A3005 RMK AO2=
KSUW 081315Z AUTO 23006KT 10SM CLR 19/16 A3003 RMK AO2=
KTKV 081315Z AUTO 34005KT 10SM CLR 20/16 A3006 RMK AO2
     T01950164=
KTTF 081314Z AUTO 27003KT 10SM CLR 29/22 A3003 RMK AO2=
KUKT 081310Z AUTO 08004KT 8SM CLR 28/22 A3006 RMK AO1=
KUNU 081312Z AUTO 26005KT 7SM OVC005 22/20 A3004 RMK AO2
     T02220202=
KVLL 081314Z AUTO 26007KT 10SM CLR 30/19 A3006 RMK AO2=
KVWU 081311Z AUTO 26007KT 10SM CLR 19/15 A3004 RMK AO2=
KXVG 081316Z AUTO 27005KT 10SM CLR 19/15 A3006 RMK AO2=
KY70 081315Z AUTO 00000KT 5SM HZ SCT006 SCT120 25/22 A3003 RMK AO2
     T02480222=
K4I3 081316Z AUTO 21003KT 7SM CLR 26/21 A3010 RMK AO2=
KACB 081315Z AUTO 20003KT 7SM -DZ OVC011 23/22 A3001 RMK AO2=
KACQ 081319Z AUTO 32007KT 10SM CLR 18/16 A3015 RMK AO2=
KADC 081317Z AUTO 27005KT 10SM CLR 17/15 A3009 RMK AO2=
KAMN 081316Z AUTO 25003KT 7SM BKN060 24/22 A3002 RMK AO2=
KAQP 081313Z AUTO 26006KT 10SM CLR 18/18 A3012 RMK AO2=
KAUM 081315Z AUTO 34007KT 10SM CLR 20/17 A3011 RMK AO2=
KBAX 081315Z AUTO 25004KT 10SM CLR 26/23 A3001 RMK AO2=
KBDH 081315Z AUTO 28004KT 10SM CLR 19/16 A3014 RMK AO2=
KBFW 081313Z AUTO 27004KT 10SM CLR 22/16 A3002 RMK AO2=
KBWD 081315Z AUTO 09008KT 10SM BKN050 24/23 A3005 RMK AO2=
KCAD 081315Z AUTO 25005KT 4SM -RA SCT008 BKN023 OVC050 22/21 A3004
     RMK AO2=
KCBG 081315Z AUTO 27005KT 10SM CLR 20/16 A3010 RMK AO2=
KCDA 081315Z AUTO 18004KT 7SM CLR 26/21 A3010 RMK AO2=
KCDD 081311Z AUTO 25003KT 10SM CLR 21/18 A3003 RMK AO2=
KCFE 081315Z AUTO 25005KT 10SM CLR 20/17 A3013 RMK AO2
     T02010165=
KCFS 081315Z AUTO 22003KT 10SM CLR 27/21 A3002 RMK AO2=
KCKC 081315Z AUTO 26004KT 10SM CLR 19/14 A3004 RMK AO2=
KCKN 081315Z AUTO 29006KT 10SM CLR 18/14 A3008 RMK AO2=
KCNB 081318Z AUTO 25007KT 10SM CLR 21/14 A3015 RMK AO2
     T02080144=
####018000088####
SANG31 YBBN 081300 RRA
METAR AGGH 081300Z 00000KT 9999 HZ FEW015 OVC300 25/24 Q1009=
####018000082####
SAEO31 EETN 081320
METAR EETN 081320Z 30008KT 270V340 CAVOK 25/17 Q1014 NOSIG=
####018001180####
SAUS99 KWBC 081321 RRA
METAR
KCOQ 081316Z AUTO 27007KT 10SM CLR 19/18 A3007 RMK AO2=
KCQM 081317Z AUTO 24007KT 10SM CLR 18/15 A3005 RMK AO2=
KCVX 081315Z AUTO 23004KT 3SM -RA BKN004 BKN015 OVC050 21/20 A3002
     RMK AO2=
KDRM 081316Z AUTO 22005KT 5SM -RA SCT006 SCT019 OVC040 21/21 A2998
     RMK AO2=
KDTL 081315Z AUTO 28005KT 10SM CLR 20/12 A3011 RMK AO2=
KDUH 081314Z AUTO 00000KT 10SM CLR 30/20 A3004 RMK AO2=
KDVP 081316Z AUTO 27006KT 10SM CLR 19/14 A3019 RMK AO2
     T01900140=
KERY 081316Z AUTO 33003KT 7SM OVC003 18/17 A3001 RMK AO2=
KETH 081314Z AUTO 27004KT 10SM CLR 20/16 A3011 RMK AO2=
KFFX 081315Z AUTO 19003KT 7SM SCT046 BKN055 BKN070 23/22 A3002 RMK
     AO2=
KFKA 081323Z AUTO 36008KT 10SM SCT009 20/18 A3012 RMK AO2
     T02010175=
KFKS 081315Z AUTO 26005KT 7SM SCT004 SCT017 21/20 A3001 RMK
     AO2=
KFOZ 081313Z AUTO 24004KT 10SM CLR 18/15 A3006 RMK AO2=
KFPK 081316Z AUTO 00000KT 10SM CLR 25/21 A3003 RMK AO2=
KFSE 081314Z AUTO 23004KT 10SM CLR 17/13 A3006 RMK AO2=
KGOV 081315Z AUTO 28003KT 5SM -RA SCT006 SCT030 BKN046 22/22 A3004
     RMK AO2=
KHAF 081310Z AUTO 30004KT 7SM OVC006 12/10 A2995 RMK AO2=
####018000088####
SALV31 EVRA 081320
METAR EVRA 081320Z 32010KT 280V350 9999 OVC030 21/14 Q1015 NOSIG=
####018000082####
SALT32 EYVI 081320
METAR EYKA 081320Z 28007KT 250V340 9999 OVC031 17/14 Q1016=
####018000088####
SAID31 WIII 081300
METAR WARR 081300Z 24010KT 8000 FEW020CB SCT018 25/21 Q1010 RERA=
####018000109####
SALT31 EYVI 081320
METAR EYVI 081320Z 29011KT 260V320 4000 -SHRA BKN005 OVC010CB 15/14
     Q1015 NOSIG=
####018000131####
SAAK31 KWBC 081300 RRA
METAR
PAVD 081316Z 26003KT 10SM OVC090 11/08 A3008=
PAWG 081316Z AUTO 00000KT 10SM CLR 12/09 A3014=
####018000138####
SAAK32 KWBC 081300 RRA
METAR
PADK 081316Z 04013G19KT 7SM BKN006 OVC011 07/06 A2948=
PADL 081316Z 30005KT 10SM OVC080 10/08 A2996=
####018000083####
SPPQ31 KWBC 081321
SPECI
PGRO 081312Z 11011KT 7SM FEW020 SCT050 27/24 A2992=
####018000086####
SAPA41 KWBC 081300 RRA
METAR
PKWA 081320Z AUTO 13005KT 10SM OVC065 26/23 A2983=
####018000093####
SPPA31 KWBC 081321
SPECI
PGRO 081312Z 11011KT 7SM FEW020 SCT050 27/24 A2992 RMK FIRST=
####018000140####
SAPQ31 KWBC 081300 RRA
METAR
PGRO 081312Z 11011KT 7SM FEW020 SCT050 27/24 A2992=
PKWA 081320Z AUTO 13005KT 10SM OVC065 26/23 A2983=
####018000102####
SAUS44 KSHV 081320 COR
MTRPOE
SPECI KPOE 081318Z AUTO 09006KT 10SM FEW008 26/24 A3004 RMK AO2 $
####018000083####
SPUS31 KWBC 081321
SPECI
KONT 081318Z 20005KT 2 1/2SM BR OVC010 15/13 A2991=
####018000085####
SAUS41 KWBC 081300 RRC
METAR
KPVD 081251Z COR 16006KT 10SM BKN010 24/20 A3011=
####018000076####
SPUS43 KWBC 081321
SPECI
KMKC 081318Z 35005KT 9SM OVC010 23/21 A3009=
####018000083####
SAUS43 KWBC 081300 RRF
METAR
KPHN 081316Z AUTO 19003KT 10SM CLR 27/21 A3002=
####018000088####
SPUS52 KWBC 081321
SPECI
KJCT 081318Z AUTO 12003KT 7SM SCT006 BKN022 24/22 A3004=
####018000073####
SABZ33 SBBR 081300 RRA
METAR SBYS 081300Z 00000KT CAVOK 19/11 Q1021=
####018000591####
SABZ35 SBBR 081300
METAR SACO 081300Z  34005KT CAVOK 11/M05 Q1019=
METAR SAEZ 081300Z 32004KT CAVOK 09/01 Q1019=
METAR SAME 081300Z 00000KT 9999 NSC 04/M03 Q1015=
METAR SEQU 081300Z 08001KT 9999 FEW100 SCT300 12/08 Q1027=
METAR SGAS 081300Z 14007KT 9000 BKN010 OVC015 17/15 Q1016=
METAR SKBO 081300Z 04004KT 9000 FEW015 BKN070 13/11 A3034=
METAR SKCL 081300Z VRB02KT 9999 FEW017 BKN090 22/20 A3003=
METAR SLLP 081300Z VRB02KT 9999 FEW015 04/M04 Q1038=
METAR SPIM 081300Z 18004KT 6000 SCT015 OVC023 16/14 Q1014 NOSIG=
METAR SUMU 081300Z 29005KT CAVOK 10/07 Q1019 NOSIG=
####018000501####
SABZ32 SBBR 081300
METAR SBAN 081300Z 08010KT CAVOK 22/13 Q1024=
METAR SBBR 081300Z 07013KT CAVOK 21/09 Q1024=
METAR SBBW 081300Z 06002KT CAVOK 26/12 Q1019=
METAR SBCG 081300Z 06013KT CAVOK 25/08 Q1017=
METAR SBCR 081300Z 08004KT CAVOK 27/12 Q1015=
METAR SBCY 081300Z 01007KT CAVOK 26/14 Q1015=
METAR SBGO 081300Z 05010KT CAVOK 26/12 Q1021=
METAR SBPJ 081300Z 21006KT CAVOK 26/15 Q1017=
METAR SBPN 081300Z 21004KT CAVOK 27/24 Q1016=
METAR SBPP 081300Z 01006KT CAVOK 24/11 Q1018=
####018001254####
SABZ31 SBBR 081300
METAR SBAR 081300Z 18007KT 9999 SCT015 27/24 Q1018=
METAR SBCV 081300Z NIL=
METAR SBFN 081300Z 10010KT 9999 SCT017 FEW025TCU BKN100 25/23 Q1015=
METAR SBFZ 081300Z 13011KT 9999 FEW018 BKN090 29/20 Q1014=
METAR SBIL 081300Z 18007KT 9999 SCT025 BKN070 27/21 Q1019=
METAR SBJP 081300Z 19008KT 9999 SCT020 BKN070 27/22 Q1016=
METAR SBJU 081300Z NIL=
METAR SBKG 081300Z 14008KT 9999 BKN020 BKN100 24/21 Q1018=
METAR SBLE 081300Z NIL=
METAR SBLP 081300Z 12006KT 9999 FEW030 27/16 Q1020=
METAR SBMO 081300Z 30002KT 9999 SCT020 SCT100 26/20 Q1017=
METAR SBMS 081300Z 13008KT 9999 SCT030 33/20 Q1014=
METAR SBNT 081300Z 14009KT 9999 SCT023 BKN100 28/23 Q1015=
METAR SBPB 081300Z 06010KT 9999 FEW020 SCT100 31/22 Q1013=
METAR SBPL 081300Z 16011KT 9999 SCT023 26/18 Q1019=
METAR SBPS 081300Z 27005KT 9999 SCT010 BKN100 21/19 Q1020=
METAR SBQV 081300Z 13008KT 9999 BKN013 19/18 Q1024=
METAR SBRF 081300Z 18006KT 9999 FEW020 BKN070 27/22 Q1016=
METAR SBSL 081300Z 06010KT 9999 SCT017 30/24 Q1014=
METAR SBSV 081300Z 21010KT 3000 -RA BR BKN007 SCT017 BKN070 24/22
Q1019=
METAR SBTC 081300Z NIL=
METAR SBTE 081300Z 23003KT 9999 BKN020 29/24 Q1015=
METAR SBUF 081300Z 13009KT 9999 SCT018 28/20 Q1019=
####018002131####
SABZ33 SBBR 081300
METAR SBAF 081300Z 02003KT 4000 HZ FEW030 26/14 Q1018=
METAR SBAQ 081300Z NIL=
METAR SBAS 081300Z NIL=
METAR SBAU 081300Z 04006KT CAVOK 23/10 Q1020=
METAR SBAX 081300Z NIL=
METAR SBBH 081300Z 05004KT CAVOK 20/11 Q1023=
METAR SBBI 081300Z 02004KT CAVOK 20/13 Q1022=
METAR SBBQ 081300Z 33007KT CAVOK 20/06 Q1026=
METAR SBBT 081300Z NIL=
METAR SBBU 081300Z 05005KT CAVOK 22/10 Q1021=
METAR SBBZ 081300Z NIL=
METAR SBCB 081300Z NIL=
METAR SBCF 081300Z 14006KT CAVOK 17/10 Q1024=
METAR SBCO 081300Z 16006KT 6000 SCT012 BKN020 15/14 Q1021=
METAR SBCP 081300Z 33004KT CAVOK 25/18 Q1020=
METAR SBDN 081300Z 04007KT CAVOK 24/07 Q1019=
METAR SBES 081300Z 06008KT CAVOK 24/17 Q1018=
METAR SBFS 081300Z NIL=
METAR SBGA 081300Z NIL=
METAR SBGL 081300Z 10002KT CAVOK 24/14 Q1018=
METAR SBGR 081300Z 01004KT CAVOK 21/08 Q1023=
METAR SBGU 081300Z 01005KT 9999 SCT025 19/11 Q1022=
METAR SBGW 081300Z 25008KT CAVOK 16/12 Q1022=
METAR SBIP 081300Z NIL=
METAR SBJF 081300Z 34006KT CAVOK 21/10 Q1023=
METAR SBJR 081300Z 32004KT CAVOK 27/16 Q1018=
METAR SBKP 081300Z 01004KT 8000 NSC 21/09 Q1022=
METAR SBLN 081300Z NIL=
METAR SBLS 081300Z 10004KT CAVOK 21/12 Q1024=
METAR SBME 081300Z 04007KT CAVOK 28/19 Q1018=
METAR SBMK 081300Z 01002KT CAVOK 23/13 Q1023=
METAR SBML 081300Z 05014KT CAVOK 23/12 Q1021=
METAR SBMT 081300Z 36004KT CAVOK 21/08 Q1022=
METAR SBPC 081300Z 09004KT CAVOK 18/06 Q1024=
METAR SBPR 081300Z 12006KT CAVOK 19/12 Q1025=
METAR SBRJ 081300Z 01005KT CAVOK 23/17 Q1018=
METAR SBRP 081300Z 13004KT 9000 NSC 21/11 Q1021=
METAR SBRQ 081300Z NIL=
METAR SBRS 081300Z NIL=
METAR SBSA 081300Z NIL=
METAR SBSC 081300Z 35010KT CAVOK 24/13 Q1018=
METAR SBSJ 081300Z 00000KT CAVOK 17/11 Q1023=
METAR SBSP 081300Z 32005KT CAVOK 20/08 Q1023=
METAR SBSR 081300Z NIL=
METAR SBST 081300Z 35010KT CAVOK 28/07 Q1018=
METAR SBTA 081300Z 00000KT CAVOK 18/11 Q1022=
METAR SBUL 081300Z 02009KT CAVOK 20/09 Q1022=
METAR SBUP 081300Z NIL=
METAR SBUR 081300Z 02005KT CAVOK 24/07 Q1022=
METAR SBVT 081300Z 02008KT 9999 FEW026 26/19 Q1021=
####018001958####
SABZ30 SBBR 081300
METAR SBAA 081300Z 08003KT CAVOK 29/15 Q1016=
METAR SBAM 081300Z 12008KT 9999 FEW025 FEW027TCU 31/25 Q1013=
METAR SBAT 081300Z 19002KT CAVOK 25/18 Q1016=
METAR SBBA 081300Z NIL=
METAR SBBC 081300Z NIL=
METAR SBBE 081300Z 10009KT 9999 FEW015 SCT100 31/22 Q1014=
METAR SBBV 081300Z 00000KT 9999 SCT020 SCT070 27/23 Q1013=
METAR SBCC 081300Z 12006KT CAVOK 27/17 Q1017=
METAR SBCI 081300Z 06005KT CAVOK 34/17 Q1016=
METAR SBCJ 081300Z 08004KT CAVOK 27/17 Q1019=
METAR SBCZ 081300Z 00000KT 9999 SCT030 BKN100 26/24 Q1013=
METAR SBEG 081300Z 00000KT CAVOK 28/22 Q1013=
METAR SBEK 081300Z 11002KT CAVOK 31/26 Q1013=
METAR SBGM 081300Z 06006KT CAVOK 29/21 Q1014=
METAR SBHT 081300Z 09008KT 9999 SCT020 ///// Q1014=
METAR SBIC 081300Z 11005KT CAVOK 30/26 Q1013=
METAR SBIH 081300Z 02007KT CAVOK 30/23 Q1013=
METAR SBIZ 081300Z 10005KT 9999 FEW030 29/21 Q1015=
METAR SBLB 081300Z NIL=
METAR SBMA 081300Z 12006KT CAVOK 31/21 Q1015=
METAR SBMD 081300Z 12003KT 9999 SCT013 28/26 Q1014=
METAR SBMN 081300Z 10003KT 9999 FEW015 29/25 Q1013=
METAR SBMQ 081300Z 08006KT 9999 SCT020 32/26 Q1014=
METAR SBMY 081300Z 12004KT CAVOK 27/24 Q1014=
METAR SBMZ 081300Z NIL=
METAR SBOI 081300Z 07002KT 9999 SCT015 30/26 Q1014=
METAR SBPV 081300Z 06006KT CAVOK 28/23 Q1013=
METAR SBRB 081300Z 04008KT CAVOK 29/24 Q1013=
METAR SBSL 081300Z 06010KT 9999 SCT017 30/24 Q1014=
METAR SBSN 081300Z 09010KT 9999 SCT020 30/24 Q1013=
METAR SBSY 081300Z NIL=
METAR SBTF 081300Z 13005KT 9999 FEW020 BKN100 29/26 Q1013=
METAR SBTK 081300Z 12002KT 7000 NSC 26/25 Q1014=
METAR SBTT 081300Z 00000KT 9999 FEW010 SCT080 28/25 Q1013=
METAR SBTU 081300Z 08007KT CAVOK 28/26 Q1017=
METAR SBUA 081300Z 03002KT CAVOK 28/24 Q1012=
METAR SBUI 081300Z NIL=
METAR SBVH 081300Z 03007KT CAVOK 28/17 Q1018=
METAR SBXG 081300Z NIL=
METAR SBXV 081300Z NIL=
METAR SBYA 081300Z 00000KT 9999 FEW010 SCT100 26/24 Q1012=
####018001061####
SABZ34 SBBR 081300
METAR SBBG 081300Z NIL=
METAR SBBI 081300Z 02004KT CAVOK 20/13 Q1022=
METAR SBCA 081200Z 04014KT CAVOK 21/11 Q1020=
METAR SBCH 081300Z 14002KT 8000 NSC 18/14 Q1019=
METAR SBCM 081300Z 23003KT 7000 FEW010 BKN015 OVC025 18/15 Q1020=
METAR SBCO 081300Z 16006KT 6000 SCT012 BKN020 15/14 Q1021=
METAR SBCT 081300Z 04004KT CAVOK 17/13 Q1022=
METAR SBCX 081300Z 23004KT 0000 FG VV/// 10/09 Q1020=
METAR SBFI 081300Z 14007KT 9999 FEW020 BKN100 17/15 Q1018=
METAR SBFL 081300Z 15010KT 9999 FEW023 SCT100 21/16 Q1018=
METAR SBJV 081300Z 15005KT CAVOK 20/19 Q1018=
METAR SBLO 081300Z 22001KT CAVOK 19/13 Q1021=
METAR SBMG 081300Z 02018KT 8000 NSC 23/10 Q1019=
METAR SBNF 081300Z 13007KT 9999 FEW045 SCT100 22/19 Q1018=
METAR SBNM 081200Z 14010KT 9999 FEW010 OVC020 15/09 Q1020=
METAR SBPA 081300Z 18005KT 5000 BR BKN010 SCT015 OVC030 14/12 Q1021=
METAR SBPF 081300Z NIL=
METAR SBPG 081300Z NIL=
METAR SBPK 081300Z NIL=
METAR SBRG 081300Z NIL=
METAR SBSM 081300Z 14001KT 9999 FEW008 BKN010 BKN015 10/08 Q1022=
####018000096####
SPUS53 KWBC 081321
SPECI
KVIH 081318Z AUTO 00000KT 10SM BKN007 BKN015 OVC046 24/22 A3008=
####018000120####
SAUS44 KMAF 081321
MTRGDP
SPECI KGDP 081319Z AUTO 06019KT 2SM BR SCT004 SCT070 OVC110 17/17 
A3025 RMK AO2 TSNO
####018000111####
SALT31 EYVI 081320
METAR EYVI 081320Z 29011KT 260V320 4000 -SHRA BKN005 OVC010CB 15/14
     Q1015 NOSIG=
####018000117####
SAAO33 DRRN 081200
METAR FTTJ 081230Z 23004KT 140V270 9999 FEW040 FEW050CB BKN140 33/28
Q1012 TEMPO 3000 TSRA=
####018000089####
SALV31 EVRA 081320
METAR EVRA 081320Z 32010KT 280V350 9999 OVC030 21/14 Q1015 NOSIG=
####018000089####
SANG31 YBBN 081300 RRA
METAR AGGH 081300Z 00000KT 9999 HZ FEW015 OVC300 25/24 Q1009=
####018000083####
SAEO31 EETN 081320
METAR EETN 081320Z 30008KT 270V340 CAVOK 25/17 Q1014 NOSIG=
####018000089####
SAID31 WIII 081300
METAR WARR 081300Z 24010KT 8000 FEW020CB SCT018 25/21 Q1010 RERA=
####018000083####
SALT32 EYVI 081320
METAR EYKA 081320Z 28007KT 250V340 9999 OVC031 17/14 Q1016=
####018000126####
SAMP31 LMMM 081330
METAR HLLT NIL=
METAR HLLB NIL=
METAR LMML 081315Z 09011KT 050V130 9999 FEW016 29/21 Q1018 NOSIG =
####018000076####
SPUS73 KWBC 081321
SPECI
KMKC 081318Z 35005KT 9SM OVC010 23/21 A3009=
####018000083####
SPUS74 KWBC 081321
SPECI
KONT 081318Z 20005KT 2 1/2SM BR OVC010 15/13 A2991=
####018002474####
SAUS20 KNKA 081321
SPECI KACV 081320Z AUTO 00000KT 3SM BR OVC001 10/09 A2996 RMK AO2=
METAR KAWG 081315Z AUTO 02006KT 10SM CLR 23/20 A3007 RMK AO2=
METAR KAXA 081315Z AUTO 35006KT 10SM CLR 20/17 A3015 RMK AO2=
METAR KBNW 081315Z AUTO 33009G14KT 10SM CLR 21/18 A3014 RMK AO2=
METAR KCAV 081315Z AUTO 35005KT 10SM CLR 21/18 A3013 RMK AO2=
METAR KCBF 081315Z AUTO 01007KT 10SM CLR 21/16 A3016 RMK AO2=
METAR KCCY 081315Z AUTO 34008KT 10SM CLR 21/17 A3012 RMK AO2=
METAR KCIN 081315Z AUTO 34006KT 10SM CLR 20/16 A3016 RMK AO2=
METAR KCNC 081315Z AUTO 01006KT 10SM CLR 22/18 A3011 RMK AO2=
METAR KCSQ 081315Z AUTO 02011KT 10SM CLR 22/20 A3014 RMK AO2=
METAR KDEH 081315Z AUTO 34006KT 10SM CLR 22/17 A3012 RMK AO2=
METAR KDNS 081315Z AUTO 02005KT 10SM CLR 21/16 A3019 RMK AO2=
METAR KEOK 081315Z AUTO 00000KT 10SM SCT005 24/20 A3008 RMK AO2=
METAR KFFL 081315Z AUTO 36005KT 10SM CLR 23/21 A3008 RMK AO2=
METAR KFSW 081315Z AUTO 34005KT 7SM OVC006 23/21 A3007 RMK AO2=
METAR KFXY 081315Z AUTO 35010KT 10SM CLR 20/16 A3014 RMK AO2=
METAR KGGI 081315Z AUTO 34009KT 10SM CLR 23/20 A3011 RMK AO2=
METAR KHNR 081315Z AUTO 02004KT 10SM CLR 19/17 A3019 RMK AO2=
METAR KI75 081315Z AUTO 35008KT 7SM CLR 21/18 A3011 RMK AO2=
METAR KICL 081315Z AUTO 02006KT 10SM CLR 22/18 A3013 RMK AO2=
METAR KIFA 081315Z AUTO 35006KT 10SM SCT095 SCT110 22/20 A3014 
     RMK AO2=
METAR KIIB 081316Z AUTO 35005KT 10SM CLR 22/20 A3009 RMK AO1=
METAR KIKV 081315Z AUTO 36008KT 10SM CLR 22/19 A3012 RMK AO2=
METAR KLRJ 081315Z AUTO 00000KT 10SM CLR 18/16 A3018 RMK AO2=
SPECI KMKO 081319Z AUTO 00000KT 8SM BKN005 OVC008 24/23 A3006 RMK 
    AO2 CIG 002V007=
METAR KMPZ 081315Z AUTO 33007KT 10SM SCT007 22/20 A3008 RMK AO2=
METAR KMUT 081315Z AUTO 35005KT 10SM CLR 23/22 A3006 RMK AO2=
METAR KMXO 081315Z AUTO 34004KT 7SM BKN007 22/20 A3006 RMK AO2=
METAR KORC 081315Z AUTO 32006KT 10SM CLR 20/18 A3017 RMK AO2=
METAR KOXV 081315Z AUTO 36008KT 10SM CLR 23/20 A3010 RMK AO2=
METAR KPEA 081315Z AUTO 34008KT 10SM CLR 23/20 A3009 RMK AO2=
METAR KRDK 081315Z AUTO 00000KT 10SM CLR 23/19 A3014 RMK AO2=
METAR KSDA 081315Z AUTO 01007KT 10SM CLR 23/19 A3014 RMK AO2=
METAR KSHL 081315Z AUTO 00000KT 10SM CLR 19/16 A3019 RMK AO2=
SPECI KSSF 081320Z 04008KT 10SM FEW013 BKN035 OVC043 27/23 A2994 RMK 
    AO2=
METAR KTNU 081315Z AUTO 35010KT 10SM CLR 23/21 A3011 RMK AO2=
METAR KVTI 081315Z AUTO 35008KT 10SM SCT007 24/21 A3009 RMK AO2=
####018000179####
SAUS75 KWBC 081300 RRA
METAR
PADL 081316Z 30005KT 10SM OVC080 10/08 A2996=
PAUN 081316Z AUTO 06012KT 10SM CLR 13/04 A3000=
PAVD 081316Z 26003KT 10SM OVC090 11/08 A3008=
####018000295####
SAEU KAWN 081300 RRX
METAR EGOS 081250Z 25008KT 9999 SCT044 BKN140 20/08 Q1017 BLU NOSIG=
METAR COR ENKB 081250Z 27015G25KT 9999 FEW045TCU SCT077 18/09 Q1010=
METAR LFBE 081300Z 13006KT 080V170 CAVOK 34/14 Q1016 NOSIG=
METAR LMML 081315Z 09011KT 050V130 9999 FEW016 29/21 Q1018 NOSIG=
####018000320####
SAZZ40 KAWN 081300 RRR
METAR DAUG 081300Z 12005KT CAVOK 38/11 Q1020=
METAR KFMH 081315Z AUTO 16007KT 10SM BKN014 OVC019 25/22 A3012 RMK
      AO2=
METAR MUCF 081300Z 00000KT 9000 NSC 28/24 Q1014=
METAR TDCF 081310Z 03002KT 9999 SCT016TCU 30/23 Q1014=
METAR TDPD 081300Z 09005KT 9999 SCT018TCU 30/24 Q1015=
####018001534####
SPZZ40 KAWN 081321 RRC
SPECI CYPL 081314Z 29009KT 12SM -TSRA BKN040CB BKN100 BKN270 RMK CB5AC2CI0=
SPECI CYUS 081316Z AUTO ///// 9SM CLR 13/ A2979=
SPECI KIAB 081316Z AUTO 01008KT 10SM BKN008 23/22 A3011 RMK AO2 SLP185=
SPECI KLTS 081313Z AUTO 35003KT 10SM -DZ CLR 24/22 A3008 RMK AO2 DZB1313
      CIG 075 RWY35L SLP171 $=
SPECI KNGP 081312Z 02006KT 9SM -RA FEW011 SCT022CB BKN034 28/26 A2983
      RMK AO2 RAB12 CB DSNT SE TCU DSNT N AND S-SW WR// P0001=
SPECI KNRS 081314Z AUTO 34004KT 10SM OVC014 17/13 A2991 RMK AO2 TSNO
      $=
SPECI KSZL 081308Z 00000KT 9SM OVC005 23/22 A3009 RMK AO2A DZE1308
      SLP183 $=
SPECI MMMX 081317Z 15004KT 3SM HZ SCT06 BKN010 OVC020 15/14 A3021 TEMPO
      3SM -RA HZ RMK 8/7// VSBY TWR -RAE15 OCNL DROPS=
SPECI PAED 081316Z AUTO 00000KT 10SM -RA SCT070 BKN085 BKN100 12/11
      A2998 RMK AO2 RAE1256B1316DZB1256E1258 SLP154 $=
PASV SP 1315 AWOS 110 SCT 10 49/44/0000/994=
SPECI PGUA 081319Z AUTO 12011KT 10SM BKN013 26/ A2991 RMK AO2 CIG 012V017
      BKN V SCT SLP110 VISNO RWY24L $=
SPECI PHHI 081316Z AUTO 00000KT 10SM FEW023 BKN029 BKN037 20/18 A3003
      RMK AO2 RAB1259E1309DZE1312 BKN029 V SCT SLP156=
SPECI PHHI 081317Z AUTO 00000KT 10SM FEW023 SCT029 BKN037 20/18 A3003
      RMK AO2 RAB1259E1309DZE1312 FEW V SCT SLP156=
SPECI RJST 081308Z 35002KT 7000 FEW002 SCT005 21/20 Q1011 RMK 1ST002
      3ST005 A2986 1ST002 SE 3ST005 OVR FLD=
SPECI SEGU 081310Z 20005KT 9999N 4000S -DZ BKN040 OVC100 23/19 Q1012
      TEMPO 3000 NOSIG=
####018000346####
SPNA14 KAWN 081321 RRB
SPECI KNGP 081312Z 02006KT 9SM -RA FEW011 SCT022CB BKN034 28/26 A2983
      RMK AO2 RAB12 CB DSNT SE TCU DSNT N AND S-SW WR// P0001=
SPECI KSZL 081308Z 00000KT 9SM OVC005 23/22 A3009 RMK AO2A DZE1308
      SLP183 $=
SPECI SEGU 081310Z 20005KT 9999N 4000S -DZ BKN040 OVC100 23/19 Q1012
      TEMPO 3000 NOSIG=
####018000122####
SAGW20 GGOV 081300
METAR GGOV 081300Z 20009KT 140V260 9999 BKN015TCU FEW020CB 31/23
Q1013                    NOSIG=
####018000089####
SPCN46 CWAO 081320
SPECI CYBC 081320Z AUTO 00000KT 8SM OVC003 OVC081 14/13 A3003=

####018001551####
SASA KAWN 081300 RRH
METAR SAWE 081300Z 29009KT 9999 FEW018 M03/M04 Q0986=
METAR SBAF 081300Z 02003KT 4000 HZ FEW030 26/14 Q1018=
METAR SBAN 081300Z 08010KT CAVOK 22/13 Q1024=
METAR SBAT 081300Z 19002KT CAVOK 25/18 Q1016=
METAR SBBH 081300Z 05004KT CAVOK 20/11 Q1023=
METAR SBBI 081300Z 02004KT CAVOK 20/13 Q1022=
METAR SBBQ 081300Z 33007KT CAVOK 20/06 Q1026=
METAR SBBU 081300Z 05005KT CAVOK 22/10 Q1021=
METAR SBBW 081300Z 06002KT CAVOK 26/12 Q1019=
METAR SBCC 081300Z 12006KT CAVOK 27/17 Q1017=
METAR SBCO 081300Z 16006KT 6000 SCT012 BKN020 15/14 Q1021=
METAR SBDN 081300Z 04007KT CAVOK 24/07 Q1019=
METAR SBGW 081300Z 25008KT CAVOK 16/12 Q1022=
METAR SBIL 081300Z 18007KT 9999 SCT025 BKN070 27/21 Q1019=
METAR SBIZ 081300Z 10005KT 9999 FEW030 29/21 Q1015=
METAR SBJF 081300Z 34006KT CAVOK 21/10 Q1023=
METAR SBJR 081300Z 32004KT CAVOK 27/16 Q1018=
METAR SBKG 081300Z 14008KT 9999 BKN020 BKN100 24/21 Q1018=
METAR SBME 081300Z 04007KT CAVOK 28/19 Q1018=
METAR SBMK 081300Z 01002KT CAVOK 23/13 Q1023=
METAR SBMS 081300Z 13008KT 9999 SCT030 33/20 Q1014=
METAR SBMT 081300Z 36004KT CAVOK 21/08 Q1022=
METAR SBPC 081300Z 09004KT CAVOK 18/06 Q1024=
METAR SBPN 081300Z 21004KT CAVOK 27/24 Q1016=
METAR SBSC 081300Z 35010KT CAVOK 24/13 Q1018=
METAR SBSM 081300Z 14001KT 9999 FEW008 BKN010 BKN015 10/08 Q1022=
METAR SBUL 081300Z 02009KT CAVOK 20/09 Q1022=
METAR SBUR 081300Z 02005KT CAVOK 24/07 Q1022=
METAR SBVH 081300Z 03007KT CAVOK 28/17 Q1018=
METAR SBYS 081300Z 00000KT CAVOK 19/11 Q1021=
####018000277####
SPUS90 KWBC 081322
SPECI KPOE 081318Z AUTO 09006KT 10SM FEW008 26/24 A3004 RMK AO2
     $=
SPECI KJCT 081318Z AUTO 12003KT 7SM SCT006 BKN022 24/22 A3004 RMK
     AO2 TSNO=
SPECI KGDP 081319Z AUTO 06019KT 2SM BR SCT004 SCT070 OVC110 17/17
     A3025 RMK AO2 TSNO=
####018000083####
SAUS90 KWBC 081300 RRF
METAR KPVD 081251Z COR 16006KT 10SM BKN010 24/20 A3011=
####018000101####
SPUS90 KWBC 081322 CCA
SPECI KPOE 081318Z AUTO 09006KT 10SM FEW008 26/24 A3004 RMK AO2
     $=
####018000106####
SAUS90 KWBC 081322
METAR K3A6 081410Z AUTO 00000KT 11/10 A2989 RMK AO1 SLP143
     T01120101 54000=
####018002033####
SAUS99 KWBC 081322
METAR
KAWG 081315Z AUTO 02006KT 10SM CLR 23/20 A3007 RMK AO2=
KAXA 081315Z AUTO 35006KT 10SM CLR 20/17 A3015 RMK AO2=
KBNW 081315Z AUTO 33009G14KT 10SM CLR 21/18 A3014 RMK AO2=
KCAV 081315Z AUTO 35005KT 10SM CLR 21/18 A3013 RMK AO2=
KCBF 081315Z AUTO 01007KT 10SM CLR 21/16 A3016 RMK AO2=
KCCY 081315Z AUTO 34008KT 10SM CLR 21/17 A3012 RMK AO2=
KCIN 081315Z AUTO 34006KT 10SM CLR 20/16 A3016 RMK AO2=
KCNC 081315Z AUTO 01006KT 10SM CLR 22/18 A3011 RMK AO2=
KCSQ 081315Z AUTO 02011KT 10SM CLR 22/20 A3014 RMK AO2=
KDEH 081315Z AUTO 34006KT 10SM CLR 22/17 A3012 RMK AO2=
KDNS 081315Z AUTO 02005KT 10SM CLR 21/16 A3019 RMK AO2=
KEOK 081315Z AUTO 00000KT 10SM SCT005 24/20 A3008 RMK AO2=
KFFL 081315Z AUTO 36005KT 10SM CLR 23/21 A3008 RMK AO2=
KFSW 081315Z AUTO 34005KT 7SM OVC006 23/21 A3007 RMK AO2=
KFXY 081315Z AUTO 35010KT 10SM CLR 20/16 A3014 RMK AO2=
KGGI 081315Z AUTO 34009KT 10SM CLR 23/20 A3011 RMK AO2=
KHNR 081315Z AUTO 02004KT 10SM CLR 19/17 A3019 RMK AO2=
KI75 081315Z AUTO 35008KT 7SM CLR 21/18 A3011 RMK AO2=
KICL 081315Z AUTO 02006KT 10SM CLR 22/18 A3013 RMK AO2=
KIFA 081315Z AUTO 35006KT 10SM SCT095 SCT110 22/20 A3014 RMK
     AO2=
KIIB 081316Z AUTO 35005KT 10SM CLR 22/20 A3009 RMK AO1=
KIKV 081315Z AUTO 36008KT 10SM CLR 22/19 A3012 RMK AO2=
KLRJ 081315Z AUTO 00000KT 10SM CLR 18/16 A3018 RMK AO2=
KMPZ 081315Z AUTO 33007KT 10SM SCT007 22/20 A3008 RMK AO2=
KMUT 081315Z AUTO 35005KT 10SM CLR 23/22 A3006 RMK AO2=
KMXO 081315Z AUTO 34004KT 7SM BKN007 22/20 A3006 RMK AO2=
KORC 081315Z AUTO 32006KT 10SM CLR 20/18 A3017 RMK AO2=
KOXV 081315Z AUTO 36008KT 10SM CLR 23/20 A3010 RMK AO2=
KPEA 081315Z AUTO 34008KT 10SM CLR 23/20 A3009 RMK AO2=
KRDK 081315Z AUTO 00000KT 10SM CLR 23/19 A3014 RMK AO2=
KSDA 081315Z AUTO 01007KT 10SM CLR 23/19 A3014 RMK AO2=
KSHL 081315Z AUTO 00000KT 10SM CLR 19/16 A3019 RMK AO2=
KTNU 081315Z AUTO 35010KT 10SM CLR 23/21 A3011 RMK AO2=
KVTI 081315Z AUTO 35008KT 10SM SCT007 24/21 A3009 RMK AO2=
####018000255####
SPUS99 KWBC 081322
SPECI
KACV 081320Z AUTO 00000KT 3SM BR OVC001 10/09 A2996 RMK AO2=
KMKO 081319Z AUTO 00000KT 8SM BKN005 OVC008 24/23 A3006 RMK AO2
     CIG 002V007=
KSSF 081320Z 04008KT 10SM FEW013 BKN035 OVC043 27/23 A2994 RMK
     AO2=
####018000102####
SPAK31 KWBC 081322
SPECI
PAED 081316Z AUTO 00000KT 10SM -RA SCT070 BKN085 BKN100 12/11
A2998=
####018000080####
SALI20 GLRB 081330
METAR GLRB 081330Z 21005KT 9999 BKN020 30/25 Q1013 NOSIG=
####018000115####
SAIY42 LIIB 081300 RRC
METAR LIRX 081255Z 17003KT CAVOK 29/18 Q1020 RMK SKC VIS MIN 9999E
      VIS MAR 25 KM=
####018000128####
SAAF32 KWBC 081200 RRG
METAR
FTTJ 081230Z 23004KT 140V270 9999 FEW040 FEW050CB BKN140 33/28
     Q1012 TEMPO 3000 TSRA=
####018000096####
SPXX60 KWBC 081322 CCA
SPECI
KPOE 081318Z AUTO 09006KT 10SM FEW008 26/24 A3004 RMK AO2 $=
####018000747####
SPUS70 KWBC 081322
SPECI
KJCT 081318Z AUTO 12003KT 7SM SCT006 BKN022 24/22 A3004 RMK AO2
     TSNO=
KMMK 081319Z AUTO 17005KT 4SM HZ SCT012 BKN019 OVC028 26/22 A3007
     RMK AO2=
KARA 081319Z 08006KT 6SM BR OVC005 26/25 A3003 RMK AO2 CIG
     003V009=
KENW 081319Z 27006KT 10SM SCT008 BKN014 23/22 A3004 RMK AO2=
KGLR 081319Z AUTO 24007KT 4SM -RA BR FEW007 SCT024 BKN048 21/21
     A3003 RMK AO2 P0004=
KGRB 081319Z 31004KT 2 1/2SM BR BKN004 BKN008 OVC015 23/21 A3000
     RMK AO2 CIG 002V006=
KACV 081320Z AUTO 00000KT 3SM BR OVC001 10/09 A2996 RMK AO2=
KMKO 081319Z AUTO 00000KT 8SM BKN005 OVC008 24/23 A3006 RMK AO2
     CIG 002V007=
KSSF 081320Z 04008KT 10SM FEW013 BKN035 OVC043 27/23 A2994 RMK
     AO2=
####018001136####
SPXX60 KWBC 081322
SPECI
KPOE 081318Z AUTO 09006KT 10SM FEW008 26/24 A3004 RMK AO2 $=
KNXF 081319Z AUTO 32005KT 7SM OVC015 16/13 A2991 RMK AO2 TSNO=
KIAB 081316Z AUTO 01008KT 10SM BKN008 23/22 A3011 RMK AO2
     SLP185=
KLTS 081313Z AUTO 35003KT 10SM -DZ CLR 24/22 A3008 RMK AO2 DZB1313
     CIG 075 RWY35L SLP171 $=
KNGP 081312Z 02006KT 9SM -RA FEW011 SCT022CB BKN034 28/26 A2983
     RMK AO2 RAB12 CB DSNT SE TCU DSNT N AND S-SW WR// P0001=
KNRS 081314Z AUTO 34004KT 10SM OVC014 17/13 A2991 RMK AO2 TSNO
     $=
KSZL 081308Z 00000KT 9SM OVC005 23/22 A3009 RMK AO2A DZE1308
     SLP183 $=
PAED 081316Z AUTO 00000KT 10SM -RA SCT070 BKN085 BKN100 12/11
     A2998 RMK AO2 RAE1256B1316DZB1256E1258 SLP154 $=
PASV SP 1315 AWOS 110 SCT 10 49/44/0000/994=
PGUA 081319Z AUTO 12011KT 10SM BKN013 26/ A2991 RMK AO2 CIG
     012V017 BKN V SCT SLP110 VISNO RWY24L $=
PHHI 081316Z AUTO 00000KT 10SM FEW023 BKN029 BKN037 20/18 A3003
     RMK AO2 RAB1259E1309DZE1312 BKN029 V SCT SLP156=
PHHI 081317Z AUTO 00000KT 10SM FEW023 SCT029 BKN037 20/18 A3003
     RMK AO2 RAB1259E1309DZE1312 FEW V SCT SLP156=
####018000118####
SPUS80 KWBC 081322
SPECI
KGDP 081319Z AUTO 06019KT 2SM BR SCT004 SCT070 OVC110 17/17 A3025
     RMK AO2 TSNO=
####018003025####
SAUS70 KWBC 081322 RRA
METAR
KCVX 081315Z AUTO 23004KT 3SM -RA BKN004 BKN015 OVC050 21/20 A3002
     RMK AO2=
KDRM 081316Z AUTO 22005KT 5SM -RA SCT006 SCT019 OVC040 21/21 A2998
     RMK AO2=
KDTL 081315Z AUTO 28005KT 10SM CLR 20/12 A3011 RMK AO2=
KDUH 081314Z AUTO 00000KT 10SM CLR 30/20 A3004 RMK AO2=
KDVP 081316Z AUTO 27006KT 10SM CLR 19/14 A3019 RMK AO2
     T01900140=
KERY 081316Z AUTO 33003KT 7SM OVC003 18/17 A3001 RMK AO2=
KETH 081314Z AUTO 27004KT 10SM CLR 20/16 A3011 RMK AO2=
KFFX 081315Z AUTO 19003KT 7SM SCT046 BKN055 BKN070 23/22 A3002 RMK
     AO2=
KFKA 081323Z AUTO 36008KT 10SM SCT009 20/18 A3012 RMK AO2
     T02010175=
KFKS 081315Z AUTO 26005KT 7SM SCT004 SCT017 21/20 A3001 RMK
     AO2=
KFOZ 081313Z AUTO 24004KT 10SM CLR 18/15 A3006 RMK AO2=
KFPK 081316Z AUTO 00000KT 10SM CLR 25/21 A3003 RMK AO2=
KFSE 081314Z AUTO 23004KT 10SM CLR 17/13 A3006 RMK AO2=
KGOV 081315Z AUTO 28003KT 5SM -RA SCT006 SCT030 BKN046 22/22 A3004
     RMK AO2=
KHAF 081310Z AUTO 30004KT 7SM OVC006 12/10 A2995 RMK AO2=
KAWG 081315Z AUTO 02006KT 10SM CLR 23/20 A3007 RMK AO2=
KAXA 081315Z AUTO 35006KT 10SM CLR 20/17 A3015 RMK AO2=
KBNW 081315Z AUTO 33009G14KT 10SM CLR 21/18 A3014 RMK AO2=
KCAV 081315Z AUTO 35005KT 10SM CLR 21/18 A3013 RMK AO2=
KCBF 081315Z AUTO 01007KT 10SM CLR 21/16 A3016 RMK AO2=
KCCY 081315Z AUTO 34008KT 10SM CLR 21/17 A3012 RMK AO2=
KCIN 081315Z AUTO 34006KT 10SM CLR 20/16 A3016 RMK AO2=
KCNC 081315Z AUTO 01006KT 10SM CLR 22/18 A3011 RMK AO2=
KCSQ 081315Z AUTO 02011KT 10SM CLR 22/20 A3014 RMK AO2=
KDEH 081315Z AUTO 34006KT 10SM CLR 22/17 A3012 RMK AO2=
KDNS 081315Z AUTO 02005KT 10SM CLR 21/16 A3019 RMK AO2=
KEOK 081315Z AUTO 00000KT 10SM SCT005 24/20 A3008 RMK AO2=
KFFL 081315Z AUTO 36005KT 10SM CLR 23/21 A3008 RMK AO2=
KFSW 081315Z AUTO 34005KT 7SM OVC006 23/21 A3007 RMK AO2=
KFXY 081315Z AUTO 35010KT 10SM CLR 20/16 A3014 RMK AO2=
KGGI 081315Z AUTO 34009KT 10SM CLR 23/20 A3011 RMK AO2=
KHNR 081315Z AUTO 02004KT 10SM CLR 19/17 A3019 RMK AO2=
KICL 081315Z AUTO 02006KT 10SM CLR 22/18 A3013 RMK AO2=
KIFA 081315Z AUTO 35006KT 10SM SCT095 SCT110 22/20 A3014 RMK
     AO2=
KIIB 081316Z AUTO 35005KT 10SM CLR 22/20 A3009 RMK AO1=
KIKV 081315Z AUTO 36008KT 10SM CLR 22/19 A3012 RMK AO2=
KLRJ 081315Z AUTO 00000KT 10SM CLR 18/16 A3018 RMK AO2=
KMPZ 081315Z AUTO 33007KT 10SM SCT007 22/20 A3008 RMK AO2=
KMUT 081315Z AUTO 35005KT 10SM CLR 23/22 A3006 RMK AO2=
KMXO 081315Z AUTO 34004KT 7SM BKN007 22/20 A3006 RMK AO2=
KORC 081315Z AUTO 32006KT 10SM CLR 20/18 A3017 RMK AO2=
KOXV 081315Z AUTO 36008KT 10SM CLR 23/20 A3010 RMK AO2=
KPEA 081315Z AUTO 34008KT 10SM CLR 23/20 A3009 RMK AO2=
KRDK 081315Z AUTO 00000KT 10SM CLR 23/19 A3014 RMK AO2=
KSDA 081315Z AUTO 01007KT 10SM CLR 23/19 A3014 RMK AO2=
KSHL 081315Z AUTO 00000KT 10SM CLR 19/16 A3019 RMK AO2=
KTNU 081315Z AUTO 35010KT 10SM CLR 23/21 A3011 RMK AO2=
KFMH 081315Z AUTO 16007KT 10SM BKN014 OVC019 25/22 A3012 RMK
     AO2=
####018003693####
SAUS70 KWBC 081322
METAR
KHAI 081315Z AUTO 00000KT 10SM SCT075 25/22 A3004 RMK AO2=
KHYX 081315Z AUTO 26005KT 10SM CLR 25/21 A3002 RMK AO2=
KIRS 081315Z AUTO 10004KT 10SM CLR 26/21 A3004 RMK AO2=
KISQ 081315Z AUTO 36005KT 10SM OVC004 20/18 A3000 RMK AO2=
KJYG 081314Z AUTO 29006KT 10SM CLR 20/19 A3016 RMK AO2=
KJYM 081315Z AUTO 00000KT 10SM CLR 26/21 A3007 RMK AO2=
KJZI 081315Z AUTO 29007KT 10SM CLR 29/24 A2997 RMK A02 P000=
KLDM 081316Z AUTO 23004KT 7SM OVC005 22/21 A3002 RMK AO2=
KLWA 081316Z AUTO 00000KT 10SM BKN060 BKN100 23/21 A3002 RMK
     AO2=
KMCD 081316Z AUTO 00000KT 1/4SM HZ OVC001 20/17 A3001 RMK AO2=
KMGN 081315Z AUTO 27005KT 3SM -RA SCT002 OVC010 21/20 A3000 RMK
     AO2=
KMOP 081314Z AUTO 27007KT 10SM -RA OVC060 23/23 A3003 RMK AO2=
KMZH 081311Z AUTO 28006KT 10SM CLR 19/15 A3006 RMK AO2=
KOEB 081315Z AUTO 09004KT 10SM CLR 27/22 A3005 RMK AO2=
KONZ 081317Z AUTO 00000KT 10SM CLR 29/21 A3002 RMK AO2=
KORB 081314Z AUTO 26004KT 10SM CLR 18/14 A3002 RMK AO2=
KOSC 081314Z AUTO 23004KT 7SM OVC075 23/21 A3000 RMK AO2=
KOWA 081313Z AUTO 31007KT 10SM CLR 19/17 A3012 RMK AO2=
KOZW 081315Z AUTO 00000KT 10SM CLR 27/21 A3005 RMK AO2=
KPHN 081316Z AUTO 19003KT 10SM CLR 27/21 A3002 RMK AO2=
KRGK 081315Z AUTO 30004KT 10SM CLR 21/18 A3009 RMK AO2=
KRMY 081316Z AUTO 00000KT 10SM CLR 26/22 A3004 RMK AO2=
KRNP 081315Z AUTO 00000KT 10SM CLR 27/21 A3003 RMK AO2=
KRQB 081314Z AUTO 00000KT 5SM -RA SCT012 OVC055 22/22 A3004 RMK
     AO2=
KRYV 081315Z AUTO 27004KT 7SM OVC005 23/21 A3005 RMK AO2=
KSJX 081316Z AUTO 26004KT 1/2SM FG OVC002 20/18 A3000 RMK AO2=
KSLH 081315Z AUTO 24004KT 5SM -RA SCT011 SCT014 BKN029 22/21 A2999
     RMK AO2=
KSPF 081315Z AUTO 00000KT 10SM CLR 14/11 A3030 RMK AO2=
KSTE 081315Z AUTO 29003KT 10SM BKN009 22/19 A3005 RMK AO2=
KSUW 081315Z AUTO 23006KT 10SM CLR 19/16 A3003 RMK AO2=
KTTF 081314Z AUTO 27003KT 10SM CLR 29/22 A3003 RMK AO2=
KUKT 081310Z AUTO 08004KT 8SM CLR 28/22 A3006 RMK AO1=
KUNU 081312Z AUTO 26005KT 7SM OVC005 22/20 A3004 RMK AO2
     T02220202=
KVLL 081314Z AUTO 26007KT 10SM CLR 30/19 A3006 RMK AO2=
KVWU 081311Z AUTO 26007KT 10SM CLR 19/15 A3004 RMK AO2=
KXVG 081316Z AUTO 27005KT 10SM CLR 19/15 A3006 RMK AO2=
KY70 081315Z AUTO 00000KT 5SM HZ SCT006 SCT120 25/22 A3003 RMK AO2
     T02480222=
K4I3 081316Z AUTO 21003KT 7SM CLR 26/21 A3010 RMK AO2=
KACB 081315Z AUTO 20003KT 7SM -DZ OVC011 23/22 A3001 RMK AO2=
KACQ 081319Z AUTO 32007KT 10SM CLR 18/16 A3015 RMK AO2=
KADC 081317Z AUTO 27005KT 10SM CLR 17/15 A3009 RMK AO2=
KAMN 081316Z AUTO 25003KT 7SM BKN060 24/22 A3002 RMK AO2=
KAQP 081313Z AUTO 26006KT 10SM CLR 18/18 A3012 RMK AO2=
KAUM 081315Z AUTO 34007KT 10SM CLR 20/17 A3011 RMK AO2=
KBAX 081315Z AUTO 25004KT 10SM CLR 26/23 A3001 RMK AO2=
KBDH 081315Z AUTO 28004KT 10SM CLR 19/16 A3014 RMK AO2=
KBFW 081313Z AUTO 27004KT 10SM CLR 22/16 A3002 RMK AO2=
KBWD 081315Z AUTO 09008KT 10SM BKN050 24/23 A3005 RMK AO2=
KCAD 081315Z AUTO 25005KT 4SM -RA SCT008 BKN023 OVC050 22/21 A3004
     RMK AO2=
KCBG 081315Z AUTO 27005KT 10SM CLR 20/16 A3010 RMK AO2=
KCDA 081315Z AUTO 18004KT 7SM CLR 26/21 A3010 RMK AO2=
KCDD 081311Z AUTO 25003KT 10SM CLR 21/18 A3003 RMK AO2=
KCFE 081315Z AUTO 25005KT 10SM CLR 20/17 A3013 RMK AO2
     T02010165=
KCFS 081315Z AUTO 22003KT 10SM CLR 27/21 A3002 RMK AO2=
KCKC 081315Z AUTO 26004KT 10SM CLR 19/14 A3004 RMK AO2=
KCKN 081315Z AUTO 29006KT 10SM CLR 18/14 A3008 RMK AO2=
KCNB 081318Z AUTO 25007KT 10SM CLR 21/14 A3015 RMK AO2
     T02080144=
KCOQ 081316Z AUTO 27007KT 10SM CLR 19/18 A3007 RMK AO2=
KCQM 081317Z AUTO 24007KT 10SM CLR 18/15 A3005 RMK AO2=
####018000326####
SAUS80 KWBC 081322
METAR
KPZQ 081315Z AUTO 00000KT 10SM SCT043 SCT050 OVC075 22/21 A3000
     RMK AO2=
KTKV 081315Z AUTO 34005KT 10SM CLR 20/16 A3006 RMK AO2
     T01950164=
K3A6 081410Z AUTO 00000KT 11/10 A2989 RMK AO1 SLP143 T01120101
     54000=
KVTI 081315Z AUTO 35008KT 10SM SCT007 24/21 A3009 RMK AO2=
####018000076####
SPAK32 KWBC 081322
SPECI
PASV SP 1315 AWOS 110 SCT 10 49/44/0000/994=
####018000080####
SPPA41 KWBC 081322
SPECI
PGUA 081319Z AUTO 12011KT 10SM BKN013 26/ A2991=
####018000535####
SABZ42 KWBC 081300 RRB
METAR
SBJR 081300Z 32004KT CAVOK 27/16 Q1018=
SBME 081300Z 04007KT CAVOK 28/19 Q1018=
SBMT 081300Z 36004KT CAVOK 21/08 Q1022=
SBPC 081300Z 09004KT CAVOK 18/06 Q1024=
SBPK 081300Z NIL=
SBSC 081300Z 35010KT CAVOK 24/13 Q1018=
SBSM 081300Z 14001KT 9999 FEW008 BKN010 BKN015 10/08 Q1022=
SBST 081300Z 35010KT CAVOK 28/07 Q1018=
SBTU 081300Z 08007KT CAVOK 28/26 Q1017=
SBUR 081300Z 02005KT CAVOK 24/07 Q1022=
SBVH 081300Z 03007KT CAVOK 28/17 Q1018=
SBYS 081300Z 00000KT CAVOK 19/11 Q1021=
####018000576####
SABZ41 KWBC 081300 RRB
METAR
SBAA 081300Z 08003KT CAVOK 29/15 Q1016=
SBAF 081300Z 02003KT 4000 HZ FEW030 26/14 Q1018=
SBBG 081300Z NIL=
SBBH 081300Z 05004KT CAVOK 20/11 Q1023=
SBBI 081300Z 02004KT CAVOK 20/13 Q1022=
SBBU 081300Z 05005KT CAVOK 22/10 Q1021=
SBCO 081300Z 16006KT 6000 SCT012 BKN020 15/14 Q1021=
SBCV 081300Z NIL=
SBDN 081300Z 04007KT CAVOK 24/07 Q1019=
SBGW 081300Z 25008KT CAVOK 16/12 Q1022=
SBHT 081300Z 09008KT 9999 SCT020 ///// Q1014=
SBIH 081300Z 02007KT CAVOK 30/23 Q1013=
SBIL 081300Z 18007KT 9999 SCT025 BKN070 27/21 Q1019=
####018000935####
SABZ43 KWBC 081300 RRA
METAR
SBAN 081300Z 08010KT CAVOK 22/13 Q1024=
SBAT 081300Z 19002KT CAVOK 25/18 Q1016=
SBBA 081300Z NIL=
SBBQ 081300Z 33007KT CAVOK 20/06 Q1026=
SBBW 081300Z 06002KT CAVOK 26/12 Q1019=
SBCC 081300Z 12006KT CAVOK 27/17 Q1017=
SBES 081300Z 06008KT CAVOK 24/17 Q1018=
SBGA 081300Z NIL=
SBIZ 081300Z 10005KT 9999 FEW030 29/21 Q1015=
SBJF 081300Z 34006KT CAVOK 21/10 Q1023=
SBKG 081300Z 14008KT 9999 BKN020 BKN100 24/21 Q1018=
SBLB 081300Z NIL=
SBLP 081300Z 12006KT 9999 FEW030 27/16 Q1020=
SBMK 081300Z 01002KT CAVOK 23/13 Q1023=
SBMS 081300Z 13008KT 9999 SCT030 33/20 Q1014=
SBMZ 081300Z NIL=
SBPJ 081300Z 21006KT CAVOK 26/15 Q1017=
SBPN 081300Z 21004KT CAVOK 27/24 Q1016=
SBQV 081300Z 13008KT 9999 BKN013 19/18 Q1024=
SBTK 081300Z 12002KT 7000 NSC 26/25 Q1014=
SBUF 081300Z 13009KT 9999 SCT018 28/20 Q1019=
SBUI 081300Z NIL=
SBUL 081300Z 02009KT CAVOK 20/09 Q1022=
####018000088####
SAQB31 LQSM 081330
METAR LQSA 081330Z 29006KT 220V350 9999 SCT600 23/12 Q1023 NOSIG=
####018000080####
SACA31 KWBC 081300 RRB
METAR
MBPV 081300 26006KT 9999 SCT012 30/25 A3000=
####018000084####
SACA41 KWBC 081300 RRC
METAR
TDCF 081310Z 03002KT 9999 SCT016TCU 30/23 Q1014=
####018000084####
SACA33 KWBC 081300 RRC
METAR
TDPD 081300Z 09005KT 9999 SCT018TCU 30/24 Q1015=
####018000135####
SPJP44 KWBC 081322
SPECI
RJST 081308Z 35002KT 7000 FEW002 SCT005 21/20 Q1011 RMK 1ST002
3ST005 A2986 1ST002 SE 3ST005 OVR FLD=
####018000148####
SPMX31 KWBC 081322
SPECI
MMMX 081317Z 15004KT 3SM HZ SCT06 BKN010 OVC020 15/14 A3021 TEMPO
3SM -RA HZ RMK 8/7// VSBY TWR -RAE15 OCNL DROPS=
####018000134####
SPPA31 KWBC 081322
SPECI
PGUA 081319Z AUTO 12011KT 10SM BKN013 26/ A2991 RMK AO2 CIG
012V017 BKN V SCT SLP110 VISNO RWY24L $=
####018000095####
SAMM31 KWBC 081300 RRA
METAR
LMML 081315Z 09011KT 050V130 9999 FEW016 29/21 Q1018 NOSIG=
####018000111####
SAPA31 KWBC 081300 RRB
METAR
PKWA 081320Z AUTO 13005KT 10SM OVC065 26/23 A2983 RMK AO2
     T02600232=
####018000102####
SAUS44 KSHV 081321 COR
MTRPOE
SPECI KPOE 081318Z AUTO 09006KT 10SM FEW008 26/24 A3004 RMK AO2 $
####018000146####
SPXX62 KWBC 081322
SPECI
PHHI 081316Z AUTO 00000KT 10SM FEW023 BKN029 BKN037 20/18 A3003
RMK AO2 RAB1259E1309DZE1312 BKN029 V SCT SLP156=
####018000143####
SPXX62 KWBC 081322
SPECI
PHHI 081317Z AUTO 00000KT 10SM FEW023 SCT029 BKN037 20/18 A3003
RMK AO2 RAB1259E1309DZE1312 FEW V SCT SLP156=
####018000149####
SASA31 KWBC 081300 RRC
METAR
SEQU 081300Z 08001KT 9999 FEW100 SCT300 12/08 Q1027=
SPIM 081300Z 18004KT 6000 SCT015 OVC023 16/14 Q1014 NOSIG=
####018000098####
SAUK42 KWBC 081250 RRD
METAR
EGOS 081250Z 25008KT 9999 SCT044 BKN140 20/08 Q1017 BLU NOSIG=
####018000111####
SAXX62 KWBC 081300 RRC
METAR
PKWA 081320Z AUTO 13005KT 10SM OVC065 26/23 A2983 RMK AO2
     T02600232=
####018000252####
SAXX99 KWBC 081300 RRQ
METAR
EYKA 081320Z 28007KT 250V340 9999 OVC031 17/14 Q1016=
LFBE 081300Z 13006KT 080V170 CAVOK 34/14 Q1016 NOSIG=
MUCF 081300Z 00000KT 9000 NSC 28/24 Q1014=
WARR 081300Z 24010KT 8000 FEW020CB SCT018 25/21 Q1010 RERA=
####018000517####
SAUS20 KNKA 081321
SPECI KDFW 081320Z 13005KT 10SM -RA SCT028 BKN042 OVC055 26/24 A3003 
    RMK AO2 P0000=
SPECI KDMO 081320Z AUTO 35004KT 9SM FEW008 SCT012 OVC045 24/22 A3009 
    RMK AO2=
SPECI KDPA 081320Z 25006KT 3SM -RA BR BKN016 OVC021 23/22 A3004 RMK 
    AO2 RAB03 P0002=
SPECI KMWL 081320Z AUTO 13003KT 10SM SCT010 BKN026 BKN033 24/23 
    A3004 RMK AO2 $=
METAR KO22 081315Z AUTO 00000KT 10SM CLR 15/12 A2991 RMK AO1 =
SPECI KPYM 081320Z AUTO 14005KT 10SM BKN022 28/20 A3011 RMK AO2=
####018000097####
SPUS43 KWBC 081322
SPECI
KGRB 081319Z 31004KT 2 1/2SM BR BKN004 BKN008 OVC015 23/21 A3000=
####018000098####
SPUS52 KWBC 081322
SPECI
KGDP 081319Z AUTO 06019KT 2SM BR SCT004 SCT070 OVC110 17/17 A3025=
####018001138####
SABZ01 SBBR 081300
METAR SBBE 081300Z 10009KT 9999 FEW015 SCT100 31/22 Q1014=
METAR SBBR 081300Z 07013KT CAVOK 21/09 Q1024=
METAR SBBV 081300Z 00000KT 9999 SCT020 SCT070 27/23 Q1013=
METAR SBCF 081300Z 14006KT CAVOK 17/10 Q1024=
METAR SBCG 081300Z 06013KT CAVOK 25/08 Q1017=
METAR SBCR 081300Z 08004KT CAVOK 27/12 Q1015=
METAR SBCT 081300Z 04004KT CAVOK 17/13 Q1022=
METAR SBEG 081300Z 00000KT CAVOK 28/22 Q1013=
METAR SBFI 081300Z 14007KT 9999 FEW020 BKN100 17/15 Q1018=
METAR SBFL 081300Z 15010KT 9999 FEW023 SCT100 21/16 Q1018=
METAR SBFZ 081300Z 13011KT 9999 FEW018 BKN090 29/20 Q1014=
METAR SBGR 081300Z 01004KT CAVOK 21/08 Q1023=
METAR SBKP 081300Z 01004KT 8000 NSC 21/09 Q1022=
METAR SBLO 081300Z 22001KT CAVOK 19/13 Q1021=
METAR SBMQ 081300Z 08006KT 9999 SCT020 32/26 Q1014=
METAR SBPA 081300Z 18005KT 5000 BR BKN010 SCT015 OVC030 14/12 Q1021=
METAR SBPP 081300Z 01006KT CAVOK 24/11 Q1018=
METAR SBRB 081300Z 04008KT CAVOK 29/24 Q1013=
METAR SBSJ 081300Z 00000KT CAVOK 17/11 Q1023=
METAR SBSL 081300Z 06010KT 9999 SCT017 30/24 Q1014=
METAR SBSN 081300Z 09010KT 9999 SCT020 30/24 Q1013=
####018000078####
SADO31 TDPD 081310
METAR TDCF 081310Z 03002KT 9999 SCT016TCU 30/23 Q1014=
####018000092####
SAFR32 LFPW 081300 RRA
METAR LFLB 081319Z 34006KT 9999 FEW070 SCT260 31/17 Q1020 NOSIG=
####018000124####
SATU20 LTAA 081250 RRA
METAR LTBU 081320Z 29012KT 9999 -SHRA FEW010 BKN030TCU BKN100 17/15
Q1014 RMK
RWY23 31010KT=
####018000097####
SASB31 VCCC 081310
VCBI NIL=
VRMM 081300Z 35009KT 9999 FEW018TCU BKN110 28/24 Q1010 NOSIG=
####018000078####
SADO31 TDPD 081300
METAR TDPD 081300Z 09005KT 9999 SCT018TCU 30/24 Q1015=
####018000117####
SAIY42 LIIB 081300 RRC
METAR LIRX 081255Z 17003KT CAVOK 29/18 Q1020 RMK SKC VIS MIN 9999E
      VIS MAR 25 KM=
####018000397####
SAPK31 OPKC 081300
METAR OPGD 081300Z NIL=
METAR OPKC 081300Z 24009KTS 8000 SCT030 SCT100 34/24 Q1002 NOSIG=
METAR OPLA 081300Z NIL=
METAR OPNH 081300Z 36005KT 6000M SCT035 SCT100 36/24 Q.1001=
METAR OPPS 081255Z NE-12KTS 6000 HZ FEW040 FEW100 38/24 Q1001.7=
METAR OPRN 081300Z 23014KT 9999 SCT040 39/18 Q1004.0=
METAR OPSK 081255Z 13006KTS 2500 HZ SCT040 SCT100 34/24 QNH 1001  =
####018000083####
SACN70 CWAO 081300 RRC
PSU SA 1300 AUTO8 M M M 196/19/15/3003/M/ 1004 63MM=

####018000138####
SACN63 CWAO 081300 RRC
ZFS SA 1300 AUTO8 M M M 152/15/13/3302/M/ 8004 82MM=
ZHY SA 1300 AUTO8 M M M 140/15/13/2703/M/ 8001 08MM=

####018000077####
SACN89 CWAO 081200 RRG
WDP SA 1200 AUTO7 M M M M/18/M/MMMM/M/ M 5MMM=

####018000078####
SACN59 CWAO 081300 RRC
XSC SA 1300 AUTO8 M M M M/14/11/2706/M/ M 80MM=

####018000130####
SACN45 CWAO 081300 RRA
METAR CYVM 081300Z 19009KT 15SM FEW140 13/07 A2982 RMK AC2
13.5/8.0/0.0/NIL OBS TAKEN +13 SLP098=

####018000128####
SACN90 CWAO 081300 RRC
WEO SA 1300 AUTO8 M M M M/20/15/2004/M/ M 78MM=
WGF SA 1300 AUTO8 M M M M/16/15/0402/M/ M 77MM=

####018000538####
SACN98 CWAO 081300 RRC
XAF SA 1300 AUTO8 M M M M/15/13/0703/M/ M 45MM=
XBR SA 1300 AUTO8 M M M M/12/08/2909/M/ M 50MM=
XDP SA 1300 AUTO8 M M M M/15/12/2005/M/ M 69MM=
XFR SA 1300 AUTO8 M M M M/13/12/2904/M/ M 45MM=
XHR SA 1300 AUTO8 M M M M/15/11/2406/M/ M 88MM=
XKM SA 1300 AUTO8 M M M M/13/10/2305/M/ M 79MM=
XOY SA 1300 AUTO8 M M M M/12/10/2307/M/ M 25MM=
XPA SA 1300 AUTO8 M M M M/14/11/2905/M/ M 76MM=
XPC SA 1300 AUTO8 M M M 142/26/23/1705/M/ 8003 71MM=
XRB SA 1300 AUTO8 M M M 081/08/04/1507/M/ 8006 29MM=

####018000078####
SACN95 CWAO 081300 RRC
WXC SA 1300 AUTO8 M M M M/27/22/2402/M/ M 25MM=

####018000346####
SACN94 CWAO 081300 RRC
WQD SA 1300 AUTO8 M M M M/11/11/1206/M/M M 87MM=
WQM SA 1300 AUTO8 M M M M/22/19/0818/M/M PK WND 0823 1248Z M 99MM=
WQW SA 1300 AUTO8 M M M M/09/M/0614/M/M PK WND 0517 1205Z M 5MMM=
WRU SA 1300 AUTO8 M M M 156/17/12/3513/M/ PK WND 3617 1202Z 3003
73MM=
WRV SA 1300 AUTO8 M M M 181/15/12/2404/M/ 7004 10MM=

####018000083####
SACN92 CWAO 081300 RRC
WJU SA 1300 AUTO8 M M M 200/12/10/2707/M/ 6003 74MM=

####018000103####
SACN87 CWAO 081300 RRB
WRO SA 1300 AUTO8 M M M 195/12/11/2712/M/ PK WND 2717 1214Z 3005
32MM=

####018000079####
SACN91 CWAO 081300 RRC
WIX SA 1300 AUTO7 M M M M/26/22/3602/M/M M 88MM=

####018000078####
SACN96 CWAO 081300 RRC
WXL SA 1300 AUTO8 M M M M/13/10/1603/M/ M 92MM=

####018000083####
SACN92 CWAO 081200 RRG
WKD SA 1200 AUTO7 M M M 170/18/17/MMMM/M/ 1001 38MM=

####018000274####
SACN97 CWAO 081300 RRC
XDE SA 1300 AUTO8 M M M 147/12/11/MMMM/M/M 6005 98MM=
XMD SA 1300 AUTO8 M M M 170/17/12/3207/M/ 3016 76MM=
XMW SA 1300 AUTO8 M M M 215/11/09/MMMM/M/ 0001 44MM=
XQA SA 1300 AUTO8 M M M 134/06/06/MMMM/M/0003 PCPN 0.3MM PAST HR
3010 55MM=

####018000200####
SACN41 CWAO 081300 RRB
METAR CYMA 081300Z 00000KT 20SM FEW050 10/08 A3008 RMK SC1 SLP198=
METAR CYSD 081300Z 21003KT 25SM BKN270 12/12 A3018 RMK CI1 FIRST
OB/20.0/9.0/23-13Z 0.3 MM SLP219=

####018000252####
SACN82 CWAO 081300 RRA
MIN SA 1300 AUTO8 M M M M/09/09/1708/M/M M 29MM=
MMY SA 1300 AUTO8 M M M M/25/19/MMMM/M/ M 42MM=
MRF SA 1300 AUTO8 M M M M/15/10/2616+22/M/ PK WND 2625 1231Z M
55MM=
WHP SA 1300 AUTO8 M M M M/12/12/0103/M/ M 65MM=

####018000097####
SPUS73 KWBC 081322
SPECI
KGRB 081319Z 31004KT 2 1/2SM BR BKN004 BKN008 OVC015 23/21 A3000=
####018000124####
SAMP31 LMMM 081330
METAR HLLT NIL=
METAR HLLB NIL=
METAR LMML 081315Z 09011KT 050V130 9999 FEW016 29/21 Q1018 NOSIG =
####018000098####
SPUS81 KWBC 081322
SPECI
KGDP 081319Z AUTO 06019KT 2SM BR SCT004 SCT070 OVC110 17/17 A3025=
####018000086####
SAEW KAWN 081200 RRR
METAR ETSN 081220Z 07005KT 9999 FEW300 26/07 Q1022 BLU/BLU/=
####018000086####
SAEU KAWN 081200 RRX
METAR ETSN 081220Z 07005KT 9999 FEW300 26/07 Q1022 BLU/BLU/=
####018000433####
SARS18 KAWN 081300 RRF
METAR EETN 081320Z 30008KT 270V340 CAVOK 25/17 Q1014 NOSIG=
METAR EVRA 081320Z 32010KT 280V350 9999 OVC030 21/14 Q1015 NOSIG=
METAR EYKA 081320Z 28007KT 250V340 9999 OVC031 17/14 Q1016=
METAR EYPA 081320Z 33005KT 230V040 CAVOK 21/16 Q1019=
METAR EYVI 081320Z 29011KT 260V320 4000 -SHRA BKN005 OVC010CB 15/14
      Q1015 NOSIG=
METAR URKA 081300Z 06005MPS 9999 SCT026 29/20 Q1012 NOSIG RMK 065=
####018000608####
SAXX70 KAWN 081300 RRO
METAR KQFU 081300Z AUTO 00000KT 7SM OVC070 23/18 A2993 RMK A02=
METAR KQEI 081320Z AUTO 11002KT 2SM -RA BR OVC045 22/20 A2998 RMK A02=
METAR KQEN 081320Z AUTO 23004KT 6SM BR SCT070 18/16 A3042 RMK A02=
METAR KQEP 081320Z AUTO 00000KT 6SM -SHRA FEW034 FEW070 BKN095 22/18
      A2990 RMK A02=
METAR KQER 081320Z AUTO 34001KT 2SM BR SCT004 21/19 A2992 RMK A02=
METAR KQES 081320Z AUTO 27003KT 4SM BR BKN100 20/17 A2988 RMK A02=
METAR KQEY 081320Z AUTO 17001KT 7SM FEW080 SCT100 25/19 A2964 RMK A02=
METAR KQEV 081330Z AUTO 20002KT 6SM -RA OVC060 22/18 A2982 RMK A02=
####018000100####
SPAU31 AMMC 081322
SPECI YBTL 081322Z AUTO 15008KT 9999NDV // BKN012 BKN019 OVC024 22/19 Q1017=
####018000106####
SPAU31 AMMC 081322
SPECI YBTL 081322Z AUTO 15008KT 9999NDV // BKN012 BKN019 OVC024 22/19 Q1017=


####018001512####
SAUS20 KNKA 081322
METAR K3J7 081319Z AUTO 00000KT 10SM CLR 29/22 A3000 RMK AO2=
METAR KASJ 081317Z AUTO 03005KT 4SM HZ SCT010 27/23 A3000 RMK AO2=
SPECI KBFM 081321Z 00000KT 10SM FEW005 SCT045 28/24 A3006 RMK AO2 
    FEW005 S-SW=
SPECI KBOK 081322Z AUTO 00000KT 1/2SM FG OVC002 09/09 A2998 RMK AO2 
    $=
SPECI KCEC 081321Z AUTO 00000KT 1 3/4SM BR OVC001 10/09 A2998 RMK 
    AO2=
SPECI KCNM 081321Z AUTO 33009KT 8SM -RA OVC013 19/19 A3017 RMK AO2 
    P0002=
METAR KCTZ 081320Z AUTO 03007KT 5SM HZ CLR 30/22 A2996 RMK AO2=
METAR KCWV 081329Z AUTO 28004KT 10SM CLR 29/22 A3001 RMK AO2=
SPECI KDWH 081321Z 12009G21KT 2 1/2SM RA BR BKN009 BKN016 OVC060 
    24/23 A2999 RMK AO2 RAB04 CIG 006V010 P0009=
SPECI KDXR 081321Z 15003KT 2 1/2SM -RA BR OVC005 24/23 A3009 RMK AO2 
    RAE04B20 CIG 004V009 P0000=
METAR KEBS 081315Z AUTO 35004KT 10SM CLR 20/17 A3014 RMK AO2=
SPECI KEWR 081321Z 18005KT 5SM BR OVC007 26/24 A3005 RMK AO2 CIG 
    005V010=
METAR KFQD 081319Z AUTO 00000KT 10SM CLR 28/19 A3007 RMK AO2=
SPECI KHRL 081321Z 35009KT 10SM FEW007 SCT012 BKN020 27/26 A2979 RMK 
    AO2=
SPECI KJCT 081318Z AUTO 12003KT 7SM SCT006 BKN022 24/22 A3004 RMK
     AO2 TSNO=
SPECI KMFI 081321Z AUTO 35007KT 10SM BKN005 OVC009 21/19 A3006 RMK 
    AO2 CIG 002V007=
SPECI KOTM 081321Z AUTO 35009KT 7SM FEW006 22/21 A3009 RMK AO2=
SPECI KTAN 081321Z AUTO 14008KT 10SM SCT018 26/21 A3009 RMK AO2=
METAR KTVK 081315Z AUTO 35004KT 10SM BKN005 20/20 A3011 RMK AO2=
####018000105####
SAUS46 KLOX 081322
MTRLAX
SPECI KLAX 081321Z 24004KT 7SM BCFG SCT009 OVC011 16/13 A2992 RMK 
AO2
####018000503####
SAUS99 KWBC 081323
METAR
KO22 081315Z AUTO 00000KT 10SM CLR 15/12 A2991 RMK AO1=
K3J7 081319Z AUTO 00000KT 10SM CLR 29/22 A3000 RMK AO2=
KASJ 081317Z AUTO 03005KT 4SM HZ SCT010 27/23 A3000 RMK AO2=
KCTZ 081320Z AUTO 03007KT 5SM HZ CLR 30/22 A2996 RMK AO2=
KCWV 081329Z AUTO 28004KT 10SM CLR 29/22 A3001 RMK AO2=
KEBS 081315Z AUTO 35004KT 10SM CLR 20/17 A3014 RMK AO2=
KFQD 081319Z AUTO 00000KT 10SM CLR 28/19 A3007 RMK AO2=
KTVK 081315Z AUTO 35004KT 10SM BKN005 20/20 A3011 RMK AO2=
####018001391####
SPUS99 KWBC 081323
SPECI
KDFW 081320Z 13005KT 10SM -RA SCT028 BKN042 OVC055 26/24 A3003 RMK
     AO2 P0000=
KDMO 081320Z AUTO 35004KT 9SM FEW008 SCT012 OVC045 24/22 A3009 RMK
     AO2=
KDPA 081320Z 25006KT 3SM -RA BR BKN016 OVC021 23/22 A3004 RMK AO2
     RAB03 P0002=
KMWL 081320Z AUTO 13003KT 10SM SCT010 BKN026 BKN033 24/23 A3004
     RMK AO2 $=
KPYM 081320Z AUTO 14005KT 10SM BKN022 28/20 A3011 RMK AO2=
KBFM 081321Z 00000KT 10SM FEW005 SCT045 28/24 A3006 RMK AO2 FEW005
     S-SW=
KBOK 081322Z AUTO 00000KT 1/2SM FG OVC002 09/09 A2998 RMK AO2
     $=
KCEC 081321Z AUTO 00000KT 1 3/4SM BR OVC001 10/09 A2998 RMK
     AO2=
KCNM 081321Z AUTO 33009KT 8SM -RA OVC013 19/19 A3017 RMK AO2
     P0002=
KDWH 081321Z 12009G21KT 2 1/2SM RA BR BKN009 BKN016 OVC060 24/23
     A2999 RMK AO2 RAB04 CIG 006V010 P0009=
KDXR 081321Z 15003KT 2 1/2SM -RA BR OVC005 24/23 A3009 RMK AO2
     RAE04B20 CIG 004V009 P0000=
KEWR 081321Z 18005KT 5SM BR OVC007 26/24 A3005 RMK AO2 CIG
     005V010=
KHRL 081321Z 35009KT 10SM FEW007 SCT012 BKN020 27/26 A2979 RMK
     AO2=
KJCT 081318Z AUTO 12003KT 7SM SCT006 BKN022 24/22 A3004 RMK AO2
     TSNO=
KMFI 081321Z AUTO 35007KT 10SM BKN005 OVC009 21/19 A3006 RMK AO2
     CIG 002V007=
KOTM 081321Z AUTO 35009KT 7SM FEW006 22/21 A3009 RMK AO2=
KTAN 081321Z AUTO 14008KT 10SM SCT018 26/21 A3009 RMK AO2=
####018000265####
SASW31 LSSW 081320
METAR LSZH 081320Z VRB03KT CAVOK 29/12 Q1021 NOSIG=
METAR LSGG 081320Z 24007KT 160V290 9999 FEW060 BKN250 32/11 Q1021
    NOSIG=
METAR LSZB 081320Z VRB03KT CAVOK 31/11 Q1021 NOSIG=
METAR LSZA 081320Z 19006KT 9999 FEW055 29/16 Q1021 NOSIG=
####018000101####
SPAU31 YBBN 081322
SPECI YBTL 081322Z AUTO 15008KT 9999NDV // BKN012 BKN019 OVC024 22/19
Q1017=
####018000114####
SAPH31 RPLC 081300
METAR RPLC 081300Z
35007KT 9999 FEW020CB SCT036 BKN270 26/23 Q1011 A2986 RMK/OCNL LTNG
W=
####018000120####
SAGW20 GGOV 081300
METAR GGOV 081300Z 20009KT 140V260 9999 BKN015TCU FEW020CB 31/23
Q1013                    NOSIG=
####018000128####
SALV32 EVRA 081320
METAR EVLA 081320Z 31007KT 260V350 CAVOK 21/15 Q1019=
METAR EVVA 081320Z AUTO 32011KT CAVOK 21/16 Q1018=
####018000104####
SPAU31 KWBC 081323
SPECI
YBTL 081322Z AUTO 15008KT 9999NDV // BKN012 BKN019 OVC024 22/19
Q1017=
####018000088####
SPUS31 KWBC 081323
SPECI
KLAX 081321Z 24004KT 7SM BCFG SCT009 OVC011 16/13 A2992=
####018000080####
SALY31 HLLT 081330
METAR HLLT 081320Z 01010KT 340V040 8000 SKC 30/18 Q1018=
####018000081####
SALI20 GLRB 081330
METAR GLRB 081330Z 21005KT 9999 BKN020 30/25 Q1013 NOSIG=
####018000121####
SATU20 LTAA 081250 RRB
METAR LTAU 081320Z 23005KT 190V270 9999 SCT040 34/12 Q1009 NOSIG RMK
RWY07 25008KT 210V280=
####018000130####
SALV32 EVRA 081320
METAR EVLA 081320Z 31007KT 260V350 CAVOK 21/15 Q1019=
METAR EVVA 081320Z AUTO 32011KT CAVOK 21/16 Q1018=
####018000270####
SASW31 LSSW 081320
METAR LSZH 081320Z VRB03KT CAVOK 29/12 Q1021 NOSIG=
METAR LSGG 081320Z 24007KT 160V290 9999 FEW060 BKN250 32/11 Q1021
    NOSIG=
METAR LSZB 081320Z VRB03KT CAVOK 31/11 Q1021 NOSIG=
METAR LSZA 081320Z 19006KT 9999 FEW055 29/16 Q1021 NOSIG=
####018000116####
SASB31 VCCC 081310 RRA
VCBI 081310Z 11006KT 140V230 9999 -TSRA SCT016 FEW019CB BKN100 
    27/25 Q1010 NOSIG=
####018000089####
SAQB31 LQSM 081330
METAR LQSA 081330Z 29006KT 220V350 9999 SCT600 23/12 Q1023 NOSIG=
####018001441####
SACO20 SKBO 081300
METAR
SKAR 081300Z NIL=
SKBG 081300Z 00000KT 2000S BCFG SCT012 20/19 A3005=
SKBO 081300Z 04004KT 9000 FEW015 BKN070 13/11 A3034=
SKBQ 081300Z 00000KT 5000 BR SCT005 BKN070 26/26 A2991=
SKCC 081300Z 00000KT 9999 SCT018 SCT090 25/22 A2999=
SKCG 081300Z 09004KT 9999 FEW015CB SCT200 28/25 A2988=
SKCL 081300Z VRB02KT 9999 FEW017 BKN090 22/20 A3003=
SKEJ 081300Z 21006KT 9999 VCFG BKN015 25/25 A2992=
SKIB 081300Z NIL=
SKIP 081300Z 00000KT 9999 SCT016 BKN070 11/10 A3041=
SKLC 081300Z 00000KT 9999 SCT010 26/24 A2990=
SKLT 081300Z 00000KT 9999 FEW015 BKN070 27/25 A2991=
SKMD 081300Z 00000KT 6000 SCT030 OVC080 19/15 A3012=
SKMR 081300Z 15005KT 9999 SCT007 BKN090 26/25 A2988=
SKMZ 081300Z NIL=
SKNV 081300Z 00000KT 9999 SCT007 BKN100 24/22 A2996 REDZ=
SKPC 081300Z NIL=
SKPE 081300Z 00000KT 9999 FEW018 SCT090 20/17 A3012=
SKPS 081300Z 00000KT 5000N 9999S VCFG SCT022 SCT080 17/16 A3020 REDZ=
SKPV 081300Z NIL=
SKRG 081300Z VRB02KT 4000 BR BKN004 SCT080 15/14 A3032=
SKRH 081300Z 14006KT 9999 TSRA FEW020CB OVC090 23/23 A2990=
SKSM 081300Z 00000KT 9999 SCT017 OVC070 27/24 A2989=
SKSP 081300Z 10007KT 9999 SCT015TCU 29/26 A2987 REDZ=
SKUC 081300Z 09006KT 1500 BKN007 23/23 A2997 RERA=
SKUI 081300Z 00000KT 4000 BR BKN008 BKN080 25/24 A2988=
SKVP 081300Z 07006KT 4000 -RA FEW004 SCT010 BKN070 23/23 A2997=
SKVV 081300Z 00000KT 9999 FEW023 OVC080 24/21 A2997=
NNNN
####018000085####
SATU33 LTAA 081250 RRA
METAR LCEN 081250Z 15014KT 9999 SCT025 33/18 Q1007 NOSIG=
####018000122####
SATU20 LTAA 081250 RRA
METAR LTBU 081320Z 29012KT 9999 -SHRA FEW010 BKN030TCU BKN100 17/15 Q1014 RMK
RWY23 31010KT=
####018000116####
SAIY42 LIIB 081300 RRC
METAR LIRX 081255Z 17003KT CAVOK 29/18 Q1020 RMK SKC VIS MIN 9999E
      VIS MAR 25 KM=
####018000084####
SPUS74 KWBC 081323
SPECI
KACV 081320Z AUTO 00000KT 3SM BR OVC001 10/09 A2996=
####018000088####
SPUS74 KWBC 081323
SPECI
KLAX 081321Z 24004KT 7SM BCFG SCT009 OVC011 16/13 A2992=
####018000122####
SAUS44 KMAF 081323
MTRGDP
SPECI KGDP 081321Z AUTO 06021KT 3/4SM BR SCT004 SCT070 OVC110 17/17 
A3025 RMK AO2 TSNO
####018000107####
SAUS17 KAWN 081300 RRE
METAR KFMH 081315Z AUTO 16007KT 10SM BKN014 OVC019 25/22 A3012 RMK
      AO2=
####018000415####
SADL32 EDZO 081320
METAR EDDB 081320Z 10004KT CAVOK 28/06 Q1020 NOSIG=
METAR EDDC 081320Z 29002KT CAVOK 26/08 Q1021 NOSIG=
METAR EDDE 081320Z 26001KT CAVOK 28/09 Q1021 NOSIG=
METAR EDDG 081320Z 23007KT 200V270 CAVOK 30/09 Q1019 NOSIG=
METAR EDDP 081320Z 22005KT 170V270 CAVOK 28/11 Q1020 NOSIG=
METAR EDDR 081320Z VRB02KT CAVOK 30/11 Q1020 NOSIG=
METAR EDDW 081320Z 26006KT CAVOK 30/07 Q1018 NOSIG=
####018000539####
SADL31 EDZO 081320
METAR EDDF 081320Z 17004KT 090V210 CAVOK 30/11 Q1020 NOSIG=
METAR EDDH 081320Z 23008KT CAVOK 30/11 Q1018 NOSIG=
METAR EDDK 081320Z 07005KT 020V100 CAVOK 31/10 Q1019 NOSIG=
METAR EDDL 081320Z 25008KT CAVOK 31/08 Q1018 NOSIG=
METAR EDDM 081320Z 08004KT 350V110 CAVOK 25/09 Q1022 NOSIG=
METAR EDDN 081320Z 15004KT 360V160 CAVOK 28/07 Q1021 NOSIG=
METAR EDDS 081320Z VRB02KT CAVOK 29/10 Q1021 NOSIG=
METAR EDDT 081320Z 11001KT CAVOK 28/07 Q1020 NOSIG=
METAR EDDV 081320Z 20006KT CAVOK 30/10 Q1019 NOSIG=
####018000088####
SPUS81 KWBC 081323
SPECI
KLAX 081321Z 24004KT 7SM BCFG SCT009 OVC011 16/13 A2992=
####018000474####
SAIN31 VABB 081310
METAR VAAH 081310Z 22013KT 2500 -RA SCT008 SCT015 FEW025CB OVC080
    25/24 Q1004 TEMPO 800=
METAR VABB 081310Z 19007KT 3100 HZ SCT012 SCT018 FEW025TCU BKN100
     28/25 Q1007 TEMPO 1500 SHRA=
METAR VOHS 081310Z 25006KT 5000 HZ SCT010 SCT015 BKN080 25/24 Q1010
    NOSIG=
METAR VOMM 081310Z 12008KT 4000 HZ SCT015 SCT100 OVC200 28/26 Q1008
     NOSIG=
METAR VOTV 081310Z 32006KT 5000 HZ FEW015 FEW025CB BKN200 26/24
    Q1009 NOSIG=
####018000107####
SPUS17 KAWN 081323 RRC
SPECI KNRS 081314Z AUTO 34004KT 10SM OVC014 17/13 A2991 RMK AO2 TSNO
      $=
####018000072####
SALY31 HLLM 081300
METAR HLLM 081250Z 34009KT 7000 SKC 28/21 Q1019=
####018000097####
SAGH20 DGAA 081300
METAR DGAA 081300Z 20014KT 9999 FEW010 SCT016 BKN250 30/23 Q1013
NOSIG=
####018000091####
SAIN90 VECC 081320
METAR VECC 081320Z 22011KT 4500 HZ SCT018 SCT100 32/23 Q1004 NOSIG=
####018000111####
SPCN45 CWAO 081320
SPECI CYWJ 081320Z 31005KT 40SM -RA FEW070 SCT120 BKN300 RMK
AC1AS1CI0 VIS LWR NW=

####018000111####
SAAK41 KNKA 081323
SPECI PAHC 081321Z AUTO 23003KT 1SM BR CLR 07/07 A2998 RMK AO2 TSNO 
    VIS 1/4V4 $=
####018002950####
SAUS20 KNKA 081323
METAR K0R3 081319Z AUTO 06007KT 7SM OVC005 27/26 A3002 RMK AO2=
METAR K1A5 081320Z AUTO 00000KT 10SM CLR 22/18 A3016 RMK AO2 
     T02240181=
METAR K3I2 081320Z AUTO 00000KT 7SM CLR 25/21 A3010 RMK AO2=
METAR K47A 081320Z AUTO 00000KT 10SM CLR 28/17 A3008 RMK AO2 LTG 
     DSNT SW T02810174=
METAR K4R4 081320Z AUTO 00000KT 10SM CLR 29/26 A3005 RMK AO2 
     T02880256=
METAR KACP 081319Z AUTO 00000KT 7SM BKN005 26/26 A3003 RMK AO2=
METAR KAVC 081320Z AUTO 05003KT 7SM CLR 30/21 A3005 RMK AO2=
METAR KAYS 081320Z AUTO 29006KT 10SM CLR 27/23 A3003 RMK AO1=
METAR KBCB 081320Z AUTO 00000KT 5SM HZ SCT060 28/23 A3017 RMK AO2=
METAR KBGE 081321Z AUTO 00000KT 10SM CLR 24/23 A3004 RMK AO2=
METAR KBQK 081317Z AUTO 29006KT 10SM CLR 27/23 A3002 RMK AO1 
     T02710227 PNO=
METAR KBQP 081328Z AUTO 10005KT 10SM CLR 27/25 A3008 RMK AO2=
METAR KCCO 081320Z AUTO 00000KT 10SM CLR 26/21 A3007 RMK AO1=
METAR KCDH 081320Z AUTO 00000KT 8SM BKN003 BKN080 23/23 A3008 RMK 
     AO2=
SPECI KCID 081322Z 33007KT 8SM SCT005 22/20 A3007 RMK AO2=
METAR KCPK 081321Z AUTO 00000KT 10SM SCT080 BKN095 27/24 A3000 
     RMK AO2=
METAR KCPK 081320Z AUTO 02003KT 10SM SCT080 BKN095 27/24 A3000 
     RMK AO2=
METAR KCTJ 081320Z AUTO 01004KT 10SM CLR 30/20 A3008 RMK AO2 
     T02950204=
METAR KDBN 081320Z AUTO 33007KT 10SM CLR 31/19 A3001 RMK AO1=
METAR KDNN 081318Z AUTO 00000KT 10SM CLR 25/21 A3008 RMK AO2=
METAR KDPL 081320Z AUTO 02006KT 5SM HZ CLR 29/22 A2997 RMK AO2=
METAR KDQH 081320Z AUTO 30003KT 10SM CLR 29/18 A3003 RMK AO1=
METAR KDRI 081320Z AUTO 00000KT 10SM BKN008 BKN013 25/25 A3005 
     RMK AO2=
METAR KEMV 081317Z AUTO 08005KT 7SM SCT100 29/23 A2999 RMK AO2=
METAR KEXX 081319Z AUTO 00000KT 7SM CLR 28/20 A3003 RMK AO2=
METAR KEZF 081318Z AUTO 10004KT 7SM CLR 30/26 A3000 RMK AO2 
     T02950262=
METAR KF24 081319Z AUTO 10SM BKN095 26/24 A3010 RMK AO2 T02610236=
METAR KFKN 081320Z AUTO 10004KT 7SM SCT014 BKN019 29/24 A3000 RMK 
     AO1=
METAR KFYJ 081321Z AUTO 12005KT 7SM SCT013 BKN019 BKN080 29/25 
     A3002 RMK AO1=
METAR KGEV 081321Z AUTO 00000KT 7SM CLR 26/19 A3020 RMK AO2=
METAR KGHG 081320Z AUTO 10009KT 10SM CLR 25/22 A3011 RMK AO2=
METAR KHLX 081321Z AUTO 00000KT 7SM CLR 26/23 A3018 RMK AO2=
METAR KHOE 081319Z AUTO 32006KT 10SM CLR 26/24 A3003 RMK AO2 
     T02640236=
METAR KHRJ 081321Z AUTO 06006KT 7SM CLR 32/22 A2997 RMK AO2=
METAR KHSP 081320Z AUTO 05005KT 10SM SCT050 26/17 A3028 RMK AO2=
METAR KIPJ 081320Z AUTO 00000KT 10SM CLR 28/20 A3004 RMK AO2 
     T02830198=
METAR KJES 081320Z AUTO 32005KT 10SM CLR 27/24 A3002 RMK AO2 
     T02710241=
METAR KJNX 081319Z AUTO 36006KT 7SM CLR 29/21 A2997 RMK AO2=
METAR KLWB 081321Z AUTO 00000KT 7SM SCT055 24/18 A3018 RMK AO2=
METAR KMFV 081322Z AUTO 10003KT 10SM CLR 26/22 A3002 RMK AO2=
METAR KMRN 081319Z AUTO 29003KT 10SM SCT085 26/17 A3012 RMK AO2=
####018001115####
SAUS20 KNKA 081323
METAR KMWK 081322Z AUTO 00000KT 7SM SCT100 29/21 A3007 RMK AO2=
METAR KOCW 081319Z AUTO 05006KT 10SM CLR 27/22 A2998 RMK AO2=
SPECI KOXC 081318Z 17005KT 3SM BR BKN006 BKN015 OVC023 25/22 A3011=
METAR KPGV 081320Z AUTO 05005KT 5SM HZ BKN011 BKN110 27/23 A2999 
     RMK AO2=
METAR KPSK 081322Z AUTO 00000KT 7SM CLR 29/17 A3017 RMK AO2=
METAR KPTB 081322Z AUTO 13004KT 5SM HZ SCT090 29/24 A2999 RMK AO2=
METAR KRUQ 081321Z AUTO 01003KT 7SM SCT095 27/21 A3003 RMK AO2=
METAR KSIF 081320Z AUTO 02003KT 7SM CLR 31/21 A3003 RMK AO2=
METAR KTNB 081321Z AUTO 28006KT 7SM CLR 26/17 A3020 RMK AO2=
METAR KTPF 081320Z AUTO 07003KT 10SM CLR 26/23 A3002 RMK AO2=
METAR KTSP 081315Z AUTO 08004KT 10SM CLR 09/03 A3004 RMK AO2 =
METAR KTVI 081320Z AUTO 35004KT 10SM CLR 28/22 A3005 RMK AO2=
SPECI KUGN 081322Z 23005KT 8SM FEW021 SCT028 24/22 A3002 RMK AO2=
METAR KUKF 081321Z AUTO 00000KT 7SM CLR 27/20 A3009 RMK AO1=
METAR KUNV 081320Z AUTO 00000KT 10SM CLR 27/19 A3010 RMK AO2 
     T02650191=
SPECI KWLD 081322Z AUTO 03007KT 10SM SCT008 23/21 A3011 RMK AO2 
    P0001=
####018000120####
SPCN47 CWAO 081322
SPECI CYMO 081322Z AUTO 32006KT 2 1/2SM RA BKN022 OVC067 19/18 A2990
RMK VSBY VRBL 2.3V7.0=

####018001694####
SAEU KAWN 081300 RRX
METAR EDDB 081320Z 10004KT CAVOK 28/06 Q1020 NOSIG=
METAR EDDC 081320Z 29002KT CAVOK 26/08 Q1021 NOSIG=
METAR EDDE 081320Z 26001KT CAVOK 28/09 Q1021 NOSIG=
METAR EDDF 081320Z 17004KT 090V210 CAVOK 30/11 Q1020 NOSIG=
METAR EDDG 081320Z 23007KT 200V270 CAVOK 30/09 Q1019 NOSIG=
METAR EDDH 081320Z 23008KT CAVOK 30/11 Q1018 NOSIG=
METAR EDDK 081320Z 07005KT 020V100 CAVOK 31/10 Q1019 NOSIG=
METAR EDDL 081320Z 25008KT CAVOK 31/08 Q1018 NOSIG=
METAR EDDM 081320Z 08004KT 350V110 CAVOK 25/09 Q1022 NOSIG=
METAR EDDN 081320Z 15004KT 360V160 CAVOK 28/07 Q1021 NOSIG=
METAR EDDP 081320Z 22005KT 170V270 CAVOK 28/11 Q1020 NOSIG=
METAR EDDR 081320Z VRB02KT CAVOK 30/11 Q1020 NOSIG=
METAR EDDS 081320Z VRB02KT CAVOK 29/10 Q1021 NOSIG=
METAR EDDT 081320Z 11001KT CAVOK 28/07 Q1020 NOSIG=
METAR EDDV 081320Z 20006KT CAVOK 30/10 Q1019 NOSIG=
METAR EDDW 081320Z 26006KT CAVOK 30/07 Q1018 NOSIG=
METAR LFLB 081319Z 34006KT 9999 FEW070 SCT260 31/17 Q1020 NOSIG=
METAR LIRX 081255Z 17003KT CAVOK 29/18 Q1020 RMK SKC VIS MIN 9999E
      VIS MAR 25 KM=
METAR LPAR 081300Z /////KT CAVOK 28/19 Q1015 RMK ESTMD WND 18009KT=
METAR LPBJ 081300Z 24009KT 190V310 CAVOK 32/14 Q1016=
METAR LPMR 081300Z 28004KT 8000 SCT009 BKN012 22/18 Q1016=
METAR LPMT 081300Z 22010KT CAVOK 28/19 Q1016=
METAR LPST 081300Z 31010KT 9999 FEW009 22/18 Q1017=
METAR LQSA 081330Z 29006KT 220V350 9999 SCT600 23/12 Q1023 NOSIG=
METAR LSGG 081320Z 24007KT 160V290 9999 FEW060 BKN250 32/11 Q1021 NOSIG=
METAR LSZA 081320Z 19006KT 9999 FEW055 29/16 Q1021 NOSIG=
METAR LSZB 081320Z VRB03KT CAVOK 31/11 Q1021 NOSIG=
METAR LSZH 081320Z VRB03KT CAVOK 29/12 Q1021 NOSIG=
####018000198####
SPUS90 KWBC 081324
SPECI KLAX 081321Z 24004KT 7SM BCFG SCT009 OVC011 16/13 A2992 RMK
     AO2=
SPECI KGDP 081321Z AUTO 06021KT 3/4SM BR SCT004 SCT070 OVC110
     17/17 A3025 RMK AO2 TSNO=
####018000101####
SPUS90 KWBC 081324 CCA
SPECI KPOE 081318Z AUTO 09006KT 10SM FEW008 26/24 A3004 RMK AO2
     $=
####018000078####
SACN96 CWAO 081320
WZQ SA 1320 AUTO8 M M M M/25/17/1911+17/M/M M 48MM=

####018000075####
SACN94 CWAO 081319
WQV SA 1319 AUTO8 M M M M/19/17/0914/M/M M 59MM=

####018003437####
SAUS99 KWBC 081324
METAR
K0R3 081319Z AUTO 06007KT 7SM OVC005 27/26 A3002 RMK AO2=
K1A5 081320Z AUTO 00000KT 10SM CLR 22/18 A3016 RMK AO2
     T02240181=
K3I2 081320Z AUTO 00000KT 7SM CLR 25/21 A3010 RMK AO2=
K47A 081320Z AUTO 00000KT 10SM CLR 28/17 A3008 RMK AO2 LTG DSNT SW
     T02810174=
K4R4 081320Z AUTO 00000KT 10SM CLR 29/26 A3005 RMK AO2
     T02880256=
KACP 081319Z AUTO 00000KT 7SM BKN005 26/26 A3003 RMK AO2=
KAVC 081320Z AUTO 05003KT 7SM CLR 30/21 A3005 RMK AO2=
KAYS 081320Z AUTO 29006KT 10SM CLR 27/23 A3003 RMK AO1=
KBCB 081320Z AUTO 00000KT 5SM HZ SCT060 28/23 A3017 RMK AO2=
KBGE 081321Z AUTO 00000KT 10SM CLR 24/23 A3004 RMK AO2=
KBQK 081317Z AUTO 29006KT 10SM CLR 27/23 A3002 RMK AO1 T02710227
     PNO=
KBQP 081328Z AUTO 10005KT 10SM CLR 27/25 A3008 RMK AO2=
KCCO 081320Z AUTO 00000KT 10SM CLR 26/21 A3007 RMK AO1=
KCDH 081320Z AUTO 00000KT 8SM BKN003 BKN080 23/23 A3008 RMK
     AO2=
KCPK 081321Z AUTO 00000KT 10SM SCT080 BKN095 27/24 A3000 RMK
     AO2=
KCPK 081320Z AUTO 02003KT 10SM SCT080 BKN095 27/24 A3000 RMK
     AO2=
KCTJ 081320Z AUTO 01004KT 10SM CLR 30/20 A3008 RMK AO2
     T02950204=
KDBN 081320Z AUTO 33007KT 10SM CLR 31/19 A3001 RMK AO1=
KDNN 081318Z AUTO 00000KT 10SM CLR 25/21 A3008 RMK AO2=
KDPL 081320Z AUTO 02006KT 5SM HZ CLR 29/22 A2997 RMK AO2=
KDQH 081320Z AUTO 30003KT 10SM CLR 29/18 A3003 RMK AO1=
KDRI 081320Z AUTO 00000KT 10SM BKN008 BKN013 25/25 A3005 RMK
     AO2=
KEMV 081317Z AUTO 08005KT 7SM SCT100 29/23 A2999 RMK AO2=
KEXX 081319Z AUTO 00000KT 7SM CLR 28/20 A3003 RMK AO2=
KEZF 081318Z AUTO 10004KT 7SM CLR 30/26 A3000 RMK AO2
     T02950262=
KF24 081319Z AUTO 10SM BKN095 26/24 A3010 RMK AO2 T02610236=
KFKN 081320Z AUTO 10004KT 7SM SCT014 BKN019 29/24 A3000 RMK
     AO1=
KFYJ 081321Z AUTO 12005KT 7SM SCT013 BKN019 BKN080 29/25 A3002 RMK
     AO1=
KGEV 081321Z AUTO 00000KT 7SM CLR 26/19 A3020 RMK AO2=
KGHG 081320Z AUTO 10009KT 10SM CLR 25/22 A3011 RMK AO2=
KHLX 081321Z AUTO 00000KT 7SM CLR 26/23 A3018 RMK AO2=
KHOE 081319Z AUTO 32006KT 10SM CLR 26/24 A3003 RMK AO2
     T02640236=
KHRJ 081321Z AUTO 06006KT 7SM CLR 32/22 A2997 RMK AO2=
KHSP 081320Z AUTO 05005KT 10SM SCT050 26/17 A3028 RMK AO2=
KIPJ 081320Z AUTO 00000KT 10SM CLR 28/20 A3004 RMK AO2
     T02830198=
KJES 081320Z AUTO 32005KT 10SM CLR 27/24 A3002 RMK AO2
     T02710241=
KJNX 081319Z AUTO 36006KT 7SM CLR 29/21 A2997 RMK AO2=
KLWB 081321Z AUTO 00000KT 7SM SCT055 24/18 A3018 RMK AO2=
KMFV 081322Z AUTO 10003KT 10SM CLR 26/22 A3002 RMK AO2=
KMRN 081319Z AUTO 29003KT 10SM SCT085 26/17 A3012 RMK AO2=
KMWK 081322Z AUTO 00000KT 7SM SCT100 29/21 A3007 RMK AO2=
KOCW 081319Z AUTO 05006KT 10SM CLR 27/22 A2998 RMK AO2=
KPGV 081320Z AUTO 05005KT 5SM HZ BKN011 BKN110 27/23 A2999 RMK
     AO2=
KPSK 081322Z AUTO 00000KT 7SM CLR 29/17 A3017 RMK AO2=
KPTB 081322Z AUTO 13004KT 5SM HZ SCT090 29/24 A2999 RMK AO2=
KRUQ 081321Z AUTO 01003KT 7SM SCT095 27/21 A3003 RMK AO2=
KSIF 081320Z AUTO 02003KT 7SM CLR 31/21 A3003 RMK AO2=
KTNB 081321Z AUTO 28006KT 7SM CLR 26/17 A3020 RMK AO2=
KTPF 081320Z AUTO 07003KT 10SM CLR 26/23 A3002 RMK AO2=
KTSP 081315Z AUTO 08004KT 10SM CLR 09/03 A3004 RMK AO2=
KTVI 081320Z AUTO 35004KT 10SM CLR 28/22 A3005 RMK AO2=
KUKF 081321Z AUTO 00000KT 7SM CLR 27/20 A3009 RMK AO1=
KUNV 081320Z AUTO 00000KT 10SM CLR 27/19 A3010 RMK AO2
     T02650191=
####018000368####
SPUS99 KWBC 081324
SPECI
PAHC 081321Z AUTO 23003KT 1SM BR CLR 07/07 A2998 RMK AO2 TSNO VIS
     1/4V4 $=
KCID 081322Z 33007KT 8SM SCT005 22/20 A3007 RMK AO2=
KOXC 081318Z 17005KT 3SM BR BKN006 BKN015 OVC023 25/22 A3011=
KUGN 081322Z 23005KT 8SM FEW021 SCT028 24/22 A3002 RMK AO2=
KWLD 081322Z AUTO 03007KT 10SM SCT008 23/21 A3011 RMK AO2
     P0001=
####018000389####
SACN87 KWBC 081324
METAR CWRU 081300Z AUTO 35013KT 17/12 RMK AO1 PK WND 36017/1202
SLP156 T01670123 53003=
METAR CWRU 081300Z AUTO 35013KT 17/12 RMK AO1 PK WND 36017/1202
SLP156 T01670123 53003=
METAR CWRU 081300Z AUTO 35013KT 17/12 RMK AO1 PK WND 36017/1202
SLP156 T01670123 53003=
METAR CWRO 081300Z AUTO 27012KT 12/11 RMK AO1 PK WND 27017/1214
SLP195 T01230112 53005=
####018000080####
SACN95 KWBC 081324
METAR CWXC 081300Z AUTO 24002KT 27/22 RMK AO1 T02720215=
####018000159####
SACN92 KWBC 081324
METAR CWKD 081200Z AUTO 18/17 RMK AO1 SLP170 T01830168 51001=
METAR CWJU 081300Z AUTO 27007KT 12/10 RMK AO1 SLP200 T01170104
56003=
####018000151####
SAMX55 MMMY 081321
SPECI MMMA 081321Z 34005KT 4SM DZ  FEW008 BKN015 BKN065 26/25 A2980 
      RMK 8/85/ HZ VRB COND DZ INTMNT=





TX OPMET V1
####018000431####
SAPO61 LPAM 081300
METAR LPAR 081300Z /////KT CAVOK 28/19 Q1015 RMK ESTMD WND 18009KT=
METAR LPBJ 081300Z 24009KT 190V310 CAVOK 32/14 Q1016=
METAR LPMR 081300Z 28004KT 8000 SCT009 BKN012 22/18 Q1016=
METAR LPMT 081300Z 22010KT CAVOK 28/19 Q1016=
METAR LPOV 081300Z 35002KT 8000 FEW007 BKN016 21/19 Q1015=
METAR LPST 081300Z 31010KT 9999 FEW009 22/18 Q1017=
METAR LPLA 081300Z 17007KT 9999 -SHRA SCT013 BKN028 21/19 Q1024=
####018000245####
SACN97 KWBC 081324
METAR CXDE 081300Z AUTO 12/11 RMK AO1 SLP147 T01190108 56005=
METAR CXMD 081300Z AUTO 32007KT 17/12 RMK AO1 SLP170 T01670116
53016=
METAR CXQA 081300Z AUTO 06/06 RMK AO1 3PAST HR 3010 SLP134 P0001
T00550055 50003=
####018000530####
SADL31 EDZO 081320
METAR EDDF 081320Z 17004KT 090V210 CAVOK 30/11 Q1020 NOSIG=
METAR EDDH 081320Z 23008KT CAVOK 30/11 Q1018 NOSIG=
METAR EDDK 081320Z 07005KT 020V100 CAVOK 31/10 Q1019 NOSIG=
METAR EDDL 081320Z 25008KT CAVOK 31/08 Q1018 NOSIG=
METAR EDDM 081320Z 08004KT 350V110 CAVOK 25/09 Q1022 NOSIG=
METAR EDDN 081320Z 15004KT 360V160 CAVOK 28/07 Q1021 NOSIG=
METAR EDDS 081320Z VRB02KT CAVOK 29/10 Q1021 NOSIG=
METAR EDDT 081320Z 11001KT CAVOK 28/07 Q1020 NOSIG=
METAR EDDV 081320Z 20006KT CAVOK 30/10 Q1019 NOSIG=
####018000375####
SACN86 KWBC 081324
METAR CWHP 081300Z AUTO 01003KT 12/12 RMK AO1 T01160115=
METAR CWHP 081300Z AUTO 01003KT 12/12 RMK AO1 T01160115=
METAR CWHP 081300Z AUTO 01003KT 12/12 RMK AO1 T01160115=
METAR CWHP 081300Z AUTO 01003KT 12/12 RMK AO1 T01160115=
METAR CWHP 081300Z AUTO 01003KT 12/12 RMK AO1 T01160115=
METAR CWHP 081300Z AUTO 01003KT 12/12 RMK AO1 T01160115=
####018000080####
SACN94 KWBC 081324
METAR CWQV 081319Z AUTO 09014KT 19/17 RMK AO1 T01850169=
####018000095####
SAGH20 DGAA 081300
METAR DGAA 081300Z 20014KT 9999 FEW010 SCT016 BKN250 30/23 Q1013
NOSIG=
####018000080####
SACN91 KWBC 081324
METAR CWIX 081300Z AUTO 36002KT 26/22 RMK AO1 T02580218=
####018003738####
SAUS70 KWBC 081324
METAR
KO22 081315Z AUTO 00000KT 10SM CLR 15/12 A2991 RMK AO1=
K3J7 081319Z AUTO 00000KT 10SM CLR 29/22 A3000 RMK AO2=
KASJ 081317Z AUTO 03005KT 4SM HZ SCT010 27/23 A3000 RMK AO2=
KCTZ 081320Z AUTO 03007KT 5SM HZ CLR 30/22 A2996 RMK AO2=
KCWV 081329Z AUTO 28004KT 10SM CLR 29/22 A3001 RMK AO2=
KEBS 081315Z AUTO 35004KT 10SM CLR 20/17 A3014 RMK AO2=
KFQD 081319Z AUTO 00000KT 10SM CLR 28/19 A3007 RMK AO2=
KTVK 081315Z AUTO 35004KT 10SM BKN005 20/20 A3011 RMK AO2=
KFMH 081315Z AUTO 16007KT 10SM BKN014 OVC019 25/22 A3012 RMK
     AO2=
K0R3 081319Z AUTO 06007KT 7SM OVC005 27/26 A3002 RMK AO2=
K1A5 081320Z AUTO 00000KT 10SM CLR 22/18 A3016 RMK AO2
     T02240181=
K3I2 081320Z AUTO 00000KT 7SM CLR 25/21 A3010 RMK AO2=
K47A 081320Z AUTO 00000KT 10SM CLR 28/17 A3008 RMK AO2 LTG DSNT SW
     T02810174=
K4R4 081320Z AUTO 00000KT 10SM CLR 29/26 A3005 RMK AO2
     T02880256=
KACP 081319Z AUTO 00000KT 7SM BKN005 26/26 A3003 RMK AO2=
KAVC 081320Z AUTO 05003KT 7SM CLR 30/21 A3005 RMK AO2=
KBCB 081320Z AUTO 00000KT 5SM HZ SCT060 28/23 A3017 RMK AO2=
KBGE 081321Z AUTO 00000KT 10SM CLR 24/23 A3004 RMK AO2=
KBQK 081317Z AUTO 29006KT 10SM CLR 27/23 A3002 RMK AO1 T02710227
     PNO=
KBQP 081328Z AUTO 10005KT 10SM CLR 27/25 A3008 RMK AO2=
KCCO 081320Z AUTO 00000KT 10SM CLR 26/21 A3007 RMK AO1=
KCDH 081320Z AUTO 00000KT 8SM BKN003 BKN080 23/23 A3008 RMK
     AO2=
KCPK 081321Z AUTO 00000KT 10SM SCT080 BKN095 27/24 A3000 RMK
     AO2=
KCPK 081320Z AUTO 02003KT 10SM SCT080 BKN095 27/24 A3000 RMK
     AO2=
KCTJ 081320Z AUTO 01004KT 10SM CLR 30/20 A3008 RMK AO2
     T02950204=
KDNN 081318Z AUTO 00000KT 10SM CLR 25/21 A3008 RMK AO2=
KDPL 081320Z AUTO 02006KT 5SM HZ CLR 29/22 A2997 RMK AO2=
KDQH 081320Z AUTO 30003KT 10SM CLR 29/18 A3003 RMK AO1=
KDRI 081320Z AUTO 00000KT 10SM BKN008 BKN013 25/25 A3005 RMK
     AO2=
KEMV 081317Z AUTO 08005KT 7SM SCT100 29/23 A2999 RMK AO2=
KEXX 081319Z AUTO 00000KT 7SM CLR 28/20 A3003 RMK AO2=
KEZF 081318Z AUTO 10004KT 7SM CLR 30/26 A3000 RMK AO2
     T02950262=
KF24 081319Z AUTO 10SM BKN095 26/24 A3010 RMK AO2 T02610236=
KFKN 081320Z AUTO 10004KT 7SM SCT014 BKN019 29/24 A3000 RMK
     AO1=
KFYJ 081321Z AUTO 12005KT 7SM SCT013 BKN019 BKN080 29/25 A3002 RMK
     AO1=
KGEV 081321Z AUTO 00000KT 7SM CLR 26/19 A3020 RMK AO2=
KGHG 081320Z AUTO 10009KT 10SM CLR 25/22 A3011 RMK AO2=
KHLX 081321Z AUTO 00000KT 7SM CLR 26/23 A3018 RMK AO2=
KHOE 081319Z AUTO 32006KT 10SM CLR 26/24 A3003 RMK AO2
     T02640236=
KHRJ 081321Z AUTO 06006KT 7SM CLR 32/22 A2997 RMK AO2=
KHSP 081320Z AUTO 05005KT 10SM SCT050 26/17 A3028 RMK AO2=
KIPJ 081320Z AUTO 00000KT 10SM CLR 28/20 A3004 RMK AO2
     T02830198=
KJES 081320Z AUTO 32005KT 10SM CLR 27/24 A3002 RMK AO2
     T02710241=
KLWB 081321Z AUTO 00000KT 7SM SCT055 24/18 A3018 RMK AO2=
KMFV 081322Z AUTO 10003KT 10SM CLR 26/22 A3002 RMK AO2=
KMRN 081319Z AUTO 29003KT 10SM SCT085 26/17 A3012 RMK AO2=
KMWK 081322Z AUTO 00000KT 7SM SCT100 29/21 A3007 RMK AO2=
KOCW 081319Z AUTO 05006KT 10SM CLR 27/22 A2998 RMK AO2=
KPGV 081320Z AUTO 05005KT 5SM HZ BKN011 BKN110 27/23 A2999 RMK
     AO2=
KPSK 081322Z AUTO 00000KT 7SM CLR 29/17 A3017 RMK AO2=
KPTB 081322Z AUTO 13004KT 5SM HZ SCT090 29/24 A2999 RMK AO2=
KRUQ 081321Z AUTO 01003KT 7SM SCT095 27/21 A3003 RMK AO2=
KSIF 081320Z AUTO 02003KT 7SM CLR 31/21 A3003 RMK AO2=
KTNB 081321Z AUTO 28006KT 7SM CLR 26/17 A3020 RMK AO2=
KTPF 081320Z AUTO 07003KT 10SM CLR 26/23 A3002 RMK AO2=
KTSP 081315Z AUTO 08004KT 10SM CLR 09/03 A3004 RMK AO2=
KTVI 081320Z AUTO 35004KT 10SM CLR 28/22 A3005 RMK AO2=
KUKF 081321Z AUTO 00000KT 7SM CLR 27/20 A3009 RMK AO1=
####018000202####
SAUS80 KWBC 081324
METAR
KAYS 081320Z AUTO 29006KT 10SM CLR 27/23 A3003 RMK AO1=
KDBN 081320Z AUTO 33007KT 10SM CLR 31/19 A3001 RMK AO1=
KJNX 081319Z AUTO 36006KT 7SM CLR 29/21 A2997 RMK AO2=
####018001675####
SPUS70 KWBC 081324
SPECI
KDFW 081320Z 13005KT 10SM -RA SCT028 BKN042 OVC055 26/24 A3003 RMK
     AO2 P0000=
KDMO 081320Z AUTO 35004KT 9SM FEW008 SCT012 OVC045 24/22 A3009 RMK
     AO2=
KDPA 081320Z 25006KT 3SM -RA BR BKN016 OVC021 23/22 A3004 RMK AO2
     RAB03 P0002=
KMWL 081320Z AUTO 13003KT 10SM SCT010 BKN026 BKN033 24/23 A3004
     RMK AO2 $=
KPYM 081320Z AUTO 14005KT 10SM BKN022 28/20 A3011 RMK AO2=
KBFM 081321Z 00000KT 10SM FEW005 SCT045 28/24 A3006 RMK AO2 FEW005
     S-SW=
KBOK 081322Z AUTO 00000KT 1/2SM FG OVC002 09/09 A2998 RMK AO2
     $=
KCEC 081321Z AUTO 00000KT 1 3/4SM BR OVC001 10/09 A2998 RMK
     AO2=
KCNM 081321Z AUTO 33009KT 8SM -RA OVC013 19/19 A3017 RMK AO2
     P0002=
KDWH 081321Z 12009G21KT 2 1/2SM RA BR BKN009 BKN016 OVC060 24/23
     A2999 RMK AO2 RAB04 CIG 006V010 P0009=
KDXR 081321Z 15003KT 2 1/2SM -RA BR OVC005 24/23 A3009 RMK AO2
     RAE04B20 CIG 004V009 P0000=
KEWR 081321Z 18005KT 5SM BR OVC007 26/24 A3005 RMK AO2 CIG
     005V010=
KHRL 081321Z 35009KT 10SM FEW007 SCT012 BKN020 27/26 A2979 RMK
     AO2=
KJCT 081318Z AUTO 12003KT 7SM SCT006 BKN022 24/22 A3004 RMK AO2
     TSNO=
KMFI 081321Z AUTO 35007KT 10SM BKN005 OVC009 21/19 A3006 RMK AO2
     CIG 002V007=
KOTM 081321Z AUTO 35009KT 7SM FEW006 22/21 A3009 RMK AO2=
KTAN 081321Z AUTO 14008KT 10SM SCT018 26/21 A3009 RMK AO2=
PAHC 081321Z AUTO 23003KT 1SM BR CLR 07/07 A2998 RMK AO2 TSNO VIS
     1/4V4 $=
KOXC 081318Z 17005KT 3SM BR BKN006 BKN015 OVC023 25/22 A3011=
KUGN 081322Z 23005KT 8SM FEW021 SCT028 24/22 A3002 RMK AO2=
KWLD 081322Z AUTO 03007KT 10SM SCT008 23/21 A3011 RMK AO2
     P0001=
####018000677####
SASN31 ESWI 081320
METAR ESGG 081320Z 19009KT 7000 -RADZ BR FEW004 SCT009 BKN025
17/15 Q1019=
METAR ESGJ 081320Z AUTO 21014KT 8000NDV BR SCT046/// BKN060///
23/10 Q1019=
METAR ESGP 081320Z 18012KT 5000 DZ BKN007 OVC030 17/16 Q1019 RERA=
METAR ESGT 081320Z 20014KT 9999 SCT016 BKN030 19/14 Q1018=
METAR ESMK 081320Z 22009KT 170V280 CAVOK 27/11 Q1020=
METAR ESMQ 081320Z 16013KT CAVOK 24/14 Q1019=
METAR ESMS 081320Z 19011KT 150V220 CAVOK 24/10 Q1021=
METAR ESMT 081320Z 21010KT CAVOK 23/14 Q1020=
METAR ESMX 081320Z 23011KT CAVOK 25/11 Q1020=
METAR ESTA 081320Z 17010KT CAVOK 23/15 Q1020=
METAR ESTL 081320Z AUTO 22011KT 9999NDV FEW027/// BKN055/// 24/10
Q1020=
####018000408####
SADL32 EDZO 081320
METAR EDDB 081320Z 10004KT CAVOK 28/06 Q1020 NOSIG=
METAR EDDC 081320Z 29002KT CAVOK 26/08 Q1021 NOSIG=
METAR EDDE 081320Z 26001KT CAVOK 28/09 Q1021 NOSIG=
METAR EDDG 081320Z 23007KT 200V270 CAVOK 30/09 Q1019 NOSIG=
METAR EDDP 081320Z 22005KT 170V270 CAVOK 28/11 Q1020 NOSIG=
METAR EDDR 081320Z VRB02KT CAVOK 30/11 Q1020 NOSIG=
METAR EDDW 081320Z 26006KT CAVOK 30/07 Q1018 NOSIG=
####018000498####
SAFI31 EFHK 081320
METAR EFHK 081320Z 33006KT 9999 FEW040CB SCT055 28/17 Q1013 BECMG TS=
EFJY 081320Z 07004KT 020V110 9999 SCT035 SCT200 25/17 Q1015=
METAR EFKU 081320Z AUTO 34004KT CAVOK 25/17 Q1015=
EFOU 081320Z VRB02KT 9999 FEW040 BKN200 23/11 Q1015=
METAR EFRO 081320Z AUTO 19005KT 110V230 CAVOK 21/08
 Q1015=
EFTP 081320Z VRB04KT 9999 FEW045 SCT200 26/14 Q1015=
METAR EFTU 081320Z AUTO 29008KT 250V320 CAVOK 26/12 Q1015=
EFVA 081320Z 27005KT 220V310 9999 FEW030 SCT200 24/13 Q1014=
####018000142####
SACN96 KWBC 081324
METAR CWXL 081300Z AUTO 16003KT 13/10 RMK AO1 T01290102=
METAR CWZQ 081320Z AUTO 19011G17KT 25/17 RMK AO1 T02540168=
####018000560####
SADN31 EKCH 081320
METAR EKCH 081320Z 17014KT CAVOK 23/15 Q1020 NOSIG=
METAR EKBI 081320Z 22005KT 190V250 9999 FEW022 BKN050 BKN070
21/17 Q1019=
METAR EKYT 081320Z 22010KT 6000 -SHRA BKN012TCU BKN023 18/17
Q1018 TEMPO 7000 BKN010=
METAR EKRK 081320Z AUTO 22009KT 180V250 9999NDV BKN050/// 25/11
Q1020=
METAR EKAH 081320Z AUTO 19002KT 9999NDV R10R/P1500N R28L/0325VP1500D
FEW077/// BKN092/// 21/16 Q1019=
METAR EKEB 081320Z AUTO 17008KT 6000NDV -SHRA  BKN038/// 18/16
Q1019 RESHRA=
METAR EKRN 081320Z AUTO 19005KT 160V230 9999NDV NCD 21/15 Q1022=
####018000209####
SADN33 EKCH 081320
METAR EKKA 081320Z 22004KT 180V250 8000 -SHRA SCT009 FEW018TCU
BKN030 19/18 Q1018 TEMPO 4000 SHRA BKN008 SCT020CB=
METAR EKSP 081320Z 26013KT 9999 -RA FEW025 BKN100 23/13 Q1019
NOSIG=
####018000096####
SPXX60 KWBC 081324 CCA
SPECI
KPOE 081318Z AUTO 09006KT 10SM FEW008 26/24 A3004 RMK AO2 $=
####018000108####
SAUS70 KWBC 081324 RRA
METAR
KUNV 081320Z AUTO 00000KT 10SM CLR 27/19 A3010 RMK AO2
     T02650191=
####018000249####
SPUS80 KWBC 081324
SPECI
KLAX 081321Z 24004KT 7SM BCFG SCT009 OVC011 16/13 A2992 RMK
     AO2=
KGDP 081321Z AUTO 06021KT 3/4SM BR SCT004 SCT070 OVC110 17/17
     A3025 RMK AO2 TSNO=
KCID 081322Z 33007KT 8SM SCT005 22/20 A3007 RMK AO2=
####018000146####
SADN32 EKCH 081320
METAR EKVJ 081320Z NIL=
METAR EKSB 081320Z NIL=
METAR EKSN 081320Z NIL=
METAR EKVD 081320Z NIL=
METAR EKOD 081320Z NIL=
####018000207####
SADN34 EKCH 081320
METAR EKGF 081320Z NIL=
METAR EKHN 081320Z AUTO 19010KT 9999NDV FEW005/// BKN026///
BKN054/// 17/14 Q1020=
METAR EKHR 081320Z AUTO 19010KT 7000NDV FEW003/// BKN007///
17/17 Q1018=
####018000536####
SAAS31 KWBC 081305 RRB
METAR
VAAH 081310Z 22013KT 2500 -RA SCT008 SCT015 FEW025CB OVC080 25/24
     Q1004 TEMPO 800=
VABB 081310Z 19007KT 3100 HZ SCT012 SCT018 FEW025TCU BKN100 28/25
     Q1007 TEMPO 1500 SHRA=
VCBI 081310Z 11006KT 140V230 9999 -TSRA SCT016 FEW019CB BKN100
     27/25 Q1010 NOSIG=
VOMM 081310Z 12008KT 4000 HZ SCT015 SCT100 OVC200 28/26 Q1008
     NOSIG=
VOTV 081310Z 32006KT 5000 HZ FEW015 FEW025CB BKN200 26/24 Q1009
     NOSIG=
VRMM 081300Z 35009KT 9999 FEW018TCU BKN110 28/24 Q1010 NOSIG=
####018000095####
SAAW34 KWBC 081245 RRI
METAR
OPSK 081255Z 13006KTS 2500 HZ SCT040 SCT100 34/24 QNH 1001=
####018000124####
SAAW41 KWBC 081350
METAR
LTAU 081320Z 23005KT 190V270 9999 SCT040 34/12 Q1009 NOSIG RMK
     RWY07 25008KT 210V280=
####018000433####
SADL33 KWBC 081315 RRA
METAR
EDDB 081320Z 10004KT CAVOK 28/06 Q1020 NOSIG=
EDDC 081320Z 29002KT CAVOK 26/08 Q1021 NOSIG=
EDDG 081320Z 23007KT 200V270 CAVOK 30/09 Q1019 NOSIG=
EDDP 081320Z 22005KT 170V270 CAVOK 28/11 Q1020 NOSIG=
EDDR 081320Z VRB02KT CAVOK 30/11 Q1020 NOSIG=
EDDT 081320Z 11001KT CAVOK 28/07 Q1020 NOSIG=
EDDV 081320Z 20006KT CAVOK 30/10 Q1019 NOSIG=
EDDW 081320Z 26006KT CAVOK 30/07 Q1018 NOSIG=
####018000094####
SAFR31 KWBC 081300 RRB
METAR
LFLB 081319Z 34006KT 9999 FEW070 SCT260 31/17 Q1020 NOSIG=
####018000097####
SAIO31 KWBC 081300 RRD
METAR
VRMM 081300Z 35009KT 9999 FEW018TCU BKN110 28/24 Q1010 NOSIG=
####018000167####
SAUS44 KCRP 081324
MTRNGP
SPECI KNGP 081322Z 03005KT 5SM RA BR FEW008 BKN019CB BKN025 28/26 
A2983 RMK AO2 RAB12 CB DSNT S TCU OHD-NE TCU DSNT SW-W WR// P0004
####018000118####
SAIY43 KWBC 081250 RRD
METAR
LIRX 081255Z 17003KT CAVOK 29/18 Q1020 RMK SKC VIS MIN 9999E VIS
     MAR 25 KM=
####018000081####
SAXX61 KWBC 081300 RRB
METAR
EDDS 081320Z VRB02KT CAVOK 29/10 Q1021 NOSIG=
####018000126####
SAPH31 KWBC 081300 RRC
METAR
RPLC 081300Z 35007KT 9999 FEW020CB SCT036 BKN270 26/23 Q1011 A2986
     RMK/OCNL LTNG W=
####018000087####
SAMM31 KWBC 081230 RRB
METAR
LCEN 081250Z 15014KT 9999 SCT025 33/18 Q1007 NOSIG=
####018000211####
SADN34 EKCH 081320
METAR EKGF 081320Z NIL=
METAR EKHN 081320Z AUTO 19010KT 9999NDV FEW005/// BKN026///
BKN054/// 17/14 Q1020=
METAR EKHR 081320Z AUTO 19010KT 7000NDV FEW003/// BKN007///
17/17 Q1018=
####018000083####
SANT31 KWBC 081300 RRA
METAR
LPBJ 081300Z 24009KT 190V310 CAVOK 32/14 Q1016=
####018000117####
SAPH31 RPLC 081300
METAR RPLC 081300Z
35007KT 9999 FEW020CB SCT036 BKN270 26/23 Q1011 A2986 RMK/OCNL LTNG
W=
####018000572####
SADN31 EKCH 081320
METAR EKCH 081320Z 17014KT CAVOK 23/15 Q1020 NOSIG=
METAR EKBI 081320Z 22005KT 190V250 9999 FEW022 BKN050 BKN070
21/17 Q1019=
METAR EKYT 081320Z 22010KT 6000 -SHRA BKN012TCU BKN023 18/17
Q1018 TEMPO 7000 BKN010=
METAR EKRK 081320Z AUTO 22009KT 180V250 9999NDV BKN050/// 25/11
Q1020=
METAR EKAH 081320Z AUTO 19002KT 9999NDV R10R/P1500N R28L/0325VP1500D
FEW077/// BKN092/// 21/16 Q1019=
METAR EKEB 081320Z AUTO 17008KT 6000NDV -SHRA  BKN038/// 18/16
Q1019 RESHRA=
METAR EKRN 081320Z AUTO 19005KT 160V230 9999NDV NCD 21/15 Q1022=
####018000691####
SASN31 ESWI 081320
METAR ESGG 081320Z 19009KT 7000 -RADZ BR FEW004 SCT009 BKN025
17/15 Q1019=
METAR ESGJ 081320Z AUTO 21014KT 8000NDV BR SCT046/// BKN060///
23/10 Q1019=
METAR ESGP 081320Z 18012KT 5000 DZ BKN007 OVC030 17/16 Q1019 RERA=
METAR ESGT 081320Z 20014KT 9999 SCT016 BKN030 19/14 Q1018=
METAR ESMK 081320Z 22009KT 170V280 CAVOK 27/11 Q1020=
METAR ESMQ 081320Z 16013KT CAVOK 24/14 Q1019=
METAR ESMS 081320Z 19011KT 150V220 CAVOK 24/10 Q1021=
METAR ESMT 081320Z 21010KT CAVOK 23/14 Q1020=
METAR ESMX 081320Z 23011KT CAVOK 25/11 Q1020=
METAR ESTA 081320Z 17010KT CAVOK 23/15 Q1020=
METAR ESTL 081320Z AUTO 22011KT 9999NDV FEW027/// BKN055/// 24/10
Q1020=
####018000213####
SADN33 EKCH 081320
METAR EKKA 081320Z 22004KT 180V250 8000 -SHRA SCT009 FEW018TCU
BKN030 19/18 Q1018 TEMPO 4000 SHRA BKN008 SCT020CB=
METAR EKSP 081320Z 26013KT 9999 -RA FEW025 BKN100 23/13 Q1019
NOSIG=
####018000111####
SATH33 VTBB 081300 RRA
METAR VTUU 081300Z 19004KT 9999 FEW025 BKN300 32/23 Q1007 A2974
           NOSIG=
####018000098####
SAEU31 BKPR 081330
METAR BKPR 081330Z 35007KT 9999 SCT030 BKN060 17/11 Q1021 NOSIG RMK
BLU=
####018000075####
SASU01 HSSS 081300
METAR HSSS 081300Z 09006KT CAVOK 41/03 Q1006 NOSIG=
####018000151####
SADN32 EKCH 081320
METAR EKVJ 081320Z NIL=
METAR EKSB 081320Z NIL=
METAR EKSN 081320Z NIL=
METAR EKVD 081320Z NIL=
METAR EKOD 081320Z NIL=
####018000086####
SAMP31 LMMM 081330 RRA
METAR HLLT 081320Z
01010KT 340V040 8000 SKC 30/18 Q1018=
####018000507####
SAFI31 EFHK 081320
METAR EFHK 081320Z 33006KT 9999 FEW040CB SCT055 28/17 Q1013 BECMG TS=
EFJY 081320Z 07004KT 020V110 9999 SCT035 SCT200 25/17 Q1015=
METAR EFKU 081320Z AUTO 34004KT CAVOK 25/17 Q1015=
EFOU 081320Z VRB02KT 9999 FEW040 BKN200 23/11 Q1015=
METAR EFRO 081320Z AUTO 19005KT 110V230 CAVOK 21/08
 Q1015=
EFTP 081320Z VRB04KT 9999 FEW045 SCT200 26/14 Q1015=
METAR EFTU 081320Z AUTO 29008KT 250V320 CAVOK 26/12 Q1015=
EFVA 081320Z 27005KT 220V310 9999 FEW030 SCT200 24/13 Q1014=
####018000079####
SPUS31 KWBC 081324
SPECI
KEWR 081321Z 18005KT 5SM BR OVC007 26/24 A3005=
####018000095####
SPUS31 KWBC 081324
SPECI
KDFW 081320Z 13005KT 10SM -RA SCT028 BKN042 OVC055 26/24 A3003=
####018000228####
SAPO31 KWBC 081300 RRB
METAR
LPBJ 081300Z 24009KT 190V310 CAVOK 32/14 Q1016=
LPMR 081300Z 28004KT 8000 SCT009 BKN012 22/18 Q1016=
LPMT 081300Z 22010KT CAVOK 28/19 Q1016=
LPST 081300Z 31010KT 9999 FEW009 22/18 Q1017=
####018000604####
SAXX99 KWBC 081300 RRR
METAR
CYMA 081300Z 00000KT 20SM FEW050 10/08 A3008 RMK SC1 SLP198=
CYSD 081300Z 21003KT 25SM BKN270 12/12 A3018 RMK CI1 FIRST
     OB/20.0/9.0/23-13Z 0.3 MM SLP219=
CYVM 081300Z 19009KT 15SM FEW140 13/07 A2982 RMK AC2
     13.5/8.0/0.0/NIL OBS TAKEN +13 SLP098=
EDDE 081320Z 26001KT CAVOK 28/09 Q1021 NOSIG=
EVLA 081320Z 31007KT 260V350 CAVOK 21/15 Q1019=
EVVA 081320Z AUTO 32011KT CAVOK 21/16 Q1018=
LPAR 081300Z /////KT CAVOK 28/19 Q1015 RMK ESTMD WND 18009KT=
LTBU 081320Z 29012KT 9999 -SHRA FEW010 BKN030TCU BKN100 17/15
     Q1014 RMK RWY23 31010KT=
####018000090####
SAXX99 KWBC 081200 RRX
METAR
ETSN 081220Z 07005KT 9999 FEW300 26/07 Q1022 BLU/BLU/=
####018000091####
SPUS42 KWBC 081324
SPECI
KHRL 081321Z 35009KT 10SM FEW007 SCT012 BKN020 27/26 A2979=
####018000085####
SAUS41 KWBC 081300 RRD
METAR
KCTZ 081320Z AUTO 03007KT 5SM HZ CLR 30/22 A2996=
####018000085####
SPUS52 KWBC 081324
SPECI
KCNM 081321Z AUTO 33009KT 8SM -RA OVC013 19/19 A3017=
####018000102####
SPUS52 KWBC 081324
SPECI
KGDP 081321Z AUTO 06021KT 3/4SM BR SCT004 SCT070 OVC110 17/17
A3025=
####018000096####
SPUS52 KWBC 081324
SPECI
KMWL 081320Z AUTO 13003KT 10SM SCT010 BKN026 BKN033 24/23 A3004=
####018000081####
SPUS53 KWBC 081324
SPECI
KOTM 081321Z AUTO 35009KT 7SM FEW006 22/21 A3009=
####018000079####
SAIR31 OIII 081300 RRC
METAR OISS 081250Z 09004KT CAVOK 40/11 Q1012 A2989=
####018000296####
SAUS20 KNKA 081324
SPECI KDAL 081322Z 10004KT 10SM SCT016 BKN037 BKN055 OVC130 26/24 
    A3004 RMK AO2 RAE11 VCSH W-N P0000=
SPECI KDEQ 081322Z AUTO 11003KT 10SM SCT005 OVC045 25/23 A3006 RMK 
    AO2=
SPECI KTKI 081322Z 10003KT 10SM BKN033 25/24 A3005 RMK AO2 RAE1258 
    P0000=
####018001307####
SAEW KAWN 081300 RRI
METAR EDDB 081320Z 10004KT CAVOK 28/06 Q1020 NOSIG=
METAR EDDC 081320Z 29002KT CAVOK 26/08 Q1021 NOSIG=
METAR EDDE 081320Z 26001KT CAVOK 28/09 Q1021 NOSIG=
METAR EDDF 081320Z 17004KT 090V210 CAVOK 30/11 Q1020 NOSIG=
METAR EDDG 081320Z 23007KT 200V270 CAVOK 30/09 Q1019 NOSIG=
METAR EDDH 081320Z 23008KT CAVOK 30/11 Q1018 NOSIG=
METAR EDDK 081320Z 07005KT 020V100 CAVOK 31/10 Q1019 NOSIG=
METAR EDDL 081320Z 25008KT CAVOK 31/08 Q1018 NOSIG=
METAR EDDM 081320Z 08004KT 350V110 CAVOK 25/09 Q1022 NOSIG=
METAR EDDN 081320Z 15004KT 360V160 CAVOK 28/07 Q1021 NOSIG=
METAR EDDP 081320Z 22005KT 170V270 CAVOK 28/11 Q1020 NOSIG=
METAR EDDR 081320Z VRB02KT CAVOK 30/11 Q1020 NOSIG=
METAR EDDS 081320Z VRB02KT CAVOK 29/10 Q1021 NOSIG=
METAR EDDT 081320Z 11001KT CAVOK 28/07 Q1020 NOSIG=
METAR EDDV 081320Z 20006KT CAVOK 30/10 Q1019 NOSIG=
METAR EDDW 081320Z 26006KT CAVOK 30/07 Q1018 NOSIG=
METAR LFBE 081300Z 13006KT 080V170 CAVOK 34/14 Q1016 NOSIG=
METAR LFLB 081319Z 34006KT 9999 FEW070 SCT260 31/17 Q1020 NOSIG=
METAR LSGG 081320Z 24007KT 160V290 9999 FEW060 BKN250 32/11 Q1021 NOSIG=
METAR LSZA 081320Z 19006KT 9999 FEW055 29/16 Q1021 NOSIG=
METAR LSZB 081320Z VRB03KT CAVOK 31/11 Q1021 NOSIG=
METAR LSZH 081320Z VRB03KT CAVOK 29/12 Q1021 NOSIG=
####018000089####
SPXX70 KAWN 081300 RRA
SPECI KQGV 081321Z 32024G33KT 5000 BLDU CLR 46/M09 A2954 RMK=
####018000078####
SACN87 CWAO 081322
WWL SA 1322 AUTO4 M M M 173/12/M/MMMM/M/ 6000 3MMM=

####018000084####
SPUS72 KWBC 081324
SPECI
KBFM 081321Z 00000KT 10SM FEW005 SCT045 28/24 A3006=
####018000085####
SPUS72 KWBC 081324
SPECI
KCNM 081321Z AUTO 33009KT 8SM -RA OVC013 19/19 A3017=
####018000095####
SPUS72 KWBC 081324
SPECI
KDFW 081320Z 13005KT 10SM -RA SCT028 BKN042 OVC055 26/24 A3003=
####018000091####
SPUS72 KWBC 081324
SPECI
KHRL 081321Z 35009KT 10SM FEW007 SCT012 BKN020 27/26 A2979=
####018000091####
SAAK41 KNKA 081324
SPECI PPIZ 081321Z AUTO 21007KT 7SM CLR 06/02 A3007 RMK AO2 TSNO $=
####018001182####
SAUS20 KNKA 081324
METAR KOKV 081320Z AUTO 31005KT 10SM CLR 31/18 A3005 RMK AO2 
     T03130180=
METAR KOMH 081320Z AUTO 35008KT 7SM SCT110 30/22 A3004 RMK AO2 
     T02960221=
METAR KONX 081320Z AUTO 04007KT 10SM CLR 28/22 A2999 RMK AO2 
     T02760219=
METAR KOPN 081320Z AUTO 29003KT 10SM CLR 29/24 A3006 RMK AO1=
METAR KPCM 081320Z AUTO 07004KT 10SM CLR 27/22 A3004 RMK AO2=
SPECI KPPF 081323Z AUTO 00000KT 10SM FEW004 SCT010 23/22 A3009 RMK 
    AO2=
METAR KRCZ 081320Z AUTO 35003KT 10SM CLR 29/20 A2998 RMK AO2 
     T02860199=
METAR KSVH 081320Z AUTO 02005KT 7SM CLR 29/19 A3006 RMK AO2 
     T02910189=
METAR KTBR 081320Z AUTO 29005KT 10SM CLR 28/20 A3001 RMK AO2 
     T02800200=
METAR KVJI 081322Z AUTO 00000KT 5SM HZ CLR 27/21 A3016 RMK AO2=
METAR KVUJ 081319Z AUTO 00000KT 10SM CLR 29/21 A3000 RMK AO2=
METAR KVVG 081315Z AUTO 32003KT 26/22 A3003 RMK AO2=
METAR KW22 081320Z AUTO 00000KT 8SM CLR 26/20 A3015 RMK AO2=
METAR KW45 081320Z AUTO 00000KT 7SM CLR 29/20 A3006 RMK AO2 
     T02900196=
METAR KW99 081320Z AUTO 00000KT 7SM SCT085 27/17 A3009 RMK AO2=
METAR KWDR 081320Z AUTO 03003KT 10SM CLR 28/21 A3008 RMK AO1=
####018002988####
SAUS20 KNKA 081324
SPECI KLAX 081321Z 24004KT 7SM BCFG SCT009 OVC011 16/13 A2992 RMK
     AO2=
METAR K3A1 081320Z AUTO 01006KT 10SM CLR 27/23 A3012 RMK AO2 
     T02680229=
METAR K4A9 081320Z AUTO 02005KT 10SM CLR 27/20 A3008 RMK AO2 
     T02710200=
METAR K8A0 081319Z AUTO 02003KT 10SM CLR 28/20 A3009 RMK AO2=
METAR KAFP 081320Z AUTO 30003KT 10SM CLR 29/18 A2999 RMK AO2 
     T02850183=
METAR KALX 081320Z AUTO 00000KT 10SM CLR 28/21 A3006 RMK AO1=
METAR KBIJ 081321Z AUTO 00000KT 10SM CLR 29/23 A3004 RMK AO2=
SPECI KCNU 081323Z AUTO 09004KT 2 1/2SM BR OVC001 23/22 A3009 RMK 
    AO2=
METAR KCPC 081320Z AUTO 05005KT 10SM CLR 29/22 A2995 RMK AO2 
     T02850219=
METAR KEDE 081317Z AUTO 08003KT 10SM CLR 27/23 A2998 RMK AO2=
METAR KEHO 081320Z AUTO 00000KT 10SM CLR 27/19 A3004 RMK AO2 
     T02710191=
METAR KEYF 081320Z AUTO 00000KT 7SM CLR A2996 RMK AO2=
METAR KFFA 081318Z AUTO 07006KT 10SM CLR 27/22 A2998 RMK AO2 
     T02700223=
METAR KGAO 081320Z AUTO 06008KT SCT016 SCT024 29/25 A3003 RMK AO2 
     PWINO=
SPECI KGKY 081323Z 13003KT 10SM FEW021 BKN055 26/23 A3004 RMK AO2=
METAR KGWW 081320Z AUTO 04006KT 5SM HZ CLR 28/22 A2997 RMK AO2 
     T02840218=
METAR KHDC 081323Z AUTO 08004KT 10SM CLR 29/27 A3006 RMK AO2=
METAR KHNZ 081320Z AUTO 04006KT 7SM SCT110 30/20 A3001 RMK AO2 
     T02980199=
METAR KHQU 081323Z AUTO 27004KT 10SM CLR 29/19 A3006 RMK AO1=
METAR KHWY 081320Z AUTO 05003KT 7SM SCT110 29/22 A3002 RMK AO2=
METAR KIDI 081320Z AUTO 00000KT 7SM SCT070 26/21 A3011 RMK AO2=
METAR KIER 081320Z AUTO 12005KT 10SM BKN100 27/26 A3006 RMK AO2 
     PWINO=
METAR KIXA 081320Z AUTO 03006KT 7SM SCT075 29/21 A2998 RMK AO2 
     T02860210=
METAR KJGG 081320Z AUTO 13004KT 10SM SCT018 30/24 A3001 RMK AO1=
METAR KJKA 081320Z AUTO 00000KT 10SM CLR 31/27 A3004 RMK AO2 
     T03060270=
METAR KJYL 081322Z AUTO 29003KT 10SM CLR 28/22 A3001 RMK AO2=
METAR KJYO 081320Z AUTO 00000KT 7SM CLR 31/22 A3003 RMK AO2=
METAR KLDJ 081320Z AUTO 13004KT 4SM BR BKN008 OVC011 26/24 A3005 
     RMK AO2 T02620236=
METAR KLGC 081315Z AUTO 00000KT 10SM CLR 27/26 A3005 RMK AO1=
METAR KLHZ 081320Z AUTO 04005KT 7SM CLR 30/20 A3000 RMK AO2 
     T03030198=
METAR KLKU 081320Z AUTO 01004KT 7SM CLR 30/21 A3001 RMK AO2=
METAR KLNP 081318Z AUTO 02006KT 10SM CLR 26/19 A3020 RMK AO1=
METAR KLOM 081320Z AUTO 11003KT 7SM CLR 29/23 A3004 RMK AO1 
     T02900225=
METAR KMDQ 081320Z AUTO 00000KT 10SM CLR 28/22 A3009 RMK AO2 
     T02800221=
METAR KMGR 081320Z AUTO 33004KT 10SM CLR 28/20 A3005 RMK AO2=
METAR KMKJ 081320Z AUTO 26003KT 10SM CLR 26/11 A3023 RMK AO1=
METAR KMLJ 081324Z AUTO 00000KT 10SM CLR 28/21 A3003 RMK AO2=
METAR KMQI 081317Z AUTO 06010G15KT 10SM SCT015 27/23 A2997 RMK AO2=
METAR KMQS 081320Z AUTO 14006KT 8SM CLR 27/22 A3008 RMK AO2=
METAR KMTV 081320Z AUTO 00000KT 7SM CLR 30/22 A3007 RMK AO2=
METAR KOBE 081321Z AUTO 05006KT 10SM CLR 28/23 A3000 RMK AO2=
####018000081####
SPUS73 KWBC 081324
SPECI
KOTM 081321Z AUTO 35009KT 7SM FEW006 22/21 A3009=
####018000088####
SPUS74 KWBC 081324
SPECI
KCEC 081321Z AUTO 00000KT 1 3/4SM BR OVC001 10/09 A2998=
####018000102####
SPUS81 KWBC 081324
SPECI
KGDP 081321Z AUTO 06021KT 3/4SM BR SCT004 SCT070 OVC110 17/17
A3025=
####018000111####
SAMO31 ZMUB 081330
METAR ZMUB 081330Z 15011MPS 9999 FEW030CB BKN033 16/11 Q1007 NOSIG 
 RMK QFE648.8 74=
####018000084####
SPCN46 CWAO 081322
SPECI CYSB 081322Z 19008KT 10SM SCT005 BKN140 RMK SF4AC3=

####018000636####
SPUS99 KWBC 081325
SPECI
KDAL 081322Z 10004KT 10SM SCT016 BKN037 BKN055 OVC130 26/24 A3004
     RMK AO2 RAE11 VCSH W-N P0000=
KDEQ 081322Z AUTO 11003KT 10SM SCT005 OVC045 25/23 A3006 RMK
     AO2=
KTKI 081322Z 10003KT 10SM BKN033 25/24 A3005 RMK AO2 RAE1258
     P0000=
PPIZ 081321Z AUTO 21007KT 7SM CLR 06/02 A3007 RMK AO2 TSNO $=
KPPF 081323Z AUTO 00000KT 10SM FEW004 SCT010 23/22 A3009 RMK
     AO2=
KLAX 081321Z 24004KT 7SM BCFG SCT009 OVC011 16/13 A2992 RMK
     AO2=
KCNU 081323Z AUTO 09004KT 2 1/2SM BR OVC001 23/22 A3009 RMK
     AO2=
KGKY 081323Z 13003KT 10SM FEW021 BKN055 26/23 A3004 RMK AO2=
####018000377####
SASW32 LSSW 081320
METAR LSGC 081320Z 07005KT 010V140 CAVOK 26/14 Q1024=
METAR LSGS 081320Z 24008KT 210V290 9999 FEW120 32/13 Q1019=
METAR LSZG 081320Z VRB02KT 9999 FEW050 29/13 Q1021 NOSIG=
METAR LSZR 081320Z 33003KT CAVOK 27/11 Q1021 NOSIG RMK J=
METAR LSZS 081320Z 30010KT 260V350 9999 FEW070 26/06 Q1026=
METAR LSZC 081320Z 10004KT 070V140 CAVOK 28/14 Q1021=
####018003506####
SAUS99 KWBC 081325
METAR
KOKV 081320Z AUTO 31005KT 10SM CLR 31/18 A3005 RMK AO2
     T03130180=
KOMH 081320Z AUTO 35008KT 7SM SCT110 30/22 A3004 RMK AO2
     T02960221=
KONX 081320Z AUTO 04007KT 10SM CLR 28/22 A2999 RMK AO2
     T02760219=
KOPN 081320Z AUTO 29003KT 10SM CLR 29/24 A3006 RMK AO1=
KPCM 081320Z AUTO 07004KT 10SM CLR 27/22 A3004 RMK AO2=
KRCZ 081320Z AUTO 35003KT 10SM CLR 29/20 A2998 RMK AO2
     T02860199=
KSVH 081320Z AUTO 02005KT 7SM CLR 29/19 A3006 RMK AO2
     T02910189=
KTBR 081320Z AUTO 29005KT 10SM CLR 28/20 A3001 RMK AO2
     T02800200=
KVJI 081322Z AUTO 00000KT 5SM HZ CLR 27/21 A3016 RMK AO2=
KVUJ 081319Z AUTO 00000KT 10SM CLR 29/21 A3000 RMK AO2=
KVVG 081315Z AUTO 32003KT 26/22 A3003 RMK AO2=
KW22 081320Z AUTO 00000KT 8SM CLR 26/20 A3015 RMK AO2=
KW45 081320Z AUTO 00000KT 7SM CLR 29/20 A3006 RMK AO2
     T02900196=
KW99 081320Z AUTO 00000KT 7SM SCT085 27/17 A3009 RMK AO2=
KWDR 081320Z AUTO 03003KT 10SM CLR 28/21 A3008 RMK AO1=
K3A1 081320Z AUTO 01006KT 10SM CLR 27/23 A3012 RMK AO2
     T02680229=
K4A9 081320Z AUTO 02005KT 10SM CLR 27/20 A3008 RMK AO2
     T02710200=
K8A0 081319Z AUTO 02003KT 10SM CLR 28/20 A3009 RMK AO2=
KAFP 081320Z AUTO 30003KT 10SM CLR 29/18 A2999 RMK AO2
     T02850183=
KALX 081320Z AUTO 00000KT 10SM CLR 28/21 A3006 RMK AO1=
KBIJ 081321Z AUTO 00000KT 10SM CLR 29/23 A3004 RMK AO2=
KCPC 081320Z AUTO 05005KT 10SM CLR 29/22 A2995 RMK AO2
     T02850219=
KEDE 081317Z AUTO 08003KT 10SM CLR 27/23 A2998 RMK AO2=
KEHO 081320Z AUTO 00000KT 10SM CLR 27/19 A3004 RMK AO2
     T02710191=
KEYF 081320Z AUTO 00000KT 7SM CLR A2996 RMK AO2=
KFFA 081318Z AUTO 07006KT 10SM CLR 27/22 A2998 RMK AO2
     T02700223=
KGAO 081320Z AUTO 06008KT SCT016 SCT024 29/25 A3003 RMK AO2
     PWINO=
KGWW 081320Z AUTO 04006KT 5SM HZ CLR 28/22 A2997 RMK AO2
     T02840218=
KHDC 081323Z AUTO 08004KT 10SM CLR 29/27 A3006 RMK AO2=
KHNZ 081320Z AUTO 04006KT 7SM SCT110 30/20 A3001 RMK AO2
     T02980199=
KHQU 081323Z AUTO 27004KT 10SM CLR 29/19 A3006 RMK AO1=
KHWY 081320Z AUTO 05003KT 7SM SCT110 29/22 A3002 RMK AO2=
KIDI 081320Z AUTO 00000KT 7SM SCT070 26/21 A3011 RMK AO2=
KIER 081320Z AUTO 12005KT 10SM BKN100 27/26 A3006 RMK AO2
     PWINO=
KIXA 081320Z AUTO 03006KT 7SM SCT075 29/21 A2998 RMK AO2
     T02860210=
KJGG 081320Z AUTO 13004KT 10SM SCT018 30/24 A3001 RMK AO1=
KJKA 081320Z AUTO 00000KT 10SM CLR 31/27 A3004 RMK AO2
     T03060270=
KJYL 081322Z AUTO 29003KT 10SM CLR 28/22 A3001 RMK AO2=
KJYO 081320Z AUTO 00000KT 7SM CLR 31/22 A3003 RMK AO2=
KLDJ 081320Z AUTO 13004KT 4SM BR BKN008 OVC011 26/24 A3005 RMK AO2
     T02620236=
KLGC 081315Z AUTO 00000KT 10SM CLR 27/26 A3005 RMK AO1=
KLHZ 081320Z AUTO 04005KT 7SM CLR 30/20 A3000 RMK AO2
     T03030198=
KLKU 081320Z AUTO 01004KT 7SM CLR 30/21 A3001 RMK AO2=
KLNP 081318Z AUTO 02006KT 10SM CLR 26/19 A3020 RMK AO1=
KLOM 081320Z AUTO 11003KT 7SM CLR 29/23 A3004 RMK AO1
     T02900225=
KMDQ 081320Z AUTO 00000KT 10SM CLR 28/22 A3009 RMK AO2
     T02800221=
KMGR 081320Z AUTO 33004KT 10SM CLR 28/20 A3005 RMK AO2=
KMKJ 081320Z AUTO 26003KT 10SM CLR 26/11 A3023 RMK AO1=
KMLJ 081324Z AUTO 00000KT 10SM CLR 28/21 A3003 RMK AO2=
KMQI 081317Z AUTO 06010G15KT 10SM SCT015 27/23 A2997 RMK AO2=
KMQS 081320Z AUTO 14006KT 8SM CLR 27/22 A3008 RMK AO2=
KMTV 081320Z AUTO 00000KT 7SM CLR 30/22 A3007 RMK AO2=
KOBE 081321Z AUTO 05006KT 10SM CLR 28/23 A3000 RMK AO2=
####018000510####
SAUK34 EGGY 081320
METAR EGHD 081320Z 21008KT 150V240 9999 FEW020 20/13 Q1019=
METAR EGHE 081320Z NIL=
METAR EGHK 081320Z 16005KT 9999 SCT018 18/15 Q1018=
METAR EGHQ 081320Z 29007KT 9999 FEW025 17/13 Q1019=
METAR EGJA 081320Z 26006KT 220V320 CAVOK 19/16 Q1020=
METAR EGJB 081320Z 29006KT 250V330 9999 FEW013 20/16 Q1020=
METAR EGJJ 081320Z 28010KT 240V300 9999 FEW008 21/17 Q1019 NOSIG=
METAR EGTE 081320Z 16012KT 130V200 9999 FEW030 21/15 Q1018=
METAR EGTG 081320Z 28009KT 9999 FEW034 21/09 Q1019=
####018000487####
SAUK31 EGGY 081320
METAR EGBB 081320Z 24008KT 210V280 CAVOK 23/08 Q1018=
METAR EGCC 081320Z 20010KT 170V230 9999 SCT038 20/10 Q1017=
METAR EGKK 081320Z 21010KT 170V230 9999 SCT048 26/12 Q1018=
METAR EGLL 081320Z 23008KT 200V290 9999 BKN035 24/14 Q1018=
METAR EGPF 081320Z 23018KT 9999 FEW030 17/10 Q1013=
METAR EGPH 081320Z 25015KT 220V280 9999 SCT045 19/08 Q1013=
METAR EGPK 081320Z 23015KT 9999 FEW026 19/10 Q1014=
METAR EGSS 081320Z 22007KT 180V250 9999 SCT032 23/14 Q1018=
####018000090####
SPCN46 CWAO 081323
SPECI CYXZ 081323Z 00000KT 15SM BKN007 BKN080 RMK ST6AC1 TR AC=

####018000521####
SASN32 ESWI 081320
METAR ESKN 081320Z 23012KT 200V280 9999 SCT048 24/13 Q1017=
METAR ESOE 081320Z 22012KT 200V260 9999 SCT041 24/14 Q1017=
METAR ESOK 081320Z 17008KT 9999 BKN028 20/14 Q1017=
METAR ESOW 081320Z 23011KT CAVOK 24/14 Q1017=
METAR ESSA 081320Z 24013KT 9999 SCT045 24/14 Q1016 NOSIG=
METAR ESSB 081320Z 24009KT 9999 BKN046 24/13 Q1016=
METAR ESSD 081320Z AUTO 24009KT 9999NDV BKN028/// 20/13 Q1016=
METAR ESSP 081320Z 25008KT 220V290 CAVOK 25/12 Q1017=
METAR ESSV 081320Z 26007KT CAVOK 23/11 Q1019=
####018000415####
SAUK35 EGGY 081320
METAR EGHH 081320Z 20009KT 9999 FEW026 21/16 Q1019=
METAR EGKA 081320Z NIL=
METAR EGKB 081320Z 23008KT 190V270 9999 BKN035 25/14 Q1019 =
METAR EGLF 081320Z NIL=
METAR EGMC 081320Z 23006KT 180V260 9999 FEW039 25/16 Q1018=
METAR EGMD 081320Z 19009KT 9999 FEW020 21/16 Q1019=
METAR EGMH 081320Z 11010KT 9999 FEW022 21/17 Q1018 =
METAR EGTC 081320Z 21008KT 190V250 9999 FEW045 22/12 Q1018=
####018000584####
SASN33 ESWI 081320
METAR ESNG 081320Z VRB02KT 9999 RA FEW034 15/14 Q1014=
METAR ESNK 081320Z AUTO 17009KT 9999NDV SCT040/// BKN050/// 21/14
Q1012=
METAR ESNN 081320Z AUTO 26006KT 230V300 9999NDV BKN045/// 22/14
Q1012=
METAR ESNO 081320Z 17010KT CAVOK 20/11 Q1013=
METAR ESNQ 081320Z 16009KT 9999 -RA FEW040 SCT045 BKN052 16/12
Q1012=
METAR ESNS 081320Z AUTO 14008KT 9999NDV ////// 21/09 Q1014=
METAR ESNU 081320Z 16009KT CAVOK 21/11 Q1014=
METAR ESNZ 081320Z 21007KT CAVOK 20/10 Q1011=
METAR ESUT 081320Z AUTO 14011KT 9999NDV FEW055/// BKN094///
OVC120/// 18/11 Q1009=
####018000178####
SASN34 ESWI 081320
METAR ESDF 081320Z 21011KT 170V250 CAVOK 22/12 Q1020=
METAR ESPA 081320Z 14010KT CAVOK 19/14 Q1015=
METAR ESSL 081320Z 24010KT 200V280 CAVOK 25/12 Q1017=
####018000371####
SASW32 LSSW 081320
METAR LSGC 081320Z 07005KT 010V140 CAVOK 26/14 Q1024=
METAR LSGS 081320Z 24008KT 210V290 9999 FEW120 32/13 Q1019=
METAR LSZG 081320Z VRB02KT 9999 FEW050 29/13 Q1021 NOSIG=
METAR LSZR 081320Z 33003KT CAVOK 27/11 Q1021 NOSIG RMK J=
METAR LSZS 081320Z 30010KT 260V350 9999 FEW070 26/06 Q1026=
METAR LSZC 081320Z 10004KT 070V140 CAVOK 28/14 Q1021=
####018000101####
SAUK31 EGGY 081320 CCA
METAR COR EGLL 081320Z 23008KT 200V290 9999 BKN035 24/14 Q1018
    NOSIG=
####018000088####
SAUK34 EGGY 081320 CCA
METAR COR EGHK 081320Z 16005KT 9999 SCT018 18/15 Q1018 NOSIG=
####018000478####
SASN35 ESWI 081320
METAR ESGL 081320Z AUTO 23014KT 9999NDV FEW022/// BKN035/// BKN044///
 20/15 Q1018=
METAR ESGR 081320Z AUTO 23012KT 200V260 9999NDV BKN044/// 21/14
Q1018=
METAR ESKM 081320Z NIL=
METAR ESNL 081320Z 16010KT 9999 SCT045 22/10 Q1012=
METAR ESNX 081320Z AUTO 13005KT 9999NDV -DZ FEW059/// SCT190///
16/14 Q1013=
METAR ESNY 081320Z AUTO 23008KT 210V300 9999 FEW044 24/14 Q1014=
METAR ESSF 081320Z NIL=
METAR ESSK 081320Z NIL=
METAR ESUD 081320Z NIL=
####018000389####
SAFI32 EFHK 081320
EFHA 081320Z AUTO VRB02KT CAVOK 25/14 Q1014=
EFHF 081320Z 33008KT 270V020 9999 FEW042 SCT055 28/18 Q1013=
EFKA 081320Z 20006KT 150V260 CAVOK 25/11 Q1014=
EFKK 081320Z AUTO 23007KT 180V300 CAVOK 25/10 Q1014=
EFMA 081320Z 20008KT 160V220 CAVOK 21/14 Q1016=
EFPO 081320Z AUTO 25007KT 200V300 CAVOK 24/11 Q1015=
EFSI 081320Z AUTO 23004KT 180V280 CAVOK 25/11 Q1014=
####018001058####
SAAM20 FCBB 081300 COR
METAR FCBB 081300Z 21008KT 270V160 7000 FEW023 27/20 Q1013 NOSIG=
METAR FCPP 081300Z 18008KT 7000 FEW013 OVC033 24/21 Q1012 NOSIG=
METAR FKKD 081300Z VRB04KT 9999 BKN016 FEW020CB BKN120 28/25 Q1013
      TEMPO 4000 TSRA BKN013 SCT016CB BKN100=
METAR FKYS 081300Z 25003KT 210V280 9999 BKN016 26/20 Q1016 NOSIG=
METAR FKKR 081300Z 08004KT 9999 FEW020 BKN130 BKN300 27/23 Q1012
      NOSIG=
METAR FKKN NIL=
METAR FKKL NIL=
METAR FEFT NIL=
METAR FEFG NIL=
METAR FEFF 081300Z 18002KT 9999 FEW026 FEW040CB BKN300 31/22 Q1013
      NOSIG=
METAR FOOL 081300Z 23006KT 190V260 9000 SCT011 BKN030 27/23 Q1013
      NOSIG=
METAR FOOG NIL=
METAR FOON NIL=
METAR FGSL 081300Z 29005KT 270V330 7000 -TSRA BKN013 FEW020CB BKN130
      25/25 Q1013 NOSIG=
METAR FGBT NIL=
METAR FZRF NIL=
METAR FZOS NIL=
METAR FZAA 081300Z 27008KT 4000 BR SKC 27/19 Q1012 NOSIG=
METAR FZIC NIL=
METAR FZFK NIL=
METAR FZQA NIL=
METAR FNHU NIL=
METAR FNLU 081300Z 27011KT CAVOK 24/19 Q1011 NOSIG=
METAR FPST NIL=
####018000724####
SAAM31 FCBB 081300 CCA
METAR FCBB 081300Z 21008KT 270V160 7000 FEW023 27/20 Q1013 NOSIG=
METAR FCPP 081300Z 18008KT 7000 FEW013 OVC033 24/21 Q1012 NOSIG=
METAR FKKD 081300Z VRB04KT 9999 BKN016 FEW020CB BKN120 28/25 Q1013
      TEMPO 4000 TSRA BKN013 SCT016CB BKN100=
METAR FKYS 081300Z 25003KT 210V280 9999 BKN016 26/20 Q1016 NOSIG=
METAR FEFF 081300Z 18002KT 9999 FEW026 FEW040CB BKN300 31/22 Q1013
      NOSIG=
METAR FOOL 081300Z 23006KT 190V260 9000 SCT011 BKN030 27/23 Q1013
      NOSIG=
METAR FGSL 081300Z 29005KT 270V330 7000 -TSRA BKN013 FEW020CB BKN130
      25/25 Q1013 NOSIG=
METAR FZAA 081300Z 27008KT 4000 BR SKC 27/19 Q1012 NOSIG=
METAR FNLU 081300Z 27011KT CAVOK 24/19 Q1011 NOSIG=
####018001830####
SAUK KAWN 081300 RRE
METAR EGAA 081320Z 22009KT 190V250 9999 FEW032 SCT040 17/10 Q1014=
METAR EGAC 081320Z 21016KT 9999 FEW028 SCT044 18/08 Q1014=
METAR EGBB 081320Z 24008KT 210V280 CAVOK 23/08 Q1018=
METAR EGCC 081320Z 20010KT 170V230 9999 SCT038 20/10 Q1017=
METAR EGFF 081320Z 27006KT 200V310 9999 FEW030 21/12 Q1019=
METAR EGGD 081320Z 28008KT 9999 FEW034 20/10 Q1019=
METAR EGGP 081320Z 25012KT 9999 SCT047 21/09 Q1017=
METAR EGGW 081320Z 23007KT 160V270 9999 FEW037 24/12 Q1018=
METAR EGHD 081320Z 21008KT 150V240 9999 FEW020 20/13 Q1019=
METAR EGHH 081320Z 20009KT 9999 FEW026 21/16 Q1019=
METAR EGJA 081320Z 26006KT 220V320 CAVOK 19/16 Q1020=
METAR EGJB 081320Z 29006KT 250V330 9999 FEW013 20/16 Q1020=
METAR EGJJ 081320Z 28010KT 240V300 9999 FEW008 21/17 Q1019 NOSIG=
METAR EGKK 081320Z 21010KT 170V230 9999 SCT048 26/12 Q1018=
METAR EGLC 081320Z 28005KT 220V310 9999 SCT030 24/14 Q1018=
METAR EGLL 081320Z 23008KT 200V290 9999 BKN035 24/14 Q1018=
METAR EGMD 081320Z 19009KT 9999 FEW020 21/16 Q1019=
METAR EGNM 081320Z 25011KT 210V290 9999 SCT035 18/09 Q1017=
METAR EGNV 081320Z 23018KT 9999 FEW040 21/09 Q1016=
METAR EGNX 081320Z 26009KT 210V300 CAVOK 22/08 Q1017=
METAR EGOS 081250Z 25008KT 9999 SCT044 BKN140 20/08 Q1017 BLU NOSIG=
METAR COR EGPB 081320Z 19015KT 9999 FEW040 16/11 Q1008 NOSIG=
METAR EGPD 081320Z 23014KT 200V270 9999 FEW048 18/08 Q1011 NOSIG=
METAR EGPF 081320Z 23018KT 9999 FEW030 17/10 Q1013=
METAR EGPH 081320Z 25015KT 220V280 9999 SCT045 19/08 Q1013=
METAR EGPK 081320Z 23015KT 9999 FEW026 19/10 Q1014=
METAR EGSS 081320Z 22007KT 180V250 9999 SCT032 23/14 Q1018=
METAR EGTC 081320Z 21008KT 190V250 9999 FEW045 22/12 Q1018=
METAR EGTE 081320Z 16012KT 130V200 9999 FEW030 21/15 Q1018=
METAR EGTG 081320Z 28009KT 9999 FEW034 21/09 Q1019=
####018001764####
SAEU KAWN 081300 RRX
METAR EGBB 081320Z 24008KT 210V280 CAVOK 23/08 Q1018=
METAR EGCC 081320Z 20010KT 170V230 9999 SCT038 20/10 Q1017=
METAR EGHD 081320Z 21008KT 150V240 9999 FEW020 20/13 Q1019=
METAR EGJA 081320Z 26006KT 220V320 CAVOK 19/16 Q1020=
METAR EGJB 081320Z 29006KT 250V330 9999 FEW013 20/16 Q1020=
METAR EGJJ 081320Z 28010KT 240V300 9999 FEW008 21/17 Q1019 NOSIG=
METAR EGKK 081320Z 21010KT 170V230 9999 SCT048 26/12 Q1018=
METAR EGLL 081320Z 23008KT 200V290 9999 BKN035 24/14 Q1018=
METAR EGPF 081320Z 23018KT 9999 FEW030 17/10 Q1013=
METAR EGPH 081320Z 25015KT 220V280 9999 SCT045 19/08 Q1013=
METAR EGPK 081320Z 23015KT 9999 FEW026 19/10 Q1014=
METAR EGSS 081320Z 22007KT 180V250 9999 SCT032 23/14 Q1018=
METAR EGTE 081320Z 16012KT 130V200 9999 FEW030 21/15 Q1018=
METAR EGTG 081320Z 28009KT 9999 FEW034 21/09 Q1019=
METAR EKAH 081320Z AUTO 19002KT 9999NDV R10R/P1500N R28L/0325VP1500D
      FEW077/// BKN092/// 21/16 Q1019=
METAR EKBI 081320Z 22005KT 190V250 9999 FEW022 BKN050 BKN070 21/17
      Q1019=
METAR EKCH 081320Z 17014KT CAVOK 23/15 Q1020 NOSIG=
METAR EKEB 081320Z AUTO 17008KT 6000NDV -SHRA BKN038/// 18/16 Q1019
      RESHRA=
METAR EKKA 081320Z 22004KT 180V250 8000 -SHRA SCT009 FEW018TCU BKN030
      19/18 Q1018 TEMPO 4000 SHRA BKN008 SCT020CB=
METAR EKRK 081320Z AUTO 22009KT 180V250 9999NDV BKN050/// 25/11 Q1020=
METAR EKRN 081320Z AUTO 19005KT 160V230 9999NDV NCD 21/15 Q1022=
METAR EKSP 081320Z 26013KT 9999 -RA FEW025 BKN100 23/13 Q1019 NOSIG=
METAR EKYT 081320Z 22010KT 6000 -SHRA BKN012TCU BKN023 18/17 Q1018
      TEMPO 7000 BKN010=
METAR LPFL 081300Z 20007KT 150V240 9999 FEW023TCU BKN040 24/17 Q1022
      RMK WIND RWY36 20005KT 130V290 POS MID 19007KT 160V230=
####018000079####
SAIR31 OIII 080930 RRB
METAR OISS 080925Z 12004KT CAVOK 38/07 Q1013 A2994=
####018000148####
SANA14 KAWN 081300 RRE
METAR KOSC 081314Z AUTO 23004KT 7SM OVC075 23/21 A3000 RMK AO2=
METAR TDPD 081300Z 09005KT 9999 SCT018TCU 30/24 Q1015=
####018000086####
SAMP31 LMMM 081330 RRA
METAR HLLT 081320Z 
01010KT 340V040 8000 SKC 30/18 Q1018=
####018000119####
SATU20 LTAA 081250 RRB
METAR LTAU 081320Z 23005KT 190V270 9999 SCT040 34/12 Q1009 NOSIG RMK RWY07 25008KT 210V280=
####018000085####
SAMP31 LMMM 081330 RRA
METAR HLLT 081320Z
01010KT 340V040 8000 SKC 30/18 Q1018=
####018000082####
SALY31 HLLT 081330
METAR HLLT 081320Z 
01010KT 340V040 8000 SKC 30/18 Q1018=
