####018000341####
SAPK31 OPKC 081200
METAR OPGD 081200Z NIL=
METAR OPKC 081200Z 17012KTS 8000 SCT030 SCT100 34/24 Q1002 TEMPO
NE 30KTS TSRA FEW025CB=
METAR OPLA 081155Z 10006KT 6000 SCT040 37/23 Q1003 NOSIG=
METAR OPNH 081200Z NIL=
METAR OPPS 081200Z NIL=
METAR OPRN 081200Z NIL=
METAR OPSK 081200Z 13015KTS 1700 DRQ SCT040 BKN100 34/24 10001 RH56=
####018000071####
SABZ18 SBKP 081200
METAR SBKP 081200Z 09003KT 8000 NSC 17/10 Q1022=
####018000106####
SAAH10 OAKN 081200
METAR OAKN 081150Z 27008KT 9999 FEW150 41/02 Q1006 BLU NOSIG RMK
    A2973 DA7200=
####018000068####
SABZ24 SBFL 081200
METAR SBFL 081200Z 17007KT CAVOK 21/16 Q1018=
####018000068####
SABZ24 SBCR 081200
METAR SBCR 081200Z 12006KT CAVOK 26/11 Q1014=
####018000088####
SABZ24 SBPA 081200
METAR SBPA 081200Z 20004KT 4000 -RA BR BKN010 OVC020 15/13 Q1020=
####018000114####
SANK31 MNMG 081200
METAR
METAR MNMG 081200Z 30010KT 5000 +DZ FEW010CB BKN022 24/24 Q1011 A2987
CB/W/NW/NE/S=
####018000700####
SANL33 EHDB 081155
METAR EHAK 081155Z AUTO 21009KT 9999NDV 17/12 Q1016=
METAR EHDV 081155Z NIL=
METAR EHFD 081155Z AUTO 22012KT 9999NDV FEW022/// BKN026/// OVC031///
17/16 Q1018=
METAR EHFZ 081155Z AUTO 23010KT 9999NDV SCT019/// BKN023/// BKN028///
17/15 Q1018=
METAR EHJA 081155Z AUTO 24011KT 9999NDV 16/14 Q1018=
METAR EHJR 081155Z NIL=
METAR EHKV 081155Z AUTO 24009KT 9999NDV BKN018/// OVC021/// 16/15
Q1018=
METAR EHMA 081155Z AUTO 25011KT 9999NDV 21/17 Q1019=
METAR EHMG 081155Z AUTO 23013KT 9999NDV 17/15 Q1018=
METAR EHPG 081155Z AUTO 22010KT 9999NDV ///////// 16/15 Q1019=
METAR EHQE 081155Z AUTO 23011KT 9999NDV 16/15 Q1019=
METAR EHSA 081155Z NIL=
METAR EHSC 081155Z NIL=
####018001375####
SAUS70 KWBC 081200 RRC
METAR
KRYV 081155Z AUTO 27004KT 5SM BR BKN005 OVC025 22/21 A3004 RMK
     AO2=
KSFB 081153Z 02003KT 10SM SKC 24/22 A3000=
KSTE 081155Z AUTO 36003KT 4SM BR OVC005 20/19 A3004 RMK AO2=
KSUW 081155Z AUTO 22006KT 10SM CLR 17/15 A3003 RMK AO2=
KTTS 081155Z 33003KT 10SM FEW030 FEW290 25/23 A3000 RMK SLP159 1SC
     /0/ 1CI /0/ 53005=
KFMH 081155Z AUTO 14009KT 10SM FEW010 SCT017 23/21 A3011 RMK
     AO2=
KIWA 081156Z AUTO 12006KT 10SM CLR 29/05 A2982 RMK AO2=
K4M9 081155Z AUTO 19005KT 6SM BR CLR 25/25 A3006 RMK AO2=
KAEJ 081155Z AUTO 28003KT 10SM CLR 06/05 A3045 RMK AO2=
KFLL 081153Z COR 08007KT 10SM FEW019 29/24 A2994 RMK AO2 SLP138
     T02890239 10289 20278 53008=
KHYW 081155Z AUTO 00000KT 7SM CLR 26/23 A2994 RMK AO2=
KJZI 081155Z AUTO 28007KT 10SM CLR 26/24 A2997 RMK A02 P000=
KMCJ 081155Z AUTO 00000KT 1SM BKN001 OVC005 24/23 A2990 RMK AO1
     P0026=
KMEI 081158Z 34003KT 9SM CLR 24/23 A3006 RMK AO2 SLP174 60005
     70005 T02390228 10239 20217 51008=
KOQU 081152Z 15004KT 3SM BR OVC006 24/ A3013=
KSPF 081155Z AUTO 00000KT 10SM CLR 12/08 A3030 RMK AO2=
KY50 081156Z AUTO 29005KT 5SM BR OVC005 21/21 A3003 RMK AO2 51013
     60000 70053 T02050205 10222 20205 SLP162 $=
KFMH 081155Z AUTO 14009KT 10SM FEW010 SCT017 23/21 A3011 RMK
     AO2=
TJBQ 081150Z 08006KT 10SM SKC 28/28 A3001=
####018003701####
SAUS70 KWBC 081200 RRB
METAR
KMVE 081154Z AUTO 00000KT 10SM CLR 17/15 A3011 RMK AO2=
KMWM 081153Z AUTO 00000KT 7SM CLR 15/14 A3015 RMK AO2=
KMWO 081155Z AUTO 00000KT 3SM BR CLR 23/22 A3009 RMK AO2=
KOEO 081155Z AUTO 00000KT 10SM CLR 17/17 A3011 RMK AO2=
KONA 081150Z AUTO 31004KT 10SM CLR 20/16 A3006 RMK AO2=
KOVL 081154Z AUTO 29003KT 10SM CLR 14/13 A3012 RMK AO2 T01400126
     10140 20125=
KPBI 081153Z COR 08004KT 6SM -RA BR SCT022 BKN028CB BKN050 26/24
     A2996 RMK AO2 RAB16 SLP143 VIS N-NE 1 1/2 CB OHD-W-N-E MOV W
     P0001 60001 70011 T02610244 10278 20261 53011=
KPEX 081153Z AUTO 25004KT 7SM CLR 15/15 A3012 RMK AO2 T01470146
     10147 20116=
KPNM 081153Z AUTO 27003KT 10SM CLR 16/15 A3010 RMK AO2=
KPQN 081153Z AUTO 00000KT 10SM CLR 17/14 A3017 RMK AO2=
KPVB 081153Z AUTO 26003KT 3/4SM OVC002 21/21 A3007 RMK AO1 70110
     T02110205 10211 20196=
KPWC 081153Z AUTO 00000KT 10SM CLR 12/12 A3009 RMK AO2=
KSGH 081156Z 00000KT 3SM BR CLR 23/22 A3011 RMK AO2 51006
     T02330222 10233 20194 SLP187=
KTTS 081155Z 33003KT 10SM FEW030 FEW290 25/23 A3000 RMK SLP159 1SC
     /0/ 1CI /0/ 53005=
KWJF 081156Z 07005KT 10SM CLR 13/01 A2990 RMK AO2 SLP106 T01330011
     10222 20133 53004=
PHJR 081153Z 00000KT 10SM CLR 22/18 A3003 RMK AO2 SLP174 70001
     T02220178 10250 20222 58010=
PHMK 081154Z AUTO 05006KT 10SM SCT042 21/18 A3003 RMK AO2 RAB02E17
     SLP171 P0000 60000 70001 T02110178 10228 20211 58008 TSNO=
KSGH 081156Z 00000KT 3SM BR CLR 23/22 A3011 RMK AO2 51006
     T02330222 10233 20194 SLP187=
KTTS 081155Z 33003KT 10SM FEW030 FEW290 25/23 A3000 RMK SLP159 1SC
     /0/ 1CI /0/ 53005=
KUNU 081152Z AUTO 24005KT 3SM BR OVC003 21/20 A3004 RMK AO2 60003
     70064 T02080196 10216 20205=
KVBS 081155Z AUTO 12023KT 10SM SCT021 29/25 A2994 RMK A01=
KVNP 081155Z AUTO 12013KT 7SM FEW018 SCT026 SCT033 28/25 A2997 RMK
     A01=
PAFS 081156Z AUTO 03005KT 10SM CLR 13/06 A2999 RMK AO2 TSNO 56005
     T01330061 10205 20127 SLP160 $=
PAIW 081157Z AUTO 00000KT 10SM CLR 08/06 A3016 RMK AO2 SLP310
     T00780056 10094 20067 58007=
PAMB 081156Z AUTO 01005KT 10SM BKN045 11/08 A2992 RMK AO2 PWINO
     TSNO 58002 T01050077 10116 20100 SLP136 $=
PPIZ 081156Z AUTO 20010KT 10SM CLR 06/02 A3008 RMK AO2 TSNO 58006
     T00610022 10066 20061 SLP190 $=
KBQX 081155Z AUTO 12015G21KT 7SM FEW019 FEW024 FEW030 29/26 A2986
     RMK A01=
KDLP 081155Z AUTO 10012KT 10SM CLR 28/25 A3000 RMK A01=
KEHC 081155Z AUTO 12024KT 6SM HZ FEW020 29/25 A2993 RMK A01=
KEMK 081155Z AUTO 14024KT 7SM FEW033 FEW040 SCT075 29/25 A2988 RMK
     A01=
KGVX 081155Z AUTO 12023G30KT 7SM FEW023 FEW046 SCT075 M40/ A2991
     RMK A01=
KHQI 081155Z AUTO 11021KT 7SM CLR 29/25 A2991 RMK A01=
KIPN 081155Z AUTO 09015KT 10SM FEW023 FEW029 /53 A3000 RMK A01=
KMDJ 081155Z AUTO 11013KT 10SM SCT020 28/24 A3000 RMK A01=
KMIU 081155Z AUTO 10016G21KT 3SM BR FEW021 SCT039 BKN055 28/26
     A2981 RMK A01=
KMZG 081155Z AUTO 00000KT 9SM SCT022 BKN027 OVC055 29/25 A2982 RMK
     A01=
KPBH 081155Z AUTO 00000KT 10SM SCT044 19/17 A3007 RMK AO2=
KPCZ 081155Z AUTO 30005KT 7SM SCT006 22/21 A3001 RMK AO2 70084
     T02220207 10228 20217=
KPDC 081153Z AUTO 29004KT 7SM SCT008 22/20 A3005 RMK AO2 70125
     T02170203 10225 20217=
KRCX 081155Z AUTO 31006KT 10SM SCT044 SCT050 19/17 A3008 RMK AO2
     70045 T01900170 10203 20175=
KRNH 081156Z AUTO 00000KT 10SM CLR 17/17 A3010 RMK AO2 70002
     T01740165 10195 20165=
KRPD 081154Z AUTO 30003KT 10SM CLR 18/17 A3009 RMK AO2 T01840170
     10203 20175=
KRRL 081155Z AUTO 34006KT 5SM BR OVC002 19/18 A3005 RMK AO2 70203
     T01850180 10192 20170=
####018003202####
SAXX60 KWBC 081200 RRB
METAR
KOZR 081155Z 00000KT 1SM R06/1400V2000FT BR FEW002 22/22 A3004 RMK
     AO2A SLP169 T02250225 10235 20212 53006=
KPSM 081155Z 14007KT 10SM FEW080 BKN200 23/20 A3008 RMK AO2A
     SLP187 T02310203 10231 20210 51008=
KNFL 081156Z AUTO 23004KT 10SM CLR 17/03 A3000 RMK AO2 SLP129
     T01670033 10283 20161 53009 TSNO=
KAFF 081155Z AUTO 00000KT 10SM CLR 11/11 A3038 RMK AO2 SLP206
     60001 70011 T01140106 10133 20114 58004=
KBKF 081155Z 14002KT 6SM BR FEW020 FEW120 SCT220 13/13 A3032 RMK
     SLP224 70002 57003=
KCVS 081155Z 02005KT 10SM FEW010 BKN120 16/15 A3022 RMK AO2A
     SLP196 70045 T01640150 10177 20164 53008 $=
KFAF 081155Z 09005KT 10SM BKN012 BKN018 27/27 A2999 RMK AO2A CIG
     011V016 SLP157 60000 T02690269 10269 20249 53012=
KFCS 081155Z AUTO 24007KT 10SM BKN032 14/10 A3035 RMK AO2 SLP206
     60000 T01380104 10143 20129 58007=
KFRI 081155Z AUTO 02004KT 6SM BR FEW020 SCT160 22/22 A3010 RMK AO2
     SLP182 70001 T02180215 10221 20212 50001=
KGSB 081155Z 04005KT 8SM CLR 26/21 A2995 RMK AO2A SLP141 WND DATA
     ESTMD T02580210 10262 20235 53013 $=
KHOP 081155Z AUTO 00000KT 10SM FEW100 25/23 A3008 RMK AO2 SLP182
     T02460226 10255 20231 53006=
KHRT 081155Z 00000KT 10SM CLR 25/25 A3002 RMK AO2A SLP169
     T02460246 10248 20229 53006 $=
KLFI 081155Z 09007KT 10SM FEW011 OVC090 26/22 A3000 RMK AO2A
     SLP159 T02580219 10259 20254 53014 $=
KLSV 081155Z AUTO 11004KT 10SM CLR 24/M03 A2985 RMK AO2 SLP087
     T02401031 10319 20233 53008 PWINO=
KLUF 081155Z 00000KT 10SM SCT170 27/05 A2978 RMK AO2A SLP053
     T02660053 10331 20253 53008 $=
KNBG 081155Z 06004KT 7SM SCT010 BKN250 26/23 A3002 RMK AO2 SLP166
     T02620233 50008 $=
KDMA 081155Z AUTO 05011KT 10SM CLR 29/11 A2989 RMK AO2 SLP044
     T02900110 10325 20289 51009 $=
KEND 081155Z 36006KT 10SM FEW040 SCT090 BKN180 BKN220 22/22 A3007
     RMK AO2A SLP170 T02180216 10231 20216 53002=
KFAF 081155Z 09005KT 10SM BKN012 BKN018 27/27 A2999 RMK AO2A CIG
     011V016 SLP157 60000 T02690269 10269 20249 53012=
KHOP 081155Z AUTO 00000KT 10SM FEW100 25/23 A3008 RMK AO2 SLP182
     T02460226 10255 20231 53006=
KLFI 081155Z 09007KT 10SM FEW011 OVC090 26/22 A3000 RMK AO2A
     SLP159 T02580219 10259 20254 53014 $=
KNMM 081156Z 28003KT 10SM FEW250 24/22 A3007 RMK AO2 SLP188
     T02440222 10244 20222 52010=
KPAM 081155Z 35004KT 10SM CLR 25/25 A3002 RMK AO2A SLP167
     T02530251 10253 20229 53007=
KSKF 081155Z 03006KT 7SM -RA FEW011 BKN020 BKN035 25/24 A2993 RMK
     AO2A RAE1101B1142 FEW V SCT SLP125 P0000 60000 T02520238
     10264 20252 53001 $=
KVBG 081155Z AUTO 31003KT 10SM OVC004 12/11 A2993 RMK AO2 SLP127
     T01170111 10128 20117 53002 TSNO $=
PASY 081156Z AUTO 02018G23KT 10SM OVC004 A2974 RMK AO2 SLPNO 6////
     7//// 54000 TSNO PNO=
PASV 081155Z AUTO 00000KT 10SM SCT080 08/07 A2995 RMK AO1
     T00830067=
KEUF 081158Z AUTO 00000KT 10SM CLR 25/20 A3003 RMK AO2 SLP163
     6//// 7//// T02500200 10250 20206 53005 PNO $=
KNTU 081156Z COR 08006KT 10SM FEW015 SCT050 BKN100 26/23 A2998 RMK
     AO2 SLP153 T02560233 10261 20250 53010 CHINO RWY 05R $=
####018003673####
SAUS80 KWBC 081200
METAR
KCAE 081156Z 27003KT 10SM CLR 26/20 A2999 RMK AO2 SLP151 T02610200
     10267 20228 53004=
KGNR 081156Z AUTO 00000KT 19/19 A3009 RMK AO1 SLP183 T01940194
     10206 20189 51005=
KLWS 081156Z AUTO 00000KT 10SM CLR 15/07 A3004 RMK AO2 SLP163
     T01500072 10211 20139 53007=
KSPD 081156Z AUTO 01005KT 16/14 A3030 RMK AO2 SLP203 P0003 60026
     70091 T01560144 10167 20144 51007 PWINO TSNO=
KFSD 081156Z 00000KT 10SM CLR 17/14 A3017 RMK AO2 SLP212 SCT ABV
     120 T01670144 10172 20150 53006 $=
KWMC 081156Z AUTO 00000KT 10SM CLR 16/M05 A3007 RMK AO2 SLP133
     T01611050 10228 20161 53009=
KFLG 081156Z AUTO 00000KT 10SM FEW120 10/00 A3026 RMK AO2 SLP142
     T01000000 10189 20100 53001 TSNO=
K8D3 081156Z AUTO 28008KT 19/14 A3010 RMK AO2 SLP177 T01890144
     10189 20172 50001 PWINO TSNO=
KSXT 081156Z AUTO 02006KT 9SM CLR 19/10 A3002 RMK AO2 SLP098
     T01940100 10206 20189 55001 TSNO=
KCDJ 081156Z AUTO 36003KT 22/21 A3008 RMK AO2 SLP176 70233
     T02170206 10217 20206 53007 PWINO TSNO=
KALK 081156Z AUTO 08013KT 10SM CLR 22/11 A3009 RMK AO2 SLP085
     T02220106 10261 20217 53005=
KSNC 081155Z AUTO 14005KT 8SM OVC004 22/ A3009 RMK AO2=
KMHS 081156Z AUTO 04003KT 10SM CLR 14/06 A3002 RMK AO2 SLP147
     T01390061 10200 20117 51007 TSNO=
KD07 081156Z AUTO 25004KT 13/08 A3021 RMK AO2 SLP223 T01330078
     10172 20122 51006 PWINO TSNO=
KRIC 081154Z 12005KT 4SM HZ FEW150 SCT250 27/22 A2999 RMK AO2
     SLP159 T02720222 10272 20239 51005=
KAKQ 081154Z AUTO 00000KT 2SM HZ FEW080 26/23 A3000 RMK AO2 SLP156
     7//// T02560228 10256 20228 51015 TSNO=
KWAL 081154Z 11008KT 10SM FEW010 BKN120 26/22 A3002 RMK AO2 SLP162
     60000 T02610217 10261 20244 51012=
KRFD 081154Z 22004KT 6SM BR FEW006 SCT046 OVC180 22/21 A3005 RMK
     AO2 SLP171 60002 70004 T02220211 10228 20217 51013=
KROS 081155Z AUTO 00000KT 10SM CLR 16/15 A3009 RMK AO2 T01620152
     10195 20145=
KSHV 081156Z 00000KT 7SM SCT160 BKN280 24/23 A3004 RMK AO2 SLP169
     70057 T02440233 10256 20239 53010=
KSYN 081210Z AUTO 00000KT 10SM CLR 18/17 A3010 RMK AO2
     T01800167=
KTKC 081153Z AUTO 26004KT 10SM CLR 17/13 A3015 RMK AO2 T01690131
     10169 20152=
KTRI 081153Z 00000KT 4SM HZ FEW070 23/19 A3012 RMK AO2 SLP179
     T02280194 10244 20194 53008=
KTYS 081153Z 00000KT 6SM HZ CLR 24/19 A3008 RMK AO2 SLP172
     T02390194 10261 20222 53008=
KABQ 081156Z 05008KT 10SM BKN100 OVC200 20/09 A3027 RMK AO2 SLP166
     T02000094 10206 20189 53006=
KJAX 081156Z 24003KT 10SM CLR 22/21 A3001 RMK AO2 SLP162 T02170206
     10217 20189 53007=
K29G 081154Z AUTO 00000KT 5SM CLR 23/21 A3010 RMK AO2 T02290210
     PWINO=
KAVP 081154Z 00000KT 6SM HZ CLR 24/19 A3008 RMK AO2 SLP173
     T02390189 10239 20200 51008 $=
KCHS 081156Z 29006KT 7SM CLR 25/20 A2997 RMK AO2 SLP149 T02500200
     10250 20239 53005=
KCLI 081155Z AUTO 30005KT 4SM BR SCT006 SCT016 22/21 A3002 RMK
     AO2=
KFWA 081154Z 17003KT 8SM FEW060 24/21 A3006 RMK AO2 SLP172
     T02440206 10261 20222 50002=
KGSO 081154Z 04003KT 5SM HZ FEW095 27/18 A3004 RMK AO2 SLP158
     T02720178 10278 20244 51010=
KIKW 081154Z AUTO 00000KT 7SM BKN090 OVC110 23/21 A3000 RMK AO2
     T02320213 10232 20213=
KLYV 081158Z AUTO 00000KT 10SM CLR 13/12 A3017 RMK AO2=
TJSJ 081156Z 08006KT 10SM FEW026 SCT034 28/25 A3000 RMK AO2 SLP159
     T02780250 10283 20267 51009=
PHKO 081153Z AUTO 10007KT 10SM CLR 23/18 A2997 RMK AO2 SLP148
     T02330183 10256 20233 58008 TSNO=
PHOG 081154Z AUTO 06011KT 10SM OVC060 24/17 A3001 RMK AO2 SLP166
     70001 T02390172 10250 20233 58012 TSNO=
####018000089####
SAAJ31 UBBB 081200
METAR UBBB 081200Z 35018KT CAVOK 32/25 Q1010 NOSIG RMK
R88CLRD70=
####018000581####
SAGR31 LGAT 081150
METAR LGAD 081150Z NIL=
METAR LGAV 081150Z 04019KT 9999 SCT030 26/12 Q1013 NOSIG=
METAR LGIR 081150Z 35009KT 9999 FEW020 29/23 Q1011 NOSIG=
METAR LGKL 081150Z 31012G25KT 9999 FEW030 33/12 Q1011=
METAR LGKO 081150Z 31018KT 270V340 CAVOK 29/18 Q1009=
METAR LGKR 081150Z NIL=
METAR LGLM 081150Z 04011KT 9999 FEW008 BKN020 21/16 Q1013=
METAR LGRP 081150Z 25014KT CAVOK 29/19 Q1008 NOSIG=
METAR LGSA 081150Z 31014KT 9999 FEW020 33/14 Q1012=
METAR LGSM 081150Z 36011KT 9999 FEW030 31/16 Q1010=
METAR LGTS 081150Z 34019G29KT 9999 FEW025 24/11 Q1016 NOSIG=
####018003658####
SAXX60 KWBC 081200
METAR
KHLR 081156Z AUTO 07004KT 10SM OVC011 25/ A3000 RMK AO2 SLP150
     60000 T0250 10261 20250 53004 $=
KNQI 081156Z 01005KT 10SM TS SCT014CB BKN140 BKN280 27/24 A2983
     RMK AO2 SLP097 OCNL LTGICCG NE-E TSB28RAE19 TS NE-E MOV W CB
     DSNT S P0006 60017 70017 T02670244 10272 20267 51003 $=
KNGP 081156Z 07003KT 10SM -RA BKN039 BKN050 28/26 A2982 RMK AO2
     SLP098 TCU N TCU DSNT NE AND W WR// P0002 60012 70015
     T02790263 10289 20278 53006 $=
KNTU 081156Z 08006KT 10SM CLR 26/23 A2998 RMK AO2 SLP153 60000
     T02560233 10261 20250 53010 CHINO RWY 05R $=
KNID 081156Z AUTO 00000KT FEW090 18/02 A2986 RMK AO2 SLP092
     T01780022 10289 20178 53010 TSNO $=
KNXP 081156Z AUTO 31005KT CLR 24/01 A2992 RMK AO2 SLP093 T02390011
     10294 20233 53006 $=
KNTD 081156Z AUTO 28006KT 9SM OVC011 14/13 A2990 RMK AO2 SLP125
     6//// 7//// T01440128 10156 20144 55001 TSNO PNO VISNO N
     $=
KNCA 081156Z 03005KT 4SM HZ BKN180 26/23 A2994 RMK AO2 SLP140
     T02610228 10267 20233 53010=
KNJK 081156Z AUTO 20004KT 10SM CLR 23/16 A2970 RMK AO2 SLP072
     T02280161 10300 20217 52007 TSNO=
KINS 081156Z 00000KT 10SM CLR 18/M10 A2994 RMK AO2 SLP084
     T01831100 10278 20167 53007 $=
KNFG 081156Z AUTO 00000KT 9SM BKN011 OVC017 16/14 A2990 RMK AO2
     SLP123 T01560139 10161 20156 55001 TSNO=
KNUQ 081156Z AUTO 02003KT 10SM OVC011 15/12 A2992 RMK AO2 SLP134
     T01500117 10161 20150 56003 TSNO=
KNUW 081156Z 00000KT 10SM CLR 14/11 A2997 RMK AO2 SLP152 T01390106
     10211 20133 53002 $=
KBIX 081155Z AUTO 03003KT 10SM CLR 25/25 A3004 RMK AO2 SLP173
     T02520252 10262 20246 53010=
KMCF 081155Z AUTO 03003KT 10SM CLR 24/24 A3000 RMK AO2 SLP159
     70001 T02440240 10252 20221 53006=
KMMT 081155Z 36003KT 10SM FEW100 25/21 A3000 RMK AO2A SLP158
     T02530213 10253 20210 53008=
KMXF 081155Z AUTO 00000KT 10SM CLR 26/24 A3003 RMK AO2 SLP168
     T02630239 10278 20243 53006=
KAFF 081155Z AUTO 00000KT 10SM CLR 11/11 A3038 RMK AO2 SLP206
     60001 70011 T01140106 10133 20114 58004=
KBKF 081155Z 14002KT 6SM BR FEW020 FEW120 SCT220 13/13 A3032 RMK
     SLP224 70002 57003=
KCVS 081155Z 02005KT 10SM FEW010 BKN120 16/15 A3022 RMK AO2A
     SLP196 70045 T01640150 10177 20164 53008 $=
KFCS 081155Z AUTO 24007KT 10SM BKN032 14/10 A3035 RMK AO2 SLP206
     60000 T01380104 10143 20129 58007=
KFRI 081155Z AUTO 02004KT 6SM BR FEW020 SCT160 22/22 A3010 RMK AO2
     SLP182 70001 T02180215 10221 20212 50001=
KGSB 081155Z 04005KT 8SM CLR 26/21 A2995 RMK AO2A SLP141 WND DATA
     ESTMD T02580210 10262 20235 53013 $=
KHRT 081155Z 00000KT 10SM CLR 25/25 A3002 RMK AO2A SLP169
     T02460246 10248 20229 53006 $=
KLSV 081155Z AUTO 11004KT 10SM CLR 24/M03 A2985 RMK AO2 SLP087
     T02401031 10319 20233 53008 PWINO=
KLUF 081155Z 00000KT 10SM SCT170 27/05 A2978 RMK AO2A SLP053
     T02660053 10331 20253 53008 $=
KPSM 081155Z 14007KT 10SM FEW080 BKN200 23/20 A3008 RMK AO2A
     SLP187 T02310203 10231 20210 51008=
KTBN 081155Z 00000KT 9SM BKN060 BKN070 OVC085 23/21 A3008 RMK AO2A
     LTG DSNT N SLP168 70005 T02280211 10231 20219 53006 $=
KVOK 081155Z 29004KT 10SM BKN010 20/20 A3004 RMK AO2A SLP168 70020
     52012=
KNBC 081156Z 27005KT 7SM CLR 26/19 A2999 RMK AO2 SLP155 T02560194
     10256 20228 53006=
KNXX 081156Z 00000KT 4SM HZ CLR 26/21 A3005 RMK AO2 PK WND
     33030/1106 SLP180 T02610211 10261 20228 53008 $=
KMRT 081153Z AUTO 00000KT 5SM CLR 23/20 A3012 RMK AO2 T02290199
     10229 20201=
KNBG 081155Z 06004KT 7SM SCT010 BKN250 26/23 A3002 RMK AO2 SLP166
     T02620233 50008 $=
####018003728####
SAUS70 KWBC 081200 RRA
METAR
PAGN 081156Z AUTO 00000KT CLR RMK AO2 PWINO TSNO 5//// SLPNO $=
PATQ 081156Z AUTO 25013KT 10SM CLR 08/03 A3003 RMK AO2 TSNO 58001
     T00830033 10111 20083 SLP175 $=
K14Y 081159Z AUTO 22005KT 10SM CLR 16/15 A3011 RMK AO2 T01630153
     10163 20142=
KAEL 081150Z AUTO 33004KT 10SM CLR 17/16 A3011 RMK AO2=
KAIT 081153Z AUTO 24003KT 10SM CLR 16/16 A3007 RMK AO2=
KAJO 081156Z AUTO 34004KT 6SM BR FEW011 15/13 A2990 RMK AO2 55004
     T01500133 10161 20122 SLP121 $=
KARV 081152Z AUTO 33003KT 10SM CLR 17/16 A3006 RMK AO2 70090
     T01730155 10195 20166=
KBBB 081153Z AUTO 00000KT 10SM CLR 14/14 A3012 RMK AO2=
KBWP 081151Z AUTO 28003KT 10SM CLR 15/14 A3011 RMK AO1 T01500139
     10162 20135=
KCMY 081155Z AUTO 00000KT 7SM BKN011 20/19 A3005 RMK AO2 70021
     T01990189 10217 20185=
KCVH 081150Z AUTO 21004KT 7SM OVC006 13/11 A2992 RMK AO1=
KDIJ 081156Z AUTO 36006KT 10SM CLR 06/02 A3031 RMK AO2 53006
     T00610022 10094 20044 SLP194 $=
KDXX 081154Z AUTO 00000KT 10SM CLR 16/16 A3011 RMK AO2=
KEFK 081155Z AUTO 19005KT 7SM CLR 24/20 A3007 RMK AO2=
KEFT 081155Z AUTO 28005KT 10SM CLR 21/19 A3005 RMK AO2 70006
     T02110191 10214 20205=
KEGV 081152Z AUTO 36003KT 10SM CLR 18/18 A3004 RMK AO2
     T01800179=
KEKQ 081156Z AUTO 00000KT 2SM BR CLR 21/20 A3012 RMK AO2 51006
     T02110200 10211 20183 SLP194=
KELO 081153Z AUTO 22004KT 10SM CLR 15/14 A3002 RMK AO2=
KETB 081152Z AUTO 00000KT 10SM SCT013 SCT018 22/21 A3001 RMK AO2
     P0001 60004 70032 T02210206 10227 20213=
KEVM 081152Z AUTO 26003KT 7SM CLR 15/13 A3002 RMK AO1=
KEZS 081155Z AUTO 30005KT 7SM SCT005 SCT008 23/22 A3001 RMK AO2
     60003 70212 T02280215 10228 20218=
KFBL 081154Z AUTO 29003KT 10SM CLR 17/15 A3012 RMK AO2=
KFFM 081153Z AUTO 00000KT 10SM CLR 16/14 A3010 RMK AO2=
KFGN 081154Z AUTO 26007KT 1/4SM -DZ VV002 16/13 A2998 RMK AO2=
KFSO 081158Z AUTO 00000KT 7SM CLR 26/23 A3001 RMK AO2=
KGDB 081153Z AUTO 00000KT 10SM CLR 15/14 A3014 RMK AO2 T01460140
     10148 20131=
KGHW 081154Z AUTO 25005KT 10SM CLR 17/14 A3014 RMK AO2=
KGLW 081153Z AUTO 00000KT 7SM CLR 23/21 A3008 RMK AO2 T02280206
     10228 20196=
KGYL 081155Z AUTO 23003KT 10SM CLR 16/15 A3011 RMK AO2 T01600146
     10178 20142=
KHCD 081152Z AUTO 00000KT 7SM CLR 14/14 A3012 RMK AO2
     T01430135=
KHCO 081154Z AUTO 27003KT 10SM SCT070 15/14 A3006 RMK AO2=
KHFJ 081155Z AUTO 00000KT 7SM SCT014 OVC018 23/22 A3005 RMK
     AO1=
KHZX 081151Z AUTO 00000KT 10SM CLR 16/15 A3007 RMK AO2=
KJKJ 081154Z AUTO 19003KT 10SM CLR 16/14 A3008 RMK AO2=
KJMR 081158Z AUTO 00000KT 10SM CLR 15/13 A3010 RMK AO2=
KLCK 081155Z AUTO 19003KT 4SM BR CLR 24/22 A3008 RMK AO2 T02400220
     10240 20212=
KLJF 081152Z AUTO 24003KT 10SM CLR 18/16 A3012 RMK AO2=
KLNL 081155Z AUTO 34003KT 10SM CLR 17/15 A3007 RMK AO2 70014
     T01710147 10191 20165=
KLRD 081156Z 02009KT 10SM OVC026 27/24 A2990 RMK AO2 53004
     T02660244 10272 20261 SLP113 $=
KLUM 081155Z AUTO 29005KT 10SM CLR 18/17 A3008 RMK AO2=
KLVN 081148Z AUTO 28004KT 10SM CLR 17/17 A3011 RMK AO2=
KLXL 081154Z AUTO 00000KT 4SM BR CLR 14/13 A3009 RMK AO2=
KM89 081156Z AUTO 00000KT 4SM BR OVC002 24/24 A3007 RMK AO2 53008
     70027 T02440238 10244 20238 SLP194=
KMDS 081145Z AUTO 27004KT 10SM CLR 15/15 A3018 RMK AO2=
KMDZ 081155Z AUTO 32006KT 7SM BKN004 19/18 A3005 RMK AO2=
KMGG 081155Z AUTO 27004KT 10SM CLR 18/16 A3012 RMK AO2 T01750155
     10179 20148=
KMJQ 081152Z AUTO 27003KT 7SM CLR 15/15 A3016 RMK AO2=
KMOX 081150Z AUTO 27004KT 10SM CLR 17/15 A3008 RMK AO2=
KMRJ 081155Z AUTO 30003KT 1 1/4SM BR OVC003 22/20 A3006 RMK AO2
     60001 70051 T02160200 10216 20202=
####018000413####
SAPQ50 KWBC 081200 RRB
METAR
PGSN 081154Z 08009KT 10SM FEW020 28/24 A2992 RMK AO2 SLP129 60000
     7//// T02780244 10294 20267 53011=
PGUM 081154Z 11010G16KT 10SM FEW025 SCT045 27/24 A2992 RMK AO2
     RAB21E30 SLP124 60001 70001 8842577 T02720239 10306 20261
     53014=
PTKK 081150Z VRB04KT 15SM FEW014 BKN120 OVC280 26/23 A2985 RMK
     SLP110 60002 70100 8/171 T02600228 10261 20244 52008=
####018000081####
SABZ20 SBEG 081200
METAR SBEG 081200Z 00000KT 9999 FEW015 SCT100 26/22 Q1012=
####018000655####
SAUS80 KWBC 081200 CCA
METAR
KDAB 081153Z 00000KT 10SM FEW020 SCT150 23/21 A3000 RMK AO2 SLP158
     T02330211 10233 20200 51004=
KTUP 081153Z 00000KT 10SM CLR 24/22 A3008 RMK AO2 SLP180 T02440222
     10256 20233 51007=
KBTR 081153Z 08004KT 1 SM BR OVC003 24/23 A3002 RMK AO2 SFC VIS 1
     SLP164 70070 T02390233 10250 20233 53009 RVRNO $=
KMGM 081153Z 26003KT 10SM CLR 26/23 A3003 RMK AO2 SLP166 T02560233
     10272 20233 53006=
KSMP 081156Z AUTO VRB04KT 10SM CLR 16/03 A3015 RMK AO2 SLP178
     T01610033 10183 20156 55003 TSNO $=
KMCN 081153Z 00000KT 10SM CLR 23/21 A3003 RMK AO2 SLP164 T02280206
     10228 20194 53004=
####018000108####
SANK31 MNMG 081200
METAR
MNMG 081200Z 30010KT 5000 +DZ FEW010CB BKN022 24/24 Q1011 A2987
CB/W/NW/NE/S=
####018000446####
SAGR33 LGAT 081150
METAR LGHI 081150Z 35008KT CAVOK 27/19 Q1011=
METAR LGKC 081150Z 06014KT 9999 FEW010 30/20 Q1013=
METAR LGKF 081150Z 31019KT 9999 FEW025 27/14 Q1014=
METAR LGKP 081150Z NIL=
METAR LGKZ 081150Z 32016KT 9999 FEW020 SCT070 22/07 Q1017=
METAR LGMK 081150Z 02021KT 9999 FEW012 24/17 Q1012=
METAR LGNX 081150Z 01015G25KT 9999 FEW020 26/18 Q1012=
METAR LGPA 081150Z NIL=
METAR LGSO 081150Z 36018KT 9999 FEW018 25/18 Q1012=
####018003700####
SAUS70 KWBC 081200
METAR
KGFA 081156Z AUTO 20004KT 10SM CLR 08/06 A3021 RMK AO2 SLP248
     T00830061 10128 20078 55000 $=
KNFE 081156Z AUTO 07004KT 1 1/2SM HZ FEW100 26/22 A2999 RMK AO2
     SLP156 60000 T02610217 10261 20233 51013 $=
K1P1 081155Z AUTO 00000KT 5SM BR CLR 24/23 A3007 RMK AO2
     T02440232=
KBVU 081155Z AUTO 00000KT 10SM CLR 23/05 A2987 RMK AO2=
KE80 081155Z AUTO 24005KT 10SM CLR 18/12 A3025 RMK AO2
     T01800120=
KEDC 081155Z AUTO 05006KT -RA 24/24 A2997 RMK AO2 P0005=
KEIK 081155Z AUTO 30003KT 2SM BR OVC004 13/13 A3032 RMK AO2=
KEOE 081155Z AUTO 00000KT 10SM CLR 23/20 A3006 RMK AO2=
KFMH 081155Z AUTO 14009KT 10SM FEW010 SCT017 23/21 A3011 RMK
     AO2=
KHFF 081155Z AUTO 34003KT 10SM CLR 25/18 A2999 RMK AO2 SLP151
     T02500176 10250 20212 51008 $=
KHOB 081150Z 36005KT 10SM SCT043 BKN060 OVC075 19/18 A3017=
KIFP 081155Z AUTO 02004KT 10SM CLR 28/M02 A2976 RMK AO2=
KMAN 081155Z AUTO 00000KT 10SM CLR 12/06 A3006 RMK AO1=
KPVF 081155Z AUTO 08005KT 10SM FEW042 22/12 A2993 RMK AO1=
KRBW 081155Z AUTO 28004KT 10SM CLR 23/21 A2999 RMK AO2=
KRCM 081155Z AUTO 35003KT 10SM OVC004 22/22 A3007 RMK AO2
     P0001=
KSGJ 081158Z 30005KT 10SM CLR 24/22 A3002 RMK AO2 SLP164 T02390222
     10239 20217 53007=
KTME 081155Z AUTO 03008KT 5SM CLR 25/25 A2994 RMK AO1=
KUOX 081155Z AUTO 00000KT 10SM CLR 23/21 A3009 RMK AO2=
PACM 081156Z AUTO 00000KT 10SM CLR 11/09 A3007 RMK AO2 TSNO 58004
     60037 70045 T01050088 10150 20105 SLP179 $=
PAGM 081157Z AUTO 36005KT 10SM CLR 06/05 A3017 RMK VIA AWOS
     PHONE=
PAGN 081156Z AUTO 00000KT CLR RMK AO2 PWINO TSNO 5//// SLPNO $=
PAHC 081156Z AUTO 21003KT 10SM CLR 09/09 A2998 RMK AO2 TSNO 50005
     60000 T00940088 10144 20094 SLP156 $=
PAIG 081156Z AUTO 00000KT 10SM BKN055 BKN075 BKN100 09/09 A2993
     RMK AO2 PWINO TSNO 58003 70027 T00940088 10100 20088 BKN V
     SCT SLP140 $=
PAMO 081156Z AUTO 02009KT 10SM BKN050 OVC100 12/10 A3004 RMK AO2
     TSNO 58009 60000 70008 T01160100 10122 20094 BKN V SCT SLP171
     $=
PAOH 081156Z AUTO 10003KT 10SM CLR 08/08 A3020 RMK AO2 TSNO 56003
     T00770077 10138 20077 SLP227=
PAPM 081156Z AUTO 00000KT RA CLR 05/04 A2998 RMK AO2 TSNO 58004
     60000 70010 T00500044 10105 20044 P0000 SLP154 $=
PARS 081156Z AUTO 00000KT 10SM BKN100 11/09 A3000 RMK AO2 TSNO
     57001 60000 T01050088 10133 20105 BKN V SCT SLP164 $=
PATQ 081156Z AUTO 25013KT 10SM CLR 08/03 A3003 RMK AO2 TSNO 58001
     T00830033 10111 20083 SLP175 $=
KROG 081157Z 17004KT 10SM OVC022 23/22 A3010 RMK AO2 SLP178 70024
     T02330217 10239 20228 53010=
KROX 081154Z AUTO 23004KT 10SM SCT085 15/13 A3002 RMK AO2=
KRRT 081154Z AUTO 21006KT 10SM CLR 15/13 A3001 RMK AO2=
KRZN 081154Z AUTO 26003KT 10SM CLR 17/16 A3008 RMK AO2 T01700156
     10205 20151=
KSAZ 081154Z AUTO 26004KT 10SM CLR 16/16 A3009 RMK AO2=
KSGS 081153Z AUTO 32004KT 10SM CLR 19/16 A3010 RMK AO2 70002
     T01940162 10215 20179=
KSME 081156Z AUTO 00000KT 2 1/2SM BR 22/20 A3010 RMK AO2=
KTEW 081153Z AUTO 00000KT 7SM CLR 23/21 A3005 RMK AO2=
KTOB 081154Z AUTO 00000KT 10SM CLR 18/16 A3012 RMK AO2=
KTWM 081153Z AUTO 29004KT 10SM CLR 17/13 A3002 RMK AO2=
KULM 081155Z AUTO 27003KT 7SM CLR 15/13 A3013 RMK AO2=
KUNI 081155Z AUTO 00000KT 5SM HZ CLR 23/18 A3009 RMK AO2 T02300177
     10234 20211=
KVES 081154Z AUTO 00000KT 5SM BR CLR 22/20 A3008 RMK AO2
     T02200204=
KVVV 081156Z AUTO 28007KT 10SM CLR 18/14 A3011 RMK AO2=
KY63 081200Z AUTO 00000KT 10SM CLR 15/15 A3011 RMK AO2
     T01540148=
PACM 081156Z AUTO 00000KT 10SM CLR 11/09 A3007 RMK AO2 TSNO 58004
     60037 70045 T01050088 10150 20105 SLP179 $=
####018000081####
SABZ21 SBRF 081200
METAR SBRF 081200Z 22005KT 9999 FEW020 BKN070 26/22 Q1016=
####018000682####
SAUS80 KWBC 081200 RRA
METAR
PHTO 081153Z 24003KT 10SM SCT028 21/18 A3002 RMK AO2 SLP164 60011
     70011 T02060178 10250 20206 58013=
KROA 081154Z 28004KT 6SM HZ CLR 26/19 A3010 RMK AO2 SLP175
     T02610189 10267 20233 53007=
KESN 081150Z 11004KT 1 1/4SM BR OVC003 24/24 A3005=
KMYT 081155Z AUTO 12013KT 10SM SCT019 28/24 A2997 RMK A01=
KSCF 081200Z AUTO 13020KT 7SM 29/25 A2990 RMK A01=
KTKV 081155Z AUTO 00000KT 10SM CLR 18/18 A3005 RMK AO2 70026
     T01840177 10184 20167=
K3A6 081110Z AUTO 36003KT 11/10 A2988 RMK AO1 SLP138 T01120101
     10130 20110 58009=
K4HV 081158Z 00000KT 50SM BKN090 16/M05 RMK NOSPECI T01610056
     10250 20161 52007=
####018003672####
SAXX60 KWBC 081200 RRA
METAR
KNKX 081155Z 32005KT 10SM OVC014 16/14 A2990 RMK AO2 SLP119 70001
     T01560139 10167 20156 55000=
KNYG 081156Z 08004KT 6SM HZ FEW090 BKN200 27/22 A3001 RMK AO2
     SLP163 T02670222 10272 20250 51010=
KNYL 081155Z AUTO 00000KT 10SM CLR 27/00 A2972 RMK AO2 SLP061
     T02670000 10300 20261 53004=
KOZR 081155Z 00000KT 1SM R06/1400V2000FT BR FEW002 22/22 A3004 RMK
     AO2A SLP169 T02250225 10235 20212 53006=
KPOE 081155Z 08005KT 10SM FEW015 24/23 A3003 RMK AO2 SLP169 70021
     T02390228 10250 20239 $=
KSZL 081155Z 00000KT 4SM OVC003 23/22 A3006 RMK AO2A SLP173 60013
     7//// T02270222 10235 20223 53007 $=
KVPS 081155Z 33001KT 10SM BR FEW010 24/23 A3004 RMK AO2A VIS NE 2
     SLP172 T02420233 10251 20231 53007=
PMDY 081156Z AUTO 00000KT 10SM CLR 24/19 A3009 RMK AO2 TSNO 58007
     T02440194 10277 20244 SLP498=
PWAK 081156Z 07013KT 8SM SKC 27/27 A2999 RMK AO2A=
PGUA 081155Z AUTO 12012G18KT 10SM FEW019 SCT031 SCT045 26/ A2992
     RMK AO2 PK WND 09026/1115 RAB1118E1128 SLP114 P0003 60003
     T0263 10288 20257 53013 VISNO RWY24L $=
PHHI 081155Z AUTO 28004KT 10SM CLR 18/16 A3004 RMK AO2 SLP161
     60001 70005 T01790162 10223 20179 58010=
PHNL 081153Z 06005KT 10SM FEW030 24/18 A3001 RMK AO2 SLP163 60000
     70003 T02390178 10250 20239 58012=
PWAK 081156Z 07013KT 8SM SKC 27/27 A2999 RMK AO2A=
KGTB 081155Z AUTO 22003KT 10SM CLR 27/21 A3004 RMK AO2 SLP171
     T02660213 10266 20214 51005=
KNRB 081152Z 26004KT 10SM CLR 24/22 A3001 RMK AO2 SLP162 T02440217
     10244 20222 53009=
KOZR 081155Z 00000KT 1SM R06/1400V2000FT BR FEW002 22/22 A3004 RMK
     AO2A SLP169 T02250225 10235 20212 53006=
KPSM 081155Z 14007KT 10SM FEW080 BKN200 23/20 A3008 RMK AO2A
     SLP187 T02310203 10231 20210 51008=
KRIV 081155Z 30003KT 2 1/2SM BR OVC003 13/12 A2990 RMK AO2A SLP122
     T01310125 10148 20111 55004=
KSKA 081155Z AUTO 06005KT 10SM CLR 14/08 A3007 RMK AO2 SLP171
     T01400082 10201 20140 53001=
KSLI 081155Z AUTO 22005KT 10SM OVC015 17/14 A2990 RMK AO2 SLP126
     T01670139 10167 20147 55004=
KSZL 081155Z 00000KT 4SM OVC003 23/22 A3006 RMK AO2A SLP173 60013
     7//// T02270222 10235 20223 53007 $=
KTBN 081155Z 00000KT 9SM BKN060 BKN070 OVC085 23/21 A3008 RMK AO2A
     LTG DSNT N SLP168 70005 T02280211 10231 20219 53006 $=
KTIK 081155Z AUTO 01005KT 10SM SCT007 OVC013 23/22 A3006 RMK AO2
     SCT V BKN SLP168 T02310224 10238 20231 53009 $=
KVOK 081155Z 29004KT 10SM BKN010 20/20 A3004 RMK AO2A SLP168 70020
     52012=
KVPS 081155Z 33001KT 10SM BR FEW010 24/23 A3004 RMK AO2A VIS NE 2
     SLP172 T02420233 10251 20231 53007=
KWRB 081155Z 36002KT 10SM CLR 23/21 A3003 RMK AO2A RAEMM SLP165
     T02300213 10230 20202 53003=
KNLC 081156Z AUTO 30005KT 10SM CLR 16/10 A2983 RMK AO2 SLP098
     T01610100 10239 20161 53002 TSNO $=
KNRS 081156Z AUTO 30006KT 10SM OVC016 17/14 A2990 RMK AO2 SLP124
     T01720139 10172 20161 55001 TSNO $=
PWAK 081156Z 07013KT 8SM SKC 27/27 A2999 RMK AO2A=
KWRB 081155Z 36002KT 10SM CLR 23/21 A3003 RMK AO2A RAEMM SLP165
     T02300213 10230 20202 53003=
PGUA 081155Z AUTO 12012G18KT 10SM FEW019 SCT031 SCT045 26/ A2992
     RMK AO2 PK WND 09026/1115 RAB1118E1128 SLP114 P0003 60003
     T0263 10288 20257 53013 VISNO RWY24L $=
KGBK 081155Z AUTO 09012G18KT 10SM FEW019 FEW025 FEW033 29/25 A2991
     RMK A01=
KGTB 081155Z AUTO 22003KT 10SM CLR 27/21 A3004 RMK AO2 SLP171
     T02660213 10266 20214 51005=
KMHR 081155Z AUTO 17005KT 10SM CLR 12/10 A2985 RMK AO1=
KNRB 081152Z 26004KT 10SM CLR 24/22 A3001 RMK AO2 SLP162 T02440217
     10244 20222 53009=
####018000139####
SAXX60 KWBC 081200 CCA
METAR
KLOR 081153Z AUTO 00000KT 7SM CLR 22/20 A3003 RMK AO2 SLP166
     T02170200 10222 20206 53007 TSNO $=
####018000116####
SAUS70 KWBC 081300
METAR
KBBF 081255Z AUTO 13016G24KT 5SM HZ FEW026 SCT035 BKN046 28/26
     A2982 RMK A01=
####018000207####
SAAW34 KWBC 081145 RRB
METAR
OAKN 081150Z 27008KT 9999 FEW150 41/02 Q1006 BLU NOSIG RMK A2973
     DA7200=
OPKC 081200Z 17012KTS 8000 SCT030 SCT100 34/24 Q1002 TEMPO NE
     30KTS TSRA FEW025CB=
####018000069####
SABZ24 SBFL 081200
METAR SBFL 081200Z 17007KT CAVOK 21/16 Q1018=
####018000072####
SABZ18 SBKP 081200
METAR SBKP 081200Z 09003KT 8000 NSC 17/10 Q1022=
####018000458####
SAGR32 LGAT 081150
METAR LGAL 081150Z NIL=
METAR LGEL 081150Z 35014G24KT CAVOK 29/12 Q1011=
METAR LGKV 081150Z 07018KT 9999 TS SCT020CB SCT025TCU BKN080 21/16
      Q1014=
METAR LGMT 081150Z 36015KT 9999 FEW025 27/19 Q1011=
METAR LGPZ 081150Z 25011KT 9999 FEW025 27/19 Q1013 NOSIG=
METAR LGRX 081150Z 28011KT 9999 FEW025 28/14 Q1012 NOSIG=
METAR LGSK 081150Z NIL=
METAR LGSR 081150Z 01014KT 9999 FEW025 27/18 Q1011 NOSIG=
METAR LGZA 081150Z NIL=
####018000089####
SABZ24 SBPA 081200
METAR SBPA 081200Z 20004KT 4000 -RA BR BKN010 OVC020 15/13 Q1020=
####018000089####
SADL31 KWBC 081150 RRA
METAR
EDHL 081150Z 21008KT 160V240 CAVOK 29/12 Q1019 RMK P=
####018000222####
SADL32 KWBC 081150 RRA
METAR
EDLN 081150Z VRB05KT CAVOK 30/10 Q1019 RMK ATIS O=
EDLP 081150Z 19005KT 160V240 CAVOK 29/10 Q1020 RMK RWY24 TRL60 RU
     ATIS T=
EDLW 081150Z 22011KT CAVOK 30/09 Q1020 RMK ATIS R=
####018000144####
SADL33 KWBC 081145 RRC
METAR
EDNY 081150Z 19005KT CAVOK 27/11 Q1022 RMK ATIS Q=
EDXW 081150Z 23011KT CAVOK 21/14 Q1019 RMK ATIS INFO W=
####018000067####
SAAG SANT 081200
METAR SANT 081200Z  27004KT 7000  07/06 Q1018=
####018000154####
SAMH31 PKMR 081200
METAR PKMR 081155Z 07014KT 15SM FEW015 SCT045 BKN120 OVC300 28/24
A2982 RMK SLP100 60027 70059 8/878 T02770238 10277 20266 50002
####018000078####
SAGR31 LGAT 081150 RRA
METAR LGAD 081150Z 30014KT 9999 FEW020 27/15 Q1014=
####018000096####
SAUZ31 UTTT 081200
METAR UTTT 081200Z 11002MPS 050V160 CAVOK 39/05 Q1009
R08R/CLRD70 NOSIG=
####018000091####
SAGR31 KWBC 081150 RRA
METAR
LGSR 081150Z 01014KT 9999 FEW025 27/18 Q1011 NOSIG BLU=
####018000149####
SAGR41 KWBC 081150 RRA
METAR
LGPZ 081150Z 25011KT 9999 FEW025 27/19 Q1013 NOSIG BLU=
LGRX 081150Z 28011KT 9999 FEW025 28/14 Q1012 NOSIG BLU=
####018000485####
SAMX31 KWBC 081145 RRC
METAR
MMAA 081149Z 00000KT 8SM SCT015 BKN090 OVC300 26/23 A2978 RMK
     SLP081 57006 909 8/367 OCNL DROPS=
MMMX 081145Z 14004KT 2 1/2SM -RA FEW008 OVC020 15/14 A3018 NOSIG
     RMK SLP052 57006 952 60075 8/4// VSBY TWR=
MMTM 081142Z 24010KT 6SM SCT010 BKN020 OVC200 25/24 A2979 RMK
     SLP066 57027 980 8/807 BINOVC/VC TCU=
MMVR 081145Z 00000KT 7SM SCT010 BKN020 OVC070 25/25 A2981 RMK
     SLP073 57006 904 60045 8/77/ INTMT -RA ISOL CBS=
####018000714####
SAMX41 KWBC 081145 RRD
METAR
MMAS 081145Z 00000KT 8SM SCT020 BKN070 OVC200 17/14 A3008 RMK
     SLP047 8/537 HZ=
MMBT 081145Z 00000KT 6SM OVC040 23/22 A2988 RMK SLP096 5//// 910
     8/7// BINOVC VRB COND=
MMCL 081141Z 00000KT 8SM SCT015 OVC080 26/24 A2978 RMK 8/67/
     HZY=
MMDO 081140Z 03006KT 8SM SCT015 OVC020 17/16 A3012 RMK SLP071
     5//// 914 8/8// BINOVC=
MMHO 081148Z 00000KT 10SM BKN080 27/18 A2980 RMK SLP079 54000 912
     8/050 HZY=
MMLP 081156Z 18006KT 10SM SKC 18/14 A2978 RMK SLP102 5//// 957
     ISOL SC HZY RTS=
MMML 081153Z 15010KT 10SM SKC 22/// A2968 METAR MMMZ 081141Z
     01004KT 10SM SCT070 OVC200 26/22 A2975 RMK SLP074 57003 967
     8/077 ISOL S=
####018000243####
SAMX42 KWBC 081145 RRC
METAR
MMTJ 081142Z 00000KT 5SM OVC013 16/14 A2993 RMK SLP134 56007 910
     8/5// HZY=
MMTO 081145Z 29003KT 2SM BR HZ SCT010 OVC070 13/11 A3024 RMK
     SLP050 57003 957 8/47/ OCNL DROPS=
MMZH 081145Z NIL=
####018000377####
SANL31 KWBC 081150 RRB
METAR
EHAM 081155Z 29006KT 210V350 CAVOK 24/15 Q1019 NOSIG=
EHBK 081155Z AUTO 27006KT 220V330 9999NDV NCD 30/11 Q1019
     NOSIG=
EHGG 081155Z AUTO 25010KT 210V280 9999NDV NSC 27/13 Q1018
     NOSIG=
EHKD 081155Z AUTO 22009KT 9999NDV BKN069/// BKN130/// 22/16 Q1019
     BLU BLU=
EHRD 081155Z 28006KT 230V360 CAVOK 25/16 Q1019 NOSIG=
####018000089####
SAUK31 KWBC 081150 RRA
METAR
EGKB 081150Z 21007KT 170V250 9999 BKN030 23/14 Q1019=
####018000087####
SAUK32 KWBC 081150 RRB
METAR
EGNS 081150Z 20009KT 9999 FEW025 17/11 Q1016 NOSIG=
####018000423####
SAXX99 KWBC 081100 RRX
METAR
K8S0 081055Z 26007KT=
MMCB 081144Z NIL=
MMIT 081145Z NIL=
MMLM 081145Z 00000KT 10SM SKC 25/20 A//// RMK SLP/// 5//// 9//=
MMOX 081148Z 00000KT 4SM RA SCT006 SCT015 OVC080 16/14 A3008 RMK
     SLP081 5//// 906 61138 8/72/ LWR VIS/ST S=
MMPB 081145Z 00000KT 2SM -RA VV004 14/14 A3022 RMK 6//// 8////
     RAE11B-RA=
MMPS 081145Z NIL=
MMQT 081145Z NIL=
MMTB 081145Z NIL=
####018000153####
SAHW31 KMSC 081159
METAR PHNY 081156Z AUTO 00000KT 10SM -RA BKN035 19/17 A3006 RMK AO2 
    TSNO 58007 T01940172 10222 20183 RAB56 P0000 SLP161 $=
####018000432####
SAUK37 EGGY 081150
METAR EGAE 081150Z NIL=
METAR EGNC 081150Z 24014KT 210V290 9999 FEW020 BKN025 17/09 Q1015=
METAR EGNH 081150Z 24011KT 9999 FEW024 19/11 Q1017=
METAR EGNJ 081150Z 22013KT 9999 SCT033 21/10 Q1017=
METAR EGNR 081150Z 24014KT 9999 SCT030 22/09 Q1017=
METAR EGPE 081150Z 22021KT 9999 -SHRA FEW012 SCT036 16/10 Q1010=
METAR EGPI 081150Z NIL=
METAR EGPN 081150Z 24017KT 9999 FEW032 SCT045 17/12 Q1012=
####018000083####
SAUK39 EGRR 081150 CCA
METAR EGYM 081150Z 24010KT CAVOK 22/11 Q1018 BLU NOSIG=
####018000100####
SPAU31 AMMC 081200
SPECI YPPD 081200Z AUTO 01007KT 5000NDV // SCT008 BKN021 OVC027 21/21 Q1010=
####018000349####
SAPK31 OPKC 081200
METAR OPGD 081200Z NIL=
METAR OPKC 081200Z 17012KTS 8000 SCT030 SCT100 34/24 Q1002 TEMPO
NE 30KTS TSRA FEW025CB=
METAR OPLA 081155Z 10006KT 6000 SCT040 37/23 Q1003 NOSIG=
METAR OPNH 081200Z NIL=
METAR OPPS 081200Z NIL=
METAR OPRN 081200Z NIL=
METAR OPSK 081200Z 13015KTS 1700 DRQ SCT040 BKN100 34/24 10001 RH56=
####018000426####
SAUK38 EGGY 081150
METAR EGEC 081150Z 21014KT 9999 FEW020 SCT030 16/09 Q1013=
METAR EGPA 081150Z 21014KT 9999 VCSH FEW020TCU SCT048 15/12
    Q1007=
METAR EGPC 081150Z 20015G25KT 9999 FEW020 15/11 Q1008=
METAR EGPL 081150Z 21022KT 9999 VCSH FEW018 16/12 Q1008=
METAR COR EGPM 081150Z 21024KT 9999 SCT028 17/10 Q1006 NOSIG=
METAR EGPO 081150Z 23025KT 9999 FEW020CB SCT030 18/11 Q1006=
METAR EGPU 081150Z NIL=
####018000091####
SAAJ31 UBBB 081200
METAR UBBB 081200Z 35018KT CAVOK 32/25 Q1010 NOSIG RMK
R88CLRD70=
####018000089####
SALI20 GLRB 081200
METAR GLRB 081200Z 19006KT 9999 BKN018 FEW026CB 30/25 Q1014 CB-S=
####018000455####
SAGR33 LGAT 081150
METAR LGHI 081150Z 35008KT CAVOK 27/19 Q1011=
METAR LGKC 081150Z 06014KT 9999 FEW010 30/20 Q1013=
METAR LGKF 081150Z 31019KT 9999 FEW025 27/14 Q1014=
METAR LGKP 081150Z NIL=
METAR LGKZ 081150Z 32016KT 9999 FEW020 SCT070 22/07 Q1017=
METAR LGMK 081150Z 02021KT 9999 FEW012 24/17 Q1012=
METAR LGNX 081150Z 01015G25KT 9999 FEW020 26/18 Q1012=
METAR LGPA 081150Z NIL=
METAR LGSO 081150Z 36018KT 9999 FEW018 25/18 Q1012=
####018000492####
SAUK36 EGGY 081150
METAR EGBE 081150Z NIL=
METAR EGBJ 081150Z 25003KT 9999 FEW035 22/08 Q1018=
METAR EGCN 081150Z 23014KT 9999 FEW041 22/09 Q1017=
METAR EGDL 081150Z 23009KT 9999 FEW030 BKN250 21/10 Q1018 NOSIG=
METAR EGSC 081150Z 24008KT 190V270 9999 SCT028 22/13 Q1018=
METAR COR EGSD 081150Z 23006KT 9999 SCT015 BKN030 22/18 Q1018 NOSIG=
METAR COR EGSH 081150Z 25009KT 220V280 9999 SCT018 SCT030 22/15
    Q1018 NOSIG=
METAR EGVN 081150Z NIL=
METAR EGWU 081150Z NIL=
####018000592####
SAGR31 LGAT 081150
METAR LGAD 081150Z NIL=
METAR LGAV 081150Z 04019KT 9999 SCT030 26/12 Q1013 NOSIG=
METAR LGIR 081150Z 35009KT 9999 FEW020 29/23 Q1011 NOSIG=
METAR LGKL 081150Z 31012G25KT 9999 FEW030 33/12 Q1011=
METAR LGKO 081150Z 31018KT 270V340 CAVOK 29/18 Q1009=
METAR LGKR 081150Z NIL=
METAR LGLM 081150Z 04011KT 9999 FEW008 BKN020 21/16 Q1013=
METAR LGRP 081150Z 25014KT CAVOK 29/19 Q1008 NOSIG=
METAR LGSA 081150Z 31014KT 9999 FEW020 33/14 Q1012=
METAR LGSM 081150Z 36011KT 9999 FEW030 31/16 Q1010=
METAR LGTS 081150Z 34019G29KT 9999 FEW025 24/11 Q1016 NOSIG=
####018000716####
SANL33 EHDB 081155
METAR EHAK 081155Z AUTO 21009KT 9999NDV 17/12 Q1016=
METAR EHDV 081155Z NIL=
METAR EHFD 081155Z AUTO 22012KT 9999NDV FEW022/// BKN026/// OVC031///
17/16 Q1018=
METAR EHFZ 081155Z AUTO 23010KT 9999NDV SCT019/// BKN023/// BKN028///
17/15 Q1018=
METAR EHJA 081155Z AUTO 24011KT 9999NDV 16/14 Q1018=
METAR EHJR 081155Z NIL=
METAR EHKV 081155Z AUTO 24009KT 9999NDV BKN018/// OVC021/// 16/15
Q1018=
METAR EHMA 081155Z AUTO 25011KT 9999NDV 21/17 Q1019=
METAR EHMG 081155Z AUTO 23013KT 9999NDV 17/15 Q1018=
METAR EHPG 081155Z AUTO 22010KT 9999NDV ///////// 16/15 Q1019=
METAR EHQE 081155Z AUTO 23011KT 9999NDV 16/15 Q1019=
METAR EHSA 081155Z NIL=
METAR EHSC 081155Z NIL=
####018000106####
SPAU31 AMMC 081200
SPECI YPPD 081200Z AUTO 01007KT 5000NDV // SCT008 BKN021 OVC027 21/21 Q1010=


####018000468####
SAGR32 LGAT 081150
METAR LGAL 081150Z NIL=
METAR LGEL 081150Z 35014G24KT CAVOK 29/12 Q1011=
METAR LGKV 081150Z 07018KT 9999 TS SCT020CB SCT025TCU BKN080 21/16
      Q1014=
METAR LGMT 081150Z 36015KT 9999 FEW025 27/19 Q1011=
METAR LGPZ 081150Z 25011KT 9999 FEW025 27/19 Q1013 NOSIG=
METAR LGRX 081150Z 28011KT 9999 FEW025 28/14 Q1012 NOSIG=
METAR LGSK 081150Z NIL=
METAR LGSR 081150Z 01014KT 9999 FEW025 27/18 Q1011 NOSIG=
METAR LGZA 081150Z NIL=
####018000109####
SABE31 TXKF 081154
METAR TXKF 081155Z 15013KT 9999 SCT015CB SCT180 BKN300
27/23 Q1019 RMK CB DSNT S
####018000107####
SATU33 LTAA 081150
METAR LCEN 081150Z 14015KT 9999 SCT025 33/18 Q1007 NOSIG=
METAR LCGK 081150Z NIL=
####018000277####
SASQ51 LZIB 081200
METAR LZKC 081200Z 35008KT 300V020 9999 FEW046 23/11
Q1020=
METAR LZLU 081200Z 22003KT 100V290 9999 FEW055 25/11
Q1021=
METAR LZNI 081200Z 30013KT 260V350 9999 FEW066 25/07
Q1021=
METAR LZPE 081200Z 31005KT 170V030 9999 FEW056 25/10
Q1021=
####018000087####
SANO36 ENMI 081150 RRA
METAR ENBS 081150Z 21006KT 160V240 9999 FEW027 15/08 Q1016=
####018000152####
SAUS45 KGJT 081200 COR
MTRRIL
METAR KRIL 081153Z AUTO 00000KT 10SM CLR 12/08 A3027 RMK AO2 SLP184 
60000 70003 T01170078 10172 20111 53007 TSNO
####018002971####
SAUS20 KNKA 081200
METAR KRIC 081154Z 12005KT 4SM HZ FEW150 SCT250 27/22 A2999 RMK
     AO2 SLP159 T02720222 10272 20239 51005=
METAR K4I3 081156Z AUTO 00000KT 7SM CLR 22/20 A3010 RMK AO2=
METAR KACB 081155Z AUTO 00000KT 5SM -RA SCT016 BKN070 OVC090 23/22
     A3000 RMK AO2=
METAR KACQ 081159Z AUTO 30005KT 10SM CLR 17/16 A3014 RMK AO2=
METAR KADC 081157Z AUTO 25004KT 10SM CLR 14/13 A3010 RMK AO2=
METAR KADM 081155Z 00000KT 5SM BR SCT095 SCT120 24/24 A3002=
METAR KAMN 081155Z AUTO 24003KT 4SM BR BKN110 23/22 A3002 RMK
     AO2=
METAR KAQP 081153Z AUTO 24003KT 10SM CLR 14/14 A3011 RMK AO2=
METAR KAUM 081155Z AUTO 32004KT 10SM CLR 18/17 A3010 RMK AO2=
METAR KAWG 081155Z AUTO 32004KT 7SM CLR 21/19 A3006 RMK AO2=
METAR KAXA 081155Z AUTO 33004KT 10SM CLR 17/16 A3014 RMK AO2=
METAR KBAX 081155Z AUTO 24005KT 7SM CLR 25/23 A3001 RMK AO2=
METAR KBDH 081155Z AUTO 25003KT 7SM CLR 16/15 A3014 RMK AO2=
SPECI KBDR 081159Z 12005KT 5SM HZ SCT006 BKN050 26/23 A3006 RMK AO2=
METAR KBFW 081153Z AUTO 28003KT 10SM CLR 19/14 A3001 RMK AO2=
METAR KBNW 081155Z AUTO 33010KT 10SM CLR 20/17 A3012 RMK AO2=
METAR KBTR 081153Z 08004KT 1 SM BR OVC003 24/23 A3002 RMK AO2 SFC
     VIS 1 SLP164 70070 T02390233 10250 20233 53009 RVRNO $=
METAR KCAD 081154Z AUTO 23006KT 5SM -RA SCT070 OVC090 22/21 A3003
     RMK AO2=
METAR KCAE 081156Z 27003KT 10SM CLR 26/20 A2999 RMK AO2 SLP151
     T02610200 10267 20228 53004=
METAR KCAV 081155Z AUTO 33005KT 7SM CLR 19/17 A3012 RMK AO2=
METAR KCBF 081155Z AUTO 34003KT 10SM CLR 20/16 A3015 RMK AO2=
METAR KCBG 081155Z AUTO 00000KT 10SM CLR 17/14 A3009 RMK AO2=
METAR KCCY 081155Z AUTO 34006KT 10SM CLR 20/17 A3010 RMK AO2=
METAR KCDA 081155Z AUTO 00000KT 5SM HZ SCT060 23/19 A3011 RMK
     AO2=
METAR KCDD 081151Z AUTO 20004KT 10SM CLR 18/17 A3003 RMK AO2=
METAR KCFE 081155Z AUTO 27003KT 10SM CLR 18/16 A3012 RMK AO2
     T01820160 10195 20171=
METAR KCFS 081155Z AUTO 25004KT 7SM CLR 25/22 A3002 RMK AO2=
METAR KCIN 081155Z AUTO 33004KT 7SM CLR 18/15 A3015 RMK AO2=
METAR KCKC 081155Z AUTO 28006KT 10SM CLR 17/13 A3004 RMK AO2=
METAR KCKN 081155Z AUTO 00000KT 10SM CLR 14/13 A3006 RMK AO2=
METAR KCNB 081158Z AUTO 25007KT 10SM CLR 18/14 A3014 RMK AO2
     T01750135 10175 20150=
METAR KCNC 081155Z AUTO 36007KT 10SM CLR 21/18 A3009 RMK AO2=
SPECI KCNM 081159Z AUTO 33007KT 10SM -RA FEW007 BKN017 OVC110 19/19 
    A3015 RMK AO2 P0000 $=
METAR KCOQ 081156Z AUTO 27005KT 10SM CLR 16/16 A3006 RMK AO2=
METAR KCQM 081157Z AUTO 24003KT 10SM CLR 16/14 A3003 RMK AO2=
METAR KCSQ 081155Z AUTO 02009KT 10SM CLR 20/19 A3012 RMK AO2=
METAR KCVX 081155Z AUTO 24006KT 7SM RA SCT013 BKN019 OVC026 21/20
     A3002 RMK AO2=
METAR KDAB 081153Z 00000KT 10SM FEW020 SCT150 23/21 A3000 RMK AO2
     SLP158 T02330211 10233 20200 51004=
METAR KDEH 081155Z AUTO 33006KT 10SM CLR 21/18 A3010 RMK AO2=
METAR KDNS 081155Z AUTO 00000KT 10SM CLR 19/16 A3018 RMK AO2=
####018000060####
SAUS45 KTFX 081200
MTR8S0
METAR K8S0 081055Z 26007KT 
####018000093####
SANO37 ENMI 081150 RRA
METAR ENNO 081150Z 12013KT 9999 FEW020 SCT025 BKN060 19/15 Q1014=
####018000093####
SANG31 AMMC 081100 RRB
METAR AYMO 081100Z AUTO 00000KT //// // ////// 27/24 Q1010=


####018000135####
SAUS41 KLWX 081200
MTRRYT
METAR KRYT 081153Z AUTO 00000KT 6SM HZ CLR 25/18 A3005 RMK AO2 
SLP156 T02500183 10261 20222 51006 $
####018000075####
SAMA20 FIMP 081200
METAR FIMP 081200Z 14016KT 9999 SCT016 23/17 Q1021=
####018000101####
SAAJ31 UBBB 081200
UBBN 081200Z 13010KT 9999 NSC 39/08 Q1008 R14R/CLRD60 NOSIG
RMK G/O QFE681=
####018000087####
SAUZ31 UTTW 081130
METAR UTNU 081130Z 34003MPS CAVOK 41/16 Q1007 R13/CLRD60 NOSIG=
####018000098####
SAUZ31 UTTT 081200
METAR UTTT 081200Z 11002MPS 050V160 CAVOK 39/05 Q1009
R08R/CLRD70 NOSIG=
####018000890####
SAAK41 KNKA 081200
METAR PADM 081201Z AUTO 07006KT 10SM FEW080 OVC100 09/08 A3005 RMK 
    AO2 TSNO 56008 60000 70003 T00940083 10122 20094 SLP162 $=
METAR PADU 081158Z AUTO 12016G23KT 10SM OVC022 09/04 A2980 RMK AO2 
    PK WND 13026/1139 SLP096 60001 70001 T00890044 10094 20083 58016=
METAR PAGA 081158Z AUTO 00000KT 10SM CLR 11/08 A3006 RMK AO2 SLP226 
    T01110078 10217 20111 50000=
METAR PAJZ 081156Z AUTO 33004KT 10SM FEW080 09/09 A3000 RMK AO2 
    PWINO TSNO 58005 70010 T00940088 10116 20094 SLP147 $=
METAR PAKI 081156Z AUTO 36005KT 1SM BR CLR 07/07 A3001 RMK AO2 PWINO 
    TSNO 58004 T00660066 10122 20066 SLP163 $=
METAR PALG 081156Z AUTO 00000KT 10SM FEW060 10/09 A3000 RMK AO2 TSNO 
    58001 70014 T01000094 10133 20088 SLP162=
METAR PARY 081156Z AUTO 35005KT 10SM CLR 15/06 A3006 RMK AO2 PWINO 
    TSNO 58001 T01500055 10200 20150 SLP180=
####018002946####
SAUS20 KNKA 081200
METAR KDRM 081156Z AUTO 21003KT 2 1/2SM -RA SCT002 SCT016 OVC110
     20/20 A2997 RMK AO2=
METAR KDTL 081155Z AUTO 22003KT 10SM CLR 16/11 A3011 RMK AO2=
METAR KDUH 081155Z AUTO 00000KT 10SM CLR 25/20 A3005 RMK AO2=
METAR KDVP 081156Z AUTO 00000KT 10SM CLR 16/13 A3018 RMK AO2
     T01600132 10160 20142=
METAR KEOK 081155Z AUTO 32003KT 10SM SCT003 22/19 A3005 RMK AO2=
METAR KERY 081155Z AUTO 31004KT 7SM -RA OVC003 18/18 A3000 RMK
     AO2=
METAR KETH 081154Z AUTO 24006KT 10SM CLR 18/16 A3011 RMK AO2=
METAR KEVB 081155Z 00000KT 10SM SKC 24/22 A3001 =
METAR KFAF 081155Z 09005KT 10SM BKN012 BKN018 27/27 A2999 RMK AO2A
      CIG 011V016 SLP157 60000 T02690269 10269 20249 53012=
METAR KFFL 081155Z AUTO 33006KT 7SM CLR 22/20 A3007 RMK AO2=
METAR KFFX 081155Z AUTO 17003KT 1 3/4SM BR BKN004 BKN021 OVC060
     22/22 A3002 RMK AO2=
METAR KFKA 081203Z AUTO 33008KT 10SM CLR 19/17 A3010 RMK AO2
     T01850174=
METAR KFKS 081155Z AUTO 22007KT 4SM DZ BKN004 OVC007 21/20 A3001
     RMK AO2=
METAR KFOZ 081153Z AUTO 24003KT 10SM CLR 15/14 A3005 RMK AO2=
METAR KFPK 081156Z AUTO 00000KT 5SM BR CLR 23/21 A3003 RMK AO2=
METAR KFSD 081156Z 00000KT 10SM CLR 17/14 A3017 RMK AO2 SLP212 SCT
     ABV 120 T01670144 10172 20150 53006 $=
METAR KFSE 081154Z AUTO 20004KT 10SM CLR 13/12 A3006 RMK AO2=
METAR KFSW 081155Z AUTO 31006KT 3SM OVC002 22/21 A3005 RMK AO2=
METAR KFXY 081155Z AUTO 32003KT 10SM CLR 17/16 A3013 RMK AO2=
METAR KGGI 081155Z AUTO 33003KT 10SM CLR 21/20 A3009 RMK AO2=
METAR KGOV 081155Z AUTO 24003KT 7SM DZ SCT055 BKN070 OVC080 22/22
     A3003 RMK AO2=
METAR KHAF 081150Z AUTO 00000KT 10SM OVC006 12/10 A2993 RMK
     AO2=
METAR KHAI 081155Z AUTO 00000KT 5SM BR CLR 23/22 A3005 RMK AO2=
METAR KHNR 081155Z AUTO 00000KT 7SM CLR 17/17 A3018 RMK AO2=
METAR KHRT 081155Z 00000KT 10SM CLR 25/25 A3002 RMK AO2A SLP169 T02460246
      10248 20229 53006 $=
METAR KHYX 081155Z AUTO 00000KT 10SM SCT085 BKN120 23/21 A3000 RMK
     AO2=
METAR KICL 081155Z AUTO 02005KT 7SM CLR 21/18 A3012 RMK AO2=
METAR KIFA 081155Z AUTO 33005KT 10SM SCT110 20/18 A3012 RMK AO2=
METAR KIIB 081155Z AUTO 32005KT 5SM CLR 20/19 A3008 RMK AO1 P0001=
METAR KIKV 081155Z AUTO 35006KT 10SM CLR 21/18 A3010 RMK AO2=
METAR KIRS 081155Z AUTO 00000KT 4SM BR CLR 23/21 A3004 RMK AO2=
METAR KISQ 081156Z AUTO 34004KT 2SM BR OVC002 19/18 A2999 RMK
     AO2=
METAR KJYG 081155Z AUTO 00000KT 10SM CLR 17/17 A3015 RMK AO2=
METAR KJYM 081155Z AUTO 00000KT 7SM CLR 23/21 A3007 RMK AO2=
METAR KLDM 081155Z AUTO 22004KT 5SM -RA BKN007 BKN023 OVC033 21/20
     A3002 RMK AO2 P0007=
METAR KLFI 081155Z 09007KT 10SM FEW011 OVC090 26/22 A3000 RMK AO2A
      SLP159 T02580219 10259 20254 53014 $=
METAR KLRJ 081155Z AUTO 00000KT 7SM CLR 16/15 A3017 RMK AO2=
METAR KLUF 081155Z 00000KT 10SM SCT170 27/05 A2978 RMK AO2A SLP053
      T02660053 10331 20253 53008 $=
####018002748####
SAUS20 KNKA 081200
METAR KLWA 081156Z AUTO 00000KT 10SM SCT044 OVC095 23/21 A3003 RMK
     AO2=
METAR KMCD 081156Z AUTO 25003KT 4SM HZ OVC005 21/18 A2999 RMK
     AO2=
METAR KMGN 081154Z AUTO 26003KT 5SM DZ BKN012 OVC110 22/20 A2999
     RMK AO2=
METAR KMOP 081154Z AUTO 26004KT 10SM OVC095 23/23 A3002 RMK
     AO2=
METAR KMPZ 081155Z AUTO 33005KT 5SM OVC004 22/21 A3006 RMK AO2=
METAR KMUT 081155Z AUTO 34005KT 5SM OVC008 23/21 A3005 RMK AO2=
METAR KMXO 081155Z AUTO 00000KT 5SM OVC017 21/19 A3006 RMK AO2=
METAR KMZH 081151Z AUTO 00000KT 10SM CLR 15/14 A3005 RMK AO2=
METAR KNBG 081155Z 06004KT 7SM SCT010 BKN250 26/23 A3002 RMK AO2 SLP166
      T02620233 50008 $=
METAR KNTU 081156Z 08006KT 10SM CLR 26/23 A2998 RMK AO2 SLP153
     60000 T02560233 10261 20250 53010 CHINO RWY 05R $=
METAR KNTU 081156Z COR 08006KT 10SM FEW015 SCT050 BKN100 26/23
     A2998 RMK AO2 SLP153 T02560233 10261 20250 53010 CHINO RWY
     05R $=
METAR KOEB 081155Z AUTO 00000KT 5SM HZ CLR 24/21 A3006 RMK AO2=
METAR KONZ 081157Z AUTO 00000KT 10SM CLR 26/21 A3003 RMK AO2=
METAR KORB 081154Z AUTO 00000KT 10SM CLR 15/13 A3000 RMK AO2=
METAR KORC 081155Z AUTO 31004KT 7SM CLR 17/17 A3017 RMK AO2=
METAR KOSC 081154Z AUTO 22004KT 5SM -RA SCT013 SCT017 SCT110 22/21
     A3000 RMK AO2=
METAR KOWA 081153Z AUTO 31003KT 10SM CLR 17/16 A3011 RMK AO2=
METAR KOXV 081155Z AUTO 34005KT 10SM CLR 21/20 A3010 RMK AO2=
METAR KOZW 081155Z AUTO 00000KT 7SM CLR 25/21 A3005 RMK AO2=
METAR KPEA 081155Z AUTO 34005KT 10SM CLR 21/21 A3009 RMK AO2=
METAR KPHN 081155Z AUTO 19003KT 7SM CLR 24/21 A3003 RMK AO2=
METAR KPZQ 081155Z AUTO 25003KT 10SM -RA OVC100 23/21 A2999 RMK
     AO2=
METAR KRDK 081155Z AUTO 00000KT 10SM CLR 21/18 A3012 RMK AO2=
METAR KRGK 081156Z AUTO 27003KT 10SM CLR 19/17 A3009 RMK AO2=
METAR KRMY 081155Z AUTO 00000KT 7SM CLR 23/21 A3005 RMK AO2=
METAR KRNP 081155Z AUTO 00000KT 10SM CLR 25/21 A3003 RMK AO2=
METAR KROA 081154Z 28004KT 6SM HZ CLR 26/19 A3010 RMK AO2 SLP175
     T02610189 10267 20233 53007=
METAR KRQB 081154Z AUTO 00000KT 5SM RA SCT065 BKN075 OVC090 22/21
     A3004 RMK AO2=
METAR KSJX 081155Z AUTO 23008KT 1 3/4SM -DZ OVC002 20/18 A2999 RMK
     AO2=
METAR KSLH 081155Z AUTO 27006KT 7SM -RA BKN013 OVC110 22/21 A2998
     RMK AO2=
METAR KTTF 081153Z AUTO 00000KT 7SM CLR 25/22 A3003 RMK AO2=
METAR KUKT 081155Z AUTO 00000KT 6SM CLR 25/22 A3006 RMK AO1=
METAR KVLL 081155Z AUTO 24003KT 10SM CLR 27/21 A3006 RMK AO2=
METAR KVWU 081151Z AUTO 26008KT 10SM CLR 18/14 A3003 RMK AO2=
METAR KXVG 081156Z AUTO 00000KT 10SM CLR 16/15 A3005 RMK AO2=
METAR KY70 081155Z AUTO 00000KT 4SM BR CLR 24/22 A3003 RMK AO2
     60012 70012 T02350221 10247 20222=
####018000081####
SASG20 GOOY 081200
METAR GOOY 081200Z 16009KT 9999 SCT013 30/24 Q1012 NOSIG=
####018000262####
SABO59 SLLP 081200
METAR SLLP 081200Z 03003KT 9999 NSC M01/M03 Q1037=
METAR SLVR 081200Z 17012KT 9999 FEW030 BKN070 BKN200 20/17 Q1016=
METAR SLCB 081200Z 00000KT 4000SE FU FEW027 SCT200 06/02 Q1027=
METAR SLTJ 081200Z 00000KT 9999 FEW020 08/05 Q1022=
####018000260####
SABO SLLP 081200
METAR SLLP 081200Z 03003KT 9999 NSC M01/M03 Q1037=
METAR SLVR 081200Z 17012KT 9999 FEW030 BKN070 BKN200 20/17 Q1016=
METAR SLCB 081200Z 00000KT 4000SE FU FEW027 SCT200 06/02 Q1027=
METAR SLTJ 081200Z 00000KT 9999 FEW020 08/05 Q1022=
####018000069####
SABZ18 SBGR 081200
METAR SBGR 081200Z 04003KT CAVOK 19/09 Q1023=
####018000069####
SABZ24 SBPP 081200
METAR SBPP 081200Z 00000KT CAVOK 23/10 Q1018=
####018000160####
SAHW40 PHFO 081200
MTRNGF
METAR PHNG 081157Z COR 07010KT 10SM SCT026 BKN040 24/19 A3003 RMK 
AO2 SLP163 P0001 60001 70001 T02440194 10250 20244 58012 $
####018000104####
SAMH31 PKWA 081200
METAR PKWA 081200Z AUTO 06014KT 10SM OVC055 25/23 A2985 RMK AO2 P0001 T02540233=
####018003734####
SAUS99 KWBC 081201
METAR
KRIC 081154Z 12005KT 4SM HZ FEW150 SCT250 27/22 A2999 RMK AO2
     SLP159 T02720222 10272 20239 51005=
K4I3 081156Z AUTO 00000KT 7SM CLR 22/20 A3010 RMK AO2=
KACB 081155Z AUTO 00000KT 5SM -RA SCT016 BKN070 OVC090 23/22 A3000
     RMK AO2=
KACQ 081159Z AUTO 30005KT 10SM CLR 17/16 A3014 RMK AO2=
KADC 081157Z AUTO 25004KT 10SM CLR 14/13 A3010 RMK AO2=
KADM 081155Z 00000KT 5SM BR SCT095 SCT120 24/24 A3002=
KAMN 081155Z AUTO 24003KT 4SM BR BKN110 23/22 A3002 RMK AO2=
KAQP 081153Z AUTO 24003KT 10SM CLR 14/14 A3011 RMK AO2=
KAUM 081155Z AUTO 32004KT 10SM CLR 18/17 A3010 RMK AO2=
KAWG 081155Z AUTO 32004KT 7SM CLR 21/19 A3006 RMK AO2=
KAXA 081155Z AUTO 33004KT 10SM CLR 17/16 A3014 RMK AO2=
KBAX 081155Z AUTO 24005KT 7SM CLR 25/23 A3001 RMK AO2=
KBDH 081155Z AUTO 25003KT 7SM CLR 16/15 A3014 RMK AO2=
KBFW 081153Z AUTO 28003KT 10SM CLR 19/14 A3001 RMK AO2=
KBNW 081155Z AUTO 33010KT 10SM CLR 20/17 A3012 RMK AO2=
KBTR 081153Z 08004KT 1 SM BR OVC003 24/23 A3002 RMK AO2 SFC VIS 1
     SLP164 70070 T02390233 10250 20233 53009 RVRNO $=
KCAD 081154Z AUTO 23006KT 5SM -RA SCT070 OVC090 22/21 A3003 RMK
     AO2=
KCAE 081156Z 27003KT 10SM CLR 26/20 A2999 RMK AO2 SLP151 T02610200
     10267 20228 53004=
KCAV 081155Z AUTO 33005KT 7SM CLR 19/17 A3012 RMK AO2=
KCBF 081155Z AUTO 34003KT 10SM CLR 20/16 A3015 RMK AO2=
KCBG 081155Z AUTO 00000KT 10SM CLR 17/14 A3009 RMK AO2=
KCCY 081155Z AUTO 34006KT 10SM CLR 20/17 A3010 RMK AO2=
KCDA 081155Z AUTO 00000KT 5SM HZ SCT060 23/19 A3011 RMK AO2=
KCDD 081151Z AUTO 20004KT 10SM CLR 18/17 A3003 RMK AO2=
KCFE 081155Z AUTO 27003KT 10SM CLR 18/16 A3012 RMK AO2 T01820160
     10195 20171=
KCFS 081155Z AUTO 25004KT 7SM CLR 25/22 A3002 RMK AO2=
KCIN 081155Z AUTO 33004KT 7SM CLR 18/15 A3015 RMK AO2=
KCKC 081155Z AUTO 28006KT 10SM CLR 17/13 A3004 RMK AO2=
KCKN 081155Z AUTO 00000KT 10SM CLR 14/13 A3006 RMK AO2=
KCNB 081158Z AUTO 25007KT 10SM CLR 18/14 A3014 RMK AO2 T01750135
     10175 20150=
KCNC 081155Z AUTO 36007KT 10SM CLR 21/18 A3009 RMK AO2=
KCOQ 081156Z AUTO 27005KT 10SM CLR 16/16 A3006 RMK AO2=
KCQM 081157Z AUTO 24003KT 10SM CLR 16/14 A3003 RMK AO2=
KCSQ 081155Z AUTO 02009KT 10SM CLR 20/19 A3012 RMK AO2=
KCVX 081155Z AUTO 24006KT 7SM RA SCT013 BKN019 OVC026 21/20 A3002
     RMK AO2=
KDAB 081153Z 00000KT 10SM FEW020 SCT150 23/21 A3000 RMK AO2 SLP158
     T02330211 10233 20200 51004=
KDEH 081155Z AUTO 33006KT 10SM CLR 21/18 A3010 RMK AO2=
KDNS 081155Z AUTO 00000KT 10SM CLR 19/16 A3018 RMK AO2=
KDRM 081156Z AUTO 21003KT 2 1/2SM -RA SCT002 SCT016 OVC110 20/20
     A2997 RMK AO2=
KDTL 081155Z AUTO 22003KT 10SM CLR 16/11 A3011 RMK AO2=
KDUH 081155Z AUTO 00000KT 10SM CLR 25/20 A3005 RMK AO2=
KDVP 081156Z AUTO 00000KT 10SM CLR 16/13 A3018 RMK AO2 T01600132
     10160 20142=
KEOK 081155Z AUTO 32003KT 10SM SCT003 22/19 A3005 RMK AO2=
KERY 081155Z AUTO 31004KT 7SM -RA OVC003 18/18 A3000 RMK AO2=
KETH 081154Z AUTO 24006KT 10SM CLR 18/16 A3011 RMK AO2=
KEVB 081155Z 00000KT 10SM SKC 24/22 A3001=
KFAF 081155Z 09005KT 10SM BKN012 BKN018 27/27 A2999 RMK AO2A CIG
     011V016 SLP157 60000 T02690269 10269 20249 53012=
KFFL 081155Z AUTO 33006KT 7SM CLR 22/20 A3007 RMK AO2=
KFFX 081155Z AUTO 17003KT 1 3/4SM BR BKN004 BKN021 OVC060 22/22
     A3002 RMK AO2=
KFKA 081203Z AUTO 33008KT 10SM CLR 19/17 A3010 RMK AO2
     T01850174=
KFKS 081155Z AUTO 22007KT 4SM DZ BKN004 OVC007 21/20 A3001 RMK
     AO2=
KFOZ 081153Z AUTO 24003KT 10SM CLR 15/14 A3005 RMK AO2=
KFPK 081156Z AUTO 00000KT 5SM BR CLR 23/21 A3003 RMK AO2=
KFSD 081156Z 00000KT 10SM CLR 17/14 A3017 RMK AO2 SLP212 SCT ABV
     120 T01670144 10172 20150 53006 $=
####018003718####
SAUS99 KWBC 081201 RRA
METAR
KFSE 081154Z AUTO 20004KT 10SM CLR 13/12 A3006 RMK AO2=
KFSW 081155Z AUTO 31006KT 3SM OVC002 22/21 A3005 RMK AO2=
KFXY 081155Z AUTO 32003KT 10SM CLR 17/16 A3013 RMK AO2=
KGGI 081155Z AUTO 33003KT 10SM CLR 21/20 A3009 RMK AO2=
KGOV 081155Z AUTO 24003KT 7SM DZ SCT055 BKN070 OVC080 22/22 A3003
     RMK AO2=
KHAF 081150Z AUTO 00000KT 10SM OVC006 12/10 A2993 RMK AO2=
KHAI 081155Z AUTO 00000KT 5SM BR CLR 23/22 A3005 RMK AO2=
KHNR 081155Z AUTO 00000KT 7SM CLR 17/17 A3018 RMK AO2=
KHRT 081155Z 00000KT 10SM CLR 25/25 A3002 RMK AO2A SLP169
     T02460246 10248 20229 53006 $=
KHYX 081155Z AUTO 00000KT 10SM SCT085 BKN120 23/21 A3000 RMK
     AO2=
KICL 081155Z AUTO 02005KT 7SM CLR 21/18 A3012 RMK AO2=
KIFA 081155Z AUTO 33005KT 10SM SCT110 20/18 A3012 RMK AO2=
KIIB 081155Z AUTO 32005KT 5SM CLR 20/19 A3008 RMK AO1 P0001=
KIKV 081155Z AUTO 35006KT 10SM CLR 21/18 A3010 RMK AO2=
KIRS 081155Z AUTO 00000KT 4SM BR CLR 23/21 A3004 RMK AO2=
KISQ 081156Z AUTO 34004KT 2SM BR OVC002 19/18 A2999 RMK AO2=
KJYG 081155Z AUTO 00000KT 10SM CLR 17/17 A3015 RMK AO2=
KJYM 081155Z AUTO 00000KT 7SM CLR 23/21 A3007 RMK AO2=
KLDM 081155Z AUTO 22004KT 5SM -RA BKN007 BKN023 OVC033 21/20 A3002
     RMK AO2 P0007=
KLFI 081155Z 09007KT 10SM FEW011 OVC090 26/22 A3000 RMK AO2A
     SLP159 T02580219 10259 20254 53014 $=
KLRJ 081155Z AUTO 00000KT 7SM CLR 16/15 A3017 RMK AO2=
KLUF 081155Z 00000KT 10SM SCT170 27/05 A2978 RMK AO2A SLP053
     T02660053 10331 20253 53008 $=
PADM 081201Z AUTO 07006KT 10SM FEW080 OVC100 09/08 A3005 RMK AO2
     TSNO 56008 60000 70003 T00940083 10122 20094 SLP162 $=
PADU 081158Z AUTO 12016G23KT 10SM OVC022 09/04 A2980 RMK AO2 PK
     WND 13026/1139 SLP096 60001 70001 T00890044 10094 20083
     58016=
PAGA 081158Z AUTO 00000KT 10SM CLR 11/08 A3006 RMK AO2 SLP226
     T01110078 10217 20111 50000=
PAJZ 081156Z AUTO 33004KT 10SM FEW080 09/09 A3000 RMK AO2 PWINO
     TSNO 58005 70010 T00940088 10116 20094 SLP147 $=
PAKI 081156Z AUTO 36005KT 1SM BR CLR 07/07 A3001 RMK AO2 PWINO
     TSNO 58004 T00660066 10122 20066 SLP163 $=
PALG 081156Z AUTO 00000KT 10SM FEW060 10/09 A3000 RMK AO2 TSNO
     58001 70014 T01000094 10133 20088 SLP162=
PARY 081156Z AUTO 35005KT 10SM CLR 15/06 A3006 RMK AO2 PWINO TSNO
     58001 T01500055 10200 20150 SLP180=
KLWA 081156Z AUTO 00000KT 10SM SCT044 OVC095 23/21 A3003 RMK
     AO2=
KMCD 081156Z AUTO 25003KT 4SM HZ OVC005 21/18 A2999 RMK AO2=
KMGN 081154Z AUTO 26003KT 5SM DZ BKN012 OVC110 22/20 A2999 RMK
     AO2=
KMOP 081154Z AUTO 26004KT 10SM OVC095 23/23 A3002 RMK AO2=
KMPZ 081155Z AUTO 33005KT 5SM OVC004 22/21 A3006 RMK AO2=
KMUT 081155Z AUTO 34005KT 5SM OVC008 23/21 A3005 RMK AO2=
KMXO 081155Z AUTO 00000KT 5SM OVC017 21/19 A3006 RMK AO2=
KMZH 081151Z AUTO 00000KT 10SM CLR 15/14 A3005 RMK AO2=
KNBG 081155Z 06004KT 7SM SCT010 BKN250 26/23 A3002 RMK AO2 SLP166
     T02620233 50008 $=
KNTU 081156Z 08006KT 10SM CLR 26/23 A2998 RMK AO2 SLP153 60000
     T02560233 10261 20250 53010 CHINO RWY 05R $=
KNTU 081156Z COR 08006KT 10SM FEW015 SCT050 BKN100 26/23 A2998 RMK
     AO2 SLP153 T02560233 10261 20250 53010 CHINO RWY 05R $=
KOEB 081155Z AUTO 00000KT 5SM HZ CLR 24/21 A3006 RMK AO2=
KONZ 081157Z AUTO 00000KT 10SM CLR 26/21 A3003 RMK AO2=
KORB 081154Z AUTO 00000KT 10SM CLR 15/13 A3000 RMK AO2=
KORC 081155Z AUTO 31004KT 7SM CLR 17/17 A3017 RMK AO2=
KOSC 081154Z AUTO 22004KT 5SM -RA SCT013 SCT017 SCT110 22/21 A3000
     RMK AO2=
KOWA 081153Z AUTO 31003KT 10SM CLR 17/16 A3011 RMK AO2=
KOXV 081155Z AUTO 34005KT 10SM CLR 21/20 A3010 RMK AO2=
KOZW 081155Z AUTO 00000KT 7SM CLR 25/21 A3005 RMK AO2=
####018000188####
SPUS99 KWBC 081201
SPECI
KBDR 081159Z 12005KT 5SM HZ SCT006 BKN050 26/23 A3006 RMK AO2=
KCNM 081159Z AUTO 33007KT 10SM -RA FEW007 BKN017 OVC110 19/19
     A3015 RMK AO2 P0000 $=
####018001167####
SAUS99 KWBC 081201 RRB
METAR
KPEA 081155Z AUTO 34005KT 10SM CLR 21/21 A3009 RMK AO2=
KPHN 081155Z AUTO 19003KT 7SM CLR 24/21 A3003 RMK AO2=
KPZQ 081155Z AUTO 25003KT 10SM -RA OVC100 23/21 A2999 RMK AO2=
KRDK 081155Z AUTO 00000KT 10SM CLR 21/18 A3012 RMK AO2=
KRGK 081156Z AUTO 27003KT 10SM CLR 19/17 A3009 RMK AO2=
KRMY 081155Z AUTO 00000KT 7SM CLR 23/21 A3005 RMK AO2=
KRNP 081155Z AUTO 00000KT 10SM CLR 25/21 A3003 RMK AO2=
KROA 081154Z 28004KT 6SM HZ CLR 26/19 A3010 RMK AO2 SLP175
     T02610189 10267 20233 53007=
KRQB 081154Z AUTO 00000KT 5SM RA SCT065 BKN075 OVC090 22/21 A3004
     RMK AO2=
KSJX 081155Z AUTO 23008KT 1 3/4SM -DZ OVC002 20/18 A2999 RMK
     AO2=
KSLH 081155Z AUTO 27006KT 7SM -RA BKN013 OVC110 22/21 A2998 RMK
     AO2=
KTTF 081153Z AUTO 00000KT 7SM CLR 25/22 A3003 RMK AO2=
KUKT 081155Z AUTO 00000KT 6SM CLR 25/22 A3006 RMK AO1=
KVLL 081155Z AUTO 24003KT 10SM CLR 27/21 A3006 RMK AO2=
KVWU 081151Z AUTO 26008KT 10SM CLR 18/14 A3003 RMK AO2=
KXVG 081156Z AUTO 00000KT 10SM CLR 16/15 A3005 RMK AO2=
KY70 081155Z AUTO 00000KT 4SM BR CLR 24/22 A3003 RMK AO2 60012
     70012 T02350221 10247 20222=
####018000082####
SABZ21 SBJP 081200
METAR SBJP 081200Z 18008KT 9999 FEW020 BKN070 26/23 Q1016 =
####018000068####
SABZ24 SBLO 081200
METAR SBLO 081200Z 22002KT CAVOK 17/13 Q1021=
####018000099####
SPEO32 EETN 081158
SPECI EETU 081158Z 32005KT 290V350 9999 VCTSSH FEW029CB SCT033
27/19 Q1013=
####018000069####
SABZ22 SBGO 081200
METAR SBGO 081200Z 25002KT CAVOK 20/11 Q1021 =
####018000068####
SABZ23 SBCP 081200
METAR SBCP 081200Z 34007KT CAVOK 23/20 Q1020=
####018000068####
SABZ24 SBPP 081200
METAR SBPP 081200Z 00000KT CAVOK 23/10 Q1018=
####018000068####
SABZ18 SBGR 081200
METAR SBGR 081200Z 04003KT CAVOK 19/09 Q1023=
####018000074####
SABZ19 SBSN 081200
METAR SBSN 081200Z 06008KT 9999 SCT015 28/25 Q1013=
####018000104####
SPAU31 KWBC 081201
SPECI
YPPD 081200Z AUTO 01007KT 5000NDV // SCT008 BKN021 OVC027 21/21
Q1010=
####018000153####
SAUS44 KCRP 081200
MTRCRP
SPECI KCRP 081159Z 06005KT 7SM -TSRA FEW008 SCT020CB BKN045 26/25 
A2984 RMK AO2 OCNL LTGIC SW-W TS SW-W MOV W P0001 $
####018000075####
SAMY20 FMCZ 081200
METAR FMCZ 081200Z 14011KT 9999 SCT025 26/19 Q1016=
####018000080####
SPCN42 CWAO 081159
SPECI CYUA 081159Z AUTO 23006KT 5SM OVC016 05/ A3008=

####018000316####
SAUS20 KNKA 081200
SPECI KBKW 081159Z AUTO 00000KT 3SM BR CLR 22/19 A3018 RMK AO2 VISNO 
    RWY19=
METAR KBWD 081155Z AUTO 10003KT 10SM FEW021 SCT028 BKN036 24/23 
     A3003 RMK AO2 =
METAR KMTN 081155Z 06003KT 3SM BR SCT100 27/25 A3003=
METAR KO22 081155Z AUTO 00000KT 10SM CLR 16/12 A2990 RMK AO1 =
####018000084####
SASG20 GOOY 081200
METAR GOOY 081200Z 16009KT 9999 SCT013 30/24 Q1012 NOSIG=

####018000402####
SABU31 LBSM 081200
METAR LBSF 081200Z 28005MPS 9999 FEW026 BKN036 18/13 Q1018
 NOSIG=
METAR LBWN 081200Z 27005MPS 240V300 9999 BKN032 20/16 Q1014
 NOSIG=
METAR LBBG 081200Z 31006MPS 9999 BKN026 BKN034 19/15 Q1015
 NOSIG=
METAR LBPD 081200Z 26005MPS 230V290 9999 SCT050 BKN075 17/13
 Q1017 NOSIG=
METAR LBGO 081200Z 29003MPS 260V320 5000 -RA BKN010 OVC040 16/14
 Q1018 RERA NOSIG=
####018000956####
SATU31 LTAA 081150
METAR LTAC 081150Z 07013KT 9999 SCT040 30/14 Q1010 BECMG FM1300 
-TSRA=
METAR LTAF 081150Z /////KT 9999 SCT035 BKN100 30/20 Q1008 NOSIG=
METAR LTAI 081150Z 17010KT 130V200 9999 SCT030 30/22 Q1007 NOSIG=
METAR LTAJ 081150Z 24009KT 170V280 CAVOK 37/10 Q1007 NOSIG=
METAR LTAZ 081150Z VRB04KT 9999 FEW040 34/11 Q1009=
METAR LTBA 081150Z 35019KT 9999 BKN035 24/15 Q1012 TEMPO 4000 -TSRA=
METAR LTBJ 081150Z 34016KT CAVOK 31/12 Q1010 NOSIG=
METAR LTBS 081150Z 19011KT 9999 FEW030 31/21 Q1007 NOSIG=
METAR LTCF 081150Z 12013KT 9999 SCT035 30/09 Q1018=
METAR LTCG 081150Z 08006KT 9999 SCT035 27/22 Q1010 NOSIG=
METAR LTCI 081150Z 22007KT CAVOK 26/18 Q1016 NOSIG=
METAR LTCS 081150Z 16011KT 110V200 CAVOK 37/M00 Q1009=
METAR LTFE 081150Z 27018KT 9999 FEW035 33/15 Q1008 NOSIG=
METAR LTFH 081150Z 03007KT 360V070 9999 SCT036 BKN100 27/23 Q1010 
NOSIG=
METAR LTFJ 081150Z 01017KT 9999 BKN030 22/17 Q1012 NOSIG=
####018000079####
SAUK34 EGGY 081150 RRB
METAR EGJA 081150Z 26005KT 9999 FEW006 19/16 Q1020=
####018001742####
SATU20 LTAA 081150
METAR LTAB 081150Z 06014KT 9999 FEW025CB BKN035 31/10 Q1009 TEMPO
-TSRA RMK RWY06 07013KT=
METAR LTAD 081150Z 09010KT 040V120 9999 TS FEW030CB BKN035 31/13 
Q1009 TEMPO FM1300 25015G25KT -TSRA RMK RWY29 07008KT 020V110=
METAR LTAE 081150Z 10008KT 9999 FEW030CB BKN200 32/14 Q1009 TEMPO 
-TSRA RMK RWY21 08007KT=
METAR LTAG 081150Z 20011KT 9999 BKN030 30/20 Q1007 NOSIG=
METAR LTAH 081150Z 19005KT 9999 TS FEW025CB BKN035 26/14 Q1011 RETSRA
 RMK RWY13 29016KT=
METAR LTAN 081150Z 01007KT 9999 SCT040 31/13 Q1011 NOSIG RMK RWY19 
35004KT=
METAR LTAP 081150Z 02022KT 9999 SCT040 29/18 Q1009 NOSIG RMK RWY23 
03021KT=
METAR LTAT 081150Z 02007KT 9999 FEW040 38/04 Q1007 NOSIG RMK RWY03 
01008KT=
METAR LTAU 081150Z VRB02KT 9999 SCT040 34/11 Q1010 NOSIG RMK RWY07 
VRB06KT 180V360=
METAR LTBF 081150Z 36014KT 9999 SCT035 25/15 Q1012 NOSIG RMK RWY18 
36014KT=
METAR LTBG 081150Z 36015KT 330V030 9999 SCT035 BKN100 22/15 Q1012 
NOSIG RMK RWY18 36016KT=
METAR LTBI 081150Z 28007KT 200V330 9999 SCT035 SCT100 29/12 Q1010 
NOSIG RMK RWY09 31010KT 260V030=
METAR LTBL 081150Z 29010KT 250V320 9999 FEW040 30/15 Q1010 NOSIG RMK 
RWY17 30010KT 270V330=
METAR LTBQ 081150Z 35008KT 320V040 9999 -SHRA FEW024CB BKN030 BKN090 
25/19 Q1011 NOSIG RMK RWY09 02008KT 350V050=
METAR LTBR 081150Z 34016KT 9999 SCT035TCU BKN100 26/17 Q1011 TEMPO 
-TSRA RMK RWY07 32011KT=
METAR LTBU 081150Z 34009KT 9999 -SHRA BKN030 BKN100 20/15 Q1013 RMK 
RWY23
34008KT=
METAR LTCC 081150Z VRB04KT CAVOK 40/02 Q1005 NOSIG RMK RWY16 17013KT 
140V220=
METAR LTCE 081150Z VRB05KT 300V120 9999 SCT030 32/10 Q1016 NOSIG RMK 
RWY08R 05005KT 010V110 RWY26R 35005KT 270V050 RWY08L 05006KT 020V100=
####018000082####
SAVN22 SVMI 081200
METAR SVMI 081200Z 00000KT 9999 FEW016 BKN070 25/24 Q1014=
####018000106####
SATU33 LTAA 081150
METAR LCEN 081150Z 14015KT 9999 SCT025 33/18 Q1007 NOSIG=
METAR LCGK 081150Z NIL=
####018000938####
SATU31 LTAA 081150
METAR LTAC 081150Z 07013KT 9999 SCT040 30/14 Q1010 BECMG FM1300
-TSRA=
METAR LTAF 081150Z /////KT 9999 SCT035 BKN100 30/20 Q1008 NOSIG=
METAR LTAI 081150Z 17010KT 130V200 9999 SCT030 30/22 Q1007 NOSIG=
METAR LTAJ 081150Z 24009KT 170V280 CAVOK 37/10 Q1007 NOSIG=
METAR LTAZ 081150Z VRB04KT 9999 FEW040 34/11 Q1009=
METAR LTBA 081150Z 35019KT 9999 BKN035 24/15 Q1012 TEMPO 4000 -TSRA=
METAR LTBJ 081150Z 34016KT CAVOK 31/12 Q1010 NOSIG=
METAR LTBS 081150Z 19011KT 9999 FEW030 31/21 Q1007 NOSIG=
METAR LTCF 081150Z 12013KT 9999 SCT035 30/09 Q1018=
METAR LTCG 081150Z 08006KT 9999 SCT035 27/22 Q1010 NOSIG=
METAR LTCI 081150Z 22007KT CAVOK 26/18 Q1016 NOSIG=
METAR LTCS 081150Z 16011KT 110V200 CAVOK 37/M00 Q1009=
METAR LTFE 081150Z 27018KT 9999 FEW035 33/15 Q1008 NOSIG=
METAR LTFH 081150Z 03007KT 360V070 9999 SCT036 BKN100 27/23 Q1010
NOSIG=
METAR LTFJ 081150Z 01017KT 9999 BKN030 22/17 Q1012 NOSIG=
####018000073####
SAGR32 LGAT 081150 RRB
METAR LGZA 081150Z 30014KT CAVOK 30/08 Q1013=
####018000079####
SAGR31 LGAT 081150 RRA
METAR LGAD 081150Z 30014KT 9999 FEW020 27/15 Q1014=
####018000102####
SPAU32 YBBN 081200
SPECI YPPD 081200Z AUTO 01007KT 5000NDV // SCT008 BKN021 OVC027 21/21
Q1010=
####018000098####
SAIV20 DIAP 081200
METAR DIAP 081200Z 21006KT 180V250 7000 SCT012 BKN070 28/25 Q1015
NOSIG=
####018000459####
SAGR32 LGAT 081150
METAR LGAL 081150Z NIL=
METAR LGEL 081150Z 35014G24KT CAVOK 29/12 Q1011=
METAR LGKV 081150Z 07018KT 9999 TS SCT020CB SCT025TCU BKN080 21/16
      Q1014=
METAR LGMT 081150Z 36015KT 9999 FEW025 27/19 Q1011=
METAR LGPZ 081150Z 25011KT 9999 FEW025 27/19 Q1013 NOSIG=
METAR LGRX 081150Z 28011KT 9999 FEW025 28/14 Q1012 NOSIG=
METAR LGSK 081150Z NIL=
METAR LGSR 081150Z 01014KT 9999 FEW025 27/18 Q1011 NOSIG=
METAR LGZA 081150Z NIL=
####018000089####
SAHK31 VHHH 081200
METAR VHHH 081200Z 19006KT 140V240 9999 FEW015 31/26 Q1007 NOSIG=
####018000402####
SATU32 LTAA 081150
METAR LTAN 081150Z 01007KT 9999 SCT040 31/13 Q1011 NOSIG=
METAR LTAU 081150Z VRB02KT 9999 SCT040 34/11 Q1010 NOSIG=
METAR LTBR 081150Z 34016KT 9999 SCT035TCU BKN100 26/17 Q1011 TEMPO
-TSRA=
METAR LTBU 081150Z 34009KT 9999 -SHRA BKN030 BKN100 20/15 Q1013=
METAR LTCC 081150Z VRB04KT CAVOK 40/02 Q1005 NOSIG=
METAR LTCE 081150Z VRB05KT 300V120 9999 SCT030 32/10 Q1016 NOSIG=
####018000447####
SAGR33 LGAT 081150
METAR LGHI 081150Z 35008KT CAVOK 27/19 Q1011=
METAR LGKC 081150Z 06014KT 9999 FEW010 30/20 Q1013=
METAR LGKF 081150Z 31019KT 9999 FEW025 27/14 Q1014=
METAR LGKP 081150Z NIL=
METAR LGKZ 081150Z 32016KT 9999 FEW020 SCT070 22/07 Q1017=
METAR LGMK 081150Z 02021KT 9999 FEW012 24/17 Q1012=
METAR LGNX 081150Z 01015G25KT 9999 FEW020 26/18 Q1012=
METAR LGPA 081150Z NIL=
METAR LGSO 081150Z 36018KT 9999 FEW018 25/18 Q1012=
####018000092####
SARM31 LUKK 081200
METAR LUKK 081200Z 33008KT 9999 SCT032 25/15 Q1015 26CLRD65
NOSIG=
####018000582####
SAGR31 LGAT 081150
METAR LGAD 081150Z NIL=
METAR LGAV 081150Z 04019KT 9999 SCT030 26/12 Q1013 NOSIG=
METAR LGIR 081150Z 35009KT 9999 FEW020 29/23 Q1011 NOSIG=
METAR LGKL 081150Z 31012G25KT 9999 FEW030 33/12 Q1011=
METAR LGKO 081150Z 31018KT 270V340 CAVOK 29/18 Q1009=
METAR LGKR 081150Z NIL=
METAR LGLM 081150Z 04011KT 9999 FEW008 BKN020 21/16 Q1013=
METAR LGRP 081150Z 25014KT CAVOK 29/19 Q1008 NOSIG=
METAR LGSA 081150Z 31014KT 9999 FEW020 33/14 Q1012=
METAR LGSM 081150Z 36011KT 9999 FEW030 31/16 Q1010=
METAR LGTS 081150Z 34019G29KT 9999 FEW025 24/11 Q1016 NOSIG=
####018000409####
SATU32 LTAA 081150
METAR LTAN 081150Z 01007KT 9999 SCT040 31/13 Q1011 NOSIG=
METAR LTAU 081150Z VRB02KT 9999 SCT040 34/11 Q1010 NOSIG=
METAR LTBR 081150Z 34016KT 9999 SCT035TCU BKN100 26/17 Q1011 TEMPO 
-TSRA=
METAR LTBU 081150Z 34009KT 9999 -SHRA BKN030 BKN100 20/15 Q1013=
METAR LTCC 081150Z VRB04KT CAVOK 40/02 Q1005 NOSIG=
METAR LTCE 081150Z VRB05KT 300V120 9999 SCT030 32/10 Q1016 NOSIG=
####018000089####
SAGR32 LGAT 081150 RRA
METAR LGAL 081150Z 03007KT 0000 FEW020TCU SCT025 21/15 Q1015=
####018000143####
SAUS41 KAKQ 081201
MTRNGU
METAR KNGU 081159Z 08007KT 10SM FEW008 SCT070 BKN100 26/23 A3000 RMK 
AO2 SLP159 T02610228 10267 20250 52013
####018000084####
SANI20 DNMM 081200
METAR DNMM 081200Z 25006KT 9999 BKN013 30/25 Q1015 NOSIG=

####018000117####
SARH32 LDZM 081200
METAR LDLO 081200Z 29009KT CAVOK 28/12 Q1021=
METAR LDSB 081200Z 07006KT CAVOK 24/11 Q1021=
####018000106####
SPCN43 CWAO 081159
SPECI CYZH 081159Z AUTO 32010G16KT 280V350 9SM -RA FEW080 SCT097
17/13 A3007=

####018000082####
SPCN48 CWAO 081159
SPECI CYGV 081159Z AUTO 13003KT 8SM OVC001 14/12 A3003=

####018000147####
SAHW40 PHFO 081201
MTRBKH
METAR PHBK 081156Z AUTO 13003KT 10SM OVC070 24/17 A3001 RMK AO2 
SLP164 7//// T02440172 10272 20239 58007 TSNO $
####018000083####
SACA01 KMSC 081201
METAR TJPS 081150Z 11005KT 8SM FEW030 29/25 A2997 HZ ALQDS=
####018000206####
SABO SLLP 081200
METAR SLLP 081200Z 03003KT 9999 NSC M01/M03 Q1037=
METAR SLVR 081200Z 17012KT 9999 FEW030 BKN070 BKN200 20/17 Q1016=
METAR SLCB 081200Z 00000KT 4000SE FU FEW027 SCT200 06/02 Q1027=
####018000055####
SAUS90 KWBC 081100 RRI
METAR K8S0 081055Z 26007KT=
####018000107####
SAUS90 KWBC 081200 RRC
METAR KMWN 081152Z 13004KT 8SM BKN002 16/15 RMK HZ VC ALQDS 10161
     20145=
####018000149####
SPUS90 KWBC 081202
SPECI KCRP 081159Z 06005KT 7SM -TSRA FEW008 SCT020CB BKN045 26/25
     A2984 RMK AO2 OCNL LTGIC SW-W TS SW-W MOV W P0001 $=
####018000148####
SAUS90 KWBC 081200 CCB
METAR KRIL 081153Z AUTO 00000KT 10SM CLR 12/08 A3027 RMK AO2
     SLP184 60000 70003 T01170078 10172 20111 53007 TSNO=
####018000109####
SAUS41 KGYX 081201
MTRMWN
METAR KMWN 081152Z 13004KT 8SM BKN002 16/15
RMK HZ VC ALQDS 10161 20145

####018000100####
SATG20 DXXX 081200
METAR DXXX 081200Z 20009KT 170V240 9999 FEW016 FEW025CB 30/25 Q1014
NOSIG=
####018000086####
SAMT20 GQNN 081200
METAR GQNN 081200Z 19012KT 150V220 6000 NSC 31/22 Q1013 NOSIG=
####018000161####
SAUS44 KMOB 081201 COR
MTRNSE
METAR KNSE 081156Z 00000KT 4SM BR FEW001 SCT250 24/23 A3003 RMK AO2 
SLP154 VIS NE-E 2 70020 T02440228 10244 20222 51004 $
####018000135####
SAUS42 KRAH 081201
MTRNJM
METAR KNJM 081157Z AUTO 02004KT 4SM HZ CLR 27/24 A2994 RMK AO2 
SLP141 T02720239 10272 20256 51011 $
####018000086####
SANC01 NWWW 081200
METAR NWWW 081200Z AUTO VRB02KT 9999NDV FEW035/// 17/15 Q1016=
####018000092####
SAPF20 NTAA 081200
METAR NTAA 081200Z VRB02KT 9999 FEW023 25/21 Q1015 WS ALL RWY NOSIG=
####018000115####
SARA31 UHHH 081200
METAR 081200Z
METAR METAR UHHH 081200Z 04003MPS 9999 SCT033CB OVC100 17/15 Q1011
NOSIG=
####018000080####
SANC01 NWWL 081200
METAR NWWL 081200Z AUTO 00000KT 9999NDV NCD 14/13 Q1015=
####018000086####
SANC01 NWWU 081200
METAR NWWU 081200Z AUTO VRB02KT 9999NDV SCT039/// 20/17 Q1016=
####018000080####
SANC01 NWWM 081200
METAR NWWM 081200Z AUTO 34005KT 9999NDV NCD 18/16 Q1016=
####018000369####
SASD31 OEJD 081200
METAR OEDF 081200Z 36016KT CAVOK 45/04 Q0999 NOSIG=
METAR OEDR 081200Z NIL=
METAR OEJN 081200Z 30010KT CAVOK 38/25 Q1001 NOSIG=
METAR OEMA 081200Z 11005KT 9999 SCT045 47/M04 Q1005 NOSIG=
METAR OERK 081200Z 02015KT 5000 DU BLDU SKC 43/M04 Q1017 NOSIG=
METAR OERY 081200Z 05017KT 5000 SA SKC 44/M01 Q1007 NOSIG=
METAR OYSN 081200Z NIL=
####018000075####
SAEG31 HECA 081200
METAR HECA 081200Z 34010KT CAVOK 34/17 Q1010 NOSIG=
####018001303####
SAUS20 KNKA 081201
SPECI KAAO 081200Z AUTO 01005KT 9SM SCT006 SCT011 22/21 A3009 RMK 
    AO2=
SPECI KAGC 081200Z 00000KT 2 1/2SM HZ CLR 24/21 A3010 RMK AO2=
METAR KBOW 081150Z 03005KT 12SM FEW250 23/22 A3001=
SPECI KCKB 081200Z 00000KT 3SM BR CLR 22/19 A3011 RMK AO2=
METAR KEBS 081155Z AUTO 34004KT 10SM CLR 18/17 A3012 RMK AO2=
SPECI KELM 081200Z 00000KT 4SM HZ CLR 22/19 A3009 RMK AO2=
SPECI KHAO 081200Z AUTO 00000KT 3SM BR CLR 24/22 A3009 RMK AO2=
METAR KI75 081155Z AUTO 34006KT 5SM CLR 20/18 A3009 RMK AO2 P0001=
SPECI KLVJ 081200Z AUTO 11013G18KT 2SM VCTS +RA BR SCT022 BKN041 
    OVC060 26/23 A2994 RMK AO2 LTG DSNT NE AND E TSB00RAB1157 P0008=
SPECI KORE 081200Z AUTO 14006KT 6SM HZ BKN010 OVC085 24/21 A3010 RMK 
    AO2=
SPECI KPNC 081200Z AUTO 00000KT 10SM BKN026 22/21 A3006 RMK AO2=
METAR KRHP 081202Z AUTO 00000KT 5SM BR CLR 19/18 A3014 RMK AO2=
METAR KSDA 081155Z AUTO 01006KT 10SM CLR 21/18 A3013 RMK AO2=
METAR KSHL 081155Z AUTO 00000KT 5SM CLR 15/15 A3018 RMK AO2=
SPECI KTAN 081200Z AUTO 16005KT 10SM OVC008 23/21 A3008 RMK AO2 CIG 
    007V011=
METAR KTNU 081155Z AUTO 35007KT 10SM CLR 21/19 A3010 RMK AO2=
METAR KTVK 081155Z AUTO 35004KT 10SM CLR 20/20 A3009 RMK AO2=
METAR KVTI 081155Z AUTO 00000KT 5SM BKN003 21/21 A3008 RMK AO2=
####018000762####
SPUS99 KWBC 081202
SPECI
KBKW 081159Z AUTO 00000KT 3SM BR CLR 22/19 A3018 RMK AO2 VISNO
     RWY19=
KAAO 081200Z AUTO 01005KT 9SM SCT006 SCT011 22/21 A3009 RMK
     AO2=
KAGC 081200Z 00000KT 2 1/2SM HZ CLR 24/21 A3010 RMK AO2=
KCKB 081200Z 00000KT 3SM BR CLR 22/19 A3011 RMK AO2=
KELM 081200Z 00000KT 4SM HZ CLR 22/19 A3009 RMK AO2=
KHAO 081200Z AUTO 00000KT 3SM BR CLR 24/22 A3009 RMK AO2=
KLVJ 081200Z AUTO 11013G18KT 2SM VCTS +RA BR SCT022 BKN041 OVC060
     26/23 A2994 RMK AO2 LTG DSNT NE AND E TSB00RAB1157 P0008=
KORE 081200Z AUTO 14006KT 6SM HZ BKN010 OVC085 24/21 A3010 RMK
     AO2=
KPNC 081200Z AUTO 00000KT 10SM BKN026 22/21 A3006 RMK AO2=
KTAN 081200Z AUTO 16005KT 10SM OVC008 23/21 A3008 RMK AO2 CIG
     007V011=
####018000739####
SAUS99 KWBC 081202
METAR
KBWD 081155Z AUTO 10003KT 10SM FEW021 SCT028 BKN036 24/23 A3003
     RMK AO2=
KMTN 081155Z 06003KT 3SM BR SCT100 27/25 A3003=
KO22 081155Z AUTO 00000KT 10SM CLR 16/12 A2990 RMK AO1=
KBOW 081150Z 03005KT 12SM FEW250 23/22 A3001=
KEBS 081155Z AUTO 34004KT 10SM CLR 18/17 A3012 RMK AO2=
KI75 081155Z AUTO 34006KT 5SM CLR 20/18 A3009 RMK AO2 P0001=
KRHP 081202Z AUTO 00000KT 5SM BR CLR 19/18 A3014 RMK AO2=
KSDA 081155Z AUTO 01006KT 10SM CLR 21/18 A3013 RMK AO2=
KSHL 081155Z AUTO 00000KT 5SM CLR 15/15 A3018 RMK AO2=
KTNU 081155Z AUTO 35007KT 10SM CLR 21/19 A3010 RMK AO2=
KTVK 081155Z AUTO 35004KT 10SM CLR 20/20 A3009 RMK AO2=
KVTI 081155Z AUTO 00000KT 5SM BKN003 21/21 A3008 RMK AO2=
####018000094####
SABZ21 SBPS 081200
METAR SBPS 081200Z 27006KT 9999 VCSH SCT010 SCT050 BKN100 19/19
Q1020=
####018000068####
SABZ24 SBCT 081200
METAR SBCT 081200Z 02004KT CAVOK 15/12 Q1022=
####018000074####
SABZ19 SBMQ 081200
METAR SBMQ 081200Z 03001KT 9999 SCT020 30/27 Q1014=
####018000074####
SABZ21 SBPL 081200
METAR SBPL 081200Z 13013KT 9999 FEW023 25/19 Q1019=
####018000068####
SABZ18 SBSP 081200
METAR SBSP 081200Z 32005KT CAVOK 18/08 Q1023=
####018000068####
SABZ24 SBNF 081200
METAR SBNF 081200Z 00000KT CAVOK 21/20 Q1017=
####018000068####
SABZ19 SBMA 081200
METAR SBMA 081200Z 11002KT CAVOK ///// Q1014=
####018000071####
SABZ18 SBRP 081200
METAR SBRP 081200Z 12004KT 9000 NSC 17/10 Q1021=
####018000068####
SABZ24 SBCG 081200
METAR SBCG 081200Z 07015KT CAVOK 22/08 Q1017=
####018000081####
SABZ20 SBCZ 081200
METAR SBCZ 081200Z 00000KT 9999 FEW030 BKN100 23/23 Q1013=
####018000082####
SAJM31 MKJS 081200
METAR MKJS 081200Z  18009KT 9999 FEW024 BKN200 27/22 Q1013=
####018000086####
SANO36 ENMI 081150 RRA
METAR ENBS 081150Z 21006KT 160V240 9999 FEW027 15/08 Q1016=
####018000397####
SAAW31 KWBC 081130 RRB
METAR
LTAC 081150Z 07013KT 9999 SCT040 30/14 Q1010 BECMG FM1300
     -TSRA=
LTAF 081150Z /////KT 9999 SCT035 BKN100 30/20 Q1008 NOSIG=
LTAI 081150Z 17010KT 130V200 9999 SCT030 30/22 Q1007 NOSIG=
LTBA 081150Z 35019KT 9999 BKN035 24/15 Q1012 TEMPO 4000 -TSRA=
LTBJ 081150Z 34016KT CAVOK 31/12 Q1010 NOSIG=
LTBS 081150Z 19011KT 9999 FEW030 31/21 Q1007 NOSIG=
####018000268####
SAPH RPLL 081200
METAR RPLL 081200Z 07003KT 9000 FEW025 BKN100 30/26 Q1009 NOSIG
           RMK A2980=
METAR RPVM 081200Z 16004KT 9999 FEW018CB BKN250 29/25 Q1010 A2985
           CB W W/ OCNL LTNG=
METAR RPMZ 081200Z 00000KT 9999 FEW018 SCT350 28/26 Q1011=
 
####018001781####
SAAW41 KWBC 081150 RRE
METAR
LTAD 081150Z 09010KT 040V120 9999 TS FEW030CB BKN035 31/13 Q1009
     TEMPO FM1300 25015G25KT -TSRA RMK RWY29 07008KT 020V110=
LTAG 081150Z 20011KT 9999 BKN030 30/20 Q1007 NOSIG=
LTAH 081150Z 19005KT 9999 TS FEW025CB BKN035 26/14 Q1011 RETSRA
     RMK RWY13 29016KT=
LTAJ 081150Z 24009KT 170V280 CAVOK 37/10 Q1007 NOSIG=
LTAN 081150Z 01007KT 9999 SCT040 31/13 Q1011 NOSIG RMK RWY19
     35004KT=
LTAN 081150Z 01007KT 9999 SCT040 31/13 Q1011 NOSIG=
LTAP 081150Z 02022KT 9999 SCT040 29/18 Q1009 NOSIG RMK RWY23
     03021KT=
LTAT 081150Z 02007KT 9999 FEW040 38/04 Q1007 NOSIG RMK RWY03
     01008KT=
LTAU 081150Z VRB02KT 9999 SCT040 34/11 Q1010 NOSIG RMK RWY07
     VRB06KT 180V360=
LTAU 081150Z VRB02KT 9999 SCT040 34/11 Q1010 NOSIG=
LTBF 081150Z 36014KT 9999 SCT035 25/15 Q1012 NOSIG RMK RWY18
     36014KT=
LTBG 081150Z 36015KT 330V030 9999 SCT035 BKN100 22/15 Q1012 NOSIG
     RMK RWY18 36016KT=
LTBI 081150Z 28007KT 200V330 9999 SCT035 SCT100 29/12 Q1010 NOSIG
     RMK RWY09 31010KT 260V030=
LTBL 081150Z 29010KT 250V320 9999 FEW040 30/15 Q1010 NOSIG RMK
     RWY17 30010KT 270V330=
LTBQ 081150Z 35008KT 320V040 9999 -SHRA FEW024CB BKN030 BKN090
     25/19 Q1011 NOSIG RMK RWY09 02008KT 350V050=
LTCC 081150Z VRB04KT CAVOK 40/02 Q1005 NOSIG RMK RWY16 17013KT
     140V220=
LTCC 081150Z VRB04KT CAVOK 40/02 Q1005 NOSIG=
LTCE 081150Z VRB05KT 300V120 9999 SCT030 32/10 Q1016 NOSIG RMK
     RWY08R 05005KT 010V110 RWY26R 35005KT 270V050 RWY08L 05006KT
     020V100=
LTCE 081150Z VRB05KT 300V120 9999 SCT030 32/10 Q1016 NOSIG=
LTCG 081150Z 08006KT 9999 SCT035 27/22 Q1010 NOSIG=
LTCI 081150Z 22007KT CAVOK 26/18 Q1016 NOSIG=
LTFE 081150Z 27018KT 9999 FEW035 33/15 Q1008 NOSIG=
####018000166####
SAPQ50 KWBC 081200 RRC
METAR
PKMR 081155Z 07014KT 15SM FEW015 SCT045 BKN120 OVC300 28/24 A2982
     RMK SLP100 60027 70059 8/878 T02770238 10277 20266 50002=
####018000078####
SAUK34 EGGY 081150 RRB
METAR EGJA 081150Z 26005KT 9999 FEW006 19/16 Q1020=
####018000088####
SAGR32 LGAT 081150 RRA
METAR LGAL 081150Z 03007KT 0000 FEW020TCU SCT025 21/15 Q1015=
####018000068####
SABZ23 SBVT 081200
METAR SBVT 081200Z 31005KT CAVOK 24/17 Q1021=
####018000068####
SABZ24 SBPK 081200
METAR SBPK 081200Z 28005KT CAVOK 11/07 Q1021=
####018000276####
SAUS70 KWBC 081200 CCA
METAR
KRIL 081153Z AUTO 00000KT 10SM CLR 12/08 A3027 RMK AO2 SLP184
     60000 70003 T01170078 10172 20111 53007 TSNO=
KNSE 081156Z 00000KT 4SM BR FEW001 SCT250 24/23 A3003 RMK AO2
     SLP154 VIS NE-E 2 70020 T02440228 10244 20222 51004 $=
####018000998####
SAUS80 KWBC 081200 RRB
METAR
PHNY 081156Z AUTO 00000KT 10SM -RA BKN035 19/17 A3006 RMK AO2 TSNO
     58007 T01940172 10222 20183 RAB56 P0000 SLP161 $=
KRIC 081154Z 12005KT 4SM HZ FEW150 SCT250 27/22 A2999 RMK AO2
     SLP159 T02720222 10272 20239 51005=
KBTR 081153Z 08004KT 1 SM BR OVC003 24/23 A3002 RMK AO2 SFC VIS 1
     SLP164 70070 T02390233 10250 20233 53009 RVRNO $=
KCAE 081156Z 27003KT 10SM CLR 26/20 A2999 RMK AO2 SLP151 T02610200
     10267 20228 53004=
KDAB 081153Z 00000KT 10SM FEW020 SCT150 23/21 A3000 RMK AO2 SLP158
     T02330211 10233 20200 51004=
KFSD 081156Z 00000KT 10SM CLR 17/14 A3017 RMK AO2 SLP212 SCT ABV
     120 T01670144 10172 20150 53006 $=
KPZQ 081155Z AUTO 25003KT 10SM -RA OVC100 23/21 A2999 RMK AO2=
KROA 081154Z 28004KT 6SM HZ CLR 26/19 A3010 RMK AO2 SLP175
     T02610189 10267 20233 53007=
KMWN 081152Z 13004KT 8SM BKN002 16/15 RMK HZ VC ALQDS 10161
     20145=
KVTI 081155Z AUTO 00000KT 5SM BKN003 21/21 A3008 RMK AO2=
####018000777####
SPUS70 KWBC 081202
SPECI
KCNM 081159Z AUTO 33007KT 10SM -RA FEW007 BKN017 OVC110 19/19
     A3015 RMK AO2 P0000 $=
KAAO 081200Z AUTO 01005KT 9SM SCT006 SCT011 22/21 A3009 RMK
     AO2=
KAGC 081200Z 00000KT 2 1/2SM HZ CLR 24/21 A3010 RMK AO2=
KCKB 081200Z 00000KT 3SM BR CLR 22/19 A3011 RMK AO2=
KELM 081200Z 00000KT 4SM HZ CLR 22/19 A3009 RMK AO2=
KHAO 081200Z AUTO 00000KT 3SM BR CLR 24/22 A3009 RMK AO2=
KLVJ 081200Z AUTO 11013G18KT 2SM VCTS +RA BR SCT022 BKN041 OVC060
     26/23 A2994 RMK AO2 LTG DSNT NE AND E TSB00RAB1157 P0008=
KORE 081200Z AUTO 14006KT 6SM HZ BKN010 OVC085 24/21 A3010 RMK
     AO2=
KPNC 081200Z AUTO 00000KT 10SM BKN026 22/21 A3006 RMK AO2=
KTAN 081200Z AUTO 16005KT 10SM OVC008 23/21 A3008 RMK AO2 CIG
     007V011=
####018000068####
SAUY41 SUSO 081200
METAR SUSO 081200Z 13006KT CAVOK 06/05 Q1020=
####018000099####
SAAJ31 UBBB 081200
UBBN 081200Z 13010KT 9999 NSC 39/08 Q1008 R14R/CLRD60 NOSIG
RMK G/O QFE681=
####018000256####
SAPM31 MPTO 081200
METAR
MPMG 081200Z 00000KT 9999 FEW016 25/23 Q1011 NOSIG=
MPDA 081200Z 00000KT 9999 SCT030 OVC200 23/23 Q1011=
MPCH 081200Z 00000KT 9999 FEW007 SCT025 BKN090 Q1012=
MPBO 081200Z 00000KT 9000 -RA SCT015 BKN090 25/24 Q1010 RWY WET=
####018001243####
SAXX60 KWBC 081200 RRC
METAR
KRYT 081153Z AUTO 00000KT 6SM HZ CLR 25/18 A3005 RMK AO2 SLP156
     T02500183 10261 20222 51006 $=
KFAF 081155Z 09005KT 10SM BKN012 BKN018 27/27 A2999 RMK AO2A CIG
     011V016 SLP157 60000 T02690269 10269 20249 53012=
KHRT 081155Z 00000KT 10SM CLR 25/25 A3002 RMK AO2A SLP169
     T02460246 10248 20229 53006 $=
KLFI 081155Z 09007KT 10SM FEW011 OVC090 26/22 A3000 RMK AO2A
     SLP159 T02580219 10259 20254 53014 $=
KLUF 081155Z 00000KT 10SM SCT170 27/05 A2978 RMK AO2A SLP053
     T02660053 10331 20253 53008 $=
KNBG 081155Z 06004KT 7SM SCT010 BKN250 26/23 A3002 RMK AO2 SLP166
     T02620233 50008 $=
KNTU 081156Z 08006KT 10SM CLR 26/23 A2998 RMK AO2 SLP153 60000
     T02560233 10261 20250 53010 CHINO RWY 05R $=
KNTU 081156Z COR 08006KT 10SM FEW015 SCT050 BKN100 26/23 A2998 RMK
     AO2 SLP153 T02560233 10261 20250 53010 CHINO RWY 05R $=
KNGU 081159Z 08007KT 10SM FEW008 SCT070 BKN100 26/23 A3000 RMK AO2
     SLP159 T02610228 10267 20250 52013=
PHBK 081156Z AUTO 13003KT 10SM OVC070 24/17 A3001 RMK AO2 SLP164
     7//// T02440172 10272 20239 58007 TSNO $=
KNJM 081157Z AUTO 02004KT 4SM HZ CLR 27/24 A2994 RMK AO2 SLP141
     T02720239 10272 20256 51011 $=
####018000243####
SAAW34 KWBC 081145 RRC
METAR
OPGD 081200Z NIL=
OPLA 081155Z 10006KT 6000 SCT040 37/23 Q1003 NOSIG=
OPNH 081200Z NIL=
OPPS 081200Z NIL=
OPRN 081200Z NIL=
UTTT 081200Z 11002MPS 050V160 CAVOK 39/05 Q1009 R08R/CLRD70
     NOSIG=
####018003687####
SAUS70 KWBC 081200 RRD
METAR
K4I3 081156Z AUTO 00000KT 7SM CLR 22/20 A3010 RMK AO2=
KACB 081155Z AUTO 00000KT 5SM -RA SCT016 BKN070 OVC090 23/22 A3000
     RMK AO2=
KACQ 081159Z AUTO 30005KT 10SM CLR 17/16 A3014 RMK AO2=
KADC 081157Z AUTO 25004KT 10SM CLR 14/13 A3010 RMK AO2=
KADM 081155Z 00000KT 5SM BR SCT095 SCT120 24/24 A3002=
KAMN 081155Z AUTO 24003KT 4SM BR BKN110 23/22 A3002 RMK AO2=
KAQP 081153Z AUTO 24003KT 10SM CLR 14/14 A3011 RMK AO2=
KAUM 081155Z AUTO 32004KT 10SM CLR 18/17 A3010 RMK AO2=
KAWG 081155Z AUTO 32004KT 7SM CLR 21/19 A3006 RMK AO2=
KAXA 081155Z AUTO 33004KT 10SM CLR 17/16 A3014 RMK AO2=
KBAX 081155Z AUTO 24005KT 7SM CLR 25/23 A3001 RMK AO2=
KBDH 081155Z AUTO 25003KT 7SM CLR 16/15 A3014 RMK AO2=
KBFW 081153Z AUTO 28003KT 10SM CLR 19/14 A3001 RMK AO2=
KBNW 081155Z AUTO 33010KT 10SM CLR 20/17 A3012 RMK AO2=
KCAD 081154Z AUTO 23006KT 5SM -RA SCT070 OVC090 22/21 A3003 RMK
     AO2=
KCAV 081155Z AUTO 33005KT 7SM CLR 19/17 A3012 RMK AO2=
KCBF 081155Z AUTO 34003KT 10SM CLR 20/16 A3015 RMK AO2=
KCBG 081155Z AUTO 00000KT 10SM CLR 17/14 A3009 RMK AO2=
KCCY 081155Z AUTO 34006KT 10SM CLR 20/17 A3010 RMK AO2=
KCDA 081155Z AUTO 00000KT 5SM HZ SCT060 23/19 A3011 RMK AO2=
KCDD 081151Z AUTO 20004KT 10SM CLR 18/17 A3003 RMK AO2=
KCFE 081155Z AUTO 27003KT 10SM CLR 18/16 A3012 RMK AO2 T01820160
     10195 20171=
KCFS 081155Z AUTO 25004KT 7SM CLR 25/22 A3002 RMK AO2=
KCIN 081155Z AUTO 33004KT 7SM CLR 18/15 A3015 RMK AO2=
KCKC 081155Z AUTO 28006KT 10SM CLR 17/13 A3004 RMK AO2=
KCKN 081155Z AUTO 00000KT 10SM CLR 14/13 A3006 RMK AO2=
KCNB 081158Z AUTO 25007KT 10SM CLR 18/14 A3014 RMK AO2 T01750135
     10175 20150=
KCNC 081155Z AUTO 36007KT 10SM CLR 21/18 A3009 RMK AO2=
KCOQ 081156Z AUTO 27005KT 10SM CLR 16/16 A3006 RMK AO2=
KCQM 081157Z AUTO 24003KT 10SM CLR 16/14 A3003 RMK AO2=
KCSQ 081155Z AUTO 02009KT 10SM CLR 20/19 A3012 RMK AO2=
KCVX 081155Z AUTO 24006KT 7SM RA SCT013 BKN019 OVC026 21/20 A3002
     RMK AO2=
KDEH 081155Z AUTO 33006KT 10SM CLR 21/18 A3010 RMK AO2=
KDNS 081155Z AUTO 00000KT 10SM CLR 19/16 A3018 RMK AO2=
KDRM 081156Z AUTO 21003KT 2 1/2SM -RA SCT002 SCT016 OVC110 20/20
     A2997 RMK AO2=
KDTL 081155Z AUTO 22003KT 10SM CLR 16/11 A3011 RMK AO2=
KDUH 081155Z AUTO 00000KT 10SM CLR 25/20 A3005 RMK AO2=
KDVP 081156Z AUTO 00000KT 10SM CLR 16/13 A3018 RMK AO2 T01600132
     10160 20142=
KEOK 081155Z AUTO 32003KT 10SM SCT003 22/19 A3005 RMK AO2=
KERY 081155Z AUTO 31004KT 7SM -RA OVC003 18/18 A3000 RMK AO2=
KETH 081154Z AUTO 24006KT 10SM CLR 18/16 A3011 RMK AO2=
KEVB 081155Z 00000KT 10SM SKC 24/22 A3001=
KFFL 081155Z AUTO 33006KT 7SM CLR 22/20 A3007 RMK AO2=
KFFX 081155Z AUTO 17003KT 1 3/4SM BR BKN004 BKN021 OVC060 22/22
     A3002 RMK AO2=
KFKS 081155Z AUTO 22007KT 4SM DZ BKN004 OVC007 21/20 A3001 RMK
     AO2=
KFOZ 081153Z AUTO 24003KT 10SM CLR 15/14 A3005 RMK AO2=
KFPK 081156Z AUTO 00000KT 5SM BR CLR 23/21 A3003 RMK AO2=
KFSE 081154Z AUTO 20004KT 10SM CLR 13/12 A3006 RMK AO2=
KFSW 081155Z AUTO 31006KT 3SM OVC002 22/21 A3005 RMK AO2=
KFXY 081155Z AUTO 32003KT 10SM CLR 17/16 A3013 RMK AO2=
KGGI 081155Z AUTO 33003KT 10SM CLR 21/20 A3009 RMK AO2=
KGOV 081155Z AUTO 24003KT 7SM DZ SCT055 BKN070 OVC080 22/22 A3003
     RMK AO2=
KHAF 081150Z AUTO 00000KT 10SM OVC006 12/10 A2993 RMK AO2=
KHAI 081155Z AUTO 00000KT 5SM BR CLR 23/22 A3005 RMK AO2=
KHNR 081155Z AUTO 00000KT 7SM CLR 17/17 A3018 RMK AO2=
KHYX 081155Z AUTO 00000KT 10SM SCT085 BKN120 23/21 A3000 RMK
     AO2=
KICL 081155Z AUTO 02005KT 7SM CLR 21/18 A3012 RMK AO2=
KIFA 081155Z AUTO 33005KT 10SM SCT110 20/18 A3012 RMK AO2=
####018000293####
SAUS70 KWBC 081202
METAR
KFKA 081203Z AUTO 33008KT 10SM CLR 19/17 A3010 RMK AO2
     T01850174=
PADM 081201Z AUTO 07006KT 10SM FEW080 OVC100 09/08 A3005 RMK AO2
     TSNO 56008 60000 70003 T00940083 10122 20094 SLP162 $=
KRHP 081202Z AUTO 00000KT 5SM BR CLR 19/18 A3014 RMK AO2=
####018003749####
SAUS70 KWBC 081200 RRE
METAR
KIIB 081155Z AUTO 32005KT 5SM CLR 20/19 A3008 RMK AO1 P0001=
KIKV 081155Z AUTO 35006KT 10SM CLR 21/18 A3010 RMK AO2=
KIRS 081155Z AUTO 00000KT 4SM BR CLR 23/21 A3004 RMK AO2=
KISQ 081156Z AUTO 34004KT 2SM BR OVC002 19/18 A2999 RMK AO2=
KJYG 081155Z AUTO 00000KT 10SM CLR 17/17 A3015 RMK AO2=
KJYM 081155Z AUTO 00000KT 7SM CLR 23/21 A3007 RMK AO2=
KLDM 081155Z AUTO 22004KT 5SM -RA BKN007 BKN023 OVC033 21/20 A3002
     RMK AO2 P0007=
KLRJ 081155Z AUTO 00000KT 7SM CLR 16/15 A3017 RMK AO2=
PADU 081158Z AUTO 12016G23KT 10SM OVC022 09/04 A2980 RMK AO2 PK
     WND 13026/1139 SLP096 60001 70001 T00890044 10094 20083
     58016=
PAGA 081158Z AUTO 00000KT 10SM CLR 11/08 A3006 RMK AO2 SLP226
     T01110078 10217 20111 50000=
PAJZ 081156Z AUTO 33004KT 10SM FEW080 09/09 A3000 RMK AO2 PWINO
     TSNO 58005 70010 T00940088 10116 20094 SLP147 $=
PAKI 081156Z AUTO 36005KT 1SM BR CLR 07/07 A3001 RMK AO2 PWINO
     TSNO 58004 T00660066 10122 20066 SLP163 $=
PALG 081156Z AUTO 00000KT 10SM FEW060 10/09 A3000 RMK AO2 TSNO
     58001 70014 T01000094 10133 20088 SLP162=
PARY 081156Z AUTO 35005KT 10SM CLR 15/06 A3006 RMK AO2 PWINO TSNO
     58001 T01500055 10200 20150 SLP180=
KLWA 081156Z AUTO 00000KT 10SM SCT044 OVC095 23/21 A3003 RMK
     AO2=
KMCD 081156Z AUTO 25003KT 4SM HZ OVC005 21/18 A2999 RMK AO2=
KMGN 081154Z AUTO 26003KT 5SM DZ BKN012 OVC110 22/20 A2999 RMK
     AO2=
KMOP 081154Z AUTO 26004KT 10SM OVC095 23/23 A3002 RMK AO2=
KMPZ 081155Z AUTO 33005KT 5SM OVC004 22/21 A3006 RMK AO2=
KMUT 081155Z AUTO 34005KT 5SM OVC008 23/21 A3005 RMK AO2=
KMXO 081155Z AUTO 00000KT 5SM OVC017 21/19 A3006 RMK AO2=
KMZH 081151Z AUTO 00000KT 10SM CLR 15/14 A3005 RMK AO2=
KOEB 081155Z AUTO 00000KT 5SM HZ CLR 24/21 A3006 RMK AO2=
KONZ 081157Z AUTO 00000KT 10SM CLR 26/21 A3003 RMK AO2=
KORB 081154Z AUTO 00000KT 10SM CLR 15/13 A3000 RMK AO2=
KORC 081155Z AUTO 31004KT 7SM CLR 17/17 A3017 RMK AO2=
KOSC 081154Z AUTO 22004KT 5SM -RA SCT013 SCT017 SCT110 22/21 A3000
     RMK AO2=
KOWA 081153Z AUTO 31003KT 10SM CLR 17/16 A3011 RMK AO2=
KOXV 081155Z AUTO 34005KT 10SM CLR 21/20 A3010 RMK AO2=
KOZW 081155Z AUTO 00000KT 7SM CLR 25/21 A3005 RMK AO2=
KPEA 081155Z AUTO 34005KT 10SM CLR 21/21 A3009 RMK AO2=
KPHN 081155Z AUTO 19003KT 7SM CLR 24/21 A3003 RMK AO2=
KRDK 081155Z AUTO 00000KT 10SM CLR 21/18 A3012 RMK AO2=
KRGK 081156Z AUTO 27003KT 10SM CLR 19/17 A3009 RMK AO2=
KRMY 081155Z AUTO 00000KT 7SM CLR 23/21 A3005 RMK AO2=
KRNP 081155Z AUTO 00000KT 10SM CLR 25/21 A3003 RMK AO2=
KRQB 081154Z AUTO 00000KT 5SM RA SCT065 BKN075 OVC090 22/21 A3004
     RMK AO2=
KSJX 081155Z AUTO 23008KT 1 3/4SM -DZ OVC002 20/18 A2999 RMK
     AO2=
KSLH 081155Z AUTO 27006KT 7SM -RA BKN013 OVC110 22/21 A2998 RMK
     AO2=
KTTF 081153Z AUTO 00000KT 7SM CLR 25/22 A3003 RMK AO2=
KUKT 081155Z AUTO 00000KT 6SM CLR 25/22 A3006 RMK AO1=
KVLL 081155Z AUTO 24003KT 10SM CLR 27/21 A3006 RMK AO2=
KVWU 081151Z AUTO 26008KT 10SM CLR 18/14 A3003 RMK AO2=
KXVG 081156Z AUTO 00000KT 10SM CLR 16/15 A3005 RMK AO2=
KY70 081155Z AUTO 00000KT 4SM BR CLR 24/22 A3003 RMK AO2 60012
     70012 T02350221 10247 20222=
KBWD 081155Z AUTO 10003KT 10SM FEW021 SCT028 BKN036 24/23 A3003
     RMK AO2=
KMTN 081155Z 06003KT 3SM BR SCT100 27/25 A3003=
KO22 081155Z AUTO 00000KT 10SM CLR 16/12 A2990 RMK AO1=
KBOW 081150Z 03005KT 12SM FEW250 23/22 A3001=
KEBS 081155Z AUTO 34004KT 10SM CLR 18/17 A3012 RMK AO2=
KSDA 081155Z AUTO 01006KT 10SM CLR 21/18 A3013 RMK AO2=
KSHL 081155Z AUTO 00000KT 5SM CLR 15/15 A3018 RMK AO2=
KTNU 081155Z AUTO 35007KT 10SM CLR 21/19 A3010 RMK AO2=
KTVK 081155Z AUTO 35004KT 10SM CLR 20/20 A3009 RMK AO2=
####018000295####
SPUS80 KWBC 081202
SPECI
KBDR 081159Z 12005KT 5SM HZ SCT006 BKN050 26/23 A3006 RMK AO2=
KCRP 081159Z 06005KT 7SM -TSRA FEW008 SCT020CB BKN045 26/25 A2984
     RMK AO2 OCNL LTGIC SW-W TS SW-W MOV W P0001 $=
KBKW 081159Z AUTO 00000KT 3SM BR CLR 22/19 A3018 RMK AO2 VISNO
     RWY19=
####018000101####
SPAU32 YBBN 081200
SPECI YPPD 081200Z AUTO 01007KT 5000NDV // SCT008 BKN021 OVC027 21/21
Q1010=
####018000090####
SARM31 LUKK 081200
METAR LUKK 081200Z 33008KT 9999 SCT032 25/15 Q1015 26CLRD65
NOSIG=
####018000118####
SAUS44 KLZK 081201
MTRMWT
SPECI KMWT 081200Z AUTO 00000KT 10SM FEW014 SCT024 BKN036 24/23 
A3006 RMK AO2 TSNO
####018000081####
SAJM31 MKJS 081200
METAR MKJS 081200Z 18009KT 9999 FEW024 BKN200 27/22 Q1013=
####018000936####
SAGR31 KWBC 081150 RRB
METAR
LGAD 081150Z 30014KT 9999 FEW020 27/15 Q1014=
LGAD 081150Z NIL=
LGAL 081150Z 03007KT 0000 FEW020TCU SCT025 21/15 Q1015=
LGAL 081150Z NIL=
LGAV 081150Z 04019KT 9999 SCT030 26/12 Q1013 NOSIG=
LGEL 081150Z 35014G24KT CAVOK 29/12 Q1011=
LGIR 081150Z 35009KT 9999 FEW020 29/23 Q1011 NOSIG=
LGKF 081150Z 31019KT 9999 FEW025 27/14 Q1014=
LGKL 081150Z 31012G25KT 9999 FEW030 33/12 Q1011=
LGKO 081150Z 31018KT 270V340 CAVOK 29/18 Q1009=
LGKR 081150Z NIL=
LGKV 081150Z 07018KT 9999 TS SCT020CB SCT025TCU BKN080 21/16
     Q1014=
LGLM 081150Z 04011KT 9999 FEW008 BKN020 21/16 Q1013=
LGMT 081150Z 36015KT 9999 FEW025 27/19 Q1011=
LGRP 081150Z 25014KT CAVOK 29/19 Q1008 NOSIG=
LGSA 081150Z 31014KT 9999 FEW020 33/14 Q1012=
LGSM 081150Z 36011KT 9999 FEW030 31/16 Q1010=
LGSR 081150Z 01014KT 9999 FEW025 27/18 Q1011 NOSIG=
LGTS 081150Z 34019G29KT 9999 FEW025 24/11 Q1016 NOSIG=
####018000346####
SAGR41 KWBC 081150 RRB
METAR
LGKP 081150Z NIL=
LGKZ 081150Z 32016KT 9999 FEW020 SCT070 22/07 Q1017=
LGMK 081150Z 02021KT 9999 FEW012 24/17 Q1012=
LGPZ 081150Z 25011KT 9999 FEW025 27/19 Q1013 NOSIG=
LGRX 081150Z 28011KT 9999 FEW025 28/14 Q1012 NOSIG=
LGSK 081150Z NIL=
LGZA 081150Z 30014KT CAVOK 30/08 Q1013=
LGZA 081150Z NIL=
####018000116####
SAMX31 KWBC 081245
METAR
MNMG 081200Z 30010KT 5000 +DZ FEW010CB BKN022 24/24 Q1011 A2987
     CB/W/NW/NE/S=
####018000087####
SAMM31 KWBC 081130 RRB
METAR
LCEN 081150Z 14015KT 9999 SCT025 33/18 Q1007 NOSIG=
####018000095####
SANO42 KWBC 081150 RRB
METAR
ENNO 081150Z 12013KT 9999 FEW020 SCT025 BKN060 19/15 Q1014=
####018000093####
SARA31 KWBC 081100 RRL
METAR
UTNU 081130Z 34003MPS CAVOK 41/16 Q1007 R13/CLRD60 NOSIG=
####018000541####
SAUK39 EGRR 081150 RRA
METAR EGOM 081150Z 24016KT 9999 SCT028 SCT050 15/08 Q1014 BLU=
METAR EGOP 081150Z 21008KT 9999 FEW020 18/14 Q1018 BLU=
METAR EGUB 081150Z 19009KT 9999 SCT030 BKN220 22/18 Q1018 BLU NOSIG=
METAR EGUY 081150Z 24010KT CAVOK 22/10 Q1018 BLU=
METAR EGVO 081150Z 24008KT 9999 SCT015 SCT030 22/16 Q1019 WHT BECMG
 SCT025 BLU=
METAR EGXJ 081150Z 23011KT 9999 FEW030 BKN250 21/07 Q1017 BLU=
METAR EGXX 081150Z AUTO 22011KT 9999NDV // NCD ///// Q////=
METAR EGYH 081150Z 22010KT 9999 FEW040 21/// Q1018 BLU=
####018000129####
SAUK31 KWBC 081150 RRB
METAR
EGNH 081150Z 24011KT 9999 FEW024 19/11 Q1017=
EGNJ 081150Z 22013KT 9999 SCT033 21/10 Q1017=
####018000333####
SAUK41 KWBC 081150 RRB
METAR
EGAE 081150Z NIL=
EGBE 081150Z NIL=
EGBJ 081150Z 25003KT 9999 FEW035 22/08 Q1018=
EGDL 081150Z 23009KT 9999 FEW030 BKN250 21/10 Q1018 NOSIG=
EGDM 081150Z NIL=
EGDY 081150Z NIL=
EGJA 081150Z 26005KT 9999 FEW006 19/16 Q1020=
EGNC 081150Z 24014KT 210V290 9999 FEW020 BKN025 17/09 Q1015=
####018000460####
SAUK42 KWBC 081150 RRA
METAR
EGOV 081150Z NIL=
EGPC 081150Z 20015G25KT 9999 FEW020 15/11 Q1008=
EGPE 081150Z 22021KT 9999 -SHRA FEW012 SCT036 16/10 Q1010=
EGPL 081150Z 21022KT 9999 VCSH FEW018 16/12 Q1008=
EGPM 081150Z 21024KT 9999 SCT028 17/10 Q1006 NOSIG=
EGPN 081150Z 24017KT 9999 FEW032 SCT045 17/12 Q1012=
EGPO 081150Z 23025KT 9999 FEW020CB SCT030 18/11 Q1006=
EGPU 081150Z NIL=
EGSC 081150Z 24008KT 190V270 9999 SCT028 22/13 Q1018=
####018000223####
SAUK32 KWBC 081150 RRC
METAR
EGPA 081150Z 21014KT 9999 VCSH FEW020TCU SCT048 15/12 Q1007=
EGPC 081150Z 20015G25KT 9999 FEW020 15/11 Q1008=
EGSH 081150Z 25009KT 220V280 9999 SCT018 SCT030 22/15 Q1018
     NOSIG=
####018000086####
SPUS41 KWBC 081202
SPECI
KBDR 081159Z 12005KT 5SM HZ SCT006 BKN050 26/23 A3006=
####018000089####
SAXX99 KWBC 081100 RRX
METAR
AYMO 081100Z AUTO 00000KT //// // ////// 27/24 Q1010=
####018000098####
SPUS42 KWBC 081202
SPECI
KCRP 081159Z 06005KT 7SM -TSRA FEW008 SCT020CB BKN045 26/25 A2984=
####018000085####
SAAT31 TRPG 081201
METAR TRPG 081200Z 07011KT 9999 SCT019 28/25 Q1016 RMK SLT HZ=
####018000096####
SAIV20 DIAP 081200
METAR DIAP 081200Z 21006KT 180V250 7000 SCT012 BKN070 28/25 Q1015
NOSIG=
####018000487####
SACU31 MUHA 081200
METAR
MUHA 081155Z 06003KT 7000 FEW018 25/24 Q1014=
MUVR 081150Z 00000KT 9000 FEW020 BKN200 24/22 Q1015=
MUCL 081155Z 13004KT 9999 FEW018 SCT060 28/26 Q1015=
MUCF 081154Z 00000KT 9000 NSC 25/24 Q1012=
MUSC 081152Z 25004KT 9000 FEW080 24/23 Q1014=
MUCC 081150Z 00000KT 9000 FEW020 27/22 Q1014=
MUCM 081151Z VRB02KT 9000 FEW020 25/22 Q1014=
MUMZ  NIL=
MUHG 081151Z 19006KT 150V220 8000 VCFG FEW020 26/23 Q1015=
MUCU 081154Z VRB02KT 9000 FEW020 26/24 Q1016=
####018000081####
SAVN22 SVMI 081200
METAR SVMI 081200Z 00000KT 9999 FEW016 BKN070 25/24 Q1014=
####018000081####
SABZ20 SBBV 081200
METAR SBBV 081200Z 28005KT 9999 SCT020 SCT070 27/23 Q1013=
####018000086####
SAUZ31 UTTW 081130
METAR UTNU 081130Z 34003MPS CAVOK 41/16 Q1007 R13/CLRD60 NOSIG=
####018000362####
SASD31 OEJD 081200
METAR OEDF 081200Z 36016KT CAVOK 45/04 Q0999 NOSIG=
METAR OEDR 081200Z NIL=
METAR OEJN 081200Z 30010KT CAVOK 38/25 Q1001 NOSIG=
METAR OEMA 081200Z 11005KT 9999 SCT045 47/M04 Q1005 NOSIG=
METAR OERK 081200Z 02015KT 5000 DU BLDU SKC 43/M04 Q1017 NOSIG=
METAR OERY 081200Z 05017KT 5000 SA SKC 44/M01 Q1007 NOSIG=
METAR OYSN 081200Z NIL=
####018000142####
SAUS41 KPHI 081202
MTRNEL
METAR KNEL 081200Z AUTO 15004KT 9SM FEW017 OVC095 26/21 A3005 RMK 
AO2 SLP173 T02560211 10256 20222 51007 $
####018000098####
SASR31 WSSS 081200
METAR WSSS 081200Z 22003KT 190V250 9999 FEW016 SCT190 28/24 Q1009
NOSIG=
####018000102####
SPUS52 KWBC 081202
SPECI
KCNM 081159Z AUTO 33007KT 10SM -RA FEW007 BKN017 OVC110 19/19
A3015=
####018000191####
SARW20 HRYR 081200
METAR
HRYR 081200Z 19007KT 9999 BKN030 25/13 Q1020 NOSIG=
HRYG 081200Z 18008KT 9999 FEW025 25/13 Q1020 NOSIG=
HRZA 081200Z 15018KT 9999 SCT024 25/13 Q1020 NOSIG=
####018000081####
SAPK31 OPKC 081200 RRA
METAR OPRN 081200Z 23018KT 9999 SCT040 39/18 Q1004.2=
####018000180####
SAJD20 OJAM 081200
METAR OJAI 081200Z 28009KT CAVOK 33/02 Q1012 NOSIG=
METAR OJAM 081200Z 24010KT 6000 NSC 33/05 Q1012 NOSIG=
METAR OJAQ 081200Z 36020KT CAVOK 38/30 Q1006=
####018000180####
SAJD31 OJAI 081200
METAR OJAI 081200Z 28009KT CAVOK 33/02 Q1012 NOSIG=
METAR OJAM 081200Z 24010KT 6000 NSC 33/05 Q1012 NOSIG=
METAR OJAQ 081200Z 36020KT CAVOK 38/30 Q1006=
####018000462####
SARH31 LDZM 081200
METAR LDSP 081200Z 23009KT 190V260 CAVOK 28/07 Q1020 NOSIG =
METAR LDPL 081200Z 25007KT 160V290 CAVOK 26/11 Q1022 NOSIG =
METAR LDDU 081200Z 28012KT 250V310 9999 FEW045 26/10 Q1018 NOSIG =
METAR LDZA 081200Z VRB03KT CAVOK 26/08 Q1022 NOSIG =
METAR LDZD 081200Z 26009KT 190V330 CAVOK 28/08 Q1020 NOSIG =
METAR LDRI 081200Z 28004KT 210V330 9999 FEW047 26/10 Q1021 NOSIG=
METAR LDOS 081200Z VRB04KT 9999 FEW033 25/08 Q1021 NOSIG=
####018000189####
SASQ41 LZIB 081200
METAR LZPP 081200Z 35007KT 310V050 CAVOK 24/10 Q1022=
METAR LZSL 081200Z 23006KT 120V310 CAVOK 27/11 Q1020=
METAR LZZI 081200Z 36005KT 300V050 CAVOK 23/07 Q1022=
####018000207####
SASQ31 LZIB 081200
METAR LZIB 081200Z 04008KT 350V080 CAVOK 25/07 Q1022=
METAR LZKZ 081200Z 35009KT 300V030 CAVOK 24/05 Q1021 NOSIG=
METAR LZTT 081200Z 09011KT 040V160 9999 FEW040 21/08 Q1022 NOSIG=
####018000101####
SASR31 WSSL 081200
METAR WSSL 081200Z 22003KT 9999 FEW018 BKN280 29/24 Q1009 RMK 1030Z
Q1008 =
####018000083####
SAHU31 LHBM 081200
METAR LHBP 081200Z 26006KT 200V330 CAVOK 24/10 Q1021 NOSIG=
####018000087####
SAUK37 EGGY 081150 RRA
METAR EGPI 081150Z AUTO 21016KT 9999NDV // NSC 15/09 Q1013=
####018000098####
SAFG20 SOCA 081200
METAR SOCA 081200Z 12006KT 080V180 9000 FEW006 SCT016 28/25 Q1013
NOSIG=
####018000102####
SPUS72 KWBC 081202
SPECI
KCNM 081159Z AUTO 33007KT 10SM -RA FEW007 BKN017 OVC110 19/19
A3015=
####018000098####
SPUS72 KWBC 081202
SPECI
KCRP 081159Z 06005KT 7SM -TSRA FEW008 SCT020CB BKN045 26/25 A2984=
####018000092####
SAMR20 TFFF 081200 CCA
METAR TFFF 081200Z 10012KT 9999 FEW020 SCT026 31/24 Q1014 NOSIG=
####018000069####
SABZ24 SBCG 081200
METAR SBCG 081200Z 07015KT CAVOK 22/08 Q1017=
####018000082####
SACN91 CWAO 081100 RRE
WHI SA 1100 AUTO8 M M M M/12/09/1805/M/0007 M 70MM=

####018000078####
SACN93 CWAO 081100 RRH
WOV SA 1100 AUTO8 M M M M/12/09/1402/M/ M 61MM=

####018000078####
SACN98 CWAO 081100 RRG
XBW SA 1100 AUTO8 M M M M/09/08/2404/M/ M 18MM=

####018000353####
SACN59 CWAO 081100 RRI
PEA SA 1100 AUTO8 M M M M/12/10/MMMM/M/ M 20MM=
PGE SA 1100 AUTO8 M M M M/12/11/2305/M/ M 86MM=
PSD SA 1100 AUTO8 M M M M/12/10/MMMM/M/ M 48MM=
PSP SA 1100 AUTO8 M M M M/10/08/MMMM/M/ M 50MM=
PTU SA 1100 AUTO8 M M M M/13/12/MMMM/M/0006 PCPN 0.6MM PAST HR M
16MM=
PWB SA 1100 AUTO8 M M M M/09/06/MMMM/M/ M 54MM=

####018000069####
SABZ24 SBPK 081200
METAR SBPK 081200Z 28005KT CAVOK 11/07 Q1021=
####018000087####
SACN92 CWAO 081100 RRF
WLG SA 1100 AUTO8 M M M 191/10/07/3009+16/M/M 3015 61MM=

####018000075####
SACN50 CWAO 081145
VOF SA 1145 AUTO8 M M M M/13/06/3502/M/M M 01MM=

####018000086####
SPUS81 KWBC 081202
SPECI
KBDR 081159Z 12005KT 5SM HZ SCT006 BKN050 26/23 A3006=
####018000528####
SACN60 CWAO 081100 RRF
PCC SA 1100 AUTO8 M M M M/12/10/1501/M/ M 56MM=
PDA SA 1100 AUTO8 M M M M/12/09/MMMM/M/ M 12MM=
PDU SA 1100 AUTO8 M M M M/12/11/MMMM/M/ M 28MM=
PEB SA 1100 AUTO8 M M M M/11/09/MMMM/M/ M 90MM=
PGI SA 1100 AUTO8 M M M M/10/09/2101/M/ M 33MM=
PHR SA 1100 AUTO8 M M M M/06/06/3402/M/ M 46MM=
PKI SA 1100 AUTO8 M M M M/13/11/MMMM/M/ M 51MM=
PLF SA 1100 AUTO8 M M M M/15/12/MMMM/M/ M 85MM=
PMN SA 1100 AUTO8 M M M M/12/10/MMMM/M/ M 53MM=
PSL SA 1100 AUTO8 M M M M/15/12/MMMM/M/ M 65MM=

####018000084####
SACN95 CWAO 081100 RRE
WTD SA 1100 AUTO8 M M M 118/07/07/3609/M/M M001 00MM=

####018000104####
SACN90 CWAO 081100 RRF
WFX SA 1100 AUTO8 M M M 143/09/07/3113/M/M PK WND 3217 1001Z 1011
36MM=

####018000098####
SPUS81 KWBC 081202
SPECI
KCRP 081159Z 06005KT 7SM -TSRA FEW008 SCT020CB BKN045 26/25 A2984=
####018000078####
SAMZ40 FQMA 081200
METAR FQQL 081200Z 14010KT 9999 SCT020 27/19 Q1023=

####018000203####
SAUS44 KCRP 081202
MTRNGP
METAR KNGP 081156Z COR 07003KT 10SM -RA FEW011 SCT022TCU BKN035 
28/26 A2982 RMK AO2 SLP098 TCU NE TCU DSNT E-SE WR// P0002 60012 
70015 T02790263 10289 20278 53006 $
####018000703####
SACH71 SCSC 081200
METAR
SCAR 081200Z 00000KT 9999 OVC021 15/09 Q1016=
SCDA 081200Z 02006KT 9999 OVC026 14/08 Q1017=
SCCF 081200Z 13026KT CAVOK 03/M13 Q1025=
SCFA 081200Z 00000KT 9999 BKN022 13/07 Q1016=
SCIP 081200Z 11003KT 9999 FEW012 BKN020 18/17 Q1022 TEMPO 5000
-SHRA=
SCAT 081200Z AUTO 03003KT 360V060 6000 // ///003 08/08 Q1017=
SCSE 081200Z 11004KT CAVOK 05/04 Q1017 NEFO PLAYA SKC=
SCER NIL=
SCVM 081200Z 09006KT CAVOK SKC 05/05 Q1020=
SCRD NIL=
SCSN 081200Z 11004KT CAVOK 04/04 Q1023=
SCEL 081200Z 12003KT 030V150 4000 BR SCT130 02/01 Q1022 NOSIG=
SCTB NIL=
SCRG NIL=
SCIC NIL=
SCCH NIL=
SCIE 081200Z 29011KT 9999 BKN006 OVC010 13/11 Q1019=
SCGE NIL=
####018000075####
SAAT31 TKPK 081200
METAR TKPK 081200Z 08012KT 9999 FEW016 29/25 Q1015=
####018000216####
SPUS17 KAWN 081200 RRI
SPECI KBLV 081151Z AUTO 17005KT 10SM -RA FEW042 SCT055 25/25 A3004
      RMK AO2 RAB1151 SLP170=
SPECI KFAF 081152Z 08005KT 10SM BKN013 27/27 A2999 RMK AO2A CIG 011V018
      SLP157=
####018001715####
SAEU KAWN 081200 RRI
METAR EGBJ 081150Z 25003KT 9999 FEW035 22/08 Q1018=
METAR EGEC 081150Z 21014KT 9999 FEW020 SCT030 16/09 Q1013=
METAR EGNC 081150Z 24014KT 210V290 9999 FEW020 BKN025 17/09 Q1015=
METAR EGNH 081150Z 24011KT 9999 FEW024 19/11 Q1017=
METAR EGNJ 081150Z 22013KT 9999 SCT033 21/10 Q1017=
METAR EGPA 081150Z 21014KT 9999 VCSH FEW020TCU SCT048 15/12 Q1007=
METAR EGPC 081150Z 20015G25KT 9999 FEW020 15/11 Q1008=
METAR EGPE 081150Z 22021KT 9999 -SHRA FEW012 SCT036 16/10 Q1010=
METAR EGPL 081150Z 21022KT 9999 VCSH FEW018 16/12 Q1008=
METAR COR EGPM 081150Z 21024KT 9999 SCT028 17/10 Q1006 NOSIG=
METAR EGPN 081150Z 24017KT 9999 FEW032 SCT045 17/12 Q1012=
METAR EGPO 081150Z 23025KT 9999 FEW020CB SCT030 18/11 Q1006=
METAR EGSC 081150Z 24008KT 190V270 9999 SCT028 22/13 Q1018=
METAR COR EGSH 081150Z 25009KT 220V280 9999 SCT018 SCT030 22/15 Q1018
      NOSIG=
METAR LGEL 081150Z 35014G24KT CAVOK 29/12 Q1011=
METAR LGHI 081150Z 35008KT CAVOK 27/19 Q1011=
METAR LGIR 081150Z 35009KT 9999 FEW020 29/23 Q1011 NOSIG=
METAR LGKC 081150Z 06014KT 9999 FEW010 30/20 Q1013=
METAR LGKL 081150Z 31012G25KT 9999 FEW030 33/12 Q1011=
METAR LGKO 081150Z 31018KT 270V340 CAVOK 29/18 Q1009=
METAR LGKV 081150Z 07018KT 9999 TS SCT020CB SCT025TCU BKN080 21/16
      Q1014=
METAR LGKZ 081150Z 32016KT 9999 FEW020 SCT070 22/07 Q1017=
METAR LGLM 081150Z 04011KT 9999 FEW008 BKN020 21/16 Q1013=
METAR LGMT 081150Z 36015KT 9999 FEW025 27/19 Q1011=
METAR LGRP 081150Z 25014KT CAVOK 29/19 Q1008 NOSIG=
METAR LGSA 081150Z 31014KT 9999 FEW020 33/14 Q1012=
METAR LGSM 081150Z 36011KT 9999 FEW030 31/16 Q1010=
METAR LGTS 081150Z 34019G29KT 9999 FEW025 24/11 Q1016 NOSIG=
####018001375####
SAXN17 KAWN 081100 RRL
METAR MMAN 081140Z 32006KT 12SM SCT040 23/22 A2990 RMK SLP096 5////
      912 8/500=
METAR MMCL 081141Z 00000KT 8SM SCT015 OVC080 26/24 A2978 RMK 8/67/
      HZY=
METAR MMCV 081141Z 00000KT 12SM SCT220 23/23 A2985 RMK SLP098 5////
      900 60238 8/005 AC=
METAR MMCZ 081144Z 09005KT 6SM BKN100 BKN200 26/24 A2987 RMK SLP110
      57007 917 8/078 SC HZY=
METAR MMDO 081140Z 03006KT 8SM SCT015 OVC020 17/16 A3012 RMK SLP071
      5//// 914 8/8// BINOVC=
METAR MMGL 081141Z 00000KT 10SM SCT010 BKN080 OVC300 19/16 A3003 RMK
      SLP040 52003 901 8/577=
METAR MMMV 081140Z 25005KT 8SM HZ BKN050 23/18 A2998 RMK 8/200=
METAR MMMZ 081141Z 01004KT 10SM SCT070 OVC200 26/22 A2975 RMK SLP074
      57003 967 8/077 ISOL S=
METAR MMNL 081141Z 03006KT 8SM SCT007 OVC020 27/24 A2988 RMK SLP142
      50003 909 8/5//=
METAR MMRX 081144Z 35006KT 7SM SCT006 BKN010 26/24 A2980 RMK SLP090
      5//// 904 8/800 OCNL DROPS HZY=
METAR MMTC 081143Z 00000KT 10SM BKN030 BKN080 22/18 A3001 RMK SLP070
      51024 924 8/570=
METAR MMTJ 081142Z 00000KT 5SM OVC013 16/14 A2993 RMK SLP134 56007
      910 8/5// HZY=
METAR MMTM 081142Z 24010KT 6SM SCT010 BKN020 OVC200 25/24 A2979 RMK
      SLP066 57027 980 8/807 BINOVC/VC TCU=
METAR MMTP 081140Z 00000KT 10SM BKN020 OVC100 24/22 A2990 RMK SLP096
      57003 904 8/17/=
####018001632####
SAXN17 KAWN 081200 RRC
METAR MMAA 081149Z 00000KT 8SM SCT015 BKN090 OVC300 26/23 A2978 RMK
      SLP081 57006 909 8/367 OCNL DROPS=
METAR MMCU 081146Z 07008KT 10SM OVC030 22/14 A3011 RMK SLP085 5////
      927 8/5//=
METAR MMHO 081148Z 00000KT 10SM BKN080 27/18 A2980 RMK SLP079 54000
      912 8/050 HZY=
METAR MMLM 081145Z 00000KT 10SM SKC 25/20 A//// RMK SLP/// 5//// 9//=
METAR MMLP 081156Z 18006KT 10SM SKC 18/14 A2978 RMK SLP102 5//// 957
      ISOL SC HZY RTS=
METAR MMMA 081148Z 32006KT 6SM SCT012TCU BKN065 BKN200 26/25 A2980
      RMK SLP071 5//// 900 8/254 HZ=
METAR MMML 081153Z 15010KT 10SM SKC 22/// A2968=
METAR MMMX 081145Z 14004KT 2 1/2SM -RA FEW008 OVC020 15/14 A3018 NOSIG
      RMK SLP052 57006 952 60075 8/4// VSBY TWR=
METAR MMMY 081145Z 33008KT 15SM SKC 24/22 A2988 RMK SLP104 53007 911
      ISOL AC=
METAR MMOX 081148Z 00000KT 4SM RA SCT006 SCT015 OVC080 16/14 A3008
      RMK SLP081 5//// 906 61138 8/72/ LWR VIS/ST S=
METAR MMPB 081145Z 00000KT 2SM -RA VV004 14/14 A3022 RMK 6//// 8////
      RAE11B-RA=
METAR MMTO 081145Z 29003KT 2SM BR HZ SCT010 OVC070 13/11 A3024 RMK
      SLP050 57003 957 8/47/ OCNL DROPS=
METAR MNMG 081200Z 30010KT 5000 +DZ FEW010CB BKN022 24/24 Q1011 A2987
      CB/W/NW/NE/S=
METAR MROC 081200Z 06004KT 9999 BR FEW003 BKN100 20/20 A3002 RMK VIS
      5000 N LOW ST SSW SE=
METAR PACZ 081155Z AUTO 07009KT 10SM 11/09 A3004 RMK AO1 T01060095=
METAR PASV 081155Z AUTO 00000KT 10SM SCT080 08/07 A2995 RMK AO1 T00830067=
METAR PASY 081156Z AUTO 02018G23KT 10SM OVC004 A2974 RMK AO2 SLPNO
      6//// 7//// 54000 TSNO PNO=
####018000701####
SPZZ40 KAWN 081200 RRN
SPECI CYPH 081156Z AUTO 24014KT 9SM OVC003 07/07 A2981=
SPECI CYSB 081157Z 18005KT 3/4SM R22/2800VP6000FT/N BR VV003 RMK FG8=
SPECI CYZE 081156Z AUTO 18007KT 4SM BR SCT004 BKN007 BKN130 20/20 A2997
      RMK SLP147 DENSITY ALT 1300FT=
SPECI CYZE 081157Z AUTO 19007KT 4SM BR BKN004 BKN130 20/20 A2997 RMK
      SLP147 DENSITY ALT 1300FT=
SPECI CYZE 081158Z AUTO 19007KT 4SM BR SCT004 BKN007 BKN130 20/20 A2997
      RMK SLP147 DENSITY ALT 1300FT=
SPECI KBLV 081151Z AUTO 17005KT 10SM -RA FEW042 SCT055 25/25 A3004
      RMK AO2 RAB1151 SLP170=
SPECI RKJK 081156Z 12007KT 3200 R36/1300VP1500 HZ SCT050 SCT130 24/21
      A2979 RMK AO2A DZE1156 SLP088 $=
####018000176####
SPXX70 KAWN 081100 RRD
SPECI KQGV 081150Z 31026G36KT 4200 BLDU CLR 47/M08 A2955=
SPECI KQAY 081154Z AUTO 36016G25KT 4700 HZ FEW019 48/M01 A2951 RMK
      AO2 SLP987 $=
####018000560####
SAXX70 KAWN 081200 RRE
METAR KQFT 081150Z AUTO 00000KT 3SM BR FEW006 BKN037 24/20 A2985 RMK
      A02=
METAR KQBS 081155Z 32014G22KT 9999 FEW025 49/M01 A2945 RMK DU FEW025
      SLP979 WND/ALSTG/SLP/QNH ESTMD QNH997 57014=
METAR KQD9 081155Z 13006G14KT 9999 FEW070 SCT160 34/15 A2986 RMK SLP030
      WND DATA ESTMD ALSTG/SLP ESTMD 56019=
METAR KQPV 081155Z AUTO 27009G14KT 230V300 9999 FEW220 45/06 A2966
      RMK AO2 SLP035 T04460057 10443 20321 57011=
METAR KQSD 081155Z 19002KT 9000 SCT080 35/01 A2999 RMK AO2A SLP012
      57018 $=
####018001679####
SANA35 KAWN 081200 RRB
METAR KACY 081154Z 13003KT 8SM FEW060 25/22 A3004 RMK AO2 RAE1058B21E39
      SLP172 P0001 60001 70001 T02500222 10256 20228 51008=
METAR KCHS 081156Z 29006KT 7SM CLR 25/20 A2997 RMK AO2 SLP149 T02500200
      10250 20239 53005=
METAR KDAB 081153Z 00000KT 10SM FEW020 SCT150 23/21 A3000 RMK AO2 SLP158
      T02330211 10233 20200 51004=
METAR KFLL 081153Z COR 08007KT 10SM FEW019 29/24 A2994 RMK AO2 SLP138
      T02890239 10289 20278 53008=
METAR KLFI 081155Z 09007KT 10SM FEW011 OVC090 26/22 A3000 RMK AO2A
      SLP159 T02580219 10259 20254 53014 $=
METAR KNBG 081155Z 06004KT 7SM SCT010 BKN250 26/23 A3002 RMK AO2 SLP166
      T02620233 50008 $=
METAR KNTU 081156Z COR 08006KT 10SM FEW015 SCT050 BKN100 26/23 A2998
      RMK AO2 SLP153 T02560233 10261 20250 53010 CHINO RWY 05R $=
METAR KPAM 081155Z 35004KT 10SM CLR 25/25 A3002 RMK AO2A SLP167 T02530251
      10253 20229 53007=
METAR KPBI 081153Z COR 08004KT 6SM -RA BR SCT022 BKN028CB BKN050 26/24
      A2996 RMK AO2 RAB16 SLP143 VIS N-NE 1 1/2 CB OHD-W-N-E MOV W
      P0001 60001 70011 T02610244 10278 20261 53011=
METAR KVPS 081155Z 33001KT 10SM BR FEW010 24/23 A3004 RMK AO2A VIS
      NE 2 SLP172 T02420233 10251 20231 53007=
METAR MDSD 081200Z 04006KT 9999 FEW018 26/24 Q1015=
METAR MMVR 081145Z 00000KT 7SM SCT010 BKN020 OVC070 25/25 A2981 RMK
      SLP073 57006 904 60045 8/77/ INTMT -RA ISOL CBS=
METAR MUGM 081156Z 35007KT 9999 FEW100 BKN250 26/23 A2996 RMK SLP146
      70013 T02560228 10261 20244 56004=
METAR MYNN 081200Z 00000KT 9999 SCT012CB SCT015TCU BKN220 26/25 A2995=
METAR SAWH 081200Z 00000KT 9999 FEW025 01/M01 Q0983=
####018001706####
SAZZ40 KAWN 081200 RRJ
METAR KFFO 081158Z 00000KT 3SM HZ CLR 23/21 A3009 RMK AO2A SLP183 10236
      20208 52006=
METAR KHIF 081155Z 07010G19KT 10SM FEW140 16/07 A3013 RMK AO2A SLP105
      MIDFLD WND 080/18G21KT T01590068 10208 20159 53006 $=
METAR KHLR 081156Z AUTO 07004KT 10SM OVC011 25/ A3000 RMK AO2 SLP150
      60000 T0250 10261 20250 53004 $=
METAR KNBC 081156Z 27005KT 7SM CLR 26/19 A2999 RMK AO2 SLP155 T02560194
      10256 20228 53006=
METAR KNFG 081156Z AUTO 00000KT 9SM BKN011 OVC017 16/14 A2990 RMK AO2
      SLP123 T01560139 10161 20156 55001 TSNO=
METAR KNFL 081156Z AUTO 23004KT 10SM CLR 17/03 A3000 RMK AO2 SLP129
      T01670033 10283 20161 53009 TSNO=
METAR KNGP 081156Z 07003KT 10SM -RA BKN039 BKN050 28/26 A2982 RMK AO2
      SLP098 TCU N TCU DSNT NE AND W WR// P0002 60012 70015
      T02790263 10289 20278 53006 $=
METAR KNLC 081156Z AUTO 30005KT 10SM CLR 16/10 A2983 RMK AO2 SLP098
      T01610100 10239 20161 53002 TSNO $=
METAR KNQI 081156Z 01005KT 10SM TS SCT014CB BKN140 BKN280 27/24 A2983
      RMK AO2 SLP097 OCNL LTGICCG NE-E TSB28RAE19 TS NE-E MOV W CB
      DSNT S P0006 60017 70017 T02670244 10272 20267 51003 $=
METAR KNRS 081156Z AUTO 30006KT 10SM OVC016 17/14 A2990 RMK AO2 SLP124
      T01720139 10172 20161 55001 TSNO $=
METAR KNTU 081156Z COR 08006KT 10SM FEW015 SCT050 BKN100 26/23 A2998
      RMK AO2 SLP153 T02560233 10261 20250 53010 CHINO RWY 05R $=
METAR KNUQ 081156Z AUTO 02003KT 10SM OVC011 15/12 A2992 RMK AO2 SLP134
      T01500117 10161 20150 56003 TSNO=
METAR MNMG 081200Z 30010KT 5000 +DZ FEW010CB BKN022 24/24 Q1011 A2987
      CB/W/NW/NE/S=
METAR ORER 081155Z 19005KT CAVOK 43/M06 Q1004=
####018000618####
SAMC32 GMMC 081200
METAR GMFF 081200Z 26004KT 8000 FEW033 SCT100 31/19 Q1018 NOSIG=
METAR GMFK 081200Z 00000KT CAVOK 36/07 Q1024=
METAR GMFM 081200Z 32004KT 6000 SKC 30/19 Q1018=
METAR GMFO 081200Z 18011KT 140V200 CAVOK 43/10 Q1017 NOSIG=
METAR GMMC 081200Z 36003KT 5000 SCT016 BKN026 24/19 Q1013=
METAR GMMH 081200Z 02020KT 8000 SCT010 BKN080 22/17 Q1014=
METAR GMML 081200Z 04016KT 9999 SCT020 BKN200 27/17 Q1016=
METAR GMMW 081200Z 06015KT CAVOK 29/19 Q1016=
METAR GMMZ 081200Z 14009KT 9999 FEW040 FEW050TCU 38/01 Q1024=
METAR GMTA 081200Z 36010KT CAVOK 24/20 Q1016=
METAR GMTN 081200Z NIL=
####018000449####
SAMC31 GMMC 081200
METAR GMAD 081200Z 27010KT 220V300 8000 SCT020 28/18 Q1014=
METAR GMFF 081200Z 26004KT 8000 FEW033 SCT100 31/19 Q1018 NOSIG=
METAR GMME 081200Z 34007KT 300V020 6000 SCT010 BKN015 24/19 Q1017
NOSIG=
METAR GMMN 081200Z 01009KT 330V050 9999 SCT016 BKN023 26/19 Q1017
NOSIG=
METAR GMMX 081200Z 31004KT 240V050 8000 FEW026 34/17 Q1016 NOSIG=
METAR GMTT 081200Z 27007KT 240V310 8000 SCT016 BKN230 25/20 Q1016
NOSIG=
####018000718####
SACH72 SCSC 081200
METAR
SCEL 081200Z 12003KT 030V150 4000 BR SCT130 02/01 Q1022 NOSIG=
SCIE 081200Z 29011KT 9999 BKN006 OVC010 13/11 Q1019=
SCTC 081200Z 30008KT 270V330 9999 FEW010 BKN012 OVC025 10/10
    Q1015=
SCPC NIL=
SCVD NIL=
SCJO NIL=
SCTE 081200Z 24004KT 5000 SHRA FEW008 OVC020 08/07 Q1011 NOSIG=
SCMK NIL=
SCON NIL=
SCFT 081200Z AUTO 30005KT 250V330 9999 RA ///021 03/01 Q1006=
SCAP NIL=
SCAS NIL=
SCCY 081200Z 03004KT 9999 SCT030 M00/M01 Q1004=
SCBA 081200Z AUTO 28009KT CAVOK M04/M06 Q1002=
SCCC NIL=
SCHR NIL=
SCNT NIL=
SCCI 081200Z 35013KT 9999 FEW025 SCT070 M03/M04 Q0986 NOSIG=
SCFM 081200Z 02010KT 9999 FEW020 SCT040 M01/M04 Q0987=
SCGZ NIL=
SCRM NIL=
####018000097####
SAEU KAWN 081100 RRX
METAR ENGM 081141Z 17014KT 9999 FEW010 SCT030 BKN140 17/14 Q1015 NOSIG=
####018001696####
SANA14 KAWN 081200 RRB
METAR KNFG 081156Z AUTO 00000KT 9SM BKN011 OVC017 16/14 A2990 RMK AO2
      SLP123 T01560139 10161 20156 55001 TSNO=
METAR KNFL 081156Z AUTO 23004KT 10SM CLR 17/03 A3000 RMK AO2 SLP129
      T01670033 10283 20161 53009 TSNO=
METAR KNKX 081155Z 32005KT 10SM OVC014 16/14 A2990 RMK AO2 SLP119 70001
      T01560139 10167 20156 55000=
METAR KNLC 081156Z AUTO 30005KT 10SM CLR 16/10 A2983 RMK AO2 SLP098
      T01610100 10239 20161 53002 TSNO $=
METAR KNMM 081156Z 28003KT 10SM FEW250 24/22 A3007 RMK AO2 SLP188 T02440222
      10244 20222 52010=
METAR KNQI 081156Z 01005KT 10SM TS SCT014CB BKN140 BKN280 27/24 A2983
      RMK AO2 SLP097 OCNL LTGICCG NE-E TSB28RAE19 TS NE-E MOV W CB
      DSNT S P0006 60017 70017 T02670244 10272 20267 51003 $=
METAR KNTU 081156Z COR 08006KT 10SM FEW015 SCT050 BKN100 26/23 A2998
      RMK AO2 SLP153 T02560233 10261 20250 53010 CHINO RWY 05R $=
METAR KNYG 081156Z 08004KT 6SM HZ FEW090 BKN200 27/22 A3001 RMK AO2
      SLP163 T02670222 10272 20250 51010=
METAR KNYL 081155Z AUTO 00000KT 10SM CLR 27/00 A2972 RMK AO2 SLP061
      T02670000 10300 20261 53004=
METAR KPAM 081155Z 35004KT 10SM CLR 25/25 A3002 RMK AO2A SLP167 T02530251
      10253 20229 53007=
METAR KPOE 081155Z 08005KT 10SM FEW015 24/23 A3003 RMK AO2 SLP169 70021
      T02390228 10250 20239 $=
METAR KSKF 081155Z 03006KT 7SM -RA FEW011 BKN020 BKN035 25/24 A2993
      RMK AO2A RAE1101B1142 FEW V SCT SLP125 P0000 60000 T02520238
      10264 20252 53001 $=
METAR KVBG 081155Z AUTO 31003KT 10SM OVC004 12/11 A2993 RMK AO2 SLP127
      T01170111 10128 20117 53002 TSNO $=
METAR SBBR 081200Z 01004KT CAVOK 19/09 Q1024=
####018000106####
SABE31 TXKF 081154
METAR TXKF 081155Z 15013KT 9999 SCT015CB SCT180 BKN300
27/23 Q1019 RMK CB DSNT S
####018001661####
SASA KAWN 081200 RRA
METAR SAWH 081200Z 00000KT 9999 FEW025 01/M01 Q0983=
METAR SBBE 081200Z 10008KT 9999 FEW013 SCT100 29/23 Q1014=
METAR SBBR 081200Z 01004KT CAVOK 19/09 Q1024=
METAR SBCB 081200Z 04005KT CAVOK 21/16 Q1019=
METAR SBCF 081200Z 21003KT CAVOK 13/09 Q1024=
METAR SBCR 081200Z 12006KT CAVOK 26/11 Q1014=
METAR SBEG 081200Z 00000KT 9999 FEW015 SCT100 26/22 Q1012=
METAR SBFI 081200Z 22004KT 9999 FEW004 SCT100 17/15 Q1017=
METAR SBFL 081200Z 17007KT CAVOK 21/16 Q1018=
METAR SBGL 081200Z 00000KT 9000 NSC 21/16 Q1019=
METAR SBGO 081200Z 25002KT CAVOK 20/11 Q1021=
METAR SBGR 081200Z 04003KT CAVOK 19/09 Q1023=
METAR SBJP 081200Z 18008KT 9999 FEW020 BKN070 26/23 Q1016=
METAR SBKP 081200Z 09003KT 8000 NSC 17/10 Q1022=
METAR SBLO 081200Z 22002KT CAVOK 17/13 Q1021=
METAR SBMO 081200Z 30002KT 8000 BKN020 SCT100 23/21 Q1017=
METAR SBNT 081200Z 15009KT 9999 FEW023 BKN100 26/22 Q1015=
METAR SBPA 081200Z 20004KT 4000 -RA BR BKN010 OVC020 15/13 Q1020=
METAR SBPP 081200Z 00000KT CAVOK 23/10 Q1018=
METAR SBPV 081200Z 05004KT CAVOK 26/22 Q1013=
METAR SBRB 081200Z 02004KT CAVOK 26/24 Q1013=
METAR SBRF 081200Z 22005KT 9999 FEW020 BKN070 26/22 Q1016=
METAR SBSL 081200Z 09010KT 9999 SCT017 29/25 Q1014=
METAR SBSN 081200Z 06008KT 9999 SCT015 28/25 Q1013=
METAR SGAS 081200Z 14007KT 8000 BKN008 OVC012 17/15 Q1016=
METAR SGES 081200Z 16005KT CAVOK 17/17 Q1016=
METAR SLCB 081200Z 00000KT 4000SE FU FEW027 SCT200 06/02 Q1027=
METAR SLLP 081200Z 03003KT 9999 NSC M01/M03 Q1037=
METAR SLTJ 081200Z 00000KT 9999 FEW020 08/05 Q1022=
METAR SLVR 081200Z 17012KT 9999 FEW030 BKN070 BKN200 20/17 Q1016=
####018000081####
SAZZ40 KAWN 081100 RRV
METAR DAUA 081100Z 01026KT 4000 DRSA NSC 43/08 Q1014=
####018001702####
SAZZ40 KAWN 081200 RRK
METAR KNCA 081156Z 03005KT 4SM HZ BKN180 26/23 A2994 RMK AO2 SLP140
      T02610228 10267 20233 53010=
METAR KNID 081156Z AUTO 00000KT FEW090 18/02 A2986 RMK AO2 SLP092 T01780022
      10289 20178 53010 TSNO $=
METAR KNJK 081156Z AUTO 20004KT 10SM CLR 23/16 A2970 RMK AO2 SLP072
      T02280161 10300 20217 52007 TSNO=
METAR KNTD 081156Z AUTO 28006KT 9SM OVC011 14/13 A2990 RMK AO2 SLP125
      6//// 7//// T01440128 10156 20144 55001 TSNO PNO VISNO N $=
METAR KNTU 081156Z 08006KT 10SM CLR 26/23 A2998 RMK AO2 SLP153 60000
      T02560233 10261 20250 53010 CHINO RWY 05R $=
METAR KNUW 081156Z 00000KT 10SM CLR 14/11 A2997 RMK AO2 SLP152 T01390106
      10211 20133 53002 $=
METAR KNXP 081156Z AUTO 31005KT CLR 24/01 A2992 RMK AO2 SLP093 T02390011
      10294 20233 53006 $=
METAR KNXX 081156Z 00000KT 4SM HZ CLR 26/21 A3005 RMK AO2 PK WND 33030/1106
      SLP180 T02610211 10261 20228 53008 $=
METAR KRND 081155Z 04008KT 9SM -DZ BKN007 OVC012 25/24 A2994 RMK AO2A
      DZB1118E1134B1155 SLP129 P0000 60000 T02470237 10255 20246
      53002=
METAR LQBK 081200Z 31006KT 9999 FEW040 24/11 Q1022 NOSIG=
METAR MPDA 081200Z 00000KT 9999 SCT030 OVC200 23/23 Q1011=
METAR MUCF 081154Z 00000KT 9000 NSC 25/24 Q1012=
METAR MUCM 081151Z VRB02KT 9000 FEW020 25/22 Q1014=
METAR MUCU 081154Z VRB02KT 9000 FEW020 26/24 Q1016=
METAR PAGA 081158Z AUTO 00000KT 10SM CLR 11/08 A3006 RMK AO2 SLP226
      T01110078 10217 20111 50000=
METAR ROTM 081158Z 20011G17KT 9999 SCT010 BKN100 BKN180 27/27 A2986
      RMK SLP097 T0267026 10283 20267 53014=
METAR TXKF 081155Z 15013KT 9999 SCT015CB SCT180 BKN300 27/23 Q1019
      RMK CB DSNT S=
####018000560####
SAXX70 KAWN 081200 RRF
METAR KQSL 081155Z 33012G17KT 9999 CLR 45/02 A2964 RMK SLP027 Q1003MB
      57008=
METAR KQEN 081200Z AUTO 26005KT 7SM BKN075 20/16 A3042 RMK A02=
METAR KQEP 081200Z AUTO 16002KT 4SM -SHRA FEW042 BKN100 23/19 A2988
      RMK A02=
METAR KQER 081200Z AUTO 17001KT 2SM -SHRA BR SCT033 BKN110 21/19 A2989
      RMK A02=
METAR KQES 081200Z AUTO 30008KT 7SM -DZ FEW039 20/18 A2988 RMK A02=
METAR KQEY 081200Z AUTO 33005KT 7SM FEW100 25/18 A2961 RMK A02=
METAR KQEV 081210Z AUTO 23002KT 7SM DZ OVC065 25/20 A2981 RMK A02=
####018002135####
SAUS20 KNKA 081202
METAR K0R3 081159Z AUTO 06003KT 5SM BR BKN003 26/25 A3000 RMK AO2=
METAR K1A5 081200Z AUTO 00000KT 2 1/2SM BR BKN001 18/17 A3017 RMK 
     AO2 T01760165 10190 20158=
METAR K3I2 081200Z AUTO 00000KT 4SM BR SCT001 21/20 A3010 RMK AO2=
METAR K3J7 081200Z AUTO 00000KT 10SM CLR 24/22 A3001 RMK AO2=
METAR K47A 081200Z AUTO 00000KT 10SM CLR 22/18 A3008 RMK AO2 LTG 
     DSNT NE T02190181=
METAR KASJ 081157Z AUTO 02004KT 3SM HZ CLR 26/23 A3000 RMK AO2=
METAR KAVC 081200Z AUTO 00000KT 5SM HZ CLR 28/21 A3005 RMK AO2=
METAR KBCB 081200Z AUTO 00000KT 4SM HZ CLR 25/22 A3016 RMK AO2=
METAR KBIJ 081200Z AUTO 00000KT 10SM CLR 22/ A3003 RMK AO2=
METAR KBQP 081207Z AUTO 00000KT 2 1/2SM BR CLR 24/24 A3006 RMK AO2=
SPECI KCRP 081159Z 06005KT 7SM -TSRA FEW008 SCT020CB BKN045 26/25
     A2984 RMK AO2 OCNL LTGIC SW-W TS SW-W MOV W P0001 $=
METAR KCTZ 081200Z AUTO 36003KT 5SM HZ CLR 26/22 A2995 RMK AO2=
METAR KCWV 081209Z AUTO 28004KT 10SM CLR 26/23 A3001 RMK AO2=
METAR KDPL 081200Z AUTO 03004KT 5SM HZ CLR 27/22 A2996 RMK AO2=
SPECI KDRT 081201Z AUTO 00000KT 8SM SCT019 BKN023 BKN050 24/22 A2996 
    RMK AO2=
METAR KEXX 081159Z AUTO 00000KT 7SM CLR 23/19 A3002 RMK AO2=
METAR KFQD 081159Z AUTO 00000KT 10SM SCT100 24/18 A3006 RMK AO2=
METAR KHRJ 081201Z AUTO 00000KT 5SM HZ CLR 28/21 A2997 RMK AO2=
METAR KJNX 081159Z AUTO 36004KT 7SM CLR 26/21 A2997 RMK AO2=
METAR KJYL 081201Z AUTO 00000KT 10SM CLR 25/22 A3001 RMK AO2=
METAR KMHR 081150Z 15005KT 10SM FEW150 12/10 A2985=
METAR KMLJ 081202Z AUTO 00000KT 10SM CLR 24/22 A3003 RMK AO2=
METAR KMQI 081156Z AUTO 07009KT 10SM SCT011 27/23 A2997 RMK AO2=
METAR KMWK 081202Z AUTO 00000KT 5SM HZ CLR 26/19 A3007 RMK AO2=
METAR KPGV 081200Z AUTO 01003KT 3SM BR SCT110 25/23 A2998 RMK AO2=
METAR KRIL 081153Z AUTO 00000KT 10SM CLR 12/08 A3027 RMK AO2
     SLP184 60000 70003 T01170078 10172 20111 53007 TSNO=
METAR KTNB 081201Z AUTO 00000KT 10SM CLR 18/16 A3021 RMK AO2=
METAR KUKF 081201Z AUTO 00000KT 5SM CLR 22/19 A3009 RMK AO1=
METAR KUNV 081200Z AUTO 00000KT 7SM CLR 23/19 A3010 RMK AO2 
     T02260192=
####018000136####
SAAK41 KNKA 081202
METAR PAVC 081156Z AUTO 07005KT 10SM 06/06 A2992 RMK AO2 PWINO TSNO 
    58013 T00550055 10100 20038 SLP132 $=
####018000085####
SASR31 WSAP 081200
METAR WSAP 081200Z 18004KT 9999 
FEW018 BKN180 30/25 Q1009=
####018001778####
SAEU KAWN 081200 RRJ
METAR EGJA 081150Z 26005KT 9999 FEW006 19/16 Q1020=
METAR EGOP 081150Z 21008KT 9999 FEW020 18/14 Q1018 BLU=
METAR EGXJ 081150Z 23011KT 9999 FEW030 BKN250 21/07 Q1017 BLU=
METAR EGXX 081150Z AUTO 22011KT 9999NDV // NCD ///// Q////=
METAR EGYH 081150Z 22010KT 9999 FEW040 21/// Q1018 BLU=
METAR EGYM 081150Z 24010KT CAVOK 22/11 Q1018 BLU NOSIG=
METAR ENBS 081150Z 21006KT 160V240 9999 FEW027 15/08 Q1016=
METAR ENNO 081150Z 12013KT 9999 FEW020 SCT025 BKN060 19/15 Q1014=
METAR LBBG 081200Z 31006MPS 9999 BKN026 BKN034 19/15 Q1015 NOSIG=
METAR LBGO 081200Z 29003MPS 260V320 5000 -RA BKN010 OVC040 16/14 Q1018
      RERA NOSIG=
METAR LBPD 081200Z 26005MPS 230V290 9999 SCT050 BKN075 17/13 Q1017
      NOSIG=
METAR LBSF 081200Z 28005MPS 9999 FEW026 BKN036 18/13 Q1018 NOSIG=
METAR LBWN 081200Z 27005MPS 240V300 9999 BKN032 20/16 Q1014 NOSIG=
METAR LDDU 081200Z 28012KT 250V310 9999 FEW045 26/10 Q1018 NOSIG=
METAR LDPL 081200Z 25007KT 160V290 CAVOK 26/11 Q1022 NOSIG=
METAR LDRI 081200Z 28004KT 210V330 9999 FEW047 26/10 Q1021 NOSIG=
METAR LDSP 081200Z 23009KT 190V260 CAVOK 28/07 Q1020 NOSIG=
METAR LDZA 081200Z VRB03KT CAVOK 26/08 Q1022 NOSIG=
METAR LDZD 081200Z 26009KT 190V330 CAVOK 28/08 Q1020 NOSIG=
METAR LGAD 081150Z 30014KT 9999 FEW020 27/15 Q1014=
METAR LGAL 081150Z 03007KT 0000 FEW020TCU SCT025 21/15 Q1015=
METAR LGKF 081150Z 31019KT 9999 FEW025 27/14 Q1014=
METAR LGMK 081150Z 02021KT 9999 FEW012 24/17 Q1012=
METAR LGSO 081150Z 36018KT 9999 FEW018 25/18 Q1012=
METAR LGZA 081150Z 30014KT CAVOK 30/08 Q1013=
METAR LQBK 081200Z 31006KT 9999 FEW040 24/11 Q1022 NOSIG=
METAR LZIB 081200Z 04008KT 350V080 CAVOK 25/07 Q1022=
METAR LZTT 081200Z 09011KT 040V160 9999 FEW040 21/08 Q1022 NOSIG=
####018000084####
SABC40 FBSK 081200
METAR FBSK 081200Z 07011KT 9999 BKN020 19/07 Q1029 NOSIG=

####018000079####
SALC31 TLPL 081200
METAR TLPL 081200Z 09019KT 9999 SCT026 BKN300 30/25 Q1014=####018000142####
SAUS44 KMOB 081202 COR
MTR79J
METAR K79J 081156Z AUTO 00000KT 10SM CLR 24/22 A3003 RMK AO2 SLP165 
T02440217 10256 20233 53005 TSNO $
####018000083####
SAUK39 EGRR 081150 RRB
METAR EGDX 081150Z 25005KT 9999 FEW020 20/11 Q1018 BLU=
####018000154####
SAUK39 EGRR 081150 RRC
METAR EGWC 081150Z 22008KT 9999 BKN028 20/10 Q1018 BLU=
METAR EGOS 081150Z 25008KT 9999 SCT036 BKN250 20/08 Q1017 BLU NOSIG=
####018000090####
SAUK39 EGRR 081150 RRD
METAR EGXP 081050Z 23009KT 9999 FEW042 SCT100 21/09 Q1017 BLU=
####018000838####
SAUS20 KNKA 081202
METAR KBJC 081151Z 33007KT 8SM BKN008 OVC025 13/12 A3033=
SPECI KDEN 081201Z 01005KT 1/4SM R35L/P6000FT BR VV006 13/12 A3032 
    RMK AO2 SFC VIS 1 TWR IN CLDS $=
SPECI KDGW 081201Z AUTO 17003KT 10SM SCT003 05/04 A3035 RMK AO2 $=
SPECI KFAF 081152Z 08005KT 10SM BKN013 27/27 A2999 RMK AO2A CIG 011V018
      SLP157=
SPECI KFRG 081201Z 17004KT 5SM RA BR BKN015 BKN021 OVC055 25/23 
    A3006 RMK AO2 RAB1155 P0000=
SPECI KGCK 081201Z 02009KT 10SM SCT007 OVC015 18/16 A3024 RMK AO2=
METAR KIAH 081153Z 07010KT 7SM -RA FEW005 SCT030 BKN060 BKN130
    26/24 A2995=
SPECI KPHL 081201Z 16005KT 2 1/2SM BR BKN006 BKN150 25/23 A3003 RMK 
    AO2 $=
SPECI KPYM 081201Z AUTO VRB03KT 10SM OVC012 24/21 A3011 RMK AO2=
SPECI KUIN 081201Z AUTO 32004KT 6SM BR BKN001 OVC007 23/22 A3005 RMK 
    AO2=
####018002005####
SAUS99 KWBC 081203
METAR
K0R3 081159Z AUTO 06003KT 5SM BR BKN003 26/25 A3000 RMK AO2=
K1A5 081200Z AUTO 00000KT 2 1/2SM BR BKN001 18/17 A3017 RMK AO2
     T01760165 10190 20158=
K3I2 081200Z AUTO 00000KT 4SM BR SCT001 21/20 A3010 RMK AO2=
K3J7 081200Z AUTO 00000KT 10SM CLR 24/22 A3001 RMK AO2=
K47A 081200Z AUTO 00000KT 10SM CLR 22/18 A3008 RMK AO2 LTG DSNT NE
     T02190181=
KASJ 081157Z AUTO 02004KT 3SM HZ CLR 26/23 A3000 RMK AO2=
KAVC 081200Z AUTO 00000KT 5SM HZ CLR 28/21 A3005 RMK AO2=
KBCB 081200Z AUTO 00000KT 4SM HZ CLR 25/22 A3016 RMK AO2=
KBIJ 081200Z AUTO 00000KT 10SM CLR 22/ A3003 RMK AO2=
KBQP 081207Z AUTO 00000KT 2 1/2SM BR CLR 24/24 A3006 RMK AO2=
KCTZ 081200Z AUTO 36003KT 5SM HZ CLR 26/22 A2995 RMK AO2=
KCWV 081209Z AUTO 28004KT 10SM CLR 26/23 A3001 RMK AO2=
KDPL 081200Z AUTO 03004KT 5SM HZ CLR 27/22 A2996 RMK AO2=
KEXX 081159Z AUTO 00000KT 7SM CLR 23/19 A3002 RMK AO2=
KFQD 081159Z AUTO 00000KT 10SM SCT100 24/18 A3006 RMK AO2=
KHRJ 081201Z AUTO 00000KT 5SM HZ CLR 28/21 A2997 RMK AO2=
KJNX 081159Z AUTO 36004KT 7SM CLR 26/21 A2997 RMK AO2=
KJYL 081201Z AUTO 00000KT 10SM CLR 25/22 A3001 RMK AO2=
KMHR 081150Z 15005KT 10SM FEW150 12/10 A2985=
KMLJ 081202Z AUTO 00000KT 10SM CLR 24/22 A3003 RMK AO2=
KMQI 081156Z AUTO 07009KT 10SM SCT011 27/23 A2997 RMK AO2=
KMWK 081202Z AUTO 00000KT 5SM HZ CLR 26/19 A3007 RMK AO2=
KPGV 081200Z AUTO 01003KT 3SM BR SCT110 25/23 A2998 RMK AO2=
KRIL 081153Z AUTO 00000KT 10SM CLR 12/08 A3027 RMK AO2 SLP184
     60000 70003 T01170078 10172 20111 53007 TSNO=
KTNB 081201Z AUTO 00000KT 10SM CLR 18/16 A3021 RMK AO2=
KUKF 081201Z AUTO 00000KT 5SM CLR 22/19 A3009 RMK AO1=
KUNV 081200Z AUTO 00000KT 7SM CLR 23/19 A3010 RMK AO2
     T02260192=
PAVC 081156Z AUTO 07005KT 10SM 06/06 A2992 RMK AO2 PWINO TSNO
     58013 T00550055 10100 20038 SLP132 $=
KBJC 081151Z 33007KT 8SM BKN008 OVC025 13/12 A3033=
KIAH 081153Z 07010KT 7SM -RA FEW005 SCT030 BKN060 BKN130 26/24
     A2995=
####018000856####
SPUS99 KWBC 081203
SPECI
KCRP 081159Z 06005KT 7SM -TSRA FEW008 SCT020CB BKN045 26/25 A2984
     RMK AO2 OCNL LTGIC SW-W TS SW-W MOV W P0001 $=
KDRT 081201Z AUTO 00000KT 8SM SCT019 BKN023 BKN050 24/22 A2996 RMK
     AO2=
KDEN 081201Z 01005KT 1/4SM R35L/P6000FT BR VV006 13/12 A3032 RMK
     AO2 SFC VIS 1 TWR IN CLDS $=
KDGW 081201Z AUTO 17003KT 10SM SCT003 05/04 A3035 RMK AO2 $=
KFAF 081152Z 08005KT 10SM BKN013 27/27 A2999 RMK AO2A CIG 011V018
     SLP157=
KFRG 081201Z 17004KT 5SM RA BR BKN015 BKN021 OVC055 25/23 A3006
     RMK AO2 RAB1155 P0000=
KGCK 081201Z 02009KT 10SM SCT007 OVC015 18/16 A3024 RMK AO2=
KPHL 081201Z 16005KT 2 1/2SM BR BKN006 BKN150 25/23 A3003 RMK AO2
     $=
KPYM 081201Z AUTO VRB03KT 10SM OVC012 24/21 A3011 RMK AO2=
KUIN 081201Z AUTO 32004KT 6SM BR BKN001 OVC007 23/22 A3005 RMK
     AO2=
####018000105####
SAIN90 VECC 081150
METAR VECC 081150Z 21013KT 4500 HZ SCT018 FEW030CB 33/24 Q1004 NOSIG=
??
DUPE
####018000080####
SAQB31 LQBK 081200
METAR LQBK 081200Z 31006KT 9999 FEW040 24/11 Q1022 NOSIG=
####018000509####
SACO20 SKBO 081158
METAR SKBO NIL=
METAR SKBQ 081200Z 00000KT 3000 BR BKN005 26/26 A2990=
METAR SKCL NIL=
METAR SKCG 081200Z 10004KT 9999 -DZ SCT012 SCT070 27/25 A2987=
METAR SKCC NIL=
METAR SKLT 081200Z 00000KT 9999 FEW015 BKN070 24/24 A2989 RMK APCLO=
METAR SKRG 081200Z 00000KT 3500 BR BKN005 SCT080 14/14 A3028=
METAR SKSP 081200Z 09005KT 9999 FEW015 28/25 A2984=
METAR SKBG 081200Z 00000KT 9999 FEW012 SCT080 19/18 A3004 RMK MIFG/S=
METAR SKPE 081200Z 00000KT 9999 FEW017 SCT090 19/16 A3011=
####018000081####
SABZ20 SBTF 081200
METAR SBTF 081200Z 00000KT 9999 FEW010 BKN100 27/25 Q1012=
####018000080####
SAPK31 OPKC 081200 RRA
METAR OPRN 081200Z 23018KT 9999 SCT040 39/18 Q1004.2=
####018000067####
SAAG SAEZ 081200
METAR SAEZ 081200Z 32004KT CAVOK 05/M01 Q1019=
####018000080####
SPUS41 KWBC 081203
SPECI
KAGC 081200Z 00000KT 2 1/2SM HZ CLR 24/21 A3010=
####018000081####
SABZ21 SBTE 081200
METAR SBTE 081200Z 24004KT 9999 SCT020 BKN100 27/24 Q1015=
####018000092####
SANO37 ENMI 081150 RRA
METAR ENNO 081150Z 12013KT 9999 FEW020 SCT025 BKN060 19/15 Q1014=
####018000077####
SACO20 SKBO 081158
METAR SKBQ 081200Z 00000KT 3000 BR BKN005 26/26 A2990=
####018000126####
SPBY31 UMMN 081200
SPECI UMII 081200Z 21005MPS  4800  -SHRA  BKN015CB  20/18  Q1014
R23/CLRD//  TEMPO  2000  TS  BKN005 =
####018000392####
SABU31 LBSM 081200
METAR LBSF 081200Z 28005MPS 9999 FEW026 BKN036 18/13 Q1018
 NOSIG=
METAR LBWN 081200Z 27005MPS 240V300 9999 BKN032 20/16 Q1014
 NOSIG=
METAR LBBG 081200Z 31006MPS 9999 BKN026 BKN034 19/15 Q1015
 NOSIG=
METAR LBPD 081200Z 26005MPS 230V290 9999 SCT050 BKN075 17/13
 Q1017 NOSIG=
METAR LBGO 081200Z 29003MPS 260V320 5000 -RA BKN010 OVC040 16/14
 Q1018 RERA NOSIG=
####018000072####
SAGR32 LGAT 081150 RRB
METAR LGZA 081150Z 30014KT CAVOK 30/08 Q1013=
####018000130####
SPXX62 KWBC 081203
SPECI
RKJK 081156Z 12007KT 3200 R36/1300VP1500 HZ SCT050 SCT130 24/21
A2979 RMK AO2A DZE1156 SLP088 $=
####018001684####
SAZZ40 KAWN 081200 RRL
METAR KHST 081155Z COR 35004KT 10SM CLR 27/25 A2994 RMK AO2 DZB1118E1127
      SLP141 P0000 60007 70007 T02710252 10274 20249 52006 $=
METAR KHUA 081155Z AUTO 35003KT 26/22 A3011 RMK AO2 SLP185 T02570217
      10253 20222 52008 PWINO $=
METAR KNGU 081159Z 08007KT 10SM FEW008 SCT070 BKN100 26/23 A3000 RMK
      AO2 SLP159 T02610228 10267 20250 52013=
METAR KNSE 081156Z 00000KT 4SM BR FEW001 SCT250 24/23 A3003 RMK AO2
      SLP154 VIS NE-E 2 70020 T02440228 10244 20222 51004 $=
METAR KRCA 081155Z 00000KT 9SM CLR 11/09 A3025 RMK AO2A SLP236 T01140086
      10128 20109 53004 $=
METAR MKJS 081200Z 18009KT 9999 FEW024 BKN200 27/22 Q1013=
METAR MUCL 081155Z 13004KT 9999 FEW018 SCT060 28/26 Q1015=
METAR MUHA 081155Z 06003KT 7000 FEW018 25/24 Q1014=
METAR MUHG 081151Z 19006KT 150V220 8000 VCFG FEW020 26/23 Q1015=
METAR MUVR 081150Z 00000KT 9000 FEW020 BKN200 24/22 Q1015=
METAR NTAA 081200Z VRB02KT 9999 FEW023 25/21 Q1015 WS ALL RWY NOSIG=
METAR OEMA 081200Z 11005KT 9999 SCT045 47/M04 Q1005 NOSIG=
METAR OERK 081200Z 02015KT 5000 DU BLDU SKC 43/M04 Q1017 NOSIG=
METAR OERY 081200Z 05017KT 5000 SA SKC 44/M01 Q1007 NOSIG=
METAR OJAM 081200Z 24010KT 6000 NSC 33/05 Q1012 NOSIG=
METAR OJAQ 081200Z 36020KT CAVOK 38/30 Q1006=
METAR PHBK 081156Z AUTO 13003KT 10SM OVC070 24/17 A3001 RMK AO2 SLP164
      7//// T02440172 10272 20239 58007 TSNO $=
METAR SCSE 081200Z 11004KT CAVOK 05/04 Q1017 NEFO PLAYA SKC=
METAR TFFF 081200Z 10012KT 9999 FEW020 SCT026 31/24 Q1014 NOSIG=
METAR TJPS 081150Z 11005KT 8SM FEW030 29/25 A2997 HZ ALQDS=
METAR WSSS 081200Z 22003KT 190V250 9999 FEW016 SCT190 28/24 Q1009 NOSIG=
####018000081####
SPUS51 KWBC 081203
SPECI
KBKW 081159Z AUTO 00000KT 3SM BR CLR 22/19 A3018=
####018000537####
SAAU69 AMMC 081200
METAR YSTW 081200Z AUTO 15006KT 9999NDV // NCD 07/04 Q1024=
METAR YSWG 081200Z AUTO 09003KT 9999NDV // NCD 05/03 Q1027=
METAR YTEF 081200Z AUTO 01006KT //// // ////// 21/16 Q1012=
METAR YTNK 081200Z AUTO 10006KT 9999NDV // NCD 15/11 Q1020=
METAR YTRE 081200Z AUTO 30004KT //// // ////// 12/12 Q1025=
METAR YWGT 081200Z AUTO 19004KT //// // ////// 03/03 Q1028=
METAR YWHA 081200Z AUTO 07004KT 9999NDV // NCD 04/01 Q1024=
METAR YWLM 081200Z AUTO 31005KT 9999NDV // SCT041 BKN047 OVC067 11/10 Q1026=

####018001693####
SATU20 LTAA 081150
METAR LTAB 081150Z 06014KT 9999 FEW025CB BKN035 31/10 Q1009 TEMPO -TSRA RMK RWY06 07013KT=
METAR LTAD 081150Z 09010KT 040V120 9999 TS FEW030CB BKN035 31/13 Q1009 TEMPO FM1300 25015G25KT -TSRA RMK RWY29 07008KT 020V110=
METAR LTAE 081150Z 10008KT 9999 FEW030CB BKN200 32/14 Q1009 TEMPO -TSRA RMK RWY21 08007KT=
METAR LTAG 081150Z 20011KT 9999 BKN030 30/20 Q1007 NOSIG=
METAR LTAH 081150Z 19005KT 9999 TS FEW025CB BKN035 26/14 Q1011 RETSRA  RMK RWY13 29016KT=
METAR LTAN 081150Z 01007KT 9999 SCT040 31/13 Q1011 NOSIG RMK RWY19 35004KT=
METAR LTAP 081150Z 02022KT 9999 SCT040 29/18 Q1009 NOSIG RMK RWY23 03021KT=
METAR LTAT 081150Z 02007KT 9999 FEW040 38/04 Q1007 NOSIG RMK RWY03 01008KT=
METAR LTAU 081150Z VRB02KT 9999 SCT040 34/11 Q1010 NOSIG RMK RWY07 VRB06KT 180V360=
METAR LTBF 081150Z 36014KT 9999 SCT035 25/15 Q1012 NOSIG RMK RWY18 36014KT=
METAR LTBG 081150Z 36015KT 330V030 9999 SCT035 BKN100 22/15 Q1012 NOSIG RMK RWY18 36016KT=
METAR LTBI 081150Z 28007KT 200V330 9999 SCT035 SCT100 29/12 Q1010 NOSIG RMK RWY09 31010KT 260V030=
METAR LTBL 081150Z 29010KT 250V320 9999 FEW040 30/15 Q1010 NOSIG RMK RWY17 30010KT 270V330=
METAR LTBQ 081150Z 35008KT 320V040 9999 -SHRA FEW024CB BKN030 BKN090 25/19 Q1011 NOSIG RMK RWY09 02008KT 350V050=
METAR LTBR 081150Z 34016KT 9999 SCT035TCU BKN100 26/17 Q1011 TEMPO -TSRA RMK RWY07 32011KT=
METAR LTBU 081150Z 34009KT 9999 -SHRA BKN030 BKN100 20/15 Q1013 RMK RWY23
34008KT=
METAR LTCC 081150Z VRB04KT CAVOK 40/02 Q1005 NOSIG RMK RWY16 17013KT 140V220=
METAR LTCE 081150Z VRB05KT 300V120 9999 SCT030 32/10 Q1016 NOSIG RMK RWY08R 05005KT 010V110 RWY26R 35005KT 270V050 RWY08L 05006KT 020V100=
####018000082####
SPUS52 KWBC 081203
SPECI
KPNC 081200Z AUTO 00000KT 10SM BKN026 22/21 A3006=
####018000079####
SALC31 TLPL 081200
METAR TLPC 081200Z 07011KT 9999 FEW023 SCT270 30/24 Q1014=####018000106####
SPAU31 AMMC 081203
SPECI YPPD 081203Z AUTO 36007KT 4200NDV // SCT008 BKN019 OVC027 21/21 Q1010=


####018000081####
SABC40 FBSK 081200
METAR FBSK 081200Z 07011KT 9999 BKN020 19/07 Q1029 NOSIG=
####018000092####
SAAB31 LATI 081200
METAR LATI 081200Z 02012G22KT 350V080 9999 FEW050 27/13 Q1016 NOSIG=
####018000384####
SAME31 OLBA 081200
METAR OLBA 081200Z 24008KT CAVOK 29/18 Q1011 NOSIG=
METAR OSDI 081200Z 20018KT CAVOK 37/02 Q1008=
METAR OSAP 081200Z 28016KT CAVOK 34/16 Q1006=
METAR OSLK 081200Z 18004KT 9999 SCT030 28/21 Q1009=
METAR OJAI 081200Z 28009KT CAVOK 33/02 Q1012 NOSIG=
METAR OJAM 081200Z 24010KT 6000 NSC 33/05 Q1012 NOSIG=
METAR OJAQ 081200Z 36020KT CAVOK 38/30 Q1006=
####018000081####
SADN32 EKCH 081150 RRB
METAR EKOD 081150Z 19009KT 160V220 CAVOK 26/12 Q1019=
####018000100####
SPAU31 AMMC 081203
SPECI YPPD 081203Z AUTO 36007KT 4200NDV // SCT008 BKN019 OVC027 21/21 Q1010=
####018000131####
SPBY31 UMMN 081200
SPECI  UMII  081200Z  21005MPS  4800  -SHRA  BKN015CB  20/18  Q1014
R23/CLRD//  TEMPO  2000  TS  BKN005 =
####018000099####
SAAJ31 UBBB 081200
METAR UBBY 081200Z 15005KT 9999 NSC 33/15 Q1014 NOSIG
RMK R33/CLRD70 G/O=
####018000164####
SAFA31 EKCH 081150
METAR EKVG 081202Z 20012KT 9999 SCT005 BKN008 BKN018 11/10 Q0994
RMK/RWY 13/31 CLOSED DUE WIP. SEE NOTAM E0050/10 WIND 850FT
VRB12G33KT=
####018000183####
SATD31 TTPP 081200
METAR
TTPP 081200Z 00000KT 2000 -SHRA VCSH FEW006 FEW010CB BKN036 25/24
Q1013 TEMPO SHRA=
TTCP 081200Z 06010KT 9999 TS FEW010CB BKN036 24/23 Q1013 NOSIG=
####018001752####
SANA35 KAWN 081200 RRC
METAR KDAB 081153Z 00000KT 10SM FEW020 SCT150 23/21 A3000 RMK AO2 SLP158
      T02330211 10233 20200 51004=
METAR KHST 081155Z COR 35004KT 10SM CLR 27/25 A2994 RMK AO2 DZB1118E1127
      SLP141 P0000 60007 70007 T02710252 10274 20249 52006 $=
METAR KNBC 081156Z 27005KT 7SM CLR 26/19 A2999 RMK AO2 SLP155 T02560194
      10256 20228 53006=
METAR KNCA 081156Z 03005KT 4SM HZ BKN180 26/23 A2994 RMK AO2 SLP140
      T02610228 10267 20233 53010=
METAR KNGP 081156Z 07003KT 10SM -RA BKN039 BKN050 28/26 A2982 RMK AO2
      SLP098 TCU N TCU DSNT NE AND W WR// P0002 60012 70015
      T02790263 10289 20278 53006 $=
METAR KNGU 081159Z 08007KT 10SM FEW008 SCT070 BKN100 26/23 A3000 RMK
      AO2 SLP159 T02610228 10267 20250 52013=
METAR KNJM 081157Z AUTO 02004KT 4SM HZ CLR 27/24 A2994 RMK AO2 SLP141
      T02720239 10272 20256 51011 $=
METAR KNTU 081156Z 08006KT 10SM CLR 26/23 A2998 RMK AO2 SLP153 60000
      T02560233 10261 20250 53010 CHINO RWY 05R $=
METAR MKJS 081200Z 18009KT 9999 FEW024 BKN200 27/22 Q1013=
METAR SCAR 081200Z 00000KT 9999 OVC021 15/09 Q1016=
METAR SCBA 081200Z AUTO 28009KT CAVOK M04/M06 Q1002=
METAR SCDA 081200Z 02006KT 9999 OVC026 14/08 Q1017=
METAR SCEL 081200Z 12003KT 030V150 4000 BR SCT130 02/01 Q1022 NOSIG=
METAR SCFA 081200Z 00000KT 9999 BKN022 13/07 Q1016=
METAR SCIE 081200Z 29011KT 9999 BKN006 OVC010 13/11 Q1019=
METAR SCTE 081200Z 24004KT 5000 SHRA FEW008 OVC020 08/07 Q1011 NOSIG=
METAR TFFF 081200Z 10012KT 9999 FEW020 SCT026 31/24 Q1014 NOSIG=
METAR TTPP 081200Z 00000KT 2000 -SHRA VCSH FEW006 FEW010CB BKN036 25/24
      Q1013 TEMPO SHRA=
METAR TXKF 081155Z 15013KT 9999 SCT015CB SCT180 BKN300 27/23 Q1019
      RMK CB DSNT S=
####018000107####
SAUS44 KHGX 081203
MTRSGR
SPECI KSGR 081202Z 09007KT 8SM FEW010 SCT025 BKN055 26/24 A2993 RMK 
AO2
####018000785####
SACH10 SCSC 081200
METAR
SCAR 081200Z 00000KT 9999 OVC021 15/09 Q1016=
SCDA 081200Z 02006KT 9999 OVC026 14/08 Q1017=
SCFA 081200Z 00000KT 9999 BKN022 13/07 Q1016=
SCCF 081200Z 13026KT CAVOK 03/M13 Q1025=
SCAT 081200Z AUTO 03003KT 360V060 6000 // ///003 08/08 Q1017=
SCIP 081200Z 11003KT 9999 FEW012 BKN020 18/17 Q1022 TEMPO 5000
-SHRA=
SCSE 081200Z 11004KT CAVOK 05/04 Q1017 NEFO PLAYA SKC=
SCEL 081200Z 12003KT 030V150 4000 BR SCT130 02/01 Q1022 NOSIG=
SCIE 081200Z 29011KT 9999 BKN006 OVC010 13/11 Q1019=
SCTC 081200Z 30008KT 270V330 9999 FEW010 BKN012 OVC025 10/10
    Q1015=
SCTE 081200Z 24004KT 5000 SHRA FEW008 OVC020 08/07 Q1011 NOSIG=
SCBA 081200Z AUTO 28009KT CAVOK M04/M06 Q1002=
SCCI 081200Z 35013KT 9999 FEW025 SCT070 M03/M04 Q0986 NOSIG=
####018000081####
SPUS81 KWBC 081203
SPECI
KBKW 081159Z AUTO 00000KT 3SM BR CLR 22/19 A3018=
####018000096####
SPUS81 KWBC 081203
SPECI
KMWT 081200Z AUTO 00000KT 10SM FEW014 SCT024 BKN036 24/23 A3006=
####018000075####
SACN50 CWAO 081145
WGP SA 1145 AUTO8 M M M M/11/10/MMMM/M/M M 01MM=

####018000074####
SACN50 CWAO 081145
VOJ SA 1145 AUTO8 M M M M/17/M/0503/M/M M 0MMM=

####018000075####
SACN50 CWAO 081130
WGP SA 1130 AUTO8 M M M M/11/10/MMMM/M/M M 34MM=

####018000081####
SACH71 SCSC 081200 RRA
METAR
SCER 081200Z 17004KT 6000 SKC 03/02 Q1021
=
####018000075####
SACN50 CWAO 081115
VOP SA 1115 AUTO8 M M M M/14/11/0803/M/M M 19MM=

####018000075####
SACN50 CWAO 081115
WGP SA 1115 AUTO8 M M M M/11/11/MMMM/M/M M 45MM=

####018000074####
SACN50 CWAO 081145
WPN SA 1145 AUTO8 M M M M/12/M/0000/M/M M 5MMM=

####018000236####
SAEW KAWN 081200 RRC
METAR EDLN 081150Z VRB05KT CAVOK 30/10 Q1019 RMK ATIS O=
METAR EDLP 081150Z 19005KT 160V240 CAVOK 29/10 Q1020 RMK RWY24 TRL60
      RU ATIS T=
METAR EDXW 081150Z 23011KT CAVOK 21/14 Q1019 RMK ATIS INFO W=
####018000324####
SAUS90 KWBC 081200 RRD
METAR KNEL 081200Z AUTO 15004KT 9SM FEW017 OVC095 26/21 A3005 RMK
     AO2 SLP173 T02560211 10256 20222 51007 $=
METAR KNGP 081156Z COR 07003KT 10SM -RA FEW011 SCT022TCU BKN035
     28/26 A2982 RMK AO2 SLP098 TCU NE TCU DSNT E-SE WR// P0002
     60012 70015 T02790263 10289 20278 53006 $=
####018000196####
SPUS90 KWBC 081204
SPECI KMWT 081200Z AUTO 00000KT 10SM FEW014 SCT024 BKN036 24/23
     A3006 RMK AO2 TSNO=
SPECI KSGR 081202Z 09007KT 8SM FEW010 SCT025 BKN055 26/24 A2993
     RMK AO2=
####018000128####
SPBY31 UMMN 081200
SPECI UMII 081200Z 21005MPS  4800  -SHRA  BKN015CB  20/18  Q1014
R23/CLRD//  TEMPO  2000  TS  BKN005 =
####018000480####
SAHU41 LHBM 081200
METAR LHDC 081145Z 35009KT 9999 FEW043 23/11 Q1021 NOSIG=
METAR LHKE 081145Z 24001MPS CAVOK 25/11 Q1021 NOSIG RMK BLU=
METAR LHPA 081145Z 34004MPS CAVOK 24/09 Q1023 NOSIG RMK BLU=
METAR LHPP 081145Z 33007KT CAVOK 24/11 Q1023 NOSIG=
METAR LHPR 081145Z 34009KT CAVOK 25/09 Q1022=
METAR LHSM 081145Z 33006KT CAVOK 24/08 Q1023 NOSIG=
METAR LHSN 081145Z 35001MPS CAVOK 24/12 Q1021 NOSIG RMK BLU=
METAR LHUD 081145Z 35004KT 9999 SCT040 25/15 Q1022=
####018000465####
SAER32 OMAE 081200
METAR OMAA 081200Z 25003KT CAVOK 44/15 Q0997 A2947 NOSIG=
METAR OMAD 081200Z 36008KT CAVOK 43/19 Q0998 A2947=
METAR OMAL 081200Z NIL=
METAR OMDB 081200Z 36013KT 7000 FEW035 40/23 Q0999 NOSIG=
METAR OMDW 081200Z 32016KT 6000 FEW035 40/22 Q0999 NOSIG=
METAR OMFJ 081200Z 10009KT 040V130 6000 FEW025 34/25 Q1001 A2955=
METAR OMRK 081200Z 34010KT CAVOK 41/33 Q0998 A2947=
METAR OMSJ 081200Z 32012KT 290V360 7000 FEW030 40/23 Q0999=
####018002981####
SAUS20 KNKA 081203
METAR K3A1 081200Z AUTO 33003KT 10SM CLR 25/23 A3011 RMK AO2 
     T02450234 10245 20217=
METAR K4A9 081200Z AUTO 00000KT 7SM CLR 22/19 A3008 RMK AO2 
     T02160194=
METAR K4R4 081200Z AUTO 00000KT 5SM BR CLR 25/24 A3004 RMK AO2 
     T02470239 10247 20227=
METAR K8A0 081159Z AUTO 36003KT 10SM CLR 25/23 A3008 RMK AO2=
METAR KACP 081159Z AUTO 00000KT 5SM BR CLR 25/25 A3002 RMK AO2=
METAR KAFP 081200Z AUTO 00000KT 10SM CLR 24/18 A2999 RMK AO2 
     T02440179 10244 20199=
METAR KALX 081200Z AUTO 00000KT 10SM CLR 24/22 A3006 RMK AO1=
METAR KAYS 081200Z AUTO 26003KT 10SM CLR 24/22 A3002 RMK AO1=
METAR KBGE 081201Z AUTO 00000KT M1/4SM FG OVC001 21/21 A3004 RMK 
     AO2=
METAR KBQK 081157Z AUTO 29005KT 10SM CLR 23/22 A3002 RMK AO1 
     T02310218 PNO=
METAR KCCO 081200Z AUTO 00000KT 7SM CLR 21/21 A3007 RMK AO1=
METAR KCDH 081200Z AUTO 00000KT 7SM FEW003 22/22 A3006 RMK AO2=
METAR KCPC 081200Z AUTO 36004KT 10SM CLR 26/20 A2994 RMK AO2 
     T02600196 10277 20246=
METAR KCPK 081200Z AUTO 00000KT 7SM SCT050 BKN085 OVC110 25/23 
     A2999 RMK AO2=
METAR KCTJ 081200Z AUTO 33003KT 10SM CLR 25/20 A3008 RMK AO2 
     T02480203 10248 20201=
METAR KDBN 081200Z AUTO 00000KT 10SM CLR 26/18 A3000 RMK AO1=
METAR KDNN 081158Z AUTO 00000KT 10SM CLR 21/20 A3006 RMK AO2=
METAR KDQH 081200Z AUTO 00000KT 10SM CLR 25/20 A3002 RMK AO1=
METAR KDRI 081200Z AUTO 06005KT 7SM BKN010 OVC019 23/23 A3004 RMK 
     AO2=
METAR KEHO 081200Z AUTO 00000KT 10SM CLR 22/18 A3004 RMK AO2 
     T02180184 10240 20190=
METAR KEMV 081157Z AUTO 05005KT 4SM BR SCT075 25/23 A3000 RMK AO2=
METAR KEYF 081200Z AUTO 00000KT 7SM CLR 26/20 A2995 RMK AO2 
     T02580200=
METAR KEZF 081158Z AUTO 09004KT 7SM CLR 28/26 A2999 RMK AO2 
     T02810260=
METAR KF24 081159Z AUTO 5SM BR CLR 24/23 A3009 RMK AO2 T02420231=
METAR KFFA 081158Z AUTO 08004KT 10SM CLR 27/23 A2997 RMK AO2 
     T02650226=
METAR KFKN 081200Z AUTO 00000KT 3SM SCT075 27/24 A3000 RMK AO1=
SPECI KFOE 081202Z 34007KT 10SM BKN007 OVC012 22/20 A3009 RMK AO2=
METAR KGEV 081201Z AUTO 00000KT 7SM SCT070 SCT080 25/18 A3020 RMK 
     AO2=
METAR KGHG 081200Z AUTO 15006KT 360V360 10SM OVC012 24/21 A3011 
     RMK AO2=
METAR KHDC 081202Z AUTO 06004KT 7SM CLR 26/26 A3005 RMK AO2=
METAR KHLX 081201Z AUTO 00000KT 5SM BR 23/22 A3018 RMK AO2=
METAR KHOE 081159Z AUTO 00000KT 10SM CLR 23/ A3003 RMK AO2 T0226=
METAR KHQU 081202Z AUTO 00000KT 10SM CLR 23/20 A3006 RMK AO1=
METAR KHSP 081200Z AUTO 06004KT 10SM CLR 23/16 A3027 RMK AO2=
METAR KHWY 081200Z AUTO 03004KT 7SM CLR 27/19 A3001 RMK AO2=
METAR KIDI 081200Z AUTO 00000KT 5SM BKN070 21/20 A3012 RMK AO2=
METAR KIPJ 081200Z AUTO 00000KT 10SM CLR 24/18 A3004 RMK AO2 
     T02440181 10244 20195=
METAR KJES 081200Z AUTO 00000KT 10SM CLR 22/22 A3002 RMK AO2 
     T02230224 10223 20179=
METAR KJGG 081200Z AUTO 00000KT 7SM SCT017 SCT075 28/25 A3001 RMK 
     AO1=
####018002156####
SAUS20 KNKA 081203
METAR KJKA 081200Z AUTO 00000KT 5SM BR CLR 27/26 A3004 RMK AO2 
     T02650256=
METAR KJYO 081200Z AUTO 01003KT 7SM CLR 29/19 A3003 RMK AO2=
METAR KLGC 081155Z AUTO 00000KT 10SM CLR 23/ A3004 RMK AO1=
METAR KLKU 081200Z AUTO 35005KT 7SM CLR 27/21 A3001 RMK AO2=
METAR KLNP 081158Z AUTO 00000KT 7SM CLR 23/19 A3020 RMK AO1=
METAR KLOM 081200Z AUTO 00000KT 5SM CLR 27/23 A3004 RMK AO1 
     T02670227 10267 20213=
METAR KLWB 081201Z AUTO 00000KT 4SM HZ CLR 22/18 A3017 RMK AO2=
METAR KMFV 081202Z AUTO 09004KT 10SM SCT110 26/22 A3001 RMK AO2=
METAR KMGR 081200Z AUTO 00000KT 10SM CLR 23/21 A3005 RMK AO2=
METAR KMQS 081200Z AUTO 00000KT 4SM CLR 26/22 A3007 RMK AO2 PWINO 
     PNO=
METAR KMRN 081200Z AUTO 00000KT 10SM SCT100 23/18 A3012 RMK AO2=
METAR KNFG 081156Z AUTO 00000KT 9SM BKN011 OVC017 16/14 A2990 RMK AO2
      SLP123 T01560139 10161 20156 55001 TSNO=
METAR KNMM 081156Z 28003KT 10SM FEW250 24/22 A3007 RMK AO2 SLP188 T02440222
      10244 20222 52010=
METAR KOBE 081201Z AUTO 03004KT 10SM CLR 25/23 A2999 RMK AO2 LTG 
     DSNT S=
METAR KONX 081200Z AUTO 06006KT 10SM SCT012 OVC110 27/22 A2999 
     RMK AO2 T02650224 10265 20256=
METAR KPAM 081155Z 35004KT 10SM CLR 25/25 A3002 RMK AO2A SLP167 T02530251
      10253 20229 53007=
METAR KPSK 081202Z AUTO 00000KT 5SM HZ CLR 26/18 A3016 RMK AO2=
METAR KRUQ 081201Z AUTO 00000KT 10SM BKN095 24/21 A3003 RMK AO2=
SPECI KSET 081202Z AUTO 20003KT 9SM VCTS -RA BKN006 BKN009 OVC060 
    24/24 A3004 RMK AO2 TSB1156RAB1157 CIG 003V007 P0000=
METAR KSIF 081200Z AUTO 00000KT 7SM CLR 26/22 A3003 RMK AO2=
METAR KSVH 081200Z AUTO 00000KT 7SM CLR 25/19 A3005 RMK AO2 
     T02520185 10252 20197=
METAR KTSP 081155Z AUTO 00000KT 10SM CLR 10/05 A3003 RMK AO2 =
METAR KTVI 081200Z AUTO 00000KT 10SM CLR 23/22 A3004 RMK AO2 
     T02330220=
METAR KVDI 081202Z AUTO 26003KT 10SM CLR 24/21 A3003 RMK AO1=
METAR KVJI 081202Z AUTO 00000KT 5SM HZ CLR 24/20 A3016 RMK AO2=
METAR KVUJ 081158Z AUTO 00000KT 10SM SCT090 SCT110 27/21 A2999 
     RMK AO2=
METAR KW99 081200Z AUTO 00000KT 5SM HZ BKN080 24/17 A3010 RMK AO2=
####018001780####
SASA KAWN 081200 RRB
METAR SBBV 081200Z 28005KT 9999 SCT020 SCT070 27/23 Q1013=
METAR SBCG 081200Z 07015KT CAVOK 22/08 Q1017=
METAR SBCT 081200Z 02004KT CAVOK 15/12 Q1022=
METAR SBCZ 081200Z 00000KT 9999 FEW030 BKN100 23/23 Q1013=
METAR SBMA 081200Z 11002KT CAVOK ///// Q1014=
METAR SBMQ 081200Z 03001KT 9999 SCT020 30/27 Q1014=
METAR SBPK 081200Z 28005KT CAVOK 11/07 Q1021=
METAR SBPL 081200Z 13013KT 9999 FEW023 25/19 Q1019=
METAR SBRP 081200Z 12004KT 9000 NSC 17/10 Q1021=
METAR SBSP 081200Z 32005KT CAVOK 18/08 Q1023=
METAR SBTF 081200Z 00000KT 9999 FEW010 BKN100 27/25 Q1012=
METAR SBVT 081200Z 31005KT CAVOK 24/17 Q1021=
METAR SCAR 081200Z 00000KT 9999 OVC021 15/09 Q1016=
METAR SCBA 081200Z AUTO 28009KT CAVOK M04/M06 Q1002=
METAR SCCI 081200Z 35013KT 9999 FEW025 SCT070 M03/M04 Q0986 NOSIG=
METAR SCDA 081200Z 02006KT 9999 OVC026 14/08 Q1017=
METAR SCEL 081200Z 12003KT 030V150 4000 BR SCT130 02/01 Q1022 NOSIG=
METAR SCFA 081200Z 00000KT 9999 BKN022 13/07 Q1016=
METAR SCIE 081200Z 29011KT 9999 BKN006 OVC010 13/11 Q1019=
METAR SCSE 081200Z 11004KT CAVOK 05/04 Q1017 NEFO PLAYA SKC=
METAR SCTE 081200Z 24004KT 5000 SHRA FEW008 OVC020 08/07 Q1011 NOSIG=
METAR SKBG 081200Z 00000KT 9999 FEW012 SCT080 19/18 A3004 RMK MIFG/S=
METAR SKBQ 081200Z 00000KT 3000 BR BKN005 26/26 A2990=
METAR SKCG 081200Z 10004KT 9999 -DZ SCT012 SCT070 27/25 A2987=
METAR SKLT 081200Z 00000KT 9999 FEW015 BKN070 24/24 A2989 RMK APCLO=
METAR SKPE 081200Z 00000KT 9999 FEW017 SCT090 19/16 A3011=
METAR SKRG 081200Z 00000KT 3500 BR BKN005 SCT080 14/14 A3028=
METAR SOCA 081200Z 12006KT 080V180 9000 FEW006 SCT016 28/25 Q1013 NOSIG=
METAR SUSO 081200Z 13006KT CAVOK 06/05 Q1020=
METAR SVMI 081200Z 00000KT 9999 FEW016 BKN070 25/24 Q1014=
####018000075####
SALY31 HLLB 081200
METAR HLLB 081150Z 34015KT 9999 FEW025 30/18 Q1016=
####018000075####
SACN50 CWAO 081145
VOK SA 1145 AUTO8 M M M M/14/06/0602/M/M M 20MM=

####018000075####
SACN50 CWAO 081145
VOP SA 1145 AUTO8 M M M M/15/11/0701/M/M M 59MM=

####018000075####
SACN50 CWAO 081130
VOP SA 1130 AUTO8 M M M M/15/12/0401/M/M M 57MM=

####018000216####
SAUY SUMU 081200
METAR SUMU 081200Z 32004KT CAVOK 07/06 Q1018 NOSIG=
METAR SUDU 081200Z 00000KT CAVOK 06/04 Q1019=
METAR SUSO 081200 13006KT CAVOK 06/05 Q1020=
METAR SUCA 081200Z 33010KT CAVOK 08/02 Q1018=
####018000218####
SAUY59 SUMU 081200
METAR SUMU 081200Z 32004KT CAVOK 07/06 Q1018 NOSIG=
METAR SUDU 081200Z 00000KT CAVOK 06/04 Q1019=
METAR SUSO 081200 13006KT CAVOK 06/05 Q1020=
METAR SUCA 081200Z 33010KT CAVOK 08/02 Q1018=
####018000323####
SATS41 DTTA 081200
METAR DTTB 081200Z 31008KT CAVOK 30/16 Q1020=
METAR DTTD 081200Z 09004KT 030V180 CAVOK 32/12 Q1019=
METAR DTTG 081200Z 08010KT CAVOK 32/12 Q1018 NOSIG=
METAR DTTK 081200Z 09004KT CAVOK 35/09 Q1018=
METAR DTTL 081200Z 32006KT CAVOK 31/19 Q1019=
METAR DTTN 081200Z 34008KT CAVOK 34/15 Q1018=
####018000090####
SAHW31 KMSC 081203
SPECI PHTO 081202Z VRB04KT 10SM BKN028 BKN032 21/18 A3002 RMK AO2=
####018000368####
SAUS20 KNKA 081203
METAR KJQF 081155Z 00000KT 10SM SCT100 25/18 A3002=
SPECI KLHQ 081202Z AUTO 00000KT 3SM BR CLR 23/21 A3010 RMK AO2=
METAR KMMU 081145Z 00000KT 4SM HZ BCFG SCT250 25/23 A3005=
SPECI KOKC 081155Z COR 01004KT 10SM SCT014 SCT025 BKN080 BKN200 
    23/22 A3007 RMK AO2=
SPECI KUCP 081203Z AUTO 00000KT 1/2SM FG VV001 21/19 A3010 RMK AO2 $=
####018000508####
SAAK41 KNKA 081203
METAR PABA 081201Z AUTO 15005KT 10SM SCT043 OVC060 07/07 A3001 RMK 
    AO2 SLP163 60000 70003 T00720067 10072 20022 58008=
METAR PAIK 081201Z AUTO 00000KT 10SM CLR 10/08 A3013 RMK AO2 SLP242 
    T01000078 10178 20100 50001=
METAR PAKF 081201Z AUTO 19004KT 10SM BKN028 OVC044 08/07 A2990 RMK 
    AO2 SLP219 T00830067 10089 20072 58008=
METAR PANW 081156Z AUTO 35007KT FEW039 BKN049 OVC065 09/09 A2997 RMK 
    AO2 PWINO TSNO 58003 70017 T00940088 10111 20094 SLP126 $=
####018003698####
SAUS99 KWBC 081204
METAR
KJKA 081200Z AUTO 00000KT 5SM BR CLR 27/26 A3004 RMK AO2
     T02650256=
KJYO 081200Z AUTO 01003KT 7SM CLR 29/19 A3003 RMK AO2=
KLGC 081155Z AUTO 00000KT 10SM CLR 23/ A3004 RMK AO1=
KLKU 081200Z AUTO 35005KT 7SM CLR 27/21 A3001 RMK AO2=
KLNP 081158Z AUTO 00000KT 7SM CLR 23/19 A3020 RMK AO1=
KLOM 081200Z AUTO 00000KT 5SM CLR 27/23 A3004 RMK AO1 T02670227
     10267 20213=
KLWB 081201Z AUTO 00000KT 4SM HZ CLR 22/18 A3017 RMK AO2=
KMFV 081202Z AUTO 09004KT 10SM SCT110 26/22 A3001 RMK AO2=
KMGR 081200Z AUTO 00000KT 10SM CLR 23/21 A3005 RMK AO2=
KMQS 081200Z AUTO 00000KT 4SM CLR 26/22 A3007 RMK AO2 PWINO
     PNO=
KMRN 081200Z AUTO 00000KT 10SM SCT100 23/18 A3012 RMK AO2=
KNFG 081156Z AUTO 00000KT 9SM BKN011 OVC017 16/14 A2990 RMK AO2
     SLP123 T01560139 10161 20156 55001 TSNO=
KNMM 081156Z 28003KT 10SM FEW250 24/22 A3007 RMK AO2 SLP188
     T02440222 10244 20222 52010=
KOBE 081201Z AUTO 03004KT 10SM CLR 25/23 A2999 RMK AO2 LTG DSNT
     S=
KONX 081200Z AUTO 06006KT 10SM SCT012 OVC110 27/22 A2999 RMK AO2
     T02650224 10265 20256=
KPAM 081155Z 35004KT 10SM CLR 25/25 A3002 RMK AO2A SLP167
     T02530251 10253 20229 53007=
KPSK 081202Z AUTO 00000KT 5SM HZ CLR 26/18 A3016 RMK AO2=
KRUQ 081201Z AUTO 00000KT 10SM BKN095 24/21 A3003 RMK AO2=
KSIF 081200Z AUTO 00000KT 7SM CLR 26/22 A3003 RMK AO2=
KSVH 081200Z AUTO 00000KT 7SM CLR 25/19 A3005 RMK AO2 T02520185
     10252 20197=
KTSP 081155Z AUTO 00000KT 10SM CLR 10/05 A3003 RMK AO2=
KTVI 081200Z AUTO 00000KT 10SM CLR 23/22 A3004 RMK AO2
     T02330220=
KVDI 081202Z AUTO 26003KT 10SM CLR 24/21 A3003 RMK AO1=
KVJI 081202Z AUTO 00000KT 5SM HZ CLR 24/20 A3016 RMK AO2=
KVUJ 081158Z AUTO 00000KT 10SM SCT090 SCT110 27/21 A2999 RMK
     AO2=
KW99 081200Z AUTO 00000KT 5SM HZ BKN080 24/17 A3010 RMK AO2=
K3A1 081200Z AUTO 33003KT 10SM CLR 25/23 A3011 RMK AO2 T02450234
     10245 20217=
K4A9 081200Z AUTO 00000KT 7SM CLR 22/19 A3008 RMK AO2
     T02160194=
K4R4 081200Z AUTO 00000KT 5SM BR CLR 25/24 A3004 RMK AO2 T02470239
     10247 20227=
K8A0 081159Z AUTO 36003KT 10SM CLR 25/23 A3008 RMK AO2=
KACP 081159Z AUTO 00000KT 5SM BR CLR 25/25 A3002 RMK AO2=
KAFP 081200Z AUTO 00000KT 10SM CLR 24/18 A2999 RMK AO2 T02440179
     10244 20199=
KALX 081200Z AUTO 00000KT 10SM CLR 24/22 A3006 RMK AO1=
KAYS 081200Z AUTO 26003KT 10SM CLR 24/22 A3002 RMK AO1=
KBGE 081201Z AUTO 00000KT M1/4SM FG OVC001 21/21 A3004 RMK AO2=
KBQK 081157Z AUTO 29005KT 10SM CLR 23/22 A3002 RMK AO1 T02310218
     PNO=
KCCO 081200Z AUTO 00000KT 7SM CLR 21/21 A3007 RMK AO1=
KCDH 081200Z AUTO 00000KT 7SM FEW003 22/22 A3006 RMK AO2=
KCPC 081200Z AUTO 36004KT 10SM CLR 26/20 A2994 RMK AO2 T02600196
     10277 20246=
KCPK 081200Z AUTO 00000KT 7SM SCT050 BKN085 OVC110 25/23 A2999 RMK
     AO2=
KCTJ 081200Z AUTO 33003KT 10SM CLR 25/20 A3008 RMK AO2 T02480203
     10248 20201=
KDBN 081200Z AUTO 00000KT 10SM CLR 26/18 A3000 RMK AO1=
KDNN 081158Z AUTO 00000KT 10SM CLR 21/20 A3006 RMK AO2=
KDQH 081200Z AUTO 00000KT 10SM CLR 25/20 A3002 RMK AO1=
KDRI 081200Z AUTO 06005KT 7SM BKN010 OVC019 23/23 A3004 RMK
     AO2=
KEHO 081200Z AUTO 00000KT 10SM CLR 22/18 A3004 RMK AO2 T02180184
     10240 20190=
KEMV 081157Z AUTO 05005KT 4SM BR SCT075 25/23 A3000 RMK AO2=
KEYF 081200Z AUTO 00000KT 7SM CLR 26/20 A2995 RMK AO2
     T02580200=
KEZF 081158Z AUTO 09004KT 7SM CLR 28/26 A2999 RMK AO2
     T02810260=
KF24 081159Z AUTO 5SM BR CLR 24/23 A3009 RMK AO2 T02420231=
KFFA 081158Z AUTO 08004KT 10SM CLR 27/23 A2997 RMK AO2
     T02650226=
KFKN 081200Z AUTO 00000KT 3SM SCT075 27/24 A3000 RMK AO1=
####018000429####
SPUS99 KWBC 081204
SPECI
KSET 081202Z AUTO 20003KT 9SM VCTS -RA BKN006 BKN009 OVC060 24/24
     A3004 RMK AO2 TSB1156RAB1157 CIG 003V007 P0000=
KFOE 081202Z 34007KT 10SM BKN007 OVC012 22/20 A3009 RMK AO2=
KLHQ 081202Z AUTO 00000KT 3SM BR CLR 23/21 A3010 RMK AO2=
KOKC 081155Z COR 01004KT 10SM SCT014 SCT025 BKN080 BKN200 23/22
     A3007 RMK AO2=
KUCP 081203Z AUTO 00000KT 1/2SM FG VV001 21/19 A3010 RMK AO2 $=
####018001405####
SAUS99 KWBC 081204 RRA
METAR
KGEV 081201Z AUTO 00000KT 7SM SCT070 SCT080 25/18 A3020 RMK
     AO2=
KGHG 081200Z AUTO 15006KT 360V360 10SM OVC012 24/21 A3011 RMK
     AO2=
KHDC 081202Z AUTO 06004KT 7SM CLR 26/26 A3005 RMK AO2=
KHLX 081201Z AUTO 00000KT 5SM BR 23/22 A3018 RMK AO2=
KHOE 081159Z AUTO 00000KT 10SM CLR 23/ A3003 RMK AO2 T0226=
KHQU 081202Z AUTO 00000KT 10SM CLR 23/20 A3006 RMK AO1=
KHSP 081200Z AUTO 06004KT 10SM CLR 23/16 A3027 RMK AO2=
KHWY 081200Z AUTO 03004KT 7SM CLR 27/19 A3001 RMK AO2=
KIDI 081200Z AUTO 00000KT 5SM BKN070 21/20 A3012 RMK AO2=
KIPJ 081200Z AUTO 00000KT 10SM CLR 24/18 A3004 RMK AO2 T02440181
     10244 20195=
KJES 081200Z AUTO 00000KT 10SM CLR 22/22 A3002 RMK AO2 T02230224
     10223 20179=
KJGG 081200Z AUTO 00000KT 7SM SCT017 SCT075 28/25 A3001 RMK
     AO1=
PABA 081201Z AUTO 15005KT 10SM SCT043 OVC060 07/07 A3001 RMK AO2
     SLP163 60000 70003 T00720067 10072 20022 58008=
PAIK 081201Z AUTO 00000KT 10SM CLR 10/08 A3013 RMK AO2 SLP242
     T01000078 10178 20100 50001=
PAKF 081201Z AUTO 19004KT 10SM BKN028 OVC044 08/07 A2990 RMK AO2
     SLP219 T00830067 10089 20072 58008=
PANW 081156Z AUTO 35007KT FEW039 BKN049 OVC065 09/09 A2997 RMK AO2
     PWINO TSNO 58003 70017 T00940088 10111 20094 SLP126 $=
KJQF 081155Z 00000KT 10SM SCT100 25/18 A3002=
KMMU 081145Z 00000KT 4SM HZ BCFG SCT250 25/23 A3005=
####018000086####
SACN91 KWBC 081204
METAR CWHI 081100Z AUTO 18005KT 12/09 RMK AO1 T01170090 50007=
####018000091####
SAPF20 NTAA 081200
METAR NTAA 081200Z VRB02KT 9999 FEW023 25/21 Q1015 WS ALL RWY NOSIG=
####018000141####
SAMX51 MMMX 081200
METAR MMCB 081154Z 00000KT 1/4SM FG  SCT004 BKN010 OVC100 18/17 A3000 
      RMK 63052 8/87/ RTS=





TX OPMET V1
####018000074####
SABZ21 SBFN 081200
METAR SBFN 081200Z 15004KT 9999 FEW017 28/23 Q1015=
####018000122####
SAPQ50 KWBC 081200 RRD
METAR
PTRO 081158Z 04005KT 14SM BKN016TCU BKN120 OVC300 26/24 A2990 RMK
     TCU VC ALQDS=
####018000110####
SAKA31 PTRO 081200
METAR PTRO 081158Z 04005KT 14SM BKN016TCU BKN120 OVC300 26/24 A2990 
RMK TCU VC ALQDS
####018000066####
SAAG SASA 081200
METAR SASA 081200Z 20004KT CAVOK 08/06 Q1021=
####018000085####
SANC01 NWWW 081200
METAR NWWW 081200Z AUTO VRB02KT 9999NDV FEW035/// 17/15 Q1016=
####018000069####
SABZ24 SBUG 081200
METAR SBUG 081200Z 12008KT CAVOK 08/06 Q1021 =
####018000096####
SABZ21 SBSV 081200
METAR SBSV 081200Z 24007KT 5000 -RA BR SCT007 SCT017 BKN070 24/21
Q1019=
####018000086####
SAUK37 EGGY 081150 RRA
METAR EGPI 081150Z AUTO 21016KT 9999NDV // NSC 15/09 Q1013=
####018000068####
SABZ23 SBRJ 081200
METAR SBRJ 081200Z 03003KT CAVOK 23/16 Q1018=
####018001046####
SPUS70 KWBC 081204
SPECI
KDEN 081201Z 01005KT 1/4SM R35L/P6000FT BR VV006 13/12 A3032 RMK
     AO2 SFC VIS 1 TWR IN CLDS $=
KDGW 081201Z AUTO 17003KT 10SM SCT003 05/04 A3035 RMK AO2 $=
KFRG 081201Z 17004KT 5SM RA BR BKN015 BKN021 OVC055 25/23 A3006
     RMK AO2 RAB1155 P0000=
KGCK 081201Z 02009KT 10SM SCT007 OVC015 18/16 A3024 RMK AO2=
KPHL 081201Z 16005KT 2 1/2SM BR BKN006 BKN150 25/23 A3003 RMK AO2
     $=
KPYM 081201Z AUTO VRB03KT 10SM OVC012 24/21 A3011 RMK AO2=
KUIN 081201Z AUTO 32004KT 6SM BR BKN001 OVC007 23/22 A3005 RMK
     AO2=
KSGR 081202Z 09007KT 8SM FEW010 SCT025 BKN055 26/24 A2993 RMK
     AO2=
KSET 081202Z AUTO 20003KT 9SM VCTS -RA BKN006 BKN009 OVC060 24/24
     A3004 RMK AO2 TSB1156RAB1157 CIG 003V007 P0000=
KFOE 081202Z 34007KT 10SM BKN007 OVC012 22/20 A3009 RMK AO2=
KLHQ 081202Z AUTO 00000KT 3SM BR CLR 23/21 A3010 RMK AO2=
KOKC 081155Z COR 01004KT 10SM SCT014 SCT025 BKN080 BKN200 23/22
     A3007 RMK AO2=
KUCP 081203Z AUTO 00000KT 1/2SM FG VV001 21/19 A3010 RMK AO2 $=
####018000382####
SPUS80 KWBC 081204
SPECI
KMWT 081200Z AUTO 00000KT 10SM FEW014 SCT024 BKN036 24/23 A3006
     RMK AO2 TSNO=
KCRP 081159Z 06005KT 7SM -TSRA FEW008 SCT020CB BKN045 26/25 A2984
     RMK AO2 OCNL LTGIC SW-W TS SW-W MOV W P0001 $=
KDRT 081201Z AUTO 00000KT 8SM SCT019 BKN023 BKN050 24/22 A2996 RMK
     AO2=
PHTO 081202Z VRB04KT 10SM BKN028 BKN032 21/18 A3002 RMK AO2=
####018003698####
SAUS70 KWBC 081200 RRF
METAR
KFLL 081153Z COR 08007KT 10SM FEW019 29/24 A2994 RMK AO2 SLP138
     T02890239 10289 20278 53008=
KPBI 081153Z COR 08004KT 6SM -RA BR SCT022 BKN028CB BKN050 26/24
     A2996 RMK AO2 RAB16 SLP143 VIS N-NE 1 1/2 CB OHD-W-N-E MOV W
     P0001 60001 70011 T02610244 10278 20261 53011=
PAGA 081158Z AUTO 00000KT 10SM CLR 11/08 A3006 RMK AO2 SLP226
     T01110078 10217 20111 50000=
K0R3 081159Z AUTO 06003KT 5SM BR BKN003 26/25 A3000 RMK AO2=
K1A5 081200Z AUTO 00000KT 2 1/2SM BR BKN001 18/17 A3017 RMK AO2
     T01760165 10190 20158=
K3I2 081200Z AUTO 00000KT 4SM BR SCT001 21/20 A3010 RMK AO2=
K3J7 081200Z AUTO 00000KT 10SM CLR 24/22 A3001 RMK AO2=
K47A 081200Z AUTO 00000KT 10SM CLR 22/18 A3008 RMK AO2 LTG DSNT NE
     T02190181=
KASJ 081157Z AUTO 02004KT 3SM HZ CLR 26/23 A3000 RMK AO2=
KAVC 081200Z AUTO 00000KT 5SM HZ CLR 28/21 A3005 RMK AO2=
KBCB 081200Z AUTO 00000KT 4SM HZ CLR 25/22 A3016 RMK AO2=
KBIJ 081200Z AUTO 00000KT 10SM CLR 22/ A3003 RMK AO2=
KCTZ 081200Z AUTO 36003KT 5SM HZ CLR 26/22 A2995 RMK AO2=
KDPL 081200Z AUTO 03004KT 5SM HZ CLR 27/22 A2996 RMK AO2=
KEXX 081159Z AUTO 00000KT 7SM CLR 23/19 A3002 RMK AO2=
KFQD 081159Z AUTO 00000KT 10SM SCT100 24/18 A3006 RMK AO2=
KMQI 081156Z AUTO 07009KT 10SM SCT011 27/23 A2997 RMK AO2=
KPGV 081200Z AUTO 01003KT 3SM BR SCT110 25/23 A2998 RMK AO2=
KRIL 081153Z AUTO 00000KT 10SM CLR 12/08 A3027 RMK AO2 SLP184
     60000 70003 T01170078 10172 20111 53007 TSNO=
KUNV 081200Z AUTO 00000KT 7SM CLR 23/19 A3010 RMK AO2
     T02260192=
KBJC 081151Z 33007KT 8SM BKN008 OVC025 13/12 A3033=
KIAH 081153Z 07010KT 7SM -RA FEW005 SCT030 BKN060 BKN130 26/24
     A2995=
KNSE 081156Z 00000KT 4SM BR FEW001 SCT250 24/23 A3003 RMK AO2
     SLP154 VIS NE-E 2 70020 T02440228 10244 20222 51004 $=
TJPS 081150Z 11005KT 8SM FEW030 29/25 A2997 HZ ALQDS=
KJKA 081200Z AUTO 00000KT 5SM BR CLR 27/26 A3004 RMK AO2
     T02650256=
KJYO 081200Z AUTO 01003KT 7SM CLR 29/19 A3003 RMK AO2=
KLGC 081155Z AUTO 00000KT 10SM CLR 23/ A3004 RMK AO1=
KLKU 081200Z AUTO 35005KT 7SM CLR 27/21 A3001 RMK AO2=
KLNP 081158Z AUTO 00000KT 7SM CLR 23/19 A3020 RMK AO1=
KLOM 081200Z AUTO 00000KT 5SM CLR 27/23 A3004 RMK AO1 T02670227
     10267 20213=
KMGR 081200Z AUTO 00000KT 10SM CLR 23/21 A3005 RMK AO2=
KMQS 081200Z AUTO 00000KT 4SM CLR 26/22 A3007 RMK AO2 PWINO
     PNO=
KMRN 081200Z AUTO 00000KT 10SM SCT100 23/18 A3012 RMK AO2=
KONX 081200Z AUTO 06006KT 10SM SCT012 OVC110 27/22 A2999 RMK AO2
     T02650224 10265 20256=
KSIF 081200Z AUTO 00000KT 7SM CLR 26/22 A3003 RMK AO2=
KSVH 081200Z AUTO 00000KT 7SM CLR 25/19 A3005 RMK AO2 T02520185
     10252 20197=
KTSP 081155Z AUTO 00000KT 10SM CLR 10/05 A3003 RMK AO2=
KTVI 081200Z AUTO 00000KT 10SM CLR 23/22 A3004 RMK AO2
     T02330220=
KVUJ 081158Z AUTO 00000KT 10SM SCT090 SCT110 27/21 A2999 RMK
     AO2=
KW99 081200Z AUTO 00000KT 5SM HZ BKN080 24/17 A3010 RMK AO2=
K3A1 081200Z AUTO 33003KT 10SM CLR 25/23 A3011 RMK AO2 T02450234
     10245 20217=
K4A9 081200Z AUTO 00000KT 7SM CLR 22/19 A3008 RMK AO2
     T02160194=
K4R4 081200Z AUTO 00000KT 5SM BR CLR 25/24 A3004 RMK AO2 T02470239
     10247 20227=
K8A0 081159Z AUTO 36003KT 10SM CLR 25/23 A3008 RMK AO2=
KACP 081159Z AUTO 00000KT 5SM BR CLR 25/25 A3002 RMK AO2=
KAFP 081200Z AUTO 00000KT 10SM CLR 24/18 A2999 RMK AO2 T02440179
     10244 20199=
KALX 081200Z AUTO 00000KT 10SM CLR 24/22 A3006 RMK AO1=
KBQK 081157Z AUTO 29005KT 10SM CLR 23/22 A3002 RMK AO1 T02310218
     PNO=
KCCO 081200Z AUTO 00000KT 7SM CLR 21/21 A3007 RMK AO1=
KCDH 081200Z AUTO 00000KT 7SM FEW003 22/22 A3006 RMK AO2=
####018001720####
SAUS70 KWBC 081200 RRG
METAR
KCPC 081200Z AUTO 36004KT 10SM CLR 26/20 A2994 RMK AO2 T02600196
     10277 20246=
KCPK 081200Z AUTO 00000KT 7SM SCT050 BKN085 OVC110 25/23 A2999 RMK
     AO2=
KCTJ 081200Z AUTO 33003KT 10SM CLR 25/20 A3008 RMK AO2 T02480203
     10248 20201=
KDNN 081158Z AUTO 00000KT 10SM CLR 21/20 A3006 RMK AO2=
KDQH 081200Z AUTO 00000KT 10SM CLR 25/20 A3002 RMK AO1=
KDRI 081200Z AUTO 06005KT 7SM BKN010 OVC019 23/23 A3004 RMK
     AO2=
KEHO 081200Z AUTO 00000KT 10SM CLR 22/18 A3004 RMK AO2 T02180184
     10240 20190=
KEMV 081157Z AUTO 05005KT 4SM BR SCT075 25/23 A3000 RMK AO2=
KEYF 081200Z AUTO 00000KT 7SM CLR 26/20 A2995 RMK AO2
     T02580200=
KEZF 081158Z AUTO 09004KT 7SM CLR 28/26 A2999 RMK AO2
     T02810260=
KF24 081159Z AUTO 5SM BR CLR 24/23 A3009 RMK AO2 T02420231=
KFFA 081158Z AUTO 08004KT 10SM CLR 27/23 A2997 RMK AO2
     T02650226=
KFKN 081200Z AUTO 00000KT 3SM SCT075 27/24 A3000 RMK AO1=
KGHG 081200Z AUTO 15006KT 360V360 10SM OVC012 24/21 A3011 RMK
     AO2=
KHOE 081159Z AUTO 00000KT 10SM CLR 23/ A3003 RMK AO2 T0226=
KHSP 081200Z AUTO 06004KT 10SM CLR 23/16 A3027 RMK AO2=
KHWY 081200Z AUTO 03004KT 7SM CLR 27/19 A3001 RMK AO2=
KIDI 081200Z AUTO 00000KT 5SM BKN070 21/20 A3012 RMK AO2=
KIPJ 081200Z AUTO 00000KT 10SM CLR 24/18 A3004 RMK AO2 T02440181
     10244 20195=
KJES 081200Z AUTO 00000KT 10SM CLR 22/22 A3002 RMK AO2 T02230224
     10223 20179=
KJGG 081200Z AUTO 00000KT 7SM SCT017 SCT075 28/25 A3001 RMK
     AO1=
PANW 081156Z AUTO 35007KT FEW039 BKN049 OVC065 09/09 A2997 RMK AO2
     PWINO TSNO 58003 70017 T00940088 10111 20094 SLP126 $=
KMMU 081145Z 00000KT 4SM HZ BCFG SCT250 25/23 A3005=
####018000140####
SAXX60 KWBC 081200 CCB
METAR
K79J 081156Z AUTO 00000KT 10SM CLR 24/22 A3003 RMK AO2 SLP165
     T02440217 10256 20233 53005 TSNO $=
####018000687####
SAUS80 KWBC 081200 RRC
METAR
KACY 081154Z 13003KT 8SM FEW060 25/22 A3004 RMK AO2 RAE1058B21E39
     SLP172 P0001 60001 70001 T02500222 10256 20228 51008=
KCHS 081156Z 29006KT 7SM CLR 25/20 A2997 RMK AO2 SLP149 T02500200
     10250 20239 53005=
KDAB 081153Z 00000KT 10SM FEW020 SCT150 23/21 A3000 RMK AO2 SLP158
     T02330211 10233 20200 51004=
KJNX 081159Z AUTO 36004KT 7SM CLR 26/21 A2997 RMK AO2=
KDAB 081153Z 00000KT 10SM FEW020 SCT150 23/21 A3000 RMK AO2 SLP158
     T02330211 10233 20200 51004=
KAYS 081200Z AUTO 26003KT 10SM CLR 24/22 A3002 RMK AO1=
KDBN 081200Z AUTO 00000KT 10SM CLR 26/18 A3000 RMK AO1=
KJQF 081155Z 00000KT 10SM SCT100 25/18 A3002=
####018000096####
SAFG20 SOCA 081200
METAR SOCA 081200Z 12006KT 080V180 9000 FEW006 SCT016 28/25 Q1013
NOSIG=
####018000206####
SPXX60 KWBC 081204
SPECI
KBLV 081151Z AUTO 17005KT 10SM -RA FEW042 SCT055 25/25 A3004 RMK
     AO2 RAB1151 SLP170=
KFAF 081152Z 08005KT 10SM BKN013 27/27 A2999 RMK AO2A CIG 011V018
     SLP157=
####018000085####
SAPH RPLL 081200
METAR RPLB 081200Z 17004KT 9999 FEW020 SCT080 29/25 Q1010 NOSIG=
####018000670####
SAPR82 SPIM 081200
METAR
SPHI 081200Z 17007KT 9999 SCT010 BKN100 15/13 Q1014 RMK BIRD 
             HAZARD RWY 19/01 PP000=
METAR
SPIM 081200Z 18003KT 6000 OVC022 16/13 Q1013 NOSIG RMK PP000=
METAR
SPQT 081200Z ///// 8000 2000SW BCFG SKC 24/23 Q1011 TEMPO 0800
             RMK BIRD HAZARD RWY 06/24 PP000=
METAR
SPQU 081200Z VRB02KT CAVOK 07/M12 Q1024 NOSIG RMK PP000=
METAR
SPRU 081200Z 00000KT 7000 OVC015 16/13 Q1013 RMK BIRD HAZARD RWY20
PP000=
METAR
SPSO 081200Z 12005KT 7000 FEW010 12/10 Q1014 RMK PP000=
METAR
SPTN 081200Z VRB02KT 8000 OVC012 11/09 Q1013 RMK PP000=
METAR
SPZO 081200Z 00000KT 9999 FEW033 SCT046 04/01 Q1033 NOSIG RMK PP000=
####018000125####
SAVN23 SVBC 081200
METAR SVBC 081200Z 00000KT 9999 FEW010 27/23 Q1013=
METAR SVMT 081200Z NIL= 
METAR SVHG 081200Z NIL=
####018003733####
SAXX60 KWBC 081200 RRD
METAR
KNEL 081200Z AUTO 15004KT 9SM FEW017 OVC095 26/21 A3005 RMK AO2
     SLP173 T02560211 10256 20222 51007 $=
KNGP 081156Z COR 07003KT 10SM -RA FEW011 SCT022TCU BKN035 28/26
     A2982 RMK AO2 SLP098 TCU NE TCU DSNT E-SE WR// P0002 60012
     70015 T02790263 10289 20278 53006 $=
KFFO 081158Z 00000KT 3SM HZ CLR 23/21 A3009 RMK AO2A SLP183 10236
     20208 52006=
KHIF 081155Z 07010G19KT 10SM FEW140 16/07 A3013 RMK AO2A SLP105
     MIDFLD WND 080/18G21KT T01590068 10208 20159 53006 $=
KHLR 081156Z AUTO 07004KT 10SM OVC011 25/ A3000 RMK AO2 SLP150
     60000 T0250 10261 20250 53004 $=
KNBC 081156Z 27005KT 7SM CLR 26/19 A2999 RMK AO2 SLP155 T02560194
     10256 20228 53006=
KNFG 081156Z AUTO 00000KT 9SM BKN011 OVC017 16/14 A2990 RMK AO2
     SLP123 T01560139 10161 20156 55001 TSNO=
KNFL 081156Z AUTO 23004KT 10SM CLR 17/03 A3000 RMK AO2 SLP129
     T01670033 10283 20161 53009 TSNO=
KNGP 081156Z 07003KT 10SM -RA BKN039 BKN050 28/26 A2982 RMK AO2
     SLP098 TCU N TCU DSNT NE AND W WR// P0002 60012 70015
     T02790263 10289 20278 53006 $=
KNLC 081156Z AUTO 30005KT 10SM CLR 16/10 A2983 RMK AO2 SLP098
     T01610100 10239 20161 53002 TSNO $=
KNQI 081156Z 01005KT 10SM TS SCT014CB BKN140 BKN280 27/24 A2983
     RMK AO2 SLP097 OCNL LTGICCG NE-E TSB28RAE19 TS NE-E MOV W CB
     DSNT S P0006 60017 70017 T02670244 10272 20267 51003 $=
KNRS 081156Z AUTO 30006KT 10SM OVC016 17/14 A2990 RMK AO2 SLP124
     T01720139 10172 20161 55001 TSNO $=
KNTU 081156Z COR 08006KT 10SM FEW015 SCT050 BKN100 26/23 A2998 RMK
     AO2 SLP153 T02560233 10261 20250 53010 CHINO RWY 05R $=
KNUQ 081156Z AUTO 02003KT 10SM OVC011 15/12 A2992 RMK AO2 SLP134
     T01500117 10161 20150 56003 TSNO=
KLFI 081155Z 09007KT 10SM FEW011 OVC090 26/22 A3000 RMK AO2A
     SLP159 T02580219 10259 20254 53014 $=
KNBG 081155Z 06004KT 7SM SCT010 BKN250 26/23 A3002 RMK AO2 SLP166
     T02620233 50008 $=
KNTU 081156Z COR 08006KT 10SM FEW015 SCT050 BKN100 26/23 A2998 RMK
     AO2 SLP153 T02560233 10261 20250 53010 CHINO RWY 05R $=
KPAM 081155Z 35004KT 10SM CLR 25/25 A3002 RMK AO2A SLP167
     T02530251 10253 20229 53007=
KVPS 081155Z 33001KT 10SM BR FEW010 24/23 A3004 RMK AO2A VIS NE 2
     SLP172 T02420233 10251 20231 53007=
KNFG 081156Z AUTO 00000KT 9SM BKN011 OVC017 16/14 A2990 RMK AO2
     SLP123 T01560139 10161 20156 55001 TSNO=
KNFL 081156Z AUTO 23004KT 10SM CLR 17/03 A3000 RMK AO2 SLP129
     T01670033 10283 20161 53009 TSNO=
KNKX 081155Z 32005KT 10SM OVC014 16/14 A2990 RMK AO2 SLP119 70001
     T01560139 10167 20156 55000=
KNLC 081156Z AUTO 30005KT 10SM CLR 16/10 A2983 RMK AO2 SLP098
     T01610100 10239 20161 53002 TSNO $=
KNMM 081156Z 28003KT 10SM FEW250 24/22 A3007 RMK AO2 SLP188
     T02440222 10244 20222 52010=
KNQI 081156Z 01005KT 10SM TS SCT014CB BKN140 BKN280 27/24 A2983
     RMK AO2 SLP097 OCNL LTGICCG NE-E TSB28RAE19 TS NE-E MOV W CB
     DSNT S P0006 60017 70017 T02670244 10272 20267 51003 $=
KNTU 081156Z COR 08006KT 10SM FEW015 SCT050 BKN100 26/23 A2998 RMK
     AO2 SLP153 T02560233 10261 20250 53010 CHINO RWY 05R $=
KNYG 081156Z 08004KT 6SM HZ FEW090 BKN200 27/22 A3001 RMK AO2
     SLP163 T02670222 10272 20250 51010=
KNYL 081155Z AUTO 00000KT 10SM CLR 27/00 A2972 RMK AO2 SLP061
     T02670000 10300 20261 53004=
KPAM 081155Z 35004KT 10SM CLR 25/25 A3002 RMK AO2A SLP167
     T02530251 10253 20229 53007=
KPOE 081155Z 08005KT 10SM FEW015 24/23 A3003 RMK AO2 SLP169 70021
     T02390228 10250 20239 $=
KSKF 081155Z 03006KT 7SM -RA FEW011 BKN020 BKN035 25/24 A2993 RMK
     AO2A RAE1101B1142 FEW V SCT SLP125 P0000 60000 T02520238
     10264 20252 53001 $=
####018001471####
SAUS70 KWBC 081204
METAR
KBQP 081207Z AUTO 00000KT 2 1/2SM BR CLR 24/24 A3006 RMK AO2=
KCWV 081209Z AUTO 28004KT 10SM CLR 26/23 A3001 RMK AO2=
KHRJ 081201Z AUTO 00000KT 5SM HZ CLR 28/21 A2997 RMK AO2=
KJYL 081201Z AUTO 00000KT 10SM CLR 25/22 A3001 RMK AO2=
KMLJ 081202Z AUTO 00000KT 10SM CLR 24/22 A3003 RMK AO2=
KMWK 081202Z AUTO 00000KT 5SM HZ CLR 26/19 A3007 RMK AO2=
KTNB 081201Z AUTO 00000KT 10SM CLR 18/16 A3021 RMK AO2=
KUKF 081201Z AUTO 00000KT 5SM CLR 22/19 A3009 RMK AO1=
KLWB 081201Z AUTO 00000KT 4SM HZ CLR 22/18 A3017 RMK AO2=
KMFV 081202Z AUTO 09004KT 10SM SCT110 26/22 A3001 RMK AO2=
KOBE 081201Z AUTO 03004KT 10SM CLR 25/23 A2999 RMK AO2 LTG DSNT
     S=
KPSK 081202Z AUTO 00000KT 5SM HZ CLR 26/18 A3016 RMK AO2=
KRUQ 081201Z AUTO 00000KT 10SM BKN095 24/21 A3003 RMK AO2=
KVDI 081202Z AUTO 26003KT 10SM CLR 24/21 A3003 RMK AO1=
KVJI 081202Z AUTO 00000KT 5SM HZ CLR 24/20 A3016 RMK AO2=
KBGE 081201Z AUTO 00000KT M1/4SM FG OVC001 21/21 A3004 RMK AO2=
KGEV 081201Z AUTO 00000KT 7SM SCT070 SCT080 25/18 A3020 RMK
     AO2=
KHDC 081202Z AUTO 06004KT 7SM CLR 26/26 A3005 RMK AO2=
KHLX 081201Z AUTO 00000KT 5SM BR 23/22 A3018 RMK AO2=
KHQU 081202Z AUTO 00000KT 10SM CLR 23/20 A3006 RMK AO1=
PABA 081201Z AUTO 15005KT 10SM SCT043 OVC060 07/07 A3001 RMK AO2
     SLP163 60000 70003 T00720067 10072 20022 58008=
PAIK 081201Z AUTO 00000KT 10SM CLR 10/08 A3013 RMK AO2 SLP242
     T01000078 10178 20100 50001=
####018002996####
SAXX60 KWBC 081200 RRE
METAR
KVBG 081155Z AUTO 31003KT 10SM OVC004 12/11 A2993 RMK AO2 SLP127
     T01170111 10128 20117 53002 TSNO $=
KNCA 081156Z 03005KT 4SM HZ BKN180 26/23 A2994 RMK AO2 SLP140
     T02610228 10267 20233 53010=
KNID 081156Z AUTO 00000KT FEW090 18/02 A2986 RMK AO2 SLP092
     T01780022 10289 20178 53010 TSNO $=
KNJK 081156Z AUTO 20004KT 10SM CLR 23/16 A2970 RMK AO2 SLP072
     T02280161 10300 20217 52007 TSNO=
KNTD 081156Z AUTO 28006KT 9SM OVC011 14/13 A2990 RMK AO2 SLP125
     6//// 7//// T01440128 10156 20144 55001 TSNO PNO VISNO N
     $=
KNTU 081156Z 08006KT 10SM CLR 26/23 A2998 RMK AO2 SLP153 60000
     T02560233 10261 20250 53010 CHINO RWY 05R $=
KNUW 081156Z 00000KT 10SM CLR 14/11 A2997 RMK AO2 SLP152 T01390106
     10211 20133 53002 $=
KNXP 081156Z AUTO 31005KT CLR 24/01 A2992 RMK AO2 SLP093 T02390011
     10294 20233 53006 $=
KNXX 081156Z 00000KT 4SM HZ CLR 26/21 A3005 RMK AO2 PK WND
     33030/1106 SLP180 T02610211 10261 20228 53008 $=
KRND 081155Z 04008KT 9SM -DZ BKN007 OVC012 25/24 A2994 RMK AO2A
     DZB1118E1134B1155 SLP129 P0000 60000 T02470237 10255 20246
     53002=
KMHR 081150Z 15005KT 10SM FEW150 12/10 A2985=
KHST 081155Z COR 35004KT 10SM CLR 27/25 A2994 RMK AO2 DZB1118E1127
     SLP141 P0000 60007 70007 T02710252 10274 20249 52006 $=
KHUA 081155Z AUTO 35003KT 26/22 A3011 RMK AO2 SLP185 T02570217
     10253 20222 52008 PWINO $=
KNGU 081159Z 08007KT 10SM FEW008 SCT070 BKN100 26/23 A3000 RMK AO2
     SLP159 T02610228 10267 20250 52013=
KRCA 081155Z 00000KT 9SM CLR 11/09 A3025 RMK AO2A SLP236 T01140086
     10128 20109 53004 $=
PHBK 081156Z AUTO 13003KT 10SM OVC070 24/17 A3001 RMK AO2 SLP164
     7//// T02440172 10272 20239 58007 TSNO $=
KHST 081155Z COR 35004KT 10SM CLR 27/25 A2994 RMK AO2 DZB1118E1127
     SLP141 P0000 60007 70007 T02710252 10274 20249 52006 $=
KNBC 081156Z 27005KT 7SM CLR 26/19 A2999 RMK AO2 SLP155 T02560194
     10256 20228 53006=
KNCA 081156Z 03005KT 4SM HZ BKN180 26/23 A2994 RMK AO2 SLP140
     T02610228 10267 20233 53010=
KNGP 081156Z 07003KT 10SM -RA BKN039 BKN050 28/26 A2982 RMK AO2
     SLP098 TCU N TCU DSNT NE AND W WR// P0002 60012 70015
     T02790263 10289 20278 53006 $=
KNGU 081159Z 08007KT 10SM FEW008 SCT070 BKN100 26/23 A3000 RMK AO2
     SLP159 T02610228 10267 20250 52013=
KNJM 081157Z AUTO 02004KT 4SM HZ CLR 27/24 A2994 RMK AO2 SLP141
     T02720239 10272 20256 51011 $=
KNTU 081156Z 08006KT 10SM CLR 26/23 A2998 RMK AO2 SLP153 60000
     T02560233 10261 20250 53010 CHINO RWY 05R $=
TTPP 081200Z 00000KT 2000 -SHRA VCSH FEW006 FEW010CB BKN036 25/24
     Q1013 TEMPO SHRA=
KNFG 081156Z AUTO 00000KT 9SM BKN011 OVC017 16/14 A2990 RMK AO2
     SLP123 T01560139 10161 20156 55001 TSNO=
KNMM 081156Z 28003KT 10SM FEW250 24/22 A3007 RMK AO2 SLP188
     T02440222 10244 20222 52010=
KPAM 081155Z 35004KT 10SM CLR 25/25 A3002 RMK AO2A SLP167
     T02530251 10253 20229 53007=
####018000337####
SAVN27 SVBM 081200
METAR SVBM 081200Z 00000KT 9999 BKN013 23/22 Q////=
METAR SVSP 081200Z 00000KT 5000 -DZ SCT020 BKN035 XX/XX Q1012=
METAR SVBI 081200Z 00000KT 8000 -DZ FEW015 OVC040 XX/XX Q1013=
METAR SVVL 081200Z 00000KT 8000 +HZ SCT060 22/21 Q1022=
METAR SVGU 081200Z NIL=
METAR SVSO 081200Z NIL=
METAR SVAC 081200Z NIL=
 
####018000420####
SAPR94 SPIM 081200
METAR
SPHO 081200Z 00000KT 9999 FEW060 SCT200 09/04 Q1026 RMK PP000=
SPHY 081200Z /////KT 9999 FEW020 SCT070 01/M03 Q1022 RMK PP000=
METAR
SPJL 081200Z 00000KT CAVOK M04/M06 Q1038 RMK PP000=
METAR
SPME 081200Z /////KT 9999 OVC020 22/21 Q1012 
             RMK BIRD HAZARD RWY 32/14 PP000=
METAR
SPTU 081200Z 01004KT 6000 4000S SCT015 SCT030 23/23 Q1011 RMK PP000=
METAR SPYL 081200Z NIL=
####018000091####
SAMR20 TFFF 081200 CCA
METAR TFFF 081200Z 10012KT 9999 FEW020 SCT026 31/24 Q1014 NOSIG=
####018000082####
SAHU31 LHBM 081200
METAR LHBP 081200Z 26006KT 200V330 CAVOK 24/10 Q1021 NOSIG=
####018000085####
SACO20 SKBO 081159 RRU
METAR SKCL 081200Z 08003KT 9999 SCT017 BKN090 20/19 A3002=
####018000770####
SACH10 SCSC 081200
METAR
SCAR 081200Z 00000KT 9999 OVC021 15/09 Q1016=
SCDA 081200Z 02006KT 9999 OVC026 14/08 Q1017=
SCFA 081200Z 00000KT 9999 BKN022 13/07 Q1016=
SCCF 081200Z 13026KT CAVOK 03/M13 Q1025=
SCAT 081200Z AUTO 03003KT 360V060 6000 // ///003 08/08 Q1017=
SCIP 081200Z 11003KT 9999 FEW012 BKN020 18/17 Q1022 TEMPO 5000 
-SHRA=
SCSE 081200Z 11004KT CAVOK 05/04 Q1017 NEFO PLAYA SKC=
SCEL 081200Z 12003KT 030V150 4000 BR SCT130 02/01 Q1022 NOSIG=
SCIE 081200Z 29011KT 9999 BKN006 OVC010 13/11 Q1019=
SCTC 081200Z 30008KT 270V330 9999 FEW010 BKN012 OVC025 10/10
    Q1015=
SCTE 081200Z 24004KT 5000 SHRA FEW008 OVC020 08/07 Q1011 NOSIG=
SCBA 081200Z AUTO 28009KT CAVOK M04/M06 Q1002=
SCCI 081200Z 35013KT 9999 FEW025 SCT070 M03/M04 Q0986 NOSIG=
####018000466####
SAVN26 SVMC 081200
METAR SVMC 081200Z 36004KT 9999 FEW010 CB SCT013 SCT070 25/24 Q1012=
METAR SVJC 081200Z 11004KT 9999 FEW030 25/24 Q1012=
METAR SVSA 081200Z 00000KT 9999 BKN020 23/19 Q1016=
METAR SVCR 081200Z NIL=
METAR SVVG 081200Z NIL=
METAR SVSZ 081200Z 00000KT 9999 SCT015 XX/XX Q1012=
METAR SVMD 081200Z 00000KT 9999 FEW030 SCT100 XX/XX Q1020=
METAR SVPM 081200Z 00000KT 9999 BKN030 XX/XX Q1016=
METAR SVLF 081200Z 00000KT 9999 BKN040 XX/XX Q1014=
####018000182####
SATD31 TTPP 081200
METAR
TTPP 081200Z 00000KT 2000 -SHRA VCSH FEW006 FEW010CB BKN036 25/24
Q1013 TEMPO SHRA=
TTCP 081200Z 06010KT 9999 TS FEW010CB BKN036 24/23 Q1013 NOSIG=
 
####018000073####
SAAT31 TQPF 081200
METAR TQPF 081200Z 08012KT 9999 FEW021 29/// Q1016
####018000081####
SABZ21 SBPB 081200
METAR SBPB 081200Z 06009KT 9999 FEW020 SCT100 31/23 Q1014=
####018000083####
SAAW34 KWBC 081145 RRD
METAR
OPRN 081200Z 23018KT 9999 SCT040 39/18 Q1004.2=
####018000104####
SPAU31 KWBC 081204
SPECI
YPPD 081203Z AUTO 36007KT 4200NDV // SCT008 BKN019 OVC027 21/21
Q1010=
####018000230####
SADN31 KWBC 081150 RRA
METAR
EKOD 081150Z 19009KT 160V220 CAVOK 26/12 Q1019=
EKVG 081202Z 20012KT 9999 SCT005 BKN008 BKN018 11/10 Q0994 RMK/RWY
     13/31 CLOSED DUE WIP. SEE NOTAM E0050/10 WIND 850FT
     VRB12G33KT=
####018000120####
SPEE31 KWBC 081204
SPECI
UMII 081200Z 21005MPS 4800 -SHRA BKN015CB 20/18 Q1014 R23/CLRD//
TEMPO 2000 TS BKN005=
####018000093####
SPUS31 KWBC 081204
SPECI
KDEN 081201Z 01005KT 1/4SM R35L/P6000FT BR VV006 13/12 A3032=
####018000306####
SAMX31 KWBC 081145 RRD
METAR
MMGL 081141Z 00000KT 10SM SCT010 BKN080 OVC300 19/16 A3003 RMK
     SLP040 52003 901 8/577=
MMMY 081145Z 33008KT 15SM SKC 24/22 A2988 RMK SLP104 53007 911
     ISOL AC=
MMMZ 081141Z 01004KT 10SM SCT070 OVC200 26/22 A2975 RMK SLP074
     57003 967 8/077 ISOL S=
####018000639####
SAMX41 KWBC 081145 RRE
METAR
MMCU 081146Z 07008KT 10SM OVC030 22/14 A3011 RMK SLP085 5//// 927
     8/5//=
MMCV 081141Z 00000KT 12SM SCT220 23/23 A2985 RMK SLP098 5//// 900
     60238 8/005 AC=
MMGL 081141Z 00000KT 10SM SCT010 BKN080 OVC300 19/16 A3003 RMK
     SLP040 52003 901 8/577=
MMMA 081148Z 32006KT 6SM SCT012TCU BKN065 BKN200 26/25 A2980 RMK
     SLP071 5//// 900 8/254 HZ=
MMML 081153Z 15010KT 10SM SKC 22/// A2968=
MMNL 081141Z 03006KT 8SM SCT007 OVC020 27/24 A2988 RMK SLP142
     50003 909 8/5//=
MMRX 081144Z 35006KT 7SM SCT006 BKN010 26/24 A2980 RMK SLP090
     5//// 904 8/800 OCNL DROPS HZY=
####018000122####
SAMX42 KWBC 081145 RRD
METAR
MMTC 081143Z 00000KT 10SM BKN030 BKN080 22/18 A3001 RMK SLP070
     51024 924 8/570=
####018000090####
SPUS31 KWBC 081204
SPECI
KPHL 081201Z 16005KT 2 1/2SM BR BKN006 BKN150 25/23 A3003=
####018000075####
SACN50 CWAO 081130
VOM SA 1130 AUTO8 M M M M/20/10/3403/M/M M 49MM=

####018000075####
SACN50 CWAO 081115
VOM SA 1115 AUTO8 M M M M/20/11/3401/M/M M 83MM=

####018000075####
SACN50 CWAO 081145
VOM SA 1145 AUTO8 M M M M/20/10/3404/M/M M 38MM=

####018000120####
SPRA31 KWBC 081204
SPECI
UMII 081200Z 21005MPS 4800 -SHRA BKN015CB 20/18 Q1014 R23/CLRD//
TEMPO 2000 TS BKN005=
####018000098####
SAUK42 KWBC 081150 RRB
METAR
EGOS 081150Z 25008KT 9999 SCT036 BKN250 20/08 Q1017 BLU NOSIG=
####018000439####
SAXX99 KWBC 081100 RRX
METAR
LHDC 081145Z 35009KT 9999 FEW043 23/11 Q1021 NOSIG=
LHKE 081145Z 24001MPS CAVOK 25/11 Q1021 NOSIG RMK BLU=
LHPP 081145Z 33007KT CAVOK 24/11 Q1023 NOSIG=
LHSN 081145Z 35001MPS CAVOK 24/12 Q1021 NOSIG RMK BLU=
LHUD 081145Z 35004KT 9999 SCT040 25/15 Q1022=
MMAN 081140Z 32006KT 12SM SCT040 23/22 A2990 RMK SLP096 5//// 912
     8/500=
MMMV 081140Z 25005KT 8SM HZ BKN050 23/18 A2998 RMK 8/200=
####018000095####
SPUS42 KWBC 081204
SPECI
KDRT 081201Z AUTO 00000KT 8SM SCT019 BKN023 BKN050 24/22 A2996=
####018000325####
SAEW33 LEMM 081200
METAR GCLP 081200Z 03026KT 9999 FEW020 25/18 Q1017 NOSIG=
METAR GCXO 081200Z 29010KT 260V320 9999 FEW005 22/17 Q1020 NOSIG=
METAR GCTS 081200Z 08015KT 050V110 9999 FEW018 26/17 Q1017 NOSIG=
METAR GCRR 081200Z 36016KT 9999 FEW020 26/18 Q1017=
METAR GCFV 081200Z 06015KT 9999 FEW018 24/19 Q1017=
####018000776####
SAEW32 LEMM 081200
METAR LEAS 081200Z 07003KT 020V120 9999 FEW015 23/19 Q1017 TEMPO 
TSRA SCT025CB=
METAR LEBB 081200Z 29010KT 260V330 8000 NSC 26/21 Q1016 NOSIG=
METAR LECO 081200Z 02007KT CAVOK 23/20 Q1015=
METAR LEGE 081200Z 16007KT 110V230 CAVOK 33/17 Q1019=
METAR LEST 081200Z NIL=
METAR LEZG 081200Z 09010KT 070V140 9999 FEW040 36/13 Q1017=
METAR LESO 081200Z 04006KT 020V080 CAVOK 27/21 Q1015=
METAR LEVT 081200Z 18006KT 130V210 9999 SCT040 33/17 Q1018=
METAR LERS 081200Z 21008KT 160V260 CAVOK 29/17 Q1019=
METAR LEMH 081200Z 10005KT 020V170 CAVOK 30/19 Q1020=
METAR LEAM 081200Z 09016KT 060V120 CAVOK 39/06 Q1016=
METAR LEGR 081200Z 16021G32KT 120V190 9999 FEW060 37/05 Q1017=
METAR LERL 081200Z 02003KT 310V120 9999 FEW050 37/08 Q1018=
####018000284####
SAIL31 BICC 081200
METAR BIAR 081200Z 35020KT 9999 -RA BKN023 09/07 Q0995=
METAR BIEG 081200Z 36016KT 9999 VV004 08/08 Q0991 RESHRA=
METAR BIKF 081200Z 04019KT 9999 FEW018 SCT035 BKN110 11/05 Q0995=
METAR BIRK 081200Z 36016KT 160V100 9999 -SHRA FEW020 SCT050 11/07
Q0993=
####018000641####
SAEW31 LEMM 081200
METAR LEMD 081200Z 10009KT 070V140 9999 FEW070TCU 31/12 Q1018 
NOSIG=
METAR LEBL 081200Z 20015KT CAVOK 27/21 Q1019 NOSIG=
METAR LEPA 081200Z 22011KT 190V250 CAVOK 30/11 Q1020 NOSIG=
METAR LEZL 081200Z 24005KT 180V340 9999 SCT025 32/16 Q1015 NOSIG=
METAR LEMG 081200Z 12008KT 080V170 9999 FEW040 30/13 Q1016 NOSIG=
METAR LEVC 081200Z 09008KT 060V120 CAVOK 32/20 Q1019 NOSIG=
METAR LEAL 081200Z 07011KT CAVOK 30/16 Q1019 NOSIG=
METAR LEIB 081200Z 07005KT 350V140 CAVOK 29/20 Q1020 NOSIG=
METAR LELC 081200Z 06010KT 030V100 CAVOK 28/19 Q1019 NOSIG=
METAR LEVX 081200Z 27010KT 8000 FEW030 25/19 Q1015=
####018000247####
SACZ31 LKPW 081200
METAR LKKV 081200Z VRB03KT CAVOK 24/10 Q1023=
METAR LKMT 081200Z 05003KT 330V140 CAVOK 22/11 Q1023 NOSIG=
METAR LKPR 081200Z 34005KT 280V050 CAVOK 24/08 Q1023 NOSIG=
METAR LKTB 081200Z VRB03KT CAVOK 24/08 Q1022 NOSIG=
####018000547####
SAYG31 LYBM 081200
METAR LYBE 081200Z 34012KT CAVOK 23/13 Q1021 NOSIG=
METAR LYBT 081200Z 33012KT 300V010 CAVOK 23/13 Q1021 NOSIG=
METAR LYKV 081200Z 33009KT 9999 SCT035 20/14 Q1022 NOSIG=
METAR LYNI 081200Z 31013KT 9999 SCT020 BKN026 18/13 Q1021 NOSIG=
METAR LYPG 081200Z 02016KT 9999 FEW040 27/08 Q1018 NOSIG=
METAR LYPR 081200Z NIL=
METAR LYTV 081200Z 36004KT 9999 FEW053 30/10 Q1017 NOSIG=
METAR LYUZ 081200Z 30007KT 260V330 9999 BKN020 14/10 Q1024 NOSIG=
METAR LYVR 081200Z 36006KT 300V070 9999 SCT033 SCT040 22/14 Q1020=
####018000084####
SPUS53 KWBC 081204
SPECI
KGCK 081201Z 02009KT 10SM SCT007 OVC015 18/16 A3024=
####018000091####
SPUS53 KWBC 081204
SPECI
KUIN 081201Z AUTO 32004KT 6SM BR BKN001 OVC007 23/22 A3005=
####018000100####
SAAJ31 UBBB 081200
METAR UBBG 081200Z 08014KT 9999 SCT083 36/16 Q1009 NOSIG RMK
R12L/CLRD70 =
####018000075####
SASU01 HSSS 081200
METAR HSSS 081200Z 33008KT CAVOK 41/03 Q1007 NOSIG=
####018000436####
SAEW35 LEMM 081200
METAR LEAB 081200Z 15014KT 130V190 CAVOK 34/02 Q1021 NOSIG=
METAR LEBZ 081200Z 20008KT CAVOK 35/13 Q1015=
METAR LELN 081200Z 19009KT 160V250 9999 FEW055TCU 31/08 Q1020=
METAR LESA 081200Z 27004KT 240V330 9999 FEW048 34/17 Q1018=
METAR LETO 081200Z 14004G14KT 110V220 9999 FEW070 31/14 Q1019 
NOSIG=
METAR LEVD 081200Z VRB03KT CAVOK 34/08 Q1019=
METAR LEVS 081200Z 10009KT 060V140 CAVOK 31/12 Q1019=
####018000082####
SALC31 TLPL 081200
METAR TLPL 081200Z 09019KT 9999 SCT026 BKN300 30/25 Q1014=
####018000086####
SAUK37 EGGY 081150 RRB
METAR EGAE 081150Z 25012KT 9999 FEW020 SCT040 18/11 Q1012=
####018000101####
SADN32 EKCH 081150 RRC
METAR EKVJ 081150Z 20008KT 5000 -SHRA SCT006 BKN010 BKN020 20/17
Q1018=
####018000082####
SAGR31 LGAT 081150 RRB
METAR LGKR 081150Z 31020G30KT CAVOK 28/09 Q1013 NOSIG=
####018000838####
SAUR31 UKMS 081200
METAR UKLR 081200Z 31005MPS 280V350 9999 SCT026
         BKN100  22/15 Q1018 30090070 NOSIG=
METAR UKLI 081200Z 32004MPS 260V360 9999 SCT021CB
         BKN026 18/15 Q1020 28290565 NOSIG=
METAR UKON 081200Z 31004MPS 270V360 9999 FEW033TCU
         OVC200 28/17 Q1013 05090075 NOSIG=
METAR UKCM 081200Z 14004MPS 070V190 CAVOK 29/14 Q1014
          20010065 NOSIG=
METAR UKCW 081200Z VRB02MPS 9999 BKN040 30/15 Q1014
         2709//70 NOSIG=
METAR UKLU 081200Z 33004MPS 9999 SCT040 23/10 Q1020
         10090070 NOSIG=
METAR UKKK 081200Z 29003MPS 9999 BKN032 26/18 Q1015
         26CLRD70  NOSIG=
METAR UKKM 081200Z 30003MPS 270V010 9999 BKN034 24/17
         Q1015  33CLRD70 NOSIG=
METAR UKLN 081200Z 30006MPS 240V330 9999 -SHRA BKN013
          BKN033CB 15/14 Q1020 3319//65 NOSIG=
####018000081####
SAMP31 LMMM 081200 RRB
METAR HLLB 081150Z
34015KT 9999 FEW025 30/18 Q1016=
####018000079####
SAUK38 EGGY 081150 RRA
METAR EGPU 081150Z 23021KT 9999 SCT020 16/12 Q1010=
####018000206####
SAEW36 LEMM 081200
METAR GCHI 081200Z 36017KT 9999 FEW015 BKN021 22/17 Q1018=
METAR GCLA 081200Z 02011KT 340V050 9999 SCT020 25/17 Q1019=
METAR GEML 081200Z 07008KT 020V120 9999 FEW010 27/21 Q1017=
####018000082####
SALC31 TLPL 081200
METAR TLPC 081200Z 07011KT 9999 FEW023 SCT270 30/24 Q1014=
####018000353####
SAEW34 LEMM 081200
METAR LEBA 081200Z 27006KT 230V300 9999 BKN050 33/14 Q1015=
METAR LEDA 081200Z 17005KT 080V240 CAVOK 35/15 Q1019=
METAR LEJR 081200Z 22004KT 160V310 CAVOK 31/15 Q1016=
METAR LELL 081200Z 13009KT 070V170 CAVOK 31/15 Q1019=
METAR LEPP 081200Z 17004KT CAVOK 35/15 Q1018=
METAR LEXJ 081200Z 28012KT 9999 SCT018 25/19 Q1017=
####018000088####
SAPK31 OPKC 081200 RRB
METAR OPNH 081200Z 36005KT 6000M SCT035 SCT100 37/25 Q.1001=
####018000102####
SPAU32 YBBN 081203
SPECI YPPD 081203Z AUTO 36007KT 4200NDV // SCT008 BKN019 OVC027 21/21
Q1010=
####018000365####
SAIE31 EIDB 081200
METAR EIDW 081200Z 24015KT 9999 FEW026 BKN050 BKN100 17/10 Q1015
     NOSIG=
METAR EINN 081200Z 17008KT 8000 -RADZ FEW015 BKN020 BKN050 15/12
     Q1015 NOSIG=
METAR EICK 081200Z 20008KT 9999 -RA SCT008 BKN014 BKN030 14/13 Q1016
     NOSIG=
METAR EIKN 081200Z 21014KT 170V240 9999 FEW018CB SCT042 BKN100 15/09
     Q1013 NOSIG=
####018000093####
SPUS73 KWBC 081204
SPECI
KDEN 081201Z 01005KT 1/4SM R35L/P6000FT BR VV006 13/12 A3032=
####018000084####
SPUS73 KWBC 081204
SPECI
KGCK 081201Z 02009KT 10SM SCT007 OVC015 18/16 A3024=
####018001783####
SAEU KAWN 081200 RRK
METAR EGDX 081150Z 25005KT 9999 FEW020 20/11 Q1018 BLU=
METAR EGOM 081150Z 24016KT 9999 SCT028 SCT050 15/08 Q1014 BLU=
METAR EGOS 081150Z 25008KT 9999 SCT036 BKN250 20/08 Q1017 BLU NOSIG=
METAR EGUB 081150Z 19009KT 9999 SCT030 BKN220 22/18 Q1018 BLU NOSIG=
METAR EGVO 081150Z 24008KT 9999 SCT015 SCT030 22/16 Q1019 WHT BECMG
      SCT025 BLU=
METAR EGWC 081150Z 22008KT 9999 BKN028 20/10 Q1018 BLU=
METAR EKOD 081150Z 19009KT 160V220 CAVOK 26/12 Q1019=
METAR EKVG 081202Z 20012KT 9999 SCT005 BKN008 BKN018 11/10 Q0994 RMK/RWY
      13/31 CLOSED DUE WIP/ SEE NOTAM E0050/10 WIND 850FT VRB12G33KT=
METAR EPGD 081200Z 29005KT CAVOK 25/08 Q1021=
METAR EPKK 081200Z 24006KT 210V320 9999 FEW053 24/09 Q1022=
METAR EPKT 081200Z 33006KT CAVOK 22/07 Q1023=
METAR EPPO 081200Z 24006KT 170V310 CAVOK 24/09 Q1022=
METAR EPRZ 081200Z 32008KT 280V360 9999 FEW046 22/11 Q1021=
METAR EPWA 081200Z 32009KT 280V020 CAVOK 23/12 Q1020 NOSIG=
METAR EPWR 081200Z VRB02KT CAVOK 25/09 Q1023=
METAR LATI 081200Z 02012G22KT 350V080 9999 FEW050 27/13 Q1016 NOSIG=
METAR LHBP 081200Z 26006KT 200V330 CAVOK 24/10 Q1021 NOSIG=
METAR LIYW 081155Z AUTO 21009KT 9999 CLR 26/16 A3019 RMK AO2 SLP220
      T02600156 10261 20221 58007=
METAR LKCV 081200Z VRB02KT CAVOK 24/08 Q1023 NOSIG RMK BLU+ BLU+=
METAR LKKV 081200Z VRB03KT CAVOK 24/10 Q1023=
METAR LKMT 081200Z 05003KT 330V140 CAVOK 22/11 Q1023 NOSIG=
METAR LKNA 081200Z 05003KT CAVOK 22/06 Q1023 NOSIG RMK BLU+ BLU+=
METAR LKPD 081200Z VRB04KT CAVOK 24/07 Q1023 NOSIG RMK BLU+ BLU+=
METAR COR LKPO 081200Z 31004KT 270V340 CAVOK 23/13 Q1022 NOSIG RMK
      BLU+ BLU+=
METAR LKPR 081200Z 34005KT 280V050 CAVOK 24/08 Q1023 NOSIG=
METAR LKTB 081200Z VRB03KT CAVOK 24/08 Q1022 NOSIG=
####018000091####
SPUS73 KWBC 081204
SPECI
KUIN 081201Z AUTO 32004KT 6SM BR BKN001 OVC007 23/22 A3005=
####018000095####
SPUS81 KWBC 081204
SPECI
KDRT 081201Z AUTO 00000KT 8SM SCT019 BKN023 BKN050 24/22 A2996=
####018000464####
SAMS32 WMKK 081200
METAR 081200Z
METAR WBGG 081200Z 28006KT 9999 -TSRA FEW015CB SCT020 BKN150 24/23 
Q1011
     NOSIG=
METAR WBKK 081200Z 12006KT 9999 FEW014 SCT140 BKN270 25/23 Q1010 
NOSIG=
METAR WMKJ 081200Z 20004KT 9999 FEW022 BKN300 27/25 Q1009=
METAR WMKK 081200Z 16002KT 9999 FEW030 BKN280 28/25 Q1009 NOSIG=
METAR WMKP 081200Z 24002KT 9999 FEW020 BKN280 29/25 Q1009 NOSIG=
METAR WMSA 081200Z 27002KT 9000 FEW017CB BKN280 30/25 Q1009=
####018001672####
SAUK KAWN 081200 RRB
METAR EGBJ 081150Z 25003KT 9999 FEW035 22/08 Q1018=
METAR EGDX 081150Z 25005KT 9999 FEW020 20/11 Q1018 BLU=
METAR EGEC 081150Z 21014KT 9999 FEW020 SCT030 16/09 Q1013=
METAR EGJA 081150Z 26005KT 9999 FEW006 19/16 Q1020=
METAR EGNC 081150Z 24014KT 210V290 9999 FEW020 BKN025 17/09 Q1015=
METAR EGNH 081150Z 24011KT 9999 FEW024 19/11 Q1017=
METAR EGNJ 081150Z 22013KT 9999 SCT033 21/10 Q1017=
METAR EGOM 081150Z 24016KT 9999 SCT028 SCT050 15/08 Q1014 BLU=
METAR EGOP 081150Z 21008KT 9999 FEW020 18/14 Q1018 BLU=
METAR EGOS 081150Z 25008KT 9999 SCT036 BKN250 20/08 Q1017 BLU NOSIG=
METAR EGPA 081150Z 21014KT 9999 VCSH FEW020TCU SCT048 15/12 Q1007=
METAR EGPC 081150Z 20015G25KT 9999 FEW020 15/11 Q1008=
METAR EGPE 081150Z 22021KT 9999 -SHRA FEW012 SCT036 16/10 Q1010=
METAR EGPL 081150Z 21022KT 9999 VCSH FEW018 16/12 Q1008=
METAR COR EGPM 081150Z 21024KT 9999 SCT028 17/10 Q1006 NOSIG=
METAR EGPN 081150Z 24017KT 9999 FEW032 SCT045 17/12 Q1012=
METAR EGPO 081150Z 23025KT 9999 FEW020CB SCT030 18/11 Q1006=
METAR EGSC 081150Z 24008KT 190V270 9999 SCT028 22/13 Q1018=
METAR COR EGSH 081150Z 25009KT 220V280 9999 SCT018 SCT030 22/15 Q1018
      NOSIG=
METAR EGUB 081150Z 19009KT 9999 SCT030 BKN220 22/18 Q1018 BLU NOSIG=
METAR EGVO 081150Z 24008KT 9999 SCT015 SCT030 22/16 Q1019 WHT BECMG
      SCT025 BLU=
METAR EGWC 081150Z 22008KT 9999 BKN028 20/10 Q1018 BLU=
METAR EGXJ 081150Z 23011KT 9999 FEW030 BKN250 21/07 Q1017 BLU=
METAR EGXX 081150Z AUTO 22011KT 9999NDV // NCD ///// Q////=
METAR EGYH 081150Z 22010KT 9999 FEW040 21/// Q1018 BLU=
METAR EGYM 081150Z 24010KT CAVOK 22/11 Q1018 BLU NOSIG=
####018001038####
SPZZ40 KAWN 081204
SPECI CYGV 081159Z AUTO 13003KT 8SM OVC001 14/12 A3003=
SPECI CYUA 081159Z AUTO 23006KT 5SM OVC016 05/ A3008=
SPECI CYZE 081159Z AUTO 19007KT 4SM BR BKN004 BKN110 BKN130 20/20 A2997
      RMK SLP148 DENSITY ALT 1300FT=
SPECI CYZH 081159Z AUTO 32010G16KT 280V350 9SM -RA FEW080 SCT097 17/13
      A3007=
SPECI EETU 081158Z 32005KT 290V350 9999 VCTSSH FEW029CB SCT033 27/19
      Q1013=
SPECI KIAB 081200Z AUTO 36010KT 10SM FEW006 22/21 A3009 RMK AO2 SLP178=
SPECI KSKF 081157Z 03005KT 10SM FEW011 SCT020 SCT028 25/ A2993 RMK
      AO2A RAE1157 FEW V SCT SLP126 $=
SPECI KSLI 081159Z AUTO 21005KT 10SM OVC014 17/14 A2990 RMK AO2 SLP126=
SPECI KWRI 081159Z AUTO 16006KT 4SM BR BKN006 25/25 A3003 RMK AO2 SLP169
      $=
SPECI UMII 081200Z 21005MPS 4800 -SHRA BKN015CB 20/18 Q1014 R23/D TEMPO
      2000 TS BKN005=
SPECI YPPD 081200Z AUTO 01007KT 5000NDV // SCT008 BKN021 OVC027 21/21
      Q1010=
SPECI YPPD 081203Z AUTO 36007KT 4200NDV // SCT008 BKN019 OVC027 21/21
      Q1010=
####018000389####
SARS18 KAWN 081200 RRB
METAR BIKF 081200Z 04019KT 9999 FEW018 SCT035 BKN110 11/05 Q0995=
METAR LUKK 081200Z 33008KT 9999 SCT032 25/15 Q1015 26CLRD65 NOSIG=
METAR UBBB 081200Z 35018KT CAVOK 32/25 Q1010 NOSIG RMK R88CLRD70=
METAR UHHH 081200Z METAR 04003MPS 9999 SCT033CB OVC100 17/15 Q1011
      NOSIG=
METAR UTTT 081200Z 11002MPS 050V160 CAVOK 39/05 Q1009 R08R/CLRD70 NOSIG=
####018001325####
SAXX70 KAWN 081200 RRG
METAR KQEJ 081150Z AUTO 00000KT 6SM -SHRA OVC050 23/20 A2994 RMK A02=
METAR KQAJ 081155Z 29009KT 9999 CLR 43/05 A2968 RMK SLP038 WND DATA
      ESTMD ALSTG/SLP ESTMD 58014=
METAR KQHA 081155Z 08002KT 9999 CLR 26/22 A2997 RMK AO2A SLP148 70024
      53009=
METAR KQIR 081155Z VRB04KT 8000 HZ CLR 42/21 A2949 RMK AO2A SLP984
      T04210208 10421 20377 56013=
METAR KQLT 081155Z AUTO 27007G14KT 8000 37/02 A2985 RMK AO2 SLP982
      T03730022 10352 20231 57020 $=
METAR KQQS 081155Z AUTO 01011G18KT 9000 CLR 29/04 A3010 RMK AO2 SLP064
      T02920044 10310 20232 57018 $=
METAR KQQY 081155Z AUTO 32001KT 9999 BKN130 BKN160 23/20 A2999 RMK
      AO2 SLP141 T02330203 10228 20220 52011 $=
METAR KQRY 081155Z AUTO 03007KT 9999 CLR 31/03 A3009 RMK AO2 SLP053
      70002 T03060032 10328 20231 58015 PWINO $=
METAR KQTO 081155Z 30013G25KT 9999 CLR 45/04 A2959 RMK SLP018 58007=
METAR KQW3 081156Z AUTO VRB03KT 9999 CLR 36/14 A2976 RMK AO2 SLP983=
METAR KQXF 081156Z AUTO 32011KT 9999 CLR 45/M02 A2960 RMK AO2 SLP012
      T04531021 57007 $=
METAR KQEL 081200Z AUTO 00003KT 3SM -SHRA SCT024 BKN042 22/20 A2974
      RMK A02=
METAR KQEQ 081200Z AUTO 31002KT 7SM -SHRA BKN095 23/20 A2983 RMK A02=
METAR KQEW 081200Z AUTO 29002KT 6SM BR SCT100 25/21 A2983 RMK A02=
####018000291####
SPNA14 KAWN 081204
SPECI KSKF 081157Z 03005KT 10SM FEW011 SCT020 SCT028 25/ A2993 RMK
      AO2A RAE1157 FEW V SCT SLP126 $=
SPECI KSLI 081159Z AUTO 21005KT 10SM OVC014 17/14 A2990 RMK AO2 SLP126=
SPECI KWRI 081159Z AUTO 16006KT 4SM BR BKN006 25/25 A3003 RMK AO2 SLP169
      $=
####018000192####
SPNA35 KAWN 081204
SPECI KPHL 081201Z 16005KT 2 1/2SM BR BKN006 BKN150 25/23 A3003 RMK
      AO2 $=
SPECI KWRI 081159Z AUTO 16006KT 4SM BR BKN006 25/25 A3003 RMK AO2 SLP169
      $=
####018001518####
SAUS17 KAWN 081200 RRD
METAR KDMA 081155Z AUTO 05011KT 10SM CLR 29/11 A2989 RMK AO2 SLP044
      T02900110 10325 20289 51009 $=
METAR KEND 081155Z 36006KT 10SM FEW040 SCT090 BKN180 BKN220 22/22 A3007
      RMK AO2A SLP170 T02180216 10231 20216 53002=
METAR KFFO 081158Z 00000KT 3SM HZ CLR 23/21 A3009 RMK AO2A SLP183 10236
      20208 52006=
METAR KHIF 081155Z 07010G19KT 10SM FEW140 16/07 A3013 RMK AO2A SLP105
      MIDFLD WND 080/18G21KT T01590068 10208 20159 53006 $=
METAR KHLR 081156Z AUTO 07004KT 10SM OVC011 25/ A3000 RMK AO2 SLP150
      60000 T0250 10261 20250 53004 $=
METAR KHST 081155Z COR 35004KT 10SM CLR 27/25 A2994 RMK AO2 DZB1118E1127
      SLP141 P0000 60007 70007 T02710252 10274 20249 52006 $=
METAR KNBC 081156Z 27005KT 7SM CLR 26/19 A2999 RMK AO2 SLP155 T02560194
      10256 20228 53006=
METAR KNCA 081156Z 03005KT 4SM HZ BKN180 26/23 A2994 RMK AO2 SLP140
      T02610228 10267 20233 53010=
METAR KNJK 081156Z AUTO 20004KT 10SM CLR 23/16 A2970 RMK AO2 SLP072
      T02280161 10300 20217 52007 TSNO=
METAR KNJM 081157Z AUTO 02004KT 4SM HZ CLR 27/24 A2994 RMK AO2 SLP141
      T02720239 10272 20256 51011 $=
METAR KNRS 081156Z AUTO 30006KT 10SM OVC016 17/14 A2990 RMK AO2 SLP124
      T01720139 10172 20161 55001 TSNO $=
METAR KNUQ 081156Z AUTO 02003KT 10SM OVC011 15/12 A2992 RMK AO2 SLP134
      T01500117 10161 20150 56003 TSNO=
METAR PPIZ 081156Z AUTO 20010KT 10SM CLR 06/02 A3008 RMK AO2 TSNO 58006
      T00610022 10066 20061 SLP190 $=
####018000576####
SAMS34 WMKK 081200
METAR 081200Z
METAR WBGB 081200Z 13004KT 9999 -RA FEW015CB SCT016 OVC140 25/24 Q1010=
METAR WBGR 081200Z 14004KT 9999 -RA SCT014 FEW015CB OVC140 25/24 Q1010=
METAR WBGS 081200Z 14002KT 9999 SCT018 BKN150 25/24 Q1011=
METAR WBGY 081200Z 27001KT 9999 FEW022 BKN150 26/24 Q1010=
METAR WBKL 081200Z 18005KT 9999 -RA SCT010 SCT040 BKN140 26/25 Q1009 RETSRA=
METAR WBKS 081200Z 14002KT 9999 FEW016 BKN300 27/25 Q1009=
METAR WBKT 081200Z 00000KT 9999 FEW006 SCT034 BKN270 24/24 Q1009=
METAR WBKW 081200Z 33003KT 9999 FEW017 BKN300 27/25 Q1009=
####018000140####
SAUS46 KPDT 081204
MTRHMS
METAR KHMS 081150Z 31010KT 15SM SKC 20/06 A2996 RMK SLP142 T01960063
     10231 20194 52002 RSNK 19/36014
####018000430####
SAIR31 OIII 081200
METAR OIAW 081200Z 21006KT CAVOK 48/06 Q0997 A2945=
METAR OIFM 081200Z 21006KT CAVOK 39/06 Q1015 A3000=
METAR OIII 081200Z NIL=
METAR OIKB 081200Z 17012KT 4000 HZ NSC 36/27 Q0999 A2951=
METAR OIKK 081200Z 06004KT CAVOK 36/M01 Q1015 A3000=
METAR OIMM 081200Z 04010KT CAVOK 38/00 Q1013 A2994=
METAR OISS 081200Z NIL=
METAR OITT 081200Z 08012KT CAVOK 38/05 Q1013 A2993=
METAR OIZH 081200Z NIL=
####018001759####
SANA14 KAWN 081200 RRC
METAR KNGP 081156Z 07003KT 10SM -RA BKN039 BKN050 28/26 A2982 RMK AO2
      SLP098 TCU N TCU DSNT NE AND W WR// P0002 60012 70015
      T02790263 10289 20278 53006 $=
METAR KNGU 081159Z 08007KT 10SM FEW008 SCT070 BKN100 26/23 A3000 RMK
      AO2 SLP159 T02610228 10267 20250 52013=
METAR KNID 081156Z AUTO 00000KT FEW090 18/02 A2986 RMK AO2 SLP092 T01780022
      10289 20178 53010 TSNO $=
METAR KNSE 081156Z 00000KT 4SM BR FEW001 SCT250 24/23 A3003 RMK AO2
      SLP154 VIS NE-E 2 70020 T02440228 10244 20222 51004 $=
METAR KNSE 081156Z 00000KT 4SM BR FEW001 SCT250 24/23 A3003 RMK AO2
      SLP154 VIS NE-E 2 70020 T02440228 10244 20222 51004 $=
METAR KNTD 081156Z AUTO 28006KT 9SM OVC011 14/13 A2990 RMK AO2 SLP125
      6//// 7//// T01440128 10156 20144 55001 TSNO PNO VISNO N $=
METAR KNTU 081156Z 08006KT 10SM CLR 26/23 A2998 RMK AO2 SLP153 60000
      T02560233 10261 20250 53010 CHINO RWY 05R $=
METAR KNUW 081156Z 00000KT 10SM CLR 14/11 A2997 RMK AO2 SLP152 T01390106
      10211 20133 53002 $=
METAR KNXP 081156Z AUTO 31005KT CLR 24/01 A2992 RMK AO2 SLP093 T02390011
      10294 20233 53006 $=
METAR KNXX 081156Z 00000KT 4SM HZ CLR 26/21 A3005 RMK AO2 PK WND 33030/1106
      SLP180 T02610211 10261 20228 53008 $=
METAR KOSC 081154Z AUTO 22004KT 5SM -RA SCT013 SCT017 SCT110 22/21
      A3000 RMK AO2=
METAR KRCA 081155Z 00000KT 9SM CLR 11/09 A3025 RMK AO2A SLP236 T01140086
      10128 20109 53004 $=
METAR KRND 081155Z 04008KT 9SM -DZ BKN007 OVC012 25/24 A2994 RMK AO2A
      DZB1118E1134B1155 SLP129 P0000 60000 T02470237 10255 20246
      53002=
METAR SKRG 081200Z 00000KT 3500 BR BKN005 SCT080 14/14 A3028=
METAR SKSP 081200Z 09005KT 9999 FEW015 28/25 A2984=
####018001641####
SASA KAWN 081200 RRC
METAR SAEZ 081200Z 32004KT CAVOK 05/M01 Q1019=
METAR SASA 081200Z 20004KT CAVOK 08/06 Q1021=
METAR SBFN 081200Z 15004KT 9999 FEW017 28/23 Q1015=
METAR SBPB 081200Z 06009KT 9999 FEW020 SCT100 31/23 Q1014=
METAR SBRJ 081200Z 03003KT CAVOK 23/16 Q1018=
METAR SBSV 081200Z 24007KT 5000 -RA BR SCT007 SCT017 BKN070 24/21 Q1019=
METAR SBTE 081200Z 24004KT 9999 SCT020 BKN100 27/24 Q1015=
METAR SBUG 081200Z 12008KT CAVOK 08/06 Q1021=
METAR SKCL 081200Z 08003KT 9999 SCT017 BKN090 20/19 A3002=
METAR SKSP 081200Z 09005KT 9999 FEW015 28/25 A2984=
METAR SPHI 081200Z 17007KT 9999 SCT010 BKN100 15/13 Q1014 RMK BIRD
      HAZARD RWY 19/01 PP000=
METAR SPQT 081200Z ///// 8000 2000SW BCFG SKC 24/23 Q1011 TEMPO 0800
      RMK BIRD HAZARD RWY 06/24 PP000=
METAR SPQU 081200Z VRB02KT CAVOK 07/M12 Q1024 NOSIG RMK PP000=
METAR SPRU 081200Z 00000KT 7000 OVC015 16/13 Q1013 RMK BIRD HAZARD
      RWY20 PP000=
METAR SPSO 081200Z 12005KT 7000 FEW010 12/10 Q1014 RMK PP000=
METAR SPTN 081200Z VRB02KT 8000 OVC012 11/09 Q1013 RMK PP000=
METAR SPZO 081200Z 00000KT 9999 FEW033 SCT046 04/01 Q1033 NOSIG RMK
      PP000=
METAR SUCA 081200Z 33010KT CAVOK 08/02 Q1018=
METAR SUDU 081200Z 00000KT CAVOK 06/04 Q1019=
METAR SUMU 081200Z 32004KT CAVOK 07/06 Q1018 NOSIG=
METAR SVBC 081200Z 00000KT 9999 FEW010 27/23 Q1013=
METAR SVBM 081200Z 00000KT 9999 BKN013 23/22 Q////=
METAR SVJC 081200Z 11004KT 9999 FEW030 25/24 Q1012=
METAR SVLF 081200Z 00000KT 9999 BKN040 XX/XX Q1014=
METAR SVSA 081200Z 00000KT 9999 BKN020 23/19 Q1016=
METAR SVVL 081200Z 00000KT 8000 +HZ SCT060 22/21 Q1022=
####018001845####
SAZZ40 KAWN 081200 RRM
METAR BIAR 081200Z 35020KT 9999 -RA BKN023 09/07 Q0995=
METAR BIEG 081200Z 36016KT 9999 VV004 08/08 Q0991 RESHRA=
METAR BIKF 081200Z 04019KT 9999 FEW018 SCT035 BKN110 11/05 Q0995=
METAR BIRK 081200Z 36016KT 160V100 9999 -SHRA FEW020 SCT050 11/07 Q0993=
METAR K79J 081156Z AUTO 00000KT 10SM CLR 24/22 A3003 RMK AO2 SLP165
      T02440217 10256 20233 53005 TSNO $=
METAR KNSE 081156Z 00000KT 4SM BR FEW001 SCT250 24/23 A3003 RMK AO2
      SLP154 VIS NE-E 2 70020 T02440228 10244 20222 51004 $=
METAR LKKV 081200Z VRB03KT CAVOK 24/10 Q1023=
METAR MHLC 081200Z 20003KT 9999 SCT010 BKN200 25/24 Q1010 A2984 NOSIG=
METAR MHLM 081200Z 21005KT 9999 FEW025CB BKN080 26/25 Q1010 A2983 NOSIG=
METAR MHRO 081200Z 08012KT 9999 SCT016CB BKN200 29/23 Q1010 A2982 NOSIG=
METAR MHTG 081200Z 00000KT 5000 BR FEW005 BKN022 BKN080 19/19 Q1017
      A3003 NOSIG=
METAR OLBA 081200Z 24008KT CAVOK 29/18 Q1011 NOSIG=
METAR PABA 081201Z AUTO 15005KT 10SM SCT043 OVC060 07/07 A3001 RMK
      AO2 SLP163 60000 70003 T00720067 10072 20022 58008=
METAR RJAW 081200Z 13008KT 9999 SCT250 27/25 Q1016 RMK A3002=
METAR RJSM 081200Z VRB01KT 8000 FEW003 SCT/// 19/17 Q1010 RMK 1ST003
      A2984 WIND BY EQPT/10 VIS NW-N 5KM FCST 1218 TEMPO 1215 3000
      BR SCT001ST BKN003ST BECMG 1516 3000 BR SCT001ST BKN003ST
      TEMPO 1617 0600 FG VV000=
METAR SVJC 081200Z 11004KT 9999 FEW030 25/24 Q1012=
METAR TKPK 081200Z 08012KT 9999 FEW016 29/25 Q1015=
METAR TLPC 081200Z 07011KT 9999 FEW023 SCT270 30/24 Q1014=
METAR TLPL 081200Z 09019KT 9999 SCT026 BKN300 30/25 Q1014=
METAR TTCP 081200Z 06010KT 9999 TS FEW010CB BKN036 24/23 Q1013 NOSIG=
METAR TTPP 081200Z 00000KT 2000 -SHRA VCSH FEW006 FEW010CB BKN036 25/24
      Q1013 TEMPO SHRA=
METAR WSAP 081200Z 18004KT 9999 FEW018 BKN180 30/25 Q1009=
####018001817####
SAEU KAWN 081200 RRL
METAR EGAE 081150Z 25012KT 9999 FEW020 SCT040 18/11 Q1012=
METAR EKVJ 081150Z 20008KT 5000 -SHRA SCT006 BKN010 BKN020 20/17 Q1018=
METAR LEAL 081200Z 07011KT CAVOK 30/16 Q1019 NOSIG=
METAR LEAS 081200Z 07003KT 020V120 9999 FEW015 23/19 Q1017 TEMPO TSRA
      SCT025CB=
METAR LEBB 081200Z 29010KT 260V330 8000 NSC 26/21 Q1016 NOSIG=
METAR LEBL 081200Z 20015KT CAVOK 27/21 Q1019 NOSIG=
METAR LEGE 081200Z 16007KT 110V230 CAVOK 33/17 Q1019=
METAR LEGR 081200Z 16021G32KT 120V190 9999 FEW060 37/05 Q1017=
METAR LEIB 081200Z 07005KT 350V140 CAVOK 29/20 Q1020 NOSIG=
METAR LELC 081200Z 06010KT 030V100 CAVOK 28/19 Q1019 NOSIG=
METAR LEMD 081200Z 10009KT 070V140 9999 FEW070TCU 31/12 Q1018 NOSIG=
METAR LEMG 081200Z 12008KT 080V170 9999 FEW040 30/13 Q1016 NOSIG=
METAR LEMH 081200Z 10005KT 020V170 CAVOK 30/19 Q1020=
METAR LERS 081200Z 21008KT 160V260 CAVOK 29/17 Q1019=
METAR LESO 081200Z 04006KT 020V080 CAVOK 27/21 Q1015=
METAR LEVC 081200Z 09008KT 060V120 CAVOK 32/20 Q1019 NOSIG=
METAR LEVX 081200Z 27010KT 8000 FEW030 25/19 Q1015=
METAR LEZG 081200Z 09010KT 070V140 9999 FEW040 36/13 Q1017=
METAR LEZL 081200Z 24005KT 180V340 9999 SCT025 32/16 Q1015 NOSIG=
METAR LHDC 081145Z 35009KT 9999 FEW043 23/11 Q1021 NOSIG=
METAR LHKE 081145Z 24001MPS CAVOK 25/11 Q1021 NOSIG RMK BLU=
METAR LHPA 081145Z 34004MPS CAVOK 24/09 Q1023 NOSIG RMK BLU=
METAR LHPP 081145Z 33007KT CAVOK 24/11 Q1023 NOSIG=
METAR LHSN 081145Z 35001MPS CAVOK 24/12 Q1021 NOSIG RMK BLU=
METAR LHUD 081145Z 35004KT 9999 SCT040 25/15 Q1022=
METAR LYBE 081200Z 34012KT CAVOK 23/13 Q1021 NOSIG=
METAR LYNI 081200Z 31013KT 9999 SCT020 BKN026 18/13 Q1021 NOSIG=
METAR LYPG 081200Z 02016KT 9999 FEW040 27/08 Q1018 NOSIG=
METAR LYTV 081200Z 36004KT 9999 FEW053 30/10 Q1017 NOSIG=
####018000075####
SAAT31 TAPA 081203
METAR TAPA 081200Z 07013KT 9999  SCT020 29/24 Q1015=

####018000120####
SAAK41 KNKA 081204
SPECI PAIL 081202Z AUTO 00000KT 1 3/4SM BR FEW001 BKN070 OVC090 
    08/08 A2993 RMK AO2 TSNO=
####018000090####
SAUS20 KNKA 081204
METAR KXSA 081200Z AUTO 08004KT 5SM CLR 27/25 A3000 RMK AO2 PWINO=
####018002936####
SAUS20 KNKA 081204
METAR KUXL 081200Z AUTO 07007KT 10SM OVC009 26/25 A3000 RMK AO2 
     LTG DSNT SW=
SPECI KCXO 081203Z VRB04KT 7SM SCT006 BKN019 BKN090 24/23 A2997 RMK 
    AO2=
METAR KEDE 081157Z AUTO 08004KT 5SM BR SCT015 SCT095 26/24 A2998 
     RMK AO2=
METAR KFYJ 081203Z AUTO 00000KT 4SM SCT075 SCT095 27/25 A3001 RMK 
     AO1=
METAR KGAO 081200Z AUTO 05004KT 10SM CLR 27/25 A3001 RMK AO2=
METAR KGWW 081200Z AUTO 04007KT 5SM HZ CLR 26/22 A2997 RMK AO2 
     T02580215 10258 20234=
METAR KHBI 081202Z AUTO 00000KT 10SM CLR 24/18 A3004 RMK AO2=
METAR KHNZ 081200Z AUTO 36003KT 4SM HZ CLR 25/20 A3001 RMK AO2 
     T02480200 10248 20225=
METAR KHTO 081155Z 00000KT 10SM FEW007 SCT010 25/22 A3009=
METAR KIER 081200Z AUTO 00000KT 7SM BKN100 23/23 A3004 RMK AO2 
     PWINO=
METAR KIXA 081200Z AUTO 05004KT 5SM HZ CLR 25/21 A2998 RMK AO2 
     T02510210 10251 20210=
METAR KJFZ 081200Z AUTO 00000KT 6SM CLR 23/21 A3017 RMK=
METAR KLDJ 081200Z AUTO 11005KT 4SM BR OVC004 25/23 A3005 RMK AO2 
     T02470230 10248 20243=
METAR KLHZ 081200Z AUTO 01004KT 7SM BKN120 27/20 A3000 RMK AO2 
     T02700201=
METAR KMDQ 081200Z AUTO 00000KT 7SM CLR 24/22 A3009 RMK AO2 
     T02370220=
METAR KMKJ 081200Z AUTO 00000KT 4SM SCT085 21/09 A3023 RMK AO1=
METAR KMTV 081200Z AUTO 00000KT 5SM HZ CLR 26/22 A3007 RMK AO2=
SPECI KMWT 081200Z AUTO 00000KT 10SM FEW014 SCT024 BKN036 24/23
     A3006 RMK AO2 TSNO=
METAR KOCW 081201Z AUTO 06009KT 5SM HZ CLR 27/22 A2996 RMK AO2=
METAR KOKV 081200Z AUTO 00000KT 7SM CLR 28/19 A3005 RMK AO2 
     T02780192=
METAR KOMH 081200Z AUTO 33004KT 7SM CLR 28/21 A3003 RMK AO2 
     T02790208=
METAR KOPN 081200Z AUTO 00000KT 10SM CLR 26/23 A3006 RMK AO1=
METAR KPCM 081200Z AUTO 04003KT 10SM CLR 24/23 A3002 RMK AO2=
METAR KPTB 081203Z AUTO 00000KT 5SM HZ SCT090 28/23 A2999 RMK AO2=
METAR KRCZ 081200Z AUTO 34003KT 10SM CLR 25/19 A2998 RMK AO2 
     T02510190 10267 20222=
METAR KRMN 081200Z AUTO 08004KT 4SM BR CLR 26/26 A3004 RMK AO2=
METAR KSFQ 081200Z AUTO 00000KT 7SM SCT100 26/24 A3000 RMK AO2=
SPECI KSGF 081203Z 00000KT 7SM BKN011 BKN020 BKN100 23/23 A3008 RMK 
    AO2=
SPECI KSGR 081202Z 09007KT 8SM FEW010 SCT025 BKN055 26/24 A2993
     RMK AO2=
METAR KSHD 081200Z AUTO 00000KT 4SM HZ CLR 24/19 A3009 RMK AO2=
SPECI KSLN 081203Z 36010KT 4SM BR BKN004 BKN016 21/19 A3013 RMK AO2 
    CIG 003V008=
METAR KTBR 081200Z AUTO 26004KT 10SM CLR 25/20 A3000 RMK AO2 
     T02510201 10251 20215=
SPECI KTTN 081203Z 00000KT 1 3/4SM HZ FEW009 26/23 A3004 RMK AO2=
METAR KVDF 081156Z AUTO 00000KT 10SM CLR 24/22 A3001 RMK AO2=
METAR KVVG 081155Z AUTO 00000KT 23/23 A3001 RMK AO2=
METAR KW22 081200Z AUTO 00000KT 4SM  BR CLR 21/21 A3014 RMK AO2=
METAR KW45 081200Z AUTO 00000KT 7SM CLR 25/20 A3006 RMK AO2 
     T02490195 10254 20213=
METAR KWDR 081200Z AUTO 00000KT 10SM CLR 25/21 A3008 RMK AO1=
####018000095####
SAUS44 KSHV 081204
MTRBKB
SPECI KBKB 081203Z AUTO 00000KT 9SM FEW004 24/23 A3001 RMK AO2
####018000453####
SAIR32 OIII 081200
METAR OIAA 081200Z 30014KT 5000 DU SKC 49/03 Q0997=
METAR OIBK 081200Z 17012KT 5000 HZ SKC 37/24 Q0999 A2951=
METAR OICC 081200Z 20012KT CAVOK 42/M05 Q1012 A2990
864.2=
METAR OIGG 081200Z 35006KT CAVOK 32/22 Q1010 A2984=
METAR OIIE 081200Z 11016KT CAVOK 41/M06 Q1009 A2982 
897.0 05:=
METAR OITR 081200Z NIL=
METAR OIYY 081200Z 36006KT CAVOK 42/M10 Q1012 A2991=
METAR OAKN 081200Z NIL=
METAR OAKB 081200Z NIL=
####018000067####
SAAG SAST 081200
METAR SAST 081200Z  00000KT CAVOK 13/10 Q1017=
####018000106####
SABH31 MZBZ 081200
METAR MZBZ 081200Z 16005KT 9999 FEW010 BKN028 BKN220 25/24 A2985
Q1010 RERA NOSIG=
####018000082####
SAVG31 TVSV 081200
METAR
TVSV 081200Z 11016KT 9999 BKN022 BKN280 29/24 Q1014=
####018000583####
SPUS99 KWBC 081205
SPECI
KCXO 081203Z VRB04KT 7SM SCT006 BKN019 BKN090 24/23 A2997 RMK
     AO2=
KMWT 081200Z AUTO 00000KT 10SM FEW014 SCT024 BKN036 24/23 A3006
     RMK AO2 TSNO=
KSGF 081203Z 00000KT 7SM BKN011 BKN020 BKN100 23/23 A3008 RMK
     AO2=
KSGR 081202Z 09007KT 8SM FEW010 SCT025 BKN055 26/24 A2993 RMK
     AO2=
KSLN 081203Z 36010KT 4SM BR BKN004 BKN016 21/19 A3013 RMK AO2 CIG
     003V008=
KTTN 081203Z 00000KT 1 3/4SM HZ FEW009 26/23 A3004 RMK AO2=
PAIL 081202Z AUTO 00000KT 1 3/4SM BR FEW001 BKN070 OVC090 08/08
     A2993 RMK AO2 TSNO=
####018002295####
SAUS99 KWBC 081205
METAR
KXSA 081200Z AUTO 08004KT 5SM CLR 27/25 A3000 RMK AO2 PWINO=
KUXL 081200Z AUTO 07007KT 10SM OVC009 26/25 A3000 RMK AO2 LTG DSNT
     SW=
KEDE 081157Z AUTO 08004KT 5SM BR SCT015 SCT095 26/24 A2998 RMK
     AO2=
KFYJ 081203Z AUTO 00000KT 4SM SCT075 SCT095 27/25 A3001 RMK
     AO1=
KGAO 081200Z AUTO 05004KT 10SM CLR 27/25 A3001 RMK AO2=
KGWW 081200Z AUTO 04007KT 5SM HZ CLR 26/22 A2997 RMK AO2 T02580215
     10258 20234=
KHBI 081202Z AUTO 00000KT 10SM CLR 24/18 A3004 RMK AO2=
KHNZ 081200Z AUTO 36003KT 4SM HZ CLR 25/20 A3001 RMK AO2 T02480200
     10248 20225=
KHTO 081155Z 00000KT 10SM FEW007 SCT010 25/22 A3009=
KIER 081200Z AUTO 00000KT 7SM BKN100 23/23 A3004 RMK AO2 PWINO=
KIXA 081200Z AUTO 05004KT 5SM HZ CLR 25/21 A2998 RMK AO2 T02510210
     10251 20210=
KJFZ 081200Z AUTO 00000KT 6SM CLR 23/21 A3017 RMK=
KLDJ 081200Z AUTO 11005KT 4SM BR OVC004 25/23 A3005 RMK AO2
     T02470230 10248 20243=
KLHZ 081200Z AUTO 01004KT 7SM BKN120 27/20 A3000 RMK AO2
     T02700201=
KMDQ 081200Z AUTO 00000KT 7SM CLR 24/22 A3009 RMK AO2
     T02370220=
KMKJ 081200Z AUTO 00000KT 4SM SCT085 21/09 A3023 RMK AO1=
KMTV 081200Z AUTO 00000KT 5SM HZ CLR 26/22 A3007 RMK AO2=
KOCW 081201Z AUTO 06009KT 5SM HZ CLR 27/22 A2996 RMK AO2=
KOKV 081200Z AUTO 00000KT 7SM CLR 28/19 A3005 RMK AO2
     T02780192=
KOMH 081200Z AUTO 33004KT 7SM CLR 28/21 A3003 RMK AO2
     T02790208=
KOPN 081200Z AUTO 00000KT 10SM CLR 26/23 A3006 RMK AO1=
KPCM 081200Z AUTO 04003KT 10SM CLR 24/23 A3002 RMK AO2=
KPTB 081203Z AUTO 00000KT 5SM HZ SCT090 28/23 A2999 RMK AO2=
KRCZ 081200Z AUTO 34003KT 10SM CLR 25/19 A2998 RMK AO2 T02510190
     10267 20222=
KRMN 081200Z AUTO 08004KT 4SM BR CLR 26/26 A3004 RMK AO2=
KSFQ 081200Z AUTO 00000KT 7SM SCT100 26/24 A3000 RMK AO2=
KSHD 081200Z AUTO 00000KT 4SM HZ CLR 24/19 A3009 RMK AO2=
KTBR 081200Z AUTO 26004KT 10SM CLR 25/20 A3000 RMK AO2 T02510201
     10251 20215=
KVDF 081156Z AUTO 00000KT 10SM CLR 24/22 A3001 RMK AO2=
KVVG 081155Z AUTO 00000KT 23/23 A3001 RMK AO2=
KW22 081200Z AUTO 00000KT 4SM BR CLR 21/21 A3014 RMK AO2=
KW45 081200Z AUTO 00000KT 7SM CLR 25/20 A3006 RMK AO2 T02490195
     10254 20213=
KWDR 081200Z AUTO 00000KT 10SM CLR 25/21 A3008 RMK AO1=
####018000607####
SAMC32 GMMC 081200
METAR GMFF 081200Z 26004KT 8000 FEW033 SCT100 31/19 Q1018 NOSIG=
METAR GMFK 081200Z 00000KT CAVOK 36/07 Q1024=
METAR GMFM 081200Z 32004KT 6000 SKC 30/19 Q1018=
METAR GMFO 081200Z 18011KT 140V200 CAVOK 43/10 Q1017 NOSIG=
METAR GMMC 081200Z 36003KT 5000 SCT016 BKN026 24/19 Q1013=
METAR GMMH 081200Z 02020KT 8000 SCT010 BKN080 22/17 Q1014=
METAR GMML 081200Z 04016KT 9999 SCT020 BKN200 27/17 Q1016=
METAR GMMW 081200Z 06015KT CAVOK 29/19 Q1016=
METAR GMMZ 081200Z 14009KT 9999 FEW040 FEW050TCU 38/01 Q1024=
METAR GMTA 081200Z 36010KT CAVOK 24/20 Q1016=
METAR GMTN 081200Z NIL=
####018000440####
SAMC31 GMMC 081200
METAR GMAD 081200Z 27010KT 220V300 8000 SCT020 28/18 Q1014=
METAR GMFF 081200Z 26004KT 8000 FEW033 SCT100 31/19 Q1018 NOSIG=
METAR GMME 081200Z 34007KT 300V020 6000 SCT010 BKN015 24/19 Q1017
NOSIG=
METAR GMMN 081200Z 01009KT 330V050 9999 SCT016 BKN023 26/19 Q1017
NOSIG=
METAR GMMX 081200Z 31004KT 240V050 8000 FEW026 34/17 Q1016 NOSIG=
METAR GMTT 081200Z 27007KT 240V310 8000 SCT016 BKN230 25/20 Q1016
NOSIG=
####018000208####
SAMX41 MMMX 081201
METAR MMCB 081154Z 00000KT 1/4SM FG  SCT004 BKN010 OVC100 18/17 A3000 
      RMK 63052 8/87/ RTS=
METAR MMQT 081145Z 05008KT 5SM BKN015 BKN120 OVC180 17/15 A3016
      RMK 8/532=
####018000080####
SASM20 SMJP 081200
METAR SMJP 081200Z 09003KT 9999 FEW015 27/24 Q1013 NOSIG=
####018000161####
SAFA31 EKCH 081150
METAR EKVG 081202Z 20012KT 9999 SCT005 BKN008 BKN018 11/10 Q0994
RMK/RWY 13/31 CLOSED DUE WIP. SEE NOTAM E0050/10 WIND 850FT
VRB12G33KT=
####018000164####
SAVN24 SVMG 081200

METAR SVMG 081200Z 09009KT 9999 SCT010 SCT080 28/28 Q1012 NOSIG=
METAR SVCU 081200Z NIL=
METAR SVCP 081200Z NIL=
METAR SVGI 081200Z NIL=
####018000472####
SAHU41 LHBM 081200
METAR LHDC 081145Z 35009KT 9999 FEW043 23/11 Q1021 NOSIG=
METAR LHKE 081145Z 24001MPS CAVOK 25/11 Q1021 NOSIG RMK BLU=
METAR LHPA 081145Z 34004MPS CAVOK 24/09 Q1023 NOSIG RMK BLU=
METAR LHPP 081145Z 33007KT CAVOK 24/11 Q1023 NOSIG=
METAR LHPR 081145Z 34009KT CAVOK 25/09 Q1022=
METAR LHSM 081145Z 33006KT CAVOK 24/08 Q1023 NOSIG=
METAR LHSN 081145Z 35001MPS CAVOK 24/12 Q1021 NOSIG RMK BLU=
METAR LHUD 081145Z 35004KT 9999 SCT040 25/15 Q1022=
####018000080####
SADN32 EKCH 081150 RRB
METAR EKOD 081150Z 19009KT 160V220 CAVOK 26/12 Q1019=
####018000074####
SABZ20 SBOI 081200
METAR SBOI 081200Z 30001KT 9999 SCT010 27/24 Q1014=
####018000115####
SPEE31 KWBC 081205
SPECI
UMII 081200Z 21005MPS 4800 -SHRA BKN015CB 20/18 Q1014 R23/D TEMPO
2000 TS BKN005=
####018000243####
SACZ31 LKPW 081200
METAR LKKV 081200Z VRB03KT CAVOK 24/10 Q1023=
METAR LKMT 081200Z 05003KT 330V140 CAVOK 22/11 Q1023 NOSIG=
METAR LKPR 081200Z 34005KT 280V050 CAVOK 24/08 Q1023 NOSIG=
METAR LKTB 081200Z VRB03KT CAVOK 24/08 Q1022 NOSIG=
####018000175####
SABC40 FBSK 081200
METAR FBFT 081200Z 11015KT 9999 BKN020 20/10 Q1029 =
METAR FBKE 081200Z 10013KT CAVOK 23/07 Q1026=
METAR FBMN 081200Z 07008KT CAVOK 25/04 Q1026=

####018000097####
SAAJ31 UBBB 081200
METAR UBBY 081200Z 15005KT 9999 NSC 33/15 Q1014 NOSIG
RMK R33/CLRD70 G/O=
####018000212####
SAUY SUMU 081200
METAR SUMU 081200Z 32004KT CAVOK 07/06 Q1018 NOSIG=
METAR SUDU 081200Z 00000KT CAVOK 06/04 Q1019=
METAR SUSO 081200 13006KT CAVOK 06/05 Q1020=
METAR SUCA 081200Z 33010KT CAVOK 08/02 Q1018=
####018000820####
SAUR31 UKMS 081200
METAR UKLR 081200Z 31005MPS 280V350 9999 SCT026
         BKN100  22/15 Q1018 30090070 NOSIG=
METAR UKLI 081200Z 32004MPS 260V360 9999 SCT021CB
         BKN026 18/15 Q1020 28290565 NOSIG=
METAR UKON 081200Z 31004MPS 270V360 9999 FEW033TCU
         OVC200 28/17 Q1013 05090075 NOSIG=
METAR UKCM 081200Z 14004MPS 070V190 CAVOK 29/14 Q1014
          20010065 NOSIG=
METAR UKCW 081200Z VRB02MPS 9999 BKN040 30/15 Q1014
         2709//70 NOSIG=
METAR UKLU 081200Z 33004MPS 9999 SCT040 23/10 Q1020
         10090070 NOSIG=
METAR UKKK 081200Z 29003MPS 9999 BKN032 26/18 Q1015
         26CLRD70  NOSIG=
METAR UKKM 081200Z 30003MPS 270V010 9999 BKN034 24/17
         Q1015  33CLRD70 NOSIG=
METAR UKLN 081200Z 30006MPS 240V330 9999 -SHRA BKN013
          BKN033CB 15/14 Q1020 3319//65 NOSIG=
####018000357####
SAIE31 EIDB 081200
METAR EIDW 081200Z 24015KT 9999 FEW026 BKN050 BKN100 17/10 Q1015
     NOSIG=
METAR EINN 081200Z 17008KT 8000 -RADZ FEW015 BKN020 BKN050 15/12
     Q1015 NOSIG=
METAR EICK 081200Z 20008KT 9999 -RA SCT008 BKN014 BKN030 14/13 Q1016
     NOSIG=
METAR EIKN 081200Z 21014KT 170V240 9999 FEW018CB SCT042 BKN100 15/09
     Q1013 NOSIG=
####018000091####
SAUK51 EGGY 081150 RRA
METAR EGUB 081150Z 19009KT 9999 SCT030 BKN220 22/18 Q1018 NOSIG=
####018000099####
SADN32 EKCH 081150 RRC
METAR EKVJ 081150Z 20008KT 5000 -SHRA SCT006 BKN010 BKN020 20/17
Q1018=
####018000078####
SAUK38 EGGY 081150 RRA
METAR EGPU 081150Z 23021KT 9999 SCT020 16/12 Q1010=
####018000098####
SAAJ31 UBBB 081200
METAR UBBG 081200Z 08014KT 9999 SCT083 36/16 Q1009 NOSIG RMK
R12L/CLRD70 =
####018000101####
SPAU32 YBBN 081203
SPECI YPPD 081203Z AUTO 36007KT 4200NDV // SCT008 BKN019 OVC027 21/21
Q1010=
####018000082####
SAAG SARP 081200
METAR SARP 081200Z  07006KT 8000  SCT005 OVC015
15/13 Q1018=
####018000738####
SAZA31 FAPR 081200
METAR FABL 081200Z 30006KT CAVOK 17/04 Q1031 NOSIG=
METAR FACT 081200Z VRB02KT CAVOK 22/02 Q1017 NOSIG=
METAR FAGG 081200Z 18003KT 130V210 CAVOK 19/05 Q1020=
METAR FAJS 081200Z 07007KT 050V130 9999 SCT045 15/03 Q1033 NOSIG=
METAR FAKN 081200Z 11003KT 9999 SCT025 FEW030TCU 18/10 Q1032 NOSIG=
METAR FALA 081200Z 02008KT 340V070 9999 SCT040 18/04 Q1032 NOSIG=
METAR FALE 081200Z 06015KT CAVOK 22/15 Q1027 NOSIG=
METAR FAMM 081200Z 03010KT 9999 FEW040 19/03 Q1029 NOSIG=
METAR FAPE 081200Z 04011KT CAVOK 18/11 Q1022 NOSIG=
METAR FAPN 081200Z AUTO 09004KT //// // ////// 20/06 Q1030=
METAR FAPP 081200Z 06009KT 9999 BKN040 17/07 Q1031 NOSIG=
METAR FAUP 081200Z 36018KT CAVOK 23/02 Q1025 NOSIG=

####018000088####
SAMF20 TFFR 081200
METAR TFFR 081200Z 09007KT 060V140 9999 FEW023 30/25 Q1015 NOSIG=
####018000085####
SAUK37 EGGY 081150 RRB
METAR EGAE 081150Z 25012KT 9999 FEW020 SCT040 18/11 Q1012=
####018000096####
SASR31 WSSS 081200
METAR WSSS 081200Z 22003KT 190V250 9999 FEW016 SCT190 28/24 Q1009
NOSIG=
####018000115####
SPRA31 KWBC 081205
SPECI
UMII 081200Z 21005MPS 4800 -SHRA BKN015CB 20/18 Q1014 R23/D TEMPO
2000 TS BKN005=
####018000104####
SPUS31 KWBC 081205
SPECI
KOKC 081155Z COR 01004KT 10SM SCT014 SCT025 BKN080 BKN200 23/22
A3007=
####018000088####
SACV20 GVBA 081200
METAR GVBA 081200Z 03008KT 9999 BKN015 BKN100 26/20 Q1014 NOSIG=
####018000882####
SAAG01 SABM 081200
METAR SAAR 081200Z  29003KT 9000  NSC  02/00 Q1019=
METAR SABE 081200Z NIL=
METAR SACO 081200Z  32004KT CAVOK 08/M06 Q1019=
METAR SADD 081200Z NIL=
METAR SADF 081200Z NIL=
METAR SAEZ 081200Z 32004KT CAVOK 05/M01 Q1019=
METAR SAME 081200Z NIL=
METAR SANT 081200Z  27004KT 7000  07/06 Q1018=
METAR SARE 081200Z NIL=
METAR SARF 081200Z NIL=
METAR SARI 081200Z  20007KT 3000 BR BKN003 BKN100
17/17 Q1019=
METAR SARP 081200Z  07006KT 8000  SCT005 OVC015
15/13 Q1018=
METAR SASA 081200Z 20004KT CAVOK 08/06 Q1021=
METAR SASJ 081200Z  00000KT CAVOK 10/08 Q1018=
METAR SAVC 081200Z NIL=
METAR SAWE 081200Z NIL=
METAR SAWG 081200Z NIL=
METAR SAWH 081200Z  00000KT 9999  FEW025  01/M01
Q0983=
METAR SAZM 081200Z  32010KT CAVOK 05/02 Q1014=
METAR SAZN 081200Z 27008KT 9999 SCT035 FEW060 09/02 Q1009=
METAR SAZS 081200Z NIL=
####018000084####
SPUS41 KWBC 081205
SPECI
KWRI 081159Z AUTO 16006KT 4SM BR BKN006 25/25 A3003=
####018000439####
SANM40 FYWW 081200
METAR FYAN 081200Z AUTO 03010G21KT //// // ////// 21/01 Q1026=
METAR FYKB 081200Z AUTO 02008G51KT //// // ////// 24/01 Q1023=
METAR FYKX 081200Z AUTO 12011KT //// // ////// ///// Q1023=
METAR FYML 081200Z AUTO 07009KT //// // ////// 19/M04 Q1026=
METAR FYRH 081200Z AUTO 30011KT //// // ////// ///// Q////=
METAR FYWH 081200Z 02009KT CAVOK 22/M00 Q1027=
METAR FYWW 081200Z 05008KT CAVOK 20/M00 Q1025=

####018000030####
SAZW40 FVHA 081200
NIL

####018000402####
SAIR33 OIII 081200
METAR OIBB 081200Z 26012KT CAVOK 35/30 Q0999 A2951=
METAR OIBL 081200Z NIL=
METAR OIBP 081200Z 18010KT 5000 HZ SKC 40/22 Q0998 A2949=
METAR OICK 081200Z NIL=
METAR OICS 081200Z 18016KT CAVOK 41/M05 Q1011 A2986=
METAR OIHH 081200Z NIL=
METAR OINZ 081200Z 28010KT CAVOK 34/21 Q1010 A2984=
METAR OITL 081200Z 07022KT CAVOK 25/11 Q1017 A3004=
METAR OIZC 081200Z NIL=
####018001458####
SAJP51 RJTD 081200
METAR RJAA 081200Z 13004KT 9999 FEW020 BKN/// 22/21 Q1011 NOSIG=
METAR RJBB 081200Z 24008KT 9999 FEW045 SCT060 BKN/// 26/23 Q1009
           NOSIG=
METAR RJBE 081200Z 22017KT 9999 FEW015 SCT060 BKN/// 25/23 Q1009=
METAR RJCC 081200Z 15003KT 090V260 1500 R19R/P1800N R01R/1200U -DZ
           BR BKN002 17/17 Q1011=
METAR RJDC 081200Z 07006KT 6000 FEW030 SCT050 BKN/// 25/21 Q1009=
METAR RJFF 081200Z 30005KT 280V350 8000 FEW025 SCT030 BKN/// 25/21
           Q1009=
METAR RJFK 081200Z VRB02KT 9999 FEW030 SCT080 BKN/// 24/19 Q1010=
METAR RJFM 081200Z VRB01KT 6000 FEW020 SCT100 BKN/// 25/23 Q1009=
METAR RJFO 081200Z 01004KT 330V030 6000 FEW035 SCT060 BKN100 25/24
           Q1009=
METAR RJFR 081200Z 08003KT 9000 FEW030 BKN/// 26/22 Q1009=
METAR RJFT 081200Z 19003KT 160V230 9999 FEW020 SCT035 BKN/// 25/22
           Q1010=
METAR RJFU 081200Z 25003KT 220V320 8000 FEW030 BKN/// 25/23 Q1008=
METAR RJGG 081200Z 13010KT 9999 FEW010 BKN/// 25/23 Q1010 NOSIG=
METAR RJNT 081200Z VRB02KT 9999 FEW020 BKN/// 25/22 Q1010=
METAR RJOA 081200Z 00000KT CAVOK 25/19 Q1011=
METAR RJOB 081200Z VRB01KT CAVOK 25/21 Q1010=
METAR RJOH 081200Z 06005KT 7000 -SHRA FEW015 BKN025 FEW025TCU BKN035
           25/22 Q1010 RETS=
METAR RJOM 081200Z 27004KT 9000 FEW020 BKN/// 25/22 Q1010=
METAR RJOR 081200Z 36003KT 6000 FEW015 BKN030 25/23 Q1010=
METAR RJOT 081200Z 22005KT 9999 FEW025 BKN/// 25/22 Q1010=
####018000487####
SAJP51 RJTD 081200 RRA
METAR RJSA 081200Z VRB02KT 7000 FEW010 SCT020 BKN040 20/19 Q1011=
METAR RJSK 081200Z 04001KT CAVOK 23/21 Q1011=
METAR RJSS 081200Z 05006KT 9999 FEW010 BKN/// 23/22 Q1011=
METAR RJSY 081200Z 11002KT 9999 FEW030 SCT/// 23/21 Q1011=
METAR RJTT 081200Z 18007KT 140V220 9999 FEW008 BKN/// 25/22 Q1010=
METAR ROAH 081200Z 19012KT 9999 FEW010 SCT015 BKN150 29/27 Q1010=
METAR RJAH 081200Z 20004KT 9999 FEW030 BKN/// 24/23 Q1010=
METAR RJBH 081200Z NIL=
####018000337####
SAEW37 LEMM 081200
METAR LEBR 081200Z AUTO 11013KT CAVOK 37/15 Q1017=
METAR LEGA 081200Z NIL=
METAR LEGT 081200Z 13012KT CAVOK 31/12 Q1018=
METAR LEMO 081200Z 26005KT 200V330 CAVOK 30/19 
Q1016 NOSIG=
METAR LERI 081200Z 07010KT 020V120 CAVOK 35/23 Q1018 NOSIG=
METAR LERT 081200Z 28006KT 190V340 CAVOK 27/20 Q1016 NOSIG=
####018001776####
SAXN17 KAWN 081200 RRD
METAR MHLC 081200Z 20003KT 9999 SCT010 BKN200 25/24 Q1010 A2984 NOSIG=
METAR MKJS 081200Z 18009KT 9999 FEW024 BKN200 27/22 Q1013=
METAR MMCB 081154Z 00000KT 1/4SM FG SCT004 BKN010 OVC100 18/17 A3000
      RMK 63052 8/87/ RTS=
METAR MUHA 081155Z 06003KT 7000 FEW018 25/24 Q1014=
METAR NTAA 081200Z VRB02KT 9999 FEW023 25/21 Q1015 WS ALL RWY NOSIG=
METAR NWWW 081200Z AUTO VRB02KT 9999NDV FEW035/// 17/15 Q1016=
METAR PAGA 081158Z AUTO 00000KT 10SM CLR 11/08 A3006 RMK AO2 SLP226
      T01110078 10217 20111 50000=
METAR PKWA 081200Z AUTO 06014KT 10SM OVC055 25/23 A2985 RMK AO2 P0001
      T02540233=
METAR PTRO 081158Z 04005KT 14SM BKN016TCU BKN120 OVC300 26/24 A2990
      RMK TCU VC ALQDS=
METAR RKSS 081200Z 31004KT 270V350 9999 SCT030 OVC110 24/18 Q1009 NOSIG=
METAR SKBQ 081200Z 00000KT 3000 BR BKN005 26/26 A2990=
METAR SKCG 081200Z 10004KT 9999 -DZ SCT012 SCT070 27/25 A2987=
METAR SKCL 081200Z 08003KT 9999 SCT017 BKN090 20/19 A3002=
METAR SKLT 081200Z 00000KT 9999 FEW015 BKN070 24/24 A2989 RMK APCLO=
METAR SOCA 081200Z 12006KT 080V180 9000 FEW006 SCT016 28/25 Q1013 NOSIG=
METAR SVBM 081200Z 00000KT 9999 BKN013 23/22 Q////=
METAR SVMI 081200Z 00000KT 9999 FEW016 BKN070 25/24 Q1014=
METAR TFFF 081200Z 10012KT 9999 FEW020 SCT026 31/24 Q1014 NOSIG=
METAR TKPK 081200Z 08012KT 9999 FEW016 29/25 Q1015=
METAR TLPL 081200Z 09019KT 9999 SCT026 BKN300 30/25 Q1014=
METAR TTCP 081200Z 06010KT 9999 TS FEW010CB BKN036 24/23 Q1013 NOSIG=
METAR TTPP 081200Z 00000KT 2000 -SHRA VCSH FEW006 FEW010CB BKN036 25/24
      Q1013 TEMPO SHRA=
METAR TXKF 081155Z 15013KT 9999 SCT015CB SCT180 BKN300 27/23 Q1019
      RMK CB DSNT S=
METAR VHHH 081200Z 19006KT 140V240 9999 FEW015 31/26 Q1007 NOSIG=
####018000083####
SAZB40 FLLS 081200
METAR FLLS 081200Z 07012KT 9/9 BKN037 19/13 Q1027 NOSIG=

####018000138####
SAUS44 KMAF 081205
MTRGDP
SPECI KGDP 081203Z AUTO 05023KT 4SM BR SCT003 BKN055 OVC095 16/16 
A3022 RMK AO2 PK WND 05026/1156 TSNO
####018000684####
SAFR36 LFPW 081200
METAR LFBE 081200Z 09009KT 060V120 CAVOK 33/17 Q1017 NOSIG=
METAR LFGJ 081200Z AUTO 20005KT 150V270 9999NDV NSC 30/11 Q1020=
METAR LFJR 081200Z AUTO 18006KT 130V250 9999NDV NCD 32/10 Q1018=
METAR LFMD 081200Z AUTO 16006KT 120V200 9999NDV NSC 29/24 Q1020=
METAR LFMH 081200Z 14005KT 070V230 CAVOK 31/12 Q1020 NOSIG=
METAR LFOT 081200Z AUTO 11004KT 040V210 9999NDV NSC 31/10 Q1018=
METAR LFPN 081200Z VRB03KT CAVOK 30/09 Q1019 NOSIG=
METAR LFRC 081200Z AUTO 01006KT 340V050 9999NDV BKN018 20/15 Q1019=
METAR LFRG 081200Z AUTO VRB03KT 9999NDV NSC 26/15 Q1019=
METAR LFRK 081200Z 36007KT 320V050 CAVOK 24/14 Q1019 NOSIG=
METAR LFBA 081200Z NIL=
####018000523####
SATS40 DTTA 081200
METAR DTKA 081200Z 31008KT 280V340 9999 FEW023 27/21 Q1020 NOSIG=
METAR DTMB 081200Z 03009KT CAVOK 30/14 Q1019 NOSIG=
METAR DTNZ 081200Z AUTO 11012KT CAVOK 30/11 Q1018=
METAR DTTA 081200Z 03008KT 350V070 CAVOK 30/20 Q1019  NOSIG=
METAR DTTF 081200Z 24006KT CAVOK 35/13 Q1016 NOSIG=
METAR DTTJ 081200Z 07010KT CAVOK 30/21 Q1018 NOSIG=
METAR DTTR 081200Z 09008KT CAVOK 35/09 Q1019=
METAR DTTX 081200Z 15008KT CAVOK 31/19 Q1018 NOSIG=
METAR DTTZ 081200Z 12006KT CAVOK 35/22 Q1017 NOSIG=
####018000561####
SAFR37 LFPW 081200
METAR LFAQ 081200Z AUTO 21006KT 160V250 9999NDV NSC 29/10 Q1019=
METAR LFBU 081200Z AUTO 13007KT 070V200 9999NDV NSC 33/12 Q1017=
METAR LFLN 081200Z AUTO VRB04KT 9999NDV NSC 31/14 Q1020=
METAR LFRH 081200Z 26010KT 220V280 CAVOK 26/14 Q1019=
METAR LFRQ 081200Z 25008KT 210V330 CAVOK 25/15 Q1019 NOSIG=
METAR LFRT 081153Z 04005KT 360V100 9999 FEW024 SCT250 22/15 Q1019=
METAR LFSD 081200Z AUTO 16006KT 090V230 9999NDV NSC 31/11 Q1020=
METAR LFTW 081200Z AUTO 17006KT 100V250 9999NDV NSC 32/15 Q1020=
METAR LFPM 081200Z NIL=
####018000080####
SAMP31 LMMM 081200 RRB
METAR HLLB 081150Z
34015KT 9999 FEW025 30/18 Q1016=
####018000452####
SAFR31 LFPW 081200
METAR LFLL 081200Z 18004KT 090V210 CAVOK 32/14 Q1020 NOSIG=
METAR LFMN 081200Z 12005KT 9999 FEW023 29/22 Q1020 NOSIG=
METAR LFPG 081200Z 11006KT 060V160 CAVOK 30/09 Q1019 NOSIG=
METAR LFPO 081200Z VRB02KT CAVOK 30/11 Q1019 NOSIG=
METAR LFQQ 081200Z VRB06KT CAVOK 30/12 Q1018 NOSIG=
METAR LFRB 081200Z 32005KT 240V020 9999 SCT023 SCT250 23/16 Q1019
NOSIG=
METAR LFRS 081200Z 25005KT 170V300 CAVOK 32/12 Q1017 NOSIG=
####018000521####
SATS32 DTTA 081200
METAR DTKA 081200Z 31008KT 280V340 9999 FEW023 27/21 Q1020 NOSIG=
METAR DTMB 081200Z 03009KT CAVOK 30/14 Q1019 NOSIG=
METAR DTNZ 081200Z AUTO 11012KT CAVOK 30/11 Q1018=
METAR DTTA 081200Z 03008KT 350V070 CAVOK 30/20 Q1019  NOSIG=
METAR DTTF 081200Z 24006KT CAVOK 35/13 Q1016 NOSIG=
METAR DTTG 081200Z 08010KT CAVOK 32/12 Q1018 NOSIG=
METAR DTTJ 081200Z 07010KT CAVOK 30/21 Q1018 NOSIG=
METAR DTTX 081200Z 15008KT CAVOK 31/19 Q1018 NOSIG=
METAR DTTZ 081200Z 12006KT CAVOK 35/22 Q1017 NOSIG=
####018000395####
SAPO31 LPMG 081200
METAR LPFR 081200Z 25009KT 200V280 9999 SCT010 SCT013 24/20 Q1016=
METAR LPMA 081200Z 18006KT 120V220 9999 FEW016 23/18 Q1020 RS14001KT 
0518005KT 2301011KT=
METAR LPPR 081200Z 22006KT 180V260 5000 BR FEW003 SCT004 BKN006 21/18
Q1015=
METAR LPPS 081200Z 02012KT 350V050 9999 FEW016 SCT030 22/15 Q1021=
METAR LPPT 081200Z VRB03KT 9999 FEW025 27/19 Q1016 NOSIG=
####018000515####
SATS40 DTTA 081200
METAR DTKA 081200Z 31008KT 280V340 9999 FEW023 27/21 Q1020 NOSIG=
METAR DTMB 081200Z 03009KT CAVOK 30/14 Q1019 NOSIG=
METAR DTNZ 081200Z AUTO 11012KT CAVOK 30/11 Q1018=
METAR DTTA 081200Z 03008KT 350V070 CAVOK 30/20 Q1019  NOSIG=
METAR DTTF 081200Z 24006KT CAVOK 35/13 Q1016 NOSIG=
METAR DTTJ 081200Z 07010KT CAVOK 30/21 Q1018 NOSIG=
METAR DTTR 081200Z 09008KT CAVOK 35/09 Q1019=
METAR DTTX 081200Z 15008KT CAVOK 31/19 Q1018 NOSIG=
METAR DTTZ 081200Z 12006KT CAVOK 35/22 Q1017 NOSIG=
####018000658####
SAKO31 RKSI 081200
METAR RKSI 081200Z 28004KT 200V340 8000 -RA FEW040 OVC110 23/20
           Q1009 NOSIG=
METAR RKSS 081200Z 31004KT 270V350 9999 SCT030 OVC110 24/18 Q1009 
           NOSIG =
METAR RKPC 081200Z 07007KT 4500 BR SCT030 OVC120 24/20 Q1009 NOSIG =
METAR RKPK 081200Z 12005KT 9999 FEW030 BKN200 23/17 Q1009 NOSIG =
METAR RKTU 081200Z 27003KT 9000 -RA SCT030 BKN080 OVC200 25/19 
           Q1009 TEMPO 4500 =
METAR RKTN 081200Z 13002KT 6000 -RA SCT025 BKN040 OVC200 25/22
           Q1009 NOSIG=
METAR RKJB 081200Z 04002KT 6000 FEW025 BKN120 25/18 Q1009 NOSIG =
METAR RKNY 081200Z AUTO 16002KT3000NDV NCD 20/18 Q1009 =
####018000808####
SAFR34 LFPW 081200
METAR LFCR 081200Z AUTO 17007KT 130V260 9999NDV NSC 32/05 Q1021=
METAR LFJL 081200Z AUTO VRB03KT 9999NDV NSC 30/07 Q1020=
METAR LFLP 081200Z AUTO 24006KT 180V300 9999NDV NSC 30/12 Q1021=
METAR LFLS 081200Z 23008KT 190V280 9999 FEW050 31/13 Q1021 NOSIG=
METAR LFLY 081200Z 16005KT  CAVOK 31/14 Q1020 NOSIG=
METAR LFMT 081200Z 18006KT CAVOK 31/16 Q1020 NOSIG=
METAR LFMU 081200Z AUTO 15009KT 9999NDV NSC 29/13 Q1020=
METAR LFOB 081200Z 23004KT 160V300 CAVOK 30/09 Q1019 NOSIG=
METAR LFOH 081200Z AUTO 34010KT 9999NDV NSC 23/14 Q1019=
METAR LFOK 081200Z AUTO VRB03KT 9999NDV NSC 31/09 Q1019=
METAR LFOP 081200Z 25006KT 190V310 CAVOK 30/12 Q1019 NOSIG=
METAR LFPB 081200Z VRB03KT CAVOK 31/10 Q1018 NOSIG=
METAR LFSN 081200Z 31003KT 250V010 CAVOK 31/13 Q1020 NOSIG=
####018000671####
SAFR32 LFPW 081200
METAR LFBH 081200Z AUTO 29007KT 250V310 9999NDV NSC 32/11 Q1017=
METAR LFBI 081200Z 19004KT 140V270 CAVOK 31/12 Q1018 NOSIG=
METAR LFBL 081154Z 14005KT 090V200 CAVOK 29/12 Q1020 NOSIG=
METAR LFBO 081200Z 11011KT 070V140 CAVOK 34/11 Q1018 NOSIG=
METAR LFBP 081200Z 09008KT 040V120 CAVOK 34/19 Q1016 NOSIG=
METAR LFBT 081200Z 04006KT 350V100 CAVOK 34/19 Q1017 NOSIG=
METAR LFBZ 081200Z VRB04KT CAVOK 30/23 Q1015 NOSIG=
METAR LFLB 081200Z 35005KT 320V030 9999 FEW070 SCT260 29/17 Q1020
NOSIG=
METAR LFLX 081200Z 28003KT 210V350 CAVOK 32/12 Q1018 NOSIG=
METAR LFML 081200Z 27007KT CAVOK 32/17 Q1020 NOSIG=
METAR LFBD 081200Z NIL=
####018000435####
SAEW35 LEMM 081200
METAR LEAB 081200Z 15014KT 130V190 CAVOK 34/02 Q1021 NOSIG=
METAR LEBZ 081200Z 20008KT CAVOK 35/13 Q1015=
METAR LELN 081200Z 19009KT 160V250 9999 FEW055TCU 31/08 Q1020=
METAR LESA 081200Z 27004KT 240V330 9999 FEW048 34/17 Q1018=
METAR LETO 081200Z 14004G14KT 110V220 9999 FEW070 31/14 Q1019
NOSIG=
METAR LEVD 081200Z VRB03KT CAVOK 34/08 Q1019=
METAR LEVS 081200Z 10009KT 060V140 CAVOK 31/12 Q1019=
####018000169####
SACY31 LCLK 081200
METAR LCLK 081200Z 20017KT 9999 FEW030 30/21 Q1008 NOSIG=
METAR LCPH 081200Z 24007KT 200V280 9999 FEW030 29/23 Q1008=
METAR LCNC 081200Z NIL=
####018000081####
SAMP31 LMMM 081200 RRB
METAR HLLB 081150Z 
34015KT 9999 FEW025 30/18 Q1016=
####018000353####
SARO31 LROM 081200
METAR LRBS 081200Z VRB02KT 9999 FEW022 21/14 Q1016 NOSIG=
METAR LRCK 081200Z 01010KT 340V060 9999 FEW038 24/16 Q1015 NOSIG=
METAR LROP 081200Z 27003KT 230V320 9999 FEW045CB 21/14 Q1016
880///95 NOSIG=
METAR LRSB 081200Z 34006KT 9999 SCT037 BKN086 17/12 Q1020=
METAR LRTR 081200Z 36009KT 320V050 9999 SCT035 23/14 Q1020=
####018000318####
SATS41 DTTA 081200
METAR DTTB 081200Z 31008KT CAVOK 30/16 Q1020=
METAR DTTD 081200Z 09004KT 030V180 CAVOK 32/12 Q1019=
METAR DTTG 081200Z 08010KT CAVOK 32/12 Q1018 NOSIG=
METAR DTTK 081200Z 09004KT CAVOK 35/09 Q1018=
METAR DTTL 081200Z 32006KT CAVOK 31/19 Q1019=
METAR DTTN 081200Z 34008KT CAVOK 34/15 Q1018=
####018000077####
SALY31 HLLB 081200
METAR HLLB 081150Z 
34015KT 9999 FEW025 30/18 Q1016=
####018000475####
SAFR33 LFPW 081200
METAR LFKB 081200Z 11006KT 060V150 9999 FEW023 29/20 Q1020 NOSIG=
METAR LFKJ 081200Z 21009KT 9999 FEW030 FEW046TCU 29/24 Q1019 NOSIG=
METAR LFLC 081200Z 09005KT 040V150 CAVOK 31/12 Q1019 NOSIG=
METAR LFMP 081200Z 09009KT 040V130 9999 FEW057 29/18 Q1020 NOSIG=
METAR LFMV 081200Z AUTO 23004KT 180V290 9999NDV NSC 34/15 Q1019=
METAR LFSL 081200Z AUTO 13005KT 060V210 9999NDV NSC 31/13 Q1019=
METAR LFKC 081200Z NIL=
METAR LFKF 081200Z NIL=
####018000462####
SAMS32 WMKK 081200
METAR 081200Z
METAR WBGG 081200Z 28006KT 9999 -TSRA FEW015CB SCT020 BKN150 24/23
Q1011
     NOSIG=
METAR WBKK 081200Z 12006KT 9999 FEW014 SCT140 BKN270 25/23 Q1010
NOSIG=
METAR WMKJ 081200Z 20004KT 9999 FEW022 BKN300 27/25 Q1009=
METAR WMKK 081200Z 16002KT 9999 FEW030 BKN280 28/25 Q1009 NOSIG=
METAR WMKP 081200Z 24002KT 9999 FEW020 BKN280 29/25 Q1009 NOSIG=
METAR WMSA 081200Z 27002KT 9000 FEW017CB BKN280 30/25 Q1009=
####018000529####
SATS32 DTTA 081200
METAR DTKA 081200Z 31008KT 280V340 9999 FEW023 27/21 Q1020 NOSIG=
METAR DTMB 081200Z 03009KT CAVOK 30/14 Q1019 NOSIG=
METAR DTNZ 081200Z AUTO 11012KT CAVOK 30/11 Q1018=
METAR DTTA 081200Z 03008KT 350V070 CAVOK 30/20 Q1019  NOSIG=
METAR DTTF 081200Z 24006KT CAVOK 35/13 Q1016 NOSIG=
METAR DTTG 081200Z 08010KT CAVOK 32/12 Q1018 NOSIG=
METAR DTTJ 081200Z 07010KT CAVOK 30/21 Q1018 NOSIG=
METAR DTTX 081200Z 15008KT CAVOK 31/19 Q1018 NOSIG=
METAR DTTZ 081200Z 12006KT CAVOK 35/22 Q1017 NOSIG=
####018000736####
SAMS33 WMKK 081200
METAR 081200Z
METAR WMAU 081200Z 11004KT 020V160 9999 FEW024 SCT140 BKN270 28/25
Q////
     QFF1009=
METAR WMBA 081200Z 27002KT 9999 FEW032 BKN280 29/25 Q1009=
METAR WMKA 081200Z 24002KT 9999 FEW030 BKN300 28/26 Q1009=
METAR WMKB 081200Z 30006KT 9000 FEW020 BKN280 30/25 Q1009 NOSIG=
METAR WMKC 081200Z 04003KT 9999 FEW017CB SCT140 BKN240 30/24 Q1009=
METAR WMKD 081200Z 10004KT 9999 TS FEW010 FEW017CB BKN280 29/26 Q1008
NOSIG=
METAR WMKI 081200Z 20003KT 9999 FEW032 SCT150 BKN280 29/25 Q1009=
METAR WMKL 081200Z 26004KT 190V320 9999 FEW028 BKN280 29/25 Q1009=
METAR WMKM 081200Z 27002KT 9999 FEW028 SCT140 BKN280 29/24 Q1010=
METAR WMKN 081200Z 22004KT 9999 FEW024 BKN250 27/24 Q1009=
####018000640####
SAEW31 LEMM 081200
METAR LEMD 081200Z 10009KT 070V140 9999 FEW070TCU 31/12 Q1018
NOSIG=
METAR LEBL 081200Z 20015KT CAVOK 27/21 Q1019 NOSIG=
METAR LEPA 081200Z 22011KT 190V250 CAVOK 30/11 Q1020 NOSIG=
METAR LEZL 081200Z 24005KT 180V340 9999 SCT025 32/16 Q1015 NOSIG=
METAR LEMG 081200Z 12008KT 080V170 9999 FEW040 30/13 Q1016 NOSIG=
METAR LEVC 081200Z 09008KT 060V120 CAVOK 32/20 Q1019 NOSIG=
METAR LEAL 081200Z 07011KT CAVOK 30/16 Q1019 NOSIG=
METAR LEIB 081200Z 07005KT 350V140 CAVOK 29/20 Q1020 NOSIG=
METAR LELC 081200Z 06010KT 030V100 CAVOK 28/19 Q1019 NOSIG=
METAR LEVX 081200Z 27010KT 8000 FEW030 25/19 Q1015=
####018000082####
SAGR33 LGAT 081150 RRA
METAR LGPA 081150Z 02010G20KT 9999 FEW025 27/18 Q1011=
####018000575####
SAFR35 LFPW 081200
METAR LFMI 081200Z AUTO VRB05KT 9999NDV NSC 34/14 Q1019=
METAR LFMK 081200Z AUTO 08016KT 9999NDV NSC 33/13 Q1019=
METAR LFRD 081200Z AUTO 35006KT 310V030 9999NDV NSC 22/15 Q1019=
METAR LFRN 081200Z AUTO VRB04KT 9999NDV NSC 29/13 Q1018=
METAR LFRO 081200Z AUTO 04006KT 360V090 9999NDV NSC 21/16 Q1019=
METAR LFRZ 081200Z AUTO 19007KT 150V230 9999NDV NSC 31/09 Q1018=
METAR LFSB 081200Z VRB03KT CAVOK 30/10 Q1020 NOSIG=
METAR LFST 081200Z VRB04KT CAVOK 30/10 Q1020 NOSIG=
METAR LFTH 081200Z 20005KT 150V260 9999 FEW026 29/23 Q1020 NOSIG=
####018000079####
SAGR32 LGAT 081150 RRC
METAR LGSK 081150Z 35012KT 9999 FEW020 28/19 Q1015=
####018000317####
SATS42 DTTA 081200
METAR DTTB 081200Z 31008KT CAVOK 30/16 Q1020=
METAR DTTD 081200Z 09004KT 030V180 CAVOK 32/12 Q1019=
METAR DTTK 081200Z 09004KT CAVOK 35/09 Q1018=
METAR DTTL 081200Z 32006KT CAVOK 31/19 Q1019=
METAR DTTN 081200Z 34008KT CAVOK 34/15 Q1018=
METAR DTTR 081200Z 09008KT CAVOK 35/09 Q1019=
####018001088####
SAUS20 KNKA 081205
METAR KCLS 081155Z AUTO 00000KT 10SM CLR 12/12 A2996 RMK AO2 =
SPECI KCSM 081204Z AUTO 04005KT 10SM SCT017 SCT110 23/21 A3012 RMK 
    AO2=
METAR KDMA 081155Z AUTO 05011KT 10SM CLR 29/11 A2989 RMK AO2 SLP044
      T02900110 10325 20289 51009 $=
METAR KGZL 081155Z AUTO 14003KT 8SM CLR 24/23 A3004 RMK AO2 =
SPECI KLVJ 081204Z AUTO 11012G19KT 1 3/4SM VCTS +RA BR BKN024 BKN041 
    OVC065 26/23 A2994 RMK AO2 LTG DSNT NE AND E TSB00RAB1157 P0009=
METAR KNCA 081156Z 03005KT 4SM HZ BKN180 26/23 A2994 RMK AO2 SLP140
      T02610228 10267 20233 53010=
METAR KNSE 081156Z 00000KT 4SM BR FEW001 SCT250 24/23 A3003 RMK AO2
      SLP154 VIS NE-E 2 70020 T02440228 10244 20222 51004 $=
METAR KNXX 081156Z 00000KT 4SM HZ CLR 26/21 A3005 RMK AO2 PK WND 33030/1106
      SLP180 T02610211 10261 20228 53008 $=
SPECI KPSX 081204Z AUTO 09011KT 7SM -RA FEW002 SCT010 SCT055 26/24 
    A2988 RMK AO2 P0001=
METAR KTDF 081203Z AUTO 00000KT 4SM CLR 24/21 A3002 RMK AO1=
METAR KXLL 081200Z AUTO 12004KT 7SM CLR 27/23 A3005 RMK AO2 
     T02650228=
####018000104####
SPUS72 KWBC 081205
SPECI
KOKC 081155Z COR 01004KT 10SM SCT014 SCT025 BKN080 BKN200 23/22
A3007=
####018000078####
SADO31 TDPD 081200
METAR TDPD 081200Z 10012KT 9999 SCT018 29/23 Q1015=
####018000081####
SAMN31 TNCM 081200
METAR TNCM 081200Z 09007KT 9999 FEW019 29/24 Q1016=

####018000448####
SAIR34 OIII 081200
METAR OIAG 081200Z NIL=
METAR OIAM 081200Z 21004KT CAVOK 45/14 Q0997 A2945=
METAR OICI 081200Z 30014KT CAVOK 38/M04 Q1012 A2991 863.6=
METAR OIKQ 081200Z 10010KT 7000 NSC 38/25 Q0999 A2951=
METAR OINN 081200Z 34010KT 9999 FEW030 31/24 Q1009 A2982=
METAR OINR 081200Z 35010KT 9999 FEW030TCU 31/22 Q1009 A2982=
METAR OISL 081200Z NIL=
METAR OISY 081200Z NIL=
METAR OITZ 081200Z 06016KT CAVOK 38/01 Q1014 A2997=
####018000153####
SAKA31 PTTP 081200
METAR PTTP 081155Z 17003KT 15SM SCT018TCU BKN300 24/23 
A2990 RMK TCU E-S SLP125 70007 8/201 T02410229 10288 
20230 52014=
####018000089####
SAMF20 TFFR 081200
METAR TFFR 081200Z 09007KT 060V140 9999 FEW023 30/25 Q1015 NOSIG=
####018000393####
SAPO31 LPMG 081200
METAR LPFR 081200Z 25009KT 200V280 9999 SCT010 SCT013 24/20 Q1016=
METAR LPMA 081200Z 18006KT 120V220 9999 FEW016 23/18 Q1020 RS14001KT 
0518005KT 2301011KT=
METAR LPPR 081200Z 22006KT 180V260 5000 BR FEW003 SCT004 BKN006 21/18
Q1015=
METAR LPPS 081200Z 02012KT 350V050 9999 FEW016 SCT030 22/15 Q1021=
METAR LPPT 081200Z VRB03KT 9999 FEW025 27/19 Q1016 NOSIG=
####018000292####
SAIN33 VECC 081150
METAR VECC 081150Z 21013KT 4500 HZ SCT018 FEW030CB 33/24 Q1004 NOSIG=
METAR VEPT 081150Z 09002KT 4500 HZ SCT020 SCT025 36/22
    Q1001 NOSIG= 
METAR VGEG 081150Z NIL=
METAR VGZR 081150Z 18005KT 5000 HZ SCT015 BKN100 32/25 Q1003 NOSIG=
METAR VNKT 081150Z NIL=
####018000633####
SAXX60 KAWN 081200 RRA
METAR KHLR 081156Z AUTO 07004KT 10SM OVC011 25/ A3000 RMK AO2 SLP150
      60000 T0250 10261 20250 53004 $=
METAR PHBK 081156Z AUTO 13003KT 10SM OVC070 24/17 A3001 RMK AO2 SLP164
      7//// T02440172 10272 20239 58007 TSNO $=
METAR PHNY 081156Z AUTO 00000KT 10SM -RA BKN035 19/17 A3006 RMK AO2
      TSNO 58007 T01940172 10222 20183 RAB56 P0000 SLP161 $=
METAR RJSM 081200Z VRB01KT 8000 FEW003 SCT/// 19/17 Q1010 RMK 1ST003
      A2984 WIND BY EQPT/10 VIS NW-N 5KM FCST 1218 TEMPO 1215 3000
      BR SCT001ST BKN003ST BECMG 1516 3000 BR SCT001ST BKN003ST
      TEMPO 1617 0600 FG VV000=
####018000255####
SPUS17 KAWN 081205
SPECI KIAB 081200Z AUTO 36010KT 10SM FEW006 22/21 A3009 RMK AO2 SLP178=
SPECI KLTS 081201Z AUTO 05009KT 9SM R35L/5000VP6000FT R35R/5500VP6000FT
      -RA SCT009 SCT015 BKN047 22/22 A3008 RMK AO2 CIG 027 RWY35L
      SLP172 $=
####018000448####
SAIR35 OIII 081200
METAR OIAD 081200Z NIL=
METAR OIBJ 081200Z 19016KT 6000 SKC 36/19 Q1005 A2970=
METAR OIBS 081200Z 07006KT 7000 SKC 35/30 Q0999 A2952=
METAR OIHR 081200Z NIL=
METAR OIKM 081200Z NIL=
METAR OIKR 081200Z 33010KT CAVOK 37/M04 Q1014 A2996=
METAR OING 081200Z 27014KT 9999 FEW035 35/21 Q1010 A2984=
METAR OIZB 081200Z 32012KT CAVOK 44/01 Q1003 A2962=
METAR OIZI 081200Z 21020KT 3000 SA SCT045TCU 40/18 Q1002 A2959=
