####018000105####
SAUS41 KAKQ 081314
MTRNUI
SPECI KNUI 081313Z AUTO 10007KT 8SM BKN015 BKN021 27/23 A3001 RMK 
AO2
####018000196####
SAUS99 KWBC 081315
METAR
KOAJ 081315Z AUTO 05008KT 7SM CLR 28/24 A2996 RMK AO1=
KSOP 081315Z AUTO 04006KT 8SM CLR 29/20 A2999 RMK AO1=
KUDG 081315Z 34006KT 10SM CLR 29/19 A2999 RMK AO1=
####018000266####
SAAF17 LFPW 081300 RRB
METAR HEAX 081300Z 32013KT 9999 FEW020 30/21 Q1010=
METAR HEBL 081300Z 04014KT CAVOK 40/08 Q1008=
METAR HEGN 081300Z 36019KT CAVOK 37/09 Q1005=
METAR HELX 081300Z 30012KT CAVOK 40/11 Q1006=
METAR HEMM 081300Z 33010KT CAVOK 28/21 Q1012=
####018000099####
SAAF27 LFPW 081300 RRB
METAR DGAA 081300Z 20014KT 9999 FEW010 SCT016 BKN250 30/23 Q1013
NOSIG=
####018000084####
SAAG SAZS 081300
METAR SAZS 081300Z  29012KT 6000 DZ SCT009 SCT025
04/02 Q1007=
####018000080####
SAAL41 DAMM 081300 RRB
METAR DAUI 081300Z 08020KT 8000 DRSA NSC 45/07 Q1012=
####018000072####
SAAL33 DAAA 081300 RRA
METAR DABT 081300Z 35016KT CAVOK 36/03 Q1022=
####018000080####
SAAL33 DAAA 081300 RRB
METAR DAUI 081300Z 08020KT 8000 DRSA NSC 45/07 Q1012=
####018000072####
SAAL41 DAMM 081300 RRA
METAR DABT 081300Z 35016KT CAVOK 36/03 Q1022=
####018000088####
SAQB31 LQSM 081300
METAR LQSA 081300Z 30008KT 260V350 9999 SCT600 22/11 Q1023 NOSIG=
####018000078####
SAAM31 FCBB 081200 RRA
METAR FOOG 081300Z /////KT 9999 SCT010 27/22 Q1014=
####018000110####
SPEQ00 SEQU 081310
SPECI
SEGU 081310Z  20005KT 9999N 4000S BKN040 OVC100  23/19 Q1012 
TEMPO 3000 NOSIG=
####018000108####
SAUS44 KSHV 081314
MTRAQV
SPECI KAQV 081313Z AUTO 00000KT 10SM FEW008 SCT100 26/24 A3004 RMK 
AO2 $
####018000127####
SASD20 OEJD 081300 RRA
METAR OEPA 081300Z 33010KT CAVOK 45/05 Q1003=
METAR OEWD 081300Z 06014KT 4000 BLDU SKC 45/11 Q1003=
####018000711####
SAAM31 FCBB 081300 AMD
METAR FCBB 081300Z 21008KT 270V160 7000 FEW023 27/20 Q1013 NOSIG=
METAR FCPP 081300Z 18008KT 7000 FEW013 OVC033 24/21 Q1012 NOSIG=
METAR FKKD 081300Z VRB04KT 9999 BKN016 FEW020CB BKN120 28/25 Q1013
      TEMPO 4000 TSRA BKN013 SCT016CB BKN100=
METAR FKYS 081300Z 25003KT 210V280 9999 BKN016 26/20 Q1016 NOSIG=
METAR FEFF 081300Z 18002KT 9999 FEW026 FEW040CB BKN300 31/22 Q1013
      NOSIG=
METAR FOOL 081300Z 23006KT 190V260 9000 SCT011 BKN030 27/23 Q1013
      NOSIG=
METAR FGSL 081300Z 29005KT 270V330 7000 -TSRA BKN013 FEW020CB BKN130
      25/25 Q1013 NOSIG=
METAR FZAA 081300Z 27008KT 4000 BR SKC 27/19 Q1012 NOSIG=
METAR FNLU 081300Z 27011KT CAVOK 24/19 Q1011 NOSIG=
####018000082####
SPAG SARI 081310
SPECI SARI 081310Z  20005KT 8000  FEW003 SCT100
17/17 Q1020=
####018001239####
SAAU32 AMMC 081300
METAR YAMB 081300Z AUTO 19001KT 9999NDV // NCD 13/10 Q1021=
METAR YBCG 081300Z AUTO 20012KT 9999NDV // OVC100 15/12 Q1021=
METAR YBHM NIL=
METAR YBMA 081301Z AUTO 00000KT 8000NDV // NCD 08/07 Q1020=
METAR YBRK 081300Z 23003KT 9999 FEW004 BKN030 13/12 Q1020=
METAR YBRM 081300Z 06004KT 9999 SCT037 BKN071 23/22 Q1012=
METAR YCIN 081300Z AUTO 11006KT //// // ////// 22/18 Q1013=
METAR YFRT 081300Z AUTO 05009KT //// // ////// 11/02 Q1013=
METAR YMAV 081300Z AUTO 33004KT 9999NDV // BKN048 07/05 Q1028=
METAR YMHB 081300Z 32006KT CAVOK 03/01 Q1031=
METAR YMLT NIL=
METAR YPEA 081300Z AUTO 36011KT 9999NDV // SCT016 SCT040 SCT069 14/12 Q0997=
METAR YPGV 081300Z AUTO 15008KT 9999NDV // SCT011 BKN016 24/22 Q1014=
METAR YPKG 081300Z AUTO 35009KT 9999NDV // BKN068 17/05 Q1004=
METAR YPPD 081300Z AUTO 35005KT 9000NDV // BKN032 BKN051 OVC100 21/21 Q1010=
METAR YSCB 081300Z AUTO 08002KT 9999NDV // SCT021 02/02 Q1028=
METAR YSDU 081300Z AUTO 15007KT 9999NDV // NCD 06/04 Q1026=
METAR YSNF 081300Z AUTO 11012KT 9999NDV // OVC035 15/08 Q1018=
METAR YSRI 081300Z AUTO 26004KT 9999NDV // SCT027 BKN057 OVC071 11/10 Q1028=
METAR YWLM 081300Z AUTO 25007KT 9999NDV // ////// 10/10 Q1026=

####018000081####
SABZ20 SBTT 081300
METAR SBTT 081300Z 00000KT 9999 FEW010 SCT080 28/25 Q1013=
####018000131####
SAAM20 FCBB 081200 RRA
METAR FOOG 081300Z /////KT 9999 SCT010 27/22 Q1014=
METAR FOON 081300Z 32009KT 8000 SCT025 29/22 Q1014=
####018000130####
SPCS31 MROC 081310
SPECI
MRPV 081310Z 00000KT 9999 4000W BR BKN120 20/19 A3001
     RMK FG BKN SW W TEMPO 24007KT=





####018000120####
SPCS31 MROC 081310
SPECI
MRPV 081310Z 00000KT 9999 4000W BR BKN120 20/19 A3001
     RMK FG BKN SW W TEMPO 24007KT=
####018000030####
SANG31 AMMC 081300
NIL

####018000094####
SAAG SAZS 081300
METAR SAZS 081300Z  29012KT 6000 DZ SCT009 SCT025
04/02 Q1007 R29210094=
####018000072####
SAAL41 DAMM 081300 RRC
METAR DAUL 081300Z 00000KT CAVOK 38/11 Q1021=
####018000098####
SPUS31 KWBC 081315
SPECI
KIAH 081310Z COR 12010KT 1SM +TSRA BR SCT008 OVC025CB 24/23 A2998=
####018002705####
SAUS20 KNKA 081314
METAR KADH 081311Z AUTO 29003KT 10SM BKN004 BKN011 OVC027 23/22 
     A3006 RMK AO2=
METAR KAFK 081310Z AUTO 03007KT 10SM CLR 21/20 A3015 RMK AO2 
     T02140196=
METAR KANW 081310Z AUTO 29005KT 10SM CLR 18/15 A3025 RMK AO2 
     T01820147=
METAR KAUH 081310Z AUTO 36004KT 10SM CLR 18/16 A3021 RMK AO2 
     T01770157=
METAR KAUN 081310Z AUTO 00000KT 10SM CLR 18/14 A2988 RMK AO1=
METAR KAXX 081310Z AUTO 00000KT 10SM CLR 07/05 A3050 RMK AO2=
SPECI KBDL 081313Z 17004KT 4SM HZ FEW008 BKN014 OVC019 26/22 A3007 
    RMK AO2=
METAR KBIE 081310Z AUTO 01008KT 10SM SCT025 20/18 A3016 RMK AO2 
     T01960180=
SPECI KBOK 081314Z AUTO 15003KT 1 3/4SM BR OVC002 09/09 A2998 RMK 
    AO2 VIS 1/2V5 $=
SPECI KBRO 081313Z 33009KT 10SM BKN005 BKN028 BKN050 26/25 A2978 RMK 
    AO2=
METAR KBTA 081310Z AUTO 36005KT 10SM CLR 20/17 A3017 RMK AO2 
     T01970171=
METAR KBVN 081310Z AUTO 32004KT 10SM SCT110 18/16 A3021 RMK AO2 
     T01760158=
METAR KDMW 081310Z AUTO 13003KT 7SM CLR 29/22 A3006 RMK AO2 LTG
     DSNT SE=
METAR KDUC 081313Z AUTO 02007KT 10SM CLR 24/23 A3005 RMK AO2=
METAR KDVO 081310Z AUTO 33006KT 10SM OVC012 12/12 A2993 RMK AO2=
SPECI KEMP 081313Z AUTO 01007KT 10SM BKN031 OVC035 22/19 A3011 RMK 
    AO2=
SPECI KFLD 081313Z AUTO 26006KT 10SM SCT007 24/21 A3002 RMK AO2=
METAR KFME 081312Z AUTO 00000KT 7SM CLR 27/22 A3004 RMK AO1=
METAR KHDE 081310Z AUTO 36004KT 10SM CLR 17/15 A3023 RMK AO2 
     T01730152=
METAR KHJH 081310Z AUTO 36005KT 10SM OVC031 20/18 A3018 RMK AO2 
     T01970175=
METAR KIBM 081310Z AUTO 00000KT 10SM SCT027 BKN035 OVC080 13/12 
     A3033 RMK AO2 T01300116=
SPECI KIJD 081313Z AUTO 15006KT 7SM OVC010 24/21 A3010 RMK AO2=
METAR KJWG 081312Z AUTO 02008KT 10SM BKN006 23/23 A3011 RMK AO2=
METAR KJYR 081310Z AUTO 35003KT 10SM CLR 18/17 A3020 RMK AO2=
METAR KLCG 081310Z AUTO 00000KT 10SM CLR 18/16 A3020 RMK AO2 
     T01760158=
METAR KLHM 081311Z AUTO 15005KT 10SM CLR 15/11 A2984 RMK AO1 
     T01450110=
METAR KOUN 081313Z AUTO 36003KT 10SM BKN030 26/23 A3007 RMK AO2=
METAR KPLU 081310Z AUTO 00000KT 10SM FEW037 SCT047 12/12 A2995 
     RMK AO2=
METAR KRKR 081312Z AUTO 19004KT 7SM -RA SCT034 SCT046 BKN090 
     29/26 A3006 RMK AO2=
METAR KSNL 081312Z AUTO 01004KT 10SM OVC005 25/24 A3007 RMK AO2=
METAR KSRE 081310Z AUTO 00000KT 7SM CLR 24/24 A3005 RMK AO2=
SPECI KTCC 081313Z AUTO 06008KT 10SM BKN018 BKN080 OVC095 18/16 
    A3026 RMK AO2=
METAR KTEX 081312Z AUTO 00000KT 10SM CLR 12/04 A3047 RMK AO2=
METAR KTQH 081315Z AUTO 00000KT 3SM BR OVC010 23/23 A3007 RMK AO2=
METAR KW29 081311Z AUTO 11006KT 7SM SCT012 27/23 A3002 RMK AO1=
####018000109####
SAEW32 LEMM 081300 CCA
METAR LEAS 081300Z 05003KT 350V090 9999 FEW015 24/20 Q1016 TEMPO
TSRA SCT025CB=
####018001236####
SAAU32 AMMC 081300
METAR YAMB 081300Z AUTO 19001KT 9999NDV // NCD 13/10 Q1021=
METAR YBCG 081300Z AUTO 20012KT 9999NDV // OVC100 15/12 Q1021=
METAR YBHM NIL=
METAR YBMA 081301Z AUTO 00000KT 8000NDV // NCD 08/07 Q1020=
METAR YBRK 081300Z 23003KT 9999 FEW004 BKN030 13/12 Q1020=
METAR YBRM 081300Z 06004KT 9999 SCT037 BKN071 23/22 Q1012=
METAR YCIN 081300Z AUTO 11006KT //// // ////// 22/18 Q1013=
METAR YFRT 081300Z AUTO 05009KT //// // ////// 11/02 Q1013=
METAR YMAV 081300Z AUTO 33004KT 9999NDV // BKN048 07/05 Q1028=
METAR YMHB 081300Z 32006KT CAVOK 03/01 Q1031=
METAR YMLT NIL=
METAR YPEA 081300Z AUTO 36011KT 9999NDV // SCT016 SCT040 SCT069 14/12 Q0997=
METAR YPGV 081300Z AUTO 15008KT 9999NDV // SCT011 BKN016 24/22 Q1014=
METAR YPKG 081300Z AUTO 35009KT 9999NDV // BKN068 17/05 Q1004=
METAR YPPD 081300Z AUTO 35005KT 9000NDV // BKN032 BKN051 OVC100 21/21 Q1010=
METAR YSCB 081300Z AUTO 08002KT 9999NDV // SCT021 02/02 Q1028=
METAR YSDU 081300Z AUTO 15007KT 9999NDV // NCD 06/04 Q1026=
METAR YSNF 081300Z AUTO 11012KT 9999NDV // OVC035 15/08 Q1018=
METAR YSRI 081300Z AUTO 26004KT 9999NDV // SCT027 BKN057 OVC071 11/10 Q1028=
METAR YWLM 081300Z AUTO 25007KT 9999NDV // ////// 10/10 Q1026=
####018000129####
SASD20 OEJD 081300 RRA
METAR OEPA 081300Z 33010KT CAVOK 45/05 Q1003=
METAR OEWD 081300Z 06014KT 4000 BLDU SKC 45/11 Q1003=
####018000192####
SANI20 DNMM 081300
METAR DNIM 081300Z 27009KT 9999 BKN016 31/24 Q1012=
METAR DNMA 081300Z 04009KT 9999 SCT012 30/23 Q1012=
METAR DNAA 081300Z 24009KT 9999 BKN014 29/22 Q1014 NOSIG=

####018000209####
SASG21 GOOY 081300
METAR GOTT 081300Z 22006KT 170V320 9999 BKN013 TCU 32/26 Q1013=
METAR GOSS 081300Z 26006KT 9999 SCT013 BKN230 33/25 Q1012=
METAR GOGG 081300Z 00000KT 9999 BKN016 TCU 34/26 Q1014=

####018000085####
SAUS43 KWBC 081300 RRD
METAR
KISN 081252Z COR 22004KT 10SM SCT080 15/12 A3015=
####018000720####
SAAM31 FCBB 081300
METAR FCBB 081300Z 21008KT 270V160 7000 FEW023 27/20 Q1013 NOSIG=
METAR FCPP 081300Z 18008KT 7000 FEW013 OVC033 24/21 Q1012 NOSIG=
METAR FKKD 081300Z VRB04KT 9999 BKN016 FEW020CB BKN120 28/25 Q1013
      TEMPO 4000 TSRA BKN013 SCT016CB BKN100=
METAR FKYS 081300Z 25003KT 210V280 9999 BKN016 26/20 Q1016 NOSIG=
METAR FEFF 081300Z 18002KT 9999 FEW026 FEW040CB BKN300 31/22 Q1013
      NOSIG=
METAR FOOL 081300Z 23006KT 190V260 9000 SCT011 BKN030 27/23 Q1013
      NOSIG=
METAR FGSL 081300Z 29005KT 270V330 7000 -TSRA BKN013 FEW020CB BKN130
      25/25 Q1013 NOSIG=
METAR FZAA 081300Z 27008KT 4000 BR SKC 27/19 Q1012 NOSIG=
METAR FNLU 081300Z 27011KT CAVOK 24/19 Q1011 NOSIG=
####018000068####
SAUS53 KWBC 081300 RRD
METAR
KEHA 081308Z AUTO 01008KT 17/17=
####018000086####
SAUS54 KWBC 081300 RRC
METAR
KIZA 081309Z AUTO 00000KT 10SM OVC007 13/11 A2992=
####018000098####
SPUS72 KWBC 081315
SPECI
KIAH 081310Z COR 12010KT 1SM +TSRA BR SCT008 OVC025CB 24/23 A2998=
####018000096####
SPUS72 KWBC 081315
SPECI
KNGP 081312Z 02006KT 9SM -RA FEW011 SCT022CB BKN034 28/26 A2983=
####018000083####
SAUS72 KWBC 081300 RRE
METAR
KLRU 081311Z AUTO 01008KT 10SM CLR 22/14 A3019=
####018001647####
SAUS20 KNKA 081315
METAR KOTH 081315Z 26003KT 10SM BKN005 09/08 A3000 RMK AO1=
METAR KPIB 081315Z AUTO 36005KT 10SM CLR 28/22 A3007 RMK AO1=
METAR KPNA 081310Z AUTO 30007KT 10SM SCT100 07/02 A3041 RMK AO2 
     T00660015=
SPECI KPNC 081314Z AUTO 33004KT 9SM OVC030 23/22 A3008 RMK AO2=
METAR KPTN 081315Z AUTO 08008KT 10SM FEW008 27/M07 A3004 RMK AO1=
METAR KPTT 081310Z AUTO 36010KT 3/4SM BR OVC006 20/19 A3016 RMK 
     AO2=
METAR KPWT 081315Z AUTO 03007KT 10SM CLR 22/07 A2999 RMK AO1=
SPECI KSAT 081314Z 05007KT 6SM -RA BR BKN009 BKN013 OVC020 26/24 
    A2996 RMK AO2 RAB09 CIG 008V013 P0000=
METAR KSGT 081315Z 20004KT 10SM CLR A3008 RMK AO1=
METAR KSKX 081315Z AUTO 35007KT 10SM CLR 13/07 A3041 RMK AO1=
METAR KSLG 081315Z AUTO 13003KT 10SM OVC015 23/21 A3009 RMK AO1=
METAR KSOW 081310Z AUTO 20005KT 10SM OVC110 19/04 A3027 RMK AO2=
METAR KSPA 081315Z AUTO 02004KT 10SM CLR 29/23 A3003 RMK AO2=
METAR KSPL 081315Z AUTO 34006KT VCTS 28/26 A2976 RMK AO2 LTG DSNT E
      PWINO PNO =
METAR KSQI 081315Z 28004KT 10SM SCT006 OVC017 24/22 A3006 RMK AO1=
METAR KSUE 081315Z AUTO 30006KT 5SM BKN004 OVC011 22/21 A3001 RMK 
    AO1=
METAR KSZT 081310Z AUTO 00000KT 10SM CLR 11/08 A3012 RMK AO2=
METAR KTIF 081310Z AUTO 00000KT 10SM BKN120 17/15 A3028 RMK AO2 
     T01700148=
METAR KTRK 081310Z AUTO 00000KT 10SM CLR 08/06 A3017 RMK AO2=
METAR KTVF 081315Z AUTO 26009KT 10SM CLR 18/13 A3006 RMK AO1=
METAR KUTA 081315Z AUTO 00000KT 10SM CLR 27/22 A3009 RMK AO2=
METAR KVBT 081315Z AUTO 17004KT 10SM OVC018 24/21 A3006 RMK AO1=
METAR KYKN 081315Z AUTO 24004KT 10SM CLR 20/16 A3019 RMK AO1=
####018002966####
SAUS20 KNKA 081315
METAR KPMV 081310Z AUTO 34004KT 10SM CLR 21/20 A3015 RMK AO2 
     T02140198=
METAR KARG 081315Z AUTO 22006KT 10SM BKN095 26/22 A3008 RMK AO1=
METAR KAUO 081315Z AUTO 32004KT 10SM CLR 29/22 A3005 RMK AO1=
METAR KAWO 081315Z AUTO 00000KT 7SM CLR 13/13 A2998 RMK AO1=
METAR KBDN 081315Z AUTO 20005KT 10SM CLR 12/03 A3012 RMK AO2 =
METAR KBKX 081315Z AUTO 00000KT 10SM CLR 19/15 A3018 RMK AO1=
METAR KBVX 081315Z AUTO 00000KT 10SM BKN100 26/23 A3009 RMK AO1=
METAR KCGC 081315Z AUTO 00000KT 10SM CLR 26/22 A3002 RMK=
METAR KCIU 081315Z AUTO 33005KT 10SM BKN010 OVC014 21/18 A2999 RMK 
    AO1=
METAR KCOE 081315Z AUTO 07009KT 10SM CLR 14/09 A3010 RMK AO1=
METAR KCVN 081315Z AUTO 03014KT 10SM BKN008 BKN014 17/15 A3025 RMK 
    AO1=
METAR KCVO 081315Z AUTO 28004KT 10SM CLR 12/09 A2995 RMK AO1=
SPECI KDPA 081314Z 25005KT 1 3/4SM -RA BR BKN014 OVC021 23/22 A3004 
    RMK AO2 RAB03 P0001=
METAR KDVL 081315Z AUTO 31008KT 10SM CLR 17/12 A3010 RMK AO1=
METAR KDYB 081315Z AUTO 33005KT 10SM CLR 27/22 A2997 RMK AO1=
METAR KDYR 081315Z AUTO 24003KT 10SM CLR 28/22 A3009 RMK AO1=
METAR KEHR 081315Z AUTO 24004KT 10SM CLR 29/22 A3007 RMK AO1=
METAR KESC 081315Z AUTO 31007KT 10SM OVC006 20/17 A2999 RMK AO1=
METAR KFLP 081315Z AUTO 00000KT 10SM SCT065 OVC080 24/22 A3008 RMK 
    AO1=
METAR KFRM 081315Z AUTO 10SM CLR 19/16 A3017 RMK AO1=
METAR KGAD 081315Z AUTO 35005KT 10SM CLR 26/20 A3007 RMK AO1=
METAR KGAI 081315Z 00000KT 5SM CLR 28/23 A3006 RMK AO1 
     =
METAR KGPZ 081315Z AUTO 29007KT 10SM CLR 19/15 A3007 RMK AO1=
METAR KHEF 081315Z AUTO 07004KT 6SM CLR 29/23 A3003 RMK AO1=
METAR KHEZ 081315Z AUTO 00000KT 10SM CLR 25/24 A3007 RMK AO1=
METAR KHNB 081315Z AUTO 22003KT 10SM CLR 28/23 A3007 RMK AO1=
METAR KIWD 081315Z AUTO 33006KT 10SM FEW060 19/16 A3003 RMK AO1=
METAR KKLS 081315Z AUTO 31003KT 10SM CLR 14/12 A2995 RMK AO1=
METAR KLGD 081315Z AUTO 00000KT 10SM CLR 11/06 A3008 RMK AO1=
METAR KLKV 081315Z AUTO 32005KT 10SM CLR 12/01 A3013 RMK AO1=
METAR KLXN 081310Z AUTO 00000KT 10SM SCT100 18/17 A3024 RMK AO2 
     T01810166=
METAR KMBL 081315Z AUTO 29007KT 4SM OVC004 21/19 A3003 RMK AO1=
METAR KMKT 081315Z 31005KT 10SM CLR 19/16 A3013 RMK AO1=
METAR KMLE 081310Z AUTO 33005KT 10SM BKN023 20/17 A3016 RMK AO2 
     T02040171=
METAR KMMH 081310Z AUTO 00000KT 10SM CLR 06/01 A3023 RMK AO1=
METAR KMML 081315Z AUTO 28008KT 10SM CLR 20/15 A3015 RMK AO1=
METAR KMNM 081315Z AUTO 34005KT 10SM OVC013 22/19 A3000 RMK AO1=
METAR KMRF 081315Z AUTO 34005KT 10SM CLR 18/16 A3020 RMK AO1=
METAR KMTW 081315Z 24004KT 7SM OVC008 23/21 A3000 RMK AO1=
METAR KMVN 081315Z AUTO 23007KT 10SM SCT075 28/23 A3006 RMK AO1=
METAR KOGA 081310Z AUTO 00000KT 10SM SCT085 OVC110 16/15 A3030 
     RMK AO2 T01630150=
METAR KONL 081310Z AUTO 00000KT 10SM CLR 19/16 A3023 RMK AO2 
     T01850164=
METAR KOTG 081315Z AUTO 30006KT 10SM CLR 19/16 A3018 RMK AO1=
####018000099####
SAET20 HAAB 081300
METAR HAAB 081300Z 19012KT 9000 TS FEW010 FEW020CB BKN020 19/11
Q1022=

####018000085####
SAEW KAWN 081200 RRQ
METAR EBFS 081225Z 24005KT 9999 FEW250 29/09 Q1020 BLU BLU=
####018000220####
SPNA14 KAWN 081315 RRA
SPECI KNKX 081306Z 00000KT 10SM DZ OVC008 16/14 A2991 RMK AO2 RAE02DZB02
      CIG 005V011 P0000=
SPECI SEGU 081310Z 20005KT 9999N 4000S BKN040 OVC100 23/19 Q1012 TEMPO
      3000 NOSIG=
####018000384####
SARS18 KAWN 081300 RRE
METAR UIBB 081300Z 06002MPS 9999 BKN200 23/14 Q1006 NOSIG RMK QFE711/0949
      30CLRD60=
METAR UIII 081300Z 16004MPS CAVOK 18/11 Q1006 NOSIG RMK QFE712/0950
      12CLRD60=
METAR UTSS 081300Z 08006MPS 050V110 9999 NSC 34/11 Q1010 R88/70D NOSIG=
METAR UWOO 081300Z 05004MPS 020V100 P5000 FEW220 32/02 Q1012 08/LRD65
      NOSIG RMK QFE748/0998=
####018000085####
SAEU KAWN 081200 RRX
METAR EBFS 081225Z 24005KT 9999 FEW250 29/09 Q1020 BLU BLU=
####018000125####
SAXX60 KAWN 081300 RRC
METAR PHNG 081257Z COR 11007KT 10SM SCT026 BKN040 24/21 A3002 RMK AO2
      SLP159 T02390206 $=
####018000273####
SAXX70 KAWN 081300 RRL
METAR KQM1 081255Z AUTO 22004KT 9999 CLR 38/16 A2988 RMK AO2 SLP045
      T03750163 $=
METAR KQEJ 081300Z AUTO 00000KT 2SM -RA BR SCT003 BKN031 22/20 A2996
      RMK A02=
METAR KQEX 081310Z AUTO 21007KT 4SM BR FEW035 25/20 A2978 RMK A02=
####018000088####
SPUS81 KWBC 081315
SPECI
KNUI 081313Z AUTO 10007KT 8SM BKN015 BKN021 27/23 A3001=
####018000913####
SAXN17 KAWN 081300 RRF
METAR MMCM 081245Z 12008KT 7SM BKN005 BKN020 OVC050 25/24 A2981 RMK
      8/7//=
METAR COR MMMX 081304Z 18003KT 2 1/2SM -RA HZ SCT008 BKN010 OVC020
      15/14 A3020 NOSIG RMK 60235 8/7// VSBY TWR=
METAR MMVA 081254Z 00000KT 7SM SCT100 BKN200 26/23 A2979 RMK 8/036=
METAR NCRG 081300Z 02004KT 9999 FEW010 SCT015 25/24 Q1018=
METAR NFTF 081300Z 00000KT 9999 FEW015 18/17 Q1015=
METAR PHNG 081257Z COR 11007KT 10SM SCT026 BKN040 24/21 A3002 RMK AO2
      SLP159 T02390206 $=
METAR RCKH 081300Z 24006KT 200V280 9999 FEW013 BKN300 30/26 Q1009 NOSIG=
METAR RCTP 081300Z 19006KT 150V250 9999 FEW025 BKN150 29/25 Q1007 NOSIG=
METAR TTCP 081300Z 06007KT 9999 TS SCT010CB SCT036 BKN080 26/23 Q1013
      TEMPO TSRA=
METAR TTPP 081300Z ///06KT 3000 -RA FEW006 FEW010CB SCT012 BKN035 26/25
      Q1013 NOSIG=
METAR YBBN 081300Z 22007KT 9999 BKN040 14/11 Q1021 NOSIG=
####018000827####
SAEU KAWN 081300 RRW
METAR EBFS 081255Z VRB02KT 9999 SCT250 29/11 Q1020 BLU BLU=
METAR EGQK 081250Z 22020KT 9999 FEW027 BKN050 18/07 Q1009 BLU NOSIG=
METAR EGUO 081250Z 25010KT 9999 FEW020 SCT050 BKN200 21/07 Q1019 BLU=
METAR EGYH 081250Z 22015KT 9999 FEW035 23/// Q1018 BLU=
METAR LEAS 081300Z 05003KT 350V090 9999 FEW015 24/20 Q1016 TEMPO TSRA
      SCT025CB=
METAR LEAS 081300Z 05003KT 350V090 9999 FEW015 24/20 Q1016 NOSIG=
METAR LFLL 081308Z 18007KT 150V240 CAVOK 32/13 Q1019 NOSIG=
METAR LFQB 081300Z VRB04KT CAVOK 32/10 Q1018=
METAR LIED 081255Z 14018KT 9999 SCT018 32/20 Q1018 RMK SCT VIS MIN
      9999 BLU=
METAR LOIH 081300Z 35007KT 35KM SKC 28/14 Q1021 RMK SKC=
METAR LOWZ 081300Z 33005KT 40KM SKC 26/06 Q1022 RMK SKC=
METAR LQSA 081300Z 30008KT 260V350 9999 SCT600 22/11 Q1023 NOSIG=
####018000108####
SAAK41 KNKA 081315
SPECI PAOU 081314Z AUTO 06011KT 10SM BKN006 07/07 A2993 RMK AO2 
    PWINO TSNO $=
####018000096####
SAET20 HAAB 081300
METAR HAAB 081300Z 19012KT 9000 TS FEW010 FEW020CB BKN020 19/11
Q1022=
####018000080####
SPCN51 CWAO 081314
SPECI CZCP 081314Z AUTO 28021KT 9SM OVC006 03/ A2986=

####018000247####
SPUS90 KWBC 081316
SPECI KNGP 081312Z 02006KT 9SM -RA FEW011 SCT022CB BKN034 28/26
     A2983 RMK AO2 RAB12 CB DSNT SE TCU DSNT N AND S-SW WR//
     P0001=
SPECI KAQV 081313Z AUTO 00000KT 10SM FEW008 SCT100 26/24 A3004 RMK
     AO2 $=
####018000142####
SAUS45 KMSO 081315
MTR3DU

METAR K3DU 081240Z 00000KT 20SM SKC 04/02 RMK NOSPECI 
T00430017       











####018002181####
SAUS99 KWBC 081316 RRA
METAR
KLXN 081310Z AUTO 00000KT 10SM SCT100 18/17 A3024 RMK AO2
     T01810166=
KMBL 081315Z AUTO 29007KT 4SM OVC004 21/19 A3003 RMK AO1=
KMKT 081315Z 31005KT 10SM CLR 19/16 A3013 RMK AO1=
KMLE 081310Z AUTO 33005KT 10SM BKN023 20/17 A3016 RMK AO2
     T02040171=
KMMH 081310Z AUTO 00000KT 10SM CLR 06/01 A3023 RMK AO1=
KMML 081315Z AUTO 28008KT 10SM CLR 20/15 A3015 RMK AO1=
KMNM 081315Z AUTO 34005KT 10SM OVC013 22/19 A3000 RMK AO1=
KMRF 081315Z AUTO 34005KT 10SM CLR 18/16 A3020 RMK AO1=
KMTW 081315Z 24004KT 7SM OVC008 23/21 A3000 RMK AO1=
KMVN 081315Z AUTO 23007KT 10SM SCT075 28/23 A3006 RMK AO1=
KOGA 081310Z AUTO 00000KT 10SM SCT085 OVC110 16/15 A3030 RMK AO2
     T01630150=
KONL 081310Z AUTO 00000KT 10SM CLR 19/16 A3023 RMK AO2
     T01850164=
KOTG 081315Z AUTO 30006KT 10SM CLR 19/16 A3018 RMK AO1=
KOTH 081315Z 26003KT 10SM BKN005 09/08 A3000 RMK AO1=
KPIB 081315Z AUTO 36005KT 10SM CLR 28/22 A3007 RMK AO1=
KPNA 081310Z AUTO 30007KT 10SM SCT100 07/02 A3041 RMK AO2
     T00660015=
KPTN 081315Z AUTO 08008KT 10SM FEW008 27/M07 A3004 RMK AO1=
KPTT 081310Z AUTO 36010KT 3/4SM BR OVC006 20/19 A3016 RMK AO2=
KPWT 081315Z AUTO 03007KT 10SM CLR 22/07 A2999 RMK AO1=
KSGT 081315Z 20004KT 10SM CLR A3008 RMK AO1=
KSKX 081315Z AUTO 35007KT 10SM CLR 13/07 A3041 RMK AO1=
KSLG 081315Z AUTO 13003KT 10SM OVC015 23/21 A3009 RMK AO1=
KSOW 081310Z AUTO 20005KT 10SM OVC110 19/04 A3027 RMK AO2=
KSPA 081315Z AUTO 02004KT 10SM CLR 29/23 A3003 RMK AO2=
KSPL 081315Z AUTO 34006KT VCTS 28/26 A2976 RMK AO2 LTG DSNT E
     PWINO PNO=
KSQI 081315Z 28004KT 10SM SCT006 OVC017 24/22 A3006 RMK AO1=
KSUE 081315Z AUTO 30006KT 5SM BKN004 OVC011 22/21 A3001 RMK
     AO1=
KSZT 081310Z AUTO 00000KT 10SM CLR 11/08 A3012 RMK AO2=
KTIF 081310Z AUTO 00000KT 10SM BKN120 17/15 A3028 RMK AO2
     T01700148=
KTRK 081310Z AUTO 00000KT 10SM CLR 08/06 A3017 RMK AO2=
KTVF 081315Z AUTO 26009KT 10SM CLR 18/13 A3006 RMK AO1=
KUTA 081315Z AUTO 00000KT 10SM CLR 27/22 A3009 RMK AO2=
KVBT 081315Z AUTO 17004KT 10SM OVC018 24/21 A3006 RMK AO1=
KYKN 081315Z AUTO 24004KT 10SM CLR 20/16 A3019 RMK AO1=
####018000135####
SAAF31 KWBC 081300 RRC
METAR
DNAA 081300Z 24009KT 9999 BKN014 29/22 Q1014 NOSIG=
DNMA 081300Z 04009KT 9999 SCT012 30/23 Q1012=
####018000107####
SAAF36 KWBC 081300 RRC
METAR
HAAB 081300Z 19012KT 9000 TS FEW010 FEW020CB BKN020 19/11
     Q1022=
####018000107####
SAAW33 KWBC 081300 RRC
METAR
OOSA 081300Z 15007KT 8000 FEW008 SC012 BKN020 28/23 Q1002
     NOSIG=
####018000140####
SAAP32 FAPR 081300 RRA
METAR FVHA 081300Z 10010KT CAVOK 20/02 Q1028 NOSIG=
METAR FYWH 081300Z AUTO 02010KT //// // ////// 21/M01 Q1026=
####018000236####
SPXX60 KWBC 081316
SPECI
KNGP 081312Z 02006KT 9SM -RA FEW011 SCT022CB BKN034 28/26 A2983
     RMK AO2 RAB12 CB DSNT SE TCU DSNT N AND S-SW WR// P0001=
KAQV 081313Z AUTO 00000KT 10SM FEW008 SCT100 26/24 A3004 RMK AO2
     $=
####018000200####
SAAO33 KWBC 081300 RRB
METAR
GOGG 081300Z 00000KT 9999 BKN016 TCU 34/26 Q1014=
GOSS 081300Z 26006KT 9999 SCT013 BKN230 33/25 Q1012=
GOTT 081300Z 22006KT 170V320 9999 BKN013 TCU 32/26 Q1013=
####018000089####
SABX31 KWBC 081250 RRD
METAR
EBFS 081255Z VRB02KT 9999 SCT250 29/11 Q1020 BLU BLU=
####018000206####
SAUS80 KWBC 081316
METAR
KDVL 081315Z AUTO 31008KT 10SM CLR 17/12 A3010 RMK AO1=
KGPZ 081315Z AUTO 29007KT 10SM CLR 19/15 A3007 RMK AO1=
KSOW 081310Z AUTO 20005KT 10SM OVC110 19/04 A3027 RMK AO2=
####018000076####
SACU31 MUHA 081315 RTD
METAR
MUCF 081300Z 00000KT 9000 NSC 28/24 Q1014=
####018000201####
SAEM31 KWBC 081300 RRC
METAR
LOIH 081300Z 35007KT 35KM SKC 28/14 Q1021 RMK SKC=
LOWZ 081300Z 33005KT 40KM SKC 26/06 Q1022 RMK SKC=
LQSA 081300Z 30008KT 260V350 9999 SCT600 22/11 Q1023 NOSIG=
####018000628####
SPUS70 KWBC 081316
SPECI
KBOK 081314Z AUTO 15003KT 1 3/4SM BR OVC002 09/09 A2998 RMK AO2
     VIS 1/2V5 $=
KBRO 081313Z 33009KT 10SM BKN005 BKN028 BKN050 26/25 A2978 RMK
     AO2=
KFLD 081313Z AUTO 26006KT 10SM SCT007 24/21 A3002 RMK AO2=
KIJD 081313Z AUTO 15006KT 7SM OVC010 24/21 A3010 RMK AO2=
KTCC 081313Z AUTO 06008KT 10SM BKN018 BKN080 OVC095 18/16 A3026
     RMK AO2=
KDPA 081314Z 25005KT 1 3/4SM -RA BR BKN014 OVC021 23/22 A3004 RMK
     AO2 RAB03 P0001=
KPNC 081314Z AUTO 33004KT 9SM OVC030 23/22 A3008 RMK AO2=
PAOU 081314Z AUTO 06011KT 10SM BKN006 07/07 A2993 RMK AO2 PWINO
     TSNO $=
####018003707####
SAUS70 KWBC 081316
METAR
KOAJ 081315Z AUTO 05008KT 7SM CLR 28/24 A2996 RMK AO1=
KSOP 081315Z AUTO 04006KT 8SM CLR 29/20 A2999 RMK AO1=
KUDG 081315Z 34006KT 10SM CLR 29/19 A2999 RMK AO1=
KADH 081311Z AUTO 29003KT 10SM BKN004 BKN011 OVC027 23/22 A3006
     RMK AO2=
KAFK 081310Z AUTO 03007KT 10SM CLR 21/20 A3015 RMK AO2
     T02140196=
KANW 081310Z AUTO 29005KT 10SM CLR 18/15 A3025 RMK AO2
     T01820147=
KAUH 081310Z AUTO 36004KT 10SM CLR 18/16 A3021 RMK AO2
     T01770157=
KAUN 081310Z AUTO 00000KT 10SM CLR 18/14 A2988 RMK AO1=
KAXX 081310Z AUTO 00000KT 10SM CLR 07/05 A3050 RMK AO2=
KBIE 081310Z AUTO 01008KT 10SM SCT025 20/18 A3016 RMK AO2
     T01960180=
KBTA 081310Z AUTO 36005KT 10SM CLR 20/17 A3017 RMK AO2
     T01970171=
KBVN 081310Z AUTO 32004KT 10SM SCT110 18/16 A3021 RMK AO2
     T01760158=
KDUC 081313Z AUTO 02007KT 10SM CLR 24/23 A3005 RMK AO2=
KDVO 081310Z AUTO 33006KT 10SM OVC012 12/12 A2993 RMK AO2=
KHDE 081310Z AUTO 36004KT 10SM CLR 17/15 A3023 RMK AO2
     T01730152=
KHJH 081310Z AUTO 36005KT 10SM OVC031 20/18 A3018 RMK AO2
     T01970175=
KIBM 081310Z AUTO 00000KT 10SM SCT027 BKN035 OVC080 13/12 A3033
     RMK AO2 T01300116=
KJWG 081312Z AUTO 02008KT 10SM BKN006 23/23 A3011 RMK AO2=
KJYR 081310Z AUTO 35003KT 10SM CLR 18/17 A3020 RMK AO2=
KLCG 081310Z AUTO 00000KT 10SM CLR 18/16 A3020 RMK AO2
     T01760158=
KLHM 081311Z AUTO 15005KT 10SM CLR 15/11 A2984 RMK AO1
     T01450110=
KOUN 081313Z AUTO 36003KT 10SM BKN030 26/23 A3007 RMK AO2=
KPLU 081310Z AUTO 00000KT 10SM FEW037 SCT047 12/12 A2995 RMK
     AO2=
KRKR 081312Z AUTO 19004KT 7SM -RA SCT034 SCT046 BKN090 29/26 A3006
     RMK AO2=
KSNL 081312Z AUTO 01004KT 10SM OVC005 25/24 A3007 RMK AO2=
KSRE 081310Z AUTO 00000KT 7SM CLR 24/24 A3005 RMK AO2=
KTEX 081312Z AUTO 00000KT 10SM CLR 12/04 A3047 RMK AO2=
KTQH 081315Z AUTO 00000KT 3SM BR OVC010 23/23 A3007 RMK AO2=
KW29 081311Z AUTO 11006KT 7SM SCT012 27/23 A3002 RMK AO1=
KPMV 081310Z AUTO 34004KT 10SM CLR 21/20 A3015 RMK AO2
     T02140198=
KARG 081315Z AUTO 22006KT 10SM BKN095 26/22 A3008 RMK AO1=
KAUO 081315Z AUTO 32004KT 10SM CLR 29/22 A3005 RMK AO1=
KAWO 081315Z AUTO 00000KT 7SM CLR 13/13 A2998 RMK AO1=
KBDN 081315Z AUTO 20005KT 10SM CLR 12/03 A3012 RMK AO2=
KBKX 081315Z AUTO 00000KT 10SM CLR 19/15 A3018 RMK AO1=
KBVX 081315Z AUTO 00000KT 10SM BKN100 26/23 A3009 RMK AO1=
KCGC 081315Z AUTO 00000KT 10SM CLR 26/22 A3002 RMK=
KCIU 081315Z AUTO 33005KT 10SM BKN010 OVC014 21/18 A2999 RMK
     AO1=
KCOE 081315Z AUTO 07009KT 10SM CLR 14/09 A3010 RMK AO1=
KCVN 081315Z AUTO 03014KT 10SM BKN008 BKN014 17/15 A3025 RMK
     AO1=
KCVO 081315Z AUTO 28004KT 10SM CLR 12/09 A2995 RMK AO1=
KDYB 081315Z AUTO 33005KT 10SM CLR 27/22 A2997 RMK AO1=
KDYR 081315Z AUTO 24003KT 10SM CLR 28/22 A3009 RMK AO1=
KEHR 081315Z AUTO 24004KT 10SM CLR 29/22 A3007 RMK AO1=
KESC 081315Z AUTO 31007KT 10SM OVC006 20/17 A2999 RMK AO1=
KFLP 081315Z AUTO 00000KT 10SM SCT065 OVC080 24/22 A3008 RMK
     AO1=
KFRM 081315Z AUTO 10SM CLR 19/16 A3017 RMK AO1=
KGAD 081315Z AUTO 35005KT 10SM CLR 26/20 A3007 RMK AO1=
KGAI 081315Z 00000KT 5SM CLR 28/23 A3006 RMK AO1=
KHEF 081315Z AUTO 07004KT 6SM CLR 29/23 A3003 RMK AO1=
KHEZ 081315Z AUTO 00000KT 10SM CLR 25/24 A3007 RMK AO1=
KHNB 081315Z AUTO 22003KT 10SM CLR 28/23 A3007 RMK AO1=
KIWD 081315Z AUTO 33006KT 10SM FEW060 19/16 A3003 RMK AO1=
KKLS 081315Z AUTO 31003KT 10SM CLR 14/12 A2995 RMK AO1=
KLGD 081315Z AUTO 00000KT 10SM CLR 11/06 A3008 RMK AO1=
KLKV 081315Z AUTO 32005KT 10SM CLR 12/01 A3013 RMK AO1=
KLXN 081310Z AUTO 00000KT 10SM SCT100 18/17 A3024 RMK AO2
     T01810166=
####018000889####
SPUS99 KWBC 081316
SPECI
KBDL 081313Z 17004KT 4SM HZ FEW008 BKN014 OVC019 26/22 A3007 RMK
     AO2=
KBOK 081314Z AUTO 15003KT 1 3/4SM BR OVC002 09/09 A2998 RMK AO2
     VIS 1/2V5 $=
KBRO 081313Z 33009KT 10SM BKN005 BKN028 BKN050 26/25 A2978 RMK
     AO2=
KEMP 081313Z AUTO 01007KT 10SM BKN031 OVC035 22/19 A3011 RMK
     AO2=
KFLD 081313Z AUTO 26006KT 10SM SCT007 24/21 A3002 RMK AO2=
KIJD 081313Z AUTO 15006KT 7SM OVC010 24/21 A3010 RMK AO2=
KTCC 081313Z AUTO 06008KT 10SM BKN018 BKN080 OVC095 18/16 A3026
     RMK AO2=
KDPA 081314Z 25005KT 1 3/4SM -RA BR BKN014 OVC021 23/22 A3004 RMK
     AO2 RAB03 P0001=
KPNC 081314Z AUTO 33004KT 9SM OVC030 23/22 A3008 RMK AO2=
KSAT 081314Z 05007KT 6SM -RA BR BKN009 BKN013 OVC020 26/24 A2996
     RMK AO2 RAB09 CIG 008V013 P0000=
PAOU 081314Z AUTO 06011KT 10SM BKN006 07/07 A2993 RMK AO2 PWINO
     TSNO $=
####018003711####
SAUS99 KWBC 081316
METAR
KADH 081311Z AUTO 29003KT 10SM BKN004 BKN011 OVC027 23/22 A3006
     RMK AO2=
KAFK 081310Z AUTO 03007KT 10SM CLR 21/20 A3015 RMK AO2
     T02140196=
KANW 081310Z AUTO 29005KT 10SM CLR 18/15 A3025 RMK AO2
     T01820147=
KAUH 081310Z AUTO 36004KT 10SM CLR 18/16 A3021 RMK AO2
     T01770157=
KAUN 081310Z AUTO 00000KT 10SM CLR 18/14 A2988 RMK AO1=
KAXX 081310Z AUTO 00000KT 10SM CLR 07/05 A3050 RMK AO2=
KBIE 081310Z AUTO 01008KT 10SM SCT025 20/18 A3016 RMK AO2
     T01960180=
KBTA 081310Z AUTO 36005KT 10SM CLR 20/17 A3017 RMK AO2
     T01970171=
KBVN 081310Z AUTO 32004KT 10SM SCT110 18/16 A3021 RMK AO2
     T01760158=
KDMW 081310Z AUTO 13003KT 7SM CLR 29/22 A3006 RMK AO2 LTG DSNT
     SE=
KDUC 081313Z AUTO 02007KT 10SM CLR 24/23 A3005 RMK AO2=
KDVO 081310Z AUTO 33006KT 10SM OVC012 12/12 A2993 RMK AO2=
KFME 081312Z AUTO 00000KT 7SM CLR 27/22 A3004 RMK AO1=
KHDE 081310Z AUTO 36004KT 10SM CLR 17/15 A3023 RMK AO2
     T01730152=
KHJH 081310Z AUTO 36005KT 10SM OVC031 20/18 A3018 RMK AO2
     T01970175=
KIBM 081310Z AUTO 00000KT 10SM SCT027 BKN035 OVC080 13/12 A3033
     RMK AO2 T01300116=
KJWG 081312Z AUTO 02008KT 10SM BKN006 23/23 A3011 RMK AO2=
KJYR 081310Z AUTO 35003KT 10SM CLR 18/17 A3020 RMK AO2=
KLCG 081310Z AUTO 00000KT 10SM CLR 18/16 A3020 RMK AO2
     T01760158=
KLHM 081311Z AUTO 15005KT 10SM CLR 15/11 A2984 RMK AO1
     T01450110=
KOUN 081313Z AUTO 36003KT 10SM BKN030 26/23 A3007 RMK AO2=
KPLU 081310Z AUTO 00000KT 10SM FEW037 SCT047 12/12 A2995 RMK
     AO2=
KRKR 081312Z AUTO 19004KT 7SM -RA SCT034 SCT046 BKN090 29/26 A3006
     RMK AO2=
KSNL 081312Z AUTO 01004KT 10SM OVC005 25/24 A3007 RMK AO2=
KSRE 081310Z AUTO 00000KT 7SM CLR 24/24 A3005 RMK AO2=
KTEX 081312Z AUTO 00000KT 10SM CLR 12/04 A3047 RMK AO2=
KTQH 081315Z AUTO 00000KT 3SM BR OVC010 23/23 A3007 RMK AO2=
KW29 081311Z AUTO 11006KT 7SM SCT012 27/23 A3002 RMK AO1=
KPMV 081310Z AUTO 34004KT 10SM CLR 21/20 A3015 RMK AO2
     T02140198=
KARG 081315Z AUTO 22006KT 10SM BKN095 26/22 A3008 RMK AO1=
KAUO 081315Z AUTO 32004KT 10SM CLR 29/22 A3005 RMK AO1=
KAWO 081315Z AUTO 00000KT 7SM CLR 13/13 A2998 RMK AO1=
KBDN 081315Z AUTO 20005KT 10SM CLR 12/03 A3012 RMK AO2=
KBKX 081315Z AUTO 00000KT 10SM CLR 19/15 A3018 RMK AO1=
KBVX 081315Z AUTO 00000KT 10SM BKN100 26/23 A3009 RMK AO1=
KCGC 081315Z AUTO 00000KT 10SM CLR 26/22 A3002 RMK=
KCIU 081315Z AUTO 33005KT 10SM BKN010 OVC014 21/18 A2999 RMK
     AO1=
KCOE 081315Z AUTO 07009KT 10SM CLR 14/09 A3010 RMK AO1=
KCVN 081315Z AUTO 03014KT 10SM BKN008 BKN014 17/15 A3025 RMK
     AO1=
KCVO 081315Z AUTO 28004KT 10SM CLR 12/09 A2995 RMK AO1=
KDVL 081315Z AUTO 31008KT 10SM CLR 17/12 A3010 RMK AO1=
KDYB 081315Z AUTO 33005KT 10SM CLR 27/22 A2997 RMK AO1=
KDYR 081315Z AUTO 24003KT 10SM CLR 28/22 A3009 RMK AO1=
KEHR 081315Z AUTO 24004KT 10SM CLR 29/22 A3007 RMK AO1=
KESC 081315Z AUTO 31007KT 10SM OVC006 20/17 A2999 RMK AO1=
KFLP 081315Z AUTO 00000KT 10SM SCT065 OVC080 24/22 A3008 RMK
     AO1=
KFRM 081315Z AUTO 10SM CLR 19/16 A3017 RMK AO1=
KGAD 081315Z AUTO 35005KT 10SM CLR 26/20 A3007 RMK AO1=
KGAI 081315Z 00000KT 5SM CLR 28/23 A3006 RMK AO1=
KGPZ 081315Z AUTO 29007KT 10SM CLR 19/15 A3007 RMK AO1=
KHEF 081315Z AUTO 07004KT 6SM CLR 29/23 A3003 RMK AO1=
KHEZ 081315Z AUTO 00000KT 10SM CLR 25/24 A3007 RMK AO1=
KHNB 081315Z AUTO 22003KT 10SM CLR 28/23 A3007 RMK AO1=
KIWD 081315Z AUTO 33006KT 10SM FEW060 19/16 A3003 RMK AO1=
KKLS 081315Z AUTO 31003KT 10SM CLR 14/12 A2995 RMK AO1=
KLGD 081315Z AUTO 00000KT 10SM CLR 11/06 A3008 RMK AO1=
KLKV 081315Z AUTO 32005KT 10SM CLR 12/01 A3013 RMK AO1=
####018000113####
SPEQ00 SEQU 081310
SPECI
SEGU 081310Z  20005KT 9999N 4000S -DZ BKN040 OVC100  23/19
Q1012 TEMPO 3000 NOSIG=
####018000078####
SAAF05 LFPW 081300 RRC
METAR DNMA 081300Z 04009KT 9999 SCT012 30/23 Q1012=
####018000129####
SAAF32 KWBC 081300 RRC
METAR
FOOG 081300Z /////KT 9999 SCT010 27/22 Q1014=
FOON 081300Z 32009KT 8000 SCT025 29/22 Q1014=
####018000084####
SPAG31 KWBC 081316
SPECI
SARI 081310Z 20005KT 8000 FEW003 SCT100 17/17 Q1020=
####018000118####
SPCA35 KWBC 081316
SPECI
MRPV 081310Z 00000KT 9999 4000W BR BKN120 20/19 A3001 RMK FG BKN
SW W TEMPO 24007KT=
####018000088####
SABZ31 KWBC 081300 RRA
METAR
SBTT 081300Z 00000KT 9999 FEW010 SCT080 28/25 Q1013=
####018000166####
SAAG31 KWBC 081300 RRB
METAR
SAZS 081300Z 29012KT 6000 DZ SCT009 SCT025 04/02 Q1007
     R29210094=
SAZS 081300Z 29012KT 6000 DZ SCT009 SCT025 04/02 Q1007=
####018000208####
SAAF13 LFPW 081300 RRB
METAR GOGG 081300Z 00000KT 9999 BKN016 TCU 34/26 Q1014=
METAR GOSS 081300Z 26006KT 9999 SCT013 BKN230 33/25 Q1012=
METAR GOTT 081300Z 22006KT 170V320 9999 BKN013 TCU 32/26 Q1013=
####018000094####
SAET20 HAAB 081300
METAR HAAB 081300Z 19012KT 9000 TS FEW010 FEW020CB BKN020 19/11
Q1022=
####018000364####
SPUS80 KWBC 081316
SPECI
KNUI 081313Z AUTO 10007KT 8SM BKN015 BKN021 27/23 A3001 RMK
     AO2=
KBDL 081313Z 17004KT 4SM HZ FEW008 BKN014 OVC019 26/22 A3007 RMK
     AO2=
KEMP 081313Z AUTO 01007KT 10SM BKN031 OVC035 22/19 A3011 RMK
     AO2=
KSAT 081314Z 05007KT 6SM -RA BR BKN009 BKN013 OVC020 26/24 A2996
     RMK AO2 RAB09 CIG 008V013 P0000=
####018002042####
SAUS70 KWBC 081316 RRA
METAR
KMBL 081315Z AUTO 29007KT 4SM OVC004 21/19 A3003 RMK AO1=
KMKT 081315Z 31005KT 10SM CLR 19/16 A3013 RMK AO1=
KMLE 081310Z AUTO 33005KT 10SM BKN023 20/17 A3016 RMK AO2
     T02040171=
KMMH 081310Z AUTO 00000KT 10SM CLR 06/01 A3023 RMK AO1=
KMML 081315Z AUTO 28008KT 10SM CLR 20/15 A3015 RMK AO1=
KMNM 081315Z AUTO 34005KT 10SM OVC013 22/19 A3000 RMK AO1=
KMRF 081315Z AUTO 34005KT 10SM CLR 18/16 A3020 RMK AO1=
KMTW 081315Z 24004KT 7SM OVC008 23/21 A3000 RMK AO1=
KMVN 081315Z AUTO 23007KT 10SM SCT075 28/23 A3006 RMK AO1=
KOGA 081310Z AUTO 00000KT 10SM SCT085 OVC110 16/15 A3030 RMK AO2
     T01630150=
KONL 081310Z AUTO 00000KT 10SM CLR 19/16 A3023 RMK AO2
     T01850164=
KOTG 081315Z AUTO 30006KT 10SM CLR 19/16 A3018 RMK AO1=
KOTH 081315Z 26003KT 10SM BKN005 09/08 A3000 RMK AO1=
KPIB 081315Z AUTO 36005KT 10SM CLR 28/22 A3007 RMK AO1=
KPNA 081310Z AUTO 30007KT 10SM SCT100 07/02 A3041 RMK AO2
     T00660015=
KPTN 081315Z AUTO 08008KT 10SM FEW008 27/M07 A3004 RMK AO1=
KPTT 081310Z AUTO 36010KT 3/4SM BR OVC006 20/19 A3016 RMK AO2=
KPWT 081315Z AUTO 03007KT 10SM CLR 22/07 A2999 RMK AO1=
KSGT 081315Z 20004KT 10SM CLR A3008 RMK AO1=
KSKX 081315Z AUTO 35007KT 10SM CLR 13/07 A3041 RMK AO1=
KSLG 081315Z AUTO 13003KT 10SM OVC015 23/21 A3009 RMK AO1=
KSPA 081315Z AUTO 02004KT 10SM CLR 29/23 A3003 RMK AO2=
KSPL 081315Z AUTO 34006KT VCTS 28/26 A2976 RMK AO2 LTG DSNT E
     PWINO PNO=
KSQI 081315Z 28004KT 10SM SCT006 OVC017 24/22 A3006 RMK AO1=
KSUE 081315Z AUTO 30006KT 5SM BKN004 OVC011 22/21 A3001 RMK
     AO1=
KSZT 081310Z AUTO 00000KT 10SM CLR 11/08 A3012 RMK AO2=
KTIF 081310Z AUTO 00000KT 10SM BKN120 17/15 A3028 RMK AO2
     T01700148=
KTRK 081310Z AUTO 00000KT 10SM CLR 08/06 A3017 RMK AO2=
KTVF 081315Z AUTO 26009KT 10SM CLR 18/13 A3006 RMK AO1=
KUTA 081315Z AUTO 00000KT 10SM CLR 27/22 A3009 RMK AO2=
KVBT 081315Z AUTO 17004KT 10SM OVC018 24/21 A3006 RMK AO1=
KYKN 081315Z AUTO 24004KT 10SM CLR 20/16 A3019 RMK AO1=
####018000089####
SABX31 KWBC 081220 RRE
METAR
EBFS 081225Z 24005KT 9999 FEW250 29/09 Q1020 BLU BLU=
####018000126####
SAXX60 KWBC 081300 RRK
METAR
PHNG 081257Z COR 11007KT 10SM SCT026 BKN040 24/21 A3002 RMK AO2
     SLP159 T02390206 $=
####018000090####
SAAG05 SABM 081300 RRB
METAR SAZS 081300Z  29012KT 6000 DZ SCT009 SCT025
04/02 Q1007=
####018000075####
SASD43 KWBC 081300 RRB
METAR
OEPA 081300Z 33010KT CAVOK 45/05 Q1003=
####018000083####
SASD44 KWBC 081300 RRB
METAR
OEWD 081300Z 06014KT 4000 BLDU SKC 45/11 Q1003=
####018002935####
SAUS20 KNKA 081315
METAR KAFJ 081315Z AUTO 00000KT 7SM SCT060 24/21 A3012 RMK AO1=
METAR KAIZ 081315Z AUTO 00000KT 10SM BKN013 BKN019 OVC075 23/21 
    A3009 RMK AO1=
SPECI KAKO 081314Z AUTO 14010KT 5SM BR OVC003 14/14 A3033 RMK AO2 
    TSNO=
METAR KBHB 081315Z AUTO 19010KT 2SM OVC002 18/17 A3014 RMK AO1=
METAR KBID 081315Z AUTO 07005KT 6SM OVC003 22/22 A3009 RMK AO1=
METAR KBLM 081315Z AUTO 13004KT 10SM FEW021 SCT060 OVC080 25/20 
    A3008 RMK AO1=
METAR KBTP 081315Z AUTO 00000KT 5SM CLR 25/20 A3011 RMK AO1=
METAR KCGZ 081315Z AUTO 00000KT 10SM CLR 27/01 A2983 RMK AO1=
METAR KCOD 081315Z 00000KT 10SM CLR 13/02 A3034 RMK AO1=
METAR KCWI 081315Z 34007KT 6SM OVC004 A3007 RMK AO1=
METAR KEAR 081315Z AUTO 36006KT 10SM CLR 17/14 A3025 RMK AO1=
METAR KEEN 081315Z AUTO 17006KT 140V200 10SM FEW016 FEW023 BKN046 
    26/22 A3009 RMK AO1=
METAR KENV 081315Z 20003KT 10SM CLR 17/01 A3012 RMK AO1=
METAR KEUL 081315Z AUTO 13003KT 10SM CLR 12/05 A3009 RMK AO1=
SPECI KEWB 081314Z 13006KT 10SM OVC010 24/21 A3010 RMK AO2 CIG 
    007V012=
METAR KEWK 081315Z AUTO 02009KT 10SM OVC006 21/19 A3009 RMK AO1=
METAR KFAM 081315Z AUTO 22003KT 10SM OVC090 24/22 A3011 RMK AO1=
METAR KFKL 081315Z 10005KT 10SM CLR 26/19 A3014 RMK AO1=
METAR KFNL 081315Z AUTO 01005KT 7SM BKN005 OVC016 15/14 A3033 RMK 
    AO1=
METAR KFOD 081315Z AUTO 01003KT 10SM CLR 19/17 A3015 RMK AO1=
SPECI KFRG 081314Z 15008KT 8SM SCT008 OVC015 25/23 A3006 RMK AO2=
METAR KGBD 081315Z AUTO 01009KT 10SM OVC008 19/18 A3018 RMK AO1=
METAR KGDV 081315Z AUTO 18003KT 10SM SCT090 15/09 A3019 RMK AO1=
METAR KGUC 081315Z AUTO 00000KT 10SM CLR 08/03 A3046 RMK AO1=
METAR KGXY 081315Z AUTO 07005KT 7SM SCT006 BKN010 OVC014 16/13 A3033 
    RMK AO1=
METAR KHDN 081315Z 09006KT 10SM BKN110 09/06 A3035 RMK AO1=
METAR KHYI 081315Z AUTO 06007KT 7SM BKN009 OVC017 25/24 A2997 RMK 
    AO1=
METAR KHYS 081315Z AUTO 01008KT 10SM OVC037 19/16 A3020 RMK AO1=
METAR KILE 081315Z 08007KT 9SM OVC006 24/23 A3000 RMK AO1=
METAR KJHW 081315Z AUTO 17004KT 10SM CLR 24/19 A3012 RMK AO1=
METAR KLBL 081315Z 35014G18KT 5SM OVC005 19/17 A3023 RMK AO1 P0001=
METAR KLCI 081315Z AUTO 25005KT 5SM BKN015 OVC025 25/21 A3008 RMK 
    AO1=
METAR KLEW 081315Z 16004KT 3SM OVC004 22/21 A3012 RMK AO1=
METAR KLPC 081315Z AUTO 34003KT 8SM OVC006 13/11 A2993 RMK AO1 PNO=
METAR KMJX 081315Z AUTO 11004KT BKN010 OVC060 25/22 A3005 RMK AO1=
METAR KMSV 081315Z AUTO 09003KT 10SM CLR 28/21 A3010 RMK AO1=
SPECI KMTH 081314Z AUTO 04005KT 10SM VCTS FEW026 SCT090 A2996 RMK 
    AO2 LTG DSNT NE TSB08UPB01E10 P0000 FZRANO $=
METAR KOCH 081315Z AUTO 10010KT 8SM FEW011 BKN110 26/19 A3004 RMK 
    AO1=
METAR KOKK 081315Z AUTO 19003KT 5SM FEW050 BKN060 OVC080 26/19 A3005 
    RMK AO1=
METAR KOLU 081315Z AUTO 35004KT 10SM CLR 19/16 A3020 RMK AO1=
METAR KPQI 081315Z AUTO 15010KT 10SM CLR 25/21 A2999 RMK AO1=
####018001031####
SAUS20 KNKA 081315
METAR KPRX 081315Z 16006KT 7SM FEW006 BKN010 OVC022 26/23 A3006 RMK 
    AO1=
METAR KPTV 081315Z AUTO 17004KT 10SM CLR 17/11 A2987 RMK AO1=
METAR KPVC 081315Z 19009G14KT 10SM CLR 25/21 A3011 RMK AO1=
METAR KPWG 081315Z AUTO 07006KT 7SM BKN013 OVC019 26/22 A3002 RMK 
    AO1=
METAR KRKD 081315Z AUTO 22006KT 7SM OVC003 20/18 A3013 RMK AO1=
METAR KRUT 081315Z AUTO 00000KT 7SM CLR 27/22 A3006 RMK AO1=
METAR KSDY 081315Z AUTO 00000KT 10SM CLR 15/10 A3018 RMK AO1=
METAR KSFM 081315Z 19004KT 5SM OVC010 24/19 A3011 RMK AO1=
METAR KSFZ 081315Z AUTO 14007KT 120V190 10SM BKN013 25/21 A3010 RMK 
    AO1=
METAR KSGU 081315Z AUTO 04005KT 10SM CLR 23/03 A3000 RMK AO1=
METAR KSMN 081315Z AUTO 00000KT 10SM CLR 08/03 A3028 RMK AO1=
METAR KTPL 081315Z 09007KT 6SM OVC007 24/23 A3001 RMK AO1 
     =
METAR KVIS 081315Z AUTO 30003KT 10SM CLR 17/11 A2984 RMK AO1=
METAR KWVL 081315Z AUTO 19005KT 5SM OVC004 22/20 A3007 RMK AO1=
METAR KWWD 081315Z AUTO 9SM OVC090 24/23 A3005 RMK AO1=
####018000116####
SASP31 KWBC 081300 CCA
METAR
LEAS 081300Z 05003KT 350V090 9999 FEW015 24/20 Q1016 TEMPO TSRA
     SCT025CB=
####018000095####
SAXX62 KWBC 081300 RRB
METAR
RKSM 081300Z 21003KT 9000 -RA BR BKN050 OVC100 22/21 A2983=
####018000264####
SAXX99 KWBC 081300 RRO
METAR
CWIK 081300Z AUTO 28003KT 13/11 RMK AO1 SLP204 T01300110 51013=
K4O4 081308Z AUTO 14006KT 25/23 A3008 RMK AO2=
MMTB 081300Z RTD 00000KT 4SM BCFG BKN018 OVC070 23/21 A2986 RMK
     8/62/ VIS RED 1SM BR 2 QUAD BCMIFG 3 QUAD=
####018000106####
SAUS46 KSGX 081315
MTRNRS
SPECI KNRS 081314Z AUTO 34004KT 10SM OVC014 17/13 A2991 RMK AO2 TSNO 
$
####018000085####
SAEW KAWN 081300 RRH
METAR EBFS 081255Z VRB02KT 9999 SCT250 29/11 Q1020 BLU BLU=
####018000690####
SAZZ40 KAWN 081300 RRQ
METAR DABT 081300Z 35016KT CAVOK 36/03 Q1022=
METAR DAUI 081300Z 08020KT 8000 DRSA NSC 45/07 Q1012=
METAR DBBB 081300Z 22011KT 9999 SCT012 BKN120 29/25 Q1012 NOSIG=
METAR DFFD 081300Z VRB02KT CAVOK 30/21 Q1015 NOSIG=
METAR FKKD 081300Z VRB04KT 9999 BKN016 FEW020CB BKN120 28/25 Q1013
      TEMPO 4000 TSRA BKN013 SCT016CB BKN100=
METAR FKYS 081300Z 25003KT 210V280 9999 BKN016 26/20 Q1016 NOSIG=
METAR NGFU 081300Z 09008KT 50KM SCT020TCU 28/24 Q1009=
METAR NSFA 081300Z 00000KT 50KM FEW024 25/23 Q1012=
METAR OEPA 081300Z 33010KT CAVOK 45/05 Q1003=
METAR OETR 081300Z 20004KT CAVOK 40/05 Q1010=
METAR OEWJ 081300Z 30018KT CAVOK 33/24 Q1003=
####018001119####
SPZZ40 KAWN 081316 RRB
SPECI KFRI 081311Z AUTO 35006KT 8SM OVC007 22/21 A3013 RMK AO2 CIG
      007V010 SLP191=
SPECI KHLR 081310Z AUTO 09004KT 10SM BKN009 BKN012 OVC037 26/ A3001
      RMK AO2 RAE04 P0000 T0256 $=
SPECI KSAN 081310Z 32005KT 9SM OVC013 16/14 A2992 RMK AO2=
SPECI KXMR 081311Z AUTO 04004KT 10SM CLR 28/21 A3000 RMK AO2 DZB1301E1311
      SLP160=
SPECI MRPV 081310Z 00000KT 9999 4000W BR BKN120 20/19 A3001 RMK FG
      BKN SW W TEMPO 24007KT=
PACZ SP 1315 AWOS MM 10 49/47/0310/003=
PAEH SP 1315 AWOS M60 BKN 10 49/-19/0000/997=
PAIM SP 1315 AWOS CLR BLO 120 10 51/44/2903/007=
PATL SP 1315 AWOS CLR BLO 120 10 54/44/0000/999=
SPECI PHHI 081312Z AUTO 00000KT 10SM FEW023 BKN030 BKN037 20/18 A3002
      RMK AO2 RAB1259E1309DZE1312 SLP156=
SPECI RKSO 081310Z AUTO 00000KT 9999 -DZ CLR 23/23 A2981 RMK AO2 RAB1254E1304DZE1254B1310
      SLP096 $=
SPECI SARI 081310Z 20005KT 8000 FEW003 SCT100 17/17 Q1020=
SPECI SBPA 081310Z 17004KT 6000 SCT010 BKN015 BKN030 15/13 Q1021=
SPECI SEGU 081310Z 20005KT 9999N 4000S BKN040 OVC100 23/19 Q1012 TEMPO
      3000 NOSIG=
####018000854####
SAAM31 FCBB 081300
METAR FCBB 081300Z 21008KT 270V160 7000 FEW023 27/20 Q1013 NOSIG=
METAR FCPP 081300Z 18008KT 7000 FEW013 OVC033 24/21 Q1012 NOSIG=
METAR FEFF 081300Z 18002KT 9999 FEW026 FEW040CB BKN300 31/22 Q1013
      NOSIG=
METAR FGSL 081300Z 29005KT 270V330 7000 -TSRA BKN013 FEW020CB BKN130
      25/25 Q1013 NOSIG=
METAR FKKD 081300Z VRB04KT 9999 BKN016 FEW020CB BKN120 28/25 Q1013
      TEMPO 4000 TSRA BKN013 SCT016CB BKN100=
METAR FKYS 081300Z 25003KT 210V280 9999 BKN016 26/20 Q1016 NOSIG=
METAR FNLU 081300Z 27011KT CAVOK 24/19 Q1011 NOSIG=
METAR FOOG 081300Z /////KT 9999 SCT010 27/22 Q1014=
METAR FOOL 081300Z 23006KT 190V260 9000 SCT011 BKN030 27/23 Q1013
      NOSIG=
METAR FOON 081300Z 32009KT 8000 SCT025 29/22 Q1014=
METAR FPST 081300Z NIL=
METAR FZAA 081300Z 27008KT 4000 BR SKC 27/19 Q1012 NOSIG=
####018000116####
SPEQ00 SEQU 081310
SPECI
SEGU 081310Z  20005KT 9999N 4000S -DZ BKN040 OVC100  23/19
Q1012 TEMPO 3000 NOSIG=
####018000087####
SAUS46 KLOX 081316
MTRMWS
METAR KMWS 081300Z 12504G06KT 20/M03 RMK SNOW DEPTH  M
####018000080####
SPCN51 CWAO 081315
SPECI CZCP 081315Z AUTO 28020KT 9SM OVC005 03/ A2986=

####018001972####
SAUS20 KNKA 081316
METAR K0A9 081315Z AUTO 00000KT 10SM CLR 25/18 A3013 RMK=
METAR K20V 081312Z AUTO 00000KT 10SM CLR 08/05 A3044 RMK AO2=
METAR K4BM 081311Z AUTO 21007KT M1/4SM FG 04/03 A3062 RMK AO2=
METAR K5SM 081313Z AUTO 00000KT 10SM CLR 10/02 A3058 RMK AO2=
METAR K7BM 081316Z AUTO 00000KT 7SM CLR 09/06 A3054 RMK AO2=
METAR KAEG 081315Z AUTO 00000KT 10SM CLR 16/08 A3031 RMK AO1  =
METAR KBBP 081315Z AUTO 33004KT 10SM CLR 29/19 A2997 RMK AO2=
METAR KBDU 081317Z AUTO 00000KT 10SM SCT018 BKN034 16/12 A3033 RMK
     AO2=
METAR KBKN 081315Z AUTO 01007KT 10SM FEW008 SCT013 BKN027 23/22 
     A3007 RMK AO2 =
SPECI KBOK 081316Z AUTO 00000KT 1SM BR OVC002 09/09 A2998 RMK AO2 $=
METAR KCCU 081316Z AUTO 18013KT 10SM CLR 08/00 A3064 RMK AO2=
METAR KCIC 081315Z AUTO 14007KT 10SM CLR 19/12 A2985 RMK AO1 =
METAR KGGE 081315Z AUTO 31008KT 10SM SCT100 27/21 A2994 RMK AO2=
SPECI KHRL 081315Z 35009KT 10SM FEW012 SCT020 BKN029 27/26 A2978 RMK 
    AO2=
METAR KLUX 081315Z AUTO 35003KT 10SM CLR 28/25 A3004 RMK AO2=
METAR KMAO 081315Z AUTO 02006KT 10SM CLR 28/20 A2995 RMK AO2=
METAR KMER 081315Z AUTO 32007KT 10SM CLR 16/12 A2984 RMK AO1 =
METAR KMNI 081315Z AUTO 32006KT 10SM CLR 30/23 A2997 RMK AO2=
METAR KMYP 081216Z AUTO 20012KT 10SM CLR 03/02 A3074 RMK AO2=
SPECI KPQL 081315Z 35004KT 10SM FEW005 SCT012 SCT047 27/26 A3005 RMK 
    AO2=
METAR KRCE 081315Z AUTO 36004KT 4SM BR OVC003 22/22 A3009 RMK AO2 
     =
SPECI KSFO 081315Z 27009KT 10SM OVC008 13/11 A2994 RMK AO2=
METAR KSMS 081315Z AUTO 31006KT 10SM CLR 28/21 A2999 RMK AO2 =
SPECI KUIN 081315Z AUTO 32003KT 10SM FEW006 BKN010 BKN110 23/22 
    A3007 RMK AO2=
SPECI KVAY 081315Z AUTO 15004KT 7SM SCT010 OVC110 27/23 A3004 RMK 
    AO2=
METAR KVTP 081320Z AUTO 25006KT 10SM CLR 08/03 A3055 RMK AO2=
METAR KWYS 081310Z AUTO 00000KT 10SM CLR 03/00 A3039 RMK AO2=
METAR KX40 081315Z AUTO 00000KT 10SM CLR 27/23 A3003 RMK AO2 
     T02740228=
####018000096####
SANO33 ENMI 081250 CCA
METAR COR ENKB 081250Z 27015G25KT 9999 FEW045TCU SCT077 18/09 Q1010=
####018000104####
SPCN46 CWAO 081314
SPECI CYPL 081314Z 29009KT 12SM -TSRA BKN040CB BKN100 BKN270 RMK
CB5AC2CI0=

####018003720####
SAUS99 KWBC 081317
METAR
KPRX 081315Z 16006KT 7SM FEW006 BKN010 OVC022 26/23 A3006 RMK
     AO1=
KPTV 081315Z AUTO 17004KT 10SM CLR 17/11 A2987 RMK AO1=
KPVC 081315Z 19009G14KT 10SM CLR 25/21 A3011 RMK AO1=
KPWG 081315Z AUTO 07006KT 7SM BKN013 OVC019 26/22 A3002 RMK
     AO1=
KRKD 081315Z AUTO 22006KT 7SM OVC003 20/18 A3013 RMK AO1=
KRUT 081315Z AUTO 00000KT 7SM CLR 27/22 A3006 RMK AO1=
KSDY 081315Z AUTO 00000KT 10SM CLR 15/10 A3018 RMK AO1=
KSFM 081315Z 19004KT 5SM OVC010 24/19 A3011 RMK AO1=
KSFZ 081315Z AUTO 14007KT 120V190 10SM BKN013 25/21 A3010 RMK
     AO1=
KSGU 081315Z AUTO 04005KT 10SM CLR 23/03 A3000 RMK AO1=
KSMN 081315Z AUTO 00000KT 10SM CLR 08/03 A3028 RMK AO1=
KTPL 081315Z 09007KT 6SM OVC007 24/23 A3001 RMK AO1=
KVIS 081315Z AUTO 30003KT 10SM CLR 17/11 A2984 RMK AO1=
KWVL 081315Z AUTO 19005KT 5SM OVC004 22/20 A3007 RMK AO1=
KWWD 081315Z AUTO 9SM OVC090 24/23 A3005 RMK AO1=
KAFJ 081315Z AUTO 00000KT 7SM SCT060 24/21 A3012 RMK AO1=
KAIZ 081315Z AUTO 00000KT 10SM BKN013 BKN019 OVC075 23/21 A3009
     RMK AO1=
KBHB 081315Z AUTO 19010KT 2SM OVC002 18/17 A3014 RMK AO1=
KBID 081315Z AUTO 07005KT 6SM OVC003 22/22 A3009 RMK AO1=
KBLM 081315Z AUTO 13004KT 10SM FEW021 SCT060 OVC080 25/20 A3008
     RMK AO1=
KBTP 081315Z AUTO 00000KT 5SM CLR 25/20 A3011 RMK AO1=
KCGZ 081315Z AUTO 00000KT 10SM CLR 27/01 A2983 RMK AO1=
KCOD 081315Z 00000KT 10SM CLR 13/02 A3034 RMK AO1=
KCWI 081315Z 34007KT 6SM OVC004 A3007 RMK AO1=
KEAR 081315Z AUTO 36006KT 10SM CLR 17/14 A3025 RMK AO1=
KEEN 081315Z AUTO 17006KT 140V200 10SM FEW016 FEW023 BKN046 26/22
     A3009 RMK AO1=
KENV 081315Z 20003KT 10SM CLR 17/01 A3012 RMK AO1=
KEUL 081315Z AUTO 13003KT 10SM CLR 12/05 A3009 RMK AO1=
KEWK 081315Z AUTO 02009KT 10SM OVC006 21/19 A3009 RMK AO1=
KFAM 081315Z AUTO 22003KT 10SM OVC090 24/22 A3011 RMK AO1=
KFKL 081315Z 10005KT 10SM CLR 26/19 A3014 RMK AO1=
KFNL 081315Z AUTO 01005KT 7SM BKN005 OVC016 15/14 A3033 RMK
     AO1=
KFOD 081315Z AUTO 01003KT 10SM CLR 19/17 A3015 RMK AO1=
KGBD 081315Z AUTO 01009KT 10SM OVC008 19/18 A3018 RMK AO1=
KGDV 081315Z AUTO 18003KT 10SM SCT090 15/09 A3019 RMK AO1=
KGUC 081315Z AUTO 00000KT 10SM CLR 08/03 A3046 RMK AO1=
KGXY 081315Z AUTO 07005KT 7SM SCT006 BKN010 OVC014 16/13 A3033 RMK
     AO1=
KHDN 081315Z 09006KT 10SM BKN110 09/06 A3035 RMK AO1=
KHYI 081315Z AUTO 06007KT 7SM BKN009 OVC017 25/24 A2997 RMK
     AO1=
KHYS 081315Z AUTO 01008KT 10SM OVC037 19/16 A3020 RMK AO1=
KILE 081315Z 08007KT 9SM OVC006 24/23 A3000 RMK AO1=
KJHW 081315Z AUTO 17004KT 10SM CLR 24/19 A3012 RMK AO1=
KLBL 081315Z 35014G18KT 5SM OVC005 19/17 A3023 RMK AO1 P0001=
KLCI 081315Z AUTO 25005KT 5SM BKN015 OVC025 25/21 A3008 RMK
     AO1=
KLEW 081315Z 16004KT 3SM OVC004 22/21 A3012 RMK AO1=
KLPC 081315Z AUTO 34003KT 8SM OVC006 13/11 A2993 RMK AO1 PNO=
KMJX 081315Z AUTO 11004KT BKN010 OVC060 25/22 A3005 RMK AO1=
KMSV 081315Z AUTO 09003KT 10SM CLR 28/21 A3010 RMK AO1=
KOCH 081315Z AUTO 10010KT 8SM FEW011 BKN110 26/19 A3004 RMK
     AO1=
KOKK 081315Z AUTO 19003KT 5SM FEW050 BKN060 OVC080 26/19 A3005 RMK
     AO1=
KOLU 081315Z AUTO 35004KT 10SM CLR 19/16 A3020 RMK AO1=
KPQI 081315Z AUTO 15010KT 10SM CLR 25/21 A2999 RMK AO1=
KPQN 081313Z AUTO 32007KT 10SM CLR 19/14 A3018 RMK AO2=
KFGN 081314Z AUTO 28008KT 1 1/4SM HZ OVC070 17/14 A2999 RMK
     AO2=
KPNM 081313Z AUTO 24004KT 10SM CLR 20/16 A3011 RMK AO2=
KPWC 081313Z AUTO 27003KT 10SM CLR 18/15 A3009 RMK AO2=
KFFM 081313Z AUTO 28003KT 10SM CLR 18/16 A3008 RMK AO2=
KGDB 081313Z AUTO 24004KT 10SM CLR 19/16 A3015 RMK AO2
     T01910164=
KAIT 081313Z AUTO 00000KT 10SM CLR 19/18 A3007 RMK AO2=
####018003711####
SAUS99 KWBC 081317 RRA
METAR
KGHW 081313Z AUTO 27007KT 10SM CLR 19/14 A3014 RMK AO2=
KMWM 081313Z AUTO 28006KT 10SM CLR 19/16 A3016 RMK AO2=
KULM 081315Z AUTO 30006KT 10SM CLR 18/15 A3014 RMK AO2=
KBBB 081313Z AUTO 28003KT 10SM CLR 18/17 A3012 RMK AO2=
KTWM 081313Z AUTO 00000KT 10SM CLR 21/15 A3003 RMK AO2=
KMGG 081315Z AUTO 27005KT 10SM CLR 20/17 A3013 RMK AO2
     T02030166=
KMOX 081310Z AUTO 27005KT 10SM CLR 21/17 A3008 RMK AO2=
KTEW 081312Z AUTO 00000KT 10SM CLR 25/21 A3005 RMK AO2=
KCVH 081310Z AUTO 00000KT 9SM OVC006 13/11 A2993 RMK AO1=
KFSO 081318Z AUTO 00000KT 7SM OVC060 27/23 A3002 RMK AO2=
KFBL 081314Z AUTO 31005KT 10SM CLR 19/16 A3013 RMK AO2=
KLYV 081318Z AUTO 00000KT 10SM CLR 17/15 A3018 RMK AO2=
KEFK 081316Z AUTO 21006KT 7SM CLR 27/21 A3006 RMK AO2=
KRRT 081314Z AUTO 26008KT 10SM CLR 16/13 A3003 RMK AO2=
KTOB 081315Z AUTO 00000KT 10SM CLR 19/17 A3013 RMK AO2=
KLXL 081314Z AUTO 28004KT 10SM CLR 19/15 A3008 RMK AO2=
KEVM 081312Z AUTO 24004KT 10SM CLR 18/15 A3003 RMK AO1=
KELO 081313Z AUTO 25005KT 10SM CLR 19/15 A3003 RMK AO2=
KROX 081314Z AUTO 27007KT 10SM CLR 18/15 A3003 RMK AO2=
KSYN 081330Z AUTO 31007KT 10SM CLR 21/17 A3011 RMK AO2
     T02050172=
KVVV 081316Z AUTO 24004KT 10SM CLR 19/16 A3012 RMK AO2=
KROS 081315Z AUTO 28005KT 10SM CLR 20/16 A3010 RMK AO2
     T01970158=
KHCD 081312Z AUTO 26006KT 10SM CLR 20/17 A3013 RMK AO2
     T01950166=
KSGS 081313Z AUTO 30004KT 10SM CLR 21/16 A3011 RMK AO2
     T02110163=
KMJQ 081312Z AUTO 32004KT 10SM CLR 18/15 A3017 RMK AO2=
KHCO 081314Z AUTO 30009KT 10SM CLR 18/16 A3009 RMK AO2=
KLVN 081308Z AUTO 29005KT 10SM CLR 19/17 A3012 RMK AO2=
KPEX 081313Z AUTO 26008KT 10SM CLR 19/17 A3012 RMK AO2
     T01920166=
KJMR 081318Z AUTO 30003KT 10SM CLR 20/15 A3011 RMK AO2=
KJKJ 081314Z AUTO 26004KT 10SM CLR 18/16 A3008 RMK AO2=
KMVE 081314Z AUTO 30005KT 10SM CLR 19/17 A3011 RMK AO2=
KTKC 081313Z AUTO 28004KT 10SM CLR 20/15 A3016 RMK AO2
     T01960149=
KGYL 081315Z AUTO 28005KT 10SM CLR 19/16 A3012 RMK AO2
     T01940161=
KDXX 081314Z AUTO 00000KT 10SM CLR 19/18 A3012 RMK AO2=
KHZX 081311Z AUTO 26005KT 10SM CLR 19/16 A3008 RMK AO2=
KSAZ 081314Z AUTO 27006KT 10SM CLR 19/19 A3009 RMK AO2=
KONA 081311Z AUTO 33008KT 10SM CLR 21/17 A3008 RMK AO2=
KOVL 081314Z AUTO 29006KT 10SM CLR 18/14 A3013 RMK AO2
     T01810142=
KLJF 081312Z AUTO 30007KT 10SM CLR 21/17 A3013 RMK AO2=
KAEL 081311Z AUTO 33006KT 10SM CLR 19/17 A3013 RMK AO2=
K29G 081314Z AUTO 00000KT 10SM CLR 27/18 A3010 RMK AO2 T02670184
     PWINO=
KMRT 081313Z AUTO 26004KT 10SM CLR 27/20 A3012 RMK AO2
     T02730199=
KIKW 081314Z AUTO 25003KT 10SM OVC080 24/21 A3002 RMK AO2
     T02370214=
KMDS 081305Z AUTO 27005KT 10SM CLR 19/16 A3018 RMK AO2=
K0A9 081315Z AUTO 00000KT 10SM CLR 25/18 A3013 RMK=
K20V 081312Z AUTO 00000KT 10SM CLR 08/05 A3044 RMK AO2=
K4BM 081311Z AUTO 21007KT M1/4SM FG 04/03 A3062 RMK AO2=
K5SM 081313Z AUTO 00000KT 10SM CLR 10/02 A3058 RMK AO2=
K7BM 081316Z AUTO 00000KT 7SM CLR 09/06 A3054 RMK AO2=
KAEG 081315Z AUTO 00000KT 10SM CLR 16/08 A3031 RMK AO1=
KBBP 081315Z AUTO 33004KT 10SM CLR 29/19 A2997 RMK AO2=
KBDU 081317Z AUTO 00000KT 10SM SCT018 BKN034 16/12 A3033 RMK
     AO2=
KBKN 081315Z AUTO 01007KT 10SM FEW008 SCT013 BKN027 23/22 A3007
     RMK AO2=
KCCU 081316Z AUTO 18013KT 10SM CLR 08/00 A3064 RMK AO2=
KCIC 081315Z AUTO 14007KT 10SM CLR 19/12 A2985 RMK AO1=
KGGE 081315Z AUTO 31008KT 10SM SCT100 27/21 A2994 RMK AO2=
KLUX 081315Z AUTO 35003KT 10SM CLR 28/25 A3004 RMK AO2=
KMAO 081315Z AUTO 02006KT 10SM CLR 28/20 A2995 RMK AO2=
KMER 081315Z AUTO 32007KT 10SM CLR 16/12 A2984 RMK AO1=
####018000461####
SAUS99 KWBC 081317 RRB
METAR
KMNI 081315Z AUTO 32006KT 10SM CLR 30/23 A2997 RMK AO2=
KMYP 081216Z AUTO 20012KT 10SM CLR 03/02 A3074 RMK AO2=
KRCE 081315Z AUTO 36004KT 4SM BR OVC003 22/22 A3009 RMK AO2=
KSMS 081315Z AUTO 31006KT 10SM CLR 28/21 A2999 RMK AO2=
KVTP 081320Z AUTO 25006KT 10SM CLR 08/03 A3055 RMK AO2=
KWYS 081310Z AUTO 00000KT 10SM CLR 03/00 A3039 RMK AO2=
KX40 081315Z AUTO 00000KT 10SM CLR 27/23 A3003 RMK AO2
     T02740228=
####018000787####
SPUS99 KWBC 081317
SPECI
KAKO 081314Z AUTO 14010KT 5SM BR OVC003 14/14 A3033 RMK AO2
     TSNO=
KEWB 081314Z 13006KT 10SM OVC010 24/21 A3010 RMK AO2 CIG
     007V012=
KFRG 081314Z 15008KT 8SM SCT008 OVC015 25/23 A3006 RMK AO2=
KMTH 081314Z AUTO 04005KT 10SM VCTS FEW026 SCT090 A2996 RMK AO2
     LTG DSNT NE TSB08UPB01E10 P0000 FZRANO $=
KBOK 081316Z AUTO 00000KT 1SM BR OVC002 09/09 A2998 RMK AO2 $=
KHRL 081315Z 35009KT 10SM FEW012 SCT020 BKN029 27/26 A2978 RMK
     AO2=
KPQL 081315Z 35004KT 10SM FEW005 SCT012 SCT047 27/26 A3005 RMK
     AO2=
KSFO 081315Z 27009KT 10SM OVC008 13/11 A2994 RMK AO2=
KUIN 081315Z AUTO 32003KT 10SM FEW006 BKN010 BKN110 23/22 A3007
     RMK AO2=
KVAY 081315Z AUTO 15004KT 7SM SCT010 OVC110 27/23 A3004 RMK
     AO2=
####018000838####
SAAM31 FCBB 081300
METAR FCBB 081300Z 21008KT 270V160 7000 FEW023 27/20 Q1013 NOSIG=
METAR FCPP 081300Z 18008KT 7000 FEW013 OVC033 24/21 Q1012 NOSIG=
METAR FEFF 081300Z 18002KT 9999 FEW026 FEW040CB BKN300 31/22 Q1013
      NOSIG=
METAR FGSL 081300Z 29005KT 270V330 7000 -TSRA BKN013 FEW020CB BKN130
      25/25 Q1013 NOSIG=
METAR FKKD 081300Z VRB04KT 9999 BKN016 FEW020CB BKN120 28/25 Q1013
      TEMPO 4000 TSRA BKN013 SCT016CB BKN100=
METAR FKYS 081300Z 25003KT 210V280 9999 BKN016 26/20 Q1016 NOSIG=
METAR FNLU 081300Z 27011KT CAVOK 24/19 Q1011 NOSIG=
METAR FOOG 081300Z /////KT 9999 SCT010 27/22 Q1014=
METAR FOOL 081300Z 23006KT 190V260 9000 SCT011 BKN030 27/23 Q1013
      NOSIG=
METAR FOON 081300Z 32009KT 8000 SCT025 29/22 Q1014=
METAR FPST 081300Z NIL=
METAR FZAA 081300Z 27008KT 4000 BR SKC 27/19 Q1012 NOSIG=
####018000095####
SANO33 ENMI 081250 CCA
METAR COR ENKB 081250Z 27015G25KT 9999 FEW045TCU SCT077 18/09 Q1010=
####018000071####
SPAK32 KWBC 081317
SPECI
PACZ SP 1315 AWOS MM 10 49/47/0310/003=
####018000077####
SPAK32 KWBC 081317
SPECI
PAEH SP 1315 AWOS M60 BKN 10 49/-19/0000/997=
####018000080####
SPAK32 KWBC 081317
SPECI
PAIM SP 1315 AWOS CLR BLO 120 10 51/44/2903/007=
####018000080####
SPAK32 KWBC 081317
SPECI
PATL SP 1315 AWOS CLR BLO 120 10 54/44/0000/999=
####018000103####
SPCN31 KWBC 081317
SPECI
CYPL 081314Z 29009KT 12SM -TSRA BKN040CB BKN100 BKN270 RMK
CB5AC2CI0=
####018000114####
SPSA31 KWBC 081317
SPECI
SEGU 081310Z 20005KT 9999N 4000S -DZ BKN040 OVC100 23/19 Q1012
TEMPO 3000 NOSIG=
####018000127####
SPXX62 KWBC 081317
SPECI
RKSO 081310Z AUTO 00000KT 9999 -DZ CLR 23/23 A2981 RMK AO2
RAB1254E1304DZE1254B1310 SLP096 $=
####018000133####
SPXX62 KWBC 081317
SPECI
PHHI 081312Z AUTO 00000KT 10SM FEW023 BKN030 BKN037 20/18 A3002
RMK AO2 RAB1259E1309DZE1312 SLP156=
####018000093####
SPUS41 KWBC 081317
SPECI
KBDL 081313Z 17004KT 4SM HZ FEW008 BKN014 OVC019 26/22 A3007=
####018000091####
SPUS42 KWBC 081317
SPECI
KBRO 081313Z 33009KT 10SM BKN005 BKN028 BKN050 26/25 A2978=
####018000097####
SPUS42 KWBC 081317
SPECI
KSAT 081314Z 05007KT 6SM -RA BR BKN009 BKN013 OVC020 26/24 A2996=
####018000075####
SACN50 CWAO 081315
VOB SA 1315 AUTO8 M M M M/15/07/2201/M/M M 24MM=

####018000075####
SACN95 CWAO 081315
WWA SA 1315 AUTO8 M M M M/20/10/0302/M/M M 52MM=

####018000077####
SACN59 CWAO 081200 RRK
PBH SA 1200 AUTO8 M M M M/07/M/MMMM/M/ M 3MMM=

####018000083####
SACN87 CWAO 081300 RRA
WJD SA 1300 AUTO8 M M M 142/17/12/3006/M/ 2003 30MM=

####018000446####
SACN96 CWAO 081300 RRB
WYE SA 1300 AUTO8 M M M 182/14/10/2203/M/ 3004 74MM=
WZE SA 1300 AUTO8 M M M M/13/11/2704/M/ M 18MM=
WZQ SA 1300 AUTO8 M M M 187/25/16/2012+17/M/M PK WND 2017 1259Z
0002 11MM=
WZT SA 1300 AUTO8 M M M M/14/M/MMMM/M/ M 0MMM=
XKA SA 1300 AUTO8 M M M 119/17/16/3301/M/0025 PCPN 2.5MM PAST HR
0000 82MM=
XKE SA 1300 AUTO8 M M M 157/29/21/3201/M/ 0000 00MM=
ZUG SA 1300 AUTO8 M M M M/16/11/2907/M/ M 90MM=

####018000249####
SACN78 CWAO 081300 RRB
TBO SA 1300 AUTO8 M M M 160/27/23/1903/M/ 1002 08MM=
TNK SA 1300 AUTO8 M M M 164/27/22/1901/M/ 8007 65MM=
WAJ SA 1300 AUTO8 M M M 163/26/22/MMMM/M/M 8001 01MM=
XRG SA 1300 AUTO8 M M M 172/29/22/2105/M/ 0000 90MM=

####018000301####
SACN94 CWAO 081300 RRB
WQL SA 1300 AUTO8 M M M 194/13/10/2304/M/ 8001 82MM=
WRA SA 1300 AUTO8 M 9.+ M 246/10/09/1005/M/ 3002 65MM=
WRD SA 1300 AUTO8 M M M 166/15/12/1702/M/M 8009 87MM=
WST SA 1300 AUTO8 M M M M/19/17/0203/M/ M 29MM=
WSU SA 1300 AUTO8 M M M 164/16/13/2708/M/ 3006 79MM=

####018000463####
SACN92 CWAO 081300 RRB
WJI SA 1300 AUTO8 M M M 216/12/11/2803/M/ 1010 47MM=
WJT SA 1300 AUTO8 M M M 158/27/20/2401/M/ 8001 51MM=
WKG SA 1300 AUTO8 M M M 224/21/21/2302/M/ 0007 46MM=
WLC SA 1300 AUTO8 M M M M/15/M/0000/M/M M 0MMM=
WLJ SA 1300 AUTO8 M M M 168/14/12/2406/M/ 8006 11MM=
WLV SA 1300 AUTO8 M M M 174/13/09/2001/M/ 6004 64MM=
WMI SA 1300 AUTO8 M M M 164/18/16/0602/M/ 3002 58MM=
WMQ SA 1300 AUTO8 M M M 220/13/11/2102/M/ 1005 75MM=

####018000075####
SACN50 CWAO 081315
VOF SA 1315 AUTO8 M M M M/13/06/3503/M/M M 84MM=

####018000218####
SACN63 CWAO 081300 RRB
NVQ SA 1300 AUTO8 M M M 158/12/11/2904/M/0006 PCPN 0.6MM PAST HR
3013 32MM=
ZEV SA 1300 AUTO8 M M M 187/07/04/3106/M/ 1005 67MM=
ZSM SA 1300 AUTO8 M M M 131/15/10/3003/M/ 1001 44MM=

####018000140####
SACN90 CWAO 081300 RRB
WFO SA 1300 AUTO8 M M M 143/16/09/2909/M/M 6002 00MM=
WGH SA 1300 AUTO8 M M M 161/27/24/2102/M/M 1004 05MM=

####018000478####
SACN93 CWAO 081300 RRB
WNH SA 1300 AUTO8 M M M 164/14/13/3404/M/ 0004 38MM=
WNK SA 1300 AUTO8 M M M M/16/12/3206/M/ M 90MM=
WNP SA 1300 AUTO8 M M M 201/13/11/0601/M/ 3013 97MM=
WOJ SA 1300 AUTO8 M M M 169/17/12/3313/M/ PK WND 3318 1204Z 2014
42MM=
WOK SA 1300 AUTO8 M M M 207/15/12/2405/M/ 3007 77MM=
WOW SA 1300 AUTO8 M M M M/27/22/1302/M/ M 11MM=
WPF SA 1300 AUTO8 M M M 145/15/12/0504/M/ 3004 76MM=
WPL SA 1300 AUTO8 M M M 115/18/14/2406/M/ 6005 85MM=

####018000213####
SACN89 CWAO 081300 RRB
WAY SA 1300 AUTO8 M M M 083/03/01/2106/M/ 0002 64MM=
WCF SA 1300 AUTO8 M M M 139/17/13/2912/M/ PK WND 2918 1258Z 2009
15MM=
WDK SA 1300 AUTO8 M M M 216/12/09/0000/M/ 7004 05MM=

####018000078####
SACN93 CWAO 081200 RRI
WOW SA 1200 AUTO8 M M M M/24/22/1602/M/ M 96MM=

####018000354####
SACN97 CWAO 081300 RRB
XDW SA 1300 AUTO8 M M M M/16/13/2906/M/ M 95MM=
XEC SA 1300 AUTO8  SCT M M M/15/13/MMMM/M/ SUNSH 8 M 92MM=
XEG SA 1300 AUTO8 M M M M/13/12/MMMM/M/ M 14MM=
XHI SA 1300 AUTO8 M M M 116/05/03/2503/M/ 8005 42MM=
XTL SA 1300 AUTO8 M M M 229/05/04/3601/M/ 3008 69MM=
XWN SA 1300 AUTO8 M M M 167/18/12/3104/M/ 3017 61MM=

####018000964####
SACN88 CWAO 081300 RRB
AAW SA 1300 AUTO8 M M M 211/21/19/2205/M/ 0008 69MM=
ABB SA 1300 AUTO7 M M M M/21/20/2208/M/M M 02MM=
ACP SA 1300 AUTO8 M M M 221/16/16/1803/M/ 2011 21MM=
ACQ SA 1300 AUTO8 M M M 165/24/20/2309/M/ 0000 27MM=
ADS SA 1300 AUTO8 M M M 228/13/11/1208/M/ 0002 61MM=
AJT SA 1300 AUTO8 M M M 181/17/16/0804/M/ 5000 48MM=
AMS SA 1300 AUTO8 M M M 201/22/16/2213+21/M/ PK WND 2221 1256Z 1004
04MM=
AQY SA 1300 AUTO8 M M M 194/26/19/2008/M/ 0000 90MM=
AWR SA 1300 AUTO8 M M M 186/21/17/1614/M/ PK WND 1622 1225Z 5002
77MM=
WAR SA 1300 AUTO8 M M M 242/13/11/2505/M/ 1004 77MM=
WDO SA 1300 AUTO8 M M M 195/14/12/1904/M/M 8010 28MM=
WHO SA 1300 AUTO8 M M M 105/12/10/1805/M/M 8014 41MM=
WSS SA 1300 AUTO8 M M M 194/24/19/1805/M/ 0007 07MM=
XKT SA 1300 AUTO8 M M M M/24/20/2207/M/ M 26MM=
XNP SA 1300 AUTO8 M M M 195/22/19/2109/M/ PK WND 2217 1242Z 3004
39MM=
ZDB SA 1300 AUTO8 M M M 203/22/19/2507/M/ 0002 06MM=

####018000245####
SACN91 CWAO 081300 RRB
WGW SA 1300 AUTO8 M M M 247/06/05/0000/M/M 3008 74MM=
WID SA 1300 AUTO8 M M M 144/13/12/2601/M/M 8004 05MM=
WIY SA 1300 AUTO8 M M M 162/26/22/1706/M/ 0002 27MM=
WIZ SA 1300 AUTO7 M M M M/28/23/2603/M/ M 12MM=

####018000358####
SACN95 CWAO 081300 RRB
WTA SA 1300 AUTO8 M M M 162/29/22/0103/M/ 0003 28MM=
WTS SA 1300 AUTO8 M M M 179/13/12/2204/M/ 3001 97MM=
WVC SA 1300 AUTO8 M M M 218/13/11/2606/M/ 1008 85MM=
WWC SA 1300 AUTO8 M M M 109/12/08/MM07/M/ 6006 69MM=
WWF SA 1300 AUTO8 M M M 206/15/12/3605/M/ 1012 50MM=
WWN SA 1300 AUTO8 M M M 084/18/15/1706/M/ 8012 90MM=

####018000075####
SACN94 CWAO 081315
WSK SA 1315 AUTO8 M M M M/15/10/0102/M/M M 73MM=

####018000083####
SACN96 CWAO 081200 RRI
XKE SA 1200 AUTO8 M M M 158/26/21/2201/M/ 0005 32MM=

####018000188####
SACN70 CWAO 081300 RRB
PGH SA 1300 AUTO8 M M M 155/16/13/2908/M/ 1012 92MM=
WOO SA 1300 AUTO8 M M M M/16/08/3008/M/ M 14MM=
XWG SA 1300 AUTO8 M M M 161/16/13/3108/M/ 1016 36MM=

####018000230####
SACN59 CWAO 081300 RRB
NPK SA 1300 AUTO8 M M M 236/06/06/2201/M/ 8006 15MM=
PBR SA 1300 AUTO8 M M M M/11/M/MMMM/M/ M 1MMM=
PCR SA 1300 AUTO8 M M M M/10/M/MMMM/M/ M 4MMM=
PMR SA 1300 AUTO8 M M M M/12/M/MMMM/M/ M 5MMM=

####018000081####
SPUS52 KWBC 081317
SPECI
KPNC 081314Z AUTO 33004KT 9SM OVC030 23/22 A3008=
####018000243####
SACN98 CWAO 081300 RRB
XDK SA 1300 AUTO8 M M M 154/14/11/0000/M/ 8004 89MM=
ZMJ SA 1300 AUTO8 M M M 219/14/11/2303/M/ 1007 49MM=
ZTB SA 1300 AUTO8 M M M 151/21/16/2707/M/ 7001 65MM=
ZZJ SA 1300 AUTO8 M M M M/10/07/MMMM/M/ M 36MM=

####018000091####
SPUS72 KWBC 081317
SPECI
KBRO 081313Z 33009KT 10SM BKN005 BKN028 BKN050 26/25 A2978=
####018000097####
SPUS72 KWBC 081317
SPECI
KSAT 081314Z 05007KT 6SM -RA BR BKN009 BKN013 OVC020 26/24 A2996=
####018000096####
SPUS72 KWBC 081317
SPECI
KTCC 081313Z AUTO 06008KT 10SM BKN018 BKN080 OVC095 18/16 A3026=
####018000093####
SPUS81 KWBC 081317
SPECI
KBDL 081313Z 17004KT 4SM HZ FEW008 BKN014 OVC019 26/22 A3007=
####018000073####
SAAL41 DAMM 081300 RRD
METAR DAUG 081300Z 12005KT CAVOK 38/11 Q1020=
####018000089####
SPUS81 KWBC 081317
SPECI
KEMP 081313Z AUTO 01007KT 10SM BKN031 OVC035 22/19 A3011=
####018000075####
SPCN44 CWAO 081316
SPECI CYUS 081316Z AUTO ///// 9SM CLR 13/ A2979=

####018000082####
SPUS81 KWBC 081317
SPECI
KNRS 081314Z AUTO 34004KT 10SM OVC014 17/13 A2991=
####018000097####
SPUS81 KWBC 081317
SPECI
KSAT 081314Z 05007KT 6SM -RA BR BKN009 BKN013 OVC020 26/24 A2996=
####018000292####
SAUS20 KNKA 081317
SPECI KINK 081315Z AUTO 03006KT 10SM SCT023 23/20 A3010 RMK AO2 
    RAB1255E09 P0000 TSNO=
METAR PAAK 081316Z AUTO 07024G30KT 10SM SCT022 BKN029 OVC120 07/03 
    A2951 RMK AO1 PNO=
METAR PAHP 081316Z AUTO 33005KT 10SM CLR 08/07 A3003 RMK AO1 PNO 
    TSNO=
####018000765####
SASA KAWN 081300 RRG
METAR SAAR 081300Z 00000KT 9000 NSC 07/04 Q1018=
METAR SACO 081300Z 34005KT CAVOK 11/M05 Q1019=
METAR SANT 081300Z 18004KT 8000 11/06 Q1018=
METAR SAOC 081300Z 36015KT CAVOK 12/M08 Q1015=
METAR SARC 081300Z 14010KT 9999 BKN012 12/09 Q1020=
METAR SARL 081300Z 14015KT 9999 11/07 Q1021=
METAR SAWG 081300Z 32005KT 9999 FEW020 BKN100 M03/M05 Q0990=
METAR SAZN 081300Z 23004KT 9999 -RA BKN035 SCT060 10/04 Q1010=
METAR SAZS 081300Z 29012KT 6000 DZ SCT009 SCT025 04/02 Q1007 R29210094=
METAR SBTT 081300Z 00000KT 9999 FEW010 SCT080 28/25 Q1013=
METAR SKBG 081300Z 00000KT 2000S BCFG SCT012 20/19 A3005=
METAR SKMD 081300Z 00000KT 6000 SCT030 OVC080 19/15 A3012=
METAR SKSM 081300Z 00000KT 9999 SCT017 OVC070 27/24 A2989=
####018000097####
SAXX70 KAWN 081300 RRM
METAR KQFW 081300Z AUTO 21002KT 7SM -SHRA OVC025 22/19 A2993 RMK A02=
####018000074####
SACN50 CWAO 081315
VOJ SA 1315 AUTO8 M M M M/18/M/0502/M/M M 9MMM=

####018000075####
SACN50 CWAO 081315
VOK SA 1315 AUTO8 M M M M/14/07/0601/M/M M 36MM=

####018000075####
SACN50 CWAO 081315
VWB SA 1315 AUTO8 M M M M/16/06/MMMM/M/M M 11MM=

####018000075####
SACN50 CWAO 081315
VOC SA 1315 AUTO8 M M M M/11/08/0000/M/M M 74MM=

####018000075####
SACN50 CWAO 081315
VOD SA 1315 AUTO8 M M M M/12/05/0302/M/M M 67MM=

####018000075####
SACN50 CWAO 081315
WHC SA 1315 AUTO8 M M M M/18/12/MMMM/M/M M 47MM=

####018000075####
SACN50 CWAO 081315
VOY SA 1315 AUTO8 M M M M/11/07/3302/M/M M 46MM=

####018000095####
SARS32 RUMS 081300 RRA
METAR URKA 081300Z 06005MPS 9999 SCT026 29/20 Q1012 NOSIG RMK  065=
####018002647####
SAAK41 KNKA 081317
METAR PAAK 081316Z AUTO 07024G30KT 10SM SCT022 BKN029 OVC120 07/03 
    A2951 RMK AO1 PNO=
METAR PABL 081316Z AUTO 00000KT 1/4SM VV002 04/03 A3014 RMK AO1 PNO=
METAR PABV 081316Z AUTO 00000KT 10SM FEW065 BKN090 11/07 RMK AO1 PNO=
METAR PADK 081316Z 04013G19KT 7SM BKN006 OVC011 07/06 A2948 RMK AO1 
    PNO=
METAR PADL 081316Z 30005KT 10SM OVC080 10/08 A2996 RMK AO1 PNO TSNO=
METAR PAEM 081316Z AUTO 30006KT 10SM OVC075 12/09 A3001 RMK AO1 PNO=
METAR PAFE 081316Z AUTO 08003KT 10SM CLR 11/09 A3017 RMK AO1 PNO=
METAR PAFM 081316Z AUTO 00000KT 10SM CLR 12/08 A3010 RMK AO1 PNO=
METAR PAGL 081316Z AUTO 34007KT 10SM CLR 13/08 A3013 RMK AO1 PNO=
METAR PAGS 081316Z AUTO 00000KT 10SM CLR 08/07 A3017 RMK AO1 PNO=
METAR PAHP 081316Z AUTO 33005KT 10SM CLR 08/07 A3003 RMK AO1 PNO 
    TSNO=
METAR PAII 081316Z AUTO 35004KT 10SM CLR 09/08 A2997 RMK AO1 PNO=
METAR PAIN 081316Z AUTO 00000KT 10SM CLR 07/05 A3006 RMK AO1 PNO=
METAR PAJC 081316Z AUTO 00000KT 10SM FEW010 OVC017 09/03 A2993 RMK 
    AO1 PNO=
METAR PAKK 081316Z AUTO 01010KT 10SM CLR 12/06 A3004 RMK AO1 PNO=
METAR PAKP 081316Z AUTO 07005KT 10SM CLR 09/02 A3011 RMK AO1=
METAR PAMD 081316Z AUTO 08019G24KT 2 1/2SM BKN003 OVC010 09/08 A3003 
    RMK AO1 PNO=
METAR PAMH 081316Z 00000KT 10SM CLR 13/05 A2998 RMK AO1 PNO=
METAR PAMM 081316Z AUTO 34004KT 10SM CLR 17/11 A3010 RMK AO1 PNO=
METAR PAMY 081316Z 28005KT 1/4SM OVC001 03/02 A3005 RMK AO1=
METAR PANI 081316Z AUTO 00000KT 6SM CLR 07/05 A3000 RMK AO1 PNO=
METAR PANV 081316Z AUTO 11003KT 10SM CLR 13/08 A2998 RMK AO1 PNO=
METAR PAPG 081316Z 01003KT 10SM CLR 11/09 A3014 RMK AO1 
      PNO=
METAR PAPH 081316Z AUTO 14003KT 1/4SM OVC002 03/01 A2993 RMK AO1 PNO=
METAR PARC 081316Z AUTO 32003KT 10SM CLR 08/02 A3006 RMK AO1 PNO=
METAR PASA 081316Z AUTO 31005KT 10SM CLR 04/02 A3017 RMK AO1 PNO=
METAR PASD 081316Z AUTO 00000KT 10SM SCT027 06/04 A2991 RMK AO1 PNO=
METAR PASH 081316Z AUTO 00000KT 10SM CLR 08/05 A3016 RMK AO1 PNO=
METAR PASK 081316Z 26008KT 10SM CLR 12/08 A3010 RMK AO1 PNO=
METAR PASL 081316Z AUTO 00000KT 10SM BKN110 11/08 A3000 RMK AO1 PNO=
METAR PASM 081316Z AUTO 05004KT 10SM OVC100 10/09 A3002 RMK AO1 PNO=
METAR PAUN 081316Z AUTO 06012KT 10SM CLR 13/04 A3000 RMK AO1 PNO=
METAR PAVD 081316Z 26003KT 10SM OVC090 11/08 A3008 RMK AO1 
      PNO=
METAR PAWG 081316Z AUTO 00000KT 10SM CLR 12/09 A3014 RMK AO1 PNO=
METAR PAWN 081316Z AUTO 33003KT 10SM CLR 07/02 A3015 RMK AO1 PNO=
METAR PAWS 081316Z AUTO 06004KT 10SM CLR 12/08 A2998 RMK AO1 PNO=
METAR PAZK 081316Z AUTO 05008KT 10SM CLR 07/03 A3007 RMK AO1 PNO=
####018002080####
SAUS20 KNKA 081317
METAR K04W 081314Z AUTO 28004KT 10SM CLR 21/17 A3008 RMK AO2 
     T02070174=
METAR K1P1 081315Z AUTO 14003KT 10SM BKN016 OVC021 27/22 A3007 RMK 
     AO2 T02680219=
SPECI KBDR 081316Z 10006KT 6SM BR FEW007 BKN013 OVC024 25/23 A3007 
    RMK AO2=
SPECI KBIV 081316Z AUTO 00000KT 4SM -RA BR BKN001 24/22 A3004 RMK 
    AO2 RAB15 P0000=
METAR KC29 081315Z AUTO 28004KT 4SM OVC004 22/21 A3005 RMK AO2 
     T02210205=
METAR KCMR 081315Z AUTO 14006KT 10SM CLR 14/02 A3027 RMK AO1 =
METAR KD39 081314Z AUTO 27006KT 10SM CLR 21/18 A3011 RMK AO2 
     T02060177=
METAR KDLL 081314Z AUTO 32004KT 10SM SCT011 SCT016 23/20 A3005 
     RMK AO2=
METAR KE80 081315Z AUTO 26003KT 10SM BKN060 18/12 A3027 RMK AO2 
     T01830123=
METAR KEDC 081315Z AUTO 06005KT 25/25 A2998 RMK AO2 =
METAR KEIK 081315Z AUTO 32004KT 10SM OVC012 13/12 A3033 RMK AO2=
METAR KEOE 081315Z AUTO 00000KT 10SM CLR 28/21 A3005 RMK AO2=
METAR KFMH 081315Z AUTO 16007KT 10SM BKN014 OVC019 25/22 A3012 RMK 
     AO2 =
METAR KHVS 081315Z AUTO 00000KT 10SM CLR 28/21 A2999 RMK AO2=
METAR KIFP 081315Z AUTO 00000KT 10SM CLR 26/00 A2978 RMK AO2 =
METAR KMAN 081315Z AUTO 12003KT 10SM CLR 14/04 A3008 RMK AO1 =
SPECI KMFE 081316Z 35009KT 10SM BKN008 BKN034 BKN041 26/24 A2981 RMK 
    AO2 CIG 007V012=
METAR KNQA 081315Z COR 00000KT 10SM FEW150 29/24 A3008 RMK=
METAR KPVF 081315Z AUTO 00000KT 10SM CLR 21/10 A2994 RMK AO1 =
METAR KRBW 081315Z AUTO 32004KT 10SM CLR 27/21 A2999 RMK AO2=
METAR KRPD 081312Z AUTO 33004KT 10SM CLR 21/17 A3010 RMK AO2=
SPECI KSAT 081314Z COR 05007KT 6SM -RA BR BKN009 OVC020 26/24 A2996 
    RMK AO2 RAB09 CIG 008V013 P0000=
SPECI KSMQ 081316Z AUTO VRB04KT 4SM HZ BKN018 27/23 A3003 RMK AO2=
METAR KSRR 081315Z AUTO 00000KT 10SM BKN006 OVC021 13/13 A3038 RMK 
     AO2 =
METAR KTME 081315Z AUTO 08009KT 8SM FEW049 SCT070 BKN085 25/25 
     A2996 RMK AO1 =
METAR KUOX 081315Z AUTO 00000KT 10SM CLR 27/22 A3010 RMK AO2 =
METAR KY51 081315Z AUTO 30007KT 10SM BKN009 22/19 A3008 RMK AO1 
     T02150194=
####018000092####
SAAE31 VTBB 081300 RRC
METAR VVPB 081300Z 19007KT 9999 FEW026 BKN300 29/21 Q1007 NOSIG=
####018000082####
SAUS90 KWBC 081300 RRE
METAR KMWS 081300Z 12504G06KT 20/M03 RMK SNOW DEPTH M=
####018000102####
SPUS90 KWBC 081318
SPECI KNRS 081314Z AUTO 34004KT 10SM OVC014 17/13 A2991 RMK AO2
     TSNO $=
####018003608####
SAUS90 KWBC 081318
METAR K3DU 081240Z 00000KT 20SM SKC 04/02 RMK NOSPECI
     T00430017=
METAR KPQN 081313Z AUTO 32007KT 10SM CLR 19/14 A3018 RMK AO2=
METAR KFGN 081314Z AUTO 28008KT 1 1/4SM HZ OVC070 17/14 A2999 RMK
     AO2=
METAR KPNM 081313Z AUTO 24004KT 10SM CLR 20/16 A3011 RMK AO2=
METAR KPWC 081313Z AUTO 27003KT 10SM CLR 18/15 A3009 RMK AO2=
METAR KFFM 081313Z AUTO 28003KT 10SM CLR 18/16 A3008 RMK AO2=
METAR KGDB 081313Z AUTO 24004KT 10SM CLR 19/16 A3015 RMK AO2
     T01910164=
METAR KAIT 081313Z AUTO 00000KT 10SM CLR 19/18 A3007 RMK AO2=
METAR KGHW 081313Z AUTO 27007KT 10SM CLR 19/14 A3014 RMK AO2=
METAR KMWM 081313Z AUTO 28006KT 10SM CLR 19/16 A3016 RMK AO2=
METAR KULM 081315Z AUTO 30006KT 10SM CLR 18/15 A3014 RMK AO2=
METAR KBBB 081313Z AUTO 28003KT 10SM CLR 18/17 A3012 RMK AO2=
METAR KTWM 081313Z AUTO 00000KT 10SM CLR 21/15 A3003 RMK AO2=
METAR KMGG 081315Z AUTO 27005KT 10SM CLR 20/17 A3013 RMK AO2
     T02030166=
METAR KMOX 081310Z AUTO 27005KT 10SM CLR 21/17 A3008 RMK AO2=
METAR KTEW 081312Z AUTO 00000KT 10SM CLR 25/21 A3005 RMK AO2=
METAR KCVH 081310Z AUTO 00000KT 9SM OVC006 13/11 A2993 RMK AO1=
METAR KFSO 081318Z AUTO 00000KT 7SM OVC060 27/23 A3002 RMK AO2=
METAR KFBL 081314Z AUTO 31005KT 10SM CLR 19/16 A3013 RMK AO2=
METAR KLYV 081318Z AUTO 00000KT 10SM CLR 17/15 A3018 RMK AO2=
METAR KEFK 081316Z AUTO 21006KT 7SM CLR 27/21 A3006 RMK AO2=
METAR KRRT 081314Z AUTO 26008KT 10SM CLR 16/13 A3003 RMK AO2=
METAR KTOB 081315Z AUTO 00000KT 10SM CLR 19/17 A3013 RMK AO2=
METAR KLXL 081314Z AUTO 28004KT 10SM CLR 19/15 A3008 RMK AO2=
METAR KEVM 081312Z AUTO 24004KT 10SM CLR 18/15 A3003 RMK AO1=
METAR KELO 081313Z AUTO 25005KT 10SM CLR 19/15 A3003 RMK AO2=
METAR KROX 081314Z AUTO 27007KT 10SM CLR 18/15 A3003 RMK AO2=
METAR KSYN 081330Z AUTO 31007KT 10SM CLR 21/17 A3011 RMK AO2
     T02050172=
METAR KVVV 081316Z AUTO 24004KT 10SM CLR 19/16 A3012 RMK AO2=
METAR KROS 081315Z AUTO 28005KT 10SM CLR 20/16 A3010 RMK AO2
     T01970158=
METAR KHCD 081312Z AUTO 26006KT 10SM CLR 20/17 A3013 RMK AO2
     T01950166=
METAR KSGS 081313Z AUTO 30004KT 10SM CLR 21/16 A3011 RMK AO2
     T02110163=
METAR KMJQ 081312Z AUTO 32004KT 10SM CLR 18/15 A3017 RMK AO2=
METAR KHCO 081314Z AUTO 30009KT 10SM CLR 18/16 A3009 RMK AO2=
METAR KLVN 081308Z AUTO 29005KT 10SM CLR 19/17 A3012 RMK AO2=
METAR KPEX 081313Z AUTO 26008KT 10SM CLR 19/17 A3012 RMK AO2
     T01920166=
METAR KJMR 081318Z AUTO 30003KT 10SM CLR 20/15 A3011 RMK AO2=
METAR KJKJ 081314Z AUTO 26004KT 10SM CLR 18/16 A3008 RMK AO2=
METAR KMVE 081314Z AUTO 30005KT 10SM CLR 19/17 A3011 RMK AO2=
METAR KTKC 081313Z AUTO 28004KT 10SM CLR 20/15 A3016 RMK AO2
     T01960149=
METAR KGYL 081315Z AUTO 28005KT 10SM CLR 19/16 A3012 RMK AO2
     T01940161=
METAR KDXX 081314Z AUTO 00000KT 10SM CLR 19/18 A3012 RMK AO2=
METAR KHZX 081311Z AUTO 26005KT 10SM CLR 19/16 A3008 RMK AO2=
METAR KSAZ 081314Z AUTO 27006KT 10SM CLR 19/19 A3009 RMK AO2=
METAR KONA 081311Z AUTO 33008KT 10SM CLR 21/17 A3008 RMK AO2=
METAR KOVL 081314Z AUTO 29006KT 10SM CLR 18/14 A3013 RMK AO2
     T01810142=
METAR KLJF 081312Z AUTO 30007KT 10SM CLR 21/17 A3013 RMK AO2=
METAR KAEL 081311Z AUTO 33006KT 10SM CLR 19/17 A3013 RMK AO2=
METAR K29G 081314Z AUTO 00000KT 10SM CLR 27/18 A3010 RMK AO2
     T02670184 PWINO=
METAR KMRT 081313Z AUTO 26004KT 10SM CLR 27/20 A3012 RMK AO2
     T02730199=
METAR KIKW 081314Z AUTO 25003KT 10SM OVC080 24/21 A3002 RMK AO2
     T02370214=
METAR KMDS 081305Z AUTO 27005KT 10SM CLR 19/16 A3018 RMK AO2=
####018000075####
SACN50 CWAO 081315
VOU SA 1315 AUTO8 M M M M/16/10/3304/M/M M 34MM=

####018003748####
SAUS99 KWBC 081318
METAR
PAAK 081316Z AUTO 07024G30KT 10SM SCT022 BKN029 OVC120 07/03 A2951
     RMK AO1 PNO=
PAHP 081316Z AUTO 33005KT 10SM CLR 08/07 A3003 RMK AO1 PNO
     TSNO=
PAAK 081316Z AUTO 07024G30KT 10SM SCT022 BKN029 OVC120 07/03 A2951
     RMK AO1 PNO=
PABL 081316Z AUTO 00000KT 1/4SM VV002 04/03 A3014 RMK AO1 PNO=
PABV 081316Z AUTO 00000KT 10SM FEW065 BKN090 11/07 RMK AO1 PNO=
PADK 081316Z 04013G19KT 7SM BKN006 OVC011 07/06 A2948 RMK AO1
     PNO=
PADL 081316Z 30005KT 10SM OVC080 10/08 A2996 RMK AO1 PNO TSNO=
PAEM 081316Z AUTO 30006KT 10SM OVC075 12/09 A3001 RMK AO1 PNO=
PAFE 081316Z AUTO 08003KT 10SM CLR 11/09 A3017 RMK AO1 PNO=
PAFM 081316Z AUTO 00000KT 10SM CLR 12/08 A3010 RMK AO1 PNO=
PAGL 081316Z AUTO 34007KT 10SM CLR 13/08 A3013 RMK AO1 PNO=
PAGS 081316Z AUTO 00000KT 10SM CLR 08/07 A3017 RMK AO1 PNO=
PAHP 081316Z AUTO 33005KT 10SM CLR 08/07 A3003 RMK AO1 PNO
     TSNO=
PAII 081316Z AUTO 35004KT 10SM CLR 09/08 A2997 RMK AO1 PNO=
PAIN 081316Z AUTO 00000KT 10SM CLR 07/05 A3006 RMK AO1 PNO=
PAJC 081316Z AUTO 00000KT 10SM FEW010 OVC017 09/03 A2993 RMK AO1
     PNO=
PAKK 081316Z AUTO 01010KT 10SM CLR 12/06 A3004 RMK AO1 PNO=
PAKP 081316Z AUTO 07005KT 10SM CLR 09/02 A3011 RMK AO1=
PAMD 081316Z AUTO 08019G24KT 2 1/2SM BKN003 OVC010 09/08 A3003 RMK
     AO1 PNO=
PAMH 081316Z 00000KT 10SM CLR 13/05 A2998 RMK AO1 PNO=
PAMM 081316Z AUTO 34004KT 10SM CLR 17/11 A3010 RMK AO1 PNO=
PAMY 081316Z 28005KT 1/4SM OVC001 03/02 A3005 RMK AO1=
PANI 081316Z AUTO 00000KT 6SM CLR 07/05 A3000 RMK AO1 PNO=
PANV 081316Z AUTO 11003KT 10SM CLR 13/08 A2998 RMK AO1 PNO=
PAPG 081316Z 01003KT 10SM CLR 11/09 A3014 RMK AO1 PNO=
PAPH 081316Z AUTO 14003KT 1/4SM OVC002 03/01 A2993 RMK AO1 PNO=
PARC 081316Z AUTO 32003KT 10SM CLR 08/02 A3006 RMK AO1 PNO=
PASA 081316Z AUTO 31005KT 10SM CLR 04/02 A3017 RMK AO1 PNO=
PASD 081316Z AUTO 00000KT 10SM SCT027 06/04 A2991 RMK AO1 PNO=
PASH 081316Z AUTO 00000KT 10SM CLR 08/05 A3016 RMK AO1 PNO=
PASK 081316Z 26008KT 10SM CLR 12/08 A3010 RMK AO1 PNO=
PASL 081316Z AUTO 00000KT 10SM BKN110 11/08 A3000 RMK AO1 PNO=
PASM 081316Z AUTO 05004KT 10SM OVC100 10/09 A3002 RMK AO1 PNO=
PAUN 081316Z AUTO 06012KT 10SM CLR 13/04 A3000 RMK AO1 PNO=
PAVD 081316Z 26003KT 10SM OVC090 11/08 A3008 RMK AO1 PNO=
PAWG 081316Z AUTO 00000KT 10SM CLR 12/09 A3014 RMK AO1 PNO=
PAWN 081316Z AUTO 33003KT 10SM CLR 07/02 A3015 RMK AO1 PNO=
PAWS 081316Z AUTO 06004KT 10SM CLR 12/08 A2998 RMK AO1 PNO=
PAZK 081316Z AUTO 05008KT 10SM CLR 07/03 A3007 RMK AO1 PNO=
K04W 081314Z AUTO 28004KT 10SM CLR 21/17 A3008 RMK AO2
     T02070174=
K1P1 081315Z AUTO 14003KT 10SM BKN016 OVC021 27/22 A3007 RMK AO2
     T02680219=
KC29 081315Z AUTO 28004KT 4SM OVC004 22/21 A3005 RMK AO2
     T02210205=
KCMR 081315Z AUTO 14006KT 10SM CLR 14/02 A3027 RMK AO1=
KD39 081314Z AUTO 27006KT 10SM CLR 21/18 A3011 RMK AO2
     T02060177=
KDLL 081314Z AUTO 32004KT 10SM SCT011 SCT016 23/20 A3005 RMK
     AO2=
KE80 081315Z AUTO 26003KT 10SM BKN060 18/12 A3027 RMK AO2
     T01830123=
KEDC 081315Z AUTO 06005KT 25/25 A2998 RMK AO2=
KEIK 081315Z AUTO 32004KT 10SM OVC012 13/12 A3033 RMK AO2=
KEOE 081315Z AUTO 00000KT 10SM CLR 28/21 A3005 RMK AO2=
KFMH 081315Z AUTO 16007KT 10SM BKN014 OVC019 25/22 A3012 RMK
     AO2=
KHVS 081315Z AUTO 00000KT 10SM CLR 28/21 A2999 RMK AO2=
KIFP 081315Z AUTO 00000KT 10SM CLR 26/00 A2978 RMK AO2=
KMAN 081315Z AUTO 12003KT 10SM CLR 14/04 A3008 RMK AO1=
KNQA 081315Z COR 00000KT 10SM FEW150 29/24 A3008 RMK=
KPVF 081315Z AUTO 00000KT 10SM CLR 21/10 A2994 RMK AO1=
KRBW 081315Z AUTO 32004KT 10SM CLR 27/21 A2999 RMK AO2=
KRPD 081312Z AUTO 33004KT 10SM CLR 21/17 A3010 RMK AO2=
####018000325####
SAUS99 KWBC 081318 RRA
METAR
KSRR 081315Z AUTO 00000KT 10SM BKN006 OVC021 13/13 A3038 RMK
     AO2=
KTME 081315Z AUTO 08009KT 8SM FEW049 SCT070 BKN085 25/25 A2996 RMK
     AO1=
KUOX 081315Z AUTO 00000KT 10SM CLR 27/22 A3010 RMK AO2=
KY51 081315Z AUTO 30007KT 10SM BKN009 22/19 A3008 RMK AO1
     T02150194=
####018000540####
SPUS99 KWBC 081318
SPECI
KINK 081315Z AUTO 03006KT 10SM SCT023 23/20 A3010 RMK AO2
     RAB1255E09 P0000 TSNO=
KBDR 081316Z 10006KT 6SM BR FEW007 BKN013 OVC024 25/23 A3007 RMK
     AO2=
KBIV 081316Z AUTO 00000KT 4SM -RA BR BKN001 24/22 A3004 RMK AO2
     RAB15 P0000=
KMFE 081316Z 35009KT 10SM BKN008 BKN034 BKN041 26/24 A2981 RMK AO2
     CIG 007V012=
KSAT 081314Z COR 05007KT 6SM -RA BR BKN009 OVC020 26/24 A2996 RMK
     AO2 RAB09 CIG 008V013 P0000=
KSMQ 081316Z AUTO VRB04KT 4SM HZ BKN018 27/23 A3003 RMK AO2=
####018003733####
SACN85 KWBC 081318
METAR CWDO 081300Z AUTO 19004KT 14/12 RMK AO1 SLP195 T01420118
58010=
METAR CWHO 081300Z AUTO 18005KT 12/10 RMK AO1 SLP105 T01240101
58014=
METAR CWSS 081300Z AUTO 18005KT 24/19 RMK AO1 SLP194 T02400187
50007=
METAR CWDO 081300Z AUTO 19004KT 14/12 RMK AO1 SLP195 T01420118
58010=
METAR CWHO 081300Z AUTO 18005KT 12/10 RMK AO1 SLP105 T01240101
58014=
METAR CWSS 081300Z AUTO 18005KT 24/19 RMK AO1 SLP194 T02400187
50007=
METAR CWDO 081300Z AUTO 19004KT 14/12 RMK AO1 SLP195 T01420118
58010=
METAR CWHO 081300Z AUTO 18005KT 12/10 RMK AO1 SLP105 T01240101
58014=
METAR CWSS 081300Z AUTO 18005KT 24/19 RMK AO1 SLP194 T02400187
50007=
METAR CWDO 081300Z AUTO 19004KT 14/12 RMK AO1 SLP195 T01420118
58010=
METAR CWHO 081300Z AUTO 18005KT 12/10 RMK AO1 SLP105 T01240101
58014=
METAR CWSS 081300Z AUTO 18005KT 24/19 RMK AO1 SLP194 T02400187
50007=
METAR CWRA 081300Z AUTO 9SM M01/M02 RMK AO1 24610/09/1005/3002
T10141015=
METAR CWDO 081300Z AUTO 19004KT 14/12 RMK AO1 SLP195 T01420118
58010=
METAR CWHO 081300Z AUTO 18005KT 12/10 RMK AO1 SLP105 T01240101
58014=
METAR CWSS 081300Z AUTO 18005KT 24/19 RMK AO1 SLP194 T02400187
50007=
METAR CWRA 081300Z AUTO 9SM M01/M02 RMK AO1 24610/09/1005/3002
T10141015=
METAR CWDO 081300Z AUTO 19004KT 14/12 RMK AO1 SLP195 T01420118
58010=
METAR CWHO 081300Z AUTO 18005KT 12/10 RMK AO1 SLP105 T01240101
58014=
METAR CWSS 081300Z AUTO 18005KT 24/19 RMK AO1 SLP194 T02400187
50007=
METAR CWRA 081300Z AUTO 9SM M01/M02 RMK AO1 24610/09/1005/3002
T10141015=
METAR CWDO 081300Z AUTO 19004KT 14/12 RMK AO1 SLP195 T01420118
58010=
METAR CWHO 081300Z AUTO 18005KT 12/10 RMK AO1 SLP105 T01240101
58014=
METAR CWSS 081300Z AUTO 18005KT 24/19 RMK AO1 SLP194 T02400187
50007=
METAR CWDO 081300Z AUTO 19004KT 14/12 RMK AO1 SLP195 T01420118
58010=
METAR CWHO 081300Z AUTO 18005KT 12/10 RMK AO1 SLP105 T01240101
58014=
METAR CWSS 081300Z AUTO 18005KT 24/19 RMK AO1 SLP194 T02400187
50007=
METAR CWDO 081300Z AUTO 19004KT 14/12 RMK AO1 SLP195 T01420118
58010=
METAR CWHO 081300Z AUTO 18005KT 12/10 RMK AO1 SLP105 T01240101
58014=
METAR CWSS 081300Z AUTO 18005KT 24/19 RMK AO1 SLP194 T02400187
50007=
METAR CWDO 081300Z AUTO 19004KT 14/12 RMK AO1 SLP195 T01420118
58010=
METAR CWHO 081300Z AUTO 18005KT 12/10 RMK AO1 SLP105 T01240101
58014=
METAR CWSS 081300Z AUTO 18005KT 24/19 RMK AO1 SLP194 T02400187
50007=
METAR CWNH 081300Z AUTO 34004KT 14/13 RMK AO1 SLP164 T01430128
50004=
METAR CWDO 081300Z AUTO 19004KT 14/12 RMK AO1 SLP195 T01420118
58010=
METAR CWHO 081300Z AUTO 18005KT 12/10 RMK AO1 SLP105 T01240101
58014=
METAR CWSS 081300Z AUTO 18005KT 24/19 RMK AO1 SLP194 T02400187
50007=
METAR CWDO 081300Z AUTO 19004KT 14/12 RMK AO1 SLP195 T01420118
58010=
METAR CWHO 081300Z AUTO 18005KT 12/10 RMK AO1 SLP105 T01240101
58014=
METAR CWSS 081300Z AUTO 18005KT 24/19 RMK AO1 SLP194 T02400187
50007=
METAR CWDO 081300Z AUTO 19004KT 14/12 RMK AO1 SLP195 T01420118
58010=
METAR CWHO 081300Z AUTO 18005KT 12/10 RMK AO1 SLP105 T01240101
58014=
METAR CWSS 081300Z AUTO 18005KT 24/19 RMK AO1 SLP194 T02400187
50007=
METAR CWDO 081300Z AUTO 19004KT 14/12 RMK AO1 SLP195 T01420118
58010=
METAR CWHO 081300Z AUTO 18005KT 12/10 RMK AO1 SLP105 T01240101
58014=
METAR CWSS 081300Z AUTO 18005KT 24/19 RMK AO1 SLP194 T02400187
50007=
METAR CWDO 081300Z AUTO 19004KT 14/12 RMK AO1 SLP195 T01420118
58010=
METAR CWHO 081300Z AUTO 18005KT 12/10 RMK AO1 SLP105 T01240101
58014=
METAR CWSS 081300Z AUTO 18005KT 24/19 RMK AO1 SLP194 T02400187
50007=
METAR CWDO 081300Z AUTO 19004KT 14/12 RMK AO1 SLP195 T01420118
58010=
####018000072####
SAAL41 DAMM 081300 RRD
METAR DAUG 081300Z 12005KT CAVOK 38/11 Q1020=
####018003695####
SACN88 KWBC 081318
METAR CWAR 081300Z AUTO 25005KT 13/11 RMK AO1 SLP242 T01270107
51004=
METAR CXNP 081300Z AUTO 21009KT 22/19 RMK AO1 PK WND 22017/1242
SLP195 T02230189 53004=
METAR CZDB 081300Z AUTO 25007KT 22/19 RMK AO1 SLP203 T02200186
50002=
METAR CWAR 081300Z AUTO 25005KT 13/11 RMK AO1 SLP242 T01270107
51004=
METAR CXNP 081300Z AUTO 21009KT 22/19 RMK AO1 PK WND 22017/1242
SLP195 T02230189 53004=
METAR CZDB 081300Z AUTO 25007KT 22/19 RMK AO1 SLP203 T02200186
50002=
METAR CWAR 081300Z AUTO 25005KT 13/11 RMK AO1 SLP242 T01270107
51004=
METAR CXNP 081300Z AUTO 21009KT 22/19 RMK AO1 PK WND 22017/1242
SLP195 T02230189 53004=
METAR CZDB 081300Z AUTO 25007KT 22/19 RMK AO1 SLP203 T02200186
50002=
METAR CWAR 081300Z AUTO 25005KT 13/11 RMK AO1 SLP242 T01270107
51004=
METAR CXNP 081300Z AUTO 21009KT 22/19 RMK AO1 PK WND 22017/1242
SLP195 T02230189 53004=
METAR CZDB 081300Z AUTO 25007KT 22/19 RMK AO1 SLP203 T02200186
50002=
METAR CWAR 081300Z AUTO 25005KT 13/11 RMK AO1 SLP242 T01270107
51004=
METAR CXNP 081300Z AUTO 21009KT 22/19 RMK AO1 PK WND 22017/1242
SLP195 T02230189 53004=
METAR CZDB 081300Z AUTO 25007KT 22/19 RMK AO1 SLP203 T02200186
50002=
METAR CWAR 081300Z AUTO 25005KT 13/11 RMK AO1 SLP242 T01270107
51004=
METAR CXNP 081300Z AUTO 21009KT 22/19 RMK AO1 PK WND 22017/1242
SLP195 T02230189 53004=
METAR CZDB 081300Z AUTO 25007KT 22/19 RMK AO1 SLP203 T02200186
50002=
METAR CWAR 081300Z AUTO 25005KT 13/11 RMK AO1 SLP242 T01270107
51004=
METAR CXNP 081300Z AUTO 21009KT 22/19 RMK AO1 PK WND 22017/1242
SLP195 T02230189 53004=
METAR CZDB 081300Z AUTO 25007KT 22/19 RMK AO1 SLP203 T02200186
50002=
METAR CWAR 081300Z AUTO 25005KT 13/11 RMK AO1 SLP242 T01270107
51004=
METAR CXNP 081300Z AUTO 21009KT 22/19 RMK AO1 PK WND 22017/1242
SLP195 T02230189 53004=
METAR CZDB 081300Z AUTO 25007KT 22/19 RMK AO1 SLP203 T02200186
50002=
METAR CWAR 081300Z AUTO 25005KT 13/11 RMK AO1 SLP242 T01270107
51004=
METAR CXNP 081300Z AUTO 21009KT 22/19 RMK AO1 PK WND 22017/1242
SLP195 T02230189 53004=
METAR CZDB 081300Z AUTO 25007KT 22/19 RMK AO1 SLP203 T02200186
50002=
METAR CWAR 081300Z AUTO 25005KT 13/11 RMK AO1 SLP242 T01270107
51004=
METAR CXNP 081300Z AUTO 21009KT 22/19 RMK AO1 PK WND 22017/1242
SLP195 T02230189 53004=
METAR CZDB 081300Z AUTO 25007KT 22/19 RMK AO1 SLP203 T02200186
50002=
METAR CWAR 081300Z AUTO 25005KT 13/11 RMK AO1 SLP242 T01270107
51004=
METAR CXNP 081300Z AUTO 21009KT 22/19 RMK AO1 PK WND 22017/1242
SLP195 T02230189 53004=
METAR CZDB 081300Z AUTO 25007KT 22/19 RMK AO1 SLP203 T02200186
50002=
METAR CWAR 081300Z AUTO 25005KT 13/11 RMK AO1 SLP242 T01270107
51004=
METAR CXNP 081300Z AUTO 21009KT 22/19 RMK AO1 PK WND 22017/1242
SLP195 T02230189 53004=
METAR CZDB 081300Z AUTO 25007KT 22/19 RMK AO1 SLP203 T02200186
50002=
METAR CWAR 081300Z AUTO 25005KT 13/11 RMK AO1 SLP242 T01270107
51004=
METAR CXNP 081300Z AUTO 21009KT 22/19 RMK AO1 PK WND 22017/1242
SLP195 T02230189 53004=
METAR CZDB 081300Z AUTO 25007KT 22/19 RMK AO1 SLP203 T02200186
50002=
METAR CWAR 081300Z AUTO 25005KT 13/11 RMK AO1 SLP242 T01270107
51004=
METAR CXNP 081300Z AUTO 21009KT 22/19 RMK AO1 PK WND 22017/1242
SLP195 T02230189 53004=
METAR CZDB 081300Z AUTO 25007KT 22/19 RMK AO1 SLP203 T02200186
50002=
METAR CWAR 081300Z AUTO 25005KT 13/11 RMK AO1 SLP242 T01270107
51004=
METAR CXNP 081300Z AUTO 21009KT 22/19 RMK AO1 PK WND 22017/1242
SLP195 T02230189 53004=
METAR CZDB 081300Z AUTO 25007KT 22/19 RMK AO1 SLP203 T02200186
50002=
METAR CWAR 081300Z AUTO 25005KT 13/11 RMK AO1 SLP242 T01270107
51004=
####018000072####
SAAL32 DAAA 081300 RRA
METAR DAUG 081300Z 12005KT CAVOK 38/11 Q1020=
####018000085####
SACN86 KWBC 081318
METAR CWAJ 081300Z AUTO 26/22 RMK AO1 SLP163 T02600221 58001=
####018000173####
SACN85 KWBC 081318 RRA
METAR CWHO 081300Z AUTO 18005KT 12/10 RMK AO1 SLP105 T01240101
58014=
METAR CWSS 081300Z AUTO 18005KT 24/19 RMK AO1 SLP194 T02400187
50007=
####018000191####
SACN88 KWBC 081318 RRA
METAR CXNP 081300Z AUTO 21009KT 22/19 RMK AO1 PK WND 22017/1242
SLP195 T02230189 53004=
METAR CZDB 081300Z AUTO 25007KT 22/19 RMK AO1 SLP203 T02200186
50002=
####018000302####
SACN91 KWBC 081318
METAR CWGW 081300Z AUTO 00000KT 06/05 RMK AO1 SLP247 T00570054
53008=
METAR CWID 081300Z AUTO 26001KT 13/12 RMK AO1 SLP144 T01300115
58004=
METAR CWIY 081300Z AUTO 17006KT 26/22 RMK AO1 SLP162 T02620217
50002=
METAR CWIZ 081300Z AUTO 26003KT 28/23 RMK AO1 T02810232=
####018000187####
SACN89 KWBC 081318
METAR CWCF 081300Z AUTO 29012KT 17/13 RMK AO1 PK WND 29018/1258
SLP139 T01710125 52009=
METAR CWDK 081300Z AUTO 00000KT 12/09 RMK AO1 SLP216 T01200085
57004=
####018000095####
SACN87 KWBC 081318
METAR CWJD 081300Z AUTO 30006KT 17/12 RMK AO1 SLP142 T01730120
52003=
####018000598####
SACN93 KWBC 081318
METAR CWNK 081300Z AUTO 32006KT 16/12 RMK AO1 T01590120=
METAR CWNP 081300Z AUTO 06001KT 13/11 RMK AO1 SLP201 T01290107
53013=
METAR CWPF 081300Z AUTO 05004KT 15/12 RMK AO1 SLP145 T01470116
53004=
METAR CWPF 081300Z AUTO 05004KT 15/12 RMK AO1 SLP145 T01470116
53004=
METAR CWPF 081300Z AUTO 05004KT 15/12 RMK AO1 SLP145 T01470116
53004=
METAR CWPF 081300Z AUTO 05004KT 15/12 RMK AO1 SLP145 T01470116
53004=
METAR CWPF 081300Z AUTO 05004KT 15/12 RMK AO1 SLP145 T01470116
53004=
METAR CWPF 081300Z AUTO 05004KT 15/12 RMK AO1 SLP145 T01470116
53004=
####018000094####
SARS32 RUMS 081300 RRA
METAR URKA 081300Z 06005MPS 9999 SCT026 29/20 Q1012 NOSIG RMK  065=
####018000131####
SAAF11 LFPW 081300 RRB
METAR FOOG 081300Z /////KT 9999 SCT010 27/22 Q1014=
METAR FOON 081300Z 32009KT 8000 SCT025 29/22 Q1014=
####018000095####
SACN90 KWBC 081318
METAR CWGH 081300Z AUTO 21002KT 27/24 RMK AO1 SLP161 T02700235
51004=
####018000257####
SACN94 KWBC 081318
METAR CWST 081300Z AUTO 02003KT 19/17 RMK AO1 T01920169=
METAR CWSK 081315Z AUTO 01002KT 15/10 RMK AO1 T01470103=
METAR CWST 081300Z AUTO 02003KT 19/17 RMK AO1 T01920169=
METAR CWST 081300Z AUTO 02003KT 19/17 RMK AO1 T01920169=
####018000228####
SACN95 KWBC 081318
METAR CWTA 081300Z AUTO 01003KT 29/22 RMK AO1 SLP162 T02920218
50003=
METAR CWWF 081300Z AUTO 36005KT 15/12 RMK AO1 SLP206 T01450120
51012=
METAR CWWA 081315Z AUTO 03002KT 20/10 RMK AO1 T01950102=
####018000358####
SACN96 KWBC 081318
METAR CWZQ 081300Z AUTO 20012G17KT 25/16 RMK AO1 PK WND 20017/1259
SLP187 T02510161 50002=
METAR CXKA 081300Z AUTO 33001KT 17/16 RMK AO1 5PAST HR 0000 SLP119
P0010 T01680162 50025=
METAR CXKE 081300Z AUTO 32001KT 29/21 RMK AO1 SLP157 T02900210
50000=
METAR CXKE 081200Z AUTO 22001KT 26/21 RMK AO1 SLP158 T02630212
50005=
####018000444####
SACN92 KWBC 081318
METAR CWJI 081300Z AUTO 28003KT 12/11 RMK AO1 SLP216 T01240107
51010=
METAR CWJT 081300Z AUTO 24001KT 27/20 RMK AO1 SLP158 T02650201
58001=
METAR CWKG 081300Z AUTO 23002KT 21/21 RMK AO1 SLP224 T02140206
50007=
METAR CWLC 081300Z AUTO 00000KT 15/ RMK AO1 T0150=
METAR CWMQ 081300Z AUTO 21002KT 13/11 RMK AO1 SLP220 T01270105
51005=
METAR CWMQ 081300Z AUTO 21002KT 13/11 RMK AO1 SLP220 T01270105
51005=
####018000095####
SACN78 KWBC 081318
METAR CTNK 081300Z AUTO 19001KT 27/22 RMK AO1 SLP164 T02660215
58007=
####018001407####
SACN97 KWBC 081318
METAR CXKT 081300Z AUTO 22007KT 24/20 RMK AO1 T02420196=
METAR CXKT 081300Z AUTO 22007KT 24/20 RMK AO1 T02420196=
METAR CXKT 081300Z AUTO 22007KT 24/20 RMK AO1 T02420196=
METAR CXKT 081300Z AUTO 22007KT 24/20 RMK AO1 T02420196=
METAR CXKT 081300Z AUTO 22007KT 24/20 RMK AO1 T02420196=
METAR CXKT 081300Z AUTO 22007KT 24/20 RMK AO1 T02420196=
METAR CXKT 081300Z AUTO 22007KT 24/20 RMK AO1 T02420196=
METAR CXKT 081300Z AUTO 22007KT 24/20 RMK AO1 T02420196=
METAR CXKT 081300Z AUTO 22007KT 24/20 RMK AO1 T02420196=
METAR CXKT 081300Z AUTO 22007KT 24/20 RMK AO1 T02420196=
METAR CXKT 081300Z AUTO 22007KT 24/20 RMK AO1 T02420196=
METAR CXKT 081300Z AUTO 22007KT 24/20 RMK AO1 T02420196=
METAR CXKT 081300Z AUTO 22007KT 24/20 RMK AO1 T02420196=
METAR CXDW 081300Z AUTO 29006KT 16/13 RMK AO1 T01590125=
METAR CXEC 081300Z AUTO 15/13 RMK AO1 SUNSH 8 T01490132=
METAR CXEG 081300Z AUTO 13/12 RMK AO1 T01310124=
METAR CXWN 081300Z AUTO 31004KT 18/12 RMK AO1 SLP167 T01760121
53017=
METAR CXKT 081300Z AUTO 22007KT 24/20 RMK AO1 T02420196=
METAR CXEG 081300Z AUTO 13/12 RMK AO1 T01310124=
METAR CXWN 081300Z AUTO 31004KT 18/12 RMK AO1 SLP167 T01760121
53017=
METAR CXKT 081300Z AUTO 22007KT 24/20 RMK AO1 T02420196=
METAR CXWN 081300Z AUTO 31004KT 18/12 RMK AO1 SLP167 T01760121
53017=
METAR CXKT 081300Z AUTO 22007KT 24/20 RMK AO1 T02420196=
####018000078####
SAAG SAWE 081300
METAR SAWE 081300Z  29009KT 9999  FEW018  M03/M04
Q0986=
####018000053####
SAAF32 KWBC 081300 RRD
METAR
FPST 081300Z NIL=
####018001059####
SPUS70 KWBC 081318
SPECI
KAKO 081314Z AUTO 14010KT 5SM BR OVC003 14/14 A3033 RMK AO2
     TSNO=
KEWB 081314Z 13006KT 10SM OVC010 24/21 A3010 RMK AO2 CIG
     007V012=
KFRG 081314Z 15008KT 8SM SCT008 OVC015 25/23 A3006 RMK AO2=
KMTH 081314Z AUTO 04005KT 10SM VCTS FEW026 SCT090 A2996 RMK AO2
     LTG DSNT NE TSB08UPB01E10 P0000 FZRANO $=
KBOK 081316Z AUTO 00000KT 1SM BR OVC002 09/09 A2998 RMK AO2 $=
KHRL 081315Z 35009KT 10SM FEW012 SCT020 BKN029 27/26 A2978 RMK
     AO2=
KPQL 081315Z 35004KT 10SM FEW005 SCT012 SCT047 27/26 A3005 RMK
     AO2=
KUIN 081315Z AUTO 32003KT 10SM FEW006 BKN010 BKN110 23/22 A3007
     RMK AO2=
KVAY 081315Z AUTO 15004KT 7SM SCT010 OVC110 27/23 A3004 RMK
     AO2=
KINK 081315Z AUTO 03006KT 10SM SCT023 23/20 A3010 RMK AO2
     RAB1255E09 P0000 TSNO=
KBIV 081316Z AUTO 00000KT 4SM -RA BR BKN001 24/22 A3004 RMK AO2
     RAB15 P0000=
KMFE 081316Z 35009KT 10SM BKN008 BKN034 BKN041 26/24 A2981 RMK AO2
     CIG 007V012=
KSMQ 081316Z AUTO VRB04KT 4SM HZ BKN018 27/23 A3003 RMK AO2=
####018000323####
SPUS80 KWBC 081318
SPECI
KSAN 081310Z 32005KT 9SM OVC013 16/14 A2992 RMK AO2=
KSFO 081315Z 27009KT 10SM OVC008 13/11 A2994 RMK AO2=
KBDR 081316Z 10006KT 6SM BR FEW007 BKN013 OVC024 25/23 A3007 RMK
     AO2=
KSAT 081314Z COR 05007KT 6SM -RA BR BKN009 OVC020 26/24 A2996 RMK
     AO2 RAB09 CIG 008V013 P0000=
####018003672####
SAUS70 KWBC 081318 RRA
METAR
KCCU 081316Z AUTO 18013KT 10SM CLR 08/00 A3064 RMK AO2=
KCIC 081315Z AUTO 14007KT 10SM CLR 19/12 A2985 RMK AO1=
KGGE 081315Z AUTO 31008KT 10SM SCT100 27/21 A2994 RMK AO2=
KLUX 081315Z AUTO 35003KT 10SM CLR 28/25 A3004 RMK AO2=
KMAO 081315Z AUTO 02006KT 10SM CLR 28/20 A2995 RMK AO2=
KMER 081315Z AUTO 32007KT 10SM CLR 16/12 A2984 RMK AO1=
KMNI 081315Z AUTO 32006KT 10SM CLR 30/23 A2997 RMK AO2=
KMYP 081216Z AUTO 20012KT 10SM CLR 03/02 A3074 RMK AO2=
KRCE 081315Z AUTO 36004KT 4SM BR OVC003 22/22 A3009 RMK AO2=
KVTP 081320Z AUTO 25006KT 10SM CLR 08/03 A3055 RMK AO2=
KWYS 081310Z AUTO 00000KT 10SM CLR 03/00 A3039 RMK AO2=
KX40 081315Z AUTO 00000KT 10SM CLR 27/23 A3003 RMK AO2
     T02740228=
PAAK 081316Z AUTO 07024G30KT 10SM SCT022 BKN029 OVC120 07/03 A2951
     RMK AO1 PNO=
PAHP 081316Z AUTO 33005KT 10SM CLR 08/07 A3003 RMK AO1 PNO
     TSNO=
PAAK 081316Z AUTO 07024G30KT 10SM SCT022 BKN029 OVC120 07/03 A2951
     RMK AO1 PNO=
PABL 081316Z AUTO 00000KT 1/4SM VV002 04/03 A3014 RMK AO1 PNO=
PABV 081316Z AUTO 00000KT 10SM FEW065 BKN090 11/07 RMK AO1 PNO=
PADL 081316Z 30005KT 10SM OVC080 10/08 A2996 RMK AO1 PNO TSNO=
PAEM 081316Z AUTO 30006KT 10SM OVC075 12/09 A3001 RMK AO1 PNO=
PAFE 081316Z AUTO 08003KT 10SM CLR 11/09 A3017 RMK AO1 PNO=
PAFM 081316Z AUTO 00000KT 10SM CLR 12/08 A3010 RMK AO1 PNO=
PAGL 081316Z AUTO 34007KT 10SM CLR 13/08 A3013 RMK AO1 PNO=
PAGS 081316Z AUTO 00000KT 10SM CLR 08/07 A3017 RMK AO1 PNO=
PAHP 081316Z AUTO 33005KT 10SM CLR 08/07 A3003 RMK AO1 PNO
     TSNO=
PAII 081316Z AUTO 35004KT 10SM CLR 09/08 A2997 RMK AO1 PNO=
PAIN 081316Z AUTO 00000KT 10SM CLR 07/05 A3006 RMK AO1 PNO=
PAJC 081316Z AUTO 00000KT 10SM FEW010 OVC017 09/03 A2993 RMK AO1
     PNO=
PAKK 081316Z AUTO 01010KT 10SM CLR 12/06 A3004 RMK AO1 PNO=
PAKP 081316Z AUTO 07005KT 10SM CLR 09/02 A3011 RMK AO1=
PAMD 081316Z AUTO 08019G24KT 2 1/2SM BKN003 OVC010 09/08 A3003 RMK
     AO1 PNO=
PAMH 081316Z 00000KT 10SM CLR 13/05 A2998 RMK AO1 PNO=
PAMM 081316Z AUTO 34004KT 10SM CLR 17/11 A3010 RMK AO1 PNO=
PAMY 081316Z 28005KT 1/4SM OVC001 03/02 A3005 RMK AO1=
PANI 081316Z AUTO 00000KT 6SM CLR 07/05 A3000 RMK AO1 PNO=
PANV 081316Z AUTO 11003KT 10SM CLR 13/08 A2998 RMK AO1 PNO=
PAPG 081316Z 01003KT 10SM CLR 11/09 A3014 RMK AO1 PNO=
PAPH 081316Z AUTO 14003KT 1/4SM OVC002 03/01 A2993 RMK AO1 PNO=
PARC 081316Z AUTO 32003KT 10SM CLR 08/02 A3006 RMK AO1 PNO=
PASA 081316Z AUTO 31005KT 10SM CLR 04/02 A3017 RMK AO1 PNO=
PASD 081316Z AUTO 00000KT 10SM SCT027 06/04 A2991 RMK AO1 PNO=
PASH 081316Z AUTO 00000KT 10SM CLR 08/05 A3016 RMK AO1 PNO=
PASK 081316Z 26008KT 10SM CLR 12/08 A3010 RMK AO1 PNO=
PASL 081316Z AUTO 00000KT 10SM BKN110 11/08 A3000 RMK AO1 PNO=
PASM 081316Z AUTO 05004KT 10SM OVC100 10/09 A3002 RMK AO1 PNO=
PAUN 081316Z AUTO 06012KT 10SM CLR 13/04 A3000 RMK AO1 PNO=
PAVD 081316Z 26003KT 10SM OVC090 11/08 A3008 RMK AO1 PNO=
PAWG 081316Z AUTO 00000KT 10SM CLR 12/09 A3014 RMK AO1 PNO=
PAWN 081316Z AUTO 33003KT 10SM CLR 07/02 A3015 RMK AO1 PNO=
PAWS 081316Z AUTO 06004KT 10SM CLR 12/08 A2998 RMK AO1 PNO=
PAZK 081316Z AUTO 05008KT 10SM CLR 07/03 A3007 RMK AO1 PNO=
K04W 081314Z AUTO 28004KT 10SM CLR 21/17 A3008 RMK AO2
     T02070174=
K1P1 081315Z AUTO 14003KT 10SM BKN016 OVC021 27/22 A3007 RMK AO2
     T02680219=
KC29 081315Z AUTO 28004KT 4SM OVC004 22/21 A3005 RMK AO2
     T02210205=
KCMR 081315Z AUTO 14006KT 10SM CLR 14/02 A3027 RMK AO1=
KD39 081314Z AUTO 27006KT 10SM CLR 21/18 A3011 RMK AO2
     T02060177=
KDLL 081314Z AUTO 32004KT 10SM SCT011 SCT016 23/20 A3005 RMK
     AO2=
####018000676####
SPXX60 KWBC 081318
SPECI
KNRS 081314Z AUTO 34004KT 10SM OVC014 17/13 A2991 RMK AO2 TSNO
     $=
KFRI 081311Z AUTO 35006KT 8SM OVC007 22/21 A3013 RMK AO2 CIG
     007V010 SLP191=
KHLR 081310Z AUTO 09004KT 10SM BKN009 BKN012 OVC037 26/ A3001 RMK
     AO2 RAE04 P0000 T0256 $=
KXMR 081311Z AUTO 04004KT 10SM CLR 28/21 A3000 RMK AO2
     DZB1301E1311 SLP160=
PACZ SP 1315 AWOS MM 10 49/47/0310/003=
PAEH SP 1315 AWOS M60 BKN 10 49/-19/0000/997=
PAIM SP 1315 AWOS CLR BLO 120 10 51/44/2903/007=
PATL SP 1315 AWOS CLR BLO 120 10 54/44/0000/999=
PHHI 081312Z AUTO 00000KT 10SM FEW023 BKN030 BKN037 20/18 A3002
     RMK AO2 RAB1259E1309DZE1312 SLP156=
####018000084####
SAUS80 KWBC 081300 RRG
METAR
KMWS 081300Z 12504G06KT 20/M03 RMK SNOW DEPTH M=
####018001050####
SAUS70 KWBC 081318 RRB
METAR
KE80 081315Z AUTO 26003KT 10SM BKN060 18/12 A3027 RMK AO2
     T01830123=
KEDC 081315Z AUTO 06005KT 25/25 A2998 RMK AO2=
KEIK 081315Z AUTO 32004KT 10SM OVC012 13/12 A3033 RMK AO2=
KEOE 081315Z AUTO 00000KT 10SM CLR 28/21 A3005 RMK AO2=
KFMH 081315Z AUTO 16007KT 10SM BKN014 OVC019 25/22 A3012 RMK
     AO2=
KHVS 081315Z AUTO 00000KT 10SM CLR 28/21 A2999 RMK AO2=
KIFP 081315Z AUTO 00000KT 10SM CLR 26/00 A2978 RMK AO2=
KMAN 081315Z AUTO 12003KT 10SM CLR 14/04 A3008 RMK AO1=
KNQA 081315Z COR 00000KT 10SM FEW150 29/24 A3008 RMK=
KPVF 081315Z AUTO 00000KT 10SM CLR 21/10 A2994 RMK AO1=
KRBW 081315Z AUTO 32004KT 10SM CLR 27/21 A2999 RMK AO2=
KRPD 081312Z AUTO 33004KT 10SM CLR 21/17 A3010 RMK AO2=
KSRR 081315Z AUTO 00000KT 10SM BKN006 OVC021 13/13 A3038 RMK
     AO2=
KTME 081315Z AUTO 08009KT 8SM FEW049 SCT070 BKN085 25/25 A2996 RMK
     AO1=
KUOX 081315Z AUTO 00000KT 10SM CLR 27/22 A3010 RMK AO2=
KY51 081315Z AUTO 30007KT 10SM BKN009 22/19 A3008 RMK AO1
     T02150194=
####018000341####
SAUS80 KWBC 081318
METAR
K3DU 081240Z 00000KT 20SM SKC 04/02 RMK NOSPECI T00430017=
KEAR 081315Z AUTO 36006KT 10SM CLR 17/14 A3025 RMK AO1=
K4BM 081311Z AUTO 21007KT M1/4SM FG 04/03 A3062 RMK AO2=
KSMS 081315Z AUTO 31006KT 10SM CLR 28/21 A2999 RMK AO2=
PADK 081316Z 04013G19KT 7SM BKN006 OVC011 07/06 A2948 RMK AO1
     PNO=
####018003723####
SAUS70 KWBC 081318
METAR
KPRX 081315Z 16006KT 7SM FEW006 BKN010 OVC022 26/23 A3006 RMK
     AO1=
KPTV 081315Z AUTO 17004KT 10SM CLR 17/11 A2987 RMK AO1=
KPVC 081315Z 19009G14KT 10SM CLR 25/21 A3011 RMK AO1=
KPWG 081315Z AUTO 07006KT 7SM BKN013 OVC019 26/22 A3002 RMK
     AO1=
KRKD 081315Z AUTO 22006KT 7SM OVC003 20/18 A3013 RMK AO1=
KRUT 081315Z AUTO 00000KT 7SM CLR 27/22 A3006 RMK AO1=
KSDY 081315Z AUTO 00000KT 10SM CLR 15/10 A3018 RMK AO1=
KSFM 081315Z 19004KT 5SM OVC010 24/19 A3011 RMK AO1=
KSFZ 081315Z AUTO 14007KT 120V190 10SM BKN013 25/21 A3010 RMK
     AO1=
KSGU 081315Z AUTO 04005KT 10SM CLR 23/03 A3000 RMK AO1=
KSMN 081315Z AUTO 00000KT 10SM CLR 08/03 A3028 RMK AO1=
KTPL 081315Z 09007KT 6SM OVC007 24/23 A3001 RMK AO1=
KVIS 081315Z AUTO 30003KT 10SM CLR 17/11 A2984 RMK AO1=
KWVL 081315Z AUTO 19005KT 5SM OVC004 22/20 A3007 RMK AO1=
KWWD 081315Z AUTO 9SM OVC090 24/23 A3005 RMK AO1=
KAFJ 081315Z AUTO 00000KT 7SM SCT060 24/21 A3012 RMK AO1=
KAIZ 081315Z AUTO 00000KT 10SM BKN013 BKN019 OVC075 23/21 A3009
     RMK AO1=
KBHB 081315Z AUTO 19010KT 2SM OVC002 18/17 A3014 RMK AO1=
KBID 081315Z AUTO 07005KT 6SM OVC003 22/22 A3009 RMK AO1=
KBLM 081315Z AUTO 13004KT 10SM FEW021 SCT060 OVC080 25/20 A3008
     RMK AO1=
KBTP 081315Z AUTO 00000KT 5SM CLR 25/20 A3011 RMK AO1=
KCGZ 081315Z AUTO 00000KT 10SM CLR 27/01 A2983 RMK AO1=
KCOD 081315Z 00000KT 10SM CLR 13/02 A3034 RMK AO1=
KCWI 081315Z 34007KT 6SM OVC004 A3007 RMK AO1=
KEEN 081315Z AUTO 17006KT 140V200 10SM FEW016 FEW023 BKN046 26/22
     A3009 RMK AO1=
KENV 081315Z 20003KT 10SM CLR 17/01 A3012 RMK AO1=
KEUL 081315Z AUTO 13003KT 10SM CLR 12/05 A3009 RMK AO1=
KEWK 081315Z AUTO 02009KT 10SM OVC006 21/19 A3009 RMK AO1=
KFAM 081315Z AUTO 22003KT 10SM OVC090 24/22 A3011 RMK AO1=
KFKL 081315Z 10005KT 10SM CLR 26/19 A3014 RMK AO1=
KFNL 081315Z AUTO 01005KT 7SM BKN005 OVC016 15/14 A3033 RMK
     AO1=
KFOD 081315Z AUTO 01003KT 10SM CLR 19/17 A3015 RMK AO1=
KGBD 081315Z AUTO 01009KT 10SM OVC008 19/18 A3018 RMK AO1=
KGDV 081315Z AUTO 18003KT 10SM SCT090 15/09 A3019 RMK AO1=
KGUC 081315Z AUTO 00000KT 10SM CLR 08/03 A3046 RMK AO1=
KGXY 081315Z AUTO 07005KT 7SM SCT006 BKN010 OVC014 16/13 A3033 RMK
     AO1=
KHDN 081315Z 09006KT 10SM BKN110 09/06 A3035 RMK AO1=
KHYI 081315Z AUTO 06007KT 7SM BKN009 OVC017 25/24 A2997 RMK
     AO1=
KHYS 081315Z AUTO 01008KT 10SM OVC037 19/16 A3020 RMK AO1=
KILE 081315Z 08007KT 9SM OVC006 24/23 A3000 RMK AO1=
KJHW 081315Z AUTO 17004KT 10SM CLR 24/19 A3012 RMK AO1=
KLBL 081315Z 35014G18KT 5SM OVC005 19/17 A3023 RMK AO1 P0001=
KLCI 081315Z AUTO 25005KT 5SM BKN015 OVC025 25/21 A3008 RMK
     AO1=
KLEW 081315Z 16004KT 3SM OVC004 22/21 A3012 RMK AO1=
KLPC 081315Z AUTO 34003KT 8SM OVC006 13/11 A2993 RMK AO1 PNO=
KMJX 081315Z AUTO 11004KT BKN010 OVC060 25/22 A3005 RMK AO1=
KMSV 081315Z AUTO 09003KT 10SM CLR 28/21 A3010 RMK AO1=
KOCH 081315Z AUTO 10010KT 8SM FEW011 BKN110 26/19 A3004 RMK
     AO1=
KOKK 081315Z AUTO 19003KT 5SM FEW050 BKN060 OVC080 26/19 A3005 RMK
     AO1=
KOLU 081315Z AUTO 35004KT 10SM CLR 19/16 A3020 RMK AO1=
KPQI 081315Z AUTO 15010KT 10SM CLR 25/21 A2999 RMK AO1=
K0A9 081315Z AUTO 00000KT 10SM CLR 25/18 A3013 RMK=
K20V 081312Z AUTO 00000KT 10SM CLR 08/05 A3044 RMK AO2=
K5SM 081313Z AUTO 00000KT 10SM CLR 10/02 A3058 RMK AO2=
K7BM 081316Z AUTO 00000KT 7SM CLR 09/06 A3054 RMK AO2=
KAEG 081315Z AUTO 00000KT 10SM CLR 16/08 A3031 RMK AO1=
KBBP 081315Z AUTO 33004KT 10SM CLR 29/19 A2997 RMK AO2=
KBDU 081317Z AUTO 00000KT 10SM SCT018 BKN034 16/12 A3033 RMK
     AO2=
KBKN 081315Z AUTO 01007KT 10SM FEW008 SCT013 BKN027 23/22 A3007
     RMK AO2=
####018000075####
SAAL31 KWBC 081300 RRB
METAR
DAUG 081300Z 12005KT CAVOK 38/11 Q1020=
####018000077####
SPUS31 KWBC 081318
SPECI
KSFO 081315Z 27009KT 10SM OVC008 13/11 A2994=
####018000094####
SANO41 KWBC 081250 CCA
METAR
ENKB 081250Z 27015G25KT 9999 FEW045TCU SCT077 18/09 Q1010=
####018000077####
SPUS41 KWBC 081318
SPECI
KEWB 081314Z 13006KT 10SM OVC010 24/21 A3010=
####018000096####
SARS32 KWBC 081300 RRC
METAR
URKA 081300Z 06005MPS 9999 SCT026 29/20 Q1012 NOSIG RMK 065=
####018000091####
SPUS42 KWBC 081318
SPECI
KHRL 081315Z 35009KT 10SM FEW012 SCT020 BKN029 27/26 A2978=
####018000093####
SAHW31 KMSC 081317
SPECI PGRO 081312Z 11011KT 7SM FEW020 SCT050 27/24 A2992 RMK FIRST
=
####018000083####
SAUS41 KWBC 081300 RRB
METAR
KPQI 081315Z AUTO 15010KT 10SM CLR 25/21 A2999=
####018000143####
SAUS43 KWBC 081300 RRE
METAR
KCIU 081315Z AUTO 33005KT 10SM BKN010 OVC014 21/18 A2999=
KELO 081313Z AUTO 25005KT 10SM CLR 19/15 A3003=
####018000096####
SPUS53 KWBC 081318
SPECI
KUIN 081315Z AUTO 32003KT 10SM FEW006 BKN010 BKN110 23/22 A3007=
####018000086####
SAUS44 KWBC 081300 RRD
METAR
KGDV 081315Z AUTO 18003KT 10SM SCT090 15/09 A3019=
####018000097####
SARS32 RUMS 081300 RRA
METAR URKA 081300Z 06005MPS 9999 SCT026 29/20 Q1012 NOSIG RMK  065=
####018000091####
SPUS72 KWBC 081318
SPECI
KHRL 081315Z 35009KT 10SM FEW012 SCT020 BKN029 27/26 A2978=
####018000381####
SAUS53 KWBC 081300 RRE
METAR
KANW 081310Z AUTO 29005KT 10SM CLR 18/15 A3025=
KBIE 081310Z AUTO 01008KT 10SM SCT025 20/18 A3016=
KDVL 081315Z AUTO 31008KT 10SM CLR 17/12 A3010=
KEAR 081315Z AUTO 36006KT 10SM CLR 17/14 A3025=
KGPZ 081315Z AUTO 29007KT 10SM CLR 19/15 A3007=
KONL 081310Z AUTO 00000KT 10SM CLR 19/16 A3023=
KUDG 081315Z 34006KT 10SM CLR 29/19 A2999=
####018000444####
SALY31 HLMC 081300
METAR HLLB 081250Z 33022KT 9999 FEW025 31/17 Q1016=
METAR HLLS 081255Z O4O11KT  CAVOK  37/O9 Q1O16=
METAR HLLT 081250Z 35007KT 310V040 8000 SKC 31/18 Q1018=
METAR HLGD 081300Z NIL=
METAR HLGT 081300Z NIL=
METAR HLJA 081300Z NIL=
METAR HLKF 081300Z NIL=
METAR HLKM 081300Z NIL=
METAR HLLM 081300Z NIL=
METAR HLMI 081300Z NIL=
METAR HLNT 081300Z NIL=
METAR HLON 081300Z NIL=
METAR HLTD 081300Z NIL=
####018000170####
SAUS54 KWBC 081300 RRD
METAR
KMWS 081300Z 12504G06KT 20/M03=
KSOW 081310Z AUTO 20005KT 10SM OVC110 19/04 A3027=
KTRK 081310Z AUTO 00000KT 10SM CLR 08/06 A3017=
####018000096####
SPUS73 KWBC 081318
SPECI
KUIN 081315Z AUTO 32003KT 10SM FEW006 BKN010 BKN110 23/22 A3007=
####018000077####
SPUS74 KWBC 081318
SPECI
KSFO 081315Z 27009KT 10SM OVC008 13/11 A2994=
####018000077####
SPUS81 KWBC 081318
SPECI
KSFO 081315Z 27009KT 10SM OVC008 13/11 A2994=
####018000193####
SAUS73 KWBC 081300 RRD
METAR
KCIU 081315Z AUTO 33005KT 10SM BKN010 OVC014 21/18 A2999=
KELO 081313Z AUTO 25005KT 10SM CLR 19/15 A3003=
KLBL 081315Z 35014G18KT 5SM OVC005 19/17 A3023=
####018000081####
SAUS74 KWBC 081300 RRC
METAR
KOTH 081315Z 26003KT 10SM BKN005 09/08 A3000=
####018000278####
SAXN17 KAWN 081200 RRO
METAR MMCE 081240Z 16008KT 3SM SCT020 BKN040 OVC080 27/25 A2980RMK
      8/43/=
METAR MMCP 081243Z 10010KT 6SM BKN100 26/22 A2980 RMK 8/030 HZY=
METAR MMTG 081243Z 00000KT 3SM BCFG SCT005 OVC070 23/23 A2994 RMK 8/62/
      BCFG ARND ST OMTNS=
####018000407####
SPUS17 KAWN 081318 RRB
SPECI KFRI 081311Z AUTO 35006KT 8SM OVC007 22/21 A3013 RMK AO2 CIG
      007V010 SLP191=
SPECI KHLR 081310Z AUTO 09004KT 10SM BKN009 BKN012 OVC037 26/ A3001
      RMK AO2 RAE04 P0000 T0256 $=
SPECI KIAB 081316Z AUTO 01008KT 10SM BKN008 23/22 A3011 RMK AO2 SLP185=
SPECI KLTS 081313Z AUTO 35003KT 10SM -DZ CLR 24/22 A3008 RMK AO2 DZB1313
      CIG 075 RWY35L SLP171 $=
####018000329####
SPNA35 KAWN 081318 RRB
SPECI KBRO 081313Z 33009KT 10SM BKN005 BKN028 BKN050 26/25 A2978 RMK
      AO2=
SPECI KJFK 081311Z 14004KT 9SM BKN017 BKN030 OVC130 26/21 A3006 RMK
      AO2=
SPECI KNGP 081312Z 02006KT 9SM -RA FEW011 SCT022CB BKN034 28/26 A2983
      RMK AO2 RAB12 CB DSNT SE TCU DSNT N AND S-SW WR// P0001=
####018002963####
SAUS20 KNKA 081318
METAR KLCK 081315Z AUTO 00000KT 7SM CLR 27/22 A3008 RMK AO2 
     T02710216=
METAR KLJF 081312Z AUTO 30007KT 10SM CLR 21/17 A3013 RMK AO2=
SPECI KLNR 081317Z AUTO 28004KT 6SM HZ OVC006 23/20 A3006 RMK AO2 
    CIG 004V010=
METAR KLVN 081308Z AUTO 29005KT 10SM CLR 19/17 A3012 RMK AO2=
METAR KLXL 081314Z AUTO 28004KT 10SM CLR 19/15 A3008 RMK AO2=
METAR KLYV 081318Z AUTO 00000KT 10SM CLR 17/15 A3018 RMK AO2=
METAR KMCJ 081315Z AUTO 09011KT 9SM FEW070 SCT090 24/23 A2994 RMK 
     AO1 =
METAR KMDS 081305Z AUTO 27005KT 10SM CLR 19/16 A3018 RMK AO2=
METAR KMGG 081315Z AUTO 27005KT 10SM CLR 20/17 A3013 RMK AO2
     T02030166=
METAR KMJQ 081312Z AUTO 32004KT 10SM CLR 18/15 A3017 RMK AO2=
METAR KMOX 081310Z AUTO 27005KT 10SM CLR 21/17 A3008 RMK AO2=
METAR KMRT 081313Z AUTO 26004KT 10SM CLR 27/20 A3012 RMK AO2
     T02730199=
METAR KMVE 081314Z AUTO 30005KT 10SM CLR 19/17 A3011 RMK AO2=
METAR KMWM 081313Z AUTO 28006KT 10SM CLR 19/16 A3016 RMK AO2=
METAR KMWO 081315Z AUTO 00000KT 5SM HZ CLR 26/22 A3008 RMK AO2=
METAR KONA 081311Z AUTO 33008KT 10SM CLR 21/17 A3008 RMK AO2=
METAR KOVL 081314Z AUTO 29006KT 10SM CLR 18/14 A3013 RMK AO2
     T01810142=
METAR KPEX 081313Z AUTO 26008KT 10SM CLR 19/17 A3012 RMK AO2
     T01920166=
METAR KPNM 081313Z AUTO 24004KT 10SM CLR 20/16 A3011 RMK AO2=
METAR KPQN 081313Z AUTO 32007KT 10SM CLR 19/14 A3018 RMK AO2=
METAR KPVB 081313Z AUTO 00000KT 7SM BKN005 22/21 A3007 RMK AO1 
     T02200209=
METAR KPWC 081313Z AUTO 27003KT 10SM CLR 18/15 A3009 RMK AO2=
METAR KRCM 081315Z AUTO 04003KT 10SM BKN006 OVC011 23/23 A3009 RMK 
     AO2=
METAR KROS 081315Z AUTO 28005KT 10SM CLR 20/16 A3010 RMK AO2
     T01970158=
METAR KROX 081314Z AUTO 27007KT 10SM CLR 18/15 A3003 RMK AO2=
METAR KRRT 081314Z AUTO 26008KT 10SM CLR 16/13 A3003 RMK AO2=
METAR KRZN 081314Z AUTO 27005KT 10SM CLR 20/16 A3009 RMK AO2 
     T02020164=
METAR KSAZ 081314Z AUTO 27006KT 10SM CLR 19/19 A3009 RMK AO2=
SPECI KSBM 081317Z AUTO 00000KT 10SM BKN010 23/22 A3002 RMK AO2 $=
METAR KSGS 081313Z AUTO 30004KT 10SM CLR 21/16 A3011 RMK AO2
     T02110163=
METAR KSME 081316Z AUTO 00000KT 4SM HZ 27/21 A3010 RMK AO2=
METAR KSNC 081315Z AUTO 13004KT 10SM BKN009 23/23 A3010 RMK AO2 =
METAR KSYN 081330Z AUTO 31007KT 10SM CLR 21/17 A3011 RMK AO2
     T02050172=
METAR KTEW 081312Z AUTO 00000KT 10SM CLR 25/21 A3005 RMK AO2=
METAR KTKC 081313Z AUTO 28004KT 10SM CLR 20/15 A3016 RMK AO2
     T01960149=
METAR KTOB 081315Z AUTO 00000KT 10SM CLR 19/17 A3013 RMK AO2=
METAR KTWM 081313Z AUTO 00000KT 10SM CLR 21/15 A3003 RMK AO2=
METAR KULM 081315Z AUTO 30006KT 10SM CLR 18/15 A3014 RMK AO2=
METAR KUNI 081315Z AUTO 00000KT 7SM SCT065 27/19 A3009 RMK AO2 
     T02730186=
SPECI KUTS 081317Z AUTO 00000KT 7SM BKN007 BKN085 BKN100 25/23 A3001 
    RMK AO2=
METAR KVES 081314Z AUTO 17003KT 7SM CLR 26/21 A3008 RMK AO2 
     T02610209=
####018002946####
SAUS20 KNKA 081318
METAR K1A6 081315Z AUTO 00000KT 4SM BR CLR 24/24 A3013 RMK AO2=
METAR K21D 081318Z AUTO 30005KT 10SM CLR 21/17 A3011 RMK AO2=
METAR K29G 081314Z AUTO 00000KT 10SM CLR 27/18 A3010 RMK AO2
     T02670184 PWINO=
METAR K4M9 081315Z AUTO 22007KT 10SM FEW010 FEW090 27/25 A3008 RMK 
     AO2 =
METAR KAEJ 081315Z AUTO 00000KT 10SM SCT014 08/07 A3046 RMK AO2=
METAR KAEL 081311Z AUTO 33006KT 10SM CLR 19/17 A3013 RMK AO2=
METAR KAIG 081315Z AUTO 33005KT 7SM BKN005 OVC010 19/19 A3004 RMK 
     AO2=
METAR KAIT 081313Z AUTO 00000KT 10SM CLR 19/18 A3007 RMK AO2=
METAR KARV 081312Z AUTO 33004KT 10SM OVC049 19/16 A3007 RMK AO2 
     T01890158=
METAR KBBB 081313Z AUTO 28003KT 10SM CLR 18/17 A3012 RMK AO2=
METAR KBJI 081314Z AUTO 24007KT 10SM CLR 18/13 A3007 RMK AO2=
METAR KBUU 081314Z AUTO 27006KT 10SM SCT085 22/19 A3004 RMK AO2=
METAR KBVU 081315Z AUTO 34004KT 10SM CLR 23/00 A2990 RMK AO2 =
METAR KBWP 081311Z AUTO 28006KT 10SM CLR 19/16 A3010 RMK AO1 
     T01860157=
METAR KCLI 081315Z AUTO 36005KT 10SM CLR 23/19 A3001 RMK AO2=
METAR KCMY 081315Z AUTO 32004KT 10SM SCT015 22/18 A3007 RMK AO2 
     T02230182=
METAR KCVH 081310Z AUTO 00000KT 9SM OVC006 13/11 A2993 RMK AO1=
METAR KDCM 081315Z AUTO 36003KT 7SM CLR 28/23 A3003 RMK AO2=
METAR KDVK 081317Z AUTO 21003KT 7SM 28/20 A3010 RMK AO1=
METAR KDXX 081314Z AUTO 00000KT 10SM CLR 19/18 A3012 RMK AO2=
METAR KEFK 081316Z AUTO 21006KT 7SM CLR 27/21 A3006 RMK AO2=
METAR KEFT 081315Z AUTO 30007KT 10SM BKN004 BKN014 BKN020 23/20 
     A3006 RMK AO2 T02270204=
METAR KEGV 081312Z AUTO 01003KT 10SM CLR 20/17 A3006 RMK AO2 
     T01960165=
METAR KELO 081313Z AUTO 25005KT 10SM CLR 19/15 A3003 RMK AO2=
METAR KEVM 081312Z AUTO 24004KT 10SM CLR 18/15 A3003 RMK AO1=
METAR KFBL 081314Z AUTO 31005KT 10SM CLR 19/16 A3013 RMK AO2=
METAR KFFM 081313Z AUTO 28003KT 10SM CLR 18/16 A3008 RMK AO2=
METAR KFGN 081314Z AUTO 28008KT 1 1/4SM HZ OVC070 17/14 A2999 RMK
     AO2=
METAR KFSO 081318Z AUTO 00000KT 7SM OVC060 27/23 A3002 RMK AO2=
METAR KGDB 081313Z AUTO 24004KT 10SM CLR 19/16 A3015 RMK AO2
     T01910164=
METAR KGHW 081313Z AUTO 27007KT 10SM CLR 19/14 A3014 RMK AO2=
METAR KGYL 081315Z AUTO 28005KT 10SM CLR 19/16 A3012 RMK AO2
     T01940161=
METAR KHCD 081312Z AUTO 26006KT 10SM CLR 20/17 A3013 RMK AO2
     T01950166=
METAR KHCO 081314Z AUTO 30009KT 10SM CLR 18/16 A3009 RMK AO2=
SPECI KHQM 081317Z AUTO 27005KT 1/4SM FG 13/13 A2997 RMK AO2 $=
METAR KHYW 081315Z AUTO 36004KT 10SM CLR 28/23 A2995 RMK AO2=
METAR KHZX 081311Z AUTO 26005KT 10SM CLR 19/16 A3008 RMK AO2=
METAR KIKW 081314Z AUTO 25003KT 10SM OVC080 24/21 A3002 RMK AO2
     T02370214=
METAR KJKJ 081314Z AUTO 26004KT 10SM CLR 18/16 A3008 RMK AO2=
METAR KJMR 081318Z AUTO 30003KT 10SM CLR 20/15 A3011 RMK AO2=
SPECI KLBX 081317Z AUTO 09004KT 6SM RA BR BKN021 BKN044 BKN075 25/23 
    A2993 RMK AO2 P0003=
####018000085####
SAUS20 KNKA 081318
METAR KVVV 081316Z AUTO 24004KT 10SM CLR 19/16 A3012 RMK AO2=
####018000075####
SACN50 CWAO 081315
VOH SA 1315 AUTO8 M M M M/15/02/0304/M/M M 12MM=

####018000115####
SAUS41 KOKX 081318
MTRNYC
SPECI KNYC 081317Z AUTO VRB04KT 5SM HZ BKN013 OVC020 26/23 A3008 RMK 
AO2 TSNO $
####018003694####
SAUS99 KWBC 081319 RRA
METAR
KPVB 081313Z AUTO 00000KT 7SM BKN005 22/21 A3007 RMK AO1
     T02200209=
KPWC 081313Z AUTO 27003KT 10SM CLR 18/15 A3009 RMK AO2=
KRCM 081315Z AUTO 04003KT 10SM BKN006 OVC011 23/23 A3009 RMK
     AO2=
KROS 081315Z AUTO 28005KT 10SM CLR 20/16 A3010 RMK AO2
     T01970158=
KROX 081314Z AUTO 27007KT 10SM CLR 18/15 A3003 RMK AO2=
KRRT 081314Z AUTO 26008KT 10SM CLR 16/13 A3003 RMK AO2=
KRZN 081314Z AUTO 27005KT 10SM CLR 20/16 A3009 RMK AO2
     T02020164=
KSAZ 081314Z AUTO 27006KT 10SM CLR 19/19 A3009 RMK AO2=
KSGS 081313Z AUTO 30004KT 10SM CLR 21/16 A3011 RMK AO2
     T02110163=
KSME 081316Z AUTO 00000KT 4SM HZ 27/21 A3010 RMK AO2=
KSNC 081315Z AUTO 13004KT 10SM BKN009 23/23 A3010 RMK AO2=
KSYN 081330Z AUTO 31007KT 10SM CLR 21/17 A3011 RMK AO2
     T02050172=
KTEW 081312Z AUTO 00000KT 10SM CLR 25/21 A3005 RMK AO2=
KTKC 081313Z AUTO 28004KT 10SM CLR 20/15 A3016 RMK AO2
     T01960149=
KTOB 081315Z AUTO 00000KT 10SM CLR 19/17 A3013 RMK AO2=
KTWM 081313Z AUTO 00000KT 10SM CLR 21/15 A3003 RMK AO2=
KULM 081315Z AUTO 30006KT 10SM CLR 18/15 A3014 RMK AO2=
KUNI 081315Z AUTO 00000KT 7SM SCT065 27/19 A3009 RMK AO2
     T02730186=
KVES 081314Z AUTO 17003KT 7SM CLR 26/21 A3008 RMK AO2
     T02610209=
K1A6 081315Z AUTO 00000KT 4SM BR CLR 24/24 A3013 RMK AO2=
K21D 081318Z AUTO 30005KT 10SM CLR 21/17 A3011 RMK AO2=
K29G 081314Z AUTO 00000KT 10SM CLR 27/18 A3010 RMK AO2 T02670184
     PWINO=
K4M9 081315Z AUTO 22007KT 10SM FEW010 FEW090 27/25 A3008 RMK
     AO2=
KAEJ 081315Z AUTO 00000KT 10SM SCT014 08/07 A3046 RMK AO2=
KAEL 081311Z AUTO 33006KT 10SM CLR 19/17 A3013 RMK AO2=
KAIG 081315Z AUTO 33005KT 7SM BKN005 OVC010 19/19 A3004 RMK
     AO2=
KAIT 081313Z AUTO 00000KT 10SM CLR 19/18 A3007 RMK AO2=
KARV 081312Z AUTO 33004KT 10SM OVC049 19/16 A3007 RMK AO2
     T01890158=
KBBB 081313Z AUTO 28003KT 10SM CLR 18/17 A3012 RMK AO2=
KBJI 081314Z AUTO 24007KT 10SM CLR 18/13 A3007 RMK AO2=
KBUU 081314Z AUTO 27006KT 10SM SCT085 22/19 A3004 RMK AO2=
KBVU 081315Z AUTO 34004KT 10SM CLR 23/00 A2990 RMK AO2=
KBWP 081311Z AUTO 28006KT 10SM CLR 19/16 A3010 RMK AO1
     T01860157=
KCLI 081315Z AUTO 36005KT 10SM CLR 23/19 A3001 RMK AO2=
KCMY 081315Z AUTO 32004KT 10SM SCT015 22/18 A3007 RMK AO2
     T02230182=
KCVH 081310Z AUTO 00000KT 9SM OVC006 13/11 A2993 RMK AO1=
KDCM 081315Z AUTO 36003KT 7SM CLR 28/23 A3003 RMK AO2=
KDVK 081317Z AUTO 21003KT 7SM 28/20 A3010 RMK AO1=
KDXX 081314Z AUTO 00000KT 10SM CLR 19/18 A3012 RMK AO2=
KEFK 081316Z AUTO 21006KT 7SM CLR 27/21 A3006 RMK AO2=
KEFT 081315Z AUTO 30007KT 10SM BKN004 BKN014 BKN020 23/20 A3006
     RMK AO2 T02270204=
KEGV 081312Z AUTO 01003KT 10SM CLR 20/17 A3006 RMK AO2
     T01960165=
KELO 081313Z AUTO 25005KT 10SM CLR 19/15 A3003 RMK AO2=
KEVM 081312Z AUTO 24004KT 10SM CLR 18/15 A3003 RMK AO1=
KFBL 081314Z AUTO 31005KT 10SM CLR 19/16 A3013 RMK AO2=
KFFM 081313Z AUTO 28003KT 10SM CLR 18/16 A3008 RMK AO2=
KFGN 081314Z AUTO 28008KT 1 1/4SM HZ OVC070 17/14 A2999 RMK
     AO2=
KFSO 081318Z AUTO 00000KT 7SM OVC060 27/23 A3002 RMK AO2=
KGDB 081313Z AUTO 24004KT 10SM CLR 19/16 A3015 RMK AO2
     T01910164=
KGHW 081313Z AUTO 27007KT 10SM CLR 19/14 A3014 RMK AO2=
KGYL 081315Z AUTO 28005KT 10SM CLR 19/16 A3012 RMK AO2
     T01940161=
KHCD 081312Z AUTO 26006KT 10SM CLR 20/17 A3013 RMK AO2
     T01950166=
KHCO 081314Z AUTO 30009KT 10SM CLR 18/16 A3009 RMK AO2=
KHYW 081315Z AUTO 36004KT 10SM CLR 28/23 A2995 RMK AO2=
KHZX 081311Z AUTO 26005KT 10SM CLR 19/16 A3008 RMK AO2=
KIKW 081314Z AUTO 25003KT 10SM OVC080 24/21 A3002 RMK AO2
     T02370214=
####018003728####
SAUS99 KWBC 081319
METAR
KFKA 081323Z AUTO 36008KT 10SM SCT009 20/18 A3012 RMK AO2
     T02010175=
KFPK 081316Z AUTO 00000KT 10SM CLR 25/21 A3003 RMK AO2=
KMOP 081314Z AUTO 27007KT 10SM -RA OVC060 23/23 A3003 RMK AO2=
KCAD 081315Z AUTO 25005KT 4SM -RA SCT008 BKN023 OVC050 22/21 A3004
     RMK AO2=
KMGN 081315Z AUTO 27005KT 3SM -RA SCT002 OVC010 21/20 A3000 RMK
     AO2=
KHAI 081315Z AUTO 00000KT 10SM SCT075 25/22 A3004 RMK AO2=
KLWA 081316Z AUTO 00000KT 10SM BKN060 BKN100 23/21 A3002 RMK
     AO2=
KDRM 081316Z AUTO 22005KT 5SM -RA SCT006 SCT019 OVC040 21/21 A2998
     RMK AO2=
KVLL 081314Z AUTO 26007KT 10SM CLR 30/19 A3006 RMK AO2=
KCFS 081315Z AUTO 22003KT 10SM CLR 27/21 A3002 RMK AO2=
KOZW 081315Z AUTO 00000KT 10SM CLR 27/21 A3005 RMK AO2=
KRNP 081315Z AUTO 00000KT 10SM CLR 27/21 A3003 RMK AO2=
KDUH 081314Z AUTO 00000KT 10SM CLR 30/20 A3004 RMK AO2=
KJYM 081315Z AUTO 00000KT 10SM CLR 26/21 A3007 RMK AO2=
KBAX 081315Z AUTO 25004KT 10SM CLR 26/23 A3001 RMK AO2=
KIRS 081315Z AUTO 10004KT 10SM CLR 26/21 A3004 RMK AO2=
KACB 081315Z AUTO 20003KT 7SM -DZ OVC011 23/22 A3001 RMK AO2=
KRQB 081314Z AUTO 00000KT 5SM -RA SCT012 OVC055 22/22 A3004 RMK
     AO2=
KOEB 081315Z AUTO 09004KT 10SM CLR 27/22 A3005 RMK AO2=
K4I3 081316Z AUTO 21003KT 7SM CLR 26/21 A3010 RMK AO2=
KAUM 081315Z AUTO 34007KT 10SM CLR 20/17 A3011 RMK AO2=
KFFX 081315Z AUTO 19003KT 7SM SCT046 BKN055 BKN070 23/22 A3002 RMK
     AO2=
KCNB 081318Z AUTO 25007KT 10SM CLR 21/14 A3015 RMK AO2
     T02080144=
KCKN 081315Z AUTO 29006KT 10SM CLR 18/14 A3008 RMK AO2=
KCFE 081315Z AUTO 25005KT 10SM CLR 20/17 A3013 RMK AO2
     T02010165=
KCQM 081317Z AUTO 24007KT 10SM CLR 18/15 A3005 RMK AO2=
KDTL 081315Z AUTO 28005KT 10SM CLR 20/12 A3011 RMK AO2=
KBDH 081315Z AUTO 28004KT 10SM CLR 19/16 A3014 RMK AO2=
KCBG 081315Z AUTO 27005KT 10SM CLR 20/16 A3010 RMK AO2=
KADC 081317Z AUTO 27005KT 10SM CLR 17/15 A3009 RMK AO2=
KHAF 081310Z AUTO 30004KT 7SM OVC006 12/10 A2995 RMK AO2=
KCKC 081315Z AUTO 26004KT 10SM CLR 19/14 A3004 RMK AO2=
KJYG 081314Z AUTO 29006KT 10SM CLR 20/19 A3016 RMK AO2=
KCOQ 081316Z AUTO 27007KT 10SM CLR 19/18 A3007 RMK AO2=
KACQ 081319Z AUTO 32007KT 10SM CLR 18/16 A3015 RMK AO2=
KRGK 081315Z AUTO 30004KT 10SM CLR 21/18 A3009 RMK AO2=
KFSE 081314Z AUTO 23004KT 10SM CLR 17/13 A3006 RMK AO2=
KY70 081315Z AUTO 00000KT 5SM HZ SCT006 SCT120 25/22 A3003 RMK AO2
     T02480222=
KUKT 081310Z AUTO 08004KT 8SM CLR 28/22 A3006 RMK AO1=
KLCK 081315Z AUTO 00000KT 7SM CLR 27/22 A3008 RMK AO2
     T02710216=
KLJF 081312Z AUTO 30007KT 10SM CLR 21/17 A3013 RMK AO2=
KLVN 081308Z AUTO 29005KT 10SM CLR 19/17 A3012 RMK AO2=
KLXL 081314Z AUTO 28004KT 10SM CLR 19/15 A3008 RMK AO2=
KLYV 081318Z AUTO 00000KT 10SM CLR 17/15 A3018 RMK AO2=
KMCJ 081315Z AUTO 09011KT 9SM FEW070 SCT090 24/23 A2994 RMK
     AO1=
KMDS 081305Z AUTO 27005KT 10SM CLR 19/16 A3018 RMK AO2=
KMGG 081315Z AUTO 27005KT 10SM CLR 20/17 A3013 RMK AO2
     T02030166=
KMJQ 081312Z AUTO 32004KT 10SM CLR 18/15 A3017 RMK AO2=
KMOX 081310Z AUTO 27005KT 10SM CLR 21/17 A3008 RMK AO2=
KMRT 081313Z AUTO 26004KT 10SM CLR 27/20 A3012 RMK AO2
     T02730199=
KMVE 081314Z AUTO 30005KT 10SM CLR 19/17 A3011 RMK AO2=
KMWM 081313Z AUTO 28006KT 10SM CLR 19/16 A3016 RMK AO2=
KMWO 081315Z AUTO 00000KT 5SM HZ CLR 26/22 A3008 RMK AO2=
KONA 081311Z AUTO 33008KT 10SM CLR 21/17 A3008 RMK AO2=
KOVL 081314Z AUTO 29006KT 10SM CLR 18/14 A3013 RMK AO2
     T01810142=
KPEX 081313Z AUTO 26008KT 10SM CLR 19/17 A3012 RMK AO2
     T01920166=
KPNM 081313Z AUTO 24004KT 10SM CLR 20/16 A3011 RMK AO2=
KPQN 081313Z AUTO 32007KT 10SM CLR 19/14 A3018 RMK AO2=
####018000207####
SAUS99 KWBC 081319 RRB
METAR
KJKJ 081314Z AUTO 26004KT 10SM CLR 18/16 A3008 RMK AO2=
KJMR 081318Z AUTO 30003KT 10SM CLR 20/15 A3011 RMK AO2=
KVVV 081316Z AUTO 24004KT 10SM CLR 19/16 A3012 RMK AO2=
####018000076####
SALT33 EYVI 081320
METAR EYPA 081320Z 33005KT 230V040 CAVOK 21/16 Q1019=
####018000408####
SPUS99 KWBC 081319
SPECI
KLNR 081317Z AUTO 28004KT 6SM HZ OVC006 23/20 A3006 RMK AO2 CIG
     004V010=
KSBM 081317Z AUTO 00000KT 10SM BKN010 23/22 A3002 RMK AO2 $=
KUTS 081317Z AUTO 00000KT 7SM BKN007 BKN085 BKN100 25/23 A3001 RMK
     AO2=
KHQM 081317Z AUTO 27005KT 1/4SM FG 13/13 A2997 RMK AO2 $=
KLBX 081317Z AUTO 09004KT 6SM RA BR BKN021 BKN044 BKN075 25/23
     A2993 RMK AO2 P0003=
####018000150####
SAMX51 MMMX 081317
SPECI MMMX 081317Z 15004KT 3SM HZ SCT06 BKN010 OVC020 15/14 A3021
      TEMPO 3SM -RA HZ RMK 8/7// VSBY TWR -RAE15 OCNL DROPS=
####018000084####
SAAG05 SABM 081300 RRC
METAR SAWE 081300Z  29009KT 9999  FEW018  M03/M04
Q0986=
####018000086####
SAAG01 SABM 081300 RRE
METAR SAWE 081300Z  29009KT 9999  FEW018  M03/M04
Q0986=
####018000093####
SPUS41 KWBC 081319
SPECI
KBDR 081316Z 10006KT 6SM BR FEW007 BKN013 OVC024 25/23 A3007=
####018000091####
SPUS42 KWBC 081319
SPECI
KMFE 081316Z 35009KT 10SM BKN008 BKN034 BKN041 26/24 A2981=
####018000094####
SPUS42 KWBC 081319
SPECI
KSAT 081314Z COR 05007KT 6SM -RA BR BKN009 OVC020 26/24 A2996=
####018000091####
SPUS51 KWBC 081319
SPECI
KNYC 081317Z AUTO VRB04KT 5SM HZ BKN013 OVC020 26/23 A3008=
####018000084####
SPUS51 KWBC 081319
SPECI
KSMQ 081316Z AUTO VRB04KT 4SM HZ BKN018 27/23 A3003=
####018000082####
SPUS52 KWBC 081319
SPECI
KINK 081315Z AUTO 03006KT 10SM SCT023 23/20 A3010=
####018000112####
SAUS44 KEWX 081319
MTRATT
SPECI KATT 081317Z AUTO VRB04KT 9SM FEW007 BKN032 OVC060 26/23 A2999 
RMK AO2
####018000082####
SPUS72 KWBC 081319
SPECI
KINK 081315Z AUTO 03006KT 10SM SCT023 23/20 A3010=
####018000091####
SPUS72 KWBC 081319
SPECI
KMFE 081316Z 35009KT 10SM BKN008 BKN034 BKN041 26/24 A2981=
####018000094####
SPUS72 KWBC 081319
SPECI
KSAT 081314Z COR 05007KT 6SM -RA BR BKN009 OVC020 26/24 A2996=
####018000093####
SPUS81 KWBC 081319
SPECI
KBDR 081316Z 10006KT 6SM BR FEW007 BKN013 OVC024 25/23 A3007=
####018000077####
SALT33 EYVI 081320
METAR EYPA 081320Z 33005KT 230V040 CAVOK 21/16 Q1019=
####018000091####
SPUS81 KWBC 081319
SPECI
KNYC 081317Z AUTO VRB04KT 5SM HZ BKN013 OVC020 26/23 A3008=
####018000094####
SPUS81 KWBC 081319
SPECI
KSAT 081314Z COR 05007KT 6SM -RA BR BKN009 OVC020 26/24 A2996=
####018000108####
SAXX70 KAWN 081300 RRN
METAR KQFT 081310Z AUTO 00000KT 1SM -SHRA BR OVC020 23/20 A2987 RMK
      A02=
####018001164####
SACI51 RJTD 081300
METAR ZBAA 081300Z 18005MPS CAVOK 30/16 Q1005 NOSIG=
METAR ZBTJ 081300Z 14003MPS CAVOK 26/17 Q1006 NOSIG=
METAR ZBYN 081300Z 09006MPS CAVOK 27/15 Q1009 NOSIG=
METAR ZGGG 081300Z 16003MPS 9999 SCT033 32/25 Q1006 NOSIG=
METAR ZGKL 081300Z VRB01MPS CAVOK 31/25 Q1004 NOSIG=
METAR ZGNN 081300Z 13003MPS CAVOK 30/25 Q1004 NOSIG=
METAR ZGOW 081300Z 19005MPS 9999 FEW020 29/26 Q1008 NOSIG=
METAR ZGSZ 081300Z 17006MPS 9999 FEW020 30/25 Q1007 NOSIG=
METAR ZLXY 081300Z 08002MPS 040V120 2000 BR SCT030 OVC050 23/21
           Q1008 NOSIG=
METAR ZPPP 081300Z 19004MPS 9999 FEW026 BKN050 22/16 Q1015 NOSIG=
METAR ZSAM 081300Z 19003MPS CAVOK 30/24 Q1007 NOSIG=
METAR ZSHC 081300Z VRB02MPS 5000 BR SCT026 26/24 Q1005 NOSIG=
METAR ZSNJ 081300Z 04001MPS 2200 BR BKN023 27/23 Q1004 NOSIG=
METAR ZSQD 081300Z 16003MPS CAVOK 23/19 Q1008 NOSIG=
METAR ZSSS 081300Z 12004G09MPS 080V150 9999 BKN015 27/23 Q1005 BECMG
           BKN011 OVC040=
METAR ZWWW 081300Z 21004MPS 9999 FEW033CB 31/08 Q1011 NOSIG=
METAR ZYTL 081300Z 34004MPS 5000 BR SCT033 23/20 Q1008 NOSIG=
METAR ZYTX 081300Z VRB01MPS 9999 FEW030 20/18 Q1007 NOSIG=
####018000103####
SAAK41 KNKA 081319
SPECI PAHC 081317Z AUTO 00000KT 1/4SM FG CLR 07/06 A2998 RMK AO2 
    TSNO $=
####018000377####
SAUS20 KNKA 081319
METAR KVBS 081315Z AUTO 11019G24KT 10SM FEW019 FEW025 29/25 A2996
     RMK A01=
SPECI KVIH 081318Z AUTO 00000KT 10SM BKN007 BKN015 OVC046 24/22 
    A3008 RMK AO2 RAE12 P0000=
METAR KVNP 081315Z AUTO 11012G19KT 8SM SCT020 SCT025 SCT029 28/25
     A3000 RMK A01=
METAR KY63 081320Z AUTO 29004KT 10SM CLR 18/16 A3011 RMK AO2 
     T01830162=
####018002956####
SAUS20 KNKA 081319
METAR K14Y 081319Z AUTO 26007KT 10SM CLR 20/16 A3011 RMK AO2 
     T02000162=
METAR KBBF 081415Z AUTO 14014G22KT 2 1/2SM BR FEW003 FEW017 SCT055
     27/25 A2983 RMK A01=
METAR KBQX 081315Z AUTO 12016G22KT 8SM FEW022 SCT026 BKN031 29/26
     A2987 RMK A01=
SPECI KCNO 081318Z AUTO 20004KT 2 1/2SM HZ OVC011 16/13 A2993 RMK 
    AO2=
METAR KDLP 081315Z AUTO 09013KT 9SM FEW018 SCT025 28/25 A3002 RMK
     A01=
METAR KEDU 081315Z AUTO 00000KT 10SM CLR 13/10 A2983 RMK AO1=
METAR KEHC 081315Z AUTO 13022KT 6SM HZ SCT021 SCT030 29/25 A2996
     RMK A01=
METAR KEMK 081315Z AUTO 14021KT 8SM FEW050 SCT080 29/25 A2990 RMK
     A01=
METAR KETB 081312Z AUTO 25003KT 10SM BKN009 OVC032 23/21 A3003 
     RMK AO2 T02250205=
METAR KEZS 081315Z AUTO 36004KT 10SM SCT010 24/21 A3001 RMK AO2 
     T02350205=
METAR KGBK 081315Z AUTO 08011G41KT 10SM SCT017 29/25 A2994 RMK A01=
METAR KGLW 081313Z AUTO 00000KT 10SM CLR 28/21 A3009 RMK AO2 
     T02800213=
METAR KGVX 081315Z AUTO 12025KT 9SM FEW022 SCT070 M40/ A2992 RMK
     A01=
METAR KHFJ 081315Z AUTO 00000KT 10SM SCT023 OVC034 23/23 A3007 
     RMK AO1=
METAR KHQI 081315Z AUTO 10019KT 6SM HZ FEW017 SCT023 SCT033 29/26
     A2992 RMK A01=
METAR KIPN 081315Z AUTO 07013KT 10SM FEW026 /54 A3001 RMK A01=
METAR KLNL 081315Z AUTO 34007KT 10SM BKN050 BKN080 19/15 A3007 
     RMK AO2 T01900146=
METAR KLUM 081315Z AUTO 30008KT 10SM CLR 20/16 A3009 RMK AO2=
METAR KMDJ 081315Z AUTO 11015KT 10SM FEW021 FEW027 29/24 A3002 RMK
     A01=
METAR KMDZ 081315Z AUTO 33006KT 10SM CLR 20/18 A3007 RMK AO2=
METAR KMHR 081315Z AUTO 16005KT 9SM CLR 12/10 A2986 RMK AO1=
METAR KMIU 081315Z AUTO 12024KT 8SM FEW017 SCT039 BKN065 28/26
     A2982 RMK A01=
SPECI KMKC 081318Z 35005KT 9SM OVC010 23/21 A3009 RMK AO2=
METAR KMRJ 081315Z AUTO 00000KT 7SM BKN005 23/20 A3007 RMK AO2 
     T02310202=
METAR KMYT 081315Z AUTO 11017KT 10SM FEW022 28/23 A2999 RMK A01=
METAR KMZG 081315Z AUTO 00000KT 9SM SCT020 SCT024 BKN050 28/25
     A2984 RMK A01=
METAR KOEO 081315Z AUTO 28003KT 10SM CLR 20/17 A3012 RMK AO2=
SPECI KONT 081318Z 20005KT 2 1/2SM BR OVC010 15/13 A2991 RMK AO2=
METAR KPBH 081315Z AUTO 33004KT 10SM CLR 21/18 A3009 RMK AO2=
METAR KPCZ 081315Z AUTO 30005KT 10SM SCT008 23/20 A3002 RMK AO2 
     T02320203=
METAR KPDC 081313Z AUTO 31006KT 10SM OVC010 22/20 A3006 RMK AO2 
     T02210202=
METAR KPVD 081251Z COR 16006KT 10SM BKN010 24/20 A3011=
METAR KRCX 081315Z AUTO 32005KT 10SM SCT050 19/17 A3009 RMK AO2 
     T01900166=
METAR KRNH 081316Z AUTO 30003KT 10SM CLR 20/17 A3011 RMK AO2 
     T01970171=
METAR KRPD 081314Z AUTO 32004KT 10SM CLR 20/17 A3010 RMK AO2 
     T02030166=
METAR KRRL 081315Z AUTO 34005KT 10SM SCT008 21/20 A3006 RMK AO2 
     T02080200=
METAR KSCF 081320Z AUTO 13018KT 8SM 29/25 A2994 RMK A01=
SPECI KTOR 081318Z AUTO 00000KT 10SM BKN030 13/11 A3031 RMK AO2=
