####018000084####
SAMP31 LMMM 081330 RRA
METAR HLLT 081320Z 01010KT 340V040 8000 SKC 30/18 Q1018=
####018000597####
SASN33 ESWI 081320
METAR ESNG 081320Z VRB02KT 9999 RA FEW034 15/14 Q1014=
METAR ESNK 081320Z AUTO 17009KT 9999NDV SCT040/// BKN050/// 21/14
Q1012=
METAR ESNN 081320Z AUTO 26006KT 230V300 9999NDV BKN045/// 22/14
Q1012=
METAR ESNO 081320Z 17010KT CAVOK 20/11 Q1013=
METAR ESNQ 081320Z 16009KT 9999 -RA FEW040 SCT045 BKN052 16/12
Q1012=
METAR ESNS 081320Z AUTO 14008KT 9999NDV ////// 21/09 Q1014=
METAR ESNU 081320Z 16009KT CAVOK 21/11 Q1014=
METAR ESNZ 081320Z 21007KT CAVOK 20/10 Q1011=
METAR ESUT 081320Z AUTO 14011KT 9999NDV FEW055/// BKN094///
OVC120/// 18/11 Q1009=
####018000364####
SAUK33 EGGY 081320
METAR EGGD 081320Z 28008KT 9999 FEW034 20/10 Q1019=
METAR EGGP 081320Z 25012KT 9999 SCT047 21/09 Q1017=
METAR EGHI 081320Z NIL=
METAR EGNS 081320Z NIL=
METAR EGNT 081320Z 26013G23KT 210V280 9999 FEW045 21/06 Q1014=
METAR EGNV 081320Z 23018KT 9999 FEW040 21/09 Q1016=
METAR COR EGPB 081320Z 19015KT 9999 FEW040 16/11 Q1008 NOSIG=
####018000115####
SATU20 LTAA 081250 RRC
METAR LTCC 081320Z 15011KT 120V180 CAVOK 40/02 Q1005 NOSIG RMK RWY16
17011KT 150V220=
####018000530####
SASN32 ESWI 081320
METAR ESKN 081320Z 23012KT 200V280 9999 SCT048 24/13 Q1017=
METAR ESOE 081320Z 22012KT 200V260 9999 SCT041 24/14 Q1017=
METAR ESOK 081320Z 17008KT 9999 BKN028 20/14 Q1017=
METAR ESOW 081320Z 23011KT CAVOK 24/14 Q1017=
METAR ESSA 081320Z 24013KT 9999 SCT045 24/14 Q1016 NOSIG=
METAR ESSB 081320Z 24009KT 9999 BKN046 24/13 Q1016=
METAR ESSD 081320Z AUTO 24009KT 9999NDV BKN028/// 20/13 Q1016=
METAR ESSP 081320Z 25008KT 220V290 CAVOK 25/12 Q1017=
METAR ESSV 081320Z 26007KT CAVOK 23/11 Q1019=
####018000529####
SAUK32 EGGY 081320
METAR EGAA 081320Z 22009KT 190V250 9999 FEW032 SCT040 17/10
    Q1014=
METAR EGAC 081320Z 21016KT 9999 FEW028 SCT044 18/08 Q1014=
METAR EGFF 081320Z 27006KT 200V310 9999 FEW030 21/12 Q1019=
METAR EGGW 081320Z 23007KT 160V270 9999 FEW037 24/12 Q1018=
METAR EGLC 081320Z 28005KT 220V310 9999 SCT030 24/14 Q1018=
METAR EGNM 081320Z 25011KT 210V290 9999 SCT035 18/09 Q1017=
METAR EGNX 081320Z 26009KT 210V300 CAVOK 22/08 Q1017=
METAR EGPD 081320Z 23014KT 200V270 9999 FEW048 18/08 Q1011 NOSIG=
####018000766####
SAAM31 FCBB 081300 CCA
METAR COR FCBB 081300Z 21008KT 270V160 7000 FEW023 27/20 Q1013 NOSIG=
METAR COR FCPP 081300Z 18008KT 7000 FEW013 OVC033 24/21 Q1012 NOSIG=
METAR COR FKKD 081300Z VRB04KT 9999 BKN016 FEW020CB BKN120 28/25
Q1013
      TEMPO 4000 TSRA BKN013 SCT016CB BKN100=
METAR COR FKYS 081300Z 25003KT 210V280 9999 BKN016 26/20 Q1016 NOSIG=
METAR COR FEFF 081300Z 18002KT 9999 FEW026 FEW040CB BKN300 31/22
Q1013
      NOSIG=
METAR COR FOOL 081300Z 23006KT 190V260 9000 SCT011 BKN030 27/23 Q1013
      NOSIG=
METAR COR FGSL 081300Z 29005KT 270V330 7000 -TSRA BKN013 FEW020CB
BKN130
      25/25 Q1013 NOSIG=
METAR COR FZAA 081300Z 27008KT 4000 BR SKC 27/19 Q1012 NOSIG=
METAR COR FNLU 081300Z 27011KT CAVOK 24/19 Q1011 NOSIG=
####018000245####
SADL35 EDZO 081320
METAR EDHI 081320Z 24007KT 160V280 CAVOK 30/12 Q1019=
METAR EDMO 081320Z 03007KT 360V100 CAVOK 26/09 Q1022=
METAR EDOP 081320Z 20008KT 130V230 CAVOK 30/08 Q1020=
METAR EDTD 081320Z 14004KT 050V230 CAVOK 28/13 Q1022=
####018000181####
SASN34 ESWI 081320
METAR ESDF 081320Z 21011KT 170V250 CAVOK 22/12 Q1020=
METAR ESPA 081320Z 14010KT CAVOK 19/14 Q1015=
METAR ESSL 081320Z 24010KT 200V280 CAVOK 25/12 Q1017=
####018000423####
SAUK35 EGGY 081320
METAR EGHH 081320Z 20009KT 9999 FEW026 21/16 Q1019=
METAR EGKA 081320Z NIL=
METAR EGKB 081320Z 23008KT 190V270 9999 BKN035 25/14 Q1019 =
METAR EGLF 081320Z NIL=
METAR EGMC 081320Z 23006KT 180V260 9999 FEW039 25/16 Q1018=
METAR EGMD 081320Z 19009KT 9999 FEW020 21/16 Q1019=
METAR EGMH 081320Z 11010KT 9999 FEW022 21/17 Q1018 =
METAR EGTC 081320Z 21008KT 190V250 9999 FEW045 22/12 Q1018=
####018000396####
SAFI32 EFHK 081320
EFHA 081320Z AUTO VRB02KT CAVOK 25/14 Q1014=
EFHF 081320Z 33008KT 270V020 9999 FEW042 SCT055 28/18 Q1013=
EFKA 081320Z 20006KT 150V260 CAVOK 25/11 Q1014=
EFKK 081320Z AUTO 23007KT 180V300 CAVOK 25/10 Q1014=
EFMA 081320Z 20008KT 160V220 CAVOK 21/14 Q1016=
EFPO 081320Z AUTO 25007KT 200V300 CAVOK 24/11 Q1015=
EFSI 081320Z AUTO 23004KT 180V280 CAVOK 25/11 Q1014=
####018000490####
SASN35 ESWI 081320
METAR ESGL 081320Z AUTO 23014KT 9999NDV FEW022/// BKN035/// BKN044///
 20/15 Q1018=
METAR ESGR 081320Z AUTO 23012KT 200V260 9999NDV BKN044/// 21/14
Q1018=
METAR ESKM 081320Z NIL=
METAR ESNL 081320Z 16010KT 9999 SCT045 22/10 Q1012=
METAR ESNX 081320Z AUTO 13005KT 9999NDV -DZ FEW059/// SCT190///
16/14 Q1013=
METAR ESNY 081320Z AUTO 23008KT 210V300 9999 FEW044 24/14 Q1014=
METAR ESSF 081320Z NIL=
METAR ESSK 081320Z NIL=
METAR ESUD 081320Z NIL=
####018000341####
SADL33 EDZO 081320
METAR EDFE 081320Z 16004KT 130V200 CAVOK 30/11 Q1019=
METAR EDFH 081320Z 14006KT 080V220 CAVOK 28/11 Q1021=
METAR EDFM 081320Z VRB03KT 100V100 CAVOK 32/10 Q1019=
METAR EDLV 081320Z VRB07KT CAVOK 32/10 Q1019=
METAR EDTL 081320Z VRB03KT CAVOK 31/11 Q1019=
METAR EDVK 081320Z 16005KT 100V250 CAVOK 28/11 Q1021=
####018000712####
SADL34 EDZO 081320
METAR EDAC 081320Z 29005KT 200V320 CAVOK 27/11 Q1021=
METAR EDAH 081320Z VRB03KT CAVOK 25/09 Q1021=
METAR EDGS 081320Z 16006KT 110V210 9999 VV/// 25/10 Q1022=
METAR EDHL 081320Z 21009KT 170V240 CAVOK 29/13 Q1019=
METAR EDLN 081320Z VRB05KT CAVOK 32/11 Q1018=
METAR EDLP 081320Z VRB04KT CAVOK 31/11 Q1020=
METAR EDLW 081320Z 24005KT 180V330 CAVOK 31/10 Q1020=
METAR EDMA 081320Z VRB04KT 160V160 CAVOK 27/09 Q1022=
METAR EDNY 081320Z 18004KT CAVOK 28/09 Q1021=
METAR EDQM 081320Z 16005KT 090V230 CAVOK 25/10 Q1023=
METAR EDRZ 081320Z 19007KT 140V260 CAVOK 30/12 Q1021=
METAR EDSB 081320Z VRB03KT CAVOK 32/11 Q1020=
METAR EDXW 081320Z 24008KT 8000 FEW039 19/16 Q1019=
####018000519####
SAUK34 EGGY 081320
METAR EGHD 081320Z 21008KT 150V240 9999 FEW020 20/13 Q1019=
METAR EGHE 081320Z NIL=
METAR EGHK 081320Z 16005KT 9999 SCT018 18/15 Q1018=
METAR EGHQ 081320Z 29007KT 9999 FEW025 17/13 Q1019=
METAR EGJA 081320Z 26006KT 220V320 CAVOK 19/16 Q1020=
METAR EGJB 081320Z 29006KT 250V330 9999 FEW013 20/16 Q1020=
METAR EGJJ 081320Z 28010KT 240V300 9999 FEW008 21/17 Q1019 NOSIG=
METAR EGTE 081320Z 16012KT 130V200 9999 FEW030 21/15 Q1018=
METAR EGTG 081320Z 28009KT 9999 FEW034 21/09 Q1019=
####018000495####
SAUK31 EGGY 081320
METAR EGBB 081320Z 24008KT 210V280 CAVOK 23/08 Q1018=
METAR EGCC 081320Z 20010KT 170V230 9999 SCT038 20/10 Q1017=
METAR EGKK 081320Z 21010KT 170V230 9999 SCT048 26/12 Q1018=
METAR EGLL 081320Z 23008KT 200V290 9999 BKN035 24/14 Q1018=
METAR EGPF 081320Z 23018KT 9999 FEW030 17/10 Q1013=
METAR EGPH 081320Z 25015KT 220V280 9999 SCT045 19/08 Q1013=
METAR EGPK 081320Z 23015KT 9999 FEW026 19/10 Q1014=
METAR EGSS 081320Z 22007KT 180V250 9999 SCT032 23/14 Q1018=
####018000093####
SAID31 WIII 081300 RRA
METAR WARR 081300Z 24010KT 8000 FEW020CB SCT018 25/21 Q1010 RERA=
####018000707####
SAEG32 HECA 081300
METAR HEBL 081300Z 04014KT CAVOK       40/08 Q1008 NOSIG=
METAR HEAX 081300Z 32013KT 9999 FEW020 30/21 Q1010 NOSIG=
METAR HEMM 081300Z 33010KT CAVOK       28/21 Q1012 NOSIG=
METAR HEPS 081300Z 34011KT CAVOK       29/23 Q1010 NOSIG=
METAR HELX 081300Z 30012KT CAVOK       40/11 Q1006 NOSIG=
METAR HESN 081300Z NIL=
METAR HEGN 081300Z 36019KT CAVOK       37/09 Q1005 NOSIG=
METAR HESH 081300Z 36012KT CAVOK       39/11 Q1005 NOSIG=
METAR HEBA 081300Z 33015KT CAVOK       29/20 Q1011 NOSIG=
METAR HEMA 081300Z 01020KT CAVOK       34/17 Q1005 NOSIG=
METAR HETB 081300Z 33010KT CAVOK       34/09 Q1012 NOSIG=
METAR HESC 081300Z 05010KT CAVOK       32/10 Q1018 NOSIG=
####018000103####
SAUK31 EGGY 081320 CCA
METAR COR EGLL 081320Z 23008KT 200V290 9999 BKN035 24/14 Q1018
    NOSIG=
####018000078####
SANI20 DNMM 081300
METAR DNIL 081300Z 17007KT 9999 BKN010 24/22 Q1010=

####018000239####
SANO35 ENMI 081320
METAR ENMS 081320Z NIL=
METAR ENRM 081320Z NIL=
METAR ENRS 081320Z NIL=
METAR ENSK 081320Z NIL=
METAR ENSO 081320Z 20009KT 140V240 9999 SCT030 18/10 Q1014=
METAR ENST 081320Z NIL=
METAR ENVD 081320Z NIL=
####018000350####
SANO33 ENMI 081320
METAR ENAT 081320Z NIL=
METAR ENBL 081320Z NIL=
METAR ENEV 081320Z NIL=
METAR ENFL 081320Z 20013KT 140V250 9999 FEW014 SCT050 17/12 Q1012=
METAR ENKB 081320Z NIL=
METAR ENKR 081320Z NIL=
METAR ENML 081320Z 28010KT 9999 VCSH FEW040 BKN060 19/09 Q1010=
METAR ENNA 081320Z 15009KT 9999 FEW045CB SCT070 23/09 Q1012 =
####018000177####
SANO36 ENMI 081320
METAR ENBS 081320Z NIL=
METAR ENHK 081320Z NIL=
METAR ENHV 081320Z NIL=
METAR ENLK 081320Z NIL=
METAR ENMH 081320Z NIL=
METAR ENNK 081320Z NIL=
####018000313####
SANO38 ENMI 081320
METAR ENDR 081320Z NIL=
METAR ENEK 081320Z 22011KT CAVOK 17/13 Q1016 W15/S3=
METAR ENGC 081320Z 19025KT CAVOK 13/11 Q1009=
METAR ENHE 081320Z 19026KT 9999 FEW040 SCT100 16/11 Q1009=
METAR ENOA 081320Z 20024KT 9999 FEW045 13/11 Q1011=
METAR ENSL 081320Z 22024KT CAVOK 14/10 Q1013=
####018000522####
SANO32 ENMI 081320
METAR ENAL 081320Z 23009KT 9999 VCSH FEW045TCU SCT065 17/12 Q1010=
METAR ENCN 081320Z 19011KT 9999 SCT040 BKN070 17/15 Q1016=
METAR ENHD 081320Z 20012KT 9999 FEW030 16/12 Q1015=
METAR ENRO 081320Z 08005KT 010V120 9999 FEW030 SCT050 BKN090 15/09
           Q1011=
METAR ENRY 081320Z 19009KT 9999 FEW008 BKN010 17/15 Q1016 TEMPO
           BKN015=
METAR ENSB 081320Z NIL=
METAR ENTC 081320Z 01010KT 9999 FEW065 SCT082 18/09 Q1010=
METAR ENTO 081320Z 19013KT 9000 BKN004 16/15 Q1016=
####018000079####
SAIR31 OIII 081000 RRC
METAR OISS 080950Z 09006KT CAVOK 38/07 Q1013 A2993=
####018000117####
SAUS41 KCAR 081325
MTR40B
METAR K40B 081325Z AUTO 20007G11KT 29/22 A3002 RMK AO1 SLP154
     T02920217 57002
####018000203####
SANO34 ENMI 081320
METAR ENBN 081320Z NIL=
METAR ENBV 081320Z NIL=
METAR ENDI 081320Z NIL=
METAR ENFG 081320Z NIL=
METAR ENHF 081320Z NIL=
METAR ENRA 081320Z NIL=
METAR ENSH 081320Z NIL=
####018000631####
SANO31 ENMI 081320
METAR ENAN 081320Z 31007KT CAVOK 15/10 Q1010=
METAR ENBR 081320Z 18014KT 9999 FEW025 BKN040 16/10 Q1014 NOSIG =
METAR ENBO 081320Z 27005KT 240V310 9999 FEW040CB SCT050 BKN180 14/10
           Q1011 TEMPO SHRA TS BKN030CB=
METAR ENDU 081320Z 31006KT 280V020 9999 -SHRA FEW050 BKN070 17/11
           Q1010=
METAR ENGM 081310Z 18015KT 9999 FEW014 SCT016 BKN050 17/13 Q1015
           NOSIG=
METAR ENOL 081320Z 25004KT 300V070 9999 SCT030 20/07 Q1010 NOSIG=
METAR ENVA 081320Z 25010KT 9999 FEW040CB FEW070 20/12 Q1010 NOSIG =
METAR ENZV 081320Z 22012KT 9999 SCT020 BKN170 18/11 Q1015 NOSIG=
####018000203####
SANO37 ENMI 081320
METAR ENNO 081320Z NIL=
METAR ENOV 081320Z NIL=
METAR ENSD 081320Z NIL=
METAR ENSG 081320Z NIL=
METAR ENSN 081320Z NIL=
METAR ENSR 081320Z NIL=
METAR ENSS 081320Z NIL=
####018000197####
SAAK41 KNKA 081325
SPECI PAHC 081323Z AUTO 00000KT 2SM BR CLR 07/07 A2998 RMK AO2 TSNO 
    $=
SPECI PAYA 081323Z 00000KT 10SM FEW009 OVC090 11/09 A3018 RMK AO2 
    BAY TWR WND 090MMKT=
####018001490####
SAUS20 KNKA 081325
METAR KUXL 081320Z AUTO 07007KT 10SM OVC007 27/25 A3001 RMK AO2=
SPECI KBGR 081324Z 18007KT 10SM FEW012 BKN044 23/20 A3010 RMK AO2=
SPECI KBMI 081325Z 20005KT 10SM FEW009 SCT070 25/23 A3006 RMK AO2 $=
METAR KCLS 081315Z AUTO 00000KT 10SM CLR 13/12 A2997 RMK AO2 =
SPECI KCOT 081324Z AUTO 03006KT 10SM BKN009 OVC019 26/23 A2991 RMK 
    AO2 RAE1257 CIG 008V012 P0000=
METAR KGZL 081315Z AUTO 15003KT 10SM OVC049 25/23 A3006 RMK AO2 =
METAR KHBI 081323Z AUTO 00000KT 7SM CLR 28/20 A3004 RMK AO2=
SPECI KILG 081324Z 12005KT 2SM BR OVC007 26/23 A3005 RMK AO2 SFC VIS 
    4 CIG 003V008=
METAR KJFZ 081320Z AUTO 00000KT 7SM CLR 24/20 A3018 RMK=
SPECI KLNR 081324Z AUTO 28005KT 7SM BKN008 OVC013 23/21 A3006 RMK 
    AO2 CIG 004V010=
SPECI KMYF 081324Z 33003KT 7SM BKN009 OVC017 16/14 A2991 RMK AO2 CIG 
    006V012=
METAR KRHP 081325Z AUTO 00000KT 10SM CLR 23/19 A3014 RMK AO2=
METAR KRMN 081320Z AUTO 00000KT 5SM BR SCT014 SCT090 27/25 A3005 
     RMK AO2=
METAR KSFQ 081320Z AUTO 07003KT 10SM CLR 27/24 A3001 RMK AO2=
METAR KSHD 081320Z AUTO 00000KT 7SM CLR 29/19 A3009 RMK AO2=
METAR KTDF 081323Z AUTO 02003KT 5SM CLR 27/21 A3003 RMK AO1=
METAR KVDF 081316Z AUTO 00000KT 10SM CLR 27/23 A3003 RMK AO2=
METAR KVDI 081324Z AUTO 30004KT 10SM CLR 29/20 A3003 RMK AO1=
METAR KXLL 081320Z AUTO 00000KT 7SM CLR 29/23 A3005 RMK AO2 
     T02850228=
METAR KXSA 081320Z AUTO 08007KT 10SM SCT014 30/23 A3001 RMK AO2 
     PWINO=
####018000079####
SAIR31 OIII 081030 RRC
METAR OISS 081025Z 15014KT CAVOK 39/08 Q1013 A2992=
####018000170####
SPUS90 KWBC 081326
SPECI KNGP 081322Z 03005KT 5SM RA BR FEW008 BKN019CB BKN025 28/26
     A2983 RMK AO2 RAB12 CB DSNT S TCU OHD-NE TCU DSNT SW-W WR//
     P0004=
####018000109####
SAUS90 KWBC 081326
METAR K40B 081325Z AUTO 20007G11KT 29/22 A3002 RMK AO1 SLP154
     T02920217 57002=
####018000079####
SAIR31 OIII 081200 RRC
METAR OISS 081150Z 09012KT CAVOK 40/12 Q1012 A2991=
####018000079####
SACN87 KWBC 081326
METAR CWWL 081322Z AUTO 12/ RMK AO1 SLP173 T0123 56000=
####018000676####
SPUS99 KWBC 081326
SPECI
KBGR 081324Z 18007KT 10SM FEW012 BKN044 23/20 A3010 RMK AO2=
KBMI 081325Z 20005KT 10SM FEW009 SCT070 25/23 A3006 RMK AO2 $=
KCOT 081324Z AUTO 03006KT 10SM BKN009 OVC019 26/23 A2991 RMK AO2
     RAE1257 CIG 008V012 P0000=
KILG 081324Z 12005KT 2SM BR OVC007 26/23 A3005 RMK AO2 SFC VIS 4
     CIG 003V008=
KLNR 081324Z AUTO 28005KT 7SM BKN008 OVC013 23/21 A3006 RMK AO2
     CIG 004V010=
KMYF 081324Z 33003KT 7SM BKN009 OVC017 16/14 A2991 RMK AO2 CIG
     006V012=
PAHC 081323Z AUTO 00000KT 2SM BR CLR 07/07 A2998 RMK AO2 TSNO
     $=
PAYA 081323Z 00000KT 10SM FEW009 OVC090 11/09 A3018 RMK AO2 BAY
     TWR WND 090MMKT=
####018000890####
SAUS99 KWBC 081326
METAR
KUXL 081320Z AUTO 07007KT 10SM OVC007 27/25 A3001 RMK AO2=
KCLS 081315Z AUTO 00000KT 10SM CLR 13/12 A2997 RMK AO2=
KGZL 081315Z AUTO 15003KT 10SM OVC049 25/23 A3006 RMK AO2=
KHBI 081323Z AUTO 00000KT 7SM CLR 28/20 A3004 RMK AO2=
KJFZ 081320Z AUTO 00000KT 7SM CLR 24/20 A3018 RMK=
KRHP 081325Z AUTO 00000KT 10SM CLR 23/19 A3014 RMK AO2=
KRMN 081320Z AUTO 00000KT 5SM BR SCT014 SCT090 27/25 A3005 RMK
     AO2=
KSFQ 081320Z AUTO 07003KT 10SM CLR 27/24 A3001 RMK AO2=
KSHD 081320Z AUTO 00000KT 7SM CLR 29/19 A3009 RMK AO2=
KTDF 081323Z AUTO 02003KT 5SM CLR 27/21 A3003 RMK AO1=
KVDF 081316Z AUTO 00000KT 10SM CLR 27/23 A3003 RMK AO2=
KVDI 081324Z AUTO 30004KT 10SM CLR 29/20 A3003 RMK AO1=
KXLL 081320Z AUTO 00000KT 7SM CLR 29/23 A3005 RMK AO2
     T02850228=
KXSA 081320Z AUTO 08007KT 10SM SCT014 30/23 A3001 RMK AO2
     PWINO=
####018000232####
SANO35 ENMI 081320
METAR ENMS 081320Z NIL=
METAR ENRM 081320Z NIL=
METAR ENRS 081320Z NIL=
METAR ENSK 081320Z NIL=
METAR ENSO 081320Z 20009KT 140V240 9999 SCT030 18/10 Q1014=
METAR ENST 081320Z NIL=
METAR ENVD 081320Z NIL=
####018000102####
SAMX53 MMMZ 081300
METAR MMLT 081325Z RTD 00000KT 8SM  SKC 27/18 A2975 RMK RTS=





TX OPMET V1
####018000307####
SANO38 ENMI 081320
METAR ENDR 081320Z NIL=
METAR ENEK 081320Z 22011KT CAVOK 17/13 Q1016 W15/S3=
METAR ENGC 081320Z 19025KT CAVOK 13/11 Q1009=
METAR ENHE 081320Z 19026KT 9999 FEW040 SCT100 16/11 Q1009=
METAR ENOA 081320Z 20024KT 9999 FEW045 13/11 Q1011=
METAR ENSL 081320Z 22024KT CAVOK 14/10 Q1013=
####018000090####
SAOS32 LOWM 081320
METAR LOXZ 081320Z 08005KT 70KM FEW070CU 25/08 Q1022 NOSIG RMK FEW=
####018000342####
SANO33 ENMI 081320
METAR ENAT 081320Z NIL=
METAR ENBL 081320Z NIL=
METAR ENEV 081320Z NIL=
METAR ENFL 081320Z 20013KT 140V250 9999 FEW014 SCT050 17/12 Q1012=
METAR ENKB 081320Z NIL=
METAR ENKR 081320Z NIL=
METAR ENML 081320Z 28010KT 9999 VCSH FEW040 BKN060 19/09 Q1010=
METAR ENNA 081320Z 15009KT 9999 FEW045CB SCT070 23/09 Q1012 =
####018000512####
SANO32 ENMI 081320
METAR ENAL 081320Z 23009KT 9999 VCSH FEW045TCU SCT065 17/12 Q1010=
METAR ENCN 081320Z 19011KT 9999 SCT040 BKN070 17/15 Q1016=
METAR ENHD 081320Z 20012KT 9999 FEW030 16/12 Q1015=
METAR ENRO 081320Z 08005KT 010V120 9999 FEW030 SCT050 BKN090 15/09
           Q1011=
METAR ENRY 081320Z 19009KT 9999 FEW008 BKN010 17/15 Q1016 TEMPO
           BKN015=
METAR ENSB 081320Z NIL=
METAR ENTC 081320Z 01010KT 9999 FEW065 SCT082 18/09 Q1010=
METAR ENTO 081320Z 19013KT 9000 BKN004 16/15 Q1016=
####018001029####
SAAM20 FCBB 081300 COR
METAR FCBB 081300Z 21008KT 270V160 7000 FEW023 27/20 Q1013 NOSIG=
METAR FCPP 081300Z 18008KT 7000 FEW013 OVC033 24/21 Q1012 NOSIG=
METAR FKKD 081300Z VRB04KT 9999 BKN016 FEW020CB BKN120 28/25 Q1013
      TEMPO 4000 TSRA BKN013 SCT016CB BKN100=
METAR FKYS 081300Z 25003KT 210V280 9999 BKN016 26/20 Q1016 NOSIG=
METAR FKKR 081300Z 08004KT 9999 FEW020 BKN130 BKN300 27/23 Q1012
      NOSIG=
METAR FKKN NIL=
METAR FKKL NIL=
METAR FEFT NIL=
METAR FEFG NIL=
METAR FEFF 081300Z 18002KT 9999 FEW026 FEW040CB BKN300 31/22 Q1013
      NOSIG=
METAR FOOL 081300Z 23006KT 190V260 9000 SCT011 BKN030 27/23 Q1013
      NOSIG=
METAR FOOG NIL=
METAR FOON NIL=
METAR FGSL 081300Z 29005KT 270V330 7000 -TSRA BKN013 FEW020CB BKN130
      25/25 Q1013 NOSIG=
METAR FGBT NIL=
METAR FZRF NIL=
METAR FZOS NIL=
METAR FZAA 081300Z 27008KT 4000 BR SKC 27/19 Q1012 NOSIG=
METAR FZIC NIL=
METAR FZFK NIL=
METAR FZQA NIL=
METAR FNHU NIL=
METAR FNLU 081300Z 27011KT CAVOK 24/19 Q1011 NOSIG=
METAR FPST NIL=
####018000711####
SAAM31 FCBB 081300 CCA
METAR FCBB 081300Z 21008KT 270V160 7000 FEW023 27/20 Q1013 NOSIG=
METAR FCPP 081300Z 18008KT 7000 FEW013 OVC033 24/21 Q1012 NOSIG=
METAR FKKD 081300Z VRB04KT 9999 BKN016 FEW020CB BKN120 28/25 Q1013
      TEMPO 4000 TSRA BKN013 SCT016CB BKN100=
METAR FKYS 081300Z 25003KT 210V280 9999 BKN016 26/20 Q1016 NOSIG=
METAR FEFF 081300Z 18002KT 9999 FEW026 FEW040CB BKN300 31/22 Q1013
      NOSIG=
METAR FOOL 081300Z 23006KT 190V260 9000 SCT011 BKN030 27/23 Q1013
      NOSIG=
METAR FGSL 081300Z 29005KT 270V330 7000 -TSRA BKN013 FEW020CB BKN130
      25/25 Q1013 NOSIG=
METAR FZAA 081300Z 27008KT 4000 BR SKC 27/19 Q1012 NOSIG=
METAR FNLU 081300Z 27011KT CAVOK 24/19 Q1011 NOSIG=
####018000171####
SANO36 ENMI 081320
METAR ENBS 081320Z NIL=
METAR ENHK 081320Z NIL=
METAR ENHV 081320Z NIL=
METAR ENLK 081320Z NIL=
METAR ENMH 081320Z NIL=
METAR ENNK 081320Z NIL=
####018001836####
SAEU KAWN 081300 RRX
METAR EDFH 081320Z 14006KT 080V220 CAVOK 28/11 Q1021=
METAR EDMA 081320Z VRB04KT 160V160 CAVOK 27/09 Q1022=
METAR EDXW 081320Z 24008KT 8000 FEW039 19/16 Q1019=
METAR EGAA 081320Z 22009KT 190V250 9999 FEW032 SCT040 17/10 Q1014=
METAR EGAC 081320Z 21016KT 9999 FEW028 SCT044 18/08 Q1014=
METAR EGFF 081320Z 27006KT 200V310 9999 FEW030 21/12 Q1019=
METAR EGGD 081320Z 28008KT 9999 FEW034 20/10 Q1019=
METAR EGGP 081320Z 25012KT 9999 SCT047 21/09 Q1017=
METAR EGGW 081320Z 23007KT 160V270 9999 FEW037 24/12 Q1018=
METAR EGHH 081320Z 20009KT 9999 FEW026 21/16 Q1019=
METAR EGKB 081320Z 23008KT 190V270 9999 BKN035 25/14 Q1019=
METAR EGLC 081320Z 28005KT 220V310 9999 SCT030 24/14 Q1018=
METAR COR EGLL 081320Z 23008KT 200V290 9999 BKN035 24/14 Q1018 NOSIG=
METAR EGMC 081320Z 23006KT 180V260 9999 FEW039 25/16 Q1018=
METAR EGMD 081320Z 19009KT 9999 FEW020 21/16 Q1019=
METAR EGMH 081320Z 11010KT 9999 FEW022 21/17 Q1018=
METAR EGNM 081320Z 25011KT 210V290 9999 SCT035 18/09 Q1017=
METAR EGNT 081320Z 26013G23KT 210V280 9999 FEW045 21/06 Q1014=
METAR EGNV 081320Z 23018KT 9999 FEW040 21/09 Q1016=
METAR EGNX 081320Z 26009KT 210V300 CAVOK 22/08 Q1017=
METAR COR EGPB 081320Z 19015KT 9999 FEW040 16/11 Q1008 NOSIG=
METAR EGPD 081320Z 23014KT 200V270 9999 FEW048 18/08 Q1011 NOSIG=
METAR EGTC 081320Z 21008KT 190V250 9999 FEW045 22/12 Q1018=
METAR ETHL 081320Z 19003KT 9999 FEW140 27/08 Q1022 BLU/BLU/=
METAR ETHR 081320Z 13004KT 9999 FEW340 27/06 Q1022 BLU/BLU/=
METAR ETNN 081320Z 23004KT 9999 FEW060 SCT300 31/04 Q1019 BLU/BLU/=
METAR ETSA 081320Z 01005KT 9999 26/09 Q1023 BLU/BLU/=
METAR ETSB 081320Z 20004KT 9999 FEW060 28/08 Q1021 BLU/BLU/=
METAR ETSI 081320Z 09005KT 9999 27/07 Q1022 BLU/BLU/=
METAR ETSL 081320Z 02005KT 9999 FEW040 26/08 Q1022 BLU/BLU/=
####018000196####
SANO37 ENMI 081320
METAR ENNO 081320Z NIL=
METAR ENOV 081320Z NIL=
METAR ENSD 081320Z NIL=
METAR ENSG 081320Z NIL=
METAR ENSN 081320Z NIL=
METAR ENSR 081320Z NIL=
METAR ENSS 081320Z NIL=
####018000196####
SANO34 ENMI 081320
METAR ENBN 081320Z NIL=
METAR ENBV 081320Z NIL=
METAR ENDI 081320Z NIL=
METAR ENFG 081320Z NIL=
METAR ENHF 081320Z NIL=
METAR ENRA 081320Z NIL=
METAR ENSH 081320Z NIL=
####018000111####
SAUS80 KWBC 081326
METAR
K40B 081325Z AUTO 20007G11KT 29/22 A3002 RMK AO1 SLP154 T02920217
     57002=
####018003746####
SAUS70 KWBC 081326
METAR
KOKV 081320Z AUTO 31005KT 10SM CLR 31/18 A3005 RMK AO2
     T03130180=
KOMH 081320Z AUTO 35008KT 7SM SCT110 30/22 A3004 RMK AO2
     T02960221=
KONX 081320Z AUTO 04007KT 10SM CLR 28/22 A2999 RMK AO2
     T02760219=
KOPN 081320Z AUTO 29003KT 10SM CLR 29/24 A3006 RMK AO1=
KPCM 081320Z AUTO 07004KT 10SM CLR 27/22 A3004 RMK AO2=
KRCZ 081320Z AUTO 35003KT 10SM CLR 29/20 A2998 RMK AO2
     T02860199=
KSVH 081320Z AUTO 02005KT 7SM CLR 29/19 A3006 RMK AO2
     T02910189=
KTBR 081320Z AUTO 29005KT 10SM CLR 28/20 A3001 RMK AO2
     T02800200=
KVJI 081322Z AUTO 00000KT 5SM HZ CLR 27/21 A3016 RMK AO2=
KVUJ 081319Z AUTO 00000KT 10SM CLR 29/21 A3000 RMK AO2=
KVVG 081315Z AUTO 32003KT 26/22 A3003 RMK AO2=
KW22 081320Z AUTO 00000KT 8SM CLR 26/20 A3015 RMK AO2=
KW45 081320Z AUTO 00000KT 7SM CLR 29/20 A3006 RMK AO2
     T02900196=
KW99 081320Z AUTO 00000KT 7SM SCT085 27/17 A3009 RMK AO2=
KWDR 081320Z AUTO 03003KT 10SM CLR 28/21 A3008 RMK AO1=
K3A1 081320Z AUTO 01006KT 10SM CLR 27/23 A3012 RMK AO2
     T02680229=
K4A9 081320Z AUTO 02005KT 10SM CLR 27/20 A3008 RMK AO2
     T02710200=
K8A0 081319Z AUTO 02003KT 10SM CLR 28/20 A3009 RMK AO2=
KAFP 081320Z AUTO 30003KT 10SM CLR 29/18 A2999 RMK AO2
     T02850183=
KALX 081320Z AUTO 00000KT 10SM CLR 28/21 A3006 RMK AO1=
KBIJ 081321Z AUTO 00000KT 10SM CLR 29/23 A3004 RMK AO2=
KCPC 081320Z AUTO 05005KT 10SM CLR 29/22 A2995 RMK AO2
     T02850219=
KEDE 081317Z AUTO 08003KT 10SM CLR 27/23 A2998 RMK AO2=
KEHO 081320Z AUTO 00000KT 10SM CLR 27/19 A3004 RMK AO2
     T02710191=
KEYF 081320Z AUTO 00000KT 7SM CLR A2996 RMK AO2=
KFFA 081318Z AUTO 07006KT 10SM CLR 27/22 A2998 RMK AO2
     T02700223=
KGAO 081320Z AUTO 06008KT SCT016 SCT024 29/25 A3003 RMK AO2
     PWINO=
KGWW 081320Z AUTO 04006KT 5SM HZ CLR 28/22 A2997 RMK AO2
     T02840218=
KHDC 081323Z AUTO 08004KT 10SM CLR 29/27 A3006 RMK AO2=
KHNZ 081320Z AUTO 04006KT 7SM SCT110 30/20 A3001 RMK AO2
     T02980199=
KHQU 081323Z AUTO 27004KT 10SM CLR 29/19 A3006 RMK AO1=
KHWY 081320Z AUTO 05003KT 7SM SCT110 29/22 A3002 RMK AO2=
KIDI 081320Z AUTO 00000KT 7SM SCT070 26/21 A3011 RMK AO2=
KIER 081320Z AUTO 12005KT 10SM BKN100 27/26 A3006 RMK AO2
     PWINO=
KIXA 081320Z AUTO 03006KT 7SM SCT075 29/21 A2998 RMK AO2
     T02860210=
KJGG 081320Z AUTO 13004KT 10SM SCT018 30/24 A3001 RMK AO1=
KJKA 081320Z AUTO 00000KT 10SM CLR 31/27 A3004 RMK AO2
     T03060270=
KJYL 081322Z AUTO 29003KT 10SM CLR 28/22 A3001 RMK AO2=
KJYO 081320Z AUTO 00000KT 7SM CLR 31/22 A3003 RMK AO2=
KLDJ 081320Z AUTO 13004KT 4SM BR BKN008 OVC011 26/24 A3005 RMK AO2
     T02620236=
KLGC 081315Z AUTO 00000KT 10SM CLR 27/26 A3005 RMK AO1=
KLHZ 081320Z AUTO 04005KT 7SM CLR 30/20 A3000 RMK AO2
     T03030198=
KLKU 081320Z AUTO 01004KT 7SM CLR 30/21 A3001 RMK AO2=
KLNP 081318Z AUTO 02006KT 10SM CLR 26/19 A3020 RMK AO1=
KLOM 081320Z AUTO 11003KT 7SM CLR 29/23 A3004 RMK AO1
     T02900225=
KMDQ 081320Z AUTO 00000KT 10SM CLR 28/22 A3009 RMK AO2
     T02800221=
KMGR 081320Z AUTO 33004KT 10SM CLR 28/20 A3005 RMK AO2=
KMKJ 081320Z AUTO 26003KT 10SM CLR 26/11 A3023 RMK AO1=
KMLJ 081324Z AUTO 00000KT 10SM CLR 28/21 A3003 RMK AO2=
KMQI 081317Z AUTO 06010G15KT 10SM SCT015 27/23 A2997 RMK AO2=
KMQS 081320Z AUTO 14006KT 8SM CLR 27/22 A3008 RMK AO2=
KMTV 081320Z AUTO 00000KT 7SM CLR 30/22 A3007 RMK AO2=
KOBE 081321Z AUTO 05006KT 10SM CLR 28/23 A3000 RMK AO2=
KOSC 081314Z AUTO 23004KT 7SM OVC075 23/21 A3000 RMK AO2=
KUXL 081320Z AUTO 07007KT 10SM OVC007 27/25 A3001 RMK AO2=
KCLS 081315Z AUTO 00000KT 10SM CLR 13/12 A2997 RMK AO2=
KGZL 081315Z AUTO 15003KT 10SM OVC049 25/23 A3006 RMK AO2=
####018000081####
SAAF31 KWBC 081300 RRD
METAR
DNIL 081300Z 17007KT 9999 BKN010 24/22 Q1010=
####018000375####
SAOS31 LOWM 081320
METAR LOWW 081320Z 34007KT 300V030 CAVOK 24/09 Q1022 NOSIG=
METAR LOWL 081320Z VRB04KT CAVOK 25/10 Q1022 NOSIG=
METAR LOWS 081320Z 36006KT 260V060 CAVOK 26/09 Q1022 NOSIG=
METAR LOWI 081320Z 08007KT 020V140 9999 FEW080 29/14 Q1020 NOSIG=
METAR LOWG 081320Z VRB03KT CAVOK 27/10 Q1022 NOSIG=
METAR LOWK 081320Z VRB03KT 9999 FEW060 27/11 Q1021 NOSIG=
####018000129####
SAAW32 KWBC 080930 RRD
METAR
OISS 080950Z 09006KT CAVOK 38/07 Q1013 A2993=
OISS 080925Z 12004KT CAVOK 38/07 Q1013 A2994=
####018000363####
SABX31 EBBR 081320
METAR EBAW 081320Z 25007KT 200V300 CAVOK 30/12 Q1018 NOSIG=
METAR EBBR 081320Z 21006KT 180V250 CAVOK 30/11 Q1019 NOSIG=
METAR EBCI 081320Z VRB04KT CAVOK 30/10 Q1019 NOSIG=
METAR EBLG 081320Z 20004KT 150V240 CAVOK 30/07 Q1019 NOSIG=
METAR EBOS 081320Z 34006KT CAVOK 22/15 Q1020 NOSIG=
METAR ELLX 081320Z VRB04KT CAVOK 30/08 Q1020 NOSIG=
####018000122####
SAAW41 KWBC 081350 RRA
METAR
LTCC 081320Z 15011KT 120V180 CAVOK 40/02 Q1005 NOSIG RMK RWY16
     17011KT 150V220=
####018000081####
SAAW32 KWBC 081130 RRD
METAR
OISS 081150Z 09012KT CAVOK 40/12 Q1012 A2991=
####018000313####
SAFI33 EFHK 081320
EFJO 081320Z AUTO 04004KT 350V130 CAVOK 28/18 Q1014=
EFLP 081320Z AUTO 16006KT 090V230 CAVOK 31/10 Q1013=
EFMI 081320Z AUTO VRB05KT CAVOK 29/19 Q1013=
EFSA 081320Z VRB02KT 9999 FEW055TCU FEW055CB 31/15 Q1013=
EFUT 081320Z AUTO 18009KT 140V230 CAVOK 30/13 Q1013=
METAR EFVR 081325Z NIL=
####018000620####
SANO31 ENMI 081320
METAR ENAN 081320Z 31007KT CAVOK 15/10 Q1010=
METAR ENBR 081320Z 18014KT 9999 FEW025 BKN040 16/10 Q1014 NOSIG =
METAR ENBO 081320Z 27005KT 240V310 9999 FEW040CB SCT050 BKN180 14/10
           Q1011 TEMPO SHRA TS BKN030CB=
METAR ENDU 081320Z 31006KT 280V020 9999 -SHRA FEW050 BKN070 17/11
           Q1010=
METAR ENGM 081310Z 18015KT 9999 FEW014 SCT016 BKN050 17/13 Q1015
           NOSIG=
METAR ENOL 081320Z 25004KT 300V070 9999 SCT030 20/07 Q1010 NOSIG=
METAR ENVA 081320Z 25010KT 9999 FEW040CB FEW070 20/12 Q1010 NOSIG =
METAR ENZV 081320Z 22012KT 9999 SCT020 BKN170 18/11 Q1015 NOSIG=
####018000084####
SAAF17 LFPW 081300 RRC
METAR HETB 081300Z 33010KT CAVOK       34/09 Q1012 NOSIG=
####018000145####
SAAF11 LFPW 081300 CCA
METAR COR FKKD 081300Z VRB04KT 9999 BKN016 FEW020CB BKN120 28/25
Q1013
      TEMPO 4000 TSRA BKN013 SCT016CB BKN100=
####018000940####
SPUS70 KWBC 081326
SPECI
KDEQ 081322Z AUTO 11003KT 10SM SCT005 OVC045 25/23 A3006 RMK
     AO2=
KTKI 081322Z 10003KT 10SM BKN033 25/24 A3005 RMK AO2 RAE1258
     P0000=
PPIZ 081321Z AUTO 21007KT 7SM CLR 06/02 A3007 RMK AO2 TSNO $=
KPPF 081323Z AUTO 00000KT 10SM FEW004 SCT010 23/22 A3009 RMK
     AO2=
KGKY 081323Z 13003KT 10SM FEW021 BKN055 26/23 A3004 RMK AO2=
KBGR 081324Z 18007KT 10SM FEW012 BKN044 23/20 A3010 RMK AO2=
KBMI 081325Z 20005KT 10SM FEW009 SCT070 25/23 A3006 RMK AO2 $=
KCOT 081324Z AUTO 03006KT 10SM BKN009 OVC019 26/23 A2991 RMK AO2
     RAE1257 CIG 008V012 P0000=
KILG 081324Z 12005KT 2SM BR OVC007 26/23 A3005 RMK AO2 SFC VIS 4
     CIG 003V008=
KLNR 081324Z AUTO 28005KT 7SM BKN008 OVC013 23/21 A3006 RMK AO2
     CIG 004V010=
KMYF 081324Z 33003KT 7SM BKN009 OVC017 16/14 A2991 RMK AO2 CIG
     006V012=
PAHC 081323Z AUTO 00000KT 2SM BR CLR 07/07 A2998 RMK AO2 TSNO
     $=
####018000078####
SAUK34 EGGY 081320 RRA
METAR EGHE 081320Z 20012KT 9999 FEW025 19/14 Q1019=
####018000172####
SPXX60 KWBC 081326
SPECI
KNGP 081322Z 03005KT 5SM RA BR FEW008 BKN019CB BKN025 28/26 A2983
     RMK AO2 RAB12 CB DSNT S TCU OHD-NE TCU DSNT SW-W WR//
     P0004=
####018000154####
SAAF35 KWBC 081300 RRC
METAR
HESN 081300Z NIL=
HLLT 081320Z 01010KT 340V040 8000 SKC 30/18 Q1018=
HSSS 081300Z 09006KT CAVOK 41/03 Q1006 NOSIG=
####018000028####
SABX31 KWBC 081320
NIL=
####018000081####
SAAW32 KWBC 081030 RRE
METAR
OISS 081025Z 15014KT CAVOK 39/08 Q1013 A2992=
####018000112####
SAAF14 LFPW 081300 CCA
METAR COR FEFF 081300Z 18002KT 9999 FEW026 FEW040CB BKN300 31/22
Q1013
      NOSIG=
####018000082####
SPAU32 YBBN 081325
SPECI YBMA 081325Z AUTO 00000KT 6000NDV // NCD 08/07 Q1020=
####018000081####
SAAW32 KWBC 081230 RRC
METAR
OISS 081250Z 09004KT CAVOK 40/11 Q1012 A2989=
####018000714####
SAUS70 KWBC 081326 RRA
METAR
KHBI 081323Z AUTO 00000KT 7SM CLR 28/20 A3004 RMK AO2=
KJFZ 081320Z AUTO 00000KT 7SM CLR 24/20 A3018 RMK=
KRHP 081325Z AUTO 00000KT 10SM CLR 23/19 A3014 RMK AO2=
KRMN 081320Z AUTO 00000KT 5SM BR SCT014 SCT090 27/25 A3005 RMK
     AO2=
KSFQ 081320Z AUTO 07003KT 10SM CLR 27/24 A3001 RMK AO2=
KSHD 081320Z AUTO 00000KT 7SM CLR 29/19 A3009 RMK AO2=
KTDF 081323Z AUTO 02003KT 5SM CLR 27/21 A3003 RMK AO1=
KVDF 081316Z AUTO 00000KT 10SM CLR 27/23 A3003 RMK AO2=
KVDI 081324Z AUTO 30004KT 10SM CLR 29/20 A3003 RMK AO1=
KXLL 081320Z AUTO 00000KT 7SM CLR 29/23 A3005 RMK AO2
     T02850228=
KXSA 081320Z AUTO 08007KT 10SM SCT014 30/23 A3001 RMK AO2
     PWINO=
####018000126####
SAAF27 LFPW 081300 CCA
METAR COR FGSL 081300Z 29005KT 270V330 7000 -TSRA BKN013 FEW020CB
BKN130
      25/25 Q1013 NOSIG=
####018001707####
SAEW KAWN 081300 RRJ
METAR EDAH 081320Z VRB03KT CAVOK 25/09 Q1021=
METAR EDFH 081320Z 14006KT 080V220 CAVOK 28/11 Q1021=
METAR EDLN 081320Z VRB05KT CAVOK 32/11 Q1018=
METAR EDLP 081320Z VRB04KT CAVOK 31/11 Q1020=
METAR EDMA 081320Z VRB04KT 160V160 CAVOK 27/09 Q1022=
METAR EDQM 081320Z 16005KT 090V230 CAVOK 25/10 Q1023=
METAR EDTL 081320Z VRB03KT CAVOK 31/11 Q1019=
METAR EDXW 081320Z 24008KT 8000 FEW039 19/16 Q1019=
METAR EGJJ 081320Z 28010KT 240V300 9999 FEW008 21/17 Q1019 NOSIG=
METAR EKAH 081320Z AUTO 19002KT 9999NDV R10R/P1500N R28L/0325VP1500D
      FEW077/// BKN092/// 21/16 Q1019=
METAR EKBI 081320Z 22005KT 190V250 9999 FEW022 BKN050 BKN070 21/17
      Q1019=
METAR EKCH 081320Z 17014KT CAVOK 23/15 Q1020 NOSIG=
METAR EKEB 081320Z AUTO 17008KT 6000NDV -SHRA BKN038/// 18/16 Q1019
      RESHRA=
METAR EKKA 081320Z 22004KT 180V250 8000 -SHRA SCT009 FEW018TCU BKN030
      19/18 Q1018 TEMPO 4000 SHRA BKN008 SCT020CB=
METAR EKRK 081320Z AUTO 22009KT 180V250 9999NDV BKN050/// 25/11 Q1020=
METAR EKRN 081320Z AUTO 19005KT 160V230 9999NDV NCD 21/15 Q1022=
METAR EKSP 081320Z 26013KT 9999 -RA FEW025 BKN100 23/13 Q1019 NOSIG=
METAR EKYT 081320Z 22010KT 6000 -SHRA BKN012TCU BKN023 18/17 Q1018
      TEMPO 7000 BKN010=
METAR ETHL 081320Z 19003KT 9999 FEW140 27/08 Q1022 BLU/BLU/=
METAR ETHR 081320Z 13004KT 9999 FEW340 27/06 Q1022 BLU/BLU/=
METAR ETNN 081320Z 23004KT 9999 FEW060 SCT300 31/04 Q1019 BLU/BLU/=
METAR ETSA 081320Z 01005KT 9999 26/09 Q1023 BLU/BLU/=
METAR ETSB 081320Z 20004KT 9999 FEW060 28/08 Q1021 BLU/BLU/=
METAR ETSI 081320Z 09005KT 9999 27/07 Q1022 BLU/BLU/=
METAR ETSL 081320Z 02005KT 9999 FEW040 26/08 Q1022 BLU/BLU/=
####018000750####
SAAM31 FCBB 081300 CCA
METAR COR FCBB 081300Z 21008KT 270V160 7000 FEW023 27/20 Q1013 NOSIG=
METAR COR FCPP 081300Z 18008KT 7000 FEW013 OVC033 24/21 Q1012 NOSIG=
METAR COR FKKD 081300Z VRB04KT 9999 BKN016 FEW020CB BKN120 28/25
Q1013
      TEMPO 4000 TSRA BKN013 SCT016CB BKN100=
METAR COR FKYS 081300Z 25003KT 210V280 9999 BKN016 26/20 Q1016 NOSIG=
METAR COR FEFF 081300Z 18002KT 9999 FEW026 FEW040CB BKN300 31/22
Q1013
      NOSIG=
METAR COR FOOL 081300Z 23006KT 190V260 9000 SCT011 BKN030 27/23 Q1013
      NOSIG=
METAR COR FGSL 081300Z 29005KT 270V330 7000 -TSRA BKN013 FEW020CB
BKN130
      25/25 Q1013 NOSIG=
METAR COR FZAA 081300Z 27008KT 4000 BR SKC 27/19 Q1012 NOSIG=
METAR COR FNLU 081300Z 27011KT CAVOK 24/19 Q1011 NOSIG=
####018000372####
SPUS80 KWBC 081326
SPECI
KDAL 081322Z 10004KT 10SM SCT016 BKN037 BKN055 OVC130 26/24 A3004
     RMK AO2 RAE11 VCSH W-N P0000=
KLAX 081321Z 24004KT 7SM BCFG SCT009 OVC011 16/13 A2992 RMK
     AO2=
KCNU 081323Z AUTO 09004KT 2 1/2SM BR OVC001 23/22 A3009 RMK
     AO2=
PAYA 081323Z 00000KT 10SM FEW009 OVC090 11/09 A3018 RMK AO2 BAY
     TWR WND 090MMKT=
####018001756####
SAEU KAWN 081300 RRX
METAR EDAC 081320Z 29005KT 200V320 CAVOK 27/11 Q1021=
METAR EDAH 081320Z VRB03KT CAVOK 25/09 Q1021=
METAR EDHK 081320Z 25009KT 9999 FEW060 BKN120 29/10 Q1019 BLU BLU=
METAR EDHL 081320Z 21009KT 170V240 CAVOK 29/13 Q1019=
METAR EDLN 081320Z VRB05KT CAVOK 32/11 Q1018=
METAR EDLP 081320Z VRB04KT CAVOK 31/11 Q1020=
METAR EDLW 081320Z 24005KT 180V330 CAVOK 31/10 Q1020=
METAR EDNY 081320Z 18004KT CAVOK 28/09 Q1021=
METAR EDQM 081320Z 16005KT 090V230 CAVOK 25/10 Q1023=
METAR EDSB 081320Z VRB03KT CAVOK 32/11 Q1020=
METAR EDTL 081320Z VRB03KT CAVOK 31/11 Q1019=
METAR EDVK 081320Z 16005KT 100V250 CAVOK 28/11 Q1021=
METAR ETGG 081320Z 26013KT 9999 SCT080 BKN110 25/13 Q1019 BLU=
METAR ETGY 081320Z 20004KT 9999 FEW080 BKN250 31/08 Q1018 BLU/=
METAR ETGZ 081320Z VRB02KT 9999 FEW060 25/08 Q1024 BLU/=
METAR ETHA 081320Z 06005KT 9999 FEW060 25/10 Q1023 BLU/BLU/=
METAR ETHB 081320Z 24003KT 9999 FEW070 SCT250 31/10 Q1019 BLU/BLU/=
METAR ETHC 081320Z 23007KT 9999 FEW140 31/09 Q1019 BLU/BLU/=
METAR ETHE 081320Z 23006KT 9999 FEW070 SCT140 BKN300 30/08 Q1018 BLU/BLU/=
METAR ETHN 081320Z 20005KT 9999 FEW250 27/08 Q1022 BLU/BLU/=
METAR ETHS 081320Z 25006KT 9999 FEW070 31/08 Q1019 BLU/BLU/=
METAR ETND 081320Z 24007KT 9999 FEW070 BKN280 30/10 Q1018 BLU/=
METAR ETNH 081320Z 23009KT 9999 SCT110 BKN210 28/10 Q1019 BLU/BLU/
      TEMPO BLU=
METAR ETNS 081320Z 24011KT 9999 FEW080 BKN110 BKN210 28/06 Q1019 BLU
      BLU=
METAR ETNT 081320Z 33006KT 9999 SCT060 SCT120 29/14 Q1018 BLU/BLU/=
METAR ETSH 081320Z 16004KT 9999 FEW150 SCT250 28/07 Q1020 BLU/BLU/=
METAR ETSN 081320Z 13004KT 9999 FEW300 26/07 Q1022 BLU/BLU/=
METAR ETWM 081320Z 28007KT 9999 FEW070 BKN210 30/10 Q1018 BLU/=
####018000529####
SAIY32 LIIB 081320
METAR LIBD 081320Z 36014KT CAVOK 25/12 Q1020=
METAR LIBR 081315Z /////KT CAVOK 26/14 Q1018 NOSIG=
METAR LICC 081320Z 10014KT CAVOK 28/20 Q1017=
METAR LICJ 081320Z 04014KT 9999 FEW018 28/23 Q1018=
METAR LIPE 081320Z 08004KT 030V120 CAVOK 30/15 Q1020=
METAR LIPH 081315Z 17005KT 9999 FEW025 28/21 Q1022=
METAR LIPQ 081320Z VRB03KT CAVOK 27/14 Q1021=
METAR LIPR 081315Z 08012KT CAVOK 28/19 Q1021=
METAR LIPX 081315Z 21003KT 9999 FEW040 30/13 Q1021=
METAR LIPZ 081320Z 13006KT 9999 FEW040 27/18 Q1021=
####018000742####
SAIY31 LIIB 081320
METAR LIEA 081320Z 21006KT 170V270 9999 FEW025 33/21 Q1019=
METAR LIEE 081315Z 15013KT 9999 FEW020 28/20 Q1019 NOSIG=
METAR LIEO 081320Z 05011KT 020V090 CAVOK 31/20 Q1019=
METAR LIMC 081320Z VRB03KT 9999 FEW025 29/15 Q1021 NOSIG=
METAR LIME 081320Z VRB03KT 9999 BKN050 28/16 Q1022=
METAR LIMF 081320Z 03004KT 9999 FEW070 26/15 Q1021=
METAR LIMJ 081320Z 17006KT 9999 SCT035 29/25 Q1019=
METAR LIML 081320Z 16004KT 9999 FEW030 29/16 Q1021 NOSIG=
METAR LIRA 081315Z 25007KT 180V310 9999 FEW018 30/17 Q1019=
METAR LIRF 081320Z 24011KT 210V270 CAVOK 29/18 Q1020 NOSIG=
METAR LIRN 081320Z 04004KT CAVOK 29/14 Q1018=
METAR LIRP 081315Z 26008KT CAVOK 31/17 Q1019 NOSIG=
METAR LIRQ 081320Z VRB05KT CAVOK 32/15 Q1019=
####018000741####
SADL31 KWBC 081320
METAR
EDBB NIL=
EDBT NIL=
EDCK NIL=
EDDF 081320Z 17004KT 090V210 CAVOK 30/11 Q1020 NOSIG=
EDDH 081320Z 23008KT CAVOK 30/11 Q1018 NOSIG=
EDDK 081320Z 07005KT 020V100 CAVOK 31/10 Q1019 NOSIG=
EDDL 081320Z 25008KT CAVOK 31/08 Q1018 NOSIG=
EDDM 081320Z 08004KT 350V110 CAVOK 25/09 Q1022 NOSIG=
EDDN 081320Z 15004KT 360V160 CAVOK 28/07 Q1021 NOSIG=
EDDS 081320Z VRB02KT CAVOK 29/10 Q1021 NOSIG=
EDDW 081320Z 26006KT CAVOK 30/07 Q1018 NOSIG=
EDFE 081320Z 16004KT 130V200 CAVOK 30/11 Q1019=
EDFM 081320Z VRB03KT 100V100 CAVOK 32/10 Q1019=
EDHI 081320Z 24007KT 160V280 CAVOK 30/12 Q1019=
EDHL 081320Z 21009KT 170V240 CAVOK 29/13 Q1019=
EDKB NIL=
EDKS NIL=
EDLE NIL=
EDLG NIL=
EDLI NIL=
####018000120####
SACI32 KWBC 081300 RRB
METAR
ZMUB 081330Z 15011MPS 9999 FEW030CB BKN033 16/11 Q1007 NOSIG RMK
     QFE648.8 74=
####018000173####
SADL33 KWBC 081315 RRB
METAR
EDNY 081320Z 18004KT CAVOK 28/09 Q1021=
EDVK 081320Z 16005KT 100V250 CAVOK 28/11 Q1021=
EDXW 081320Z 24008KT 8000 FEW039 19/16 Q1019=
####018000519####
SADL32 KWBC 081320
METAR
EDLN 081320Z VRB05KT CAVOK 32/11 Q1018=
EDLP 081320Z VRB04KT CAVOK 31/11 Q1020=
EDLS NIL=
EDLW 081320Z 24005KT 180V330 CAVOK 31/10 Q1020=
EDMA 081320Z VRB04KT 160V160 CAVOK 27/09 Q1022=
EDML NIL=
EDMO 081320Z 03007KT 360V100 CAVOK 26/09 Q1022=
EDMS NIL=
EDQD NIL=
EDQM 081320Z 16005KT 090V230 CAVOK 25/10 Q1023=
EDRS NIL=
EDRT NIL=
EDTB NIL=
EDTD 081320Z 14004KT 050V230 CAVOK 28/13 Q1022=
EDTF NIL=
EDTK NIL=
EDTO NIL=
EDTY NIL=
EDTZ NIL=
EDVE NIL=
####018001482####
SAEN31 KWBC 081320
METAR
EETN 081320Z 30008KT 270V340 CAVOK 25/17 Q1014 NOSIG=
EFHF 081320Z 33008KT 270V020 9999 FEW042 SCT055 28/18 Q1013=
EFHK 081320Z 33006KT 9999 FEW040CB SCT055 28/17 Q1013 BECMG TS=
EFIV NIL=
EFJY 081320Z 07004KT 020V110 9999 SCT035 SCT200 25/17 Q1015=
EFKE NIL=
EFKK 081320Z AUTO 23007KT 180V300 CAVOK 25/10 Q1014=
EFKU 081320Z AUTO 34004KT CAVOK 25/17 Q1015=
EFMA 081320Z 20008KT 160V220 CAVOK 21/14 Q1016=
EFOU 081320Z VRB02KT 9999 FEW040 BKN200 23/11 Q1015=
EFPN NIL=
EFPO 081320Z AUTO 25007KT 200V300 CAVOK 24/11 Q1015=
EFRO 081320Z AUTO 19005KT 110V230 CAVOK 21/08 Q1015=
EFTN NIL=
EFTP 081320Z VRB04KT 9999 FEW045 SCT200 26/14 Q1015=
EFTU 081320Z AUTO 29008KT 250V320 CAVOK 26/12 Q1015=
EFVA 081320Z 27005KT 220V310 9999 FEW030 SCT200 24/13 Q1014=
ENBO 081320Z 27005KT 240V310 9999 FEW040CB SCT050 BKN180 14/10
     Q1011 TEMPO SHRA TS BKN030CB=
ENBR 081320Z 18014KT 9999 FEW025 BKN040 16/10 Q1014 NOSIG=
ENCN 081320Z 19011KT 9999 SCT040 BKN070 17/15 Q1016=
ENEB NIL=
ENFB NIL=
ENGM NIL=
ENHD 081320Z 20012KT 9999 FEW030 16/12 Q1015=
ENKR 081320Z NIL=
ENSB 081320Z NIL=
ENTC 081320Z 01010KT 9999 FEW065 SCT082 18/09 Q1010=
ENVA 081320Z 25010KT 9999 FEW040CB FEW070 20/12 Q1010 NOSIG=
ENZV 081320Z 22012KT 9999 SCT020 BKN170 18/11 Q1015 NOSIG=
EVRA 081320Z 32010KT 280V350 9999 OVC030 21/14 Q1015 NOSIG=
EYVI 081320Z 29011KT 260V320 4000 -SHRA BKN005 OVC010CB 15/14
     Q1015 NOSIG=
####018000929####
SADN31 KWBC 081320
METAR
EKAH 081320Z AUTO 19002KT 9999NDV R10R/P1500N R28L/0325VP1500D
     FEW077/// BKN092/// 21/16 Q1019=
EKBI 081320Z 22005KT 190V250 9999 FEW022 BKN050 BKN070 21/17
     Q1019=
EKCH 081320Z 17014KT CAVOK 23/15 Q1020 NOSIG=
EKEB 081320Z AUTO 17008KT 6000NDV -SHRA BKN038/// 18/16 Q1019
     RESHRA=
EKHO NIL=
EKKA 081320Z 22004KT 180V250 8000 -SHRA SCT009 FEW018TCU BKN030
     19/18 Q1018 TEMPO 4000 SHRA BKN008 SCT020CB=
EKMB NIL=
EKOD 081320Z NIL=
EKRK 081320Z AUTO 22009KT 180V250 9999NDV BKN050/// 25/11
     Q1020=
EKRN 081320Z AUTO 19005KT 160V230 9999NDV NCD 21/15 Q1022=
EKSB 081320Z NIL=
EKSN 081320Z NIL=
EKSP 081320Z 26013KT 9999 -RA FEW025 BKN100 23/13 Q1019 NOSIG=
EKSV NIL=
EKTS NIL=
EKVA NIL=
EKVD 081320Z NIL=
EKVG NIL=
EKVJ 081320Z NIL=
EKVL NIL=
EKYT 081320Z 22010KT 6000 -SHRA BKN012TCU BKN023 18/17 Q1018 TEMPO
     7000 BKN010=
####018000108####
SAEN31 KWBC 081250 RRB
METAR
ENGM 081310Z 18015KT 9999 FEW014 SCT016 BKN050 17/13 Q1015
     NOSIG=
####018001250####
SADL51 ETGT 081320
METAR
EDHK 081320Z 25009KT 9999 FEW060 BKN120 29/10 Q1019
      BLU BLU=
ETGG 081320Z 26013KT 9999 SCT080 BKN110 25/13 Q1019
      BLU=
ETGY 081320Z 20004KT 9999 FEW080 BKN250 31/08 Q1018
      BLU+=
ETHB 081320Z 24003KT 9999 FEW070 SCT250 31/10 Q1019
      BLU+BLU+=
ETHC 081320Z 23007KT 9999 FEW140 31/09 Q1019
      BLU+BLU+=
ETHE 081320Z 23006KT 9999 FEW070 SCT140 BKN300 30/08 Q1018
      BLU+BLU+=
ETHF 081320Z 17006KT 9999 FEW300 28/10 Q1020
      BLU+BLU+=
ETHS 081320Z 25006KT 9999 FEW070 31/08 Q1019
      BLU+BLU+=
ETMN NIL=
ETND 081320Z 24007KT 9999 FEW070 BKN280 30/10 Q1018
      BLU+=
ETNH 081320Z 23009KT 9999 SCT110 BKN210 28/10 Q1019
      BLU+BLU+ TEMPO BLU=
ETNJ NIL=
ETNL 081320Z 13005KT 9999 FEW130 28/11 Q1020
      BLU+BLU+=
ETNS 081320Z 24011KT 9999 FEW080 BKN110 BKN210 28/06 Q1019
      BLU BLU=
ETNT 081320Z 33006KT 9999 SCT060 SCT120 29/14 Q1018
      BLU+BLU+=
ETNU 081320Z 15006KT 9999 FEW100 SCT150 27/10 Q1021
      BLU+=
ETNW 081320Z 26005KT 9999 FEW070 SCT300 31/09 Q1019
      BLU+BLU+=
ETSH 081320Z 16004KT 9999 FEW150 SCT250 28/07 Q1020
      BLU+BLU+=
ETWM 081320Z 28007KT 9999 FEW070 BKN210 30/10 Q1018
      BLU+=
####018000028####
SAGR41 KWBC 081320
NIL=
####018000028####
SAGR31 KWBC 081320
NIL=
####018000028####
SAIY31 KWBC 081320
NIL=
####018000707####
SAEG31 HECA 081300
METAR HEBL 081300Z 04014KT CAVOK       40/08 Q1008 NOSIG=
METAR HEAX 081300Z 32013KT 9999 FEW020 30/21 Q1010 NOSIG=
METAR HEMM 081300Z 33010KT CAVOK       28/21 Q1012 NOSIG=
METAR HEPS 081300Z 34011KT CAVOK       29/23 Q1010 NOSIG=
METAR HELX 081300Z 30012KT CAVOK       40/11 Q1006 NOSIG=
METAR HESN 081300Z NIL=
METAR HEGN 081300Z 36019KT CAVOK       37/09 Q1005 NOSIG=
METAR HESH 081300Z 36012KT CAVOK       39/11 Q1005 NOSIG=
METAR HEBA 081300Z 33015KT CAVOK       29/20 Q1011 NOSIG=
METAR HEMA 081300Z 01020KT CAVOK       34/17 Q1005 NOSIG=
METAR HETB 081300Z 33010KT CAVOK       34/09 Q1012 NOSIG=
METAR HESC 081300Z 05010KT CAVOK       32/10 Q1018 NOSIG=
####018000028####
SAIY32 KWBC 081320
NIL=
####018001058####
SAAM20 FCBB 081300 CCY
METAR FCBB 081300Z 21008KT 270V160 7000 FEW023 27/20 Q1013 NOSIG=
METAR FCPP 081300Z 18008KT 7000 FEW013 OVC033 24/21 Q1012 NOSIG=
METAR FKKD 081300Z VRB04KT 9999 BKN016 FEW020CB BKN120 28/25 Q1013
      TEMPO 4000 TSRA BKN013 SCT016CB BKN100=
METAR FKYS 081300Z 25003KT 210V280 9999 BKN016 26/20 Q1016 NOSIG=
METAR FKKR 081300Z 08004KT 9999 FEW020 BKN130 BKN300 27/23 Q1012
      NOSIG=
METAR FKKN NIL=
METAR FKKL NIL=
METAR FEFT NIL=
METAR FEFG NIL=
METAR FEFF 081300Z 18002KT 9999 FEW026 FEW040CB BKN300 31/22 Q1013
      NOSIG=
METAR FOOL 081300Z 23006KT 190V260 9000 SCT011 BKN030 27/23 Q1013
      NOSIG=
METAR FOOG NIL=
METAR FOON NIL=
METAR FGSL 081300Z 29005KT 270V330 7000 -TSRA BKN013 FEW020CB BKN130
      25/25 Q1013 NOSIG=
METAR FGBT NIL=
METAR FZRF NIL=
METAR FZOS NIL=
METAR FZAA 081300Z 27008KT 4000 BR SKC 27/19 Q1012 NOSIG=
METAR FZIC NIL=
METAR FZFK NIL=
METAR FZQA NIL=
METAR FNHU NIL=
METAR FNLU 081300Z 27011KT CAVOK 24/19 Q1011 NOSIG=
METAR FPST NIL=
####018000028####
SAIY41 KWBC 081320
NIL=
####018000028####
SAIY42 KWBC 081320
NIL=
####018000028####
SAIY43 KWBC 081320
NIL=
####018000028####
SANL31 KWBC 081320
NIL=
####018000628####
SANO41 KWBC 081320
METAR
ENAL 081320Z 23009KT 9999 VCSH FEW045TCU SCT065 17/12 Q1010=
ENAN 081320Z 31007KT CAVOK 15/10 Q1010=
ENAT 081320Z NIL=
ENBL 081320Z NIL=
ENBN 081320Z NIL=
ENBV 081320Z NIL=
ENDI 081320Z NIL=
ENDU 081320Z 31006KT 280V020 9999 -SHRA FEW050 BKN070 17/11
     Q1010=
ENEK 081320Z 22011KT CAVOK 17/13 Q1016 W15/S3=
ENEV 081320Z NIL=
ENFG 081320Z NIL=
ENFL 081320Z 20013KT 140V250 9999 FEW014 SCT050 17/12 Q1012=
ENFR NIL=
ENGC 081320Z 19025KT CAVOK 13/11 Q1009=
ENHF 081320Z NIL=
ENHV 081320Z NIL=
ENKB 081320Z NIL=
ENLI NIL=
ENLK 081320Z NIL=
ENMH 081320Z NIL=
####018000732####
SAPA32 KWBC 081300
METAR
NCRG 081300Z 02004KT 9999 FEW010 SCT015 25/24 Q1018=
NFFN 081300Z 11004KT 40KM FEW030 20/18 Q1013 NOSIG RMK RR NIL=
NFNA 081300Z 00000KT 40KM FEW024 SCT300 19/19 Q1014 RMK RR NIL DEW
     HVY=
NFTF 081300Z 00000KT 9999 FEW015 18/17 Q1015=
NFTV NIL=
NGFU 081300Z 09008KT 50KM SCT020TCU 28/24 Q1009=
NGTA NIL=
NIUE 081300Z AUTO 15006KT //// ////// 23/23 Q1014=
NLWW NIL=
NSFA 081300Z 00000KT 50KM FEW024 25/23 Q1012=
NSFI NIL=
NSFU NIL=
NSMA NIL=
NSTU 081250Z 07012KT 10SM FEW016 28/26 A2988 RMK SLP119
     T02780259=
NTAA 081300Z 09003KT 9999 FEW023 25/22 Q1015 WS ALL RWY NOSIG=
NTTG NIL=
NTTO NIL=
NVVV NIL=
NWWW 081300Z AUTO VRB02KT 9999NDV NCD 16/15 Q1016=
####018000836####
SANO42 KWBC 081320
METAR
ENML 081320Z 28010KT 9999 VCSH FEW040 BKN060 19/09 Q1010=
ENMS 081320Z NIL=
ENNA 081320Z 15009KT 9999 FEW045CB SCT070 23/09 Q1012=
ENNK 081320Z NIL=
ENNM NIL=
ENNO 081320Z NIL=
ENOA 081320Z 20024KT 9999 FEW045 13/11 Q1011=
ENOL 081320Z 25004KT 300V070 9999 SCT030 20/07 Q1010 NOSIG=
ENOV 081320Z NIL=
ENRA 081320Z NIL=
ENRM 081320Z NIL=
ENRO 081320Z 08005KT 010V120 9999 FEW030 SCT050 BKN090 15/09
     Q1011=
ENRS 081320Z NIL=
ENRY 081320Z 19009KT 9999 FEW008 BKN010 17/15 Q1016 TEMPO
     BKN015=
ENSD 081320Z NIL=
ENSG 081320Z NIL=
ENSH 081320Z NIL=
ENSK 081320Z NIL=
ENSN 081320Z NIL=
ENSO 081320Z 20009KT 140V240 9999 SCT030 18/10 Q1014=
ENSR 081320Z NIL=
ENST 081320Z NIL=
ENSV NIL=
ENTO 081320Z 19013KT 9000 BKN004 16/15 Q1016=
ENVD 081320Z NIL=
####018000216####
SAPO31 KWBC 081300 RRC
METAR
LPFL 081300Z 20007KT 150V240 9999 FEW023TCU BKN040 24/17 Q1022 RMK
     WIND RWY36 20005KT 130V290 POS MID 19007KT 160V230=
LPOV 081300Z 35002KT 8000 FEW007 BKN016 21/19 Q1015=
####018001198####
SASN31 KWBC 081320
METAR
ESDB NIL=
ESDF 081320Z 21011KT 170V250 CAVOK 22/12 Q1020=
ESGG 081320Z 19009KT 7000 -RADZ BR FEW004 SCT009 BKN025 17/15
     Q1019=
ESGJ 081320Z AUTO 21014KT 8000NDV BR SCT046/// BKN060/// 23/10
     Q1019=
ESGP 081320Z 18012KT 5000 DZ BKN007 OVC030 17/16 Q1019 RERA=
ESKN 081320Z 23012KT 200V280 9999 SCT048 24/13 Q1017=
ESMK 081320Z 22009KT 170V280 CAVOK 27/11 Q1020=
ESMS 081320Z 19011KT 150V220 CAVOK 24/10 Q1021=
ESMX 081320Z 23011KT CAVOK 25/11 Q1020=
ESNN 081320Z AUTO 26006KT 230V300 9999NDV BKN045/// 22/14
     Q1012=
ESNO 081320Z 17010KT CAVOK 20/11 Q1013=
ESNQ 081320Z 16009KT 9999 -RA FEW040 SCT045 BKN052 16/12 Q1012=
ESNS 081320Z AUTO 14008KT 9999NDV ////// 21/09 Q1014=
ESNU 081320Z 16009KT CAVOK 21/11 Q1014=
ESOK 081320Z 17008KT 9999 BKN028 20/14 Q1017=
ESOW 081320Z 23011KT CAVOK 24/14 Q1017=
ESPA 081320Z 14010KT CAVOK 19/14 Q1015=
ESPC NIL=
ESSA 081320Z 24013KT 9999 SCT045 24/14 Q1016 NOSIG=
ESSB 081320Z 24009KT 9999 BKN046 24/13 Q1016=
ESSD 081320Z AUTO 24009KT 9999NDV BKN028/// 20/13 Q1016=
ESSN NIL=
ESSP 081320Z 25008KT 220V290 CAVOK 25/12 Q1017=
ESSV 081320Z 26007KT CAVOK 23/11 Q1019=
####018000984####
SAUK31 KWBC 081320
METAR
EGAA 081320Z 22009KT 190V250 9999 FEW032 SCT040 17/10 Q1014=
EGBB 081320Z 24008KT 210V280 CAVOK 23/08 Q1018=
EGCC 081320Z 20010KT 170V230 9999 SCT038 20/10 Q1017=
EGFF 081320Z 27006KT 200V310 9999 FEW030 21/12 Q1019=
EGGD 081320Z 28008KT 9999 FEW034 20/10 Q1019=
EGGP 081320Z 25012KT 9999 SCT047 21/09 Q1017=
EGGW 081320Z 23007KT 160V270 9999 FEW037 24/12 Q1018=
EGHD 081320Z 21008KT 150V240 9999 FEW020 20/13 Q1019=
EGHH 081320Z 20009KT 9999 FEW026 21/16 Q1019=
EGHI 081320Z NIL=
EGJB 081320Z 29006KT 250V330 9999 FEW013 20/16 Q1020=
EGJJ 081320Z 28010KT 240V300 9999 FEW008 21/17 Q1019 NOSIG=
EGKA 081320Z NIL=
EGKB 081320Z 23008KT 190V270 9999 BKN035 25/14 Q1019=
EGKK 081320Z 21010KT 170V230 9999 SCT048 26/12 Q1018=
EGLF 081320Z NIL=
EGLL 081320Z 23008KT 200V290 9999 BKN035 24/14 Q1018=
EGMC 081320Z 23006KT 180V260 9999 FEW039 25/16 Q1018=
EGMD 081320Z 19009KT 9999 FEW020 21/16 Q1019=
EGNH NIL=
EGNJ NIL=
####018000405####
SAUK42 KWBC 081320
METAR
EGOS NIL=
EGOV NIL=
EGPC NIL=
EGPE NIL=
EGPF 081320Z 23018KT 9999 FEW030 17/10 Q1013=
EGPL NIL=
EGPM NIL=
EGPN NIL=
EGPO NIL=
EGPT NIL=
EGPU NIL=
EGPW NIL=
EGQJ NIL=
EGQK NIL=
EGQL NIL=
EGQM NIL=
EGQS NIL=
EGSC NIL=
EGSS 081320Z 22007KT 180V250 9999 SCT032 23/14 Q1018=
EGTC 081320Z 21008KT 190V250 9999 FEW045 22/12 Q1018=
EGTI NIL=
####018000098####
SPUS42 KWBC 081326
SPECI
KDAL 081322Z 10004KT 10SM SCT016 BKN037 BKN055 OVC130 26/24 A3004=
####018000670####
SAUK32 KWBC 081320
METAR
EGNM 081320Z 25011KT 210V290 9999 SCT035 18/09 Q1017=
EGNS 081320Z NIL=
EGNT 081320Z 26013G23KT 210V280 9999 FEW045 21/06 Q1014=
EGNV 081320Z 23018KT 9999 FEW040 21/09 Q1016=
EGNX 081320Z 26009KT 210V300 CAVOK 22/08 Q1017=
EGPA NIL=
EGPB 081320Z 19015KT 9999 FEW040 16/11 Q1008 NOSIG=
EGPC NIL=
EGPD 081320Z 23014KT 200V270 9999 FEW048 18/08 Q1011 NOSIG=
EGPF 081320Z 23018KT 9999 FEW030 17/10 Q1013=
EGPH 081320Z 25015KT 220V280 9999 SCT045 19/08 Q1013=
EGPK 081320Z 23015KT 9999 FEW026 19/10 Q1014=
EGSH NIL=
EGTE 081320Z 16012KT 130V200 9999 FEW030 21/15 Q1018=
EGTG 081320Z 28009KT 9999 FEW034 21/09 Q1019=
####018000529####
SAUK41 KWBC 081320
METAR
EGAC 081320Z 21016KT 9999 FEW028 SCT044 18/08 Q1014=
EGAE NIL=
EGBE NIL=
EGBJ NIL=
EGDC NIL=
EGDG NIL=
EGDL NIL=
EGDM NIL=
EGDN NIL=
EGDP NIL=
EGDR NIL=
EGDY NIL=
EGFH NIL=
EGGP 081320Z 25012KT 9999 SCT047 21/09 Q1017=
EGGW 081320Z 23007KT 160V270 9999 FEW037 24/12 Q1018=
EGHE 081320Z NIL=
EGJA 081320Z 26006KT 220V320 CAVOK 19/16 Q1020=
EGLC 081320Z 28005KT 220V310 9999 SCT030 24/14 Q1018=
EGNC NIL=
EGNT 081320Z 26013G23KT 210V280 9999 FEW045 21/06 Q1014=
####018000573####
SASW31 KWBC 081320
METAR
LSGC 081320Z 07005KT 010V140 CAVOK 26/14 Q1024=
LSGG 081320Z 24007KT 160V290 9999 FEW060 BKN250 32/11 Q1021
     NOSIG=
LSGL NIL=
LSGN NIL=
LSGS 081320Z 24008KT 210V290 9999 FEW120 32/13 Q1019=
LSZA 081320Z 19006KT 9999 FEW055 29/16 Q1021 NOSIG=
LSZB 081320Z VRB03KT CAVOK 31/11 Q1021 NOSIG=
LSZD NIL=
LSZG 081320Z VRB02KT 9999 FEW050 29/13 Q1021 NOSIG=
LSZH 081320Z VRB03KT CAVOK 29/12 Q1021 NOSIG=
LSZL NIL=
LSZR 081320Z 33003KT CAVOK 27/11 Q1021 NOSIG RMK J=
LSZS 081320Z 30010KT 260V350 9999 FEW070 26/06 Q1026=
####018000095####
SAUK31 KWBC 081320 CCA
METAR
EGLL 081320Z 23008KT 200V290 9999 BKN035 24/14 Q1018 NOSIG=
####018000173####
SAXX61 KWBC 081300 RRC
METAR
EDAH 081320Z VRB03KT CAVOK 25/09 Q1021=
EDMA 081320Z VRB04KT 160V160 CAVOK 27/09 Q1022=
EGPK 081320Z 23015KT 9999 FEW026 19/10 Q1014=
####018000099####
SAUS46 KLOX 081325
MTRSMX
SPECI KSMX 081324Z 32003KT 2 1/2SM BR OVC002 12/11 A2994 RMK AO2 $
####018000087####
SAXX99 KWBC 081300 CCC
METAR
EGHK 081320Z 16005KT 9999 SCT018 18/15 Q1018 NOSIG=
####018002066####
SAXX99 KWBC 081300 RRS
METAR
BKPR 081330Z 35007KT 9999 SCT030 BKN060 17/11 Q1021 NOSIG RMK
     BLU=
CZFS 081300Z AUTO 33002KT 15/13 RMK AO1 SLP152 T01480132 58004=
CZHY 081300Z AUTO 27003KT 15/13 RMK AO1 SLP140 T01500128 58001=
EDAC 081320Z 29005KT 200V320 CAVOK 27/11 Q1021=
EDFH 081320Z 14006KT 080V220 CAVOK 28/11 Q1021=
EDGS 081320Z 16006KT 110V210 9999 VV/// 25/10 Q1022=
EDLV 081320Z VRB07KT CAVOK 32/10 Q1019=
EDOP 081320Z 20008KT 130V230 CAVOK 30/08 Q1020=
EDRZ 081320Z 19007KT 140V260 CAVOK 30/12 Q1021=
EDSB 081320Z VRB03KT CAVOK 32/11 Q1020=
EDTL 081320Z VRB03KT CAVOK 31/11 Q1019=
EFHA 081320Z AUTO VRB02KT CAVOK 25/14 Q1014=
EFKA 081320Z 20006KT 150V260 CAVOK 25/11 Q1014=
EFSI 081320Z AUTO 23004KT 180V280 CAVOK 25/11 Q1014=
EGHK 081320Z 16005KT 9999 SCT018 18/15 Q1018=
EGMH 081320Z 11010KT 9999 FEW022 21/17 Q1018=
EGTG 081320Z 28009KT 9999 FEW034 21/09 Q1019=
EKGF 081320Z NIL=
ENBS 081320Z NIL=
ENDR 081320Z NIL=
ENHE 081320Z 19026KT 9999 FEW040 SCT100 16/11 Q1009=
ENHK 081320Z NIL=
ENSS 081320Z NIL=
ESGR 081320Z AUTO 23012KT 200V260 9999NDV BKN044/// 21/14
     Q1018=
ESGT 081320Z 20014KT 9999 SCT016 BKN030 19/14 Q1018=
ESKM 081320Z NIL=
ESMQ 081320Z 16013KT CAVOK 24/14 Q1019=
ESMT 081320Z 21010KT CAVOK 23/14 Q1020=
ESNG 081320Z VRB02KT 9999 RA FEW034 15/14 Q1014=
ESNK 081320Z AUTO 17009KT 9999NDV SCT040/// BKN050/// 21/14
     Q1012=
ESNL 081320Z 16010KT 9999 SCT045 22/10 Q1012=
ESNX 081320Z AUTO 13005KT 9999NDV -DZ FEW059/// SCT190/// 16/14
     Q1013=
ESNY 081320Z AUTO 23008KT 210V300 9999 FEW044 24/14 Q1014=
ESOE 081320Z 22012KT 200V260 9999 SCT041 24/14 Q1017=
ESSF 081320Z NIL=
ESSK 081320Z NIL=
ESSL 081320Z 24010KT 200V280 CAVOK 25/12 Q1017=
ESTA 081320Z 17010KT CAVOK 23/15 Q1020=
ESTL 081320Z AUTO 22011KT 9999NDV FEW027/// BKN055/// 24/10
     Q1020=
ESUD 081320Z NIL=
ESUT 081320Z AUTO 14011KT 9999NDV FEW055/// BKN094/// OVC120///
     18/11 Q1009=
VTUU 081300Z 19004KT 9999 FEW025 BKN300 32/23 Q1007 A2974
     NOSIG=
####018000076####
SPUS53 KWBC 081326
SPECI
KCID 081322Z 33007KT 8SM SCT005 22/20 A3007=
####018000088####
SPUS53 KWBC 081326
SPECI
KCNU 081323Z AUTO 09004KT 2 1/2SM BR OVC001 23/22 A3009=
####018001826####
SAEW KAWN 081300 RRK
METAR EDAC 081320Z 29005KT 200V320 CAVOK 27/11 Q1021=
METAR EDHI 081320Z 24007KT 160V280 CAVOK 30/12 Q1019=
METAR EDHK 081320Z 25009KT 9999 FEW060 BKN120 29/10 Q1019 BLU BLU=
METAR EDHL 081320Z 21009KT 170V240 CAVOK 29/13 Q1019=
METAR EDLW 081320Z 24005KT 180V330 CAVOK 31/10 Q1020=
METAR EDNY 081320Z 18004KT CAVOK 28/09 Q1021=
METAR EDSB 081320Z VRB03KT CAVOK 32/11 Q1020=
METAR EDVK 081320Z 16005KT 100V250 CAVOK 28/11 Q1021=
METAR ETGG 081320Z 26013KT 9999 SCT080 BKN110 25/13 Q1019 BLU=
METAR ETGY 081320Z 20004KT 9999 FEW080 BKN250 31/08 Q1018 BLU/=
METAR ETGZ 081320Z VRB02KT 9999 FEW060 25/08 Q1024 BLU/=
METAR ETHA 081320Z 06005KT 9999 FEW060 25/10 Q1023 BLU/BLU/=
METAR ETHB 081320Z 24003KT 9999 FEW070 SCT250 31/10 Q1019 BLU/BLU/=
METAR ETHC 081320Z 23007KT 9999 FEW140 31/09 Q1019 BLU/BLU/=
METAR ETHE 081320Z 23006KT 9999 FEW070 SCT140 BKN300 30/08 Q1018 BLU/BLU/=
METAR ETHF 081320Z 17006KT 9999 FEW300 28/10 Q1020 BLU/BLU/=
METAR ETHN 081320Z 20005KT 9999 FEW250 27/08 Q1022 BLU/BLU/=
METAR ETHS 081320Z 25006KT 9999 FEW070 31/08 Q1019 BLU/BLU/=
METAR ETND 081320Z 24007KT 9999 FEW070 BKN280 30/10 Q1018 BLU/=
METAR ETNH 081320Z 23009KT 9999 SCT110 BKN210 28/10 Q1019 BLU/BLU/
      TEMPO BLU=
METAR ETNL 081320Z 13005KT 9999 FEW130 28/11 Q1020 BLU/BLU/=
METAR ETNS 081320Z 24011KT 9999 FEW080 BKN110 BKN210 28/06 Q1019 BLU
      BLU=
METAR ETNT 081320Z 33006KT 9999 SCT060 SCT120 29/14 Q1018 BLU/BLU/=
METAR ETNU 081320Z 15006KT 9999 FEW100 SCT150 27/10 Q1021 BLU/=
METAR ETNW 081320Z 26005KT 9999 FEW070 SCT300 31/09 Q1019 BLU/BLU/=
METAR ETSH 081320Z 16004KT 9999 FEW150 SCT250 28/07 Q1020 BLU/BLU/=
METAR ETSN 081320Z 13004KT 9999 FEW300 26/07 Q1022 BLU/BLU/=
METAR ETWM 081320Z 28007KT 9999 FEW070 BKN210 30/10 Q1018 BLU/=
####018001870####
SAEU KAWN 081300 RRX
METAR EDHI 081320Z 24007KT 160V280 CAVOK 30/12 Q1019=
METAR EDMO 081320Z 03007KT 360V100 CAVOK 26/09 Q1022=
METAR EDOP 081320Z 20008KT 130V230 CAVOK 30/08 Q1020=
METAR EHEH 081325Z AUTO 25007KT 9999NDV FEW350 31/11 Q1018 BLU BLU=
METAR ENAL 081320Z 23009KT 9999 VCSH FEW045TCU SCT065 17/12 Q1010=
METAR ENBO 081320Z 27005KT 240V310 9999 FEW040CB SCT050 BKN180 14/10
      Q1011 TEMPO SHRA TS BKN030CB=
METAR ENCN 081320Z 19011KT 9999 SCT040 BKN070 17/15 Q1016=
METAR ENDU 081320Z 31006KT 280V020 9999 -SHRA FEW050 BKN070 17/11 Q1010=
METAR ENFL 081320Z 20013KT 140V250 9999 FEW014 SCT050 17/12 Q1012=
METAR ENGC 081320Z 19025KT CAVOK 13/11 Q1009=
METAR ENGM 081310Z 18015KT 9999 FEW014 SCT016 BKN050 17/13 Q1015 NOSIG=
METAR ENHD 081320Z 20012KT 9999 FEW030 16/12 Q1015=
METAR ENML 081320Z 28010KT 9999 VCSH FEW040 BKN060 19/09 Q1010=
METAR ENNA 081320Z 15009KT 9999 FEW045CB SCT070 23/09 Q1012=
METAR ENOA 081320Z 20024KT 9999 FEW045 13/11 Q1011=
METAR ENOL 081320Z 25004KT 300V070 9999 SCT030 20/07 Q1010 NOSIG=
METAR ENSO 081320Z 20009KT 140V240 9999 SCT030 18/10 Q1014=
METAR ENTC 081320Z 01010KT 9999 FEW065 SCT082 18/09 Q1010=
METAR ENTO 081320Z 19013KT 9000 BKN004 16/15 Q1016=
METAR ETHF 081320Z 17006KT 9999 FEW300 28/10 Q1020 BLU/BLU/=
METAR ETNL 081320Z 13005KT 9999 FEW130 28/11 Q1020 BLU/BLU/=
METAR ETNU 081320Z 15006KT 9999 FEW100 SCT150 27/10 Q1021 BLU/=
METAR ETNW 081320Z 26005KT 9999 FEW070 SCT300 31/09 Q1019 BLU/BLU/=
METAR LOWG 081320Z VRB03KT CAVOK 27/10 Q1022 NOSIG=
METAR LOWI 081320Z 08007KT 020V140 9999 FEW080 29/14 Q1020 NOSIG=
METAR LOWK 081320Z VRB03KT 9999 FEW060 27/11 Q1021 NOSIG=
METAR LOWL 081320Z VRB04KT CAVOK 25/10 Q1022 NOSIG=
METAR LOWS 081320Z 36006KT 260V060 CAVOK 26/09 Q1022 NOSIG=
METAR LOWW 081320Z 34007KT 300V030 CAVOK 24/09 Q1022 NOSIG=
####018000381####
SAOS31 LOWM 081320
METAR LOWW 081320Z 34007KT 300V030 CAVOK 24/09 Q1022 NOSIG=
METAR LOWL 081320Z VRB04KT CAVOK 25/10 Q1022 NOSIG=
METAR LOWS 081320Z 36006KT 260V060 CAVOK 26/09 Q1022 NOSIG=
METAR LOWI 081320Z 08007KT 020V140 9999 FEW080 29/14 Q1020 NOSIG=
METAR LOWG 081320Z VRB03KT CAVOK 27/10 Q1022 NOSIG=
METAR LOWK 081320Z VRB03KT 9999 FEW060 27/11 Q1021 NOSIG=
####018000319####
SAFI33 EFHK 081320
EFJO 081320Z AUTO 04004KT 350V130 CAVOK 28/18 Q1014=
EFLP 081320Z AUTO 16006KT 090V230 CAVOK 31/10 Q1013=
EFMI 081320Z AUTO VRB05KT CAVOK 29/19 Q1013=
EFSA 081320Z VRB02KT 9999 FEW055TCU FEW055CB 31/15 Q1013=
EFUT 081320Z AUTO 18009KT 140V230 CAVOK 30/13 Q1013=
METAR EFVR 081325Z NIL=
####018000369####
SABX31 EBBR 081320
METAR EBAW 081320Z 25007KT 200V300 CAVOK 30/12 Q1018 NOSIG=
METAR EBBR 081320Z 21006KT 180V250 CAVOK 30/11 Q1019 NOSIG=
METAR EBCI 081320Z VRB04KT CAVOK 30/10 Q1019 NOSIG=
METAR EBLG 081320Z 20004KT 150V240 CAVOK 30/07 Q1019 NOSIG=
METAR EBOS 081320Z 34006KT CAVOK 22/15 Q1020 NOSIG=
METAR ELLX 081320Z VRB04KT CAVOK 30/08 Q1020 NOSIG=
####018000091####
SAOS32 LOWM 081320
METAR LOXZ 081320Z 08005KT 70KM FEW070CU 25/08 Q1022 NOSIG RMK FEW=
####018000079####
SAUK34 EGGY 081320 RRA
METAR EGHE 081320Z 20012KT 9999 FEW025 19/14 Q1019=
####018000755####
SAIY31 LIIB 081320
METAR LIEA 081320Z 21006KT 170V270 9999 FEW025 33/21 Q1019=
METAR LIEE 081315Z 15013KT 9999 FEW020 28/20 Q1019 NOSIG=
METAR LIEO 081320Z 05011KT 020V090 CAVOK 31/20 Q1019=
METAR LIMC 081320Z VRB03KT 9999 FEW025 29/15 Q1021 NOSIG=
METAR LIME 081320Z VRB03KT 9999 BKN050 28/16 Q1022=
METAR LIMF 081320Z 03004KT 9999 FEW070 26/15 Q1021=
METAR LIMJ 081320Z 17006KT 9999 SCT035 29/25 Q1019=
METAR LIML 081320Z 16004KT 9999 FEW030 29/16 Q1021 NOSIG=
METAR LIRA 081315Z 25007KT 180V310 9999 FEW018 30/17 Q1019=
METAR LIRF 081320Z 24011KT 210V270 CAVOK 29/18 Q1020 NOSIG=
METAR LIRN 081320Z 04004KT CAVOK 29/14 Q1018=
METAR LIRP 081315Z 26008KT CAVOK 31/17 Q1019 NOSIG=
METAR LIRQ 081320Z VRB05KT CAVOK 32/15 Q1019=
####018000539####
SAIY32 LIIB 081320
METAR LIBD 081320Z 36014KT CAVOK 25/12 Q1020=
METAR LIBR 081315Z /////KT CAVOK 26/14 Q1018 NOSIG=
METAR LICC 081320Z 10014KT CAVOK 28/20 Q1017=
METAR LICJ 081320Z 04014KT 9999 FEW018 28/23 Q1018=
METAR LIPE 081320Z 08004KT 030V120 CAVOK 30/15 Q1020=
METAR LIPH 081315Z 17005KT 9999 FEW025 28/21 Q1022=
METAR LIPQ 081320Z VRB03KT CAVOK 27/14 Q1021=
METAR LIPR 081315Z 08012KT CAVOK 28/19 Q1021=
METAR LIPX 081315Z 21003KT 9999 FEW040 30/13 Q1021=
METAR LIPZ 081320Z 13006KT 9999 FEW040 27/18 Q1021=
####018000089####
SAUK34 EGGY 081320 CCA
METAR COR EGHK 081320Z 16005KT 9999 SCT018 18/15 Q1018 NOSIG=
####018000083####
SPAU32 YBBN 081325
SPECI YBMA 081325Z AUTO 00000KT 6000NDV // NCD 08/07 Q1020=
####018000098####
SPUS72 KWBC 081326
SPECI
KDAL 081322Z 10004KT 10SM SCT016 BKN037 BKN055 OVC130 26/24 A3004=
####018000098####
SPUS72 KWBC 081326
SPECI
KNGP 081322Z 03005KT 5SM RA BR FEW008 BKN019CB BKN025 28/26 A2983=
####018000076####
SPUS73 KWBC 081326
SPECI
KCID 081322Z 33007KT 8SM SCT005 22/20 A3007=
####018000307####
SADL36 EDZO 081320
METAR EDHK 081320Z 25009KT 9999 FEW060 BKN120 29/10 Q1019
      BLU BLU=
METAR ETNL 081320Z 13005KT 9999 FEW130 28/11 Q1020
      BLU+BLU+=
METAR ETNU 081320Z 15006KT 9999 FEW100 SCT150 27/10 Q1021
      BLU+=
METAR ETSI 081320Z 09005KT 9999 27/07 Q1022
      BLU+BLU+=
####018000076####
SPUS81 KWBC 081326
SPECI
KCID 081322Z 33007KT 8SM SCT005 22/20 A3007=
####018000088####
SPUS81 KWBC 081326
SPECI
KCNU 081323Z AUTO 09004KT 2 1/2SM BR OVC001 23/22 A3009=
####018000098####
SPUS81 KWBC 081326
SPECI
KDAL 081322Z 10004KT 10SM SCT016 BKN037 BKN055 OVC130 26/24 A3004=
####018000368####
SASA KAWN 081300 RRI
METAR SBAA 081300Z 08003KT CAVOK 29/15 Q1016=
METAR SBEK 081300Z 11002KT CAVOK 31/26 Q1013=
METAR SBHT 081300Z 09008KT 9999 SCT020 ///// Q1014=
METAR SBIH 081300Z 02007KT CAVOK 30/23 Q1013=
METAR SBST 081300Z 35010KT CAVOK 28/07 Q1018=
METAR SBTK 081300Z 12002KT 7000 NSC 26/25 Q1014=
METAR SBTU 081300Z 08007KT CAVOK 28/26 Q1017=
####018000102####
SAXN17 KAWN 081300 RRG
METAR PKWA 081320Z AUTO 13005KT 10SM OVC065 26/23 A2983 RMK AO2 T02600232=
####018000597####
SAZZ40 KAWN 081300 RRS
METAR EFKU 081320Z AUTO 34004KT CAVOK 25/17 Q1015=
METAR EFOU 081320Z VRB02KT 9999 FEW040 BKN200 23/11 Q1015=
METAR EGMH 081320Z 11010KT 9999 FEW022 21/17 Q1018=
METAR COR FKKD 081300Z VRB04KT 9999 BKN016 FEW020CB BKN120 28/25 Q1013
      TEMPO 4000 TSRA BKN013 SCT016CB BKN100=
METAR COR FKYS 081300Z 25003KT 210V280 9999 BKN016 26/20 Q1016 NOSIG=
METAR OISS 081250Z 09004KT CAVOK 40/11 Q1012 A2989=
METAR SBJF 081300Z 34006KT CAVOK 21/10 Q1023=
METAR SBKG 081300Z 14008KT 9999 BKN020 BKN100 24/21 Q1018=
METAR SBMK 081300Z 01002KT CAVOK 23/13 Q1023=
####018001244####
SPZZ40 KAWN 081326 RRD
SPECI CYBC 081320Z AUTO 00000KT 8SM OVC003 OVC081 14/13 A3003=
SPECI CYMO 081322Z AUTO 32006KT 2 1/2SM RA BKN022 OVC067 19/18 A2990
      RMK VSBY VRBL 2.3V7.0=
SPECI CYSB 081322Z 19008KT 10SM SCT005 BKN140 RMK SF4AC3=
SPECI CYWJ 081320Z 31005KT 40SM -RA FEW070 SCT120 BKN300 RMK AC1AS1CI0
      VIS LWR NW=
SPECI CYXZ 081323Z 00000KT 15SM BKN007 BKN080 RMK ST6AC1 TR AC=
SPECI KPOE 081318Z AUTO 09006KT 10SM FEW008 26/24 A3004 RMK AO2 $=
SPECI KPOE 081318Z AUTO 09006KT 10SM FEW008 26/24 A3004 RMK AO2 $=
SPECI KRIV 081325Z 23002KT 1 1/4SM BR OVC003 13/13 A2993 RMK AO2A SLP131=
SPECI KSKF 081324Z 04008KT 5SM -SHRA BR SCT007 OVC010 26/26 A2994 RMK
      AO2A VIS S 4 $=
SPECI MMMA 081321Z 34005KT 4SM DZ FEW008 BKN015 BKN065 26/25 A2980
      RMK 8/85/ HZ VRB COND DZ INTMNT=
SPECI RJCC 081317Z VRB02KT 0900 R19R/P1800N R01R/P1800N DZ VV002 17/17
      Q1010 RMK A2985=
SPECI RJCJ 081322Z VRB01KT 1500 R18/1400V1800D -DZ BR FEW000 OVC001
      18/17 Q1010 RMK 1ST000 8ST001 A2985 R1500=
SPECI RJOF 081314Z 07006KT 9999 FEW025 SCT035 BKN150 25/22 Q1008 RMK
      1CU025 4CU035 5AC150 A2979=
SPECI YBTL 081322Z AUTO 15008KT 9999NDV // BKN012 BKN019 OVC024 22/19
      Q1017=
####018001702####
SAEU KAWN 081300 RRX
METAR EBAW 081320Z 25007KT 200V300 CAVOK 30/12 Q1018 NOSIG=
METAR EBBR 081320Z 21006KT 180V250 CAVOK 30/11 Q1019 NOSIG=
METAR EBCI 081320Z VRB04KT CAVOK 30/10 Q1019 NOSIG=
METAR EBLG 081320Z 20004KT 150V240 CAVOK 30/07 Q1019 NOSIG=
METAR EBOS 081320Z 34006KT CAVOK 22/15 Q1020 NOSIG=
METAR EGHE 081320Z 20012KT 9999 FEW025 19/14 Q1019=
METAR ELLX 081320Z VRB04KT CAVOK 30/08 Q1020 NOSIG=
METAR ENAN 081320Z 31007KT CAVOK 15/10 Q1010=
METAR ENBR 081320Z 18014KT 9999 FEW025 BKN040 16/10 Q1014 NOSIG=
METAR ENEK 081320Z 22011KT CAVOK 17/13 Q1016 W15/S3=
METAR ENHE 081320Z 19026KT 9999 FEW040 SCT100 16/11 Q1009=
METAR ENRO 081320Z 08005KT 010V120 9999 FEW030 SCT050 BKN090 15/09
      Q1011=
METAR ENRY 081320Z 19009KT 9999 FEW008 BKN010 17/15 Q1016 TEMPO BKN015=
METAR ENVA 081320Z 25010KT 9999 FEW040CB FEW070 20/12 Q1010 NOSIG=
METAR ENZV 081320Z 22012KT 9999 SCT020 BKN170 18/11 Q1015 NOSIG=
METAR LIBD 081320Z 36014KT CAVOK 25/12 Q1020=
METAR LICJ 081320Z 04014KT 9999 FEW018 28/23 Q1018=
METAR LIEE 081315Z 15013KT 9999 FEW020 28/20 Q1019 NOSIG=
METAR LIEO 081320Z 05011KT 020V090 CAVOK 31/20 Q1019=
METAR LIME 081320Z VRB03KT 9999 BKN050 28/16 Q1022=
METAR LIMF 081320Z 03004KT 9999 FEW070 26/15 Q1021=
METAR LIPE 081320Z 08004KT 030V120 CAVOK 30/15 Q1020=
METAR LIPQ 081320Z VRB03KT CAVOK 27/14 Q1021=
METAR LIPR 081315Z 08012KT CAVOK 28/19 Q1021=
METAR LIPX 081315Z 21003KT 9999 FEW040 30/13 Q1021=
METAR LIRA 081315Z 25007KT 180V310 9999 FEW018 30/17 Q1019=
METAR LIRF 081320Z 24011KT 210V270 CAVOK 29/18 Q1020 NOSIG=
METAR LIRN 081320Z 04004KT CAVOK 29/14 Q1018=
METAR LIRQ 081320Z VRB05KT CAVOK 32/15 Q1019=
####018000559####
SAUS20 KNKA 081326
METAR KBXK 081315Z AUTO 06003KT 10SM CLR 26/M01 A2981 RMK AO1 =
METAR KPAN 081335Z AUTO 09004KT 10SM CLR 22/04 A3017 RMK AO1 =
METAR KRQO 081335Z AUTO 00000KT 1/2SM FG OVC001 23/23 A3009 RMK 
     AO2=
SPECI KRSL 081325Z AUTO 36007KT 10SM BKN015 OVC042 19/17 A3018 RMK 
    AO2=
SPECI KSET 081325Z AUTO 00000KT 6SM -RA BR OVC006 25/24 A3005 RMK 
    AO2 P0001=
SPECI KSTJ 081325Z 04012KT 10SM OVC011 23/21 A3010 RMK AO2 CIG 
    008V015=
SPECI KUIN 081325Z AUTO 31004KT 10SM FEW010 BKN110 23/22 A3007 RMK 
    AO2=
####018000115####
SAUS41 KPHI 081326
MTRACY
SPECI KACY 081325Z 13005KT 6SM BR SCT029 BKN060 24/22 A3005 RMK AO2 
RAE25 P0002
####018000766####
SAAM31 FCBB 081300 CCB
METAR COR FCBB 081300Z 21008KT 270V160 7000 FEW023 27/20 Q1013 NOSIG=
METAR COR FCPP 081300Z 18008KT 7000 FEW013 OVC033 24/21 Q1012 NOSIG=
METAR COR FKKD 081300Z VRB04KT 9999 BKN016 FEW020CB BKN120 28/25
Q1013
      TEMPO 4000 TSRA BKN013 SCT016CB BKN100=
METAR COR FKYS 081300Z 25003KT 210V280 9999 BKN016 26/20 Q1016 NOSIG=
METAR COR FEFF 081300Z 18002KT 9999 FEW026 FEW040CB BKN300 31/22
Q1013
      NOSIG=
METAR COR FOOL 081300Z 23006KT 190V260 9000 SCT011 BKN030 27/23 Q1013
      NOSIG=
METAR COR FGSL 081300Z 29005KT 270V330 7000 -TSRA BKN013 FEW020CB
BKN130
      25/25 Q1013 NOSIG=
METAR COR FZAA 081300Z 27008KT 4000 BR SKC 27/19 Q1012 NOSIG=
METAR COR FNLU 081300Z 27011KT CAVOK 24/19 Q1011 NOSIG=
####018000075####
SACN94 CWAO 081322
WQR SA 1322 AUTO8 M M M M/12/12/1308/M/M M 99MM=

####018000211####
SAUS99 KWBC 081327
METAR
KBXK 081315Z AUTO 06003KT 10SM CLR 26/M01 A2981 RMK AO1=
KPAN 081335Z AUTO 09004KT 10SM CLR 22/04 A3017 RMK AO1=
KRQO 081335Z AUTO 00000KT 1/2SM FG OVC001 23/23 A3009 RMK AO2=
####018000334####
SPUS99 KWBC 081327
SPECI
KRSL 081325Z AUTO 36007KT 10SM BKN015 OVC042 19/17 A3018 RMK
     AO2=
KSET 081325Z AUTO 00000KT 6SM -RA BR OVC006 25/24 A3005 RMK AO2
     P0001=
KSTJ 081325Z 04012KT 10SM OVC011 23/21 A3010 RMK AO2 CIG
     008V015=
KUIN 081325Z AUTO 31004KT 10SM FEW010 BKN110 23/22 A3007 RMK
     AO2=
####018000299####
SADL36 EDZO 081320
METAR EDHK 081320Z 25009KT 9999 FEW060 BKN120 29/10 Q1019
      BLU BLU=
METAR ETNL 081320Z 13005KT 9999 FEW130 28/11 Q1020
      BLU+BLU+=
METAR ETNU 081320Z 15006KT 9999 FEW100 SCT150 27/10 Q1021
      BLU+=
METAR ETSI 081320Z 09005KT 9999 27/07 Q1022
      BLU+BLU+=
####018000122####
SAIY40 LIIB 081300 RRB
METAR LIVP 081255Z VRB03KT 9999 FEW003 15/11 Q1029 RMK FEW MON LIB
      VAL NIL VIS MIN 9999=
####018000074####
SAEW LEJR 081330
METAR LEJR 081330Z 23007KT 140V260 CAVOK 32/16 Q1015=
####018000122####
SAIY40 LIIB 081300 RRA
METAR LIVC 081255Z 00000KT 9999 SCT001 16/11 Q1031 RMK SCT MON LIB
      VAL NIL VIS MIN 9999=
####018000357####
SAFI34 EFHK 081320
EFET 081320Z AUTO 17009KT 130V220 CAVOK 20/07 Q1013=
EFIV 081320Z VRB03KT CAVOK 22/08 Q1015=
EFKE 081320Z AUTO 21006KT 160V270 CAVOK 21/12 Q1015=
EFKI 081320Z AUTO 34005KT 310V010 CAVOK 23/14 Q1015=
EFKS 081320Z AUTO 15005KT 110V200 CAVOK 21/08 Q1016=
EFKT 081320Z AUTO 16008KT 100V190 CAVOK 21/08 Q1014=
METAR EFSO 081326Z NIL=
####018000104####
SAIY42 LIIB 081300 RRD
METAR LIRZ 081250Z 02010KT 330V060 9999 FEW040 31/11 Q1020 RMK VIS
MIN 9999=
####018001029####
SAAM20 FCBB 081300 CCY
METAR FCBB 081300Z 21008KT 270V160 7000 FEW023 27/20 Q1013 NOSIG=
METAR FCPP 081300Z 18008KT 7000 FEW013 OVC033 24/21 Q1012 NOSIG=
METAR FKKD 081300Z VRB04KT 9999 BKN016 FEW020CB BKN120 28/25 Q1013
      TEMPO 4000 TSRA BKN013 SCT016CB BKN100=
METAR FKYS 081300Z 25003KT 210V280 9999 BKN016 26/20 Q1016 NOSIG=
METAR FKKR 081300Z 08004KT 9999 FEW020 BKN130 BKN300 27/23 Q1012
      NOSIG=
METAR FKKN NIL=
METAR FKKL NIL=
METAR FEFT NIL=
METAR FEFG NIL=
METAR FEFF 081300Z 18002KT 9999 FEW026 FEW040CB BKN300 31/22 Q1013
      NOSIG=
METAR FOOL 081300Z 23006KT 190V260 9000 SCT011 BKN030 27/23 Q1013
      NOSIG=
METAR FOOG NIL=
METAR FOON NIL=
METAR FGSL 081300Z 29005KT 270V330 7000 -TSRA BKN013 FEW020CB BKN130
      25/25 Q1013 NOSIG=
METAR FGBT NIL=
METAR FZRF NIL=
METAR FZOS NIL=
METAR FZAA 081300Z 27008KT 4000 BR SKC 27/19 Q1012 NOSIG=
METAR FZIC NIL=
METAR FZFK NIL=
METAR FZQA NIL=
METAR FNHU NIL=
METAR FNLU 081300Z 27011KT CAVOK 24/19 Q1011 NOSIG=
METAR FPST NIL=
####018000084####
SPUS31 KWBC 081327
SPECI
KBGR 081324Z 18007KT 10SM FEW012 BKN044 23/20 A3010=
####018000115####
SPJP31 KWBC 081327
SPECI
RJCC 081317Z VRB02KT 0900 R19R/P1800N R01R/P1800N DZ VV002 17/17
Q1010 RMK A2985=
####018000124####
SPJP43 KWBC 081327
SPECI
RJOF 081314Z 07006KT 9999 FEW025 SCT035 BKN150 25/22 Q1008 RMK
1CU025 4CU035 5AC150 A2979=
####018000138####
SPJP41 KWBC 081327
SPECI
RJCJ 081322Z VRB01KT 1500 R18/1400V1800D -DZ BR FEW000 OVC001
18/17 Q1010 RMK 1ST000 8ST001 A2985 R1500=
####018000083####
SAUS31 KWBC 081300 RRC
METAR
KLGC 081315Z AUTO 00000KT 10SM CLR 27/26 A3005=
####018000127####
SPMX41 KWBC 081327
SPECI
MMMA 081321Z 34005KT 4SM DZ FEW008 BKN015 BKN065 26/25 A2980 RMK
8/85/ HZ VRB COND DZ INTMNT=
####018000127####
SAUS41 KWBC 081300 RRE
METAR
K40B 081325Z AUTO 20007G11KT 29/22 A3002=
KWDR 081320Z AUTO 03003KT 10SM CLR 28/21 A3008=
####018000183####
SAUS42 KWBC 081300 RRC
METAR
KBQK 081317Z AUTO 29006KT 10SM CLR 27/23 A3002=
KLGC 081315Z AUTO 00000KT 10SM CLR 27/26 A3005=
KOPN 081320Z AUTO 29003KT 10SM CLR 29/24 A3006=
####018000079####
SPUS41 KWBC 081327
SPECI
KILG 081324Z 12005KT 2SM BR OVC007 26/23 A3005=
####018000098####
SAUS46 KPQR 081327
MTRNFL
SPECI KNFL 081325Z 29004KT 10SM FEW120 SCT150 18/01 A3002 RMK AO2
####018000127####
SAUS51 KWBC 081300 RRB
METAR
K40B 081325Z AUTO 20007G11KT 29/22 A3002=
KIPJ 081320Z AUTO 00000KT 10SM CLR 28/20 A3004=
####018000095####
SAUK33 EGGY 081320 RRA
METAR EGHI 081320Z 22008KT 170V260 9999 FEW028 SCT048 22/14 Q1018 =
####018000633####
SAPS31 NFFN 081300
METAR NCRG 081300Z 02004KT 9999 FEW010 SCT015 25/24 Q1018=
METAR NFFN 081300Z 11004KT 40KM FEW030 20/18 Q1013 NOSIG RMK RR NIL=
METAR NFNA 081300Z 00000KT 40KM FEW024 SCT300 19/19 Q1014 RMK RR NIL 
DEW HVY=
METAR NGFU 081300Z 09008KT 50KM SCT020TCU 28/24 Q1009=
METAR NGTA 081300Z NIL=
METAR NIUE 081300Z AUTO 15006KT //// ////// 23/23 Q1014=
METAR NSFA 081300Z 00000KT 50KM FEW024 25/23 Q1012=
METAR NSTU 081250Z 07012KT 10SM FEW016 28/26 A2988 RMK SLP119 
T02780259=
METAR NTAA 081300Z 09003KT 9999 FEW023 25/22 Q1015 WS ALL RWY NOSIG=
METAR NWWW 081300Z NIL=
METAR PLCH 081300Z NIL=
####018000085####
SAUK33 EGGY 081320 RRB
METAR EGNS 081320Z 19011KT 9999 FEW020 17/12 Q1016 NOSIG=
####018000364####
SAFI34 EFHK 081320
EFET 081320Z AUTO 17009KT 130V220 CAVOK 20/07 Q1013=
EFIV 081320Z VRB03KT CAVOK 22/08 Q1015=
EFKE 081320Z AUTO 21006KT 160V270 CAVOK 21/12 Q1015=
EFKI 081320Z AUTO 34005KT 310V010 CAVOK 23/14 Q1015=
EFKS 081320Z AUTO 15005KT 110V200 CAVOK 21/08 Q1016=
EFKT 081320Z AUTO 16008KT 100V190 CAVOK 21/08 Q1014=
METAR EFSO 081326Z NIL=
####018000671####
SAPS32 NFFN 081300
METAR NFNA 081300Z 00000KT 40KM FEW024 SCT300 19/19 Q1014 RMK RR NIL 
DEW HVY=
METAR NFTF 081300Z 00000KT 9999 FEW015 18/17 Q1015=
METAR NFTL 081300Z NIL=
METAR NFTV 081300Z 00000KT 9999 SCT016 BKN040 23/21 Q1014=
METAR NLWW 081300Z AUTO 14005KT 090V170 9999NDV FEW016/// 27/24 
Q1011=
METAR NSAP 081300Z NIL=
METAR NSFA 081300Z 00000KT 50KM FEW024 25/23 Q1012=
METAR NSTU 081250Z 07012KT 10SM FEW016 28/26 A2988 RMK SLP119 
T02780259=
METAR NTAA 081300Z 09003KT 9999 FEW023 25/22 Q1015 WS ALL RWY NOSIG=
METAR NVSS 081300Z NIL=
METAR NVVV 081300Z 11001KT 9999 SCT020 BKN040 21/20 Q1014 RMK NIL=
METAR NWWW 081300Z NIL=
####018000096####
SAUK39 EGRR 081250 RRJ
METAR EGYD 081250Z 26013KT 9999 FEW048 BKN250 22/09 Q1017 BLU NOSIG=
####018000225####
SATU20 LTAA 081250 RRD
METAR LTAN 081320Z 20004KT 9999 SCT040 32/07 Q1009 NOSIG RMK RWY19
18008KT=
METAR LTCE 081320Z VRB03KT 9999 SCT030 31/05 Q1016 NOSIG RMK RWY08R 
VRB02KT RWY26R 14003KT 090V240 RWY08L VRB02KT=
####018000106####
SAIY42 LIIB 081300 RRD
METAR LIRZ 081250Z 02010KT 330V060 9999 FEW040 31/11 Q1020 RMK VIS
MIN 9999=
####018000133####
SAUS52 KWBC 081300 RRC
METAR
KAYS 081320Z AUTO 29006KT 10SM CLR 27/23 A3003=
KVUJ 081319Z AUTO 00000KT 10SM CLR 29/21 A3000=
####018000086####
SPUS51 KWBC 081327
SPECI
KACY 081325Z 13005KT 6SM BR SCT029 BKN060 24/22 A3005=
####018000089####
SPUS52 KWBC 081327
SPECI
KCOT 081324Z AUTO 03006KT 10SM BKN009 OVC019 26/23 A2991=
####018000131####
SAUS53 KWBC 081300 RRF
METAR
KJNX 081319Z AUTO 36006KT 7SM CLR 29/21 A2997=
KTDF 081323Z AUTO 02003KT 5SM CLR 27/21 A3003=
####018000082####
SAUS54 KWBC 081300 RRE
METAR
KJNX 081319Z AUTO 36006KT 7SM CLR 29/21 A2997=
####018000083####
SPUS54 KWBC 081327
SPECI
KSMX 081324Z 32003KT 2 1/2SM BR OVC002 12/11 A2994=
####018000076####
SALY31 HLMC 081300 RRA
METAR HLLM 081250Z 34009KT 7000 SKC 28/21 Q1019=
####018000113####
SATU20 LTAA 081250 RRC
METAR LTCC 081320Z 15011KT 120V180 CAVOK 40/02 Q1005 NOSIG RMK RWY16 17011KT 150V220=
####018000124####
SAIY40 LIIB 081300 RRB
METAR LIVP 081255Z VRB03KT 9999 FEW003 15/11 Q1029 RMK FEW MON LIB
      VAL NIL VIS MIN 9999=
####018000124####
SAIY40 LIIB 081300 RRA
METAR LIVC 081255Z 00000KT 9999 SCT001 16/11 Q1031 RMK SCT MON LIB
      VAL NIL VIS MIN 9999=
####018000084####
SACN92 CWAO 081300 RRD
WME SA 1300 AUTO8 M M M 158/19/13/0809/M/M 2004 21MM=

####018000130####
SACN94 CWAO 081300 RRD
WQR SA 1300 AUTO8 M M M M/12/12/1206/M/M M 33MM=
WQV SA 1300 AUTO8 M M M M/19/17/0912/M/M M 70MM=

####018000173####
SACN96 CWAO 081300 RRD
WZA SA 1300 AUTO8 M M M 157/21/11/0407/M/ PK WND 0317 1234Z 2006
12MM=
WZV SA 1300 AUTO8 M M M M/M/M/3210/M/M PK WND 3218 1231Z 1003 MMMM=

####018000104####
SACN50 CWAO 081300 RRB
WFG SA 1300 AUTO8 M M M 174/14/11/3523/M/M PK WND 3525 1258Z 3002
72MM=

####018000228####
SACN59 CWAO 081300 RRD
PRO SA 1300 AUTO8 M M M M/11/11/1702/M/ M 32MM=
XDB SA 1300 AUTO8 M M M M/12/07/2208/M/ M 36MM=
XFM SA 1300 AUTO8 M M M M/13/10/1705/M/ M 77MM=
XTH SA 1300 AUTO8 M M M M/14/11/2807/M/ M 08MM=

####018000079####
SACN88 CWAO 081300 RRC
AHD SA 1300 AUTO7 M M M M/22/18/2305/M/M M 60MM=

####018000178####
SACN98 CWAO 081300 RRD
XCP SA 1300 AUTO8 M M M M/12/10/2203/M/0018 PCPN 1.8MM PAST HR M
40MM=
XWM SA 1300 AUTO8 M M M M/13/10/0000/M/0012 PCPN 1.2MM PAST HR M
08MM=

####018000078####
SACN70 CWAO 081300 RRD
XMN SA 1300 AUTO8 M M M M/14/10/2901/M/ M 56MM=

####018000194####
SACN78 CWAO 081300 RRC
TKR SA 1300 AUTO8 M M M 155/17/14/2906/M/ 3008 88MM=
TTR SA 1300 AUTO8 M M M 164/22/20/1906/M/ 3002 01MM=
TWL SA 1300 AUTO8 M M M 173/27/22/1904/M/M 0000 52MM=

####018000083####
SACN93 CWAO 081300 RRC
WPA SA 1300 AUTO8 M M M 201/06/04/MMMM/M/ 0000 92MM=

####018000083####
SAUS72 KWBC 081300 RRF
METAR
KBQK 081317Z AUTO 29006KT 10SM CLR 27/23 A3002=
####018000213####
SARS18 KAWN 081300 RRG
METAR EFHK 081320Z 33006KT 9999 FEW040CB SCT055 28/17 Q1013 BECMG TS=
METAR ESSA 081320Z 24013KT 9999 SCT045 24/14 Q1016 NOSIG=
METAR EVLA 081320Z 31007KT 260V350 CAVOK 21/15 Q1019=
####018000083####
SPUS74 KWBC 081327
SPECI
KSMX 081324Z 32003KT 2 1/2SM BR OVC002 12/11 A2994=
####018000086####
SPUS81 KWBC 081327
SPECI
KACY 081325Z 13005KT 6SM BR SCT029 BKN060 24/22 A3005=
####018000083####
SPUS81 KWBC 081327
SPECI
KSMX 081324Z 32003KT 2 1/2SM BR OVC002 12/11 A2994=
####018000084####
SPUS81 KWBC 081327
SPECI
PAYA 081323Z 00000KT 10SM FEW009 OVC090 11/09 A3018=
####018000081####
SAMJ41 LWSK 081330
METAR LWSK 081330Z 01014KT 9999 BKN040 19/11 Q1020 NOSIG=
####018000318####
SABN31 OBBI 081300
METAR OBBI 081300Z 04010KT 400 HZ SKC 35/27 Q0999 NOSIG=
METAROEDF 081300Z 01015KT CAVOK 44/04 Q0998 NOSIG=
METAR OEDR 081300Z 04011KT 8000 SKC 41/13 Q0997 NOSIG=
METAR OTBD 081300Z 06007KT 030V:10 6000 NSC 36/30 Q0999 NOSIG=
METAR OKBK 081300Z 34020KT 6000 BLDU SKC 47/M05 Q0999 NOSIG=
####018000645####
SABN32 OBBI 081300
METAR OMAA 081300Z 34013KT 9000 NSC 41/23 Q0997 A2946 NOSIG=
METAR OMAD 081300Z NIL=
METAR OMAL 081300Z 22009KT 180V250 9999 FEW045TCU 34/25 Q1001 A2556=
METAR OMDB 081300Z 35011KT 7000 FEW035 40/22 Q8999 NOSIG=
METAR OMDW 081300Z 35014KT 8000 FEW030 FEW35TCU 40/21 Q0999 NOSIG=
METAR OMFJ 081300E 11007KT 040V140 6000 FEW025 34/27 Q1000 A2955=
METAR OMRK 081300Z 35009KT CAVOK 41/35 Q0998 A2947=
METAR OMSJ 081300Z 35010KT 320V020 7000 FEW030 40/21 Q0999=
METAR OOMS 081300Z 06006KT 030V0906000 SCT025 TVC100
33/28 Q100, NOSIG=
METAR OOSA 081300Z 15807KT 8000 FEW008 SC012 BKN020
28/23 Q1002 NOSIG=
####018000082####
SAMJ41 LWOH 081330
METAR LWOH 081330Z 34007KT 9999 FEW040 BKN050 19/09 Q1019=
####018000115####
SADL51 ETGT 081320 RRA
METAR
ETMN 081320Z 21008KT 9999 FEW050 SCT120 29/10 Q1018
      BLU+BLU+ TEMPO BLU=
####018000096####
SPCN48 CWAO 081325
SPECI CYQI 081325Z 18005KT 1/2SM FG VV003 RMK FG8 RVR RWY 24 3000 FT=

####018000478####
SPNA14 KAWN 081327 RRC
SPECI KNGP 081322Z 03005KT 5SM RA BR FEW008 BKN019CB BKN025 28/26 A2983
      RMK AO2 RAB12 CB DSNT S TCU OHD-NE TCU DSNT SW-W WR// P0004=
SPECI KPOE 081318Z AUTO 09006KT 10SM FEW008 26/24 A3004 RMK AO2 $=
SPECI KPOE 081318Z AUTO 09006KT 10SM FEW008 26/24 A3004 RMK AO2 $=
SPECI KRIV 081325Z 23002KT 1 1/4SM BR OVC003 13/13 A2993 RMK AO2A SLP131=
SPECI KSKF 081324Z 04008KT 5SM -SHRA BR SCT007 OVC010 26/26 A2994 RMK
      AO2A VIS S 4 $=
####018000097####
SAUS42 KRAH 081327
MTRNJM
SPECI KNJM 081323Z AUTO 03006KT 7SM BKN016 29/24 A2994 RMK AO2 $
####018000547####
SAUS20 KNKA 081327
SPECI KDPA 081326Z 24005KT 4SM BR FEW006 BKN014 OVC046 23/22 A3003 
    RMK AO2 RAB03E23 P0002=
SPECI KESF 081326Z AUTO 08003KT 10SM BKN005 27/24 A3006 RMK AO2=
SPECI KGUY 081326Z AUTO 35006KT 10SM FEW013 BKN027 OVC110 19/17 
    A3023 RMK AO2=
METAR KHQZ 081326Z AUTO 10005KT 10SM OVC060 26/23 A3005 RMK AO2=
SPECI KLHX 081326Z AUTO 00000KT 10SM BKN026 17/14 A3030 RMK AO2 PNO=
METAR KPVW 081321Z AUTO 02008KT 10SM OVC007 20/18 A3018 RMK AO2=
METAR KRCR 081325Z AUTO 00000KT 7SM BKN100 26/22 A3005 RMK AO2=
####018000172####
SAAK41 KNKA 081327
SPECI PADQ 081325Z 30006KT 10SM BKN025 BKN033 OVC049 11/09 A2987 RMK 
    AO2 $=
METAR PAPO 081326Z 11011KT 10SM CLR 04/03 A3011 RMK VIA PHONE =
####018000188####
SPUS90 KWBC 081328
SPECI KSMX 081324Z 32003KT 2 1/2SM BR OVC002 12/11 A2994 RMK AO2
     $=
SPECI KACY 081325Z 13005KT 6SM BR SCT029 BKN060 24/22 A3005 RMK
     AO2 RAE25 P0002=
####018000071####
SAUS90 KWBC 081328
METAR K40B 081325Z AUTO 20007G11KT 29/22 A3002=
####018000270####
SAUS99 KWBC 081328
METAR
PAPO 081326Z 11011KT 10SM CLR 04/03 A3011 RMK VIA PHONE=
KHQZ 081326Z AUTO 10005KT 10SM OVC060 26/23 A3005 RMK AO2=
KPVW 081321Z AUTO 02008KT 10SM OVC007 20/18 A3018 RMK AO2=
KRCR 081325Z AUTO 00000KT 7SM BKN100 26/22 A3005 RMK AO2=
####018000180####
SACN96 KWBC 081328
METAR CWZA 081300Z AUTO 04007KT 21/11 RMK AO1 PK WND 03017/1234
SLP157 T02110112 52006=
METAR CWZV 081300Z AUTO 32010KT RMK AO1 PK WND 32018/1231 51003=
####018000095####
SACN87 KWBC 081328
METAR CWME 081300Z AUTO 08009KT 19/13 RMK AO1 SLP158 T01920131
52004=
####018000410####
SPUS99 KWBC 081328
SPECI
PADQ 081325Z 30006KT 10SM BKN025 BKN033 OVC049 11/09 A2987 RMK AO2
     $=
KDPA 081326Z 24005KT 4SM BR FEW006 BKN014 OVC046 23/22 A3003 RMK
     AO2 RAB03E23 P0002=
KESF 081326Z AUTO 08003KT 10SM BKN005 27/24 A3006 RMK AO2=
KGUY 081326Z AUTO 35006KT 10SM FEW013 BKN027 OVC110 19/17 A3023
     RMK AO2=
KLHX 081326Z AUTO 00000KT 10SM BKN026 17/14 A3030 RMK AO2 PNO=
####018000750####
SAAM31 FCBB 081300 CCB
METAR COR FCBB 081300Z 21008KT 270V160 7000 FEW023 27/20 Q1013 NOSIG=
METAR COR FCPP 081300Z 18008KT 7000 FEW013 OVC033 24/21 Q1012 NOSIG=
METAR COR FKKD 081300Z VRB04KT 9999 BKN016 FEW020CB BKN120 28/25
Q1013
      TEMPO 4000 TSRA BKN013 SCT016CB BKN100=
METAR COR FKYS 081300Z 25003KT 210V280 9999 BKN016 26/20 Q1016 NOSIG=
METAR COR FEFF 081300Z 18002KT 9999 FEW026 FEW040CB BKN300 31/22
Q1013
      NOSIG=
METAR COR FOOL 081300Z 23006KT 190V260 9000 SCT011 BKN030 27/23 Q1013
      NOSIG=
METAR COR FGSL 081300Z 29005KT 270V330 7000 -TSRA BKN013 FEW020CB
BKN130
      25/25 Q1013 NOSIG=
METAR COR FZAA 081300Z 27008KT 4000 BR SKC 27/19 Q1012 NOSIG=
METAR COR FNLU 081300Z 27011KT CAVOK 24/19 Q1011 NOSIG=
####018000272####
SANL31 EHDB 081325
METAR EHAM 081325Z 24007KT 190V280 CAVOK 26/15 Q1019 NOSIG=
METAR EHBK 081325Z AUTO VRB03KT 9999NDV NSC 30/11 Q1019 NOSIG=
METAR EHGG 081325Z AUTO 27007KT 210V350 9999NDV NSC 27/14 Q1018
NOSIG=
METAR EHRD 081325Z VRB06KT CAVOK 26/17 Q1018 NOSIG=
####018000198####
SACN94 KWBC 081328
METAR CWQR 081322Z AUTO 13008KT 12/12 RMK AO1 T01190119=
METAR CWQR 081300Z AUTO 12006KT 12/12 RMK AO1 T01230123=
METAR CWQV 081300Z AUTO 09012KT 19/17 RMK AO1 T01870170=
####018000101####
SAUK31 EGGY 081320 CCB
METAR COR EGCC 081320Z 20010KT 170V230 9999 SCT038 20/10 Q1017
    NOSIG=
####018000636####
SPUS70 KWBC 081328
SPECI
KRSL 081325Z AUTO 36007KT 10SM BKN015 OVC042 19/17 A3018 RMK
     AO2=
KSET 081325Z AUTO 00000KT 6SM -RA BR OVC006 25/24 A3005 RMK AO2
     P0001=
KSTJ 081325Z 04012KT 10SM OVC011 23/21 A3010 RMK AO2 CIG
     008V015=
KUIN 081325Z AUTO 31004KT 10SM FEW010 BKN110 23/22 A3007 RMK
     AO2=
KDPA 081326Z 24005KT 4SM BR FEW006 BKN014 OVC046 23/22 A3003 RMK
     AO2 RAB03E23 P0002=
KESF 081326Z AUTO 08003KT 10SM BKN005 27/24 A3006 RMK AO2=
KGUY 081326Z AUTO 35006KT 10SM FEW013 BKN027 OVC110 19/17 A3023
     RMK AO2=
KLHX 081326Z AUTO 00000KT 10SM BKN026 17/14 A3030 RMK AO2 PNO=
####018000256####
SPUS80 KWBC 081328
SPECI
KSMX 081324Z 32003KT 2 1/2SM BR OVC002 12/11 A2994 RMK AO2 $=
KACY 081325Z 13005KT 6SM BR SCT029 BKN060 24/22 A3005 RMK AO2
     RAE25 P0002=
PADQ 081325Z 30006KT 10SM BKN025 BKN033 OVC049 11/09 A2987 RMK AO2
     $=
####018000392####
SAUS70 KWBC 081328
METAR
KBXK 081315Z AUTO 06003KT 10SM CLR 26/M01 A2981 RMK AO1=
KPAN 081335Z AUTO 09004KT 10SM CLR 22/04 A3017 RMK AO1=
KRQO 081335Z AUTO 00000KT 1/2SM FG OVC001 23/23 A3009 RMK AO2=
PAPO 081326Z 11011KT 10SM CLR 04/03 A3011 RMK VIA PHONE=
KHQZ 081326Z AUTO 10005KT 10SM OVC060 26/23 A3005 RMK AO2=
KPVW 081321Z AUTO 02008KT 10SM OVC007 20/18 A3018 RMK AO2=
####018000089####
SPDR31 MDSD 081325
METAR
SPECI MDJB 081325Z 03006KT 9999 SCT018 SCT300 XX/XX Q1015=
####018000446####
SPXX60 KWBC 081328
SPECI
KPOE 081318Z AUTO 09006KT 10SM FEW008 26/24 A3004 RMK AO2 $=
KPOE 081318Z AUTO 09006KT 10SM FEW008 26/24 A3004 RMK AO2 $=
KRIV 081325Z 23002KT 1 1/4SM BR OVC003 13/13 A2993 RMK AO2A
     SLP131=
KSKF 081324Z 04008KT 5SM -SHRA BR SCT007 OVC010 26/26 A2994 RMK
     AO2A VIS S 4 $=
KNFL 081325Z 29004KT 10SM FEW120 SCT150 18/01 A3002 RMK AO2=
KNJM 081323Z AUTO 03006KT 7SM BKN016 29/24 A2994 RMK AO2 $=
####018000416####
SAAW33 KWBC 081300 RRD
METAR
OBBI 081300Z 04010KT 400 HZ SKC 35/27 Q0999 NOSIG=
OMAL 081300Z 22009KT 180V250 9999 FEW045TCU 34/25 Q1001 A2556=
OMDB 081300Z 35011KT 7000 FEW035 40/22 Q8999 NOSIG=
OMFJ 081300E 11007KT 040V140 6000 FEW025 34/27 Q1000 A2955=
OOMS 081300Z 06006KT 030V0906000 SCT025 TVC100 33/28 Q100,
     NOSIG=
OOSA 081300Z 15807KT 8000 FEW008 SC012 BKN020 28/23 Q1002
     NOSIG=
####018000092####
SAAW32 KWBC 081300 RRD
METAR
OTBD 081300Z 06007KT 030V:10 6000 NSC 36/30 Q0999 NOSIG=
####018000230####
SAAW41 KWBC 081350 RRB
METAR
LTAN 081320Z 20004KT 9999 SCT040 32/07 Q1009 NOSIG RMK RWY19
     18008KT=
LTCE 081320Z VRB03KT 9999 SCT030 31/05 Q1016 NOSIG RMK RWY08R
     VRB02KT RWY26R 14003KT 090V240 RWY08L VRB02KT=
####018000086####
SAAW42 KWBC 081300 RRB
METAR
OBBI 081300Z 04010KT 400 HZ SKC 35/27 Q0999 NOSIG=
####018000345####
SABX31 KWBC 081320 RRA
METAR
EBAW 081320Z 25007KT 200V300 CAVOK 30/12 Q1018 NOSIG=
EBBR 081320Z 21006KT 180V250 CAVOK 30/11 Q1019 NOSIG=
EBCI 081320Z VRB04KT CAVOK 30/10 Q1019 NOSIG=
EBLG 081320Z 20004KT 150V240 CAVOK 30/07 Q1019 NOSIG=
EBOS 081320Z 34006KT CAVOK 22/15 Q1020 NOSIG=
ELLX 081320Z VRB04KT CAVOK 30/08 Q1020 NOSIG=
####018000130####
SAEN31 KWBC 081320 RRA
METAR
EFIV 081320Z VRB03KT CAVOK 22/08 Q1015=
EFKE 081320Z AUTO 21006KT 160V270 CAVOK 21/12 Q1015=
####018000357####
SAEM31 KWBC 081300 RRD
METAR
LOWG 081320Z VRB03KT CAVOK 27/10 Q1022 NOSIG=
LOWI 081320Z 08007KT 020V140 9999 FEW080 29/14 Q1020 NOSIG=
LOWK 081320Z VRB03KT 9999 FEW060 27/11 Q1021 NOSIG=
LOWL 081320Z VRB04KT CAVOK 25/10 Q1022 NOSIG=
LOWS 081320Z 36006KT 260V060 CAVOK 26/09 Q1022 NOSIG=
LOWW 081320Z 34007KT 300V030 CAVOK 24/09 Q1022 NOSIG=
####018000625####
SAIY31 KWBC 081320 RRA
METAR
LIBD 081320Z 36014KT CAVOK 25/12 Q1020=
LIBR 081315Z /////KT CAVOK 26/14 Q1018 NOSIG=
LICC 081320Z 10014KT CAVOK 28/20 Q1017=
LICJ 081320Z 04014KT 9999 FEW018 28/23 Q1018=
LIEA 081320Z 21006KT 170V270 9999 FEW025 33/21 Q1019=
LIEE 081315Z 15013KT 9999 FEW020 28/20 Q1019 NOSIG=
LIEO 081320Z 05011KT 020V090 CAVOK 31/20 Q1019=
LIMC 081320Z VRB03KT 9999 FEW025 29/15 Q1021 NOSIG=
LIME 081320Z VRB03KT 9999 BKN050 28/16 Q1022=
LIMF 081320Z 03004KT 9999 FEW070 26/15 Q1021=
LIMJ 081320Z 17006KT 9999 SCT035 29/25 Q1019=
LIML 081320Z 16004KT 9999 FEW030 29/16 Q1021 NOSIG=
####018000087####
SAIY41 KWBC 081320 RRA
METAR
LIMC 081320Z VRB03KT 9999 FEW025 29/15 Q1021 NOSIG=
####018000513####
SAIY32 KWBC 081320 RRA
METAR
LIPE 081320Z 08004KT 030V120 CAVOK 30/15 Q1020=
LIPH 081315Z 17005KT 9999 FEW025 28/21 Q1022=
LIPQ 081320Z VRB03KT CAVOK 27/14 Q1021=
LIPR 081315Z 08012KT CAVOK 28/19 Q1021=
LIPX 081315Z 21003KT 9999 FEW040 30/13 Q1021=
LIPZ 081320Z 13006KT 9999 FEW040 27/18 Q1021=
LIRA 081315Z 25007KT 180V310 9999 FEW018 30/17 Q1019=
LIRF 081320Z 24011KT 210V270 CAVOK 29/18 Q1020 NOSIG=
LIRP 081315Z 26008KT CAVOK 31/17 Q1019 NOSIG=
LIRQ 081320Z VRB05KT CAVOK 32/15 Q1019=
####018000081####
SAIY43 KWBC 081320 RRA
METAR
LIPX 081315Z 21003KT 9999 FEW040 30/13 Q1021=
####018000097####
SANL31 KWBC 081320 RRA
METAR
EHEH 081325Z AUTO 25007KT 9999NDV FEW350 31/11 Q1018 BLU BLU=
####018000096####
SAUK31 KWBC 081320 RRA
METAR
EGHI 081320Z 22008KT 170V260 9999 FEW028 SCT048 22/14 Q1018=
####018000087####
SAUK32 KWBC 081320 RRA
METAR
EGNS 081320Z 19011KT 9999 FEW020 17/12 Q1016 NOSIG=
####018000081####
SAUK41 KWBC 081320 RRA
METAR
EGHE 081320Z 20012KT 9999 FEW025 19/14 Q1019=
####018000075####
SAXX61 KWBC 081300 RRD
METAR
LIRN 081320Z 04004KT CAVOK 29/14 Q1018=
####018000084####
SPCN51 CWAO 081326
SPECI CZBF 081326Z 00000KT 10SM SCT006 BKN011 RMK SF3SC2=

####018003214####
SAXX99 KWBC 081300 RRT
METAR
EDHK 081320Z 25009KT 9999 FEW060 BKN120 29/10 Q1019 BLU BLU=
EFET 081320Z AUTO 17009KT 130V220 CAVOK 20/07 Q1013=
EFJO 081320Z AUTO 04004KT 350V130 CAVOK 28/18 Q1014=
EFKI 081320Z AUTO 34005KT 310V010 CAVOK 23/14 Q1015=
EFKS 081320Z AUTO 15005KT 110V200 CAVOK 21/08 Q1016=
EFKT 081320Z AUTO 16008KT 100V190 CAVOK 21/08 Q1014=
EFLP 081320Z AUTO 16006KT 090V230 CAVOK 31/10 Q1013=
EFMI 081320Z AUTO VRB05KT CAVOK 29/19 Q1013=
EFSA 081320Z VRB02KT 9999 FEW055TCU FEW055CB 31/15 Q1013=
EFUT 081320Z AUTO 18009KT 140V230 CAVOK 30/13 Q1013=
EFVR 081325Z NIL=
EGYD 081250Z 26013KT 9999 FEW048 BKN250 22/09 Q1017 BLU NOSIG=
ETGG 081320Z 26013KT 9999 SCT080 BKN110 25/13 Q1019 BLU=
ETGY 081320Z 20004KT 9999 FEW080 BKN250 31/08 Q1018 BLU+=
ETGY 081320Z 20004KT 9999 FEW080 BKN250 31/08 Q1018 BLU/=
ETGZ 081320Z VRB02KT 9999 FEW060 25/08 Q1024 BLU/=
ETHA 081320Z 06005KT 9999 FEW060 25/10 Q1023 BLU/BLU/=
ETHB 081320Z 24003KT 9999 FEW070 SCT250 31/10 Q1019 BLU+BLU+=
ETHB 081320Z 24003KT 9999 FEW070 SCT250 31/10 Q1019 BLU/BLU/=
ETHC 081320Z 23007KT 9999 FEW140 31/09 Q1019 BLU/BLU/=
ETHE 081320Z 23006KT 9999 FEW070 SCT140 BKN300 30/08 Q1018
     BLU+BLU+=
ETHE 081320Z 23006KT 9999 FEW070 SCT140 BKN300 30/08 Q1018
     BLU/BLU/=
ETHF 081320Z 17006KT 9999 FEW300 28/10 Q1020 BLU+BLU+=
ETHL 081320Z 19003KT 9999 FEW140 27/08 Q1022 BLU/BLU/=
ETHN 081320Z 20005KT 9999 FEW250 27/08 Q1022 BLU/BLU/=
ETHR 081320Z 13004KT 9999 FEW340 27/06 Q1022 BLU/BLU/=
ETHS 081320Z 25006KT 9999 FEW070 31/08 Q1019 BLU/BLU/=
ETMN 081320Z 21008KT 9999 FEW050 SCT120 29/10 Q1018 BLU+BLU+ TEMPO
     BLU=
ETND 081320Z 24007KT 9999 FEW070 BKN280 30/10 Q1018 BLU+=
ETND 081320Z 24007KT 9999 FEW070 BKN280 30/10 Q1018 BLU/=
ETNH 081320Z 23009KT 9999 SCT110 BKN210 28/10 Q1019 BLU+BLU+ TEMPO
     BLU=
ETNH 081320Z 23009KT 9999 SCT110 BKN210 28/10 Q1019 BLU/BLU/ TEMPO
     BLU=
ETNL 081320Z 13005KT 9999 FEW130 28/11 Q1020 BLU+BLU+=
ETNN 081320Z 23004KT 9999 FEW060 SCT300 31/04 Q1019 BLU/BLU/=
ETNS 081320Z 24011KT 9999 FEW080 BKN110 BKN210 28/06 Q1019 BLU
     BLU=
ETNT 081320Z 33006KT 9999 SCT060 SCT120 29/14 Q1018 BLU+BLU+=
ETNT 081320Z 33006KT 9999 SCT060 SCT120 29/14 Q1018 BLU/BLU/=
ETNU 081320Z 15006KT 9999 FEW100 SCT150 27/10 Q1021 BLU/=
ETNU 081320Z 15006KT 9999 FEW100 SCT150 27/10 Q1021 BLU+=
ETNW 081320Z 26005KT 9999 FEW070 SCT300 31/09 Q1019 BLU/BLU/=
ETNW 081320Z 26005KT 9999 FEW070 SCT300 31/09 Q1019 BLU+BLU+=
ETSA 081320Z 01005KT 9999 26/09 Q1023 BLU/BLU/=
ETSB 081320Z 20004KT 9999 FEW060 28/08 Q1021 BLU/BLU/=
ETSH 081320Z 16004KT 9999 FEW150 SCT250 28/07 Q1020 BLU+BLU+=
ETSH 081320Z 16004KT 9999 FEW150 SCT250 28/07 Q1020 BLU/BLU/=
ETSI 081320Z 09005KT 9999 27/07 Q1022 BLU+BLU+=
ETSI 081320Z 09005KT 9999 27/07 Q1022 BLU/BLU/=
ETSL 081320Z 02005KT 9999 FEW040 26/08 Q1022 BLU/BLU/=
ETSN 081320Z 13004KT 9999 FEW300 26/07 Q1022 BLU/BLU/=
ETWM 081320Z 28007KT 9999 FEW070 BKN210 30/10 Q1018 BLU+=
ETWM 081320Z 28007KT 9999 FEW070 BKN210 30/10 Q1018 BLU/=
LOXZ 081320Z 08005KT 70KM FEW070CU 25/08 Q1022 NOSIG RMK FEW=
MMLT 081325Z RTD 00000KT 8SM SKC 27/18 A2975 RMK RTS=
####018000089####
SPUS52 KWBC 081328
SPECI
KRSL 081325Z AUTO 36007KT 10SM BKN015 OVC042 19/17 A3018=
####018000089####
SPUS53 KWBC 081328
SPECI
KUIN 081325Z AUTO 31004KT 10SM FEW010 BKN110 23/22 A3007=
####018000277####
SANL31 EHDB 081325
METAR EHAM 081325Z 24007KT 190V280 CAVOK 26/15 Q1019 NOSIG=
METAR EHBK 081325Z AUTO VRB03KT 9999NDV NSC 30/11 Q1019 NOSIG=
METAR EHGG 081325Z AUTO 27007KT 210V350 9999NDV NSC 27/14 Q1018
NOSIG=
METAR EHRD 081325Z VRB06KT CAVOK 26/17 Q1018 NOSIG=
####018000077####
SPUS73 KWBC 081328
SPECI
KSTJ 081325Z 04012KT 10SM OVC011 23/21 A3010=
####018000089####
SPUS73 KWBC 081328
SPECI
KUIN 081325Z AUTO 31004KT 10SM FEW010 BKN110 23/22 A3007=
####018000113####
SAXX70 KAWN 081300 RRP
METAR KQHA 081255Z COR 26002KT 9999 SKC 28/23 A2997 RMK AO2A SLP149
      COR 1324=
####018000090####
SAUK39 EGRR 081250 RRK
METAR EGYE 081250Z 23015KT 9999 FEW040 BKN250 ///// Q1017 BLU=
####018001805####
SAEU KAWN 081300 RRX
METAR COR EGCC 081320Z 20010KT 170V230 9999 SCT038 20/10 Q1017 NOSIG=
METAR EGHI 081320Z 22008KT 170V260 9999 FEW028 SCT048 22/14 Q1018=
METAR EGNS 081320Z 19011KT 9999 FEW020 17/12 Q1016 NOSIG=
METAR EGYD 081250Z 26013KT 9999 FEW048 BKN250 22/09 Q1017 BLU NOSIG=
METAR EHAM 081325Z 24007KT 190V280 CAVOK 26/15 Q1019 NOSIG=
METAR EHBK 081325Z AUTO VRB03KT 9999NDV NSC 30/11 Q1019 NOSIG=
METAR EHDL 081325Z AUTO 20006KT 9999NDV NCD 30/13 Q1018 BLU=
METAR EHGG 081325Z AUTO 27007KT 210V350 9999NDV NSC 27/14 Q1018 NOSIG=
METAR EHGR 081325Z AUTO 32005KT 9999NDV FEW190 31/11 Q1018 BLU BLU=
METAR EHLW 081325Z AUTO 24008KT 9999NDV BKN130 BKN210 24/17 Q1018 BLU
      BLU=
METAR EHRD 081325Z VRB06KT CAVOK 26/17 Q1018 NOSIG=
METAR EHVK 081325Z AUTO 19005KT 9999NDV FEW073 32/11 Q1018 BLU BLU=
METAR EHVL 081325Z AUTO 26012KT 9999NDV FEW079 BKN190 21/16 Q1019 BLU=
METAR EHWO 081325Z AUTO 28007KT 9999NDV NCD 28/13 Q1018 BLU BLU=
METAR ETMN 081320Z 21008KT 9999 FEW050 SCT120 29/10 Q1018 BLU/BLU/
      TEMPO BLU=
METAR ETSE 081320Z 00000KT 9999 FEW170 26/07 Q1022 BLU/BLU/=
METAR LEJR 081330Z 23007KT 140V260 CAVOK 32/16 Q1015=
METAR LIBR 081315Z /////KT CAVOK 26/14 Q1018 NOSIG=
METAR LICC 081320Z 10014KT CAVOK 28/20 Q1017=
METAR LIEA 081320Z 21006KT 170V270 9999 FEW025 33/21 Q1019=
METAR LIMC 081320Z VRB03KT 9999 FEW025 29/15 Q1021 NOSIG=
METAR LIMJ 081320Z 17006KT 9999 SCT035 29/25 Q1019=
METAR LIML 081320Z 16004KT 9999 FEW030 29/16 Q1021 NOSIG=
METAR LIPH 081315Z 17005KT 9999 FEW025 28/21 Q1022=
METAR LIPZ 081320Z 13006KT 9999 FEW040 27/18 Q1021=
METAR LIRP 081315Z 26008KT CAVOK 31/17 Q1019 NOSIG=
METAR LWOH 081330Z 34007KT 9999 FEW040 BKN050 19/09 Q1019=
METAR LWSK 081330Z 01014KT 9999 BKN040 19/11 Q1020 NOSIG=
####018002937####
SAUS20 KNKA 081328
METAR K0F2 081324Z AUTO 00000KT 5SM BR BKN011 OVC017 24/23 A3005 
     RMK AO2 T02360225=
METAR K11R 081324Z AUTO 07004KT 5SM BR OVC006 26/24 A2998 RMK AO2 
     LTG DSNT W=
METAR K1H2 081325Z AUTO 23006KT 10SM SCT060 28/24 A3005 RMK AO2 
     LTG DSNT W T02810239=
METAR K3LF 081323Z AUTO 21005KT 5SM TSRA SCT022 BKN050 OVC090 
     24/23 A3007 RMK AO2 P0008 LTG DSNT ALQS=
METAR K3T5 081324Z AUTO 10004KT 7SM -RA SCT015 SCT032 BKN050 
     25/24 A2995 RMK AO2 LTG DSNT N AND NW P0003 T02510237=
METAR K6R3 081321Z AUTO 09005KT 5SM BR OVC006 25/25 A3000 RMK AO2 
     T02540254=
METAR KAAA 081323Z AUTO 00000KT 10SM BKN006 BKN048 OVC060 24/22 
     A3005 RMK AO2 T02400223=
SPECI KACV 081327Z AUTO 31004KT 2 1/2SM BR OVC001 10/09 A2995 RMK 
    AO2=
METAR KAJG 081325Z AUTO 00000KT 10SM BKN043 BKN050 27/24 A3006 
     RMK AO2 T02730236=
METAR KAPY 081323Z AUTO 36006KT 10SM SCT008 SCT027 BKN034 26/25 
     A2986 RMK AO2 T02550245=
METAR KAQO 081325Z AUTO 08003KT 9SM SCT024 BKN085 25/23 A3004 RMK 
     AO2 LTG DSNT S=
METAR KASW 081325Z AUTO 27003KT 10SM BKN055 BKN075 27/22 A3005 
     RMK AO2 T02700215=
METAR KAXH 081325Z AUTO 06004KT 7SM SCT027 BKN042 OVC060 25/23 
     A2995 RMK AO2 T02500232=
METAR KBBD 081325Z AUTO 08005KT 10SM FEW034 OVC050 24/22 A3005 RMK=
METAR KBEA 081323Z AUTO 06006KT 10SM -RA OVC005 25/25 A2989 RMK 
     AO2 P0001 T02460246=
METAR KBKD 081321Z AUTO 00000KT 10SM BKN002 BKN014 OVC028 24/23 
     A3005 RMK AO2 T02440233=
METAR KBKS 081326Z AUTO 02007G14KT 10SM OVC006 27/25 A2982 RMK 
     AO1 T02650250=
METAR KBPC 081328Z AUTO 02006KT 10SM OVC006 20/19 A3019 RMK AO2=
METAR KBPG 081325Z AUTO 02009KT 10SM BKN006 OVC013 22/21 A3013 
     RMK AO1 T02200205=
METAR KBYY 081326Z AUTO 08008KT 7SM SCT017 SCT036 BKN085 27/26 
     A2991 RMK AO2 T02680259=
METAR KC09 081324Z AUTO 24003KT 3SM BR SCT003 OVC021 22/22 A3004 
     RMK AO2=
METAR KCIR 081322Z AUTO 24004KT 10SM CLR 29/23 A3007 RMK AO2=
METAR KCPT 081325Z AUTO 07004KT 5SM  BR 24/24 A3006 RMK AO2=
METAR KCUL 081325Z AUTO 21004KT 10SM CLR 28/22 A3006 RMK AO2 
     T02760223=
METAR KCVB 081324Z AUTO 05007KT 7SM SCT012 BKN049 26/24 A2997 RMK 
     AO2 T02570242=
METAR KCWC 081325Z AUTO 11009KT 10SM CLR 26/23 A3005 RMK AO2 
     T02560225=
METAR KDKB 081321Z AUTO 29003KT 7SM BKN009 22/22 A3004 RMK AO2 
     T02200215=
METAR KDKR 081325Z AUTO 09007KT 5SM  BR CLR 26/26 A3004 RMK AO2=
METAR KDNV 081325Z AUTO 24005KT 7SM CLR 27/22 A3002 RMK AO2 
     T02650221=
METAR KDZB 081325Z AUTO 05003KT 4SM BR OVC007 25/24 A3000 RMK AO2 
     T02500241=
METAR KECU 081325Z AUTO 05004KT 9SM CLR 23/22 A3010 RMK AO2=
METAR KENL 081324Z AUTO 22007KT 10SM SCT049 SCT090 28/20 A3005 
     RMK AO2 LTG DSNT NW T02800197=
METAR KERV 081325Z AUTO 06006KT 10SM SCT011 SCT018 BKN022 25/22 
     A3002 RMK AO2 T02470220=
####018002172####
SAUS20 KNKA 081328
METAR KF05 081324Z AUTO 06007KT 10SM SCT007 BKN032 OVC043 25/23 
     A3006 RMK AO2 T02480225=
METAR KFEP 081325Z AUTO 31006KT 3SM HZ OVC004 24/21 A3006 RMK AO2 
     T02360213=
METAR KFOA 081325Z AUTO 20005KT 10SM CLR 30/27 A3006 RMK AO2 
     T02980267=
METAR KFWC 081325Z AUTO 23003KT 10SM CLR 28/25 A3006 RMK AO2=
METAR KFWS 081325Z AUTO 00000KT 5SM -DZ BKN005 BKN010 OVC049 
     25/24 A3005 RMK AO2 P0001 T02480235=
METAR KGBG 081325Z AUTO 32004KT 5SM BR OVC006 23/22 A3006 RMK AO2=
SPECI KGCK 081327Z 01008KT 10SM SCT012 BKN021 19/16 A3025 RMK AO2=
METAR KGDJ 081324Z AUTO 07005KT 10SM BKN008 BKN017 OVC049 26/24 
     A3005 RMK AO2 T02570236=
METAR KGLE 081325Z AUTO 14006KT 10SM SCT006 26/23 A3006 RMK AO2=
SPECI KGRB 081327Z 30004KT 2 1/2SM BR BKN006 BKN015 23/22 A3000 RMK 
    AO2 CIG 003V008=
METAR KHBV 081320Z AUTO 01010KT 10SM BKN008 OVC016 26/24 A2988 
     RMK AO2 T02560236=
METAR KIKK 081325Z AUTO 00000KT 5SM HZ SCT004 SCT090 27/23 A3004 
     RMK AO2=
SPECI KJEF 081327Z 00000KT 5SM BR OVC005 24/23 A3007 RMK AO2 CIG 
    002V007=
METAR KJOT 081326Z AUTO 00000KT 3SM BR 24/22 A3003 RMK AO2=
METAR KLOT 081321Z AUTO 23003KT 5SM BR OVC025 24/22 A3003 RMK AO2=
METAR KOLY 081323Z AUTO 21004KT 10SM SCT043 29/23 A3005 RMK AO2=
METAR KORG 081325Z AUTO 07009KT 7SM OVC006 17/14 A3001 RMK AO2=
METAR KOXI 081325Z AUTO 13003KT 3SM BKN046 OVC060 23/22 A3003 RMK 
     AO1 T02290215=
METAR KOZA 081321Z AUTO 10003KT 10SM SCT022 BKN031 OVC048 23/22 
     A3009 RMK AO2 T02320217=
METAR KPNT 081325Z AUTO 00000KT 10SM BKN022 BKN029 OVC090 24/23 
     A3004 RMK AO2=
METAR KPPQ 081325Z AUTO 30003KT 10SM BKN005 OVC011 23/23 A3008 
     RMK AO2=
METAR KPRG 081325Z AUTO 25005KT 10SM CLR 27/23 A3005 RMK AO2 
     T02780237=
METAR KRPJ 081325Z AUTO 30005KT 10SM BKN007 BKN013 23/21 A3005 
     RMK AO2 T02270205=
METAR KRSV 081322Z AUTO 24005KT 10SM CLR 29/24 A3006 RMK AO2 
     T02930235=
SPECI KSAT 081327Z 05007KT 8SM -RA BKN008 OVC020 26/24 A2997 RMK AO2 
    RAB09 P0000=
METAR KSFY 081325Z AUTO 30005KT 10SM SCT007 SCT012 23/21 A3005 
     RMK AO2=
####018000102####
SAAK41 KNKA 081328
SPECI PAKF 081326Z AUTO 00000KT 10SM BKN015 OVC019 08/07 A2988 RMK 
    AO2=
####018000060####
SAUS45 KTFX 081328
MTR8S0
METAR K8S0 081230Z 26004KT 
####018000098####
SAUS44 KMAF 081328
MTRNFW
SPECI KNFW 081327Z 13007KT 10SM SCT012 BKN024 27/22 A3008 RMK AO2
####018003700####
SAUS99 KWBC 081329
METAR
KF05 081324Z AUTO 06007KT 10SM SCT007 BKN032 OVC043 25/23 A3006
     RMK AO2 T02480225=
KFEP 081325Z AUTO 31006KT 3SM HZ OVC004 24/21 A3006 RMK AO2
     T02360213=
KFOA 081325Z AUTO 20005KT 10SM CLR 30/27 A3006 RMK AO2
     T02980267=
KFWC 081325Z AUTO 23003KT 10SM CLR 28/25 A3006 RMK AO2=
KFWS 081325Z AUTO 00000KT 5SM -DZ BKN005 BKN010 OVC049 25/24 A3005
     RMK AO2 P0001 T02480235=
KGBG 081325Z AUTO 32004KT 5SM BR OVC006 23/22 A3006 RMK AO2=
KGDJ 081324Z AUTO 07005KT 10SM BKN008 BKN017 OVC049 26/24 A3005
     RMK AO2 T02570236=
KGLE 081325Z AUTO 14006KT 10SM SCT006 26/23 A3006 RMK AO2=
KHBV 081320Z AUTO 01010KT 10SM BKN008 OVC016 26/24 A2988 RMK AO2
     T02560236=
KIKK 081325Z AUTO 00000KT 5SM HZ SCT004 SCT090 27/23 A3004 RMK
     AO2=
KJOT 081326Z AUTO 00000KT 3SM BR 24/22 A3003 RMK AO2=
KLOT 081321Z AUTO 23003KT 5SM BR OVC025 24/22 A3003 RMK AO2=
KOLY 081323Z AUTO 21004KT 10SM SCT043 29/23 A3005 RMK AO2=
KORG 081325Z AUTO 07009KT 7SM OVC006 17/14 A3001 RMK AO2=
KOXI 081325Z AUTO 13003KT 3SM BKN046 OVC060 23/22 A3003 RMK AO1
     T02290215=
KOZA 081321Z AUTO 10003KT 10SM SCT022 BKN031 OVC048 23/22 A3009
     RMK AO2 T02320217=
KPNT 081325Z AUTO 00000KT 10SM BKN022 BKN029 OVC090 24/23 A3004
     RMK AO2=
KPPQ 081325Z AUTO 30003KT 10SM BKN005 OVC011 23/23 A3008 RMK
     AO2=
KPRG 081325Z AUTO 25005KT 10SM CLR 27/23 A3005 RMK AO2
     T02780237=
KRPJ 081325Z AUTO 30005KT 10SM BKN007 BKN013 23/21 A3005 RMK AO2
     T02270205=
KRSV 081322Z AUTO 24005KT 10SM CLR 29/24 A3006 RMK AO2
     T02930235=
KSFY 081325Z AUTO 30005KT 10SM SCT007 SCT012 23/21 A3005 RMK
     AO2=
K0F2 081324Z AUTO 00000KT 5SM BR BKN011 OVC017 24/23 A3005 RMK AO2
     T02360225=
K11R 081324Z AUTO 07004KT 5SM BR OVC006 26/24 A2998 RMK AO2 LTG
     DSNT W=
K1H2 081325Z AUTO 23006KT 10SM SCT060 28/24 A3005 RMK AO2 LTG DSNT
     W T02810239=
K3LF 081323Z AUTO 21005KT 5SM TSRA SCT022 BKN050 OVC090 24/23
     A3007 RMK AO2 P0008 LTG DSNT ALQS=
K3T5 081324Z AUTO 10004KT 7SM -RA SCT015 SCT032 BKN050 25/24 A2995
     RMK AO2 LTG DSNT N AND NW P0003 T02510237=
K6R3 081321Z AUTO 09005KT 5SM BR OVC006 25/25 A3000 RMK AO2
     T02540254=
KAAA 081323Z AUTO 00000KT 10SM BKN006 BKN048 OVC060 24/22 A3005
     RMK AO2 T02400223=
KAJG 081325Z AUTO 00000KT 10SM BKN043 BKN050 27/24 A3006 RMK AO2
     T02730236=
KAPY 081323Z AUTO 36006KT 10SM SCT008 SCT027 BKN034 26/25 A2986
     RMK AO2 T02550245=
KAQO 081325Z AUTO 08003KT 9SM SCT024 BKN085 25/23 A3004 RMK AO2
     LTG DSNT S=
KASW 081325Z AUTO 27003KT 10SM BKN055 BKN075 27/22 A3005 RMK AO2
     T02700215=
KAXH 081325Z AUTO 06004KT 7SM SCT027 BKN042 OVC060 25/23 A2995 RMK
     AO2 T02500232=
KBBD 081325Z AUTO 08005KT 10SM FEW034 OVC050 24/22 A3005 RMK=
KBEA 081323Z AUTO 06006KT 10SM -RA OVC005 25/25 A2989 RMK AO2
     P0001 T02460246=
KBKD 081321Z AUTO 00000KT 10SM BKN002 BKN014 OVC028 24/23 A3005
     RMK AO2 T02440233=
KBKS 081326Z AUTO 02007G14KT 10SM OVC006 27/25 A2982 RMK AO1
     T02650250=
KBPC 081328Z AUTO 02006KT 10SM OVC006 20/19 A3019 RMK AO2=
KBPG 081325Z AUTO 02009KT 10SM BKN006 OVC013 22/21 A3013 RMK AO1
     T02200205=
KBYY 081326Z AUTO 08008KT 7SM SCT017 SCT036 BKN085 27/26 A2991 RMK
     AO2 T02680259=
KC09 081324Z AUTO 24003KT 3SM BR SCT003 OVC021 22/22 A3004 RMK
     AO2=
KCIR 081322Z AUTO 24004KT 10SM CLR 29/23 A3007 RMK AO2=
KCPT 081325Z AUTO 07004KT 5SM BR 24/24 A3006 RMK AO2=
KCUL 081325Z AUTO 21004KT 10SM CLR 28/22 A3006 RMK AO2
     T02760223=
KCVB 081324Z AUTO 05007KT 7SM SCT012 BKN049 26/24 A2997 RMK AO2
     T02570242=
####018000491####
SPUS99 KWBC 081329
SPECI
PAKF 081326Z AUTO 00000KT 10SM BKN015 OVC019 08/07 A2988 RMK
     AO2=
KGCK 081327Z 01008KT 10SM SCT012 BKN021 19/16 A3025 RMK AO2=
KGRB 081327Z 30004KT 2 1/2SM BR BKN006 BKN015 23/22 A3000 RMK AO2
     CIG 003V008=
KJEF 081327Z 00000KT 5SM BR OVC005 24/23 A3007 RMK AO2 CIG
     002V007=
KSAT 081327Z 05007KT 8SM -RA BKN008 OVC020 26/24 A2997 RMK AO2
     RAB09 P0000=
KACV 081327Z AUTO 31004KT 2 1/2SM BR OVC001 10/09 A2995 RMK
     AO2=
####018000645####
SAUS99 KWBC 081329 RRA
METAR
KCWC 081325Z AUTO 11009KT 10SM CLR 26/23 A3005 RMK AO2
     T02560225=
KDKB 081321Z AUTO 29003KT 7SM BKN009 22/22 A3004 RMK AO2
     T02200215=
KDKR 081325Z AUTO 09007KT 5SM BR CLR 26/26 A3004 RMK AO2=
KDNV 081325Z AUTO 24005KT 7SM CLR 27/22 A3002 RMK AO2
     T02650221=
KDZB 081325Z AUTO 05003KT 4SM BR OVC007 25/24 A3000 RMK AO2
     T02500241=
KECU 081325Z AUTO 05004KT 9SM CLR 23/22 A3010 RMK AO2=
KENL 081324Z AUTO 22007KT 10SM SCT049 SCT090 28/20 A3005 RMK AO2
     LTG DSNT NW T02800197=
KERV 081325Z AUTO 06006KT 10SM SCT011 SCT018 BKN022 25/22 A3002
     RMK AO2 T02470220=
####018000085####
SADN34 EKCH 081320 RRA
METAR EKGF 081320Z 20009KT 9999 FEW030 SCT090 16/16 Q1018=
####018000177####
SANL32 EHDB 081325
METAR EHEH 081325Z AUTO 25007KT 9999NDV FEW350 31/11 Q1018 
BLU BLU=
METAR EHKD 081325Z AUTO 23009KT 9999NDV BKN074/// OVC190/// 23/16
Q1019 
BLU BLU=
####018000089####
SAAJ31 UBBB 081330
METAR UBBB 081330Z 34018KT CAVOK 31/26 Q1009 NOSIG RMK
R88CLRD70=
####018000086####
SAUK35 EGGY 081320 RRA
METAR EGLF 081320Z 24006KT 170V290 9999 SCT028 23/15 Q1018=
####018000092####
SAID31 WIII 081300 RRA
METAR WARR 081300Z 24010KT 8000 FEW020CB SCT018 25/21 Q1010 RERA=
####018000083####
SPCN31 KWBC 081329
SPECI
CZBF 081326Z 00000KT 10SM SCT006 BKN011 RMK SF3SC2=
####018000112####
SPCN45 CWAO 081326
SPECI CYRT 081326Z 07012KT 3SM -RA BR OVC002 RMK ST8 BLN DSAPRD 400
FT VIS NE-SE 1=

####018000117####
SAUS44 KSJT 081328
MTRJCT
SPECI KJCT 081327Z AUTO 07003KT 8SM SCT006 BKN010 BKN022 24/22 A3004 
RMK AO2 TSNO
####018000121####
SATU20 LTAA 081250 RRE
METAR LTBR 081320Z 31013KT 9999 SCT035TCU BKN100 24/17 Q1011 TEMPO
-TSRA RMK RWY07 29013KT=
####018000087####
SAUK35 EGGY 081320 RRA
METAR EGLF 081320Z 24006KT 170V290 9999 SCT028 23/15 Q1018=
####018000103####
SAUK31 EGGY 081320 CCB
METAR COR EGCC 081320Z 20010KT 170V230 9999 SCT038 20/10 Q1017
    NOSIG=
####018000086####
SADN34 EKCH 081320 RRA
METAR EKGF 081320Z 20009KT 9999 FEW030 SCT090 16/16 Q1018=
####018000182####
SANL32 EHDB 081325
METAR EHEH 081325Z AUTO 25007KT 9999NDV FEW350 31/11 Q1018 
BLU BLU=
METAR EHKD 081325Z AUTO 23009KT 9999NDV BKN074/// OVC190/// 23/16
Q1019 
BLU BLU=
####018000082####
SPUS52 KWBC 081329
SPECI
KESF 081326Z AUTO 08003KT 10SM BKN005 27/24 A3006=
####018000119####
SATU20 LTAA 081250 RRE
METAR LTBR 081320Z 31013KT 9999 SCT035TCU BKN100 24/17 Q1011 TEMPO -TSRA RMK RWY07 29013KT=
####018000082####
SPUS72 KWBC 081329
SPECI
KESF 081326Z AUTO 08003KT 10SM BKN005 27/24 A3006=
####018000075####
SPCN44 CWAO 081328
SPECI CYUS 081328Z AUTO ///// 9SM CLR 14/ A2979=

####018000168####
SAUS20 KNKA 081329
SPECI KMWL 081327Z AUTO 13003KT 10SM FEW010 BKN035 24/23 A3004 RMK 
    AO2 $=
SPECI KPWA 081327Z 34004KT 6SM BR FEW005 23/22 A3007 RMK AO2=
####018000091####
SPUS81 KWBC 081329
SPECI
PADQ 081325Z 30006KT 10SM BKN025 BKN033 OVC049 11/09 A2987=
####018000791####
SAUK KAWN 081300 RRF
METAR COR EGCC 081320Z 20010KT 170V230 9999 SCT038 20/10 Q1017 NOSIG=
METAR EGHE 081320Z 20012KT 9999 FEW025 19/14 Q1019=
METAR EGHI 081320Z 22008KT 170V260 9999 FEW028 SCT048 22/14 Q1018=
METAR EGKB 081320Z 23008KT 190V270 9999 BKN035 25/14 Q1019=
METAR EGLF 081320Z 24006KT 170V290 9999 SCT028 23/15 Q1018=
METAR COR EGLL 081320Z 23008KT 200V290 9999 BKN035 24/14 Q1018 NOSIG=
METAR EGMC 081320Z 23006KT 180V260 9999 FEW039 25/16 Q1018=
METAR EGMH 081320Z 11010KT 9999 FEW022 21/17 Q1018=
METAR EGNS 081320Z 19011KT 9999 FEW020 17/12 Q1016 NOSIG=
METAR EGNT 081320Z 26013G23KT 210V280 9999 FEW045 21/06 Q1014=
METAR EGYD 081250Z 26013KT 9999 FEW048 BKN250 22/09 Q1017 BLU NOSIG=
METAR EGYE 081250Z 23015KT 9999 FEW040 BKN250 ///// Q1017 BLU=
####018000229####
SPUS17 KAWN 081329 RRD
SPECI KGRK 081320Z 05007KT 7SM -SHRA BKN008 BKN013 27/24 A3001=
SPECI KNJM 081323Z AUTO 03006KT 7SM BKN016 29/24 A2994 RMK AO2 $=
SPECI PPIZ 081321Z AUTO 21007KT 7SM CLR 06/02 A3007 RMK AO2 TSNO $=
####018000089####
UAUS68 KAWN 081200 RRA
MKE UA /OV MKE090020/TM 1258/FL100/TP E135/SK OVCUNKN-TOP100=
####018000478####
SAUS20 KNKA 081329
METAR KPYX 081330Z AUTO 33006KT 4SM OVC004 19/18 A3020 RMK AO2 
     T01870180=
METAR KRAS 081325Z AUTO 11010G14KT 3/4SM -RA BKN001 OVC015 26/25 
     A2987 RMK AO2 P0026=
METAR KRBO 081325Z AUTO 03009G14KT 7SM RA SCT005 SCT023 BKN090 
     26/25 A2985 RMK AO2 T02630253=
METAR KRPH 081325Z AUTO 11003KT 10SM BKN060 24/22 A3003 RMK AO2 
     T02430217=
METAR KSEP 081325Z AUTO 07003KT 4SM BKN004 BKN017 OVC041 23/22 
     A3006 RMK AO1=
####018002925####
SAUS20 KNKA 081329
SPECI KBIV 081328Z AUTO 28006KT 1 3/4SM +RA BR OVC001 24/22 A3005 
    RMK AO2 RAB15 P0003=
METAR KDUX 081327Z AUTO 01005KT 5SM BR SCT048 BKN060 OVC075 18/17 
     A3024 RMK AO2 P0001 T01770171=
METAR KE38 081325Z AUTO 00000KT 10SM CLR 19/18 A3023 RMK AO2 
     T01930178=
METAR KEBG 081326Z AUTO 02008KT 10SM OVC005 27/25 A2981 RMK AO2 
     T02700254=
METAR KGNC 081325Z AUTO 03008KT 7SM SCT005 BKN017 BKN046 20/20 
     A3017 RMK AO2 T02030196=
METAR KGOP 081320Z AUTO 00000KT 7SM SCT009 BKN046 26/24 A3004 RMK 
     AO2=
METAR KGVT 081325Z AUTO 12003KT 10SM OVC055 26/23 A3006 RMK AO2=
METAR KGWB 081325Z AUTO 00000KT 10SM CLR 28/16 A3006 RMK AO2=
METAR KGYB 081325Z AUTO 10004KT 2 1/2SM +RA BKN008 BKN017 OVC034 
     24/23 A3002 RMK AO2 VIS 1 1/2V5 P0054 T02360229=
METAR KGYI 081325Z AUTO 14009KT 25/24 A3005 RMK AO2 T02520242 
     PWINO=
METAR KHHF 081325Z AUTO 07008KT 1 1/2SM +RA SCT005 BKN010 OVC019 
     21/20 A3016 RMK AO2 P0068 T02110203=
METAR KHRX 081325Z AUTO 02009KT 10SM OVC024 18/16 A3023 RMK AO2 
     T01770163=
METAR KHSB 081325Z AUTO 21003KT 10SM SCT100 27/22 A3007 RMK AO2=
METAR KIJX 081325Z AUTO 27004KT 10SM SCT007 BKN011 24/23 A3007 
     RMK AO2 LTG DSNT SE T02400230=
METAR KINJ 081325Z AUTO 08006KT 7SM SCT005 SCT029 OVC070 25/23 
     A3003 RMK AO2 T02480230=
METAR KJAS 081326Z AUTO 08006KT 7SM BKN006 26/25 A3004 RMK AO2 
     T02630247=
METAR KJDD 081325Z AUTO 00000KT 5SM  BR SCT008 26/25 A3006 RMK AO2=
METAR KJSO 081330Z AUTO 10003KT 7SM SCT004 BKN110 24/24 A3006 RMK 
     AO2 T02390236=
METAR KJWY 081325Z AUTO 10004KT 7SM 25/23 A3004 RMK AO2 T02520233=
METAR KJXI 081325Z AUTO 11005KT BKN005 26/25 A3007 RMK AO2=
METAR KLBR 081325Z AUTO 13003KT 10SM BKN005 26/23 A3007 RMK AO2 
     T02550232=
METAR KLHB 081324Z AUTO 08006KT 3SM BR OVC007 26/24 A3000 RMK AO2 
     LTG DSNT S T02600236=
METAR KLNC 081325Z AUTO 10003KT 7SM SCT017 SCT055 OVC070 25/25 
     A3004 RMK AO2 T02510245=
METAR KLUD 081325Z AUTO 12004KT 10SM BKN009 BKN026 25/23 A3005 
     RMK AO2 T02510225=
METAR KM30 081326Z AUTO 00000KT 10SM CLR 27/22 A3007 RMK AO2=
METAR KMDD 081320Z AUTO 03007KT 10SM OVC008 22/20 A3013 RMK AO2 
     T02190203=
METAR KMKN 081320Z AUTO 00000KT 8SM 24/24 A3007 RMK AO2=
METAR KMQB 081325Z AUTO 31004KT 10SM OVC006 23/22 A3008 RMK AO2 
     T02330220=
METAR KOSA 081324Z AUTO 00000KT 7SM OVC006 26/25 A3007 RMK AO1 
     T02560245=
METAR KPEZ 081325Z AUTO 03007KT 7SM SCT009 BKN020 OVC049 25/24 
     A2993 RMK AO2 T02540235=
SPECI KPHL 081328Z 15004KT 7SM FEW010 SCT100 28/22 A3004 RMK AO2=
METAR KPKV 081326Z AUTO 08007KT 10SM -RA SCT009 BKN024 OVC075 
     24/23 A2989 RMK AO2 P0052 T02400225=
METAR KPPA 081325Z AUTO 03009KT 7SM -DZ BKN003 OVC008 19/18 A3021 
     RMK AO2=
METAR KPSN 081325Z AUTO 09007KT 7SM 25/24 A3004 RMK AO2 T02500237=
