####018003694####
SAUS90 KWBC 081400
METAR KAQV 081356Z AUTO VRB05KT 10SM FEW008 27/24 A3004 RMK AO2
     SLP169 T02720239=
METAR KP53 081356Z AUTO 03004KT 19/18 A2999 RMK AO2 SLP155
     T01940183 PWINO TSNO=
METAR KNRS 081356Z 32006KT 10SM FEW008 OVC014 17/14 A2992 RMK AO2
     SLP131 T01670144 $=
METAR K9L2 081356Z AUTO 00000KT 10SM CLR 18/03 A2991 RMK AO2
     SLP107 T01780028 $=
METAR KNTU 081356Z 07008KT 10SM FEW020 SCT100 SCT200 28/22 A2999
     RMK AO2 SLP157 T02830217 $=
METAR KBIH 081356Z AUTO 31003KT 10SM CLR 17/03 A3003 RMK AO2
     SLP116 T01670028 TSNO=
METAR KNGP 081356Z 10007KT 7SM -RA FEW009 SCT016CB BKN025 27/26
     A2984 RMK AO2 RAB12 SLP105 CB DSNT SW TCU NE-OHD-W TCU DSNT N
     WR// P0007 T02730261 $=
METAR K2WX 081356Z AUTO 27010KT 18/11 A3018 RMK AO1 SLP202
     T01830111=
METAR KP28 081356Z AUTO 36008KT 22/20 A3014 RMK AO2 SLP193
     T02220200 PWINO TSNO=
METAR KNFE 081356Z AUTO 09005KT 2 1/2SM HZ CLR 29/19 A2999 RMK AO2
     SLP157 T02940194 $=
METAR K8D3 081356Z AUTO 28008KT 23/14 A3010 RMK AO2 SLP177
     T02280144 PWINO TSNO=
METAR KSPD 081356Z AUTO 07008KT 16/15 A3030 RMK AO2 SLP208 P0002
     T01610150 PWINO TSNO=
METAR KFSD 081356Z 00000KT 10SM CLR 21/16 A3018 RMK AO2 SLP213 SCT
     ABV 120 T02110156=
METAR KTEW 081353Z AUTO 00000KT 10SM CLR 27/21 A3003 RMK AO2=
METAR KCVH 081350Z AUTO 00000KT 6SM OVC008 13/11 A2994 RMK AO1=
METAR KFSO 081358Z AUTO 00000KT 7SM CLR 30/25 A3001 RMK AO2=
METAR KFBL 081354Z AUTO 30005KT 10SM CLR 21/16 A3013 RMK AO2=
METAR KLYV 081358Z AUTO 00000KT 10SM CLR 20/16 A3018 RMK AO2=
METAR KEFK 081356Z AUTO 21007KT 7SM CLR 28/22 A3005 RMK AO2=
METAR KRRT 081354Z AUTO 27008KT 10SM CLR 18/14 A3003 RMK AO2 LTG
     DSNT NE=
METAR KTOB 081354Z AUTO 33003KT 10SM CLR 20/17 A3013 RMK AO2=
METAR KLXL 081354Z AUTO 27005KT 10SM CLR 21/14 A3009 RMK AO2=
METAR KEVM 081352Z AUTO 26007KT 10SM CLR 20/15 A3003 RMK AO1=
METAR KELO 081353Z AUTO 25005KT 10SM CLR 20/14 A3003 RMK AO2 LTG
     DSNT N=
METAR KROX 081354Z AUTO 28008KT 10SM CLR 18/15 A3004 RMK AO2=
METAR KSYN 081410Z AUTO 30006KT 10SM CLR 22/17 A3011 RMK AO2
     T02170173=
METAR KVVV 081356Z AUTO 26005KT 10SM CLR 21/16 A3012 RMK AO2=
METAR KROS 081355Z AUTO 29004KT 10SM CLR 22/16 A3010 RMK AO2
     T02150164=
METAR KHCD 081351Z AUTO 28005KT 10SM CLR 20/15 A3013 RMK AO2
     T01990154=
METAR KSGS 081353Z AUTO 31003KT 10SM CLR 22/16 A3011 RMK AO2
     T02200162=
METAR KMJQ 081352Z AUTO 31004KT 10SM CLR 20/16 A3017 RMK AO2=
METAR KHCO 081354Z AUTO 33007KT 10SM CLR 19/16 A3009 RMK AO2=
METAR KLVN 081348Z AUTO 27005KT 10SM CLR 21/17 A3012 RMK AO2=
METAR KPEX 081353Z AUTO 27008KT 10SM CLR 21/16 A3012 RMK AO2
     T02130162=
METAR KJMR 081358Z AUTO 28005KT 10SM CLR 21/15 A3011 RMK AO2=
METAR KJKJ 081354Z AUTO 30004KT 10SM CLR 21/17 A3008 RMK AO2=
METAR KMVE 081354Z AUTO 30004KT 10SM CLR 21/18 A3011 RMK AO2 LTG
     DSNT N=
METAR KTKC 081353Z AUTO 29005KT 10SM CLR 21/15 A3015 RMK AO2
     T02120153=
METAR KGYL 081354Z AUTO 28007KT 10SM CLR 21/16 A3013 RMK AO2
     T02080161=
METAR KDXX 081354Z AUTO 00000KT 10SM CLR 21/19 A3011 RMK AO2=
METAR KHZX 081351Z AUTO 26003KT 10SM CLR 21/15 A3008 RMK AO2=
METAR KSAZ 081353Z AUTO 26006KT 10SM CLR 20/19 A3010 RMK AO2=
METAR KONA 081350Z AUTO 33008KT 10SM SCT015 23/18 A3008 RMK
     AO2=
METAR KOVL 081354Z AUTO 29005KT 10SM CLR 20/15 A3013 RMK AO2
     T01950145=
METAR KLJF 081352Z AUTO 30006KT 10SM CLR 22/17 A3013 RMK AO2=
METAR KAEL 081351Z AUTO 33007KT 10SM CLR 20/17 A3014 RMK AO2=
METAR K29G 081354Z AUTO 00000KT 10SM CLR 28/18 A3009 RMK AO2
     T02800184 PWINO=
####018003549####
SAUS90 KWBC 081400 RRA
METAR KMRT 081353Z AUTO 22004KT 10SM CLR 29/20 A3011 RMK AO2
     T02910198=
METAR KIKW 081353Z AUTO 27005KT 10SM BKN070 OVC080 25/21 A3001 RMK
     AO2 T02470214=
METAR KMDS 081345Z AUTO 29008KT 10SM CLR 20/16 A3018 RMK AO2=
METAR KWAL 081354Z 09009KT 10SM SCT013 BKN080 OVC120 28/21 A3003
     RMK AO2 SLP164 T02780211=
METAR KFPK 081356Z AUTO 00000KT 10SM CLR 26/21 A3002 RMK AO2=
METAR KMOP 081354Z AUTO 28005KT 10SM -RA SCT028 SCT039 SCT048
     23/23 A3002 RMK AO2=
METAR KCAD 081354Z AUTO 27004KT 5SM -RA SCT008 BKN021 OVC039 22/21
     A3004 RMK AO2=
METAR KMGN 081355Z AUTO 26003KT 2 1/2SM RA SCT002 OVC008 21/20
     A3000 RMK AO2=
METAR KHAI 081355Z AUTO 00000KT 5SM RA SCT034 SCT039 BKN046 25/22
     A3005 RMK AO2=
METAR KLWA 081356Z AUTO 00000KT 10SM BKN034 OVC060 24/21 A3003 RMK
     AO2=
METAR KDRM 081356Z AUTO 25004KT 4SM -DZ OVC004 21/21 A2998 RMK
     AO2=
METAR KVLL 081354Z AUTO 24005KT 10SM CLR 31/18 A3005 RMK AO2=
METAR KCFS 081355Z AUTO 29007KT 10SM SCT060 28/21 A3002 RMK
     AO2=
METAR KOZW 081355Z AUTO 00000KT 10SM CLR 28/20 A3004 RMK AO2=
METAR KRNP 081355Z AUTO 00000KT 10SM CLR 28/21 A3002 RMK AO2=
METAR KDUH 081355Z AUTO 26003KT 10SM CLR 31/20 A3004 RMK AO2=
METAR KJYM 081355Z AUTO 00000KT 10SM CLR 27/21 A3006 RMK AO2=
METAR KBAX 081355Z AUTO 00000KT 10SM SCT095 27/23 A3000 RMK
     AO2=
METAR KIRS 081355Z AUTO 14003KT 10SM SCT060 27/22 A3003 RMK
     AO2=
METAR KACB 081355Z AUTO 00000KT 7SM -RA SCT009 SCT012 BKN049 23/22
     A3001 RMK AO2=
METAR KRQB 081354Z AUTO 00000KT 7SM BKN005 OVC046 23/22 A3003 RMK
     AO2=
METAR KOEB 081355Z AUTO 13003KT 10SM CLR 27/22 A3004 RMK AO2=
METAR K4I3 081356Z AUTO 00000KT 10SM CLR 28/22 A3009 RMK AO2=
METAR KAUM 081355Z AUTO 33008KT 10SM CLR 21/17 A3012 RMK AO2=
METAR KFFX 081355Z AUTO 21005KT 7SM -DZ SCT009 BKN028 OVC034 23/22
     A3002 RMK AO2=
METAR KCNB 081358Z AUTO 25007KT 10SM CLR 22/15 A3014 RMK AO2
     T02230152=
METAR KCKN 081355Z AUTO 29006KT 10SM CLR 19/15 A3008 RMK AO2=
METAR KCFE 081355Z AUTO 27006KT 10SM CLR 22/16 A3013 RMK AO2
     T02150164=
METAR KCQM 081357Z AUTO 27005KT 10SM CLR 19/16 A3005 RMK AO2 LTG
     DSNT NE=
METAR KDTL 081355Z AUTO 27006KT 10SM CLR 20/11 A3011 RMK AO2=
METAR KBDH 081355Z AUTO 28007KT 10SM CLR 20/16 A3013 RMK AO2=
METAR KCBG 081355Z AUTO 28008KT 10SM CLR 22/17 A3010 RMK AO2=
METAR KADC 081357Z AUTO 26004KT 10SM CLR 19/15 A3010 RMK AO2=
METAR KHAF 081350Z AUTO 33003KT 7SM OVC006 12/10 A2996 RMK AO2=
METAR KCKC 081355Z AUTO 26006KT 10SM CLR 21/13 A3005 RMK AO2=
METAR KJYG 081354Z AUTO 00000KT 10SM CLR 22/19 A3016 RMK AO2=
METAR KCOQ 081356Z AUTO 27006KT 10SM CLR 21/18 A3007 RMK AO2=
METAR KACQ 081359Z AUTO 30006KT 10SM CLR 20/17 A3016 RMK AO2=
METAR KRGK 081355Z AUTO 32005KT 10SM CLR 22/17 A3009 RMK AO2=
METAR KFSE 081354Z AUTO 24006KT 10SM CLR 18/14 A3007 RMK AO2=
METAR KY70 081355Z AUTO 00000KT 7SM SCT009 BKN047 BKN110 26/23
     A3002 RMK AO2 T02610225=
METAR KUKT 081350Z AUTO 00000KT 9SM CLR 29/21 A3006 RMK AO1=
METAR KFKA 081403Z AUTO 35008KT 10SM CLR 21/18 A3012 RMK AO2
     T02080176=
METAR KAKQ 081354Z AUTO 00000KT 4SM HZ CLR 29/23 A3000 RMK AO2
     SLP158 T02890233 TSNO=
METAR KROA 081354Z 01008KT 6SM HZ FEW085 31/17 A3009 RMK AO2
     SLP173 T03060167=
METAR KD07 081356Z AUTO 29006KT 21/12 A3022 RMK AO2 SLP222
     T02060117 PWINO TSNO=
METAR PASV 081355Z AUTO 01003KT 10SM CLR 10/07 A2994 RMK AO1
     T01000067=
####018000106####
SAUS90 KWBC 081500
METAR K3A6 081450Z AUTO 36002KT 12/11 A2989 RMK AO1 SLP142
     T01150108 54000=
####018000055####
SAUS90 KWBC 081300 RRG
METAR K8S0 081255Z 36002KT=
####018000846####
SAUS90 KWBC 081400 CCA
METAR KTUP 081353Z 05004KT 10SM CLR 29/22 A3008 RMK AO2 SLP182
     T02890222=
METAR KLAX 081353Z 27006KT 7SM BCFG FEW009 OVC011 16/13 A2992 RMK
     AO2 SLP130 T01610128=
METAR KDAB 081353Z VRB03KT 10SM FEW026 SCT250 28/19 A3002 RMK AO2
     SLP163 T02830194 $=
METAR KMGM 081353Z 00000KT 10SM CLR 31/22 A3003 RMK AO2 SLP164
     T03110222=
METAR KLND 081353Z AUTO 00000KT 10SM CLR 13/05 A3035 RMK AO2
     SLP228 T01280050=
METAR KBTR 081353Z 08004KT 10SM SCT005 BKN010 27/24 A3004 RMK AO2
     SLP171 T02670244=
METAR KAST 081355Z AUTO 23003KT 3SM BR OVC003 12/11 A2997 RMK AO2
     SLP150 T01220111=
METAR KLOR 081353Z AUTO 00000KT 10SM CLR 29/23 A3003 RMK AO2
     SLP165 T02890228 TSNO $=
METAR KDRA 081355Z AUTO 00000KT 10SM CLR 23/M10 A2997 RMK AO2
     SLP096 T02331100 TSNO=
####018000582####
SAUS99 KWBC 081400 RRA
METAR
KSTE 081355Z AUTO 32003KT 10SM BKN013 22/19 A3005 RMK AO2=
KSUW 081355Z AUTO 24007KT 10SM CLR 22/16 A3003 RMK AO2=
KTKV 081355Z AUTO 32003KT 10SM CLR 20/16 A3007 RMK AO2
     T02040161=
KUNU 081352Z AUTO 27006KT 10SM SCT010 23/20 A3004 RMK AO2
     T02340195=
KVBS 081355Z AUTO 11022KT 10SM FEW019 29/25 A2997 RMK A01=
KVNP 081355Z AUTO 09015G20KT 7SM FEW012 BKN019 BKN025 28/26 A3001
     RMK A01=
KXFL 081350Z 00000KT 10SM CLR 28/22 A3002=
KY50 081356Z AUTO 36006KT 10SM BKN013 23/21 A3004 RMK AO2
     T02330211 SLP166 $=
####018003741####
SAUS99 KWBC 081400
METAR
K4M9 081355Z AUTO 24007KT 10SM CLR 28/25 A3007 RMK AO2=
KAEJ 081355Z AUTO 00000KT 10SM OVC016 10/08 A3046 RMK AO2=
KBCT 081353Z AUTO 10008KT 10SM SCT024 32/24 A2998=
KBVU 081355Z AUTO 00000KT 10SM CLR 26/M02 A2991 RMK AO2=
KCEF 081355Z 18005KT 7SM SCT014 BKN018 OVC080 26/23 A3007 RMK AO2A
     SLP183 P0000 T02560226 $=
KDCM 081355Z AUTO 35004KT 7SM CLR 30/25 A3002 RMK AO2=
KEFD 081350Z 06004KT 4SM -RA SCT006 BKN020 OVC250 26/25 A2998=
KHRT 081355Z VRB01KT 10SM CLR 29/25 A3003 RMK AO2A SLP171
     T02860250 $=
KHYW 081355Z AUTO 01007KT 5SM HZ CLR 30/24 A2995 RMK AO2=
KLUF 081355Z 05003KT 10SM SCT170 29/07 A2981 RMK AO2A SLP062
     T02900070 $=
KMCJ 081355Z AUTO 07008KT 5SM CLR 24/23 A2994 RMK AO1 P0001=
KMMT 081355Z 29006KT 10SM CLR 31/21 A2999 RMK AO2A RAB1256E1305
     SLP154 P0000 T03100213=
KMXF 081355Z AUTO 00000KT 10SM CLR 30/24 A3003 RMK AO2 SLP168
     T03000242=
KRBW 081355Z AUTO 31006KT 10SM CLR 30/21 A2998 RMK AO2=
KRCM 081355Z AUTO 35004KT 10SM OVC008 23/23 A3009 RMK AO2=
KSBD 081353Z 00000KT 1 1/2SM BR OVC010 14/12 A2993=
KSNC 081355Z AUTO 14005KT 10SM BKN011 OVC019 24/24 A3010 RMK
     AO2=
PAFS 081356Z AUTO 03005KT 10SM CLR 11/06 A2999 RMK AO2 TSNO
     T01110055 SLP162 $=
PAIW 081357Z AUTO 00000KT 10SM CLR 08/06 A3016 RMK AO2 SLP307
     T00780061=
PAMB 081356Z AUTO 34003KT 10SM BKN040 OVC080 11/08 A2991 RMK AO2
     PWINO TSNO T01050083 SLP133 $=
PAVA 081357Z AUTO 02009KT 10SM CLR 10/08 A3006 RMK AO2 SLP182
     T01000083=
PPIZ 081356Z AUTO 20007KT 10SM CLR 06/02 A3007 RMK AO2 TSNO
     T00610022 SLP185 $=
KBBF 081455Z AUTO 13018KT 8SM FEW032 FEW050 29/26 A2984 RMK
     A01=
KBQX 081355Z AUTO 12017G26KT 8SM SCT024 SCT034 SCT042 29/25 A2989
     RMK A01=
KDLP 081355Z AUTO 10014KT 9SM FEW022 SCT027 SCT034 29/24 A3002 RMK
     A01=
KEDU 081355Z AUTO 00000KT 10SM CLR 14/10 A2985 RMK AO1=
KEHC 081355Z AUTO 12021KT 6SM HZ FEW018 SCT026 29/25 A2997 RMK
     A01=
KEMK 081355Z AUTO 14021G30KT 3/4SM HZ SCT005 BKN026 OVC044 28/25
     A2991 RMK A01=
KGBK 081355Z AUTO 09014G23KT 10SM FEW021 29/25 A2995 RMK A01=
KGVX 081355Z AUTO 13025KT 9SM BKN080 M40/ A2993 RMK A01=
KHQI 081355Z AUTO 11021G29KT 1/2SM BR SCT003 BKN021 OVC036 28/26
     A2993 RMK A01 VIS 1/4V3=
KIPN 081355Z AUTO 07013KT 10SM FEW025 57/50 A3002 RMK A01=
KMDJ 081355Z AUTO 11013KT 10SM SCT024 SCT030 29/24 A3003 RMK
     A01=
KMEI 081358Z 01005KT 10SM CLR 29/23 A3007 RMK AO2 SLP176
     T02940228=
KMHR 081355Z AUTO 17004KT 10SM CLR 13/10 A2987 RMK AO1=
KMIU 081355Z AUTO 13025KT 1SM HZ FEW004 BKN019 OVC055 27/25 A2983
     RMK A01 VIS 1/4V5=
KMRJ 081355Z AUTO 32004KT 10SM BKN007 BKN013 24/21 A3007 RMK AO2
     T02360205=
KMYT 081355Z AUTO 11014KT 10SM FEW021 FEW026 28/24 A2999 RMK
     A01=
KMZG 081355Z AUTO 00000KT 9SM FEW022 FEW028 SCT041 29/25 A2985 RMK
     A01=
KOEO 081355Z AUTO 27004KT 10SM CLR 21/17 A3012 RMK AO2=
KPBH 081355Z AUTO 00000KT 10SM SCT050 22/18 A3008 RMK AO2 LTG DSNT
     N=
KPCZ 081355Z AUTO 27005KT 10SM CLR 25/21 A3002 RMK AO2
     T02450207=
KPDC 081353Z AUTO 30005KT 10SM OVC010 23/20 A3006 RMK AO2
     T02310203=
KPSM 081355Z 14010KT 10SM FEW020 SCT200 27/21 A3008 RMK AO2A
     SLP188 T02660206=
KRCX 081355Z AUTO 34005KT 10SM CLR 21/17 A3010 RMK AO2
     T02100165=
KRNH 081356Z AUTO 29005KT 10SM CLR 21/17 A3011 RMK AO2
     T02100171=
KRPD 081354Z AUTO 29006KT 10SM CLR 21/17 A3011 RMK AO2
     T02130170=
KRRL 081355Z AUTO 35003KT 10SM SCT014 21/18 A3007 RMK AO2 LTG DSNT
     N T02120179=
KRYV 081355Z AUTO 27004KT 10SM BKN009 24/21 A3003 RMK AO2=
KSCF 081400Z AUTO 13019KT 9SM 28/25 A2994 RMK A01=
####018000222####
SPUS99 KWBC 081400
SPECI
KDGW 081358Z AUTO 00000KT 3SM BR OVC001 08/08 A3036 RMK AO2 $=
KNEW 081358Z 08010KT 10SM BKN014 BKN021 29/25 A3005 RMK AO2=
KTTN 081358Z 16007KT 3SM HZ SCT013 BKN020 28/23 A3004 RMK AO2=
####018000097####
SAUS98 KWBC 081400
METAR PASV 081355Z AUTO 01003KT 10SM CLR 10/07 A2994 RMK AO1
T01000067=
####018000123####
SAUS44 KSJT 081359
MTRJCT
SPECI KJCT 081358Z AUTO 04003KT 10SM BKN010 OVC022 25/22 A3004 RMK 
AO2 CIG 007V012 TSNO
####018000089####
SPAK31 KWBC 081400
SPECI
PAED 081352Z AUTO 00000KT 10SM BKN065 OVC080 12/11 A2999=
####018000113####
SAUS45 KPSR 081359
MTRALK
METAR KALK 081356Z AUTO 07013KT 10SM CLR 24/11 A3012 RMK AO2 SLP096 
T02440111
####018000120####
SAUS46 KLOX 081359
MTRNLC
METAR KNLC 081356Z AUTO 32008KT 10SM CLR 18/11 A2985 RMK AO2 SLP107 
T01780106 TSNO $
####018000153####
SPXX60 KWBC 081400
SPECI
PAED 081352Z AUTO 00000KT 10SM BKN065 OVC080 12/11 A2999 RMK AO2
     RAE1256B1316E1325DZB1256E1258B1325E1352 SLP158 $=
####018003716####
SAUS70 KWBC 081400
METAR
KNFE 081356Z AUTO 09005KT 2 1/2SM HZ CLR 29/19 A2999 RMK AO2
     SLP157 T02940194 $=
KBJJ 081356Z AUTO VRB03KT 9SM CLR 28/19 A3010 RMK AO2 SLP181
     T02830189=
KCTB 081356Z AUTO 00000KT 10SM CLR 13/08 A3023 RMK AO2 SLP216
     T01330083=
KCXY 081356Z 33003KT 6SM HZ CLR 31/21 A3002 RMK AO2 SLP163
     T03060206=
KDAY 081356Z 23006KT 8SM CLR 29/19 A3009 RMK AO2 SLP179
     T02890189=
KEAU 081356Z 32006KT 10SM CLR 22/17 A3007 RMK AO2 SLP180
     T02170167=
KELZ 081356Z AUTO 00000KT 10SM CLR 27/21 A3015 RMK AO2 SLP194
     T02720206=
KHFF 081355Z AUTO 04009KT 10SM CLR 32/19 A2999 RMK AO2 SLP153
     T03210190 $=
KHPN 081356Z 14006KT 2SM DZ BR BKN006 OVC012 26/23 A3007 RMK AO2
     SLP174 P0000 T02560228=
KHWV 081356Z AUTO 15007KT 10SM CLR 28/21 A3007 RMK AO2 SLP181
     T02780211=
KISO 081355Z 04007KT 4SM HZ CLR 28/23 A2998=
KISP 081356Z 13005KT 10SM SCT016 BKN130 27/20 A3005 RMK AO2 SLP174
     T02670200=
KITH 081356Z 00000KT 10SM FEW040 29/21 A3009 RMK AO2 T02940211
     SLP181=
KJXN 081356Z 00000KT 10SM CLR 28/21 A3004 RMK AO2 SLP166
     T02780206=
KLNR 081356Z AUTO 29004KT 9SM FEW012 BKN018 24/20 A3006 RMK AO2
     SLP168 T02390200=
KMDT 081356Z 22003KT 5SM HZ CLR 31/21 A3001 RMK AO2 SLP160
     T03110211=
KPVU 081350Z VRB05KT 15SM SCT120 19/09 A3016=
KSGJ 081358Z 31006KT 10SM CLR 27/21 A3002 RMK AO2 SLP166
     T02720211=
KSQL 081351Z 30008KT 10SM OVC012 13/10 A2994=
KEFD 081350Z 06004KT 4SM -RA SCT006 BKN020 OVC250 26/25 A2998=
KFMH 081355Z AUTO 16008KT 10SM BKN015 BKN020 25/21 A3011 RMK
     AO2=
KBOS 081354Z 15008KT 10SM SCT220 26/20 A3009 RMK AO2 SLP190
     T02610200=
KPHL 081354Z 14005KT 7SM FEW028 SCT110 28/21 A3004 RMK AO2 SLP173
     T02830211=
KFMH 081355Z AUTO 16008KT 10SM BKN015 BKN020 25/21 A3011 RMK
     AO2=
KSGH 081356Z 00000KT 5SM HZ CLR 29/22 A3010 RMK AO2 T02880222
     SLP183=
KROG 081357Z 00000KT 10SM OVC018 24/22 A3011 RMK AO2 PK WND
     18031/1350 SLP181 T02390222=
KRZN 081354Z AUTO 26005KT 10SM CLR 22/17 A3009 RMK AO2
     T02150165=
KSME 081355Z AUTO 00000KT 5SM HZ 29/22 A3010 RMK AO2=
KUNI 081355Z AUTO 00000KT 7SM CLR 30/18 A3009 RMK AO2
     T02990175=
KVES 081354Z AUTO 19003KT 10SM CLR 28/22 A3008 RMK AO2
     T02780216=
KY63 081400Z AUTO 27005KT 10SM CLR 20/17 A3011 RMK AO2
     T01960166=
PACM 081356Z AUTO 00000KT 10SM CLR 11/09 A3005 RMK AO2 TSNO
     T01050088 SLP173 $=
PAGN 081356Z AUTO 00000KT CLR RMK AO2 PWINO TSNO SLPNO $=
PATQ 081356Z AUTO 24013KT 10SM CLR 09/03 A3002 RMK AO2 TSNO
     T00880033 SLP171 $=
K14Y 081359Z AUTO 26006KT 7SM CLR 21/16 A3012 RMK AO2
     T02100156=
K1A6 081355Z AUTO 00000KT 5SM HZ CLR 27/24 A3012 RMK AO2=
KAIG 081355Z AUTO 35004KT 10SM SCT013 21/18 A3004 RMK AO2=
KAJO 081356Z AUTO 00000KT 4SM BR BKN011 16/14 A2993 RMK AO2
     T01550138 BKN V OVC SLP131 $=
KARV 081352Z AUTO 30006KT 10SM CLR 21/18 RMK AO2 T02120179=
KBWP 081351Z AUTO 29005KT 10SM CLR 20/16 A3011 RMK AO1
     T02000155=
KCMY 081355Z AUTO 31006KT 10SM SCT015 23/18 A3007 RMK AO2
     T02300180=
KDIJ 081356Z AUTO 04004KT 10SM CLR 14/04 A3032 RMK AO2 T01440044
     SLP187 $=
KEFT 081355Z AUTO 31005KT 10SM OVC004 24/20 A3005 RMK AO2
     T02350202=
KEGV 081352Z AUTO 32009KT 10SM BKN048 21/17 A3006 RMK AO2
     T02090172=
KEKQ 081356Z AUTO 00000KT 5SM HZ CLR 28/22 A3012 RMK AO2 T02830222
     SLP194=
KETB 081352Z AUTO 29006KT 10SM BKN009 OVC016 23/20 A3002 RMK AO2
     T02280204=
KEZS 081355Z AUTO 01006KT 10SM SCT014 25/21 A3002 RMK AO2
     T02460207=
KGLW 081353Z AUTO 00000KT 10SM CLR 30/20 A3009 RMK AO2
     T02960200=
####018000711####
SAUS80 KWBC 081400 CCA
METAR
KTUP 081353Z 05004KT 10SM CLR 29/22 A3008 RMK AO2 SLP182
     T02890222=
KLAX 081353Z 27006KT 7SM BCFG FEW009 OVC011 16/13 A2992 RMK AO2
     SLP130 T01610128=
KDAB 081353Z VRB03KT 10SM FEW026 SCT250 28/19 A3002 RMK AO2 SLP163
     T02830194 $=
KMGM 081353Z 00000KT 10SM CLR 31/22 A3003 RMK AO2 SLP164
     T03110222=
KLND 081353Z AUTO 00000KT 10SM CLR 13/05 A3035 RMK AO2 SLP228
     T01280050=
KBTR 081353Z 08004KT 10SM SCT005 BKN010 27/24 A3004 RMK AO2 SLP171
     T02670244=
KAST 081355Z AUTO 23003KT 3SM BR OVC003 12/11 A2997 RMK AO2 SLP150
     T01220111=
KDRA 081355Z AUTO 00000KT 10SM CLR 23/M10 A2997 RMK AO2 SLP096
     T02331100 TSNO=
####018000119####
SAUS44 KBMX 081359
MTREUF
METAR KEUF 081358Z AUTO 00000KT 10SM CLR 31/22 A3003 RMK AO2 SLP163 
T03110217 PNO $
####018000103####
SAUS70 KWBC 081500
METAR
KBBF 081455Z AUTO 13018KT 8SM FEW032 FEW050 29/26 A2984 RMK
     A01=
####018003713####
SAUS70 KWBC 081400 RRA
METAR
KGPM 081350Z 11006KT 10SM SCT025 BKN045 26/23 A3004=
KHFJ 081355Z AUTO 00000KT 10SM BKN050 24/23 A3006 RMK AO1=
KLCK 081355Z AUTO 00000KT 10SM CLR 29/22 A3007 RMK AO2
     T02900216=
KLNL 081355Z AUTO 34004KT 10SM SCT050 20/15 A3008 RMK AO2
     T01950148=
KLRD 081356Z 04011KT 9SM FEW008 BKN044 28/24 A2991 RMK AO2
     T02770244 BKN V SCT SLP116 $=
KLUM 081355Z AUTO 34006KT 10SM CLR 21/16 A3009 RMK AO2=
KM89 081356Z AUTO 00000KT 6SM BR OVC004 25/24 A3010 RMK AO2
     T02500238 SLP204=
KMDZ 081355Z AUTO 34008KT 10SM CLR 21/17 A3007 RMK AO2=
KMWO 081355Z AUTO 24005KT 7SM CLR 28/21 A3008 RMK AO2=
KOLV 081350Z 00000KT 7SM FEW250 30/24 A3010=
KPVB 081353Z AUTO 31004KT 10SM BKN009 23/21 A3007 RMK AO1
     T02260205=
KSGH 081356Z 00000KT 5SM HZ CLR 29/22 A3010 RMK AO2 T02880222
     SLP183=
PACM 081356Z AUTO 00000KT 10SM CLR 11/09 A3005 RMK AO2 TSNO
     T01050088 SLP173 $=
PAGN 081356Z AUTO 00000KT CLR RMK AO2 PWINO TSNO SLPNO $=
PAHC 081356Z AUTO 07003KT 10SM CLR 07/07 A2998 RMK AO2 TSNO
     T00720066 SLP155 $=
PAIG 081356Z AUTO 18003KT 10SM BKN100 09/08 A2993 RMK AO2 PWINO
     TSNO T00880083 BKN V SCT SLP138 $=
PAMO 081356Z AUTO 36009KT 10SM OVC100 12/09 A3002 RMK AO2 TSNO
     T01160094 SLP165 $=
PAOH 081356Z AUTO 00000KT 9SM CLR 09/09 A3018 RMK AO2 TSNO
     T00880088 SLP222=
PAPM 081356Z AUTO 08003KT RA OVC060 07/07 A2998 RMK AO2 TSNO
     T00720066 P0000 SLP153 $=
PARS 081356Z AUTO 00000KT BKN065 08/08 A2999 RMK AO2 TSNO
     T00830077 SLP161 $=
PATQ 081356Z AUTO 24013KT 10SM CLR 09/03 A3002 RMK AO2 TSNO
     T00880033 SLP171 $=
KWJF 081356Z 00000KT 10SM CLR 17/04 A2992 RMK AO2 SLP114
     T01670039=
K4M9 081355Z AUTO 24007KT 10SM CLR 28/25 A3007 RMK AO2=
KAEJ 081355Z AUTO 00000KT 10SM OVC016 10/08 A3046 RMK AO2=
KBCT 081353Z AUTO 10008KT 10SM SCT024 32/24 A2998=
KBVU 081355Z AUTO 00000KT 10SM CLR 26/M02 A2991 RMK AO2=
KDCM 081355Z AUTO 35004KT 7SM CLR 30/25 A3002 RMK AO2=
KEFD 081350Z 06004KT 4SM -RA SCT006 BKN020 OVC250 26/25 A2998=
KHYW 081355Z AUTO 01007KT 5SM HZ CLR 30/24 A2995 RMK AO2=
KMCJ 081355Z AUTO 07008KT 5SM CLR 24/23 A2994 RMK AO1 P0001=
KRBW 081355Z AUTO 31006KT 10SM CLR 30/21 A2998 RMK AO2=
KRCM 081355Z AUTO 35004KT 10SM OVC008 23/23 A3009 RMK AO2=
KSBD 081353Z 00000KT 1 1/2SM BR OVC010 14/12 A2993=
PAFS 081356Z AUTO 03005KT 10SM CLR 11/06 A2999 RMK AO2 TSNO
     T01110055 SLP162 $=
PAIW 081357Z AUTO 00000KT 10SM CLR 08/06 A3016 RMK AO2 SLP307
     T00780061=
PAMB 081356Z AUTO 34003KT 10SM BKN040 OVC080 11/08 A2991 RMK AO2
     PWINO TSNO T01050083 SLP133 $=
PPIZ 081356Z AUTO 20007KT 10SM CLR 06/02 A3007 RMK AO2 TSNO
     T00610022 SLP185 $=
KBQX 081355Z AUTO 12017G26KT 8SM SCT024 SCT034 SCT042 29/25 A2989
     RMK A01=
KDLP 081355Z AUTO 10014KT 9SM FEW022 SCT027 SCT034 29/24 A3002 RMK
     A01=
KEHC 081355Z AUTO 12021KT 6SM HZ FEW018 SCT026 29/25 A2997 RMK
     A01=
KEMK 081355Z AUTO 14021G30KT 3/4SM HZ SCT005 BKN026 OVC044 28/25
     A2991 RMK A01=
KGVX 081355Z AUTO 13025KT 9SM BKN080 M40/ A2993 RMK A01=
KHQI 081355Z AUTO 11021G29KT 1/2SM BR SCT003 BKN021 OVC036 28/26
     A2993 RMK A01 VIS 1/4V3=
KIPN 081355Z AUTO 07013KT 10SM FEW025 57/50 A3002 RMK A01=
KMDJ 081355Z AUTO 11013KT 10SM SCT024 SCT030 29/24 A3003 RMK
     A01=
KMEI 081358Z 01005KT 10SM CLR 29/23 A3007 RMK AO2 SLP176
     T02940228=
KMIU 081355Z AUTO 13025KT 1SM HZ FEW004 BKN019 OVC055 27/25 A2983
     RMK A01 VIS 1/4V5=
KMRJ 081355Z AUTO 32004KT 10SM BKN007 BKN013 24/21 A3007 RMK AO2
     T02360205=
KMZG 081355Z AUTO 00000KT 9SM FEW022 FEW028 SCT041 29/25 A2985 RMK
     A01=
####018000199####
SAXX60 KWBC 081400 CCA
METAR
KNJK 081356Z 10003KT 10SM CLR 24/18 A2973 RMK AO2 SLP082
     T02440178=
KLOR 081353Z AUTO 00000KT 10SM CLR 29/23 A3003 RMK AO2 SLP165
     T02890228 TSNO $=
####018002834####
SAUS80 KWBC 081400
METAR
KP53 081356Z AUTO 03004KT 19/18 A2999 RMK AO2 SLP155 T01940183
     PWINO TSNO=
KBIH 081356Z AUTO 31003KT 10SM CLR 17/03 A3003 RMK AO2 SLP116
     T01670028 TSNO=
K2WX 081356Z AUTO 27010KT 18/11 A3018 RMK AO1 SLP202 T01830111=
KP28 081356Z AUTO 36008KT 22/20 A3014 RMK AO2 SLP193 T02220200
     PWINO TSNO=
K8D3 081356Z AUTO 28008KT 23/14 A3010 RMK AO2 SLP177 T02280144
     PWINO TSNO=
KSPS 081352Z COR 00000KT 10SM SCT007 SCT220 26/22 A3005 RMK AO2
     SLP161 T02560222=
TJSJ 081356Z 08010KT 10SM FEW023 SCT036 31/24 A3002 RMK AO2 SLP163
     T03060244=
KSPD 081356Z AUTO 07008KT 16/15 A3030 RMK AO2 SLP208 P0002
     T01610150 PWINO TSNO=
KFSD 081356Z 00000KT 10SM CLR 21/16 A3018 RMK AO2 SLP213 SCT ABV
     120 T02110156=
KSAV 081353Z 29008KT 10SM CLR 30/19 A3000 RMK AO2 SLP156 T03000194
     $=
KSYR 081354Z 00000KT 8SM CLR 30/22 A3004 RMK AO2 SLP166
     T03000217=
KWAL 081354Z 09009KT 10SM SCT013 BKN080 OVC120 28/21 A3003 RMK AO2
     SLP164 T02780211=
KSHV 081356Z 14006KT 10SM BKN110 OVC280 27/24 A3006 RMK AO2 SLP175
     T02670239=
KTRI 081353Z 00000KT 5SM HZ CLR 27/19 A3012 RMK AO2 SLP178
     T02720194=
KTYS 081353Z 08004KT 6SM HZ CLR 29/20 A3008 RMK AO2 SLP173
     T02890200=
KABQ 081356Z 10013G20KT 10SM FEW050 SCT100 BKN200 20/09 A3030 RMK
     AO2 SLP181 MTN TOPS OBSC NE AND SE T02000094=
KLAX 081353Z 27006KT 7SM BCFG FEW009 OVC011 16/13 A2992 RMK AO2
     SLP130 T01610128=
KJAX 081356Z 29005KT 10SM CLR 28/20 A3002 RMK AO2 SLP165
     T02780200=
KCAE 081356Z VRB04KT 10SM CLR 32/21 A2999 RMK AO2 SLP152
     T03170206=
KCHS 081356Z 33007KT 8SM CLR 30/21 A2996 RMK AO2 SLP144
     T03000206=
KCLI 081355Z AUTO 33006KT 10SM CLR 24/19 A3002 RMK AO2=
KDVK 081357Z AUTO 21003KT 10SM 30/20 A3010 RMK AO1=
KESN 081353Z 16006KT 6SM HZ SCT200 28/24 A3005=
KGSO 081354Z 02007KT 5SM HZ CLR 31/19 A3004 RMK AO2 SLP157
     T03110189=
KJQF 081355Z 36005KT 10SM SCT100 31/18 A3002=
KRFD 081354Z 32006KT 10SM FEW006 SCT013 BKN150 26/21 A3005 RMK AO2
     SLP172 T02560206=
KAKQ 081354Z AUTO 00000KT 4SM HZ CLR 29/23 A3000 RMK AO2 SLP158
     T02890233 TSNO=
KROA 081354Z 01008KT 6SM HZ FEW085 31/17 A3009 RMK AO2 SLP173
     T03060167=
KD07 081356Z AUTO 29006KT 21/12 A3022 RMK AO2 SLP222 T02060117
     PWINO TSNO=
TJSJ 081356Z 08010KT 10SM FEW023 SCT036 31/24 A3002 RMK AO2 SLP163
     T03060244=
KSNC 081355Z AUTO 14005KT 10SM BKN011 OVC019 24/24 A3010 RMK
     AO2=
PHNY 081356Z AUTO 00000KT BKN043 BKN050 19/17 A3005 RMK AO2 TSNO
     T01880172 BKN V SCT SLP155 $=
KMYT 081355Z AUTO 11014KT 10SM FEW021 FEW026 28/24 A2999 RMK
     A01=
KSCF 081400Z AUTO 13019KT 9SM 28/25 A2994 RMK A01=
KTKV 081355Z AUTO 32003KT 10SM CLR 20/16 A3007 RMK AO2
     T02040161=
####018003686####
SAXX60 KWBC 081400 RRA
METAR
KCEF 081355Z 18005KT 7SM SCT014 BKN018 OVC080 26/23 A3007 RMK AO2A
     SLP183 P0000 T02560226 $=
KDYS 081355Z 05003KT 10SM OVC007 23/22 A3008 RMK AO2A CIG 005V008
     SLP167 T02250220 $=
KEND 081355Z 03007KT 10SM SCT010 BKN090 BKN200 24/22 A3009 RMK
     AO2A SLP179 T02390219=
KFCS 081355Z AUTO 07003KT 10SM CLR 16/11 A3035 RMK AO2 SLP210
     T01600110=
KGSB 081355Z 05008KT 10SM CLR 29/20 A2996 RMK AO2A WND DATA ESTMD
     SLP145 T02940202 $=
KHRT 081355Z VRB01KT 10SM CLR 29/25 A3003 RMK AO2A SLP171
     T02860250 $=
KLFI 081355Z 08007KT 10SM FEW013 BKN100 BKN250 27/17 A3001 RMK
     AO2A SLP164 T02730174 $=
KPSM 081355Z 14010KT 10SM FEW020 SCT200 27/21 A3008 RMK AO2A
     SLP188 T02660206=
KRCA 081355Z 29003KT 25SM CLR 18/12 A3026 RMK AO2A SLP232
     T01790118 $=
KSKF 081355Z 05010KT 7SM -SHRA FEW002 BKN014 OVC040 26/24 A2995
     RMK AO2A SLP132 P0004 T02590242 $=
KSLI 081355Z 23005KT 5SM BR OVC013 16/14 A2992 RMK AO2A SLP132
     T01640137=
KVBG 081355Z 32004KT 4SM OVC004 12/11 A2994 RMK AO2 CIG 002V006
     SLP132 T01170111 FIRST=
KNYG 081356Z 08004KT 6SM HZ FEW100 BKN150 29/23 A3001 RMK AO2
     SLP164 T02940233=
KPOE 081355Z AUTO 11006KT 10SM FEW010 28/24 A3004 RMK AO2 SLP172
     T02780239=
KPSM 081355Z 14010KT 10SM FEW020 SCT200 27/21 A3008 RMK AO2A
     SLP188 T02660206=
KRCA 081355Z 29003KT 25SM CLR 18/12 A3026 RMK AO2A SLP232
     T01790118 $=
KRDR 081355Z 32007KT 10SM CLR 20/15 A3008 RMK AO2A SLP196
     T02040145 $=
KRIV 081355Z 00000KT 1 1/2SM BR OVC003 13/13 A2993 RMK AO2A SLP133
     T01340127=
KSKA 081355Z AUTO 07007KT 10SM CLR 18/10 A3008 RMK AO2 SLP173
     T01750096=
KSKF 081355Z 05010KT 7SM -SHRA FEW002 BKN014 OVC040 26/24 A2995
     RMK AO2A SLP132 P0004 T02590242 $=
KSLI 081355Z 23005KT 5SM BR OVC013 16/14 A2992 RMK AO2A SLP132
     T01640137=
KTBN 081355Z 25004KT 10SM SCT005 OVC039 25/21 A3010 RMK AO2A
     SLP175 T0247 $=
KVBG 081355Z 32004KT 4SM OVC004 12/11 A2994 RMK AO2 CIG 002V006
     SLP132 T01170111 FIRST=
KVOK 081355Z 33006KT 10SM BKN010 22/22 A3006 RMK AO2A SLP174=
KVPS 081355Z 33003KT 10SM FEW250 29/24 A3004 RMK SLP173 T02880238
     $=
KNYL 081355Z 11005KT 10SM FEW120 29/M01 A2975 RMK AO2 SLP070
     T02891011=
KEDW 081355Z VRB02KT 90SM FEW100 17/03 A2990 RMK AO2A SLP080
     T01690028=
KFAF 081355Z 07005KT 10SM FEW180 29/22 A3000 RMK AO2A SLP160
     T02850221=
KFFO 081355Z 00000KT 7SM CLR 29/21 A3008 RMK AO2A SLP178=
KHOP 081355Z AUTO 27004KT 10SM CLR 31/22 A3009 RMK AO2 SLP184
     T03050223=
KHUA 081355Z 03010KT 12SM SKC 30/21 A3012=
KNBG 081355Z 10006KT 10SM SCT015 BKN250 28/24 A3004 RMK AO2 SLP173
     T02830244 $=
KNCA 081356Z 05006KT 6SM HZ CLR 30/24 A2995 RMK AO2 SLP142
     T03000244=
KNJK 081356Z 10003KT 10SM CLR 24/18 A2973 RMK AO2 SLP082
     T02440178=
KNJK 081356Z 10003KT 10SM CLR 24/18 A2973 RMK AO2 SLP082
     T02440178=
KNXX 081356Z 12007KT 5SM HZ FEW055 SCT200 27/21 A3006 RMK AO2
     SLP182 T02670211 $=
KNYG 081356Z 08004KT 6SM HZ FEW100 BKN150 29/23 A3001 RMK AO2
     SLP164 T02940233=
KPOE 081355Z AUTO 11006KT 10SM FEW010 28/24 A3004 RMK AO2 SLP172
     T02780239=
KRDR 081355Z 32007KT 10SM CLR 20/15 A3008 RMK AO2A SLP196
     T02040145 $=
KVPS 081355Z 33003KT 10SM FEW250 29/24 A3004 RMK SLP173 T02880238
     $=
PMDY 081356Z AUTO 00000KT 10SM CLR 24/20 A3007 RMK AO2 TSNO
     T02380200 SLP488=
KCEF 081355Z 18005KT 7SM SCT014 BKN018 OVC080 26/23 A3007 RMK AO2A
     SLP183 P0000 T02560226 $=
KHRT 081355Z VRB01KT 10SM CLR 29/25 A3003 RMK AO2A SLP171
     T02860250 $=
####018000376####
SPUS70 KWBC 081400
SPECI
KGRB 081357Z 31006KT 7SM BKN006 OVC017 23/21 A3001 RMK AO2=
KDGW 081358Z AUTO 00000KT 3SM BR OVC001 08/08 A3036 RMK AO2 $=
KNEW 081358Z 08010KT 10SM BKN014 BKN021 29/25 A3005 RMK AO2=
KTTN 081358Z 16007KT 3SM HZ SCT013 BKN020 28/23 A3004 RMK AO2=
KJCT 081358Z AUTO 04003KT 10SM BKN010 OVC022 25/22 A3004 RMK AO2
     CIG 007V012 TSNO=
####018000833####
SAXX60 KWBC 081400 RRB
METAR
KLUF 081355Z 05003KT 10SM SCT170 29/07 A2981 RMK AO2A SLP062
     T02900070 $=
KMMT 081355Z 29006KT 10SM CLR 31/21 A2999 RMK AO2A RAB1256E1305
     SLP154 P0000 T03100213=
KMXF 081355Z AUTO 00000KT 10SM CLR 30/24 A3003 RMK AO2 SLP168
     T03000242=
KNUW 081356Z 00000KT 10SM CLR 17/12 A2998 RMK AO2 SLP157
     T01720117=
KNFL 081356Z 00000KT 10SM FEW130 SCT160 19/00 A3003 RMK AO2 SLP138
     T01890000=
KGBK 081355Z AUTO 09014G23KT 10SM FEW021 29/25 A2995 RMK A01=
KMHR 081355Z AUTO 17004KT 10SM CLR 13/10 A2987 RMK AO1=
KPSM 081355Z 14010KT 10SM FEW020 SCT200 27/21 A3008 RMK AO2A
     SLP188 T02660206=
PASV 081355Z AUTO 01003KT 10SM CLR 10/07 A2994 RMK AO1
     T01000067=
KNLC 081356Z AUTO 32008KT 10SM CLR 18/11 A2985 RMK AO2 SLP107
     T01780106 TSNO $=
####018003734####
SAXX60 KWBC 081400
METAR
KAQV 081356Z AUTO VRB05KT 10SM FEW008 27/24 A3004 RMK AO2 SLP169
     T02720239=
KNMM 081356Z 35004KT 10SM FEW250 30/22 A3007 RMK AO2 SLP189
     T03000217=
KNBC 081356Z 30006KT 6SM HZ CLR 29/21 A2998 RMK AO2 SLP152
     T02940206 PNO $=
KPRN 081356Z AUTO 03003KT 10SM CLR 31/24 A3004 RMK AO2 SLP167
     T03060239 $=
PHBK 081356Z AUTO 15005KT 10SM BKN075 24/17 A3000 RMK AO2 SLP161
     T02440172 TSNO $=
KNRS 081356Z 32006KT 10SM FEW008 OVC014 17/14 A2992 RMK AO2 SLP131
     T01670144 $=
KNXF 081356Z AUTO 31004KT 5SM HZ OVC017 17/13 A2991 RMK AO2 SLP215
     T01670128 TSNO=
K9L2 081356Z AUTO 00000KT 10SM CLR 18/03 A2991 RMK AO2 SLP107
     T01780028 $=
KNTU 081356Z 07008KT 10SM FEW020 SCT100 SCT200 28/22 A2999 RMK AO2
     SLP157 T02830217 $=
KBAN 081356Z AUTO 00000KT CLR 06/02 A3022 RMK AO2 SLP159 T00610017
     TSNO $=
KNGP 081356Z 10007KT 7SM -RA FEW009 SCT016CB BKN025 27/26 A2984
     RMK AO2 RAB12 SLP105 CB DSNT SW TCU NE-OHD-W TCU DSNT N WR//
     P0007 T02730261 $=
KHLR 081356Z AUTO 04007KT 9SM FEW009 BKN018 OVC043 26/ A3002 RMK
     AO2 RAE04 SLP159 P0000 T0261 $=
KNQI 081356Z 02006KT 10SM FEW010CB BKN100 BKN280 28/25 A2985 RMK
     AO2 SLP104 CB DSNT NE AND E-SE AND NW T02830250 $=
KBIX 081355Z AUTO 03004KT 10SM CLR 28/25 A3005 RMK AO2 SLP177
     T02850245=
KHUA 081355Z 03010KT 12SM SKC 30/21 A3012=
KMCF 081355Z AUTO 06004KT 10SM CLR 27/24 A3001 RMK AO2 SLP165
     T02720237=
PGUA 081355Z AUTO 10009KT 10SM CLR 25/ A2991 RMK AO2 RAB1325E1335
     SLP110 P0001 T0253 402960252 VISNO RWY24L $=
KCEF 081355Z 18005KT 7SM SCT014 BKN018 OVC080 26/23 A3007 RMK AO2A
     SLP183 P0000 T02560226 $=
KDLF 081355Z AUTO 04004KT 10SM FEW012 26/23 A2999 RMK AO2 SLP140
     T02570225 $=
KDYS 081355Z 05003KT 10SM OVC007 23/22 A3008 RMK AO2A CIG 005V008
     SLP167 T02250220 $=
KEND 081355Z 03007KT 10SM SCT010 BKN090 BKN200 24/22 A3009 RMK
     AO2A SLP179 T02390219=
KFCS 081355Z AUTO 07003KT 10SM CLR 16/11 A3035 RMK AO2 SLP210
     T01600110=
KGSB 081355Z 05008KT 10SM CLR 29/20 A2996 RMK AO2A WND DATA ESTMD
     SLP145 T02940202 $=
KHRT 081355Z VRB01KT 10SM CLR 29/25 A3003 RMK AO2A SLP171
     T02860250 $=
KLSF 081355Z 00000KT 10SM SKC 29/22 A3003 RMK AO2A DZE1317 SLP169
     P0000 T02880219 $=
KLSV 081355Z AUTO 00000KT 10SM FEW150 24/M02 A2987 RMK AO2 SLP095
     T02421024 PWINO=
KLUF 081355Z 05003KT 10SM SCT170 29/07 A2981 RMK AO2A SLP062
     T02900070 $=
KMIB 081355Z AUTO 29004KT 10SM CLR 18/13 A3012 RMK AO2 SLP198
     T01800132 $=
KMMT 081355Z 29006KT 10SM CLR 31/21 A2999 RMK AO2A RAB1256E1305
     SLP154 P0000 T03100213=
KMXF 081355Z AUTO 00000KT 10SM CLR 30/24 A3003 RMK AO2 SLP168
     T03000242=
KBIX 081355Z AUTO 03004KT 10SM CLR 28/25 A3005 RMK AO2 SLP177
     T02850245=
KGSB 081355Z 05008KT 10SM CLR 29/20 A2996 RMK AO2A WND DATA ESTMD
     SLP145 T02940202 $=
KHST 081355Z AUTO 09008KT 10SM CLR 30/25 A2997 RMK AO2 SLP150
     T03030247=
KMCF 081355Z AUTO 06004KT 10SM CLR 27/24 A3001 RMK AO2 SLP165
     T02720237=
KNIP 081353Z 29003KT 10SM CLR 27/20 A3003 RMK AO2 SLP163
     T02720200=
KNKT 081354Z 07010KT 10SM FEW018 29/23 A2994 RMK AO2 SLP137
     T02890233=
KNQX 081353Z 03005KT 10SM SCT022 BKN100 BKN200 30/25 A2996 RMK AO2
     SLP145 T2 SET T03000250 $=
KNRB 081352Z VRB03KT 10SM CLR 28/19 A3002 RMK AO2 SLP165
     T02780194=
KSSC 081355Z AUTO 31007KT 10SM CLR 30/21 A2997 RMK AO2 SLP146
     T03020213 $=
KVAD 081355Z AUTO 33007KT 9SM CLR 29/20 A3003 RMK AO2 SLP167
     T02910204 $=
KWRI 081355Z AUTO 15008KT 10SM FEW015 SCT190 SCT210 27/23 A3003
     RMK AO2 SLP169 T02660226 $=
####018000108####
SAUS80 KWBC 081500
METAR
K3A6 081450Z AUTO 36002KT 12/11 A2989 RMK AO1 SLP142 T01150108
     54000=
####018001172####
SAUS70 KWBC 081400 RRB
METAR
KOEO 081355Z AUTO 27004KT 10SM CLR 21/17 A3012 RMK AO2=
KPBH 081355Z AUTO 00000KT 10SM SCT050 22/18 A3008 RMK AO2 LTG DSNT
     N=
KPCZ 081355Z AUTO 27005KT 10SM CLR 25/21 A3002 RMK AO2
     T02450207=
KPDC 081353Z AUTO 30005KT 10SM OVC010 23/20 A3006 RMK AO2
     T02310203=
KRCX 081355Z AUTO 34005KT 10SM CLR 21/17 A3010 RMK AO2
     T02100165=
KRNH 081356Z AUTO 29005KT 10SM CLR 21/17 A3011 RMK AO2
     T02100171=
KRPD 081354Z AUTO 29006KT 10SM CLR 21/17 A3011 RMK AO2
     T02130170=
KRRL 081355Z AUTO 35003KT 10SM SCT014 21/18 A3007 RMK AO2 LTG DSNT
     N T02120179=
KRYV 081355Z AUTO 27004KT 10SM BKN009 24/21 A3003 RMK AO2=
KSTE 081355Z AUTO 32003KT 10SM BKN013 22/19 A3005 RMK AO2=
KSUW 081355Z AUTO 24007KT 10SM CLR 22/16 A3003 RMK AO2=
KUNU 081352Z AUTO 27006KT 10SM SCT010 23/20 A3004 RMK AO2
     T02340195=
KVBS 081355Z AUTO 11022KT 10SM FEW019 29/25 A2997 RMK A01=
KVNP 081355Z AUTO 09015G20KT 7SM FEW012 BKN019 BKN025 28/26 A3001
     RMK A01=
KXFL 081350Z 00000KT 10SM CLR 28/22 A3002=
KY50 081356Z AUTO 36006KT 10SM BKN013 23/21 A3004 RMK AO2
     T02330211 SLP166 $=
####018000089####
SADL31 KWBC 081350 RRA
METAR
EDHL 081350Z 22007KT 170V280 CAVOK 30/13 Q1019 RMK U=
####018000230####
SADL32 KWBC 081350 RRA
METAR
EDLN 081350Z 24004KT 180V300 CAVOK 32/11 Q1018 RMK ATIS S=
EDLP 081350Z VRB03KT CAVOK 32/11 Q1019 RMK RWY24 TRL60 RG ATIS
     X=
EDLW 081350Z 28006KT 230V320 CAVOK 31/10 Q1019 RMK ATIS V=
####018000150####
SADL33 KWBC 081345 RRC
METAR
EDNY 081350Z 26006KT CAVOK 29/11 Q1021 RMK ATIS U=
EDXW 081350Z 23008KT 9999 FEW040 20/16 Q1019 RMK ATIS INFO A=
####018000996####
SAGR31 KWBC 081350 RRA
METAR
LGAD 081350Z 31009KT 9999 FEW020 27/14 Q1014=
LGAL 081350Z 03005KT 9999 FEW020TCU SCT025 BKN080 20/16 Q1015=
LGAV 081350Z 06015KT 9999 FEW025 BKN035 26/12 Q1013 NOSIG=
LGEL 081350Z 36011G21KT 9999 FEW025 SCT080 28/12 Q1012 NOSIG=
LGIR 081350Z 01006KT 9999 SCT020 28/24 Q1011 NOSIG=
LGKF 081350Z 33020KT CAVOK 26/15 Q1013=
LGKL 081350Z 28014KT 9999 FEW030 32/09 Q1011=
LGKO 081350Z 30019KT CAVOK 27/18 Q1009=
LGKR 081350Z 31023KT CAVOK 27/12 Q1012 NOSIG=
LGKV 081350Z 35005KT 9999 SCT030TCU BKN100 18/17 Q1014=
LGLM 081350Z 04013KT 9999 FEW008 SCT020 22/15 Q1014=
LGMT 081350Z 34018G30KT 310V010 9999 SCT030 27/18 Q1011=
LGRP 081350Z 25012KT 9999 FEW020 29/19 Q1007 NOSIG=
LGSA 081350Z 04012KT 9999 FEW020 31/18 Q1012=
LGSM 081350Z 35010KT 9999 FEW030 31/16 Q1009=
LGSR 081350Z 02013KT 9999 FEW025 26/18 Q1010 NOSIG=
LGSR 081350Z 02013KT 9999 FEW025 26/18 Q1010 NOSIG BLU=
LGTS 081350Z 33017G27KT 9999 FEW030 25/11 Q1016 NOSIG=
####018000407####
SAGR41 KWBC 081350 RRA
METAR
LGKP 081350Z NIL=
LGKZ 081350Z NIL=
LGMK 081350Z 36020KT 9999 FEW015 24/17 Q1012=
LGPZ 081350Z 26014KT 9999 FEW025 29/18 Q1013 NOSIG=
LGPZ 081350Z 26014KT 9999 FEW025 29/18 Q1013 NOSIG BLU=
LGRX 081350Z 26009KT 9999 FEW020 27/16 Q1012 NOSIG=
LGRX 081350Z 26009KT 9999 FEW020 27/16 Q1012 NOSIG BLU=
LGSK 081350Z NIL=
LGZA 081350Z 32017KT CAVOK 28/11 Q1013=
####018000379####
SANL31 KWBC 081350 RRB
METAR
EHDL 081355Z AUTO 19005KT 9999NDV SCT070 30/12 Q1018 BLU=
EHKD 081355Z AUTO 25009KT 9999NDV SCT074/// BKN230/// 22/16 Q1019
     BLU BLU=
EHLW 081355Z AUTO 24010KT 9999NDV SCT120 25/18 Q1018 BLU BLU=
EHVL 081355Z AUTO 25010KT 9999NDV BKN079 OVC084 20/15 Q1019
     BLU=
EHWO 081355Z AUTO 25006KT 9999NDV FEW130 29/14 Q1018 BLU BLU=
####018000148####
SPJP42 KWBC 081400
SPECI
RJFN 081344Z 35004KT 4000 -SHRA BR FEW020 SCT035 BKN060 24/23
Q1009 RMK 2CU020 3CU035 7SC060 A2982 VIS SW-W 3500M=
####018000130####
SPJP43 KWBC 081400
SPECI
RJNH 081350Z 02004KT 350V050 9999 FEW006 SCT020 24/23 Q1010 RMK
1CU006 4CU020 A2983 1CU006 SE-S=
####018000200####
SAUK41 KWBC 081350 RRB
METAR
EGAE 081350Z 23010KT 9999 FEW020 BKN040 18/10 Q1012=
EGBJ 081350Z 23008KT 200V280 9999 FEW045 23/07 Q1018=
EGNC 081350Z 23016KT 190V270 9999 SCT035 19/09 Q1015=
####018000095####
SAUK32 KWBC 081350 RRB
METAR
EGSH 081350Z 23008KT 190V280 9999 SCT033 25/13 Q1018 NOSIG=
####018000129####
SAUK31 KWBC 081350 RRA
METAR
EGNH 081350Z 24012KT 9999 FEW031 19/11 Q1017=
EGNJ 081350Z 22010KT 9999 SCT040 23/09 Q1017=
####018000368####
SAUK42 KWBC 081350 RRB
METAR
EGPE 081350Z 22019G29KT 180V240 9999 FEW018 SCT045 18/09 Q1010=
EGPL 081350Z 22021KT 9999 FEW018 16/12 Q1009=
EGPM 081350Z 22020KT 9999 FEW026 16/10 Q1007 NOSIG=
EGPN 081350Z 24020KT 9999 SCT045 18/11 Q1012=
EGPO 081350Z 22024G35KT 9999 VCSH FEW024 SCT034 18/10 Q1007=
EGSC 081350Z 21006KT 090V270 9999 FEW038 23/12 Q1018=
####018000057####
SAXX99 KWBC 081300 RRX
METAR
K8S0 081255Z 36002KT=
####018000083####
SPUS43 KWBC 081400
SPECI
KGRB 081357Z 31006KT 7SM BKN006 OVC017 23/21 A3001=
####018000079####
SAMP31 LMMM 081400 RRB
METAR HLLB 081350Z 35018KT 9999 FEW025 30/18 Q1016=
####018000640####
SAGR31 LGAT 081350
METAR LGAD 081350Z 31009KT 9999 FEW020 27/14 Q1014=
METAR LGAV 081350Z 06015KT 9999 FEW025 BKN035 26/12 Q1013 NOSIG=
METAR LGIR 081350Z 01006KT 9999 SCT020 28/24 Q1011 NOSIG=
METAR LGKL 081350Z 28014KT 9999 FEW030 32/09 Q1011=
METAR LGKO 081350Z 30019KT CAVOK 27/18 Q1009=
METAR LGKR 081350Z 31023KT CAVOK 27/12 Q1012 NOSIG=
METAR LGLM 081350Z 04013KT 9999 FEW008 SCT020 22/15 Q1014=
METAR LGRP 081350Z 25012KT 9999 FEW020 29/19 Q1007 NOSIG=
METAR LGSA 081350Z 04012KT 9999 FEW020 31/18 Q1012=
METAR LGSM 081350Z 35010KT 9999 FEW030 31/16 Q1009=
METAR LGTS 081350Z 33017G27KT 9999 FEW030 25/11 Q1016 NOSIG=
####018000112####
SAUS42 KFFC 081400 COR
MTRMCN
METAR KMCN 081353Z 30005KT 10SM CLR 30/19 A3004 RMK AO2 SLP166 
T03000194
####018000112####
SAUS46 KSGX 081400 COR
MTRNJK
METAR KNJK 081356Z 10003KT 10SM CLR 24/18 A2973 RMK AO2 SLP082 
T02440178
####018000092####
SPAU31 AMMC 081400
SPECI YPPD 081400Z AUTO 03003KT 5000NDV // OVC029 22/21 Q1010=


####018000589####
SAUK36 EGGY 081350
METAR EGBE 081350Z NIL=
METAR EGBJ 081350Z 23008KT 200V280 9999 FEW045 23/07 Q1018=
METAR EGCN 081350Z 23014KT 9999 FEW048 23/07 Q1017=
METAR EGDL 081350Z 24007KT 9999 FEW040 SCT150 BKN200 22/09 Q1018
    NOSIG=
METAR EGSC 081350Z 21006KT 090V270 9999 FEW038 23/12 Q1018=
METAR COR EGSD 081350Z 14008KT 100V230 9999 SCT017 22/18 Q1019 NOSIG=
METAR COR EGSH 081350Z 23008KT 190V280 9999 SCT033 25/13 Q1018
    NOSIG=
METAR EGVN 081350Z 24005KT 9999 FEW045 BKN220 23/08 Q1018 NOSIG=
METAR EGWU 081350Z 24008KT 9999 FEW037 BKN250 24/14 Q1018 NOSIG=
####018000086####
SPAU31 AMMC 081400
SPECI YPPD 081400Z AUTO 03003KT 5000NDV // OVC029 22/21 Q1010=
####018000387####
SAUK38 EGGY 081350
METAR EGEC 081350Z 25010KT 9999 FEW032 18/09 Q1013=
METAR EGPA 081350Z 22013KT 9999 -RA FEW020CB SCT040 17/10 Q1008=
METAR EGPC 081350Z NIL=
METAR EGPL 081350Z 22021KT 9999 FEW018 16/12 Q1009=
METAR COR EGPM 081350Z 22020KT 9999 FEW026 16/10 Q1007 NOSIG=
METAR EGPO 081350Z 22024G35KT 9999 VCSH FEW024 SCT034 18/10
    Q1007=
METAR EGPU 081350Z NIL=
####018000500####
SAUK37 EGGY 081350
METAR EGAE 081350Z 23010KT 9999 FEW020 BKN040 18/10 Q1012=
METAR EGNC 081350Z 23016KT 190V270 9999 SCT035 19/09 Q1015=
METAR EGNH 081350Z 24012KT 9999 FEW031 19/11 Q1017=
METAR EGNJ 081350Z 22010KT 9999 SCT040 23/09 Q1017=
METAR EGNR 081350Z 26010KT 220V300 9999 SCT040 21/09 Q1017=
METAR EGPE 081350Z 22019G29KT 180V240 9999 FEW018 SCT045 18/09
    Q1010=
METAR EGPI 081350Z 23011KT 9999 FEW022 16/11 Q1013=
METAR EGPN 081350Z 24020KT 9999 SCT045 18/11 Q1012=
####018000089####
SAPK31 OPKC 081359
METAR OPKC 081355Z 24010KTS 8000 SCT030 SCT100 33/24 Q1002 NOSIG=
####018000672####
SANL33 EHDB 081355
METAR EHAK 081355Z AUTO 24008KT 9999NDV 16/13 Q1017=
METAR EHDV 081355Z NIL=
METAR EHFD 081355Z AUTO 23012KT 9999NDV SCT039/// BKN043/// 17/15
Q1019=
METAR EHFZ 081355Z AUTO 23011KT 9999NDV 17/15 Q1018=
METAR EHJA 081355Z AUTO 22008KT 9999NDV FEW013/// 16/13 Q1018=
METAR EHJR 081355Z NIL=
METAR EHKV 081355Z AUTO 25009KT 9999NDV FEW030/// 16/15 Q1019=
METAR EHMA 081355Z AUTO 25009KT 9999NDV 22/17 Q1019=
METAR EHMG 081355Z AUTO 24010KT 9999NDV 17/15 Q1018=
METAR EHPG 081355Z AUTO 22010KT 9999NDV ///////// 16/15 Q1019=
METAR EHQE 081355Z AUTO 21011KT 9999NDV 16/15 Q1019=
METAR EHSA 081355Z NIL=
METAR EHSC 081355Z NIL=
####018000278####
SAPK31 OPKC 081400
METAR OPGD 081400Z NIL=
METAR OPKC 081400Z NIL=
METAR OPLA 081355Z 15010KT 6000 SCT040 36/23 Q1003 NOSIG=
METAR OPNH 081400Z NIL=
METAR OPPS 081355Z NE-12KTS 6000 HZ FEW040 FEW100 37/25 Q1001.8=
METAR OPRN 081400Z NIL=
METAR OPSK 081400Z NIL=
####018000119####
SAUS45 KBOU 081400 COR
MTRABH
METAR KABH 081356Z AUTO 00000KT 10SM CLR 14/11 A3036 RMK AO2 SLP237 
T01390106 $
####018000117####
SAUS41 KLWX 081400
MTRRYT
METAR KRYT 081353Z AUTO 00000KT 5SM HZ CLR 30/20 A3004 RMK AO2 
SLP154 T03000200 $
####018000083####
SPUS73 KWBC 081400
SPECI
KGRB 081357Z 31006KT 7SM BKN006 OVC017 23/21 A3001=
####018000121####
SAUS46 KPQR 081400 COR
MTRSXT
METAR KSXT 081356Z AUTO 12007KT 8SM CLR 19/11 A3004 RMK AO2 SLP107 
T01940106 TSNO
####018000093####
SANI20 DNMM 081400
METAR DNMM 081400Z 26013KT 9999 BKN012 FEW020CB 29/26 Q1014 NOSIG=

####018000126####
SAUS46 KLOX 081400 COR
MTRLAX
METAR KLAX 081353Z 27006KT 7SM BCFG FEW009 OVC011 16/13 A2992 RMK 
AO2 SLP130 T01610128
####018000120####
SABE31 TXKF 081354
METAR TXKF 081355Z 12015KT 9999 SCT020CB SCT033 BKN130
BKN300 27/24 Q1019 RMK CB DSNT SE-SW
####018000099####
SPUS17 KAWN 081400 RRI
SPECI KIAB 081359Z AUTO 02008KT 10SM OVC009 23/21 A3013 RMK AO2 SLP191=
####018000111####
SPNA14 KAWN 081400 RRI
SPECI SEGU 081340Z 20005KT 8000S 9999N -DZ BKN040 OVC100 23/19 Q1012
      NOSIG=
####018000099####
SPZZ40 KAWN 081400 RRL
SPECI KIAB 081359Z AUTO 02008KT 10SM OVC009 23/21 A3013 RMK AO2 SLP191=
####018000129####
SPXX70 KAWN 081300 RRD
SPECI KQAY 081354Z AUTO 36016G23KT 7000 FEW024 47/M02 A2950 RMK AO2
      PK WND 35027/1312 SLP983=
####018000616####
SAXX70 KAWN 081400 RRE
METAR KQFT 081350Z AUTO 19003KT 1SM BR OVC020 22/20 A2986 RMK A02=
METAR KQAE 081355Z 36008G16KT 330V030 9000 HZ DU CLR 44/06 A2961 RMK
      SLP025=
METAR KQPV 081355Z AUTO 26006G13KT 9999 CLR 45/05 A2964 RMK AO2 SLP030
      T04470047=
METAR KQSR 081355Z 14024G31KT 9999 SCT080 SCT140 27/12 A3010 RMK AO2A
      PK WND 15033/41 TCU DSNT NW SLP070 WND DATA/ALSTG ESTMD=
METAR KQWM 081355Z 33022G33KT 9000 BLDU CLR 46/M03 A2953 RMK PK WND
      33040/14 SLP988 QNH1000=
METAR KQXF 081355Z AUTO 31008G14KT 290V350 9999 CLR 45/M01 A2959 RMK
      AO2 SLP008 T04471011 $=
####018001255####
SAUS20 KNKA 081400
METAR KAWG 081355Z AUTO 36007KT 10SM CLR 25/20 A3007 RMK AO2=
METAR KAXA 081355Z AUTO 35006KT 10SM CLR 21/17 A3015 RMK AO2=
METAR KBNW 081355Z AUTO 33013G20KT 10SM CLR 22/18 A3014 RMK AO2=
METAR KBWD 081355Z AUTO 10006KT 9SM OVC020 24/23 A3005 RMK AO2 =
METAR KCAV 081355Z AUTO 35008KT 10SM CLR 22/17 A3014 RMK AO2=
METAR KCBF 081355Z AUTO 01009KT 10SM CLR 22/16 A3016 RMK AO2=
METAR KCCY 081355Z AUTO 34006KT 10SM CLR 22/17 A3012 RMK AO2=
METAR KCIN 081355Z AUTO 01005KT 10SM CLR 21/16 A3017 RMK AO2=
METAR KCNC 081355Z AUTO 01007KT 10SM CLR 22/19 A3011 RMK AO2=
SPECI KHRL 081359Z 34008KT 10SM FEW008 SCT021 BKN036 26/26 A2979 RMK 
    AO2=
SPECI KHUT 081359Z 01009KT 3SM BR BKN007 OVC012 22/21 A3016 RMK AO2 
    CIG 005V010=
METAR KJZI 081355Z AUTO 31009KT 10SM CLR 31/24 A2996 RMK A02 P000 
     =
SPECI KRKP 081359Z AUTO 00000KT 3SM VCTS -RA SCT012 SCT022 OVC027 
    A2987 RMK AO2 LTG DSNT SW P0000 FZRANO $=
METAR KSFB 081353Z 08004KT 10SM SCT027 27/21 A3002=
SPECI KSGF 081359Z 00000KT 10SM FEW009 BKN019 OVC049 24/22 A3009 RMK 
    AO2=
METAR KSPF 081355Z AUTO 00000KT 10SM CLR 17/12 A3030 RMK AO2 =
SPECI KUGN 081359Z VRB04KT 10SM FEW009 BKN014 BKN022 24/21 A3002 RMK 
    AO2=
####018000761####
SAAK41 KNKA 081400
METAR PADM 081401Z AUTO 07006KT 10SM BKN070 BKN080 08/07 A3004 RMK 
    AO2 TSNO T00770072 BKN V SCT SLP159 $=
METAR PADU 081358Z 09020G25KT 10SM -RA OVC021 08/04 A2975 RMK AO2 PK 
    WND 10027/1259 RAB34 SLP080 P0000 T00830044=
METAR PAGA 081358Z AUTO 00000KT 10SM CLR 10/08 A3007 RMK AO2 SLP226 
    T01000083=
METAR PAJZ 081356Z AUTO 00000KT 10SM CLR 08/07 A2999 RMK AO2 PWINO 
    TSNO T00770072 SLP145 $=
METAR PAKI 081356Z AUTO 36004KT M1/4SM FG CLR 06/06 A3001 RMK AO2 
    PWINO TSNO T00610061 SLP163 $=
METAR PALG 081356Z AUTO 00000KT 1SM BR BKN003 06/05 A2999 RMK AO2 
    TSNO T00550050 BKN V SCT SLP159=
METAR PARY 081356Z AUTO 36005KT 10SM CLR 15/07 A3005 RMK AO2 PWINO 
    TSNO T01500066 SLP178=
####018000073####
SANO35 ENMI 081350 RRA
METAR ENRS 081350Z 17007KT CAVOK 15/10 Q1010=
####018000060####
SAUS45 KTFX 081400
MTR8S0
METAR K8S0 081255Z 36002KT 
####018001678####
SAZZ40 KAWN 081400 RRI
METAR KCOF 081355Z 02008KT 10SM CLR 28/21 A3001 RMK AOA2 SLP164 T0285=
METAR KCVS 081355Z 04011KT 10SM FEW070 BKN100 18/14 A3024 RMK AO2A
      SLP213 T01760140 $=
METAR KDMA 081355Z AUTO 08008KT 10SM CLR 30/12 A2993 RMK AO2 SLP059
      T02980117 $=
METAR KLSF 081355Z COR 00000KT 10SM SKC 29/22 A3003 RMK AO2A SLP169
      T02880219 COR 1358$=
METAR KPAM 081355Z 36005KT 10SM CLR 29/24 A3002 RMK AO2A SLP169 T02900243=
METAR KRND 081355Z 06006KT 5SM -RA BR OVC007 25/24 A2996 RMK AO2A RAB1327DZB1338E1340
      SLP136 P0002 T02480241=
METAR MDPC 081400Z 09010KT 9999 FEW018 28/25 Q1013 NOSIG=
METAR MDPP 081400Z 09005KT 8000 FEW018 30/26 Q1017 DU/ALL QDS=
METAR MDSD 081400Z 06005KT 9999 SCT020 30/24 Q1015=
METAR MDST 081400Z 11008KT 5000 SCT020 28/26 Q1016 BR/ALL QDS=
METAR MHAM 081400Z 00000KT 9999 SCT015 OVC070 25/25 REDZ=
METAR MHCA 081400Z 20002KT 9999 SCT028TCU OVC070 22/22 TCU TD=
METAR MHCH 081400Z 00000KT 9999 SCT006 BKN070 25/23 FEW028 BR HZ=
METAR MHLE 081400Z 00000KT 9999 FEW022 SCT070 BKN200 17/17 Q1022=
METAR MHNO 081400Z 00000KT 9999 FEW035 BKN090 21/// HZ=
METAR MHSR 081400Z 00000KT 9999 SCT025 BKN250 21/20 HZ=
METAR MHTE 081400Z 00000KT 9999 BKN024TCU BKN080 25/22 Q1010 TCU TD
      HZ=
METAR MHYR 081400Z 36002KT 9999 SCT020 BKN080 23/22 BR=
METAR OAKN 081350Z 26008KT 9999 FEW170 40/05 Q1006 BLU NOSIG RMK A2972
      DA7100=
METAR OLBA 081400Z 24008KT 220V280 8000 FEW070 SCT200 28/19 Q1011 NOSIG=
METAR ORER 081400Z 24007KT CAVOK 43/M02 Q1004=
METAR TJPS 081350Z 10010KT 8SM FEW030 33/24 A2999 HZ ALQDS=
METAR TKPN 081400Z 11012KT 9999 -SHRA BKN018 30/24 Q1015=
####018000133####
SAUS43 KAPX 081400 COR
MTRAPN
METAR KAPN 081354Z 26003KT 9SM BKN047 OVC075 23/21 A3000 RMK AO2 
RAE47 SLP156 P0000 T02280211
####018000089####
SASG20 GOOY 081400
METAR GOOY 081400Z 15009KT 120V210 9999 SCT013 31/25 Q1012 NOSIG=
####018000122####
SAUS46 KMTR 081400 COR
MTRMHS
METAR KMHS 081356Z AUTO 00000KT 10SM CLR 12/08 A3003 RMK AO2 SLP154 
T01220078 TSNO
####018000099####
SPAU31 AMMC 081400
SPECI YBTL 081400Z AUTO 13008KT 9999NDV // SCT010 OVC018 21/19 Q1017=


####018001619####
SAZZ40 KAWN 081400 RRJ
METAR KHLR 081356Z AUTO 04007KT 9SM FEW009 BKN018 OVC043 26/ A3002
      RMK AO2 RAE04 SLP159 P0000 T0261 $=
METAR KNBC 081356Z 30006KT 6SM HZ CLR 29/21 A2998 RMK AO2 SLP152 T02940206
      PNO $=
METAR KNFL 081356Z 00000KT 10SM FEW130 SCT160 19/00 A3003 RMK AO2 SLP138
      T01890000=
METAR KNGP 081356Z 10007KT 7SM -RA FEW009 SCT016CB BKN025 27/26 A2984
      RMK AO2 RAB12 SLP105 CB DSNT SW TCU NE-OHD-W TCU DSNT N WR//
      P0007 T02730261 $=
METAR KNLC 081356Z AUTO 32008KT 10SM CLR 18/11 A2985 RMK AO2 SLP107
      T01780106 TSNO $=
METAR KNMM 081356Z 35004KT 10SM FEW250 30/22 A3007 RMK AO2 SLP189 T03000217=
METAR KNQI 081356Z 02006KT 10SM FEW010CB BKN100 BKN280 28/25 A2985
      RMK AO2 SLP104 CB DSNT NE AND E-SE AND NW T02830250 $=
METAR KNRS 081356Z 32006KT 10SM FEW008 OVC014 17/14 A2992 RMK AO2 SLP131
      T01670144 $=
METAR KNTU 081356Z 07008KT 10SM FEW020 SCT100 SCT200 28/22 A2999 RMK
      AO2 SLP157 T02830217 $=
METAR KNUW 081356Z 00000KT 10SM CLR 17/12 A2998 RMK AO2 SLP157 T01720117=
METAR KNYL 081355Z 11005KT 10SM FEW120 29/M01 A2975 RMK AO2 SLP070
      T02891011=
METAR MHLM 081400Z 20008KT 9999 -RA FEW004 SCT028 OVC080 26/25 Q1012
      A2989 NOSIG=
METAR MHRO 081400Z 09011KT 9999 FEW018CB BKN200 29/25 Q1010 A2984 NOSIG=
METAR MHTG 081400Z 00000KT 5000 FEW006 BKN020 OVC080 21/20 Q1017 A3003
      NOSIG=
METAR PHBK 081356Z AUTO 15005KT 10SM BKN075 24/17 A3000 RMK AO2 SLP161
      T02440172 TSNO $=
METAR TXKF 081355Z 12015KT 9999 SCT020CB SCT033 BKN130 BKN300 27/24
      Q1019 RMK CB DSNT SE-SW=
####018000117####
SABE31 TXKF 081354
METAR TXKF 081355Z 12015KT 9999 SCT020CB SCT033 BKN130
BKN300 27/24 Q1019 RMK CB DSNT SE-SW
####018000140####
SAUS44 KMAF 081400
MTRGDP
SPECI KGDP 081359Z AUTO 05022KT 1/4SM FG FEW002 BKN006 BKN048 17/17 
A3026 RMK AO2 PK WND 05026/1358 TSNO
####018000093####
SPAU31 AMMC 081400
SPECI YBTL 081400Z AUTO 13008KT 9999NDV // SCT010 OVC018 21/19 Q1017=
####018000075####
SAAT31 TAPA 081400
METAR TAPA 081400Z 07010KT 9999  SCT022 30/25 Q1016=

####018002967####
SAUS20 KNKA 081400
METAR K29G 081354Z AUTO 00000KT 10SM CLR 28/18 A3009 RMK AO2
     T02800184 PWINO=
METAR K4I3 081356Z AUTO 00000KT 10SM CLR 28/22 A3009 RMK AO2=
METAR KACB 081355Z AUTO 00000KT 7SM -RA SCT009 SCT012 BKN049 23/22
     A3001 RMK AO2=
METAR KACQ 081359Z AUTO 30006KT 10SM CLR 20/17 A3016 RMK AO2=
METAR KADC 081357Z AUTO 26004KT 10SM CLR 19/15 A3010 RMK AO2=
METAR KADM 081355Z 00000KT 5SM BR SCT008 SCT015 OVC025 26/25 
    A3005=
METAR KAEL 081351Z AUTO 33007KT 10SM CLR 20/17 A3014 RMK AO2=
METAR KAUM 081355Z AUTO 33008KT 10SM CLR 21/17 A3012 RMK AO2=
METAR KBAX 081355Z AUTO 00000KT 10SM SCT095 27/23 A3000 RMK
     AO2=
METAR KBDH 081355Z AUTO 28007KT 10SM CLR 20/16 A3013 RMK AO2=
METAR KBTR 081353Z 08004KT 10SM SCT005 BKN010 27/24 A3004 RMK AO2
     SLP171 T02670244=
METAR KCAD 081354Z AUTO 27004KT 5SM -RA SCT008 BKN021 OVC039 22/21
     A3004 RMK AO2=
METAR KCBG 081355Z AUTO 28008KT 10SM CLR 22/17 A3010 RMK AO2=
METAR KCFE 081355Z AUTO 27006KT 10SM CLR 22/16 A3013 RMK AO2
     T02150164=
METAR KCFS 081355Z AUTO 29007KT 10SM SCT060 28/21 A3002 RMK
     AO2=
METAR KCHD 081355Z 02005KT 40SM FEW120 30/07 A2982=
METAR KCKC 081355Z AUTO 26006KT 10SM CLR 21/13 A3005 RMK AO2=
METAR KCKN 081355Z AUTO 29006KT 10SM CLR 19/15 A3008 RMK AO2=
METAR KCNB 081358Z AUTO 25007KT 10SM CLR 22/15 A3014 RMK AO2
     T02230152=
METAR KCOQ 081356Z AUTO 27006KT 10SM CLR 21/18 A3007 RMK AO2=
METAR KCQM 081357Z AUTO 27005KT 10SM CLR 19/16 A3005 RMK AO2 LTG
     DSNT NE=
METAR KCVH 081350Z AUTO 00000KT 6SM OVC008 13/11 A2994 RMK AO1=
METAR KDAB 081353Z VRB03KT 10SM FEW026 SCT250 28/19 A3002 RMK AO2
     SLP163 T02830194 $=
METAR KDRM 081356Z AUTO 25004KT 4SM -DZ OVC004 21/21 A2998 RMK
     AO2=
METAR KDTL 081355Z AUTO 27006KT 10SM CLR 20/11 A3011 RMK AO2=
METAR KDUH 081355Z AUTO 26003KT 10SM CLR 31/20 A3004 RMK AO2=
METAR KDXX 081354Z AUTO 00000KT 10SM CLR 21/19 A3011 RMK AO2=
METAR KEFK 081356Z AUTO 21007KT 7SM CLR 28/22 A3005 RMK AO2=
METAR KELO 081353Z AUTO 25005KT 10SM CLR 20/14 A3003 RMK AO2 LTG
     DSNT N=
METAR KEVM 081352Z AUTO 26007KT 10SM CLR 20/15 A3003 RMK AO1=
METAR KFBL 081354Z AUTO 30005KT 10SM CLR 21/16 A3013 RMK AO2=
METAR KFFX 081355Z AUTO 21005KT 7SM -DZ SCT009 BKN028 OVC034 23/22
     A3002 RMK AO2=
METAR KFKA 081403Z AUTO 35008KT 10SM CLR 21/18 A3012 RMK AO2
     T02080176=
METAR KFPK 081356Z AUTO 00000KT 10SM CLR 26/21 A3002 RMK AO2=
METAR KFSD 081356Z 00000KT 10SM CLR 21/16 A3018 RMK AO2 SLP213 SCT
     ABV 120 T02110156=
METAR KFSE 081354Z AUTO 24006KT 10SM CLR 18/14 A3007 RMK AO2=
METAR KFSO 081358Z AUTO 00000KT 7SM CLR 30/25 A3001 RMK AO2=
SPECI KFTW 081359Z 14007KT 10SM BKN009 BKN017 OVC060 26/24 A3003 RMK 
    AO2 CIG 006V011=
SPECI KGKY 081400Z 10005KT 10SM SCT008 BKN014 BKN021 26/24 A3005 RMK 
    AO2=
METAR KGYL 081354Z AUTO 28007KT 10SM CLR 21/16 A3013 RMK AO2
     T02080161=
####018000599####
SAUS20 KNKA 081400
METAR KSYN 081410Z AUTO 30006KT 10SM CLR 22/17 A3011 RMK AO2
     T02170173=
METAR KTEW 081353Z AUTO 00000KT 10SM CLR 27/21 A3003 RMK AO2=
METAR KTKC 081353Z AUTO 29005KT 10SM CLR 21/15 A3015 RMK AO2
     T02120153=
METAR KTOB 081354Z AUTO 33003KT 10SM CLR 20/17 A3013 RMK AO2=
METAR KUKT 081350Z AUTO 00000KT 9SM CLR 29/21 A3006 RMK AO1=
METAR KVLL 081354Z AUTO 24005KT 10SM CLR 31/18 A3005 RMK AO2=
METAR KVVV 081356Z AUTO 26005KT 10SM CLR 21/16 A3012 RMK AO2=
METAR KY70 081355Z AUTO 00000KT 7SM SCT009 BKN047 BKN110 26/23
     A3002 RMK AO2 T02610225=
####018002920####
SAUS20 KNKA 081400
METAR KHAF 081350Z AUTO 33003KT 7SM OVC006 12/10 A2996 RMK AO2=
METAR KHAI 081355Z AUTO 00000KT 5SM RA SCT034 SCT039 BKN046 25/22
     A3005 RMK AO2=
METAR KHCD 081351Z AUTO 28005KT 10SM CLR 20/15 A3013 RMK AO2
     T01990154=
METAR KHCO 081354Z AUTO 33007KT 10SM CLR 19/16 A3009 RMK AO2=
METAR KHZX 081351Z AUTO 26003KT 10SM CLR 21/15 A3008 RMK AO2=
METAR KIKW 081353Z AUTO 27005KT 10SM BKN070 OVC080 25/21 A3001 RMK
     AO2 T02470214=
METAR KIRS 081355Z AUTO 14003KT 10SM SCT060 27/22 A3003 RMK
     AO2=
METAR KJKJ 081354Z AUTO 30004KT 10SM CLR 21/17 A3008 RMK AO2=
METAR KJMR 081358Z AUTO 28005KT 10SM CLR 21/15 A3011 RMK AO2=
METAR KJYG 081354Z AUTO 00000KT 10SM CLR 22/19 A3016 RMK AO2=
METAR KJYM 081355Z AUTO 00000KT 10SM CLR 27/21 A3006 RMK AO2=
METAR KLJF 081352Z AUTO 30006KT 10SM CLR 22/17 A3013 RMK AO2=
METAR KLND 081353Z AUTO 00000KT 10SM CLR 13/05 A3035 RMK AO2
     SLP228 T01280050=
METAR KLVN 081348Z AUTO 27005KT 10SM CLR 21/17 A3012 RMK AO2=
METAR KLWA 081356Z AUTO 00000KT 10SM BKN034 OVC060 24/21 A3003 RMK
     AO2=
METAR KLXL 081354Z AUTO 27005KT 10SM CLR 21/14 A3009 RMK AO2=
METAR KLYV 081358Z AUTO 00000KT 10SM CLR 20/16 A3018 RMK AO2=
METAR KMDS 081345Z AUTO 29008KT 10SM CLR 20/16 A3018 RMK AO2=
METAR KMGN 081355Z AUTO 26003KT 2 1/2SM RA SCT002 OVC008 21/20
     A3000 RMK AO2=
METAR KMJQ 081352Z AUTO 31004KT 10SM CLR 20/16 A3017 RMK AO2=
METAR KMOP 081354Z AUTO 28005KT 10SM -RA SCT028 SCT039 SCT048
     23/23 A3002 RMK AO2=
METAR KMRT 081353Z AUTO 22004KT 10SM CLR 29/20 A3011 RMK AO2
     T02910198=
METAR KMVE 081354Z AUTO 30004KT 10SM CLR 21/18 A3011 RMK AO2 LTG
     DSNT N=
METAR KNTU 081356Z 07008KT 10SM FEW020 SCT100 SCT200 28/22 A2999
     RMK AO2 SLP157 T02830217 $=
METAR KOEB 081355Z AUTO 13003KT 10SM CLR 27/22 A3004 RMK AO2=
METAR KONA 081350Z AUTO 33008KT 10SM SCT015 23/18 A3008 RMK
     AO2=
METAR KOVL 081354Z AUTO 29005KT 10SM CLR 20/15 A3013 RMK AO2
     T01950145=
METAR KOZW 081355Z AUTO 00000KT 10SM CLR 28/20 A3004 RMK AO2=
METAR KPEX 081353Z AUTO 27008KT 10SM CLR 21/16 A3012 RMK AO2
     T02130162=
METAR KRGK 081355Z AUTO 32005KT 10SM CLR 22/17 A3009 RMK AO2=
METAR KRNP 081355Z AUTO 00000KT 10SM CLR 28/21 A3002 RMK AO2=
METAR KROA 081354Z 01008KT 6SM HZ FEW085 31/17 A3009 RMK AO2
     SLP173 T03060167=
METAR KROS 081355Z AUTO 29004KT 10SM CLR 22/16 A3010 RMK AO2
     T02150164=
METAR KROX 081354Z AUTO 28008KT 10SM CLR 18/15 A3004 RMK AO2=
METAR KRQB 081354Z AUTO 00000KT 7SM BKN005 OVC046 23/22 A3003 RMK
     AO2=
METAR KRRT 081354Z AUTO 27008KT 10SM CLR 18/14 A3003 RMK AO2 LTG
     DSNT NE=
METAR KSAZ 081353Z AUTO 26006KT 10SM CLR 20/19 A3010 RMK AO2=
METAR KSGS 081353Z AUTO 31003KT 10SM CLR 22/16 A3011 RMK AO2
     T02200162=
SPECI KSPI 081359Z 31005KT 10SM SCT008 BKN014 BKN027 26/23 A3006 RMK 
    AO2=
####018000105####
SAMH31 PKWA 081400
METAR PKWA 081400Z AUTO 12004KT 10SM BKN026 BKN080 26/24 A2982 RMK AO2 T02580235=
####018000122####
SAUS46 KSTO 081400 COR
MTRBLU
METAR KBLU 081352Z AUTO 05003KT 10SM CLR 21/03 A3010 RMK AO2 SLP095 
T02060033 TSNO
####018003713####
SAUS99 KWBC 081401
METAR
KAWG 081355Z AUTO 36007KT 10SM CLR 25/20 A3007 RMK AO2=
KAXA 081355Z AUTO 35006KT 10SM CLR 21/17 A3015 RMK AO2=
KBNW 081355Z AUTO 33013G20KT 10SM CLR 22/18 A3014 RMK AO2=
KBWD 081355Z AUTO 10006KT 9SM OVC020 24/23 A3005 RMK AO2=
KCAV 081355Z AUTO 35008KT 10SM CLR 22/17 A3014 RMK AO2=
KCBF 081355Z AUTO 01009KT 10SM CLR 22/16 A3016 RMK AO2=
KCCY 081355Z AUTO 34006KT 10SM CLR 22/17 A3012 RMK AO2=
KCIN 081355Z AUTO 01005KT 10SM CLR 21/16 A3017 RMK AO2=
KCNC 081355Z AUTO 01007KT 10SM CLR 22/19 A3011 RMK AO2=
KJZI 081355Z AUTO 31009KT 10SM CLR 31/24 A2996 RMK A02 P000=
KSFB 081353Z 08004KT 10SM SCT027 27/21 A3002=
KSPF 081355Z AUTO 00000KT 10SM CLR 17/12 A3030 RMK AO2=
PADM 081401Z AUTO 07006KT 10SM BKN070 BKN080 08/07 A3004 RMK AO2
     TSNO T00770072 BKN V SCT SLP159 $=
PADU 081358Z 09020G25KT 10SM -RA OVC021 08/04 A2975 RMK AO2 PK WND
     10027/1259 RAB34 SLP080 P0000 T00830044=
PAGA 081358Z AUTO 00000KT 10SM CLR 10/08 A3007 RMK AO2 SLP226
     T01000083=
PAJZ 081356Z AUTO 00000KT 10SM CLR 08/07 A2999 RMK AO2 PWINO TSNO
     T00770072 SLP145 $=
PAKI 081356Z AUTO 36004KT M1/4SM FG CLR 06/06 A3001 RMK AO2 PWINO
     TSNO T00610061 SLP163 $=
PALG 081356Z AUTO 00000KT 1SM BR BKN003 06/05 A2999 RMK AO2 TSNO
     T00550050 BKN V SCT SLP159=
PARY 081356Z AUTO 36005KT 10SM CLR 15/07 A3005 RMK AO2 PWINO TSNO
     T01500066 SLP178=
KHAF 081350Z AUTO 33003KT 7SM OVC006 12/10 A2996 RMK AO2=
KHAI 081355Z AUTO 00000KT 5SM RA SCT034 SCT039 BKN046 25/22 A3005
     RMK AO2=
KHCD 081351Z AUTO 28005KT 10SM CLR 20/15 A3013 RMK AO2
     T01990154=
KHCO 081354Z AUTO 33007KT 10SM CLR 19/16 A3009 RMK AO2=
KHZX 081351Z AUTO 26003KT 10SM CLR 21/15 A3008 RMK AO2=
KIKW 081353Z AUTO 27005KT 10SM BKN070 OVC080 25/21 A3001 RMK AO2
     T02470214=
KIRS 081355Z AUTO 14003KT 10SM SCT060 27/22 A3003 RMK AO2=
KJKJ 081354Z AUTO 30004KT 10SM CLR 21/17 A3008 RMK AO2=
KJMR 081358Z AUTO 28005KT 10SM CLR 21/15 A3011 RMK AO2=
KJYG 081354Z AUTO 00000KT 10SM CLR 22/19 A3016 RMK AO2=
KJYM 081355Z AUTO 00000KT 10SM CLR 27/21 A3006 RMK AO2=
KLJF 081352Z AUTO 30006KT 10SM CLR 22/17 A3013 RMK AO2=
KLND 081353Z AUTO 00000KT 10SM CLR 13/05 A3035 RMK AO2 SLP228
     T01280050=
KLVN 081348Z AUTO 27005KT 10SM CLR 21/17 A3012 RMK AO2=
KLWA 081356Z AUTO 00000KT 10SM BKN034 OVC060 24/21 A3003 RMK
     AO2=
KLXL 081354Z AUTO 27005KT 10SM CLR 21/14 A3009 RMK AO2=
KLYV 081358Z AUTO 00000KT 10SM CLR 20/16 A3018 RMK AO2=
KMDS 081345Z AUTO 29008KT 10SM CLR 20/16 A3018 RMK AO2=
KMGN 081355Z AUTO 26003KT 2 1/2SM RA SCT002 OVC008 21/20 A3000 RMK
     AO2=
KMJQ 081352Z AUTO 31004KT 10SM CLR 20/16 A3017 RMK AO2=
KMOP 081354Z AUTO 28005KT 10SM -RA SCT028 SCT039 SCT048 23/23
     A3002 RMK AO2=
KMRT 081353Z AUTO 22004KT 10SM CLR 29/20 A3011 RMK AO2
     T02910198=
KMVE 081354Z AUTO 30004KT 10SM CLR 21/18 A3011 RMK AO2 LTG DSNT
     N=
KNTU 081356Z 07008KT 10SM FEW020 SCT100 SCT200 28/22 A2999 RMK AO2
     SLP157 T02830217 $=
KOEB 081355Z AUTO 13003KT 10SM CLR 27/22 A3004 RMK AO2=
KONA 081350Z AUTO 33008KT 10SM SCT015 23/18 A3008 RMK AO2=
KOVL 081354Z AUTO 29005KT 10SM CLR 20/15 A3013 RMK AO2
     T01950145=
KOZW 081355Z AUTO 00000KT 10SM CLR 28/20 A3004 RMK AO2=
KPEX 081353Z AUTO 27008KT 10SM CLR 21/16 A3012 RMK AO2
     T02130162=
KRGK 081355Z AUTO 32005KT 10SM CLR 22/17 A3009 RMK AO2=
KRNP 081355Z AUTO 00000KT 10SM CLR 28/21 A3002 RMK AO2=
KROA 081354Z 01008KT 6SM HZ FEW085 31/17 A3009 RMK AO2 SLP173
     T03060167=
KROS 081355Z AUTO 29004KT 10SM CLR 22/16 A3010 RMK AO2
     T02150164=
KROX 081354Z AUTO 28008KT 10SM CLR 18/15 A3004 RMK AO2=
####018000698####
SPUS99 KWBC 081401
SPECI
KHRL 081359Z 34008KT 10SM FEW008 SCT021 BKN036 26/26 A2979 RMK
     AO2=
KHUT 081359Z 01009KT 3SM BR BKN007 OVC012 22/21 A3016 RMK AO2 CIG
     005V010=
KRKP 081359Z AUTO 00000KT 3SM VCTS -RA SCT012 SCT022 OVC027 A2987
     RMK AO2 LTG DSNT SW P0000 FZRANO $=
KSGF 081359Z 00000KT 10SM FEW009 BKN019 OVC049 24/22 A3009 RMK
     AO2=
KUGN 081359Z VRB04KT 10SM FEW009 BKN014 BKN022 24/21 A3002 RMK
     AO2=
KSPI 081359Z 31005KT 10SM SCT008 BKN014 BKN027 26/23 A3006 RMK
     AO2=
KFTW 081359Z 14007KT 10SM BKN009 BKN017 OVC060 26/24 A3003 RMK AO2
     CIG 006V011=
KGKY 081400Z 10005KT 10SM SCT008 BKN014 BKN021 26/24 A3005 RMK
     AO2=
####018003359####
SAUS99 KWBC 081401 RRA
METAR
KRQB 081354Z AUTO 00000KT 7SM BKN005 OVC046 23/22 A3003 RMK
     AO2=
KRRT 081354Z AUTO 27008KT 10SM CLR 18/14 A3003 RMK AO2 LTG DSNT
     NE=
KSAZ 081353Z AUTO 26006KT 10SM CLR 20/19 A3010 RMK AO2=
KSGS 081353Z AUTO 31003KT 10SM CLR 22/16 A3011 RMK AO2
     T02200162=
KSYN 081410Z AUTO 30006KT 10SM CLR 22/17 A3011 RMK AO2
     T02170173=
KTEW 081353Z AUTO 00000KT 10SM CLR 27/21 A3003 RMK AO2=
KTKC 081353Z AUTO 29005KT 10SM CLR 21/15 A3015 RMK AO2
     T02120153=
KTOB 081354Z AUTO 33003KT 10SM CLR 20/17 A3013 RMK AO2=
KUKT 081350Z AUTO 00000KT 9SM CLR 29/21 A3006 RMK AO1=
KVLL 081354Z AUTO 24005KT 10SM CLR 31/18 A3005 RMK AO2=
KVVV 081356Z AUTO 26005KT 10SM CLR 21/16 A3012 RMK AO2=
KY70 081355Z AUTO 00000KT 7SM SCT009 BKN047 BKN110 26/23 A3002 RMK
     AO2 T02610225=
K29G 081354Z AUTO 00000KT 10SM CLR 28/18 A3009 RMK AO2 T02800184
     PWINO=
K4I3 081356Z AUTO 00000KT 10SM CLR 28/22 A3009 RMK AO2=
KACB 081355Z AUTO 00000KT 7SM -RA SCT009 SCT012 BKN049 23/22 A3001
     RMK AO2=
KACQ 081359Z AUTO 30006KT 10SM CLR 20/17 A3016 RMK AO2=
KADC 081357Z AUTO 26004KT 10SM CLR 19/15 A3010 RMK AO2=
KADM 081355Z 00000KT 5SM BR SCT008 SCT015 OVC025 26/25 A3005=
KAEL 081351Z AUTO 33007KT 10SM CLR 20/17 A3014 RMK AO2=
KAUM 081355Z AUTO 33008KT 10SM CLR 21/17 A3012 RMK AO2=
KBAX 081355Z AUTO 00000KT 10SM SCT095 27/23 A3000 RMK AO2=
KBDH 081355Z AUTO 28007KT 10SM CLR 20/16 A3013 RMK AO2=
KBTR 081353Z 08004KT 10SM SCT005 BKN010 27/24 A3004 RMK AO2 SLP171
     T02670244=
KCAD 081354Z AUTO 27004KT 5SM -RA SCT008 BKN021 OVC039 22/21 A3004
     RMK AO2=
KCBG 081355Z AUTO 28008KT 10SM CLR 22/17 A3010 RMK AO2=
KCFE 081355Z AUTO 27006KT 10SM CLR 22/16 A3013 RMK AO2
     T02150164=
KCFS 081355Z AUTO 29007KT 10SM SCT060 28/21 A3002 RMK AO2=
KCHD 081355Z 02005KT 40SM FEW120 30/07 A2982=
KCKC 081355Z AUTO 26006KT 10SM CLR 21/13 A3005 RMK AO2=
KCKN 081355Z AUTO 29006KT 10SM CLR 19/15 A3008 RMK AO2=
KCNB 081358Z AUTO 25007KT 10SM CLR 22/15 A3014 RMK AO2
     T02230152=
KCOQ 081356Z AUTO 27006KT 10SM CLR 21/18 A3007 RMK AO2=
KCQM 081357Z AUTO 27005KT 10SM CLR 19/16 A3005 RMK AO2 LTG DSNT
     NE=
KCVH 081350Z AUTO 00000KT 6SM OVC008 13/11 A2994 RMK AO1=
KDAB 081353Z VRB03KT 10SM FEW026 SCT250 28/19 A3002 RMK AO2 SLP163
     T02830194 $=
KDRM 081356Z AUTO 25004KT 4SM -DZ OVC004 21/21 A2998 RMK AO2=
KDTL 081355Z AUTO 27006KT 10SM CLR 20/11 A3011 RMK AO2=
KDUH 081355Z AUTO 26003KT 10SM CLR 31/20 A3004 RMK AO2=
KDXX 081354Z AUTO 00000KT 10SM CLR 21/19 A3011 RMK AO2=
KEFK 081356Z AUTO 21007KT 7SM CLR 28/22 A3005 RMK AO2=
KELO 081353Z AUTO 25005KT 10SM CLR 20/14 A3003 RMK AO2 LTG DSNT
     N=
KEVM 081352Z AUTO 26007KT 10SM CLR 20/15 A3003 RMK AO1=
KFBL 081354Z AUTO 30005KT 10SM CLR 21/16 A3013 RMK AO2=
KFFX 081355Z AUTO 21005KT 7SM -DZ SCT009 BKN028 OVC034 23/22 A3002
     RMK AO2=
KFKA 081403Z AUTO 35008KT 10SM CLR 21/18 A3012 RMK AO2
     T02080176=
KFPK 081356Z AUTO 00000KT 10SM CLR 26/21 A3002 RMK AO2=
KFSD 081356Z 00000KT 10SM CLR 21/16 A3018 RMK AO2 SLP213 SCT ABV
     120 T02110156=
KFSE 081354Z AUTO 24006KT 10SM CLR 18/14 A3007 RMK AO2=
KFSO 081358Z AUTO 00000KT 7SM CLR 30/25 A3001 RMK AO2=
KGYL 081354Z AUTO 28007KT 10SM CLR 21/16 A3013 RMK AO2
     T02080161=
####018000068####
SABZ20 SBEG 081400
METAR SBEG 081400Z 00000KT CAVOK 29/22 Q1013=
####018000068####
SABZ20 SBPV 081400
METAR SBPV 081400Z 05006KT CAVOK 30/23 Q1013=
####018000081####
SABZ20 SBBV 081400
METAR SBBV 081400Z 18005KT 9999 SCT020 SCT070 29/23 Q1014=
####018000081####
SABZ21 SBRF 081400
METAR SBRF 081400Z 18007KT 9999 FEW020 BKN070 27/22 Q1016=
####018000068####
SABZ23 SBCF 081400
METAR SBCF 081400Z 13006KT CAVOK 19/08 Q1023=
####018000068####
SABZ19 SBCJ 081400
METAR SBCJ 081400Z 07004KT CAVOK 28/17 Q1018=
####018000069####
SABZ20 SBRB 081400
METAR SBRB 081400Z 01009KT CAVOK 31/23 Q1014 =
####018000068####
SABZ18 SBSP 081400
METAR SBSP 081400Z 35010KT CAVOK 22/07 Q1023=
####018000095####
SPAU31 KWBC 081401
SPECI
YBTL 081400Z AUTO 13008KT 9999NDV // SCT010 OVC018 21/19 Q1017=
####018000088####
SPAU31 KWBC 081401
SPECI
YPPD 081400Z AUTO 03003KT 5000NDV // OVC029 22/21 Q1010=
####018000091####
SAAJ31 UBBB 081400
METAR UBBL 081400Z 11006KT 9999 NSC 32/17 Q1009 NOSIG RMK G/O SC07=
####018000090####
SAUZ31 UTTT 081400
METAR UTTT 081400Z 35002MPS CAVOK 37/08 Q1009 R08R/CLRD70
NOSIG=
####018000393####
SASD31 OEJD 081400
METAR OEDF 081400Z 05012KT CAVOK 41/09 Q0999 NOSIG=
METAR OEDR 081400Z 03011KT 8000 SKC 39/21 Q0997 NOSIG=
METAR OEJN 081400Z 30012KT CAVOK 35/25 Q1001 NOSIG=
METAR OEMA 081400Z 09010KT 9999 SCT045 47/M04 Q1003 NOSIG=
METAR OERK 081400Z 01016KT 8000 SKC 42/M02 Q1006 NOSIG=
METAR OERY 081400Z 05020KT 6000 BLDU SKC 43/00 Q1006 NOSIG=
METAR OYSN 081400Z NIL=
####018000112####
SAUS46 KOTX 081400 COR
MTRLWS
METAR KLWS 081356Z 07005KT 10SM CLR 17/09 A3005 RMK AO2 SLP165 
T01720094
####018000074####
SABZ20 SBMN 081400
METAR SBMN 081400Z 10005KT 9999 FEW015 30/24 Q1013=
####018000068####
SABZ18 SBGR 081400
METAR SBGR 081400Z 32007KT CAVOK 23/07 Q1022=
####018000961####
SATU31 LTAA 081350
METAR LTAC 081350Z 04006KT 360V090 9999 TS FEW025CB BKN035 28/13 
Q1011 TEMPO -TSRA=
METAR LTAF 081350Z /////KT 9999 SCT035 30/20 Q1007 NOSIG=
METAR LTAI 081350Z 18009KT 9999 SCT030 28/22 Q1007 NOSIG=
METAR LTAJ 081350Z 22016KT CAVOK 34/15 Q1007 NOSIG=
METAR LTAZ 081350Z 16006KT 130V220 9999 FEW025CB SCT040 BKN090 34/10 
Q1008=
METAR LTBA 081350Z 35018KT 9999 BKN035 22/16 Q1012 TEMPO 4000 -TSRA=
METAR LTBJ 081350Z 35020KT 9999 FEW030 28/15 Q1010 NOSIG=
METAR LTBS 081350Z 19010KT 9999 FEW030 31/21 Q1007 NOSIG=
METAR LTCF 081350Z 11012KT 080V140 CAVOK 30/08 Q1017=
METAR LTCG 081350Z 06007KT 9999 FEW035 SCT035 27/22 Q1010 NOSIG=
METAR LTCI 081350Z VRB03KT 070V250 CAVOK 27/15 Q1016 NOSIG=
METAR LTCS 081350Z 24007KT 170V320 CAVOK 37/06 Q1008=
METAR LTFE 081350Z 26020KT 9999 FEW035 31/17 Q1008 NOSIG=
METAR LTFH 081350Z 04009KT 010V080 9999 SCT036 BKN100 27/23 Q1009 
NOSIG=
METAR LTFJ 081350Z NIL=
####018000118####
SAUS45 KLKN 081401 COR
MTRWMC
METAR KWMC 081356Z AUTO 01005KT 10SM CLR 20/M04 A3009 RMK AO2 SLP134 
T02001044
####018000084####
SPUS42 KWBC 081401
SPECI
KNEW 081358Z 08010KT 10SM BKN014 BKN021 29/25 A3005=
####018000118####
SAUS41 KAKQ 081400
MTRNGU
METAR KNGU 081359Z 06008KT 10SM SCT070 BKN100 28/22 A3001 RMK AO2 
SLP162 T02830217
####018000092####
SARM31 LUKK 081400
METAR LUKK 081400Z 35008KT 9999 SCT038 26/15 Q1015 26CLRD65
NOSIG=
####018000082####
SAAN40 FNLU 081400
METAR FNLU 081400Z 26010KT 9999 FEW021 24 /19 Q1011 NOSIG=
####018000411####
SABU31 LBSM 081400
METAR LBSF 081400Z 28006MPS 9999 -RA SCT026 BKN040 17/12 Q1019
 NOSIG=
METAR LBWN 081400Z 30006MPS 260V350 9999 FEW030 SCT045 21/16
 Q1013 NOSIG=
METAR LBBG 081400Z 27006MPS 9000 RA SCT023 BKN038 OVC050 17/16
 Q1014 NOSIG=
METAR LBPD 081400Z 26004MPS 9999 -RA OVC040 17/15 Q1017 NOSIG=
METAR LBGO 081400Z 28003MPS 250V310 9999 -RA SCT013 BKN025
 OVC040 16/15 Q1017 NOSIG=
####018000117####
SARH32 LDZM 081400
METAR LDLO 081400Z 31011KT CAVOK 28/10 Q1021=
METAR LDSB 081400Z 32005KT CAVOK 24/11 Q1020=
####018000413####
SATU32 LTAA 081350
METAR LTAN 081350Z 21006KT 9999 SCT040 33/07 Q1009 NOSIG=
METAR LTAU 081350Z 26008KT 9999 SCT040 33/11 Q1008 NOSIG=
METAR LTBR 081350Z 32013KT 9999 SCT035TCU BKN100 23/17 Q1012 TEMPO 
-TSRA=
METAR LTBU 081350Z 31014KT 9999 SCT025TCU BKN100 17/14 Q1014 RESHRA=
METAR LTCC 081350Z 16008KT 130V200 CAVOK 40/02 Q1005 NOSIG=
METAR LTCE 081350Z VRB03KT 9999 SCT030 31/05 Q1016 NOSIG=
####018000458####
SARH31 LDZM 081400
METAR LDSP 081400Z 23011KT 190V260 CAVOK 29/09 Q1019 NOSIG =
METAR LDPL 081400Z 27011KT 240V300 CAVOK 26/11 Q1021 NOSIG =
METAR LDDU 081400Z 26012KT 230V300 9999 FEW045 25/14 Q1018 NOSIG =
METAR LDZA 081400Z VRB04KT CAVOK 27/09 Q1021 NOSIG =
METAR LDZD 081400Z 30014KT 260V350 CAVOK 28/07 Q1020 =
METAR LDRI 081400Z 29004KT 230V330 9999 FEW047 27/10 Q1021 NOSIG=
METAR LDOS 081400Z 29007KT 220V340 9999 FEW033 26/08 Q1021=
####018000092####
SASG20 GOOY 081400
METAR GOOY 081400Z 15009KT 120V210 9999 SCT013 31/25 Q1012 NOSIG=

####018000098####
SAIV20 DIAP 081400
METAR DIAP 081400Z 22008KT 180V260 8000 SCT012 SCT070 29/25 Q1013
NOSIG=
####018000086####
SPAU32 YBBN 081400
SPECI YPPD 081400Z AUTO 03003KT 5000NDV // OVC029 22/21 Q1010=
####018000102####
SPUS52 KWBC 081401
SPECI
KGDP 081359Z AUTO 05022KT 1/4SM FG FEW002 BKN006 BKN048 17/17
A3026=
####018000089####
SPUS52 KWBC 081401
SPECI
KJCT 081358Z AUTO 04003KT 10SM BKN010 OVC022 25/22 A3004=
####018000069####
SABZ18 SBGR 081400
METAR SBGR 081400Z 32007KT CAVOK 23/07 Q1022=
####018000069####
SABZ24 SBPP 081400
METAR SBPP 081400Z 01006KT CAVOK 27/12 Q1018=
####018000120####
SAUS46 KPQR 081401 COR
MTRREO
METAR KREO 081352Z AUTO 15003KT 14/M02 A3013 RMK AO2 SLP164 
T01441022 PWINO TSNO
####018000084####
SPUS72 KWBC 081401
SPECI
KNEW 081358Z 08010KT 10SM BKN014 BKN021 29/25 A3005=
####018000121####
SAUS41 KAKQ 081401 COR
MTRRIC
METAR KRIC 081354Z 14007KT 9SM FEW150 SCT250 31/21 A3000 RMK AO2 
SLP161 T03060211
####018000139####
SANA35 KAWN 081300 RRH
METAR TXKF 081255Z 17020KT 6000 -SHRA FEW009 SCT015TCU BKN050 BKN300
      23/22 Q1020 RMK TCU N / DSNT SW /=
####018000085####
SASR31 WSAP 081400
METAR WSAP 081400Z 26001KT 9999 
FEW016 BKN300 29/24 Q1010=
####018000102####
SPUS81 KWBC 081401
SPECI
KGDP 081359Z AUTO 05022KT 1/4SM FG FEW002 BKN006 BKN048 17/17
A3026=
####018000112####
SAUS46 KSGX 081401 COR
MTRNJK
METAR KNJK 081356Z 10003KT 10SM CLR 24/18 A2973 RMK AO2 SLP082 
T02440178
####018000080####
SAHA31 MTPP 081400
METAR MTPP 081400Z 7000 FEW026 SCT200 31/24 Q1016 A2999=
####018000080####
SANC01 NWWW 081400
METAR NWWW 081400Z AUTO 13002KT 9999NDV NCD 16/15 Q1015=
####018000055####
SAUS90 KWBC 081300 RRH
METAR K8S0 081255Z 36002KT=
####018001297####
SAUS90 KWBC 081400 CCB
METAR KMCN 081353Z 30005KT 10SM CLR 30/19 A3004 RMK AO2 SLP166
     T03000194=
METAR KSXT 081356Z AUTO 12007KT 8SM CLR 19/11 A3004 RMK AO2 SLP107
     T01940106 TSNO=
METAR KLAX 081353Z 27006KT 7SM BCFG FEW009 OVC011 16/13 A2992 RMK
     AO2 SLP130 T01610128=
METAR KAPN 081354Z 26003KT 9SM BKN047 OVC075 23/21 A3000 RMK AO2
     RAE47 SLP156 P0000 T02280211=
METAR KMHS 081356Z AUTO 00000KT 10SM CLR 12/08 A3003 RMK AO2
     SLP154 T01220078 TSNO=
METAR KBLU 081352Z AUTO 05003KT 10SM CLR 21/03 A3010 RMK AO2
     SLP095 T02060033 TSNO=
METAR KLWS 081356Z 07005KT 10SM CLR 17/09 A3005 RMK AO2 SLP165
     T01720094=
METAR KWMC 081356Z AUTO 01005KT 10SM CLR 20/M04 A3009 RMK AO2
     SLP134 T02001044=
METAR KREO 081352Z AUTO 15003KT 14/M02 A3013 RMK AO2 SLP164
     T01441022 PWINO TSNO=
METAR KRIC 081354Z 14007KT 9SM FEW150 SCT250 31/21 A3000 RMK AO2
     SLP161 T03060211=
METAR KINS 081356Z 36006KT 10SM FEW150 18/M11 A2997 RMK AO2 SLP096
     T01781106 $=
METAR KAAT 081355Z AUTO 00000KT 10SM CLR 12/09 A3009 RMK AO2
     SLP146 T01220089 TSNO=
METAR KGFA 081356Z AUTO 00000KT 10SM CLR 14/08 A3022 RMK AO2
     SLP241 T01440078 $=
METAR KLWS 081356Z 07005KT 10SM CLR 17/09 A3005 RMK AO2 SLP165
     T01720094=
####018002442####
SAUS90 KWBC 081400 RRB
METAR KALK 081356Z AUTO 07013KT 10SM CLR 24/11 A3012 RMK AO2
     SLP096 T02440111=
METAR KEUF 081358Z AUTO 00000KT 10SM CLR 31/22 A3003 RMK AO2
     SLP163 T03110217 PNO $=
METAR KCVX 081355Z AUTO 25007KT 4SM -RA BKN004 OVC060 22/20 A3002
     RMK AO2=
METAR KFKS 081355Z AUTO 26003KT 10SM OVC017 22/20 A3001 RMK
     AO2=
METAR KSLH 081355Z AUTO 26003KT 5SM RA SCT007 BKN012 OVC042 22/21
     A2999 RMK AO2=
METAR KSJX 081355Z AUTO 00000KT 1/4SM FG OVC002 20/18 A3000 RMK
     AO2=
METAR KLDM 081355Z AUTO 24004KT 10SM BKN005 OVC010 23/22 A3002 RMK
     AO2=
METAR KGOV 081355Z AUTO 24003KT 4SM +DZ BKN010 BKN025 OVC038 22/22
     A3004 RMK AO2=
METAR KPZQ 081355Z AUTO 28005KT 7SM -RA SCT013 OVC065 22/22 A3001
     RMK AO2=
METAR KHYX 081355Z AUTO 25004KT 10SM SCT070 SCT080 26/21 A3002 RMK
     AO2=
METAR KPHN 081355Z AUTO 25003KT 10SM CLR 29/21 A3002 RMK AO2=
METAR KONZ 081357Z AUTO 18004KT 10SM CLR 29/23 A3002 RMK AO2=
METAR KISQ 081356Z AUTO 34005KT 10SM BKN006 OVC010 21/18 A3000 RMK
     AO2=
METAR KRMY 081355Z AUTO 12003KT 10SM CLR 26/22 A3003 RMK AO2=
METAR KOSC 081354Z AUTO 29005KT 5SM -RA SCT018 BKN060 OVC075 23/21
     A3001 RMK AO2=
METAR KTTF 081354Z AUTO 23003KT 10SM SCT075 31/21 A3002 RMK
     AO2=
METAR KAMN 081355Z AUTO 26006KT 7SM SCT060 24/22 A3001 RMK AO2=
METAR KMCD 081356Z AUTO 25003KT M1/4SM -RA OVC001 20/17 A3001 RMK
     AO2=
METAR KERY 081355Z AUTO 36003KT 10SM OVC003 19/18 A3001 RMK
     AO2=
METAR KDVP 081356Z AUTO 29006KT 10SM CLR 21/14 A3018 RMK AO2
     T02090143=
METAR KCDD 081351Z AUTO 27005KT 10SM CLR 22/18 A3004 RMK AO2=
METAR KFOZ 081353Z AUTO 24006KT 10SM CLR 20/14 A3007 RMK AO2 LTG
     DSNT N=
METAR KAQP 081354Z AUTO 26006KT 10SM CLR 19/18 A3011 RMK AO2=
METAR KETH 081354Z AUTO 25006KT 10SM CLR 21/16 A3011 RMK AO2=
METAR KXVG 081356Z AUTO 29004KT 10SM CLR 20/15 A3006 RMK AO2=
METAR KORB 081354Z AUTO 27004KT 10SM CLR 19/13 A3002 RMK AO2=
METAR KMZH 081351Z AUTO 30006KT 10SM CLR 20/15 A3006 RMK AO2=
METAR KBFW 081353Z AUTO 27003KT 10SM CLR 24/16 A3002 RMK AO2=
METAR KVWU 081351Z AUTO 23007KT 10SM CLR 20/16 A3005 RMK AO2=
METAR KOWA 081354Z AUTO 31006KT 10SM CLR 20/17 A3012 RMK AO2=
METAR KCDA 081355Z AUTO 17005KT 7SM CLR 28/21 A3009 RMK AO2=
METAR KMWN 081353Z 24003KT 3SM BKN/// BKN002 17/15 RMK BBLO BKN
     ALQDS LIMITING VIS TO 3SM HZ VC ALQDS=
####018000392####
SPUS90 KWBC 081402
SPECI KJCT 081358Z AUTO 04003KT 10SM BKN010 OVC022 25/22 A3004 RMK
     AO2 CIG 007V012 TSNO=
SPECI KGDP 081359Z AUTO 05022KT 1/4SM FG FEW002 BKN006 BKN048
     17/17 A3026 RMK AO2 PK WND 05026/1358 TSNO=
SPECI KNEL 081400Z AUTO 17007KT 7SM BKN012 BKN090 27/22 A3005 RMK
     AO2 $=
SPECI KCON 081400Z AUTO VRB05KT 6SM HZ SCT016 27/22 A3008 RMK
     AO2=
####018000238####
UAUS68 KAWN 081300
GYY UA /OV MDW135010/TM 1345/FLUNKN/TP CL60/WX RA=
IRS UA /OV FWA360045/TM 1348/FL060/TP PA32/TA 17/TB NEG/RM SMTH
 JUST ENTERING IMC CONDS WESTBOUND=
MDW UA /OV ORD090015/TM 1335/FL040/TP E145/TB NEG/RM IMC=
####018000139####
SAZZ40 KAWN 081300 RRX
METAR TXKF 081255Z 17020KT 6000 -SHRA FEW009 SCT015TCU BKN050 BKN300
      23/22 Q1020 RMK TCU N / DSNT SW /=
####018000139####
SAUS41 KGYX 081401
MTRMWN
METAR KMWN 081353Z 24003KT 3SM BKN/// BKN002 17/15
RMK BBLO BKN ALQDS LIMITING VIS TO 3SM HZ VC ALQDS

####018000081####
SAMR20 TFFF 081400
METAR TFFF 081400Z 08015KT 9999 BKN028 30/25 Q1014 NOSIG=
####018000114####
SAUS44 KMOB 081401 COR
MTR79J
METAR K79J 081356Z 00000KT 10SM CLR 31/23 A3004 RMK AO2 SLP166 
T03110233 $
####018000088####
SASR31 WSSS 081400
METAR WSSS 081400Z 23002KT 9999 FEW016 BKN300 28/24 Q1010 NOSIG=
####018000118####
SAUS45 KVEF 081401 COR
MTRINS
METAR KINS 081356Z 36006KT 10SM FEW150 18/M11 A2997 RMK AO2 SLP096 
T01781106 $
####018000115####
SARA31 UHHH 081400
METAR 081400Z
METAR METAR UHHH 081400Z 02003MPS 9999 SCT023CB OVC100 16/15 Q1011
NOSIG=
####018000115####
SAUS42 KRAH 081401
MTRNJM
METAR KNJM 081357Z AUTO 06008KT 10SM CLR 29/24 A2994 RMK AO2 SLP142 
T02940239 $
####018000082####
SABZ24 SBPA 081400
METAR SBPA 081400Z 22002KT 9999 BKN015 BKN030 15/12 Q1021=
####018000069####
SABZ24 SBPK 081400
METAR SBPK 081400Z 25009KT CAVOK 14/06 Q1021=
####018000075####
SABZ24 SBCG 081400
METAR SBCG 081400Z 06013KT 9999 FEW040 28/08 Q1017=
####018000086####
SANC01 NWWL 081400
METAR NWWL 081400Z AUTO 00000KT 9999NDV FEW041/// 13/12 Q1016=
####018000080####
SANC01 NWWU 081400
METAR NWWU 081400Z AUTO 00000KT 9999NDV NCD 18/17 Q1015=
####018000119####
SAUS45 KTFX 081401 COR
MTRGFA
METAR KGFA 081356Z AUTO 00000KT 10SM CLR 14/08 A3022 RMK AO2 SLP241 
T01440078 $
####018000080####
SAPF20 NTAA 081400
METAR NTAA 081400Z AUTO 15006KT 9999NDV NCD 25/22 Q1014=
####018000122####
SAUS46 KMFR 081401 COR
MTRAAT
METAR KAAT 081355Z AUTO 00000KT 10SM CLR 12/09 A3009 RMK AO2 SLP146 
T01220089 TSNO
####018000107####
SAAK48 PANC 081401
MTRASY
METAR PASY 081356Z AUTO 02016KT 8SM OVC002 A2974 RMK AO2 SLPNO TSNO
 PNO
####018000080####
SANC01 NWWM 081400
METAR NWWM 081400Z AUTO 36001KT 9999NDV NCD 17/16 Q1015=
####018002211####
SAUS20 KNKA 081401
METAR KCSQ 081355Z AUTO 02011KT 10SM CLR 23/20 A3013 RMK AO2=
METAR KDEH 081355Z AUTO 34007KT 10SM CLR 23/17 A3012 RMK AO2=
METAR KDNS 081355Z AUTO 01006KT 10SM CLR 22/16 A3019 RMK AO2=
METAR KEBS 081355Z AUTO 36005KT 10SM CLR 21/17 A3014 RMK AO2=
METAR KEOK 081355Z AUTO 00000KT 10SM SCT009 25/20 A3007 RMK AO2=
METAR KFFL 081355Z AUTO 01005KT 10SM CLR 24/22 A3008 RMK AO2=
SPECI KFRG 081400Z 14007KT 10SM SCT013 SCT025 BKN055 26/23 A3006 RMK 
    AO2=
METAR KFSW 081355Z AUTO 34004KT 5SM HZ OVC006 24/21 A3007 RMK AO2=
METAR KFXY 081355Z AUTO 33009KT 10SM CLR 20/16 A3014 RMK AO2=
METAR KGGI 081355Z AUTO 35007KT 10SM SCT008 23/20 A3011 RMK AO2=
METAR KHNR 081355Z AUTO 01008KT 10SM CLR 20/16 A3018 RMK AO2=
METAR KHTO 081350Z 11005KT 10SM SKC 25/22 A3009 RMK FGBNK S=
METAR KI75 081355Z AUTO 35008KT 7SM CLR 21/18 A3011 RMK AO2=
METAR KICL 081355Z AUTO 02006KT 10SM CLR 23/18 A3013 RMK AO2=
METAR KIFA 081355Z AUTO 34008KT 10SM SCT010 SCT049 SCT080 23/20 
     A3013 RMK AO2=
METAR KIIB 081355Z AUTO 35009KT 10SM CLR 22/19 A3009 RMK AO1=
METAR KIKV 081355Z AUTO 01005KT 10SM CLR 23/20 A3013 RMK AO2=
SPECI KJEF 081400Z 00000KT 10SM SCT006 OVC012 24/23 A3007 RMK AO2=
SPECI KLEB 081400Z 18004KT 5SM HZ OVC015 27/22 A3006 RMK AO2=
METAR KLRJ 081355Z AUTO 00000KT 10SM CLR 21/16 A3018 RMK AO2=
METAR KMPZ 081355Z AUTO 01006KT 10SM SCT007 22/20 A3008 RMK AO2=
METAR KMUT 081355Z AUTO 00000KT 10SM SCT009 25/22 A3006 RMK AO2=
METAR KMXO 081355Z AUTO 35005KT 7SM SCT009 22/20 A3006 RMK AO2=
METAR KORC 081355Z AUTO 32004KT 10SM CLR 21/18 A3018 RMK AO2=
METAR KOXV 081355Z AUTO 35008KT 10SM CLR 23/21 A3010 RMK AO2=
METAR KPEA 081355Z AUTO 33007KT 10SM SCT010 23/20 A3011 RMK AO2=
METAR KRDK 081355Z AUTO 02003KT 10SM CLR 23/18 A3014 RMK AO2=
METAR KRHP 081402Z AUTO 00000KT 10SM CLR 26/20 A3012 RMK AO2=
METAR KSDA 081355Z AUTO 01007KT 10SM CLR 23/19 A3014 RMK AO2=
METAR KSHL 081355Z AUTO 32003KT 10SM CLR 21/17 A3020 RMK AO2=
METAR KTNU 081355Z AUTO 35009KT 10SM SCT012 23/21 A3011 RMK AO2=
METAR KTVK 081355Z AUTO 36008KT 10SM BKN008 20/20 A3012 RMK AO2=
METAR KVTI 081355Z AUTO 34006KT 10SM SCT009 25/21 A3009 RMK AO2=
####018000112####
SAUS46 KOTX 081401 COR
MTRLWS
METAR KLWS 081356Z 07005KT 10SM CLR 17/09 A3005 RMK AO2 SLP165 
T01720094
####018000098####
SAUS41 KGYX 081401
MTRCON
SPECI KCON 081400Z AUTO VRB05KT 6SM HZ SCT016 27/22 A3008 RMK AO2
####018000123####
SAUS44 KMOB 081401 COR
MTRNSE
METAR KNSE 081356Z 33003KT 9SM FEW020 SCT250 29/24 A3004 RMK AO2 
SLP157 T02940239 $
####018000107####
SAUS41 KPHI 081401
MTRNEL
SPECI KNEL 081400Z AUTO 17007KT 7SM BKN012 BKN090 27/22 A3005 RMK 
AO2 $
####018000068####
SABZ23 SBRJ 081400
METAR SBRJ 081400Z 05002KT CAVOK 26/16 Q1017=
####018000068####
SABZ24 SBPP 081400
METAR SBPP 081400Z 01006KT CAVOK 27/12 Q1018=
####018000074####
SABZ19 SBSN 081400
METAR SBSN 081400Z 09013KT 9999 BKN020 30/24 Q1013=
####018000068####
SABZ24 SBCT 081400
METAR SBCT 081400Z 06004KT CAVOK 20/13 Q1022=
####018000227####
SPUS99 KWBC 081402
SPECI
KFRG 081400Z 14007KT 10SM SCT013 SCT025 BKN055 26/23 A3006 RMK
     AO2=
KJEF 081400Z 00000KT 10SM SCT006 OVC012 24/23 A3007 RMK AO2=
KLEB 081400Z 18004KT 5SM HZ OVC015 27/22 A3006 RMK AO2=
####018003743####
SAUS99 KWBC 081402
METAR
KCVX 081355Z AUTO 25007KT 4SM -RA BKN004 OVC060 22/20 A3002 RMK
     AO2=
KFKS 081355Z AUTO 26003KT 10SM OVC017 22/20 A3001 RMK AO2=
KSLH 081355Z AUTO 26003KT 5SM RA SCT007 BKN012 OVC042 22/21 A2999
     RMK AO2=
KSJX 081355Z AUTO 00000KT 1/4SM FG OVC002 20/18 A3000 RMK AO2=
KLDM 081355Z AUTO 24004KT 10SM BKN005 OVC010 23/22 A3002 RMK
     AO2=
KGOV 081355Z AUTO 24003KT 4SM +DZ BKN010 BKN025 OVC038 22/22 A3004
     RMK AO2=
KPZQ 081355Z AUTO 28005KT 7SM -RA SCT013 OVC065 22/22 A3001 RMK
     AO2=
KHYX 081355Z AUTO 25004KT 10SM SCT070 SCT080 26/21 A3002 RMK
     AO2=
KPHN 081355Z AUTO 25003KT 10SM CLR 29/21 A3002 RMK AO2=
KONZ 081357Z AUTO 18004KT 10SM CLR 29/23 A3002 RMK AO2=
KISQ 081356Z AUTO 34005KT 10SM BKN006 OVC010 21/18 A3000 RMK
     AO2=
KRMY 081355Z AUTO 12003KT 10SM CLR 26/22 A3003 RMK AO2=
KOSC 081354Z AUTO 29005KT 5SM -RA SCT018 BKN060 OVC075 23/21 A3001
     RMK AO2=
KTTF 081354Z AUTO 23003KT 10SM SCT075 31/21 A3002 RMK AO2=
KAMN 081355Z AUTO 26006KT 7SM SCT060 24/22 A3001 RMK AO2=
KMCD 081356Z AUTO 25003KT M1/4SM -RA OVC001 20/17 A3001 RMK
     AO2=
KERY 081355Z AUTO 36003KT 10SM OVC003 19/18 A3001 RMK AO2=
KDVP 081356Z AUTO 29006KT 10SM CLR 21/14 A3018 RMK AO2
     T02090143=
KCDD 081351Z AUTO 27005KT 10SM CLR 22/18 A3004 RMK AO2=
KFOZ 081353Z AUTO 24006KT 10SM CLR 20/14 A3007 RMK AO2 LTG DSNT
     N=
KAQP 081354Z AUTO 26006KT 10SM CLR 19/18 A3011 RMK AO2=
KETH 081354Z AUTO 25006KT 10SM CLR 21/16 A3011 RMK AO2=
KXVG 081356Z AUTO 29004KT 10SM CLR 20/15 A3006 RMK AO2=
KORB 081354Z AUTO 27004KT 10SM CLR 19/13 A3002 RMK AO2=
KMZH 081351Z AUTO 30006KT 10SM CLR 20/15 A3006 RMK AO2=
KBFW 081353Z AUTO 27003KT 10SM CLR 24/16 A3002 RMK AO2=
KVWU 081351Z AUTO 23007KT 10SM CLR 20/16 A3005 RMK AO2=
KOWA 081354Z AUTO 31006KT 10SM CLR 20/17 A3012 RMK AO2=
KCDA 081355Z AUTO 17005KT 7SM CLR 28/21 A3009 RMK AO2=
KCSQ 081355Z AUTO 02011KT 10SM CLR 23/20 A3013 RMK AO2=
KDEH 081355Z AUTO 34007KT 10SM CLR 23/17 A3012 RMK AO2=
KDNS 081355Z AUTO 01006KT 10SM CLR 22/16 A3019 RMK AO2=
KEBS 081355Z AUTO 36005KT 10SM CLR 21/17 A3014 RMK AO2=
KEOK 081355Z AUTO 00000KT 10SM SCT009 25/20 A3007 RMK AO2=
KFFL 081355Z AUTO 01005KT 10SM CLR 24/22 A3008 RMK AO2=
KFSW 081355Z AUTO 34004KT 5SM HZ OVC006 24/21 A3007 RMK AO2=
KFXY 081355Z AUTO 33009KT 10SM CLR 20/16 A3014 RMK AO2=
KGGI 081355Z AUTO 35007KT 10SM SCT008 23/20 A3011 RMK AO2=
KHNR 081355Z AUTO 01008KT 10SM CLR 20/16 A3018 RMK AO2=
KHTO 081350Z 11005KT 10SM SKC 25/22 A3009 RMK FGBNK S=
KI75 081355Z AUTO 35008KT 7SM CLR 21/18 A3011 RMK AO2=
KICL 081355Z AUTO 02006KT 10SM CLR 23/18 A3013 RMK AO2=
KIFA 081355Z AUTO 34008KT 10SM SCT010 SCT049 SCT080 23/20 A3013
     RMK AO2=
KIIB 081355Z AUTO 35009KT 10SM CLR 22/19 A3009 RMK AO1=
KIKV 081355Z AUTO 01005KT 10SM CLR 23/20 A3013 RMK AO2=
KLRJ 081355Z AUTO 00000KT 10SM CLR 21/16 A3018 RMK AO2=
KMPZ 081355Z AUTO 01006KT 10SM SCT007 22/20 A3008 RMK AO2=
KMUT 081355Z AUTO 00000KT 10SM SCT009 25/22 A3006 RMK AO2=
KMXO 081355Z AUTO 35005KT 7SM SCT009 22/20 A3006 RMK AO2=
KORC 081355Z AUTO 32004KT 10SM CLR 21/18 A3018 RMK AO2=
KOXV 081355Z AUTO 35008KT 10SM CLR 23/21 A3010 RMK AO2=
KPEA 081355Z AUTO 33007KT 10SM SCT010 23/20 A3011 RMK AO2=
KRDK 081355Z AUTO 02003KT 10SM CLR 23/18 A3014 RMK AO2=
KRHP 081402Z AUTO 00000KT 10SM CLR 26/20 A3012 RMK AO2=
KSDA 081355Z AUTO 01007KT 10SM CLR 23/19 A3014 RMK AO2=
KSHL 081355Z AUTO 32003KT 10SM CLR 21/17 A3020 RMK AO2=
KTNU 081355Z AUTO 35009KT 10SM SCT012 23/21 A3011 RMK AO2=
KTVK 081355Z AUTO 36008KT 10SM BKN008 20/20 A3012 RMK AO2=
KVTI 081355Z AUTO 34006KT 10SM SCT009 25/21 A3009 RMK AO2=
####018000068####
SABZ18 SBRP 081400
METAR SBRP 081400Z 17004KT CAVOK 26/12 Q1020=
####018000074####
SABZ24 SBCG 081400
METAR SBCG 081400Z 06013KT 9999 FEW040 28/08 Q1017=
####018000081####
SABZ24 SBPA 081400
METAR SBPA 081400Z 22002KT 9999 BKN015 BKN030 15/12 Q1021=
####018000081####
SABZ20 SBBE 081400
METAR SBBE 081400Z 13009KT 9999 FEW017 SCT100 31/22 Q1013=
####018000104####
SAUS80 KWBC 081402
METAR
KSYN 081410Z AUTO 30006KT 10SM CLR 22/17 A3011 RMK AO2
     T02170173=
####018000201####
SPUS80 KWBC 081402
SPECI
KGDP 081359Z AUTO 05022KT 1/4SM FG FEW002 BKN006 BKN048 17/17
     A3026 RMK AO2 PK WND 05026/1358 TSNO=
KCON 081400Z AUTO VRB05KT 6SM HZ SCT016 27/22 A3008 RMK AO2=
####018002247####
SAXX60 KWBC 081400 RRC
METAR
KEUF 081358Z AUTO 00000KT 10SM CLR 31/22 A3003 RMK AO2 SLP163
     T03110217 PNO $=
KRYT 081353Z AUTO 00000KT 5SM HZ CLR 30/20 A3004 RMK AO2 SLP154
     T03000200 $=
KCOF 081355Z 02008KT 10SM CLR 28/21 A3001 RMK AOA2 SLP164
     T0285=
KCVS 081355Z 04011KT 10SM FEW070 BKN100 18/14 A3024 RMK AO2A
     SLP213 T01760140 $=
KDMA 081355Z AUTO 08008KT 10SM CLR 30/12 A2993 RMK AO2 SLP059
     T02980117 $=
KLSF 081355Z COR 00000KT 10SM SKC 29/22 A3003 RMK AO2A SLP169
     T02880219 COR 1358$=
KPAM 081355Z 36005KT 10SM CLR 29/24 A3002 RMK AO2A SLP169
     T02900243=
KRND 081355Z 06006KT 5SM -RA BR OVC007 25/24 A2996 RMK AO2A
     RAB1327DZB1338E1340 SLP136 P0002 T02480241=
KHLR 081356Z AUTO 04007KT 9SM FEW009 BKN018 OVC043 26/ A3002 RMK
     AO2 RAE04 SLP159 P0000 T0261 $=
KNBC 081356Z 30006KT 6SM HZ CLR 29/21 A2998 RMK AO2 SLP152
     T02940206 PNO $=
KNFL 081356Z 00000KT 10SM FEW130 SCT160 19/00 A3003 RMK AO2 SLP138
     T01890000=
KNGP 081356Z 10007KT 7SM -RA FEW009 SCT016CB BKN025 27/26 A2984
     RMK AO2 RAB12 SLP105 CB DSNT SW TCU NE-OHD-W TCU DSNT N WR//
     P0007 T02730261 $=
KNLC 081356Z AUTO 32008KT 10SM CLR 18/11 A2985 RMK AO2 SLP107
     T01780106 TSNO $=
KNMM 081356Z 35004KT 10SM FEW250 30/22 A3007 RMK AO2 SLP189
     T03000217=
KNQI 081356Z 02006KT 10SM FEW010CB BKN100 BKN280 28/25 A2985 RMK
     AO2 SLP104 CB DSNT NE AND E-SE AND NW T02830250 $=
KNRS 081356Z 32006KT 10SM FEW008 OVC014 17/14 A2992 RMK AO2 SLP131
     T01670144 $=
KNTU 081356Z 07008KT 10SM FEW020 SCT100 SCT200 28/22 A2999 RMK AO2
     SLP157 T02830217 $=
KNUW 081356Z 00000KT 10SM CLR 17/12 A2998 RMK AO2 SLP157
     T01720117=
KNYL 081355Z 11005KT 10SM FEW120 29/M01 A2975 RMK AO2 SLP070
     T02891011=
PHBK 081356Z AUTO 15005KT 10SM BKN075 24/17 A3000 RMK AO2 SLP161
     T02440172 TSNO $=
KMRT 081353Z AUTO 22004KT 10SM CLR 29/20 A3011 RMK AO2
     T02910198=
KNTU 081356Z 07008KT 10SM FEW020 SCT100 SCT200 28/22 A2999 RMK AO2
     SLP157 T02830217 $=
KNGU 081359Z 06008KT 10SM SCT070 BKN100 28/22 A3001 RMK AO2 SLP162
     T02830217=
KNJM 081357Z AUTO 06008KT 10SM CLR 29/24 A2994 RMK AO2 SLP142
     T02940239 $=
####018000180####
SPXX60 KWBC 081402
SPECI
KIAB 081359Z AUTO 02008KT 10SM OVC009 23/21 A3013 RMK AO2
     SLP191=
KNEL 081400Z AUTO 17007KT 7SM BKN012 BKN090 27/22 A3005 RMK AO2
     $=
####018000433####
SAXX60 KWBC 081400 CCB
METAR
KNJK 081356Z 10003KT 10SM CLR 24/18 A2973 RMK AO2 SLP082
     T02440178=
KABH 081356Z AUTO 00000KT 10SM CLR 14/11 A3036 RMK AO2 SLP237
     T01390106 $=
KNJK 081356Z 10003KT 10SM CLR 24/18 A2973 RMK AO2 SLP082
     T02440178=
K79J 081356Z 00000KT 10SM CLR 31/23 A3004 RMK AO2 SLP166 T03110233
     $=
KINS 081356Z 36006KT 10SM FEW150 18/M11 A2997 RMK AO2 SLP096
     T01781106 $=
####018000271####
SAUS70 KWBC 081402
METAR
PADM 081401Z AUTO 07006KT 10SM BKN070 BKN080 08/07 A3004 RMK AO2
     TSNO T00770072 BKN V SCT SLP159 $=
KFKA 081403Z AUTO 35008KT 10SM CLR 21/18 A3012 RMK AO2
     T02080176=
KRHP 081402Z AUTO 00000KT 10SM CLR 26/20 A3012 RMK AO2=
####018000068####
SABZ19 SBMA 081400
METAR SBMA 081400Z 13006KT CAVOK 32/21 Q1014=
####018000081####
SABZ24 SBNF 081400
METAR SBNF 081400Z 13010KT 9999 FEW045 SCT100 22/18 Q1018=
####018000155####
SAUS70 KWBC 081400 RRE
METAR
KTNU 081355Z AUTO 35009KT 10SM SCT012 23/21 A3011 RMK AO2=
KTVK 081355Z AUTO 36008KT 10SM BKN008 20/20 A3012 RMK AO2=
####018000076####
SABZ22 SBGO 081400
METAR SBGO 081400Z 604010KT 9999 FEW020 27/11 Q1020 =
####018000068####
SABZ23 SBCP 081400
METAR SBCP 081400Z 33004KT CAVOK 26/18 Q1019=
####018000082####
SABZ21 SBJP 081400
METAR SBJP 081400Z 17009KT 9999 BKN020 BKN070 28/23 Q1015 =
####018003684####
SAUS70 KWBC 081400 RRC
METAR
KAWG 081355Z AUTO 36007KT 10SM CLR 25/20 A3007 RMK AO2=
KAXA 081355Z AUTO 35006KT 10SM CLR 21/17 A3015 RMK AO2=
KBNW 081355Z AUTO 33013G20KT 10SM CLR 22/18 A3014 RMK AO2=
KBWD 081355Z AUTO 10006KT 9SM OVC020 24/23 A3005 RMK AO2=
KCAV 081355Z AUTO 35008KT 10SM CLR 22/17 A3014 RMK AO2=
KCBF 081355Z AUTO 01009KT 10SM CLR 22/16 A3016 RMK AO2=
KCCY 081355Z AUTO 34006KT 10SM CLR 22/17 A3012 RMK AO2=
KCIN 081355Z AUTO 01005KT 10SM CLR 21/16 A3017 RMK AO2=
KCNC 081355Z AUTO 01007KT 10SM CLR 22/19 A3011 RMK AO2=
KJZI 081355Z AUTO 31009KT 10SM CLR 31/24 A2996 RMK A02 P000=
KSFB 081353Z 08004KT 10SM SCT027 27/21 A3002=
KSPF 081355Z AUTO 00000KT 10SM CLR 17/12 A3030 RMK AO2=
PADU 081358Z 09020G25KT 10SM -RA OVC021 08/04 A2975 RMK AO2 PK WND
     10027/1259 RAB34 SLP080 P0000 T00830044=
PAGA 081358Z AUTO 00000KT 10SM CLR 10/08 A3007 RMK AO2 SLP226
     T01000083=
PAJZ 081356Z AUTO 00000KT 10SM CLR 08/07 A2999 RMK AO2 PWINO TSNO
     T00770072 SLP145 $=
PAKI 081356Z AUTO 36004KT M1/4SM FG CLR 06/06 A3001 RMK AO2 PWINO
     TSNO T00610061 SLP163 $=
PALG 081356Z AUTO 00000KT 1SM BR BKN003 06/05 A2999 RMK AO2 TSNO
     T00550050 BKN V SCT SLP159=
PARY 081356Z AUTO 36005KT 10SM CLR 15/07 A3005 RMK AO2 PWINO TSNO
     T01500066 SLP178=
TJPS 081350Z 10010KT 8SM FEW030 33/24 A2999 HZ ALQDS=
KHAF 081350Z AUTO 33003KT 7SM OVC006 12/10 A2996 RMK AO2=
KHAI 081355Z AUTO 00000KT 5SM RA SCT034 SCT039 BKN046 25/22 A3005
     RMK AO2=
KHCD 081351Z AUTO 28005KT 10SM CLR 20/15 A3013 RMK AO2
     T01990154=
KHCO 081354Z AUTO 33007KT 10SM CLR 19/16 A3009 RMK AO2=
KHZX 081351Z AUTO 26003KT 10SM CLR 21/15 A3008 RMK AO2=
KIRS 081355Z AUTO 14003KT 10SM SCT060 27/22 A3003 RMK AO2=
KJKJ 081354Z AUTO 30004KT 10SM CLR 21/17 A3008 RMK AO2=
KJMR 081358Z AUTO 28005KT 10SM CLR 21/15 A3011 RMK AO2=
KJYG 081354Z AUTO 00000KT 10SM CLR 22/19 A3016 RMK AO2=
KJYM 081355Z AUTO 00000KT 10SM CLR 27/21 A3006 RMK AO2=
KLJF 081352Z AUTO 30006KT 10SM CLR 22/17 A3013 RMK AO2=
KLVN 081348Z AUTO 27005KT 10SM CLR 21/17 A3012 RMK AO2=
KLWA 081356Z AUTO 00000KT 10SM BKN034 OVC060 24/21 A3003 RMK
     AO2=
KLXL 081354Z AUTO 27005KT 10SM CLR 21/14 A3009 RMK AO2=
KMDS 081345Z AUTO 29008KT 10SM CLR 20/16 A3018 RMK AO2=
KMGN 081355Z AUTO 26003KT 2 1/2SM RA SCT002 OVC008 21/20 A3000 RMK
     AO2=
KMJQ 081352Z AUTO 31004KT 10SM CLR 20/16 A3017 RMK AO2=
KMOP 081354Z AUTO 28005KT 10SM -RA SCT028 SCT039 SCT048 23/23
     A3002 RMK AO2=
KMVE 081354Z AUTO 30004KT 10SM CLR 21/18 A3011 RMK AO2 LTG DSNT
     N=
KOEB 081355Z AUTO 13003KT 10SM CLR 27/22 A3004 RMK AO2=
KONA 081350Z AUTO 33008KT 10SM SCT015 23/18 A3008 RMK AO2=
KOVL 081354Z AUTO 29005KT 10SM CLR 20/15 A3013 RMK AO2
     T01950145=
KOZW 081355Z AUTO 00000KT 10SM CLR 28/20 A3004 RMK AO2=
KPEX 081353Z AUTO 27008KT 10SM CLR 21/16 A3012 RMK AO2
     T02130162=
KRGK 081355Z AUTO 32005KT 10SM CLR 22/17 A3009 RMK AO2=
KRNP 081355Z AUTO 00000KT 10SM CLR 28/21 A3002 RMK AO2=
KROX 081354Z AUTO 28008KT 10SM CLR 18/15 A3004 RMK AO2=
KRQB 081354Z AUTO 00000KT 7SM BKN005 OVC046 23/22 A3003 RMK
     AO2=
KRRT 081354Z AUTO 27008KT 10SM CLR 18/14 A3003 RMK AO2 LTG DSNT
     NE=
KSAZ 081353Z AUTO 26006KT 10SM CLR 20/19 A3010 RMK AO2=
KSGS 081353Z AUTO 31003KT 10SM CLR 22/16 A3011 RMK AO2
     T02200162=
KTEW 081353Z AUTO 00000KT 10SM CLR 27/21 A3003 RMK AO2=
KTOB 081354Z AUTO 33003KT 10SM CLR 20/17 A3013 RMK AO2=
KUKT 081350Z AUTO 00000KT 9SM CLR 29/21 A3006 RMK AO1=
KVLL 081354Z AUTO 24005KT 10SM CLR 31/18 A3005 RMK AO2=
KVVV 081356Z AUTO 26005KT 10SM CLR 21/16 A3012 RMK AO2=
####018000068####
SABZ24 SBLO 081400
METAR SBLO 081400Z 04002KT CAVOK 21/11 Q1021=
####018000401####
SAAW31 KWBC 081330 RRB
METAR
LTAC 081350Z 04006KT 360V090 9999 TS FEW025CB BKN035 28/13 Q1011
     TEMPO -TSRA=
LTAF 081350Z /////KT 9999 SCT035 30/20 Q1007 NOSIG=
LTAI 081350Z 18009KT 9999 SCT030 28/22 Q1007 NOSIG=
LTBA 081350Z 35018KT 9999 BKN035 22/16 Q1012 TEMPO 4000 -TSRA=
LTBJ 081350Z 35020KT 9999 FEW030 28/15 Q1010 NOSIG=
LTBS 081350Z 19010KT 9999 FEW030 31/21 Q1007 NOSIG=
####018003710####
SAUS70 KWBC 081400 RRD
METAR
KY70 081355Z AUTO 00000KT 7SM SCT009 BKN047 BKN110 26/23 A3002 RMK
     AO2 T02610225=
K4I3 081356Z AUTO 00000KT 10SM CLR 28/22 A3009 RMK AO2=
KACB 081355Z AUTO 00000KT 7SM -RA SCT009 SCT012 BKN049 23/22 A3001
     RMK AO2=
KACQ 081359Z AUTO 30006KT 10SM CLR 20/17 A3016 RMK AO2=
KADC 081357Z AUTO 26004KT 10SM CLR 19/15 A3010 RMK AO2=
KADM 081355Z 00000KT 5SM BR SCT008 SCT015 OVC025 26/25 A3005=
KAEL 081351Z AUTO 33007KT 10SM CLR 20/17 A3014 RMK AO2=
KAUM 081355Z AUTO 33008KT 10SM CLR 21/17 A3012 RMK AO2=
KBAX 081355Z AUTO 00000KT 10SM SCT095 27/23 A3000 RMK AO2=
KBDH 081355Z AUTO 28007KT 10SM CLR 20/16 A3013 RMK AO2=
KCAD 081354Z AUTO 27004KT 5SM -RA SCT008 BKN021 OVC039 22/21 A3004
     RMK AO2=
KCBG 081355Z AUTO 28008KT 10SM CLR 22/17 A3010 RMK AO2=
KCFE 081355Z AUTO 27006KT 10SM CLR 22/16 A3013 RMK AO2
     T02150164=
KCFS 081355Z AUTO 29007KT 10SM SCT060 28/21 A3002 RMK AO2=
KCHD 081355Z 02005KT 40SM FEW120 30/07 A2982=
KCKC 081355Z AUTO 26006KT 10SM CLR 21/13 A3005 RMK AO2=
KCKN 081355Z AUTO 29006KT 10SM CLR 19/15 A3008 RMK AO2=
KCNB 081358Z AUTO 25007KT 10SM CLR 22/15 A3014 RMK AO2
     T02230152=
KCOQ 081356Z AUTO 27006KT 10SM CLR 21/18 A3007 RMK AO2=
KCQM 081357Z AUTO 27005KT 10SM CLR 19/16 A3005 RMK AO2 LTG DSNT
     NE=
KCVH 081350Z AUTO 00000KT 6SM OVC008 13/11 A2994 RMK AO1=
KDRM 081356Z AUTO 25004KT 4SM -DZ OVC004 21/21 A2998 RMK AO2=
KDTL 081355Z AUTO 27006KT 10SM CLR 20/11 A3011 RMK AO2=
KDUH 081355Z AUTO 26003KT 10SM CLR 31/20 A3004 RMK AO2=
KDXX 081354Z AUTO 00000KT 10SM CLR 21/19 A3011 RMK AO2=
KEFK 081356Z AUTO 21007KT 7SM CLR 28/22 A3005 RMK AO2=
KELO 081353Z AUTO 25005KT 10SM CLR 20/14 A3003 RMK AO2 LTG DSNT
     N=
KEVM 081352Z AUTO 26007KT 10SM CLR 20/15 A3003 RMK AO1=
KFBL 081354Z AUTO 30005KT 10SM CLR 21/16 A3013 RMK AO2=
KFFX 081355Z AUTO 21005KT 7SM -DZ SCT009 BKN028 OVC034 23/22 A3002
     RMK AO2=
KFPK 081356Z AUTO 00000KT 10SM CLR 26/21 A3002 RMK AO2=
KFSE 081354Z AUTO 24006KT 10SM CLR 18/14 A3007 RMK AO2=
KFSO 081358Z AUTO 00000KT 7SM CLR 30/25 A3001 RMK AO2=
KGYL 081354Z AUTO 28007KT 10SM CLR 21/16 A3013 RMK AO2
     T02080161=
KCSQ 081355Z AUTO 02011KT 10SM CLR 23/20 A3013 RMK AO2=
KDEH 081355Z AUTO 34007KT 10SM CLR 23/17 A3012 RMK AO2=
KDNS 081355Z AUTO 01006KT 10SM CLR 22/16 A3019 RMK AO2=
KEBS 081355Z AUTO 36005KT 10SM CLR 21/17 A3014 RMK AO2=
KEOK 081355Z AUTO 00000KT 10SM SCT009 25/20 A3007 RMK AO2=
KFFL 081355Z AUTO 01005KT 10SM CLR 24/22 A3008 RMK AO2=
KFSW 081355Z AUTO 34004KT 5SM HZ OVC006 24/21 A3007 RMK AO2=
KFXY 081355Z AUTO 33009KT 10SM CLR 20/16 A3014 RMK AO2=
KGGI 081355Z AUTO 35007KT 10SM SCT008 23/20 A3011 RMK AO2=
KHNR 081355Z AUTO 01008KT 10SM CLR 20/16 A3018 RMK AO2=
KHTO 081350Z 11005KT 10SM SKC 25/22 A3009 RMK FGBNK S=
KICL 081355Z AUTO 02006KT 10SM CLR 23/18 A3013 RMK AO2=
KIFA 081355Z AUTO 34008KT 10SM SCT010 SCT049 SCT080 23/20 A3013
     RMK AO2=
KIIB 081355Z AUTO 35009KT 10SM CLR 22/19 A3009 RMK AO1=
KIKV 081355Z AUTO 01005KT 10SM CLR 23/20 A3013 RMK AO2=
KLRJ 081355Z AUTO 00000KT 10SM CLR 21/16 A3018 RMK AO2=
KMPZ 081355Z AUTO 01006KT 10SM SCT007 22/20 A3008 RMK AO2=
KMUT 081355Z AUTO 00000KT 10SM SCT009 25/22 A3006 RMK AO2=
KMXO 081355Z AUTO 35005KT 7SM SCT009 22/20 A3006 RMK AO2=
KORC 081355Z AUTO 32004KT 10SM CLR 21/18 A3018 RMK AO2=
KOXV 081355Z AUTO 35008KT 10SM CLR 23/21 A3010 RMK AO2=
KPEA 081355Z AUTO 33007KT 10SM SCT010 23/20 A3011 RMK AO2=
KRDK 081355Z AUTO 02003KT 10SM CLR 23/18 A3014 RMK AO2=
KSDA 081355Z AUTO 01007KT 10SM CLR 23/19 A3014 RMK AO2=
KSHL 081355Z AUTO 32003KT 10SM CLR 21/17 A3020 RMK AO2=
####018000074####
SABZ23 SBVT 081400
METAR SBVT 081400Z 04007KT 9999 FEW026 27/19 Q1020=
####018000470####
SAAW41 KWBC 081350 RRE
METAR
LTAJ 081350Z 22016KT CAVOK 34/15 Q1007 NOSIG=
LTAN 081350Z 21006KT 9999 SCT040 33/07 Q1009 NOSIG=
LTAU 081350Z 26008KT 9999 SCT040 33/11 Q1008 NOSIG=
LTCC 081350Z 16008KT 130V200 CAVOK 40/02 Q1005 NOSIG=
LTCE 081350Z VRB03KT 9999 SCT030 31/05 Q1016 NOSIG=
LTCG 081350Z 06007KT 9999 FEW035 SCT035 27/22 Q1010 NOSIG=
LTCI 081350Z VRB03KT 070V250 CAVOK 27/15 Q1016 NOSIG=
LTFE 081350Z 26020KT 9999 FEW035 31/17 Q1008 NOSIG=
####018000081####
SABZ20 SBCZ 081400
METAR SBCZ 081400Z 00000KT 9999 FEW020 BKN100 30/25 Q1014=
####018000094####
SABZ21 SBPS 081400
METAR SBPS 081400Z 24005KT 9999 8000NE VCSH SCT020 BKN100 23/19
Q1019=
####018000081####
SABZ19 SBMQ 081400
METAR SBMQ 081400Z 07008KT 9999 SCT020 BKN100 31/26 Q1014=
####018000392####
SAAW34 KWBC 081345 RRC
METAR
OAKN 081350Z 26008KT 9999 FEW170 40/05 Q1006 BLU NOSIG RMK A2972
     DA7100=
OPGD 081400Z NIL=
OPKC 081400Z NIL=
OPKC 081355Z 24010KTS 8000 SCT030 SCT100 33/24 Q1002 NOSIG=
OPLA 081355Z 15010KT 6000 SCT040 36/23 Q1003 NOSIG=
OPNH 081400Z NIL=
OPRN 081400Z NIL=
OPSK 081400Z NIL=
UTTT 081400Z 35002MPS CAVOK 37/08 Q1009 R08R/CLRD70 NOSIG=
####018000896####
SPUS70 KWBC 081402
SPECI
KHRL 081359Z 34008KT 10SM FEW008 SCT021 BKN036 26/26 A2979 RMK
     AO2=
KHUT 081359Z 01009KT 3SM BR BKN007 OVC012 22/21 A3016 RMK AO2 CIG
     005V010=
KRKP 081359Z AUTO 00000KT 3SM VCTS -RA SCT012 SCT022 OVC027 A2987
     RMK AO2 LTG DSNT SW P0000 FZRANO $=
KSGF 081359Z 00000KT 10SM FEW009 BKN019 OVC049 24/22 A3009 RMK
     AO2=
KUGN 081359Z VRB04KT 10SM FEW009 BKN014 BKN022 24/21 A3002 RMK
     AO2=
KSPI 081359Z 31005KT 10SM SCT008 BKN014 BKN027 26/23 A3006 RMK
     AO2=
KFTW 081359Z 14007KT 10SM BKN009 BKN017 OVC060 26/24 A3003 RMK AO2
     CIG 006V011=
KGKY 081400Z 10005KT 10SM SCT008 BKN014 BKN021 26/24 A3005 RMK
     AO2=
KFRG 081400Z 14007KT 10SM SCT013 SCT025 BKN055 26/23 A3006 RMK
     AO2=
KJEF 081400Z 00000KT 10SM SCT006 OVC012 24/23 A3007 RMK AO2=
KLEB 081400Z 18004KT 5SM HZ OVC015 27/22 A3006 RMK AO2=
####018001085####
SAUS80 KWBC 081400 RRA
METAR
KALK 081356Z AUTO 07013KT 10SM CLR 24/11 A3012 RMK AO2 SLP096
     T02440111=
KIKW 081353Z AUTO 27005KT 10SM BKN070 OVC080 25/21 A3001 RMK AO2
     T02470214=
KLND 081353Z AUTO 00000KT 10SM CLR 13/05 A3035 RMK AO2 SLP228
     T01280050=
KLYV 081358Z AUTO 00000KT 10SM CLR 20/16 A3018 RMK AO2=
KROA 081354Z 01008KT 6SM HZ FEW085 31/17 A3009 RMK AO2 SLP173
     T03060167=
KROS 081355Z AUTO 29004KT 10SM CLR 22/16 A3010 RMK AO2
     T02150164=
KTKC 081353Z AUTO 29005KT 10SM CLR 21/15 A3015 RMK AO2
     T02120153=
K29G 081354Z AUTO 00000KT 10SM CLR 28/18 A3009 RMK AO2 T02800184
     PWINO=
KBTR 081353Z 08004KT 10SM SCT005 BKN010 27/24 A3004 RMK AO2 SLP171
     T02670244=
KDAB 081353Z VRB03KT 10SM FEW026 SCT250 28/19 A3002 RMK AO2 SLP163
     T02830194 $=
KFSD 081356Z 00000KT 10SM CLR 21/16 A3018 RMK AO2 SLP213 SCT ABV
     120 T02110156=
KMWN 081353Z 24003KT 3SM BKN/// BKN002 17/15 RMK BBLO BKN ALQDS
     LIMITING VIS TO 3SM HZ VC ALQDS=
KVTI 081355Z AUTO 34006KT 10SM SCT009 25/21 A3009 RMK AO2=
####018000205####
SAUS70 KWBC 081400 CCA
METAR
KGFA 081356Z AUTO 00000KT 10SM CLR 14/08 A3022 RMK AO2 SLP241
     T01440078 $=
KNSE 081356Z 33003KT 9SM FEW020 SCT250 29/24 A3004 RMK AO2 SLP157
     T02940239 $=
####018000071####
SABZ18 SBKP 081400
METAR SBKP 081400Z 02005KT 9000 NSC 23/09 Q1022=
####018001054####
SAUS80 KWBC 081400 CCB
METAR
KMCN 081353Z 30005KT 10SM CLR 30/19 A3004 RMK AO2 SLP166
     T03000194=
KSXT 081356Z AUTO 12007KT 8SM CLR 19/11 A3004 RMK AO2 SLP107
     T01940106 TSNO=
KLAX 081353Z 27006KT 7SM BCFG FEW009 OVC011 16/13 A2992 RMK AO2
     SLP130 T01610128=
KAPN 081354Z 26003KT 9SM BKN047 OVC075 23/21 A3000 RMK AO2 RAE47
     SLP156 P0000 T02280211=
KMHS 081356Z AUTO 00000KT 10SM CLR 12/08 A3003 RMK AO2 SLP154
     T01220078 TSNO=
KBLU 081352Z AUTO 05003KT 10SM CLR 21/03 A3010 RMK AO2 SLP095
     T02060033 TSNO=
KLWS 081356Z 07005KT 10SM CLR 17/09 A3005 RMK AO2 SLP165
     T01720094=
KWMC 081356Z AUTO 01005KT 10SM CLR 20/M04 A3009 RMK AO2 SLP134
     T02001044=
KREO 081352Z AUTO 15003KT 14/M02 A3013 RMK AO2 SLP164 T01441022
     PWINO TSNO=
KRIC 081354Z 14007KT 9SM FEW150 SCT250 31/21 A3000 RMK AO2 SLP161
     T03060211=
KAAT 081355Z AUTO 00000KT 10SM CLR 12/09 A3009 RMK AO2 SLP146
     T01220089 TSNO=
KLWS 081356Z 07005KT 10SM CLR 17/09 A3005 RMK AO2 SLP165
     T01720094=
####018000075####
SANO42 KWBC 081350 RRA
METAR
ENRS 081350Z 17007KT CAVOK 15/10 Q1010=
####018000450####
SAUK39 EGRR 081350 RRA
METAR EGDY 081350Z 21011KT 9999 FEW033 SCT100 BKN220 23/15 Q1018 BLU
 NOSIG=
METAR EGOP 081350Z 21008KT 9999 -RA FEW017 BKN080 17/15 Q1018 BLU=
METAR EGQK 081350Z 23021KT 9999 SCT030 BKN060 18/07 Q1010 BLU NOSIG=
METAR EGUB 081350Z 22008KT 9999 FEW040 BKN200 23/12 Q1018 BLU NOSIG=
METAR EGXX 081350Z AUTO 22008KT 9999NDV // FEW050/// ///// Q////=
METAR EGXZ 081350Z 25016KT 9999 SCT035 BKN200 21/08 Q1016 BLU=
####018000114####
SAUK32 KWBC 081350 RRC
METAR
EGPA 081350Z 22013KT 9999 -RA FEW020CB SCT040 17/10 Q1008=
EGPC 081350Z NIL=
####018000128####
SAUK41 KWBC 081350 RRC
METAR
EGBE 081350Z NIL=
EGDL 081350Z 24007KT 9999 FEW040 SCT150 BKN200 22/09 Q1018
     NOSIG=
####018000073####
SAUK42 KWBC 081350 RRC
METAR
EGPC 081350Z NIL=
EGPU 081350Z NIL=
####018000074####
SABZ21 SBMO 081400
METAR SBMO 081400Z 17004KT 9999 SCT020 27/20 Q1017=
####018000074####
SABZ21 SBTE 081400
METAR SBTE 081400Z 30003KT 9999 BKN020 30/24 Q1014=
####018000080####
SALI20 GLRB 081400
METAR GLRB 081400Z 20006KT 9999 BKN020 30/24 Q1013 NOSIG=
####018000075####
SABZ24 SBUG 081400
METAR SBUG 081400Z 10013KT 9999 FEW015 13/05 Q1021 =
####018000091####
SPUS42 KWBC 081402
SPECI
KFTW 081359Z 14007KT 10SM BKN009 BKN017 OVC060 26/24 A3003=
####018000091####
SPUS42 KWBC 081402
SPECI
KHRL 081359Z 34008KT 10SM FEW008 SCT021 BKN036 26/26 A2979=
####018000091####
SPUS43 KWBC 081402
SPECI
KSGF 081359Z 00000KT 10SM FEW009 BKN019 OVC049 24/22 A3009=
####018000084####
SPUS51 KWBC 081402
SPECI
KCON 081400Z AUTO VRB05KT 6SM HZ SCT016 27/22 A3008=
####018000090####
SATG20 DXXX 081400
METAR DXXX 081400Z 20011KT 9999 FEW016 FEW025CB 28/23 Q1012 NOSIG=
####018000114####
SAUS46 KLOX 081402 COR
MTRNID
METAR KNID 081356Z 00000KT 10SM CLR 22/04 A2989 RMK AO2 SLP100 
T02170039 $
####018000115####
SAUS45 KFGZ 081402 COR
MTRFLG
METAR KFLG 081356Z 00000KT 10SM SCT110 14/02 A3030 RMK AO2 SLP155 
T01440022
####018000122####
SAUS44 KCRP 081402
MTRVCT
SPECI KVCT 081401Z 05010KT 2SM +RA BR SCT015 BKN022 OVC055 25/24 
A2992 RMK AO2 P0010 $
####018000091####
SPUS53 KWBC 081402
SPECI
KSPI 081359Z 31005KT 10SM SCT008 BKN014 BKN027 26/23 A3006=
####018000406####
SATU32 LTAA 081350
METAR LTAN 081350Z 21006KT 9999 SCT040 33/07 Q1009 NOSIG=
METAR LTAU 081350Z 26008KT 9999 SCT040 33/11 Q1008 NOSIG=
METAR LTBR 081350Z 32013KT 9999 SCT035TCU BKN100 23/17 Q1012 TEMPO
-TSRA=
METAR LTBU 081350Z 31014KT 9999 SCT025TCU BKN100 17/14 Q1014 RESHRA=
METAR LTCC 081350Z 16008KT 130V200 CAVOK 40/02 Q1005 NOSIG=
METAR LTCE 081350Z VRB03KT 9999 SCT030 31/05 Q1016 NOSIG=
####018000095####
SAAH39 OAHR 081355
METAR OAHR 081355Z 02009KT CAVOK 37/M02 Q1010 RMK SKC VIS MIN 9999 BLU=
####018000028####
SATU33 LTAA 081350
NIL=
####018000027####
SATU33 LTAA 081350
NIL
####018000181####
SASQ41 LZIB 081400
METAR LZPP 081400Z 36006KT 270V050 CAVOK 25/10 Q1021=
METAR LZSL 081400Z 23004KT CAVOK 27/10 Q1020=
METAR LZZI 081400Z 36007KT 310V050 CAVOK 24/08 Q1021=
####018000958####
SATU31 LTAA 081350
METAR LTAC 081350Z 04006KT 360V090 9999 TS FEW025CB BKN035 28/13
Q1011 TEMPO -TSRA=
METAR LTAF 081350Z /////KT 9999 SCT035 30/20 Q1007 NOSIG=
METAR LTAI 081350Z 18009KT 9999 SCT030 28/22 Q1007 NOSIG=
METAR LTAJ 081350Z 22016KT CAVOK 34/15 Q1007 NOSIG=
METAR LTAZ 081350Z 16006KT 130V220 9999 FEW025CB SCT040 BKN090 34/10
Q1008=
METAR LTBA 081350Z 35018KT 9999 BKN035 22/16 Q1012 TEMPO 4000 -TSRA=
METAR LTBJ 081350Z 35020KT 9999 FEW030 28/15 Q1010 NOSIG=
METAR LTBS 081350Z 19010KT 9999 FEW030 31/21 Q1007 NOSIG=
METAR LTCF 081350Z 11012KT 080V140 CAVOK 30/08 Q1017=
METAR LTCG 081350Z 06007KT 9999 FEW035 SCT035 27/22 Q1010 NOSIG=
METAR LTCI 081350Z VRB03KT 070V250 CAVOK 27/15 Q1016 NOSIG=
METAR LTCS 081350Z 24007KT 170V320 CAVOK 37/06 Q1008=
METAR LTFE 081350Z 26020KT 9999 FEW035 31/17 Q1008 NOSIG=
METAR LTFH 081350Z 04009KT 010V080 9999 SCT036 BKN100 27/23 Q1009
NOSIG=
METAR LTFJ 081350Z NIL=
####018000502####
SATU20 LTAA 081350
METAR LTAB 081350Z 21012KT 9999 TS FEW025CB BKN035 25/15 Q1011 RETSRA
BECMG 03012KT TEMPO -TSRA RMK RWY06 22012KT=
METAR LTAD 081350Z 28010KT 9999 FEW030CB BKN035 23/17 Q1011 RETSRA
TEMPO -TSRA RMK RWY29 22005KT 160V280=
METAR LTAE 081350Z 32011KT 9999 -TSRA FEW030CB BKN035 21/17 Q1011
BECMG TL1450 NSW RMK RWY21 32009KT=
METAR LTAG 081350Z 21012KT 9999 SCT035 31/20 Q1007 NOSIG=
METAR LTAH 081350Z 25013KT 230V290 9999 SCT035 31/08 Q1011 RMK RWY13
26011KT 230=
####018000236####
SAPK31 OPKC 081400 RRA
METAR OPKC 081355Z 24010KTS 8000 SCT030 SCT100 33/24 Q1002 NOSIG=
METAR OPNH 081400Z 04506KT 6000M SCT035 SCT100 34/24 Q.1002=
METAR OPSK 081355Z 13004KTS 5000 HZ SCT040 BKN100 32/25 QNH 1001 R.H.
69PC=
####018000098####
SAFG20 SOCA 081400
METAR SOCA 081400Z 11007KT 070V170 9999 BKN019 SCT043 29/24 Q1013
NOSIG=
####018000199####
SASQ31 LZIB 081400
METAR LZIB 081400Z 36008KT 300V090 CAVOK 26/07 Q1021=
METAR LZKZ 081400Z 02011KT 350V060 CAVOK 24/07 Q1020 NOSIG=
METAR LZTT 081400Z 07012KT 9999 FEW056 22/08 Q1022 NOSIG=
####018000083####
SPAU32 YBBN 081400
SPECI YBMA 081400Z AUTO 00000KT 6000NDV // NCD 08/07 Q1020=
####018000083####
SAHU31 LHBM 081400
METAR LHBP 081400Z 30005KT 250V360 CAVOK 25/12 Q1020 NOSIG=
####018000091####
SPUS72 KWBC 081402
SPECI
KFTW 081359Z 14007KT 10SM BKN009 BKN017 OVC060 26/24 A3003=
####018000091####
SPUS72 KWBC 081402
SPECI
KHRL 081359Z 34008KT 10SM FEW008 SCT021 BKN036 26/26 A2979=
####018000086####
SPUS73 KWBC 081402
SPECI
KHUT 081359Z 01009KT 3SM BR BKN007 OVC012 22/21 A3016=
####018000091####
SPUS73 KWBC 081402
SPECI
KSGF 081359Z 00000KT 10SM FEW009 BKN019 OVC049 24/22 A3009=
####018000091####
SPUS73 KWBC 081402
SPECI
KSPI 081359Z 31005KT 10SM SCT008 BKN014 BKN027 26/23 A3006=
####018001971####
SAUS20 KNKA 081402
METAR K0R3 081359Z AUTO 07006KT 10SM OVC007 27/26 A3003 RMK AO2=
METAR K1A5 081400Z AUTO 00000KT 10SM CLR 25/18 A3016 RMK AO2 
     T02520180=
METAR K47A 081400Z AUTO 35003KT 10SM CLR 31/18 A3008 RMK AO2 
     T03050175=
METAR KASJ 081357Z AUTO 03005KT 7SM CLR 28/23 A2999 RMK AO2=
SPECI KAUS 081401Z 08007KT 2SM RA BR BKN008 OVC014 26/24 A2998 RMK 
    AO2 SFC VIS 2 1/2 P0003=
METAR KBIJ 081400Z AUTO 00000KT 10SM CLR 31/23 A3003 RMK AO2=
METAR KBQP 081407Z AUTO 00000KT 10SM CLR 28/26 A3008 RMK AO2=
METAR KCTZ 081400Z AUTO 02005KT 5SM HZ CLR 31/22 A2997 RMK AO2=
METAR KCWV 081409Z AUTO 30008KT 10SM CLR 32/22 A3000 RMK AO2=
METAR KDPL 081400Z AUTO 01004KT 7SM CLR 30/21 A2997 RMK AO2=
SPECI KDWH 081401Z 06004KT 5SM RA BR BKN027 24/23 A2999 RMK AO2 
    P0001=
METAR KEDE 081356Z AUTO 04005KT 10SM SCT022 29/22 A2998 RMK AO2=
METAR KEXX 081359Z AUTO 34003KT 7SM CLR 29/21 A3002 RMK AO2=
METAR KFQD 081359Z AUTO 32003KT 10SM CLR 31/19 A3006 RMK AO2=
METAR KHBI 081401Z AUTO 02004KT 7SM CLR 31/19 A3003 RMK AO2=
METAR KHRJ 081401Z AUTO 04005KT 7SM CLR 33/22 A2997 RMK AO2=
METAR KJNX 081359Z AUTO 01006KT 10SM CLR 29/21 A2997 RMK AO2=
METAR KJYL 081401Z AUTO 00000KT 10SM CLR 31/22 A3000 RMK AO2=
METAR KLWB 081400Z AUTO 00000KT 7SM SCT060 26/18 A3017 RMK AO2=
SPECI KMLC 081400Z AUTO 18005KT 10SM BKN011 BKN018 OVC027 25/23 
    A3006 RMK AO2=
METAR KMQI 081356Z AUTO 04011G15KT 10SM CLR 28/23 A2997 RMK AO2=
METAR KMWK 081402Z AUTO 02004KT 7SM CLR 31/20 A3007 RMK AO2=
METAR KO22 081355Z AUTO 00000KT 10SM CLR 17/13 A2992 RMK AO1 =
METAR KPGV 081400Z AUTO 03005KT 5SM HZ SCT013 SCT080 28/23 A2999 
     RMK AO2=
METAR KTNB 081401Z AUTO 27004KT 10SM CLR 27/16 A3020 RMK AO2=
METAR KTVI 081400Z AUTO 34004KT 10SM CLR 29/22 A3004 RMK AO2=
METAR KUKF 081401Z AUTO 00000KT 7SM CLR 30/21 A3008 RMK AO1=
METAR KUNV 081400Z AUTO 00000KT 10SM CLR 28/19 A3010 RMK AO2 
     T02810191=
####018000155####
SAJD31 OJAI 081400
METAR OJAI 081400Z NIL=
METAR OJAM 081400Z 29008KT 5000 HZ NSC 32/08 Q1011 NOSIG=
METAR OJAQ 081400Z 35014KT CAVOK 40/30 Q1005=
####018000079####
SAUK38 EGGY 081350 RRA
METAR EGPU 081350Z 23019KT 9999 FEW023 16/12 Q1010=
####018000099####
SAAJ31 UBBB 081400
METAR UBBY 081400Z 13004KT 9999 NSC 34/15 Q1013 NOSIG
RMK R33/CLRD70 G/O=
####018000076####
SAAT31 TAPA 081400
METAR TAPA 081400Z 07010KT 9999  SCT022 30/25 Q1016=
####018000101####
SASR31 WSSL 081400
METAR WSSL 081400Z VRB01KT 9999 FEW018 BKN280 28/23 Q1010 RMK 1030Z
Q1008 =
####018000155####
SAJD20 OJAM 081400
METAR OJAI 081400Z NIL=
METAR OJAM 081400Z 29008KT 5000 HZ NSC 32/08 Q1011 NOSIG=
METAR OJAQ 081400Z 35014KT CAVOK 40/30 Q1005=
####018000102####
SAGY31 SYCJ 081300
METAR SYCJ 081300Z 10010KT 9999 SCT019 SCT300 29/25 Q1013 JP SW AND
N-NE NOSIG=####018000084####
SPUS81 KWBC 081402
SPECI
KCON 081400Z AUTO VRB05KT 6SM HZ SCT016 27/22 A3008=
####018000083####
SACN95 CWAO 081300 RRF
WTD SA 1300 AUTO8 M M M 120/09/09/3608/M/ 1002 55MM=

####018000075####
SACN50 CWAO 081345
VOM SA 1345 AUTO8 M M M M/21/11/3501/M/M M 24MM=

####018000075####
SACN50 CWAO 081330
VOM SA 1330 AUTO8 M M M M/20/11/3402/M/M M 02MM=

####018000075####
SACN50 CWAO 081315
VOM SA 1315 AUTO8 M M M M/20/11/1801/M/M M 44MM=

####018000104####
SACN90 CWAO 081300 RRG
WFX SA 1300 AUTO8 M M M 149/09/05/3212/M/M PK WND 3118 1245Z 1009
41MM=

####018000078####
SACN91 CWAO 081300 RRE
WHI SA 1300 AUTO8 M M M M/14/11/2006/M/ M 97MM=

####018000278####
SACN59 CWAO 081300 RRJ
PEA SA 1300 AUTO8 M M M M/15/11/MMMM/M/ M 04MM=
PSD SA 1300 AUTO8 M M M M/15/12/MMMM/M/ M 76MM=
PSP SA 1300 AUTO8 M M M M/13/10/MMMM/M/ M 93MM=
PTU SA 1300 AUTO8 M M M M/15/12/MMMM/M/ M 48MM=
PWB SA 1300 AUTO8 M M M M/12/09/MMMM/M/ M 09MM=

####018000078####
SACN98 CWAO 081300 RRG
XBW SA 1300 AUTO8 M M M M/12/11/2305/M/ M 16MM=

####018000084####
SACN92 CWAO 081300 RRG
WLG SA 1300 AUTO8 M M M 198/09/06/2704/M/M 1012 62MM=

####018000478####
SACN60 CWAO 081300 RRF
PCC SA 1300 AUTO8 M M M M/15/10/2407/M/ M 21MM=
PDA SA 1300 AUTO8 M M M M/15/10/MMMM/M/ M 80MM=
PDU SA 1300 AUTO8 M M M M/14/12/MMMM/M/ M 89MM=
PEB SA 1300 AUTO8 M M M M/13/10/MMMM/M/ M 22MM=
PGI SA 1300 AUTO8 M M M M/12/10/2107/M/ M 04MM=
PHR SA 1300 AUTO8 M M M M/11/10/2201/M/ M 91MM=
PLF SA 1300 AUTO8 M M M M/16/13/MMMM/M/ M 67MM=
PMN SA 1300 AUTO8 M M M M/13/12/MMMM/M/ M 27MM=
PSL SA 1300 AUTO8 M M M M/14/12/MMMM/M/ M 19MM=

####018000078####
SACN93 CWAO 081300 RRG
WOV SA 1300 AUTO8 M M M M/14/10/1501/M/ M 01MM=

####018000088####
SPUS81 KWBC 081402
SPECI
KNEL 081400Z AUTO 17007KT 7SM BKN012 BKN090 27/22 A3005=
####018001001####
SAEW KAWN 081400 RRC
METAR EBBL 081355Z VRB03KT 9999 FEW060 BKN220 33/10 Q1018 BLU BLU=
METAR EBFN 081355Z 34004KT 9999 FEW042 BKN200 24/16 Q1019 BLU BLU=
METAR EBFS 081355Z 28003KT 9999 FEW250 30/008 Q1020 BLU BLU=
METAR EDHL 081350Z 22007KT 170V280 CAVOK 30/13 Q1019 RMK U=
METAR EDLN 081350Z 24004KT 180V300 CAVOK 32/11 Q1018 RMK ATIS S=
METAR EDLP 081350Z VRB03KT CAVOK 32/11 Q1019 RMK RWY24 TRL60 RG ATIS
      X=
METAR EDLW 081350Z 28006KT 230V320 CAVOK 31/10 Q1019 RMK ATIS V=
METAR EDNY 081350Z 26006KT CAVOK 29/11 Q1021 RMK ATIS U=
METAR EDXW 081350Z 23008KT 9999 FEW040 20/16 Q1019 RMK ATIS INFO A=
METAR EHDL 081355Z AUTO 19005KT 9999NDV SCT070 30/12 Q1018 BLU=
METAR EHKD 081355Z AUTO 25009KT 9999NDV SCT074/// BKN230/// 22/16 Q1019
      BLU BLU=
METAR EHLW 081355Z AUTO 24010KT 9999NDV SCT120 25/18 Q1018 BLU BLU=
METAR EHVL 081355Z AUTO 25010KT 9999NDV BKN079 OVC084 20/15 Q1019 BLU=
METAR EHWO 081355Z AUTO 25006KT 9999NDV FEW130 29/14 Q1018 BLU BLU=
####018000745####
SASA KAWN 081400 RRA
METAR SBAR 081400Z 18008KT 9999 SCT015 28/24 Q1017=
METAR SBBV 081400Z 18005KT 9999 SCT020 SCT070 29/23 Q1014=
METAR SBCF 081400Z 13006KT CAVOK 19/08 Q1023=
METAR SBEG 081400Z 00000KT CAVOK 29/22 Q1013=
METAR SBGL 081400Z 32001KT CAVOK 24/17 Q1018=
METAR SBGR 081400Z 32007KT CAVOK 23/07 Q1022=
METAR SBMN 081400Z 10005KT 9999 FEW015 30/24 Q1013=
METAR SBPP 081400Z 01006KT CAVOK 27/12 Q1018=
METAR SBPV 081400Z 05006KT CAVOK 30/23 Q1013=
METAR SBRB 081400Z 01009KT CAVOK 31/23 Q1014=
METAR SBRF 081400Z 18007KT 9999 FEW020 BKN070 27/22 Q1016=
METAR SBSJ 081400Z 16007KT CAVOK 21/11 Q1022=
METAR SBSP 081400Z 35010KT CAVOK 22/07 Q1023=
METAR SMJP 081400Z 10010KT 9999 SCT020 31/24 Q1013 NOSIG=
####018000410####
SAXX60 KAWN 081400 RRA
METAR KHLR 081356Z AUTO 04007KT 9SM FEW009 BKN018 OVC043 26/ A3002
      RMK AO2 RAE04 SLP159 P0000 T0261 $=
METAR PHBK 081356Z AUTO 15005KT 10SM BKN075 24/17 A3000 RMK AO2 SLP161
      T02440172 TSNO $=
METAR PHNY 081356Z AUTO 00000KT BKN043 BKN050 19/17 A3005 RMK AO2 TSNO
      T01880172 BKN V SCT SLP155 $=
METAR PWAK 081356Z 08012KT 8SM FEW025 27/25 A2996 RMK AO2A=
####018001543####
SAUS17 KAWN 081400 RRC
METAR KCOF 081355Z 02008KT 10SM CLR 28/21 A3001 RMK AOA2 SLP164 T0285=
METAR KCVS 081355Z 04011KT 10SM FEW070 BKN100 18/14 A3024 RMK AO2A
      SLP213 T01760140 $=
METAR KDMA 081355Z AUTO 08008KT 10SM CLR 30/12 A2993 RMK AO2 SLP059
      T02980117 $=
METAR KEDW 081355Z VRB02KT 90SM FEW100 17/03 A2990 RMK AO2A SLP080
      T01690028=
METAR KFAF 081355Z 07005KT 10SM FEW180 29/22 A3000 RMK AO2A SLP160
      T02850221=
METAR KFFO 081355Z 00000KT 7SM CLR 29/21 A3008 RMK AO2A SLP178=
METAR KHLR 081356Z AUTO 04007KT 9SM FEW009 BKN018 OVC043 26/ A3002
      RMK AO2 RAE04 SLP159 P0000 T0261 $=
METAR KHOP 081355Z AUTO 27004KT 10SM CLR 31/22 A3009 RMK AO2 SLP184
      T03050223=
METAR KLFI 081355Z 08007KT 10SM FEW013 BKN100 BKN250 27/17 A3001 RMK
      AO2A SLP164 T02730174 $=
METAR KLSF 081355Z COR 00000KT 10SM SKC 29/22 A3003 RMK AO2A SLP169
      T02880219 COR 1358$=
METAR KNBC 081356Z 30006KT 6SM HZ CLR 29/21 A2998 RMK AO2 SLP152 T02940206
      PNO $=
METAR KNBG 081355Z 10006KT 10SM SCT015 BKN250 28/24 A3004 RMK AO2 SLP173
      T02830244 $=
METAR KNCA 081356Z 05006KT 6SM HZ CLR 30/24 A2995 RMK AO2 SLP142 T03000244=
METAR KNJK 081356Z 10003KT 10SM CLR 24/18 A2973 RMK AO2 SLP082 T02440178=
METAR KNJK 081356Z 10003KT 10SM CLR 24/18 A2973 RMK AO2 SLP082 T02440178=
METAR KNRS 081356Z 32006KT 10SM FEW008 OVC014 17/14 A2992 RMK AO2 SLP131
      T01670144 $=
METAR PPIZ 081356Z AUTO 20007KT 10SM CLR 06/02 A3007 RMK AO2 TSNO T00610022
      SLP185 $=
####018000918####
SAXN17 KAWN 081400 RRD
METAR MDSD 081400Z 06005KT 9999 SCT020 30/24 Q1015=
METAR MTPP 081400Z 7000 FEW026 SCT200 31/24 Q1016 A2999=
METAR MUHA 081355Z 09004KT 040V170 8000 FEW040 29/24 Q1015=
METAR MYNN 081400Z 21003KT 9999 VCSH SCT014CB SCT015TCU BKN220 30/25
      A2997=
METAR NWWW 081400Z AUTO 13002KT 9999NDV NCD 16/15 Q1015=
METAR PACZ 081355Z AUTO 04010KT 10SM 10/08 A3003 RMK AO1 T01000084=
METAR PAGA 081358Z AUTO 00000KT 10SM CLR 10/08 A3007 RMK AO2 SLP226
      T01000083=
METAR PKWA 081400Z AUTO 12004KT 10SM BKN026 BKN080 26/24 A2982 RMK
      AO2 T02580235=
METAR RJOI 081400Z 00000KT 9000 HZ FEW045 SCT120 OVC230 26/22 A2982
      RMK SLP098 LAST T02610217=
METAR TAPA 081400Z 07010KT 9999 SCT022 30/25 Q1016=
METAR TFFF 081400Z 08015KT 9999 BKN028 30/25 Q1014 NOSIG=
METAR TXKF 081355Z 12015KT 9999 SCT020CB SCT033 BKN130 BKN300 27/24
      Q1019 RMK CB DSNT SE-SW=
####018000120####
SAXN17 KAWN 081300 RRN
METAR MMAS 081340Z 03004KT 8SM SCT020 BKN070 OVC200 18/14 A3010 RMK
      8/537 HZ BINOVC=
####018001487####
SAUK KAWN 081400 RRB
METAR EGAE 081350Z 23010KT 9999 FEW020 BKN040 18/10 Q1012=
METAR EGBJ 081350Z 23008KT 200V280 9999 FEW045 23/07 Q1018=
METAR EGDL 081350Z 24007KT 9999 FEW040 SCT150 BKN200 22/09 Q1018 BLU
      NOSIG=
METAR EGDX 081350Z 29007KT 9999 FEW020 20/11 Q1018 BLU=
METAR EGEC 081350Z 25010KT 9999 FEW032 18/09 Q1013=
METAR EGNC 081350Z 23016KT 190V270 9999 SCT035 19/09 Q1015=
METAR EGNH 081350Z 24012KT 9999 FEW031 19/11 Q1017=
METAR EGNJ 081350Z 22010KT 9999 SCT040 23/09 Q1017=
METAR EGPA 081350Z 22013KT 9999 -RA FEW020CB SCT040 17/10 Q1008=
METAR EGPE 081350Z 22019G29KT 180V240 9999 FEW018 SCT045 18/09 Q1010=
METAR EGPL 081350Z 22021KT 9999 FEW018 16/12 Q1009=
METAR COR EGPM 081350Z 22020KT 9999 FEW026 16/10 Q1007 NOSIG=
METAR EGPN 081350Z 24020KT 9999 SCT045 18/11 Q1012=
METAR EGPO 081350Z 22024G35KT 9999 VCSH FEW024 SCT034 18/10 Q1007=
METAR EGQL 081350Z 24021KT 9999 FEW045 SCT150 BKN250 21/06 Q1012 BLU
      NOSIG=
METAR EGSC 081350Z 21006KT 090V270 9999 FEW038 23/12 Q1018=
METAR COR EGSH 081350Z 23008KT 190V280 9999 SCT033 25/13 Q1018 NOSIG=
METAR EGUW 081350Z 23007KT 9999 SCT040 BKN250 24/13 Q1018 BLU NOSIG=
METAR EGVA 081355Z AUTO 24006KT 9999 FEW120 SCT170 SCT190 SCT210 23/09
      A3006 RMK AO2 DZE1256 SLP178 T02290088=
METAR EGVP 081350Z 21009KT 9999 FEW038 SCT180 23/13 Q1018 BLU=
METAR EGXD 081350Z 24014KT CAVOK 22/08 Q1016 BLU NOSIG=
METAR EGYD 081350Z 25009KT CAVOK 23/10 Q1017 BLU NOSIG=
####018001550####
SANA35 KAWN 081400 RRB
METAR KACY 081354Z 12004KT 4SM -RA BR SCT022 BKN060 24/22 A3005 RMK
      AO2 SLP176 P0003 T02390222=
METAR KCHS 081356Z 33007KT 8SM CLR 30/21 A2996 RMK AO2 SLP144 T03000206=
METAR KCOF 081355Z 02008KT 10SM CLR 28/21 A3001 RMK AOA2 SLP164 T0285=
METAR KDAB 081353Z VRB03KT 10SM FEW026 SCT250 28/19 A3002 RMK AO2 SLP163
      T02830194 $=
METAR KDAB 081353Z VRB03KT 10SM FEW026 SCT250 28/19 A3002 RMK AO2 SLP163
      T02830194 $=
METAR KLFI 081355Z 08007KT 10SM FEW013 BKN100 BKN250 27/17 A3001 RMK
      AO2A SLP164 T02730174 $=
METAR KNBC 081356Z 30006KT 6SM HZ CLR 29/21 A2998 RMK AO2 SLP152 T02940206
      PNO $=
METAR KNBG 081355Z 10006KT 10SM SCT015 BKN250 28/24 A3004 RMK AO2 SLP173
      T02830244 $=
METAR KNCA 081356Z 05006KT 6SM HZ CLR 30/24 A2995 RMK AO2 SLP142 T03000244=
METAR KNGP 081356Z 10007KT 7SM -RA FEW009 SCT016CB BKN025 27/26 A2984
      RMK AO2 RAB12 SLP105 CB DSNT SW TCU NE-OHD-W TCU DSNT N WR//
      P0007 T02730261 $=
METAR KNTU 081356Z 07008KT 10SM FEW020 SCT100 SCT200 28/22 A2999 RMK
      AO2 SLP157 T02830217 $=
METAR KPAM 081355Z 36005KT 10SM CLR 29/24 A3002 RMK AO2A SLP169 T02900243=
METAR KVPS 081355Z 33003KT 10SM FEW250 29/24 A3004 RMK SLP173 T02880238
      $=
METAR MDSD 081400Z 06005KT 9999 SCT020 30/24 Q1015=
METAR MTPP 081400Z 7000 FEW026 SCT200 31/24 Q1016 A2999=
METAR TFFF 081400Z 08015KT 9999 BKN028 30/25 Q1014 NOSIG=
METAR TXKF 081355Z 12015KT 9999 SCT020CB SCT033 BKN130 BKN300 27/24
      Q1019 RMK CB DSNT SE-SW=
####018000947####
SAXX70 KAWN 081400 RRF
METAR KQA7 081355Z AUTO 21006KT 9000 DU HZ CLR 38/M02 A2987 RMK AO2
      SLP004 T03821016=
METAR KQBS 081355Z 33015G22KT 9000 BLDU CLR 47/01 A2945 RMK SLP979
      WND/ALSTG/SLP/QNH ESTMD QNH997=
METAR KQGX 081355Z 01010KT 9999 CLR 42/23 A2951 RMK AO2A SLP991 T04200228=
METAR KQIR 081355Z AUTO 04011G17KT 9999 CLR 40/26 A2949 RMK AO2 SLP986
      T03960257=
METAR KQQY 081355Z AUTO VRB02KT 9999 FEW080 SCT140 27/21 A3002 RMK
      AO2 SLP147 T02730210 $=
METAR KQRY 081355Z AUTO 04004KT 9999 CLR 30/02 A3009 RMK AO2 SLP050
      T02980019 PWINO $=
METAR KQW3 081355Z AUTO VRB06KT 9999 CLR 34/13 A2976 RMK AO2 SLP991=
METAR KQEN 081400Z AUTO 27004KT 6SM BR BKN070 18/16 A3042 RMK A02=
METAR KQEP 081400Z AUTO 21002KT 4SM -SHRA BKN060 22/19 A2990 RMK A02=
METAR KQER 081400Z AUTO 05001KT 2SM BR BKN003 21/19 A2992 RMK A02=
METAR KQEV 081410Z AUTO 25002KT 4SM -SHRA CLR 22/19 A2981 RMK A02=
####018000072####
SABZ18 SBKP 081400
METAR SBKP 081400Z 02005KT 9000 NSC 23/09 Q1022=
####018000131####
SAUS46 KLOX 081402 COR
MTRVBG
METAR KVBG 081355Z 32004KT 4SM BR OVC004 12/11 A2995 RMK AO2 CIG 
002V006 SLP132 T01170111 $
####018000124####
SAUS46 KSEW 081402 COR
MTRSMP
METAR KSMP 081356Z AUTO 00000KT 10SM CLR 17/05 A3016 RMK AO2 SLP180 
T01720050 TSNO $
####018001639####
SAZZ40 KAWN 081400 RRK
METAR KHIF 081355Z 09013KT 10SM CLR 19/06 A3015 RMK AO2A SLP106 T01910063
      $=
METAR MTPP 081400Z 7000 FEW026 SCT200 31/24 Q1016 A2999=
METAR MUCF 081358Z 19003KT 9999 FEW020 SCT200 29/24 Q1013=
METAR MUCL 081350Z 15007KT 9999 FEW018 29/26 Q1015=
METAR MUCM 081353Z 20006KT 180V260 9000 FEW020 29/23 Q1015=
METAR MUCU 081353Z 16004KT 110V200 9999 SCT025CB 28/23 Q1016=
METAR MUHA 081355Z 09004KT 040V170 8000 FEW040 29/24 Q1015=
METAR MUHG 081350Z VRB02KT 9000 FEW020 30/22 Q1016=
METAR MUMZ 081349Z 00000KT 9000 FEW025 XX/XX Q1015=
METAR MUVR 081400Z /////KT 9000 FEW020 29/23 Q1015=
METAR NTAA 081400Z AUTO 15006KT 9999NDV NCD 25/22 Q1014=
METAR OAHR 081355Z 02009KT CAVOK 37/M02 Q1010 RMK SKC VIS MIN 9999
      BLU=
METAR OEDR 081400Z 03011KT 8000 SKC 39/21 Q0997 NOSIG=
METAR OEMA 081400Z 09010KT 9999 SCT045 47/M04 Q1003 NOSIG=
METAR OERK 081400Z 01016KT 8000 SKC 42/M02 Q1006 NOSIG=
METAR OERY 081400Z 05020KT 6000 BLDU SKC 43/00 Q1006 NOSIG=
METAR OJAM 081400Z 29008KT 5000 HZ NSC 32/08 Q1011 NOSIG=
METAR OJAQ 081400Z 35014KT CAVOK 40/30 Q1005=
METAR PAGA 081358Z AUTO 00000KT 10SM CLR 10/08 A3007 RMK AO2 SLP226
      T01000083=
METAR PASY 081356Z AUTO 02016KT 8SM OVC002 A2974 RMK AO2 SLPNO TSNO
      PNO=
METAR RJSM 081400Z 09003KT 7000 FEW005 SCT/// 18/16 Q1010 RMK 1ST005
      A2984 WIND BY EQPT/10=
METAR TAPA 081400Z 07010KT 9999 SCT022 30/25 Q1016=
METAR TFFF 081400Z 08015KT 9999 BKN028 30/25 Q1014 NOSIG=
METAR WSAP 081400Z 26001KT 9999 FEW016 BKN300 29/24 Q1010=
METAR WSSS 081400Z 23002KT 9999 FEW016 BKN300 28/24 Q1010 NOSIG=
####018000099####
SAHK31 VHHH 081400
METAR VHHH 081400Z 19007KT 150V240 9999 FEW020 SCT030 31/25 
Q1008 NOSIG=
####018000286####
SAAK41 KNKA 081402
SPECI PALG 081358Z AUTO 00000KT 1 3/4SM BR BKN003 06/05 A2999 RMK 
    AO2 TSNO BKN V SCT VIS 1V5=
SPECI PASN 081400Z 06012KT 3/4SM BR VV001 05/05 A2992 RMK AO2=
METAR PAVC 081356Z AUTO 07005KT 10SM 08/08 A2990 RMK AO2 PWINO TSNO 
    T00770077 SLP126 $=
####018000099####
SAGY31 SYCJ 081400
METAR SYCJ 081400Z 11012KT 9999 SCT019 SCT039 BKN300 28/26 Q1013 RESH
NOSIG=####018000916####
SACH71 SCSC 081400
METAR
SCAR 081400Z VRB01KT 9999 OVC021 15/09 Q1016=
SCDA 081400Z 01006KT 9999 OVC026 15/08 Q1017=
SCCF 081400Z 10021KT CAVOK 09/M09 Q1025=
SCFA 081400Z VRB02KT 9999 BKN023 14/07 Q1017 NOSIG=
SCIP 081400Z 10003KT 9999 SCT020 18/17 Q1023=
SCAT 081400Z 04006KT 020V080 5000 BR OVC006 10/09 Q1018=
SCSE 081400Z 31003KT CAVOK 11/08 Q1018 NEFO PLAYA SKC=
SCER 081400Z VRB03KT 9000 2000NE SKC 11/08 Q1021
=
SCVM NIL=
SCRD 081400Z 18012KT CAVOK 11/04 Q1021=
SCSN 081400Z 09004KT CAVOK 10/07 Q1024=
SCEL 081400Z 30004KT 5000 HZ FEW130 05/03 Q1023 NOSIG=
SCTB 081400Z VRB02KT 9999 FEW090 08/05 Q1023 RMK/FU AL W=
SCRG 081400Z 00000KT 9999 BKN120 06/05 Q1023=
SCIC 081400Z 01004KT 9999 BKN050 07/06 Q1021=
SCCH 081400Z 03010KT 2000 DZ SCT010 OVC025 09/08 Q1021=
SCIE 081400Z 29012KT 9999 BKN008 OVC012 13/11 Q1020=
SCGE 081400Z 33005KT 5000 VCRA BKN003 10/10 Q1019=
####018001715####
SAEU KAWN 081400 RRJ
METAR EBBL 081355Z VRB03KT 9999 FEW060 BKN220 33/10 Q1018 BLU BLU=
METAR EBFN 081355Z 34004KT 9999 FEW042 BKN200 24/16 Q1019 BLU BLU=
METAR EBFS 081355Z 28003KT 9999 FEW250 30/008 Q1020 BLU BLU=
METAR EGDY 081350Z 21011KT 9999 FEW033 SCT100 BKN220 23/15 Q1018 BLU
      NOSIG=
METAR EGEC 081350Z 25010KT 9999 FEW032 18/09 Q1013=
METAR EGOP 081350Z 21008KT 9999 -RA FEW017 BKN080 17/15 Q1018 BLU=
METAR EGPA 081350Z 22013KT 9999 -RA FEW020CB SCT040 17/10 Q1008=
METAR EGPU 081350Z 23019KT 9999 FEW023 16/12 Q1010=
METAR EGQK 081350Z 23021KT 9999 SCT030 BKN060 18/07 Q1010 BLU NOSIG=
METAR ENRS 081350Z 17007KT CAVOK 15/10 Q1010=
METAR LBBG 081400Z 27006MPS 9000 RA SCT023 BKN038 OVC050 17/16 Q1014
      NOSIG=
METAR LBGO 081400Z 28003MPS 250V310 9999 -RA SCT013 BKN025 OVC040 16/15
      Q1017 NOSIG=
METAR LBPD 081400Z 26004MPS 9999 -RA OVC040 17/15 Q1017 NOSIG=
METAR LBSF 081400Z 28006MPS 9999 -RA SCT026 BKN040 17/12 Q1019 NOSIG=
METAR LBWN 081400Z 30006MPS 260V350 9999 FEW030 SCT045 21/16 Q1013
      NOSIG=
METAR LDDU 081400Z 26012KT 230V300 9999 FEW045 25/14 Q1018 NOSIG=
METAR LDPL 081400Z 27011KT 240V300 CAVOK 26/11 Q1021 NOSIG=
METAR LDRI 081400Z 29004KT 230V330 9999 FEW047 27/10 Q1021 NOSIG=
METAR LDSP 081400Z 23011KT 190V260 CAVOK 29/09 Q1019 NOSIG=
METAR LDZA 081400Z VRB04KT CAVOK 27/09 Q1021 NOSIG=
METAR LDZD 081400Z 30014KT 260V350 CAVOK 28/07 Q1020=
METAR LHBP 081400Z 30005KT 250V360 CAVOK 25/12 Q1020 NOSIG=
METAR LIYW 081355Z AUTO VRB05KT 9999 FEW049 27/16 A3016 RMK AO2 SLP212
      T02710161=
METAR LZIB 081400Z 36008KT 300V090 CAVOK 26/07 Q1021=
METAR LZTT 081400Z 07012KT 9999 FEW056 22/08 Q1022 NOSIG=
####018000086####
SAGD31 TGPY 081400
METAR TGPY 081400Z 11010KT 9999 SCT019 SCT035 BKN270 28/26 Q1013=####018001060####
SACH72 SCSC 081400
METAR
SCEL 081400Z 30004KT 5000 HZ FEW130 05/03 Q1023 NOSIG=
SCIE 081400Z 29012KT 9999 BKN008 OVC012 13/11 Q1020=
SCTC 081400Z 30006KT 260V340 9999 FEW009 BKN015 11/09 Q1017=
SCPC NIL=
SCVD 081400Z 26010KT 9999 BKN020TCU 10/09 Q1016 HR90=
SCJO 081400Z 18012KT 150V260 5000 SHRA SCT012 BKN030 09/07
Q1014=
SCTE 081400Z 18007KT 9999 BKN009 BKN025 06/06 Q1016 NOSIG=
SCMK NIL=
SCON NIL=
SCFT 081400Z 32011 9999 BKN040 03/M00 Q1010=
SCAP 081400Z 23009KT 9999 SCT040 04/M02 Q1015=
SCAS 081400Z 27010KT 9999 -SHRA BKN020 02/01 Q1010=
SCCY 081400Z 04003KT 89000 -SHRA BKN025 00/M00 Q1009=
SCBA 081400Z 31017KT 9999 FEW030 SCT035 M01/M04 Q1003=
SCCC 081400Z 15006KT 9999 FEW040 00/M03 Q1003=
SCHR 081400Z 00000KT 9999 BKN030 M01/M02 Q1003=
SCNT 081400Z 32024G35KT 9999 BKN020 03/M05 Q0989=
SCCI 081400Z 30021KT 9999 BKN018 M02/M04 Q0985 NOSIG=
SCFM 081400Z 02013KT 9999 BKN030 M01/M03 Q0985=
SCGZ 081400Z 18003KT 9999 FEW046 SCT150 M02/M03 Q0983=
SCRM 081400Z 36018KT 0500 FG OVC001 M01/M01 Q0988
=
####018000085####
SABR31 TBPB 081400
METAR TBPB 081400Z 09020KT 9999 BKN014 BKN280 31/25 Q1014 NOSIG=####018000857####
SACH10 SCSC 081400
METAR
SCAR 081400Z VRB01KT 9999 OVC021 15/09 Q1016=
SCDA 081400Z 01006KT 9999 OVC026 15/08 Q1017=
SCFA 081400Z VRB02KT 9999 BKN023 14/07 Q1017 NOSIG=
SCCF 081400Z 10021KT CAVOK 09/M09 Q1025=
SCAT 081400Z 04006KT 020V080 5000 BR OVC006 10/09 Q1018=
SCIP 081400Z 10003KT 9999 SCT020 18/17 Q1023=
SCSE 081400Z 31003KT CAVOK 11/08 Q1018 NEFO PLAYA SKC=
SCEL 081400Z 30004KT 5000 HZ FEW130 05/03 Q1023 NOSIG=
SCIE 081400Z 29012KT 9999 BKN008 OVC012 13/11 Q1020=
SCTC 081400Z 30006KT 260V340 9999 FEW009 BKN015 11/09 Q1017=
SCJO 081400Z 18012KT 150V260 5000 SHRA SCT012 BKN030 09/07
Q1014=
SCTE 081400Z 18007KT 9999 BKN009 BKN025 06/06 Q1016 NOSIG=
SCBA 081400Z 31017KT 9999 FEW030 SCT035 M01/M04 Q1003=
SCCI 081400Z 30021KT 9999 BKN018 M02/M04 Q0985 NOSIG=
SCNT 081400Z 32024G35KT 9999 BKN020 03/M05 Q0989=
####018002997####
SAUS20 KNKA 081402
METAR KRIC 081354Z 14007KT 9SM FEW150 SCT250 31/21 A3000 RMK AO2
     SLP161 T03060211=
METAR KAMN 081355Z AUTO 26006KT 7SM SCT060 24/22 A3001 RMK AO2=
METAR KAQP 081354Z AUTO 26006KT 10SM CLR 19/18 A3011 RMK AO2=
METAR KBFW 081353Z AUTO 27003KT 10SM CLR 24/16 A3002 RMK AO2=
METAR KCDA 081355Z AUTO 17005KT 7SM CLR 28/21 A3009 RMK AO2=
METAR KCDD 081351Z AUTO 27005KT 10SM CLR 22/18 A3004 RMK AO2=
METAR KCVX 081355Z AUTO 25007KT 4SM -RA BKN004 OVC060 22/20 A3002
     RMK AO2=
METAR KDMA 081355Z AUTO 08008KT 10SM CLR 30/12 A2993 RMK AO2 SLP059
      T02980117 $=
METAR KDVP 081356Z AUTO 29006KT 10SM CLR 21/14 A3018 RMK AO2
     T02090143=
SPECI KDXR 081401Z 14003KT 2 1/2SM -RA BR FEW007 BKN016 OVC034 24/24 
    A3008 RMK AO2 P0001=
METAR KERY 081355Z AUTO 36003KT 10SM OVC003 19/18 A3001 RMK
     AO2=
METAR KETH 081354Z AUTO 25006KT 10SM CLR 21/16 A3011 RMK AO2=
METAR KFAF 081355Z 07005KT 10SM FEW180 29/22 A3000 RMK AO2A SLP160
      T02850221=
METAR KFKS 081355Z AUTO 26003KT 10SM OVC017 22/20 A3001 RMK
     AO2=
METAR KFOZ 081353Z AUTO 24006KT 10SM CLR 20/14 A3007 RMK AO2 LTG
     DSNT N=
METAR KGOV 081355Z AUTO 24003KT 4SM +DZ BKN010 BKN025 OVC038 22/22
     A3004 RMK AO2=
METAR KHYX 081355Z AUTO 25004KT 10SM SCT070 SCT080 26/21 A3002 RMK
     AO2=
METAR KISQ 081356Z AUTO 34005KT 10SM BKN006 OVC010 21/18 A3000 RMK
     AO2=
SPECI KJCT 081358Z AUTO 04003KT 10SM BKN010 OVC022 25/22 A3004 RMK
     AO2 CIG 007V012 TSNO=
METAR KLDM 081355Z AUTO 24004KT 10SM BKN005 OVC010 23/22 A3002 RMK
     AO2=
METAR KLFI 081355Z 08007KT 10SM FEW013 BKN100 BKN250 27/17 A3001 RMK
      AO2A SLP164 T02730174 $=
METAR KMCD 081356Z AUTO 25003KT M1/4SM -RA OVC001 20/17 A3001 RMK
     AO2=
SPECI KMKO 081402Z AUTO 11003KT 9SM -RA BKN005 OVC009 24/23 A3007 
    RMK AO2 P0000=
METAR KMZH 081351Z AUTO 30006KT 10SM CLR 20/15 A3006 RMK AO2=
METAR KNBG 081355Z 10006KT 10SM SCT015 BKN250 28/24 A3004 RMK AO2 SLP173
      T02830244 $=
METAR KNCA 081356Z 05006KT 6SM HZ CLR 30/24 A2995 RMK AO2 SLP142 T03000244=
METAR KONZ 081357Z AUTO 18004KT 10SM CLR 29/23 A3002 RMK AO2=
METAR KORB 081354Z AUTO 27004KT 10SM CLR 19/13 A3002 RMK AO2=
METAR KOSC 081354Z AUTO 29005KT 5SM -RA SCT018 BKN060 OVC075 23/21
     A3001 RMK AO2=
METAR KOWA 081354Z AUTO 31006KT 10SM CLR 20/17 A3012 RMK AO2=
METAR KPHN 081355Z AUTO 25003KT 10SM CLR 29/21 A3002 RMK AO2=
METAR KPZQ 081355Z AUTO 28005KT 7SM -RA SCT013 OVC065 22/22 A3001
     RMK AO2=
METAR KRMY 081355Z AUTO 12003KT 10SM CLR 26/22 A3003 RMK AO2=
SPECI KSBM 081401Z AUTO 26005KT 10SM SCT012 BKN017 25/22 A3001 RMK 
    AO2=
METAR KSJX 081355Z AUTO 00000KT 1/4SM FG OVC002 20/18 A3000 RMK
     AO2=
METAR KSLH 081355Z AUTO 26003KT 5SM RA SCT007 BKN012 OVC042 22/21
     A2999 RMK AO2=
METAR KTTF 081354Z AUTO 23003KT 10SM SCT075 31/21 A3002 RMK
     AO2=
METAR KVWU 081351Z AUTO 23007KT 10SM CLR 20/16 A3005 RMK AO2=
####018000085####
SAUS20 KNKA 081402
METAR KXVG 081356Z AUTO 29004KT 10SM CLR 20/15 A3006 RMK AO2=
####018000084####
SABC40 FBSK 081400
METAR FBSK 081400Z 07016KT 9999 SCT020 20/07 Q1028 NOSIG=

####018000428####
SAMC31 GMMC 081400
METAR GMAD 081400Z 25010KT 9999 FEW020 29/17 Q1014 NOSIG=
METAR GMFF 081400Z 30008KT 8000 SCT030 SCT033CB SCT100 34/19 Q1017
NOSIG=
METAR GMME 081400Z 33007KT 6000 SCT010 SCT016 26/19 Q1016 NOSIG=
METAR GMMN 081400Z VRB09KT CAVOK 29/18 Q1016 NOSIG=
METAR GMMX 081400Z 31006KT 250V360 8000 FEW026TCU 38/15 Q1016 NOSIG=
METAR GMTT 081400Z 27007KT 240V300 8000 FEW016 SCT100 27/19 Q1016
NOSIG=
####018003699####
SAUS99 KWBC 081403
METAR
K0R3 081359Z AUTO 07006KT 10SM OVC007 27/26 A3003 RMK AO2=
K1A5 081400Z AUTO 00000KT 10SM CLR 25/18 A3016 RMK AO2
     T02520180=
K47A 081400Z AUTO 35003KT 10SM CLR 31/18 A3008 RMK AO2
     T03050175=
KASJ 081357Z AUTO 03005KT 7SM CLR 28/23 A2999 RMK AO2=
KBIJ 081400Z AUTO 00000KT 10SM CLR 31/23 A3003 RMK AO2=
KBQP 081407Z AUTO 00000KT 10SM CLR 28/26 A3008 RMK AO2=
KCTZ 081400Z AUTO 02005KT 5SM HZ CLR 31/22 A2997 RMK AO2=
KCWV 081409Z AUTO 30008KT 10SM CLR 32/22 A3000 RMK AO2=
KDPL 081400Z AUTO 01004KT 7SM CLR 30/21 A2997 RMK AO2=
KEDE 081356Z AUTO 04005KT 10SM SCT022 29/22 A2998 RMK AO2=
KEXX 081359Z AUTO 34003KT 7SM CLR 29/21 A3002 RMK AO2=
KFQD 081359Z AUTO 32003KT 10SM CLR 31/19 A3006 RMK AO2=
KHBI 081401Z AUTO 02004KT 7SM CLR 31/19 A3003 RMK AO2=
KHRJ 081401Z AUTO 04005KT 7SM CLR 33/22 A2997 RMK AO2=
KJNX 081359Z AUTO 01006KT 10SM CLR 29/21 A2997 RMK AO2=
KJYL 081401Z AUTO 00000KT 10SM CLR 31/22 A3000 RMK AO2=
KLWB 081400Z AUTO 00000KT 7SM SCT060 26/18 A3017 RMK AO2=
KMQI 081356Z AUTO 04011G15KT 10SM CLR 28/23 A2997 RMK AO2=
KMWK 081402Z AUTO 02004KT 7SM CLR 31/20 A3007 RMK AO2=
KO22 081355Z AUTO 00000KT 10SM CLR 17/13 A2992 RMK AO1=
KPGV 081400Z AUTO 03005KT 5SM HZ SCT013 SCT080 28/23 A2999 RMK
     AO2=
KTNB 081401Z AUTO 27004KT 10SM CLR 27/16 A3020 RMK AO2=
KTVI 081400Z AUTO 34004KT 10SM CLR 29/22 A3004 RMK AO2=
KUKF 081401Z AUTO 00000KT 7SM CLR 30/21 A3008 RMK AO1=
KUNV 081400Z AUTO 00000KT 10SM CLR 28/19 A3010 RMK AO2
     T02810191=
PAVC 081356Z AUTO 07005KT 10SM 08/08 A2990 RMK AO2 PWINO TSNO
     T00770077 SLP126 $=
KRIC 081354Z 14007KT 9SM FEW150 SCT250 31/21 A3000 RMK AO2 SLP161
     T03060211=
KAMN 081355Z AUTO 26006KT 7SM SCT060 24/22 A3001 RMK AO2=
KAQP 081354Z AUTO 26006KT 10SM CLR 19/18 A3011 RMK AO2=
KBFW 081353Z AUTO 27003KT 10SM CLR 24/16 A3002 RMK AO2=
KCDA 081355Z AUTO 17005KT 7SM CLR 28/21 A3009 RMK AO2=
KCDD 081351Z AUTO 27005KT 10SM CLR 22/18 A3004 RMK AO2=
KCVX 081355Z AUTO 25007KT 4SM -RA BKN004 OVC060 22/20 A3002 RMK
     AO2=
KDMA 081355Z AUTO 08008KT 10SM CLR 30/12 A2993 RMK AO2 SLP059
     T02980117 $=
KDVP 081356Z AUTO 29006KT 10SM CLR 21/14 A3018 RMK AO2
     T02090143=
KERY 081355Z AUTO 36003KT 10SM OVC003 19/18 A3001 RMK AO2=
KETH 081354Z AUTO 25006KT 10SM CLR 21/16 A3011 RMK AO2=
KFAF 081355Z 07005KT 10SM FEW180 29/22 A3000 RMK AO2A SLP160
     T02850221=
KFKS 081355Z AUTO 26003KT 10SM OVC017 22/20 A3001 RMK AO2=
KFOZ 081353Z AUTO 24006KT 10SM CLR 20/14 A3007 RMK AO2 LTG DSNT
     N=
KGOV 081355Z AUTO 24003KT 4SM +DZ BKN010 BKN025 OVC038 22/22 A3004
     RMK AO2=
KHYX 081355Z AUTO 25004KT 10SM SCT070 SCT080 26/21 A3002 RMK
     AO2=
KISQ 081356Z AUTO 34005KT 10SM BKN006 OVC010 21/18 A3000 RMK
     AO2=
KLDM 081355Z AUTO 24004KT 10SM BKN005 OVC010 23/22 A3002 RMK
     AO2=
KLFI 081355Z 08007KT 10SM FEW013 BKN100 BKN250 27/17 A3001 RMK
     AO2A SLP164 T02730174 $=
KMCD 081356Z AUTO 25003KT M1/4SM -RA OVC001 20/17 A3001 RMK
     AO2=
KMZH 081351Z AUTO 30006KT 10SM CLR 20/15 A3006 RMK AO2=
KNBG 081355Z 10006KT 10SM SCT015 BKN250 28/24 A3004 RMK AO2 SLP173
     T02830244 $=
KNCA 081356Z 05006KT 6SM HZ CLR 30/24 A2995 RMK AO2 SLP142
     T03000244=
KONZ 081357Z AUTO 18004KT 10SM CLR 29/23 A3002 RMK AO2=
KORB 081354Z AUTO 27004KT 10SM CLR 19/13 A3002 RMK AO2=
KOSC 081354Z AUTO 29005KT 5SM -RA SCT018 BKN060 OVC075 23/21 A3001
     RMK AO2=
KOWA 081354Z AUTO 31006KT 10SM CLR 20/17 A3012 RMK AO2=
KPHN 081355Z AUTO 25003KT 10SM CLR 29/21 A3002 RMK AO2=
KPZQ 081355Z AUTO 28005KT 7SM -RA SCT013 OVC065 22/22 A3001 RMK
     AO2=
####018000780####
SPUS99 KWBC 081403
SPECI
KAUS 081401Z 08007KT 2SM RA BR BKN008 OVC014 26/24 A2998 RMK AO2
     SFC VIS 2 1/2 P0003=
KDWH 081401Z 06004KT 5SM RA BR BKN027 24/23 A2999 RMK AO2
     P0001=
KMLC 081400Z AUTO 18005KT 10SM BKN011 BKN018 OVC027 25/23 A3006
     RMK AO2=
PALG 081358Z AUTO 00000KT 1 3/4SM BR BKN003 06/05 A2999 RMK AO2
     TSNO BKN V SCT VIS 1V5=
PASN 081400Z 06012KT 3/4SM BR VV001 05/05 A2992 RMK AO2=
KDXR 081401Z 14003KT 2 1/2SM -RA BR FEW007 BKN016 OVC034 24/24
     A3008 RMK AO2 P0001=
KJCT 081358Z AUTO 04003KT 10SM BKN010 OVC022 25/22 A3004 RMK AO2
     CIG 007V012 TSNO=
KMKO 081402Z AUTO 11003KT 9SM -RA BKN005 OVC009 24/23 A3007 RMK
     AO2 P0000=
KSBM 081401Z AUTO 26005KT 10SM SCT012 BKN017 25/22 A3001 RMK
     AO2=
####018000417####
SAUS99 KWBC 081403 RRA
METAR
KRMY 081355Z AUTO 12003KT 10SM CLR 26/22 A3003 RMK AO2=
KSJX 081355Z AUTO 00000KT 1/4SM FG OVC002 20/18 A3000 RMK AO2=
KSLH 081355Z AUTO 26003KT 5SM RA SCT007 BKN012 OVC042 22/21 A2999
     RMK AO2=
KTTF 081354Z AUTO 23003KT 10SM SCT075 31/21 A3002 RMK AO2=
KVWU 081351Z AUTO 23007KT 10SM CLR 20/16 A3005 RMK AO2=
KXVG 081356Z AUTO 29004KT 10SM CLR 20/15 A3006 RMK AO2=
####018000074####
SABZ21 SBPL 081400
METAR SBPL 081400Z 15010KT 9999 SCT023 27/18 Q1018=
####018000096####
SABZ21 SBSV 081400
METAR SBSV 081400Z 22009KT 4000 -RA BR BKN007 SCT017 BKN070 24/21
Q1018=
####018000068####
SABZ24 SBCR 081400
METAR SBCR 081400Z 31003KT CAVOK 28/13 Q1015=
####018000238####
SAEO32 EGGY 081350
METAR EEKA 081350Z 28008KT 250V320 CAVOK 23/12 Q1016=
METAR EEKE 081350Z 33010KT 290V010 CAVOK 24/11 Q1016=
METAR EEPU 081350Z NIL=
METAR EETU 081350Z 27004KT 230V330 9999 FEW025CB SCT030 BKN130
    21/20 Q1013=
####018000081####
SABZ21 SBFN 081400
METAR SBFN 081400Z 10004KT 9999 SCT017 BKN100 27/24 Q1014=
####018000289####
SANL31 EHDB 081355
METAR EHAM 081355Z 25007KT 190V310 CAVOK 27/15 Q1019 NOSIG=
METAR EHBK 081355Z AUTO 17007KT 130V230 9999NDV NSC 31/11 Q1018
NOSIG=
METAR EHGG 081355Z AUTO 23011KT 200V270 9999NDV NSC 27/13 Q1018
NOSIG=
METAR EHRD 081355Z 27006KT 220V310 CAVOK 27/16 Q1018 NOSIG=
####018000081####
SABZ20 SBTF 081400
METAR SBTF 081400Z 12005KT 9999 FEW020 BKN100 31/25 Q1012=
####018000220####
SAPH RPLL 081400
METAR RPLL 081400Z 22003KT 9000 FEW025 30/26 Q1011 NOSIG RMK A2986=
METAR RPVM 081400Z 00000KT 9999 FEW020 BKN090 29/26 Q1011 A2986=
METAR RPLB 081400Z 01006KT 9999 FEW020 SCT080 29/24 Q1011 NOSIG=
####018000139####
SACS31 MROC 081400
METAR
MROC 081400Z 23004KT 9999 2500SW BR SCT001 BKN120 21/21 A3005
     RMK FG BANK IN APCH RNY 07 TEMPO 4000 BR=
####018000090####
SAHA31 MTPP 081400
METAR MTPP 1400Z 10012G22KT 7000 FEW026 SCT200 31/24 Q1015.8 A2999=
####018000074####
SACN50 CWAO 081345
WPN SA 1345 AUTO8 M M M M/15/M/0000/M/M M 0MMM=

####018000074####
SABZ20 SBSL 081400
METAR SBSL 081400Z 09005KT 9999 SCT017 31/23 Q1013=
####018000081####
SABZ21 SBPB 081400
METAR SBPB 081400Z 06009KT 9999 FEW020 SCT100 32/22 Q1012=
####018000080####
SAQB31 LQBK 081400
METAR LQBK 081400Z 29004KT 9999 SCT043 24/11 Q1021 NOSIG=
####018000068####
SABZ22 SBCY 081400
METAR SBCY 081400Z 34010KT CAVOK 31/12 Q1015=
####018000084####
SABZ20 SBOI 081400
METAR SBOI 081400Z 12005KT 9999 SCT020 FEW025TCU 31/24 Q1014=
####018000174####
SANL32 EHDB 081355
METAR EHEH 081355Z AUTO 31004KT 9999NDV NCD 32/12 Q1018 
BLU BLU=
METAR EHKD 081355Z AUTO 25009KT 9999NDV SCT074/// BKN230/// 22/16
Q1019 
BLU BLU=
####018000140####
SALC31 TLPL 081400
METAR TLPL 081400Z 08020KT 9999 FEW027 BKN280 31/24 Q1014=
METAR TLPC 081400Z 10012KT 9999 FEW026 SCT280 31/25 Q1014=####018000097####
SPUS52 KWBC 081403
SPECI
KVCT 081401Z 05010KT 2SM +RA BR SCT015 BKN022 OVC055 25/24 A2992=
####018000196####
SABO SLLP 081400
METAR SLLP 081400Z VRB02KT 9999 FEW015 07/M02 Q1038=
METAR SLCB 081400Z 00000KT 6000 FEW027 18/08 Q1027=
METAR SLVR 081400Z 16012KT 9999 FEW027 BKN070 BKN200 21/16 Q1016=
####018000198####
SABO59 SLLP 081400
METAR SLLP 081400Z VRB02KT 9999 FEW015 07/M02 Q1038=
METAR SLCB 081400Z 00000KT 6000 FEW027 18/08 Q1027=
METAR SLVR 081400Z 16012KT 9999 FEW027 BKN070 BKN200 21/16 Q1016=
####018000831####
SAUR30 UKMS 081400
METAR UKBB 081400Z 32003MPS 9999 BKN040 26/17 Q1014
         88CLRD95 NOSIG=
METAR UKHH 081400Z 00000MPS 9999 SCT040 BKN200 30/13
         Q1014 080///65 NOSIG=
METAR UKOO 081400Z 35005MPS 310V030 CAVOK 27/14 Q1014
          34090070 NOSIG=
METAR UKDE 081400Z 20002MPS 120V260 CAVOK 30/16 Q1013
          20CLRD70 NOSIG=
METAR UKDD 081400Z VRB01MPS 9999 SCT033TCU 29/18
         Q1013  08090070 NOSIG=
METAR UKFF 081400Z 28006MPS CAVOK 28/19 Q1012
         01010070 NOSIG=
METAR UKLL 081400Z 30003MPS 240V030 9999 SCT040
         BKN100  20/12 Q1021 31210365 NOSIG=
METAR UKCC 081400Z 00000MPS CAVOK 29/15 Q1014
         08090070 NOSIG=
METAR UKDR 081400Z 33005MPS 9999 VCTS SCT033CB BKN200
          26/18 Q1013 1809//70 TEMPO 26006G14MPS
         3100 -TSRAGR BKN015CB=
####018000191####
SARW20 HRYR 081400
METAR
HRYR 081400Z 13006KT 9999 SCT030 25/12 Q1019 NOSIG=
HRZA 081400Z 15020KT 9999 SCT025 24/10 Q1020 NOSIG=
HRYG 081400Z 18006KT 9999 SCT025 25/12 Q1019 NOSIG=
####018000092####
SAAB31 LATI 081400
METAR LATI 081400Z 01016G26KT 340V050 9999 FEW060 27/14 Q1016 NOSIG=
####018000099####
SAGL31 BGSF 081350 RRA
METAR BGBW 081350Z 25008KT 220V290 9999 FEW040 14/05 Q1008 RMK 
1SC =
####018000091####
SAUZ31 UTTW 081300 CCA
METAR UTST 081400Z 27001MPS CAVOK 38/13 Q1004 R88/CLRD70 NOSIG=
####018000113####
SASW39 LSSW 081350 RRA
METAR LSMP 081350Z AUTO 32005KT 260V020 9999NDV NCD 30/15 Q1021 RMK
           BLU=
####018000542####
SAMC32 GMMC 081400
METAR GMFF 081400Z 30008KT 8000 SCT030 SCT033CB SCT100 34/19 Q1017
NOSIG=
METAR GMFK 081400Z 28002KT 9999 FEW026 39/07 Q1023=
METAR GMFM 081400Z 29007KT 6000 FEW026 32/19 Q1018=
METAR GMFO 081400Z 24003KT 9999 FEW033TCU 45/09 Q1016 NOSIG=
METAR GMMW 081400Z 06015KT CAVOK 30/20 Q1016=
METAR GMMZ 081400Z 14007KT 110V170 9999 FEW040 FEW050TCU 39/02 Q1023=
METAR GMTA 081400Z 02010KT CAVOK 25/20 Q1016=
METAR GMMC 081400Z NIL=
METAR GMMH 081400Z NIL=
METAR GMML 081400Z NIL=
METAR GMTN 081400Z NIL=
####018000832####
SAUR30 UKMS 081400
METAR UKBB 081400Z 32003MPS 9999 BKN040 26/17 Q1014
         88CLRD95 NOSIG=
METAR UKHH 081400Z 00000MPS 9999 SCT040 BKN200 30/13 
         Q1014 080///65 NOSIG=
METAR UKOO 081400Z 35005MPS 310V030 CAVOK 27/14 Q1014
          34090070 NOSIG=
METAR UKDE 081400Z 20002MPS 120V260 CAVOK 30/16 Q1013
          20CLRD70 NOSIG=
METAR UKDD 081400Z VRB01MPS 9999 SCT033TCU 29/18
         Q1013  08090070 NOSIG=
METAR UKFF 081400Z 28006MPS CAVOK 28/19 Q1012
         01010070 NOSIG=
METAR UKLL 081400Z 30003MPS 240V030 9999 SCT040
         BKN100  20/12 Q1021 31210365 NOSIG=
METAR UKCC 081400Z 00000MPS CAVOK 29/15 Q1014
         08090070 NOSIG=
METAR UKDR 081400Z 33005MPS 9999 VCTS SCT033CB BKN200
          26/18 Q1013 1809//70 TEMPO 26006G14MPS
         3100 -TSRAGR BKN015CB=
####018000112####
SAUS45 KBOI 081403 COR
MTRLWS
METAR KLWS 081356Z 07005KT 10SM CLR 17/09 A3005 RMK AO2 SLP165 
T01720094
####018000097####
SPUS72 KWBC 081403
SPECI
KVCT 081401Z 05010KT 2SM +RA BR SCT015 BKN022 OVC055 25/24 A2992=
####018000078####
SACN92 CWAO 061300 RRZ
WKH SA 1300 AUTO8 M M M M/12/M/MMMM/M/M M 0MMM=

####018000078####
SACN92 CWAO 061200 RRZ
WKH SA 1200 AUTO8 M M M M/11/M/MMMM/M/M M 9MMM=

####018000078####
SACN92 CWAO 061100 RRZ
WKH SA 1100 AUTO8 M M M M/11/M/MMMM/M/M M 3MMM=

####018001696####
SASA KAWN 081400 RRB
METAR SBBE 081400Z 13009KT 9999 FEW017 SCT100 31/22 Q1013=
METAR SBCG 081400Z 06013KT 9999 FEW040 28/08 Q1017=
METAR SBCT 081400Z 06004KT CAVOK 20/13 Q1022=
METAR SBCZ 081400Z 00000KT 9999 FEW020 BKN100 30/25 Q1014=
METAR SBGO 081400Z 604010KT 9999 FEW020 27/11 Q1020=
METAR SBJP 081400Z 17009KT 9999 BKN020 BKN070 28/23 Q1015=
METAR SBKP 081400Z 02005KT 9000 NSC 23/09 Q1022=
METAR SBLO 081400Z 04002KT CAVOK 21/11 Q1021=
METAR SBMA 081400Z 13006KT CAVOK 32/21 Q1014=
METAR SBMO 081400Z 17004KT 9999 SCT020 27/20 Q1017=
METAR SBMQ 081400Z 07008KT 9999 SCT020 BKN100 31/26 Q1014=
METAR SBPA 081400Z 22002KT 9999 BKN015 BKN030 15/12 Q1021=
METAR SBPK 081400Z 25009KT CAVOK 14/06 Q1021=
METAR SBRJ 081400Z 05002KT CAVOK 26/16 Q1017=
METAR SBRP 081400Z 17004KT CAVOK 26/12 Q1020=
METAR SBSN 081400Z 09013KT 9999 BKN020 30/24 Q1013=
METAR SBTE 081400Z 30003KT 9999 BKN020 30/24 Q1014=
METAR SBUG 081400Z 10013KT 9999 FEW015 13/05 Q1021=
METAR SBVT 081400Z 04007KT 9999 FEW026 27/19 Q1020=
METAR SCAR 081400Z VRB01KT 9999 OVC021 15/09 Q1016=
METAR SCAS 081400Z 27010KT 9999 -SHRA BKN020 02/01 Q1010=
METAR SCCH 081400Z 03010KT 2000 DZ SCT010 OVC025 09/08 Q1021=
METAR SCFA 081400Z VRB02KT 9999 BKN023 14/07 Q1017 NOSIG=
METAR SCGE 081400Z 33005KT 5000 VCRA BKN003 10/10 Q1019=
METAR SCIE 081400Z 29012KT 9999 BKN008 OVC012 13/11 Q1020=
METAR SCSE 081400Z 31003KT CAVOK 11/08 Q1018 NEFO PLAYA SKC=
METAR SCTE 081400Z 18007KT 9999 BKN009 BKN025 06/06 Q1016 NOSIG=
METAR SOCA 081400Z 11007KT 070V170 9999 BKN019 SCT043 29/24 Q1013 NOSIG=
METAR SYCJ 081400Z 11012KT 9999 SCT019 SCT039 BKN300 28/26 Q1013 RESH
      NOSIG=
####018001345####
SANA14 KAWN 081400 RRC
METAR KNFL 081356Z 00000KT 10SM FEW130 SCT160 19/00 A3003 RMK AO2 SLP138
      T01890000=
METAR KNGP 081356Z 10007KT 7SM -RA FEW009 SCT016CB BKN025 27/26 A2984
      RMK AO2 RAB12 SLP105 CB DSNT SW TCU NE-OHD-W TCU DSNT N WR//
      P0007 T02730261 $=
METAR KNGU 081359Z 06008KT 10SM SCT070 BKN100 28/22 A3001 RMK AO2 SLP162
      T02830217=
METAR KNLC 081356Z AUTO 32008KT 10SM CLR 18/11 A2985 RMK AO2 SLP107
      T01780106 TSNO $=
METAR KNMM 081356Z 35004KT 10SM FEW250 30/22 A3007 RMK AO2 SLP189 T03000217=
METAR KNQI 081356Z 02006KT 10SM FEW010CB BKN100 BKN280 28/25 A2985
      RMK AO2 SLP104 CB DSNT NE AND E-SE AND NW T02830250 $=
METAR KNSE 081356Z 33003KT 9SM FEW020 SCT250 29/24 A3004 RMK AO2 SLP157
      T02940239 $=
METAR KNTU 081356Z 07008KT 10SM FEW020 SCT100 SCT200 28/22 A2999 RMK
      AO2 SLP157 T02830217 $=
METAR KNUW 081356Z 00000KT 10SM CLR 17/12 A2998 RMK AO2 SLP157 T01720117=
METAR KNXX 081356Z 12007KT 5SM HZ FEW055 SCT200 27/21 A3006 RMK AO2
      SLP182 T02670211 $=
METAR KNYL 081355Z 11005KT 10SM FEW120 29/M01 A2975 RMK AO2 SLP070
      T02891011=
METAR KPAM 081355Z 36005KT 10SM CLR 29/24 A3002 RMK AO2A SLP169 T02900243=
METAR KRND 081355Z 06006KT 5SM -RA BR OVC007 25/24 A2996 RMK AO2A RAB1327DZB1338E1340
      SLP136 P0002 T02480241=
####018000097####
SPUS81 KWBC 081403
SPECI
KVCT 081401Z 05010KT 2SM +RA BR SCT015 BKN022 OVC055 25/24 A2992=
####018000090####
SAUK39 EGRR 081350 CCA
METAR EGOW 081350Z 29010KT 9999 FEW036 BKN250 20/10 Q1017 BLU=
####018000083####
SAUK39 EGRR 081350 RRC
METAR EGWC 081350Z 23010KT 9999 BKN035 22/10 Q1018 BLU=
####018000090####
SAUK39 EGRR 081350 RRD
METAR EGYE 081350Z 28008KT 9999 FEW040 SCT250 ///// Q1017 BLU=
####018000089####
SAMT20 GQNN 081400
METAR GQNN 081400Z 21012KT 6000 R05//////N NSC 32/21 Q1012 NOSIG=
####018000155####
SAUK39 EGRR 081350 RRB
METAR EGUY 081350Z 19008KT 9999 FEW040 SCT150 BKN200 23/10 Q1018 BLU=
METAR EGYH 081350Z 22008KT 9999 FEW030 24/// Q1018 BLU=
####018000112####
SAUS46 KSGX 081403 COR
MTRNJK
METAR KNJK 081356Z 10003KT 10SM CLR 24/18 A2973 RMK AO2 SLP082 
T02440178
####018000118####
SAUS45 KVEF 081403 COR
MTRINS
METAR KINS 081356Z 36006KT 10SM FEW150 18/M11 A2997 RMK AO2 SLP096 
T01781106 $
####018000118####
SPUS90 KWBC 081404
SPECI KVCT 081401Z 05010KT 2SM +RA BR SCT015 BKN022 OVC055 25/24
     A2992 RMK AO2 P0010 $=
####018000576####
SAUS90 KWBC 081400 CCC
METAR KFLG 081356Z 00000KT 10SM SCT110 14/02 A3030 RMK AO2 SLP155
     T01440022=
METAR KVBG 081355Z 32004KT 4SM BR OVC004 12/11 A2995 RMK AO2 CIG
     002V006 SLP132 T01170111 $=
METAR KSMP 081356Z AUTO 00000KT 10SM CLR 17/05 A3016 RMK AO2
     SLP180 T01720050 TSNO $=
METAR KLWS 081356Z 07005KT 10SM CLR 17/09 A3005 RMK AO2 SLP165
     T01720094=
METAR KINS 081356Z 36006KT 10SM FEW150 18/M11 A2997 RMK AO2 SLP096
     T01781106 $=
METAR KNUQ 081356Z AUTO 04003KT 10SM OVC011 15/12 A2994 RMK AO2
     SLP141 T01500122 TSNO=
####018000490####
SAAK41 KNKA 081403
METAR PABA 081401Z AUTO 29016KT 10SM BKN040 07/04 A3001 RMK AO2 
    SLP161 T00670044=
METAR PAIK 081401Z AUTO 00000KT 10SM CLR 11/09 A3013 RMK AO2 SLP242 
    T01060094=
METAR PAKF 081401Z AUTO 12006KT 10SM BKN010 OVC016 08/07 A2987 RMK 
    AO2 SLP210 T00830067=
METAR PANW 081356Z AUTO 35009KT BKN055 OVC070 10/08 A2997 RMK AO2 
    PWINO TSNO T01000083 SLP124 $=
SPECI PAPB 081401Z AUTO 06018KT 10SM FEW003 OVC046 06/06 A2989 RMK 
    AO2 TSNO=
####018002966####
SAUS20 KNKA 081403
METAR K3A1 081400Z AUTO 01004KT 10SM CLR 30/25 A3011 RMK AO2 
     T03000250=
METAR K3I2 081400Z AUTO 00000KT 10SM CLR 28/21 A3010 RMK AO2=
METAR K3J7 081401Z AUTO 27004KT 10SM CLR 30/22 A3000 RMK AO2=
METAR K4A9 081400Z AUTO 05004KT 10SM CLR 29/20 A3007 RMK AO2 
     T02940198=
METAR K4R4 081400Z AUTO 00000KT 7SM CLR 30/25 A3004 RMK AO2 
     T03000253=
METAR K8A0 081359Z AUTO 02004KT 10SM CLR 30/20 A3009 RMK AO2=
METAR KACP 081359Z AUTO 08003KT 10SM BKN009 BKN017 28/26 A3003 
     RMK AO2=
METAR KAFP 081400Z AUTO 02003KT 10SM CLR 30/19 A2998 RMK AO2 
     T03000186=
METAR KALX 081400Z AUTO 01003KT 10SM CLR 31/22 A3006 RMK AO1=
METAR KAVC 081400Z AUTO 00000KT 7SM CLR 31/22 A3005 RMK AO2=
METAR KAYS 081400Z AUTO 30004KT 10SM CLR 29/23 A3002 RMK AO1=
METAR KBCB 081400Z AUTO 34003KT 7SM CLR 30/22 A3016 RMK AO2=
METAR KBGE 081401Z AUTO 00000KT 10SM CLR 26/21 A3004 RMK AO2=
METAR KBQK 081357Z AUTO 30005KT 10SM CLR 29/23 A3002 RMK AO1 
     T02880227 PNO=
METAR KCCO 081400Z AUTO 00000KT 10SM CLR 28/22 A3007 RMK AO1=
METAR KCDH 081400Z AUTO 00000KT 8SM BKN005 25/24 A3008 RMK AO2=
METAR KCPC 081400Z AUTO 04007KT 7SM CLR 30/23 A2995 RMK AO2 
     T02950225=
METAR KCTJ 081400Z AUTO 35006KT 10SM CLR 31/20 A3008 RMK AO2 
     T03140203=
METAR KDBN 081400Z AUTO 32007KT 10SM CLR 32/21 A3000 RMK AO1=
SPECI KDBQ 081402Z 01007KT 9SM FEW009 SCT013 23/21 A3007 RMK AO2=
METAR KDNN 081358Z AUTO 01003KT 10SM CLR 27/21 A3007 RMK AO2=
METAR KDQH 081400Z AUTO 29004KT 10SM CLR 31/18 A3002 RMK AO1=
METAR KEHO 081400Z AUTO 02004KT 10SM CLR 31/19 A3004 RMK AO2 
     T03060193=
METAR KEMV 081357Z AUTO 06005KT 10SM CLR 30/23 A2999 RMK AO2=
METAR KEZF 081358Z AUTO 00000KT 7SM CLR 31/27 A3000 RMK AO2 
     T03050265=
METAR KF24 081359Z AUTO 10SM OVC095 27/24 A3010 RMK AO2 T02660240=
METAR KFKN 081400Z AUTO 00000KT 10SM SCT016 29/24 A2999 RMK AO1=
METAR KGEV 081401Z AUTO 01005KT 10SM CLR 28/17 A3020 RMK AO2=
METAR KGHG 081400Z AUTO 11009KT 10SM CLR 26/22 A3011 RMK AO2=
METAR KHLX 081401Z AUTO 35003KT 7SM CLR 28/22 A3018 RMK AO2=
METAR KHOE 081359Z AUTO 32008KT 10SM CLR 29/21 A3003 RMK AO2 
     T02850212=
METAR KHQU 081401Z AUTO 28003KT 10SM CLR 31/19 A3006 RMK AO1=
METAR KHSP 081400Z AUTO 07004KT 10SM SCT050 26/17 A3027 RMK AO2=
SPECI KHVN 081402Z 11006KT 10SM SCT010 BKN025 OVC055 26/22 A3007 RMK 
    AO2=
METAR KHWY 081400Z AUTO 00000KT 7SM OVC110 30/22 A3002 RMK AO2=
METAR KIDI 081400Z AUTO 00000KT 10SM CLR 27/21 A3010 RMK AO2=
METAR KIPJ 081400Z AUTO 02003KT 10SM CLR 31/20 A3003 RMK AO2 
     T03110195=
METAR KJES 081400Z AUTO 32006KT 10SM CLR 29/24 A3001 RMK AO2 
     T02900240=
METAR KJGG 081400Z AUTO 00000KT 10SM SCT020 31/23 A3001 RMK AO1=
METAR KJKA 081400Z AUTO 00000KT 10SM CLR 32/26 A3004 RMK AO2 
     T03150263=
SPECI KJLN 081402Z 09005KT 1SM RA BR FEW004 BKN013 OVC055 22/22 
    A3008 RMK AO2 P0005=
####018000440####
SAER32 OMAE 081400
METAR OMAA 081400Z 34009KT CAVOK 40/21 Q0998 A2948 NOSIG=
METAR OMAD 081400Z NIL=
METAR OMAL 081400Z 19006KT CAVOK 34/25 Q1002 A2959=
METAR OMDB 081400Z 01012KT 7000 NSC 40/22 Q0998 NOSIG=
METAR OMDW 081400Z 36013KT 9999 FEW030 38/23 Q0999 NOSIG=
METAR OMFJ 081400Z 12007KT 7000 NSC 34/24 Q1001 A2956=
METAR OMRK 081400Z 34008KT CAVOK 40/35 Q0998 A2947=
METAR OMSJ 081400Z 35006KT 7000 NSC 40/21 Q0999=
####018000100####
SAAJ31 UBBB 081400
METAR UBBG 081400Z 09014KT 9999 FEW083 35/16 Q1009 NOSIG RMK
R12L/CLRD70 =
####018001587####
SAUS20 KNKA 081403
METAR KJYO 081400Z AUTO 00000KT 7SM CLR 32/22 A3003 RMK AO2=
SPECI KLAR 081402Z AUTO 00000KT 10SM BKN006 OVC017 10/09 A3042 RMK 
    AO2 CIG 003V008=
METAR KLGC 081355Z AUTO 32003KT 10SM CLR 31/21 A3005 RMK AO1=
METAR KLOM 081400Z AUTO 15005KT 7SM CLR 29/22 A3004 RMK AO1 
     T02940224=
SPECI KMFE 081402Z 35010KT 10SM BKN010 OVC014 27/24 A2983 RMK AO2=
METAR KMFV 081402Z AUTO 08007KT 10SM SCT017 27/22 A3002 RMK AO2=
METAR KMGR 081400Z AUTO 31005KT 10SM CLR 30/20 A3005 RMK AO2=
METAR KMQS 081400Z AUTO 09003KT 8SM CLR 29/22 A3007 RMK AO2=
METAR KMRN 081400Z AUTO 00000KT 10SM SCT085 28/17 A3012 RMK AO2=
METAR KOCW 081359Z AUTO 02007KT 10SM CLR 28/23 A2997 RMK AO2=
SPECI KORD 081402Z 24006KT 8SM SCT008 BKN039 OVC050 24/22 A3003 RMK 
    AO2 RAE1356 P0000=
SPECI KORH 081402Z 20007KT 10SM SCT014 BKN019 24/20 A3013 RMK AO2=
METAR KOXC 081345Z 17006KT 4SM BR SCT008 BKN015 OVC022 25/22 A3011=
METAR KPSK 081402Z AUTO 02004KT 7SM CLR 31/16 A3016 RMK AO2=
METAR KPTB 081402Z AUTO 06003KT 7SM CLR 31/23 A2999 RMK AO2=
METAR KRUQ 081401Z AUTO 00000KT 7SM CLR 29/21 A3003 RMK AO2=
METAR KSIF 081400Z AUTO 02005KT 7SM CLR 32/21 A3003 RMK AO2=
METAR KTDF 081402Z AUTO 02003KT 5SM CLR 29/20 A3002 RMK AO1=
METAR KTPF 081400Z AUTO 00000KT 10SM CLR 27/23 A3001 RMK AO2=
METAR KTSP 081355Z AUTO 00000KT 9SM CLR 13/06 A3004 RMK AO2 =
METAR KVDI 081402Z AUTO 29004KT 10SM CLR 31/20 A3002 RMK AO1=
METAR KVJI 081402Z AUTO 00000KT 7SM CLR 28/20 A3015 RMK AO2=
METAR KW99 081359Z AUTO 00000KT 7SM SCT085 29/16 A3009 RMK AO2=
####018000081####
SABC40 FBSK 081400
METAR FBSK 081400Z 07016KT 9999 SCT020 20/07 Q1028 NOSIG=
####018000487####
SAHU41 LHBM 081400
METAR LHDC 081345Z 36008KT 9999 FEW046 23/11 Q1021 NOSIG=
METAR LHKE 081345Z 28002MPS CAVOK 24/11 Q1020 NOSIG RMK BLU=
METAR LHPA 081345Z 34004MPS CAVOK 25/10 Q1022 NOSIG RMK BLU=
METAR LHPP 081345Z 32007KT CAVOK 24/13 Q1022 NOSIG=
METAR LHPR 081345Z 34008KT CAVOK 25/08 Q1022=
METAR LHSM 081345Z 31007KT CAVOK 25/09 Q1022 NOSIG=
METAR LHSN 081345Z VRB01MPS CAVOK 24/11 Q1020 NOSIG RMK BLU=
METAR LHUD 081345Z 36005KT 9999 SCT040 SCT050 24/14 Q1021=
####018000075####
SACN50 CWAO 081315
VOP SA 1315 AUTO8 M M M M/17/12/0601/M/M M 00MM=

####018000075####
SACN50 CWAO 081345
WGP SA 1345 AUTO8 M M M M/12/10/MMMM/M/M M 38MM=

####018000075####
SACN50 CWAO 081345
VOF SA 1345 AUTO8 M M M M/13/07/3503/M/M M 89MM=

####018000074####
SACN50 CWAO 081345
VOJ SA 1345 AUTO8 M M M M/19/M/0000/M/M M 6MMM=

####018000125####
SAUS46 KMTR 081403 COR
MTRNUQ
METAR KNUQ 081356Z AUTO 04003KT 10SM OVC011 15/12 A2994 RMK AO2 
SLP141 T01500122 TSNO
####018000075####
SACN50 CWAO 081330
WGP SA 1330 AUTO8 M M M M/11/10/MMMM/M/M M 90MM=

####018000075####
SACN50 CWAO 081330
VOP SA 1330 AUTO8 M M M M/16/13/1202/M/M M 06MM=

####018000073####
SAAT31 TAPA 081400
METAR TAPA 081400Z 07010KT 9999  SCT022 30/25 Q1016=####018000335####
SATS41 DTTA 081400
METAR DTTB 081400Z 36012KT CAVOK 30/18 Q1020=
METAR DTTD 081400Z 08006KT CAVOK 34/08 Q1018 RMK SIROCCO=
METAR DTTG 081400Z 08010KT CAVOK 33/16 Q1017 NOSIG=
METAR DTTK 081400Z 04004KT CAVOK 37/09 Q1016 SIROCCO=
METAR DTTL 081400Z 36008KT CAVOK 30/21 Q1018=
METAR DTTN 081400Z 31008KT CAVOK 35/15 Q1017=
####018003737####
SAUS99 KWBC 081404
METAR
K3A1 081400Z AUTO 01004KT 10SM CLR 30/25 A3011 RMK AO2
     T03000250=
K3I2 081400Z AUTO 00000KT 10SM CLR 28/21 A3010 RMK AO2=
K3J7 081401Z AUTO 27004KT 10SM CLR 30/22 A3000 RMK AO2=
K4A9 081400Z AUTO 05004KT 10SM CLR 29/20 A3007 RMK AO2
     T02940198=
K4R4 081400Z AUTO 00000KT 7SM CLR 30/25 A3004 RMK AO2
     T03000253=
K8A0 081359Z AUTO 02004KT 10SM CLR 30/20 A3009 RMK AO2=
KACP 081359Z AUTO 08003KT 10SM BKN009 BKN017 28/26 A3003 RMK
     AO2=
KAFP 081400Z AUTO 02003KT 10SM CLR 30/19 A2998 RMK AO2
     T03000186=
KALX 081400Z AUTO 01003KT 10SM CLR 31/22 A3006 RMK AO1=
KAVC 081400Z AUTO 00000KT 7SM CLR 31/22 A3005 RMK AO2=
KAYS 081400Z AUTO 30004KT 10SM CLR 29/23 A3002 RMK AO1=
KBCB 081400Z AUTO 34003KT 7SM CLR 30/22 A3016 RMK AO2=
KBGE 081401Z AUTO 00000KT 10SM CLR 26/21 A3004 RMK AO2=
KBQK 081357Z AUTO 30005KT 10SM CLR 29/23 A3002 RMK AO1 T02880227
     PNO=
KCCO 081400Z AUTO 00000KT 10SM CLR 28/22 A3007 RMK AO1=
KCDH 081400Z AUTO 00000KT 8SM BKN005 25/24 A3008 RMK AO2=
KCPC 081400Z AUTO 04007KT 7SM CLR 30/23 A2995 RMK AO2
     T02950225=
KCTJ 081400Z AUTO 35006KT 10SM CLR 31/20 A3008 RMK AO2
     T03140203=
KDBN 081400Z AUTO 32007KT 10SM CLR 32/21 A3000 RMK AO1=
KDNN 081358Z AUTO 01003KT 10SM CLR 27/21 A3007 RMK AO2=
KDQH 081400Z AUTO 29004KT 10SM CLR 31/18 A3002 RMK AO1=
KEHO 081400Z AUTO 02004KT 10SM CLR 31/19 A3004 RMK AO2
     T03060193=
KEMV 081357Z AUTO 06005KT 10SM CLR 30/23 A2999 RMK AO2=
KEZF 081358Z AUTO 00000KT 7SM CLR 31/27 A3000 RMK AO2
     T03050265=
KF24 081359Z AUTO 10SM OVC095 27/24 A3010 RMK AO2 T02660240=
KFKN 081400Z AUTO 00000KT 10SM SCT016 29/24 A2999 RMK AO1=
KGEV 081401Z AUTO 01005KT 10SM CLR 28/17 A3020 RMK AO2=
KGHG 081400Z AUTO 11009KT 10SM CLR 26/22 A3011 RMK AO2=
KHLX 081401Z AUTO 35003KT 7SM CLR 28/22 A3018 RMK AO2=
KHOE 081359Z AUTO 32008KT 10SM CLR 29/21 A3003 RMK AO2
     T02850212=
KHQU 081401Z AUTO 28003KT 10SM CLR 31/19 A3006 RMK AO1=
KHSP 081400Z AUTO 07004KT 10SM SCT050 26/17 A3027 RMK AO2=
KHWY 081400Z AUTO 00000KT 7SM OVC110 30/22 A3002 RMK AO2=
KIDI 081400Z AUTO 00000KT 10SM CLR 27/21 A3010 RMK AO2=
KIPJ 081400Z AUTO 02003KT 10SM CLR 31/20 A3003 RMK AO2
     T03110195=
KJES 081400Z AUTO 32006KT 10SM CLR 29/24 A3001 RMK AO2
     T02900240=
KJGG 081400Z AUTO 00000KT 10SM SCT020 31/23 A3001 RMK AO1=
KJKA 081400Z AUTO 00000KT 10SM CLR 32/26 A3004 RMK AO2
     T03150263=
PABA 081401Z AUTO 29016KT 10SM BKN040 07/04 A3001 RMK AO2 SLP161
     T00670044=
PAIK 081401Z AUTO 00000KT 10SM CLR 11/09 A3013 RMK AO2 SLP242
     T01060094=
PAKF 081401Z AUTO 12006KT 10SM BKN010 OVC016 08/07 A2987 RMK AO2
     SLP210 T00830067=
PANW 081356Z AUTO 35009KT BKN055 OVC070 10/08 A2997 RMK AO2 PWINO
     TSNO T01000083 SLP124 $=
KJYO 081400Z AUTO 00000KT 7SM CLR 32/22 A3003 RMK AO2=
KLGC 081355Z AUTO 32003KT 10SM CLR 31/21 A3005 RMK AO1=
KLOM 081400Z AUTO 15005KT 7SM CLR 29/22 A3004 RMK AO1
     T02940224=
KMFV 081402Z AUTO 08007KT 10SM SCT017 27/22 A3002 RMK AO2=
KMGR 081400Z AUTO 31005KT 10SM CLR 30/20 A3005 RMK AO2=
KMQS 081400Z AUTO 09003KT 8SM CLR 29/22 A3007 RMK AO2=
KMRN 081400Z AUTO 00000KT 10SM SCT085 28/17 A3012 RMK AO2=
KOCW 081359Z AUTO 02007KT 10SM CLR 28/23 A2997 RMK AO2=
KOXC 081345Z 17006KT 4SM BR SCT008 BKN015 OVC022 25/22 A3011=
KPSK 081402Z AUTO 02004KT 7SM CLR 31/16 A3016 RMK AO2=
KPTB 081402Z AUTO 06003KT 7SM CLR 31/23 A2999 RMK AO2=
KRUQ 081401Z AUTO 00000KT 7SM CLR 29/21 A3003 RMK AO2=
KSIF 081400Z AUTO 02005KT 7SM CLR 32/21 A3003 RMK AO2=
KTDF 081402Z AUTO 02003KT 5SM CLR 29/20 A3002 RMK AO1=
KTPF 081400Z AUTO 00000KT 10SM CLR 27/23 A3001 RMK AO2=
####018000265####
SAUS99 KWBC 081404 RRA
METAR
KTSP 081355Z AUTO 00000KT 9SM CLR 13/06 A3004 RMK AO2=
KVDI 081402Z AUTO 29004KT 10SM CLR 31/20 A3002 RMK AO1=
KVJI 081402Z AUTO 00000KT 7SM CLR 28/20 A3015 RMK AO2=
KW99 081359Z AUTO 00000KT 7SM SCT085 29/16 A3009 RMK AO2=
####018000639####
SPUS99 KWBC 081404
SPECI
KDBQ 081402Z 01007KT 9SM FEW009 SCT013 23/21 A3007 RMK AO2=
KHVN 081402Z 11006KT 10SM SCT010 BKN025 OVC055 26/22 A3007 RMK
     AO2=
KJLN 081402Z 09005KT 1SM RA BR FEW004 BKN013 OVC055 22/22 A3008
     RMK AO2 P0005=
PAPB 081401Z AUTO 06018KT 10SM FEW003 OVC046 06/06 A2989 RMK AO2
     TSNO=
KLAR 081402Z AUTO 00000KT 10SM BKN006 OVC017 10/09 A3042 RMK AO2
     CIG 003V008=
KMFE 081402Z 35010KT 10SM BKN010 OVC014 27/24 A2983 RMK AO2=
KORD 081402Z 24006KT 8SM SCT008 BKN039 OVC050 24/22 A3003 RMK AO2
     RAE1356 P0000=
KORH 081402Z 20007KT 10SM SCT014 BKN019 24/20 A3013 RMK AO2=
####018000080####
SAZA42 FAJS 081400
METAR FAJS 081400Z 05010KT 9999 SCT045 16/03 Q1032 NOSIG=
####018000398####
SAMX34 MMMD 081356
METAR MMCZ 081342Z 10008KT 6SM  SCT015 BKN100 BKN200 27/24 A2990 
      RMK 8/569 HZY=
METAR MMMD 081345Z 11008KT 5SM  SCT005 BKN080 BKN140 18/18 A2988 
      RMK 8/570 HZY CI=
METAR MMTP 081348Z 00000KT 15SM SCT020 BKN160 OVC250 25/23 A2990
      RMK 8/176=
METAR MMUN 081342Z 13008KT 6SM  BKN016TCU BKN090 OVC280 29/25 A2991 
      RMK 8/277 HZ LWR SC BINOVC=
####018000117####
SAMH31 PKMR 081400
METAR PKMR 081357Z 08009KT 15SM FEW015 SCT045 BKN120 OVC300 28/24
A2979 RMK SLP088 T02780238
####018000156####
SACN92 KWBC 081404
METAR CWKH 081100Z AUTO 11/ RMK AO1 T0113=
METAR CWKH 081200Z AUTO 11/ RMK AO1 T0109=
METAR CWKH 081300Z AUTO 12/ RMK AO1 T0120=
####018000113####
SAVN31 SVVA 081400
METAR
METAR SVVA 081400Z 09002KT 9999 SCT016 BKN100 26/24 Q1015=
METAR SVPC 081400Z NIL=
####018000080####
SACN91 KWBC 081404
METAR CWHI 081300Z AUTO 20006KT 14/11 RMK AO1 T01390107=
####018000639####
SAGR31 LGAT 081350
METAR LGAD 081350Z 31009KT 9999 FEW020 27/14 Q1014=
METAR LGAV 081350Z 06015KT 9999 FEW025 BKN035 26/12 Q1013 NOSIG=
METAR LGIR 081350Z 01006KT 9999 SCT020 28/24 Q1011 NOSIG=
METAR LGKL 081350Z 28014KT 9999 FEW030 32/09 Q1011=
METAR LGKO 081350Z 30019KT CAVOK 27/18 Q1009=
METAR LGKR 081350Z 31023KT CAVOK 27/12 Q1012 NOSIG=
METAR LGLM 081350Z 04013KT 9999 FEW008 SCT020 22/15 Q1014=
METAR LGRP 081350Z 25012KT 9999 FEW020 29/19 Q1007 NOSIG=
METAR LGSA 081350Z 04012KT 9999 FEW020 31/18 Q1012=
METAR LGSM 081350Z 35010KT 9999 FEW030 31/16 Q1009=
METAR LGTS 081350Z 33017G27KT 9999 FEW030 25/11 Q1016 NOSIG=
####018000081####
SABZ21 SBNT 081400
METAR SBNT 081400Z 15007KT 9999 BKN023 BKN100 28/23 Q1015=
####018000536####
SAGR32 LGAT 081350
METAR LGAL 081350Z 03005KT 9999 FEW020TCU SCT025 BKN080 20/16 Q1015=
METAR LGEL 081350Z 36011G21KT 9999 FEW025 SCT080 28/12 Q1012 NOSIG=
METAR LGKV 081350Z 35005KT 9999 SCT030TCU BKN100 18/17 Q1014=
METAR LGMT 081350Z 34018G30KT 310V010 9999 SCT030 27/18 Q1011=
METAR LGPZ 081350Z 26014KT 9999 FEW025 29/18 Q1013 NOSIG=
METAR LGRX 081350Z 26009KT 9999 FEW020 27/16 Q1012 NOSIG=
METAR LGSK 081350Z NIL=
METAR LGSR 081350Z 02013KT 9999 FEW025 26/18 Q1010 NOSIG=
METAR LGZA 081350Z 32017KT CAVOK 28/11 Q1013=
####018000318####
SAGR33 LGAT 081350
METAR LGHI 081350Z 36012KT CAVOK 28/18 Q1011=
METAR LGKC 081350Z NIL=
METAR LGKF 081350Z 33020KT CAVOK 26/15 Q1013=
METAR LGKP 081350Z NIL=
METAR LGKZ 081350Z NIL=
METAR LGMK 081350Z 36020KT 9999 FEW015 24/17 Q1012=
METAR LGNX 081350Z NIL=
METAR LGPA 081350Z NIL=
METAR LGSO 081350Z NIL=
####018000074####
SAEW LEJR 081400
METAR LEJR 081400Z 22008KT 170V250 CAVOK 31/16 Q1015=
####018000068####
SABZ23 SBCB 081400
METAR SBCB 081400Z 09011KT CAVOK 24/17 Q1018=
####018000491####
SAVN26 SVMC 081400
METAR SVMC 081400Z 36004KT 9999 SCT013 30/25 Q1012=
METAR SVJC 081400Z 10012KT 9999 FEW030 28/24 Q1012=
METAR SVSA 081400Z 00000KT 9999 BKN020 25/20 Q1016=
METAR SVCR 081400Z 00000KT 9999 SCT016 BKN050 25/23 Q1013=
METAR SVVG 081400Z 00000KT 9999 OVC040 XX/XX Q1013=
METAR SVSZ 081400Z 00000KT 9999 SCT020 SCT030 XX/XX Q1013=
METAR SVMD 081400Z NIL=
METAR SVPM 081400Z 00000KT 9999 BKN045 XX/XX Q1018=
METAR SVLF 081400Z 00000KT 9999 SCT020 BKN040 XX/XX Q1014=
####018000074####
SAQB31 LQMO 081400
METAR LQMO 081400Z 34011KT 9999 FEW045 29/09 Q1017=
####018000130####
SAPQ50 KWBC 081400 RRC
METAR
PKMR 081357Z 08009KT 15SM FEW015 SCT045 BKN120 OVC300 28/24 A2979
     RMK SLP088 T02780238=
####018000379####
SAUK38 EGGY 081350
METAR EGEC 081350Z 25010KT 9999 FEW032 18/09 Q1013=
METAR EGPA 081350Z 22013KT 9999 -RA FEW020CB SCT040 17/10 Q1008=
METAR EGPC 081350Z NIL=
METAR EGPL 081350Z 22021KT 9999 FEW018 16/12 Q1009=
METAR COR EGPM 081350Z 22020KT 9999 FEW026 16/10 Q1007 NOSIG=
METAR EGPO 081350Z 22024G35KT 9999 VCSH FEW024 SCT034 18/10
    Q1007=
METAR EGPU 081350Z NIL=
####018000266####
SAPM31 MPTO 081400
METAR
MPMG 081400Z 18004KT 9999 SCT016 28/23 Q1013 TEMPO AT 1500 SCT016TCU=
MPCH 081400Z 00000KT 9999 FEW010 SCT030 OVC080 Q1013=
MPDA 081400Z 00000KT(E) 9999 FEW004 SCT030 OVC200 25/24/Q1011=
MPHO 081400Z 18008KT(E)  9999 FEW020TCU Q1012=
####018000458####
SAXX60 KWBC 081400 CCC
METAR
KNID 081356Z 00000KT 10SM CLR 22/04 A2989 RMK AO2 SLP100 T02170039
     $=
KVBG 081355Z 32004KT 4SM BR OVC004 12/11 A2995 RMK AO2 CIG 002V006
     SLP132 T01170111 $=
KINS 081356Z 36006KT 10SM FEW150 18/M11 A2997 RMK AO2 SLP096
     T01781106 $=
KNJK 081356Z 10003KT 10SM CLR 24/18 A2973 RMK AO2 SLP082
     T02440178=
KNUQ 081356Z AUTO 04003KT 10SM OVC011 15/12 A2994 RMK AO2 SLP141
     T01500122 TSNO=
####018000578####
SAUK36 EGGY 081350
METAR EGBE 081350Z NIL=
METAR EGBJ 081350Z 23008KT 200V280 9999 FEW045 23/07 Q1018=
METAR EGCN 081350Z 23014KT 9999 FEW048 23/07 Q1017=
METAR EGDL 081350Z 24007KT 9999 FEW040 SCT150 BKN200 22/09 Q1018
    NOSIG=
METAR EGSC 081350Z 21006KT 090V270 9999 FEW038 23/12 Q1018=
METAR COR EGSD 081350Z 14008KT 100V230 9999 SCT017 22/18 Q1019 NOSIG=
METAR COR EGSH 081350Z 23008KT 190V280 9999 SCT033 25/13 Q1018
    NOSIG=
METAR EGVN 081350Z 24005KT 9999 FEW045 BKN220 23/08 Q1018 NOSIG=
METAR EGWU 081350Z 24008KT 9999 FEW037 BKN250 24/14 Q1018 NOSIG=
####018003680####
SAXX60 KWBC 081400 RRD
METAR
KHLR 081356Z AUTO 04007KT 9SM FEW009 BKN018 OVC043 26/ A3002 RMK
     AO2 RAE04 SLP159 P0000 T0261 $=
PHBK 081356Z AUTO 15005KT 10SM BKN075 24/17 A3000 RMK AO2 SLP161
     T02440172 TSNO $=
PWAK 081356Z 08012KT 8SM FEW025 27/25 A2996 RMK AO2A=
KCOF 081355Z 02008KT 10SM CLR 28/21 A3001 RMK AOA2 SLP164
     T0285=
KCVS 081355Z 04011KT 10SM FEW070 BKN100 18/14 A3024 RMK AO2A
     SLP213 T01760140 $=
KDMA 081355Z AUTO 08008KT 10SM CLR 30/12 A2993 RMK AO2 SLP059
     T02980117 $=
KEDW 081355Z VRB02KT 90SM FEW100 17/03 A2990 RMK AO2A SLP080
     T01690028=
KFAF 081355Z 07005KT 10SM FEW180 29/22 A3000 RMK AO2A SLP160
     T02850221=
KFFO 081355Z 00000KT 7SM CLR 29/21 A3008 RMK AO2A SLP178=
KHLR 081356Z AUTO 04007KT 9SM FEW009 BKN018 OVC043 26/ A3002 RMK
     AO2 RAE04 SLP159 P0000 T0261 $=
KHOP 081355Z AUTO 27004KT 10SM CLR 31/22 A3009 RMK AO2 SLP184
     T03050223=
KLFI 081355Z 08007KT 10SM FEW013 BKN100 BKN250 27/17 A3001 RMK
     AO2A SLP164 T02730174 $=
KLSF 081355Z COR 00000KT 10SM SKC 29/22 A3003 RMK AO2A SLP169
     T02880219 COR 1358$=
KNBC 081356Z 30006KT 6SM HZ CLR 29/21 A2998 RMK AO2 SLP152
     T02940206 PNO $=
KNBG 081355Z 10006KT 10SM SCT015 BKN250 28/24 A3004 RMK AO2 SLP173
     T02830244 $=
KNCA 081356Z 05006KT 6SM HZ CLR 30/24 A2995 RMK AO2 SLP142
     T03000244=
KNJK 081356Z 10003KT 10SM CLR 24/18 A2973 RMK AO2 SLP082
     T02440178=
KNJK 081356Z 10003KT 10SM CLR 24/18 A2973 RMK AO2 SLP082
     T02440178=
KNRS 081356Z 32006KT 10SM FEW008 OVC014 17/14 A2992 RMK AO2 SLP131
     T01670144 $=
KCOF 081355Z 02008KT 10SM CLR 28/21 A3001 RMK AOA2 SLP164
     T0285=
KLFI 081355Z 08007KT 10SM FEW013 BKN100 BKN250 27/17 A3001 RMK
     AO2A SLP164 T02730174 $=
KNBC 081356Z 30006KT 6SM HZ CLR 29/21 A2998 RMK AO2 SLP152
     T02940206 PNO $=
KNBG 081355Z 10006KT 10SM SCT015 BKN250 28/24 A3004 RMK AO2 SLP173
     T02830244 $=
KNCA 081356Z 05006KT 6SM HZ CLR 30/24 A2995 RMK AO2 SLP142
     T03000244=
KNGP 081356Z 10007KT 7SM -RA FEW009 SCT016CB BKN025 27/26 A2984
     RMK AO2 RAB12 SLP105 CB DSNT SW TCU NE-OHD-W TCU DSNT N WR//
     P0007 T02730261 $=
KNTU 081356Z 07008KT 10SM FEW020 SCT100 SCT200 28/22 A2999 RMK AO2
     SLP157 T02830217 $=
KPAM 081355Z 36005KT 10SM CLR 29/24 A3002 RMK AO2A SLP169
     T02900243=
KVPS 081355Z 33003KT 10SM FEW250 29/24 A3004 RMK SLP173 T02880238
     $=
KHIF 081355Z 09013KT 10SM CLR 19/06 A3015 RMK AO2A SLP106
     T01910063 $=
PASY 081356Z AUTO 02016KT 8SM OVC002 A2974 RMK AO2 SLPNO TSNO
     PNO=
KDMA 081355Z AUTO 08008KT 10SM CLR 30/12 A2993 RMK AO2 SLP059
     T02980117 $=
KFAF 081355Z 07005KT 10SM FEW180 29/22 A3000 RMK AO2A SLP160
     T02850221=
KLFI 081355Z 08007KT 10SM FEW013 BKN100 BKN250 27/17 A3001 RMK
     AO2A SLP164 T02730174 $=
KNBG 081355Z 10006KT 10SM SCT015 BKN250 28/24 A3004 RMK AO2 SLP173
     T02830244 $=
KNCA 081356Z 05006KT 6SM HZ CLR 30/24 A2995 RMK AO2 SLP142
     T03000244=
KNFL 081356Z 00000KT 10SM FEW130 SCT160 19/00 A3003 RMK AO2 SLP138
     T01890000=
KNGP 081356Z 10007KT 7SM -RA FEW009 SCT016CB BKN025 27/26 A2984
     RMK AO2 RAB12 SLP105 CB DSNT SW TCU NE-OHD-W TCU DSNT N WR//
     P0007 T02730261 $=
KNGU 081359Z 06008KT 10SM SCT070 BKN100 28/22 A3001 RMK AO2 SLP162
     T02830217=
KNLC 081356Z AUTO 32008KT 10SM CLR 18/11 A2985 RMK AO2 SLP107
     T01780106 TSNO $=
KNMM 081356Z 35004KT 10SM FEW250 30/22 A3007 RMK AO2 SLP189
     T03000217=
KNQI 081356Z 02006KT 10SM FEW010CB BKN100 BKN280 28/25 A2985 RMK
     AO2 SLP104 CB DSNT NE AND E-SE AND NW T02830250 $=
####018000279####
SAUS80 KWBC 081400 CCC
METAR
KFLG 081356Z 00000KT 10SM SCT110 14/02 A3030 RMK AO2 SLP155
     T01440022=
KSMP 081356Z AUTO 00000KT 10SM CLR 17/05 A3016 RMK AO2 SLP180
     T01720050 TSNO $=
KLWS 081356Z 07005KT 10SM CLR 17/09 A3005 RMK AO2 SLP165
     T01720094=
####018000392####
SPUS80 KWBC 081404
SPECI
KVCT 081401Z 05010KT 2SM +RA BR SCT015 BKN022 OVC055 25/24 A2992
     RMK AO2 P0010 $=
PASN 081400Z 06012KT 3/4SM BR VV001 05/05 A2992 RMK AO2=
KDBQ 081402Z 01007KT 9SM FEW009 SCT013 23/21 A3007 RMK AO2=
KJLN 081402Z 09005KT 1SM RA BR FEW004 BKN013 OVC055 22/22 A3008
     RMK AO2 P0005=
KORH 081402Z 20007KT 10SM SCT014 BKN019 24/20 A3013 RMK AO2=
####018001349####
SAUS70 KWBC 081404
METAR
KBQP 081407Z AUTO 00000KT 10SM CLR 28/26 A3008 RMK AO2=
KCWV 081409Z AUTO 30008KT 10SM CLR 32/22 A3000 RMK AO2=
KHBI 081401Z AUTO 02004KT 7SM CLR 31/19 A3003 RMK AO2=
KHRJ 081401Z AUTO 04005KT 7SM CLR 33/22 A2997 RMK AO2=
KJYL 081401Z AUTO 00000KT 10SM CLR 31/22 A3000 RMK AO2=
KMWK 081402Z AUTO 02004KT 7SM CLR 31/20 A3007 RMK AO2=
KTNB 081401Z AUTO 27004KT 10SM CLR 27/16 A3020 RMK AO2=
KUKF 081401Z AUTO 00000KT 7SM CLR 30/21 A3008 RMK AO1=
K3J7 081401Z AUTO 27004KT 10SM CLR 30/22 A3000 RMK AO2=
KBGE 081401Z AUTO 00000KT 10SM CLR 26/21 A3004 RMK AO2=
KGEV 081401Z AUTO 01005KT 10SM CLR 28/17 A3020 RMK AO2=
KHLX 081401Z AUTO 35003KT 7SM CLR 28/22 A3018 RMK AO2=
KHQU 081401Z AUTO 28003KT 10SM CLR 31/19 A3006 RMK AO1=
PABA 081401Z AUTO 29016KT 10SM BKN040 07/04 A3001 RMK AO2 SLP161
     T00670044=
PAIK 081401Z AUTO 00000KT 10SM CLR 11/09 A3013 RMK AO2 SLP242
     T01060094=
KMFV 081402Z AUTO 08007KT 10SM SCT017 27/22 A3002 RMK AO2=
KPSK 081402Z AUTO 02004KT 7SM CLR 31/16 A3016 RMK AO2=
KPTB 081402Z AUTO 06003KT 7SM CLR 31/23 A2999 RMK AO2=
KRUQ 081401Z AUTO 00000KT 7SM CLR 29/21 A3003 RMK AO2=
KTDF 081402Z AUTO 02003KT 5SM CLR 29/20 A3002 RMK AO1=
KVDI 081402Z AUTO 29004KT 10SM CLR 31/20 A3002 RMK AO1=
KVJI 081402Z AUTO 00000KT 7SM CLR 28/20 A3015 RMK AO2=
####018000281####
SAAW41 KWBC 081350 RRF
METAR
LTAD 081350Z 28010KT 9999 FEW030CB BKN035 23/17 Q1011 RETSRA TEMPO
     -TSRA RMK RWY29 22005KT 160V280=
LTAG 081350Z 21012KT 9999 SCT035 31/20 Q1007 NOSIG=
LTAH 081350Z 25013KT 230V290 9999 SCT035 31/08 Q1011 RMK RWY13
     26011KT 230=
####018000658####
SANL33 EHDB 081355
METAR EHAK 081355Z AUTO 24008KT 9999NDV 16/13 Q1017=
METAR EHDV 081355Z NIL=
METAR EHFD 081355Z AUTO 23012KT 9999NDV SCT039/// BKN043/// 17/15
Q1019=
METAR EHFZ 081355Z AUTO 23011KT 9999NDV 17/15 Q1018=
METAR EHJA 081355Z AUTO 22008KT 9999NDV FEW013/// 16/13 Q1018=
METAR EHJR 081355Z NIL=
METAR EHKV 081355Z AUTO 25009KT 9999NDV FEW030/// 16/15 Q1019=
METAR EHMA 081355Z AUTO 25009KT 9999NDV 22/17 Q1019=
METAR EHMG 081355Z AUTO 24010KT 9999NDV 17/15 Q1018=
METAR EHPG 081355Z AUTO 22010KT 9999NDV ///////// 16/15 Q1019=
METAR EHQE 081355Z AUTO 21011KT 9999NDV 16/15 Q1019=
METAR EHSA 081355Z NIL=
METAR EHSC 081355Z NIL=
####018000089####
SAAJ31 UBBB 081400
METAR UBBB 081400Z 35018KT CAVOK 30/29 Q1009 NOSIG RMK
R88CLRD70=
####018000491####
SAUK37 EGGY 081350
METAR EGAE 081350Z 23010KT 9999 FEW020 BKN040 18/10 Q1012=
METAR EGNC 081350Z 23016KT 190V270 9999 SCT035 19/09 Q1015=
METAR EGNH 081350Z 24012KT 9999 FEW031 19/11 Q1017=
METAR EGNJ 081350Z 22010KT 9999 SCT040 23/09 Q1017=
METAR EGNR 081350Z 26010KT 220V300 9999 SCT040 21/09 Q1017=
METAR EGPE 081350Z 22019G29KT 180V240 9999 FEW018 SCT045 18/09
    Q1010=
METAR EGPI 081350Z 23011KT 9999 FEW022 16/11 Q1013=
METAR EGPN 081350Z 24020KT 9999 SCT045 18/11 Q1012=
####018000542####
SAUK51 EGGY 081350
METAR EGDL 081350Z 24007KT 9999 FEW040 SCT150 BKN200 22/09 Q1018
    NOSIG=
METAR EGDM 081350Z NIL=
METAR EGDY 081350Z NIL=
METAR EGOV 081350Z 19016KT 9999 -RA FEW018 BKN080 17/13 Q1017 NOSIG=
METAR EGUB 081350Z NIL=
METAR EGVN 081350Z 24005KT 9999 FEW045 BKN220 23/08 Q1018 NOSIG=
METAR EGWU 081350Z 24008KT 9999 FEW037 BKN250 24/14 Q1018 NOSIG=
METAR EGXC 081350Z 26009KT CAVOK 24/08 Q1017 NOSIG=
METAR EGXT 081350Z 19009KT 9999 FEW044 BKN250 23/06 Q1017=
METAR EGYD 081350Z 25009KT CAVOK 23/10 Q1017 NOSIG=
####018000169####
SAAW34 KWBC 081345 RRD
METAR
OPNH 081400Z 04506KT 6000M SCT035 SCT100 34/24 Q.1002=
OPSK 081355Z 13004KTS 5000 HZ SCT040 BKN100 32/25 QNH 1001 R.H.
     69PC=
####018000216####
SABX31 KWBC 081350 RRB
METAR
EBBL 081355Z VRB03KT 9999 FEW060 BKN220 33/10 Q1018 BLU BLU=
EBFN 081355Z 34004KT 9999 FEW042 BKN200 24/16 Q1019 BLU BLU=
EBFS 081355Z 28003KT 9999 FEW250 30/008 Q1020 BLU BLU=
####018003748####
SAUS70 KWBC 081400 RRF
METAR
K0R3 081359Z AUTO 07006KT 10SM OVC007 27/26 A3003 RMK AO2=
K1A5 081400Z AUTO 00000KT 10SM CLR 25/18 A3016 RMK AO2
     T02520180=
K47A 081400Z AUTO 35003KT 10SM CLR 31/18 A3008 RMK AO2
     T03050175=
KASJ 081357Z AUTO 03005KT 7SM CLR 28/23 A2999 RMK AO2=
KBIJ 081400Z AUTO 00000KT 10SM CLR 31/23 A3003 RMK AO2=
KCTZ 081400Z AUTO 02005KT 5SM HZ CLR 31/22 A2997 RMK AO2=
KDPL 081400Z AUTO 01004KT 7SM CLR 30/21 A2997 RMK AO2=
KEDE 081356Z AUTO 04005KT 10SM SCT022 29/22 A2998 RMK AO2=
KEXX 081359Z AUTO 34003KT 7SM CLR 29/21 A3002 RMK AO2=
KFQD 081359Z AUTO 32003KT 10SM CLR 31/19 A3006 RMK AO2=
KLWB 081400Z AUTO 00000KT 7SM SCT060 26/18 A3017 RMK AO2=
KMQI 081356Z AUTO 04011G15KT 10SM CLR 28/23 A2997 RMK AO2=
KO22 081355Z AUTO 00000KT 10SM CLR 17/13 A2992 RMK AO1=
KPGV 081400Z AUTO 03005KT 5SM HZ SCT013 SCT080 28/23 A2999 RMK
     AO2=
KTVI 081400Z AUTO 34004KT 10SM CLR 29/22 A3004 RMK AO2=
KUNV 081400Z AUTO 00000KT 10SM CLR 28/19 A3010 RMK AO2
     T02810191=
PPIZ 081356Z AUTO 20007KT 10SM CLR 06/02 A3007 RMK AO2 TSNO
     T00610022 SLP185 $=
PAGA 081358Z AUTO 00000KT 10SM CLR 10/08 A3007 RMK AO2 SLP226
     T01000083=
KAMN 081355Z AUTO 26006KT 7SM SCT060 24/22 A3001 RMK AO2=
KAQP 081354Z AUTO 26006KT 10SM CLR 19/18 A3011 RMK AO2=
KBFW 081353Z AUTO 27003KT 10SM CLR 24/16 A3002 RMK AO2=
KCDA 081355Z AUTO 17005KT 7SM CLR 28/21 A3009 RMK AO2=
KCDD 081351Z AUTO 27005KT 10SM CLR 22/18 A3004 RMK AO2=
KCVX 081355Z AUTO 25007KT 4SM -RA BKN004 OVC060 22/20 A3002 RMK
     AO2=
KDVP 081356Z AUTO 29006KT 10SM CLR 21/14 A3018 RMK AO2
     T02090143=
KERY 081355Z AUTO 36003KT 10SM OVC003 19/18 A3001 RMK AO2=
KETH 081354Z AUTO 25006KT 10SM CLR 21/16 A3011 RMK AO2=
KFKS 081355Z AUTO 26003KT 10SM OVC017 22/20 A3001 RMK AO2=
KFOZ 081353Z AUTO 24006KT 10SM CLR 20/14 A3007 RMK AO2 LTG DSNT
     N=
KGOV 081355Z AUTO 24003KT 4SM +DZ BKN010 BKN025 OVC038 22/22 A3004
     RMK AO2=
KHYX 081355Z AUTO 25004KT 10SM SCT070 SCT080 26/21 A3002 RMK
     AO2=
KISQ 081356Z AUTO 34005KT 10SM BKN006 OVC010 21/18 A3000 RMK
     AO2=
KLDM 081355Z AUTO 24004KT 10SM BKN005 OVC010 23/22 A3002 RMK
     AO2=
KMCD 081356Z AUTO 25003KT M1/4SM -RA OVC001 20/17 A3001 RMK
     AO2=
KMZH 081351Z AUTO 30006KT 10SM CLR 20/15 A3006 RMK AO2=
KONZ 081357Z AUTO 18004KT 10SM CLR 29/23 A3002 RMK AO2=
KORB 081354Z AUTO 27004KT 10SM CLR 19/13 A3002 RMK AO2=
KOSC 081354Z AUTO 29005KT 5SM -RA SCT018 BKN060 OVC075 23/21 A3001
     RMK AO2=
KOWA 081354Z AUTO 31006KT 10SM CLR 20/17 A3012 RMK AO2=
KPHN 081355Z AUTO 25003KT 10SM CLR 29/21 A3002 RMK AO2=
KRMY 081355Z AUTO 12003KT 10SM CLR 26/22 A3003 RMK AO2=
KSJX 081355Z AUTO 00000KT 1/4SM FG OVC002 20/18 A3000 RMK AO2=
KSLH 081355Z AUTO 26003KT 5SM RA SCT007 BKN012 OVC042 22/21 A2999
     RMK AO2=
KTTF 081354Z AUTO 23003KT 10SM SCT075 31/21 A3002 RMK AO2=
KVWU 081351Z AUTO 23007KT 10SM CLR 20/16 A3005 RMK AO2=
KXVG 081356Z AUTO 29004KT 10SM CLR 20/15 A3006 RMK AO2=
KNSE 081356Z 33003KT 9SM FEW020 SCT250 29/24 A3004 RMK AO2 SLP157
     T02940239 $=
K3A1 081400Z AUTO 01004KT 10SM CLR 30/25 A3011 RMK AO2
     T03000250=
K3I2 081400Z AUTO 00000KT 10SM CLR 28/21 A3010 RMK AO2=
K4A9 081400Z AUTO 05004KT 10SM CLR 29/20 A3007 RMK AO2
     T02940198=
K4R4 081400Z AUTO 00000KT 7SM CLR 30/25 A3004 RMK AO2
     T03000253=
K8A0 081359Z AUTO 02004KT 10SM CLR 30/20 A3009 RMK AO2=
KACP 081359Z AUTO 08003KT 10SM BKN009 BKN017 28/26 A3003 RMK
     AO2=
KAFP 081400Z AUTO 02003KT 10SM CLR 30/19 A2998 RMK AO2
     T03000186=
KALX 081400Z AUTO 01003KT 10SM CLR 31/22 A3006 RMK AO1=
KAVC 081400Z AUTO 00000KT 7SM CLR 31/22 A3005 RMK AO2=
####018001118####
SPUS70 KWBC 081404
SPECI
KAUS 081401Z 08007KT 2SM RA BR BKN008 OVC014 26/24 A2998 RMK AO2
     SFC VIS 2 1/2 P0003=
KDWH 081401Z 06004KT 5SM RA BR BKN027 24/23 A2999 RMK AO2
     P0001=
KMLC 081400Z AUTO 18005KT 10SM BKN011 BKN018 OVC027 25/23 A3006
     RMK AO2=
PALG 081358Z AUTO 00000KT 1 3/4SM BR BKN003 06/05 A2999 RMK AO2
     TSNO BKN V SCT VIS 1V5=
KDXR 081401Z 14003KT 2 1/2SM -RA BR FEW007 BKN016 OVC034 24/24
     A3008 RMK AO2 P0001=
KJCT 081358Z AUTO 04003KT 10SM BKN010 OVC022 25/22 A3004 RMK AO2
     CIG 007V012 TSNO=
KMKO 081402Z AUTO 11003KT 9SM -RA BKN005 OVC009 24/23 A3007 RMK
     AO2 P0000=
KSBM 081401Z AUTO 26005KT 10SM SCT012 BKN017 25/22 A3001 RMK
     AO2=
KHVN 081402Z 11006KT 10SM SCT010 BKN025 OVC055 26/22 A3007 RMK
     AO2=
PAPB 081401Z AUTO 06018KT 10SM FEW003 OVC046 06/06 A2989 RMK AO2
     TSNO=
KLAR 081402Z AUTO 00000KT 10SM BKN006 OVC017 10/09 A3042 RMK AO2
     CIG 003V008=
KMFE 081402Z 35010KT 10SM BKN010 OVC014 27/24 A2983 RMK AO2=
KORD 081402Z 24006KT 8SM SCT008 BKN039 OVC050 24/22 A3003 RMK AO2
     RAE1356 P0000=
####018000828####
SAUS80 KWBC 081400 RRB
METAR
KJNX 081359Z AUTO 01006KT 10SM CLR 29/21 A2997 RMK AO2=
PHNY 081356Z AUTO 00000KT BKN043 BKN050 19/17 A3005 RMK AO2 TSNO
     T01880172 BKN V SCT SLP155 $=
KACY 081354Z 12004KT 4SM -RA BR SCT022 BKN060 24/22 A3005 RMK AO2
     SLP176 P0003 T02390222=
KCHS 081356Z 33007KT 8SM CLR 30/21 A2996 RMK AO2 SLP144
     T03000206=
KDAB 081353Z VRB03KT 10SM FEW026 SCT250 28/19 A3002 RMK AO2 SLP163
     T02830194 $=
KDAB 081353Z VRB03KT 10SM FEW026 SCT250 28/19 A3002 RMK AO2 SLP163
     T02830194 $=
KRIC 081354Z 14007KT 9SM FEW150 SCT250 31/21 A3000 RMK AO2 SLP161
     T03060211=
KPZQ 081355Z AUTO 28005KT 7SM -RA SCT013 OVC065 22/22 A3001 RMK
     AO2=
KAYS 081400Z AUTO 30004KT 10SM CLR 29/23 A3002 RMK AO1=
KDBN 081400Z AUTO 32007KT 10SM CLR 32/21 A3000 RMK AO1=
####018000569####
SAXX60 KWBC 081400 RRE
METAR
KNTU 081356Z 07008KT 10SM FEW020 SCT100 SCT200 28/22 A2999 RMK AO2
     SLP157 T02830217 $=
KNUW 081356Z 00000KT 10SM CLR 17/12 A2998 RMK AO2 SLP157
     T01720117=
KNXX 081356Z 12007KT 5SM HZ FEW055 SCT200 27/21 A3006 RMK AO2
     SLP182 T02670211 $=
KNYL 081355Z 11005KT 10SM FEW120 29/M01 A2975 RMK AO2 SLP070
     T02891011=
KPAM 081355Z 36005KT 10SM CLR 29/24 A3002 RMK AO2A SLP169
     T02900243=
KRND 081355Z 06006KT 5SM -RA BR OVC007 25/24 A2996 RMK AO2A
     RAB1327DZB1338E1340 SLP136 P0002 T02480241=
####018002300####
SAUS70 KWBC 081400 RRG
METAR
KBCB 081400Z AUTO 34003KT 7SM CLR 30/22 A3016 RMK AO2=
KBQK 081357Z AUTO 30005KT 10SM CLR 29/23 A3002 RMK AO1 T02880227
     PNO=
KCCO 081400Z AUTO 00000KT 10SM CLR 28/22 A3007 RMK AO1=
KCDH 081400Z AUTO 00000KT 8SM BKN005 25/24 A3008 RMK AO2=
KCPC 081400Z AUTO 04007KT 7SM CLR 30/23 A2995 RMK AO2
     T02950225=
KCTJ 081400Z AUTO 35006KT 10SM CLR 31/20 A3008 RMK AO2
     T03140203=
KDNN 081358Z AUTO 01003KT 10SM CLR 27/21 A3007 RMK AO2=
KDQH 081400Z AUTO 29004KT 10SM CLR 31/18 A3002 RMK AO1=
KEHO 081400Z AUTO 02004KT 10SM CLR 31/19 A3004 RMK AO2
     T03060193=
KEMV 081357Z AUTO 06005KT 10SM CLR 30/23 A2999 RMK AO2=
KEZF 081358Z AUTO 00000KT 7SM CLR 31/27 A3000 RMK AO2
     T03050265=
KF24 081359Z AUTO 10SM OVC095 27/24 A3010 RMK AO2 T02660240=
KFKN 081400Z AUTO 00000KT 10SM SCT016 29/24 A2999 RMK AO1=
KGHG 081400Z AUTO 11009KT 10SM CLR 26/22 A3011 RMK AO2=
KHOE 081359Z AUTO 32008KT 10SM CLR 29/21 A3003 RMK AO2
     T02850212=
KHSP 081400Z AUTO 07004KT 10SM SCT050 26/17 A3027 RMK AO2=
KHWY 081400Z AUTO 00000KT 7SM OVC110 30/22 A3002 RMK AO2=
KIDI 081400Z AUTO 00000KT 10SM CLR 27/21 A3010 RMK AO2=
KIPJ 081400Z AUTO 02003KT 10SM CLR 31/20 A3003 RMK AO2
     T03110195=
KJES 081400Z AUTO 32006KT 10SM CLR 29/24 A3001 RMK AO2
     T02900240=
KJGG 081400Z AUTO 00000KT 10SM SCT020 31/23 A3001 RMK AO1=
KJKA 081400Z AUTO 00000KT 10SM CLR 32/26 A3004 RMK AO2
     T03150263=
PANW 081356Z AUTO 35009KT BKN055 OVC070 10/08 A2997 RMK AO2 PWINO
     TSNO T01000083 SLP124 $=
KJYO 081400Z AUTO 00000KT 7SM CLR 32/22 A3003 RMK AO2=
KLGC 081355Z AUTO 32003KT 10SM CLR 31/21 A3005 RMK AO1=
KLOM 081400Z AUTO 15005KT 7SM CLR 29/22 A3004 RMK AO1
     T02940224=
KMGR 081400Z AUTO 31005KT 10SM CLR 30/20 A3005 RMK AO2=
KMQS 081400Z AUTO 09003KT 8SM CLR 29/22 A3007 RMK AO2=
KMRN 081400Z AUTO 00000KT 10SM SCT085 28/17 A3012 RMK AO2=
KOCW 081359Z AUTO 02007KT 10SM CLR 28/23 A2997 RMK AO2=
KOXC 081345Z 17006KT 4SM BR SCT008 BKN015 OVC022 25/22 A3011=
KSIF 081400Z AUTO 02005KT 7SM CLR 32/21 A3003 RMK AO2=
KTPF 081400Z AUTO 00000KT 10SM CLR 27/23 A3001 RMK AO2=
KTSP 081355Z AUTO 00000KT 9SM CLR 13/06 A3004 RMK AO2=
KW99 081359Z AUTO 00000KT 7SM SCT085 29/16 A3009 RMK AO2=
####018000081####
SACA41 KWBC 081300 RRD
METAR
MUMZ 081349Z 00000KT 9000 FEW025 XX/XX Q1015=
####018000121####
SAMX41 KWBC 081345 RRD
METAR
MMAS 081340Z 03004KT 8SM SCT020 BKN070 OVC200 18/14 A3010 RMK
     8/537 HZ BINOVC=
####018000116####
SASA31 KWBC 081300 RRD
METAR
SYCJ 081300Z 10010KT 9999 SCT019 SCT300 29/25 Q1013 JP SW AND N-NE
     NOSIG=
####018000140####
SANK31 MNMG 081400
METAR
MNMG 081400Z 26006KT 9000 FEW015CB SCT018 24/23 Q1012 A2989
                   CB/W/NW/N/NE/E/SE  RA/N/W/E/S=
####018000469####
SADR31 MDSD 081400
METAR
MDPP 081400Z 09005KT 8000 FEW018 30/26 Q1017 DU/ALL QDS=
MDST 081400Z 11008KT 5000 SCT020 28/26 Q1016 BR/ALL QDS=
MDCY 081400Z 18006KT 9999 SCT020 30/27 Q1015=
MDPC 081400Z 09010KT 9999 FEW018 28/25 Q1013 NOSIG=
MDJB 081400Z 06004KT 9999 SCT020 29/25 Q1015=
MDLR 081400Z 11010KT 8000 FEW020 30/25 Q1016 DU/ALL QDS=
MDBH 081400Z 09008KT 9999 FEW018CB FEW020 30/26  Q1017 CB/SE/S=
MDSD 081400Z 06005KT 9999 SCT020 30/24 Q1015=
####018000146####
SANK31 MNMG 081400
METAR
METAR MNMG 081400Z 26006KT 9000 FEW015CB SCT018 24/23 Q1012 A2989
                   CB/W/NW/N/NE/E/SE  RA/N/W/E/S=
####018000146####
SAUK42 KWBC 081350 RRD
METAR
EGPU 081350Z 23019KT 9999 FEW023 16/12 Q1010=
EGQK 081350Z 23021KT 9999 SCT030 BKN060 18/07 Q1010 BLU NOSIG=
####018000112####
SAUK41 KWBC 081350 RRD
METAR
EGDY 081350Z 21011KT 9999 FEW033 SCT100 BKN220 23/15 Q1018 BLU
     NOSIG=
####018000304####
SAXX99 KWBC 081300 RRX
METAR
LHDC 081345Z 36008KT 9999 FEW046 23/11 Q1021 NOSIG=
LHKE 081345Z 28002MPS CAVOK 24/11 Q1020 NOSIG RMK BLU=
LHPP 081345Z 32007KT CAVOK 24/13 Q1022 NOSIG=
LHSN 081345Z VRB01MPS CAVOK 24/11 Q1020 NOSIG RMK BLU=
LHUD 081345Z 36005KT 9999 SCT040 SCT050 24/14 Q1021=
####018000089####
SPUS42 KWBC 081404
SPECI
KAUS 081401Z 08007KT 2SM RA BR BKN008 OVC014 26/24 A2998=
####018000319####
SAEW33 LEMM 081400
METAR GCLP 081400Z 02027KT 9999 FEW020 25/17 Q1017 NOSIG=
METAR GCXO 081400Z 29010KT 260V320 9999 FEW005 24/17 Q1020 NOSIG=
METAR GCTS 081400Z 10019KT CAVOK 25/17 Q1017 NOSIG=
METAR GCRR 081400Z 36019KT 330V040 9999 FEW025 26/18 Q1017=
METAR GCFV 081400Z 05013KT 9999 FEW020 24/19 Q1017=
####018000822####
SAEW32 LEMM 081400
METAR LEAS 081400Z 08005KT 030V140 9999 FEW015 26/19 Q1015 NOSIG=
METAR LEBB 081400Z 30005KT 250V330 9999 FEW025 26/20 Q1016 TEMPO 
SCT030CB=
METAR LECO 081400Z VRB08KT CAVOK 25/19 Q1016=
METAR LEGE 081400Z 16008KT 110V210 CAVOK 33/18 Q1019=
METAR LEST 081400Z 26011KT 210V290 9999 FEW035 27/20 Q1016 NOSIG=
METAR LEZG 081400Z 09008KT 060V120 9999 FEW035 FEW040CB SCT070 
38/10 Q1016=
METAR LESO 081400Z VRB04KT CAVOK 27/21 Q1015=
METAR LEVT 081400Z VRB02KT 9999 FEW050 33/18 Q1017=
METAR LERS 081400Z 20009KT 170V240 CAVOK 30/12 Q1019=
METAR LEMH 081400Z 14006KT 050V200 CAVOK 29/21 Q1020=
METAR LEAM 081400Z 09015KT 070V130 9999 FEW050 38/07 Q1015=
METAR LEGR 081400Z 16013KT 120V200 9999 FEW060 39/06 Q1017=
METAR LERL 081400Z 15012KT 100V190 9999 FEW050 38/05 Q1017=
####018000523####
SAAU69 AMMC 081400
METAR YSTW 081400Z AUTO 16006KT 9999NDV // NCD 06/04 Q1024=
METAR YSWG 081400Z AUTO 12005KT 9999NDV // NCD 03/01 Q1027=
METAR YTEF 081400Z AUTO 03008KT //// // ////// 20/15 Q1012=
METAR YTNK 081400Z AUTO 09007KT 9999NDV // NCD 14/11 Q1019=
METAR YTRE 081400Z AUTO 25005KT //// // ////// 11/11 Q1026=
METAR YWGT 081400Z AUTO 19003KT //// // ////// 02/02 Q1028=
METAR YWHA 081400Z AUTO 03005KT 9999NDV // NCD 03/01 Q1024=
METAR YWLM 081400Z AUTO 29005KT 9999NDV // ////// 09/09 Q1026=

####018000089####
SPUS52 KWBC 081404
SPECI
KAUS 081401Z 08007KT 2SM RA BR BKN008 OVC014 26/24 A2998=
####018000096####
SPUS52 KWBC 081404
SPECI
KMLC 081400Z AUTO 18005KT 10SM BKN011 BKN018 OVC027 25/23 A3006=
####018000449####
SAEW35 LEMM 081400
METAR LEAB 081400Z 15014KT CAVOK 35/M02 Q1021 NOSIG=
METAR LEBZ 081400Z 26011KT 210V310 CAVOK 36/13 Q1014=
METAR LELN 081400Z 15008KT 060V200 9999 FEW050TCU 32/09 Q1018=
METAR LESA 081400Z 17009KT 120V220 9999 FEW048 35/14 Q1017=
METAR LETO 081400Z 22005KT 9999 -SHRA FEW040 FEW060CB 34/07 Q1018 
NOSIG=
METAR LEVD 081400Z 19015KT 160V230 CAVOK 35/06 Q1017=
METAR LEVS 081400Z 36010KT 320V040 CAVOK 29/13 Q1018=
####018000494####
SATU20 LTAA 081350
METAR LTAB 081350Z 21012KT 9999 TS FEW025CB BKN035 25/15 Q1011 RETSRA BECMG 03012KT TEMPO -TSRA RMK RWY06 22012KT=
METAR LTAD 081350Z 28010KT 9999 FEW030CB BKN035 23/17 Q1011 RETSRA TEMPO -TSRA RMK RWY29 22005KT 160V280=
METAR LTAE 081350Z 32011KT 9999 -TSRA FEW030CB BKN035 21/17 Q1011 BECMG TL1450 NSW RMK RWY21 32009KT=
METAR LTAG 081350Z 21012KT 9999 SCT035 31/20 Q1007 NOSIG=
METAR LTAH 081350Z 25013KT 230V290 9999 SCT035 31/08 Q1011  RMK RWY13 26011KT 230
####018000609####
SAEW31 LEMM 081400
METAR LEMD 081400Z 32008KT 270V350 9999 SCT035CB 32/13 Q1018   WS 
ALL RWY NOSIG=
METAR LEBL 081400Z 20013KT CAVOK 29/19 Q1019 NOSIG=
METAR LEPA 081400Z 23013KT CAVOK 30/16 Q1020 NOSIG=
METAR LEZL 081400Z 21007KT 140V280 9999 FEW030 33/15 Q1015 NOSIG=
METAR LEMG 081400Z 16009KT 110V210 9999 FEW040 29/15 Q1017 NOSIG=
METAR LEVC 081400Z 13012KT CAVOK 32/11 Q1018 NOSIG=
METAR LEAL 081400Z 10010KT 060V140 CAVOK 30/17 Q1019 NOSIG=
METAR LEIB 081400Z 08006KT 020V140 CAVOK 29/20 Q1019 NOSIG=
METAR LELC 081400Z NIL=
METAR LEVX 081400Z 03005KT 8000 FEW030 22/18 Q1016=
####018000345####
SAEW34 LEMM 081400
METAR LEBA 081400Z 28008KT 240V310 9999 FEW050 36/14 Q1014=
METAR LEDA 081400Z NIL=
METAR LEJR 081400Z 22008KT 170V250 CAVOK 31/16 Q1015=
METAR LELL 081400Z 13007KT 090V170 CAVOK 31/13 Q1019=
METAR LEPP 081400Z 17011KT 150V210 9999 FEW064 36/13 Q1017=
METAR LEXJ 081400Z 25006KT 210V300 9999 FEW018 26/19 Q1016=
####018000201####
SAEW36 LEMM 081400
METAR GCHI 081400Z 36012KT 330V040 9999 FEW022 23/17 Q1019=
METAR GCLA 081400Z 01012KT 340V050 9999 FEW020 26/18 Q1019=
METAR GEML 081400Z 10008KT 030V160 CAVOK 27/21 Q1016=
####018001708####
SAZZ40 KAWN 081400 RRL
METAR BGBW 081350Z 25008KT 220V290 9999 FEW040 14/05 Q1008 RMK 1SC=
METAR BIAR 081400Z 35015KT 9999 BKN020 09/07 Q0996=
METAR BIEG 081400Z 36011KT 4000 -RABR VV006 08/08 Q0992=
METAR BIRK 081400Z 01020G30KT 290V180 9999 FEW020 SCT050 11/06 Q0994=
METAR K79J 081356Z 00000KT 10SM CLR 31/23 A3004 RMK AO2 SLP166 T03110233
      $=
METAR KDPG 081355Z 35003KT 50SM SCT170 BKN250 17/02 A3019 RMK SLP179
      FIRST T01740018=
METAR KNGU 081359Z 06008KT 10SM SCT070 BKN100 28/22 A3001 RMK AO2 SLP162
      T02830217=
METAR KNSE 081356Z 33003KT 9SM FEW020 SCT250 29/24 A3004 RMK AO2 SLP157
      T02940239 $=
METAR LKKV 081400Z VRB03KT CAVOK 25/09 Q1022=
METAR MROC 081400Z 23004KT 9999 2500SW BR SCT001 BKN120 21/21 A3005
      RMK FG BANK IN APCH RNY 07 TEMPO 4000 BR=
METAR MTPP 1400Z 10012G22KT 7000 FEW026 SCT200 31/24 Q1015/8 A2999=
METAR MUGM 081356Z 06003KT 9999 FEW040 BKN250 30/23 A2998 RMK SLP150
      T03000228=
METAR SCAP 081400Z 23009KT 9999 SCT040 04/M02 Q1015=
METAR SCAS 081400Z 27010KT 9999 -SHRA BKN020 02/01 Q1010=
METAR SCGE 081400Z 33005KT 5000 VCRA BKN003 10/10 Q1019=
METAR SCGZ 081400Z 18003KT 9999 FEW046 SCT150 M02/M03 Q0983=
METAR SCNT 081400Z 32024G35KT 9999 BKN020 03/M05 Q0989=
METAR SCRD 081400Z 18012KT CAVOK 11/04 Q1021=
METAR SCSE 081400Z 31003KT CAVOK 11/08 Q1018 NEFO PLAYA SKC=
METAR SCTB 081400Z VRB02KT 9999 FEW090 08/05 Q1023 RMK/FU AL W=
METAR TBPB 081400Z 09020KT 9999 BKN014 BKN280 31/25 Q1014 NOSIG=
METAR TGPY 081400Z 11010KT 9999 SCT019 SCT035 BKN270 28/26 Q1013=
METAR TLPC 081400Z 10012KT 9999 FEW026 SCT280 31/25 Q1014=
METAR TLPL 081400Z 08020KT 9999 FEW027 BKN280 31/24 Q1014=
####018000267####
SAUY59 SUMU 081400
METAR SUMU 081400Z 27005KT CAVOK 13/05 Q1019 NOSIG=
METAR SUDU 081400Z 00000KT CAVOK 11/04 Q1020=
METAR SULS 081400Z 27011KT CAVOK 12/04 Q1019=
METAR SUAA 081400Z 27006KT CAVOK 08/05 Q1019=
METAR SUSO 081400Z 12005KT CAVOK 11/05 Q1020=
####018000434####
SAUS20 KNKA 081404
METAR KGTU 081359Z 06005KT 3SM -RA BKN008 OVC014 25/22 A3005=
METAR KNMM 081356Z 35004KT 10SM FEW250 30/22 A3007 RMK AO2 SLP189 T03000217=
METAR KNSE 081356Z 33003KT 9SM FEW020 SCT250 29/24 A3004 RMK AO2 SLP157
      T02940239 $=
METAR KNXX 081356Z 12007KT 5SM HZ FEW055 SCT200 27/21 A3006 RMK AO2
      SLP182 T02670211 $=
METAR KPAM 081355Z 36005KT 10SM CLR 29/24 A3002 RMK AO2A SLP169 T02900243=
####018000265####
SAUY SUMU 081400
METAR SUMU 081400Z 27005KT CAVOK 13/05 Q1019 NOSIG=
METAR SUDU 081400Z 00000KT CAVOK 11/04 Q1020=
METAR SULS 081400Z 27011KT CAVOK 12/04 Q1019=
METAR SUAA 081400Z 27006KT CAVOK 08/05 Q1019=
METAR SUSO 081400Z 12005KT CAVOK 11/05 Q1020=
####018000075####
SAMY20 FMCZ 081400
METAR FMCZ 081400Z 15009KT 9999 SCT023 26/19 Q1017=
####018000089####
SPUS72 KWBC 081404
SPECI
KAUS 081401Z 08007KT 2SM RA BR BKN008 OVC014 26/24 A2998=
####018000089####
SAGD31 TGPY 081400
METAR TGPY 081400Z 11010KT 9999 SCT019 SCT035 BKN270 28/26 Q1013=
####018000267####
SAIL31 BICC 081400
METAR BIAR 081400Z 35015KT 9999 BKN020 09/07 Q0996=
METAR BIEG 081400Z 36011KT 4000 -RABR VV006 08/08 Q0992=
METAR BIKF 081400Z 02020KT 9999 SCT024 BKN100 12/05 Q0995=
METAR BIRK 081400Z 01020G30KT 290V180 9999 FEW020 SCT050 11/06 Q0994=
####018000244####
SAGG31 UGTB 081400
METAR UGTB 081400Z 06010KT 9999 SCT050 SCT100 34/13 Q1013 NOSIG RMK
      13CLRD80=
METAR UGKO 081400Z 27010KT 9999 SCT033CB BKN100 29/23 Q1010 NOSIG=
METAR UGSB 081400Z 33004KT 9999 SCT023CB SCT070 27/23 Q1009 NOSIG=
####018000846####
SAUR31 UKMS 081400
METAR UKLR 081400Z 30005MPS 270V340 9999 SCT030
         BKN100  21/15 Q1018 30090070 NOSIG=
METAR UKLI 081400Z 30004MPS 260V020 9999 FEW021CB
         BKN030 18/15 Q1020 28290565 NOSIG=
METAR UKON 081400Z 33005MPS 290V360 9999 VCTS
         SCT033CB  OVC200 28/17 Q1013 05090075 NOSIG=
METAR UKCM 081400Z 12002MPS 090V160 CAVOK 29/15 Q1013
          20010065 NOSIG=
METAR UKCW 081400Z 07002MPS 010V120 9999 BKN040 30/16
          Q1014 2709//70 NOSIG=
METAR UKLU 081400Z 33003MPS 9999 SCT040 BKN200 23/11
         Q1020 10090070  NOSIG=
METAR UKKK 081400Z 28004MPS CAVOK 26/17 Q1015
         26CLRD70 NOSIG=
METAR UKKM 081400Z 29003MPS 240V360 9999 SCT042 26/17
         Q1015  33CLRD70 NOSIG=
METAR UKLN 081400Z 26003MPS 210V320 9999 BKN017
         BKN033CB 16/14 Q1020 3319//65 NOSIG=
####018000088####
SABR31 TBPB 081400
METAR TBPB 081400Z 09020KT 9999 BKN014 BKN280 31/25 Q1014 NOSIG=
####018000247####
SACZ31 LKPW 081400
METAR LKKV 081400Z VRB03KT CAVOK 25/09 Q1022=
METAR LKMT 081400Z 03005KT 330V100 CAVOK 22/10 Q1022 NOSIG=
METAR LKPR 081400Z 31003KT 260V360 CAVOK 26/10 Q1022 NOSIG=
METAR LKTB 081400Z VRB03KT CAVOK 25/08 Q1021 NOSIG=
####018000534####
SAYG31 LYBM 081400
METAR LYBE 081400Z 34012KT CAVOK 24/12 Q1021 NOSIG=
METAR LYBT 081400Z 32013KT CAVOK 24/13 Q1021 NOSIG=
METAR LYKV 081400Z 32007KT 9999 SCT035 20/16 Q1022 NOSIG=
METAR LYNI 081400Z 31011KT 9999 FEW020 BKN026 18/13 Q1021 NOSIG=
METAR LYPG 081400Z 02017KT 360V060 9999 FEW040 28/09 Q1017 NOSIG=
METAR LYPR 081400Z NIL=
METAR LYTV 081400Z 12006KT 020V170 9999 FEW053 30/10 Q1017 NOSIG=
METAR LYUZ 081400Z 29005KT 250V310 9999 BKN020 14/10 Q1024=
METAR LYVR 081400Z VRB06KT 9999 BKN033 23/14 Q1020=
####018000143####
SALC31 TLPL 081400
METAR TLPL 081400Z 08020KT 9999 FEW027 BKN280 31/24 Q1014=
METAR TLPC 081400Z 10012KT 9999 FEW026 SCT280 31/25 Q1014=
####018000377####
SAIE31 EIDB 081400
METAR EIDW 081400Z 22011KT 9999 FEW022 SCT040 BKN050 16/10 Q1015
     NOSIG=
METAR EINN 081400Z 21006KT 9000 -RADZ FEW014 SCT018 BKN032 15/13
     Q1015 NOSIG=
METAR EICK 081400Z 20010KT 9999 -RA BKN006 BKN012 BKN038 13/13 Q1016
     TEMPO 2000=
METAR EIKN 081400Z 21007KT 170V250 9999 FEW015 FEW018CB BKN030 BKN060
     14/11 Q1014 NOSIG=
####018000073####
SADN34 EKCH 081350 RRA
METAR EKGF 081350Z 21007KT CAVOK 17/16 Q1018=
####018000085####
SATU31 LTAA 081350 RRA
METAR LTFJ 081350Z 36015KT 9999 BKN030 22/17 Q1011 NOSIG=
####018000096####
SPUS72 KWBC 081404
SPECI
KMLC 081400Z AUTO 18005KT 10SM BKN011 BKN018 OVC027 25/23 A3006=
####018001813####
SAEU KAWN 081400 RRK
METAR EGUB 081350Z 22008KT 9999 FEW040 BKN200 23/12 Q1018 BLU NOSIG=
METAR EGWC 081350Z 23010KT 9999 BKN035 22/10 Q1018 BLU=
METAR EGXX 081350Z AUTO 22008KT 9999NDV // FEW050/// ///// Q////=
METAR EGXZ 081350Z 25016KT 9999 SCT035 BKN200 21/08 Q1016 BLU=
METAR EGYE 081350Z 28008KT 9999 FEW040 SCT250 ///// Q1017 BLU=
METAR EGYH 081350Z 22008KT 9999 FEW030 24/// Q1018 BLU=
METAR EPGD 081400Z 08010KT 9999 FEW045 23/12 Q1021=
METAR EPKK 081400Z VRB04KT CAVOK 24/06 Q1021=
METAR EPKT 081400Z 01005KT CAVOK 23/08 Q1022=
METAR EPPO 081400Z 28005KT CAVOK 26/07 Q1021=
METAR EPRZ 081400Z 31006KT 240V020 CAVOK 24/07 Q1021=
METAR EPWA 081400Z 30011KT 260V340 CAVOK 24/11 Q1020 NOSIG=
METAR EPWR 081400Z VRB02KT CAVOK 26/08 Q1022=
METAR LATI 081400Z 01016G26KT 340V050 9999 FEW060 27/14 Q1016 NOSIG=
METAR LFKS 081400Z AUTO 11005KT 060V140 9999NDV NSC 29/23 Q1020=
METAR LFQI 081400Z 26005KT 200V330 CAVOK 31/11 Q1018=
METAR LHDC 081345Z 36008KT 9999 FEW046 23/11 Q1021 NOSIG=
METAR LHKE 081345Z 28002MPS CAVOK 24/11 Q1020 NOSIG RMK BLU=
METAR LHPA 081345Z 34004MPS CAVOK 25/10 Q1022 NOSIG RMK BLU=
METAR LHPP 081345Z 32007KT CAVOK 24/13 Q1022 NOSIG=
METAR LHSN 081345Z VRB01MPS CAVOK 24/11 Q1020 NOSIG RMK BLU=
METAR LHUD 081345Z 36005KT 9999 SCT040 SCT050 24/14 Q1021=
METAR LKKV 081400Z VRB03KT CAVOK 25/09 Q1022=
METAR LKMT 081400Z 03005KT 330V100 CAVOK 22/10 Q1022 NOSIG=
METAR LKPR 081400Z 31003KT 260V360 CAVOK 26/10 Q1022 NOSIG=
METAR LKTB 081400Z VRB03KT CAVOK 25/08 Q1021 NOSIG=
METAR LYBE 081400Z 34012KT CAVOK 24/12 Q1021 NOSIG=
METAR LYNI 081400Z 31011KT 9999 FEW020 BKN026 18/13 Q1021 NOSIG=
METAR LYPG 081400Z 02017KT 360V060 9999 FEW040 28/09 Q1017 NOSIG=
METAR LYTV 081400Z 12006KT 020V170 9999 FEW053 30/10 Q1017 NOSIG=
####018000247####
SAGG31 UGTB 081400
METAR UGTB 081400Z 06010KT 9999 SCT050 SCT100 34/13 Q1013 NOSIG RMK
      13CLRD80=
METAR UGKO 081400Z 27010KT 9999 SCT033CB BKN100 29/23 Q1010 NOSIG=
METAR UGSB 081400Z 33004KT 9999 SCT023CB SCT070 27/23 Q1009 NOSIG=
####018000613####
SAXX70 KAWN 081400 RRG
METAR KQEJ 081350Z AUTO 20002KT 2SM -RA BR BKN004 BKN048 21/19 A2996
      RMK A02=
METAR KQGV 081355Z 32024G30KT 8000 BLDU CLR 46/M09 A2954 RMK SLP991=
METAR KQHA 081355Z VRB01KT 9999 CLR 30/23 A2998 RMK AO2A LTG DSNT W
      SLP150=
METAR KQLT 081355Z AUTO 21006G13KT 2700 HZ 36/02 A2986 RMK AO2 SLP987
      T03590017 $=
METAR KQQS 081355Z AUTO 02008G15KT 9999 FEW140 27/03 A3011 RMK AO2
      SLP074 T02720032 $=
METAR KQEL 081400Z AUTO 09001KT 4SM DZ OVC030 22/20 A2976 RMK A02=
METAR KQEQ 081400Z AUTO 20002KT 5SM BR SCT085 SCT120 22/20 A2983 RMK
      A02=
####018000480####
SATS40 DTTA 081400
METAR DTKA 081400Z 31008KT 270V350 9999 FEW020 27/20 Q1019 NOSIG=
METAR DTMB 081400Z 05012KT CAVOK 29/18 Q1018 NOSIG=
METAR DTNZ NIL=
METAR DTTA 081400Z 36010KT CAVOK 29/20 Q1019  NOSIG=
METAR DTTF 081400Z 13004KT CAVOK 37/12 Q1015 NOSIG=
METAR DTTJ 081400Z 08012KT CAVOK 30/20 Q1017 NOSIG=
METAR DTTR 081400Z 05010KT CAVOK 37/05 Q1018=
METAR DTTX 081400Z 13008KT CAVOK 30/21 Q1018 NOSIG=
METAR DTTZ 081400Z 04002KT CAVOK 37/22 Q1016 NOSIG=
####018000080####
SPUS81 KWBC 081404
SPECI
PASN 081400Z 06012KT 3/4SM BR VV001 05/05 A2992=
####018000075####
SAAT31 TKPK 081400
METAR TKPK 081400Z 06014KT 9999 FEW017 30/25 Q1016=
####018000487####
SAIR31 OIII 081400
METAR OIAW 081400Z 24004KT CAVOK 48/05 Q0996 A2943=
METAR OIFM 081400Z 16006KT CAVOK 39/05 Q1015 A2997=
METAR OIII 081400Z NIL=
METAR OIKB 081400Z 17006KT 4000 HZ NSC 36/27 Q0999 A2951=
METAR OIKK 081400Z 32006KT CAVOK 36/M02 Q1015 A2998=
METAR OIMM 081400Z 04014KT CAVOK 37/00 Q1013 A2994=
METAR OISS 081400Z 12006KT CAVOK 39/06 Q1012 A2989=
METAR OITT 081400Z 23006KT CAVOK 38/03 Q1013 A2992=
METAR OIZH 081400Z 04010KT CAVOK 36/M03 Q1012 A2988=
####018000249####
SABO59 SLLP 081400
METAR SLLP 081400Z VRB02KT 9999 FEW015 07/M02 Q1038=
METAR SLVR 081400Z 16012KT 9999 FEW027 BKN070 BKN200 21/16 Q1016=
METAR SLCB 081400Z 00000KT 6000 FEW027 18/08 Q1027=
METAR SLTJ 081400Z 00000KT 9999 SKC 15/07 Q1021=
####018000247####
SABO SLLP 081400
METAR SLLP 081400Z VRB02KT 9999 FEW015 07/M02 Q1038=
METAR SLVR 081400Z 16012KT 9999 FEW027 BKN070 BKN200 21/16 Q1016=
METAR SLCB 081400Z 00000KT 6000 FEW027 18/08 Q1027=
METAR SLTJ 081400Z 00000KT 9999 SKC 15/07 Q1021=
####018000124####
SAIQ01 ORBI 081400
METAR ORBI 081400Z 31016KT CAVOK 44/06 Q1002 NOSIG=
METAR ORMM 081400Z 32013KT CAVOK 48/M01 Q0997=
####018000122####
SAUS46 KPDT 081404
MTRHMS
METAR KHMS 081350Z 29005KT 15SM SKC 24/06 A2998 RMK SLP147 T02410063
     RSNK 21/02013
####018000112####
SAUS46 KSGX 081404 COR
MTRNJK
METAR KNJK 081356Z 10003KT 10SM CLR 24/18 A2973 RMK AO2 SLP082 
T02440178
####018001699####
SAEU KAWN 081400 RRL
METAR EICK 081400Z 20010KT 9999 -RA BKN006 BKN012 BKN038 13/13 Q1016
      TEMPO 2000=
METAR EIDW 081400Z 22011KT 9999 FEW022 SCT040 BKN050 16/10 Q1015 NOSIG=
METAR EIKN 081400Z 21007KT 170V250 9999 FEW015 FEW018CB BKN030 BKN060
      14/11 Q1014 NOSIG=
METAR EINN 081400Z 21006KT 9000 -RADZ FEW014 SCT018 BKN032 15/13 Q1015
      NOSIG=
METAR LEAM 081400Z 09015KT 070V130 9999 FEW050 38/07 Q1015=
METAR LEAS 081400Z 08005KT 030V140 9999 FEW015 26/19 Q1015 NOSIG=
METAR LEBB 081400Z 30005KT 250V330 9999 FEW025 26/20 Q1016 TEMPO SCT030CB=
METAR LECO 081400Z VRB08KT CAVOK 25/19 Q1016=
METAR LEGE 081400Z 16008KT 110V210 CAVOK 33/18 Q1019=
METAR LEGR 081400Z 16013KT 120V200 9999 FEW060 39/06 Q1017=
METAR LEJR 081400Z 22008KT 170V250 CAVOK 31/16 Q1015=
METAR LEMH 081400Z 14006KT 050V200 CAVOK 29/21 Q1020=
METAR LERS 081400Z 20009KT 170V240 CAVOK 30/12 Q1019=
METAR LEST 081400Z 26011KT 210V290 9999 FEW035 27/20 Q1016 NOSIG=
METAR LEVT 081400Z VRB02KT 9999 FEW050 33/18 Q1017=
METAR LEZG 081400Z 09008KT 060V120 9999 FEW035 FEW040CB SCT070 38/10
      Q1016=
METAR LFMI 081400Z AUTO 19013KT 9999NDV NSC 32/15 Q1019=
METAR LFMO 081400Z 20004KT 140V260 CAVOK 35/13 Q1019=
METAR LFMY 081400Z 20010KT 180V240 CAVOK 33/17 Q1019=
METAR LFOA 081400Z AUTO 15004KT 070V210 9999NDV NSC 33/06 Q1018=
METAR LFOC 081400Z AUTO 14005KT 030V190 9999NDV NSC 33/09 Q1018=
METAR LFOE 081400Z 20011KT CAVOK 32/08 Q1018=
METAR LFPC 081400Z VRB06KT CAVOK 31/10 Q1018=
METAR LFPV 081400Z AUTO VRB04KT 9999NDV NSC 31/11 Q1019=
METAR LFSX 081400Z AUTO VRB02KT 9999NDV NSC 31/11 Q1020=
METAR LFYR 081400Z 17003KT 060V220 CAVOK 34/07 Q1017=
####018000077####
SAUK39 EGRR 081350 RRE
METAR EGXP 081350Z 23017KT CAVOK 23/06 Q1017 BLU=
####018000105####
SPTG20 DXXX 081403
SPECI DXXX 081403Z 20012KT 9999 TS FEW016 FEW025CB 28/24 Q1012 BECMG
4500 TSRA=
####018000478####
SAIR32 OIII 081400
METAR OIAA 081400Z 33006KT 8000 SKC 48/05 Q0997=
METAR OIBK 081400Z 21004KT 5000 HZ SKC 37/24 Q0999 A2950=
METAR OICC 081400Z 22012KT CAVOK 41/M04 Q1012 A2991
864.4=
METAR OIGG 081400Z 02004KT CAVOK 31/21 Q1009 A2982=
METAR OIIE 081400Z 11014KT CAVOK 41/M06 Q1009 A2980 
896.3 05:=
METAR OITR 081400Z 07006KT CAVOK 35/10 Q1012 A2988=
METAR OIYY 081400Z 05008KT CAVOK 40/M07 Q1012 A2990=
METAR OAKN 081400Z NIL=
METAR OAKB 081400Z NIL=
####018000447####
SAUS20 KNKA 081404
METAR KVVG 081355Z AUTO 00000KT 27/21 A3002 RMK AO2=
METAR KW22 081400Z AUTO 00000KT 8SM CLR 28/19 A3014 RMK AO2=
METAR KW45 081400Z AUTO 33003KT 10SM CLR 31/20 A3005 RMK AO2 
     T03100198=
METAR KWDR 081400Z AUTO 04003KT 10SM CLR 30/21 A3008 RMK AO1=
METAR KXLL 081400Z AUTO 12004KT 7SM CLR 30/24 A3005 RMK AO2 
     T02980236=
METAR KXSA 081400Z AUTO 08008KT 10SM BKN018 30/22 A3001 RMK AO2 
     PWINO=
####018002994####
SAUS20 KNKA 081404
METAR KUXL 081400Z AUTO 08009KT 10SM OVC007 27/26 A3002 RMK AO2=
METAR KBJC 081348Z 35007KT 8SM BKN006 OVC025 14/11 A3036=
SPECI KCFV 081403Z AUTO 08007KT 10SM SCT009 BKN110 24/22 A3007 RMK 
    AO2=
METAR KDRI 081400Z AUTO 09004KT 10SM BKN008 BKN013 26/26 A3005 
     RMK AO2=
SPECI KEWR 081403Z 19006KT 9SM FEW010 SCT015 BKN035 OVC130 27/24 
    A3005 RMK AO2 SCT V BKN HAZE ALOFT=
METAR KEYF 081400Z AUTO 00000KT 7SM CLR 30/21 A2996 RMK AO2 
     T03000214=
METAR KFFA 081358Z AUTO 06005KT 10SM CLR 27/22 A2997 RMK AO2 
     T02710223=
METAR KFYJ 081403Z AUTO 09007KT 10SM SCT021 32/24 A3002 RMK AO1=
METAR KGAO 081400Z AUTO 06007KT SCT021 SCT026 30/25 A3003 RMK AO2 
     PWINO=
SPECI KGOK 081404Z AUTO 36003KT 9SM BKN007 24/22 A3007 RMK AO2=
METAR KGWW 081400Z AUTO 03006KT 7SM SCT080 SCT095 29/22 A2998 RMK 
     AO2 T02860215=
METAR KHDC 081404Z AUTO 08004KT 10SM SCT009 30/27 A3006 RMK AO2=
METAR KHNZ 081400Z AUTO 05005KT 7SM CLR 31/20 A3001 RMK AO2 
     T03050201=
METAR KIER 081400Z AUTO 10005KT 10SM SCT100 28/26 A3006 RMK AO2 
     PWINO=
METAR KIXA 081400Z AUTO 06004KT 10SM SCT100 29/21 A2998 RMK AO2 
     T02940214=
METAR KJFZ 081400Z AUTO 00000KT 8SM CLR 26/21 A3018 RMK=
METAR KLDJ 081400Z AUTO 11006KT 5SM HZ SCT012 OVC033 27/23 A3004 
     RMK AO2 T02650232=
METAR KLHZ 081400Z AUTO 03005KT 10SM CLR 32/20 A3000 RMK AO2 
     T03150200=
METAR KLKU 081400Z AUTO 04003KT 7SM CLR 31/21 A3001 RMK AO2=
METAR KLNP 081358Z AUTO 01005KT 10SM CLR 27/18 A3020 RMK AO1=
METAR KMDQ 081400Z AUTO 02005KT 10SM CLR 29/22 A3009 RMK AO2 
     T02920219=
METAR KMKJ 081400Z AUTO 00000KT 10SM CLR 28/11 A3021 RMK AO1=
METAR KMLJ 081404Z AUTO 00000KT 10SM CLR 30/22 A3002 RMK AO2=
METAR KMTV 081400Z AUTO 01004KT 7SM CLR 32/21 A3006 RMK AO2=
METAR KMYR 081345Z COR 33010KT 8SM CLR 29/20 A2997 =
METAR KOBE 081401Z AUTO 03008KT 10SM CLR 29/22 A3000 RMK AO2=
METAR KOKV 081400Z AUTO 34006KT 270V010 10SM CLR 32/18 A3005 RMK 
     AO2 T03190175=
METAR KOMH 081400Z AUTO 36004KT 7SM CLR 31/23 A3004 RMK AO2 
     T03090232=
METAR KONX 081400Z AUTO 06008KT 10SM SCT017 28/22 A2999 RMK AO2 
     T02810217=
METAR KOPN 081400Z AUTO 00000KT 10SM CLR 31/24 A3006 RMK AO1=
METAR KPCM 081400Z AUTO 00000KT 10SM CLR 28/22 A3004 RMK AO2=
METAR KRCZ 081400Z AUTO 03003KT 7SM CLR 31/21 A2998 RMK AO2 
     T03050205=
METAR KRMN 081400Z AUTO 11005KT 5SM BR CLR 29/27 A3005 RMK AO2=
METAR KSFQ 081400Z AUTO 03003KT 10SM CLR 28/24 A3000 RMK AO2=
METAR KSHD 081400Z AUTO 00000KT 7SM CLR 31/19 A3008 RMK AO2=
METAR KSVH 081400Z AUTO 02005KT 7SM CLR 31/18 A3006 RMK AO2 
     T03050183=
METAR KTBR 081400Z AUTO 30007KT 10SM CLR 30/20 A3000 RMK AO2 
     T02970202=
SPECI KTUL 081403Z 11004KT 10SM BKN006 BKN030 BKN090 24/23 A3005 RMK 
    AO2=
METAR KVDF 081356Z AUTO 00000KT 10SM CLR 28/22 A3002 RMK AO2=
METAR KVUJ 081359Z AUTO 04005KT 10SM SCT075 32/21 A2999 RMK AO2=
####018000148####
SPAU31 AMMC 081404
SPECI YPPH 081400Z 01011KT 9999 -SHRA FEW022 SCT042 13/13 Q0996
     INTER 1400/1700 29030G50KT 2000 TSGS BKN010 FEW030CB=
####018000188####
SAUS44 KCRP 081404
MTRNGP
METAR KNGP 081356Z COR 10007KT 7SM -RA FEW009 SCT016CB BKN025 27/26 
A2984 RMK AO2 RAB12 SLP105 CB DSNT NE AND SW TCU DSNT SE-S WR// 
P0007 T02730261 $
####018000105####
SAUS43 KAPX 081404
MTRANJ
SPECI KANJ 081403Z AUTO 26005KT 9SM SCT004 SCT012 19/18 A2998 RMK 
AO2
####018000154####
SPAU31 AMMC 081404
SPECI YPPH 081400Z 01011KT 9999 -SHRA FEW022 SCT042 13/13 Q0996
     INTER 1400/1700 29030G50KT 2000 TSGS BKN010 FEW030CB=


####018003210####
SAUS99 KWBC 081405
METAR
KGTU 081359Z 06005KT 3SM -RA BKN008 OVC014 25/22 A3005=
KNMM 081356Z 35004KT 10SM FEW250 30/22 A3007 RMK AO2 SLP189
     T03000217=
KNSE 081356Z 33003KT 9SM FEW020 SCT250 29/24 A3004 RMK AO2 SLP157
     T02940239 $=
KNXX 081356Z 12007KT 5SM HZ FEW055 SCT200 27/21 A3006 RMK AO2
     SLP182 T02670211 $=
KPAM 081355Z 36005KT 10SM CLR 29/24 A3002 RMK AO2A SLP169
     T02900243=
KVVG 081355Z AUTO 00000KT 27/21 A3002 RMK AO2=
KW22 081400Z AUTO 00000KT 8SM CLR 28/19 A3014 RMK AO2=
KW45 081400Z AUTO 33003KT 10SM CLR 31/20 A3005 RMK AO2
     T03100198=
KWDR 081400Z AUTO 04003KT 10SM CLR 30/21 A3008 RMK AO1=
KXLL 081400Z AUTO 12004KT 7SM CLR 30/24 A3005 RMK AO2
     T02980236=
KXSA 081400Z AUTO 08008KT 10SM BKN018 30/22 A3001 RMK AO2
     PWINO=
KUXL 081400Z AUTO 08009KT 10SM OVC007 27/26 A3002 RMK AO2=
KBJC 081348Z 35007KT 8SM BKN006 OVC025 14/11 A3036=
KDRI 081400Z AUTO 09004KT 10SM BKN008 BKN013 26/26 A3005 RMK
     AO2=
KEYF 081400Z AUTO 00000KT 7SM CLR 30/21 A2996 RMK AO2
     T03000214=
KFFA 081358Z AUTO 06005KT 10SM CLR 27/22 A2997 RMK AO2
     T02710223=
KFYJ 081403Z AUTO 09007KT 10SM SCT021 32/24 A3002 RMK AO1=
KGAO 081400Z AUTO 06007KT SCT021 SCT026 30/25 A3003 RMK AO2
     PWINO=
KGWW 081400Z AUTO 03006KT 7SM SCT080 SCT095 29/22 A2998 RMK AO2
     T02860215=
KHDC 081404Z AUTO 08004KT 10SM SCT009 30/27 A3006 RMK AO2=
KHNZ 081400Z AUTO 05005KT 7SM CLR 31/20 A3001 RMK AO2
     T03050201=
KIER 081400Z AUTO 10005KT 10SM SCT100 28/26 A3006 RMK AO2
     PWINO=
KIXA 081400Z AUTO 06004KT 10SM SCT100 29/21 A2998 RMK AO2
     T02940214=
KJFZ 081400Z AUTO 00000KT 8SM CLR 26/21 A3018 RMK=
KLDJ 081400Z AUTO 11006KT 5SM HZ SCT012 OVC033 27/23 A3004 RMK AO2
     T02650232=
KLHZ 081400Z AUTO 03005KT 10SM CLR 32/20 A3000 RMK AO2
     T03150200=
KLKU 081400Z AUTO 04003KT 7SM CLR 31/21 A3001 RMK AO2=
KLNP 081358Z AUTO 01005KT 10SM CLR 27/18 A3020 RMK AO1=
KMDQ 081400Z AUTO 02005KT 10SM CLR 29/22 A3009 RMK AO2
     T02920219=
KMKJ 081400Z AUTO 00000KT 10SM CLR 28/11 A3021 RMK AO1=
KMLJ 081404Z AUTO 00000KT 10SM CLR 30/22 A3002 RMK AO2=
KMTV 081400Z AUTO 01004KT 7SM CLR 32/21 A3006 RMK AO2=
KMYR 081345Z COR 33010KT 8SM CLR 29/20 A2997=
KOBE 081401Z AUTO 03008KT 10SM CLR 29/22 A3000 RMK AO2=
KOKV 081400Z AUTO 34006KT 270V010 10SM CLR 32/18 A3005 RMK AO2
     T03190175=
KOMH 081400Z AUTO 36004KT 7SM CLR 31/23 A3004 RMK AO2
     T03090232=
KONX 081400Z AUTO 06008KT 10SM SCT017 28/22 A2999 RMK AO2
     T02810217=
KOPN 081400Z AUTO 00000KT 10SM CLR 31/24 A3006 RMK AO1=
KPCM 081400Z AUTO 00000KT 10SM CLR 28/22 A3004 RMK AO2=
KRCZ 081400Z AUTO 03003KT 7SM CLR 31/21 A2998 RMK AO2
     T03050205=
KRMN 081400Z AUTO 11005KT 5SM BR CLR 29/27 A3005 RMK AO2=
KSFQ 081400Z AUTO 03003KT 10SM CLR 28/24 A3000 RMK AO2=
KSHD 081400Z AUTO 00000KT 7SM CLR 31/19 A3008 RMK AO2=
KSVH 081400Z AUTO 02005KT 7SM CLR 31/18 A3006 RMK AO2
     T03050183=
KTBR 081400Z AUTO 30007KT 10SM CLR 30/20 A3000 RMK AO2
     T02970202=
KVDF 081356Z AUTO 00000KT 10SM CLR 28/22 A3002 RMK AO2=
KVUJ 081359Z AUTO 04005KT 10SM SCT075 32/21 A2999 RMK AO2=
####018000345####
SPUS99 KWBC 081405
SPECI
KCFV 081403Z AUTO 08007KT 10SM SCT009 BKN110 24/22 A3007 RMK
     AO2=
KEWR 081403Z 19006KT 9SM FEW010 SCT015 BKN035 OVC130 27/24 A3005
     RMK AO2 SCT V BKN HAZE ALOFT=
KGOK 081404Z AUTO 36003KT 9SM BKN007 24/22 A3007 RMK AO2=
KTUL 081403Z 11004KT 10SM BKN006 BKN030 BKN090 24/23 A3005 RMK
     AO2=
####018000085####
SAAT31 TRPG 081400
METAR TRPG 081400Z 07010KT 9999 SCT020 29/25 Q1017 RMK SLT HZ=
####018000085####
SAAI41 FHAW 081350
METAR FHAW 081350Z 12014KT 9999 FEW030 BKN050 28/19 Q1015 BLU=
####018000090####
SAAJ31 UBBB 081400
METAR UBBL 081400Z 11006KT 9999 NSC 32/17 Q1009 NOSIG RMK G/O SC07=
####018000106####
SAAH10 OAKN 081400
METAR OAKN 081350Z 26008KT 9999 FEW170 40/05 Q1006 BLU NOSIG RMK
    A2972 DA7100=
####018000539####
SACU31 MUHA 081400
METAR
MUHA 081355Z 09004KT 040V170 8000 FEW040 29/24 Q1015=
MUVR 081400Z /////KT 9000 FEW020 29/23 Q1015=
MUCL 081350Z 15007KT 9999 FEW018 29/26 Q1015=
MUCF 081358Z 19003KT 9999 FEW020 SCT200 29/24 Q1013=
MUSC 081351Z 25003KT 180V300 9000 BKN062 29/23 Q1015=
MUCC 081351Z 21006KT 9000 FEW020 29/22 Q1015=
MUCM 081353Z 20006KT 180V260 9000 FEW020 29/23 Q1015=
MUMZ 081349Z 00000KT 9000 FEW025 XX/XX Q1015=
MUHG 081350Z VRB02KT 9000 FEW020 30/22 Q1016=
MUCU 081353Z 16004KT 110V200 9999 SCT025CB 28/23 Q1016=
####018000145####
SPAU31 KWBC 081405
SPECI
YPPH 081400Z 01011KT 9999 -SHRA FEW022 SCT042 13/13 Q0996 INTER
1400/1700 29030G50KT 2000 TSGS BKN010 FEW030CB=
####018000096####
SAIV20 DIAP 081400
METAR DIAP 081400Z 22008KT 180V260 8000 SCT012 SCT070 29/25 Q1013
NOSIG=
####018000099####
SAAJ31 UBBB 081400
UBBN 081400Z 12012KT 9999 NSC 37/09 Q1007 R14R/CLRD60 NOSIG
RMK G/O QFE681=
####018000269####
SAPK31 OPKC 081400
METAR OPGD 081400Z NIL=
METAR OPKC 081400Z NIL=
METAR OPLA 081355Z 15010KT 6000 SCT040 36/23 Q1003 NOSIG=
METAR OPNH 081400Z NIL=
METAR OPPS 081355Z NE-12KTS 6000 HZ FEW040 FEW100 37/25 Q1001.8=
METAR OPRN 081400Z NIL=
METAR OPSK 081???????
####018000175####
SABC40 FBSK 081400
METAR FBFT 081400Z 11011KT 9999 BKN020 20/10 Q1028 =
METAR FBKE 081400Z 10015KT CAVOK 23/06 Q1025=
METAR FBMN 081400Z 12009KT CAVOK 25/04 Q1024=

####018000788####
SAAG01 SABM 081400
METAR SAAR 081400Z  34004KT 9000  NSC  13/05 Q1018=
METAR SABE 081400Z  27008KT CAVOK 14/01 Q1019=
METAR SACO 081400Z  02018KT CAVOK 16/M16 Q1019=
METAR SADD 081400Z NIL=
METAR SADF 081400Z NIL=
METAR SAEZ 081400Z 33004KT 280V020 CAVOK 12/03 Q1018=
METAR SAME 081400Z 36003KT CAVOK 09/M05 Q1015=
METAR SANT 081400Z  18003KT 8000  13/06 Q1018=
METAR SARE 081400Z NIL=
METAR SARF 081400Z NIL=
METAR SARI 081400Z  00000KT CAVOK 19/17 Q1019=
METAR SARP 081400Z NIL=
METAR SASA 081400Z 14004KT CAVOK 13/07 Q1020=
METAR SASJ 081400Z NIL=
METAR SAVC 081400Z NIL=
METAR SAWE 081400Z NIL=
METAR SAWG 081400Z  29012KT CAVOK M03/M07 Q0991=
METAR SAWH 081400Z NIL=
METAR SAZM 081400Z NIL=
METAR SAZN 081400Z NIL=
METAR SAZS 081400Z NIL=
####018000479####
SAPR94 SPIM 081400
METAR
SPHO 081400Z 00000KT 9999 FEW050 15/06 Q1028 RMK PP000=
SPHY 081400Z /////KT 9999 FEW020 SCT070 09/02 Q1024 RMK PP000=
METAR
SPJL 081400Z 00000KT CAVOK 08/M06 Q1039 RMK PPOOO=
METAR
SPME 081400Z /////KT 9999 OVC025 22/21 Q1013 
             RMK BIRD HAZARD RWY 32/14 PP000=
METAR
SPTU 081400Z 01003KT 6000 SCT008 BKN015 24/23 Q1013 RMK PP030=
METAR 
SPYL 081400Z /////KT 9999 OVC015 18/14 Q1014 RMK BIRD HAZARD RWY 35 
             PP000=
####018000088####
SAUZ31 UTTT 081400
METAR UTTT 081400Z 35002MPS CAVOK 37/08 Q1009 R08R/CLRD70
NOSIG=
####018000327####
SANM40 FYWW 081400
METAR FYKM 081400Z 09015KT CAVOK 24/08 Q1023=
METAR FYOA 081400Z 04012KT CAVOK 26/02 Q1019=
METAR FYRU 081400Z 05006KT CAVOK 25/03 Q1021=
METAR FYWB 081400Z 32011KT CAVOK 33/08 Q1016=
METAR FYWB 081400Z 32011KT CAVOK 33/08 Q1016=
METAR FYWH 081400Z AUTO 02010KT //// // ////// 21/M01 Q1026=

