####018003689####
SAUS90 KWBC 081100
METAR KABI 081052Z 01005KT 7SM SCT002 BKN010 22/21 A3006 RMK AO2
     SLP157 T02170211 $=
METAR KCZZ 081052Z AUTO 00000KT 08/08 A2987 RMK AO2 SLP090
     T00830078 PWINO TSNO=
METAR K9V9 081052Z AUTO 28004KT 16/13 A3018 RMK AO2 SLP212
     T01560128 PWINO TSNO=
METAR KSDB 081052Z AUTO 31006KT 10SM CLR 19/00 A3002 RMK AO2
     SLP106 T01940000 TSNO $=
METAR KP69 081052Z AUTO 35003KT 11/10 A3012 RMK AO2 SLP180
     T01110100 PWINO TSNO $=
METAR KCQC 081053Z AUTO 09008KT 10SM CLR 11/08 A3036 RMK AO2
     SLP221 T01060083 TSNO=
METAR KLAX 081053Z 24003KT 10SM OVC012 16/12 A2990 RMK AO2 SLP123
     T01610122=
METAR KLND 081053Z AUTO 26007KT 10SM CLR 10/03 A3033 RMK AO2
     SLP226 T01000028=
METAR K6R6 081053Z AUTO 03005KT 23/21 A3001 RMK AO2 SLP127
     T02280211 PWINO TSNO=
METAR KFAR 081053Z 20003KT 10SM CLR 14/12 A3008 RMK AO2 SLP183
     T01440117=
METAR KRTN 081053Z AUTO 06005KT 10SM BKN060 BKN110 14/11 A3036 RMK
     AO2 SLP205 T01390106 TSNO=
METAR KRIL 081053Z AUTO 00000KT 10SM CLR 12/07 A3025 RMK AO2
     SLP177 T01220072 TSNO=
METAR KUIL 081053Z AUTO 09005KT 10SM CLR 16/10 A2994 RMK AO2
     SLP135 T01610100 TSNO=
METAR KCTY 081053Z AUTO 00000KT 19/19 A3001 RMK AO2 SLP160
     T01940189 PWINO TSNO $=
METAR KDNK 081053Z AUTO 08004KT 7SM BKN014 24/22 A3002 RMK AO2
     SLP160 T02390217=
METAR KBNO 081053Z AUTO 26007KT 10SM CLR 09/01 A3011 RMK AO2
     SLP165 T00940006 TSNO=
METAR KSGR 081053Z 05006KT 10SM FEW055 26/24 A2990 RMK AO2 SLP134
     T02610239=
METAR KTCS 081053Z AUTO 36008KT 10SM BKN120 18/14 A3020 RMK AO2
     RAE0954 SLP157 T01830139 TSNO=
METAR KTLH 081053Z 00000KT 10SM BCFG CLR 22/21 A3002 RMK AO2
     SLP165 T02170206=
METAR KCHA 081053Z 00000KT 10SM CLR 22/19 A3007 RMK AO2 SLP174
     T02170189=
METAR KP92 081053Z AUTO 00000KT 26/25 A2998 RMK AO2 SLP151
     T02560250 PWINO TSNO=
METAR K40J 081053Z AUTO 00000KT 20/19 A3000 RMK AO2 SLP159
     T02000194 PWINO TSNO=
METAR KMWT 081053Z AUTO 00000KT 10SM CLR 23/22 A3005 RMK AO2
     SLP163 T02280222 TSNO=
METAR KMSY 081053Z 00000KT 9SM FEW016 SCT250 26/23 A3001 RMK AO2
     SLP165 T02610233=
METAR KOQT 081053Z AUTO 00000KT 5SM BR CLR 22/19 A3010 RMK AO2
     SLP172 T02170194 TSNO=
METAR KSAV 081053Z 22003KT 10SM FEW250 21/19 A3000 RMK AO2 SLP156
     T02110194=
METAR KMSN 081053Z 00000KT 9SM FEW006 OVC015 21/20 A3002 RMK AO2
     SLP159 T02110200=
METAR KRNM 081053Z AUTO 00000KT 4SM BR OVC004 14/13 A2990 RMK AO2
     SLP112 T01390128 TSNO=
METAR KLXV 081053Z AUTO 18006KT 10SM CLR 06/05 A3051 RMK AO2
     SLP212 T00560050 TSNO=
METAR KCUT 081053Z AUTO 32005KT 10SM CLR 07/06 A3035 RMK AO2
     SLP245 T00670056 TSNO=
METAR PGUM 081054Z 08014G17KT 10SM SCT026 SCT048 28/24 A2991 RMK
     AO2 SLP119 T02830244=
METAR KHTL 081053Z AUTO 23004KT 10SM OVC090 23/21 A3003 RMK AO2
     SLP161 T02280206=
METAR KSDM 081053Z AUTO 25003KT 10SM OVC012 16/14 A2989 RMK AO2
     SLP120 T01610139 TSNO=
METAR KELY 081053Z AUTO 17009KT 10SM CLR 07/M04 A3022 RMK AO2
     SLP140 T00721039 $=
METAR KBTV 081054Z 00000KT 5SM HZ CLR 24/22 A3002 RMK AO2 SLP162
     T02440217=
METAR KJAN 081054Z 00000KT 10SM CLR 23/22 A3005 RMK AO2 SLP172
     T02330222 $=
METAR KAPN 081054Z AUTO 21004KT 9SM OVC100 22/21 A2999 RMK AO2
     RAE16 SLP150 P0000 T02220211=
METAR KP68 081053Z AUTO 19006KT 08/M02 A3015 RMK AO2 SLP130
     T00831022 PWINO TSNO=
METAR KCAR 081054Z AUTO 18006KT 8SM CLR 22/19 A3001 RMK AO2 SLP164
     T02220194=
METAR KRQE 081053Z AUTO VRB05KT 10SM OVC100 18/07 A3027 RMK AO2
     SLP111 T01830067 TSNO=
####018000110####
SAUS90 KWBC 081100 CCA
METAR KABE 081051Z 09006KT 5SM HZ CLR 24/21 A3004 RMK AO2 SLP168
     T02390211=
####018000708####
SAUS90 KWBC 081100 RRA
METAR KSBN 081054Z 00000KT 6SM BR CLR 23/21 A3004 RMK AO2 SLP166
     T02330211=
METAR KDMH 081054Z AUTO 27/23 A3001 RMK AO2 SLP163 T02720233 PWINO
     TSNO=
METAR KCOU 081054Z AUTO 06003KT 7SM FEW011 SCT085 22/22 A3004 RMK
     AO2 SLP164 T02220217 TSNO=
METAR K12N 081054Z AUTO 00000KT 23/21 A3006 RMK AO2 SLP166
     T02280211 PWINO TSNO=
METAR K1V4 081054Z AUTO 21/19 A3006 RMK AO2 SLP164 T02110194 PWINO
     TSNO=
METAR KMQE 081054Z AUTO 16010KT 21/19 A3010 RMK AO1 SLP199
     T02110189=
METAR PATC 081055Z AUTO 02009KT 10SM CLR 08/06 A3015 RMK AO1
     T00780062=
METAR PAEH 081055Z AUTO 00000KT 10SM CLR 09/M29 A2999 RMK AO1
     T00891288=
####018002999####
SAUS20 KNKA 081055
METAR KDDH 081054Z AUTO 00000KT 2SM BR CLR 21/20 A3007 RMK AO2 
    SLP174 T02110200=
METAR KDEC 081054Z 00000KT 4SM BR SCT075 25/23 A3004 RMK AO2 SLP165 
    T02500228=
METAR KDSM 081054Z 36003KT 10SM FEW180 SCT250 21/18 A3009 RMK AO2 
    SLP181 T02110183=
METAR KDSV 081054Z AUTO 14006KT 6SM HZ CLR 22/19 A3009 RMK AO2 
    SLP194 T02170189=
METAR KDVL 081055Z AUTO 28006KT 10SM CLR 14/12 A3008 RMK AO1=
METAR KDYL 081054Z AUTO 00000KT 3SM BR CLR 23/22 A3003 RMK AO2 
    SLP162 T02280217 TSNO=
METAR KDYR 081055Z AUTO 00000KT 10SM CLR 23/19 A3008 RMK AO1=
METAR KEAR 081055Z AUTO 33006KT 10SM CLR 15/13 A3025 RMK AO1=
METAR KECG 081054Z AUTO 07007KT 10SM BKN007 BKN012 BKN120 26/24 
    A2996 RMK AO2 SLP146 T02560239=
METAR KEEN 081055Z AUTO 00000KT 6SM OVC085 23/22 A3007 RMK AO1=
METAR KEGE 081055Z 00000KT 10SM CLR 10/08 A3036 RMK AO1=
METAR KEHR 081055Z AUTO 00000KT 4SM CLR 22/18 A3006 RMK AO1=
METAR KENV 081055Z 00000KT 10SM CLR 17/00 A3009 RMK AO1=
METAR KESC 081055Z AUTO 00000KT 5SM BKN021 19/16 A2998 RMK AO1=
METAR KEUG 081054Z 19006KT 10SM CLR 13/10 A2993 RMK AO2 SLP131 
    T01280100=
METAR KEUL 081055Z AUTO 08003KT 10SM CLR 12/06 A3006 RMK AO1=
METAR KEVV 081054Z 00000KT 9SM CLR 24/22 A3006 RMK AO2 SLP175 
    T02390217=
METAR KEWK 081055Z AUTO 36008KT 10SM OVC008 21/19 A3006 RMK AO1=
METAR KEWN 081054Z 04005KT 2 1/2SM BR CLR 25/24 A2995 RMK AO2 SLP140 
    T02500239=
METAR KFAM 081055Z AUTO 00000KT 10SM CLR 23/22 A3009 RMK AO1=
METAR KFIG 081054Z AUTO 00000KT 3SM BR CLR 19/17 A3013 RMK AO2 
    SLP189 T01890172=
METAR KFKL 081055Z 23004KT 1 1/2SM CLR 19/17 A3014 RMK AO1=
METAR KFLP 081055Z AUTO 00000KT 10SM BKN070 23/21 A3005 RMK AO1=
METAR KFNL 081055Z AUTO 35004KT 6SM OVC005 14/13 A3032 RMK AO1=
METAR KFOD 081055Z AUTO 31003KT 9SM CLR 17/16 A3013 RMK AO1=
METAR KFRM 081055Z AUTO 10SM CLR 16/14 A3015 RMK AO1=
METAR KFZY 081054Z AUTO 00000KT 4SM BR CLR 23/22 A3005 RMK AO2 
    SLP171 T02330217=
METAR KGAD 081055Z AUTO 28003KT 10SM CLR 21/19 A3006 RMK AO1=
METAR KGAI 081055Z 00000KT 5SM SCT095 25/22 A3005 RMK AO1 
     =
METAR KGBD 081055Z AUTO 36005KT 10SM OVC008 19/18 A3017 RMK AO1=
METAR KGCK 081054Z AUTO 03010KT 10SM SCT005 18/16 A3021 RMK AO2 
    SLP203 T01780161=
METAR KGCN 081054Z AUTO 00000KT 10SM CLR 08/M03 A3023 RMK AO2 SLP140 
    T00831033=
METAR KGDV 081055Z AUTO 00000KT 10SM CLR 11/07 A3017 RMK AO1=
METAR KGPZ 081055Z AUTO 24005KT 10SM CLR 17/14 A3005 RMK AO1=
METAR KGTR 081055Z 00000KT 10SM CLR 23/22 A3007 RMK AO1=
METAR KGUC 081055Z AUTO 36004KT 10SM FEW110 08/03 A3044 RMK AO1=
METAR KGXY 081055Z AUTO 05004KT 7SM FEW010 OVC047 15/12 A3031 RMK 
    AO1=
METAR KHDN 081055Z 14006KT 10SM CLR 09/05 A3032 RMK AO1=
METAR KHEF 081055Z AUTO 00000KT 5SM FEW100 23/20 A3001 RMK AO1=
METAR KHEZ 081055Z AUTO 00000KT 3SM CLR 22/21 A3005 RMK AO1=
METAR KHNB 081055Z AUTO 00000KT 5SM SCT060 23/22 A3006 RMK AO1=
####018002971####
SAUS20 KNKA 081055
METAR KHWD 081054Z AUTO 34005KT 10SM OVC009 14/11 A2991 RMK AO2 
    SLP138 T01390111=
SPECI KHWV 081054Z AUTO 15003KT 5SM BR SCT013 SCT021 24/23 A3006 RMK 
    AO2=
METAR KHYS 081055Z AUTO 36008KT 10SM OVC024 18/17 A3019 RMK AO1=
METAR KILN 081054Z AUTO 00000KT 3SM BR CLR 21/19 A3009 RMK AO2 
    SLP178 T02060194=
METAR KIMT 081054Z AUTO 32004KT 10SM OVC002 20/19 A3000 RMK AO2 CIG 
    001V005 SLP154 T02000194=
METAR KIND 081054Z 00000KT 7SM FEW075 BKN110 BKN200 25/20 A3004 RMK 
    AO2 SLP162 T02500200=
METAR KINT 081054Z 02005KT 10SM FEW085 26/17 A3004 RMK AO2 SLP157 
    T02560172=
METAR KIPT 081054Z 34003KT 7SM CLR 21/17 A3006 RMK AO2 SLP174 
    T02060167=
METAR KISW 081054Z AUTO 27003KT 7SM CLR 19/18 A3003 RMK AO2 SLP165 
    T01890183 TSNO=
METAR KIWD 081055Z AUTO 31004KT 9SM CLR 15/14 A3002 RMK AO1=
METAR KIZG 081054Z AUTO 00000KT 5SM HZ BKN100 23/20 A3008 RMK AO2 
    SLP185 T02280200=
METAR KJAC 081055Z AUTO 03003KT 10SM CLR 06/M02 A3036 RMK AO1=
METAR KJHW 081055Z AUTO 19004KT 2SM CLR 19/18 A3012 RMK AO1=
METAR KKLS 081055Z AUTO 00000KT 10SM CLR 15/13 A2993 RMK AO1=
METAR KLAF 081054Z 00000KT 2 1/2SM BR BKN055 23/22 A3003 RMK AO2 
    SLP164 T02280217=
METAR KLBL 081055Z 04007KT 10SM BKN032 BKN038 19/17 A3022 RMK AO1=
METAR KLBT 081054Z AUTO 34003KT 10SM CLR 25/18 A2994 RMK AO2 SLP136 
    T02500178=
METAR KLCI 081055Z AUTO 00000KT 10SM BKN100 23/20 A3007 RMK AO1=
METAR KLEW 081055Z 17005KT 1 1/4SM OVC002 20/19 A3011 RMK AO1=
METAR KLEX 081054Z 15003KT 2 1/2SM HZ CLR 22/18 A3010 RMK AO2 SLP179 
    T02170183=
METAR KLGD 081055Z AUTO 00000KT 10SM CLR 11/06 A3005 RMK AO1=
METAR KLKV 081055Z AUTO 33008KT 10SM CLR 11/01 A3011 RMK AO1=
METAR KLNK 081054Z 35006KT 10SM BKN036 18/17 A3016 RMK AO2 SLP204 
    T01780167=
METAR KLPC 081055Z AUTO 26003KT 10SM OVC010 13/11 A2992 RMK AO1 PNO=
METAR KLUX 081055Z AUTO 00000KT 10SM CLR 22/22 A3003 RMK AO2=
METAR KLWM 081054Z 00000KT 6SM HZ FEW042 BKN075 24/21 A3010 RMK AO2 
    SLP190 T02440211=
METAR KLWT 081054Z AUTO 13005KT 10SM CLR 07/05 A3026 RMK AO2 SLP230 
    T00720050=
METAR KLYH 081054Z 36003KT 6SM HZ CLR 25/18 A3005 RMK AO2 SLP162 
    T02500183=
METAR KMBL 081055Z AUTO 00000KT 9SM BKN055 OVC065 22/19 A3001 RMK 
    AO1=
METAR KMER 081055Z AUTO 33006KT 10SM CLR 16/10 A2983 RMK AO1 =
METAR KMFI 081054Z AUTO 32006KT 2 1/2SM BR OVC003 19/18 A3003 RMK 
    AO2 SLP163 T01890183=
METAR KMGJ 081054Z AUTO 00000KT 2 1/2SM BR BKN100 23/21 A3004 RMK 
    AO2 SLP170 T02280206=
METAR KMIV 081054Z AUTO 10003KT 3SM BR CLR 24/22 A3002 RMK AO2 
    SLP161 T02390222=
METAR KMJX 081055Z AUTO 00000KT 1 1/2SM BKN009 OVC095 24/22 A3003 
    RMK AO1=
METAR KMKC 081054Z 02003KT 10SM FEW100 22/20 A3004 RMK AO2 SLP166 
    T02170200=
METAR KMKT 081055Z 28004KT 10SM CLR 16/15 A3012 RMK AO1=
METAR KMML 081055Z AUTO 28007KT 10SM CLR 14/12 A3014 RMK AO1=
####018002954####
SAUS20 KNKA 081055
METAR KMNI 081055Z AUTO 00000KT 10SM CLR 24/22 A2996 RMK AO2=
METAR KMNM 081055Z AUTO 28003KT 6SM OVC009 21/19 A2999 RMK AO1=
METAR KMOT 081054Z AUTO 23005KT 10SM BKN090 14/11 A3009 RMK AO2 
    SLP190 T01390111 TSNO=
METAR KMRF 081055Z AUTO 03006KT 10SM OVC095 17/14 A3018 RMK AO1=
METAR KMRY 081054Z AUTO 00000KT 10SM OVC008 13/10 A2992 RMK AO2 
    SLP144 T01330100=
METAR KMSV 081055Z AUTO 00000KT 5SM CLR 21/19 A3010 RMK AO1=
METAR KMTW 081055Z 00000KT 5SM SCT006 21/21 A3001 RMK AO1=
METAR KMVL 081054Z AUTO 00000KT 2 1/2SM BR CLR 21/20 A3008 RMK AO2 
    SLP180 T02110200=
METAR KMVN 081055Z AUTO 00000KT 2SM BKN049 22/21 A3005 RMK AO1=
METAR KOFP 081054Z AUTO 08003KT 4SM HZ SCT075 24/21 A3001 RMK AO2 
    SLP158 T02440206=
METAR KOKK 081055Z AUTO 14003KT 4SM OVC110 23/17 A3005 RMK AO1=
METAR KOLM 081054Z AUTO 00000KT 10SM CLR 12/11 A2995 RMK AO2 SLP141 
    T01220106=
METAR KOLS 081054Z AUTO VRB03KT 10SM CLR 24/08 A2998 RMK AO2 SLP071 
    T02390078=
METAR KOLU 081055Z AUTO 00000KT 10SM SCT120 17/14 A3019 RMK AO1=
METAR KORH 081054Z 16006KT 3SM BR OVC004 22/22 A3011 RMK AO2 CIG 
    002V007 SLP190 T02220217=
METAR KOTG 081055Z AUTO 27004KT 10SM CLR 14/13 A3016 RMK AO1=
METAR KOTH 081055Z 00000KT 10SM OVC008 10/08 A3000 RMK AO1=
METAR KPHF 081054Z 10006KT 5SM BR FEW080 SCT100 26/24 A2998 RMK AO2 
    SLP150 T02560244=
METAR KPIB 081055Z AUTO 00000KT 6SM CLR 23/21 A3005 RMK AO1=
METAR KPLN 081054Z AUTO 00000KT 9SM -RA OVC100 22/21 A2997 RMK AO2 
    RAB50 SLP146 P0000 T02220206=
METAR KPNE 081054Z 12003KT 2 1/2SM BR FEW004 24/23 A3004 RMK AO2 
    SLP172 T02440233=
METAR KPQI 081055Z AUTO 15006KT 10SM CLR 21/18 A3000 RMK AO1=
METAR KPSF 081054Z AUTO 00000KT 2 1/2SM BR CLR 21/19 A3008 RMK AO2 
    SLP155 T02110194=
METAR KPTN 081055Z AUTO 08005KT 10SM CLR 24/M08 A3001 RMK AO1=
METAR KPTV 081055Z AUTO 19006KT 10SM CLR 18/11 A2985 RMK AO1=
METAR KPTW 081054Z AUTO 00000KT 3SM HZ CLR 25/21 A3004 RMK AO2 
    SLP166 T02500206 $=
METAR KPVC 081055Z 16007KT 10SM BKN005 22/20 A3011 RMK AO1=
METAR KPVU 081055Z 35005KT 10SM CLR 14/09 A3013 RMK AO1=
METAR KPWT 081055Z AUTO 04007KT 10SM CLR 21/06 A2998 RMK AO1=
METAR KRBL 081054Z AUTO 00000KT 10SM CLR 23/18 A2983 RMK AO2 SLP095 
    T02330178=
METAR KRDG 081054Z 00000KT 8SM CLR 25/21 A3002 RMK AO2 SLP167 
    T02500206=
METAR KRKD 081055Z AUTO 21005KT 1/2SM OVC002 18/17 A3011 RMK AO1=
METAR KRKS 081054Z AUTO 11006KT 10SM BKN120 08/06 A3034 RMK AO2 
    SLP215 T00780056=
METAR KROC 081054Z 22005KT 7SM SCT080 23/20 A3006 RMK AO2 SLP174 ACC 
    NW T02280200 $=
METAR KRST 081054Z 31005KT 7SM CLR 17/17 A3011 RMK AO2 SLP192 
    T01720167=
METAR KRUT 081055Z AUTO 14006KT 5SM CLR 22/19 A3006 RMK AO1=
METAR KSBY 081054Z 09003KT 8SM FEW100 24/23 A3001 RMK AO2 SLP164 
    T02440228=
METAR KSDY 081055Z AUTO 20006KT 10SM CLR 11/08 A3015 RMK AO1=
####018002911####
SAUS20 KNKA 081055
METAR K1F0 081050Z AUTO 00000KT 10SM SCT019 SCT030 SCT037 24/24 
     A3002 RMK AO2=
METAR KAAO 081054Z AUTO 33005KT 10SM CLR 21/20 A3009 RMK AO2 SLP176 
    T02110200=
METAR KAEG 081055Z AUTO 31004KT 10SM CLR 16/08 A3028 RMK AO1  =
METAR KAEX 081053Z AUTO 06003KT 10SM CLR 24/23 A3000 RMK AO2 SLP162 
    T02390228=
METAR KAFJ 081055Z AUTO 00000KT 1/4SM OVC060 17/16 A3012 RMK AO1=
METAR KAIZ 081055Z AUTO 00000KT 10SM SCT033 BKN070 22/21 A3007 RMK 
    AO1 LTG DSNT S=
METAR KAKH 081054Z AUTO 36005KT 10SM BKN095 24/17 A3002 RMK AO2 
    SLP158 T02390167=
METAR KAKR 081054Z AUTO 00000KT 4SM HZ CLR 22/19 A3009 RMK AO2 
    SLP180 T02170189=
METAR KALO 081054Z AUTO 31006KT 10SM CLR 19/19 A3006 RMK AO2 SLP175 
    T01940189=
METAR KAPC 081054Z AUTO 26011KT 10SM OVC008 12/11 A2990 RMK AO2 
    SLP116 T01170106=
METAR KARG 081055Z AUTO 19004KT 9SM CLR 24/22 A3006 RMK AO1=
METAR KAUO 081055Z AUTO 00000KT 10SM CLR 24/21 A3003 RMK AO1=
METAR KAUW 081054Z AUTO 33005KT 9SM OVC004 19/18 A3002 RMK AO2 CIG 
    003V007 SLP162 T01940183 $=
METAR KAVL 081054Z 00000KT 6SM BR CLR 18/17 A3014 RMK AO2 SLP177 
    T01780172=
METAR KAWO 081055Z AUTO 00000KT 10SM CLR 14/13 A2998 RMK AO1=
METAR KBFL 081054Z AUTO 33004KT 10SM CLR 21/11 A2983 RMK AO2 SLP093 
    T02110106=
METAR KBHB 081055Z AUTO 20008KT 6SM OVC002 18/18 A3012 RMK AO1=
METAR KBID 081055Z AUTO 12008KT 1/4SM OVC002 21/21 A3008 RMK AO1=
METAR KBKX 081055Z AUTO 00000KT 10SM CLR 14/12 A3017 RMK AO1=
METAR KBLM 081055Z AUTO 15004KT 5SM OVC005 24/21 A3006 RMK AO1=
METAR KBOS 081054Z 17007KT 10SM CLR 22/19 A3009 RMK AO2 SLP189 
    T02220194=
METAR KBOW 081055Z AUTO 02004KT 7SM CLR 22/22 A2999 RMK AO2 =
METAR KBTP 081055Z AUTO 00000KT 1SM CLR 18/17 A3011 RMK AO1=
METAR KBUF 081054Z 18004KT 7SM FEW090 23/19 A3005 RMK AO2 SLP172 
    T02280194=
METAR KBUY 081054Z AUTO 00000KT 5SM HZ CLR 24/19 A3000 RMK AO2 
    SLP150 T02390189 $=
METAR KBVX 081055Z AUTO 13004KT 10SM CLR 23/22 A3007 RMK AO1=
METAR KBWI 081054Z 10007KT 4SM HZ SCT100 27/23 A3001 RMK AO2 SLP160 
    T02670228=
METAR KCEU 081054Z AUTO 00000KT 10SM CLR 24/21 A3004 RMK AO2 SLP160 
    T02440206=
METAR KCGC 081055Z AUTO 00000KT 10SM CLR 21/19 A3000 RMK=
METAR KCGZ 081055Z AUTO 00000KT 10SM CLR 27/01 A2980 RMK AO1=
METAR KCIU 081055Z AUTO 29005KT 5SM OVC005 19/18 A2997 RMK AO1=
METAR KCOD 081055Z 14007KT 10SM CLR 11/02 A3033 RMK AO1=
METAR KCOE 081055Z AUTO 08007KT 10SM CLR 14/08 A3009 RMK AO1=
METAR KCOS 081054Z 16003KT 10SM BKN032 13/11 A3038 RMK AO2 SLP222 
    T01280111=
METAR KCRW 081054Z 00000KT 2SM BR FEW001 21/19 A3010 RMK AO2 SLP181 
    T02060194=
METAR KCVN 081055Z AUTO 04004KT 10SM BKN006 17/14 A3022 RMK AO1=
METAR KCVO 081055Z AUTO 27009KT 10SM CLR 13/09 A2992 RMK AO1=
METAR KCWI 081055Z 30003KT 2SM BKN004 OVC008 A3005 RMK AO1=
####018000415####
SANO36 ENMI 081050
METAR ENBS 081050Z 03006KT 9999 FEW020 SCT025 13/08 Q1017=
METAR ENHK 081050Z 09011KT 9999 FEW029 SCT058 BKN085 18/10 Q1012=
METAR ENHV 081050Z NIL=
METAR ENLK 081050Z 22006KT 9999 FEW045 BKN080 17/10 Q1010=
METAR ENMH 081050Z 15008KT 9999 FEW015 17/09 Q1015=
METAR ENNK 081050Z 04004KT 9999 VCSH FEW040 BKN060 16/13 Q1010=
METAR ENNM 081050Z VRB02KT 9999 SCT045TCU 18/11 Q1009 =
####018000265####
SANO38 ENMI 081050
METAR ENDR 081050Z NIL=
METAR ENEK 081050Z NIL=
METAR ENGC 081050Z 19026KT CAVOK 13/11 Q1008=
METAR ENHE 081050Z 19020KT CAVOK 15/11 Q1008=
METAR ENOA 081050Z 19023KT CAVOK 13/11 Q1010=
METAR ENSL 081050Z 23024KT CAVOK 14/11 Q1012=
####018000517####
SANO33 ENMI 081050
METAR ENAT 081050Z 07005KT 350V130 9999 FEW092 BKN180 22/08 Q1012 =
METAR ENBL 081050Z 21012KT 9999 SCT040 SCT070 15/07 Q1011=
METAR ENEV 081050Z 20006KT 9999 FEW059 SCT084 19/09 Q1010 =
METAR ENFL 081050Z 19015KT 9999 FEW020 SCT060 16/12 Q1010=
METAR ENKB 081050Z 19006KT 090V250 9999 FEW045 22/07 Q1009=
METAR ENKR 081050Z 17005KT 9999 FEW012 BKN020 13/10 Q1018 =
METAR ENML 081050Z VRB02KT 9999 SCT060 21/09 Q1009=
METAR ENNA 081050Z 18014KT 9999 FEW045CB SCT070 20/09 Q1013 =
####018000567####
SANO32 ENMI 081050
METAR ENAL 081050Z 28005KT 240V310 9999 VCSH BKN060 16/11 Q1009=
METAR ENCN 081050Z 21006KT 6000 OVC004 16/16 Q1016=
METAR ENHD 081050Z 21013KT 9999 FEW020 SCT170 16/13 Q1014=
METAR ENRO 081050Z 19011KT 150V240 9999 FEW030 SCT055 BKN120 18/07
           Q1011=
METAR ENRY 081050Z 17008KT 9999 BKN007 17/15 Q1016=
METAR ENSB 081050Z 27010KT 9999 FEW010 SCT025 BKN035 09/05 Q1009
           NOSIG =
METAR ENTC 081050Z 31003KT 260V360 9999 FEW065 19/07 Q1011 NOSIG=
METAR ENTO 081050Z 18010KT 9999 -DZ FEW004 BKN007 16/15 Q1016=
####018002974####
SAAK41 KNKA 081055
METAR PAAQ 081053Z AUTO 34007KT 10SM BKN085 12/09 A2999 RMK AO2 
    RAE03 SLP151 P0000 T01220089 TSNO=
METAR PABE 081053Z 36004KT 10SM OVC120 10/09 A3001 RMK AO2 SLP171 
    T00960093 PNO $=
METAR PABI 081053Z AUTO 14003KT 10SM CLR 11/07 A3008 RMK AO2 SLP187 
    T01060072 TSNO=
METAR PABR 081053Z 25017G22KT 10SM BKN200 06/03 A2998 RMK AO2 SLP153 
    T00610028 $=
METAR PABT 081053Z 34004KT 10SM SCT120 11/09 A3007 RMK AO2 SLP190 
    T01110094=
METAR PACD 081053Z 15006KT 10SM FEW050 SCT180 06/04 A2993 RMK AO2 
    SLP134 T00560039=
METAR PADE 081053Z AUTO 23005KT 10SM CLR 04/03 A3014 RMK AO2 SLP207 
    T00440033 TSNO=
METAR PADQ 081053Z 31003KT 8SM FEW010 BKN020 OVC041 11/09 A2984 RMK 
    AO2 SLP106 T01060094 $=
METAR PAEG 081053Z AUTO 17004KT 10SM CLR 04/02 A3004 RMK AO2 SLP177 
    T00390022 TSNO=
METAR PAEN 081053Z AUTO 02012KT 10SM FEW080 14/11 A2994 RMK AO2 
    SLP140 T01390111 TSNO=
METAR PAFA 081053Z 07003KT 10SM FEW200 12/08 A3004 RMK AO2 SLP175 
    T01220083=
METAR PAGK 081053Z AUTO 00000KT 10SM CLR 07/06 A3007 RMK AO2 SLP188 
    T00720056 TSNO=
METAR PAGY 081053Z AUTO 06003KT 10SM CLR 11/09 A3020 RMK AO2 SLP226 
    T01060094 TSNO=
METAR PAHO 081053Z AUTO 25003KT 10SM OVC075 11/09 A2991 RMK AO2 
    SLP129 T01110094 TSNO=
METAR PAIL 081053Z AUTO 03008KT 10SM FEW095 10/08 A2992 RMK AO2 
    SLP135 T01000078 TSNO=
METAR PAJN 081053Z 00000KT 10SM FEW230 10/09 A3018 RMK AO2 SLP219 
    T01000089=
METAR PAKT 081053Z AUTO 32006KT 10SM CLR 17/12 A3008 RMK AO2 SLP185 
    T01670117 TSNO=
METAR PAKV 081053Z AUTO 22004KT 10SM CLR 08/06 A3010 RMK AO2 SLP195 
    T00780056 TSNO=
METAR PAKW 081053Z AUTO 00000KT 10SM CLR 12/10 A3012 RMK AO2 SLP200 
    T01170100 TSNO=
METAR PALH 081053Z 00000KT 10SM OVC080 13/11 A2999 RMK AO2 
    RAE0958B23E35 SLP156 P0000 T01330111=
METAR PAMC 081053Z 36003KT 10SM SCT120 BKN200 12/11 A2998 RMK AO2 
    SLP155 T01220106=
METAR PAMR 081053Z 00000KT 10SM FEW060 SCT075 BKN090 BKN200 12/11 
    A2998 RMK AO2 RAB0955E04 SLP153 P0000 T01220106 $=
METAR PANC 081053Z 17003KT 10SM -RA SCT075 OVC090 12/11 A2998 RMK 
    AO2 RAB22 SLP152 P0000 T01220111=
METAR PANN 081053Z AUTO 00000KT 10SM CLR 11/09 A3002 RMK AO2 SLP171 
    T01060089 TSNO=
METAR PANT 081053Z 32007KT 10SM CLR 17/11 A3007 RMK AO2 SLP180 
    T01720111=
METAR PAOM 081053Z 35008KT 10SM FEW095 SCT200 14/08 A3009 RMK AO2 
    SLP190 T01390083=
METAR PAOR 081053Z 00000KT 10SM FEW070 09/09 A3008 RMK AO2 SLP187 
    T00940089=
METAR PAOT 081053Z 29008KT 10SM FEW038 SCT090 BKN200 12/08 A3012 RMK 
    AO2 SLP200 T01170078=
METAR PAPB 081053Z AUTO 09016KT 10SM FEW030 OVC048 07/06 A2992 RMK 
    AO2 SLP118 T00720056 TSNO=
METAR PASC 081053Z 25011KT 10SM BKN024 BKN080 OVC210 11/07 A3002 RMK 
    AO2 SLP167 T01060072=
METAR PASI 081053Z 24003KT 10SM BKN002 13/12 A3018 RMK AO2 SLP221 
    T01330122=
####018000691####
SAAK41 KNKA 081055
METAR PASN 081053Z 07013KT 10SM OVC044 06/04 A2994 RMK AO2 SLP141 
    T00560044=
METAR PASO 081053Z AUTO VRB03KT 10SM -RA OVC070 11/10 A2990 RMK AO2 
    SLP125 P0000 T01060100 TSNO=
METAR PATK 081053Z AUTO 20003KT 10SM CLR 12/11 A2999 RMK AO2 SLP157 
    T01220106 TSNO=
METAR PATO 081053Z AUTO 11020G33KT 5SM -RA BR SCT030 BKN040 OVC049 
    12/11 A3000 RMK AO2 PK WND 11035/1033 SLP160 P0010 T01220106 
    TSNO=
METAR PAWD 081053Z AUTO 00000KT 1/2SM FG FEW002 BKN008 OVC065 10/09 
    A2996 RMK AO2 SLP144 T01000089 TSNO=
METAR PAYA 081053Z 25003KT 10SM BKN110 12/10 A3018 RMK AO2 RAB40E50 
    SLP221 BAY TWR WND 090MMKT P0000 T01170100=
####018002621####
SAUS20 KNKA 081055
METAR KSET 081054Z AUTO 00000KT 8SM SCT010 BKN036 OVC050 24/24 A3003 
    RMK AO2 SLP164 T02390239=
METAR KSFM 081055Z 00000KT 4SM OVC005 22/19 A3010 RMK AO1=
METAR KSFZ 081055Z AUTO 16004KT 10SM FEW008 BKN015 OVC050 22/21 
    A3008 RMK AO1=
METAR KSGT 081055Z 00000KT 10SM CLR 23/22 A3007 RMK AO1=
METAR KSGU 081055Z AUTO 00000KT 10SM CLR 25/03 A2995 RMK AO1=
METAR KSJN 081054Z AUTO 09009KT 10SM OVC110 21/06 A3017 RMK AO2 
    SLP110 T02110056=
METAR KSKX 081055Z AUTO 36004KT 10SM CLR 11/04 A3038 RMK AO1=
METAR KSLG 081055Z AUTO 14004KT 10SM OVC021 23/21 A3007 RMK AO1=
METAR KSMN 081055Z AUTO 00000KT 10SM CLR 07/02 A3026 RMK AO1=
METAR KSPA 081055Z AUTO 36004KT 10SM CLR 22/22 A3002 RMK AO2=
METAR KSPL 081055Z AUTO 02008KT FEW018 SCT095 28/25 A2976 RMK AO2 
     PWINO PNO =
METAR KSQI 081055Z 00000KT 3SM BKN005 OVC012 22/21 A3005 RMK AO1=
METAR KSUE 081055Z AUTO 26003KT 5SM SCT011 SCT026 A2999 RMK AO1=
METAR KSUS 081054Z 00000KT 10SM BKN047 OVC060 24/23 A3003 RMK AO2 
    SLP158 T02390228=
METAR KSYR 081054Z 00000KT 10SM CLR 24/21 A3004 RMK AO2 SLP167 
    T02390206=
METAR KTAD 081054Z AUTO 34003KT 10SM BKN007 OVC012 14/13 A3037 RMK 
    AO2 CIG 005V010 SLP215 T01390128=
METAR KTIF 081050Z AUTO 00000KT 10SM BKN095 15/14 A3026 RMK AO2 
     T01530142=
METAR KTQE 081054Z AUTO 35006KT 9SM CLR 17/17 A3014 RMK AO2 SLP197 
    T01720167=
METAR KTRK 081050Z AUTO 12003KT 10SM CLR 10/07 A3015 RMK AO2=
METAR KTVF 081055Z AUTO 21004KT 10SM CLR 13/11 A3005 RMK AO1=
METAR KUIN 081054Z AUTO 00000KT 2SM BR OVC001 23/22 A3004 RMK AO2 
    SLP165 T02280222=
METAR KUTA 081055Z AUTO 00000KT 10SM CLR 23/22 A3007 RMK AO2=
METAR KUZA 081054Z AUTO 36003KT 9SM CLR 22/18 A3002 RMK AO2 SLP149 
    T02170178=
METAR KVAY 081054Z AUTO 00000KT 1/4SM FG VV006 24/23 A3003 RMK AO2 
    SLP168 T02390233=
METAR KVBT 081055Z AUTO 00000KT 10SM OVC024 23/21 A3004 RMK AO1=
METAR KVIS 081055Z AUTO 30003KT 10SM CLR 19/12 A2981 RMK AO1=
METAR KVSF 081054Z AUTO 00000KT 3SM BR OVC014 22/21 A3008 RMK AO2 
    SLP183 T02170206=
METAR KVTA 081054Z AUTO 00000KT 1 3/4SM BR CLR 19/18 A3009 RMK AO2 
    SLP181 T01890183=
METAR KWLD 081054Z AUTO 35003KT 10SM CLR 22/21 A3006 RMK AO2 SLP169 
    T02220206=
METAR KWVL 081055Z AUTO 18006KT 5SM OVC004 21/19 A3005 RMK AO1=
METAR KWWD 081055Z AUTO 9SM FEW120 24/24 A3004 RMK AO1=
METAR KX40 081055Z AUTO 00000KT 4SM BR CLR 22/21 A3001 RMK AO2 
     T02170211=
METAR KXFL 081053Z 00000KT 10SM CLR 20/19 A3001=
METAR KYKN 081055Z AUTO 00000KT 10SM CLR 17/14 A3018 RMK AO1=
####018000116####
SAUS45 KLKN 081055
MTRP68
METAR KP68 081053Z AUTO 19006KT 08/M02 A3015 RMK AO2 SLP130 
T00831022 PWINO TSNO
####018000127####
SAUS43 KAPX 081055
MTRAPN
METAR KAPN 081054Z AUTO 21004KT 9SM OVC100 22/21 A2999 RMK AO2 RAE16 
SLP150 P0000 T02220211
####018000121####
SAUS45 KFGZ 081055
MTRRQE
METAR KRQE 081053Z AUTO VRB05KT 10SM OVC100 18/07 A3027 RMK AO2 
SLP111 T01830067 TSNO
####018000110####
SAUS43 KIWX 081055
MTRSBN
METAR KSBN 081054Z 00000KT 6SM BR CLR 23/21 A3004 RMK AO2 SLP166 
T02330211
####018000107####
SAUS41 KLWX 081055
MTRDMH
METAR KDMH 081054Z AUTO 27/23 A3001 RMK AO2 SLP163 T02720233 PWINO 
TSNO
####018000127####
SAUS43 KLSX 081055
MTRCOU
METAR KCOU 081054Z AUTO 06003KT 7SM FEW011 SCT085 22/22 A3004 RMK 
AO2 SLP164 T02220217 TSNO
####018000112####
SAUS41 KCAR 081055
MTRCAR
METAR KCAR 081054Z AUTO 18006KT 8SM CLR 22/19 A3001 RMK AO2 SLP164 
T02220194
####018000090####
SABE31 TXKF 081050
METAR TXKF 081055Z 15012KT 9999 FEW013 SCT180 BKN300 26/23
Q1019
####018000093####
SAIN90 VECC 081050
METAR VECC 081050Z 23012KT 4500 HZ SCT018 FEW030CB 33/25 Q1004 NOSIG=
####018000092####
SAFJ31 NFFN 081100
METAR NFFN 081100Z 14006KT 40KM FEW030 21/19 Q1014 NOSIG RMK RR NIL=
####018000120####
SAUS41 KLWX 081055
MTRRSP
METAR KRSP 081054Z AUTO 08005KT 5SM HZ SCT080 26/16 A3010 RMK AO2 
SLP178 T02610161 $
####018000115####
SAUS41 KPHI 081055
MTR12N
METAR K12N 081054Z AUTO 00000KT 23/21 A3006 RMK AO2 SLP166 T02280211 
PWINO TSNO
####018000638####
SANO31 ENMI 081050
METAR ENAN 081050Z 31007KT 9999 FEW045 SCT200 16/09 Q1011 NOSIG=
METAR ENBR 081050Z 20012KT 9999 FEW025TCU FEW045 18/11 Q1013 =
METAR ENBO 081050Z 28010KT 9999 -SHRA FEW035 BKN060 14/10 Q1010
           NOSIG=
METAR ENDU 081050Z 07004KT 9999 VCSH FEW050 SCT060 21/07 Q1010
           NOSIG=
METAR ENGM 081041Z 19010KT 9999 -RA FEW009 SCT045 BKN067 16/14
           Q1015=
METAR ENOL 081050Z 36006KT 9999 FEW025TCU SCT090 18/11 Q1010 NOSIG=
METAR ENVA 081046Z 29007KT 190V330 9999 TSRA SCT035CB SCT080 21/10
           Q1009 =
METAR ENZV 081050Z 21011KT 180V250 9999 FEW020 SCT200 18/12 Q1014=
####018000304####
SAHW31 KMSC 081055
METAR PHMK 081054Z AUTO 03006G15KT 10SM BKN039 22/19 A3004 RMK AO2 
    SLP175 T02170189 TSNO=
METAR PHOG 081054Z AUTO 03012KT 10SM FEW060 23/19 A3002 RMK AO2 
    SLP172 T02330189 TSNO=
METAR PGSN 081054Z 09012G19KT 10SM FEW018 28/23 A2991 RMK AO2 SLPNO 
    T02780233=
####018000110####
SAUS41 KGYX 081055
MTRNKT
METAR KNKT 081054Z 04006KT 4SM BR CLR 26/24 A2993 RMK AO2 SLP132 
T02610239
####018000101####
SAUS41 KBOX 081055
MTRMQE
METAR KMQE 081054Z AUTO 16010KT 21/19 A3010 RMK AO1 SLP199 T02110189
####018000107####
SAUS41 KBTV 081055
MTR1V4
METAR K1V4 081054Z AUTO 21/19 A3006 RMK AO2 SLP164 T02110194 PWINO 
TSNO
####018000174####
SAUS98 KWBC 081056
METAR PATC 081055Z AUTO 02009KT 10SM CLR 08/06 A3015 RMK AO1
T00780062=
METAR PAEH 081055Z AUTO 00000KT 10SM CLR 09/M29 A2999 RMK AO1
T00891288=
####018003639####
SAUS99 KWBC 081056 RRA
METAR
KFVE 081053Z AUTO 18004KT M1/4SM FG VV001 22/22 A3001 RMK AO2
     SLP156 T02220222=
KFWN 081053Z AUTO 00000KT 2 1/2SM BR CLR 21/21 A3005 RMK AO2
     SLP173 T02110206=
KFXE 081053Z 00000KT 10SM CLR 27/24 A2993 RMK AO2 SLP139 T02720239
     $=
KGAG 081053Z AUTO 01004KT 10SM -RA BKN110 21/19 A3014 RMK AO2 LTG
     DSNT W RAB02 SLP178 P0000 T02060194=
KGCC 081053Z AUTO 00000KT 10SM CLR 11/07 A3028 RMK AO2 SLP224
     T01060067=
KGEY 081053Z AUTO 13004KT 10SM CLR 11/03 A3026 RMK AO2 SLP222
     T01060033=
KGEZ 081053Z AUTO 13005KT 4SM BR SCT090 OVC110 23/21 A3005 RMK AO2
     SLP167 T02280206=
KGFL 081053Z AUTO 00000KT 2SM BR CLR 23/22 A3003 RMK AO2 SLP166
     T02280222=
KGGG 081053Z 08005KT 10SM CLR 24/24 A3003 RMK AO2 SLP161
     T02390239=
KGGW 081053Z AUTO 34003KT 10SM CLR 11/09 A3014 RMK AO2 SLP204
     T01110089 TSNO=
KGIF 081053Z AUTO 03004KT 10SM CLR 22/21 A3001 RMK AO2 SLP158
     T02220206 TSNO=
KGJT 081053Z AUTO 10007KT 10SM CLR 19/07 A3018 RMK AO2 SLP142
     T01940067=
KGKJ 081053Z AUTO 00000KT 6SM HZ CLR 21/18 A3012 RMK AO2 SLP185
     T02060178=
KGLD 081053Z AUTO 00000KT 10SM BKN039 17/16 A3028 RMK AO2 SLP222
     T01670161=
KGNV 081053Z 00000KT 6SM BR CLR 19/18 A3001 RMK AO2 SLP159
     T01890183=
KGOK 081053Z AUTO 00000KT 9SM CLR 23/21 A3004 RMK AO2 SLP163
     T02280211=
KGTF 081053Z 21004KT 10SM CLR 08/05 A3023 RMK AO2 SLP223 T00780050
     $=
KGUY 081053Z AUTO 33005KT 10SM -RA OVC100 18/17 A3021 RMK AO2
     SLP188 P0012 T01830172=
KGZH 081053Z AUTO 00000KT 6SM BR CLR 22/21 A3005 RMK AO2 SLP170
     T02170211=
KHAO 081053Z AUTO 00000KT 1 1/2SM BR CLR 21/20 A3009 RMK AO2
     SLP184 T02110200=
KHBR 081053Z AUTO 06005KT 6SM VCTS BR FEW004 BKN065 23/22 A3007
     RMK AO2 TSB39 SLP167 T02280222=
KBTM 081053Z AUTO 12005KT 10SM CLR 05/01 A3032 RMK AO2 SLP234
     T00500006=
KBUR 081053Z 00000KT 7SM OVC007 16/13 A2989 RMK AO2 SLP111
     T01560133=
KBVO 081053Z AUTO 00000KT 10SM BKN040 OVC046 23/22 A3005 RMK AO2
     SLP163 T02280217=
KBVY 081053Z 16006KT 8SM FEW007 22/20 A3009 RMK AO2 SLP182
     T02170200 PNO=
KBYG 081053Z AUTO 25008KT 10SM CLR 09/02 A3030 RMK AO2 SLP228
     T00890022=
KBYI 081053Z AUTO 05003KT 10SM CLR 10/04 A3013 RMK AO2 SLP168
     T01000044=
KCAG 081053Z AUTO 00000KT 10SM CLR 10/07 A3030 RMK AO2 SLP197
     T01000067=
KCAK 081051Z 00000KT 4SM BR CLR 21/19 A3010 RMK AO2 SLP182
     T02110189=
KCDC 081053Z AUTO 00000KT 10SM CLR 12/02 A3015 RMK AO2 SLP131
     T01220017 $=
KCDR 081053Z AUTO 20003KT 10SM CLR 09/08 A3029 RMK AO2 SLP252
     T00940078=
KCDW 081053Z 00000KT 4SM HZ CLR 24/22 A3004 RMK AO2 SLP176
     T02440217=
KCEZ 081053Z AUTO VRB03KT 10SM CLR 17/07 A3023 RMK AO2 SLP150
     T01670067=
KCGI 081053Z AUTO 00000KT 10SM CLR 24/23 A3004 RMK AO2 SLP168
     T02390228 TSNO=
KCKB 081053Z 00000KT 1 3/4SM BR CLR 19/18 A3010 RMK AO2 SLP176
     T01940183=
KCLM 081053Z AUTO A2997 RMK AO2 SLPNO PWINO FZRANO $=
KCMX 081053Z AUTO 31004KT 10SM FEW070 OVC085 18/17 A2999 RMK AO2
     SLP152 T01830172=
KCNO 081053Z 00000KT 5SM BR OVC011 15/13 A2991 RMK AO2 SLP122
     T01500128=
KCNY 081053Z AUTO 20004KT 10SM CLR 18/04 A3011 RMK AO2 SLP133
     T01830044=
KCPR 081053Z 00000KT 8SM CLR 04/03 A3034 RMK AO2 SLP243 T00390033
     $=
KCPS 081053Z 17003KT 10SM BKN047 24/22 A3004 RMK AO2 SLP166
     T02390222=
KCRE 081053Z 35004KT 10SM CLR 26/20 A2992 RMK AO2 SLP132
     T02560200=
KCRG 081053Z 00000KT 7SM CLR 19/18 A3000 RMK AO2 SLP159 T01940183
     $=
####018003709####
SAUS99 KWBC 081056
METAR
KABY 081053Z 00000KT 10SM CLR 21/19 A3004 RMK AO2 SLP169
     T02110194=
KACK 081053Z 11007KT 10SM CLR 20/19 A3010 RMK AO2 SLP191
     T02000194=
KADG 081053Z AUTO 00000KT 4SM HZ CLR 22/19 A3006 RMK AO2 SLP174
     T02220194=
KAFW 081053Z 00000KT 10SM CLR 26/23 A3001 RMK AO2 SLP144
     T02560228=
KAGC 081053Z 00000KT 3SM HZ CLR 22/19 A3010 RMK AO2 SLP185
     T02220194=
KAIA 081053Z AUTO 35004KT 10SM FEW085 14/13 A3028 RMK AO2 SLP229
     T01390128 $=
KAKO 081053Z AUTO 12005KT 5SM BR BKN003 OVC031 14/14 A3032 RMK AO2
     SLP230 T01440139 TSNO=
KALW 081053Z AUTO 14003KT 10SM CLR 17/08 A2998 RMK AO2 SLP142
     T01720078=
KAMA 081053Z 36008KT 1SM OVC005 17/17 A3020 RMK AO2 SFC VIS 8
     RAE39 SLP175 P0002 T01720167 $=
KAMG 081053Z AUTO 00000KT 10SM CLR 22/19 A3001 RMK AO2 SLP159
     T02170194=
KAOH 081053Z AUTO 18004KT 4SM BR 22/19 A3008 RMK AO2 SLP178
     T02170194 $=
KAPA 081053Z 20003KT 6SM BR FEW007 BKN027 BKN120 13/12 A3033 RMK
     AO2 SLP227 T01330122 $=
KAPF 081053Z 05005KT 10SM CLR 24/23 A2996 RMK AO2 SLP144
     T02440228=
KARB 081053Z AUTO 00000KT 1/4SM FG VV001 20/19 A3004 RMK AO2
     SLP167 T02000189=
KASE 081053Z 13010KT 10SM FEW100 10/06 A3037 RMK AO2 WSHFT 0940
     SLP194 T01000056=
KASG 081048Z 16005KT 10SM BKN028 22/21 A3008=
KAUG 081053Z AUTO 17007KT 3SM BR OVC005 21/20 A3009 RMK AO2 SLP188
     T02060200=
KBAF 081053Z 14003KT 6SM HZ SCT100 24/21 A3006 RMK AO2 SLP174
     T02440211=
KBBW 081053Z AUTO 00000KT 10SM BKN070 OVC085 17/16 A3024 RMK AO2
     SLP224 T01720161=
KBCE 081053Z AUTO 30012KT 10SM BKN075 OVC110 11/02 A3031 RMK AO2
     SLP150 T01060017 TSNO=
KBFF 081053Z AUTO 00000KT 10SM BKN065 OVC090 15/13 A3030 RMK AO2
     SLP231 T01500128=
KBFI 081053Z 00000KT 10SM CLR 20/12 A2994 RMK AO2 SLP139
     T02000117=
KBGM 081053Z 00000KT 2 1/2SM HZ CLR 22/19 A3013 RMK AO2 SLP187
     T02170189=
KBGR 081053Z 18010KT 3SM BR OVC005 21/20 A3009 RMK AO2 SLP185
     T02110200=
KBHK 081053Z AUTO 24007KT 10SM CLR 13/08 A3021 RMK AO2 SLP214
     T01280083=
KBIL 081053Z 24009KT 10SM FEW120 12/06 A3024 RMK AO2 SLP220
     T01220056=
KBKE 081053Z AUTO 00000KT 10SM CLR 05/05 A3011 RMK AO2 SLP182
     T00500050=
KBKL 081053Z 15004KT 5SM HZ CLR 25/18 A3005 RMK AO2 SLP170
     T02500183=
KBLI 081053Z AUTO 00000KT 10SM CLR 15/13 A2997 RMK AO2 SLP152
     T01500133=
KBMG 081053Z 00000KT 2SM BR CLR 21/21 A3006 RMK AO2 SLP168
     T02110206=
KBOI 081053Z 12005KT 10SM CLR 19/06 A3005 RMK AO2 SLP146
     T01890056=
KBPI 081053Z AUTO 34006KT 10SM FEW100 06/01 A3039 RMK AO2 SLP215
     T00560006=
KBRL 081053Z AUTO 8SM OVC002 22/21 A3005 RMK AO2 SLP168 T02220211
     $=
KFLO 081053Z 31006KT 10SM CLR 26/18 A2994 RMK AO2 SLP137
     T02560183=
KFMY 081053Z AUTO 06003KT 10SM CLR 24/22 A2995 RMK AO2 SLP145
     T02390222=
KFNB 081053Z AUTO 34006KT 10SM BKN017 21/20 A3009 RMK AO2 SLP181
     T02110200=
KFNT 081053Z AUTO 27005KT 8SM FEW055 24/21 A3005 RMK AO2 SLP168
     T02390206=
KFOE 081053Z 35005KT 10SM CLR 21/20 A3007 RMK AO2 SLP172
     T02110200=
KFOK 081053Z AUTO 12007KT 7SM BKN004 OVC012 24/21 A3007 RMK AO2
     SLP183 T02390211 TSNO=
KFPR 081053Z AUTO 00000KT 6SM BR CLR 22/21 A2996 RMK AO2 SLP146
     T02170211=
KFRG 081053Z 16006KT 7SM OVC004 24/23 A3005 RMK AO2 RAB15E29 CIG
     002V006 SLP174 P0000 T02440233=
KFST 081053Z AUTO 13003KT 10SM CLR 22/19 A3007 RMK AO2 SLP132
     T02170189=
KFTW 081053Z 10004KT 10SM SCT010 25/23 A3000 RMK AO2 SLP149
     T02500233=
KFUL 081053Z 00000KT 10SM OVC017 17/12 A2989 RMK AO2 SLP119
     T01720122=
####018003665####
SAUS99 KWBC 081056 RRD
METAR
KLOZ 081053Z AUTO 00000KT 2 1/2SM BR CLR 20/19 A3011 RMK AO2
     SLP183 T02000189=
KLPR 081053Z AUTO 00000KT 4SM HZ CLR 22/19 A3007 RMK AO2 SLP176
     T02220189=
KLUK 081053Z 00000KT 1 1/2SM R21L/3500V4500FT BCFG CLR 22/21 A3008
     RMK AO2 SLP182 T02170211=
KLVM 081053Z AUTO 31005KT 10SM CLR 04/02 A3029 RMK AO2 SLP236
     T00390022=
KLWD 081053Z AUTO 01007KT 9SM OVC017 21/21 A3009 RMK AO2 SLP181
     T02110206=
KLWV 081053Z AUTO 18003KT 2 1/2SM BR CLR 24/22 A3004 RMK AO2
     SLP167 T02390217=
KLXT 081053Z AUTO 02003KT 6SM BR CLR 22/21 A3005 RMK AO2 SLP168
     T02170206=
KMAF 081053Z 02005KT 10SM CLR 21/20 A3007 RMK AO2 SLP137
     T02110200=
KMAI 081053Z AUTO 00000KT 1/4SM FG BKN001 OVC008 23/22 A3002 RMK
     AO2 SLP163 T02330222=
KMBS 081053Z 26007KT 7SM -RA SCT110 23/22 A3003 RMK AO2 RAB22
     SLP165 P0000 T02330217=
KMCI 081053Z 00000KT 10SM OVC095 22/21 A3006 RMK AO2 SLP168
     T02170206 $=
KMCK 081053Z AUTO 00000KT 10SM FEW049 BKN070 OVC085 16/16 A3024
     RMK AO2 SLP227 T01610161=
KMCO 081053Z 35004KT 10SM MIFG FEW015 FEW250 22/21 A2999 RMK AO2
     SLP155 T02170206=
KMCW 081053Z AUTO 32006KT 7SM CLR 17/17 A3013 RMK AO2 SLP192
     T01720167 $=
KMFR 081053Z AUTO 20003KT 10SM CLR 23/12 A2989 RMK AO2 SLP106
     T02280122=
KMGW 081053Z 00000KT 5SM BR CLR 21/18 A3012 RMK AO2 SLP185
     T02060183=
KMGY 081053Z AUTO 00000KT 4SM HZ CLR 23/20 A3009 RMK AO2 SLP178
     T02280200=
KMHE 081053Z AUTO 00000KT 10SM CLR 18/14 A3017 RMK AO2 SLP209
     T01780144 TSNO=
KMHT 081053Z 19006KT 3SM BR OVC010 23/21 A3007 RMK AO2 SFC VIS 3
     SLP189 T02330211=
KMIA 081053Z 01003KT 10SM FEW025TCU SCT100 BKN250 27/24 A2994 RMK
     AO2 SLP139 TCU E MOV SW T02720244=
KMIE 081053Z AUTO 00000KT 8SM BKN100 23/20 A3007 RMK AO2 SLP169
     T02280200=
KHFD 081053Z 14003KT 2 1/2SM BR OVC008 25/23 A3005 RMK AO2 SLP175
     T02500228=
KHHR 081053Z AUTO 23003KT 10SM OVC012 17/13 A2990 RMK AO2 SLP123
     T01670128=
KHIO 081053Z AUTO 00000KT 10SM CLR 15/12 A2989 RMK AO2 SLP116
     T01500117=
KHLC 081053Z AUTO 01008KT 10SM OVC022 18/16 A3021 RMK AO2 SLP213
     T01780161=
KHLN 081053Z AUTO 00000KT 10SM CLR 11/04 A3025 RMK AO2 SLP238
     T01060039=
KHQM 081053Z AUTO 26008KT 10SM 14/13 A2994 RMK AO2 SLP143
     T01440128 $=
KHRI 081053Z AUTO 00000KT 10SM CLR 14/08 A2994 RMK AO2 SLP133
     T01390078=
KHUF 081053Z 00000KT 4SM BR CLR 23/22 A3005 RMK AO2 SLP168
     T02330217 $=
KHUL 081053Z AUTO 21006KT 4SM BR SCT009 21/19 A3004 RMK AO2 SLP168
     T02110189=
KHVN 081053Z 12005KT 3SM BR OVC004 24/23 A3005 RMK AO2 CIG 002V008
     SLP177 T02440228=
KHVR 081053Z AUTO 23006KT 10SM CLR 08/07 A3019 RMK AO2 SLP218
     T00830072=
KHWO 081053Z AUTO 00000KT 10SM CLR 25/24 A2995 RMK AO2 SLP143
     T02500239=
KHZY 081053Z AUTO 00000KT 4SM BR CLR 21/19 A3010 RMK AO2 SLP182
     T02060194=
KIAG 081053Z AUTO 20004KT 5SM HZ CLR 24/21 A3005 RMK AO2 SLP166
     T02390206=
KICT 081053Z 34006KT 10SM BKN080 OVC200 22/21 A3009 RMK AO2 SLP175
     T02220206 $=
KIDA 081053Z AUTO 35006KT 10SM CLR 08/05 A3020 RMK AO2 SLP196
     T00830050=
KILM 081053Z 00000KT 9SM CLR 24/20 A2992 RMK AO2 SLP131
     T02440200=
KIML 081053Z AUTO 00000KT 10SM SCT075 16/14 A3026 RMK AO2 SLP232
     T01560144=
KINK 081053Z AUTO 36006KT 10SM SCT017 21/19 A3007 RMK AO2 SLP139
     T02110194 TSNO=
KIPL 081053Z AUTO 14005KT 10SM CLR 26/16 A2969 RMK AO2 SLP056
     T02560161=
KITR 081053Z AUTO 00000KT 8SM BKN005 BKN010 OVC055 16/15 A3030 RMK
     AO2 SLP221 T01610150=
####018003670####
SAUS99 KWBC 081056 RRE
METAR
KIWI 081053Z AUTO 18005KT 10SM OVC003 20/19 A3011 RMK AO2 SLP195
     T02000189=
KIXD 081053Z 36003KT 3SM BR BKN002 22/21 A3005 RMK AO2 SLP165
     T02170206=
KJCT 081051Z AUTO 00000KT 8SM FEW014 22/21 A3001 RMK AO2 SLP122
     T02220211 TSNO=
KJEF 081053Z 10004KT 10SM BKN005 BKN065 OVC095 24/23 A3003 RMK AO2
     CIG 003V009 SLP155 P0001 T02390228=
KJER 081053Z AUTO 05011KT 10SM CLR 13/M02 A3012 RMK AO2 SLP165
     T01281017=
KJKL 081053Z AUTO 00000KT 4SM HZ CLR 23/20 A3012 RMK AO2 SLP182
     T02280200=
KJLN 081053Z 00000KT 10SM VCTS FEW013 BKN070 OVC095 23/22 A3006
     RMK AO2 LTG DSNT N AND SW RAE0957B30E47 SLP167 P0000
     T02280217=
KLAA 081053Z AUTO 10005KT 10SM FEW016 OVC100 17/16 A3025 RMK AO2
     RAB08E52 SLP203 P0001 T01670161=
KLAN 081053Z 00000KT 5SM BR FEW050 SCT130 SCT150 23/21 A3005 RMK
     AO2 SLP169 T02280211 $=
KLAR 081053Z AUTO 35003KT 7SM BKN020 07/07 A3040 RMK AO2 SLP227
     T00720067=
KUAO 081053Z AUTO 00000KT 10SM CLR 18/12 A2988 RMK AO2 SLP118
     T01780122=
KUNO 081053Z AUTO 18003KT 10SM CLR 23/21 A3008 RMK AO2 SLP171
     T02280211 TSNO=
KUUU 081053Z AUTO 12003KT 1/4SM FG VV001 21/21 A3010 RMK AO2
     SLP189 T02060206=
KVEL 081053Z AUTO 27003KT 10SM CLR 16/06 A3022 RMK AO2 SLP170
     T01610056=
KVGT 081053Z AUTO 33005KT 10SM CLR 26/M04 A2984 RMK AO2 SLP066
     T02561039 TSNO=
KVIH 081053Z AUTO 00000KT 8SM FEW018 SCT100 23/22 A3005 RMK AO2
     SLP163 T02280217=
KVLD 081053Z 00000KT 10SM CLR 19/18 A3002 RMK AO2 SLP172
     T01940183=
KVRB 081053Z 00000KT 10SM CLR 22/21 A2996 RMK AO2 SLP145
     T02170211=
KVUO 081053Z AUTO 00000KT 10SM CLR 16/13 A2988 RMK AO2 SLP119
     T01610128=
KWRL 081053Z AUTO 16009KT 10SM CLR 12/04 A3027 RMK AO2 SLP221
     T01220039=
KWST 081053Z AUTO 07004KT 10SM FEW004 OVC018 23/21 A3009 RMK AO2
     SLP187 T02280206=
KYIP 081053Z 00000KT 6SM BR CLR 23/21 A3005 RMK AO2 SLP167
     T02330211=
KYKM 081053Z AUTO 26003KT 10SM CLR 12/07 A3002 RMK AO2 SLP158
     T01170067=
KZZV 081053Z AUTO 00000KT 3SM BR CLR 20/19 A3009 RMK AO2 SLP182
     T02000189=
KRXE 081053Z AUTO 05003KT 10SM CLR 09/06 A3022 RMK AO2 SLP200
     T00890056=
KSAF 081053Z AUTO 09003KT 10SM FEW110 14/11 A3032 RMK AO2 SLP180
     T01390106=
KSBA 081053Z 21004KT 10SM OVC013 14/12 A2990 RMK AO2 SLP123
     T01440122 $=
KSEA 081053Z 01008KT 10SM CLR 21/11 A2996 RMK AO2 SLP148 T02060111
     $=
KSEG 081053Z AUTO 00000KT 4SM HZ CLR 23/18 A3005 RMK AO2 SLP170
     T02280178=
KSFF 081053Z AUTO 00000KT 10SM CLR 13/11 A3006 RMK AO2 SLP167
     T01280106=
KSHN 081053Z AUTO 00000KT 10SM CLR 12/10 A2993 RMK AO2 SLP133
     T01170100=
KSHR 081053Z AUTO 00000KT 10SM CLR 07/04 A3026 RMK AO2 SLP234
     T00670044=
KSLC 081053Z 16007KT 10SM FEW130 18/07 A3009 RMK AO2 SLP136
     T01830067=
KSLN 081053Z AUTO 36005KT 5SM BR OVC006 21/19 A3012 RMK AO2 CIG
     003V009 SLP188 T02060194=
KSMQ 081053Z AUTO 00000KT 3SM BR CLR 23/21 A3002 RMK AO2 SLP163
     T02280211=
KSNA 081053Z 00000KT 8SM OVC015 18/12 A2989 RMK AO2 SLP121
     T01830122=
KSNS 081053Z AUTO 28005KT 9SM OVC009 13/11 A2991 RMK AO2 SLP139
     T01280106=
KSNY 081053Z AUTO 00000KT 10SM SCT065 16/14 A3031 RMK AO2 SLP231
     T01610144 $=
KSPB 081053Z AUTO 00000KT 10SM CLR 16/12 A2988 RMK AO2 SLP119
     T01610117 $=
KSPG 081053Z AUTO 09005KT 10SM CLR 26/22 A2997 RMK AO2 SLP148
     T02610217=
KSRQ 081053Z 05003KT 10SM CLR 23/22 A2996 RMK AO2 SLP146
     T02330217=
KSSI 081053Z AUTO 27005KT 10SM CLR 23/21 A3000 RMK AO2 SLP159
     T02280211=
####018003671####
SAUS99 KWBC 081056 RRC
METAR
KMLC 081053Z AUTO 00000KT 10SM FEW070 24/23 A3004 RMK AO2 SLP162
     T02390228=
KMLP 081053Z AUTO 12009G16KT 10SM CLR 13/02 A3026 RMK AO2 SLP156
     T01280017 TSNO=
KMLS 081053Z AUTO 15005KT 10SM CLR 12/10 A3019 RMK AO2 SLP213
     T01170100=
KMLT 081053Z AUTO 16003KT 4SM BR OVC007 21/19 A3007 RMK AO2 SLP185
     T02060194=
KMLU 081053Z 00000KT 7SM CLR 24/23 A3005 RMK AO2 SLP175
     T02440228=
KMMK 081053Z AUTO 16004KT 1 3/4SM BR OVC008 25/23 A3006 RMK AO2
     SLP175 T02500228=
KMNN 081053Z AUTO 00000KT 6SM BR CLR 20/18 A3009 RMK AO2 SLP183
     T02000183=
KMPO 081053Z AUTO 00000KT 5SM BR FEW095 20/18 A3011 RMK AO2 SLP181
     T02000178=
KMSO 081053Z AUTO 00000KT 10SM CLR 11/06 A3020 RMK AO2 SLP211
     T01060056 $=
KMSS 081053Z AUTO 23005KT 5SM HZ FEW060 24/21 A3002 RMK AO2 SLP162
     T02390211=
KMTH 081053Z AUTO 09007KT 4SM -RA SCT019 BKN024 OVC046 27/24 A2993
     RMK AO2 LTG DSNT NE RAB52 SLP133 P0005 T02670239 $=
KMTJ 081053Z AUTO 14006KT 10SM CLR 16/04 A3027 RMK AO2 SLP176
     T01560044=
KMVY 081053Z 13004KT 10SM CLR 22/20 A3009 RMK AO2 SLP188
     T02170200=
KMYF 081053Z AUTO 34005KT 10SM OVC013 16/13 A2990 RMK AO2 SLP121
     T01610133 TSNO=
KODO 081053Z AUTO 04007KT 8SM FEW120 21/19 A3008 RMK AO2 SLP144
     T02060194=
KOGB 081053Z AUTO 31006KT 10SM CLR 23/19 A2998 RMK AO2 SLP148
     T02330189=
KOGD 081053Z 18005KT 10SM CLR 17/07 A3010 RMK AO2 SLP138
     T01670067=
KOJC 081053Z AUTO 02003KT 6SM BR CLR 22/21 A3004 RMK AO2 SLP160
     T02170211=
KOLF 081053Z AUTO 00000KT 10SM BKN090 10/08 A3015 RMK AO2 SLP206
     T01000083=
KOMK 081053Z AUTO 32004KT 10SM CLR 14/08 A3006 RMK AO2 SLP172
     T01440078=
KONO 081053Z AUTO 20005KT 10SM CLR 12/06 A3005 RMK AO2 SLP164
     T01170056=
KONT 081053Z 21004KT 5SM BR OVC010 15/13 A2989 RMK AO2 SLP111
     T01500128=
KOPF 081053Z 00000KT 10SM CLR 26/24 A2994 RMK AO2 SLP139
     T02610239=
KORF 081051Z 11007KT 10SM BKN010 BKN110 26/23 A2997 RMK AO2 SLP149
     T02560233=
KORL 081053Z 00000KT 10SM CLR 23/21 A3000 RMK AO2 SLP159
     T02280211=
KOSU 081053Z AUTO 00000KT 5SM BR CLR 21/19 A3009 RMK AO2 SLP180
     T02110189=
KOTM 081053Z AUTO 33003KT 7SM CLR 20/19 A3006 RMK AO2 SLP175
     T02000194=
KOVS 081053Z AUTO 00000KT 5SM BR FEW008 21/20 A3003 RMK AO2 SLP167
     T02110200=
KOWD 081053Z 15006KT 10SM BKN018 23/19 A3009 RMK AO2 SLP188
     T02280189=
KPAE 081053Z AUTO 00000KT 10SM CLR 19/12 A2997 RMK AO2 SLP145
     T01890117=
KPBG 081053Z AUTO 00000KT 6SM HZ CLR 24/22 A3001 RMK AO2 SLP160
     T02440217=
KPBI 081053Z 04005KT 10SM SCT023CB SCT150 BKN250 27/24 A2994 RMK
     AO2 SLP137 CB NE-S MOV SW CB DSNT SE VCSH NE-E S
     T02720239=
KLAW 081053Z AUTO 06003KT 10SM CLR 23/22 A3005 RMK AO2 SLP162
     T02280217=
KLBB 081053Z 02007KT 10SM FEW040 BKN120 BKN150 19/16 A3014 RMK AO2
     RAE05 SLP160 VCSH P0000 T01890161=
KLBF 081053Z AUTO 00000KT 10SM SCT085 16/15 A3025 RMK AO2 SLP229
     T01560150=
KLEB 081053Z 00000KT 2 1/2SM BR SCT001 23/21 A3006 RMK AO2 SLP167
     T02330211=
KLEE 081053Z AUTO 04003KT 10SM CLR 22/22 A3001 RMK AO2 SLP160
     T02220217=
KLGB 081053Z 31004KT 10SM OVC015 17/13 A2989 RMK AO2 SLP122
     T01670133=
KLHX 081053Z AUTO 00000KT 10SM OVC095 16/14 A3029 RMK AO2 RAE0958
     SLP208 T01610144 PNO $=
KLNS 081053Z 00000KT 2 1/2SM HZ CLR 24/21 A3003 RMK AO2 SLP165
     T02390211=
KLOL 081053Z AUTO 36004KT 10SM CLR 21/M04 A3000 RMK AO2 SLP108
     T02061039=
KLOU 081053Z 00000KT 5SM HZ CLR 25/21 A3007 RMK AO2 SLP174
     T02500211=
####018003747####
SAUS99 KWBC 081056 RRJ
METAR
KSET 081054Z AUTO 00000KT 8SM SCT010 BKN036 OVC050 24/24 A3003 RMK
     AO2 SLP164 T02390239=
KSFM 081055Z 00000KT 4SM OVC005 22/19 A3010 RMK AO1=
KSFZ 081055Z AUTO 16004KT 10SM FEW008 BKN015 OVC050 22/21 A3008
     RMK AO1=
KSGT 081055Z 00000KT 10SM CLR 23/22 A3007 RMK AO1=
KSGU 081055Z AUTO 00000KT 10SM CLR 25/03 A2995 RMK AO1=
KSJN 081054Z AUTO 09009KT 10SM OVC110 21/06 A3017 RMK AO2 SLP110
     T02110056=
KSKX 081055Z AUTO 36004KT 10SM CLR 11/04 A3038 RMK AO1=
KSLG 081055Z AUTO 14004KT 10SM OVC021 23/21 A3007 RMK AO1=
KSMN 081055Z AUTO 00000KT 10SM CLR 07/02 A3026 RMK AO1=
KSPA 081055Z AUTO 36004KT 10SM CLR 22/22 A3002 RMK AO2=
KSPL 081055Z AUTO 02008KT FEW018 SCT095 28/25 A2976 RMK AO2 PWINO
     PNO=
KSQI 081055Z 00000KT 3SM BKN005 OVC012 22/21 A3005 RMK AO1=
KSUE 081055Z AUTO 26003KT 5SM SCT011 SCT026 A2999 RMK AO1=
KSUS 081054Z 00000KT 10SM BKN047 OVC060 24/23 A3003 RMK AO2 SLP158
     T02390228=
KSYR 081054Z 00000KT 10SM CLR 24/21 A3004 RMK AO2 SLP167
     T02390206=
KTAD 081054Z AUTO 34003KT 10SM BKN007 OVC012 14/13 A3037 RMK AO2
     CIG 005V010 SLP215 T01390128=
KTIF 081050Z AUTO 00000KT 10SM BKN095 15/14 A3026 RMK AO2
     T01530142=
KTQE 081054Z AUTO 35006KT 9SM CLR 17/17 A3014 RMK AO2 SLP197
     T01720167=
KTRK 081050Z AUTO 12003KT 10SM CLR 10/07 A3015 RMK AO2=
KTVF 081055Z AUTO 21004KT 10SM CLR 13/11 A3005 RMK AO1=
KUIN 081054Z AUTO 00000KT 2SM BR OVC001 23/22 A3004 RMK AO2 SLP165
     T02280222=
KUTA 081055Z AUTO 00000KT 10SM CLR 23/22 A3007 RMK AO2=
KUZA 081054Z AUTO 36003KT 9SM CLR 22/18 A3002 RMK AO2 SLP149
     T02170178=
KVAY 081054Z AUTO 00000KT 1/4SM FG VV006 24/23 A3003 RMK AO2
     SLP168 T02390233=
KVBT 081055Z AUTO 00000KT 10SM OVC024 23/21 A3004 RMK AO1=
KVIS 081055Z AUTO 30003KT 10SM CLR 19/12 A2981 RMK AO1=
KVSF 081054Z AUTO 00000KT 3SM BR OVC014 22/21 A3008 RMK AO2 SLP183
     T02170206=
KVTA 081054Z AUTO 00000KT 1 3/4SM BR CLR 19/18 A3009 RMK AO2
     SLP181 T01890183=
KWLD 081054Z AUTO 35003KT 10SM CLR 22/21 A3006 RMK AO2 SLP169
     T02220206=
KWVL 081055Z AUTO 18006KT 5SM OVC004 21/19 A3005 RMK AO1=
KWWD 081055Z AUTO 9SM FEW120 24/24 A3004 RMK AO1=
KX40 081055Z AUTO 00000KT 4SM BR CLR 22/21 A3001 RMK AO2
     T02170211=
KXFL 081053Z 00000KT 10SM CLR 20/19 A3001=
KYKN 081055Z AUTO 00000KT 10SM CLR 17/14 A3018 RMK AO1=
PAAQ 081053Z AUTO 34007KT 10SM BKN085 12/09 A2999 RMK AO2 RAE03
     SLP151 P0000 T01220089 TSNO=
PABE 081053Z 36004KT 10SM OVC120 10/09 A3001 RMK AO2 SLP171
     T00960093 PNO $=
PABI 081053Z AUTO 14003KT 10SM CLR 11/07 A3008 RMK AO2 SLP187
     T01060072 TSNO=
PABR 081053Z 25017G22KT 10SM BKN200 06/03 A2998 RMK AO2 SLP153
     T00610028 $=
PABT 081053Z 34004KT 10SM SCT120 11/09 A3007 RMK AO2 SLP190
     T01110094=
PACD 081053Z 15006KT 10SM FEW050 SCT180 06/04 A2993 RMK AO2 SLP134
     T00560039=
PADE 081053Z AUTO 23005KT 10SM CLR 04/03 A3014 RMK AO2 SLP207
     T00440033 TSNO=
PADQ 081053Z 31003KT 8SM FEW010 BKN020 OVC041 11/09 A2984 RMK AO2
     SLP106 T01060094 $=
PAEG 081053Z AUTO 17004KT 10SM CLR 04/02 A3004 RMK AO2 SLP177
     T00390022 TSNO=
PAEN 081053Z AUTO 02012KT 10SM FEW080 14/11 A2994 RMK AO2 SLP140
     T01390111 TSNO=
PAFA 081053Z 07003KT 10SM FEW200 12/08 A3004 RMK AO2 SLP175
     T01220083=
PAGK 081053Z AUTO 00000KT 10SM CLR 07/06 A3007 RMK AO2 SLP188
     T00720056 TSNO=
PAGY 081053Z AUTO 06003KT 10SM CLR 11/09 A3020 RMK AO2 SLP226
     T01060094 TSNO=
PAHO 081053Z AUTO 25003KT 10SM OVC075 11/09 A2991 RMK AO2 SLP129
     T01110094 TSNO=
PAIL 081053Z AUTO 03008KT 10SM FEW095 10/08 A2992 RMK AO2 SLP135
     T01000078 TSNO=
####018000090####
SAOS32 LOWM 081050
METAR LOXZ 081050Z VRB04KT 70KM FEW060CU 22/09 Q1023 NOSIG RMK FEW=
####018000088####
SAZA42 FAJS 081100
METAR FAJS 081100Z 06007KT 020V080 9999 SCT039 14/04 Q1035 NOSIG=
####018000401####
SANO37 ENMI 081050
METAR ENNO 081050Z 14010KT 9999 FEW020 SCT025 BKN050 19/14 Q1014=
METAR ENOV 081050Z VRB05KT 9999 VCSH BKN055 18/06 Q1010 =
METAR ENSD 081050Z NIL=
METAR ENSG 081050Z 24008KT 170V280 9999 SCT055 17/07 Q1012=
METAR ENSN 081050Z 16007KT 9999 BKN013 16/14 Q1016=
METAR ENSR 081050Z 36006KT 9999 FEW050 SCT070 19/10 Q1011=
METAR ENSS 081050Z 12006KT 9999 BKN022 09//08 Q1018 =
####018000405####
SAOS31 LOWM 081050
METAR LOWW 081050Z 33005KT 300V050 9999 FEW055 23/11 Q1023 NOSIG=
METAR LOWL 081050Z 13004KT 060V220 CAVOK 23/08 Q1023 NOSIG=
METAR LOWS 081050Z 06003KT 340V130 9999 FEW070 SCT180 24/07 Q1023
NOSIG=
METAR LOWI 081050Z 09004KT 030V150 CAVOK 25/14 Q1021 NOSIG=
METAR LOWG 081050Z VRB03KT CAVOK 25/10 Q1023 NOSIG=
METAR LOWK 081050Z 17003KT 090V240 9999 FEW060 23/10 Q1023 NOSIG=
####018003717####
SAUS99 KWBC 081056 RRB
METAR
KCRP 081051Z 35007KT 10SM FEW010 SCT025 BKN048 26/25 A2983 RMK AO2
     RAE0953B19E30 SLP099 P0000 T02560250=
KCRQ 081053Z AUTO 00000KT 10SM OVC011 17/13 A2988 RMK AO2 SLP118
     T01720133=
KCRS 081053Z AUTO 09003KT 10SM SCT012 25/24 A2999 RMK AO2 SLP152
     T02500239=
KCSM 081053Z AUTO 01005KT 8SM FEW012 SCT060 23/21 A3010 RMK AO2
     LTG DSNT S RAB05E47 SLP168 P0000 T02280211=
KCUB 081053Z AUTO 00000KT 10SM CLR 24/19 A2999 RMK AO2 SLP153
     T02390189=
KCYS 081053Z AUTO 16005KT 8SM SCT004 BKN010 OVC014 12/12 A3037 RMK
     AO2 CIG 007V012 SLP236 T01170117 TSNO=
KDAG 081053Z AUTO 26010KT 10SM CLR 22/02 A2986 RMK AO2 SLP080
     T02220017 TSNO $=
KDAL 081053Z 13007KT 10SM FEW016 BKN027 OVC037 26/23 A3001 RMK AO2
     SLP154 T02610233=
KDEN 081053Z 26005KT 6SM BR FEW018 BKN025 14/13 A3031 RMK AO2
     SLP211 T01440133 $=
KDEQ 081053Z AUTO 06003KT 10SM FEW005 BKN034 24/23 A3003 RMK AO2
     SLP164 T02390233=
KDET 081053Z 25003KT 6SM HZ CLR 25/22 A3004 RMK AO2 SLP166
     T02500217 $=
KDEW 081053Z AUTO 00000KT 10SM CLR 14/07 A3008 RMK AO2 SLP172
     T01390072=
KDFI 081053Z AUTO 00000KT 4SM BR CLR 22/19 A3006 RMK AO2 SLP173
     T02170194=
KDFW 081053Z 13003KT 10SM -RA OVC012 26/23 A3001 RMK AO2 RAB52
     SLP152 P0000 T02560228=
KDGW 081053Z AUTO 00000KT 9SM CLR 06/05 A3034 RMK AO2 SLP251
     T00560050 $=
KDHN 081053Z 00000KT 9SM CLR 23/22 A3007 RMK AO2 SLP176
     T02280222=
KDHT 081053Z AUTO 01009KT 10SM OVC080 16/15 A3025 RMK AO2 RAE49
     SLP192 P0000 T01610150=
KDKK 081053Z AUTO 00000KT 8SM CLR 21/18 A3006 RMK AO2 SLP175
     T02110183=
KDLN 081053Z AUTO 20010KT 10SM CLR 06/03 A3029 RMK AO2 SLP225
     T00560028=
KDLS 081053Z AUTO 13005KT 10SM CLR 14/05 A2995 RMK AO2 SLP140
     T01440050=
KDMO 081053Z AUTO 06003KT 6SM BR FEW001 23/22 A3005 RMK AO2 SLP167
     T02330217=
KDRO 081053Z AUTO 00000KT 10SM CLR 12/06 A3031 RMK AO2 SLP177
     T01220056=
KDTS 081053Z AUTO 00000KT 5SM BR FEW001 24/23 A3002 RMK AO2 SLP163
     T02440233=
KDTW 081053Z 22003KT 4SM HZ FEW040 SCT150 24/21 A3004 RMK AO2
     SLP167 T02390206=
KDVT 081053Z 11004KT 10SM CLR 27/01 A2978 RMK AO2 SLP056
     T02670011=
KDXR 081053Z AUTO 15003KT 1/4SM FG OVC001 22/22 A3007 RMK AO2
     SLP179 T02220222=
KECP 081053Z 29003KT 5SM BR CLR 23/23 A3002 RMK AO2 SLP174
     T02280228=
KEEO 081053Z AUTO 10SM FEW110 09/06 A3029 RMK AO2 SLP179 T00890056
     PNO $=
KELD 081053Z AUTO 00000KT 2 1/2SM BR SCT001 BKN080 23/23 A3004 RMK
     AO2 SLP170 T02280228=
KELM 081053Z 00000KT 2SM BR CLR 19/18 A3009 RMK AO2 SLP181
     T01890178=
KELN 081053Z AUTO 11004KT 10SM CLR 14/07 A3005 RMK AO2 SLPNO
     T01390067 $=
KEMP 081053Z AUTO 34004KT 4SM BR SCT004 BKN022 BKN110 22/20 A3007
     RMK AO2 SLP175 T02170200=
KEPH 081053Z AUTO 33009KT 10SM CLR 21/04 A3000 RMK AO2 SLP149
     T02060044=
KEVW 081053Z AUTO 09013KT 10SM CLR 10/03 A3032 RMK AO2 SLP182
     T01000028 TSNO=
KEWB 081053Z 13005KT 6SM BR OVC002 23/21 A3008 RMK AO2 SLP185
     T02280211=
KEYE 081053Z AUTO 00000KT 6SM HZ CLR 24/21 A3005 RMK AO2 SLP168
     T02390211=
KEYW 081053Z 07003KT 10SM FEW080 27/24 A2994 RMK AO2 RAB29E44
     SLP137 P0000 T02720244=
KFDR 081053Z AUTO 07004KT 10SM 23/22 A3002 RMK AO2 SLP152
     T02330222=
KFDY 081053Z AUTO 00000KT 5SM HZ CLR 22/19 A3006 RMK AO2 SLP169
     T02170189=
KFFT 081053Z AUTO 00000KT 2 1/2SM BR CLR 21/19 A3008 RMK AO2
     SLP176 T02060194=
KFHR 081053Z AUTO 00000KT 10SM CLR 13/10 A2998 RMK AO2 SLP150
     T01280100=
KFLL 081053Z 07007KT 10SM FEW022 28/24 A2993 RMK AO2 SLP135
     T02780244=
####018003721####
SAUS99 KWBC 081056 RRG
METAR
KRSW 081053Z 00000KT 10SM CLR 24/22 A2996 RMK AO2 SLP143
     T02390222=
KRVS 081053Z 00000KT 10SM FEW004 BKN080 23/22 A3003 RMK AO2 LTG
     DSNT E TSE14RAE43 SLP171 P0006 T02280222=
KRWL 081053Z AUTO 06008KT 5SM BR OVC001 08/08 A3038 RMK AO2 SLP220
     T00830078=
KHWD 081054Z AUTO 34005KT 10SM OVC009 14/11 A2991 RMK AO2 SLP138
     T01390111=
KHYS 081055Z AUTO 36008KT 10SM OVC024 18/17 A3019 RMK AO1=
KILN 081054Z AUTO 00000KT 3SM BR CLR 21/19 A3009 RMK AO2 SLP178
     T02060194=
KIMT 081054Z AUTO 32004KT 10SM OVC002 20/19 A3000 RMK AO2 CIG
     001V005 SLP154 T02000194=
KIND 081054Z 00000KT 7SM FEW075 BKN110 BKN200 25/20 A3004 RMK AO2
     SLP162 T02500200=
KINT 081054Z 02005KT 10SM FEW085 26/17 A3004 RMK AO2 SLP157
     T02560172=
KIPT 081054Z 34003KT 7SM CLR 21/17 A3006 RMK AO2 SLP174
     T02060167=
KISW 081054Z AUTO 27003KT 7SM CLR 19/18 A3003 RMK AO2 SLP165
     T01890183 TSNO=
KIWD 081055Z AUTO 31004KT 9SM CLR 15/14 A3002 RMK AO1=
KIZG 081054Z AUTO 00000KT 5SM HZ BKN100 23/20 A3008 RMK AO2 SLP185
     T02280200=
KJAC 081055Z AUTO 03003KT 10SM CLR 06/M02 A3036 RMK AO1=
KJHW 081055Z AUTO 19004KT 2SM CLR 19/18 A3012 RMK AO1=
KKLS 081055Z AUTO 00000KT 10SM CLR 15/13 A2993 RMK AO1=
KLAF 081054Z 00000KT 2 1/2SM BR BKN055 23/22 A3003 RMK AO2 SLP164
     T02280217=
KLBL 081055Z 04007KT 10SM BKN032 BKN038 19/17 A3022 RMK AO1=
KLBT 081054Z AUTO 34003KT 10SM CLR 25/18 A2994 RMK AO2 SLP136
     T02500178=
KLCI 081055Z AUTO 00000KT 10SM BKN100 23/20 A3007 RMK AO1=
KLEW 081055Z 17005KT 1 1/4SM OVC002 20/19 A3011 RMK AO1=
KLEX 081054Z 15003KT 2 1/2SM HZ CLR 22/18 A3010 RMK AO2 SLP179
     T02170183=
KLGD 081055Z AUTO 00000KT 10SM CLR 11/06 A3005 RMK AO1=
KLKV 081055Z AUTO 33008KT 10SM CLR 11/01 A3011 RMK AO1=
KLNK 081054Z 35006KT 10SM BKN036 18/17 A3016 RMK AO2 SLP204
     T01780167=
KLPC 081055Z AUTO 26003KT 10SM OVC010 13/11 A2992 RMK AO1 PNO=
KLUX 081055Z AUTO 00000KT 10SM CLR 22/22 A3003 RMK AO2=
KLWM 081054Z 00000KT 6SM HZ FEW042 BKN075 24/21 A3010 RMK AO2
     SLP190 T02440211=
KLWT 081054Z AUTO 13005KT 10SM CLR 07/05 A3026 RMK AO2 SLP230
     T00720050=
KLYH 081054Z 36003KT 6SM HZ CLR 25/18 A3005 RMK AO2 SLP162
     T02500183=
KMBL 081055Z AUTO 00000KT 9SM BKN055 OVC065 22/19 A3001 RMK
     AO1=
KMER 081055Z AUTO 33006KT 10SM CLR 16/10 A2983 RMK AO1=
KMFI 081054Z AUTO 32006KT 2 1/2SM BR OVC003 19/18 A3003 RMK AO2
     SLP163 T01890183=
KMGJ 081054Z AUTO 00000KT 2 1/2SM BR BKN100 23/21 A3004 RMK AO2
     SLP170 T02280206=
KMIV 081054Z AUTO 10003KT 3SM BR CLR 24/22 A3002 RMK AO2 SLP161
     T02390222=
KMJX 081055Z AUTO 00000KT 1 1/2SM BKN009 OVC095 24/22 A3003 RMK
     AO1=
KMKC 081054Z 02003KT 10SM FEW100 22/20 A3004 RMK AO2 SLP166
     T02170200=
KMKT 081055Z 28004KT 10SM CLR 16/15 A3012 RMK AO1=
KMML 081055Z AUTO 28007KT 10SM CLR 14/12 A3014 RMK AO1=
KDDH 081054Z AUTO 00000KT 2SM BR CLR 21/20 A3007 RMK AO2 SLP174
     T02110200=
KDEC 081054Z 00000KT 4SM BR SCT075 25/23 A3004 RMK AO2 SLP165
     T02500228=
KDSM 081054Z 36003KT 10SM FEW180 SCT250 21/18 A3009 RMK AO2 SLP181
     T02110183=
KDSV 081054Z AUTO 14006KT 6SM HZ CLR 22/19 A3009 RMK AO2 SLP194
     T02170189=
KDVL 081055Z AUTO 28006KT 10SM CLR 14/12 A3008 RMK AO1=
KDYL 081054Z AUTO 00000KT 3SM BR CLR 23/22 A3003 RMK AO2 SLP162
     T02280217 TSNO=
KDYR 081055Z AUTO 00000KT 10SM CLR 23/19 A3008 RMK AO1=
KEAR 081055Z AUTO 33006KT 10SM CLR 15/13 A3025 RMK AO1=
KECG 081054Z AUTO 07007KT 10SM BKN007 BKN012 BKN120 26/24 A2996
     RMK AO2 SLP146 T02560239=
KEEN 081055Z AUTO 00000KT 6SM OVC085 23/22 A3007 RMK AO1=
####018003665####
SAUS99 KWBC 081056 RRI
METAR
KPTV 081055Z AUTO 19006KT 10SM CLR 18/11 A2985 RMK AO1=
KPTW 081054Z AUTO 00000KT 3SM HZ CLR 25/21 A3004 RMK AO2 SLP166
     T02500206 $=
KPVC 081055Z 16007KT 10SM BKN005 22/20 A3011 RMK AO1=
KPVU 081055Z 35005KT 10SM CLR 14/09 A3013 RMK AO1=
KPWT 081055Z AUTO 04007KT 10SM CLR 21/06 A2998 RMK AO1=
KRBL 081054Z AUTO 00000KT 10SM CLR 23/18 A2983 RMK AO2 SLP095
     T02330178=
KRDG 081054Z 00000KT 8SM CLR 25/21 A3002 RMK AO2 SLP167
     T02500206=
KRKD 081055Z AUTO 21005KT 1/2SM OVC002 18/17 A3011 RMK AO1=
KRKS 081054Z AUTO 11006KT 10SM BKN120 08/06 A3034 RMK AO2 SLP215
     T00780056=
KROC 081054Z 22005KT 7SM SCT080 23/20 A3006 RMK AO2 SLP174 ACC NW
     T02280200 $=
KRST 081054Z 31005KT 7SM CLR 17/17 A3011 RMK AO2 SLP192
     T01720167=
KRUT 081055Z AUTO 14006KT 5SM CLR 22/19 A3006 RMK AO1=
KSBY 081054Z 09003KT 8SM FEW100 24/23 A3001 RMK AO2 SLP164
     T02440228=
KSDY 081055Z AUTO 20006KT 10SM CLR 11/08 A3015 RMK AO1=
K1F0 081050Z AUTO 00000KT 10SM SCT019 SCT030 SCT037 24/24 A3002
     RMK AO2=
KAAO 081054Z AUTO 33005KT 10SM CLR 21/20 A3009 RMK AO2 SLP176
     T02110200=
KAEG 081055Z AUTO 31004KT 10SM CLR 16/08 A3028 RMK AO1=
KAEX 081053Z AUTO 06003KT 10SM CLR 24/23 A3000 RMK AO2 SLP162
     T02390228=
KAFJ 081055Z AUTO 00000KT 1/4SM OVC060 17/16 A3012 RMK AO1=
KAIZ 081055Z AUTO 00000KT 10SM SCT033 BKN070 22/21 A3007 RMK AO1
     LTG DSNT S=
KAKH 081054Z AUTO 36005KT 10SM BKN095 24/17 A3002 RMK AO2 SLP158
     T02390167=
KAKR 081054Z AUTO 00000KT 4SM HZ CLR 22/19 A3009 RMK AO2 SLP180
     T02170189=
KALO 081054Z AUTO 31006KT 10SM CLR 19/19 A3006 RMK AO2 SLP175
     T01940189=
KAPC 081054Z AUTO 26011KT 10SM OVC008 12/11 A2990 RMK AO2 SLP116
     T01170106=
KARG 081055Z AUTO 19004KT 9SM CLR 24/22 A3006 RMK AO1=
KAUO 081055Z AUTO 00000KT 10SM CLR 24/21 A3003 RMK AO1=
KAUW 081054Z AUTO 33005KT 9SM OVC004 19/18 A3002 RMK AO2 CIG
     003V007 SLP162 T01940183 $=
KAVL 081054Z 00000KT 6SM BR CLR 18/17 A3014 RMK AO2 SLP177
     T01780172=
KAWO 081055Z AUTO 00000KT 10SM CLR 14/13 A2998 RMK AO1=
KBFL 081054Z AUTO 33004KT 10SM CLR 21/11 A2983 RMK AO2 SLP093
     T02110106=
KBHB 081055Z AUTO 20008KT 6SM OVC002 18/18 A3012 RMK AO1=
KBID 081055Z AUTO 12008KT 1/4SM OVC002 21/21 A3008 RMK AO1=
KBKX 081055Z AUTO 00000KT 10SM CLR 14/12 A3017 RMK AO1=
KBLM 081055Z AUTO 15004KT 5SM OVC005 24/21 A3006 RMK AO1=
KBOS 081054Z 17007KT 10SM CLR 22/19 A3009 RMK AO2 SLP189
     T02220194=
KBOW 081055Z AUTO 02004KT 7SM CLR 22/22 A2999 RMK AO2=
KBTP 081055Z AUTO 00000KT 1SM CLR 18/17 A3011 RMK AO1=
KBUF 081054Z 18004KT 7SM FEW090 23/19 A3005 RMK AO2 SLP172
     T02280194=
KBUY 081054Z AUTO 00000KT 5SM HZ CLR 24/19 A3000 RMK AO2 SLP150
     T02390189 $=
KBVX 081055Z AUTO 13004KT 10SM CLR 23/22 A3007 RMK AO1=
KBWI 081054Z 10007KT 4SM HZ SCT100 27/23 A3001 RMK AO2 SLP160
     T02670228=
KCEU 081054Z AUTO 00000KT 10SM CLR 24/21 A3004 RMK AO2 SLP160
     T02440206=
KCGC 081055Z AUTO 00000KT 10SM CLR 21/19 A3000 RMK=
KCGZ 081055Z AUTO 00000KT 10SM CLR 27/01 A2980 RMK AO1=
KCIU 081055Z AUTO 29005KT 5SM OVC005 19/18 A2997 RMK AO1=
KCOD 081055Z 14007KT 10SM CLR 11/02 A3033 RMK AO1=
KCOE 081055Z AUTO 08007KT 10SM CLR 14/08 A3009 RMK AO1=
KCOS 081054Z 16003KT 10SM BKN032 13/11 A3038 RMK AO2 SLP222
     T01280111=
KCRW 081054Z 00000KT 2SM BR FEW001 21/19 A3010 RMK AO2 SLP181
     T02060194=
KCVN 081055Z AUTO 04004KT 10SM BKN006 17/14 A3022 RMK AO1=
KCVO 081055Z AUTO 27009KT 10SM CLR 13/09 A2992 RMK AO1=
KCWI 081055Z 30003KT 2SM BKN004 OVC008 A3005 RMK AO1=
####018003728####
SAUS99 KWBC 081056 RRH
METAR
KEGE 081055Z 00000KT 10SM CLR 10/08 A3036 RMK AO1=
KEHR 081055Z AUTO 00000KT 4SM CLR 22/18 A3006 RMK AO1=
KENV 081055Z 00000KT 10SM CLR 17/00 A3009 RMK AO1=
KESC 081055Z AUTO 00000KT 5SM BKN021 19/16 A2998 RMK AO1=
KEUG 081054Z 19006KT 10SM CLR 13/10 A2993 RMK AO2 SLP131
     T01280100=
KEUL 081055Z AUTO 08003KT 10SM CLR 12/06 A3006 RMK AO1=
KEVV 081054Z 00000KT 9SM CLR 24/22 A3006 RMK AO2 SLP175
     T02390217=
KEWK 081055Z AUTO 36008KT 10SM OVC008 21/19 A3006 RMK AO1=
KEWN 081054Z 04005KT 2 1/2SM BR CLR 25/24 A2995 RMK AO2 SLP140
     T02500239=
KFAM 081055Z AUTO 00000KT 10SM CLR 23/22 A3009 RMK AO1=
KFIG 081054Z AUTO 00000KT 3SM BR CLR 19/17 A3013 RMK AO2 SLP189
     T01890172=
KFKL 081055Z 23004KT 1 1/2SM CLR 19/17 A3014 RMK AO1=
KFLP 081055Z AUTO 00000KT 10SM BKN070 23/21 A3005 RMK AO1=
KFNL 081055Z AUTO 35004KT 6SM OVC005 14/13 A3032 RMK AO1=
KFOD 081055Z AUTO 31003KT 9SM CLR 17/16 A3013 RMK AO1=
KFRM 081055Z AUTO 10SM CLR 16/14 A3015 RMK AO1=
KFZY 081054Z AUTO 00000KT 4SM BR CLR 23/22 A3005 RMK AO2 SLP171
     T02330217=
KGAD 081055Z AUTO 28003KT 10SM CLR 21/19 A3006 RMK AO1=
KGAI 081055Z 00000KT 5SM SCT095 25/22 A3005 RMK AO1=
KGBD 081055Z AUTO 36005KT 10SM OVC008 19/18 A3017 RMK AO1=
KGCK 081054Z AUTO 03010KT 10SM SCT005 18/16 A3021 RMK AO2 SLP203
     T01780161=
KGCN 081054Z AUTO 00000KT 10SM CLR 08/M03 A3023 RMK AO2 SLP140
     T00831033=
KGDV 081055Z AUTO 00000KT 10SM CLR 11/07 A3017 RMK AO1=
KGPZ 081055Z AUTO 24005KT 10SM CLR 17/14 A3005 RMK AO1=
KGTR 081055Z 00000KT 10SM CLR 23/22 A3007 RMK AO1=
KGUC 081055Z AUTO 36004KT 10SM FEW110 08/03 A3044 RMK AO1=
KGXY 081055Z AUTO 05004KT 7SM FEW010 OVC047 15/12 A3031 RMK
     AO1=
KHDN 081055Z 14006KT 10SM CLR 09/05 A3032 RMK AO1=
KHEF 081055Z AUTO 00000KT 5SM FEW100 23/20 A3001 RMK AO1=
KHEZ 081055Z AUTO 00000KT 3SM CLR 22/21 A3005 RMK AO1=
KHNB 081055Z AUTO 00000KT 5SM SCT060 23/22 A3006 RMK AO1=
KMNI 081055Z AUTO 00000KT 10SM CLR 24/22 A2996 RMK AO2=
KMNM 081055Z AUTO 28003KT 6SM OVC009 21/19 A2999 RMK AO1=
KMOT 081054Z AUTO 23005KT 10SM BKN090 14/11 A3009 RMK AO2 SLP190
     T01390111 TSNO=
KMRF 081055Z AUTO 03006KT 10SM OVC095 17/14 A3018 RMK AO1=
KMRY 081054Z AUTO 00000KT 10SM OVC008 13/10 A2992 RMK AO2 SLP144
     T01330100=
KMSV 081055Z AUTO 00000KT 5SM CLR 21/19 A3010 RMK AO1=
KMTW 081055Z 00000KT 5SM SCT006 21/21 A3001 RMK AO1=
KMVL 081054Z AUTO 00000KT 2 1/2SM BR CLR 21/20 A3008 RMK AO2
     SLP180 T02110200=
KMVN 081055Z AUTO 00000KT 2SM BKN049 22/21 A3005 RMK AO1=
KOFP 081054Z AUTO 08003KT 4SM HZ SCT075 24/21 A3001 RMK AO2 SLP158
     T02440206=
KOKK 081055Z AUTO 14003KT 4SM OVC110 23/17 A3005 RMK AO1=
KOLM 081054Z AUTO 00000KT 10SM CLR 12/11 A2995 RMK AO2 SLP141
     T01220106=
KOLS 081054Z AUTO VRB03KT 10SM CLR 24/08 A2998 RMK AO2 SLP071
     T02390078=
KOLU 081055Z AUTO 00000KT 10SM SCT120 17/14 A3019 RMK AO1=
KORH 081054Z 16006KT 3SM BR OVC004 22/22 A3011 RMK AO2 CIG 002V007
     SLP190 T02220217=
KOTG 081055Z AUTO 27004KT 10SM CLR 14/13 A3016 RMK AO1=
KOTH 081055Z 00000KT 10SM OVC008 10/08 A3000 RMK AO1=
KPHF 081054Z 10006KT 5SM BR FEW080 SCT100 26/24 A2998 RMK AO2
     SLP150 T02560244=
KPIB 081055Z AUTO 00000KT 6SM CLR 23/21 A3005 RMK AO1=
KPLN 081054Z AUTO 00000KT 9SM -RA OVC100 22/21 A2997 RMK AO2 RAB50
     SLP146 P0000 T02220206=
KPNE 081054Z 12003KT 2 1/2SM BR FEW004 24/23 A3004 RMK AO2 SLP172
     T02440233=
KPQI 081055Z AUTO 15006KT 10SM CLR 21/18 A3000 RMK AO1=
KPSF 081054Z AUTO 00000KT 2 1/2SM BR CLR 21/19 A3008 RMK AO2
     SLP155 T02110194=
KPTN 081055Z AUTO 08005KT 10SM CLR 24/M08 A3001 RMK AO1=
####018003749####
SAUS99 KWBC 081056 RRF
METAR
KSTJ 081053Z AUTO 34009KT 7SM BKN005 23/21 A3006 RMK AO2
     RAE0954B17E36 SLP172 P0001 T02280211=
KSWO 081053Z AUTO 06003KT 8SM SCT080 23/21 A3004 RMK AO2 SLP159
     T02280211=
KTCC 081053Z AUTO 04006KT 10SM FEW009 BKN014 OVC100 18/16 A3023
     RMK AO2 SLP176 T01780156=
KTDZ 081053Z AUTO 00000KT 8SM CLR 23/19 A3006 RMK AO2 SLP171
     T02330189=
KTHV 081053Z AUTO 00000KT 4SM BR CLR 23/21 A3003 RMK AO2 SLP166
     T02330211=
KTKI 081053Z AUTO 00000KT 10SM BKN012 OVC018 25/23 A3002 RMK AO2
     RAB0957E23 SLP161 P0000 T02500233=
KTMB 081053Z 35004KT 10SM CLR 27/25 A2994 RMK AO2 SLP137
     T02670250=
KTOP 081053Z AUTO 32006KT 10SM CLR 22/20 A3007 RMK AO2 SLP173
     T02170200=
KTOR 081053Z AUTO 30003KT 10SM BKN055 11/09 A3031 RMK AO2 SLP240
     T01060094=
KTPA 081053Z 00000KT 10SM SCT200 24/22 A2999 RMK AO2 SLP153
     T02390217 $=
KTTD 081053Z AUTO 00000KT 10SM FEW085 18/14 A2987 RMK AO2 SLP115
     T01780144=
KTTN 081053Z 00000KT 2 1/2SM BR FEW005 24/22 A3003 RMK AO2 SLP162
     T02390217=
KTUL 081053Z 00000KT 10SM -TSRA FEW007 BKN055 BKN080 23/22 A3002
     RMK AO2 SLP157 OCNL LTGIC NE-E TS NE-E MOV N P0028
     T02280222=
KTWF 081053Z AUTO 12008KT 10SM CLR 10/01 A3012 RMK AO2 SLP152
     T01000011=
KPDT 081053Z AUTO 10006KT 10SM CLR 14/07 A2997 RMK AO2 SLP133
     T01440067=
KPDX 081053Z 00000KT 10SM CLR 18/15 A2989 RMK AO2 SLP120
     T01830150=
KPEO 081053Z AUTO 23005KT 3SM BR CLR 22/21 A3008 RMK AO2 SLP178
     T02220206=
KPGA 081053Z AUTO 00000KT 10SM CLR 24/02 A3004 RMK AO2 SLP097
     T02390022=
KPGD 081053Z AUTO 00000KT 10SM CLR 22/22 A3000 RMK AO2 SLP157
     T02220217 TSNO=
KPHD 081053Z AUTO 00000KT 2 1/2SM BR CLR 19/17 A3010 RMK AO2
     SLP185 T01890172=
KPIE 081053Z 00000KT 10SM CLR 23/21 A2998 RMK AO2 SLP153
     T02280211=
KPIH 081053Z AUTO 30003KT 10SM CLR 08/02 A3017 RMK AO2 SLP181
     T00780017=
KPKB 081053Z AUTO 00000KT 1/2SM FG OVC001 20/19 A3011 RMK AO2
     SLP188 T02000194 TSNO RVRNO=
KPMD 081053Z AUTO 20006KT 10SM CLR 17/02 A2990 RMK AO2 SLP093
     T01720017 TSNO $=
KPMP 081053Z AUTO 07005KT 10SM CLR 27/25 A2994 RMK AO2 SLP139
     T02720250=
KPNC 081053Z AUTO 02003KT 9SM CLR 22/21 A3005 RMK AO2 SLP165
     T02220211=
KPNS 081053Z 00000KT 6SM BR CLR 24/23 A3002 RMK AO2 SLP167
     T02390233=
KPOF 081053Z AUTO 00000KT 7SM CLR 24/23 A3005 RMK AO2 SLP168
     T02440233 $=
KPOU 081053Z 00000KT 5SM HZ BKN100 24/22 A3003 RMK AO2 SLP163
     T02440217=
KPRC 081053Z AUTO 21006KT 10SM CLR 18/00 A3009 RMK AO2 SLP096
     T01830000=
KPSC 081053Z AUTO 00000KT 10SM CLR 14/11 A2995 RMK AO2 SLP140
     T01390106=
KPSP 081053Z 15003KT 10SM CLR 23/12 A2973 RMK AO2 SLP062
     T02330122=
KPTK 081053Z 25003KT 8SM FEW140 SCT250 24/22 A3004 RMK AO2 SLP163
     T02440217=
KPUB 081053Z AUTO 27003KT 10SM OVC065 14/13 A3032 RMK AO2 SLP220
     T01440133=
KPUC 081053Z AUTO 35003KT 10SM CLR 14/02 A3022 RMK AO2 SLP163
     T01390017 TSNO=
KPUW 081053Z AUTO 00000KT 10SM CLR 10/06 A3007 RMK AO2 SLP171
     T01000061=
KRAL 081053Z AUTO VRB03KT 5SM BR OVC009 15/13 A2989 RMK AO2 SLP109
     T01500128=
KRBG 081053Z AUTO 01004KT 10SM CLR 18/12 A2992 RMK AO2 SLP128
     T01780122=
KRHI 081053Z AUTO 33003KT 9SM BKN003 BKN010 18/18 A3004 RMK AO2
     SLP168 T01830183=
KRIW 081053Z AUTO 25005KT 10SM CLR 09/04 A3034 RMK AO2 SLP229
     T00940039=
KRME 081053Z AUTO 10005KT 5SM BR 21/20 A3008 RMK AO2 SLP181
     T02110200 $=
KRMG 081053Z AUTO 00000KT 7SM CLR 19/18 A3005 RMK AO2 SLP165
     T01940183=
KRSL 081053Z AUTO 35009KT 10SM BKN015 OVC029 18/18 A3016 RMK AO2
     SLP202 T01830178=
####018000774####
SAGL41 BGSF 081050
METAR BGSF 081050Z 06008KT 9999 BKN070 13/02 Q1008=
METAR BGBW 081050Z 27005KT 9999 FEW030 12/04 Q1008 RMK 1SC =
METAR BGGH 081050Z 24004KT 200V280 9999 OVC004 05/03 Q1010=
METAR BGJN 081050Z 32004KT 280V360 9999 VCFG FEW100 07/05 Q1009 
RMK 1AC =
METAR BGKK 081050Z 05009KT 9999 SCT120 07/04 Q1009=
METAR BGCO 081050Z 02015KT 9999 SCT071 BKN220 07/02 Q1008=
METAR BGSS 081050Z 19003KT 0350 FG VV002 04/04 Q1009=
METAR BGAA 081050Z VRB02KT 0400 FG VV002 04/03 Q1009=
METAR BGUQ 081055Z NIL=
METAR BGMQ 081050Z 15004KT 100V190 0900 FG VV003 05/04 Q1009=
METAR BGUK 081050Z AUTO 15003KT 9999NDV  NCD 06/03 Q1010=
METAR BGQQ 081050Z 18004KT 2500 BR BKN002 04/// Q1010 RMK 7ST 
=
METAR BGPT 081050Z 30004KT 260V330 0800 FG VV003 04/04 Q1010=
####018000363####
SABX31 EBBR 081050
METAR EBAW 081050Z 22007KT 180V280 CAVOK 28/12 Q1019 NOSIG=
METAR EBBR 081050Z 26006KT 210V330 CAVOK 29/11 Q1020 NOSIG=
METAR EBCI 081050Z VRB04KT CAVOK 29/10 Q1020 NOSIG=
METAR EBLG 081050Z VRB03KT CAVOK 28/09 Q1020 NOSIG=
METAR EBOS 081050Z 31008KT CAVOK 21/16 Q1020 NOSIG=
METAR ELLX 081050Z 18004KT 110V270 CAVOK 27/08 Q1021 NOSIG=
####018002114####
SAUS99 KWBC 081056 RRK
METAR
PAJN 081053Z 00000KT 10SM FEW230 10/09 A3018 RMK AO2 SLP219
     T01000089=
PAKT 081053Z AUTO 32006KT 10SM CLR 17/12 A3008 RMK AO2 SLP185
     T01670117 TSNO=
PAKV 081053Z AUTO 22004KT 10SM CLR 08/06 A3010 RMK AO2 SLP195
     T00780056 TSNO=
PAKW 081053Z AUTO 00000KT 10SM CLR 12/10 A3012 RMK AO2 SLP200
     T01170100 TSNO=
PALH 081053Z 00000KT 10SM OVC080 13/11 A2999 RMK AO2 RAE0958B23E35
     SLP156 P0000 T01330111=
PAMC 081053Z 36003KT 10SM SCT120 BKN200 12/11 A2998 RMK AO2 SLP155
     T01220106=
PAMR 081053Z 00000KT 10SM FEW060 SCT075 BKN090 BKN200 12/11 A2998
     RMK AO2 RAB0955E04 SLP153 P0000 T01220106 $=
PANC 081053Z 17003KT 10SM -RA SCT075 OVC090 12/11 A2998 RMK AO2
     RAB22 SLP152 P0000 T01220111=
PANN 081053Z AUTO 00000KT 10SM CLR 11/09 A3002 RMK AO2 SLP171
     T01060089 TSNO=
PANT 081053Z 32007KT 10SM CLR 17/11 A3007 RMK AO2 SLP180
     T01720111=
PAOM 081053Z 35008KT 10SM FEW095 SCT200 14/08 A3009 RMK AO2 SLP190
     T01390083=
PAOR 081053Z 00000KT 10SM FEW070 09/09 A3008 RMK AO2 SLP187
     T00940089=
PAOT 081053Z 29008KT 10SM FEW038 SCT090 BKN200 12/08 A3012 RMK AO2
     SLP200 T01170078=
PAPB 081053Z AUTO 09016KT 10SM FEW030 OVC048 07/06 A2992 RMK AO2
     SLP118 T00720056 TSNO=
PASC 081053Z 25011KT 10SM BKN024 BKN080 OVC210 11/07 A3002 RMK AO2
     SLP167 T01060072=
PASI 081053Z 24003KT 10SM BKN002 13/12 A3018 RMK AO2 SLP221
     T01330122=
PASN 081053Z 07013KT 10SM OVC044 06/04 A2994 RMK AO2 SLP141
     T00560044=
PASO 081053Z AUTO VRB03KT 10SM -RA OVC070 11/10 A2990 RMK AO2
     SLP125 P0000 T01060100 TSNO=
PATK 081053Z AUTO 20003KT 10SM CLR 12/11 A2999 RMK AO2 SLP157
     T01220106 TSNO=
PATO 081053Z AUTO 11020G33KT 5SM -RA BR SCT030 BKN040 OVC049 12/11
     A3000 RMK AO2 PK WND 11035/1033 SLP160 P0010 T01220106
     TSNO=
PAWD 081053Z AUTO 00000KT 1/2SM FG FEW002 BKN008 OVC065 10/09
     A2996 RMK AO2 SLP144 T01000089 TSNO=
PAYA 081053Z 25003KT 10SM BKN110 12/10 A3018 RMK AO2 RAB40E50
     SLP221 BAY TWR WND 090MMKT P0000 T01170100=
####018000312####
SANO34 ENMI 081050
METAR ENBN 081050Z 35009KT CAVOK 17/10 Q1010=
METAR ENBV 081050Z NIL=
METAR ENDI 081050Z NIL=
METAR ENFG 081050Z NIL=
METAR ENHF 081050Z 20009KT CAVOK 18/09 Q1012 =
METAR ENRA 081050Z VRB01KT 9999 SCT050TCU 22/09 Q1008=
METAR ENSH 081050Z 15002KT 9999 VCSH FEW040 BKN060 17/08 Q1010=
####018000259####
SANO38 ENMI 081050
METAR ENDR 081050Z NIL=
METAR ENEK 081050Z NIL=
METAR ENGC 081050Z 19026KT CAVOK 13/11 Q1008=
METAR ENHE 081050Z 19020KT CAVOK 15/11 Q1008=
METAR ENOA 081050Z 19023KT CAVOK 13/11 Q1010=
METAR ENSL 081050Z 23024KT CAVOK 14/11 Q1012=
####018000081####
SABZ20 SBMN 081100
METAR SBMN 081100Z 07002KT 9999 FEW010 SCT100 27/24 Q1012=
####018000106####
SPUS99 KWBC 081056
SPECI
KHWV 081054Z AUTO 15003KT 5SM BR SCT013 SCT021 24/23 A3006 RMK
     AO2=
####018000102####
SAAZ61 LPLA 081100
METAR LPLA 081100Z 15005KT 9999 -SHRA FEW008 SCT016 BKN028 20/18
      Q1024=
####018000570####
SAMX42 MMGL 081055
METAR MMAS 081040Z 00000KT 8SM  SCT020 BKN070 OVC200 17/14 A3006 
      RMK 8/537 HZ OCNL DROPS=
METAR MMGL 081046Z 00000KT 10SM  SCT010 OVC080 18/15 A3003 
      RMK 60746 8/57/ RAE20=
METAR MMLO 081042Z 16003KT 7SM  BKN025 OVC070 18/18 A3009 
      RMK 8/77/ OCNL DROPS=
METAR MMPR 081046Z 00000KT 12SM  SCT025 BKN070 25/23 A2980 RMK 8/470=
METAR MMSP 081042Z 00000KT 8SM  SCT010 BKN015 BKN080 17/17 A3013 
      RMK 8/530 HZY MSGTX MMZC=
METAR MMZC 081040Z 13005KT 8SM  BKN030 BKN080 16/11 A3017 
      RMK 8/760 OCNL DROPS=
####018000770####
SAIY31 LIIB 081050
METAR LIEA 081050Z VRB03KT CAVOK 32/21 Q1019=
METAR LIEE 081045Z 16011KT 9999 FEW020 28/20 Q1019 NOSIG=
METAR LIEO 081050Z 04011KT 9999 FEW030 30/20 Q1020=
METAR LIMC 081050Z VRB03KT 9999 FEW035 26/15 Q1022 NOSIG=
METAR LIME 081050Z 16006KT 090V240 9999 SCT050 27/15 Q1022=
METAR LIMF 081050Z VRB01KT 9999 FEW030 BKN045 24/15 Q1023=
METAR LIMJ 081050Z VRB03KT 9999 FEW015 SCT035 28/25 Q1020=
METAR LIML 081050Z 08006KT 050V150 9999 FEW030 28/16 Q1021 NOSIG=
METAR LIRA 081045Z 24006KT 170V310 9999 SCT018 29/17 Q1019=
METAR LIRF 081050Z 22011KT 180V250 CAVOK 29/18 Q1020 NOSIG=
METAR LIRN 081050Z 05012KT CAVOK 28/13 Q1019=
METAR LIRP 081045Z 09004KT 030V130 9999 FEW030 30/15 Q1020 NOSIG=
METAR LIRQ 081050Z VRB03KT CAVOK 30/13 Q1020=
####018000091####
SAFJ31 NFFN 081100
METAR NFFN 081100Z 14006KT 40KM FEW030 21/19 Q1014 NOSIG RMK RR NIL=
####018000509####
SANO33 ENMI 081050
METAR ENAT 081050Z 07005KT 350V130 9999 FEW092 BKN180 22/08 Q1012 =
METAR ENBL 081050Z 21012KT 9999 SCT040 SCT070 15/07 Q1011=
METAR ENEV 081050Z 20006KT 9999 FEW059 SCT084 19/09 Q1010 =
METAR ENFL 081050Z 19015KT 9999 FEW020 SCT060 16/12 Q1010=
METAR ENKB 081050Z 19006KT 090V250 9999 FEW045 22/07 Q1009=
METAR ENKR 081050Z 17005KT 9999 FEW012 BKN020 13/10 Q1018 =
METAR ENML 081050Z VRB02KT 9999 SCT060 21/09 Q1009=
METAR ENNA 081050Z 18014KT 9999 FEW045CB SCT070 20/09 Q1013 =
####018003712####
SAUS70 KWBC 081100 RRA
METAR
KCOT 081053Z AUTO 03006KT 10SM SCT017 BKN044 OVC060 25/23 A2990
     RMK AO2 RAE03B22E32 SLP115 P0000 T02500228=
KCSV 081053Z AUTO 00000KT 6SM HZ CLR 21/17 A3015 RMK AO2 SLP185
     T02060167=
KCXO 081053Z VRB03KT 7SM FEW005 24/23 A2995 RMK AO2 SLP138
     T02390233=
KDAN 081053Z AUTO 00000KT 4SM HZ FEW110 25/19 A3002 RMK AO2 SLP152
     T02500189=
KDCU 081053Z AUTO 00000KT 9SM CLR 22/21 A3007 RMK AO2 SLP176
     T02220206=
KDNL 081053Z AUTO 30007KT 10SM CLR 27/18 A3001 RMK AO2 SLP157
     T02720178=
KDVO 081050Z AUTO 00000KT 10SM BKN014 12/11 A2992 RMK AO2=
KDWH 081053Z 06006KT 7SM BKN005 24/24 A2994 RMK AO2 SLP135
     T02440239=
KEET 081053Z AUTO 00000KT 5SM BR CLR 23/22 A3006 RMK AO2 SLP169
     T02330217=
KENW 081053Z AUTO VRB03KT 6SM BR FEW031 OVC080 22/22 A3001 RMK AO2
     RAB14E51 SLP160 P0002 T02220217 $=
KEQY 081053Z AUTO 34003KT 10SM CLR 25/17 A3000 RMK AO2 SLP154
     T02500172=
KESF 081053Z AUTO 00000KT 5SM BR SCT015 22/22 A3003 RMK AO2 SLP166
     T02220217=
KFAY 081053Z AUTO 35006KT 8SM CLR 26/18 A2994 RMK AO2 SLP132
     T02560183=
KFCM 081053Z AUTO 30003KT 10SM CLR 18/16 A3009 RMK AO2 SLP185
     T01780156=
KFFC 081053Z AUTO 00000KT 6SM BR CLR 20/18 A3005 RMK AO2 SLP168
     T02000183=
KFLD 081053Z AUTO 00000KT 6SM BR CLR 21/20 A3001 RMK AO2 SLP159
     T02110200=
KFSM 081053Z 00000KT 10SM BKN032 24/22 A3003 RMK AO2 SLP164
     T02440222=
KFTY 081053Z 00000KT 7SM CLR 20/18 A3005 RMK AO2 SLP163
     T02000183=
KFYV 081053Z 00000KT 10SM OVC027 22/21 A3007 RMK AO2 SLP169
     T02170211=
KGFK 081053Z 22005KT 10SM FEW080 14/12 A3004 RMK AO2 SLP172
     T01440122=
KGLH 081053Z AUTO 00000KT 7SM CLR 22/22 A3005 RMK AO2 SLP182
     T02220222=
KPMV 081050Z AUTO 00000KT 7SM CLR 19/18 A3014 RMK AO2
     T01900182=
KABR 081053Z AUTO 23003KT 6SM BR CLR 14/13 A3013 RMK AO2 SLP199
     T01390128=
KACV 081053Z AUTO 00000KT 4SM BR OVC001 10/09 A2996 RMK AO2 SLP152
     T01000094=
KAGS 081053Z 00000KT 10SM CLR 22/20 A2999 RMK AO2 SLP154
     T02170200=
KALI 081053Z AUTO 04007KT 10SM -RA SCT006 SCT029 25/24 A2983 RMK
     AO2 RAE21B50 SLP099 P0000 T02500244=
KAMW 081053Z AUTO 34007KT 5SM BR FEW090 19/18 A3010 RMK AO2 SLP185
     T01940183=
KANB 081053Z AUTO 00000KT 8SM CLR 21/19 A3005 RMK AO2 SLP165
     T02110194=
KAOO 081053Z AUTO 00000KT 2 1/2SM HZ CLR 20/17 A3011 RMK AO2
     SLP183 T02000172=
KARA 081053Z AUTO 09003KT 6SM BR CLR 24/24 A3000 RMK AO2 SLP157
     T02440239=
KASD 081053Z AUTO 00000KT 10SM CLR 24/23 A3001 RMK AO2 SLP163
     T02390228=
KASX 081053Z AUTO 26003KT 10SM SCT065 16/16 A3004 RMK AO2 SLP172
     T01560156=
KATY 081053Z AUTO 24006KT 10SM CLR 15/13 A3015 RMK AO2 SLP205
     T01500133=
KAUS 081053Z 06005KT 10SM SCT014 26/24 A2995 RMK AO2 SLP127
     T02560239=
KAWM 081053Z AUTO 00000KT 10SM CLR 23/22 A3006 RMK AO2 SLP173
     T02330222=
KAXN 081053Z AUTO 24006KT 10SM CLR 15/14 A3012 RMK AO2 SLP199
     P0001 T01500139=
KAZO 081053Z 00000KT 2 1/2SM BR CLR 22/21 A3005 RMK AO2 SLP169
     T02220206 $=
KBCT 081047Z AUTO 08005KT 10SM -RA FEW021 SCT048 BKN060 28/24
     A2995=
KBDE 081053Z AUTO 00000KT 10SM CLR 14/12 A3001 RMK AO2 SLP161
     T01390117=
KBEH 081053Z AUTO 00000KT 4SM BR CLR 23/22 A3004 RMK AO2 SLP165
     T02280222 $=
KBFD 081053Z AUTO 00000KT 4SM BR CLR 18/16 A3016 RMK AO2 SLP193
     T01780161=
KBFM 081053Z 00000KT 7SM CLR 23/22 A3004 RMK AO2 SLP173
     T02280217=
KBHM 081053Z 00000KT 7SM CLR 24/22 A3008 RMK AO2 SLP175
     T02390217=
KBIE 081050Z AUTO 35003KT 10SM SCT017 18/17 A3015 RMK AO2
     T01810170=
####018003718####
SAUS70 KWBC 081100 RRM
METAR
KPSF 081054Z AUTO 00000KT 2 1/2SM BR CLR 21/19 A3008 RMK AO2
     SLP155 T02110194=
KPTN 081055Z AUTO 08005KT 10SM CLR 24/M08 A3001 RMK AO1=
KPTV 081055Z AUTO 19006KT 10SM CLR 18/11 A2985 RMK AO1=
KPTW 081054Z AUTO 00000KT 3SM HZ CLR 25/21 A3004 RMK AO2 SLP166
     T02500206 $=
KPVC 081055Z 16007KT 10SM BKN005 22/20 A3011 RMK AO1=
KPVU 081055Z 35005KT 10SM CLR 14/09 A3013 RMK AO1=
KPWT 081055Z AUTO 04007KT 10SM CLR 21/06 A2998 RMK AO1=
KRBL 081054Z AUTO 00000KT 10SM CLR 23/18 A2983 RMK AO2 SLP095
     T02330178=
KRDG 081054Z 00000KT 8SM CLR 25/21 A3002 RMK AO2 SLP167
     T02500206=
KRKD 081055Z AUTO 21005KT 1/2SM OVC002 18/17 A3011 RMK AO1=
KRKS 081054Z AUTO 11006KT 10SM BKN120 08/06 A3034 RMK AO2 SLP215
     T00780056=
KRST 081054Z 31005KT 7SM CLR 17/17 A3011 RMK AO2 SLP192
     T01720167=
KRUT 081055Z AUTO 14006KT 5SM CLR 22/19 A3006 RMK AO1=
KSBY 081054Z 09003KT 8SM FEW100 24/23 A3001 RMK AO2 SLP164
     T02440228=
KSDY 081055Z AUTO 20006KT 10SM CLR 11/08 A3015 RMK AO1=
K1F0 081050Z AUTO 00000KT 10SM SCT019 SCT030 SCT037 24/24 A3002
     RMK AO2=
KAAO 081054Z AUTO 33005KT 10SM CLR 21/20 A3009 RMK AO2 SLP176
     T02110200=
KAEG 081055Z AUTO 31004KT 10SM CLR 16/08 A3028 RMK AO1=
KAEX 081053Z AUTO 06003KT 10SM CLR 24/23 A3000 RMK AO2 SLP162
     T02390228=
KAFJ 081055Z AUTO 00000KT 1/4SM OVC060 17/16 A3012 RMK AO1=
KAIZ 081055Z AUTO 00000KT 10SM SCT033 BKN070 22/21 A3007 RMK AO1
     LTG DSNT S=
KAKH 081054Z AUTO 36005KT 10SM BKN095 24/17 A3002 RMK AO2 SLP158
     T02390167=
KAKR 081054Z AUTO 00000KT 4SM HZ CLR 22/19 A3009 RMK AO2 SLP180
     T02170189=
KALO 081054Z AUTO 31006KT 10SM CLR 19/19 A3006 RMK AO2 SLP175
     T01940189=
KAPC 081054Z AUTO 26011KT 10SM OVC008 12/11 A2990 RMK AO2 SLP116
     T01170106=
KARG 081055Z AUTO 19004KT 9SM CLR 24/22 A3006 RMK AO1=
KAUO 081055Z AUTO 00000KT 10SM CLR 24/21 A3003 RMK AO1=
KAUW 081054Z AUTO 33005KT 9SM OVC004 19/18 A3002 RMK AO2 CIG
     003V007 SLP162 T01940183 $=
KAVL 081054Z 00000KT 6SM BR CLR 18/17 A3014 RMK AO2 SLP177
     T01780172=
KAWO 081055Z AUTO 00000KT 10SM CLR 14/13 A2998 RMK AO1=
KBFL 081054Z AUTO 33004KT 10SM CLR 21/11 A2983 RMK AO2 SLP093
     T02110106=
KBHB 081055Z AUTO 20008KT 6SM OVC002 18/18 A3012 RMK AO1=
KBID 081055Z AUTO 12008KT 1/4SM OVC002 21/21 A3008 RMK AO1=
KBKX 081055Z AUTO 00000KT 10SM CLR 14/12 A3017 RMK AO1=
KBLM 081055Z AUTO 15004KT 5SM OVC005 24/21 A3006 RMK AO1=
KBOS 081054Z 17007KT 10SM CLR 22/19 A3009 RMK AO2 SLP189
     T02220194=
KBOW 081055Z AUTO 02004KT 7SM CLR 22/22 A2999 RMK AO2=
KBTP 081055Z AUTO 00000KT 1SM CLR 18/17 A3011 RMK AO1=
KBUY 081054Z AUTO 00000KT 5SM HZ CLR 24/19 A3000 RMK AO2 SLP150
     T02390189 $=
KBVX 081055Z AUTO 13004KT 10SM CLR 23/22 A3007 RMK AO1=
KBWI 081054Z 10007KT 4SM HZ SCT100 27/23 A3001 RMK AO2 SLP160
     T02670228=
KCEU 081054Z AUTO 00000KT 10SM CLR 24/21 A3004 RMK AO2 SLP160
     T02440206=
KCGC 081055Z AUTO 00000KT 10SM CLR 21/19 A3000 RMK=
KCGZ 081055Z AUTO 00000KT 10SM CLR 27/01 A2980 RMK AO1=
KCIU 081055Z AUTO 29005KT 5SM OVC005 19/18 A2997 RMK AO1=
KCOD 081055Z 14007KT 10SM CLR 11/02 A3033 RMK AO1=
KCOE 081055Z AUTO 08007KT 10SM CLR 14/08 A3009 RMK AO1=
KCVN 081055Z AUTO 04004KT 10SM BKN006 17/14 A3022 RMK AO1=
KCVO 081055Z AUTO 27009KT 10SM CLR 13/09 A2992 RMK AO1=
KCWI 081055Z 30003KT 2SM BKN004 OVC008 A3005 RMK AO1=
KSET 081054Z AUTO 00000KT 8SM SCT010 BKN036 OVC050 24/24 A3003 RMK
     AO2 SLP164 T02390239=
KSFM 081055Z 00000KT 4SM OVC005 22/19 A3010 RMK AO1=
KSFZ 081055Z AUTO 16004KT 10SM FEW008 BKN015 OVC050 22/21 A3008
     RMK AO1=
####018003738####
SAUS70 KWBC 081100 RRI
METAR
KMIA 081053Z 01003KT 10SM FEW025TCU SCT100 BKN250 27/24 A2994 RMK
     AO2 SLP139 TCU E MOV SW T02720244=
KMIE 081053Z AUTO 00000KT 8SM BKN100 23/20 A3007 RMK AO2 SLP169
     T02280200=
KHFD 081053Z 14003KT 2 1/2SM BR OVC008 25/23 A3005 RMK AO2 SLP175
     T02500228=
KHHR 081053Z AUTO 23003KT 10SM OVC012 17/13 A2990 RMK AO2 SLP123
     T01670128=
KHIO 081053Z AUTO 00000KT 10SM CLR 15/12 A2989 RMK AO2 SLP116
     T01500117=
KHLN 081053Z AUTO 00000KT 10SM CLR 11/04 A3025 RMK AO2 SLP238
     T01060039=
KHQM 081053Z AUTO 26008KT 10SM 14/13 A2994 RMK AO2 SLP143
     T01440128 $=
KHRI 081053Z AUTO 00000KT 10SM CLR 14/08 A2994 RMK AO2 SLP133
     T01390078=
KHUF 081053Z 00000KT 4SM BR CLR 23/22 A3005 RMK AO2 SLP168
     T02330217 $=
KHUL 081053Z AUTO 21006KT 4SM BR SCT009 21/19 A3004 RMK AO2 SLP168
     T02110189=
KHVN 081053Z 12005KT 3SM BR OVC004 24/23 A3005 RMK AO2 CIG 002V008
     SLP177 T02440228=
KHWO 081053Z AUTO 00000KT 10SM CLR 25/24 A2995 RMK AO2 SLP143
     T02500239=
KHZY 081053Z AUTO 00000KT 4SM BR CLR 21/19 A3010 RMK AO2 SLP182
     T02060194=
KICT 081053Z 34006KT 10SM BKN080 OVC200 22/21 A3009 RMK AO2 SLP175
     T02220206 $=
KIDA 081053Z AUTO 35006KT 10SM CLR 08/05 A3020 RMK AO2 SLP196
     T00830050=
KILM 081053Z 00000KT 9SM CLR 24/20 A2992 RMK AO2 SLP131
     T02440200=
KIML 081053Z AUTO 00000KT 10SM SCT075 16/14 A3026 RMK AO2 SLP232
     T01560144=
KINK 081053Z AUTO 36006KT 10SM SCT017 21/19 A3007 RMK AO2 SLP139
     T02110194 TSNO=
KIPL 081053Z AUTO 14005KT 10SM CLR 26/16 A2969 RMK AO2 SLP056
     T02560161=
KITR 081053Z AUTO 00000KT 8SM BKN005 BKN010 OVC055 16/15 A3030 RMK
     AO2 SLP221 T01610150=
KIWI 081053Z AUTO 18005KT 10SM OVC003 20/19 A3011 RMK AO2 SLP195
     T02000189=
KIXD 081053Z 36003KT 3SM BR BKN002 22/21 A3005 RMK AO2 SLP165
     T02170206=
KJCT 081051Z AUTO 00000KT 8SM FEW014 22/21 A3001 RMK AO2 SLP122
     T02220211 TSNO=
KJEF 081053Z 10004KT 10SM BKN005 BKN065 OVC095 24/23 A3003 RMK AO2
     CIG 003V009 SLP155 P0001 T02390228=
KJER 081053Z AUTO 05011KT 10SM CLR 13/M02 A3012 RMK AO2 SLP165
     T01281017=
KJKL 081053Z AUTO 00000KT 4SM HZ CLR 23/20 A3012 RMK AO2 SLP182
     T02280200=
KLAA 081053Z AUTO 10005KT 10SM FEW016 OVC100 17/16 A3025 RMK AO2
     RAB08E52 SLP203 P0001 T01670161=
KLAR 081053Z AUTO 35003KT 7SM BKN020 07/07 A3040 RMK AO2 SLP227
     T00720067=
KUAO 081053Z AUTO 00000KT 10SM CLR 18/12 A2988 RMK AO2 SLP118
     T01780122=
KUNO 081053Z AUTO 18003KT 10SM CLR 23/21 A3008 RMK AO2 SLP171
     T02280211 TSNO=
KUUU 081053Z AUTO 12003KT 1/4SM FG VV001 21/21 A3010 RMK AO2
     SLP189 T02060206=
KVEL 081053Z AUTO 27003KT 10SM CLR 16/06 A3022 RMK AO2 SLP170
     T01610056=
KVGT 081053Z AUTO 33005KT 10SM CLR 26/M04 A2984 RMK AO2 SLP066
     T02561039 TSNO=
KVIH 081053Z AUTO 00000KT 8SM FEW018 SCT100 23/22 A3005 RMK AO2
     SLP163 T02280217=
KVLD 081053Z 00000KT 10SM CLR 19/18 A3002 RMK AO2 SLP172
     T01940183=
KVRB 081053Z 00000KT 10SM CLR 22/21 A2996 RMK AO2 SLP145
     T02170211=
KVUO 081053Z AUTO 00000KT 10SM CLR 16/13 A2988 RMK AO2 SLP119
     T01610128=
KWRL 081053Z AUTO 16009KT 10SM CLR 12/04 A3027 RMK AO2 SLP221
     T01220039=
KWST 081053Z AUTO 07004KT 10SM FEW004 OVC018 23/21 A3009 RMK AO2
     SLP187 T02280206=
KYIP 081053Z 00000KT 6SM BR CLR 23/21 A3005 RMK AO2 SLP167
     T02330211=
KZZV 081053Z AUTO 00000KT 3SM BR CLR 20/19 A3009 RMK AO2 SLP182
     T02000189=
KRXE 081053Z AUTO 05003KT 10SM CLR 09/06 A3022 RMK AO2 SLP200
     T00890056=
KSAF 081053Z AUTO 09003KT 10SM FEW110 14/11 A3032 RMK AO2 SLP180
     T01390106=
####018000626####
SANO31 ENMI 081050
METAR ENAN 081050Z 31007KT 9999 FEW045 SCT200 16/09 Q1011 NOSIG=
METAR ENBR 081050Z 20012KT 9999 FEW025TCU FEW045 18/11 Q1013 =
METAR ENBO 081050Z 28010KT 9999 -SHRA FEW035 BKN060 14/10 Q1010
           NOSIG=
METAR ENDU 081050Z 07004KT 9999 VCSH FEW050 SCT060 21/07 Q1010
           NOSIG=
METAR ENGM 081041Z 19010KT 9999 -RA FEW009 SCT045 BKN067 16/14
           Q1015=
METAR ENOL 081050Z 36006KT 9999 FEW025TCU SCT090 18/11 Q1010 NOSIG=
METAR ENVA 081046Z 29007KT 190V330 9999 TSRA SCT035CB SCT080 21/10
           Q1009 =
METAR ENZV 081050Z 21011KT 180V250 9999 FEW020 SCT200 18/12 Q1014=
####018003696####
SAUS70 KWBC 081100 RRF
METAR
KGEZ 081053Z AUTO 13005KT 4SM BR SCT090 OVC110 23/21 A3005 RMK AO2
     SLP167 T02280206=
KGFL 081053Z AUTO 00000KT 2SM BR CLR 23/22 A3003 RMK AO2 SLP166
     T02280222=
KGGG 081053Z 08005KT 10SM CLR 24/24 A3003 RMK AO2 SLP161
     T02390239=
KGGW 081053Z AUTO 34003KT 10SM CLR 11/09 A3014 RMK AO2 SLP204
     T01110089 TSNO=
KGIF 081053Z AUTO 03004KT 10SM CLR 22/21 A3001 RMK AO2 SLP158
     T02220206 TSNO=
KGJT 081053Z AUTO 10007KT 10SM CLR 19/07 A3018 RMK AO2 SLP142
     T01940067=
KGKJ 081053Z AUTO 00000KT 6SM HZ CLR 21/18 A3012 RMK AO2 SLP185
     T02060178=
KGLD 081053Z AUTO 00000KT 10SM BKN039 17/16 A3028 RMK AO2 SLP222
     T01670161=
KGNV 081053Z 00000KT 6SM BR CLR 19/18 A3001 RMK AO2 SLP159
     T01890183=
KGOK 081053Z AUTO 00000KT 9SM CLR 23/21 A3004 RMK AO2 SLP163
     T02280211=
KGTF 081053Z 21004KT 10SM CLR 08/05 A3023 RMK AO2 SLP223 T00780050
     $=
KGUY 081053Z AUTO 33005KT 10SM -RA OVC100 18/17 A3021 RMK AO2
     SLP188 P0012 T01830172=
KGZH 081053Z AUTO 00000KT 6SM BR CLR 22/21 A3005 RMK AO2 SLP170
     T02170211=
KHAO 081053Z AUTO 00000KT 1 1/2SM BR CLR 21/20 A3009 RMK AO2
     SLP184 T02110200=
KHBR 081053Z AUTO 06005KT 6SM VCTS BR FEW004 BKN065 23/22 A3007
     RMK AO2 TSB39 SLP167 T02280222=
PHJR 081053Z 00000KT 10SM FEW045 22/18 A3004 RMK AO2 SLP179
     T02220178=
KBTM 081053Z AUTO 12005KT 10SM CLR 05/01 A3032 RMK AO2 SLP234
     T00500006=
KBUR 081053Z 00000KT 7SM OVC007 16/13 A2989 RMK AO2 SLP111
     T01560133=
KBVO 081053Z AUTO 00000KT 10SM BKN040 OVC046 23/22 A3005 RMK AO2
     SLP163 T02280217=
KBVY 081053Z 16006KT 8SM FEW007 22/20 A3009 RMK AO2 SLP182
     T02170200 PNO=
KBYG 081053Z AUTO 25008KT 10SM CLR 09/02 A3030 RMK AO2 SLP228
     T00890022=
KBYI 081053Z AUTO 05003KT 10SM CLR 10/04 A3013 RMK AO2 SLP168
     T01000044=
KCAG 081053Z AUTO 00000KT 10SM CLR 10/07 A3030 RMK AO2 SLP197
     T01000067=
KCDC 081053Z AUTO 00000KT 10SM CLR 12/02 A3015 RMK AO2 SLP131
     T01220017 $=
KCDW 081053Z 00000KT 4SM HZ CLR 24/22 A3004 RMK AO2 SLP176
     T02440217=
KCEZ 081053Z AUTO VRB03KT 10SM CLR 17/07 A3023 RMK AO2 SLP150
     T01670067=
KCGI 081053Z AUTO 00000KT 10SM CLR 24/23 A3004 RMK AO2 SLP168
     T02390228 TSNO=
KCKB 081053Z 00000KT 1 3/4SM BR CLR 19/18 A3010 RMK AO2 SLP176
     T01940183=
KCLM 081053Z AUTO A2997 RMK AO2 SLPNO PWINO FZRANO $=
KCMX 081053Z AUTO 31004KT 10SM FEW070 OVC085 18/17 A2999 RMK AO2
     SLP152 T01830172=
KCNO 081053Z 00000KT 5SM BR OVC011 15/13 A2991 RMK AO2 SLP122
     T01500128=
KCPR 081053Z 00000KT 8SM CLR 04/03 A3034 RMK AO2 SLP243 T00390033
     $=
KCPS 081053Z 17003KT 10SM BKN047 24/22 A3004 RMK AO2 SLP166
     T02390222=
KCRE 081053Z 35004KT 10SM CLR 26/20 A2992 RMK AO2 SLP132
     T02560200=
KCRG 081053Z 00000KT 7SM CLR 19/18 A3000 RMK AO2 SLP159 T01940183
     $=
KCRS 081053Z AUTO 09003KT 10SM SCT012 25/24 A2999 RMK AO2 SLP152
     T02500239=
KCSM 081053Z AUTO 01005KT 8SM FEW012 SCT060 23/21 A3010 RMK AO2
     LTG DSNT S RAB05E47 SLP168 P0000 T02280211=
KCUB 081053Z AUTO 00000KT 10SM CLR 24/19 A2999 RMK AO2 SLP153
     T02390189=
KCYS 081053Z AUTO 16005KT 8SM SCT004 BKN010 OVC014 12/12 A3037 RMK
     AO2 CIG 007V012 SLP236 T01170117 TSNO=
KDAG 081053Z AUTO 26010KT 10SM CLR 22/02 A2986 RMK AO2 SLP080
     T02220017 TSNO $=
KDEN 081053Z 26005KT 6SM BR FEW018 BKN025 14/13 A3031 RMK AO2
     SLP211 T01440133 $=
KDEQ 081053Z AUTO 06003KT 10SM FEW005 BKN034 24/23 A3003 RMK AO2
     SLP164 T02390233=
KDET 081053Z 25003KT 6SM HZ CLR 25/22 A3004 RMK AO2 SLP166
     T02500217 $=
####018000488####
SAPQ50 KWBC 081100
METAR
PTKK 081050Z VRB05KT 15SM FEW014 BKN120 OVC280 26/23 A2984 RMK
     SLP106 T02560232=
PTKR 081052Z 06004KT 15SM FEW018CB SCT120 OVC300 27/24 A2985 RMK
     CB DSNT NE SLP109 T02720240=
PGUM 081054Z 08014G17KT 10SM SCT026 SCT048 28/24 A2991 RMK AO2
     SLP119 T02830244=
PTTP 081050Z 13003KT 15SM SCT018TCU BKN300 24/23 A2989 RMK TCU E-S
     SLP121 T02440228=
PGSN 081054Z 09012G19KT 10SM FEW018 28/23 A2991 RMK AO2 SLPNO
     T02780233=
####018000612####
SAIY32 LIIB 081050
METAR LIBD 081050Z 36015KT CAVOK 25/10 Q1020=
METAR LIBR 081045Z /////KT 9999 FEW020 25/15 Q1017 NOSIGNOSIG=
METAR LICC 081050Z 12011KT 8000 FEW040 29/20 Q1018=
METAR LICJ 081050Z 04016KT CAVOK 27/23 Q1018=
METAR LIPB 081050Z 17011KT CAVOK 28/12 Q1021=
METAR LIPE 081050Z 07007KT 030V100 CAVOK 28/14 Q1021=
METAR LIPH 081045Z 16004KT 9999 SCT025 27/20 Q1023=
METAR LIPK 081050Z NIL=
METAR LIPQ 081050Z VRB03KT CAVOK 26/15 Q1022=
METAR LIPR 081045Z 08011KT CAVOK 28/17 Q1021=
METAR LIPX 081045Z 12003KT 9999 FEW040 29/13 Q1021=
METAR LIPZ 081050Z 13009KT 9999 FEW060 26/18 Q1022=
####018000101####
SAUK31 EGGY 081050 CCB
METAR COR EGLL 081050Z 25006KT 180V280 9999 BKN019 21/14 Q1019
    NOSIG=
####018000108####
SAUK31 EGGY 081050 CCA
METAR COR EGCC 081050Z 24009KT 190V270 9999 SCT036 SCT048 19/10
    Q1017 NOSIG=
####018000286####
SAFI33 EFHK 081050
EFJO 081050Z AUTO VRB02KT CAVOK 26/19 Q1015=
EFLP 081050Z AUTO VRB05KT CAVOK 31/13 Q1014=
EFMI 081050Z AUTO VRB03KT 9999 FEW040 29/18 Q1014=
EFSA 081050Z 04004KT 350V090 9999 FEW045 29/17 Q1014=
EFUT 081050Z 00000KT CAVOK 29/15 Q1013=
METAR EFVR 081055Z NIL=
####018000028####
SABX31 KWBC 081050
NIL=
####018000032####
SAAW41 KWBC 081050 RRC
NIL=
####018000429####
SPXX60 KWBC 081056
SPECI
KHRT 081046Z AUTO 00000KT 1 1/2SM R18/2800VP6000FT BR CLR 23/23
     A3001 RMK AO2 SLP165 $=
KHRT 081047Z AUTO 00000KT 1 1/4SM R18/2800VP6000FT BR CLR 23/23
     A3001 RMK AO2 SLP165 $=
KSKF 081051Z 04007KT 9SM -RA BKN013 BKN021 25/ A2992 RMK AO2A
     RAB1051 SLP123 $=
KWRI 081051Z AUTO 00000KT 1 1/4SM R18/5000VP6000FT
     R24/4500VP6000FT BR SCT001 24/24 A3001 RMK AO2 SLP162 $=
####018003668####
SAUS70 KWBC 081100 RRD
METAR
KUTS 081053Z AUTO 00000KT 6SM BR OVC004 24/23 A2997 RMK AO2 CIG
     002V006 SLP145 T02390228=
KVCB 081053Z AUTO 26006KT 10SM CLR 17/10 A2983 RMK AO2 SLP099
     T01670100=
KVPC 081053Z AUTO 00000KT 4SM BR CLR 19/19 A3007 RMK AO2 SLP168
     T01940189=
KVPZ 081053Z AUTO 18003KT 3SM VCTS BR SCT047 BKN070 OVC085 23/22
     A3006 RMK AO2 LTG DSNT SW TSB41RAE26 SLP171 P0000
     T02330222=
KWVI 081053Z AUTO 24003KT 10SM OVC009 13/11 A2992 RMK AO2 SLP131
     T01280106=
KXNA 081053Z 15004KT 10SM OVC023 22/22 A3007 RMK AO2 SLP168
     T02220217=
KGLR 081053Z AUTO 23006KT 10SM OVC090 22/19 A3001 RMK AO2 SLP152
     T02220194=
KGMU 081053Z 00000KT 10SM CLR 26/18 A3005 RMK AO2 SLP162
     T02560183=
KGPT 081053Z 00000KT 6SM BR CLR 26/24 A3002 RMK AO2 SLP164
     T02560239=
KGRB 081053Z 00000KT 5SM BR OVC004 22/21 A3000 RMK AO2 RAB40E49
     SLP155 P0000 T02170206=
KGRI 081053Z AUTO 31005KT 10SM BKN120 16/14 A3021 RMK AO2 SLP221
     T01560139=
KGSH 081053Z AUTO 31005KT 3SM BR SCT055 22/20 A3006 RMK AO2 SLP170
     T02170200=
KGSP 081053Z 00000KT 10SM CLR 22/19 A3003 RMK AO2 SLP153
     T02220189=
KGUP 081053Z AUTO 15006G14KT 10SM CLR 19/08 A3025 RMK AO2 SLP046
     T01890078=
KGVL 081053Z AUTO 33004KT 10SM CLR 23/19 A3008 RMK AO2 SLP167
     T02330189=
KGWO 081053Z AUTO 00000KT 10SM CLR 22/22 A3005 RMK AO2 SLP175
     T02220217=
KHBG 081053Z AUTO 00000KT 10SM CLR 23/22 A3004 RMK AO2 SLP169
     T02280222=
KHDE 081050Z AUTO 34003KT 10SM SCT050 SCT120 16/14 A3023 RMK AO2
     T01550141=
KHEI 081053Z AUTO 00000KT 10SM CLR 09/07 A3019 RMK AO2 SLP218
     T00890072=
KHGR 081053Z AUTO 00000KT 4SM HZ CLR 24/17 A3004 RMK AO2 SLP173
     T02390172=
KHIB 081053Z AUTO 00000KT 1/2SM FG CLR 09/08 A3004 RMK AO2 SLP177
     T00890083=
KHJH 081050Z AUTO 02004KT 10SM OVC029 19/18 A3017 RMK AO2
     T01930177=
KHJO 081053Z AUTO 31007KT 10SM CLR 19/12 A2982 RMK AO2 SLP096
     T01890122=
KHKA 081053Z AUTO 19003KT 5SM BR CLR 24/22 A3007 RMK AO2 SLP178
     T02440222=
KHKS 081053Z AUTO 00000KT 9SM CLR 24/23 A3006 RMK AO2 SLP170
     T02390228=
KHKY 081053Z 32003KT 10SM CLR 23/17 A3005 RMK AO2 RAB0959E34
     SLP151 T02280167 PNO $=
KHLG 081053Z 00000KT 2 1/2SM BR CLR 21/19 A3010 RMK AO2 SLP185
     T02110194=
KHOT 081053Z AUTO 00000KT 10SM OVC008 24/23 A3007 RMK AO2 SLP176
     T02440233=
KHOU 081053Z 09005KT 10SM FEW029 SCT042 BKN130 28/24 A2991 RMK AO2
     SLP132 T02780239=
KHRL 081052Z 35009KT 10SM -RA FEW006 BKN031 OVC050 26/26 A2977 RMK
     AO2 RAB38 SLP082 P0000 T02560256=
KHRO 081053Z AUTO 00000KT 10SM CLR 22/21 A3008 RMK AO2 SLP171
     T02220206=
KHYR 081053Z AUTO 00000KT 10SM OVC050 17/16 A3007 RMK AO2 SLP177
     T01670156=
KIBM 081050Z AUTO 21003KT 10SM SCT011 BKN022 OVC075 13/12 A3033
     RMK AO2 T01260116=
KICR 081053Z AUTO 26004KT 10SM CLR 17/12 A3021 RMK AO2 SLP219
     T01670122 TSNO=
PATA 081052Z AUTO 00000KT 10SM CLR 12/06 A3005 RMK AO2 SLP176
     T01220061 TSNO=
PHJR 081053Z 00000KT 10SM FEW045 22/18 A3004 RMK AO2 SLP179
     T02220178=
KRTN 081053Z AUTO 06005KT 10SM BKN060 BKN110 14/11 A3036 RMK AO2
     SLP205 T01390106 TSNO=
KRIL 081053Z AUTO 00000KT 10SM CLR 12/07 A3025 RMK AO2 SLP177
     T01220072 TSNO=
KSGR 081053Z 05006KT 10SM FEW055 26/24 A2990 RMK AO2 SLP134
     T02610239=
KMSY 081053Z 00000KT 9SM FEW016 SCT250 26/23 A3001 RMK AO2 SLP165
     T02610233=
KABY 081053Z 00000KT 10SM CLR 21/19 A3004 RMK AO2 SLP169
     T02110194=
KACK 081053Z 11007KT 10SM CLR 20/19 A3010 RMK AO2 SLP191
     T02000194=
####018003735####
SAUS70 KWBC 081100 RRH
METAR
KOGB 081053Z AUTO 31006KT 10SM CLR 23/19 A2998 RMK AO2 SLP148
     T02330189=
KOGD 081053Z 18005KT 10SM CLR 17/07 A3010 RMK AO2 SLP138
     T01670067=
KOJC 081053Z AUTO 02003KT 6SM BR CLR 22/21 A3004 RMK AO2 SLP160
     T02170211=
KOLF 081053Z AUTO 00000KT 10SM BKN090 10/08 A3015 RMK AO2 SLP206
     T01000083=
KOMK 081053Z AUTO 32004KT 10SM CLR 14/08 A3006 RMK AO2 SLP172
     T01440078=
KONO 081053Z AUTO 20005KT 10SM CLR 12/06 A3005 RMK AO2 SLP164
     T01170056=
KONT 081053Z 21004KT 5SM BR OVC010 15/13 A2989 RMK AO2 SLP111
     T01500128=
KOPF 081053Z 00000KT 10SM CLR 26/24 A2994 RMK AO2 SLP139
     T02610239=
KORL 081053Z 00000KT 10SM CLR 23/21 A3000 RMK AO2 SLP159
     T02280211=
KOSU 081053Z AUTO 00000KT 5SM BR CLR 21/19 A3009 RMK AO2 SLP180
     T02110189=
KOTM 081053Z AUTO 33003KT 7SM CLR 20/19 A3006 RMK AO2 SLP175
     T02000194=
KOVS 081053Z AUTO 00000KT 5SM BR FEW008 21/20 A3003 RMK AO2 SLP167
     T02110200=
KOWD 081053Z 15006KT 10SM BKN018 23/19 A3009 RMK AO2 SLP188
     T02280189=
KPAE 081053Z AUTO 00000KT 10SM CLR 19/12 A2997 RMK AO2 SLP145
     T01890117=
KPBG 081053Z AUTO 00000KT 6SM HZ CLR 24/22 A3001 RMK AO2 SLP160
     T02440217=
KPBI 081053Z 04005KT 10SM SCT023CB SCT150 BKN250 27/24 A2994 RMK
     AO2 SLP137 CB NE-S MOV SW CB DSNT SE VCSH NE-E S
     T02720239=
KLAW 081053Z AUTO 06003KT 10SM CLR 23/22 A3005 RMK AO2 SLP162
     T02280217=
KLBF 081053Z AUTO 00000KT 10SM SCT085 16/15 A3025 RMK AO2 SLP229
     T01560150=
KLEB 081053Z 00000KT 2 1/2SM BR SCT001 23/21 A3006 RMK AO2 SLP167
     T02330211=
KLEE 081053Z AUTO 04003KT 10SM CLR 22/22 A3001 RMK AO2 SLP160
     T02220217=
KLGB 081053Z 31004KT 10SM OVC015 17/13 A2989 RMK AO2 SLP122
     T01670133=
KLHX 081053Z AUTO 00000KT 10SM OVC095 16/14 A3029 RMK AO2 RAE0958
     SLP208 T01610144 PNO $=
KLNS 081053Z 00000KT 2 1/2SM HZ CLR 24/21 A3003 RMK AO2 SLP165
     T02390211=
KLOL 081053Z AUTO 36004KT 10SM CLR 21/M04 A3000 RMK AO2 SLP108
     T02061039=
KLOU 081053Z 00000KT 5SM HZ CLR 25/21 A3007 RMK AO2 SLP174
     T02500211=
KLOZ 081053Z AUTO 00000KT 2 1/2SM BR CLR 20/19 A3011 RMK AO2
     SLP183 T02000189=
KLPR 081053Z AUTO 00000KT 4SM HZ CLR 22/19 A3007 RMK AO2 SLP176
     T02220189=
KLUK 081053Z 00000KT 1 1/2SM R21L/3500V4500FT BCFG CLR 22/21 A3008
     RMK AO2 SLP182 T02170211=
KLVM 081053Z AUTO 31005KT 10SM CLR 04/02 A3029 RMK AO2 SLP236
     T00390022=
KLWV 081053Z AUTO 18003KT 2 1/2SM BR CLR 24/22 A3004 RMK AO2
     SLP167 T02390217=
KLXT 081053Z AUTO 02003KT 6SM BR CLR 22/21 A3005 RMK AO2 SLP168
     T02170206=
KMAF 081053Z 02005KT 10SM CLR 21/20 A3007 RMK AO2 SLP137
     T02110200=
KMAI 081053Z AUTO 00000KT 1/4SM FG BKN001 OVC008 23/22 A3002 RMK
     AO2 SLP163 T02330222=
KMBS 081053Z 26007KT 7SM -RA SCT110 23/22 A3003 RMK AO2 RAB22
     SLP165 P0000 T02330217=
KMCI 081053Z 00000KT 10SM OVC095 22/21 A3006 RMK AO2 SLP168
     T02170206 $=
KMCK 081053Z AUTO 00000KT 10SM FEW049 BKN070 OVC085 16/16 A3024
     RMK AO2 SLP227 T01610161=
KMCO 081053Z 35004KT 10SM MIFG FEW015 FEW250 22/21 A2999 RMK AO2
     SLP155 T02170206=
KMCW 081053Z AUTO 32006KT 7SM CLR 17/17 A3013 RMK AO2 SLP192
     T01720167 $=
KMFR 081053Z AUTO 20003KT 10SM CLR 23/12 A2989 RMK AO2 SLP106
     T02280122=
KMGW 081053Z 00000KT 5SM BR CLR 21/18 A3012 RMK AO2 SLP185
     T02060183=
KMGY 081053Z AUTO 00000KT 4SM HZ CLR 23/20 A3009 RMK AO2 SLP178
     T02280200=
KMHE 081053Z AUTO 00000KT 10SM CLR 18/14 A3017 RMK AO2 SLP209
     T01780144 TSNO=
KMHT 081053Z 19006KT 3SM BR OVC010 23/21 A3007 RMK AO2 SFC VIS 3
     SLP189 T02330211=
####018003735####
SAUS70 KWBC 081100 RRK
METAR
KPSP 081053Z 15003KT 10SM CLR 23/12 A2973 RMK AO2 SLP062
     T02330122=
KPTK 081053Z 25003KT 8SM FEW140 SCT250 24/22 A3004 RMK AO2 SLP163
     T02440217=
KPUB 081053Z AUTO 27003KT 10SM OVC065 14/13 A3032 RMK AO2 SLP220
     T01440133=
KPUC 081053Z AUTO 35003KT 10SM CLR 14/02 A3022 RMK AO2 SLP163
     T01390017 TSNO=
KPUW 081053Z AUTO 00000KT 10SM CLR 10/06 A3007 RMK AO2 SLP171
     T01000061=
KRAL 081053Z AUTO VRB03KT 5SM BR OVC009 15/13 A2989 RMK AO2 SLP109
     T01500128=
KRBG 081053Z AUTO 01004KT 10SM CLR 18/12 A2992 RMK AO2 SLP128
     T01780122=
KRHI 081053Z AUTO 33003KT 9SM BKN003 BKN010 18/18 A3004 RMK AO2
     SLP168 T01830183=
KRME 081053Z AUTO 10005KT 5SM BR 21/20 A3008 RMK AO2 SLP181
     T02110200 $=
KRSL 081053Z AUTO 35009KT 10SM BKN015 OVC029 18/18 A3016 RMK AO2
     SLP202 T01830178=
KRSW 081053Z 00000KT 10SM CLR 24/22 A2996 RMK AO2 SLP143
     T02390222=
KRVS 081053Z 00000KT 10SM FEW004 BKN080 23/22 A3003 RMK AO2 LTG
     DSNT E TSE14RAE43 SLP171 P0006 T02280222=
KRWL 081053Z AUTO 06008KT 5SM BR OVC001 08/08 A3038 RMK AO2 SLP220
     T00830078=
KHWD 081054Z AUTO 34005KT 10SM OVC009 14/11 A2991 RMK AO2 SLP138
     T01390111=
KHYS 081055Z AUTO 36008KT 10SM OVC024 18/17 A3019 RMK AO1=
KILN 081054Z AUTO 00000KT 3SM BR CLR 21/19 A3009 RMK AO2 SLP178
     T02060194=
KIMT 081054Z AUTO 32004KT 10SM OVC002 20/19 A3000 RMK AO2 CIG
     001V005 SLP154 T02000194=
KIND 081054Z 00000KT 7SM FEW075 BKN110 BKN200 25/20 A3004 RMK AO2
     SLP162 T02500200=
KINT 081054Z 02005KT 10SM FEW085 26/17 A3004 RMK AO2 SLP157
     T02560172=
KIPT 081054Z 34003KT 7SM CLR 21/17 A3006 RMK AO2 SLP174
     T02060167=
KISW 081054Z AUTO 27003KT 7SM CLR 19/18 A3003 RMK AO2 SLP165
     T01890183 TSNO=
KIWD 081055Z AUTO 31004KT 9SM CLR 15/14 A3002 RMK AO1=
KIZG 081054Z AUTO 00000KT 5SM HZ BKN100 23/20 A3008 RMK AO2 SLP185
     T02280200=
KJAC 081055Z AUTO 03003KT 10SM CLR 06/M02 A3036 RMK AO1=
KJHW 081055Z AUTO 19004KT 2SM CLR 19/18 A3012 RMK AO1=
KKLS 081055Z AUTO 00000KT 10SM CLR 15/13 A2993 RMK AO1=
KLAF 081054Z 00000KT 2 1/2SM BR BKN055 23/22 A3003 RMK AO2 SLP164
     T02280217=
KLBL 081055Z 04007KT 10SM BKN032 BKN038 19/17 A3022 RMK AO1=
KLBT 081054Z AUTO 34003KT 10SM CLR 25/18 A2994 RMK AO2 SLP136
     T02500178=
KLCI 081055Z AUTO 00000KT 10SM BKN100 23/20 A3007 RMK AO1=
KLEW 081055Z 17005KT 1 1/4SM OVC002 20/19 A3011 RMK AO1=
KLGD 081055Z AUTO 00000KT 10SM CLR 11/06 A3005 RMK AO1=
KLKV 081055Z AUTO 33008KT 10SM CLR 11/01 A3011 RMK AO1=
KLNK 081054Z 35006KT 10SM BKN036 18/17 A3016 RMK AO2 SLP204
     T01780167=
KLPC 081055Z AUTO 26003KT 10SM OVC010 13/11 A2992 RMK AO1 PNO=
KLUX 081055Z AUTO 00000KT 10SM CLR 22/22 A3003 RMK AO2=
KLWM 081054Z 00000KT 6SM HZ FEW042 BKN075 24/21 A3010 RMK AO2
     SLP190 T02440211=
KLWT 081054Z AUTO 13005KT 10SM CLR 07/05 A3026 RMK AO2 SLP230
     T00720050=
KMBL 081055Z AUTO 00000KT 9SM BKN055 OVC065 22/19 A3001 RMK
     AO1=
KMER 081055Z AUTO 33006KT 10SM CLR 16/10 A2983 RMK AO1=
KMFI 081054Z AUTO 32006KT 2 1/2SM BR OVC003 19/18 A3003 RMK AO2
     SLP163 T01890183=
KMGJ 081054Z AUTO 00000KT 2 1/2SM BR BKN100 23/21 A3004 RMK AO2
     SLP170 T02280206=
KMIV 081054Z AUTO 10003KT 3SM BR CLR 24/22 A3002 RMK AO2 SLP161
     T02390222=
KMJX 081055Z AUTO 00000KT 1 1/2SM BKN009 OVC095 24/22 A3003 RMK
     AO1=
KMKC 081054Z 02003KT 10SM FEW100 22/20 A3004 RMK AO2 SLP166
     T02170200=
KMKT 081055Z 28004KT 10SM CLR 16/15 A3012 RMK AO1=
KMML 081055Z AUTO 28007KT 10SM CLR 14/12 A3014 RMK AO1=
KDDH 081054Z AUTO 00000KT 2SM BR CLR 21/20 A3007 RMK AO2 SLP174
     T02110200=
####018003691####
SAUS70 KWBC 081100 RRC
METAR
KLFK 081053Z AUTO 09005KT 10SM CLR 24/23 A3000 RMK AO2 SLP153
     T02440228=
KLFT 081053Z 08003KT 10SM SCT004 25/23 A3000 RMK AO2 SLP157
     T02500233=
KLHM 081051Z AUTO 14006KT 10SM CLR 16/11 A2982 RMK AO1
     T01630110=
KLLQ 081053Z AUTO 00000KT 7SM CLR 23/22 A3007 RMK AO2 SLP180
     T02280222=
KLMT 081053Z AUTO 35004KT 10SM FEW090 17/11 A3005 RMK AO2 SLP126
     T01720111=
KLSE 081053Z 35006KT 7SM FEW011 21/20 A3003 RMK AO2 SLP161
     T02060200=
KLVJ 081053Z AUTO 09008KT 9SM CLR 28/23 A2992 RMK AO2 SLP130
     T02780233=
KLVK 081053Z AUTO 30008KT 10SM OVC010 13/11 A2990 RMK AO2 SLP122
     T01280111=
KLVS 081053Z AUTO 05007KT 10SM SCT110 11/09 A3037 RMK AO2 SLP210
     T01060089 TSNO=
KLXN 081050Z AUTO 00000KT 10SM OVC080 17/16 A3024 RMK AO2
     T01680160=
KLZU 081050Z 00000KT 10SM SKC 21/18 A3005=
KMAE 081053Z AUTO 29004KT 10SM CLR 16/11 A2982 RMK AO2 SLP095
     T01610111=
KMCB 081053Z AUTO 00000KT 8SM CLR 23/22 A3004 RMK AO2 SLP167 P0001
     T02330222=
KMCE 081053Z AUTO 32006KT 10SM CLR 17/09 A2982 RMK AO2 SLP096
     T01670089=
KMEM 081053Z 00000KT 10SM FEW150 SCT250 24/22 A3007 RMK AO2 SLP178
     T02440222=
KMFE 081053Z 33006KT 10SM OVC006 26/24 A2980 RMK AO2 SLP090
     T02560244=
KMIC 081053Z 00000KT 10SM CLR 17/16 A3008 RMK AO2 SLP182
     T01720156=
KMIW 081053Z AUTO 32005KT 7SM CLR 19/18 A3007 RMK AO2 SLP178
     T01890183=
KMKL 081053Z AUTO 00000KT 10SM CLR 22/21 A3008 RMK AO2 SLP182
     T02170206=
KMLE 081050Z AUTO 32004KT 10SM SCT028 SCT032 20/17 A3014 RMK AO2
     T01960168=
KMMH 081050Z AUTO 00000KT 10SM CLR 08/01 A3021 RMK AO1=
KMMV 081053Z AUTO 27005KT 10SM CLR 14/11 A2989 RMK AO2 SLP120
     T01390111=
KMOD 081053Z AUTO 35005KT 10SM CLR 16/11 A2984 RMK AO2 SLP103
     T01610106=
KMRB 081053Z AUTO 00000KT 3SM HZ CLR 22/19 A3004 RMK AO2 SLP165
     T02170189=
KMSL 081053Z AUTO 00000KT 9SM SCT065 23/22 A3009 RMK AO2 SLP180
     T02330217=
KMSP 081053Z 31003KT 10SM FEW090 18/16 A3009 RMK AO2 SLP187
     T01780161=
KMSY 081053Z 00000KT 9SM FEW016 SCT250 26/23 A3001 RMK AO2 SLP165
     T02610233=
KMYV 081053Z AUTO 15005KT 10SM CLR 16/11 A2983 RMK AO2 SLP103
     T01610111=
KNEW 081053Z AUTO 11004KT 10SM CLR 27/25 A3002 RMK AO2 SLP158
     T02670250 TSNO=
KSJC 081053Z AUTO VRB03KT 9SM OVC013 15/12 A2991 RMK AO2 SLP129
     T01500117=
KSMF 081053Z 18008KT 10SM CLR 14/11 A2982 RMK AO2 SLP096
     T01440106=
KSPW 081053Z AUTO 31005KT 5SM BR CLR 15/14 A3015 RMK AO2 SLP205
     T01500139=
KSSF 081053Z AUTO 03005KT 10SM SCT013 BKN036 BKN045 26/23 A2992
     RMK AO2 SLP118 T02610233=
KSTP 081053Z 32005KT 10SM CLR 18/16 A3009 RMK AO2 SLP185
     T01780161=
KSTS 081053Z AUTO 12004KT 10SM OVC006 12/10 A2991 RMK AO2 SLP120
     T01220100=
KSUN 081051Z AUTO 31010G15KT 10SM CLR 10/01 A3023 RMK AO2=
KSZT 081050Z AUTO 28003KT 10SM CLR 09/08 A3011 RMK AO2=
KTCL 081053Z AUTO 00000KT 7SM CLR 24/22 A3005 RMK AO2 SLP173
     T02390217=
KTIW 081053Z AUTO 04004KT 10SM FEW090 21/11 A2995 RMK AO2 SLP136
     T02060111=
KTOI 081053Z AUTO 00000KT 7SM CLR 22/21 A3004 RMK AO2 SLP166
     T02170211=
KTRL 081053Z AUTO 11004KT 10SM SCT043 27/22 A3002 RMK AO2 RAB42E51
     SLP159 P0000 T02670222=
KTVC 081053Z 23004KT 10SM OVC090 23/20 A2998 RMK AO2 SLP148 FIRST
     AUGMENTED OBS OF DAY T02280200=
KTVL 081053Z AUTO 20003KT 10SM CLR 09/06 A3015 RMK AO2 SLP154
     T00940056=
KTVR 081053Z AUTO 00000KT 1SM BR CLR 22/21 A3005 RMK AO2 SLP180
     T02220211 $=
KTYR 081053Z AUTO 00000KT 10SM CLR 25/23 A3003 RMK AO2 SLP163
     T02500233=
####018001667####
SAXX60 KWBC 081100
METAR
KNRB 081052Z 00000KT 10SM CLR 24/21 A3000 RMK AO2 SLP158
     T02390211=
KNFW 081052Z AUTO 00000KT 10SM FEW012 26/22 A3005 RMK AO2 SLP159
     T02610222=
KNZY 081052Z 31006KT 8SM -DZ FEW008 OVC016 18/14 A2989 RMK AO2
     DZB52 SLP120 P0000 T01830139 $=
KBLV 081055Z AUTO 25003KT 10SM FEW050 SCT170 24/24 A3004 RMK AO2
     SLP170 T02430242=
KLRF 081055Z AUTO 00000KT 10SM BKN170 23/22 A3006 RMK AO2 SLP177
     T02300224=
KRDR 081055Z AUTO 24007KT 10SM CLR 14/13 A3005 RMK AO2 SLP184
     T01390128 $=
KDNK 081053Z AUTO 08004KT 7SM BKN014 24/22 A3002 RMK AO2 SLP160
     T02390217=
PHNL 081053Z 06009KT 10SM FEW032 SCT049 24/18 A3003 RMK AO2 SLP168
     T02440178=
KDTS 081053Z AUTO 00000KT 5SM BR FEW001 24/23 A3002 RMK AO2 SLP163
     T02440233=
KIAG 081053Z AUTO 20004KT 5SM HZ CLR 24/21 A3005 RMK AO2 SLP166
     T02390206=
KNQX 081053Z 06004KT 10SM SCT022 SCT080 BKN200 28/25 A2993 RMK AO2
     SLP135 T2 SET T02830250 $=
KNIP 081053Z 25003KT 10SM CLR 22/21 A3001 RMK AO2 SLP158
     T02220206=
KECG 081054Z AUTO 07007KT 10SM BKN007 BKN012 BKN120 26/24 A2996
     RMK AO2 SLP146 T02560239=
KFZY 081054Z AUTO 00000KT 4SM BR CLR 23/22 A3005 RMK AO2 SLP171
     T02330217=
PABI 081053Z AUTO 14003KT 10SM CLR 11/07 A3008 RMK AO2 SLP187
     T01060072 TSNO=
KRSP 081054Z AUTO 08005KT 5SM HZ SCT080 26/16 A3010 RMK AO2 SLP178
     T02610161 $=
KNKT 081054Z 04006KT 4SM BR CLR 26/24 A2993 RMK AO2 SLP132
     T02610239=
PATC 081055Z AUTO 02009KT 10SM CLR 08/06 A3015 RMK AO1
     T00780062=
PAEH 081055Z AUTO 00000KT 10SM CLR 09/M29 A2999 RMK AO1
     T00891288=
####018003374####
SAUS80 KWBC 081100 RRB
METAR
KLYH 081054Z 36003KT 6SM HZ CLR 25/18 A3005 RMK AO2 SLP162
     T02500183=
KDSM 081054Z 36003KT 10SM FEW180 SCT250 21/18 A3009 RMK AO2 SLP181
     T02110183=
KDVL 081055Z AUTO 28006KT 10SM CLR 14/12 A3008 RMK AO1=
KEAR 081055Z AUTO 33006KT 10SM CLR 15/13 A3025 RMK AO1=
KGPZ 081055Z AUTO 24005KT 10SM CLR 17/14 A3005 RMK AO1=
KORH 081054Z 16006KT 3SM BR OVC004 22/22 A3011 RMK AO2 CIG 002V007
     SLP190 T02220217=
KROC 081054Z 22005KT 7SM SCT080 23/20 A3006 RMK AO2 SLP174 ACC NW
     T02280200 $=
KBUF 081054Z 18004KT 7SM FEW090 23/19 A3005 RMK AO2 SLP172
     T02280194=
KCOS 081054Z 16003KT 10SM BKN032 13/11 A3038 RMK AO2 SLP222
     T01280111=
KCRW 081054Z 00000KT 2SM BR FEW001 21/19 A3010 RMK AO2 SLP181
     T02060194=
KSUS 081054Z 00000KT 10SM BKN047 OVC060 24/23 A3003 RMK AO2 SLP158
     T02390228=
KSYR 081054Z 00000KT 10SM CLR 24/21 A3004 RMK AO2 SLP167
     T02390206=
PABE 081053Z 36004KT 10SM OVC120 10/09 A3001 RMK AO2 SLP171
     T00960093 PNO $=
PABT 081053Z 34004KT 10SM SCT120 11/09 A3007 RMK AO2 SLP190
     T01110094=
PACD 081053Z 15006KT 10SM FEW050 SCT180 06/04 A2993 RMK AO2 SLP134
     T00560039=
PADQ 081053Z 31003KT 8SM FEW010 BKN020 OVC041 11/09 A2984 RMK AO2
     SLP106 T01060094 $=
PAFA 081053Z 07003KT 10SM FEW200 12/08 A3004 RMK AO2 SLP175
     T01220083=
PAHO 081053Z AUTO 25003KT 10SM OVC075 11/09 A2991 RMK AO2 SLP129
     T01110094 TSNO=
PAJN 081053Z 00000KT 10SM FEW230 10/09 A3018 RMK AO2 SLP219
     T01000089=
PAMC 081053Z 36003KT 10SM SCT120 BKN200 12/11 A2998 RMK AO2 SLP155
     T01220106=
PANC 081053Z 17003KT 10SM -RA SCT075 OVC090 12/11 A2998 RMK AO2
     RAB22 SLP152 P0000 T01220111=
PANN 081053Z AUTO 00000KT 10SM CLR 11/09 A3002 RMK AO2 SLP171
     T01060089 TSNO=
PANT 081053Z 32007KT 10SM CLR 17/11 A3007 RMK AO2 SLP180
     T01720111=
PAOM 081053Z 35008KT 10SM FEW095 SCT200 14/08 A3009 RMK AO2 SLP190
     T01390083=
PAOR 081053Z 00000KT 10SM FEW070 09/09 A3008 RMK AO2 SLP187
     T00940089=
PAOT 081053Z 29008KT 10SM FEW038 SCT090 BKN200 12/08 A3012 RMK AO2
     SLP200 T01170078=
PASN 081053Z 07013KT 10SM OVC044 06/04 A2994 RMK AO2 SLP141
     T00560044=
PATK 081053Z AUTO 20003KT 10SM CLR 12/11 A2999 RMK AO2 SLP157
     T01220106 TSNO=
PAYA 081053Z 25003KT 10SM BKN110 12/10 A3018 RMK AO2 RAB40E50
     SLP221 BAY TWR WND 090MMKT P0000 T01170100=
KAPN 081054Z AUTO 21004KT 9SM OVC100 22/21 A2999 RMK AO2 RAE16
     SLP150 P0000 T02220211=
KP68 081053Z AUTO 19006KT 08/M02 A3015 RMK AO2 SLP130 T00831022
     PWINO TSNO=
KCAR 081054Z AUTO 18006KT 8SM CLR 22/19 A3001 RMK AO2 SLP164
     T02220194=
KRQE 081053Z AUTO VRB05KT 10SM OVC100 18/07 A3027 RMK AO2 SLP111
     T01830067 TSNO=
KSBN 081054Z 00000KT 6SM BR CLR 23/21 A3004 RMK AO2 SLP166
     T02330211=
KDMH 081054Z AUTO 27/23 A3001 RMK AO2 SLP163 T02720233 PWINO
     TSNO=
KCOU 081054Z AUTO 06003KT 7SM FEW011 SCT085 22/22 A3004 RMK AO2
     SLP164 T02220217 TSNO=
K12N 081054Z AUTO 00000KT 23/21 A3006 RMK AO2 SLP166 T02280211
     PWINO TSNO=
PHOG 081054Z AUTO 03012KT 10SM FEW060 23/19 A3002 RMK AO2 SLP172
     T02330189 TSNO=
K1V4 081054Z AUTO 21/19 A3006 RMK AO2 SLP164 T02110194 PWINO
     TSNO=
KMQE 081054Z AUTO 16010KT 21/19 A3010 RMK AO1 SLP199 T02110189=
####018003743####
SAUS70 KWBC 081100 RRJ
METAR
KSBA 081053Z 21004KT 10SM OVC013 14/12 A2990 RMK AO2 SLP123
     T01440122 $=
KSEG 081053Z AUTO 00000KT 4SM HZ CLR 23/18 A3005 RMK AO2 SLP170
     T02280178=
KSFF 081053Z AUTO 00000KT 10SM CLR 13/11 A3006 RMK AO2 SLP167
     T01280106=
KSHN 081053Z AUTO 00000KT 10SM CLR 12/10 A2993 RMK AO2 SLP133
     T01170100=
KSHR 081053Z AUTO 00000KT 10SM CLR 07/04 A3026 RMK AO2 SLP234
     T00670044=
KSLC 081053Z 16007KT 10SM FEW130 18/07 A3009 RMK AO2 SLP136
     T01830067=
KSLN 081053Z AUTO 36005KT 5SM BR OVC006 21/19 A3012 RMK AO2 CIG
     003V009 SLP188 T02060194=
KSMQ 081053Z AUTO 00000KT 3SM BR CLR 23/21 A3002 RMK AO2 SLP163
     T02280211=
KSNA 081053Z 00000KT 8SM OVC015 18/12 A2989 RMK AO2 SLP121
     T01830122=
KSNS 081053Z AUTO 28005KT 9SM OVC009 13/11 A2991 RMK AO2 SLP139
     T01280106=
KSNY 081053Z AUTO 00000KT 10SM SCT065 16/14 A3031 RMK AO2 SLP231
     T01610144 $=
KSPB 081053Z AUTO 00000KT 10SM CLR 16/12 A2988 RMK AO2 SLP119
     T01610117 $=
KSPG 081053Z AUTO 09005KT 10SM CLR 26/22 A2997 RMK AO2 SLP148
     T02610217=
KSRQ 081053Z 05003KT 10SM CLR 23/22 A2996 RMK AO2 SLP146
     T02330217=
KSSI 081053Z AUTO 27005KT 10SM CLR 23/21 A3000 RMK AO2 SLP159
     T02280211=
KSTJ 081053Z AUTO 34009KT 7SM BKN005 23/21 A3006 RMK AO2
     RAE0954B17E36 SLP172 P0001 T02280211=
KSWO 081053Z AUTO 06003KT 8SM SCT080 23/21 A3004 RMK AO2 SLP159
     T02280211=
KTCC 081053Z AUTO 04006KT 10SM FEW009 BKN014 OVC100 18/16 A3023
     RMK AO2 SLP176 T01780156=
KTDZ 081053Z AUTO 00000KT 8SM CLR 23/19 A3006 RMK AO2 SLP171
     T02330189=
KTHV 081053Z AUTO 00000KT 4SM BR CLR 23/21 A3003 RMK AO2 SLP166
     T02330211=
KTKI 081053Z AUTO 00000KT 10SM BKN012 OVC018 25/23 A3002 RMK AO2
     RAB0957E23 SLP161 P0000 T02500233=
KTMB 081053Z 35004KT 10SM CLR 27/25 A2994 RMK AO2 SLP137
     T02670250=
KTOP 081053Z AUTO 32006KT 10SM CLR 22/20 A3007 RMK AO2 SLP173
     T02170200=
KTOR 081053Z AUTO 30003KT 10SM BKN055 11/09 A3031 RMK AO2 SLP240
     T01060094=
KTPA 081053Z 00000KT 10SM SCT200 24/22 A2999 RMK AO2 SLP153
     T02390217 $=
KTTD 081053Z AUTO 00000KT 10SM FEW085 18/14 A2987 RMK AO2 SLP115
     T01780144=
KTTN 081053Z 00000KT 2 1/2SM BR FEW005 24/22 A3003 RMK AO2 SLP162
     T02390217=
KTUL 081053Z 00000KT 10SM -TSRA FEW007 BKN055 BKN080 23/22 A3002
     RMK AO2 SLP157 OCNL LTGIC NE-E TS NE-E MOV N P0028
     T02280222=
KTWF 081053Z AUTO 12008KT 10SM CLR 10/01 A3012 RMK AO2 SLP152
     T01000011=
KPDT 081053Z AUTO 10006KT 10SM CLR 14/07 A2997 RMK AO2 SLP133
     T01440067=
KPEO 081053Z AUTO 23005KT 3SM BR CLR 22/21 A3008 RMK AO2 SLP178
     T02220206=
KPGD 081053Z AUTO 00000KT 10SM CLR 22/22 A3000 RMK AO2 SLP157
     T02220217 TSNO=
KPHD 081053Z AUTO 00000KT 2 1/2SM BR CLR 19/17 A3010 RMK AO2
     SLP185 T01890172=
KPIE 081053Z 00000KT 10SM CLR 23/21 A2998 RMK AO2 SLP153
     T02280211=
KPIH 081053Z AUTO 30003KT 10SM CLR 08/02 A3017 RMK AO2 SLP181
     T00780017=
KPKB 081053Z AUTO 00000KT 1/2SM FG OVC001 20/19 A3011 RMK AO2
     SLP188 T02000194 TSNO RVRNO=
KPMD 081053Z AUTO 20006KT 10SM CLR 17/02 A2990 RMK AO2 SLP093
     T01720017 TSNO $=
KPMP 081053Z AUTO 07005KT 10SM CLR 27/25 A2994 RMK AO2 SLP139
     T02720250=
KPNC 081053Z AUTO 02003KT 9SM CLR 22/21 A3005 RMK AO2 SLP165
     T02220211=
KPNS 081053Z 00000KT 6SM BR CLR 24/23 A3002 RMK AO2 SLP167
     T02390233=
KPOU 081053Z 00000KT 5SM HZ BKN100 24/22 A3003 RMK AO2 SLP163
     T02440217=
KPRC 081053Z AUTO 21006KT 10SM CLR 18/00 A3009 RMK AO2 SLP096
     T01830000=
KPSC 081053Z AUTO 00000KT 10SM CLR 14/11 A2995 RMK AO2 SLP140
     T01390106=
####018003688####
SAUS70 KWBC 081100 RRB
METAR
KBIV 081053Z AUTO 00000KT 7SM CLR 24/22 A3004 RMK AO2 SLP166
     T02390217=
KBMQ 081053Z AUTO 09003KT 10SM SCT011 BKN023 23/22 A3001 RMK AO2
     SLP142 T02330217 $=
KBNA 081053Z 00000KT 10SM FEW080 SCT200 24/22 A3008 RMK AO2 SLP178
     T02440217=
KBPK 081053Z AUTO 00000KT 8SM OVC070 22/22 A3006 RMK AO2 SLP168
     T02220217=
KBPT 081053Z 08008KT 10SM FEW009 26/24 A2995 RMK AO2 RAB35E46
     SLP142 P0000 T02560244 $=
KBRD 081053Z AUTO 22005KT 10SM CLR 16/13 A3008 RMK AO2 SLP184
     T01560128=
KBRO 081053Z 34003KT 10SM FEW016 26/25 A2977 RMK AO2 RAE0959
     SLP079 P0000 T02610250=
KBTA 081050Z AUTO 35004KT 10SM CLR 19/17 A3014 RMK AO2
     T01850170=
KBTL 081053Z 00000KT 7SM CLR 23/21 A3006 RMK AO2 SLP172
     T02280206=
KBVN 081050Z AUTO 00000KT 10SM OVC090 17/15 A3020 RMK AO2
     T01650152=
KOAK 081053Z 29008KT 10SM OVC007 15/11 A2993 RMK AO2 SLP133
     T01500111=
KOGA 081050Z AUTO 00000KT 7SM OVC095 15/14 A3027 RMK AO2
     T01500140=
KONL 081050Z AUTO 28004KT 10SM SCT110 17/15 A3022 RMK AO2
     T01660150=
KOSH 081053Z 00000KT 9SM FEW014 22/20 A2999 RMK AO2 SLP143
     T02170200=
KOVE 081053Z AUTO 16007KT 10SM CLR 19/12 A2984 RMK AO2 SLP105
     T01890122 TSNO=
KOXB 081053Z AUTO 07005KT 9SM FEW085 24/24 A3002 RMK AO2 SLP165
     T02440239 $=
KPAH 081053Z AUTO 00000KT 10SM CLR 24/22 A3005 RMK AO2 SLP170
     T02390217=
KPBF 081053Z AUTO 00000KT 7SM CLR 24/22 A3006 RMK AO2 SLP177
     T02390222=
KPDK 081053Z 00000KT 10SM CLR 22/19 A3005 RMK AO2 SLP155
     T02170189=
KPIL 081053Z AUTO 01005KT 10SM FEW023 28/26 A2977 RMK AO2 RAE11
     SLP079 P0007 T02780256 $=
KPIR 081053Z AUTO 23006KT 10SM CLR 14/12 A3017 RMK AO2 SLP207
     T01390122=
KPKD 081053Z AUTO 00000KT 7SM CLR 13/13 A3008 RMK AO2 SLP186
     T01330128=
KPNA 081050Z AUTO 29005KT 10SM CLR 04/01 A3039 RMK AO2
     T00400010=
KPQL 081053Z AUTO 00000KT 1/2SM FG VV001 23/23 A3003 RMK AO2
     SLP169 T02330233=
KPRB 081053Z AUTO 27003KT 10SM OVC007 12/11 A2990 RMK AO2 SLP121
     T01220106=
KPSX 081053Z AUTO 10010KT 10SM CLR 27/25 A2986 RMK AO2 SLP111
     T02720250=
KPTT 081050Z AUTO 02010KT 5SM BR OVC004 20/20 A3015 RMK AO2=
KRAC 081053Z AUTO 18005KT 3SM BR SCT002 OVC095 23/22 A3002 RMK AO2
     RAE0955B41E51 SLP161 P0000 T02280217=
KRBD 081053Z 11005KT 10SM BKN009 OVC016 25/23 A3001 RMK AO2 CIG
     006V011 SLP151 T02500233=
KRDD 081053Z AUTO 00000KT 10SM CLR 22/15 A2982 RMK AO2 SLP091
     T02220150=
KRKP 081053Z AUTO 09006KT 10SM FEW028 SCT050 BKN090 26/25 A2983
     RMK AO2 LTG DSNT W AND NW RAE45 SLP102 P0005 T02610250=
KRNT 081053Z AUTO 00000KT 10SM CLR 16/14 A2994 RMK AO2 SLP144
     T01610139=
KRUE 081053Z AUTO 00000KT 10SM CLR 24/23 A3006 RMK AO2 SLP170
     T02390228=
KRWF 081053Z AUTO 30006KT 10SM CLR 15/14 A3012 RMK AO2 SLP197
     T01500139=
KRWI 081053Z AUTO 03004KT 4SM HZ CLR 24/21 A2996 RMK AO2 SLP145
     T02440206=
KSAC 081053Z 18006KT 10SM CLR 14/10 A2984 RMK AO2 SLP103
     T01390100=
KSBM 081053Z AUTO 00000KT 8SM FEW070 22/21 A3000 RMK AO2 RAB19E45
     SLP155 P0001 T02170211 $=
KSDL 081053Z 27004KT 10SM CLR 31/04 A2980 RMK AO2 SLP060
     T03060039=
KSIY 081053Z AUTO 07004KT 10SM CLR 18/08 A2996 RMK AO2 SLP127
     T01780078 $=
KJYR 081050Z AUTO 35003KT 10SM CLR 15/15 A3018 RMK AO2=
KLCG 081050Z AUTO 27003KT 10SM CLR 15/14 A3018 RMK AO2
     T01520140=
KLBX 081053Z AUTO 12009KT 10SM -RA FEW040 BKN070 26/24 A2989 RMK
     AO2 TSE08 SLP122 P0018 T02560239=
KLCH 081053Z AUTO 06006KT 9SM BKN011 OVC024 25/23 A2997 RMK AO2
     SLP157 T02500233=
####018000096####
SAQB31 LQSM 081100
METAR LQSA 081100Z 31007KT 210V360 9999 FEW050 BKN065 21/10 Q1023
NOSIG=
####018000112####
SAUS80 KWBC 081100 CCA
METAR
KABE 081051Z 09006KT 5SM HZ CLR 24/21 A3004 RMK AO2 SLP168
     T02390211=
####018000399####
SANO35 ENMI 081050
METAR ENMS 081050Z VRB06KT 9999 FEW050 SCT060 22/08 Q1009 =
METAR ENRM 081050Z 03005KT 360V070 CAVOK 18/10 Q1010=
METAR ENRS 081050Z 13005KT 100V160 9999 -SHRA NSC 11/10 Q1010=
METAR ENSK 081050Z 14002KT CAVOK 19/09 Q1010=
METAR ENSO 081050Z 19012KT 9999 SCT025 18/11 Q1013=
METAR ENST 081050Z VRB02 CAVOK 17/11 Q1010=
METAR ENVD 081050Z 12007KT 9999 BKN020 12/08 Q1018=
####018000408####
SANO36 ENMI 081050
METAR ENBS 081050Z 03006KT 9999 FEW020 SCT025 13/08 Q1017=
METAR ENHK 081050Z 09011KT 9999 FEW029 SCT058 BKN085 18/10 Q1012=
METAR ENHV 081050Z NIL=
METAR ENLK 081050Z 22006KT 9999 FEW045 BKN080 17/10 Q1010=
METAR ENMH 081050Z 15008KT 9999 FEW015 17/09 Q1015=
METAR ENNK 081050Z 04004KT 9999 VCSH FEW040 BKN060 16/13 Q1010=
METAR ENNM 081050Z VRB02KT 9999 SCT045TCU 18/11 Q1009 =
####018000099####
SAAW34 KWBC 081045 RRA
METAR
OAKB 081050Z VRB02KT 9999 SCT070 34/08 Q1014 NOSIG RMK BLU BLU=
####018003668####
SAUS70 KWBC 081100 RRE
METAR
KADG 081053Z AUTO 00000KT 4SM HZ CLR 22/19 A3006 RMK AO2 SLP174
     T02220194=
KAFW 081053Z 00000KT 10SM CLR 26/23 A3001 RMK AO2 SLP144
     T02560228=
KAGC 081053Z 00000KT 3SM HZ CLR 22/19 A3010 RMK AO2 SLP185
     T02220194=
KAIA 081053Z AUTO 35004KT 10SM FEW085 14/13 A3028 RMK AO2 SLP229
     T01390128 $=
KAKO 081053Z AUTO 12005KT 5SM BR BKN003 OVC031 14/14 A3032 RMK AO2
     SLP230 T01440139 TSNO=
KALW 081053Z AUTO 14003KT 10SM CLR 17/08 A2998 RMK AO2 SLP142
     T01720078=
KAMA 081053Z 36008KT 1SM OVC005 17/17 A3020 RMK AO2 SFC VIS 8
     RAE39 SLP175 P0002 T01720167 $=
KAMG 081053Z AUTO 00000KT 10SM CLR 22/19 A3001 RMK AO2 SLP159
     T02170194=
KAOH 081053Z AUTO 18004KT 4SM BR 22/19 A3008 RMK AO2 SLP178
     T02170194 $=
KAPA 081053Z 20003KT 6SM BR FEW007 BKN027 BKN120 13/12 A3033 RMK
     AO2 SLP227 T01330122 $=
KAPF 081053Z 05005KT 10SM CLR 24/23 A2996 RMK AO2 SLP144
     T02440228=
KARB 081053Z AUTO 00000KT 1/4SM FG VV001 20/19 A3004 RMK AO2
     SLP167 T02000189=
KASE 081053Z 13010KT 10SM FEW100 10/06 A3037 RMK AO2 WSHFT 0940
     SLP194 T01000056=
KASG 081048Z 16005KT 10SM BKN028 22/21 A3008=
KAUG 081053Z AUTO 17007KT 3SM BR OVC005 21/20 A3009 RMK AO2 SLP188
     T02060200=
KBAF 081053Z 14003KT 6SM HZ SCT100 24/21 A3006 RMK AO2 SLP174
     T02440211=
KBBW 081053Z AUTO 00000KT 10SM BKN070 OVC085 17/16 A3024 RMK AO2
     SLP224 T01720161=
KBCE 081053Z AUTO 30012KT 10SM BKN075 OVC110 11/02 A3031 RMK AO2
     SLP150 T01060017 TSNO=
KBFI 081053Z 00000KT 10SM CLR 20/12 A2994 RMK AO2 SLP139
     T02000117=
KBGM 081053Z 00000KT 2 1/2SM HZ CLR 22/19 A3013 RMK AO2 SLP187
     T02170189=
KBGR 081053Z 18010KT 3SM BR OVC005 21/20 A3009 RMK AO2 SLP185
     T02110200=
KBHK 081053Z AUTO 24007KT 10SM CLR 13/08 A3021 RMK AO2 SLP214
     T01280083=
KBKE 081053Z AUTO 00000KT 10SM CLR 05/05 A3011 RMK AO2 SLP182
     T00500050=
KBKL 081053Z 15004KT 5SM HZ CLR 25/18 A3005 RMK AO2 SLP170
     T02500183=
KBLI 081053Z AUTO 00000KT 10SM CLR 15/13 A2997 RMK AO2 SLP152
     T01500133=
KBMG 081053Z 00000KT 2SM BR CLR 21/21 A3006 RMK AO2 SLP168
     T02110206=
KBOI 081053Z 12005KT 10SM CLR 19/06 A3005 RMK AO2 SLP146
     T01890056=
KBPI 081053Z AUTO 34006KT 10SM FEW100 06/01 A3039 RMK AO2 SLP215
     T00560006=
KBRL 081053Z AUTO 8SM OVC002 22/21 A3005 RMK AO2 SLP168 T02220211
     $=
KFLO 081053Z 31006KT 10SM CLR 26/18 A2994 RMK AO2 SLP137
     T02560183=
KFMY 081053Z AUTO 06003KT 10SM CLR 24/22 A2995 RMK AO2 SLP145
     T02390222=
KFOE 081053Z 35005KT 10SM CLR 21/20 A3007 RMK AO2 SLP172
     T02110200=
KFOK 081053Z AUTO 12007KT 7SM BKN004 OVC012 24/21 A3007 RMK AO2
     SLP183 T02390211 TSNO=
KFPR 081053Z AUTO 00000KT 6SM BR CLR 22/21 A2996 RMK AO2 SLP146
     T02170211=
KFRG 081053Z 16006KT 7SM OVC004 24/23 A3005 RMK AO2 RAB15E29 CIG
     002V006 SLP174 P0000 T02440233=
KFST 081053Z AUTO 13003KT 10SM CLR 22/19 A3007 RMK AO2 SLP132
     T02170189=
KFTW 081053Z 10004KT 10SM SCT010 25/23 A3000 RMK AO2 SLP149
     T02500233=
KFUL 081053Z 00000KT 10SM OVC017 17/12 A2989 RMK AO2 SLP119
     T01720122=
KFVE 081053Z AUTO 18004KT M1/4SM FG VV001 22/22 A3001 RMK AO2
     SLP156 T02220222=
KFWN 081053Z AUTO 00000KT 2 1/2SM BR CLR 21/21 A3005 RMK AO2
     SLP173 T02110206=
KFXE 081053Z 00000KT 10SM CLR 27/24 A2993 RMK AO2 SLP139 T02720239
     $=
KGAG 081053Z AUTO 01004KT 10SM -RA BKN110 21/19 A3014 RMK AO2 LTG
     DSNT W RAB02 SLP178 P0000 T02060194=
KGEY 081053Z AUTO 13004KT 10SM CLR 11/03 A3026 RMK AO2 SLP222
     T01060033=
####018003711####
SAUS70 KWBC 081100
METAR
KTAN 081052Z AUTO 16004KT 10SM OVC008 22/21 A3008 RMK AO2 CIG
     005V010 SLP184 T02170206=
KTEX 081051Z AUTO 09003KT 10SM BKN110 12/04 A3046 RMK AO2=
KTMK 081053Z AUTO 14003KT 7SM OVC006 12/12 A2996 RMK AO2=
KTQH 081055Z AUTO 00000KT 10SM BKN022 BKN033 23/23 A3004 RMK
     AO2=
KTRM 081052Z AUTO 32004KT 10SM CLR 24/12 A2968 RMK AO2 SLP055
     T02390122=
KTXK 081053Z 00000KT 1SM BR VV001 23/23 A3005 RMK AO2 SLP171
     T02330233=
KUDG 081055Z 30005KT 10SM CLR 24/18 A2997 RMK AO1=
KUGN 081052Z AUTO 18006KT 4SM -RA BR FEW050 BKN060 OVC080 23/21
     A3001 RMK AO2 RAB23 SLP151 P0001 T02280211=
KWDG 081050Z AUTO 00000KT 10SM SCT095 21/21 A3008 RMK AO2 LTG DSNT
     E=
KWWR 081049Z AUTO 35005KT 10SM DZ SCT041 SCT050 BKN110 22/21 A3015
     RMK AO2 T02170207=
KMKE 081052Z 27004KT 6SM -RA BR FEW007 SCT080 OVC110 23/22 A3001
     RMK AO2 RAE15B39 SLP157 P0000 T02280217=
KMKO 081053Z AUTO 19004KT 10SM BKN023 OVC028 23/23 A3004 RMK AO2
     LTG DSNT N AND NW TSE0955B35E50 SLP163 T02330228=
KMLI 081052Z 23005KT 10SM OVC007 23/22 A3003 RMK AO2 SLP166
     T02280217 $=
KMWH 081052Z AUTO 36005KT 10SM CLR 15/07 A3001 RMK AO2 SLP156
     T01500072=
KMWL 081053Z AUTO 13003KT 10SM FEW019 23/22 A3000 RMK AO2 SLP146
     T02280217=
KOAJ 081055Z AUTO 00000KT 7SM CLR 23/21 A2994 RMK AO1=
KOCF 081055Z AUTO 00000KT 7SM OVC002 20/20 A3001 RMK AO1=
KOJA 081050Z AUTO 35005KT 10SM SCT007 OVC011 22/22 A3008 RMK
     AO2=
KOKB 081052Z AUTO 30003KT 8SM OVC018 17/14 A2989 RMK AO2 SLP120
     T01720139=
KOKC 081052Z 01005KT 10SM FEW021 BKN080 OVC130 23/22 A3005 RMK AO2
     SLP161 T02330222=
KOMA 081052Z 34005KT 10SM FEW029 SCT250 19/18 A3014 RMK AO2 SLP199
     T01940183=
KONP 081050Z AUTO 19007KT 10SM OVC004 11/09 A2999 RMK AO1=
KORE 081052Z AUTO 17005KT 7SM SCT013 BKN080 BKN100 24/22 A3008 RMK
     AO2 SLP181 T02390217=
KORS 081050Z AUTO 00000KT 10SM CLR 15/12 A2995 RMK AO2=
KOUN 081052Z AUTO 00000KT 10SM SCT011 BKN020 BKN026 25/23 A3005
     RMK AO2 LTG DSNT NE=
KPLU 081050Z AUTO 00000KT 10SM CLR 13/13 A2994 RMK AO2=
KPPF 081052Z AUTO 00000KT 10SM FEW100 22/21 A3005 RMK AO2 SLP166
     T02170206=
KPVJ 081047Z AUTO 00000KT 7SM CLR 24/23 A3003 RMK AO2=
KPWA 081053Z 35006KT 8SM OVC004 23/21 A3005 RMK AO2 SLP162
     T02280211=
KPWK 081052Z 16004KT 3SM BR FEW049 BKN055 OVC095 23/22 A3003 RMK
     AO2 RAB32E42 SLP163 P0000 T02330222=
KPYM 081052Z AUTO 15006KT 10SM BKN008 OVC080 24/21 A3010 RMK AO2
     SLP191 T02390206=
KRAP 081052Z AUTO 30008KT 10SM CLR 11/08 A3025 RMK AO2 SLP235
     T01060083=
KRKR 081052Z AUTO 00000KT 10SM BKN029 BKN034 27/24 A3003 RMK AO2
     LTG DSNT NW=
KSGF 081052Z 00000KT 8SM FEW055 23/22 A3006 RMK AO2 LTG DSNT NW
     SLP165 T02280222=
KSNL 081052Z AUTO 36005KT 7SM BKN005 OVC010 24/23 A3006 RMK AO2
     LTG DSNT NE=
KSOP 081055Z AUTO 00000KT 10SM CLR 23/18 A2997 RMK AO1=
KSPI 081052Z 00000KT 7SM -RA FEW008 SCT025 BKN045 23/23 A3004 RMK
     AO2 RAB34 SLP167 P0010 T02330228=
KSRE 081050Z AUTO 00000KT 5SM BR CLR 24/24 A3004 RMK AO2 LTG DSNT
     NE=
KSUX 081052Z 31004KT 6SM BR CLR 16/15 A3016 RMK AO2 SLP208
     T01610150=
KSVC 081050Z AUTO 06008KT 10SM OVC100 18/14 A3022 RMK AO2=
KBWG 081053Z AUTO 00000KT 6SM BR CLR 23/21 A3007 RMK AO2 SLP177
     T02280211=
KCCR 081053Z AUTO 25004KT 10SM BKN013 13/10 A2990 RMK AO2 SLP111
     T01280100=
KCDS 081053Z AUTO 00000KT 10SM BKN034 23/21 A3010 RMK AO2 SLP167
     T02280211=
KCHO 081053Z 00000KT 4SM HZ CLR 23/21 A3002 RMK AO2 SLP156
     T02330206=
KCMI 081053Z 18003KT 5SM BR CLR 23/22 A3004 RMK AO2 SLP165
     T02280217=
####018003739####
SAUS70 KWBC 081100 RRN
METAR
KSGT 081055Z 00000KT 10SM CLR 23/22 A3007 RMK AO1=
KSGU 081055Z AUTO 00000KT 10SM CLR 25/03 A2995 RMK AO1=
KSJN 081054Z AUTO 09009KT 10SM OVC110 21/06 A3017 RMK AO2 SLP110
     T02110056=
KSKX 081055Z AUTO 36004KT 10SM CLR 11/04 A3038 RMK AO1=
KSLG 081055Z AUTO 14004KT 10SM OVC021 23/21 A3007 RMK AO1=
KSMN 081055Z AUTO 00000KT 10SM CLR 07/02 A3026 RMK AO1=
KSPA 081055Z AUTO 36004KT 10SM CLR 22/22 A3002 RMK AO2=
KSPL 081055Z AUTO 02008KT FEW018 SCT095 28/25 A2976 RMK AO2 PWINO
     PNO=
KSQI 081055Z 00000KT 3SM BKN005 OVC012 22/21 A3005 RMK AO1=
KSUE 081055Z AUTO 26003KT 5SM SCT011 SCT026 A2999 RMK AO1=
KTAD 081054Z AUTO 34003KT 10SM BKN007 OVC012 14/13 A3037 RMK AO2
     CIG 005V010 SLP215 T01390128=
KTIF 081050Z AUTO 00000KT 10SM BKN095 15/14 A3026 RMK AO2
     T01530142=
KTQE 081054Z AUTO 35006KT 9SM CLR 17/17 A3014 RMK AO2 SLP197
     T01720167=
KTRK 081050Z AUTO 12003KT 10SM CLR 10/07 A3015 RMK AO2=
KTVF 081055Z AUTO 21004KT 10SM CLR 13/11 A3005 RMK AO1=
KUIN 081054Z AUTO 00000KT 2SM BR OVC001 23/22 A3004 RMK AO2 SLP165
     T02280222=
KUTA 081055Z AUTO 00000KT 10SM CLR 23/22 A3007 RMK AO2=
KUZA 081054Z AUTO 36003KT 9SM CLR 22/18 A3002 RMK AO2 SLP149
     T02170178=
KVAY 081054Z AUTO 00000KT 1/4SM FG VV006 24/23 A3003 RMK AO2
     SLP168 T02390233=
KVBT 081055Z AUTO 00000KT 10SM OVC024 23/21 A3004 RMK AO1=
KVIS 081055Z AUTO 30003KT 10SM CLR 19/12 A2981 RMK AO1=
KVSF 081054Z AUTO 00000KT 3SM BR OVC014 22/21 A3008 RMK AO2 SLP183
     T02170206=
KVTA 081054Z AUTO 00000KT 1 3/4SM BR CLR 19/18 A3009 RMK AO2
     SLP181 T01890183=
KWLD 081054Z AUTO 35003KT 10SM CLR 22/21 A3006 RMK AO2 SLP169
     T02220206=
KWVL 081055Z AUTO 18006KT 5SM OVC004 21/19 A3005 RMK AO1=
KWWD 081055Z AUTO 9SM FEW120 24/24 A3004 RMK AO1=
KX40 081055Z AUTO 00000KT 4SM BR CLR 22/21 A3001 RMK AO2
     T02170211=
KXFL 081053Z 00000KT 10SM CLR 20/19 A3001=
KYKN 081055Z AUTO 00000KT 10SM CLR 17/14 A3018 RMK AO1=
PAAQ 081053Z AUTO 34007KT 10SM BKN085 12/09 A2999 RMK AO2 RAE03
     SLP151 P0000 T01220089 TSNO=
PABR 081053Z 25017G22KT 10SM BKN200 06/03 A2998 RMK AO2 SLP153
     T00610028 $=
PADE 081053Z AUTO 23005KT 10SM CLR 04/03 A3014 RMK AO2 SLP207
     T00440033 TSNO=
PAEG 081053Z AUTO 17004KT 10SM CLR 04/02 A3004 RMK AO2 SLP177
     T00390022 TSNO=
PAEN 081053Z AUTO 02012KT 10SM FEW080 14/11 A2994 RMK AO2 SLP140
     T01390111 TSNO=
PAGK 081053Z AUTO 00000KT 10SM CLR 07/06 A3007 RMK AO2 SLP188
     T00720056 TSNO=
PAGY 081053Z AUTO 06003KT 10SM CLR 11/09 A3020 RMK AO2 SLP226
     T01060094 TSNO=
PAIL 081053Z AUTO 03008KT 10SM FEW095 10/08 A2992 RMK AO2 SLP135
     T01000078 TSNO=
PAKT 081053Z AUTO 32006KT 10SM CLR 17/12 A3008 RMK AO2 SLP185
     T01670117 TSNO=
PAKV 081053Z AUTO 22004KT 10SM CLR 08/06 A3010 RMK AO2 SLP195
     T00780056 TSNO=
PAKW 081053Z AUTO 00000KT 10SM CLR 12/10 A3012 RMK AO2 SLP200
     T01170100 TSNO=
PALH 081053Z 00000KT 10SM OVC080 13/11 A2999 RMK AO2 RAE0958B23E35
     SLP156 P0000 T01330111=
PAMR 081053Z 00000KT 10SM FEW060 SCT075 BKN090 BKN200 12/11 A2998
     RMK AO2 RAB0955E04 SLP153 P0000 T01220106 $=
PAPB 081053Z AUTO 09016KT 10SM FEW030 OVC048 07/06 A2992 RMK AO2
     SLP118 T00720056 TSNO=
PASC 081053Z 25011KT 10SM BKN024 BKN080 OVC210 11/07 A3002 RMK AO2
     SLP167 T01060072=
PASI 081053Z 24003KT 10SM BKN002 13/12 A3018 RMK AO2 SLP221
     T01330122=
PASO 081053Z AUTO VRB03KT 10SM -RA OVC070 11/10 A2990 RMK AO2
     SLP125 P0000 T01060100 TSNO=
PATO 081053Z AUTO 11020G33KT 5SM -RA BR SCT030 BKN040 OVC049 12/11
     A3000 RMK AO2 PK WND 11035/1033 SLP160 P0010 T01220106
     TSNO=
####018001654####
SAEU KAWN 081100 RRC
METAR EDAC 081050Z VRB03KT 200V200 CAVOK 26/11 Q1022=
METAR EDAH 081050Z VRB02KT CAVOK 24/09 Q1022=
METAR EDFH 081050Z 11006KT 060V170 CAVOK 27/11 Q1022=
METAR EDHL 081050Z 16007KT 120V200 CAVOK 28/13 Q1019=
METAR EDLN 081050Z 21005KT 140V280 CAVOK 30/11 Q1019=
METAR EDLP 081050Z VRB04KT CAVOK 29/11 Q1020=
METAR EDLW 081050Z 20006KT 140V250 CAVOK 30/09 Q1020=
METAR EDMA 081050Z 10006KT 020V160 CAVOK 24/09 Q1022=
METAR EDMO 081050Z 08005KT 330V120 CAVOK 24/08 Q1023=
METAR EDNY 081050Z 19006KT CAVOK 25/15 Q1022=
METAR EDOP 081050Z 20011KT 150V220 CAVOK 28/09 Q1020=
METAR EDQM 081050Z VRB04KT CAVOK 24/10 Q1023=
METAR EDSB 081050Z 35005KT 310V050 CAVOK 28/13 Q1020=
METAR EDTL 081050Z VRB03KT CAVOK 29/13 Q1020=
METAR EDVK 081050Z 21008KT 170V250 CAVOK 26/10 Q1021=
METAR EDXW 081050Z 22012KT CAVOK 23/12 Q1019=
METAR EGHH 081050Z VRB03KT 9999 SCT029 20/16 Q1019=
METAR EGJA 081050Z 28005KT 9999 FEW003 SCT006 19/16 Q1019=
METAR EGJJ 081050Z 32006KT 290V070 9999 FEW015 21/17 Q1019 NOSIG=
METAR EGKA 081050Z 21008KT 9999 FEW017 20/16 Q1019=
METAR EGKB 081050Z 30003KT 9999 BKN025 22/15 Q1019=
METAR EGLF 081050Z VRB03KT 9999 FEW013 SCT017 19/15 Q1019=
METAR EGMC 081050Z 30003KT 9999 FEW026 23/16 Q1018=
METAR EGMD 081050Z 21007KT 9999 FEW018 22/16 Q1019=
METAR EGMH 081050Z 23005KT 160V300 9999 FEW016 24/17 Q1019=
METAR EGTC 081050Z 23006KT 9999 FEW020 19/12 Q1018=
METAR ETEB 081055Z AUTO 00000KT 9999 CLR 25/10 A3021 RMK AO2 SLP214
      T02490097=
METAR ETUO 081050Z 19004KT CAVOK 30/10 Q1019 BLU NOSIG=
METAR LQBK 081100Z 28002KT 9999 FEW040 23/11 Q1022 NOSIG=
####018000081####
SABZ24 SBFI 081100
METAR SBFI 081100Z 14006KT 9999 FEW020 SCT100 14/13 Q1016=
####018003732####
SAUS80 KWBC 081100 RRA
METAR
KSAV 081053Z 22003KT 10SM FEW250 21/19 A3000 RMK AO2 SLP156
     T02110194=
KMSN 081053Z 00000KT 9SM FEW006 OVC015 21/20 A3002 RMK AO2 SLP159
     T02110200=
KRNM 081053Z AUTO 00000KT 4SM BR OVC004 14/13 A2990 RMK AO2 SLP112
     T01390128 TSNO=
KNUI 081053Z AUTO 00000KT 2 1/2SM BR CLR 25/24 A2999 RMK AO2
     SLP155 T02500239=
KBFF 081053Z AUTO 00000KT 10SM BKN065 OVC090 15/13 A3030 RMK AO2
     SLP231 T01500128=
KBIL 081053Z 24009KT 10SM FEW120 12/06 A3024 RMK AO2 SLP220
     T01220056=
KFNB 081053Z AUTO 34006KT 10SM BKN017 21/20 A3009 RMK AO2 SLP181
     T02110200=
KFNT 081053Z AUTO 27005KT 8SM FEW055 24/21 A3005 RMK AO2 SLP168
     T02390206=
KGCC 081053Z AUTO 00000KT 10SM CLR 11/07 A3028 RMK AO2 SLP224
     T01060067=
PHTO 081053Z 25005KT 10SM FEW027 BKN060 22/19 A3003 RMK AO2 SLP168
     T02170189=
PHKO 081053Z AUTO 10007KT 10SM CLR 24/19 A2998 RMK AO2 SLP154
     T02390189 TSNO=
PHLI 081053Z 07014KT 10SM SCT024 BKN031 OVC048 24/19 A3005 RMK AO2
     RAB11E34 SLP174 P0002 T02370193 $=
KCAK 081051Z 00000KT 4SM BR CLR 21/19 A3010 RMK AO2 SLP182
     T02110189=
KCDR 081053Z AUTO 20003KT 10SM CLR 09/08 A3029 RMK AO2 SLP252
     T00940078=
KCNY 081053Z AUTO 20004KT 10SM CLR 18/04 A3011 RMK AO2 SLP133
     T01830044=
KCRP 081051Z 35007KT 10SM FEW010 SCT025 BKN048 26/25 A2983 RMK AO2
     RAE0953B19E30 SLP099 P0000 T02560250=
KCRQ 081053Z AUTO 00000KT 10SM OVC011 17/13 A2988 RMK AO2 SLP118
     T01720133=
KDAL 081053Z 13007KT 10SM FEW016 BKN027 OVC037 26/23 A3001 RMK AO2
     SLP154 T02610233=
KEMP 081053Z AUTO 34004KT 4SM BR SCT004 BKN022 BKN110 22/20 A3007
     RMK AO2 SLP175 T02170200=
KLXV 081053Z AUTO 18006KT 10SM CLR 06/05 A3051 RMK AO2 SLP212
     T00560050 TSNO=
KCUT 081053Z AUTO 32005KT 10SM CLR 07/06 A3035 RMK AO2 SLP245
     T00670056 TSNO=
KHTL 081053Z AUTO 23004KT 10SM OVC090 23/21 A3003 RMK AO2 SLP161
     T02280206=
KSDM 081053Z AUTO 25003KT 10SM OVC012 16/14 A2989 RMK AO2 SLP120
     T01610139 TSNO=
KMLU 081053Z 00000KT 7SM CLR 24/23 A3005 RMK AO2 SLP175
     T02440228=
KORF 081051Z 11007KT 10SM BKN010 BKN110 26/23 A2997 RMK AO2 SLP149
     T02560233=
KLBB 081053Z 02007KT 10SM FEW040 BKN120 BKN150 19/16 A3014 RMK AO2
     RAE05 SLP160 VCSH P0000 T01890161=
KLWD 081053Z AUTO 01007KT 9SM OVC017 21/21 A3009 RMK AO2 SLP181
     T02110206=
KHLC 081053Z AUTO 01008KT 10SM OVC022 18/16 A3021 RMK AO2 SLP213
     T01780161=
KHVR 081053Z AUTO 23006KT 10SM CLR 08/07 A3019 RMK AO2 SLP218
     T00830072=
KJLN 081053Z 00000KT 10SM VCTS FEW013 BKN070 OVC095 23/22 A3006
     RMK AO2 LTG DSNT N AND SW RAE0957B30E47 SLP167 P0000
     T02280217=
KLAN 081053Z 00000KT 5SM BR FEW050 SCT130 SCT150 23/21 A3005 RMK
     AO2 SLP169 T02280211 $=
KYKM 081053Z AUTO 26003KT 10SM CLR 12/07 A3002 RMK AO2 SLP158
     T01170067=
KSEA 081053Z 01008KT 10SM CLR 21/11 A2996 RMK AO2 SLP148 T02060111
     $=
KPDX 081053Z 00000KT 10SM CLR 18/15 A2989 RMK AO2 SLP120
     T01830150=
KPGA 081053Z AUTO 00000KT 10SM CLR 24/02 A3004 RMK AO2 SLP097
     T02390022=
KPOF 081053Z AUTO 00000KT 7SM CLR 24/23 A3005 RMK AO2 SLP168
     T02440233 $=
KRIW 081053Z AUTO 25005KT 10SM CLR 09/04 A3034 RMK AO2 SLP229
     T00940039=
KRMG 081053Z AUTO 00000KT 7SM CLR 19/18 A3005 RMK AO2 SLP165
     T01940183=
KELY 081053Z AUTO 17009KT 10SM CLR 07/M04 A3022 RMK AO2 SLP140
     T00721039 $=
KBTV 081054Z 00000KT 5SM HZ CLR 24/22 A3002 RMK AO2 SLP162
     T02440217=
KJAN 081054Z 00000KT 10SM CLR 23/22 A3005 RMK AO2 SLP172 T02330222
     $=
KLEX 081054Z 15003KT 2 1/2SM HZ CLR 22/18 A3010 RMK AO2 SLP179
     T02170183=
####018003690####
SAUS80 KWBC 081100
METAR
KABI 081052Z 01005KT 7SM SCT002 BKN010 22/21 A3006 RMK AO2 SLP157
     T02170211 $=
KCZZ 081052Z AUTO 00000KT 08/08 A2987 RMK AO2 SLP090 T00830078
     PWINO TSNO=
K9V9 081052Z AUTO 28004KT 16/13 A3018 RMK AO2 SLP212 T01560128
     PWINO TSNO=
KTOL 081052Z 25003KT 7SM CLR 23/18 A3005 RMK AO2 SLP169
     T02330183=
KVTN 081052Z AUTO 23006KT 10SM SCT120 15/14 A3024 RMK AO2 SLP229
     T01500139=
KPIA 081052Z 20003KT 1 3/4SM BR SCT005 OVC010 23/22 A3003 RMK AO2
     CIG 008V013 SLP166 T02280217=
KPTS 081050Z AUTO 13006KT 10SM VCTS SCT028 SCT037 SCT044 22/22
     A3005 RMK AO2 LTG DSNT SE THRU SW T02200221=
KSPS 081052Z 10004KT 10SM CLR 23/22 A3003 RMK AO2 SLP154
     T02280217=
KSDB 081052Z AUTO 31006KT 10SM CLR 19/00 A3002 RMK AO2 SLP106
     T01940000 TSNO $=
KP69 081052Z AUTO 35003KT 11/10 A3012 RMK AO2 SLP180 T01110100
     PWINO TSNO $=
KCLL 081053Z AUTO 07007KT 10SM CLR 25/23 A2995 RMK AO2 SLP138
     T02500228=
KDBQ 081053Z 00000KT 7SM OVC018 21/20 A3006 RMK AO2 SLP173
     T02060200=
KDMN 081053Z AUTO 03013KT 10SM CLR 21/13 A3013 RMK AO2 RAB0958E16
     SLP116 P0000 T02110133=
KDRT 081053Z AUTO 00000KT 10SM SCT065 24/22 A2994 RMK AO2 SLP122
     T02440222=
KFAT 081053Z 33004KT 10SM CLR 21/08 A2982 RMK AO2 SLP093
     T02060083=
KFMN 081053Z AUTO 07009KT 10SM CLR 19/06 A3021 RMK AO2 SLP159
     T01890056=
KGEG 081053Z 07004KT 10SM CLR 17/08 A3007 RMK AO2 SLP165
     T01720078=
KODX 081053Z AUTO 34003KT 10SM OVC085 16/16 A3021 RMK AO2 SLP225
     T01610156=
KSAN 081051Z 31005KT 10SM SCT014 OVC017 17/13 A2991 RMK AO2 SLP126
     T01670133=
KSAT 081053Z 05005KT 7SM BKN011 OVC050 25/23 A2994 RMK AO2 RAE10
     SLP120 P0000 T02500233=
KLIT 081053Z 00000KT 7SM BKN150 BKN250 24/23 A3006 RMK AO2 SLP180
     T02440228 $=
KSOW 081050Z AUTO 00000KT 10SM SCT110 21/03 A3024 RMK AO2=
KSTC 081053Z AUTO 00000KT 4SM BR CLR 13/12 A3009 RMK AO2 SLP197
     T01330122=
KTUS 081053Z 00000KT 10SM CLR 29/05 A2990 RMK AO2 SLP066
     T02890050=
KGRR 081053Z 24003KT 2 1/2SM BR SCT120 BKN200 24/22 A3004 RMK AO2
     SLP165 T02390222=
KHSI 081053Z AUTO 34005KT 10SM CLR 16/14 A3020 RMK AO2 SLP217
     T01560144=
KHSV 081053Z 00000KT 8SM FEW250 23/22 A3007 RMK AO2 SLP174
     T02330222=
KJBR 081053Z AUTO 18004KT 10SM CLR 24/23 A3006 RMK AO2 SLP176
     T02440228 $=
KCQC 081053Z AUTO 09008KT 10SM CLR 11/08 A3036 RMK AO2 SLP221
     T01060083 TSNO=
KLAX 081053Z 24003KT 10SM OVC012 16/12 A2990 RMK AO2 SLP123
     T01610122=
KLND 081053Z AUTO 26007KT 10SM CLR 10/03 A3033 RMK AO2 SLP226
     T01000028=
K6R6 081053Z AUTO 03005KT 23/21 A3001 RMK AO2 SLP127 T02280211
     PWINO TSNO=
KFAR 081053Z 20003KT 10SM CLR 14/12 A3008 RMK AO2 SLP183
     T01440117=
KUIL 081053Z AUTO 09005KT 10SM CLR 16/10 A2994 RMK AO2 SLP135
     T01610100 TSNO=
KCTY 081053Z AUTO 00000KT 19/19 A3001 RMK AO2 SLP160 T01940189
     PWINO TSNO $=
KBNO 081053Z AUTO 26007KT 10SM CLR 09/01 A3011 RMK AO2 SLP165
     T00940006 TSNO=
KTCS 081053Z AUTO 36008KT 10SM BKN120 18/14 A3020 RMK AO2 RAE0954
     SLP157 T01830139 TSNO=
KTLH 081053Z 00000KT 10SM BCFG CLR 22/21 A3002 RMK AO2 SLP165
     T02170206=
KCHA 081053Z 00000KT 10SM CLR 22/19 A3007 RMK AO2 SLP174
     T02170189=
KP92 081053Z AUTO 00000KT 26/25 A2998 RMK AO2 SLP151 T02560250
     PWINO TSNO=
K40J 081053Z AUTO 00000KT 20/19 A3000 RMK AO2 SLP159 T02000194
     PWINO TSNO=
KMWT 081053Z AUTO 00000KT 10SM CLR 23/22 A3005 RMK AO2 SLP163
     T02280222 TSNO=
KOQT 081053Z AUTO 00000KT 5SM BR CLR 22/19 A3010 RMK AO2 SLP172
     T02170194 TSNO=
####018000106####
SPUS70 KWBC 081056
SPECI
KHWV 081054Z AUTO 15003KT 5SM BR SCT013 SCT021 24/23 A3006 RMK
     AO2=
####018000557####
SANO32 ENMI 081050
METAR ENAL 081050Z 28005KT 240V310 9999 VCSH BKN060 16/11 Q1009=
METAR ENCN 081050Z 21006KT 6000 OVC004 16/16 Q1016=
METAR ENHD 081050Z 21013KT 9999 FEW020 SCT170 16/13 Q1014=
METAR ENRO 081050Z 19011KT 150V240 9999 FEW030 SCT055 BKN120 18/07
           Q1011=
METAR ENRY 081050Z 17008KT 9999 BKN007 17/15 Q1016=
METAR ENSB 081050Z 27010KT 9999 FEW010 SCT025 BKN035 09/05 Q1009
           NOSIG =
METAR ENTC 081050Z 31003KT 260V360 9999 FEW065 19/07 Q1011 NOSIG=
METAR ENTO 081050Z 18010KT 9999 -DZ FEW004 BKN007 16/15 Q1016=
####018000519####
SADL32 KWBC 081050
METAR
EDLN 081050Z 21005KT 140V280 CAVOK 30/11 Q1019=
EDLP 081050Z VRB04KT CAVOK 29/11 Q1020=
EDLS NIL=
EDLW 081050Z 20006KT 140V250 CAVOK 30/09 Q1020=
EDMA 081050Z 10006KT 020V160 CAVOK 24/09 Q1022=
EDML NIL=
EDMO 081050Z 08005KT 330V120 CAVOK 24/08 Q1023=
EDMS NIL=
EDQD NIL=
EDQM 081050Z VRB04KT CAVOK 24/10 Q1023=
EDRS NIL=
EDRT NIL=
EDTB NIL=
EDTD 081050Z 14004KT 340V210 CAVOK 25/11 Q1023=
EDTF NIL=
EDTK NIL=
EDTO NIL=
EDTY NIL=
EDTZ NIL=
EDVE NIL=
####018003718####
SAUS70 KWBC 081100 RRL
METAR
KDEC 081054Z 00000KT 4SM BR SCT075 25/23 A3004 RMK AO2 SLP165
     T02500228=
KDSV 081054Z AUTO 14006KT 6SM HZ CLR 22/19 A3009 RMK AO2 SLP194
     T02170189=
KDYL 081054Z AUTO 00000KT 3SM BR CLR 23/22 A3003 RMK AO2 SLP162
     T02280217 TSNO=
KDYR 081055Z AUTO 00000KT 10SM CLR 23/19 A3008 RMK AO1=
KEEN 081055Z AUTO 00000KT 6SM OVC085 23/22 A3007 RMK AO1=
KEGE 081055Z 00000KT 10SM CLR 10/08 A3036 RMK AO1=
KEHR 081055Z AUTO 00000KT 4SM CLR 22/18 A3006 RMK AO1=
KENV 081055Z 00000KT 10SM CLR 17/00 A3009 RMK AO1=
KESC 081055Z AUTO 00000KT 5SM BKN021 19/16 A2998 RMK AO1=
KEUG 081054Z 19006KT 10SM CLR 13/10 A2993 RMK AO2 SLP131
     T01280100=
KEUL 081055Z AUTO 08003KT 10SM CLR 12/06 A3006 RMK AO1=
KEVV 081054Z 00000KT 9SM CLR 24/22 A3006 RMK AO2 SLP175
     T02390217=
KEWK 081055Z AUTO 36008KT 10SM OVC008 21/19 A3006 RMK AO1=
KEWN 081054Z 04005KT 2 1/2SM BR CLR 25/24 A2995 RMK AO2 SLP140
     T02500239=
KFAM 081055Z AUTO 00000KT 10SM CLR 23/22 A3009 RMK AO1=
KFIG 081054Z AUTO 00000KT 3SM BR CLR 19/17 A3013 RMK AO2 SLP189
     T01890172=
KFKL 081055Z 23004KT 1 1/2SM CLR 19/17 A3014 RMK AO1=
KFLP 081055Z AUTO 00000KT 10SM BKN070 23/21 A3005 RMK AO1=
KFNL 081055Z AUTO 35004KT 6SM OVC005 14/13 A3032 RMK AO1=
KFOD 081055Z AUTO 31003KT 9SM CLR 17/16 A3013 RMK AO1=
KFRM 081055Z AUTO 10SM CLR 16/14 A3015 RMK AO1=
KGAD 081055Z AUTO 28003KT 10SM CLR 21/19 A3006 RMK AO1=
KGAI 081055Z 00000KT 5SM SCT095 25/22 A3005 RMK AO1=
KGBD 081055Z AUTO 36005KT 10SM OVC008 19/18 A3017 RMK AO1=
KGCK 081054Z AUTO 03010KT 10SM SCT005 18/16 A3021 RMK AO2 SLP203
     T01780161=
KGCN 081054Z AUTO 00000KT 10SM CLR 08/M03 A3023 RMK AO2 SLP140
     T00831033=
KGDV 081055Z AUTO 00000KT 10SM CLR 11/07 A3017 RMK AO1=
KGTR 081055Z 00000KT 10SM CLR 23/22 A3007 RMK AO1=
KGUC 081055Z AUTO 36004KT 10SM FEW110 08/03 A3044 RMK AO1=
KGXY 081055Z AUTO 05004KT 7SM FEW010 OVC047 15/12 A3031 RMK
     AO1=
KHDN 081055Z 14006KT 10SM CLR 09/05 A3032 RMK AO1=
KHEF 081055Z AUTO 00000KT 5SM FEW100 23/20 A3001 RMK AO1=
KHEZ 081055Z AUTO 00000KT 3SM CLR 22/21 A3005 RMK AO1=
KHNB 081055Z AUTO 00000KT 5SM SCT060 23/22 A3006 RMK AO1=
KMNI 081055Z AUTO 00000KT 10SM CLR 24/22 A2996 RMK AO2=
KMNM 081055Z AUTO 28003KT 6SM OVC009 21/19 A2999 RMK AO1=
KMOT 081054Z AUTO 23005KT 10SM BKN090 14/11 A3009 RMK AO2 SLP190
     T01390111 TSNO=
KMRF 081055Z AUTO 03006KT 10SM OVC095 17/14 A3018 RMK AO1=
KMRY 081054Z AUTO 00000KT 10SM OVC008 13/10 A2992 RMK AO2 SLP144
     T01330100=
KMSV 081055Z AUTO 00000KT 5SM CLR 21/19 A3010 RMK AO1=
KMTW 081055Z 00000KT 5SM SCT006 21/21 A3001 RMK AO1=
KMVL 081054Z AUTO 00000KT 2 1/2SM BR CLR 21/20 A3008 RMK AO2
     SLP180 T02110200=
KMVN 081055Z AUTO 00000KT 2SM BKN049 22/21 A3005 RMK AO1=
KOFP 081054Z AUTO 08003KT 4SM HZ SCT075 24/21 A3001 RMK AO2 SLP158
     T02440206=
KOKK 081055Z AUTO 14003KT 4SM OVC110 23/17 A3005 RMK AO1=
KOLM 081054Z AUTO 00000KT 10SM CLR 12/11 A2995 RMK AO2 SLP141
     T01220106=
KOLS 081054Z AUTO VRB03KT 10SM CLR 24/08 A2998 RMK AO2 SLP071
     T02390078=
KOLU 081055Z AUTO 00000KT 10SM SCT120 17/14 A3019 RMK AO1=
KOTG 081055Z AUTO 27004KT 10SM CLR 14/13 A3016 RMK AO1=
KOTH 081055Z 00000KT 10SM OVC008 10/08 A3000 RMK AO1=
KPHF 081054Z 10006KT 5SM BR FEW080 SCT100 26/24 A2998 RMK AO2
     SLP150 T02560244=
KPIB 081055Z AUTO 00000KT 6SM CLR 23/21 A3005 RMK AO1=
KPLN 081054Z AUTO 00000KT 9SM -RA OVC100 22/21 A2997 RMK AO2 RAB50
     SLP146 P0000 T02220206=
KPNE 081054Z 12003KT 2 1/2SM BR FEW004 24/23 A3004 RMK AO2 SLP172
     T02440233=
KPQI 081055Z AUTO 15006KT 10SM CLR 21/18 A3000 RMK AO1=
####018003722####
SAUS70 KWBC 081100 RRG
METAR
KDEW 081053Z AUTO 00000KT 10SM CLR 14/07 A3008 RMK AO2 SLP172
     T01390072=
KDFI 081053Z AUTO 00000KT 4SM BR CLR 22/19 A3006 RMK AO2 SLP173
     T02170194=
KDFW 081053Z 13003KT 10SM -RA OVC012 26/23 A3001 RMK AO2 RAB52
     SLP152 P0000 T02560228=
KDGW 081053Z AUTO 00000KT 9SM CLR 06/05 A3034 RMK AO2 SLP251
     T00560050 $=
KDHN 081053Z 00000KT 9SM CLR 23/22 A3007 RMK AO2 SLP176
     T02280222=
KDHT 081053Z AUTO 01009KT 10SM OVC080 16/15 A3025 RMK AO2 RAE49
     SLP192 P0000 T01610150=
KDKK 081053Z AUTO 00000KT 8SM CLR 21/18 A3006 RMK AO2 SLP175
     T02110183=
KDLN 081053Z AUTO 20010KT 10SM CLR 06/03 A3029 RMK AO2 SLP225
     T00560028=
KDLS 081053Z AUTO 13005KT 10SM CLR 14/05 A2995 RMK AO2 SLP140
     T01440050=
KDMO 081053Z AUTO 06003KT 6SM BR FEW001 23/22 A3005 RMK AO2 SLP167
     T02330217=
KDRO 081053Z AUTO 00000KT 10SM CLR 12/06 A3031 RMK AO2 SLP177
     T01220056=
KDTW 081053Z 22003KT 4SM HZ FEW040 SCT150 24/21 A3004 RMK AO2
     SLP167 T02390206=
KDVT 081053Z 11004KT 10SM CLR 27/01 A2978 RMK AO2 SLP056
     T02670011=
KDXR 081053Z AUTO 15003KT 1/4SM FG OVC001 22/22 A3007 RMK AO2
     SLP179 T02220222=
KECP 081053Z 29003KT 5SM BR CLR 23/23 A3002 RMK AO2 SLP174
     T02280228=
KEEO 081053Z AUTO 10SM FEW110 09/06 A3029 RMK AO2 SLP179 T00890056
     PNO $=
KELD 081053Z AUTO 00000KT 2 1/2SM BR SCT001 BKN080 23/23 A3004 RMK
     AO2 SLP170 T02280228=
KELM 081053Z 00000KT 2SM BR CLR 19/18 A3009 RMK AO2 SLP181
     T01890178=
KELN 081053Z AUTO 11004KT 10SM CLR 14/07 A3005 RMK AO2 SLPNO
     T01390067 $=
KEPH 081053Z AUTO 33009KT 10SM CLR 21/04 A3000 RMK AO2 SLP149
     T02060044=
KEVW 081053Z AUTO 09013KT 10SM CLR 10/03 A3032 RMK AO2 SLP182
     T01000028 TSNO=
KEWB 081053Z 13005KT 6SM BR OVC002 23/21 A3008 RMK AO2 SLP185
     T02280211=
KEYE 081053Z AUTO 00000KT 6SM HZ CLR 24/21 A3005 RMK AO2 SLP168
     T02390211=
KEYW 081053Z 07003KT 10SM FEW080 27/24 A2994 RMK AO2 RAB29E44
     SLP137 P0000 T02720244=
KFDR 081053Z AUTO 07004KT 10SM 23/22 A3002 RMK AO2 SLP152
     T02330222=
KFDY 081053Z AUTO 00000KT 5SM HZ CLR 22/19 A3006 RMK AO2 SLP169
     T02170189=
KFFT 081053Z AUTO 00000KT 2 1/2SM BR CLR 21/19 A3008 RMK AO2
     SLP176 T02060194=
KFHR 081053Z AUTO 00000KT 10SM CLR 13/10 A2998 RMK AO2 SLP150
     T01280100=
KFLL 081053Z 07007KT 10SM FEW022 28/24 A2993 RMK AO2 SLP135
     T02780244=
KMLC 081053Z AUTO 00000KT 10SM FEW070 24/23 A3004 RMK AO2 SLP162
     T02390228=
KMLP 081053Z AUTO 12009G16KT 10SM CLR 13/02 A3026 RMK AO2 SLP156
     T01280017 TSNO=
KMLS 081053Z AUTO 15005KT 10SM CLR 12/10 A3019 RMK AO2 SLP213
     T01170100=
KMLT 081053Z AUTO 16003KT 4SM BR OVC007 21/19 A3007 RMK AO2 SLP185
     T02060194=
KMMK 081053Z AUTO 16004KT 1 3/4SM BR OVC008 25/23 A3006 RMK AO2
     SLP175 T02500228=
KMNN 081053Z AUTO 00000KT 6SM BR CLR 20/18 A3009 RMK AO2 SLP183
     T02000183=
KMPO 081053Z AUTO 00000KT 5SM BR FEW095 20/18 A3011 RMK AO2 SLP181
     T02000178=
KMSO 081053Z AUTO 00000KT 10SM CLR 11/06 A3020 RMK AO2 SLP211
     T01060056 $=
KMSS 081053Z AUTO 23005KT 5SM HZ FEW060 24/21 A3002 RMK AO2 SLP162
     T02390211=
KMTH 081053Z AUTO 09007KT 4SM -RA SCT019 BKN024 OVC046 27/24 A2993
     RMK AO2 LTG DSNT NE RAB52 SLP133 P0005 T02670239 $=
KMTJ 081053Z AUTO 14006KT 10SM CLR 16/04 A3027 RMK AO2 SLP176
     T01560044=
KMVY 081053Z 13004KT 10SM CLR 22/20 A3009 RMK AO2 SLP188
     T02170200=
KMYF 081053Z AUTO 34005KT 10SM OVC013 16/13 A2990 RMK AO2 SLP121
     T01610133 TSNO=
KODO 081053Z AUTO 04007KT 8SM FEW120 21/19 A3008 RMK AO2 SLP144
     T02060194=
####018000077####
SAPM31 MPTO 081100
METAR
MPTO 081100Z 00000KT 9999 SCT018  25/23 Q1010=
####018001602####
SAZZ40 KAWN 081100 RRA
METAR EGMH 081050Z 23005KT 160V300 9999 FEW016 24/17 Q1019=
METAR KBAF 081053Z 14003KT 6SM HZ SCT100 24/21 A3006 RMK AO2 SLP174
      T02440211=
METAR KBUR 081053Z 00000KT 7SM OVC007 16/13 A2989 RMK AO2 SLP111 T01560133=
METAR KCEF 081055Z AUTO 16005KT 10SM FEW010 24/22 A3006 RMK AO2 SLP179
      T02410219 PWINO $=
METAR KEGI 081055Z AUTO 00000KT 2 1/2SM R18/2600VP6000FT BR CLR 21/21
      A3003 RMK AO2 SLP168 T02120209 $=
METAR KGRF 081055Z AUTO 14004KT 10SM CLR 14/11 A2995 RMK AO2 SLP141
      T01410107 $=
METAR KHMN 081055Z 08003KT 10SM CLR 20/14 A3013 RMK AO2A SLP122 T01960143
      $=
METAR KNHK 081052Z 09004KT 3SM BR FEW010 SCT110 26/24 A3000 RMK AO2
      SLP158 T02610239=
METAR KNZY 081052Z 31006KT 8SM -DZ FEW008 OVC016 18/14 A2989 RMK AO2
      DZB52 SLP120 P0000 T01830139 $=
METAR KPOB 081055Z AUTO 00000KT 10SM CLR 23/20 A2995 RMK AO2 SLP142
      T02280203 $=
METAR KSAN 081051Z 31005KT 10SM SCT014 OVC017 17/13 A2991 RMK AO2 SLP126
      T01670133=
METAR KTOI 081053Z AUTO 00000KT 7SM CLR 22/21 A3004 RMK AO2 SLP166
      T02170211=
METAR LQBK 081100Z 28002KT 9999 FEW040 23/11 Q1022 NOSIG=
METAR MGHT 081100Z 00000KT 9999 OVC012 16/15 QFE 816/0=
METAR MGPB 081100Z 00000KT 9999 FEW016 OVC090 24/23 Q1010 A2983=
METAR MGSJ 081100Z 00000KT 9999 SCT020 BKN090 23/23 Q1012 A2988=
METAR OAKN 081050Z 28007KT 9999 FEW150 41/05 Q1007 BLU NOSIG RMK A2974
      DA7100=
METAR OAUZ 081050Z 29007KT 9999 SKC 40/03 Q1007 BLU/=
METAR PHJR 081053Z 00000KT 10SM FEW045 22/18 A3004 RMK AO2 SLP179 T02220178=
####018000120####
SAAW41 KWBC 080950 RRC
METAR
LTBF 080950Z 34017KT 310V010 9999 SCT035 26/16 Q1012 NOSIG RMK
     RWY18 35017KT=
####018000695####
SADL31 KWBC 081050
METAR
EDBB NIL=
EDBT NIL=
EDCK NIL=
EDDF 081050Z 16005KT 080V210 CAVOK 28/10 Q1021 NOSIG=
EDDH 081050Z 17006KT 150V230 CAVOK 28/12 Q1019 NOSIG=
EDDK 081050Z 21005KT 180V260 CAVOK 29/08 Q1019 NOSIG=
EDDL 081050Z 27008KT CAVOK 30/09 Q1019 NOSIG=
EDDM 081050Z 08008KT CAVOK 23/08 Q1023 NOSIG=
EDDN 081050Z 15005KT 120V180 CAVOK 26/08 Q1022 NOSIG=
EDDS 081050Z VRB03KT CAVOK 26/08 Q1022 NOSIG=
EDDW 081050Z 20007KT CAVOK 29/08 Q1019 NOSIG=
EDFE 081050Z 20003KT CAVOK 28/11 Q1020=
EDFM 081050Z VRB05KT 140V140 CAVOK 29/09 Q1020=
EDHI NIL=
EDHL 081050Z 16007KT 120V200 CAVOK 28/13 Q1019=
EDKB NIL=
EDKS NIL=
EDLE NIL=
EDLG NIL=
EDLI NIL=
####018000234####
SAUS70 KWBC 081100 RRO
METAR
PAWD 081053Z AUTO 00000KT 1/2SM FG FEW002 BKN008 OVC065 10/09
     A2996 RMK AO2 SLP144 T01000089 TSNO=
PHMK 081054Z AUTO 03006G15KT 10SM BKN039 22/19 A3004 RMK AO2
     SLP175 T02170189 TSNO=
####018000167####
SADL33 KWBC 081045 RRB
METAR
EDNY 081050Z 19006KT CAVOK 25/15 Q1022=
EDVK 081050Z 21008KT 170V250 CAVOK 26/10 Q1021=
EDXW 081050Z 22012KT CAVOK 23/12 Q1019=
####018001311####
SADN31 KWBC 081050
METAR
EKAH 081050Z AUTO 20004KT 150V250 9999NDV -SHRA BKN053/// 21/15
     Q1019=
EKBI 081050Z 24008KT 200V260 9999 -SHRA FEW023 BKN080 22/15
     Q1019=
EKCH 081050Z 17012KT CAVOK 22/14 Q1020 NOSIG=
EKEB 081050Z AUTO 24009KT 9999NDV BKN089/// 20/15 Q1018=
EKHO NIL=
EKKA 081050Z 19005KT 160V220 3500 SHRA SCT018CB BKN030 17/15 Q1018
     TEMPO 6000 -SHRA=
EKMB NIL=
EKOD 081050Z 19011KT CAVOK 25/11 Q1019=
EKRK 081050Z AUTO 19011KT 9999NDV FEW050/// BKN070/// 25/11
     Q1020=
EKRN 081050Z AUTO 22004KT 180V250 9999NDV NCD 20/16 Q1022=
EKSB 081050Z 21007KT 170V230 CAVOK 25/13 Q1018=
EKSN 081050Z 19011KT 9999 SCT023 BKN047 21/15 Q1017=
EKSP 081050Z 22014KT CAVOK 26/09 Q1018 NOSIG RMK FEW097 SCT120
     BKN250=
EKSV NIL=
EKTS NIL=
EKVA NIL=
EKVD 081050Z 23016KT CAVOK 26/12 Q1018=
EKVG 081050Z 18014KT 9999 -SHRA SCT004 BKN008 BKN012 11/10 Q0993
     RMK/RWY 13/31 CLOSED DUE WIP/ SEE NOTAM E0050/10 WIND 850FT
     VRB06G23KT=
EKVG 081050Z 18014KT 9999 -SHRA SCT004 BKN008 BKN012 11/10 Q0993
     RMK/RWY 13/31 CLOSED DUE WIP. SEE NOTAM E0050/10 WIND 850FT
     VRB06G23KT=
EKVJ 081050Z 20008KT 5000 RA FEW010 BKN018 BKN020 20/17 Q1018=
EKVL NIL=
EKYT 081050Z 20009KT 160V220 9999 FEW025 BKN028 20/15 Q1018
     NOSIG=
####018000105####
SPKO31 KWBC 081056
SPECI
RKTN 081045Z 31002KT 8000 -RA FEW025CB BKN040 OVC200 25/23 Q1008
NOSIG=
####018001513####
SAEN31 KWBC 081050
METAR
EETN 081050Z 32009KT CAVOK 24/18 Q1014 NOSIG=
EFHF 081050Z 31005KT 260V360 9999 FEW042 BKN050 28/17 Q1014=
EFHK 081050Z VRB03KT 9999 BKN040 28/17 Q1014 NOSIG=
EFIV NIL=
EFJY 081050Z VRB01KT 9999 SCT023 SCT080 23/17 Q1016=
EFKE NIL=
EFKK 081050Z VRB04KT 9999 SCT048 24/11 Q1015=
EFKU 081050Z AUTO 31009KT CAVOK 23/18 Q1015=
EFMA 081050Z 19008KT 150V220 CAVOK 21/13 Q1016=
EFOU 081050Z VRB02KT 9999 FEW025 SCT200 21/12 Q1015=
EFPN NIL=
EFPO 081050Z 28005KT 230V320 CAVOK 24/13 Q1016=
EFRO 081050Z AUTO 06004KT 9999NDV FEW043 20/09 Q1016=
EFTN NIL=
EFTP 081050Z VRB03KT 9999 FEW040 25/15 Q1015=
EFTU 081050Z AUTO 34005KT 260V020 CAVOK 26/07 Q1015=
EFVA 081050Z 16005KT 070V230 9999 FEW030 BKN200 24/12 Q1015=
ENBO 081050Z 28010KT 9999 -SHRA FEW035 BKN060 14/10 Q1010
     NOSIG=
ENBR 081050Z 20012KT 9999 FEW025TCU FEW045 18/11 Q1013=
ENCN 081050Z 21006KT 6000 OVC004 16/16 Q1016=
ENEB NIL=
ENFB NIL=
ENGM NIL=
ENHD 081050Z 21013KT 9999 FEW020 SCT170 16/13 Q1014=
ENKR 081050Z 17005KT 9999 FEW012 BKN020 13/10 Q1018=
ENSB 081050Z 27010KT 9999 FEW010 SCT025 BKN035 09/05 Q1009
     NOSIG=
ENTC 081050Z 31003KT 260V360 9999 FEW065 19/07 Q1011 NOSIG=
ENVA 081046Z 29007KT 190V330 9999 TSRA SCT035CB SCT080 21/10
     Q1009=
ENZV 081050Z 21011KT 180V250 9999 FEW020 SCT200 18/12 Q1014=
EVRA 081050Z 32010KT 280V350 9999 SCT010 OVC023 19/15 Q1016
     NOSIG=
EYVI 081050Z 29011KT 250V320 2600 RA OVC005 15/14 Q1015 NOSIG=
####018000099####
SAEN31 KWBC 081020 RRB
METAR
ENGM 081041Z 19010KT 9999 -RA FEW009 SCT045 BKN067 16/14 Q1015=
####018000028####
SAGR31 KWBC 081050
NIL=
####018000028####
SAGR41 KWBC 081050
NIL=
####018000028####
SAIY31 KWBC 081050
NIL=
####018000028####
SAIY32 KWBC 081050
NIL=
####018000028####
SAIY41 KWBC 081050
NIL=
####018000028####
SAIY42 KWBC 081050
NIL=
####018000028####
SAIY43 KWBC 081050
NIL=
####018000362####
SAMX31 KWBC 081045 RRC
METAR
MMCZ 081045Z 09005KT 6SM BKN100 26/24 A2985 RMK 8/070 SC HZY=
MMMD 081046Z 10006KT 6SM BKN070 19/19 A2985 RMK 8/070 HZY=
MMMY 081043Z 32008KT 15SM SKC 24/22 A2986 RMK ISOL AC=
MMTP 081040Z 00000KT 10SM BKN020 BKN100 24/22 A2988 RMK 8/170=
MMUN 081042Z 13004KT 6SM SCT015 BKN090 BKN300 27/24 A2988 RMK
     8/538 HZY=
####018000337####
SAMX41 KWBC 081045 RRC
METAR
MMCE 081046Z 14008KT 6SM BKN050 27/25 A2979 RMK 8/400=
MMCN 081052Z 00000KT 10SM FEW080 SCT200 26/20 A2973 RMK 8/036
     RTS=
MMMT 081045Z 24010KT 10SM BKN030 BKN050 OVC080 23/18 A2979 RMK
     8/57/=
MMRX 081047Z 32006KT 5SM BKN006 BKN008 26/25 A2981 RMK 8/700 OCNL
     DROPS BR HZ RTS=
####018000345####
SANL31 KWBC 081050
METAR
EHAM NIL=
EHBD NIL=
EHBK NIL=
EHDL NIL=
EHEH 081055Z AUTO 25007KT 9999NDV BKN130 30/12 Q1019 BLU BLU=
EHGG NIL=
EHGR NIL=
EHHO NIL=
EHHV NIL=
EHKD NIL=
EHLE NIL=
EHLW NIL=
EHMZ NIL=
EHRD NIL=
EHSB NIL=
EHTE NIL=
EHTW NIL=
EHTX NIL=
EHVB NIL=
EHVK NIL=
EHVL NIL=
EHWO NIL=
####018000854####
SANO41 KWBC 081050
METAR
ENAL 081050Z 28005KT 240V310 9999 VCSH BKN060 16/11 Q1009=
ENAN 081050Z 31007KT 9999 FEW045 SCT200 16/09 Q1011 NOSIG=
ENAT 081050Z 07005KT 350V130 9999 FEW092 BKN180 22/08 Q1012=
ENBL 081050Z 21012KT 9999 SCT040 SCT070 15/07 Q1011=
ENBN 081050Z 35009KT CAVOK 17/10 Q1010=
ENBV 081050Z NIL=
ENDI 081050Z NIL=
ENDU 081050Z 07004KT 9999 VCSH FEW050 SCT060 21/07 Q1010 NOSIG=
ENEK 081050Z NIL=
ENEV 081050Z 20006KT 9999 FEW059 SCT084 19/09 Q1010=
ENFG 081050Z NIL=
ENFL 081050Z 19015KT 9999 FEW020 SCT060 16/12 Q1010=
ENFR NIL=
ENGC 081050Z 19026KT CAVOK 13/11 Q1008=
ENHF 081050Z 20009KT CAVOK 18/09 Q1012=
ENHV 081050Z NIL=
ENKB 081050Z 19006KT 090V250 9999 FEW045 22/07 Q1009=
ENLI NIL=
ENLK 081050Z 22006KT 9999 FEW045 BKN080 17/10 Q1010=
ENMH 081050Z 15008KT 9999 FEW015 17/09 Q1015=
####018001294####
SANO42 KWBC 081050
METAR
ENML 081050Z VRB02KT 9999 SCT060 21/09 Q1009=
ENMS 081050Z VRB06KT 9999 FEW050 SCT060 22/08 Q1009=
ENNA 081050Z 18014KT 9999 FEW045CB SCT070 20/09 Q1013=
ENNK 081050Z 04004KT 9999 VCSH FEW040 BKN060 16/13 Q1010=
ENNM 081050Z VRB02KT 9999 SCT045TCU 18/11 Q1009=
ENNO 081050Z 14010KT 9999 FEW020 SCT025 BKN050 19/14 Q1014=
ENOA 081050Z 19023KT CAVOK 13/11 Q1010=
ENOL 081050Z 36006KT 9999 FEW025TCU SCT090 18/11 Q1010 NOSIG=
ENOV 081050Z VRB05KT 9999 VCSH BKN055 18/06 Q1010=
ENRA 081050Z VRB01KT 9999 SCT050TCU 22/09 Q1008=
ENRM 081050Z 03005KT 360V070 CAVOK 18/10 Q1010=
ENRO 081050Z 19011KT 150V240 9999 FEW030 SCT055 BKN120 18/07
     Q1011=
ENRS 081050Z 13005KT 100V160 9999 -SHRA NSC 11/10 Q1010=
ENRY 081050Z 17008KT 9999 BKN007 17/15 Q1016=
ENSD 081050Z NIL=
ENSG 081050Z 24008KT 170V280 9999 SCT055 17/07 Q1012=
ENSH 081050Z 15002KT 9999 VCSH FEW040 BKN060 17/08 Q1010=
ENSK 081050Z 14002KT CAVOK 19/09 Q1010=
ENSN 081050Z 16007KT 9999 BKN013 16/14 Q1016=
ENSO 081050Z 19012KT 9999 SCT025 18/11 Q1013=
ENSR 081050Z 36006KT 9999 FEW050 SCT070 19/10 Q1011=
ENST 081050Z VRB02 CAVOK 17/11 Q1010=
ENSV NIL=
ENTO 081050Z 18010KT 9999 -DZ FEW004 BKN007 16/15 Q1016=
ENVD 081050Z 12007KT 9999 BKN020 12/08 Q1018=
####018000028####
SAOM43 KWBC 081050
NIL=
####018000116####
SAUS44 KSHV 081055
MTRBKB
METAR KBKB 081054Z AUTO 00000KT 10SM SCT014 24/23 A3000 RMK AO2 
SLP183 T02390228
####018000082####
SABZ24 SBFI 081100
METAR SBFI 081100Z 14006KT 9999 FEW020 SCT100 14/13 Q1016=
####018001173####
SASN31 KWBC 081050
METAR
ESDB NIL=
ESDF 081050Z 22009KT 190V250 CAVOK 23/11 Q1021=
ESGG 081050Z 20013KT 5000 SHRA BR FEW003 SCT015 BKN020CB 17/15
     Q1019=
ESGJ 081050Z AUTO 22013KT 9999NDV FEW043/// 22/11 Q1019=
ESGP 081050Z 19013KT 9999 VCSH FEW013 SCT019 BKN032 17/16 Q1018
     REDZ=
ESKN 081050Z 27010KT 230V300 9999 FEW047 24/12 Q1018=
ESMK 081050Z 19008KT 150V220 CAVOK 26/12 Q1020=
ESMS 081050Z 19011KT CAVOK 23/10 Q1021=
ESMX 081050Z 20011KT 160V250 CAVOK 24/11 Q1020=
ESNN 081050Z 14012KT 9999 FEW044 SCT053 21/14 Q1013=
ESNO 081050Z AUTO 16010KT 9999NDV FEW040/// 20/12 Q1014=
ESNQ 081050Z 18010KT CAVOK 18/09 Q1013=
ESNS 081050Z AUTO 17011KT 130V200 9999NDV ////// 22/08 Q1014=
ESNU 081050Z 14008KT CAVOK 20/12 Q1015=
ESOK 081050Z 22009KT 9999 BKN022 18/13 Q1017=
ESOW 081050Z 23012KT CAVOK 23/13 Q1017=
ESPA 081050Z 14011KT CAVOK 18/14 Q1016=
ESPC NIL=
ESSA 081050Z 24011KT CAVOK 24/13 Q1017 NOSIG=
ESSB 081050Z 25007KT 210V280 CAVOK 24/11 Q1017=
ESSD 081050Z AUTO 25009KT 9999NDV BKN027/// 20/13 Q1016=
ESSN NIL=
ESSP 081050Z 25014KT 220V280 CAVOK 24/12 Q1018=
ESSV 081050Z 28007KT CAVOK 21/13 Q1020=
####018000475####
SASW31 KWBC 081050
METAR
LSGC 081050Z NIL=
LSGG 081050Z VRB04KT CAVOK 29/12 Q1022 NOSIG=
LSGL NIL=
LSGN NIL=
LSGS 081050Z 24008KT 200V310 9999 FEW100 28/14 Q1021=
LSZA 081050Z 18005KT 9999 SCT055 27/13 Q1022 NOSIG=
LSZB 081050Z 32005KT 280V030 CAVOK 28/13 Q1022 NOSIG=
LSZD NIL=
LSZG 081050Z NIL=
LSZH 081050Z VRB03KT CAVOK 26/12 Q1022 NOSIG=
LSZL NIL=
LSZR 081050Z 28004KT CAVOK 23/16 Q1022 NOSIG RMK H=
LSZS 081050Z 23007KT CAVOK 23/11 Q1026=
####018001048####
SAUK31 KWBC 081050
METAR
EGAA 081050Z 23012KT 9999 FEW044 16/10 Q1014=
EGBB 081050Z 25008KT 9999 FEW033 21/10 Q1018=
EGCC 081050Z 24009KT 190V270 9999 SCT036 SCT048 19/10 Q1017=
EGFF 081050Z 23006KT 190V280 9999 FEW025 20/10 Q1018=
EGGD 081050Z 26007KT 9999 FEW031 20/11 Q1019=
EGGP 081050Z 23008KT 180V260 9999 SCT030 SCT045 19/10 Q1017=
EGGW 081050Z 21005KT 160V250 9999 BKN023 20/13 Q1019=
EGHD 081050Z 19005KT 9999 FEW022 20/12 Q1019=
EGHH 081050Z VRB03KT 9999 SCT029 20/16 Q1019=
EGHI 081050Z 22003KT 9999 BKN018 20/14 Q1019=
EGJB 081050Z VRB03KT 9999 FEW012 20/17 Q1019=
EGJJ 081050Z 32006KT 290V070 9999 FEW015 21/17 Q1019 NOSIG=
EGKA 081050Z 21008KT 9999 FEW017 20/16 Q1019=
EGKB 081050Z 30003KT 9999 BKN025 22/15 Q1019=
EGKK 081050Z 21006KT 150V290 9999 SCT024 23/15 Q1018=
EGLF 081050Z VRB03KT 9999 FEW013 SCT017 19/15 Q1019=
EGLL 081050Z 25006KT 180V280 9999 BKN019 21/14 Q1019=
EGMC 081050Z 30003KT 9999 FEW026 23/16 Q1018=
EGMD 081050Z 21007KT 9999 FEW018 22/16 Q1019=
EGNH NIL=
EGNJ NIL=
####018000652####
SAUK32 KWBC 081050
METAR
EGNM 081050Z 22011KT 180V270 9999 SCT025 19/09 Q1016=
EGNS 081050Z NIL=
EGNT 081050Z 25011KT 210V280 9999 SCT038 18/09 Q1015=
EGNV 081050Z 22013KT 9999 SCT033 19/11 Q1016=
EGNX 081050Z 23012KT 200V270 9999 FEW045 20/08 Q1018=
EGPA NIL=
EGPB 081050Z 20014KT 9999 FEW012 15/11 Q1007=
EGPC NIL=
EGPD 081050Z 22014KT CAVOK 18/08 Q1010 NOSIG=
EGPF 081050Z 22018KT 9999 FEW025 SCT030 17/10 Q1013=
EGPH 081050Z 22014KT 9999 FEW030 17/09 Q1013=
EGPK 081050Z 23015KT 9999 FEW024 17/09 Q1014=
EGSH NIL=
EGTE 081050Z 20007KT 150V230 9999 FEW030 21/13 Q1018=
EGTG 081050Z 27005KT 9999 FEW025 20/12 Q1018=
####018000538####
SAUK41 KWBC 081050
METAR
EGAC 081050Z 21013KT 9999 FEW022 SCT033 18/08 Q1014=
EGAE NIL=
EGBE NIL=
EGBJ NIL=
EGDC NIL=
EGDG NIL=
EGDL NIL=
EGDM NIL=
EGDN NIL=
EGDP NIL=
EGDR NIL=
EGDY NIL=
EGFH NIL=
EGGP 081050Z 23008KT 180V260 9999 SCT030 SCT045 19/10 Q1017=
EGGW 081050Z 21005KT 160V250 9999 BKN023 20/13 Q1019=
EGHE 081050Z NIL=
EGJA 081050Z 28005KT 9999 FEW003 SCT006 19/16 Q1019=
EGLC 081050Z VRB03KT 9999 FEW030 21/14 Q1018=
EGNC NIL=
EGNT 081050Z 25011KT 210V280 9999 SCT038 18/09 Q1015=
####018000396####
SAUK42 KWBC 081050
METAR
EGOS NIL=
EGOV NIL=
EGPC NIL=
EGPE NIL=
EGPF 081050Z 22018KT 9999 FEW025 SCT030 17/10 Q1013=
EGPL NIL=
EGPM NIL=
EGPN NIL=
EGPO NIL=
EGPT NIL=
EGPU NIL=
EGPW NIL=
EGQJ NIL=
EGQK NIL=
EGQL NIL=
EGQM NIL=
EGQS NIL=
EGSC NIL=
EGSS 081050Z 23007KT 9999 SCT018 20/15 Q1018=
EGTC 081050Z 23006KT 9999 FEW020 19/12 Q1018=
EGTI NIL=
####018000028####
SAUR31 KWBC 081050
NIL=
####018000277####
SAXX99 KWBC 081000 RRX
METAR
K4O4 081048Z AUTO 11004KT 4SM SCT001 SCT013 23/22 A3005 RMK
     AO2=
MMAN 081043Z 28008KT 10SM SCT040 24/23 A2990 RMK 8/500=
MMTG 081047Z 00000KT 3SM BCFG SCT004 BKN070 OVC300 23/23 A2991 RMK
     8/672 BCFG ARND ST OMTNS VRBL COND=
####018000080####
SAPS31 NIUE 081100
METAR NIUE 081100Z AUTO 13006KT //// ////// 24/24 Q1015=
####018000126####
SAUS41 KPHI 081056
MTRACY
METAR KACY 081054Z 11003KT 8SM -RA FEW060 24/23 A3004 RMK AO2 RAB49 
SLP172 P0000 T02440228
####018000113####
SAUS42 KRAH 081056
MTRGSO
METAR KGSO 081054Z 02004KT 6SM HZ FEW095 25/18 A3003 RMK AO2 SLP155 
T02500178
####018000107####
SAUS43 KIWX 081056
MTRFWA
METAR KFWA 081054Z 00000KT 7SM CLR 23/20 A3006 RMK AO2 SLP172 
T02280200
####018001546####
SAZZ40 KAWN 081100 RRB
METAR KBAD 081055Z AUTO 11003KT 10SM CLR 23/23 A3004 RMK AO2 SLP171
      T02320226 $=
METAR KDAA 081055Z AUTO 00000KT 6SM HZ CLR 25/22 A3000 RMK AO2 SLP161
      T02480220=
METAR KDTS 081053Z AUTO 00000KT 5SM BR FEW001 24/23 A3002 RMK AO2 SLP163
      T02440233=
METAR KEDW 081055Z AUTO 21006KT 10SM CLR 16/04 A2987 RMK AO2 SLP065
      T01640040=
METAR KFBG 081055Z AUTO 35004KT 10SM CLR 25/19 A2995 RMK AO2 SLP139
      T02500191 $=
METAR KFHU 081055Z 12004KT 10SM FEW120 22/11 A3007 RMK SLP104=
METAR KGUS 081055Z AUTO 14003KT 10SM FEW060 SCT100 23/21 A3004 RMK
      AO2 SLP166 T02290208=
METAR KIAB 081055Z AUTO 35008KT 210V360 10SM FEW045 22/21 A3008 RMK
      AO2 SLP175 T02150208=
METAR KMGE 081055Z 00000KT 10SM CLR 22/19 A3005 RMK AO2A SLP165 T02210188
      $=
METAR KMTC 081055Z 00000KT 6SM BR FEW040 FEW140 SCT240 23/23 A3002
      RMK SLP170=
METAR KOZR 081055Z 00000KT 3/4SM R06/0700V1200FT BR FEW002 22/22 A3002
      RMK AO2A SLP166 T02160216=
METAR KSUU 081055Z AUTO 24022G25KT 10SM BKN170 12/10 A2982 RMK AO2
      PK WND 24028/1010 SLP101 T01200101 RVRNO $=
METAR MYGF 081100Z 05003KT 9999 FEW020TCU SCT150 24/23 A2996 RMK TCU
      S=
METAR PAEI 081055Z AUTO 00000KT 10SM CLR 09/06 A3004 RMK AO2 SLP175
      T00900064 $=
METAR TIST 081053Z 08005KT 10SM CLR 28/24 A2999 RMK AO2 SLP157 T02830244=
METAR TISX 081053Z 08009KT 10SM FEW023 28/24 A2999 RMK AO2 SLP155 T02780239=
METAR TXKF 081055Z 15012KT 9999 FEW013 SCT180 BKN300 26/23 Q1019=
####018000624####
SAIY32 LIIB 081050
METAR LIBD 081050Z 36015KT CAVOK 25/10 Q1020=
METAR LIBR 081045Z /////KT 9999 FEW020 25/15 Q1017 NOSIGNOSIG=
METAR LICC 081050Z 12011KT 8000 FEW040 29/20 Q1018=
METAR LICJ 081050Z 04016KT CAVOK 27/23 Q1018=
METAR LIPB 081050Z 17011KT CAVOK 28/12 Q1021=
METAR LIPE 081050Z 07007KT 030V100 CAVOK 28/14 Q1021=
METAR LIPH 081045Z 16004KT 9999 SCT025 27/20 Q1023=
METAR LIPK 081050Z NIL=
METAR LIPQ 081050Z VRB03KT CAVOK 26/15 Q1022=
METAR LIPR 081045Z 08011KT CAVOK 28/17 Q1021=
METAR LIPX 081045Z 12003KT 9999 FEW040 29/13 Q1021=
METAR LIPZ 081050Z 13009KT 9999 FEW060 26/18 Q1022=
####018000783####
SAIY31 LIIB 081050
METAR LIEA 081050Z VRB03KT CAVOK 32/21 Q1019=
METAR LIEE 081045Z 16011KT 9999 FEW020 28/20 Q1019 NOSIG=
METAR LIEO 081050Z 04011KT 9999 FEW030 30/20 Q1020=
METAR LIMC 081050Z VRB03KT 9999 FEW035 26/15 Q1022 NOSIG=
METAR LIME 081050Z 16006KT 090V240 9999 SCT050 27/15 Q1022=
METAR LIMF 081050Z VRB01KT 9999 FEW030 BKN045 24/15 Q1023=
METAR LIMJ 081050Z VRB03KT 9999 FEW015 SCT035 28/25 Q1020=
METAR LIML 081050Z 08006KT 050V150 9999 FEW030 28/16 Q1021 NOSIG=
METAR LIRA 081045Z 24006KT 170V310 9999 SCT018 29/17 Q1019=
METAR LIRF 081050Z 22011KT 180V250 CAVOK 29/18 Q1020 NOSIG=
METAR LIRN 081050Z 05012KT CAVOK 28/13 Q1019=
METAR LIRP 081045Z 09004KT 030V130 9999 FEW030 30/15 Q1020 NOSIG=
METAR LIRQ 081050Z VRB03KT CAVOK 30/13 Q1020=
####018000112####
SAUS41 KBGM 081056
MTRAVP
METAR KAVP 081054Z 00000KT 4SM HZ CLR 21/18 A3008 RMK AO2 SLP171 
T02110178 $
####018000066####
SAOR01 ORSU 081100
ORSU 081100Z 25009KT 8000 SKC 42/M03 Q1009
####018000111####
SATU20 LTAA 080950 RRF
METAR LTBF 080950Z 34017KT 310V010 9999 SCT035 26/16 Q1012 NOSIG RMK RWY18 35017KT=
####018000080####
SAMP31 LMMM 081100 RRA
METAR HLLT 081050Z 33005KT 280V030 8000 31/19 Q1019=
####018000081####
SAEO32 EETN 081050 RRA
METAR EEKA 081050Z 31009KT 250V340 CAVOK 22/13 Q1016=
####018000412####
SAOS31 LOWM 081050
METAR LOWW 081050Z 33005KT 300V050 9999 FEW055 23/11 Q1023 NOSIG=
METAR LOWL 081050Z 13004KT 060V220 CAVOK 23/08 Q1023 NOSIG=
METAR LOWS 081050Z 06003KT 340V130 9999 FEW070 SCT180 24/07 Q1023
NOSIG=
METAR LOWI 081050Z 09004KT 030V150 CAVOK 25/14 Q1021 NOSIG=
METAR LOWG 081050Z VRB03KT CAVOK 25/10 Q1023 NOSIG=
METAR LOWK 081050Z 17003KT 090V240 9999 FEW060 23/10 Q1023 NOSIG=
####018000091####
SAOS32 LOWM 081050
METAR LOXZ 081050Z VRB04KT 70KM FEW060CU 22/09 Q1023 NOSIG RMK FEW=
####018000369####
SABX31 EBBR 081050
METAR EBAW 081050Z 22007KT 180V280 CAVOK 28/12 Q1019 NOSIG=
METAR EBBR 081050Z 26006KT 210V330 CAVOK 29/11 Q1020 NOSIG=
METAR EBCI 081050Z VRB04KT CAVOK 29/10 Q1020 NOSIG=
METAR EBLG 081050Z VRB03KT CAVOK 28/09 Q1020 NOSIG=
METAR EBOS 081050Z 31008KT CAVOK 21/16 Q1020 NOSIG=
METAR ELLX 081050Z 18004KT 110V270 CAVOK 27/08 Q1021 NOSIG=
####018000072####
SALY31 HLLS 081100
METAR HLLS 081050Z 
VRBO8KT  CAVOK 36/10 Q1O17=
####018000102####
SAPK31 OPSK 081053
METAR OPSK 081055Z 13004KTS 6000 HZ FEW040 BKN100 35/25 QNH 1001 R.H.
57 PC=
####018000292####
SAFI33 EFHK 081050
EFJO 081050Z AUTO VRB02KT CAVOK 26/19 Q1015=
EFLP 081050Z AUTO VRB05KT CAVOK 31/13 Q1014=
EFMI 081050Z AUTO VRB03KT 9999 FEW040 29/18 Q1014=
EFSA 081050Z 04004KT 350V090 9999 FEW045 29/17 Q1014=
EFUT 081050Z 00000KT CAVOK 29/15 Q1013=
METAR EFVR 081055Z NIL=
####018000109####
SPCN47 CWAO 081055
SPECI CYMO 081055Z AUTO 25003KT 9SM -RA FEW037 FEW054 FEW069 FEW075
18/17 A2986=

####018000081####
SAMJ41 LWSK 081100
METAR LWSK 081100Z 04004KT 9999 BKN036 18/12 Q1020 NOSIG=
####018000090####
SAMJ41 LWOH 081100
METAR LWOH 081100Z 36008KT 320V070 9999 FEW040 BKN047 21/09 Q1019=
####018000110####
SAUK31 EGGY 081050 CCA
METAR COR EGCC 081050Z 24009KT 190V270 9999 SCT036 SCT048 19/10
    Q1017 NOSIG=
####018000085####
SAUK33 EGGY 081050 RRA
METAR EGNS 081050Z 20010KT 9999 FEW025 17/11 Q1016 NOSIG=
####018000103####
SAUK31 EGGY 081050 CCB
METAR COR EGLL 081050Z 25006KT 180V280 9999 BKN019 21/14 Q1019
    NOSIG=
####018001307####
SAUS20 KNKA 081055
METAR KAAF 081053Z AUTO 01006KT 9SM CLR 24/23 A3001 RMK AO2 SLP161 
    T02390228=
METAR KESN 081050Z 11004KT 1SM BR BKN003 23/23 A3004=
METAR KGED 081054Z AUTO 10005KT 5SM BR CLR 24/23 A3002 RMK AO2 
    SLP165 T02440228=
METAR KGTU 081055Z 07004KT 10SM FEW008 SCT027 OVC045 24/22 A3001 RMK 
    AO1=
METAR KHYI 081055Z AUTO 04006KT 8SM SCT011 BKN016 OVC022 25/24 A2995 
    RMK AO1=
METAR KILE 081055Z 10008KT 10SM SCT011 SCT018 OVC026 24/22 A2997 RMK 
    AO1=
METAR KJST 081054Z AUTO 24004KT 4SM HZ CLR 19/16 A3015 RMK AO2 
    SLP191 T01940161=
METAR KMLB 081053Z 00000KT 9SM CLR 21/21 A2998 RMK AO2 SLP151 
    T02060206=
METAR KOCH 081055Z AUTO 09006KT 10SM CLR 24/19 A3002 RMK AO1=
METAR KPHL 081054Z 12004KT 3SM BR FEW150 25/23 A3003 RMK AO2 SLP168 
    T02500228 $=
METAR KPRX 081055Z 11005KT 5SM SCT004 OVC013 24/22 A3004 RMK AO1=
METAR KPVD 081051Z 13005KT 5SM BR BKN004 OVC009 22/21 A3010 RMK
    SLP191 T02220206=
METAR KPWG 081055Z AUTO 10005KT 10SM FEW013 OVC120 25/22 A2999 RMK 
    AO1=
METAR KSAW 081050Z 00000KT 1 1/4SM BR BKN001 18/17 A2998=
METAR KSPS 081052Z COR 10004KT 10SM FEW015 FEW033 SCT150 23/22 A3003 
    RMK AO2 SLP154 T02280217=
METAR KTPL 081055Z 08004KT 10SM OVC006 24/23 A2999 RMK AO1 
     =
####018000525####
SPUS17 KAWN 081056 RRF
SPECI KCEF 081053Z AUTO 16005KT 10SM FEW010 24/22 A3006 RMK AO2 SLP179
      PWINO $=
SPECI KHRT 081046Z AUTO 00000KT 1 1/2SM R18/2800VP6000FT BR CLR 23/23
      A3001 RMK AO2 SLP165 $=
SPECI KHRT 081047Z AUTO 00000KT 1 1/4SM R18/2800VP6000FT BR CLR 23/23
      A3001 RMK AO2 SLP165 $=
SPECI KHRT 081048Z AUTO 00000KT 1SM R18/2800VP6000FT BR CLR 23/23 A3001
      RMK AO2 SLP165 $=
SPECI KHRT 081050Z AUTO 00000KT 3/4SM R18/2800VP6000FT BR CLR 23/23
      A3001 RMK AO2 SLP165 $=
####018001790####
SAEU KAWN 081100 RRD
METAR EBAW 081050Z 22007KT 180V280 CAVOK 28/12 Q1019 NOSIG=
METAR EBBR 081050Z 26006KT 210V330 CAVOK 29/11 Q1020 NOSIG=
METAR EBCI 081050Z VRB04KT CAVOK 29/10 Q1020 NOSIG=
METAR EBLG 081050Z VRB03KT CAVOK 28/09 Q1020 NOSIG=
METAR EBOS 081050Z 31008KT CAVOK 21/16 Q1020 NOSIG=
METAR EGUL 081055Z AUTO 25008KT 9999 FEW032 21/13 A3005 RMK AO2 SLP179
      T02100127=
METAR ELLX 081050Z 18004KT 110V270 CAVOK 27/08 Q1021 NOSIG=
METAR ENMS 081050Z VRB06KT 9999 FEW050 SCT060 22/08 Q1009=
METAR ENNO 081050Z 14010KT 9999 FEW020 SCT025 BKN050 19/14 Q1014=
METAR ENOV 081050Z VRB05KT 9999 VCSH BKN055 18/06 Q1010=
METAR ENRM 081050Z 03005KT 360V070 CAVOK 18/10 Q1010=
METAR ENRS 081050Z 13005KT 100V160 9999 -SHRA NSC 11/10 Q1010=
METAR ENSG 081050Z 24008KT 170V280 9999 SCT055 17/07 Q1012=
METAR ENSH 081050Z 15002KT 9999 VCSH FEW040 BKN060 17/08 Q1010=
METAR ENSK 081050Z 14002KT CAVOK 19/09 Q1010=
METAR ENSN 081050Z 16007KT 9999 BKN013 16/14 Q1016=
METAR ENSO 081050Z 19012KT 9999 SCT025 18/11 Q1013=
METAR ENSR 081050Z 36006KT 9999 FEW050 SCT070 19/10 Q1011=
METAR ENSS 081050Z 12006KT 9999 BKN022 09//08 Q1018=
METAR ENST 081050Z VRB02 CAVOK 17/11 Q1010=
METAR ENVD 081050Z 12007KT 9999 BKN020 12/08 Q1018=
METAR LOWG 081050Z VRB03KT CAVOK 25/10 Q1023 NOSIG=
METAR LOWI 081050Z 09004KT 030V150 CAVOK 25/14 Q1021 NOSIG=
METAR LOWK 081050Z 17003KT 090V240 9999 FEW060 23/10 Q1023 NOSIG=
METAR LOWL 081050Z 13004KT 060V220 CAVOK 23/08 Q1023 NOSIG=
METAR LOWS 081050Z 06003KT 340V130 9999 FEW070 SCT180 24/07 Q1023 NOSIG=
METAR LOWW 081050Z 33005KT 300V050 9999 FEW055 23/11 Q1023 NOSIG=
METAR LWOH 081100Z 36008KT 320V070 9999 FEW040 BKN047 21/09 Q1019=
METAR LWSK 081100Z 04004KT 9999 BKN036 18/12 Q1020 NOSIG=
####018001383####
SAUS17 KAWN 081100
METAR KBAD 081055Z AUTO 11003KT 10SM CLR 23/23 A3004 RMK AO2 SLP171
      T02320226 $=
METAR KBLV 081055Z AUTO 25003KT 10SM FEW050 SCT170 24/24 A3004 RMK
      AO2 SLP170 T02430242=
METAR KCBM 081055Z AUTO 34003KT 10SM CLR 24/23 A3007 RMK AO2 SLP180
      T02400227 $=
METAR KCEF 081055Z AUTO 16005KT 10SM FEW010 24/22 A3006 RMK AO2 SLP179
      T02410219 PWINO $=
METAR KDAA 081055Z AUTO 00000KT 6SM HZ CLR 25/22 A3000 RMK AO2 SLP161
      T02480220=
METAR KEDW 081055Z AUTO 21006KT 10SM CLR 16/04 A2987 RMK AO2 SLP065
      T01640040=
METAR KFBG 081055Z AUTO 35004KT 10SM CLR 25/19 A2995 RMK AO2 SLP139
      T02500191 $=
METAR KFHU 081055Z 12004KT 10SM FEW120 22/11 A3007 RMK SLP104=
METAR KGRF 081055Z AUTO 14004KT 10SM CLR 14/11 A2995 RMK AO2 SLP141
      T01410107 $=
METAR KGUS 081055Z AUTO 14003KT 10SM FEW060 SCT100 23/21 A3004 RMK
      AO2 SLP166 T02290208=
METAR KHMN 081055Z 08003KT 10SM CLR 20/14 A3013 RMK AO2A SLP122 T01960143
      $=
METAR KIAB 081055Z AUTO 35008KT 210V360 10SM FEW045 22/21 A3008 RMK
      AO2 SLP175 T02150208=
METAR KLRF 081055Z AUTO 00000KT 10SM BKN170 23/22 A3006 RMK AO2 SLP177
      T02300224=
METAR KMGE 081055Z 00000KT 10SM CLR 22/19 A3005 RMK AO2A SLP165 T02210188
      $=
METAR KMTC 081055Z 00000KT 6SM BR FEW040 FEW140 SCT240 23/23 A3002
      RMK SLP170=
####018001139####
SAXX70 KAWN 081100 RRD
METAR KQEX 081050Z AUTO 14004KT 3SM BR FEW039 SCT080 BKN140 26/20 A2974
      RMK A02=
METAR KQAD 081055Z AUTO VRB06KT 5000 HZ CLR 45/04 A2956 RMK AO2 SLP007
      T04520040 $=
METAR KQAQ 081055Z 30010G19KT 8000 HZ FU CLR 45/07 A2963 RMK SLP030
      PA +389 DA +3804=
METAR KQDD 081055Z AUTO VRB02KT 9999 CLR 32/10 A2983 RMK AO2 SLP101=
METAR KQGX 081055Z VRB03KT 9000 HZ FEW120 SCT200 44/18 A2950 RMK AO2A
      SLP988=
METAR KQHY 081055Z AUTO 01001KT 12SM CLR 23/22 A3005 RMK AO2 SLP177
      T02340220=
METAR KQL5 081055Z 09007KT 9999 FEW150 40/14 A2960 RMK AO2A SLP974
      WND DATA ESTMD ALSTG/SLP ESTMD=
METAR KQMG 081055Z AUTO 02007KT 12SM FEW043 SCT065 20/14 A3016 RMK
      AO2 SLP142 T02020140 $=
METAR KQRH 081055Z AUTO VRB05KT 9999 CLR 36/22 A2958 RMK AO2 SLP014=
METAR KQSA 081055Z VRB02KT 9999 SCT120 35/10 A2992 RMK SLP312 WND DATA
      ESTMD ALSTG/SLP ESTMD=
METAR KQTI 081055Z AUTO 25011G16KT 9999 CLR 44/01 A2967 RMK AO2 SLP020
      T04360009=
METAR KQVF 081055Z AUTO 19011G20KT 12SM FEW031 SCT080 27/20 A2999 RMK
      AO2 SLP154 P0002 T02690199=
####018001619####
SAEW KAWN 081100 RRB
METAR EBAW 081050Z 22007KT 180V280 CAVOK 28/12 Q1019 NOSIG=
METAR EBBR 081050Z 26006KT 210V330 CAVOK 29/11 Q1020 NOSIG=
METAR EBCI 081050Z VRB04KT CAVOK 29/10 Q1020 NOSIG=
METAR EBLG 081050Z VRB03KT CAVOK 28/09 Q1020 NOSIG=
METAR EBOS 081050Z 31008KT CAVOK 21/16 Q1020 NOSIG=
METAR EDAC 081050Z VRB03KT 200V200 CAVOK 26/11 Q1022=
METAR EDAH 081050Z VRB02KT CAVOK 24/09 Q1022=
METAR EDFH 081050Z 11006KT 060V170 CAVOK 27/11 Q1022=
METAR EDHL 081050Z 16007KT 120V200 CAVOK 28/13 Q1019=
METAR EDLN 081050Z 21005KT 140V280 CAVOK 30/11 Q1019=
METAR EDLP 081050Z VRB04KT CAVOK 29/11 Q1020=
METAR EDLW 081050Z 20006KT 140V250 CAVOK 30/09 Q1020=
METAR EDMA 081050Z 10006KT 020V160 CAVOK 24/09 Q1022=
METAR EDMO 081050Z 08005KT 330V120 CAVOK 24/08 Q1023=
METAR EDNY 081050Z 19006KT CAVOK 25/15 Q1022=
METAR EDOP 081050Z 20011KT 150V220 CAVOK 28/09 Q1020=
METAR EDQM 081050Z VRB04KT CAVOK 24/10 Q1023=
METAR EDSB 081050Z 35005KT 310V050 CAVOK 28/13 Q1020=
METAR EDTL 081050Z VRB03KT CAVOK 29/13 Q1020=
METAR EDVK 081050Z 21008KT 170V250 CAVOK 26/10 Q1021=
METAR EDXW 081050Z 22012KT CAVOK 23/12 Q1019=
METAR EGJJ 081050Z 32006KT 290V070 9999 FEW015 21/17 Q1019 NOSIG=
METAR EKCH 081050Z 17012KT CAVOK 22/14 Q1020 NOSIG=
METAR EKSB 081050Z 21007KT 170V230 CAVOK 25/13 Q1018=
METAR EKYT 081050Z 20009KT 160V220 9999 FEW025 BKN028 20/15 Q1018 NOSIG=
METAR ELLX 081050Z 18004KT 110V270 CAVOK 27/08 Q1021 NOSIG=
METAR ETEB 081055Z AUTO 00000KT 9999 CLR 25/10 A3021 RMK AO2 SLP214
      T02490097=
METAR ETUO 081050Z 19004KT CAVOK 30/10 Q1019 BLU NOSIG=
####018001732####
SAEU KAWN 081100 RRF
METAR COR EGCC 081050Z 24009KT 190V270 9999 SCT036 SCT048 19/10 Q1017
      NOSIG=
METAR COR EGLL 081050Z 25006KT 180V280 9999 BKN019 21/14 Q1019 NOSIG=
METAR ENAN 081050Z 31007KT 9999 FEW045 SCT200 16/09 Q1011 NOSIG=
METAR ENBR 081050Z 20012KT 9999 FEW025TCU FEW045 18/11 Q1013=
METAR ENDU 081050Z 07004KT 9999 VCSH FEW050 SCT060 21/07 Q1010 NOSIG=
METAR ENKR 081050Z 17005KT 9999 FEW012 BKN020 13/10 Q1018=
METAR ENOL 081050Z 36006KT 9999 FEW025TCU SCT090 18/11 Q1010 NOSIG=
METAR ENSB 081050Z 27010KT 9999 FEW010 SCT025 BKN035 09/05 Q1009 NOSIG=
METAR ENTO 081050Z 18010KT 9999 -DZ FEW004 BKN007 16/15 Q1016=
METAR ENVA 081046Z 29007KT 190V330 9999 TSRA SCT035CB SCT080 21/10
      Q1009=
METAR ENZV 081050Z 21011KT 180V250 9999 FEW020 SCT200 18/12 Q1014=
METAR ETIC 081056Z AUTO VRB03KT 9999 CLR 25/09 A3021 RMK AO2 SLP220
      T02460085 $=
METAR LIBR 081045Z /////KT 9999 FEW020 25/15 Q1017 NOSIGNOSIG=
METAR LICC 081050Z 12011KT 8000 FEW040 29/20 Q1018=
METAR LIEA 081050Z VRB03KT CAVOK 32/21 Q1019=
METAR LIEE 081045Z 16011KT 9999 FEW020 28/20 Q1019 NOSIG=
METAR LIEO 081050Z 04011KT 9999 FEW030 30/20 Q1020=
METAR LIMC 081050Z VRB03KT 9999 FEW035 26/15 Q1022 NOSIG=
METAR LIME 081050Z 16006KT 090V240 9999 SCT050 27/15 Q1022=
METAR LIML 081050Z 08006KT 050V150 9999 FEW030 28/16 Q1021 NOSIG=
METAR LIPB 081050Z 17011KT CAVOK 28/12 Q1021=
METAR LIPH 081045Z 16004KT 9999 SCT025 27/20 Q1023=
METAR LIPQ 081050Z VRB03KT CAVOK 26/15 Q1022=
METAR LIPX 081045Z 12003KT 9999 FEW040 29/13 Q1021=
METAR LIRF 081050Z 22011KT 180V250 CAVOK 29/18 Q1020 NOSIG=
METAR LIRN 081050Z 05012KT CAVOK 28/13 Q1019=
METAR LIRQ 081050Z VRB03KT CAVOK 30/13 Q1020=
####018001593####
SAXN17 KAWN 081100 RRA
METAR MGSJ 081100Z 00000KT 9999 SCT020 BKN090 23/23 Q1012 A2988=
METAR MMCE 081046Z 14008KT 6SM BKN050 27/25 A2979 RMK 8/400=
METAR MMCN 081052Z 00000KT 10SM FEW080 SCT200 26/20 A2973 RMK 8/036
      RTS=
METAR MMCZ 081045Z 09005KT 6SM BKN100 26/24 A2985 RMK 8/070 SC HZY=
METAR MMMD 081046Z 10006KT 6SM BKN070 19/19 A2985 RMK 8/070 HZY=
METAR MMMT 081045Z 24010KT 10SM BKN030 BKN050 OVC080 23/18 A2979 RMK
      8/57/=
METAR MMTG 081047Z 00000KT 3SM BCFG SCT004 BKN070 OVC300 23/23 A2991
      RMK 8/672 BCFG ARND ST OMTNS VRBL COND=
METAR MPTO 081100Z 00000KT 9999 SCT018 25/23 Q1010=
METAR MYGF 081100Z 05003KT 9999 FEW020TCU SCT150 24/23 A2996 RMK TCU
      S=
METAR NFFN 081100Z 14006KT 40KM FEW030 21/19 Q1014 NOSIG RMK RR NIL=
PACZ SA 1055 AWOS MM 10 50/48/0306/005=
METAR PAEI 081055Z AUTO 00000KT 10SM CLR 09/06 A3004 RMK AO2 SLP175
      T00900064 $=
PAIM SA 1055 AWOS CLR BLO 120 10 51/45/3105/008=
PALU SA 1055 AWOS CLR BLO 120 10 54/35/2011G17/ 010=
PATL SA 1055 AWOS CLR BLO 120 10 58/44/0207/999=
METAR PHHI 081055Z AUTO 30004KT 10SM FEW044 19/17 A3005 RMK AO2 SLP165
      T01850167=
METAR PHJR 081053Z 00000KT 10SM FEW045 22/18 A3004 RMK AO2 SLP179 T02220178=
METAR PTKK 081050Z VRB05KT 15SM FEW014 BKN120 OVC280 26/23 A2984 RMK
      SLP106 T02560232=
METAR RODN 081055Z AUTO 17011KT 9999 SCT017 BKN190 29/26 A2984 RMK
      AO2 CIG 017 RWY05 SLP105 T02880261=
METAR SVMG 081100Z 09010KT 9999 SCT010 SCT080 28/27 Q1012 NOSIG=
METAR TXKF 081055Z 15012KT 9999 FEW013 SCT180 BKN300 26/23 Q1019=
####018001589####
SANA14 KAWN 081100
METAR KEGI 081055Z AUTO 00000KT 2 1/2SM R18/2600VP6000FT BR CLR 21/21
      A3003 RMK AO2 SLP168 T02120209 $=
METAR KNHK 081052Z 09004KT 3SM BR FEW010 SCT110 26/24 A3000 RMK AO2
      SLP158 T02610239=
METAR KNZY 081052Z 31006KT 8SM -DZ FEW008 OVC016 18/14 A2989 RMK AO2
      DZB52 SLP120 P0000 T01830139 $=
METAR KOFF 081055Z AUTO 36003KT 10SM CLR 20/20 A3013 RMK AO2 SLP193
      T01950195 $=
METAR KOZR 081055Z 00000KT 3/4SM R06/0700V1200FT BR FEW002 22/22 A3002
      RMK AO2A SLP166 T02160216=
METAR KPOB 081055Z AUTO 00000KT 10SM CLR 23/20 A2995 RMK AO2 SLP142
      T02280203 $=
METAR KRDR 081055Z AUTO 24007KT 10SM CLR 14/13 A3005 RMK AO2 SLP184
      T01390128 $=
METAR KRIV 081055Z 29004KT 3SM BR OVC003 13/12 A2990 RMK AO2A SLP121
      T01300124=
METAR KRND 081055Z AUTO 06005KT 10SM BKN008 25/24 A2994 RMK AO2 SLP128
      T02470235=
METAR KSKF 081055Z 05008KT 9SM -RA SCT014 BKN021 25/ A2993 RMK AO2A
      RAB1051 BKN V SCT SLP123 P0000 T0254 $=
METAR KSSC 081055Z AUTO 30007KT 10SM CLR 25/19 A2996 RMK AO2 SLP143
      T02500190 $=
METAR KSUU 081055Z AUTO 24022G25KT 10SM BKN170 12/10 A2982 RMK AO2
      PK WND 24028/1010 SLP101 T01200101 RVRNO $=
METAR KTBN 081055Z AUTO 15003KT 9SM FEW020 BKN070 BKN085 23/ A3006
      RMK AO2 LTG DSNT W SLP162 T0225 $=
METAR KWRB 081055Z 00000KT 10SM CLR 20/20 A3002 RMK AO2A SLP163 T02030203=
METAR KWRI 081055Z AUTO 00000KT 1 1/4SM R18/5500VP6000FT BR SCT001
      24/24 A3001 RMK AO2 SLP162 T02360236 $=
METAR SBBR 081100Z 26002KT CAVOK 15/09 Q1024=
####018001537####
SAZZ40 KAWN 081100 RRC
METAR ETAD 081055Z AUTO 00000KT 9999 CLR 28/10 A3016 RMK AO2 SLP197
      T02760104 $=
METAR ETOU 081055Z AUTO VRB03KT 9999 CLR 27/11 A3016 RMK AO2 SLP208
      T02750106=
METAR KCBM 081055Z AUTO 34003KT 10SM CLR 24/23 A3007 RMK AO2 SLP180
      T02400227 $=
METAR KEND 081055Z AUTO 36006KT 10SM FEW090 BKN220 22/21 A3006 RMK
      AO2 SLP168 T02180213 $=
METAR KFTK 081055Z AUTO 00000KT 10SM CLR 23/21 A3007 RMK AO2 SLP176
      T02250208=
METAR KHST 081055Z AUTO 00000KT 10SM CLR 26/24 A2994 RMK AO2 LTG DSNT
      S RAE1012DZB1012E1014 SLP140 P0002 T02570243 $=
METAR KMUI 081055Z AUTO 00000KT 10SM CLR 23/20 A3003 RMK AO2 SLP167
      T02310195 $=
METAR KOFF 081055Z AUTO 36003KT 10SM CLR 20/20 A3013 RMK AO2 SLP193
      T01950195 $=
METAR KRND 081055Z AUTO 06005KT 10SM BKN008 25/24 A2994 RMK AO2 SLP128
      T02470235=
METAR KSKF 081055Z 05008KT 9SM -RA SCT014 BKN021 25/ A2993 RMK AO2A
      RAB1051 BKN V SCT SLP123 P0000 T0254 $=
METAR KWRB 081055Z 00000KT 10SM CLR 20/20 A3002 RMK AO2A SLP163 T02030203=
METAR MPTO 081100Z 00000KT 9999 SCT018 25/23 Q1010=
METAR PABI 081053Z AUTO 14003KT 10SM CLR 11/07 A3008 RMK AO2 SLP187
      T01060072 TSNO=
METAR PASC 081053Z 25011KT 10SM BKN024 BKN080 OVC210 11/07 A3002 RMK
      AO2 SLP167 T01060072=
METAR PHHI 081055Z AUTO 30004KT 10SM FEW044 19/17 A3005 RMK AO2 SLP165
      T01850167=
METAR RODN 081055Z AUTO 17011KT 9999 SCT017 BKN190 29/26 A2984 RMK
      AO2 CIG 017 RWY05 SLP105 T02880261=
####018001670####
SANA35 KAWN 081100
METAR KBAD 081055Z AUTO 11003KT 10SM CLR 23/23 A3004 RMK AO2 SLP171
      T02320226 $=
METAR KBOS 081054Z 17007KT 10SM CLR 22/19 A3009 RMK AO2 SLP189 T02220194=
METAR KBRO 081053Z 34003KT 10SM FEW016 26/25 A2977 RMK AO2 RAE0959
      SLP079 P0000 T02610250=
METAR KFLL 081053Z 07007KT 10SM FEW022 28/24 A2993 RMK AO2 SLP135 T02780244=
METAR KHST 081055Z AUTO 00000KT 10SM CLR 26/24 A2994 RMK AO2 LTG DSNT
      S RAE1012DZB1012E1014 SLP140 P0002 T02570243 $=
METAR KJFK 081051Z 13007KT 1/8SM R04R/1800V3500FT BR BKN002 BKN120
      24/23 A3004 RMK AO2 SFC VIS 1 1/2 SLP173 VIS SE-SW 1
      T02440228 $=
METAR KMCO 081053Z 35004KT 10SM MIFG FEW015 FEW250 22/21 A2999 RMK
      AO2 SLP155 T02170206=
METAR KNHK 081052Z 09004KT 3SM BR FEW010 SCT110 26/24 A3000 RMK AO2
      SLP158 T02610239=
METAR KOFF 081055Z AUTO 36003KT 10SM CLR 20/20 A3013 RMK AO2 SLP193
      T01950195 $=
METAR KPBI 081053Z 04005KT 10SM SCT023CB SCT150 BKN250 27/24 A2994
      RMK AO2 SLP137 CB NE-S MOV SW CB DSNT SE VCSH NE-E S T02720239=
METAR KPOB 081055Z AUTO 00000KT 10SM CLR 23/20 A2995 RMK AO2 SLP142
      T02280203 $=
METAR KSSC 081055Z AUTO 30007KT 10SM CLR 25/19 A2996 RMK AO2 SLP143
      T02500190 $=
METAR MMVR 081045Z 00000KT 7SM -RA SCT012CB OVC080 25/25 A2980 RMK
      60055 8/36/ INTMT -RA VRB COND=
METAR MYGF 081100Z 05003KT 9999 FEW020TCU SCT150 24/23 A2996 RMK TCU
      S=
METAR TIST 081053Z 08005KT 10SM CLR 28/24 A2999 RMK AO2 SLP157 T02830244=
METAR TISX 081053Z 08009KT 10SM FEW023 28/24 A2999 RMK AO2 SLP155 T02780239=
METAR TXKF 081055Z 15012KT 9999 FEW013 SCT180 BKN300 26/23 Q1019=
####018001686####
SAEU KAWN 081100 RRE
METAR ENAL 081050Z 28005KT 240V310 9999 VCSH BKN060 16/11 Q1009=
METAR ENAT 081050Z 07005KT 350V130 9999 FEW092 BKN180 22/08 Q1012=
METAR ENBL 081050Z 21012KT 9999 SCT040 SCT070 15/07 Q1011=
METAR ENBN 081050Z 35009KT CAVOK 17/10 Q1010=
METAR ENBS 081050Z 03006KT 9999 FEW020 SCT025 13/08 Q1017=
METAR ENCN 081050Z 21006KT 6000 OVC004 16/16 Q1016=
METAR ENEV 081050Z 20006KT 9999 FEW059 SCT084 19/09 Q1010=
METAR ENFL 081050Z 19015KT 9999 FEW020 SCT060 16/12 Q1010=
METAR ENGC 081050Z 19026KT CAVOK 13/11 Q1008=
METAR ENHD 081050Z 21013KT 9999 FEW020 SCT170 16/13 Q1014=
METAR ENHE 081050Z 19020KT CAVOK 15/11 Q1008=
METAR ENHF 081050Z 20009KT CAVOK 18/09 Q1012=
METAR ENHK 081050Z 09011KT 9999 FEW029 SCT058 BKN085 18/10 Q1012=
METAR ENKB 081050Z 19006KT 090V250 9999 FEW045 22/07 Q1009=
METAR ENLK 081050Z 22006KT 9999 FEW045 BKN080 17/10 Q1010=
METAR ENMH 081050Z 15008KT 9999 FEW015 17/09 Q1015=
METAR ENML 081050Z VRB02KT 9999 SCT060 21/09 Q1009=
METAR ENNA 081050Z 18014KT 9999 FEW045CB SCT070 20/09 Q1013=
METAR ENNK 081050Z 04004KT 9999 VCSH FEW040 BKN060 16/13 Q1010=
METAR ENNM 081050Z VRB02KT 9999 SCT045TCU 18/11 Q1009=
METAR ENOA 081050Z 19023KT CAVOK 13/11 Q1010=
METAR ENRA 081050Z VRB01KT 9999 SCT050TCU 22/09 Q1008=
METAR ENRO 081050Z 19011KT 150V240 9999 FEW030 SCT055 BKN120 18/07
      Q1011=
METAR ENRY 081050Z 17008KT 9999 BKN007 17/15 Q1016=
METAR ENTC 081050Z 31003KT 260V360 9999 FEW065 19/07 Q1011 NOSIG=
METAR ETAD 081055Z AUTO 00000KT 9999 CLR 28/10 A3016 RMK AO2 SLP197
      T02760104 $=
METAR ETOU 081055Z AUTO VRB03KT 9999 CLR 27/11 A3016 RMK AO2 SLP208
      T02750106=
####018000131####
SAUS44 KCRP 081056
MTRNGP
SPECI KNGP 081053Z 10012G16KT 4SM +RA BR FEW011 SCT015 BKN033 28/26 
A2982 RMK AO2 RAB49 P0008 $
####018000115####
SAUS45 KABQ 081056
MTRGNT
METAR KGNT 081053Z AUTO 15014KT 16/08 A3030 RMK AO2 SLP165 T01610083 
PWINO TSNO
####018000121####
SAUS44 KMOB 081056
MTRNSE
METAR KNSE 081056Z AUTO 00000KT 1/2SM FG VV004 22/21 A3003 RMK AO2 
SLP152 T02220206 $
####018001425####
SAUS17 KAWN 081100 RRA
METAR KBAB 081055Z AUTO 15005KT 10SM FEW180 16/11 A2982 RMK AO2 SLP099
      T01630109 $=
METAR KBKF 081055Z 20006KT 25SM BKN020 BKN040 13/13 A3032 RMK SLP224=
METAR KEND 081055Z AUTO 36006KT 10SM FEW090 BKN220 22/21 A3006 RMK
      AO2 SLP168 T02180213 $=
METAR KFSI 081055Z AUTO 05004KT 10SM CLR 23/22 A3004 RMK AO2 SLP158
      T02260218=
METAR KFTK 081055Z AUTO 00000KT 10SM CLR 23/21 A3007 RMK AO2 SLP176
      T02250208=
METAR KGSB 081055Z AUTO 03004KT 9SM SCT160 25/20 A2993 RMK AO2 SLP135
      T02530202 $=
METAR KHFF 081055Z AUTO 00000KT 10SM CLR 22/17 A2998 RMK AO2 SLP148
      T02210173 $=
METAR KHIF 081055Z AUTO 07008G21KT 020V100 10SM CLR 17/07 A3012 RMK
      AO2 SLP101 T01710069 $=
METAR KHST 081055Z AUTO 00000KT 10SM CLR 26/24 A2994 RMK AO2 LTG DSNT
      S RAE1012DZB1012E1014 SLP140 P0002 T02570243 $=
METAR KLHW 081055Z AUTO 25003KT 10SM CLR 21/20 A2999 RMK AO2 SLP157
      T02140199=
METAR KLSF 081055Z AUTO 00000KT 10SM CLR 21/20 A3002 RMK AO2 SLP165
      T02130204 $=
METAR KMCF 081055Z AUTO 07004KT 10SM CLR 22/22 A2999 RMK AO2 SLP156
      T02220221=
METAR KMUI 081055Z AUTO 00000KT 10SM CLR 23/20 A3003 RMK AO2 SLP167
      T02310195 $=
METAR KMUO 081055Z AUTO 09004KT 10SM CLR 14/01 A3007 RMK AO2 SLP159
      T01400008=
METAR KNFW 081052Z AUTO 00000KT 10SM FEW012 26/22 A3005 RMK AO2 SLP159
      T02610222=
####018001522####
SAZZ40 KAWN 081100 RRD
METAR BGCO 081050Z 02015KT 9999 SCT071 BKN220 07/02 Q1008=
METAR KBAB 081055Z AUTO 15005KT 10SM FEW180 16/11 A2982 RMK AO2 SLP099
      T01630109 $=
METAR KGSB 081055Z AUTO 03004KT 9SM SCT160 25/20 A2993 RMK AO2 SLP135
      T02530202 $=
METAR KLHW 081055Z AUTO 25003KT 10SM CLR 21/20 A2999 RMK AO2 SLP157
      T02140199=
METAR KLSF 081055Z AUTO 00000KT 10SM CLR 21/20 A3002 RMK AO2 SLP165
      T02130204 $=
METAR KMUO 081055Z AUTO 09004KT 10SM CLR 14/01 A3007 RMK AO2 SLP159
      T01400008=
METAR KNFW 081052Z AUTO 00000KT 10SM FEW012 26/22 A3005 RMK AO2 SLP159
      T02610222=
METAR KNKT 081054Z 04006KT 4SM BR CLR 26/24 A2993 RMK AO2 SLP132 T02610239=
METAR KNRB 081052Z 00000KT 10SM CLR 24/21 A3000 RMK AO2 SLP158 T02390211=
METAR KRIV 081055Z 29004KT 3SM BR OVC003 13/12 A2990 RMK AO2A SLP121
      T01300124=
METAR KSSC 081055Z AUTO 30007KT 10SM CLR 25/19 A2996 RMK AO2 SLP143
      T02500190 $=
METAR KTBN 081055Z AUTO 15003KT 9SM FEW020 BKN070 BKN085 23/ A3006
      RMK AO2 LTG DSNT W SLP162 T0225 $=
METAR KTCM 081055Z AUTO 00000KT 10SM CLR 13/11 A2995 RMK AO2 SLP143
      T01310114=
METAR KVAD 081055Z AUTO 00000KT 8SM CLR 21/20 A3002 RMK AO2 SLP166
      T02150198 $=
METAR KWRI 081055Z AUTO 00000KT 1 1/4SM R18/5500VP6000FT BR SCT001
      24/24 A3001 RMK AO2 SLP162 T02360236 $=
METAR LPLA 081100Z 15005KT 9999 -SHRA FEW008 SCT016 BKN028 20/18 Q1024=
METAR NFFN 081100Z 14006KT 40KM FEW030 21/19 Q1014 NOSIG RMK RR NIL=
####018000095####
SAAH39 OAHR 081055
METAR OAHR 081055Z 03010KT CAVOK 40/M02 Q1010 RMK SKC VIS MIN 9999 BLU=
####018002940####
SAUS20 KNKA 081056
METAR KLAX 081053Z 24003KT 10SM OVC012 16/12 A2990 RMK AO2 SLP123
     T01610122=
METAR K0A9 081055Z AUTO 00000KT 7SM FEW085 20/18 A3013 RMK=
METAR K4BM 081053Z AUTO 22004KT 1/4SM -RA 05/04 A3063 RMK AO2=
METAR K5SM 081053Z AUTO 13003KT 10SM CLR 08/00 A3055 RMK AO2=
METAR K7BM 081056Z AUTO 00000KT 10SM SCT100 08/05 A3055 RMK AO2=
METAR KABI 081052Z 01005KT 7SM SCT002 BKN010 22/21 A3006 RMK AO2
     SLP157 T02170211 $=
METAR KADS 081050Z 14005KT 10SM OVC012 26/23 A3002=
METAR KBBG 081055Z AUTO 00000KT 8SM CLR 22/22 A3008 RMK AO2 =
METAR KBBP 081055Z AUTO 00000KT 10SM CLR 23/19 A2995 RMK AO2=
METAR KBDU 081057Z AUTO 28005KT 10SM CLR 13/12 A3032 RMK AO2=
METAR KBJC 081057Z AUTO 35006KT 3SM BR BKN001 BKN006 12/12 A3034
     RMK AO2=
METAR KBKN 081055Z AUTO 02006KT 10SM CLR 22/21 A3004 RMK AO2 =
METAR KBMI 081056Z 00000KT 3SM BR SCT090 23/22 A3006 RMK AO2 
    T02270222 SLP163 $=
METAR KBOK 081056Z AUTO 00000KT 1 3/4SM BR OVC002 09/09 A2997 RMK 
    AO2 T00880088 SLP150 $=
METAR KBTV 081054Z 00000KT 5SM HZ CLR 24/22 A3002 RMK AO2 SLP162
     T02440217=
METAR KC29 081055Z AUTO 29003KT 10SM OVC012 21/20 A3003 RMK AO2 
     T02120196=
METAR KCCU 081056Z AUTO 17022KT 10SM SCT003 05/02 A3062 RMK AO2=
METAR KCHA 081053Z 00000KT 10SM CLR 22/19 A3007 RMK AO2 SLP174
     T02170189=
METAR KCIC 081055Z AUTO 14004KT 10SM CLR 21/13 A2983 RMK AO1 =
METAR KCMR 081055Z AUTO 15006KT 10SM FEW120 17/02 A3025 RMK AO1 =
METAR KCNK 081055Z AUTO 01009KT 10SM SCT031 19/18 A3015 RMK AO2 
    SLP199 T01940183=
METAR KDLH 081055Z 29004KT 10SM CLR 15/13 A3005 RMK AO2 SLP176 
    T01500133=
METAR KDLL 081054Z AUTO 00000KT 3SM BR OVC002 21/21 A3003 RMK AO2=
METAR KEAT 081055Z AUTO 28008KT 10SM CLR 18/06 A3004 RMK AO2 SLP162 
    T01780061=
METAR KGGE 081055Z AUTO 28005KT 10SM CLR 23/21 A2994 RMK AO2=
METAR KGPI 081055Z AUTO 27003KT 10SM CLR 07/06 A3018 RMK AO2 SLP211 
    T00720061=
METAR KHVS 081055Z AUTO 00000KT 10SM CLR 23/19 A2998 RMK AO2=
METAR KIRK 081055Z AUTO 32003KT 9SM CLR 19/19 A3007 RMK AO2 SLP180 
    T01940189=
METAR KL35 081054Z AUTO 00000KT 10SM CLR 06/M05 A3017 RMK AO2=
METAR KLIC 081055Z AUTO 15004KT 6SM BR BKN005 OVC120 13/13 A3033 RMK 
    AO2 SLP216 T01330133=
METAR KLLJ 081055Z AUTO 00000KT 10SM FEW090 09/00 A3026 RMK AO2 
    SLP195 T00890000=
METAR KLND 081053Z AUTO 26007KT 10SM CLR 10/03 A3033 RMK AO2
     SLP226 T01000028=
METAR KLXV 081053Z AUTO 18006KT 10SM CLR 06/05 A3051 RMK AO2
     SLP212 T00560050 TSNO=
METAR KMKG 081055Z 00000KT 4SM BR FEW075 BKN100 23/22 A3002 RMK AO2 
    RAE47 SLP162 P0000 T02330217 $=
METAR KMSN 081053Z 00000KT 9SM FEW006 OVC015 21/20 A3002 RMK AO2
     SLP159 T02110200=
METAR KMWT 081053Z AUTO 00000KT 10SM CLR 23/22 A3005 RMK AO2
     SLP163 T02280222 TSNO=
METAR KMYP 080956Z AUTO 06006KT M1/4SM -SN OVC001 03/02 A3075 RMK
     AO2=
####018001218####
SAUS20 KNKA 081056
METAR KNQA 081055Z COR 00000KT 10SM FEW250 23/23 A3008 RMK=
METAR KOWB 081056Z 15003KT 10SM FEW090 25/23 A3006 RMK AO2 T02500227 
    SLP174=
METAR KRCE 081055Z AUTO 01004KT 1/2SM FG OVC002 22/22 A3007 RMK AO2
      =
METAR KRIL 081053Z AUTO 00000KT 10SM CLR 12/07 A3025 RMK AO2
     SLP177 T01220072 TSNO=
METAR KRNO 081055Z 00000KT 10SM FEW150 21/04 A3004 RMK AO2 SLP112 
    T02110044=
METAR KSAV 081053Z 22003KT 10SM FEW250 21/19 A3000 RMK AO2 SLP156
     T02110194=
METAR KSBN 081054Z 00000KT 6SM BR CLR 23/21 A3004 RMK AO2 SLP166
     T02330211=
METAR KSCK 081055Z AUTO 02003KT 10SM CLR 13/11 A2984 RMK AO2 SLP105 
    T01330111=
METAR KSGR 081053Z 05006KT 10SM FEW055 26/24 A2990 RMK AO2 SLP134
     T02610239=
METAR KSMS 081055Z AUTO 35003KT 9SM CLR 23/19 A2998 RMK AO2 =
METAR KSRR 081055Z AUTO 00000KT 10SM BKN110 13/12 A3035 RMK AO2 =
METAR KTLH 081053Z 00000KT 10SM BCFG CLR 22/21 A3002 RMK AO2
     SLP165 T02170206=
METAR KUCP 081056Z AUTO 00000KT 2SM BR CLR 19/19 A3011 RMK AO2 
    T01880188 SLP201 $=
METAR KVTP 081100Z AUTO 07005KT 1/4SM OVC001 05/05 A3055 RMK AO2=
METAR KWYS 081050Z AUTO 20004KT 10SM CLR M01/M02 A3037 RMK AO2=
####018000200####
SAAK41 KNKA 081056
METAR PAHN 081054Z AUTO 08003KT 10SM CLR 11/10 A3019 RMK AO2 SLP224 
    T01110100 TSNO=
METAR PAKN 081054Z 34004KT 10SM OVC065 10/09 A2991 RMK AO2 SLP127 
    T01000089=
####018000113####
SAUS43 KFSD 081056
MTRHON
METAR KHON 081055Z AUTO 23003KT 10SM CLR 16/13 A3014 RMK AO2 SLP202 
T01560133
####018000113####
SAUS43 KLOT 081056
MTRRFD
METAR KRFD 081054Z 27005KT 6SM BR OVC006 22/21 A3004 RMK AO2 SLP169 
T02220211
####018000119####
SAUS45 KREV 081056
MTRDRA
METAR KDRA 081055Z AUTO 04007KT 10SM CLR 21/M11 A2993 RMK AO2 SLP083 
T02111106 TSNO
####018000133####
SAUS45 KABQ 081056
MTRCAO
METAR KCAO 081055Z AUTO 01007KT 10SM OVC100 16/13 A3031 RMK AO2 
RAE14 SLP200 P0000 T01560133 TSNO
####018000118####
SAUS41 KOKX 081056 COR
MTRMTP
METAR KMTP 081054Z AUTO 00000KT /20 A3008 RMK AO2 SLP186 T02110200 
PWINO TSNO
####018000116####
SAUS43 KDLH 081056
MTRINL
METAR KINL 081055Z AUTO 22005KT 10SM FEW090 13/12 A3000 RMK AO2 
SLP160 T01280122
####018001600####
SAZZ40 KAWN 081100 RRE
METAR BGTL 081055Z AUTO 00000KT 9999 OVC002 04/04 A2984 RMK AO2 SLP108
      T00430042=
METAR ETAR 081055Z AUTO 00000KT 9999 CLR 29/14 A3014 RMK AO2 SLP198
      T02880141 $=
METAR KBKF 081055Z 20006KT 25SM BKN020 BKN040 13/13 A3032 RMK SLP224=
METAR KFSI 081055Z AUTO 05004KT 10SM CLR 23/22 A3004 RMK AO2 SLP158
      T02260218=
METAR KGTB 081055Z AUTO 18003KT 10SM CLR 24/21 A3004 RMK AO2 SLP171
      T02390206=
METAR KHIF 081055Z AUTO 07008G21KT 020V100 10SM CLR 17/07 A3012 RMK
      AO2 SLP101 T01710069 $=
METAR KLFI 081055Z 10006KT 10SM FEW011 SCT090 26/22 A2998 RMK AO2A
      SLP152 T02570223 $=
METAR KMCF 081055Z AUTO 07004KT 10SM CLR 22/22 A2999 RMK AO2 SLP156
      T02220221=
METAR KMXF 081055Z AUTO 00000KT 7SM CLR 25/24 A3002 RMK AO2 SLP165
      T02460238=
METAR KNIP 081053Z 25003KT 10SM CLR 22/21 A3001 RMK AO2 SLP158 T02220206=
METAR KNQX 081053Z 06004KT 10SM SCT022 SCT080 BKN200 28/25 A2993 RMK
      AO2 SLP135 T2 SET T02830250 $=
METAR KSLI 081055Z AUTO 29003KT 10SM OVC015 17/14 A2989 RMK AO2 SLP125
      T01670137=
METAR KTIK 081055Z AUTO 03006KT 10SM FEW008 BKN011 BKN031 23/22 A3005
      RMK AO2 SLP163 T02330225 $=
METAR KVOK 081055Z 27006KT 10SM CLR 18/18 A3003 RMK AO2A SLP166 T01790179=
METAR ORSU 081100Z 25009KT 8000 SKC 42/M03 Q1009=
METAR PAED 081055Z AUTO 00000KT 10SM FEW090 11/10 A2998 RMK AO2 CLDS
      LWR RWY24 SLP154 T01120098 $=
METAR PGUA 081055Z AUTO 09016G22KT 10SM BKN019 BKN025 27/ A2991 RMK
      AO2 RAB1032E1041 CIG 017V024 SLP109 P0000 T0271 VISNO RWY24L $=
####018000072####
SALY31 HLLM 081100
METAR HLLM 081050Z 31007KT 6000 SKC 27/20 Q1020=
####018000115####
SAUS46 KSEW 081056
MTRAST
METAR KAST 081055Z AUTO 00000KT 7SM OVC003 12/11 A2995 RMK AO2 
SLP140 T01220106
####018000111####
SAUS45 KSLC 081056
MTRNKX
METAR KNKX 081055Z 33003KT 10SM OVC014 16/13 A2989 RMK AO2 SLP118 
T01610133
####018000114####
SAUS44 KLIX 081056
MTRNBG
METAR KNBG 081055Z AUTO 05003KT 6SM HZ CLR A3002 RMK AO2 SLP166 
PWINO FZRANO $
####018000123####
SAUS46 KLOX 081056
MTRVBG
METAR KVBG 081055Z AUTO 34003KT 10SM OVC004 12/11 A2993 RMK AO2 
SLP125 T01220111 TSNO $
####018000116####
SAUS44 KSHV 081056
MTRPOE
METAR KPOE 081055Z AUTO 07005KT 10SM FEW015 24/23 A3001 RMK AO2 
SLP164 T02390228
####018003734####
SAUS99 KWBC 081057 RRA
METAR
KHYI 081055Z AUTO 04006KT 8SM SCT011 BKN016 OVC022 25/24 A2995 RMK
     AO1=
KILE 081055Z 10008KT 10SM SCT011 SCT018 OVC026 24/22 A2997 RMK
     AO1=
KJST 081054Z AUTO 24004KT 4SM HZ CLR 19/16 A3015 RMK AO2 SLP191
     T01940161=
KMLB 081053Z 00000KT 9SM CLR 21/21 A2998 RMK AO2 SLP151
     T02060206=
KOCH 081055Z AUTO 09006KT 10SM CLR 24/19 A3002 RMK AO1=
KPHL 081054Z 12004KT 3SM BR FEW150 25/23 A3003 RMK AO2 SLP168
     T02500228 $=
KPRX 081055Z 11005KT 5SM SCT004 OVC013 24/22 A3004 RMK AO1=
KPVD 081051Z 13005KT 5SM BR BKN004 OVC009 22/21 A3010 RMK SLP191
     T02220206=
KPWG 081055Z AUTO 10005KT 10SM FEW013 OVC120 25/22 A2999 RMK
     AO1=
KSAW 081050Z 00000KT 1 1/4SM BR BKN001 18/17 A2998=
KSPS 081052Z COR 10004KT 10SM FEW015 FEW033 SCT150 23/22 A3003 RMK
     AO2 SLP154 T02280217=
KTPL 081055Z 08004KT 10SM OVC006 24/23 A2999 RMK AO1=
KNQA 081055Z COR 00000KT 10SM FEW250 23/23 A3008 RMK=
KOWB 081056Z 15003KT 10SM FEW090 25/23 A3006 RMK AO2 T02500227
     SLP174=
KRCE 081055Z AUTO 01004KT 1/2SM FG OVC002 22/22 A3007 RMK AO2=
KRIL 081053Z AUTO 00000KT 10SM CLR 12/07 A3025 RMK AO2 SLP177
     T01220072 TSNO=
KRNO 081055Z 00000KT 10SM FEW150 21/04 A3004 RMK AO2 SLP112
     T02110044=
KSAV 081053Z 22003KT 10SM FEW250 21/19 A3000 RMK AO2 SLP156
     T02110194=
KSBN 081054Z 00000KT 6SM BR CLR 23/21 A3004 RMK AO2 SLP166
     T02330211=
KSCK 081055Z AUTO 02003KT 10SM CLR 13/11 A2984 RMK AO2 SLP105
     T01330111=
KSGR 081053Z 05006KT 10SM FEW055 26/24 A2990 RMK AO2 SLP134
     T02610239=
KSMS 081055Z AUTO 35003KT 9SM CLR 23/19 A2998 RMK AO2=
KSRR 081055Z AUTO 00000KT 10SM BKN110 13/12 A3035 RMK AO2=
KTLH 081053Z 00000KT 10SM BCFG CLR 22/21 A3002 RMK AO2 SLP165
     T02170206=
KUCP 081056Z AUTO 00000KT 2SM BR CLR 19/19 A3011 RMK AO2 T01880188
     SLP201 $=
KVTP 081100Z AUTO 07005KT 1/4SM OVC001 05/05 A3055 RMK AO2=
KWYS 081050Z AUTO 20004KT 10SM CLR M01/M02 A3037 RMK AO2=
KLAX 081053Z 24003KT 10SM OVC012 16/12 A2990 RMK AO2 SLP123
     T01610122=
K0A9 081055Z AUTO 00000KT 7SM FEW085 20/18 A3013 RMK=
K4BM 081053Z AUTO 22004KT 1/4SM -RA 05/04 A3063 RMK AO2=
K5SM 081053Z AUTO 13003KT 10SM CLR 08/00 A3055 RMK AO2=
K7BM 081056Z AUTO 00000KT 10SM SCT100 08/05 A3055 RMK AO2=
KABI 081052Z 01005KT 7SM SCT002 BKN010 22/21 A3006 RMK AO2 SLP157
     T02170211 $=
KADS 081050Z 14005KT 10SM OVC012 26/23 A3002=
KBBG 081055Z AUTO 00000KT 8SM CLR 22/22 A3008 RMK AO2=
KBBP 081055Z AUTO 00000KT 10SM CLR 23/19 A2995 RMK AO2=
KBDU 081057Z AUTO 28005KT 10SM CLR 13/12 A3032 RMK AO2=
KBJC 081057Z AUTO 35006KT 3SM BR BKN001 BKN006 12/12 A3034 RMK
     AO2=
KBKN 081055Z AUTO 02006KT 10SM CLR 22/21 A3004 RMK AO2=
KBMI 081056Z 00000KT 3SM BR SCT090 23/22 A3006 RMK AO2 T02270222
     SLP163 $=
KBOK 081056Z AUTO 00000KT 1 3/4SM BR OVC002 09/09 A2997 RMK AO2
     T00880088 SLP150 $=
KBTV 081054Z 00000KT 5SM HZ CLR 24/22 A3002 RMK AO2 SLP162
     T02440217=
KC29 081055Z AUTO 29003KT 10SM OVC012 21/20 A3003 RMK AO2
     T02120196=
KCCU 081056Z AUTO 17022KT 10SM SCT003 05/02 A3062 RMK AO2=
KCHA 081053Z 00000KT 10SM CLR 22/19 A3007 RMK AO2 SLP174
     T02170189=
KCIC 081055Z AUTO 14004KT 10SM CLR 21/13 A2983 RMK AO1=
KCMR 081055Z AUTO 15006KT 10SM FEW120 17/02 A3025 RMK AO1=
KCNK 081055Z AUTO 01009KT 10SM SCT031 19/18 A3015 RMK AO2 SLP199
     T01940183=
KDLH 081055Z 29004KT 10SM CLR 15/13 A3005 RMK AO2 SLP176
     T01500133=
KDLL 081054Z AUTO 00000KT 3SM BR OVC002 21/21 A3003 RMK AO2=
KEAT 081055Z AUTO 28008KT 10SM CLR 18/06 A3004 RMK AO2 SLP162
     T01780061=
KGGE 081055Z AUTO 28005KT 10SM CLR 23/21 A2994 RMK AO2=
####018003730####
SAUS99 KWBC 081057
METAR
KPQN 081053Z AUTO 33007KT 10SM CLR 17/14 A3017 RMK AO2=
KFGN 081054Z AUTO 27008KT 1/4SM -DZ VV002 16/13 A2998 RMK AO2=
KPNM 081053Z AUTO 00000KT 1/2SM FG VV005 13/12 A3009 RMK AO2 VIS
     M1/4V4=
KPWC 081053Z AUTO 00000KT 7SM SCT001 09/09 A3009 RMK AO2=
KFFM 081053Z AUTO 23003KT 10SM CLR 15/14 A3009 RMK AO2=
KGDB 081052Z AUTO 22005KT 10SM CLR 13/13 A3015 RMK AO2
     T01320126=
KAIT 081053Z AUTO 00000KT 1/2SM FG VV005 12/11 A3007 RMK AO2=
KGHW 081053Z AUTO 26004KT 10SM CLR 15/13 A3014 RMK AO2=
KMWM 081053Z AUTO 00000KT 7SM CLR 13/13 A3014 RMK AO2=
KULM 081054Z AUTO 00000KT 7SM CLR 14/12 A3012 RMK AO2=
KBBB 081053Z AUTO 00000KT 1 1/2SM BR VV007 14/13 A3012 RMK AO2 VIS
     1/4V5=
KTWM 081053Z AUTO 30004KT 10SM CLR 16/13 A3002 RMK AO2=
KMGG 081055Z AUTO 27004KT 10SM CLR 16/15 A3011 RMK AO2
     T01580147=
KMOX 081050Z AUTO 27004KT 10SM CLR 15/14 A3008 RMK AO2=
KTEW 081052Z AUTO 15003KT 5SM BR CLR 21/19 A3005 RMK AO2=
KCVH 081050Z AUTO 00000KT 9SM OVC008 13/11 A2992 RMK AO1=
KDYT 081054Z AUTO 19007KT 10SM CLR 17/15 A3005 RMK AO2=
KFSO 081058Z AUTO 00000KT 5SM BR BKN065 24/23 A3001 RMK AO2=
KFBL 081054Z AUTO 29004KT 10SM CLR 16/15 A3011 RMK AO2=
KLYV 081058Z AUTO 00000KT 10SM CLR 13/12 A3017 RMK AO2=
KEFK 081055Z AUTO 22004KT 4SM BR CLR 21/20 A3007 RMK AO2=
KRRT 081054Z AUTO 23006KT 10SM CLR 13/11 A3001 RMK AO2=
KTOB 081054Z AUTO 00000KT 10SM CLR 17/16 A3010 RMK AO2=
KLXL 081054Z AUTO 00000KT 3/4SM BR VV005 12/12 A3008 RMK AO2=
KEVM 081052Z AUTO 00000KT 10SM CLR 15/13 A3002 RMK AO1=
KELO 081053Z AUTO 21004KT 10SM CLR 13/13 A3002 RMK AO2=
KANE 081055Z AUTO 00000KT 10SM 17/16 A3009 RMK AO2=
KROX 081054Z AUTO 24005KT 10SM CLR 14/12 A3001 RMK AO2=
KSYN 081110Z AUTO 00000KT 10SM CLR 17/16 A3009 RMK AO2
     T01700158=
KVVV 081056Z AUTO 29004KT 10SM CLR 17/14 A3012 RMK AO2=
KROS 081055Z AUTO 00000KT 10SM CLR 15/14 A3008 RMK AO2
     T01460140=
KHCD 081052Z AUTO 25003KT 5SM BR CLR 14/13 A3012 RMK AO2
     T01370129=
KSGS 081053Z AUTO 00000KT 10SM CLR 18/16 A3009 RMK AO2
     T01810162=
KMJQ 081052Z AUTO 29003KT 4SM BR CLR 14/13 A3015 RMK AO2=
KHCO 081054Z AUTO 19003KT 10SM BKN100 12/12 A3005 RMK AO2=
KLVN 081049Z AUTO 27005KT 10SM CLR 16/16 A3009 RMK AO2=
KPEX 081053Z AUTO 25004KT 5SM BR CLR 13/12 A3011 RMK AO2
     T01250124=
KJMR 081058Z AUTO 00000KT 10SM CLR 15/13 A3009 RMK AO2=
KJKJ 081054Z AUTO 27003KT 10SM CLR 16/14 A3007 RMK AO2=
KMVE 081054Z AUTO 29003KT 10SM CLR 16/14 A3011 RMK AO2=
KTKC 081053Z AUTO 26006KT 10SM CLR 16/13 A3015 RMK AO2
     T01550127=
KGYL 081054Z AUTO 24003KT 10SM CLR 14/14 A3011 RMK AO2
     T01440136=
KDXX 081054Z AUTO 00000KT 10SM CLR 14/14 A3012 RMK AO2=
KHZX 081051Z AUTO 00000KT 10SM CLR 13/13 A3007 RMK AO2=
KSAZ 081054Z AUTO 25006KT 10SM CLR 16/16 A3009 RMK AO2=
KONA 081051Z AUTO 31004KT 10SM CLR 20/17 A3004 RMK AO2=
KOVL 081054Z AUTO 00000KT 7SM CLR 13/12 A3012 RMK AO2
     T01320118=
KLJF 081053Z AUTO 25003KT 10SM CLR 17/16 A3012 RMK AO2=
KAEL 081051Z AUTO 00000KT 5SM BR CLR 17/17 A3010 RMK AO2=
K29G 081054Z AUTO 00000KT 4SM CLR 20/19 A3010 RMK AO2 T01960185
     PWINO=
KMRT 081053Z AUTO 00000KT 2 1/2SM CLR 20/19 A3012 RMK AO2
     T02040190=
KIKW 081053Z AUTO 00000KT 10SM -DZ SCT050 SCT065 OVC080 23/21
     A3002 RMK AO2 T02310211=
KMDS 081045Z AUTO 29004KT 10SM CLR 14/14 A3017 RMK AO2=
KAAF 081053Z AUTO 01006KT 9SM CLR 24/23 A3001 RMK AO2 SLP161
     T02390228=
KESN 081050Z 11004KT 1SM BR BKN003 23/23 A3004=
KGED 081054Z AUTO 10005KT 5SM BR CLR 24/23 A3002 RMK AO2 SLP165
     T02440228=
KGTU 081055Z 07004KT 10SM FEW008 SCT027 OVC045 24/22 A3001 RMK
     AO1=
####018001178####
SAUS99 KWBC 081057 RRB
METAR
KGPI 081055Z AUTO 27003KT 10SM CLR 07/06 A3018 RMK AO2 SLP211
     T00720061=
KHVS 081055Z AUTO 00000KT 10SM CLR 23/19 A2998 RMK AO2=
KIRK 081055Z AUTO 32003KT 9SM CLR 19/19 A3007 RMK AO2 SLP180
     T01940189=
KL35 081054Z AUTO 00000KT 10SM CLR 06/M05 A3017 RMK AO2=
KLIC 081055Z AUTO 15004KT 6SM BR BKN005 OVC120 13/13 A3033 RMK AO2
     SLP216 T01330133=
KLLJ 081055Z AUTO 00000KT 10SM FEW090 09/00 A3026 RMK AO2 SLP195
     T00890000=
KLND 081053Z AUTO 26007KT 10SM CLR 10/03 A3033 RMK AO2 SLP226
     T01000028=
KLXV 081053Z AUTO 18006KT 10SM CLR 06/05 A3051 RMK AO2 SLP212
     T00560050 TSNO=
KMKG 081055Z 00000KT 4SM BR FEW075 BKN100 23/22 A3002 RMK AO2
     RAE47 SLP162 P0000 T02330217 $=
KMSN 081053Z 00000KT 9SM FEW006 OVC015 21/20 A3002 RMK AO2 SLP159
     T02110200=
KMWT 081053Z AUTO 00000KT 10SM CLR 23/22 A3005 RMK AO2 SLP163
     T02280222 TSNO=
KMYP 080956Z AUTO 06006KT M1/4SM -SN OVC001 03/02 A3075 RMK
     AO2=
PAHN 081054Z AUTO 08003KT 10SM CLR 11/10 A3019 RMK AO2 SLP224
     T01110100 TSNO=
PAKN 081054Z 34004KT 10SM OVC065 10/09 A2991 RMK AO2 SLP127
     T01000089=
####018000091####
SAPR01 SPIM 081100
METAR
SPIM 081100Z 16002KT 6000 OVC022 16/13 Q1013 NOSIG RMK PP000=
####018000123####
SAMX55 MMMY 081100
METAR MMNL 081056Z 00000KT 8SM  SCT010 OVC022 28/24 A2988 
      RMK 8/5// RTS=





TX OPMET V1
####018000458####
SAUK39 EGRR 081050
METAR EGDL 081050Z 23007KT 9999 FEW022 BKN250 19/11 Q1019 BLU NOSIG=
METAR EGOM 081050Z 24016KT 9999 FEW022 SCT050 16/10 Q1014 BLU=
METAR EGQK 081050Z 23021G32KT 9999 FEW025 SCT050 18/07 Q1009 BLU
 NOSIG=
METAR EGUW 081050Z 24007KT 9999 FEW024 BKN130 BKN250 21/14 Q1018 BLU
 NOSIG=
METAR EGVO 080150Z 25002KT 9999 FEW007 BKN015 19/16 Q1019 WHT BECMG
 BKN025 BLU=
METAR EGWC 081050Z 21008KT 9999 BKN025 18/10 Q1018 BLU=
####018000270####
SAZA42 FAJS 081100
METAR FAVV 081100Z AUTO 06011KT //// // ////// 16/03 Q1031=
METAR FAJB 081100Z AUTO 04004KT //// // ////// 17/04 Q1033=
METAR FASI 081100Z AUTO 05005KT //// // ////// 16/M01 Q1033=
METAR FAGC 081100Z AUTO 04008KT //// // ////// 15/03 Q1034=
####018000120####
SAUS43 KUNR 081057
MTRPHP
METAR KPHP 081055Z AUTO 26010KT 10SM CLR 12/09 A3021 RMK AO2 SLP217 
T01220094 TSNO $
####018000118####
SAUS46 KSGX 081056
MTRNJK
METAR KNJK 081056Z AUTO 13005KT 10SM CLR 23/12 A2969 RMK AO2 SLP070 
T02280122 TSNO
####018000153####
SAUS43 KAPX 081057
MTRANJ
METAR KANJ 081055Z AUTO 17003KT 4SM -RA BR BKN006 OVC012 20/19 A2995 
RMK AO2 RAB28 CIG 004V010 SLP136 P0000 T02000194
####018000110####
SAUS41 KAKQ 081057
MTRNGU
SPECI KNGU 081055Z 09006KT 5SM BR FEW008 SCT070 BKN120 26/23 A2999 
RMK AO2
####018000107####
SAUS42 KCHS 081056
MTRCHS
METAR KCHS 081056Z 27005KT 8SM CLR 24/19 A2997 RMK AO2 SLP147 
T02390194
####018000082####
SPUS41 KWBC 081057
SPECI
KCEF 081053Z AUTO 16005KT 10SM FEW010 24/22 A3006=
####018000088####
SAUS41 KWBC 081000 RRI
METAR
KMMU 081045Z 00000KT 4SM HZ BCFG FEW250 22/21 A3004=
####018000072####
SACA01 KMSC 081056
METAR TJBQ 081050Z 11004KT 10SM SKC 25/25 A3000=
####018000107####
SAUS42 KJAX 081057
MTRJAX
METAR KJAX 081056Z 25003KT 8SM CLR 20/19 A3000 RMK AO2 SLP158 
T02000189
####018000778####
SACN60 CWAO 081000 RRE
PET SA 1000 AUTO8 M M M M/08/08/MMMM/M/ M 17MM=
PFM SA 1000 AUTO8 M M M M/07/06/MMMM/M/ M 31MM=
PHU SA 1000 AUTO8 M M M M/11/10/MMMM/M/ M 56MM=
PIA SA 1000 AUTO8 M M M M/11/09/MMMM/M/ M 23MM=
PKA SA 1000 AUTO8 M M M M/11/10/MMMM/M/ M 66MM=
PKI SA 1000 AUTO8 M M M M/13/11/MMMM/M/ M 04MM=
PLA SA 1000 AUTO8 M M M M/07/06/MMMM/M/ M 90MM=
PMA SA 1000 AUTO8 M M M M/14/11/MMMM/M/ M 24MM=
PMB SA 1000 AUTO8 M M M M/06/06/MMMM/M/ M 05MM=
PML SA 1000 AUTO8 M M M M/13/11/MMMM/M/ M 65MM=
PMN SA 1000 AUTO8 M M M M/13/11/MMMM/M/ M 14MM=
PPL SA 1000 AUTO8 M M M M/10/09/MMMM/M/ M 76MM=
PRH SA 1000 AUTO8 M M M M/08/08/MMMM/M/ M 27MM=
PRS SA 1000 AUTO8 M M M M/11/10/MMMM/M/ M 69MM=
PSA SA 1000 AUTO8 M M M M/09/08/MMMM/M/ M 69MM=

####018000083####
SACN92 CWAO 081000 RRF
WJN SA 1000 AUTO8 M M M 172/04/03/3108/M/ 0004 66MM=

####018000108####
SACN89 CWAO 081000 RRH
WCI SA 1000 AUTO8 M M M 146/16/15/3603/M/0138 PCPN 0.8MM PAST HR
5004 74MM=

####018000139####
SACN96 CWAO 081000 RRG
WYW SA 1000 AUTO8 M M M 144/12/11/2103/M/ 6007 84MM=
XEL SA 1000 AUTO8 M M M 130/15/12/3210/M/M 6004 40MM=

####018000104####
SACN93 CWAO 081000 RRF
WND SA 1000 AUTO8 M M M 151/05/03/3018/M/M PK WND 3123 0914Z 1007
67MM=

####018000083####
SACN90 CWAO 081000 RRF
WFZ SA 1000 AUTO8 M M M 131/08/07/2903/M/ 3003 58MM=

####018000632####
SACN59 CWAO 081000 RRI
PAA SA 1000 AUTO8 M M M M/13/10/2406/M/ M 53MM=
PBA SA 1000 AUTO8 M M M M/10/09/MMMM/M/ M 15MM=
PBE SA 1000 AUTO8 M M M M/09/08/1102/M/ M 93MM=
PBS SA 1000 AUTO8 M M M M/09/08/2903/M/0004 M 03MM=
PBT SA 1000 AUTO8 M M M M/09/08/2308/M/ M 67MM=
PCA SA 1000 AUTO8 M M M M/12/11/2408/M/ M 29MM=
PEH SA 1000 AUTO8 M M M M/11/10/2804/M/ M 77MM=
PGE SA 1000 AUTO8 M M M M/12/11/2103/M/ M 02MM=
PIR SA 1000 AUTO8 M M M M/13/11/2807/M/ M 07MM=
PQL SA 1000 AUTO8 M M M M/11/10/2306/M/ M 70MM=
PRA SA 1000 AUTO8 M M M M/11/10/MMMM/M/ M 33MM=
PXL SA 1000 AUTO8 M M M M/10/10/1602/M/ M 15MM=

####018000678####
SARS32 RUMS 081030 CCA
METAR URRR     1-9   T 1200 
1800  08.07.10. . :  100 T 200 T 300 T 400 T 500 T
250/030 +29 250/030 +28 250/030 +27 250/030 +26 250/030 +25 1000 
1500  2000  3000  250/030 +20 250/030 +15 250/030 +10 250/040
+05  25005 - +28  3000      10/15  
600/300   11000/600  /  11000/3500 
/  11000/600     1500/0  3500  2
 759  1 3 4 5 6 7 8 9  760  N3  
1-9  081200/081800     /
11000      1500/0 =
####018000532####
SANL40 EHWX 081055
METAR EHDL 081055Z AUTO 19010KT 9999NDV FEW079 29/13 Q1019 
BLU=
METAR EHEH 081055Z AUTO 25007KT 9999NDV BKN130 30/12 Q1019 
BLU BLU=
METAR EHGR 081055Z AUTO 25005KT 9999NDV NCD 29/11 Q1019 
BLU BLU=
METAR EHLW 081055Z AUTO 23009KT 9999NDV FEW009 OVC061 22/17 Q1019 
BLU BLU=
METAR EHVK 081055Z AUTO 21007KT 9999NDV NCD 30/12 Q1019 
BLU BLU=
METAR EHVL 081055Z AUTO 23010KT 9999NDV SCT060 OVC066 20/16 Q1019 
BLU=
METAR EHWO 081055Z AUTO 30005KT 9999NDV FEW190 27/11 Q1019 
BLU BLU=
####018000118####
SAUS44 KSHV 081057
MTRSHV
METAR KSHV 081056Z 13004KT 10SM SCT160 BKN280 24/23 A3003 RMK AO2 
SLP164 T02440233
####018000118####
SAUS45 KABQ 081057
MTRABQ
METAR KABQ 081056Z 05009KT 10SM SCT100 BKN200 20/09 A3026 RMK AO2 
SLP158 T02000094
####018000113####
SAUS43 KLMK 081057
MTRSDF
METAR KSDF 081056Z 12003KT 5SM HZ SCT120 25/21 A3006 RMK AO2 SLP172 
T02500211
####018000118####
SAUS42 TJSJ 081057
MTRSJU
METAR TJSJ 081056Z 11003KT 10SM FEW020 SCT110 28/24 A3000 RMK AO2 
SLP158 T02780244
####018000102####
SPUS72 KWBC 081057
SPECI
KNGP 081053Z 10012G16KT 4SM +RA BR FEW011 SCT015 BKN033 28/26
A2982=
####018000120####
SAPK31 OPKC 081055
METAR OPKC 081100Z 18014KTS 8000 SCT020 SCT030 TCU 35/24 Q.1002 TEMPO
NE 30KTS TSRA FEW025 CB=
####018000081####
SACV20 GVAC 081100
METAR GVAC 081100Z 07011KT 9999 BKN014 25/19 Q1014 NOSIG=
####018000098####
SAQB31 LQSM 081100
METAR LQSA 081100Z 31007KT 210V360 9999 FEW050 BKN065 21/10 Q1023
NOSIG=
####018000354####
SAFI34 EFHK 081050
EFET 081050Z AUTO 20010KT 160V230 CAVOK 21/06 Q1014=
EFIV 081050Z AUTO VRB02KT CAVOK 20/12 Q1016=
EFKE 081050Z 18008KT 140V230 9999 BKN033 21/13 Q1016=
EFKI 081050Z AUTO 34003KT CAVOK 22/13 Q1016=
EFKS 081050Z AUTO VRB04KT CAVOK 19/11 Q1017=
EFKT 081050Z AUTO 17009KT 090V210 CAVOK 22/08 Q1015=
METAR EFSO 081056Z NIL=
####018000145####
SAUS44 KCRP 081057
MTRNGP
METAR KNGP 081056Z 09011KT 4SM +RA BR SCT013 BKN019 BKN033 28/27 
A2982 RMK AO2 RAB49 SLP096 P0009 T02780267 $
####018000118####
SAUS46 KMTR 081057
MTRAAT
METAR KAAT 081055Z AUTO 00000KT 10SM CLR 10/07 A3007 RMK AO2 SLP139 
T01000072 TSNO
####018000191####
SAAK17 KAWN 081100 RRB
PALU SA 1055 AWOS CLR BLO 120 10 54/35/2011G17/ 010=
PASV SA 1055 AWOS 37 SCT 47 SCT 70 SCT 10 48/45/0000/996=
PATL SA 1055 AWOS CLR BLO 120 10 58/44/0207/999=
####018001390####
SAZZ40 KAWN 081100 RRF
METAR EFKI 081050Z AUTO 34003KT CAVOK 22/13 Q1016=
METAR KADW 081055Z AUTO 10003KT 7SM CLR 25/24 A3001 RMK AO2 SLP161
      T02550237 $=
METAR KAFF 081055Z AUTO 16003KT 10SM OVC022 12/12 A3039 RMK AO2 CIG
      018V026 OVC V BKN SLP209 T01210118=
METAR KBIX 081055Z AUTO 00000KT 10SM CLR 25/25 A3003 RMK AO2 SLP169
      T02460246=
METAR KDLF 081055Z AUTO 00000KT 10SM BKN065 24/23 A2996 RMK AO2 SLP128
      T02390225 $=
METAR KDYS 081055Z 36004KT 10SM OVC009 21/21 A3005 RMK AO2A SLP157
      T02130213 $=
METAR KHRT 081055Z 00000KT 3SM BR CLR 23/23 A3002 RMK AO2A VIS 2 N
      SLP167 T02300230 $=
METAR KLSV 081055Z AUTO 07005KT 10SM CLR 23/M04 A2983 RMK AO2 SLP080
      T02331036 PWINO=
METAR KLTS 081055Z AUTO 06004KT 10SM FEW029 23/23 A3006 RMK AO2 SLP164
      T02320227 $=
METAR KLUF 081055Z 00000KT 10SM CLR 26/06 A2976 RMK AO2A SLP047 T02570061
      $=
METAR KMIB 081055Z AUTO VRB03KT 10SM BKN085 12/11 A3009 RMK AO2 SLP193
      T01190112 $=
METAR KMMT 081055Z 30003KT 10SM FEW100 21/19 A2998 RMK AO2A SLP152
      T02130190=
METAR KSKA 081055Z AUTO 00000KT 10SM CLR 15/08 A3007 RMK AO2 SLP170
      T01490082=
METAR KTTS 081055Z 35002KT 10SM PRFG FEW030 FEW280 19/19 A2999 RMK
      SLP156 1SC /0/ 1CI /0/=
METAR KXMR 081055Z AUTO 00000KT 10SM CLR 19/18 A2998 RMK AO2 SLP154
      T01880178=
####018001400####
SAXX60 KAWN 081100
METAR NSTU 081050Z 09011KT 10SM SCT016 SCT045 28/26 A2990 RMK SLP125
      T02780262 403000260=
METAR PGSN 081054Z 09012G19KT 10SM FEW018 28/23 A2991 RMK AO2 SLPNO
      T02780233=
METAR PGUA 081055Z AUTO 09016G22KT 10SM BKN019 BKN025 27/ A2991 RMK
      AO2 RAB1032E1041 CIG 017V024 SLP109 P0000 T0271 VISNO RWY24L $=
METAR PGUM 081054Z 08014G17KT 10SM SCT026 SCT048 28/24 A2991 RMK AO2
      SLP119 T02830244=
METAR PHHI 081055Z AUTO 30004KT 10SM FEW044 19/17 A3005 RMK AO2 SLP165
      T01850167=
METAR PHJR 081053Z 00000KT 10SM FEW045 22/18 A3004 RMK AO2 SLP179 T02220178=
METAR PHKO 081053Z AUTO 10007KT 10SM CLR 24/19 A2998 RMK AO2 SLP154
      T02390189 TSNO=
METAR PHMK 081054Z AUTO 03006G15KT 10SM BKN039 22/19 A3004 RMK AO2
      SLP175 T02170189 TSNO=
METAR PHNL 081053Z 06009KT 10SM FEW032 SCT049 24/18 A3003 RMK AO2 SLP168
      T02440178=
METAR PHOG 081054Z AUTO 03012KT 10SM FEW060 23/19 A3002 RMK AO2 SLP172
      T02330189 TSNO=
METAR PHTO 081053Z 25005KT 10SM FEW027 BKN060 22/19 A3003 RMK AO2 SLP168
      T02170189=
METAR PTKK 081050Z VRB05KT 15SM FEW014 BKN120 OVC280 26/23 A2984 RMK
      SLP106 T02560232=
METAR RJTY 081055Z AUTO 17007KT 9999 CLR 25/21 A2988 RMK AO2 SLP112
      T02460214 $=
METAR RODN 081055Z AUTO 17011KT 9999 SCT017 BKN190 29/26 A2984 RMK
      AO2 CIG 017 RWY05 SLP105 T02880261=
####018000088####
SAXX70 KAWN 081000 RRX
METAR KQFW 081040Z AUTO 22003KT 7SM CLR 26/20 A2988 RMK A02=
####018002919####
SAUS20 KNKA 081057
METAR K04W 081054Z AUTO 00000KT 10SM CLR 16/15 A3007 RMK AO2 
     T01550150=
METAR K1A6 081055Z AUTO 00000KT 1 1/4SM BR OVC001 21/21 A3012 RMK 
     AO2=
METAR K1M4 081056Z AUTO 00000KT 10SM CLR 22/21 A3011 RMK AO2 
    T02160211 SLP193=
METAR K21D 081058Z AUTO 00000KT 10SM CLR 16/16 A3008 RMK AO2=
METAR KAIG 081055Z AUTO 34005KT 1 1/2SM BR OVC001 18/17 A3002 RMK 
     AO2=
METAR KAND 081056Z AUTO 00000KT 8SM CLR 22/20 A3003 RMK AO2 SLP158 
    T02170200=
SPECI KAUS 081056Z 06005KT 10SM FEW007 BKN012 26/24 A2995 RMK AO2=
METAR KBJI 081054Z AUTO 23006KT 10SM CLR 14/13 A3005 RMK AO2=
METAR KBUU 081054Z AUTO 00000KT 5SM BR BKN006 OVC013 21/21 A3002 
     RMK AO2=
METAR KBZN 081056Z AUTO 00000KT 10SM CLR 10/04 A3028 RMK AO2 SLP226 
    T01000039=
SPECI KCEF 081053Z AUTO 16005KT 10SM FEW010 24/22 A3006 RMK AO2 SLP179
      PWINO $=
METAR KCEF 081055Z AUTO 16005KT 10SM FEW010 24/22 A3006 RMK AO2 SLP179
      T02410219 PWINO $=
METAR KCMI 081053Z COR 18003KT 5SM BR BKN100 23/22 A3004 RMK AO2 
    SLP165 T02280217=
METAR KCTB 081056Z AUTO 32004KT 10SM CLR 08/05 A3024 RMK AO2 SLP223 
    T00780050=
METAR KD39 081054Z AUTO 00000KT 10SM CLR 15/14 A3011 RMK AO2 
     T01530144=
METAR KDIK 081056Z AUTO 22005KT 10SM CLR 09/08 A3015 RMK AO2 SLP205 
    T00940078=
METAR KDUG 081056Z AUTO 08017G22KT 10SM CLR 24/12 A3002 RMK AO2 PK 
    WND 08027/1008 SLP083 T02440117 $=
METAR KDVK 081057Z AUTO 00000KT 3SM 21/19 A3010 RMK AO1=
METAR KEAU 081056Z 00000KT 10SM CLR 18/17 A3004 RMK AO2 SLP167 
    T01830172=
METAR KEED 081056Z AUTO 32006KT 10SM CLR 28/M03 A2975 RMK AO2 SLP039 
    T02781033 TSNO=
METAR KEKO 081056Z AUTO 00000KT 10SM CLR 11/M01 A3012 RMK AO2 SLP146 
    T01111011=
METAR KFBG 081055Z AUTO 35004KT 10SM CLR 25/19 A2995 RMK AO2 SLP139
      T02500191 $=
METAR KGRD 081056Z AUTO 31003KT 10SM CLR 22/20 A3004 RMK AO2 SLP162 
    T02170200=
METAR KGUS 081055Z AUTO 14003KT 10SM FEW060 SCT100 23/21 A3004 RMK
      AO2 SLP166 T02290208=
METAR KHFF 081055Z AUTO 00000KT 10SM CLR 22/17 A2998 RMK AO2 SLP148
      T02210173 $=
METAR KHND 081056Z AUTO 20008KT 10SM CLR 25/M03 A2988 RMK AO2 
    T02501027 SLP061=
SPECI KHRT 081046Z AUTO 00000KT 1 1/2SM R18/2800VP6000FT BR CLR 23/23
      A3001 RMK AO2 SLP165 $=
SPECI KHRT 081047Z AUTO 00000KT 1 1/4SM R18/2800VP6000FT BR CLR 23/23
      A3001 RMK AO2 SLP165 $=
SPECI KHRT 081048Z AUTO 00000KT 1SM R18/2800VP6000FT BR CLR 23/23 A3001
      RMK AO2 SLP165 $=
SPECI KHRT 081050Z AUTO 00000KT 3/4SM R18/2800VP6000FT BR CLR 23/23
      A3001 RMK AO2 SLP165 $=
METAR KIGX 081056Z AUTO 33003KT 5SM HZ CLR 25/18 A3000 RMK AO2 
    SLP150 T02500183=
METAR KINW 081056Z AUTO 00000KT 10SM CLR 22/01 A3011 RMK AO2 SLP108 
    T02220006=
METAR KJMS 081056Z AUTO 00000KT 10SM CLR 12/12 A3010 RMK AO2 SLP191 
    T01220122=
####018002027####
SAUS20 KNKA 081057
METAR KLAS 081056Z 22008KT 10SM FEW160 28/M04 A2981 RMK AO2 SLP063 
    T02781044=
METAR KLCK 081055Z AUTO 00000KT 3SM BR CLR 22/21 A3008 RMK AO2 
     T02170206=
METAR KLNR 081056Z AUTO 00000KT 1SM BR OVC002 21/19 A3004 RMK AO2 
    SLP162 T02060194=
METAR KLRF 081055Z AUTO 00000KT 10SM BKN170 23/22 A3006 RMK AO2 SLP177
      T02300224=
METAR KM19 081056Z AUTO 20005KT 10SM CLR 24/23 A3007 RMK AO2 
    T02440227 SLP179=
METAR KMCF 081055Z AUTO 07004KT 10SM CLR 22/22 A2999 RMK AO2 SLP156
      T02220221=
METAR KMOB 081056Z 00000KT 7SM MIFG FEW020 SCT250 22/21 A3004 RMK 
    AO2 SLP170 T02220211=
METAR KMQY 081056Z AUTO 00000KT 10SM CLR 23/22 A3009 RMK AO2 
    T02330222 SLP178=
METAR KOFK 081056Z AUTO 25003KT 10SM BKN090 16/14 A3020 RMK AO2 
    SLP220 T01560144=
METAR KOZR 081055Z 00000KT 3/4SM R06/0700V1200FT BR FEW002 22/22 A3002
      RMK AO2A SLP166 T02160216=
METAR KRDM 081056Z AUTO 00000KT 10SM CLR 11/03 A3006 RMK AO2 SLP155 
    T01110033 $=
METAR KSBP 081056Z AUTO 30005KT 10SM OVC007 13/12 A2991 RMK AO2 
    SLP127 T01280117 $=
METAR KSFO 081056Z 26010KT 10SM BKN008 OVC013 13/11 A2992 RMK AO2 
    SLP132 T01330106=
METAR KSLE 081056Z AUTO 15006KT 10SM CLR 16/12 A2988 RMK AO2 SLP118 
    T01560122=
METAR KSRC 081056Z AUTO 00000KT 8SM CLR 23/22 A3007 RMK AO2 TSNO 
    T02270222 SLP184=
METAR KSSC 081055Z AUTO 30007KT 10SM CLR 25/19 A2996 RMK AO2 SLP143
      T02500190 $=
SPECI KSTC 081056Z AUTO 00000KT 1 3/4SM BR CLR 13/12 A3009 RMK AO2=
METAR KTZR 081056Z AUTO 00000KT 4SM BR CLR 21/19 A3009 RMK AO2=
METAR KUKI 081056Z AUTO 00000KT 10SM CLR 12/10 A2990 RMK AO2 SLP117 
    T01220100=
METAR KWRB 081055Z 00000KT 10SM CLR 20/20 A3002 RMK AO2A SLP163 T02030203=
METAR KY51 081055Z AUTO 29004KT 1 3/4SM SCT003 19/19 A3005 RMK 
     AO1 T01900187=
METAR PAAK 081056Z AUTO 07021KT 7SM OVC011 07/04 A2958 RMK AO1 PNO=
METAR PAHP 081056Z AUTO 34007KT 10SM FEW075 09/07 A3005 RMK AO1 PNO 
    TSNO=
####018003749####
SAUS90 KWBC 081100
METAR KBKB 081054Z AUTO 00000KT 10SM SCT014 24/23 A3000 RMK AO2
     SLP183 T02390228=
METAR KGSO 081054Z 02004KT 6SM HZ FEW095 25/18 A3003 RMK AO2
     SLP155 T02500178=
METAR KACY 081054Z 11003KT 8SM -RA FEW060 24/23 A3004 RMK AO2
     RAB49 SLP172 P0000 T02440228=
METAR KFWA 081054Z 00000KT 7SM CLR 23/20 A3006 RMK AO2 SLP172
     T02280200=
METAR KAVP 081054Z 00000KT 4SM HZ CLR 21/18 A3008 RMK AO2 SLP171
     T02110178 $=
METAR KPQN 081053Z AUTO 33007KT 10SM CLR 17/14 A3017 RMK AO2=
METAR KFGN 081054Z AUTO 27008KT 1/4SM -DZ VV002 16/13 A2998 RMK
     AO2=
METAR KPNM 081053Z AUTO 00000KT 1/2SM FG VV005 13/12 A3009 RMK AO2
     VIS M1/4V4=
METAR KPWC 081053Z AUTO 00000KT 7SM SCT001 09/09 A3009 RMK AO2=
METAR KFFM 081053Z AUTO 23003KT 10SM CLR 15/14 A3009 RMK AO2=
METAR KGDB 081052Z AUTO 22005KT 10SM CLR 13/13 A3015 RMK AO2
     T01320126=
METAR KAIT 081053Z AUTO 00000KT 1/2SM FG VV005 12/11 A3007 RMK
     AO2=
METAR KGHW 081053Z AUTO 26004KT 10SM CLR 15/13 A3014 RMK AO2=
METAR KMWM 081053Z AUTO 00000KT 7SM CLR 13/13 A3014 RMK AO2=
METAR KULM 081054Z AUTO 00000KT 7SM CLR 14/12 A3012 RMK AO2=
METAR KBBB 081053Z AUTO 00000KT 1 1/2SM BR VV007 14/13 A3012 RMK
     AO2 VIS 1/4V5=
METAR KTWM 081053Z AUTO 30004KT 10SM CLR 16/13 A3002 RMK AO2=
METAR KMGG 081055Z AUTO 27004KT 10SM CLR 16/15 A3011 RMK AO2
     T01580147=
METAR KMOX 081050Z AUTO 27004KT 10SM CLR 15/14 A3008 RMK AO2=
METAR KTEW 081052Z AUTO 15003KT 5SM BR CLR 21/19 A3005 RMK AO2=
METAR KCVH 081050Z AUTO 00000KT 9SM OVC008 13/11 A2992 RMK AO1=
METAR KDYT 081054Z AUTO 19007KT 10SM CLR 17/15 A3005 RMK AO2=
METAR KFSO 081058Z AUTO 00000KT 5SM BR BKN065 24/23 A3001 RMK
     AO2=
METAR KFBL 081054Z AUTO 29004KT 10SM CLR 16/15 A3011 RMK AO2=
METAR KLYV 081058Z AUTO 00000KT 10SM CLR 13/12 A3017 RMK AO2=
METAR KEFK 081055Z AUTO 22004KT 4SM BR CLR 21/20 A3007 RMK AO2=
METAR KRRT 081054Z AUTO 23006KT 10SM CLR 13/11 A3001 RMK AO2=
METAR KTOB 081054Z AUTO 00000KT 10SM CLR 17/16 A3010 RMK AO2=
METAR KLXL 081054Z AUTO 00000KT 3/4SM BR VV005 12/12 A3008 RMK
     AO2=
METAR KEVM 081052Z AUTO 00000KT 10SM CLR 15/13 A3002 RMK AO1=
METAR KELO 081053Z AUTO 21004KT 10SM CLR 13/13 A3002 RMK AO2=
METAR KANE 081055Z AUTO 00000KT 10SM 17/16 A3009 RMK AO2=
METAR KROX 081054Z AUTO 24005KT 10SM CLR 14/12 A3001 RMK AO2=
METAR KVVV 081056Z AUTO 29004KT 10SM CLR 17/14 A3012 RMK AO2=
METAR KROS 081055Z AUTO 00000KT 10SM CLR 15/14 A3008 RMK AO2
     T01460140=
METAR KHCD 081052Z AUTO 25003KT 5SM BR CLR 14/13 A3012 RMK AO2
     T01370129=
METAR KSGS 081053Z AUTO 00000KT 10SM CLR 18/16 A3009 RMK AO2
     T01810162=
METAR KMJQ 081052Z AUTO 29003KT 4SM BR CLR 14/13 A3015 RMK AO2=
METAR KHCO 081054Z AUTO 19003KT 10SM BKN100 12/12 A3005 RMK
     AO2=
METAR KLVN 081049Z AUTO 27005KT 10SM CLR 16/16 A3009 RMK AO2=
METAR KPEX 081053Z AUTO 25004KT 5SM BR CLR 13/12 A3011 RMK AO2
     T01250124=
METAR KJMR 081058Z AUTO 00000KT 10SM CLR 15/13 A3009 RMK AO2=
METAR KJKJ 081054Z AUTO 27003KT 10SM CLR 16/14 A3007 RMK AO2=
METAR KMVE 081054Z AUTO 29003KT 10SM CLR 16/14 A3011 RMK AO2=
METAR KTKC 081053Z AUTO 26006KT 10SM CLR 16/13 A3015 RMK AO2
     T01550127=
METAR KGYL 081054Z AUTO 24003KT 10SM CLR 14/14 A3011 RMK AO2
     T01440136=
METAR KDXX 081054Z AUTO 00000KT 10SM CLR 14/14 A3012 RMK AO2=
METAR KHZX 081051Z AUTO 00000KT 10SM CLR 13/13 A3007 RMK AO2=
METAR KSAZ 081054Z AUTO 25006KT 10SM CLR 16/16 A3009 RMK AO2=
METAR KONA 081051Z AUTO 31004KT 10SM CLR 20/17 A3004 RMK AO2=
METAR KOVL 081054Z AUTO 00000KT 7SM CLR 13/12 A3012 RMK AO2
     T01320118=
METAR KLJF 081053Z AUTO 25003KT 10SM CLR 17/16 A3012 RMK AO2=
####018000102####
SAUS90 KWBC 081058
METAR KSYN 081110Z AUTO 00000KT 10SM CLR 17/16 A3009 RMK AO2
     T01700158=
####018000378####
SAUS90 KWBC 081100 CCA
METAR KMTP 081054Z AUTO 00000KT /20 A3008 RMK AO2 SLP186
     T02110200 PWINO TSNO=
METAR KTRI 081053Z 00000KT 4SM BR FEW030 20/18 A3011 RMK AO2
     SLP176 T02000183=
METAR KPOE 081055Z AUTO 07005KT 10SM FEW015 24/23 A3001 RMK AO2
     SLP164 T02390228=
METAR KTYS 081053Z 00000KT 6SM HZ CLR 22/19 A3007 RMK AO2 SLP170
     T02220194=
####018000127####
SPUS90 KWBC 081058
SPECI KNGP 081053Z 10012G16KT 4SM +RA BR FEW011 SCT015 BKN033
     28/26 A2982 RMK AO2 RAB49 P0008 $=
####018000531####
SAUS90 KWBC 081100 RRB
METAR KWMC 081056Z AUTO 01004KT 10SM CLR 17/M05 A3006 RMK AO2
     SLP128 T01671050=
METAR KROC 081054Z 22005KT 7SM SCT080 23/20 A3006 RMK AO2 SLP174
     ACC NW T02280200 $=
METAR PACZ 081055Z AUTO 03006KT 10SM 10/09 A3005 RMK AO1
     T01000089=
METAR PALU 081055Z AUTO 20011G17KT 10SM CLR 12/02 A3010 RMK AO1
     T01220017=
METAR PAIM 081055Z AUTO 31005KT 10SM CLR 11/07 A3008 RMK AO1
     T01060073=
METAR PATL 081055Z AUTO 02007KT 10SM CLR 14/07 A2999 RMK AO1
     T01440067=
####018003667####
SAUS90 KWBC 081100 RRA
METAR KAEL 081051Z AUTO 00000KT 5SM BR CLR 17/17 A3010 RMK AO2=
METAR K29G 081054Z AUTO 00000KT 4SM CLR 20/19 A3010 RMK AO2
     T01960185 PWINO=
METAR KMRT 081053Z AUTO 00000KT 2 1/2SM CLR 20/19 A3012 RMK AO2
     T02040190=
METAR KIKW 081053Z AUTO 00000KT 10SM -DZ SCT050 SCT065 OVC080
     23/21 A3002 RMK AO2 T02310211=
METAR KMDS 081045Z AUTO 29004KT 10SM CLR 14/14 A3017 RMK AO2=
METAR KGNT 081053Z AUTO 15014KT 16/08 A3030 RMK AO2 SLP165
     T01610083 PWINO TSNO=
METAR KRFD 081054Z 27005KT 6SM BR OVC006 22/21 A3004 RMK AO2
     SLP169 T02220211=
METAR KHON 081055Z AUTO 23003KT 10SM CLR 16/13 A3014 RMK AO2
     SLP202 T01560133=
METAR KDRA 081055Z AUTO 04007KT 10SM CLR 21/M11 A2993 RMK AO2
     SLP083 T02111106 TSNO=
METAR KCAO 081055Z AUTO 01007KT 10SM OVC100 16/13 A3031 RMK AO2
     RAE14 SLP200 P0000 T01560133 TSNO=
METAR KINL 081055Z AUTO 22005KT 10SM FEW090 13/12 A3000 RMK AO2
     SLP160 T01280122=
METAR KAST 081055Z AUTO 00000KT 7SM OVC003 12/11 A2995 RMK AO2
     SLP140 T01220106=
METAR KVBG 081055Z AUTO 34003KT 10SM OVC004 12/11 A2993 RMK AO2
     SLP125 T01220111 TSNO $=
METAR KPOE 081055Z AUTO 07005KT 10SM FEW015 24/23 A3001 RMK AO2
     SLP164 T02390228=
METAR KANJ 081055Z AUTO 17003KT 4SM -RA BR BKN006 OVC012 20/19
     A2995 RMK AO2 RAB28 CIG 004V010 SLP136 P0000 T02000194=
METAR KPHP 081055Z AUTO 26010KT 10SM CLR 12/09 A3021 RMK AO2
     SLP217 T01220094 TSNO $=
METAR KCHS 081056Z 27005KT 8SM CLR 24/19 A2997 RMK AO2 SLP147
     T02390194=
METAR KJAX 081056Z 25003KT 8SM CLR 20/19 A3000 RMK AO2 SLP158
     T02000189=
METAR KABQ 081056Z 05009KT 10SM SCT100 BKN200 20/09 A3026 RMK AO2
     SLP158 T02000094=
METAR KSDF 081056Z 12003KT 5SM HZ SCT120 25/21 A3006 RMK AO2
     SLP172 T02500211=
METAR KSHV 081056Z 13004KT 10SM SCT160 BKN280 24/23 A3003 RMK AO2
     SLP164 T02440233=
METAR TJSJ 081056Z 11003KT 10SM FEW020 SCT110 28/24 A3000 RMK AO2
     SLP158 T02780244=
METAR KNGP 081056Z 09011KT 4SM +RA BR SCT013 BKN019 BKN033 28/27
     A2982 RMK AO2 RAB49 SLP096 P0009 T02780267 $=
METAR KAAT 081055Z AUTO 00000KT 10SM CLR 10/07 A3007 RMK AO2
     SLP139 T01000072 TSNO=
METAR KGNR 081056Z AUTO 00000KT 19/19 A3008 RMK AO1 SLP182
     T01940194=
METAR K2WX 081056Z AUTO 21004KT 12/08 A3016 RMK AO1 SLP202
     T01170078=
METAR KP28 081056Z AUTO 36005KT 21/20 A3010 RMK AO2 SLP176
     T02110200 PWINO TSNO=
METAR KGNA 081056Z AUTO 00000KT 17/16 A2999 RMK AO2 SLP149
     T01720156 PWINO TSNO=
METAR KNFE 081056Z AUTO 07005KT 1 1/2SM HZ CLR 26/22 A2998 RMK AO2
     SLP152 T02560222 $=
METAR KNBT 081056Z AUTO 06013KT 3SM BR CLR 28/ A2992 RMK AO2
     SLP136 T0283 TSNO=
METAR KP60 081056Z AUTO 00000KT 01/M01 A3043 RMK AO2 SLP253
     T00061011 PWINO FZRANO TSNO=
METAR KGFA 081056Z AUTO 21003KT 10SM CLR 09/06 A3021 RMK AO2
     SLP247 T00890056 $=
METAR KMEH 081056Z AUTO 00000KT 10SM CLR 06/05 A3011 RMK AO2
     SLP177 T00560050 TSNO=
METAR K9L2 081056Z AUTO 21007KT 10SM CLR 18/04 A2988 RMK AO2
     SLP093 T01780039 $=
METAR KLWS 081056Z AUTO 12003KT 10SM CLR 15/06 A3003 RMK AO2
     SLP160 T01500056=
METAR KAQV 081056Z AUTO 00000KT 10SM FEW017 BKN100 23/23 A3001 RMK
     AO2 SLP159 T02330228 $=
METAR KMHS 081056Z AUTO 02003KT 10SM CLR 12/07 A3001 RMK AO2
     SLP145 T01220067 TSNO=
METAR KCAE 081056Z 00000KT 10SM CLR 24/19 A2998 RMK AO2 SLP149
     T02390189=
METAR KSXT 081056Z AUTO 01009KT 9SM CLR 19/10 A3002 RMK AO2 SLP099
     T01940100 TSNO=
METAR KNXP 081056Z AUTO 29005KT CLR 23/00 A2991 RMK AO2 SLP089
     T02330000 $=
####018000101####
SAUS41 KCAR 081057
MTRGNR
METAR KGNR 081056Z AUTO 00000KT 19/19 A3008 RMK AO1 SLP182 T01940194
####018000122####
SAUS46 KSGX 081057 COR
MTRNJK
METAR KNJK 081056Z AUTO 13005KT 10SM CLR 23/12 A2969 RMK AO2 SLP070 
T02280122 TSNO
####018001725####
SAEU KAWN 081100 RRG
METAR EGDL 081050Z 23007KT 9999 FEW022 BKN250 19/11 Q1019 BLU NOSIG=
METAR EGNS 081050Z 20010KT 9999 FEW025 17/11 Q1016 NOSIG=
METAR EGOM 081050Z 24016KT 9999 FEW022 SCT050 16/10 Q1014 BLU=
METAR EGQK 081050Z 23021G32KT 9999 FEW025 SCT050 18/07 Q1009 BLU NOSIG=
METAR EGUN 081055Z AUTO 24009KT 9999 FEW031 BKN120 BKN140 21/17 A3006
      RMK AO2 CIG 100 RWY11 SLP170 T02060167=
METAR EGUW 081050Z 24007KT 9999 FEW024 BKN130 BKN250 21/14 Q1018 BLU
      NOSIG=
METAR EGVA 081055Z AUTO 21007KT 9999 SCT032 SCT070 SCT190 21/12 A3007
      RMK AO2 SLP182 T02070116=
METAR EGWC 081050Z 21008KT 9999 BKN025 18/10 Q1018 BLU=
METAR EHLW 081055Z AUTO 23009KT 9999NDV FEW009 OVC061 22/17 Q1019 BLU
      BLU=
METAR EHVK 081055Z AUTO 21007KT 9999NDV NCD 30/12 Q1019 BLU BLU=
METAR ENBO 081050Z 28010KT 9999 -SHRA FEW035 BKN060 14/10 Q1010 NOSIG=
METAR ETAR 081055Z AUTO 00000KT 9999 CLR 29/14 A3014 RMK AO2 SLP198
      T02880141 $=
METAR ETIK 081055Z AUTO 07003KT 9999 CLR 26/10 A3019 RMK AO2 SLP211
      T02590102 $=
METAR LIBD 081050Z 36015KT CAVOK 25/10 Q1020=
METAR LICJ 081050Z 04016KT CAVOK 27/23 Q1018=
METAR LIMF 081050Z VRB01KT 9999 FEW030 BKN045 24/15 Q1023=
METAR LIMJ 081050Z VRB03KT 9999 FEW015 SCT035 28/25 Q1020=
METAR LIPE 081050Z 07007KT 030V100 CAVOK 28/14 Q1021=
METAR LIPR 081045Z 08011KT CAVOK 28/17 Q1021=
METAR LIPZ 081050Z 13009KT 9999 FEW060 26/18 Q1022=
METAR LIRA 081045Z 24006KT 170V310 9999 SCT018 29/17 Q1019=
METAR LIRP 081045Z 09004KT 030V130 9999 FEW030 30/15 Q1020 NOSIG=
METAR LPLA 081100Z 15005KT 9999 -SHRA FEW008 SCT016 BKN028 20/18 Q1024=
METAR LQSA 081100Z 31007KT 210V360 9999 FEW050 BKN065 21/10 Q1023 NOSIG=
####018002987####
SAAK41 KNKA 081057
METAR PAAK 081056Z AUTO 07021KT 7SM OVC011 07/04 A2958 RMK AO1 PNO=
METAR PABL 081056Z AUTO 33005KT 10SM CLR 09/06 A3015 RMK AO1 PNO=
METAR PABV 081056Z AUTO 13004KT 10SM CLR 11/07 RMK AO1 PNO=
METAR PADK 081056Z 04009KT 9SM FEW021 OVC029 07/06 A2955 RMK AO1 PNO=
METAR PADL 081056Z 32006KT 10SM FEW043 OVC050 10/08 A2998 RMK AO1 
    PNO TSNO=
METAR PAEM 081056Z AUTO 34003KT 10SM OVC070 12/08 A3004 RMK AO1 PNO=
METAR PAFE 081056Z AUTO 07003KT 10SM CLR 11/09 A3018 RMK AO1 PNO=
METAR PAFM 081056Z AUTO 00000KT 10SM CLR 14/08 A3010 RMK AO1 PNO=
METAR PAGL 081056Z AUTO 10SM CLR 16/07 RMK AO1 PNO=
METAR PAGS 081056Z AUTO 00000KT 10SM CLR 09/08 A3019 RMK AO1 PNO=
METAR PAHP 081056Z AUTO 34007KT 10SM FEW075 09/07 A3005 RMK AO1 PNO 
    TSNO=
METAR PAHY 081056Z AUTO 36004KT 10SM CLR 16/10 A3012 RMK AO1 PNO=
METAR PAII 081056Z AUTO 01004KT 10SM BKN042 OVC065 10/08 A2997 RMK 
    AO1 PNO=
METAR PAIN 081056Z AUTO 00000KT 10SM CLR 08/06 A3008 RMK AO1 PNO=
METAR PAJC 081056Z AUTO 00000KT 10SM OVC017 08/04 A2994 RMK AO1 PNO=
METAR PAKK 081056Z AUTO 36011G15KT 10SM CLR 13/07 A3005 RMK AO1 PNO=
METAR PAKP 081056Z AUTO 36003KT 10SM BKN035 10/03 A3012 RMK AO1=
METAR PAMD 081056Z AUTO 09018KT 10SM BKN027 OVC032 09/08 A3003 RMK 
    AO1 PNO=
METAR PAMH 081056Z 00000KT 10SM CLR 14/05 A2999 RMK AO1 PNO=
METAR PAMM 081056Z AUTO 00000KT 10SM CLR 18/11 A3009 RMK AO1 PNO=
METAR PAMY 081056Z 27006KT 1/4SM OVC002 04/03 A3006 RMK AO1=
METAR PANI 081056Z AUTO 00000KT 8SM FEW090 09/08 A3001 RMK AO1 PNO=
METAR PANV 081056Z AUTO 27003KT 10SM SCT085 OVC090 12/08 A2998 RMK 
    AO1 PNO=
METAR PAOU 081056Z AUTO 05009KT 10SM FEW050 07/06 A2996 RMK AO2 
    PWINO TSNO T00720061 SLP148 $=
METAR PAPG 081056Z 04004KT 10SM CLR 12/09 A3014 RMK AO1 
      PNO=
METAR PAPH 081056Z AUTO 00000KT 6SM BKN060 06/05 A2996 RMK AO1 PNO=
METAR PAPN 081056Z AUTO 00000KT 5SM BR FEW055 08/07 A2994 RMK AO2 
    PWINO TSNO T00770066 SLP143 $=
METAR PARC 081056Z AUTO 04006KT 10SM CLR 10/01 A3005 RMK AO1 PNO=
METAR PASA 081056Z AUTO 06003KT 10SM CLR 05/03 A3019 RMK AO1 PNO=
METAR PASD 081056Z AUTO 00000KT 10SM FEW039 07/05 A2994 RMK AO1 PNO=
METAR PASH 081056Z AUTO 00000KT 10SM CLR 07/06 A3018 RMK AO1 PNO=
METAR PASK 081056Z 25008KT 10SM CLR 12/07 A3011 RMK AO1 PNO=
METAR PASL 081056Z AUTO 00000KT 10SM OVC095 12/08 A3000 RMK AO1 PNO=
METAR PASM 081056Z AUTO 00000KT 10SM OVC070 09/08 A3005 RMK AO1 PNO=
METAR PASX 081056Z 05004KT 10SM BKN075 13/09 A2994 RMK AO1 PNO=
METAR PAUN 081056Z AUTO 11004KT 10SM CLR 12/04 A3002 RMK AO1 PNO=
METAR PAVD 081056Z 00000KT 10SM OVC080 11/08 A3009 RMK AO1 
      PNO=
METAR PAWG 081056Z AUTO 00000KT 10SM CLR 13/10 A3013 RMK AO1 PNO=
METAR PAWN 081056Z AUTO 25004KT 10SM CLR 08/03 A3015 RMK AO1 PNO=
METAR PAWS 081056Z AUTO 00000KT 10SM FEW090 11/09 A2997 RMK AO1 PNO=
METAR PAZK 081056Z AUTO 07010KT 10SM FEW060 FEW120 09/03 A3009 RMK 
    AO1 PNO=
####018000083####
SACA01 KMSC 081057
METAR TJPS 081050Z 00000KT 8SM FEW030 26/24 A2998 HZ ALQDS=
####018000101####
SAUS43 KUNR 081057
MTR2WX
METAR K2WX 081056Z AUTO 21004KT 12/08 A3016 RMK AO1 SLP202 T01170078
####018000115####
SAUS43 KDDC 081057
MTRP28
METAR KP28 081056Z AUTO 36005KT 21/20 A3010 RMK AO2 SLP176 T02110200 
PWINO TSNO
####018000088####
SACV20 GVBA 081100
METAR GVBA 081100Z 02011KT 9999 BKN015 BKN100 26/20 Q1014 NOSIG=
####018000115####
SAUS43 KDLH 081057
MTRGNA
METAR KGNA 081056Z AUTO 00000KT 17/16 A2999 RMK AO2 SLP149 T01720156 
PWINO TSNO
####018000121####
SAUS41 KAKQ 081057
MTRNFE
METAR KNFE 081056Z AUTO 07005KT 1 1/2SM HZ CLR 26/22 A2998 RMK AO2 
SLP152 T02560222 $
####018000115####
SAUS41 KAKQ 081057
MTRNCA
METAR KNCA 081056Z AUTO 00000KT 5SM BR CLR 23/22 A2993 RMK AO2 
SLP136 T02330217
####018000114####
SAUS42 KMHX 081057
MTRNBT
METAR KNBT 081056Z AUTO 06013KT 3SM BR CLR 28/ A2992 RMK AO2 SLP136 
T0283 TSNO
####018000127####
SAUS45 KBOU 081057
MTRABH
METAR KABH 081056Z AUTO 26006KT 1SM BR BKN001 OVC006 12/12 A3037 RMK 
AO2 SLP227 T01220117 $
####018000120####
SAUS41 KLWX 081057
MTRNYG
METAR KNYG 081056Z 08007KT 5SM HZ FEW090 BKN200 27/22 A3000 RMK AO2 
SLP160 T02670222
####018000123####
SAUS45 KRIW 081057
MTRP60
METAR KP60 081056Z AUTO 00000KT 01/M01 A3043 RMK AO2 SLP253 
T00061011 PWINO FZRANO TSNO
####018000429####
SARS32 RUMS 081030 CCA
METAR URRR     1-9   T 1200
1800  08.07.10. . :  100 T 200 T 300 T 400 T 500 T
250/030 +29 250/030 +28 250/030 +27 250/030 +26 250/030 +25 1000
1500  2000  3000  250/030 +20 250/030 +15 250/030 +10 250/040
+05  25005 - +28  3000      10/15
600/300   11000/600  /  11000/3500
/  11000/600     1500/0  3500  2
 759  1 3 4 5 6 7 8 9  760  N3
1-9  081200/081800     /
11000      1500/0 =
####018000110####
SAUS46 KLOX 081057
MTRNXP
METAR KNXP 081056Z AUTO 29005KT CLR 23/00 A2991 RMK AO2 SLP089 
T02330000 $
####018000121####
SAUS46 KLOX 081057
MTRNFG
METAR KNFG 081056Z AUTO 00000KT 10SM OVC010 16/14 A2989 RMK AO2 
SLP121 T01560139 TSNO
####018000120####
SAUS44 KSHV 081057 COR
MTRPOE
METAR KPOE 081055Z AUTO 07005KT 10SM FEW015 24/23 A3001 RMK AO2 
SLP164 T02390228
####018000113####
SAUS45 KBOI 081057
MTRLWS
METAR KLWS 081056Z AUTO 12003KT 10SM CLR 15/06 A3003 RMK AO2 SLP160 
T01500056
####018000118####
SAUS46 KMTR 081057
MTRMHS
METAR KMHS 081056Z AUTO 02003KT 10SM CLR 12/07 A3001 RMK AO2 SLP145 
T01220067 TSNO
####018000108####
SAUS42 KCAE 081057
MTRCAE
METAR KCAE 081056Z 00000KT 10SM CLR 24/19 A2998 RMK AO2 SLP149 
T02390189
####018000120####
SAUS46 KSGX 081057
MTRNXF
METAR KNXF 081056Z AUTO 33003KT 7SM OVC015 16/13 A2989 RMK AO2 
SLP207 T01610133 TSNO
####018000115####
SAUS45 KTFX 081057
MTRGFA
METAR KGFA 081056Z AUTO 21003KT 10SM CLR 09/06 A3021 RMK AO2 SLP247 
T00890056 $
####018000118####
SAUS46 KPDT 081057
MTRMEH
METAR KMEH 081056Z AUTO 00000KT 10SM CLR 06/05 A3011 RMK AO2 SLP177 
T00560050 TSNO
####018000119####
SAUS46 KPQR 081057
MTRNFL
METAR KNFL 081056Z AUTO 00000KT 10SM CLR 18/M01 A2998 RMK AO2 SLP124 
T01831006 TSNO
####018000115####
SAUS44 KBMX 081057
MTRPRN
METAR KPRN 081056Z AUTO 00000KT 10SM CLR 23/22 A3003 RMK AO2 SLP164 
T02330217 $
####018000125####
SAUS44 KSHV 081057
MTRAQV
METAR KAQV 081056Z AUTO 00000KT 10SM FEW017 BKN100 23/23 A3001 RMK 
AO2 SLP159 T02330228 $
####018000126####
SAUS44 KFWD 081057
MTRHLR
METAR KHLR 081056Z AUTO 08004KT 10SM SCT009 BKN015 OVC023 25/ A2999 
RMK AO2 SLP146 T0250 $
####018000117####
SAUS44 KMRX 081057 COR
MTRTRI
METAR KTRI 081053Z 00000KT 4SM BR FEW030 20/18 A3011 RMK AO2 SLP176 
T02000183
####018000134####
SAUS46 KLOX 081057
MTRNTD
METAR KNTD 081056Z AUTO 28006KT 9SM OVC011 15/13 A2989 RMK AO2 
SLP123 T01500128 TSNO PNO VISNO N $
####018000115####
SAUS46 KLOX 081057
MTR9L2
METAR K9L2 081056Z AUTO 21007KT 10SM CLR 18/04 A2988 RMK AO2 SLP093 
T01780039 $
####018000117####
SAUS46 KMFR 081057
MTRSXT
METAR KSXT 081056Z AUTO 01009KT 9SM CLR 19/10 A3002 RMK AO2 SLP099 
T01940100 TSNO
####018000149####
SAUS44 KFWD 081057
MTRNQI
METAR KNQI 081056Z AUTO 02004KT 4SM RA BR BKN027 BKN035 BKN055 27/25 
A2982 RMK AO2 RAB18 SLP095 P0011 T02670250 $
####018000112####
SAUS41 KAKQ 081057
MTRNXX
METAR KNXX 081056Z 00000KT 3SM HZ CLR 24/21 A3005 RMK AO2 SLP177 
T02390206 $
####018000114####
SAUS45 KLKN 081057
MTRWMC
METAR KWMC 081056Z AUTO 01004KT 10SM CLR 17/M05 A3006 RMK AO2 SLP128 
T01671050
####018000119####
SAUS41 KBUF 081057
MTRROC
METAR KROC 081054Z 22005KT 7SM SCT080 23/20 A3006 RMK AO2 SLP174 ACC 
NW T02280200 $
####018000114####
SAUS44 KMRX 081057 COR
MTRTYS
METAR KTYS 081053Z 00000KT 6SM HZ CLR 22/19 A3007 RMK AO2 SLP170 
T02220194
####018000322####
SAUS98 KWBC 081058
METAR PACZ 081055Z AUTO 03006KT 10SM 10/09 A3005 RMK AO1 T01000089=
METAR PALU 081055Z AUTO 20011G17KT 10SM CLR 12/02 A3010 RMK AO1
T01220017=
METAR PAIM 081055Z AUTO 31005KT 10SM CLR 11/07 A3008 RMK AO1
T01060073=
METAR PATL 081055Z AUTO 02007KT 10SM CLR 14/07 A2999 RMK AO1
T01440067=
####018000115####
SACN89 KWBC 081058
METAR CWCI 081000Z AUTO 36003KT 16/15 RMK AO1 8PAST HR 5004 SLP146
P0003 T01570154 50138=
####018002983####
SAUS99 KWBC 081058 RRA
METAR
KIGX 081056Z AUTO 33003KT 5SM HZ CLR 25/18 A3000 RMK AO2 SLP150
     T02500183=
KINW 081056Z AUTO 00000KT 10SM CLR 22/01 A3011 RMK AO2 SLP108
     T02220006=
KJMS 081056Z AUTO 00000KT 10SM CLR 12/12 A3010 RMK AO2 SLP191
     T01220122=
PAAK 081056Z AUTO 07021KT 7SM OVC011 07/04 A2958 RMK AO1 PNO=
PABL 081056Z AUTO 33005KT 10SM CLR 09/06 A3015 RMK AO1 PNO=
PABV 081056Z AUTO 13004KT 10SM CLR 11/07 RMK AO1 PNO=
PADK 081056Z 04009KT 9SM FEW021 OVC029 07/06 A2955 RMK AO1 PNO=
PADL 081056Z 32006KT 10SM FEW043 OVC050 10/08 A2998 RMK AO1 PNO
     TSNO=
PAEM 081056Z AUTO 34003KT 10SM OVC070 12/08 A3004 RMK AO1 PNO=
PAFE 081056Z AUTO 07003KT 10SM CLR 11/09 A3018 RMK AO1 PNO=
PAFM 081056Z AUTO 00000KT 10SM CLR 14/08 A3010 RMK AO1 PNO=
PAGL 081056Z AUTO 10SM CLR 16/07 RMK AO1 PNO=
PAGS 081056Z AUTO 00000KT 10SM CLR 09/08 A3019 RMK AO1 PNO=
PAHP 081056Z AUTO 34007KT 10SM FEW075 09/07 A3005 RMK AO1 PNO
     TSNO=
PAHY 081056Z AUTO 36004KT 10SM CLR 16/10 A3012 RMK AO1 PNO=
PAII 081056Z AUTO 01004KT 10SM BKN042 OVC065 10/08 A2997 RMK AO1
     PNO=
PAIN 081056Z AUTO 00000KT 10SM CLR 08/06 A3008 RMK AO1 PNO=
PAJC 081056Z AUTO 00000KT 10SM OVC017 08/04 A2994 RMK AO1 PNO=
PAKK 081056Z AUTO 36011G15KT 10SM CLR 13/07 A3005 RMK AO1 PNO=
PAKP 081056Z AUTO 36003KT 10SM BKN035 10/03 A3012 RMK AO1=
PAMD 081056Z AUTO 09018KT 10SM BKN027 OVC032 09/08 A3003 RMK AO1
     PNO=
PAMH 081056Z 00000KT 10SM CLR 14/05 A2999 RMK AO1 PNO=
PAMM 081056Z AUTO 00000KT 10SM CLR 18/11 A3009 RMK AO1 PNO=
PAMY 081056Z 27006KT 1/4SM OVC002 04/03 A3006 RMK AO1=
PANI 081056Z AUTO 00000KT 8SM FEW090 09/08 A3001 RMK AO1 PNO=
PANV 081056Z AUTO 27003KT 10SM SCT085 OVC090 12/08 A2998 RMK AO1
     PNO=
PAOU 081056Z AUTO 05009KT 10SM FEW050 07/06 A2996 RMK AO2 PWINO
     TSNO T00720061 SLP148 $=
PAPG 081056Z 04004KT 10SM CLR 12/09 A3014 RMK AO1 PNO=
PAPH 081056Z AUTO 00000KT 6SM BKN060 06/05 A2996 RMK AO1 PNO=
PAPN 081056Z AUTO 00000KT 5SM BR FEW055 08/07 A2994 RMK AO2 PWINO
     TSNO T00770066 SLP143 $=
PARC 081056Z AUTO 04006KT 10SM CLR 10/01 A3005 RMK AO1 PNO=
PASA 081056Z AUTO 06003KT 10SM CLR 05/03 A3019 RMK AO1 PNO=
PASD 081056Z AUTO 00000KT 10SM FEW039 07/05 A2994 RMK AO1 PNO=
PASH 081056Z AUTO 00000KT 10SM CLR 07/06 A3018 RMK AO1 PNO=
PASK 081056Z 25008KT 10SM CLR 12/07 A3011 RMK AO1 PNO=
PASL 081056Z AUTO 00000KT 10SM OVC095 12/08 A3000 RMK AO1 PNO=
PASM 081056Z AUTO 00000KT 10SM OVC070 09/08 A3005 RMK AO1 PNO=
PASX 081056Z 05004KT 10SM BKN075 13/09 A2994 RMK AO1 PNO=
PAUN 081056Z AUTO 11004KT 10SM CLR 12/04 A3002 RMK AO1 PNO=
PAVD 081056Z 00000KT 10SM OVC080 11/08 A3009 RMK AO1 PNO=
PAWG 081056Z AUTO 00000KT 10SM CLR 13/10 A3013 RMK AO1 PNO=
PAWN 081056Z AUTO 25004KT 10SM CLR 08/03 A3015 RMK AO1 PNO=
PAWS 081056Z AUTO 00000KT 10SM FEW090 11/09 A2997 RMK AO1 PNO=
PAZK 081056Z AUTO 07010KT 10SM FEW060 FEW120 09/03 A3009 RMK AO1
     PNO=
####018003744####
SAUS99 KWBC 081058
METAR
KLAS 081056Z 22008KT 10SM FEW160 28/M04 A2981 RMK AO2 SLP063
     T02781044=
KLCK 081055Z AUTO 00000KT 3SM BR CLR 22/21 A3008 RMK AO2
     T02170206=
KLNR 081056Z AUTO 00000KT 1SM BR OVC002 21/19 A3004 RMK AO2 SLP162
     T02060194=
KLRF 081055Z AUTO 00000KT 10SM BKN170 23/22 A3006 RMK AO2 SLP177
     T02300224=
KM19 081056Z AUTO 20005KT 10SM CLR 24/23 A3007 RMK AO2 T02440227
     SLP179=
KMCF 081055Z AUTO 07004KT 10SM CLR 22/22 A2999 RMK AO2 SLP156
     T02220221=
KMOB 081056Z 00000KT 7SM MIFG FEW020 SCT250 22/21 A3004 RMK AO2
     SLP170 T02220211=
KMQY 081056Z AUTO 00000KT 10SM CLR 23/22 A3009 RMK AO2 T02330222
     SLP178=
KOFK 081056Z AUTO 25003KT 10SM BKN090 16/14 A3020 RMK AO2 SLP220
     T01560144=
KOZR 081055Z 00000KT 3/4SM R06/0700V1200FT BR FEW002 22/22 A3002
     RMK AO2A SLP166 T02160216=
KRDM 081056Z AUTO 00000KT 10SM CLR 11/03 A3006 RMK AO2 SLP155
     T01110033 $=
KSBP 081056Z AUTO 30005KT 10SM OVC007 13/12 A2991 RMK AO2 SLP127
     T01280117 $=
KSFO 081056Z 26010KT 10SM BKN008 OVC013 13/11 A2992 RMK AO2 SLP132
     T01330106=
KSLE 081056Z AUTO 15006KT 10SM CLR 16/12 A2988 RMK AO2 SLP118
     T01560122=
KSRC 081056Z AUTO 00000KT 8SM CLR 23/22 A3007 RMK AO2 TSNO
     T02270222 SLP184=
KSSC 081055Z AUTO 30007KT 10SM CLR 25/19 A2996 RMK AO2 SLP143
     T02500190 $=
KTZR 081056Z AUTO 00000KT 4SM BR CLR 21/19 A3009 RMK AO2=
KUKI 081056Z AUTO 00000KT 10SM CLR 12/10 A2990 RMK AO2 SLP117
     T01220100=
KWRB 081055Z 00000KT 10SM CLR 20/20 A3002 RMK AO2A SLP163
     T02030203=
KY51 081055Z AUTO 29004KT 1 3/4SM SCT003 19/19 A3005 RMK AO1
     T01900187=
PAAK 081056Z AUTO 07021KT 7SM OVC011 07/04 A2958 RMK AO1 PNO=
PAHP 081056Z AUTO 34007KT 10SM FEW075 09/07 A3005 RMK AO1 PNO
     TSNO=
K04W 081054Z AUTO 00000KT 10SM CLR 16/15 A3007 RMK AO2
     T01550150=
K1A6 081055Z AUTO 00000KT 1 1/4SM BR OVC001 21/21 A3012 RMK
     AO2=
K1M4 081056Z AUTO 00000KT 10SM CLR 22/21 A3011 RMK AO2 T02160211
     SLP193=
K21D 081058Z AUTO 00000KT 10SM CLR 16/16 A3008 RMK AO2=
KAIG 081055Z AUTO 34005KT 1 1/2SM BR OVC001 18/17 A3002 RMK
     AO2=
KAND 081056Z AUTO 00000KT 8SM CLR 22/20 A3003 RMK AO2 SLP158
     T02170200=
KBJI 081054Z AUTO 23006KT 10SM CLR 14/13 A3005 RMK AO2=
KBUU 081054Z AUTO 00000KT 5SM BR BKN006 OVC013 21/21 A3002 RMK
     AO2=
KBZN 081056Z AUTO 00000KT 10SM CLR 10/04 A3028 RMK AO2 SLP226
     T01000039=
KCEF 081055Z AUTO 16005KT 10SM FEW010 24/22 A3006 RMK AO2 SLP179
     T02410219 PWINO $=
KCMI 081053Z COR 18003KT 5SM BR BKN100 23/22 A3004 RMK AO2 SLP165
     T02280217=
KCTB 081056Z AUTO 32004KT 10SM CLR 08/05 A3024 RMK AO2 SLP223
     T00780050=
KD39 081054Z AUTO 00000KT 10SM CLR 15/14 A3011 RMK AO2
     T01530144=
KDIK 081056Z AUTO 22005KT 10SM CLR 09/08 A3015 RMK AO2 SLP205
     T00940078=
KDUG 081056Z AUTO 08017G22KT 10SM CLR 24/12 A3002 RMK AO2 PK WND
     08027/1008 SLP083 T02440117 $=
KDVK 081057Z AUTO 00000KT 3SM 21/19 A3010 RMK AO1=
KEAU 081056Z 00000KT 10SM CLR 18/17 A3004 RMK AO2 SLP167
     T01830172=
KEED 081056Z AUTO 32006KT 10SM CLR 28/M03 A2975 RMK AO2 SLP039
     T02781033 TSNO=
KEKO 081056Z AUTO 00000KT 10SM CLR 11/M01 A3012 RMK AO2 SLP146
     T01111011=
KFBG 081055Z AUTO 35004KT 10SM CLR 25/19 A2995 RMK AO2 SLP139
     T02500191 $=
KGRD 081056Z AUTO 31003KT 10SM CLR 22/20 A3004 RMK AO2 SLP162
     T02170200=
KGUS 081055Z AUTO 14003KT 10SM FEW060 SCT100 23/21 A3004 RMK AO2
     SLP166 T02290208=
KHFF 081055Z AUTO 00000KT 10SM CLR 22/17 A2998 RMK AO2 SLP148
     T02210173 $=
KHND 081056Z AUTO 20008KT 10SM CLR 25/M03 A2988 RMK AO2 T02501027
     SLP061=
####018000081####
SABZ20 SBBV 081100
METAR SBBV 081100Z 23002KT 9999 FEW020 SCT030 26/24 Q1012=
####018000621####
SPUS99 KWBC 081058
SPECI
KSTC 081056Z AUTO 00000KT 1 3/4SM BR CLR 13/12 A3009 RMK AO2=
KAUS 081056Z 06005KT 10SM FEW007 BKN012 26/24 A2995 RMK AO2=
KCEF 081053Z AUTO 16005KT 10SM FEW010 24/22 A3006 RMK AO2 SLP179
     PWINO $=
KHRT 081046Z AUTO 00000KT 1 1/2SM R18/2800VP6000FT BR CLR 23/23
     A3001 RMK AO2 SLP165 $=
KHRT 081047Z AUTO 00000KT 1 1/4SM R18/2800VP6000FT BR CLR 23/23
     A3001 RMK AO2 SLP165 $=
KHRT 081048Z AUTO 00000KT 1SM R18/2800VP6000FT BR CLR 23/23 A3001
     RMK AO2 SLP165 $=
KHRT 081050Z AUTO 00000KT 3/4SM R18/2800VP6000FT BR CLR 23/23
     A3001 RMK AO2 SLP165 $=
####018000068####
SABZ23 SBCF 081100
METAR SBCF 081100Z 13003KT CAVOK 13/09 Q1024=
####018000329####
SAMX34 MMMD 081100
METAR MMUN 081042Z 13004KT 6SM  SCT015 BKN090 BKN300 27/24 A2988 
      RMK 8/538 HZY=
METAR MMMD 081046Z 10006KT 6SM  BKN070 19/19 A2985 RMK 8/070 HZY=
METAR MMCZ 081045Z 09005KT 6SM  BKN100 26/24 A2985 RMK 8/070 SC HZY=
METAR MMTP 081040Z 00000KT 10SM BKN020 BKN100 24/22 A2988
      RMK 8/170=
####018000084####
SABZ21 SBSV 081100
METAR SBSV 081100Z 24007KT 5000 BR SCT011 SCT017 24/21 Q1018=
####018000110####
SAKA31 PTRO 081100
METAR PTRO 081054Z 00000KT 14SM SCT016TCU BKN120 BKN300 26/24 A2988 
RMK TCU VC ALQDS
####018000347####
SAFI34 EFHK 081050
EFET 081050Z AUTO 20010KT 160V230 CAVOK 21/06 Q1014=
EFIV 081050Z AUTO VRB02KT CAVOK 20/12 Q1016=
EFKE 081050Z 18008KT 140V230 9999 BKN033 21/13 Q1016=
EFKI 081050Z AUTO 34003KT CAVOK 22/13 Q1016=
EFKS 081050Z AUTO VRB04KT CAVOK 19/11 Q1017=
EFKT 081050Z AUTO 17009KT 090V210 CAVOK 22/08 Q1015=
METAR EFSO 081056Z NIL=
####018000085####
SAAT31 TRPG 081057
METAR TRPG 081100Z 07010KT 9999 SCT020 28/24 Q1016 RMK SLT HZ=
####018000113####
SACN94 KWBC 081058
METAR CWND 081000Z AUTO 30018KT 05/03 RMK AO1 PK WND 31023/0914
SLP151 T00460027 51007=
####018000068####
SABZ21 SBAR 081100
METAR SBAR 081100Z 23006KT CAVOK 24/22 Q1017=
####018000269####
SAZA42 FAJS 081100
METAR FAVV 081100Z AUTO 06011KT //// // ////// 16/03 Q1031=
METAR FAJB 081100Z AUTO 04004KT //// // ////// 17/04 Q1033=
METAR FASI 081100Z AUTO 05005KT //// // ////// 16/M01 Q1033=
METAR FAGC 081100Z AUTO 04008KT //// // ////// 15/03 Q1034=
####018000129####
SAMX54 MMMD 081100
METAR MMVA 081056Z 00000KT 7SM  SCT100 BKN200 26/24 A2978 
      RMK 60091 8/036 RTS=





TX OPMET V1
####018000066####
SAEW LEJR 081100
METAR LEJR 081100Z VRB02KT CAVOK 30/18 Q1016=
####018000448####
SAMX43 MMMZ 081100
METAR MMCN 081052Z 00000KT 10SM  FEW080 SCT200 26/20 A2973 
      RMK 8/036 RTS=
METAR MMDO 081048Z 03008KT 6SM  SCT015 OVC020 18/17 A3012 
      RMK 8/8// RTS=
METAR MMHO 081045Z 00000KT 10SM  BKN080 27/18 A2979 RMK 8/050 HZY=
METAR MMML 081046Z 15010KT 10SM SKC 22/// A2969
METAR MMMZ 081049Z 00000KT 10SM  SCT070 OVC200 27/22 A2975 RMK 8/077=
METAR MMTJ 081043Z 00000KT 5SM  OVC013 16/14 A2993 RMK 8/5// HZY=
####018000087####
SAES20 MSLP 081100
METAR MSLP 081050Z 00000KT 9999 FEW023 BKN070 24/23 Q1010 A2984=
####018000071####
SABZ23 SBGL 081100
METAR SBGL 081100Z 06003KT 8000 NSC 18/16 Q1018=
####018000091####
SAHW31 PWAK 081056
METAR PWAK 081056Z 07012KT 6SM BR FEW024 27/25 A2999 
RMK AO2A
=
####018000260####
SAEO32 EGGY 081050
METAR EEKA 081050Z 31009KT 250V340 CAVOK 22/13 Q1016=
METAR EEKE 081050Z 34008KT 290V010 CAVOK 22/13 Q1016=
METAR EEPU 081050Z 30006KT 9999 FEW025 24/19 Q1014=
METAR EETU 081050Z 31003KT 250V040 9999 FEW026TCU SCT033 26/19
    Q1013=
####018003716####
SAXX60 KWBC 081100 RRA
METAR
KEND 081055Z AUTO 36006KT 10SM FEW090 BKN220 22/21 A3006 RMK AO2
     SLP168 T02180213 $=
KFTK 081055Z AUTO 00000KT 10SM CLR 23/21 A3007 RMK AO2 SLP176
     T02250208=
KHST 081055Z AUTO 00000KT 10SM CLR 26/24 A2994 RMK AO2 LTG DSNT S
     RAE1012DZB1012E1014 SLP140 P0002 T02570243 $=
KMUI 081055Z AUTO 00000KT 10SM CLR 23/20 A3003 RMK AO2 SLP167
     T02310195 $=
KOFF 081055Z AUTO 36003KT 10SM CLR 20/20 A3013 RMK AO2 SLP193
     T01950195 $=
KRND 081055Z AUTO 06005KT 10SM BKN008 25/24 A2994 RMK AO2 SLP128
     T02470235=
KSKF 081055Z 05008KT 9SM -RA SCT014 BKN021 25/ A2993 RMK AO2A
     RAB1051 BKN V SCT SLP123 P0000 T0254 $=
KWRB 081055Z 00000KT 10SM CLR 20/20 A3002 RMK AO2A SLP163
     T02030203=
PABI 081053Z AUTO 14003KT 10SM CLR 11/07 A3008 RMK AO2 SLP187
     T01060072 TSNO=
PHHI 081055Z AUTO 30004KT 10SM FEW044 19/17 A3005 RMK AO2 SLP165
     T01850167=
KNHK 081052Z 09004KT 3SM BR FEW010 SCT110 26/24 A3000 RMK AO2
     SLP158 T02610239=
KNZY 081052Z 31006KT 8SM -DZ FEW008 OVC016 18/14 A2989 RMK AO2
     DZB52 SLP120 P0000 T01830139 $=
KOFF 081055Z AUTO 36003KT 10SM CLR 20/20 A3013 RMK AO2 SLP193
     T01950195 $=
KOZR 081055Z 00000KT 3/4SM R06/0700V1200FT BR FEW002 22/22 A3002
     RMK AO2A SLP166 T02160216=
KPOB 081055Z AUTO 00000KT 10SM CLR 23/20 A2995 RMK AO2 SLP142
     T02280203 $=
KRDR 081055Z AUTO 24007KT 10SM CLR 14/13 A3005 RMK AO2 SLP184
     T01390128 $=
KRIV 081055Z 29004KT 3SM BR OVC003 13/12 A2990 RMK AO2A SLP121
     T01300124=
KRND 081055Z AUTO 06005KT 10SM BKN008 25/24 A2994 RMK AO2 SLP128
     T02470235=
KSKF 081055Z 05008KT 9SM -RA SCT014 BKN021 25/ A2993 RMK AO2A
     RAB1051 BKN V SCT SLP123 P0000 T0254 $=
KSSC 081055Z AUTO 30007KT 10SM CLR 25/19 A2996 RMK AO2 SLP143
     T02500190 $=
KSUU 081055Z AUTO 24022G25KT 10SM BKN170 12/10 A2982 RMK AO2 PK
     WND 24028/1010 SLP101 T01200101 RVRNO $=
KTBN 081055Z AUTO 15003KT 9SM FEW020 BKN070 BKN085 23/ A3006 RMK
     AO2 LTG DSNT W SLP162 T0225 $=
KWRB 081055Z 00000KT 10SM CLR 20/20 A3002 RMK AO2A SLP163
     T02030203=
KWRI 081055Z AUTO 00000KT 1 1/4SM R18/5500VP6000FT BR SCT001 24/24
     A3001 RMK AO2 SLP162 T02360236 $=
KBAB 081055Z AUTO 15005KT 10SM FEW180 16/11 A2982 RMK AO2 SLP099
     T01630109 $=
KGSB 081055Z AUTO 03004KT 9SM SCT160 25/20 A2993 RMK AO2 SLP135
     T02530202 $=
KLHW 081055Z AUTO 25003KT 10SM CLR 21/20 A2999 RMK AO2 SLP157
     T02140199=
KLSF 081055Z AUTO 00000KT 10SM CLR 21/20 A3002 RMK AO2 SLP165
     T02130204 $=
KMUO 081055Z AUTO 09004KT 10SM CLR 14/01 A3007 RMK AO2 SLP159
     T01400008=
KNFW 081052Z AUTO 00000KT 10SM FEW012 26/22 A3005 RMK AO2 SLP159
     T02610222=
KNKT 081054Z 04006KT 4SM BR CLR 26/24 A2993 RMK AO2 SLP132
     T02610239=
KNRB 081052Z 00000KT 10SM CLR 24/21 A3000 RMK AO2 SLP158
     T02390211=
KRIV 081055Z 29004KT 3SM BR OVC003 13/12 A2990 RMK AO2A SLP121
     T01300124=
KSSC 081055Z AUTO 30007KT 10SM CLR 25/19 A2996 RMK AO2 SLP143
     T02500190 $=
KTBN 081055Z AUTO 15003KT 9SM FEW020 BKN070 BKN085 23/ A3006 RMK
     AO2 LTG DSNT W SLP162 T0225 $=
KTCM 081055Z AUTO 00000KT 10SM CLR 13/11 A2995 RMK AO2 SLP143
     T01310114=
KVAD 081055Z AUTO 00000KT 8SM CLR 21/20 A3002 RMK AO2 SLP166
     T02150198 $=
KWRI 081055Z AUTO 00000KT 1 1/4SM R18/5500VP6000FT BR SCT001 24/24
     A3001 RMK AO2 SLP162 T02360236 $=
KBAB 081055Z AUTO 15005KT 10SM FEW180 16/11 A2982 RMK AO2 SLP099
     T01630109 $=
KBKF 081055Z 20006KT 25SM BKN020 BKN040 13/13 A3032 RMK SLP224=
KEND 081055Z AUTO 36006KT 10SM FEW090 BKN220 22/21 A3006 RMK AO2
     SLP168 T02180213 $=
####018003711####
SAUS70 KWBC 081100
METAR
KBAF 081053Z 14003KT 6SM HZ SCT100 24/21 A3006 RMK AO2 SLP174
     T02440211=
KBUR 081053Z 00000KT 7SM OVC007 16/13 A2989 RMK AO2 SLP111
     T01560133=
KTOI 081053Z AUTO 00000KT 7SM CLR 22/21 A3004 RMK AO2 SLP166
     T02170211=
PHJR 081053Z 00000KT 10SM FEW045 22/18 A3004 RMK AO2 SLP179
     T02220178=
TIST 081053Z 08005KT 10SM CLR 28/24 A2999 RMK AO2 SLP157
     T02830244=
TISX 081053Z 08009KT 10SM FEW023 28/24 A2999 RMK AO2 SLP155
     T02780239=
KGED 081054Z AUTO 10005KT 5SM BR CLR 24/23 A3002 RMK AO2 SLP165
     T02440228=
KGTU 081055Z 07004KT 10SM FEW008 SCT027 OVC045 24/22 A3001 RMK
     AO1=
KHYI 081055Z AUTO 04006KT 8SM SCT011 BKN016 OVC022 25/24 A2995 RMK
     AO1=
KILE 081055Z 10008KT 10SM SCT011 SCT018 OVC026 24/22 A2997 RMK
     AO1=
KJST 081054Z AUTO 24004KT 4SM HZ CLR 19/16 A3015 RMK AO2 SLP191
     T01940161=
KMLB 081053Z 00000KT 9SM CLR 21/21 A2998 RMK AO2 SLP151
     T02060206=
KOCH 081055Z AUTO 09006KT 10SM CLR 24/19 A3002 RMK AO1=
KPHL 081054Z 12004KT 3SM BR FEW150 25/23 A3003 RMK AO2 SLP168
     T02500228 $=
KPRX 081055Z 11005KT 5SM SCT004 OVC013 24/22 A3004 RMK AO1=
KPWG 081055Z AUTO 10005KT 10SM FEW013 OVC120 25/22 A2999 RMK
     AO1=
KSAW 081050Z 00000KT 1 1/4SM BR BKN001 18/17 A2998=
KTPL 081055Z 08004KT 10SM OVC006 24/23 A2999 RMK AO1=
KBOS 081054Z 17007KT 10SM CLR 22/19 A3009 RMK AO2 SLP189
     T02220194=
KBRO 081053Z 34003KT 10SM FEW016 26/25 A2977 RMK AO2 RAE0959
     SLP079 P0000 T02610250=
KFLL 081053Z 07007KT 10SM FEW022 28/24 A2993 RMK AO2 SLP135
     T02780244=
KJFK 081051Z 13007KT 1/8SM R04R/1800V3500FT BR BKN002 BKN120 24/23
     A3004 RMK AO2 SFC VIS 1 1/2 SLP173 VIS SE-SW 1 T02440228
     $=
KMCO 081053Z 35004KT 10SM MIFG FEW015 FEW250 22/21 A2999 RMK AO2
     SLP155 T02170206=
KPBI 081053Z 04005KT 10SM SCT023CB SCT150 BKN250 27/24 A2994 RMK
     AO2 SLP137 CB NE-S MOV SW CB DSNT SE VCSH NE-E S
     T02720239=
TIST 081053Z 08005KT 10SM CLR 28/24 A2999 RMK AO2 SLP157
     T02830244=
TISX 081053Z 08009KT 10SM FEW023 28/24 A2999 RMK AO2 SLP155
     T02780239=
PASC 081053Z 25011KT 10SM BKN024 BKN080 OVC210 11/07 A3002 RMK AO2
     SLP167 T01060072=
KNSE 081056Z AUTO 00000KT 1/2SM FG VV004 22/21 A3003 RMK AO2
     SLP152 T02220206 $=
KHFF 081055Z AUTO 00000KT 10SM CLR 22/17 A2998 RMK AO2 SLP148
     T02210173 $=
KNQA 081055Z COR 00000KT 10SM FEW250 23/23 A3008 RMK=
KOWB 081056Z 15003KT 10SM FEW090 25/23 A3006 RMK AO2 T02500227
     SLP174=
KRCE 081055Z AUTO 01004KT 1/2SM FG OVC002 22/22 A3007 RMK AO2=
KRIL 081053Z AUTO 00000KT 10SM CLR 12/07 A3025 RMK AO2 SLP177
     T01220072 TSNO=
KSGR 081053Z 05006KT 10SM FEW055 26/24 A2990 RMK AO2 SLP134
     T02610239=
KSRR 081055Z AUTO 00000KT 10SM BKN110 13/12 A3035 RMK AO2=
KUCP 081056Z AUTO 00000KT 2SM BR CLR 19/19 A3011 RMK AO2 T01880188
     SLP201 $=
KWYS 081050Z AUTO 20004KT 10SM CLR M01/M02 A3037 RMK AO2=
K0A9 081055Z AUTO 00000KT 7SM FEW085 20/18 A3013 RMK=
K5SM 081053Z AUTO 13003KT 10SM CLR 08/00 A3055 RMK AO2=
K7BM 081056Z AUTO 00000KT 10SM SCT100 08/05 A3055 RMK AO2=
KADS 081050Z 14005KT 10SM OVC012 26/23 A3002=
KBBG 081055Z AUTO 00000KT 8SM CLR 22/22 A3008 RMK AO2=
KBBP 081055Z AUTO 00000KT 10SM CLR 23/19 A2995 RMK AO2=
KBDU 081057Z AUTO 28005KT 10SM CLR 13/12 A3032 RMK AO2=
KBJC 081057Z AUTO 35006KT 3SM BR BKN001 BKN006 12/12 A3034 RMK
     AO2=
KBKN 081055Z AUTO 02006KT 10SM CLR 22/21 A3004 RMK AO2=
KBMI 081056Z 00000KT 3SM BR SCT090 23/22 A3006 RMK AO2 T02270222
     SLP163 $=
KBOK 081056Z AUTO 00000KT 1 3/4SM BR OVC002 09/09 A2997 RMK AO2
     T00880088 SLP150 $=
####018000380####
SAPQ50 KWBC 081100
METAR
PGSN 081054Z 09012G19KT 10SM FEW018 28/23 A2991 RMK AO2 SLPNO
     T02780233=
PGUM 081054Z 08014G17KT 10SM SCT026 SCT048 28/24 A2991 RMK AO2
     SLP119 T02830244=
PTKK 081050Z VRB05KT 15SM FEW014 BKN120 OVC280 26/23 A2984 RMK
     SLP106 T02560232=
PTRO 081054Z 00000KT 14SM SCT016TCU BKN120 BKN300 26/24 A2988 RMK
     TCU VC ALQDS=
####018000081####
SABZ21 SBRF 081100
METAR SBRF 081100Z 23004KT 9999 FEW020 BKN070 24/22 Q1016=
####018000673####
SPXX60 KWBC 081058
SPECI
KNGP 081053Z 10012G16KT 4SM +RA BR FEW011 SCT015 BKN033 28/26
     A2982 RMK AO2 RAB49 P0008 $=
KNGU 081055Z 09006KT 5SM BR FEW008 SCT070 BKN120 26/23 A2999 RMK
     AO2=
KCEF 081053Z AUTO 16005KT 10SM FEW010 24/22 A3006 RMK AO2 SLP179
     PWINO $=
KHRT 081046Z AUTO 00000KT 1 1/2SM R18/2800VP6000FT BR CLR 23/23
     A3001 RMK AO2 SLP165 $=
KHRT 081047Z AUTO 00000KT 1 1/4SM R18/2800VP6000FT BR CLR 23/23
     A3001 RMK AO2 SLP165 $=
KHRT 081048Z AUTO 00000KT 1SM R18/2800VP6000FT BR CLR 23/23 A3001
     RMK AO2 SLP165 $=
KHRT 081050Z AUTO 00000KT 3/4SM R18/2800VP6000FT BR CLR 23/23
     A3001 RMK AO2 SLP165 $=
####018003702####
SAUS80 KWBC 081100
METAR
KSAN 081051Z 31005KT 10SM SCT014 OVC017 17/13 A2991 RMK AO2 SLP126
     T01670133=
KGSO 081054Z 02004KT 6SM HZ FEW095 25/18 A3003 RMK AO2 SLP155
     T02500178=
KACY 081054Z 11003KT 8SM -RA FEW060 24/23 A3004 RMK AO2 RAB49
     SLP172 P0000 T02440228=
KFWA 081054Z 00000KT 7SM CLR 23/20 A3006 RMK AO2 SLP172
     T02280200=
KAVP 081054Z 00000KT 4SM HZ CLR 21/18 A3008 RMK AO2 SLP171
     T02110178 $=
KAAF 081053Z AUTO 01006KT 9SM CLR 24/23 A3001 RMK AO2 SLP161
     T02390228=
KESN 081050Z 11004KT 1SM BR BKN003 23/23 A3004=
KPVD 081051Z 13005KT 5SM BR BKN004 OVC009 22/21 A3010 RMK SLP191
     T02220206=
KSPS 081052Z COR 10004KT 10SM FEW015 FEW033 SCT150 23/22 A3003 RMK
     AO2 SLP154 T02280217=
KGNT 081053Z AUTO 15014KT 16/08 A3030 RMK AO2 SLP165 T01610083
     PWINO TSNO=
KRNO 081055Z 00000KT 10SM FEW150 21/04 A3004 RMK AO2 SLP112
     T02110044=
KSAV 081053Z 22003KT 10SM FEW250 21/19 A3000 RMK AO2 SLP156
     T02110194=
KSBN 081054Z 00000KT 6SM BR CLR 23/21 A3004 RMK AO2 SLP166
     T02330211=
KSCK 081055Z AUTO 02003KT 10SM CLR 13/11 A2984 RMK AO2 SLP105
     T01330111=
KSMS 081055Z AUTO 35003KT 9SM CLR 23/19 A2998 RMK AO2=
KTLH 081053Z 00000KT 10SM BCFG CLR 22/21 A3002 RMK AO2 SLP165
     T02170206=
KLAX 081053Z 24003KT 10SM OVC012 16/12 A2990 RMK AO2 SLP123
     T01610122=
K4BM 081053Z AUTO 22004KT 1/4SM -RA 05/04 A3063 RMK AO2=
KABI 081052Z 01005KT 7SM SCT002 BKN010 22/21 A3006 RMK AO2 SLP157
     T02170211 $=
KBTV 081054Z 00000KT 5SM HZ CLR 24/22 A3002 RMK AO2 SLP162
     T02440217=
KCHA 081053Z 00000KT 10SM CLR 22/19 A3007 RMK AO2 SLP174
     T02170189=
KCNK 081055Z AUTO 01009KT 10SM SCT031 19/18 A3015 RMK AO2 SLP199
     T01940183=
KDLH 081055Z 29004KT 10SM CLR 15/13 A3005 RMK AO2 SLP176
     T01500133=
KGPI 081055Z AUTO 27003KT 10SM CLR 07/06 A3018 RMK AO2 SLP211
     T00720061=
KIRK 081055Z AUTO 32003KT 9SM CLR 19/19 A3007 RMK AO2 SLP180
     T01940189=
KLIC 081055Z AUTO 15004KT 6SM BR BKN005 OVC120 13/13 A3033 RMK AO2
     SLP216 T01330133=
KLND 081053Z AUTO 26007KT 10SM CLR 10/03 A3033 RMK AO2 SLP226
     T01000028=
KLXV 081053Z AUTO 18006KT 10SM CLR 06/05 A3051 RMK AO2 SLP212
     T00560050 TSNO=
KMKG 081055Z 00000KT 4SM BR FEW075 BKN100 23/22 A3002 RMK AO2
     RAE47 SLP162 P0000 T02330217 $=
KMSN 081053Z 00000KT 9SM FEW006 OVC015 21/20 A3002 RMK AO2 SLP159
     T02110200=
KMWT 081053Z AUTO 00000KT 10SM CLR 23/22 A3005 RMK AO2 SLP163
     T02280222 TSNO=
KRFD 081054Z 27005KT 6SM BR OVC006 22/21 A3004 RMK AO2 SLP169
     T02220211=
KHON 081055Z AUTO 23003KT 10SM CLR 16/13 A3014 RMK AO2 SLP202
     T01560133=
KDRA 081055Z AUTO 04007KT 10SM CLR 21/M11 A2993 RMK AO2 SLP083
     T02111106 TSNO=
KCAO 081055Z AUTO 01007KT 10SM OVC100 16/13 A3031 RMK AO2 RAE14
     SLP200 P0000 T01560133 TSNO=
KINL 081055Z AUTO 22005KT 10SM FEW090 13/12 A3000 RMK AO2 SLP160
     T01280122=
KAST 081055Z AUTO 00000KT 7SM OVC003 12/11 A2995 RMK AO2 SLP140
     T01220106=
KANJ 081055Z AUTO 17003KT 4SM -RA BR BKN006 OVC012 20/19 A2995 RMK
     AO2 RAB28 CIG 004V010 SLP136 P0000 T02000194=
KPHP 081055Z AUTO 26010KT 10SM CLR 12/09 A3021 RMK AO2 SLP217
     T01220094 TSNO $=
KCHS 081056Z 27005KT 8SM CLR 24/19 A2997 RMK AO2 SLP147
     T02390194=
KJAX 081056Z 25003KT 8SM CLR 20/19 A3000 RMK AO2 SLP158
     T02000189=
KABQ 081056Z 05009KT 10SM SCT100 BKN200 20/09 A3026 RMK AO2 SLP158
     T02000094=
KSHV 081056Z 13004KT 10SM SCT160 BKN280 24/23 A3003 RMK AO2 SLP164
     T02440233=
TJSJ 081056Z 11003KT 10SM FEW020 SCT110 28/24 A3000 RMK AO2 SLP158
     T02780244=
####018002940####
SAXX60 KWBC 081100 RRC
METAR
KMMT 081055Z 30003KT 10SM FEW100 21/19 A2998 RMK AO2A SLP152
     T02130190=
KSKA 081055Z AUTO 00000KT 10SM CLR 15/08 A3007 RMK AO2 SLP170
     T01490082=
KXMR 081055Z AUTO 00000KT 10SM CLR 19/18 A2998 RMK AO2 SLP154
     T01880178=
PGUA 081055Z AUTO 09016G22KT 10SM BKN019 BKN025 27/ A2991 RMK AO2
     RAB1032E1041 CIG 017V024 SLP109 P0000 T0271 VISNO RWY24L
     $=
PHHI 081055Z AUTO 30004KT 10SM FEW044 19/17 A3005 RMK AO2 SLP165
     T01850167=
PHNL 081053Z 06009KT 10SM FEW032 SCT049 24/18 A3003 RMK AO2 SLP168
     T02440178=
KLRF 081055Z AUTO 00000KT 10SM BKN170 23/22 A3006 RMK AO2 SLP177
     T02300224=
KMCF 081055Z AUTO 07004KT 10SM CLR 22/22 A2999 RMK AO2 SLP156
     T02220221=
KOZR 081055Z 00000KT 3/4SM R06/0700V1200FT BR FEW002 22/22 A3002
     RMK AO2A SLP166 T02160216=
KSSC 081055Z AUTO 30007KT 10SM CLR 25/19 A2996 RMK AO2 SLP143
     T02500190 $=
KWRB 081055Z 00000KT 10SM CLR 20/20 A3002 RMK AO2A SLP163
     T02030203=
KCEF 081055Z AUTO 16005KT 10SM FEW010 24/22 A3006 RMK AO2 SLP179
     T02410219 PWINO $=
KFBG 081055Z AUTO 35004KT 10SM CLR 25/19 A2995 RMK AO2 SLP139
     T02500191 $=
KGUS 081055Z AUTO 14003KT 10SM FEW060 SCT100 23/21 A3004 RMK AO2
     SLP166 T02290208=
KNBT 081056Z AUTO 06013KT 3SM BR CLR 28/ A2992 RMK AO2 SLP136
     T0283 TSNO=
KNCA 081056Z AUTO 00000KT 5SM BR CLR 23/22 A2993 RMK AO2 SLP136
     T02330217=
KABH 081056Z AUTO 26006KT 1SM BR BKN001 OVC006 12/12 A3037 RMK AO2
     SLP227 T01220117 $=
KNYG 081056Z 08007KT 5SM HZ FEW090 BKN200 27/22 A3000 RMK AO2
     SLP160 T02670222=
K9L2 081056Z AUTO 21007KT 10SM CLR 18/04 A2988 RMK AO2 SLP093
     T01780039 $=
KNQI 081056Z AUTO 02004KT 4SM RA BR BKN027 BKN035 BKN055 27/25
     A2982 RMK AO2 RAB18 SLP095 P0011 T02670250 $=
KNXX 081056Z 00000KT 3SM HZ CLR 24/21 A3005 RMK AO2 SLP177
     T02390206 $=
KNXF 081056Z AUTO 33003KT 7SM OVC015 16/13 A2989 RMK AO2 SLP207
     T01610133 TSNO=
KHLR 081056Z AUTO 08004KT 10SM SCT009 BKN015 OVC023 25/ A2999 RMK
     AO2 SLP146 T0250 $=
KAQV 081056Z AUTO 00000KT 10SM FEW017 BKN100 23/23 A3001 RMK AO2
     SLP159 T02330228 $=
KPRN 081056Z AUTO 00000KT 10SM CLR 23/22 A3003 RMK AO2 SLP164
     T02330217 $=
KNXP 081056Z AUTO 29005KT CLR 23/00 A2991 RMK AO2 SLP089 T02330000
     $=
KNFG 081056Z AUTO 00000KT 10SM OVC010 16/14 A2989 RMK AO2 SLP121
     T01560139 TSNO=
KNFL 081056Z AUTO 00000KT 10SM CLR 18/M01 A2998 RMK AO2 SLP124
     T01831006 TSNO=
KNTD 081056Z AUTO 28006KT 9SM OVC011 15/13 A2989 RMK AO2 SLP123
     T01500128 TSNO PNO VISNO N $=
PACZ 081055Z AUTO 03006KT 10SM 10/09 A3005 RMK AO1 T01000089=
PALU 081055Z AUTO 20011G17KT 10SM CLR 12/02 A3010 RMK AO1
     T01220017=
PAIM 081055Z AUTO 31005KT 10SM CLR 11/07 A3008 RMK AO1
     T01060073=
PATL 081055Z AUTO 02007KT 10SM CLR 14/07 A2999 RMK AO1
     T01440067=
####018003662####
SAXX60 KWBC 081100
METAR
KCEF 081055Z AUTO 16005KT 10SM FEW010 24/22 A3006 RMK AO2 SLP179
     T02410219 PWINO $=
KGRF 081055Z AUTO 14004KT 10SM CLR 14/11 A2995 RMK AO2 SLP141
     T01410107 $=
KHMN 081055Z 08003KT 10SM CLR 20/14 A3013 RMK AO2A SLP122
     T01960143 $=
KNHK 081052Z 09004KT 3SM BR FEW010 SCT110 26/24 A3000 RMK AO2
     SLP158 T02610239=
KNZY 081052Z 31006KT 8SM -DZ FEW008 OVC016 18/14 A2989 RMK AO2
     DZB52 SLP120 P0000 T01830139 $=
KPOB 081055Z AUTO 00000KT 10SM CLR 23/20 A2995 RMK AO2 SLP142
     T02280203 $=
KBKB 081054Z AUTO 00000KT 10SM SCT014 24/23 A3000 RMK AO2 SLP183
     T02390228=
KBAD 081055Z AUTO 11003KT 10SM CLR 23/23 A3004 RMK AO2 SLP171
     T02320226 $=
KDAA 081055Z AUTO 00000KT 6SM HZ CLR 25/22 A3000 RMK AO2 SLP161
     T02480220=
KDTS 081053Z AUTO 00000KT 5SM BR FEW001 24/23 A3002 RMK AO2 SLP163
     T02440233=
KEDW 081055Z AUTO 21006KT 10SM CLR 16/04 A2987 RMK AO2 SLP065
     T01640040=
KFBG 081055Z AUTO 35004KT 10SM CLR 25/19 A2995 RMK AO2 SLP139
     T02500191 $=
KFHU 081055Z 12004KT 10SM FEW120 22/11 A3007 RMK SLP104=
KGUS 081055Z AUTO 14003KT 10SM FEW060 SCT100 23/21 A3004 RMK AO2
     SLP166 T02290208=
KIAB 081055Z AUTO 35008KT 210V360 10SM FEW045 22/21 A3008 RMK AO2
     SLP175 T02150208=
KMGE 081055Z 00000KT 10SM CLR 22/19 A3005 RMK AO2A SLP165
     T02210188 $=
KMTC 081055Z 00000KT 6SM BR FEW040 FEW140 SCT240 23/23 A3002 RMK
     SLP170=
KOZR 081055Z 00000KT 3/4SM R06/0700V1200FT BR FEW002 22/22 A3002
     RMK AO2A SLP166 T02160216=
KSUU 081055Z AUTO 24022G25KT 10SM BKN170 12/10 A2982 RMK AO2 PK
     WND 24028/1010 SLP101 T01200101 RVRNO $=
PAEI 081055Z AUTO 00000KT 10SM CLR 09/06 A3004 RMK AO2 SLP175
     T00900064 $=
KBAD 081055Z AUTO 11003KT 10SM CLR 23/23 A3004 RMK AO2 SLP171
     T02320226 $=
KBLV 081055Z AUTO 25003KT 10SM FEW050 SCT170 24/24 A3004 RMK AO2
     SLP170 T02430242=
KCBM 081055Z AUTO 34003KT 10SM CLR 24/23 A3007 RMK AO2 SLP180
     T02400227 $=
KCEF 081055Z AUTO 16005KT 10SM FEW010 24/22 A3006 RMK AO2 SLP179
     T02410219 PWINO $=
KDAA 081055Z AUTO 00000KT 6SM HZ CLR 25/22 A3000 RMK AO2 SLP161
     T02480220=
KEDW 081055Z AUTO 21006KT 10SM CLR 16/04 A2987 RMK AO2 SLP065
     T01640040=
KFBG 081055Z AUTO 35004KT 10SM CLR 25/19 A2995 RMK AO2 SLP139
     T02500191 $=
KFHU 081055Z 12004KT 10SM FEW120 22/11 A3007 RMK SLP104=
KGRF 081055Z AUTO 14004KT 10SM CLR 14/11 A2995 RMK AO2 SLP141
     T01410107 $=
KGUS 081055Z AUTO 14003KT 10SM FEW060 SCT100 23/21 A3004 RMK AO2
     SLP166 T02290208=
KHMN 081055Z 08003KT 10SM CLR 20/14 A3013 RMK AO2A SLP122
     T01960143 $=
KIAB 081055Z AUTO 35008KT 210V360 10SM FEW045 22/21 A3008 RMK AO2
     SLP175 T02150208=
KLRF 081055Z AUTO 00000KT 10SM BKN170 23/22 A3006 RMK AO2 SLP177
     T02300224=
KMGE 081055Z 00000KT 10SM CLR 22/19 A3005 RMK AO2A SLP165
     T02210188 $=
KMTC 081055Z 00000KT 6SM BR FEW040 FEW140 SCT240 23/23 A3002 RMK
     SLP170=
KBAD 081055Z AUTO 11003KT 10SM CLR 23/23 A3004 RMK AO2 SLP171
     T02320226 $=
KHST 081055Z AUTO 00000KT 10SM CLR 26/24 A2994 RMK AO2 LTG DSNT S
     RAE1012DZB1012E1014 SLP140 P0002 T02570243 $=
KNHK 081052Z 09004KT 3SM BR FEW010 SCT110 26/24 A3000 RMK AO2
     SLP158 T02610239=
KOFF 081055Z AUTO 36003KT 10SM CLR 20/20 A3013 RMK AO2 SLP193
     T01950195 $=
KPOB 081055Z AUTO 00000KT 10SM CLR 23/20 A2995 RMK AO2 SLP142
     T02280203 $=
KSSC 081055Z AUTO 30007KT 10SM CLR 25/19 A2996 RMK AO2 SLP143
     T02500190 $=
KCBM 081055Z AUTO 34003KT 10SM CLR 24/23 A3007 RMK AO2 SLP180
     T02400227 $=
####018000092####
SPUS70 KWBC 081058
SPECI
KAUS 081056Z 06005KT 10SM FEW007 BKN012 26/24 A2995 RMK AO2=
####018000205####
SAXX60 KWBC 081100 CCA
METAR
KNJK 081056Z AUTO 13005KT 10SM CLR 23/12 A2969 RMK AO2 SLP070
     T02280122 TSNO=
KPOE 081055Z AUTO 07005KT 10SM FEW015 24/23 A3001 RMK AO2 SLP164
     T02390228=
####018000093####
SPUS80 KWBC 081058
SPECI
KSTC 081056Z AUTO 00000KT 1 3/4SM BR CLR 13/12 A3009 RMK AO2=
####018001912####
SAUS80 KWBC 081100 RRA
METAR
KAAT 081055Z AUTO 00000KT 10SM CLR 10/07 A3007 RMK AO2 SLP139
     T01000072 TSNO=
PHKO 081053Z AUTO 10007KT 10SM CLR 24/19 A2998 RMK AO2 SLP154
     T02390189 TSNO=
PHOG 081054Z AUTO 03012KT 10SM FEW060 23/19 A3002 RMK AO2 SLP172
     T02330189 TSNO=
PHTO 081053Z 25005KT 10SM FEW027 BKN060 22/19 A3003 RMK AO2 SLP168
     T02170189=
KMOB 081056Z 00000KT 7SM MIFG FEW020 SCT250 22/21 A3004 RMK AO2
     SLP170 T02220211=
KOFK 081056Z AUTO 25003KT 10SM BKN090 16/14 A3020 RMK AO2 SLP220
     T01560144=
KSFO 081056Z 26010KT 10SM BKN008 OVC013 13/11 A2992 RMK AO2 SLP132
     T01330106=
KBZN 081056Z AUTO 00000KT 10SM CLR 10/04 A3028 RMK AO2 SLP226
     T01000039=
KDVK 081057Z AUTO 00000KT 3SM 21/19 A3010 RMK AO1=
KINW 081056Z AUTO 00000KT 10SM CLR 22/01 A3011 RMK AO2 SLP108
     T02220006=
KGNR 081056Z AUTO 00000KT 19/19 A3008 RMK AO1 SLP182 T01940194=
PADK 081056Z 04009KT 9SM FEW021 OVC029 07/06 A2955 RMK AO1 PNO=
K2WX 081056Z AUTO 21004KT 12/08 A3016 RMK AO1 SLP202 T01170078=
KP28 081056Z AUTO 36005KT 21/20 A3010 RMK AO2 SLP176 T02110200
     PWINO TSNO=
KGNA 081056Z AUTO 00000KT 17/16 A2999 RMK AO2 SLP149 T01720156
     PWINO TSNO=
KP60 081056Z AUTO 00000KT 01/M01 A3043 RMK AO2 SLP253 T00061011
     PWINO FZRANO TSNO=
KMEH 081056Z AUTO 00000KT 10SM CLR 06/05 A3011 RMK AO2 SLP177
     T00560050 TSNO=
KLWS 081056Z AUTO 12003KT 10SM CLR 15/06 A3003 RMK AO2 SLP160
     T01500056=
KMHS 081056Z AUTO 02003KT 10SM CLR 12/07 A3001 RMK AO2 SLP145
     T01220067 TSNO=
KCAE 081056Z 00000KT 10SM CLR 24/19 A2998 RMK AO2 SLP149
     T02390189=
KSXT 081056Z AUTO 01009KT 9SM CLR 19/10 A3002 RMK AO2 SLP099
     T01940100 TSNO=
KWMC 081056Z AUTO 01004KT 10SM CLR 17/M05 A3006 RMK AO2 SLP128
     T01671050=
KROC 081054Z 22005KT 7SM SCT080 23/20 A3006 RMK AO2 SLP174 ACC NW
     T02280200 $=
####018000107####
SAUS70 KWBC 081000 RRN
METAR
KMYP 080956Z AUTO 06006KT M1/4SM -SN OVC001 03/02 A3075 RMK
     AO2=
####018000280####
SANL31 EHDB 081055
METAR EHAM 081055Z 29008KT 250V320 CAVOK 23/16 Q1019 NOSIG=
METAR EHBK 081055Z AUTO VRB04KT 9999NDV NCD 29/11 Q1019 NOSIG=
METAR EHGG 081055Z AUTO 27011KT 230V310 9999NDV NSC 26/13 Q1019
NOSIG=
METAR EHRD 081055Z 30005KT 240V030 CAVOK 24/16 Q1019 NOSIG=
####018002992####
SAUS70 KWBC 081100 RRB
METAR
KHND 081056Z AUTO 20008KT 10SM CLR 25/M03 A2988 RMK AO2 T02501027
     SLP061=
KIGX 081056Z AUTO 33003KT 5SM HZ CLR 25/18 A3000 RMK AO2 SLP150
     T02500183=
KJMS 081056Z AUTO 00000KT 10SM CLR 12/12 A3010 RMK AO2 SLP191
     T01220122=
PAAK 081056Z AUTO 07021KT 7SM OVC011 07/04 A2958 RMK AO1 PNO=
PABL 081056Z AUTO 33005KT 10SM CLR 09/06 A3015 RMK AO1 PNO=
PABV 081056Z AUTO 13004KT 10SM CLR 11/07 RMK AO1 PNO=
PADL 081056Z 32006KT 10SM FEW043 OVC050 10/08 A2998 RMK AO1 PNO
     TSNO=
PAEM 081056Z AUTO 34003KT 10SM OVC070 12/08 A3004 RMK AO1 PNO=
PAFE 081056Z AUTO 07003KT 10SM CLR 11/09 A3018 RMK AO1 PNO=
PAFM 081056Z AUTO 00000KT 10SM CLR 14/08 A3010 RMK AO1 PNO=
PAGL 081056Z AUTO 10SM CLR 16/07 RMK AO1 PNO=
PAGS 081056Z AUTO 00000KT 10SM CLR 09/08 A3019 RMK AO1 PNO=
PAHP 081056Z AUTO 34007KT 10SM FEW075 09/07 A3005 RMK AO1 PNO
     TSNO=
PAHY 081056Z AUTO 36004KT 10SM CLR 16/10 A3012 RMK AO1 PNO=
PAII 081056Z AUTO 01004KT 10SM BKN042 OVC065 10/08 A2997 RMK AO1
     PNO=
PAIN 081056Z AUTO 00000KT 10SM CLR 08/06 A3008 RMK AO1 PNO=
PAJC 081056Z AUTO 00000KT 10SM OVC017 08/04 A2994 RMK AO1 PNO=
PAKK 081056Z AUTO 36011G15KT 10SM CLR 13/07 A3005 RMK AO1 PNO=
PAKP 081056Z AUTO 36003KT 10SM BKN035 10/03 A3012 RMK AO1=
PAMD 081056Z AUTO 09018KT 10SM BKN027 OVC032 09/08 A3003 RMK AO1
     PNO=
PAMH 081056Z 00000KT 10SM CLR 14/05 A2999 RMK AO1 PNO=
PAMM 081056Z AUTO 00000KT 10SM CLR 18/11 A3009 RMK AO1 PNO=
PAMY 081056Z 27006KT 1/4SM OVC002 04/03 A3006 RMK AO1=
PANI 081056Z AUTO 00000KT 8SM FEW090 09/08 A3001 RMK AO1 PNO=
PANV 081056Z AUTO 27003KT 10SM SCT085 OVC090 12/08 A2998 RMK AO1
     PNO=
PAOU 081056Z AUTO 05009KT 10SM FEW050 07/06 A2996 RMK AO2 PWINO
     TSNO T00720061 SLP148 $=
PAPG 081056Z 04004KT 10SM CLR 12/09 A3014 RMK AO1 PNO=
PAPH 081056Z AUTO 00000KT 6SM BKN060 06/05 A2996 RMK AO1 PNO=
PARC 081056Z AUTO 04006KT 10SM CLR 10/01 A3005 RMK AO1 PNO=
PASA 081056Z AUTO 06003KT 10SM CLR 05/03 A3019 RMK AO1 PNO=
PASD 081056Z AUTO 00000KT 10SM FEW039 07/05 A2994 RMK AO1 PNO=
PASH 081056Z AUTO 00000KT 10SM CLR 07/06 A3018 RMK AO1 PNO=
PASK 081056Z 25008KT 10SM CLR 12/07 A3011 RMK AO1 PNO=
PASL 081056Z AUTO 00000KT 10SM OVC095 12/08 A3000 RMK AO1 PNO=
PASM 081056Z AUTO 00000KT 10SM OVC070 09/08 A3005 RMK AO1 PNO=
PASX 081056Z 05004KT 10SM BKN075 13/09 A2994 RMK AO1 PNO=
PAUN 081056Z AUTO 11004KT 10SM CLR 12/04 A3002 RMK AO1 PNO=
PAVD 081056Z 00000KT 10SM OVC080 11/08 A3009 RMK AO1 PNO=
PAWG 081056Z AUTO 00000KT 10SM CLR 13/10 A3013 RMK AO1 PNO=
PAWN 081056Z AUTO 25004KT 10SM CLR 08/03 A3015 RMK AO1 PNO=
PAWS 081056Z AUTO 00000KT 10SM FEW090 11/09 A2997 RMK AO1 PNO=
PAZK 081056Z AUTO 07010KT 10SM FEW060 FEW120 09/03 A3009 RMK AO1
     PNO=
KNFE 081056Z AUTO 07005KT 1 1/2SM HZ CLR 26/22 A2998 RMK AO2
     SLP152 T02560222 $=
KGFA 081056Z AUTO 21003KT 10SM CLR 09/06 A3021 RMK AO2 SLP247
     T00890056 $=
####018000095####
SAUS70 KWBC 071100 RRN
METAR
KVTP 081100Z AUTO 07005KT 1/4SM OVC001 05/05 A3055 RMK AO2=
####018000277####
SAUS80 KWBC 081100 CCA
METAR
KMTP 081054Z AUTO 00000KT /20 A3008 RMK AO2 SLP186 T02110200
     PWINO TSNO=
KTRI 081053Z 00000KT 4SM BR FEW030 20/18 A3011 RMK AO2 SLP176
     T02000183=
KTYS 081053Z 00000KT 6SM HZ CLR 22/19 A3007 RMK AO2 SLP170
     T02220194=
####018000303####
SASW39 LSSW 081050 RRA
METAR LSMA 081050Z 02008KT 340V040 CAVOK 25/15 Q1022 RMK BLU=
METAR LSMD 081050Z AUTO 28003KT 200V010 9999NDV NCD 26/13 Q1022 RMK
           BLU=
METAR LSME 081050Z 11003KT 050V160 CAVOK 26/15 Q1022 RMK BLU=
METAR LSMP 081050Z AUTO VRB02KT 9999NDV NCD 26/13 Q1022 RMK BLU=
####018003747####
SAUS70 KWBC 081100 RRA
METAR
KC29 081055Z AUTO 29003KT 10SM OVC012 21/20 A3003 RMK AO2
     T02120196=
KCCU 081056Z AUTO 17022KT 10SM SCT003 05/02 A3062 RMK AO2=
KCIC 081055Z AUTO 14004KT 10SM CLR 21/13 A2983 RMK AO1=
KCMR 081055Z AUTO 15006KT 10SM FEW120 17/02 A3025 RMK AO1=
KDLL 081054Z AUTO 00000KT 3SM BR OVC002 21/21 A3003 RMK AO2=
KEAT 081055Z AUTO 28008KT 10SM CLR 18/06 A3004 RMK AO2 SLP162
     T01780061=
KGGE 081055Z AUTO 28005KT 10SM CLR 23/21 A2994 RMK AO2=
KHVS 081055Z AUTO 00000KT 10SM CLR 23/19 A2998 RMK AO2=
KL35 081054Z AUTO 00000KT 10SM CLR 06/M05 A3017 RMK AO2=
KLLJ 081055Z AUTO 00000KT 10SM FEW090 09/00 A3026 RMK AO2 SLP195
     T00890000=
PAHN 081054Z AUTO 08003KT 10SM CLR 11/10 A3019 RMK AO2 SLP224
     T01110100 TSNO=
PAKN 081054Z 34004KT 10SM OVC065 10/09 A2991 RMK AO2 SLP127
     T01000089=
KSDF 081056Z 12003KT 5SM HZ SCT120 25/21 A3006 RMK AO2 SLP172
     T02500211=
KTTS 081055Z 35002KT 10SM PRFG FEW030 FEW280 19/19 A2999 RMK
     SLP156 1SC /0/ 1CI /0/=
PHJR 081053Z 00000KT 10SM FEW045 22/18 A3004 RMK AO2 SLP179
     T02220178=
PHMK 081054Z AUTO 03006G15KT 10SM BKN039 22/19 A3004 RMK AO2
     SLP175 T02170189 TSNO=
KLAS 081056Z 22008KT 10SM FEW160 28/M04 A2981 RMK AO2 SLP063
     T02781044=
KLCK 081055Z AUTO 00000KT 3SM BR CLR 22/21 A3008 RMK AO2
     T02170206=
KLNR 081056Z AUTO 00000KT 1SM BR OVC002 21/19 A3004 RMK AO2 SLP162
     T02060194=
KM19 081056Z AUTO 20005KT 10SM CLR 24/23 A3007 RMK AO2 T02440227
     SLP179=
KMQY 081056Z AUTO 00000KT 10SM CLR 23/22 A3009 RMK AO2 T02330222
     SLP178=
KRDM 081056Z AUTO 00000KT 10SM CLR 11/03 A3006 RMK AO2 SLP155
     T01110033 $=
KSBP 081056Z AUTO 30005KT 10SM OVC007 13/12 A2991 RMK AO2 SLP127
     T01280117 $=
KSLE 081056Z AUTO 15006KT 10SM CLR 16/12 A2988 RMK AO2 SLP118
     T01560122=
KSRC 081056Z AUTO 00000KT 8SM CLR 23/22 A3007 RMK AO2 TSNO
     T02270222 SLP184=
KTZR 081056Z AUTO 00000KT 4SM BR CLR 21/19 A3009 RMK AO2=
KUKI 081056Z AUTO 00000KT 10SM CLR 12/10 A2990 RMK AO2 SLP117
     T01220100=
KY51 081055Z AUTO 29004KT 1 3/4SM SCT003 19/19 A3005 RMK AO1
     T01900187=
PAAK 081056Z AUTO 07021KT 7SM OVC011 07/04 A2958 RMK AO1 PNO=
PAHP 081056Z AUTO 34007KT 10SM FEW075 09/07 A3005 RMK AO1 PNO
     TSNO=
K04W 081054Z AUTO 00000KT 10SM CLR 16/15 A3007 RMK AO2
     T01550150=
K1A6 081055Z AUTO 00000KT 1 1/4SM BR OVC001 21/21 A3012 RMK
     AO2=
K1M4 081056Z AUTO 00000KT 10SM CLR 22/21 A3011 RMK AO2 T02160211
     SLP193=
K21D 081058Z AUTO 00000KT 10SM CLR 16/16 A3008 RMK AO2=
KAIG 081055Z AUTO 34005KT 1 1/2SM BR OVC001 18/17 A3002 RMK
     AO2=
KAND 081056Z AUTO 00000KT 8SM CLR 22/20 A3003 RMK AO2 SLP158
     T02170200=
KBJI 081054Z AUTO 23006KT 10SM CLR 14/13 A3005 RMK AO2=
KBUU 081054Z AUTO 00000KT 5SM BR BKN006 OVC013 21/21 A3002 RMK
     AO2=
KCMI 081053Z COR 18003KT 5SM BR BKN100 23/22 A3004 RMK AO2 SLP165
     T02280217=
KCTB 081056Z AUTO 32004KT 10SM CLR 08/05 A3024 RMK AO2 SLP223
     T00780050=
KD39 081054Z AUTO 00000KT 10SM CLR 15/14 A3011 RMK AO2
     T01530144=
KDIK 081056Z AUTO 22005KT 10SM CLR 09/08 A3015 RMK AO2 SLP205
     T00940078=
KDUG 081056Z AUTO 08017G22KT 10SM CLR 24/12 A3002 RMK AO2 PK WND
     08027/1008 SLP083 T02440117 $=
KEAU 081056Z 00000KT 10SM CLR 18/17 A3004 RMK AO2 SLP167
     T01830172=
KEED 081056Z AUTO 32006KT 10SM CLR 28/M03 A2975 RMK AO2 SLP039
     T02781033 TSNO=
KEKO 081056Z AUTO 00000KT 10SM CLR 11/M01 A3012 RMK AO2 SLP146
     T01111011=
KGRD 081056Z AUTO 31003KT 10SM CLR 22/20 A3004 RMK AO2 SLP162
     T02170200=
KHFF 081055Z AUTO 00000KT 10SM CLR 22/17 A2998 RMK AO2 SLP148
     T02210173 $=
####018003680####
SAXX60 KWBC 081100 RRB
METAR
KFSI 081055Z AUTO 05004KT 10SM CLR 23/22 A3004 RMK AO2 SLP158
     T02260218=
KFTK 081055Z AUTO 00000KT 10SM CLR 23/21 A3007 RMK AO2 SLP176
     T02250208=
KGSB 081055Z AUTO 03004KT 9SM SCT160 25/20 A2993 RMK AO2 SLP135
     T02530202 $=
KHIF 081055Z AUTO 07008G21KT 020V100 10SM CLR 17/07 A3012 RMK AO2
     SLP101 T01710069 $=
KHST 081055Z AUTO 00000KT 10SM CLR 26/24 A2994 RMK AO2 LTG DSNT S
     RAE1012DZB1012E1014 SLP140 P0002 T02570243 $=
KLHW 081055Z AUTO 25003KT 10SM CLR 21/20 A2999 RMK AO2 SLP157
     T02140199=
KLSF 081055Z AUTO 00000KT 10SM CLR 21/20 A3002 RMK AO2 SLP165
     T02130204 $=
KMCF 081055Z AUTO 07004KT 10SM CLR 22/22 A2999 RMK AO2 SLP156
     T02220221=
KMUI 081055Z AUTO 00000KT 10SM CLR 23/20 A3003 RMK AO2 SLP167
     T02310195 $=
KMUO 081055Z AUTO 09004KT 10SM CLR 14/01 A3007 RMK AO2 SLP159
     T01400008=
KNFW 081052Z AUTO 00000KT 10SM FEW012 26/22 A3005 RMK AO2 SLP159
     T02610222=
KBKF 081055Z 20006KT 25SM BKN020 BKN040 13/13 A3032 RMK SLP224=
KFSI 081055Z AUTO 05004KT 10SM CLR 23/22 A3004 RMK AO2 SLP158
     T02260218=
KGTB 081055Z AUTO 18003KT 10SM CLR 24/21 A3004 RMK AO2 SLP171
     T02390206=
KHIF 081055Z AUTO 07008G21KT 020V100 10SM CLR 17/07 A3012 RMK AO2
     SLP101 T01710069 $=
KLFI 081055Z 10006KT 10SM FEW011 SCT090 26/22 A2998 RMK AO2A
     SLP152 T02570223 $=
KMCF 081055Z AUTO 07004KT 10SM CLR 22/22 A2999 RMK AO2 SLP156
     T02220221=
KMXF 081055Z AUTO 00000KT 7SM CLR 25/24 A3002 RMK AO2 SLP165
     T02460238=
KNIP 081053Z 25003KT 10SM CLR 22/21 A3001 RMK AO2 SLP158
     T02220206=
KNQX 081053Z 06004KT 10SM SCT022 SCT080 BKN200 28/25 A2993 RMK AO2
     SLP135 T2 SET T02830250 $=
KSLI 081055Z AUTO 29003KT 10SM OVC015 17/14 A2989 RMK AO2 SLP125
     T01670137=
KTIK 081055Z AUTO 03006KT 10SM FEW008 BKN011 BKN031 23/22 A3005
     RMK AO2 SLP163 T02330225 $=
KVOK 081055Z 27006KT 10SM CLR 18/18 A3003 RMK AO2A SLP166
     T01790179=
PAED 081055Z AUTO 00000KT 10SM FEW090 11/10 A2998 RMK AO2 CLDS LWR
     RWY24 SLP154 T01120098 $=
PGUA 081055Z AUTO 09016G22KT 10SM BKN019 BKN025 27/ A2991 RMK AO2
     RAB1032E1041 CIG 017V024 SLP109 P0000 T0271 VISNO RWY24L
     $=
KNKX 081055Z 33003KT 10SM OVC014 16/13 A2989 RMK AO2 SLP118
     T01610133=
KVBG 081055Z AUTO 34003KT 10SM OVC004 12/11 A2993 RMK AO2 SLP125
     T01220111 TSNO $=
KNBG 081055Z AUTO 05003KT 6SM HZ CLR A3002 RMK AO2 SLP166 PWINO
     FZRANO $=
KPOE 081055Z AUTO 07005KT 10SM FEW015 24/23 A3001 RMK AO2 SLP164
     T02390228=
KNJK 081056Z AUTO 13005KT 10SM CLR 23/12 A2969 RMK AO2 SLP070
     T02280122 TSNO=
KNGP 081056Z 09011KT 4SM +RA BR SCT013 BKN019 BKN033 28/27 A2982
     RMK AO2 RAB49 SLP096 P0009 T02780267 $=
KADW 081055Z AUTO 10003KT 7SM CLR 25/24 A3001 RMK AO2 SLP161
     T02550237 $=
KAFF 081055Z AUTO 16003KT 10SM OVC022 12/12 A3039 RMK AO2 CIG
     018V026 OVC V BKN SLP209 T01210118=
KBIX 081055Z AUTO 00000KT 10SM CLR 25/25 A3003 RMK AO2 SLP169
     T02460246=
KDLF 081055Z AUTO 00000KT 10SM BKN065 24/23 A2996 RMK AO2 SLP128
     T02390225 $=
KDYS 081055Z 36004KT 10SM OVC009 21/21 A3005 RMK AO2A SLP157
     T02130213 $=
KHRT 081055Z 00000KT 3SM BR CLR 23/23 A3002 RMK AO2A VIS 2 N
     SLP167 T02300230 $=
KLSV 081055Z AUTO 07005KT 10SM CLR 23/M04 A2983 RMK AO2 SLP080
     T02331036 PWINO=
KLTS 081055Z AUTO 06004KT 10SM FEW029 23/23 A3006 RMK AO2 SLP164
     T02320227 $=
KLUF 081055Z 00000KT 10SM CLR 26/06 A2976 RMK AO2A SLP047
     T02570061 $=
KMIB 081055Z AUTO VRB03KT 10SM BKN085 12/11 A3009 RMK AO2 SLP193
     T01190112 $=
####018000626####
SAGR31 LGAT 081050
METAR LGAD 081050Z 31011KT 9999 FEW020 27/18 Q1014=
METAR LGAV 081050Z 02016KT 9999 SCT030 28/10 Q1012 NOSIG=
METAR LGIR 081050Z 36006KT 9999 FEW020 29/24 Q1011 NOSIG=
METAR LGKL 081050Z 33009KT 9999 FEW030 33/11 Q1011=
METAR LGKO 081050Z 31017KT CAVOK 30/18 Q1009=
METAR LGKR 081050Z 32018KT CAVOK 28/12 Q1013 NOSIG=
METAR LGLM 081050Z 06013KT 9999 FEW008 BKN020 21/16 Q1013=
METAR LGRP 081050Z 25015KT CAVOK 30/18 Q1008 NOSIG=
METAR LGSA 081050Z 29008KT 9999 FEW020 33/14 Q1011=
METAR LGSM 081050Z 35012KT 9999 FEW020 31/14 Q1010=
METAR LGTS 081050Z 34019G29KT 9999 SCT025 24/12 Q1016 NOSIG=
####018000090####
SAPR01 SPIM 081100 COR
METAR
SPIM 081100Z VRB02KT OVC022 16/13 Q1013 NOSIG RMK PP000=
####018000345####
SABX31 KWBC 081050 RRA
METAR
EBAW 081050Z 22007KT 180V280 CAVOK 28/12 Q1019 NOSIG=
EBBR 081050Z 26006KT 210V330 CAVOK 29/11 Q1020 NOSIG=
EBCI 081050Z VRB04KT CAVOK 29/10 Q1020 NOSIG=
EBLG 081050Z VRB03KT CAVOK 28/09 Q1020 NOSIG=
EBOS 081050Z 31008KT CAVOK 21/16 Q1020 NOSIG=
ELLX 081050Z 18004KT 110V270 CAVOK 27/08 Q1021 NOSIG=
####018000293####
SAAW34 KWBC 081045 RRB
METAR
OAKN 081050Z 28007KT 9999 FEW150 41/05 Q1007 BLU NOSIG RMK A2974
     DA7100=
OPKC 081100Z 18014KTS 8000 SCT020 SCT030 TCU 35/24 Q.1002 TEMPO NE
     30KTS TSRA FEW025 CB=
OPSK 081055Z 13004KTS 6000 HZ FEW040 BKN100 35/25 QNH 1001 R.H. 57
     PC=
####018000393####
SAEM31 KWBC 081030 RRC
METAR
LOWG 081050Z VRB03KT CAVOK 25/10 Q1023 NOSIG=
LOWI 081050Z 09004KT 030V150 CAVOK 25/14 Q1021 NOSIG=
LOWK 081050Z 17003KT 090V240 9999 FEW060 23/10 Q1023 NOSIG=
LOWL 081050Z 13004KT 060V220 CAVOK 23/08 Q1023 NOSIG=
LOWS 081050Z 06003KT 340V130 9999 FEW070 SCT180 24/07 Q1023
     NOSIG=
LOWW 081050Z 33005KT 300V050 9999 FEW055 23/11 Q1023 NOSIG=
####018000136####
SAEN31 KWBC 081050 RRA
METAR
EFIV 081050Z AUTO VRB02KT CAVOK 20/12 Q1016=
EFKE 081050Z 18008KT 140V230 9999 BKN033 21/13 Q1016=
####018000537####
SAIY31 KWBC 081050 RRA
METAR
LIBD 081050Z 36015KT CAVOK 25/10 Q1020=
LICC 081050Z 12011KT 8000 FEW040 29/20 Q1018=
LICJ 081050Z 04016KT CAVOK 27/23 Q1018=
LIEA 081050Z VRB03KT CAVOK 32/21 Q1019=
LIEO 081050Z 04011KT 9999 FEW030 30/20 Q1020=
LIMC 081050Z VRB03KT 9999 FEW035 26/15 Q1022 NOSIG=
LIME 081050Z 16006KT 090V240 9999 SCT050 27/15 Q1022=
LIMF 081050Z VRB01KT 9999 FEW030 BKN045 24/15 Q1023=
LIMJ 081050Z VRB03KT 9999 FEW015 SCT035 28/25 Q1020=
LIML 081050Z 08006KT 050V150 9999 FEW030 28/16 Q1021 NOSIG=
####018000146####
SAIY31 KWBC 080950 RRE
METAR
LIBR 081045Z /////KT 9999 FEW020 25/15 Q1017 NOSIGNOSIG=
LIEE 081045Z 16011KT 9999 FEW020 28/20 Q1019 NOSIG=
####018000289####
SAIY32 KWBC 080950 RRC
METAR
LIPH 081045Z 16004KT 9999 SCT025 27/20 Q1023=
LIPR 081045Z 08011KT CAVOK 28/17 Q1021=
LIPX 081045Z 12003KT 9999 FEW040 29/13 Q1021=
LIRA 081045Z 24006KT 170V310 9999 SCT018 29/17 Q1019=
LIRP 081045Z 09004KT 030V130 9999 FEW030 30/15 Q1020 NOSIG=
####018000333####
SAIY32 KWBC 081050 RRA
METAR
LIPB 081050Z 17011KT CAVOK 28/12 Q1021=
LIPE 081050Z 07007KT 030V100 CAVOK 28/14 Q1021=
LIPK 081050Z NIL=
LIPQ 081050Z VRB03KT CAVOK 26/15 Q1022=
LIPZ 081050Z 13009KT 9999 FEW060 26/18 Q1022=
LIRF 081050Z 22011KT 180V250 CAVOK 29/18 Q1020 NOSIG=
LIRQ 081050Z VRB03KT CAVOK 30/13 Q1020=
####018000087####
SAIY41 KWBC 081050 RRA
METAR
LIMC 081050Z VRB03KT 9999 FEW035 26/15 Q1022 NOSIG=
####018000081####
SAIY43 KWBC 080950 RRE
METAR
LIPX 081045Z 12003KT 9999 FEW040 29/13 Q1021=
####018000431####
SANL31 KWBC 081050 RRA
METAR
EHDL 081055Z AUTO 19010KT 9999NDV FEW079 29/13 Q1019 BLU=
EHGR 081055Z AUTO 25005KT 9999NDV NCD 29/11 Q1019 BLU BLU=
EHLW 081055Z AUTO 23009KT 9999NDV FEW009 OVC061 22/17 Q1019 BLU
     BLU=
EHVK 081055Z AUTO 21007KT 9999NDV NCD 30/12 Q1019 BLU BLU=
EHVL 081055Z AUTO 23010KT 9999NDV SCT060 OVC066 20/16 Q1019
     BLU=
EHWO 081055Z AUTO 30005KT 9999NDV FEW190 27/11 Q1019 BLU BLU=
####018000130####
SAHW40 PHFO 081057
MTRBKH
METAR PHBK 081056Z AUTO 00000KT 10SM BKN050 BKN080 24/18 A3002 RMK 
AO2 SLP168 T02440178 TSNO $
####018000118####
SAUS46 KMTR 081057
MTRBAN
METAR KBAN 081056Z AUTO 00000KT 10SM CLR 06/01 A3020 RMK AO2 SLP140 
T00610011 TSNO
####018000113####
SAUS45 KPSR 081057
MTRALK
METAR KALK 081056Z AUTO 08011KT 10SM CLR 22/09 A3008 RMK AO2 SLP082 
T02220089
####018001103####
SARS32 KWBC 081000 CCA
METAR
URRR 1-9 T 1200 1800 08.07.10. . : 100 T 200 T 300 T 400 T 500 T
     250/030 +29 250/030 +28 250/030 +27 250/030 +26 250/030 +25
     1000 1500 2000 3000 250/030 +20 250/030 +15 250/030 +10
     250/040 +05 25005 - +28 3000 10/15 600/300 11000/600 /
     11000/3500 / 11000/600 1500/0 3500 2 759 1 3 4 5 6 7 8 9 760
     N3 1-9 081200/081800 / 11000 1500/0=
URRR     1-9   T 1200  1800
      08.07.10. . :  100 T 200 T 300 T 400 T 500 T
     250/030 +29 250/030 +28 250/030 +27 250/030 +26 250/030 +25
     1000  1500  2000  3000  250/030 +20 250/030 +15 250/030
     +10 250/040 +05  25005 - +28  3000    
      10/15   600/300   11000/600  /
      11000/3500  /  11000/600   
      1500/0  3500  2  759  1 3 4 5 6 7 8 9 
     760  N3   1-9 
     081200/081800     / 11000 
         1500/0 =
####018000087####
SAUK32 KWBC 081050 RRA
METAR
EGNS 081050Z 20010KT 9999 FEW025 17/11 Q1016 NOSIG=
####018000171####
SAUK31 KWBC 081050 CCA
METAR
EGCC 081050Z 24009KT 190V270 9999 SCT036 SCT048 19/10 Q1017
     NOSIG=
EGLL 081050Z 25006KT 180V280 9999 BKN019 21/14 Q1019 NOSIG=
####018000098####
SAUK41 KWBC 081050 RRA
METAR
EGDL 081050Z 23007KT 9999 FEW022 BKN250 19/11 Q1019 BLU NOSIG=
####018000108####
SAUK42 KWBC 081050 RRA
METAR
EGQK 081050Z 23021G32KT 9999 FEW025 SCT050 18/07 Q1009 BLU
     NOSIG=
####018000116####
SAXX99 KWBC 080200 RRX
METAR
EGVO 080150Z 25002KT 9999 FEW007 BKN015 19/16 Q1019 WHT BECMG
     BKN025 BLU=
####018001388####
SAUS17 KAWN 081100 RRB
METAR KADW 081055Z AUTO 10003KT 7SM CLR 25/24 A3001 RMK AO2 SLP161
      T02550237 $=
METAR KAFF 081055Z AUTO 16003KT 10SM OVC022 12/12 A3039 RMK AO2 CIG
      018V026 OVC V BKN SLP209 T01210118=
METAR KAPG 081054Z 00000KT 4SM BR SKC 26/24 A3002=
METAR KBIX 081055Z AUTO 00000KT 10SM CLR 25/25 A3003 RMK AO2 SLP169
      T02460246=
METAR KDLF 081055Z AUTO 00000KT 10SM BKN065 24/23 A2996 RMK AO2 SLP128
      T02390225 $=
METAR KDYS 081055Z 36004KT 10SM OVC009 21/21 A3005 RMK AO2A SLP157
      T02130213 $=
METAR KFCS 081055Z AUTO 23007KT 10SM OVC036 14/10 A3036 RMK AO2 SLP210
      T01420103=
METAR KHRT 081055Z 00000KT 3SM BR CLR 23/23 A3002 RMK AO2A VIS 2 N
      SLP167 T02300230 $=
METAR KLFI 081055Z 10006KT 10SM FEW011 SCT090 26/22 A2998 RMK AO2A
      SLP152 T02570223 $=
METAR KLSV 081055Z AUTO 07005KT 10SM CLR 23/M04 A2983 RMK AO2 SLP080
      T02331036 PWINO=
METAR KLTS 081055Z AUTO 06004KT 10SM FEW029 23/23 A3006 RMK AO2 SLP164
      T02320227 $=
METAR KLUF 081055Z 00000KT 10SM CLR 26/06 A2976 RMK AO2A SLP047 T02570061
      $=
METAR KMIB 081055Z AUTO VRB03KT 10SM BKN085 12/11 A3009 RMK AO2 SLP193
      T01190112 $=
METAR KMMT 081055Z 30003KT 10SM FEW100 21/19 A2998 RMK AO2A SLP152
      T02130190=
METAR KMXF 081055Z AUTO 00000KT 7SM CLR 25/24 A3002 RMK AO2 SLP165
      T02460238=
####018002977####
SAUS20 KNKA 081057
METAR KSDF 081056Z 12003KT 5SM HZ SCT120 25/21 A3006 RMK AO2 SLP172 
    T02500211=
METAR K1P1 081055Z AUTO 00000KT 1 1/4SM BR OVC003 23/22 A3007 RMK 
     AO2 T02260215=
METAR KART 081056Z AUTO 00000KT 6SM HZ CLR 24/21 A3003 RMK AO2 
    SLP163 T02390206=
METAR KBED 081056Z 16007KT 6SM HZ SCT016 BKN070 24/21 A3007 RMK AO2 
    SLP193 T02390211=
METAR KBJJ 081056Z AUTO 00000KT 1 1/2SM BR FEW060 19/18 A3011 RMK 
    AO2 SLP186 T01890183=
METAR KBVU 081055Z AUTO 00000KT 10SM CLR 23/05 A2986 RMK AO2 =
METAR KCEC 081056Z AUTO 23003KT 2SM BR OVC003 10/09 A2998 RMK AO2 
    SLP151 T01000094=
METAR KCXY 081056Z 21003KT 4SM HZ CLR 24/21 A3002 RMK AO2 SLP164 
    T02390206=
METAR KDAY 081056Z 00000KT 4SM HZ CLR 22/19 A3010 RMK AO2 SLP184 
    T02220189=
METAR KDUJ 081056Z AUTO 08003KT 4SM BR FEW065 20/18 A3012 RMK AO2 
    SLP185 T02000178=
METAR KE80 081055Z AUTO 22004KT 10SM CLR 18/12 A3025 RMK AO2 
     T01810115=
METAR KEDC 081055Z AUTO 06004KT BKN008 24/24 A2996 RMK AO2 =
METAR KEIK 081055Z AUTO 00000KT 10SM BKN004 11/11 A3032 RMK AO2=
METAR KELZ 081056Z AUTO 00000KT 2SM BR CLR 19/19 A3016 RMK AO2 
    SLP198 T01940189=
METAR KEOE 081055Z AUTO 22003KT 10SM CLR 21/20 A3004 RMK AO2=
METAR KFMH 081055Z AUTO 16006KT 10SM FEW009 BKN019 22/20 A3011 RMK 
     AO2 =
METAR KGON 081056Z 09004KT 2SM BR BKN002 OVC013 23/21 A3007 RMK AO2 
    SLP182 T02280206=
METAR KHPN 081056Z 00000KT 2SM BR OVC004 24/22 A3005 RMK AO2 SLP169 
    T02390217=
METAR KHWV 081056Z AUTO 14003KT 5SM BR SCT013 SCT021 24/23 A3006 RMK 
    AO2 SLP178 T02440233=
METAR KHYA 081056Z 00000KT 10SM BKN016 22/21 A3010 RMK AO2 SLP193 
    T02220206=
METAR KIFP 081055Z AUTO 00000KT 10SM CLR 27/00 A2975 RMK AO2 =
METAR KISO 081055Z 35004KT 4SM HZ CLR 24/21 AA2995=
METAR KISP 081056Z 13005KT 5SM HZ BKN005 BKN011 OVC120 25/22 A3004 
    RMK AO2 SLP170 T02500222=
METAR KITH 081056Z 09004KT 6SM BR CLR 21/19 A3010 RMK AO2 T02110188 
    SLP185=
METAR KJXN 081056Z 00000KT 7SM CLR 22/20 A3006 RMK AO2 SLP171 
    T02170200=
METAR KMAN 081055Z AUTO 00000KT 10SM CLR 13/07 A3005 RMK AO1 =
METAR KMDT 081056Z 00000KT 4SM HZ CLR 26/21 A3001 RMK AO2 SLP161 
    T02560211=
METAR KMRH 081056Z AUTO 05005KT 3SM HZ CLR 27/23 A2992 RMK AO2 
    SLP131 T02670233 TSNO=
METAR KPVF 081055Z AUTO 00000KT 10SM SCT044 21/12 A2994 RMK AO1 =
METAR KRBW 081055Z AUTO 27003KT 10SM CLR 22/20 A2998 RMK AO2=
METAR KRCM 081055Z AUTO 00000KT 5SM BR BKN002 OVC006 22/22 A3005 
     RMK AO2 LTG DSNT SE=
METAR KSGH 081056Z 00000KT 3SM BR CLR 21/21 A3011 RMK AO2 T02050205 
    SLP187=
METAR KSGJ 081058Z 00000KT 10SM CLR 22/21 A3001 RMK AO2 SLP161 
    T02220206=
METAR KSNC 081055Z AUTO 13003KT 2SM  BR OVC001 22/ A3009 RMK AO2 
     P0005 =
METAR KTME 081055Z AUTO 04008KT 5SM 25/25 A2993 RMK AO1 =
METAR KTPH 081056Z AUTO 35007KT 10SM CLR 14/M04 A3010 RMK AO2 SLP115 
    T01391044=
####018000127####
SAHW31 KMSC 081057
METAR PMDY 081056Z AUTO 00000KT 10SM FEW029 25/20 A3011 RMK AO2 TSNO 
    T02500200 402940233 SLP503=
####018000261####
SAUS20 KNKA 081057
METAR KUOX 081055Z AUTO 00000KT 9SM CLR 21/20 A3009 RMK AO2 =
METAR KWJF 081056Z 00000KT 10SM CLR 17/02 A2988 RMK AO2 SLP098 
    T01720017=
METAR TJSJ 081056Z 11003KT 10SM FEW020 SCT110 28/24 A3000 RMK AO2 
    SLP158 T02780244=
####018000115####
SAUS43 KMQT 081058
MTRP53
METAR KP53 081056Z AUTO 00000KT 18/18 A2998 RMK AO2 SLP150 T01830178 
PWINO TSNO
####018000121####
SAUS46 KSTO 081058
MTRNUQ
METAR KNUQ 081056Z AUTO 01005KT 10SM OVC011 15/12 A2992 RMK AO2 
SLP135 T01500117 TSNO
####018000122####
SAUS43 KFSD 081058
MTRFSD
METAR KFSD 081056Z 00000KT 10SM CLR 15/14 A3016 RMK AO2 SLP210 BKN 
ABV 120 T01500139 $
####018000111####
SAUS45 KVEF 081058
MTRINS
METAR KINS 081056Z 00000KT 10SM CLR 20/M10 A2993 RMK AO2 SLP080 
T02001100 $
####018000115####
SAUS43 KABR 081058
MTR8D3
METAR K8D3 081056Z AUTO 26007KT 18/14 A3010 RMK AO2 SLP178 T01830144 
PWINO TSNO
####018000115####
SAUS43 KEAX 081058
MTRCDJ
METAR KCDJ 081056Z AUTO 00000KT 21/21 A3007 RMK AO2 SLP174 T02110206 
PWINO TSNO
####018000107####
SAUS42 KCHS 081058
MTRNBC
METAR KNBC 081056Z 25003KT 7SM CLR 24/19 A2998 RMK AO2 SLP152 
T02390194
####018000121####
SAUS45 KPUB 081058
MTRSPD
METAR KSPD 081056Z AUTO 36007KT 16/14 A3029 RMK AO2 SLP199 P0006 
T01560144 PWINO TSNO
####018000118####
SAUS46 KLOX 081058
MTRBIH
METAR KBIH 081056Z AUTO 34006KT 10SM CLR 14/03 A2999 RMK AO2 SLP102 
T01440028 TSNO
####018000124####
SAUS42 KMLB 081058 COR
MTRDAB
METAR KDAB 081053Z 33003KT 10SM FEW026 SCT150 21/20 A3000 RMK AO2 
SLP158 T02110200 $
####018000108####
SAAK48 PANC 081058
MTRASY
METAR PASY 081056Z AUTO 02017KT 10SM OVC006 A2974 RMK AO2 SLPNO TSNO
 PNO
####018000087####
SAPK31 OPPS 081059
METAR OPPS 081055Z NE-12KT 6000 HZ FEW040 FEW100 40/25 Q1002.9=
####018000285####
SANL31 EHDB 081055
METAR EHAM 081055Z 29008KT 250V320 CAVOK 23/16 Q1019 NOSIG=
METAR EHBK 081055Z AUTO VRB04KT 9999NDV NCD 29/11 Q1019 NOSIG=
METAR EHGG 081055Z AUTO 27011KT 230V310 9999NDV NSC 26/13 Q1019
NOSIG=
METAR EHRD 081055Z 30005KT 240V030 CAVOK 24/16 Q1019 NOSIG=
####018000074####
SALY31 HLLM 081100
METAR HLLM 081050Z 
31007KT 6000 SKC 27/20 Q1020=
####018000079####
SASN31 ESWI 081050 RRA
METAR ESGT 081050Z 22011KT 9999 BKN029 20/13 Q1018=
####018000308####
SASW39 LSSW 081050 RRA
METAR LSMA 081050Z 02008KT 340V040 CAVOK 25/15 Q1022 RMK BLU=
METAR LSMD 081050Z AUTO 28003KT 200V010 9999NDV NCD 26/13 Q1022 RMK
           BLU=
METAR LSME 081050Z 11003KT 050V160 CAVOK 26/15 Q1022 RMK BLU=
METAR LSMP 081050Z AUTO VRB02KT 9999NDV NCD 26/13 Q1022 RMK BLU=
####018000637####
SAGR31 LGAT 081050
METAR LGAD 081050Z 31011KT 9999 FEW020 27/18 Q1014=
METAR LGAV 081050Z 02016KT 9999 SCT030 28/10 Q1012 NOSIG=
METAR LGIR 081050Z 36006KT 9999 FEW020 29/24 Q1011 NOSIG=
METAR LGKL 081050Z 33009KT 9999 FEW030 33/11 Q1011=
METAR LGKO 081050Z 31017KT CAVOK 30/18 Q1009=
METAR LGKR 081050Z 32018KT CAVOK 28/12 Q1013 NOSIG=
METAR LGLM 081050Z 06013KT 9999 FEW008 BKN020 21/16 Q1013=
METAR LGRP 081050Z 25015KT CAVOK 30/18 Q1008 NOSIG=
METAR LGSA 081050Z 29008KT 9999 FEW020 33/14 Q1011=
METAR LGSM 081050Z 35012KT 9999 FEW020 31/14 Q1010=
METAR LGTS 081050Z 34019G29KT 9999 SCT025 24/12 Q1016 NOSIG=
####018000072####
SABZ23 SBGL 081100
METAR SBGL 081100Z 06003KT 8000 NSC 18/16 Q1018=
####018000092####
SAUS44 KMRX 081058
MTRNMM
SPECI KNMM 081057Z 00000KT 7SM FEW250 22/21 A3006 RMK AO2 $
####018000118####
SAUS46 KLOX 081058
MTRNID
METAR KNID 081056Z AUTO 18007KT FEW090 22/04 A2985 RMK AO2 SLP083 
T02170039 TSNO $
####018000112####
SAUS44 KMEG 081058 COR
MTRTUP
METAR KTUP 081053Z 00000KT 10SM CLR 24/22 A3007 RMK AO2 SLP178 
T02390217
####018000111####
SAUS44 KBMX 081058 COR
MTRMGM
METAR KMGM 081053Z 00000KT 8SM CLR 24/23 A3003 RMK AO2 SLP163 
T02390228
####018000122####
SAUS46 KSGX 081058 COR
MTRNJK
METAR KNJK 081056Z AUTO 13005KT 10SM CLR 23/12 A2969 RMK AO2 SLP070 
T02280122 TSNO
####018000077####
SASA KAWN 081000 RRJ
METAR COR SAWG 081000Z 29008KT CAVOK M05/M06 Q0991=
####018000487####
SAGL KAWN 081100
METAR BGBW 081050Z 27005KT 9999 FEW030 12/04 Q1008 RMK 1SC=
METAR BGCO 081050Z 02015KT 9999 SCT071 BKN220 07/02 Q1008=
METAR BGGH 081050Z 24004KT 200V280 9999 OVC004 05/03 Q1010=
METAR BGJN 081050Z 32004KT 280V360 9999 VCFG FEW100 07/05 Q1009 RMK
      1AC=
METAR BGKK 081050Z 05009KT 9999 SCT120 07/04 Q1009=
METAR BGSF 081050Z 06008KT 9999 BKN070 13/02 Q1008=
METAR BGTL 081055Z AUTO 00000KT 9999 OVC002 04/04 A2984 RMK AO2 SLP108
      T00430042=
####018001364####
SPZZ40 KAWN 081058 RRO
SPECI CYAM 081052Z 00000KT 5SM BR BKN003 OVC009 RMK SF6SF2=
SPECI CYMO 081055Z AUTO 25003KT 9SM -RA FEW037 FEW054 FEW069 FEW075
      18/17 A2986=
SPECI CYQA 081054Z AUTO 00000KT 5SM BR SCT043 21/21 A3003 RMK SLP170
      DENSITY ALT 1700FT=
SPECI DAUA 081024Z 03026KT 4000 DRSA NSC 41/07 Q1014=
SPECI KCEF 081053Z AUTO 16005KT 10SM FEW010 24/22 A3006 RMK AO2 SLP179
      PWINO $=
SPECI KEGI 081054Z AUTO 00000KT 4SM BR CLR 21/21 A3003 RMK AO2 SLP167
      $=
SPECI KFRI 081054Z AUTO 04003KT 9SM FEW006 SCT016 BKN160 21/21 A3010
      RMK AO2 FEW V SCT SLP183=
SPECI KHRT 081048Z AUTO 00000KT 1SM R18/2800VP6000FT BR CLR 23/23 A3001
      RMK AO2 SLP165 $=
SPECI KHRT 081050Z AUTO 00000KT 3/4SM R18/2800VP6000FT BR CLR 23/23
      A3001 RMK AO2 SLP165 $=
SPECI KNEL 081051Z AUTO 00000KT 2SM BR BKN005 OVC100 24/22 A3003 RMK
      AO2 $=
SPECI KSKF 081054Z 04009KT 9SM -RA SCT013 BKN021 25/ A2992 RMK AO2A
      RAB1051 SLP123 $=
SPECI RJSM 081044Z 10003KT 070V140 4000 BR FEW005 FEW020CB SCT040 BKN080
      20/18 Q1009 RMK 1ST005 2CB020 3SC040 6AC080 A2982 WIND BY
      EQPT/10 CB NE MOV E=
SPECI RKSG 081052Z AUTO 11005KT 9999 CLR 25/25 A2978 RMK AO2 RAB1037E1046DZE0959B1033E1052
      SLP086 $=
SPECI RKTN 081045Z 31002KT 8000 -RA FEW025CB BKN040 OVC200 25/23 Q1008
      NOSIG=
####018000497####
SASA KAWN 081100
METAR SAME 081100Z 00000KT CAVOK 03/M04 Q1015=
METAR SBBE 081100Z 11006KT 9999 FEW017 BKN080 26/23 Q1013=
METAR SBBR 081100Z 26002KT CAVOK 15/09 Q1024=
METAR SBFI 081100Z 14006KT 9999 FEW020 SCT100 14/13 Q1016=
METAR SBFZ 081100Z 15007KT 9999 SCT018 BKN100 26/21 Q1015=
METAR SBMN 081100Z 07002KT 9999 FEW010 SCT100 27/24 Q1012=
METAR SPIM 081100Z 16002KT 6000 OVC022 16/13 Q1013 NOSIG RMK PP000=
METAR SVMG 081100Z 09010KT 9999 SCT010 SCT080 28/27 Q1012 NOSIG=
####018000634####
SAXX70 KAWN 081100 RRE
METAR KQBL 081055Z AUTO 00000KT 8SM CLR 23/22 A3005 RMK AO2 SLP176
      T02330224=
METAR KQCQ 081055Z 33026G35KT 9999 CLR 48/M02 A2954 RMK SLP002=
METAR KQDP 081055Z AUTO VRB03KT 8SM CLR 37/08 A2987 RMK AO2 SLP009
      T03720084 $=
METAR KQIU 081055Z AUTO 15009G18KT 9999 CLR 25/11 A3016 RMK AO2 SLP109=
METAR KQWM 081055Z 32027G38KT 4000 BLDU FEW000 47/M02 A2955 RMK DU
      FEW000 SLP993 QNH1000=
METAR KQXJ 081055Z 31018G31KT 2400 BLDU BKN000 47/00 A2954 RMK DU BKN000
      SLP004 PA+374 DA+4079=
METAR KQXR 081055Z AUTO 34009KT 8000 CLR 49/ A2948 RMK AO2 SLP980 T0488
      $=
####018002944####
SAUS20 KNKA 081058
METAR KJQF 081055Z 00000KT 10SM SCT100 23/18 A3001=
METAR KLJF 081053Z AUTO 25003KT 10SM CLR 17/16 A3012 RMK AO2=
METAR KLNL 081055Z AUTO 00000KT 10SM SCT027 17/15 A3005 RMK AO2 
     T01650148=
METAR KLRD 081056Z 03007KT 10SM OVC022 27/24 A2990 RMK AO2 T02660244 
    SLP111 $=
METAR KLUM 081055Z AUTO 29005KT 10SM CLR 18/16 A3006 RMK AO2=
METAR KLVN 081049Z AUTO 27005KT 10SM CLR 16/16 A3009 RMK AO2=
METAR KLXL 081054Z AUTO 00000KT 3/4SM BR VV005 12/12 A3008 RMK
     AO2=
METAR KLYV 081058Z AUTO 00000KT 10SM CLR 13/12 A3017 RMK AO2=
METAR KM89 081056Z AUTO 00000KT 6SM BR OVC004 24/23 A3006 RMK AO2 
    T02380233 SLP190=
METAR KMDZ 081055Z AUTO 32003KT 1/4SM FG OVC002 19/18 A3005 RMK 
     AO2=
METAR KMGG 081055Z AUTO 27004KT 10SM CLR 16/15 A3011 RMK AO2
     T01580147=
METAR KMJQ 081052Z AUTO 29003KT 4SM BR CLR 14/13 A3015 RMK AO2=
METAR KMOX 081050Z AUTO 27004KT 10SM CLR 15/14 A3008 RMK AO2=
METAR KMRJ 081055Z AUTO 28003KT M1/4SM FG OVC003 21/20 A3005 RMK 
     AO2 T02100195=
METAR KMVE 081054Z AUTO 29003KT 10SM CLR 16/14 A3011 RMK AO2=
METAR KMWC 081055Z AUTO 26003KT 5SM -DZ SCT007 BKN025 OVC090 
     21/20 A3002 RMK AO2 P0001=
METAR KMWM 081053Z AUTO 00000KT 7SM CLR 13/13 A3014 RMK AO2=
METAR KMWO 081055Z AUTO 00000KT 1 1/2SM BR VV007 20/20 A3009 RMK 
     AO2=
METAR KOCF 081050Z 04003KT 11/2SM BR SKC 20/20 A3001=
METAR KOEO 081055Z AUTO 00000KT 5SM BR CLR 16/15 A3010 RMK AO2=
METAR KOMN 081050Z 00000KT 10SM SKC 19/19 A3000 RMK FIRST =
METAR KONA 081051Z AUTO 31004KT 10SM CLR 20/17 A3004 RMK AO2=
METAR KOVL 081054Z AUTO 00000KT 7SM CLR 13/12 A3012 RMK AO2
     T01320118=
METAR KPEX 081053Z AUTO 25004KT 5SM BR CLR 13/12 A3011 RMK AO2
     T01250124=
METAR KPNM 081053Z AUTO 00000KT 1/2SM FG VV005 13/12 A3009 RMK AO2
     VIS M1/4V4=
METAR KPQN 081053Z AUTO 33007KT 10SM CLR 17/14 A3017 RMK AO2=
METAR KPVB 081053Z AUTO 29003KT 3/4SM BKN001 OVC008 21/20 A3006 
     RMK AO1 T02070200=
METAR KPWC 081053Z AUTO 00000KT 7SM SCT001 09/09 A3009 RMK AO2=
METAR KROG 081057Z 18003KT 10SM OVC024 23/22 A3008 RMK AO2 SLP173 
    T02280217=
METAR KROS 081055Z AUTO 00000KT 10SM CLR 15/14 A3008 RMK AO2
     T01460140=
METAR KROX 081054Z AUTO 24005KT 10SM CLR 14/12 A3001 RMK AO2=
METAR KRRT 081054Z AUTO 23006KT 10SM CLR 13/11 A3001 RMK AO2=
METAR KRZN 081054Z AUTO 00000KT 10SM CLR 15/15 A3008 RMK AO2 
     T01510145=
METAR KSAZ 081054Z AUTO 25006KT 10SM CLR 16/16 A3009 RMK AO2=
METAR KSGS 081053Z AUTO 00000KT 10SM CLR 18/16 A3009 RMK AO2
     T01810162=
METAR KSME 081055Z AUTO 00000KT 1 3/4SM BR 20/19 A3010 RMK AO2=
METAR KTEW 081052Z AUTO 15003KT 5SM BR CLR 21/19 A3005 RMK AO2=
METAR KTKC 081053Z AUTO 26006KT 10SM CLR 16/13 A3015 RMK AO2
     T01550127=
METAR KTOB 081054Z AUTO 00000KT 10SM CLR 17/16 A3010 RMK AO2=
METAR KTWM 081053Z AUTO 30004KT 10SM CLR 16/13 A3002 RMK AO2=
####018000720####
SAUS20 KNKA 081058
METAR KULM 081054Z AUTO 00000KT 7SM CLR 14/12 A3012 RMK AO2=
METAR KUNI 081055Z AUTO 00000KT 4SM HZ CLR 22/17 A3009 RMK AO2 
     T02150170=
METAR KVES 081054Z AUTO 13003KT 2 1/2SM BR CLR 20/19 A3008 RMK 
     AO2 T01960190=
METAR KVVV 081056Z AUTO 29004KT 10SM CLR 17/14 A3012 RMK AO2=
METAR KY63 081100Z AUTO 21004KT 10SM CLR 14/14 A3011 RMK AO2 
     T01400135=
METAR PACM 081056Z AUTO 27006KT 10SM BKN060 11/09 A3008 RMK AO2 TSNO 
    T01110094 SLP183 $=
METAR PAGN 081056Z AUTO 00000KT CLR RMK AO2 PWINO TSNO SLPNO $=
METAR PATQ 081056Z AUTO 25013KT 10SM CLR 09/03 A3004 RMK AO2 TSNO 
    T00880033 SLP178 $=
METAR TUPJ 081100Z 12008KT 9999 FEW022 28/24 A3000 RMK =
####018002969####
SAUS20 KNKA 081058
METAR K14Y 081058Z AUTO 21004KT 7SM CLR 15/15 A3010 RMK AO2 
     T01480145=
METAR KAIT 081053Z AUTO 00000KT 1/2SM FG VV005 12/11 A3007 RMK
     AO2=
METAR KAJO 081056Z AUTO 00000KT 6SM BR FEW011 14/14 A2990 RMK AO2 
    T01440138 SLP120 $=
METAR KANE 081055Z AUTO 00000KT 10SM 17/16 A3009 RMK AO2=
METAR KARV 081052Z AUTO 00000KT 10SM CLR 17/15 A3004 RMK AO2 
     T01660153=
METAR KAVP 081054Z 00000KT 4SM HZ CLR 21/18 A3008 RMK AO2 SLP171
     T02110178 $=
METAR KBBB 081053Z AUTO 00000KT 1 1/2SM BR VV007 14/13 A3012 RMK
     AO2 VIS 1/4V5=
METAR KBWP 081051Z AUTO 27004KT 7SM CLR 14/13 A3010 RMK AO1 
     T01360125=
METAR KCLI 081055Z AUTO 00000KT 2 1/2SM BR OVC007 22/21 A3000 RMK 
     AO2=
METAR KCMY 081055Z AUTO 00000KT 5SM BR BKN011 19/18 A3005 RMK AO2 
     T01900183=
METAR KCVH 081050Z AUTO 00000KT 9SM OVC008 13/11 A2992 RMK AO1=
METAR KDIJ 081056Z AUTO 00000KT 10SM CLR 04/02 A3029 RMK AO2 
    T00440016 SLP193 $=
METAR KDXX 081054Z AUTO 00000KT 10SM CLR 14/14 A3012 RMK AO2=
METAR KDYT 081054Z AUTO 19007KT 10SM CLR 17/15 A3005 RMK AO2=
METAR KEFK 081055Z AUTO 22004KT 4SM BR CLR 21/20 A3007 RMK AO2=
METAR KEFT 081055Z AUTO 26006KT 10SM CLR 21/19 A3004 RMK AO2 
     T02070187=
METAR KEGV 081052Z AUTO 35005KT 10SM CLR 17/18 A3003 RMK AO2 
     T01730175=
METAR KEKQ 081056Z AUTO 00000KT 1 1/4SM BR CLR 18/18 A3012 RMK AO2 
    T01830177 SLP193=
METAR KELO 081053Z AUTO 21004KT 10SM CLR 13/13 A3002 RMK AO2=
METAR KETB 081052Z AUTO 00000KT 2 1/2SM BR BKN017 BKN120 21/21 
     A3001 RMK AO2 T02130205=
METAR KEVM 081052Z AUTO 00000KT 10SM CLR 15/13 A3002 RMK AO1=
METAR KEZS 081055Z AUTO 00000KT 4SM BR SCT006 OVC012 23/22 A2999 
     RMK AO2 T02260217=
METAR KFBL 081054Z AUTO 29004KT 10SM CLR 16/15 A3011 RMK AO2=
METAR KFFM 081053Z AUTO 23003KT 10SM CLR 15/14 A3009 RMK AO2=
METAR KFGN 081054Z AUTO 27008KT 1/4SM -DZ VV002 16/13 A2998 RMK
     AO2=
METAR KFSO 081058Z AUTO 00000KT 5SM BR BKN065 24/23 A3001 RMK
     AO2=
METAR KFWA 081054Z 00000KT 7SM CLR 23/20 A3006 RMK AO2 SLP172
     T02280200=
METAR KGDB 081052Z AUTO 22005KT 10SM CLR 13/13 A3015 RMK AO2
     T01320126=
METAR KGHW 081053Z AUTO 26004KT 10SM CLR 15/13 A3014 RMK AO2=
METAR KGLW 081053Z AUTO 00000KT 4SM BR CLR 21/20 A3008 RMK AO2 
     T02050196=
METAR KGSO 081054Z 02004KT 6SM HZ FEW095 25/18 A3003 RMK AO2
     SLP155 T02500178=
METAR KGYL 081054Z AUTO 24003KT 10SM CLR 14/14 A3011 RMK AO2
     T01440136=
METAR KHCD 081052Z AUTO 25003KT 5SM BR CLR 14/13 A3012 RMK AO2
     T01370129=
METAR KHCO 081054Z AUTO 19003KT 10SM BKN100 12/12 A3005 RMK
     AO2=
METAR KHFJ 081055Z AUTO 00000KT 10SM SCT010 BKN050 BKN065 23/22 
     A3004 RMK AO1=
METAR KHZX 081051Z AUTO 00000KT 10SM CLR 13/13 A3007 RMK AO2=
METAR KJKJ 081054Z AUTO 27003KT 10SM CLR 16/14 A3007 RMK AO2=
METAR KJMR 081058Z AUTO 00000KT 10SM CLR 15/13 A3009 RMK AO2=
####018000115####
SAUS43 KUNR 081058
MTRD07
METAR KD07 081056Z AUTO 23004KT 14/07 A3021 RMK AO2 SLP220 T01440072 
PWINO TSNO
####018000157####
SAZA42 FAJS 081100 RRB
METAR FAWK 081100Z 05010 9999 FEW060 15/// Q1036=
METAR FASK 081100Z 02010KT 9999 SCT030 17/// Q1034=
METAR FALM 081100Z NIL=
####018000123####
SAUS41 KAKQ 081058
MTRAKQ
METAR KAKQ 081054Z AUTO 35003KT 2SM BR FEW015 24/22 A3000 RMK AO2 
SLP156 T02440222 TSNO
####018000060####
SAUS45 KTFX 081058
MTR8S0
METAR K8S0 080955Z 26007KT 
####018000134####
SAUS41 KAKQ 081058
MTRNTU
METAR KNTU 081056Z 11007KT 10SM SCT005 SCT015 BKN035 BKN130 25/23 
A2996 RMK AO2 SLP149 T02500233 $
####018000129####
SAUS44 KBMX 081058 COR
MTRLOR
METAR KLOR 081053Z AUTO 00000KT 6SM BR SCT070 21/19 A3002 RMK AO2 
SLP163 T02060189 TSNO $
####018000120####
SAUS44 KSHV 081058 COR
MTRPOE
METAR KPOE 081055Z AUTO 07005KT 10SM FEW015 24/23 A3001 RMK AO2 
SLP164 T02390228
####018000131####
SPCN46 CWAO 081058
SPECI CYKF 081058Z AUTO 14003KT 3SM BR CLR 21/21 A3006 RMK SLP175
 DENSITY ALT 1800FT VIS VRB 1 3/4-3=

####018001632####
SANA14 KAWN 081100 RRA
METAR KGTB 081055Z AUTO 18003KT 10SM CLR 24/21 A3004 RMK AO2 SLP171
      T02390206=
METAR KNIP 081053Z 25003KT 10SM CLR 22/21 A3001 RMK AO2 SLP158 T02220206=
METAR KNKT 081054Z 04006KT 4SM BR CLR 26/24 A2993 RMK AO2 SLP132 T02610239=
METAR KNQI 081056Z AUTO 02004KT 4SM RA BR BKN027 BKN035 BKN055 27/25
      A2982 RMK AO2 RAB18 SLP095 P0011 T02670250 $=
METAR KNQX 081053Z 06004KT 10SM SCT022 SCT080 BKN200 28/25 A2993 RMK
      AO2 SLP135 T2 SET T02830250 $=
METAR KNRB 081052Z 00000KT 10SM CLR 24/21 A3000 RMK AO2 SLP158 T02390211=
METAR KNSE 081056Z AUTO 00000KT 1/2SM FG VV004 22/21 A3003 RMK AO2
      SLP152 T02220206 $=
METAR KNYG 081056Z 08007KT 5SM HZ FEW090 BKN200 27/22 A3000 RMK AO2
      SLP160 T02670222=
METAR KPAM 081055Z 35005KT 10SM CLR 24/24 A3001 RMK AO2A SLP163 T02350235=
METAR KSKA 081055Z AUTO 00000KT 10SM CLR 15/08 A3007 RMK AO2 SLP170
      T01490082=
METAR KSLI 081055Z AUTO 29003KT 10SM OVC015 17/14 A2989 RMK AO2 SLP125
      T01670137=
METAR KTCM 081055Z AUTO 00000KT 10SM CLR 13/11 A2995 RMK AO2 SLP143
      T01310114=
METAR KTIK 081055Z AUTO 03006KT 10SM FEW008 BKN011 BKN031 23/22 A3005
      RMK AO2 SLP163 T02330225 $=
METAR KTTS 081055Z 35002KT 10SM PRFG FEW030 FEW280 19/19 A2999 RMK
      SLP156 1SC /0/ 1CI /0/=
METAR KVAD 081055Z AUTO 00000KT 8SM CLR 21/20 A3002 RMK AO2 SLP166
      T02150198 $=
METAR KVOK 081055Z 27006KT 10SM CLR 18/18 A3003 RMK AO2A SLP166 T01790179=
METAR MSLP 081050Z 00000KT 9999 FEW023 BKN070 24/23 Q1010 A2984=
METAR SPIM 081100Z 16002KT 6000 OVC022 16/13 Q1013 NOSIG RMK PP000=
####018001612####
SAZZ40 KAWN 081100 RRG
METAR KAPG 081054Z 00000KT 4SM BR SKC 26/24 A3002=
METAR KFCS 081055Z AUTO 23007KT 10SM OVC036 14/10 A3036 RMK AO2 SLP210
      T01420103=
METAR KFRI 081055Z AUTO 04003KT 9SM FEW006 SCT016 BKN160 21/21 A3010
      RMK AO2 FEW V SCT SLP183 T02120212=
METAR KGRK 081055Z 08005KT 7SM FEW009 BKN024 OVC030 26/24 A2998 RMK
      SLP128=
METAR KHLR 081056Z AUTO 08004KT 10SM SCT009 BKN015 OVC023 25/ A2999
      RMK AO2 SLP146 T0250 $=
METAR KNCA 081056Z AUTO 00000KT 5SM BR CLR 23/22 A2993 RMK AO2 SLP136
      T02330217=
METAR KNQI 081056Z AUTO 02004KT 4SM RA BR BKN027 BKN035 BKN055 27/25
      A2982 RMK AO2 RAB18 SLP095 P0011 T02670250 $=
METAR KNSE 081056Z AUTO 00000KT 1/2SM FG VV004 22/21 A3003 RMK AO2
      SLP152 T02220206 $=
METAR KNYG 081056Z 08007KT 5SM HZ FEW090 BKN200 27/22 A3000 RMK AO2
      SLP160 T02670222=
METAR KPAM 081055Z 35005KT 10SM CLR 24/24 A3001 RMK AO2A SLP163 T02350235=
METAR MHLC 081100Z 00000KT 9999 FEW026 BKN200 25/24 Q1009 A2980 NOSIG=
METAR MHLM 081100Z 21008KT 9999 TS SCT025CB BKN080 26/25 Q1010A 2983
      NOSIG=
METAR MHSC 081055Z AUTO 12003KT 9999 BKN065 OVC140 22/19 A2994 RMK
      AO2 SLP099 T02190191 $=
METAR MHTG 081100Z 14003KT 9999 BKN025 19/18 Q1016 A3000 NOSIG=
METAR MSLP 081050Z 00000KT 9999 FEW023 BKN070 24/23 Q1010 A2984=
METAR OAHR 081055Z 03010KT CAVOK 40/M02 Q1010 RMK SKC VIS MIN 9999
      BLU=
METAR PWAK 081056Z 07012KT 6SM BR FEW024 27/25 A2999 RMK AO2A=
METAR TJBQ 081050Z 11004KT 10SM SKC 25/25 A3000=
METAR TJPS 081050Z 00000KT 8SM FEW030 26/24 A2998 HZ ALQDS=
####018001691####
SANA35 KAWN 081100 RRA
METAR KACY 081054Z 11003KT 8SM -RA FEW060 24/23 A3004 RMK AO2 RAB49
      SLP172 P0000 T02440228=
METAR KADW 081055Z AUTO 10003KT 7SM CLR 25/24 A3001 RMK AO2 SLP161
      T02550237 $=
METAR KBIX 081055Z AUTO 00000KT 10SM CLR 25/25 A3003 RMK AO2 SLP169
      T02460246=
METAR KCHS 081056Z 27005KT 8SM CLR 24/19 A2997 RMK AO2 SLP147 T02390194=
METAR KGSB 081055Z AUTO 03004KT 9SM SCT160 25/20 A2993 RMK AO2 SLP135
      T02530202 $=
METAR KLFI 081055Z 10006KT 10SM FEW011 SCT090 26/22 A2998 RMK AO2A
      SLP152 T02570223 $=
METAR KMCF 081055Z AUTO 07004KT 10SM CLR 22/22 A2999 RMK AO2 SLP156
      T02220221=
METAR KNCA 081056Z AUTO 00000KT 5SM BR CLR 23/22 A2993 RMK AO2 SLP136
      T02330217=
METAR KNIP 081053Z 25003KT 10SM CLR 22/21 A3001 RMK AO2 SLP158 T02220206=
METAR KNKT 081054Z 04006KT 4SM BR CLR 26/24 A2993 RMK AO2 SLP132 T02610239=
METAR KNQX 081053Z 06004KT 10SM SCT022 SCT080 BKN200 28/25 A2993 RMK
      AO2 SLP135 T2 SET T02830250 $=
METAR KNRB 081052Z 00000KT 10SM CLR 24/21 A3000 RMK AO2 SLP158 T02390211=
METAR KPAM 081055Z 35005KT 10SM CLR 24/24 A3001 RMK AO2A SLP163 T02350235=
METAR KPHL 081054Z 12004KT 3SM BR FEW150 25/23 A3003 RMK AO2 SLP168
      T02500228 $=
METAR KSAV 081053Z 22003KT 10SM FEW250 21/19 A3000 RMK AO2 SLP156 T02110194=
METAR KSYR 081054Z 00000KT 10SM CLR 24/21 A3004 RMK AO2 SLP167 T02390206=
METAR KVAD 081055Z AUTO 00000KT 8SM CLR 21/20 A3002 RMK AO2 SLP166
      T02150198 $=
METAR KWRI 081055Z AUTO 00000KT 1 1/4SM R18/5500VP6000FT BR SCT001
      24/24 A3001 RMK AO2 SLP162 T02360236 $=
METAR SPIM 081100Z 16002KT 6000 OVC022 16/13 Q1013 NOSIG RMK PP000=
####018000916####
SAAK41 KNKA 081058
METAR PACM 081056Z AUTO 27006KT 10SM BKN060 11/09 A3008 RMK AO2 TSNO 
    T01110094 SLP183 $=
METAR PAGN 081056Z AUTO 00000KT CLR RMK AO2 PWINO TSNO SLPNO $=
METAR PAHC 081056Z AUTO 26003KT 10SM BKN085 11/09 A2999 RMK AO2 TSNO 
    T01050094 SLP158 $=
METAR PAIG 081056Z AUTO 00000KT 10SM FEW043 BKN049 OVC065 09/08 
    A2994 RMK AO2 PWINO TSNO T00880083 SLP141 $=
METAR PAMO 081056Z AUTO 01010KT 10SM SCT047 BKN070 11/09 A3005 RMK 
    AO2 TSNO T01110094 BKN V SCT RAB11E36 P0000 SLP173 $=
METAR PAOH 081056Z AUTO 00000KT 10SM CLR 08/08 A3020 RMK AO2 TSNO 
    T00830083 SLP227=
METAR PAPM 081056Z AUTO 00000KT RA CLR 08/07 A2999 RMK AO2 TSNO 
    T00770072 P0000 SLP157 $=
METAR PARS 081056Z AUTO 28003KT 10SM OVC080 11/09 A3001 RMK AO2 TSNO 
    T01110094 SLP166 $=
METAR PATQ 081056Z AUTO 25013KT 10SM CLR 09/03 A3004 RMK AO2 TSNO 
    T00880033 SLP178 $=
####018000084####
SASV40 FDMS 081100
METAR FDMS 081100Z 00000KT 9999 BKN030 18/13 Q1031 NOSIG=

####018000132####
SAHW40 PHFO 081058
MTRNGF
METAR PHNG 081057Z 08007KT 10SM SCT020 BKN040 24/19 A3004 RMK AO2 
RAE05 SLP168 P0000 T02440194 $
####018001831####
SAEU KAWN 081100 RRH
METAR EDLN 081050Z 21005KT 140V280 CAVOK 30/11 Q1019 RMK ATIS M=
METAR EDLP 081050Z VRB04KT CAVOK 29/11 Q1020 RMK RWY24 TRL60 JP ATIS
      R=
METAR EDXW 081050Z 22012KT CAVOK 23/12 Q1019 RMK ATIS INFO U=
METAR EHAM 081055Z 29008KT 250V320 CAVOK 23/16 Q1019 NOSIG=
METAR EHBK 081055Z AUTO VRB04KT 9999NDV NCD 29/11 Q1019 NOSIG=
METAR EHDL 081055Z AUTO 19010KT 9999NDV FEW079 29/13 Q1019 BLU=
METAR EHGG 081055Z AUTO 27011KT 230V310 9999NDV NSC 26/13 Q1019 NOSIG=
METAR EHGR 081055Z AUTO 25005KT 9999NDV NCD 29/11 Q1019 BLU BLU=
METAR EHRD 081055Z 30005KT 240V030 CAVOK 24/16 Q1019 NOSIG=
METAR EHVL 081055Z AUTO 23010KT 9999NDV SCT060 OVC066 20/16 Q1019 BLU=
METAR EHWO 081055Z AUTO 30005KT 9999NDV FEW190 27/11 Q1019 BLU BLU=
METAR GVAC 081100Z 07011KT 9999 BKN014 25/19 Q1014 NOSIG=
METAR LEJR 081100Z VRB02KT CAVOK 30/18 Q1016=
METAR LGAD 081050Z 31011KT 9999 FEW020 27/18 Q1014=
METAR LGEL 081050Z 34013G23KT CAVOK 27/12 Q1011=
METAR LGIR 081050Z 36006KT 9999 FEW020 29/24 Q1011 NOSIG=
METAR LGKL 081050Z 33009KT 9999 FEW030 33/11 Q1011=
METAR LGKO 081050Z 31017KT CAVOK 30/18 Q1009=
METAR LGKR 081050Z 32018KT CAVOK 28/12 Q1013 NOSIG=
METAR LGKV 081050Z 16006KT 9999 FEW020CB SCT025TCU BKN100 22/13 Q1013=
METAR LGLM 081050Z 06013KT 9999 FEW008 BKN020 21/16 Q1013=
METAR LGPZ 081050Z 25012KT 9999 FEW025 27/18 Q1013 NOSIG BLU=
METAR LGRP 081050Z 25015KT CAVOK 30/18 Q1008 NOSIG=
METAR LGSA 081050Z 29008KT 9999 FEW020 33/14 Q1011=
METAR LGSM 081050Z 35012KT 9999 FEW020 31/14 Q1010=
METAR LGSR 081050Z 35017KT 9999 FEW020 27/19 Q1011 NOSIG BLU=
METAR LGTG 081050Z 02010KT 9999 FEW030 SCT070 25/11 Q1014 NOSIG BLU=
METAR LGTS 081050Z 34019G29KT 9999 SCT025 24/12 Q1016 NOSIG=
METAR LOXT 081050Z VRB04KT 50KM FEW050CU 25/13 Q1023 NOSIG RMK FEW=
####018001518####
SAZZ40 KAWN 081100 RRH
METAR KNBG 081055Z AUTO 05003KT 6SM HZ CLR A3002 RMK AO2 SLP166 PWINO
      FZRANO $=
METAR KNFG 081056Z AUTO 00000KT 10SM OVC010 16/14 A2989 RMK AO2 SLP121
      T01560139 TSNO=
METAR KNFL 081056Z AUTO 00000KT 10SM CLR 18/M01 A2998 RMK AO2 SLP124
      T01831006 TSNO=
METAR KNGP 081056Z 09011KT 4SM +RA BR SCT013 BKN019 BKN033 28/27 A2982
      RMK AO2 RAB49 SLP096 P0009 T02780267 $=
METAR KNJK 081056Z AUTO 13005KT 10SM CLR 23/12 A2969 RMK AO2 SLP070
      T02280122 TSNO=
METAR KNJK 081056Z AUTO 13005KT 10SM CLR 23/12 A2969 RMK AO2 SLP070
      T02280122 TSNO=
METAR KNKX 081055Z 33003KT 10SM OVC014 16/13 A2989 RMK AO2 SLP118 T01610133=
METAR KNTD 081056Z AUTO 28006KT 9SM OVC011 15/13 A2989 RMK AO2 SLP123
      T01500128 TSNO PNO VISNO N $=
METAR KNXP 081056Z AUTO 29005KT CLR 23/00 A2991 RMK AO2 SLP089 T02330000
      $=
METAR KNXX 081056Z 00000KT 3SM HZ CLR 24/21 A3005 RMK AO2 SLP177 T02390206
      $=
METAR KPOE 081055Z AUTO 07005KT 10SM FEW015 24/23 A3001 RMK AO2 SLP164
      T02390228=
METAR KPOE 081055Z AUTO 07005KT 10SM FEW015 24/23 A3001 RMK AO2 SLP164
      T02390228=
METAR KSGH 081056Z 00000KT 3SM BR CLR 21/21 A3011 RMK AO2 T02050205
      SLP187=
METAR KVBG 081055Z AUTO 34003KT 10SM OVC004 12/11 A2993 RMK AO2 SLP125
      T01220111 TSNO $=
METAR KWJF 081056Z 00000KT 10SM CLR 17/02 A2988 RMK AO2 SLP098 T01720017=
METAR TJSJ 081056Z 11003KT 10SM FEW020 SCT110 28/24 A3000 RMK AO2 SLP158
      T02780244=
####018000082####
SPCN48 CWAO 081057
SPECI CYGV 081057Z AUTO 11003KT 9SM OVC002 14/12 A3003=

####018000120####
SAUS46 KLOX 081058
MTRNLC
METAR KNLC 081056Z AUTO 30007KT 10SM CLR 17/11 A2982 RMK AO2 SLP095 
T01720106 TSNO $
####018003728####
SAUS99 KWBC 081059
METAR
KUOX 081055Z AUTO 00000KT 9SM CLR 21/20 A3009 RMK AO2=
KWJF 081056Z 00000KT 10SM CLR 17/02 A2988 RMK AO2 SLP098
     T01720017=
TJSJ 081056Z 11003KT 10SM FEW020 SCT110 28/24 A3000 RMK AO2 SLP158
     T02780244=
KSDF 081056Z 12003KT 5SM HZ SCT120 25/21 A3006 RMK AO2 SLP172
     T02500211=
K1P1 081055Z AUTO 00000KT 1 1/4SM BR OVC003 23/22 A3007 RMK AO2
     T02260215=
KART 081056Z AUTO 00000KT 6SM HZ CLR 24/21 A3003 RMK AO2 SLP163
     T02390206=
KBED 081056Z 16007KT 6SM HZ SCT016 BKN070 24/21 A3007 RMK AO2
     SLP193 T02390211=
KBJJ 081056Z AUTO 00000KT 1 1/2SM BR FEW060 19/18 A3011 RMK AO2
     SLP186 T01890183=
KBVU 081055Z AUTO 00000KT 10SM CLR 23/05 A2986 RMK AO2=
KCEC 081056Z AUTO 23003KT 2SM BR OVC003 10/09 A2998 RMK AO2 SLP151
     T01000094=
KCXY 081056Z 21003KT 4SM HZ CLR 24/21 A3002 RMK AO2 SLP164
     T02390206=
KDAY 081056Z 00000KT 4SM HZ CLR 22/19 A3010 RMK AO2 SLP184
     T02220189=
KDUJ 081056Z AUTO 08003KT 4SM BR FEW065 20/18 A3012 RMK AO2 SLP185
     T02000178=
KE80 081055Z AUTO 22004KT 10SM CLR 18/12 A3025 RMK AO2
     T01810115=
KEDC 081055Z AUTO 06004KT BKN008 24/24 A2996 RMK AO2=
KEIK 081055Z AUTO 00000KT 10SM BKN004 11/11 A3032 RMK AO2=
KELZ 081056Z AUTO 00000KT 2SM BR CLR 19/19 A3016 RMK AO2 SLP198
     T01940189=
KEOE 081055Z AUTO 22003KT 10SM CLR 21/20 A3004 RMK AO2=
KFMH 081055Z AUTO 16006KT 10SM FEW009 BKN019 22/20 A3011 RMK
     AO2=
KGON 081056Z 09004KT 2SM BR BKN002 OVC013 23/21 A3007 RMK AO2
     SLP182 T02280206=
KHPN 081056Z 00000KT 2SM BR OVC004 24/22 A3005 RMK AO2 SLP169
     T02390217=
KHWV 081056Z AUTO 14003KT 5SM BR SCT013 SCT021 24/23 A3006 RMK AO2
     SLP178 T02440233=
KHYA 081056Z 00000KT 10SM BKN016 22/21 A3010 RMK AO2 SLP193
     T02220206=
KIFP 081055Z AUTO 00000KT 10SM CLR 27/00 A2975 RMK AO2=
KISO 081055Z 35004KT 4SM HZ CLR 24/21 AA2995=
KISP 081056Z 13005KT 5SM HZ BKN005 BKN011 OVC120 25/22 A3004 RMK
     AO2 SLP170 T02500222=
KITH 081056Z 09004KT 6SM BR CLR 21/19 A3010 RMK AO2 T02110188
     SLP185=
KJXN 081056Z 00000KT 7SM CLR 22/20 A3006 RMK AO2 SLP171
     T02170200=
KMAN 081055Z AUTO 00000KT 10SM CLR 13/07 A3005 RMK AO1=
KMDT 081056Z 00000KT 4SM HZ CLR 26/21 A3001 RMK AO2 SLP161
     T02560211=
KMRH 081056Z AUTO 05005KT 3SM HZ CLR 27/23 A2992 RMK AO2 SLP131
     T02670233 TSNO=
KPVF 081055Z AUTO 00000KT 10SM SCT044 21/12 A2994 RMK AO1=
KRBW 081055Z AUTO 27003KT 10SM CLR 22/20 A2998 RMK AO2=
KRCM 081055Z AUTO 00000KT 5SM BR BKN002 OVC006 22/22 A3005 RMK AO2
     LTG DSNT SE=
KSGH 081056Z 00000KT 3SM BR CLR 21/21 A3011 RMK AO2 T02050205
     SLP187=
KSGJ 081058Z 00000KT 10SM CLR 22/21 A3001 RMK AO2 SLP161
     T02220206=
KSNC 081055Z AUTO 13003KT 2SM BR OVC001 22/ A3009 RMK AO2
     P0005=
KTME 081055Z AUTO 04008KT 5SM 25/25 A2993 RMK AO1=
KTPH 081056Z AUTO 35007KT 10SM CLR 14/M04 A3010 RMK AO2 SLP115
     T01391044=
KULM 081054Z AUTO 00000KT 7SM CLR 14/12 A3012 RMK AO2=
KUNI 081055Z AUTO 00000KT 4SM HZ CLR 22/17 A3009 RMK AO2
     T02150170=
KVES 081054Z AUTO 13003KT 2 1/2SM BR CLR 20/19 A3008 RMK AO2
     T01960190=
KVVV 081056Z AUTO 29004KT 10SM CLR 17/14 A3012 RMK AO2=
KY63 081100Z AUTO 21004KT 10SM CLR 14/14 A3011 RMK AO2
     T01400135=
PACM 081056Z AUTO 27006KT 10SM BKN060 11/09 A3008 RMK AO2 TSNO
     T01110094 SLP183 $=
PAGN 081056Z AUTO 00000KT CLR RMK AO2 PWINO TSNO SLPNO $=
PATQ 081056Z AUTO 25013KT 10SM CLR 09/03 A3004 RMK AO2 TSNO
     T00880033 SLP178 $=
TUPJ 081100Z 12008KT 9999 FEW022 28/24 A3000 RMK=
KJQF 081055Z 00000KT 10SM SCT100 23/18 A3001=
KLJF 081053Z AUTO 25003KT 10SM CLR 17/16 A3012 RMK AO2=
####018003724####
SAUS99 KWBC 081059 RRA
METAR
KLNL 081055Z AUTO 00000KT 10SM SCT027 17/15 A3005 RMK AO2
     T01650148=
KLRD 081056Z 03007KT 10SM OVC022 27/24 A2990 RMK AO2 T02660244
     SLP111 $=
KLUM 081055Z AUTO 29005KT 10SM CLR 18/16 A3006 RMK AO2=
KLVN 081049Z AUTO 27005KT 10SM CLR 16/16 A3009 RMK AO2=
KLXL 081054Z AUTO 00000KT 3/4SM BR VV005 12/12 A3008 RMK AO2=
KLYV 081058Z AUTO 00000KT 10SM CLR 13/12 A3017 RMK AO2=
KM89 081056Z AUTO 00000KT 6SM BR OVC004 24/23 A3006 RMK AO2
     T02380233 SLP190=
KMDZ 081055Z AUTO 32003KT 1/4SM FG OVC002 19/18 A3005 RMK AO2=
KMGG 081055Z AUTO 27004KT 10SM CLR 16/15 A3011 RMK AO2
     T01580147=
KMJQ 081052Z AUTO 29003KT 4SM BR CLR 14/13 A3015 RMK AO2=
KMOX 081050Z AUTO 27004KT 10SM CLR 15/14 A3008 RMK AO2=
KMRJ 081055Z AUTO 28003KT M1/4SM FG OVC003 21/20 A3005 RMK AO2
     T02100195=
KMVE 081054Z AUTO 29003KT 10SM CLR 16/14 A3011 RMK AO2=
KMWC 081055Z AUTO 26003KT 5SM -DZ SCT007 BKN025 OVC090 21/20 A3002
     RMK AO2 P0001=
KMWM 081053Z AUTO 00000KT 7SM CLR 13/13 A3014 RMK AO2=
KMWO 081055Z AUTO 00000KT 1 1/2SM BR VV007 20/20 A3009 RMK AO2=
KOCF 081050Z 04003KT 11/2SM BR SKC 20/20 A3001=
KOEO 081055Z AUTO 00000KT 5SM BR CLR 16/15 A3010 RMK AO2=
KOMN 081050Z 00000KT 10SM SKC 19/19 A3000 RMK FIRST=
KONA 081051Z AUTO 31004KT 10SM CLR 20/17 A3004 RMK AO2=
KOVL 081054Z AUTO 00000KT 7SM CLR 13/12 A3012 RMK AO2
     T01320118=
KPEX 081053Z AUTO 25004KT 5SM BR CLR 13/12 A3011 RMK AO2
     T01250124=
KPNM 081053Z AUTO 00000KT 1/2SM FG VV005 13/12 A3009 RMK AO2 VIS
     M1/4V4=
KPQN 081053Z AUTO 33007KT 10SM CLR 17/14 A3017 RMK AO2=
KPVB 081053Z AUTO 29003KT 3/4SM BKN001 OVC008 21/20 A3006 RMK AO1
     T02070200=
KPWC 081053Z AUTO 00000KT 7SM SCT001 09/09 A3009 RMK AO2=
KROG 081057Z 18003KT 10SM OVC024 23/22 A3008 RMK AO2 SLP173
     T02280217=
KROS 081055Z AUTO 00000KT 10SM CLR 15/14 A3008 RMK AO2
     T01460140=
KROX 081054Z AUTO 24005KT 10SM CLR 14/12 A3001 RMK AO2=
KRRT 081054Z AUTO 23006KT 10SM CLR 13/11 A3001 RMK AO2=
KRZN 081054Z AUTO 00000KT 10SM CLR 15/15 A3008 RMK AO2
     T01510145=
KSAZ 081054Z AUTO 25006KT 10SM CLR 16/16 A3009 RMK AO2=
KSGS 081053Z AUTO 00000KT 10SM CLR 18/16 A3009 RMK AO2
     T01810162=
KSME 081055Z AUTO 00000KT 1 3/4SM BR 20/19 A3010 RMK AO2=
KTEW 081052Z AUTO 15003KT 5SM BR CLR 21/19 A3005 RMK AO2=
KTKC 081053Z AUTO 26006KT 10SM CLR 16/13 A3015 RMK AO2
     T01550127=
KTOB 081054Z AUTO 00000KT 10SM CLR 17/16 A3010 RMK AO2=
KTWM 081053Z AUTO 30004KT 10SM CLR 16/13 A3002 RMK AO2=
K14Y 081058Z AUTO 21004KT 7SM CLR 15/15 A3010 RMK AO2
     T01480145=
KAIT 081053Z AUTO 00000KT 1/2SM FG VV005 12/11 A3007 RMK AO2=
KAJO 081056Z AUTO 00000KT 6SM BR FEW011 14/14 A2990 RMK AO2
     T01440138 SLP120 $=
KANE 081055Z AUTO 00000KT 10SM 17/16 A3009 RMK AO2=
KARV 081052Z AUTO 00000KT 10SM CLR 17/15 A3004 RMK AO2
     T01660153=
KAVP 081054Z 00000KT 4SM HZ CLR 21/18 A3008 RMK AO2 SLP171
     T02110178 $=
KBBB 081053Z AUTO 00000KT 1 1/2SM BR VV007 14/13 A3012 RMK AO2 VIS
     1/4V5=
KBWP 081051Z AUTO 27004KT 7SM CLR 14/13 A3010 RMK AO1
     T01360125=
KCLI 081055Z AUTO 00000KT 2 1/2SM BR OVC007 22/21 A3000 RMK
     AO2=
KCMY 081055Z AUTO 00000KT 5SM BR BKN011 19/18 A3005 RMK AO2
     T01900183=
KCVH 081050Z AUTO 00000KT 9SM OVC008 13/11 A2992 RMK AO1=
KDIJ 081056Z AUTO 00000KT 10SM CLR 04/02 A3029 RMK AO2 T00440016
     SLP193 $=
KDXX 081054Z AUTO 00000KT 10SM CLR 14/14 A3012 RMK AO2=
KDYT 081054Z AUTO 19007KT 10SM CLR 17/15 A3005 RMK AO2=
KEFK 081055Z AUTO 22004KT 4SM BR CLR 21/20 A3007 RMK AO2=
KEFT 081055Z AUTO 26006KT 10SM CLR 21/19 A3004 RMK AO2
     T02070187=
####018002412####
SAUS99 KWBC 081059 RRB
METAR
KEGV 081052Z AUTO 35005KT 10SM CLR 17/18 A3003 RMK AO2
     T01730175=
KEKQ 081056Z AUTO 00000KT 1 1/4SM BR CLR 18/18 A3012 RMK AO2
     T01830177 SLP193=
KELO 081053Z AUTO 21004KT 10SM CLR 13/13 A3002 RMK AO2=
KETB 081052Z AUTO 00000KT 2 1/2SM BR BKN017 BKN120 21/21 A3001 RMK
     AO2 T02130205=
KEVM 081052Z AUTO 00000KT 10SM CLR 15/13 A3002 RMK AO1=
KEZS 081055Z AUTO 00000KT 4SM BR SCT006 OVC012 23/22 A2999 RMK AO2
     T02260217=
KFBL 081054Z AUTO 29004KT 10SM CLR 16/15 A3011 RMK AO2=
KFFM 081053Z AUTO 23003KT 10SM CLR 15/14 A3009 RMK AO2=
KFGN 081054Z AUTO 27008KT 1/4SM -DZ VV002 16/13 A2998 RMK AO2=
KFSO 081058Z AUTO 00000KT 5SM BR BKN065 24/23 A3001 RMK AO2=
KFWA 081054Z 00000KT 7SM CLR 23/20 A3006 RMK AO2 SLP172
     T02280200=
KGDB 081052Z AUTO 22005KT 10SM CLR 13/13 A3015 RMK AO2
     T01320126=
KGHW 081053Z AUTO 26004KT 10SM CLR 15/13 A3014 RMK AO2=
KGLW 081053Z AUTO 00000KT 4SM BR CLR 21/20 A3008 RMK AO2
     T02050196=
KGSO 081054Z 02004KT 6SM HZ FEW095 25/18 A3003 RMK AO2 SLP155
     T02500178=
KGYL 081054Z AUTO 24003KT 10SM CLR 14/14 A3011 RMK AO2
     T01440136=
KHCD 081052Z AUTO 25003KT 5SM BR CLR 14/13 A3012 RMK AO2
     T01370129=
KHCO 081054Z AUTO 19003KT 10SM BKN100 12/12 A3005 RMK AO2=
KHFJ 081055Z AUTO 00000KT 10SM SCT010 BKN050 BKN065 23/22 A3004
     RMK AO1=
KHZX 081051Z AUTO 00000KT 10SM CLR 13/13 A3007 RMK AO2=
KJKJ 081054Z AUTO 27003KT 10SM CLR 16/14 A3007 RMK AO2=
KJMR 081058Z AUTO 00000KT 10SM CLR 15/13 A3009 RMK AO2=
PACM 081056Z AUTO 27006KT 10SM BKN060 11/09 A3008 RMK AO2 TSNO
     T01110094 SLP183 $=
PAGN 081056Z AUTO 00000KT CLR RMK AO2 PWINO TSNO SLPNO $=
PAHC 081056Z AUTO 26003KT 10SM BKN085 11/09 A2999 RMK AO2 TSNO
     T01050094 SLP158 $=
PAIG 081056Z AUTO 00000KT 10SM FEW043 BKN049 OVC065 09/08 A2994
     RMK AO2 PWINO TSNO T00880083 SLP141 $=
PAMO 081056Z AUTO 01010KT 10SM SCT047 BKN070 11/09 A3005 RMK AO2
     TSNO T01110094 BKN V SCT RAB11E36 P0000 SLP173 $=
PAOH 081056Z AUTO 00000KT 10SM CLR 08/08 A3020 RMK AO2 TSNO
     T00830083 SLP227=
PAPM 081056Z AUTO 00000KT RA CLR 08/07 A2999 RMK AO2 TSNO
     T00770072 P0000 SLP157 $=
PARS 081056Z AUTO 28003KT 10SM OVC080 11/09 A3001 RMK AO2 TSNO
     T01110094 SLP166 $=
PATQ 081056Z AUTO 25013KT 10SM CLR 09/03 A3004 RMK AO2 TSNO
     T00880033 SLP178 $=
####018000117####
SAMX41 MMMX 081057
METAR MMTB 081100Z 00000KT 6SM HZ BKN018 23/21 A2983 RMK 8/600 
           BC MI FG 3 QUAD =
####018000156####
SAZA42 FAJS 081100 RRB
METAR FAWK 081100Z 05010 9999 FEW060 15/// Q1036=
METAR FASK 081100Z 02010KT 9999 SCT030 17/// Q1034=
METAR FALM 081100Z NIL=
####018000462####
SAGR32 LGAT 081050
METAR LGAL 081050Z NIL=
METAR LGEL 081050Z 34013G23KT CAVOK 27/12 Q1011=
METAR LGKV 081050Z 16006KT 9999 FEW020CB SCT025TCU BKN100
      22/13 Q1013=
METAR LGMT 081050Z 36012KT 9999 FEW025 BKN120 26/19 Q1011=
METAR LGPZ 081050Z 25012KT 9999 FEW025 27/18 Q1013 NOSIG=
METAR LGRX 081050Z 27013KT 9999 FEW025 28/16 Q1012 NOSIG=
METAR LGSK 081050Z NIL=
METAR LGSR 081050Z 35017KT 9999 FEW020 27/19 Q1011 NOSIG=
METAR LGZA 081050Z NIL=
####018000177####
SANL32 EHDB 081055
METAR EHEH 081055Z AUTO 25007KT 9999NDV BKN130 30/12 Q1019 
BLU BLU=
METAR EHKD 081055Z AUTO 25008KT 9999NDV FEW068/// BKN077/// 21/16
Q1019 
BLU BLU=
####018000086####
SAVN22 SVMI 081100
METAR SVMI 081100Z 00000KT 9999 FEW016 BKN090 25/24 Q1014 RETS=
####018000475####
SAGR33 LGAT 081050
METAR LGHI 081050Z 02010KT 9999 FEW020 SCT080 27/19 Q1011=
METAR LGKC 081050Z 06011KT CAVOK 30/18 Q1013=
METAR LGKF 081050Z 33016KT 9999 FEW025 27/14 Q1014=
METAR LGKP 081050Z 33028KT CAVOK 29/16 Q1009=
METAR LGKZ 081050Z 31012KT 9999 FEW020 SCT070 21/07 Q1018=
METAR LGMK 081050Z 35021KT 9999 FEW012 24/17 Q1012=
METAR LGNX 081050Z 01017G27KT 9999 FEW020 26/19 Q1012=
METAR LGPA 081050Z NIL=
METAR LGSO 081050Z 36018KT 9999 FEW018 25/18 Q1012=
####018000081####
SABZ24 SBPA 081100
METAR SBPA 081100Z 23004KT 9999 BKN020 OVC045 16/13 Q1019=
####018000074####
SAEW LEMO 081100
METAR LEMO 081100Z VRB03KT CAVOK 29/19 
Q1016 NOSIG=
####018000088####
SALI20 GLRB 081100
METAR GLRB 081100Z 15006KT 9999 BKN018 FEW026CB 29/24 Q1015 CB-S=
####018000078####
SASN31 ESWI 081050 RRA
METAR ESGT 081050Z 22011KT 9999 BKN029 20/13 Q1018=
####018000118####
SAMX51 MMMX 081058
METAR MMPA 081100Z RTD 32003KT 5SM SCT280 26/25 A2984
      RMK 8/008 HZY DSNT CB, TCU E RTS=
####018000189####
SADR31 MDSD 081100
METAR
MDST 081100Z 00000KT 4000 BR BKN016 23/23 Q1015 BR/NE/NW/N=
MDPC 081100Z 00000KT 9999 FEW018 25/23 Q1013 RESH=
MDSD 081100Z 06004KT 9999 FEW018 24/23 Q1015==
####018000095####
SAPR01 SPIM 081100 COR
METAR
SPIM 081100Z VRB02KT 6000 OVC022 16/13 Q1013 NOSIG RMK PP000=
####018000068####
SABZ18 SBSP 081100
METAR SBSP 081100Z 31003KT CAVOK 16/09 Q1022=
####018000071####
SABZ18 SBGR 081100
METAR SBGR 081100Z 10001KT 8000 NSC 12/10 Q1021=
####018000083####
SAAG SAWH 081100
METAR SAWH 081100Z  05006KT 9999  FEW035 BKN100
01/M01 Q0984=
####018000081####
SABZ20 SBSL 081100
METAR SBSL 081100Z 09004KT 9999 FEW015 BKN100 27/25 Q1014=
####018000081####
SABZ21 SBNT 081100
METAR SBNT 081100Z 19006KT 9999 FEW023 BKN100 24/22 Q1015=
####018000181####
SPJP44 KWBC 081059
SPECI
RJSM 081044Z 10003KT 070V140 4000 BR FEW005 FEW020CB SCT040 BKN080
20/18 Q1009 RMK 1ST005 2CB020 3SC040 6AC080 A2982 WIND BY EQPT/10
CB NE MOV E=
####018000128####
SPXX62 KWBC 081059
SPECI
RKSG 081052Z AUTO 11005KT 9999 CLR 25/25 A2978 RMK AO2
RAB1037E1046DZE0959B1033E1052 SLP086 $=
####018000181####
SPXX62 KWBC 081059
SPECI
RJSM 081044Z 10003KT 070V140 4000 BR FEW005 FEW020CB SCT040 BKN080
20/18 Q1009 RMK 1ST005 2CB020 3SC040 6AC080 A2982 WIND BY EQPT/10
CB NE MOV E=
####018000084####
SPUS42 KWBC 081059
SPECI
KAUS 081056Z 06005KT 10SM FEW007 BKN012 26/24 A2995=
####018000084####
SPUS52 KWBC 081059
SPECI
KAUS 081056Z 06005KT 10SM FEW007 BKN012 26/24 A2995=
####018001680####
SAXN17 KAWN 081100 RRB
METAR MDSD 081100Z 06004KT 9999 FEW018 24/23 Q1015=
METAR MHLC 081100Z 00000KT 9999 FEW026 BKN200 25/24 Q1009 A2980 NOSIG=
METAR MMGL 081046Z 00000KT 10SM SCT010 OVC080 18/15 A3003 RMK 60746
      8/57/ RAE20=
METAR MMHO 081045Z 00000KT 10SM BKN080 27/18 A2979 RMK 8/050 HZY=
METAR MMML 081046Z 15010KT 10SM SKC 22/// A2969=
METAR MMMZ 081049Z 00000KT 10SM SCT070 OVC200 27/22 A2975 RMK 8/077=
METAR MMNL 081056Z 00000KT 8SM SCT010 OVC022 28/24 A2988 RMK 8/5//
      RTS=
METAR MMPR 081046Z 00000KT 12SM SCT025 BKN070 25/23 A2980 RMK 8/470=
METAR MMVA 081056Z 00000KT 7SM SCT100 BKN200 26/24 A2978 RMK 60091
      8/036 RTS=
METAR MYGF 081100Z 05003KT 9999 FEW020TCU SCT150 24/23 A2996 RMK TCU
      S /=
METAR PACZ 081055Z AUTO 03006KT 10SM 10/09 A3005 RMK AO1 T01000089=
METAR PAED 081055Z AUTO 00000KT 10SM FEW090 11/10 A2998 RMK AO2 CLDS
      LWR RWY24 SLP154 T01120098 $=
METAR PALU 081055Z AUTO 20011G17KT 10SM CLR 12/02 A3010 RMK AO1 T01220017=
PASV SA 1055 AWOS 37 SCT 47 SCT 70 SCT 10 48/45/0000/996=
METAR PASY 081056Z AUTO 02017KT 10SM OVC006 A2974 RMK AO2 SLPNO TSNO
      PNO=
METAR PGUA 081055Z AUTO 09016G22KT 10SM BKN019 BKN025 27/ A2991 RMK
      AO2 RAB1032E1041 CIG 017V024 SLP109 P0000 T0271 VISNO RWY24L $=
METAR PTRO 081054Z 00000KT 14SM SCT016TCU BKN120 BKN300 26/24 A2988
      RMK TCU VC ALQDS=
METAR PWAK 081056Z 07012KT 6SM BR FEW024 27/25 A2999 RMK AO2A=
METAR RJTY 081055Z AUTO 17007KT 9999 CLR 25/21 A2988 RMK AO2 SLP112
      T02460214 $=
METAR RKSO 081055Z 09007KT 9999 -DZ FEW010 BSCT040 24/24 A2977 RMK
      AO2A RAB1028E1044DZB1044 SLP081 P0000 T02410241 $=
####018001658####
SAEW KAWN 081100 RRC
METAR EDHL 081050Z 16007KT 120V200 CAVOK 28/13 Q1019 RMK N=
METAR EDLN 081050Z 21005KT 140V280 CAVOK 30/11 Q1019 RMK ATIS M=
METAR EDLP 081050Z VRB04KT CAVOK 29/11 Q1020 RMK RWY24 TRL60 JP ATIS
      R=
METAR EDLW 081050Z 20006KT 140V250 CAVOK 30/09 Q1020 RMK ATIS P=
METAR EDNY 081050Z 19006KT CAVOK 25/15 Q1022 RMK ATIS O=
METAR EDXW 081050Z 22012KT CAVOK 23/12 Q1019 RMK ATIS INFO U=
METAR EHAM 081055Z 29008KT 250V320 CAVOK 23/16 Q1019 NOSIG=
METAR EHBK 081055Z AUTO VRB04KT 9999NDV NCD 29/11 Q1019 NOSIG=
METAR EHDL 081055Z AUTO 19010KT 9999NDV FEW079 29/13 Q1019 BLU=
METAR EHGG 081055Z AUTO 27011KT 230V310 9999NDV NSC 26/13 Q1019 NOSIG=
METAR EHGR 081055Z AUTO 25005KT 9999NDV NCD 29/11 Q1019 BLU BLU=
METAR EHKD 081055Z AUTO 25008KT 9999NDV FEW068/// BKN077/// 21/16 Q1019
      BLU BLU=
METAR EHLW 081055Z AUTO 23009KT 9999NDV FEW009 OVC061 22/17 Q1019 BLU
      BLU=
METAR EHRD 081055Z 30005KT 240V030 CAVOK 24/16 Q1019 NOSIG=
METAR EHVK 081055Z AUTO 21007KT 9999NDV NCD 30/12 Q1019 BLU BLU=
METAR EHVL 081055Z AUTO 23010KT 9999NDV SCT060 OVC066 20/16 Q1019 BLU=
METAR EHWO 081055Z AUTO 30005KT 9999NDV FEW190 27/11 Q1019 BLU BLU=
METAR ETAD 081055Z AUTO 00000KT 9999 CLR 28/10 A3016 RMK AO2 SLP197
      T02760104 $=
METAR ETAR 081055Z AUTO 00000KT 9999 CLR 29/14 A3014 RMK AO2 SLP198
      T02880141 $=
METAR ETIC 081056Z AUTO VRB03KT 9999 CLR 25/09 A3021 RMK AO2 SLP220
      T02460085 $=
METAR ETIK 081055Z AUTO 07003KT 9999 CLR 26/10 A3019 RMK AO2 SLP211
      T02590102 $=
METAR ETOU 081055Z AUTO VRB03KT 9999 CLR 27/11 A3016 RMK AO2 SLP208
      T02750106=
####018000091####
SAAJ31 UBBB 081100
METAR UBBB 081100Z 35020KT CAVOK 33/23 Q1010 NOSIG RMK
R88CLRD70=
####018000085####
SPUS53 KWBC 081059
SPECI
KSTC 081056Z AUTO 00000KT 1 3/4SM BR CLR 13/12 A3009=
####018000089####
SAHW31 KMSC 081058
METAR PWAK 081056Z 07012KT 6SM BR FEW024 27/25 A2999 
RMK AO2A=
####018001907####
SAUS20 KNKA 081058
METAR KABQ 081056Z 05009KT 10SM SCT100 BKN200 20/09 A3026 RMK AO2
     SLP158 T02000094=
METAR KJAX 081056Z 25003KT 8SM CLR 20/19 A3000 RMK AO2 SLP158
     T02000189=
METAR K29G 081054Z AUTO 00000KT 4SM CLR 20/19 A3010 RMK AO2
     T01960185 PWINO=
METAR KAEL 081051Z AUTO 00000KT 5SM BR CLR 17/17 A3010 RMK AO2=
METAR KAPG 081054Z 00000KT 4SM BR SKC 26/24 A3002=
METAR KBIX 081055Z AUTO 00000KT 10SM CLR 25/25 A3003 RMK AO2 SLP169
      T02460246=
METAR KCAE 081056Z 00000KT 10SM CLR 24/19 A2998 RMK AO2 SLP149
     T02390189=
METAR KCHS 081056Z 27005KT 8SM CLR 24/19 A2997 RMK AO2 SLP147
     T02390194=
METAR KHRT 081055Z 00000KT 3SM BR CLR 23/23 A3002 RMK AO2A VIS 2 N
      SLP167 T02300230 $=
METAR KIKW 081053Z AUTO 00000KT 10SM -DZ SCT050 SCT065 OVC080
     23/21 A3002 RMK AO2 T02310211=
METAR KJVL 081045Z 00000KT 10SM OVC120 22/19 A3002=
METAR KLFI 081055Z 10006KT 10SM FEW011 SCT090 26/22 A2998 RMK AO2A
      SLP152 T02570223 $=
METAR KLUF 081055Z 00000KT 10SM CLR 26/06 A2976 RMK AO2A SLP047 T02570061
      $=
METAR KMDS 081045Z AUTO 29004KT 10SM CLR 14/14 A3017 RMK AO2=
METAR KMMT 081055Z 30003KT 10SM FEW100 21/19 A2998 RMK AO2A SLP152
      T02130190=
METAR KMRT 081053Z AUTO 00000KT 2 1/2SM CLR 20/19 A3012 RMK AO2
     T02040190=
METAR KMXF 081055Z AUTO 00000KT 7SM CLR 25/24 A3002 RMK AO2 SLP165
      T02460238=
METAR KRFD 081054Z 27005KT 6SM BR OVC006 22/21 A3004 RMK AO2
     SLP169 T02220211=
METAR KSHV 081056Z 13004KT 10SM SCT160 BKN280 24/23 A3003 RMK AO2
     SLP164 T02440233=
METAR KSWF 081045Z 00000KT 5SM HZ BKN100 25/22 A3007=
METAR KSYN 081110Z AUTO 00000KT 10SM CLR 17/16 A3009 RMK AO2
     T01700158=
METAR KTRI 081053Z 00000KT 4SM BR FEW030 20/18 A3011 RMK AO2
     SLP176 T02000183=
METAR KTYS 081053Z 00000KT 6SM HZ CLR 22/19 A3007 RMK AO2 SLP170
     T02220194=
####018000131####
SAUS44 KLIX 081058 COR
MTRBTR
METAR KBTR 081053Z 00000KT 6SM BR MIFG SCT003 BKN200 23/23 A3001 RMK 
AO2 SLP160 T02330228 $
####018000129####
SAUS44 KCRP 081059
MTRVCT
SPECI KVCT 081057Z AUTO VRB04KT 1 3/4SM +RA BR FEW001 BKN013 OVC022 
25/24 A2989 RMK AO2 P0002
####018000116####
SAUS41 KLWX 081059 COR
MTRNAK
METAR KNAK 081054Z AUTO 2SM HZ CLR 26/23 A3001 RMK AO2 SLP163 
T02560228 TSNO
####018000084####
SPUS72 KWBC 081059
SPECI
KAUS 081056Z 06005KT 10SM FEW007 BKN012 26/24 A2995=
####018000129####
SAGW20 GGOV 081100
METAR GGOV 081100Z 18007KT 130V230 9999 SCT014TCU FEW020CB BKN250    
               30/23 Q1013 NOSIG=
####018000124####
SAUS46 KSEW 081059 COR
MTRSMP
METAR KSMP 081056Z AUTO VRB03KT 10SM CLR 17/03 A3015 RMK AO2 SLP176 
T01670033 TSNO $
####018000121####
SAUS45 KFGZ 081059
MTRFLG
METAR KFLG 081056Z AUTO 00000KT 10SM FEW070 10/01 A3026 RMK AO2 
SLP141 T01000006 TSNO
####018000113####
SAUS45 KPSR 081059
MTRNYL
METAR KNYL 081055Z AUTO 16003KT 10SM CLR 27/04 A2971 RMK AO2 SLP056 
T02670039
####018000085####
SPUS73 KWBC 081059
SPECI
KSTC 081056Z AUTO 00000KT 1 3/4SM BR CLR 13/12 A3009=
####018000089####
SALI20 GLRB 081100
METAR GLRB 081100Z 15006KT 9999 BKN018 FEW026CB 29/24 Q1015 CB-S=
####018000484####
SAGR33 LGAT 081050
METAR LGHI 081050Z 02010KT 9999 FEW020 SCT080 27/19 Q1011=
METAR LGKC 081050Z 06011KT CAVOK 30/18 Q1013=
METAR LGKF 081050Z 33016KT 9999 FEW025 27/14 Q1014=
METAR LGKP 081050Z 33028KT CAVOK 29/16 Q1009=
METAR LGKZ 081050Z 31012KT 9999 FEW020 SCT070 21/07 Q1018=
METAR LGMK 081050Z 35021KT 9999 FEW012 24/17 Q1012=
METAR LGNX 081050Z 01017G27KT 9999 FEW020 26/19 Q1012=
METAR LGPA 081050Z NIL=
METAR LGSO 081050Z 36018KT 9999 FEW018 25/18 Q1012=
####018000087####
SAVN22 SVMI 081100
METAR SVMI 081100Z 00000KT 9999 FEW016 BKN090 25/24 Q1014 RETS=
####018000182####
SANL32 EHDB 081055
METAR EHEH 081055Z AUTO 25007KT 9999NDV BKN130 30/12 Q1019 
BLU BLU=
METAR EHKD 081055Z AUTO 25008KT 9999NDV FEW068/// BKN077/// 21/16
Q1019 
BLU BLU=
####018000089####
SAUK33 EGGY 081050 CCA
METAR COR EGPB 081050Z 20014KT 9999 FEW012 15/11 Q1007 NOSIG=
####018000472####
SAGR32 LGAT 081050
METAR LGAL 081050Z NIL=
METAR LGEL 081050Z 34013G23KT CAVOK 27/12 Q1011=
METAR LGKV 081050Z 16006KT 9999 FEW020CB SCT025TCU BKN100
      22/13 Q1013=
METAR LGMT 081050Z 36012KT 9999 FEW025 BKN120 26/19 Q1011=
METAR LGPZ 081050Z 25012KT 9999 FEW025 27/18 Q1013 NOSIG=
METAR LGRX 081050Z 27013KT 9999 FEW025 28/16 Q1012 NOSIG=
METAR LGSK 081050Z NIL=
METAR LGSR 081050Z 35017KT 9999 FEW020 27/19 Q1011 NOSIG=
METAR LGZA 081050Z NIL=
####018000078####
SAZB40 FLLS 081101
METAR FLLS 081100Z 05014KT 9999 BKN035 19/08 Q1027=

####018000085####
SPUS81 KWBC 081059
SPECI
KSTC 081056Z AUTO 00000KT 1 3/4SM BR CLR 13/12 A3009=
####018000079####
SARS18 KAWN 081100 RRA
METAR ESSA 081050Z 24011KT CAVOK 24/13 Q1017 NOSIG=
####018001246####
SAUK KAWN 081100 RRA
METAR COR EGCC 081050Z 24009KT 190V270 9999 SCT036 SCT048 19/10 Q1017
      NOSIG=
METAR EGDL 081050Z 23007KT 9999 FEW022 BKN250 19/11 Q1019 BLU NOSIG=
METAR EGKA 081050Z 21008KT 9999 FEW017 20/16 Q1019=
METAR EGKB 081050Z 30003KT 9999 BKN025 22/15 Q1019=
METAR COR EGLL 081050Z 25006KT 180V280 9999 BKN019 21/14 Q1019 NOSIG=
METAR EGMC 081050Z 30003KT 9999 FEW026 23/16 Q1018=
METAR EGMD 081050Z 21007KT 9999 FEW018 22/16 Q1019=
METAR EGMH 081050Z 23005KT 160V300 9999 FEW016 24/17 Q1019=
METAR EGNS 081050Z 20010KT 9999 FEW025 17/11 Q1016 NOSIG=
METAR EGOM 081050Z 24016KT 9999 FEW022 SCT050 16/10 Q1014 BLU=
METAR EGQK 081050Z 23021G32KT 9999 FEW025 SCT050 18/07 Q1009 BLU NOSIG=
METAR EGTC 081050Z 23006KT 9999 FEW020 19/12 Q1018=
METAR EGUL 081055Z AUTO 25008KT 9999 FEW032 21/13 A3005 RMK AO2 SLP179
      T02100127=
METAR EGUN 081055Z AUTO 24009KT 9999 FEW031 BKN120 BKN140 21/17 A3006
      RMK AO2 CIG 100 RWY11 SLP170 T02060167=
METAR EGUW 081050Z 24007KT 9999 FEW024 BKN130 BKN250 21/14 Q1018 BLU
      NOSIG=
METAR EGVA 081055Z AUTO 21007KT 9999 SCT032 SCT070 SCT190 21/12 A3007
      RMK AO2 SLP182 T02070116=
METAR EGWC 081050Z 21008KT 9999 BKN025 18/10 Q1018 BLU=
####018000072####
SABZ18 SBGR 081100
METAR SBGR 081100Z 10001KT 8000 NSC 12/10 Q1021=
####018000082####
SABZ24 SBPA 081100
METAR SBPA 081100Z 23004KT 9999 BKN020 OVC045 16/13 Q1019=
####018003712####
SAUS90 KWBC 081100
METAR KALK 081056Z AUTO 08011KT 10SM CLR 22/09 A3008 RMK AO2
     SLP082 T02220089=
METAR KP53 081056Z AUTO 00000KT 18/18 A2998 RMK AO2 SLP150
     T01830178 PWINO TSNO=
METAR K8D3 081056Z AUTO 26007KT 18/14 A3010 RMK AO2 SLP178
     T01830144 PWINO TSNO=
METAR KNUQ 081056Z AUTO 01005KT 10SM OVC011 15/12 A2992 RMK AO2
     SLP135 T01500117 TSNO=
METAR KCDJ 081056Z AUTO 00000KT 21/21 A3007 RMK AO2 SLP174
     T02110206 PWINO TSNO=
METAR KFSD 081056Z 00000KT 10SM CLR 15/14 A3016 RMK AO2 SLP210 BKN
     ABV 120 T01500139 $=
METAR KSPD 081056Z AUTO 36007KT 16/14 A3029 RMK AO2 SLP199 P0006
     T01560144 PWINO TSNO=
METAR KINS 081056Z 00000KT 10SM CLR 20/M10 A2993 RMK AO2 SLP080
     T02001100 $=
METAR KBIH 081056Z AUTO 34006KT 10SM CLR 14/03 A2999 RMK AO2
     SLP102 T01440028 TSNO=
METAR KD07 081056Z AUTO 23004KT 14/07 A3021 RMK AO2 SLP220
     T01440072 PWINO TSNO=
METAR KAKQ 081054Z AUTO 35003KT 2SM BR FEW015 24/22 A3000 RMK AO2
     SLP156 T02440222 TSNO=
METAR KNTU 081056Z 11007KT 10SM SCT005 SCT015 BKN035 BKN130 25/23
     A2996 RMK AO2 SLP149 T02500233 $=
METAR KFLG 081056Z AUTO 00000KT 10SM FEW070 10/01 A3026 RMK AO2
     SLP141 T01000006 TSNO=
METAR KFPK 081056Z AUTO 00000KT 5SM BR CLR 22/20 A3003 RMK AO2=
METAR KMOP 081054Z AUTO 22004KT 10SM OVC085 23/22 A3002 RMK
     AO2=
METAR KCAD 081055Z AUTO 22006KT 10SM -RA BKN075 OVC110 22/20 A3003
     RMK AO2=
METAR KMGN 081055Z AUTO 00000KT 7SM -RA SCT021 SCT028 OVC110 22/20
     A2997 RMK AO2=
METAR KHAI 081055Z AUTO 00000KT 3SM BR CLR 21/21 A3005 RMK AO2=
METAR KLWA 081056Z AUTO 00000KT 4SM BR SCT046 SCT055 22/21 A3004
     RMK AO2=
METAR KDRM 081056Z AUTO 16004KT 1 1/2SM -RA OVC002 20/20 A2995 RMK
     AO2=
METAR KVLL 081054Z AUTO 23003KT 10SM CLR 25/21 A3006 RMK AO2=
METAR KCFS 081055Z AUTO 24005KT 7SM SCT060 21/21 A3003 RMK AO2=
METAR KOZW 081055Z AUTO 25003KT 7SM CLR 23/21 A3005 RMK AO2=
METAR KRNP 081055Z AUTO 28003KT 7SM CLR 24/21 A3004 RMK AO2=
METAR KDUH 081055Z AUTO 00000KT 10SM CLR 23/18 A3005 RMK AO2=
METAR KJYM 081055Z AUTO 00000KT 4SM BR CLR 21/19 A3006 RMK AO2=
METAR KBAX 081055Z AUTO 00000KT 4SM BR CLR 22/21 A3001 RMK AO2=
METAR KIRS 081055Z AUTO 00000KT 3SM BR CLR 21/20 A3005 RMK AO2=
METAR KACB 081055Z AUTO 00000KT 7SM -RA OVC090 23/21 A2998 RMK
     AO2=
METAR KRQB 081054Z AUTO 21005KT 7SM DZ SCT025 SCT075 BKN100 22/21
     A3004 RMK AO2=
METAR KOEB 081055Z AUTO 00000KT 4SM BR CLR 21/19 A3006 RMK AO2=
METAR K4I3 081056Z AUTO 00000KT 4SM BR CLR 19/18 A3010 RMK AO2=
METAR KAUM 081055Z AUTO 32003KT 5SM BR CLR 17/16 A3009 RMK AO2=
METAR KFFX 081055Z AUTO 00000KT 3SM BR SCT055 BKN085 OVC090 22/22
     A3001 RMK AO2=
METAR KCNB 081058Z AUTO 24007KT 10SM CLR 17/13 A3014 RMK AO2
     T01650132=
METAR KCKN 081055Z AUTO 22003KT 10SM CLR 13/12 A3006 RMK AO2=
METAR KCFE 081055Z AUTO 26004KT 10SM CLR 17/16 A3011 RMK AO2
     T01710155=
METAR KCQM 081057Z AUTO 23003KT 10SM CLR 14/14 A3003 RMK AO2=
METAR KDTL 081055Z AUTO 29003KT 10SM CLR 15/11 A3010 RMK AO2=
METAR KBDH 081055Z AUTO 26003KT 5SM BR CLR 14/14 A3013 RMK AO2=
METAR KCBG 081055Z AUTO 00000KT 10SM CLR 16/14 A3008 RMK AO2=
METAR KADC 081057Z AUTO 25004KT 10SM CLR 13/12 A3009 RMK AO2=
METAR KHAF 081050Z AUTO 00000KT 10SM OVC006 12/10 A2993 RMK
     AO2=
METAR KCKC 081055Z AUTO 29004KT 10SM CLR 16/13 A3004 RMK AO2=
METAR KJYG 081055Z AUTO 00000KT 10SM CLR 16/16 A3014 RMK AO2=
METAR KCOQ 081056Z AUTO 27005KT 10SM CLR 14/14 A3006 RMK AO2=
METAR KACQ 081059Z AUTO 29005KT 1SM BR VV007 15/13 A3013 RMK
     AO2=
METAR KRGK 081054Z AUTO 00000KT 10SM CLR 18/17 A3007 RMK AO2=
####018000125####
SPUS90 KWBC 081100
SPECI KVCT 081057Z AUTO VRB04KT 1 3/4SM +RA BR FEW001 BKN013
     OVC022 25/24 A2989 RMK AO2 P0002=
####018002748####
SAUS90 KWBC 081100 RRA
METAR KFSE 081054Z AUTO 19004KT 10SM CLR 12/11 A3006 RMK AO2=
METAR KY70 081055Z AUTO 00000KT 1 1/4SM BR SCT002 SCT065 BKN110
     22/22 A3003 RMK AO2 T02240216=
METAR KUKT 081055Z AUTO 00000KT 5SM CLR 22/21 A3005 RMK AO1=
METAR KCVX 081055Z AUTO 22004KT 10SM RA OVC100 21/20 A2999 RMK
     AO2=
METAR KFKS 081055Z AUTO 26003KT 7SM -RA BKN065 OVC090 22/20 A3000
     RMK AO2=
METAR KSLH 081055Z AUTO 22004KT 10SM OVC110 22/21 A2996 RMK
     AO2=
METAR KSJX 081055Z AUTO 25008KT 3SM BR OVC002 20/18 A2998 RMK
     AO2=
METAR KLDM 081055Z AUTO 21005KT 7SM RA SCT029 SCT040 OVC090 22/21
     A3001 RMK AO2 P0003=
METAR KGOV 081055Z AUTO 20003KT 10SM OVC090 22/21 A3001 RMK
     AO2=
METAR KPZQ 081055Z AUTO 22005KT 10SM BKN120 23/21 A2998 RMK
     AO2=
METAR KHYX 081055Z AUTO 26008KT 7SM -RA SCT055 SCT120 23/21 A3002
     RMK AO2=
METAR KPHN 081055Z AUTO 00000KT 1 3/4SM BR VV007 20/20 A3003 RMK
     AO2=
METAR KONZ 081057Z AUTO 00000KT 10SM CLR 24/21 A3003 RMK AO2=
METAR KISQ 081055Z AUTO 30005KT 10SM -RA SCT004 19/18 A2998 RMK
     AO2=
METAR KRMY 081055Z AUTO 00000KT 5SM BR CLR 21/19 A3005 RMK AO2=
METAR KOSC 081054Z AUTO 00000KT 5SM BR CLR 22/21 A3000 RMK AO2=
METAR KTTF 081053Z AUTO 00000KT 7SM CLR 23/21 A3003 RMK AO2=
METAR KAMN 081055Z AUTO 00000KT 5SM BR OVC090 22/22 A3002 RMK
     AO2=
METAR KMCD 081055Z AUTO 26004KT 7SM SCT013 BKN110 21/18 A2998 RMK
     AO2=
METAR KERY 081055Z AUTO 27003KT 1 1/2SM RA OVC003 20/19 A2998 RMK
     AO2=
METAR KDVP 081056Z AUTO 27004KT 10SM CLR 15/13 A3017 RMK AO2
     T01450126=
METAR KCDD 081051Z AUTO 19003KT 10SM CLR 17/16 A3002 RMK AO2=
METAR KFOZ 081053Z AUTO 00000KT 3/4SM BR VV005 12/11 A3005 RMK AO2
     VIS 1/4V5=
METAR KAQP 081054Z AUTO 22004KT 10SM CLR 13/13 A3012 RMK AO2=
METAR KETH 081054Z AUTO 25006KT 10SM CLR 17/14 A3011 RMK AO2=
METAR KXVG 081056Z AUTO 24003KT 10SM CLR 16/14 A3005 RMK AO2=
METAR KORB 081054Z AUTO 00000KT 10SM CLR 14/13 A3000 RMK AO2=
METAR KMZH 081051Z AUTO 00000KT 10SM CLR 13/13 A3005 RMK AO2=
METAR KBFW 081053Z AUTO 00000KT 10SM CLR 14/13 A3001 RMK AO2=
METAR KVWU 081051Z AUTO 26008KT 10SM CLR 18/14 A3003 RMK AO2=
METAR KOWA 081054Z AUTO 31003KT 7SM CLR 16/16 A3009 RMK AO2
     P0001=
METAR KCDA 081055Z AUTO 00000KT 4SM HZ CLR 21/18 A3010 RMK AO2=
METAR KFKA 081103Z AUTO 32007KT 7SM CLR 18/18 A3009 RMK AO2
     T01810175=
METAR K3A6 081110Z AUTO 36003KT 11/10 A2988 RMK AO1 SLP138
     T01120101 10130 20110 58009=
METAR KNRS 081056Z AUTO 31005KT 10SM FEW007 OVC016 17/14 A2990 RMK
     AO2 SLP123 T01670144 TSNO $=
METAR KEUF 081058Z AUTO 00000KT 10SM FEW070 22/19 A3002 RMK AO2
     SLP162 T02170194 PNO $=
####018000055####
SAUS90 KWBC 081000 RRF
METAR K8S0 080955Z 26007KT=
####018000853####
SAUS90 KWBC 081100 CCA
METAR KDAB 081053Z 33003KT 10SM FEW026 SCT150 21/20 A3000 RMK AO2
     SLP158 T02110200 $=
METAR KTUP 081053Z 00000KT 10SM CLR 24/22 A3007 RMK AO2 SLP178
     T02390217=
METAR KMGM 081053Z 00000KT 8SM CLR 24/23 A3003 RMK AO2 SLP163
     T02390228=
METAR KLOR 081053Z AUTO 00000KT 6SM BR SCT070 21/19 A3002 RMK AO2
     SLP163 T02060189 TSNO $=
METAR KPOE 081055Z AUTO 07005KT 10SM FEW015 24/23 A3001 RMK AO2
     SLP164 T02390228=
METAR KNAK 081054Z AUTO 2SM HZ CLR 26/23 A3001 RMK AO2 SLP163
     T02560228 TSNO=
METAR KBTR 081053Z 00000KT 6SM BR MIFG SCT003 BKN200 23/23 A3001
     RMK AO2 SLP160 T02330228 $=
METAR KSMP 081056Z AUTO VRB03KT 10SM CLR 17/03 A3015 RMK AO2
     SLP176 T01670033 TSNO $=
METAR KMCN 081053Z AUTO 00000KT 10SM CLR 20/19 A3002 RMK AO2
     SLP162 T02000194 TSNO=
####018000119####
SAUS46 KLOX 081059
MTR3A6
METAR K3A6 081110Z AUTO 36003KT 11/10 A2988 RMK AO1 SLP138 T01120101 10130 20110 58009
####018000110####
SAUS46 KPQR 081059
MTRNUW
METAR KNUW 081056Z 00000KT 10SM CLR 13/11 A2997 RMK AO2 SLP152 
T01330106 $
####018000130####
SAUS46 KSGX 081059
MTRNRS
METAR KNRS 081056Z AUTO 31005KT 10SM FEW007 OVC016 17/14 A2990 RMK 
AO2 SLP123 T01670144 TSNO $
####018000095####
SABE31 TXKF 081050
METAR TXKF 081055Z 15012KT 9999 FEW013 SCT180 BKN300 26/23
Q1019
/=
####018000077####
SARE03 FMEE 081100
METAR
FMEP 081100Z 12027KT 9999 FEW013 24/16 Q1020=
####018001394####
SAUS20 KNKA 081059
METAR KRPD 081054Z AUTO 00000KT 10SM CLR 18/17 A3008 RMK AO2 
     T01760165=
METAR KRRL 081055Z AUTO 00000KT 1/2SM FG OVC002 18/17 A3004 RMK 
     AO2 T01750171=
METAR KRYV 081055Z AUTO 00000KT 5SM BR SCT005 22/20 A3002 RMK AO2=
METAR KSCF 081100Z AUTO 14020KT 9SM FEW015 28/25 A2990 RMK A01=
METAR KSPF 081055Z AUTO 00000KT 10SM CLR 11/08 A3029 RMK AO2 =
METAR KSTE 081055Z AUTO 00000KT 10SM OVC005 20/19 A3002 RMK AO2=
METAR KSUW 081055Z AUTO 21004KT 10SM CLR 15/14 A3003 RMK AO2=
METAR KTKV 081055Z AUTO 00000KT 1/2SM FG OVC001 18/17 A3004 RMK 
     AO2 T01780171=
METAR KTTS 081055Z 35002KT 10SM PRFG FEW030 FEW280 19/19 A2999 RMK
      SLP156 1SC /0/ 1CI /0/=
METAR KUES 081055Z AUTO 24004KT 7SM SCT010 BKN015 OVC026 21/19 
     A3003 RMK AO2 T02080192=
METAR KUNU 081052Z AUTO 00000KT 2 1/2SM BR SCT003 BKN023 21/19 
     A3003 RMK AO2 T02050193=
METAR KVAD 081055Z AUTO 00000KT 8SM CLR 21/20 A3002 RMK AO2 SLP166
      T02150198 $=
METAR KVBS 081055Z AUTO 12021G26KT 10SM SCT020 BKN027 BKN031 29/25
     A2992 RMK A01=
METAR KVNP 081055Z AUTO 12008G14KT 090V160 8SM 28/25 A2996 RMK A01=
METAR KY50 081056Z AUTO 28003KT 7SM FEW007 21/21 A3002 RMK AO2 
    T02050205 SLP157 $=
METAR PGUA 081055Z AUTO 09016G22KT 10SM BKN019 BKN025 27/ A2991 RMK
      AO2 RAB1032E1041 CIG 017V024 SLP109 P0000 T0271 VISNO RWY24L $=
####018002932####
SAUS20 KNKA 081059
METAR K4M9 081055Z AUTO 21004KT 6SM BR CLR 24/24 A3006 RMK AO2 =
METAR KAEJ 081055Z AUTO 00000KT 10SM SCT100 08/07 A3046 RMK AO2=
SPECI KAUS 081056Z COR 06005KT 10SM FEW007 SCT012 26/24 A2995 RMK 
    AO2=
METAR KBBF 081155Z AUTO 13019G26KT 10SM FEW043 FEW050 SCT060 29/26
     A2980 RMK A01=
METAR KBQX 081055Z AUTO 10011G22KT 2SM BR FEW004 SCT038 BKN065
     26/25 A2984 RMK A01=
METAR KDLP 081055Z AUTO 09011KT 9SM FEW016 28/25 A2999 RMK A01=
METAR KEDU 081055Z AUTO 19004KT 10SM CLR 14/10 A2982 RMK AO1=
METAR KEHC 081055Z AUTO 12025KT 7SM FEW019 FEW026 FEW035 29/25
     A2992 RMK A01=
METAR KEIR 081055Z AUTO VRB05G13KT 9SM FEW014 28/25 A2996 RMK A01=
METAR KEMK 081055Z AUTO 14021G26KT 9SM SCT055 BKN065 28/25 A2987
     RMK A01=
METAR KGBK 081055Z AUTO 09012G17KT 10SM CLR 29/25 A2991 RMK A01=
METAR KGTB 081055Z AUTO 18003KT 10SM CLR 24/21 A3004 RMK AO2 SLP171
      T02390206=
METAR KGVX 081055Z AUTO 12023KT 10SM FEW020 SCT070 BKN080 M40/
     A2989 RMK A01=
METAR KGYH 081055Z AUTO 10SM CLR 22/20 A3004 RMK AO2=
METAR KHQI 081055Z AUTO 11023KT 8SM FEW055 SCT110 29/26 A2989 RMK
     A01=
SPECI KHWV 081058Z AUTO 13003KT 5SM BR FEW006 SCT013 BKN021 24/23 
    A3006 RMK AO2=
METAR KHXD 081055Z AUTO 22005KT 8SM CLR 24/21 A2999 RMK AO2 P0000 
     =
METAR KHYW 081055Z AUTO 00000KT 7SM CLR 24/22 A2994 RMK AO2=
METAR KIPN 081055Z AUTO 09014KT 10SM FEW023 /55 A2999 RMK A01=
SPECI KIXD 081058Z 00000KT 2 1/2SM BR SCT002 21/20 A3005 RMK AO2=
METAR KJZI 081055Z AUTO 28007KT 10SM CLR 24/23 A2996 RMK A02 P000 
     =
METAR KMCJ 081055Z AUTO 05009KT 5SM SCT025 BKN033 25/24 A2989 RMK 
     AO1 =
METAR KMDJ 081055Z AUTO 12011KT 10SM SCT019 SCT027 SCT070 28/24
     A3000 RMK A01=
METAR KMEI 081058Z 00000KT 9SM CLR 23/22 A3005 RMK AO2 SLP172 P0002 
    T02280217=
METAR KMHR 081055Z AUTO 16005KT 10SM CLR 13/10 A2985 RMK AO1=
METAR KMIU 081055Z AUTO 12019KT 10SM FEW019 BKN032 OVC055 28/25
     A2981 RMK A01=
METAR KMYT 081055Z AUTO 11013KT 9SM FEW018 28/24 A2997 RMK A01=
METAR KMZG 081055Z AUTO 00000KT 9SM FEW020 SCT041 BKN095 28/25
     A2981 RMK A01=
METAR KNQX 081053Z 06004KT 10SM SCT022 SCT080 BKN200 28/25 A2993 RMK
      AO2 SLP135 T2 SET T02830250 $=
METAR KNRB 081052Z 00000KT 10SM CLR 24/21 A3000 RMK AO2 SLP158 T02390211=
METAR KNSE 081056Z AUTO 00000KT 1/2SM FG VV004 22/21 A3003 RMK AO2
      SLP152 T02220206 $=
METAR KPAM 081055Z 35005KT 10SM CLR 24/24 A3001 RMK AO2A SLP163 T02350235=
METAR KPBH 081055Z AUTO 00000KT 10SM CLR 18/17 A3006 RMK AO2=
METAR KPCZ 081055Z AUTO 25003KT 4SM BR SCT010 BKN016 22/21 A3000 
     RMK AO2 T02220210=
METAR KPDC 081053Z AUTO 29004KT 7SM CLR 22/21 A3004 RMK AO2 
     T02170205=
METAR KRCX 081055Z AUTO 32005KT 10SM CLR 18/16 A3007 RMK AO2 
     T01750162=
METAR KRNH 081056Z AUTO 30003KT 10SM CLR 17/16 A3009 RMK AO2 
     T01650160=
####018000410####
SAAK41 KNKA 081059
METAR PAFS 081056Z AUTO 07005KT 10SM CLR 14/06 A2999 RMK AO2 TSNO 
    T01380061 SLP162 $=
METAR PAMB 081056Z AUTO 03007KT 10SM SCT027 BKN060 11/08 A2993 RMK 
    AO2 PWINO TSNO T01050077 SLP139 $=
METAR PAVA 081057Z AUTO 36010KT 10SM CLR 10/09 A3008 RMK AO2 SLP188 
    T01000089=
METAR PPIZ 081056Z AUTO 21010KT 10SM CLR 06/02 A3009 RMK AO2 TSNO 
    T00610016 SLP192 $=
####018001791####
SAEU KAWN 081100 RRI
METAR EDHL 081050Z 16007KT 120V200 CAVOK 28/13 Q1019 RMK N=
METAR EDLW 081050Z 20006KT 140V250 CAVOK 30/09 Q1020 RMK ATIS P=
METAR EDNY 081050Z 19006KT CAVOK 25/15 Q1022 RMK ATIS O=
METAR EGBJ 081050Z 25006KT 190V290 9999 FEW035 21/10 Q1018=
METAR EGPA 081050Z 21012KT 9999 -SHRA FEW020 SCT045 16/10 Q1007=
METAR COR EGPB 081050Z 20014KT 9999 FEW012 15/11 Q1007 NOSIG=
METAR EGPC 081050Z 20016KT 9999 FEW020 16/11 Q1008=
METAR EGPL 081050Z 22021KT 9999 VCSH FEW018 15/12 Q1007=
METAR COR EGPM 081050Z 22024KT 9999 SCT030 16/10 Q1005 NOSIG=
METAR EGPO 081050Z 20023G35KT 9999 VCSH FEW014CB SCT030 15/11 Q1006=
METAR EGPU 081050Z 22018KT 9999 VCSH SCT020 16/13 Q1010=
METAR EGSC 081050Z 22005KT 150V270 9999 FEW020 SCT030 20/15 Q1018=
METAR COR EGSH 081050Z 24008KT 9999 SCT012 SCT019 22/15 Q1018 NOSIG=
METAR EHKD 081055Z AUTO 25008KT 9999NDV FEW068/// BKN077/// 21/16 Q1019
      BLU BLU=
METAR ETOR 081055Z 15005KT 9999 FEW200 32/08 A3014 RMK BLU=
METAR LEMO 081100Z VRB03KT CAVOK 29/19 Q1016 NOSIG=
METAR LGBL 081050Z 09008KT 9999 FEW030 BKN080 26/11 Q1014 NOSIG BLU=
METAR LGHI 081050Z 02010KT 9999 FEW020 SCT080 27/19 Q1011=
METAR LGKC 081050Z 06011KT CAVOK 30/18 Q1013=
METAR LGKF 081050Z 33016KT 9999 FEW025 27/14 Q1014=
METAR LGKP 081050Z 33028KT CAVOK 29/16 Q1009=
METAR LGKZ 081050Z 31012KT 9999 FEW020 SCT070 21/07 Q1018=
METAR LGLR 081050Z 30005KT 9999 FEW030 SCT080 28/09 Q1015 NOSIG BLU=
METAR LGMK 081050Z 35021KT 9999 FEW012 24/17 Q1012=
METAR LGMT 081050Z 36012KT 9999 FEW025 BKN120 26/19 Q1011=
METAR LGRX 081050Z 27013KT 9999 FEW025 28/16 Q1012 NOSIG BLU=
METAR LGSO 081050Z 36018KT 9999 FEW018 25/18 Q1012=
METAR LGSY 081050Z 01010KT 9999 FEW014 SCT020 BKN080 22/15 Q1013 NOSIG
      BLU=
####018000122####
SAUS42 KFFC 081059 COR
MTRMCN
METAR KMCN 081053Z AUTO 00000KT 10SM CLR 20/19 A3002 RMK AO2 SLP162 
T02000194 TSNO
####018000122####
SAUS44 KBMX 081059
MTREUF
METAR KEUF 081058Z AUTO 00000KT 10SM FEW070 22/19 A3002 RMK AO2 
SLP162 T02170194 PNO $
####018003712####
SAUS99 KWBC 081100 RRA
METAR
KCKC 081055Z AUTO 29004KT 10SM CLR 16/13 A3004 RMK AO2=
KJYG 081055Z AUTO 00000KT 10SM CLR 16/16 A3014 RMK AO2=
KCOQ 081056Z AUTO 27005KT 10SM CLR 14/14 A3006 RMK AO2=
KACQ 081059Z AUTO 29005KT 1SM BR VV007 15/13 A3013 RMK AO2=
KRGK 081054Z AUTO 00000KT 10SM CLR 18/17 A3007 RMK AO2=
KFSE 081054Z AUTO 19004KT 10SM CLR 12/11 A3006 RMK AO2=
KY70 081055Z AUTO 00000KT 1 1/4SM BR SCT002 SCT065 BKN110 22/22
     A3003 RMK AO2 T02240216=
KUKT 081055Z AUTO 00000KT 5SM CLR 22/21 A3005 RMK AO1=
KCVX 081055Z AUTO 22004KT 10SM RA OVC100 21/20 A2999 RMK AO2=
KFKS 081055Z AUTO 26003KT 7SM -RA BKN065 OVC090 22/20 A3000 RMK
     AO2=
KSLH 081055Z AUTO 22004KT 10SM OVC110 22/21 A2996 RMK AO2=
KSJX 081055Z AUTO 25008KT 3SM BR OVC002 20/18 A2998 RMK AO2=
KLDM 081055Z AUTO 21005KT 7SM RA SCT029 SCT040 OVC090 22/21 A3001
     RMK AO2 P0003=
KGOV 081055Z AUTO 20003KT 10SM OVC090 22/21 A3001 RMK AO2=
KPZQ 081055Z AUTO 22005KT 10SM BKN120 23/21 A2998 RMK AO2=
KHYX 081055Z AUTO 26008KT 7SM -RA SCT055 SCT120 23/21 A3002 RMK
     AO2=
KPHN 081055Z AUTO 00000KT 1 3/4SM BR VV007 20/20 A3003 RMK AO2=
KONZ 081057Z AUTO 00000KT 10SM CLR 24/21 A3003 RMK AO2=
KISQ 081055Z AUTO 30005KT 10SM -RA SCT004 19/18 A2998 RMK AO2=
KRMY 081055Z AUTO 00000KT 5SM BR CLR 21/19 A3005 RMK AO2=
KOSC 081054Z AUTO 00000KT 5SM BR CLR 22/21 A3000 RMK AO2=
KTTF 081053Z AUTO 00000KT 7SM CLR 23/21 A3003 RMK AO2=
KAMN 081055Z AUTO 00000KT 5SM BR OVC090 22/22 A3002 RMK AO2=
KMCD 081055Z AUTO 26004KT 7SM SCT013 BKN110 21/18 A2998 RMK
     AO2=
KERY 081055Z AUTO 27003KT 1 1/2SM RA OVC003 20/19 A2998 RMK
     AO2=
KDVP 081056Z AUTO 27004KT 10SM CLR 15/13 A3017 RMK AO2
     T01450126=
KCDD 081051Z AUTO 19003KT 10SM CLR 17/16 A3002 RMK AO2=
KFOZ 081053Z AUTO 00000KT 3/4SM BR VV005 12/11 A3005 RMK AO2 VIS
     1/4V5=
KAQP 081054Z AUTO 22004KT 10SM CLR 13/13 A3012 RMK AO2=
KETH 081054Z AUTO 25006KT 10SM CLR 17/14 A3011 RMK AO2=
KXVG 081056Z AUTO 24003KT 10SM CLR 16/14 A3005 RMK AO2=
KORB 081054Z AUTO 00000KT 10SM CLR 14/13 A3000 RMK AO2=
KMZH 081051Z AUTO 00000KT 10SM CLR 13/13 A3005 RMK AO2=
KBFW 081053Z AUTO 00000KT 10SM CLR 14/13 A3001 RMK AO2=
KVWU 081051Z AUTO 26008KT 10SM CLR 18/14 A3003 RMK AO2=
KOWA 081054Z AUTO 31003KT 7SM CLR 16/16 A3009 RMK AO2 P0001=
KCDA 081055Z AUTO 00000KT 4SM HZ CLR 21/18 A3010 RMK AO2=
KFKA 081103Z AUTO 32007KT 7SM CLR 18/18 A3009 RMK AO2
     T01810175=
K4M9 081055Z AUTO 21004KT 6SM BR CLR 24/24 A3006 RMK AO2=
KAEJ 081055Z AUTO 00000KT 10SM SCT100 08/07 A3046 RMK AO2=
KBBF 081155Z AUTO 13019G26KT 10SM FEW043 FEW050 SCT060 29/26 A2980
     RMK A01=
KBQX 081055Z AUTO 10011G22KT 2SM BR FEW004 SCT038 BKN065 26/25
     A2984 RMK A01=
KDLP 081055Z AUTO 09011KT 9SM FEW016 28/25 A2999 RMK A01=
KEDU 081055Z AUTO 19004KT 10SM CLR 14/10 A2982 RMK AO1=
KEHC 081055Z AUTO 12025KT 7SM FEW019 FEW026 FEW035 29/25 A2992 RMK
     A01=
KEIR 081055Z AUTO VRB05G13KT 9SM FEW014 28/25 A2996 RMK A01=
KEMK 081055Z AUTO 14021G26KT 9SM SCT055 BKN065 28/25 A2987 RMK
     A01=
KGBK 081055Z AUTO 09012G17KT 10SM CLR 29/25 A2991 RMK A01=
KGTB 081055Z AUTO 18003KT 10SM CLR 24/21 A3004 RMK AO2 SLP171
     T02390206=
KGVX 081055Z AUTO 12023KT 10SM FEW020 SCT070 BKN080 M40/ A2989 RMK
     A01=
KGYH 081055Z AUTO 10SM CLR 22/20 A3004 RMK AO2=
KHQI 081055Z AUTO 11023KT 8SM FEW055 SCT110 29/26 A2989 RMK
     A01=
KHXD 081055Z AUTO 22005KT 8SM CLR 24/21 A2999 RMK AO2 P0000=
KHYW 081055Z AUTO 00000KT 7SM CLR 24/22 A2994 RMK AO2=
KIPN 081055Z AUTO 09014KT 10SM FEW023 /55 A2999 RMK A01=
KJZI 081055Z AUTO 28007KT 10SM CLR 24/23 A2996 RMK A02 P000=
####018000502####
SAUK36 EGGY 081050
METAR EGBE 081050Z NIL=
METAR EGBJ 081050Z 25006KT 190V290 9999 FEW035 21/10 Q1018=
METAR EGCN 081050Z 24012KT 200V280 9999 SCT033 20/10 Q1018=
METAR EGDL 081050Z 23007KT 9999 FEW022 BKN250 19/11 Q1019 NOSIG=
METAR EGSC 081050Z 22005KT 150V270 9999 FEW020 SCT030 20/15 Q1018=
METAR COR EGSD 081050Z 24011KT 9999 -DZ BKN012 20/17 Q1019 BECMG
     SCT020=
METAR COR EGSH 081050Z 24008KT 9999 SCT012 SCT019 22/15 Q1018 NOSIG=
METAR EGVN 081050Z NIL=
METAR EGWU 081050Z NIL=
####018003711####
SAUS99 KWBC 081100
METAR
KABQ 081056Z 05009KT 10SM SCT100 BKN200 20/09 A3026 RMK AO2 SLP158
     T02000094=
KJAX 081056Z 25003KT 8SM CLR 20/19 A3000 RMK AO2 SLP158
     T02000189=
K29G 081054Z AUTO 00000KT 4SM CLR 20/19 A3010 RMK AO2 T01960185
     PWINO=
KAEL 081051Z AUTO 00000KT 5SM BR CLR 17/17 A3010 RMK AO2=
KAPG 081054Z 00000KT 4SM BR SKC 26/24 A3002=
KBIX 081055Z AUTO 00000KT 10SM CLR 25/25 A3003 RMK AO2 SLP169
     T02460246=
KCAE 081056Z 00000KT 10SM CLR 24/19 A2998 RMK AO2 SLP149
     T02390189=
KCHS 081056Z 27005KT 8SM CLR 24/19 A2997 RMK AO2 SLP147
     T02390194=
KHRT 081055Z 00000KT 3SM BR CLR 23/23 A3002 RMK AO2A VIS 2 N
     SLP167 T02300230 $=
KIKW 081053Z AUTO 00000KT 10SM -DZ SCT050 SCT065 OVC080 23/21
     A3002 RMK AO2 T02310211=
KJVL 081045Z 00000KT 10SM OVC120 22/19 A3002=
KLFI 081055Z 10006KT 10SM FEW011 SCT090 26/22 A2998 RMK AO2A
     SLP152 T02570223 $=
KLUF 081055Z 00000KT 10SM CLR 26/06 A2976 RMK AO2A SLP047
     T02570061 $=
KMDS 081045Z AUTO 29004KT 10SM CLR 14/14 A3017 RMK AO2=
KMMT 081055Z 30003KT 10SM FEW100 21/19 A2998 RMK AO2A SLP152
     T02130190=
KMRT 081053Z AUTO 00000KT 2 1/2SM CLR 20/19 A3012 RMK AO2
     T02040190=
KMXF 081055Z AUTO 00000KT 7SM CLR 25/24 A3002 RMK AO2 SLP165
     T02460238=
KRFD 081054Z 27005KT 6SM BR OVC006 22/21 A3004 RMK AO2 SLP169
     T02220211=
KSHV 081056Z 13004KT 10SM SCT160 BKN280 24/23 A3003 RMK AO2 SLP164
     T02440233=
KSWF 081045Z 00000KT 5SM HZ BKN100 25/22 A3007=
KSYN 081110Z AUTO 00000KT 10SM CLR 17/16 A3009 RMK AO2
     T01700158=
KTRI 081053Z 00000KT 4SM BR FEW030 20/18 A3011 RMK AO2 SLP176
     T02000183=
KTYS 081053Z 00000KT 6SM HZ CLR 22/19 A3007 RMK AO2 SLP170
     T02220194=
KFPK 081056Z AUTO 00000KT 5SM BR CLR 22/20 A3003 RMK AO2=
KMOP 081054Z AUTO 22004KT 10SM OVC085 23/22 A3002 RMK AO2=
KCAD 081055Z AUTO 22006KT 10SM -RA BKN075 OVC110 22/20 A3003 RMK
     AO2=
KMGN 081055Z AUTO 00000KT 7SM -RA SCT021 SCT028 OVC110 22/20 A2997
     RMK AO2=
KHAI 081055Z AUTO 00000KT 3SM BR CLR 21/21 A3005 RMK AO2=
KLWA 081056Z AUTO 00000KT 4SM BR SCT046 SCT055 22/21 A3004 RMK
     AO2=
KDRM 081056Z AUTO 16004KT 1 1/2SM -RA OVC002 20/20 A2995 RMK
     AO2=
KVLL 081054Z AUTO 23003KT 10SM CLR 25/21 A3006 RMK AO2=
KCFS 081055Z AUTO 24005KT 7SM SCT060 21/21 A3003 RMK AO2=
KOZW 081055Z AUTO 25003KT 7SM CLR 23/21 A3005 RMK AO2=
KRNP 081055Z AUTO 28003KT 7SM CLR 24/21 A3004 RMK AO2=
KDUH 081055Z AUTO 00000KT 10SM CLR 23/18 A3005 RMK AO2=
KJYM 081055Z AUTO 00000KT 4SM BR CLR 21/19 A3006 RMK AO2=
KBAX 081055Z AUTO 00000KT 4SM BR CLR 22/21 A3001 RMK AO2=
KIRS 081055Z AUTO 00000KT 3SM BR CLR 21/20 A3005 RMK AO2=
KACB 081055Z AUTO 00000KT 7SM -RA OVC090 23/21 A2998 RMK AO2=
KRQB 081054Z AUTO 21005KT 7SM DZ SCT025 SCT075 BKN100 22/21 A3004
     RMK AO2=
KOEB 081055Z AUTO 00000KT 4SM BR CLR 21/19 A3006 RMK AO2=
K4I3 081056Z AUTO 00000KT 4SM BR CLR 19/18 A3010 RMK AO2=
KAUM 081055Z AUTO 32003KT 5SM BR CLR 17/16 A3009 RMK AO2=
KFFX 081055Z AUTO 00000KT 3SM BR SCT055 BKN085 OVC090 22/22 A3001
     RMK AO2=
KCNB 081058Z AUTO 24007KT 10SM CLR 17/13 A3014 RMK AO2
     T01650132=
KCKN 081055Z AUTO 22003KT 10SM CLR 13/12 A3006 RMK AO2=
KCFE 081055Z AUTO 26004KT 10SM CLR 17/16 A3011 RMK AO2
     T01710155=
KCQM 081057Z AUTO 23003KT 10SM CLR 14/14 A3003 RMK AO2=
KDTL 081055Z AUTO 29003KT 10SM CLR 15/11 A3010 RMK AO2=
KBDH 081055Z AUTO 26003KT 5SM BR CLR 14/14 A3013 RMK AO2=
KCBG 081055Z AUTO 00000KT 10SM CLR 16/14 A3008 RMK AO2=
KADC 081057Z AUTO 25004KT 10SM CLR 13/12 A3009 RMK AO2=
KHAF 081050Z AUTO 00000KT 10SM OVC006 12/10 A2993 RMK AO2=
####018000419####
SAUK38 EGGY 081050
METAR EGEC 081050Z NIL=
METAR EGPA 081050Z 21012KT 9999 -SHRA FEW020 SCT045 16/10 Q1007=
METAR EGPC 081050Z 20016KT 9999 FEW020 16/11 Q1008=
METAR EGPL 081050Z 22021KT 9999 VCSH FEW018 15/12 Q1007=
METAR COR EGPM 081050Z 22024KT 9999 SCT030 16/10 Q1005 NOSIG=
METAR EGPO 081050Z 20023G35KT 9999 VCSH FEW014CB SCT030 15/11
    Q1006=
METAR EGPU 081050Z 22018KT 9999 VCSH SCT020 16/13 Q1010=
####018000068####
SABZ23 SBRJ 081100
METAR SBRJ 081100Z 01005KT CAVOK 21/16 Q1018=
####018000089####
SAAJ31 UBBB 081100
METAR UBBB 081100Z 35020KT CAVOK 33/23 Q1010 NOSIG RMK
R88CLRD70=
####018000466####
SAUK37 EGGY 081050
METAR EGAE 081050Z 21013KT 9999 FEW018 SCT040 17/11 Q1013=
METAR EGNC 081050Z 23016KT 200V270 9999 FEW020 SCT025 18/10 Q1015=
METAR EGNH 081050Z 23011KT 9999 SCT024 19/11 Q1017=
METAR EGNJ 081050Z 22012KT 9999 SCT035 20/11 Q1017=
METAR EGNR 081050Z 26010KT 230V300 9999 SCT030 20/10 Q1017=
METAR EGPE 081050Z 23017KT 9999 VCSH FEW012 SCT036 15/10 Q1009=
METAR EGPI 081050Z NIL=
METAR EGPN 081050Z 23015KT 9999 FEW028 SCT045 17/11 Q1012=
####018000249####
SPUS99 KWBC 081100
SPECI
KAUS 081056Z COR 06005KT 10SM FEW007 SCT012 26/24 A2995 RMK
     AO2=
KHWV 081058Z AUTO 13003KT 5SM BR FEW006 SCT013 BKN021 24/23 A3006
     RMK AO2=
KIXD 081058Z 00000KT 2 1/2SM BR SCT002 21/20 A3005 RMK AO2=
####018002909####
SAUS99 KWBC 081100 RRB
METAR
KMCJ 081055Z AUTO 05009KT 5SM SCT025 BKN033 25/24 A2989 RMK
     AO1=
KMDJ 081055Z AUTO 12011KT 10SM SCT019 SCT027 SCT070 28/24 A3000
     RMK A01=
KMEI 081058Z 00000KT 9SM CLR 23/22 A3005 RMK AO2 SLP172 P0002
     T02280217=
KMHR 081055Z AUTO 16005KT 10SM CLR 13/10 A2985 RMK AO1=
KMIU 081055Z AUTO 12019KT 10SM FEW019 BKN032 OVC055 28/25 A2981
     RMK A01=
KMYT 081055Z AUTO 11013KT 9SM FEW018 28/24 A2997 RMK A01=
KMZG 081055Z AUTO 00000KT 9SM FEW020 SCT041 BKN095 28/25 A2981 RMK
     A01=
KNQX 081053Z 06004KT 10SM SCT022 SCT080 BKN200 28/25 A2993 RMK AO2
     SLP135 T2 SET T02830250 $=
KNRB 081052Z 00000KT 10SM CLR 24/21 A3000 RMK AO2 SLP158
     T02390211=
KNSE 081056Z AUTO 00000KT 1/2SM FG VV004 22/21 A3003 RMK AO2
     SLP152 T02220206 $=
KPAM 081055Z 35005KT 10SM CLR 24/24 A3001 RMK AO2A SLP163
     T02350235=
KPBH 081055Z AUTO 00000KT 10SM CLR 18/17 A3006 RMK AO2=
KPCZ 081055Z AUTO 25003KT 4SM BR SCT010 BKN016 22/21 A3000 RMK AO2
     T02220210=
KPDC 081053Z AUTO 29004KT 7SM CLR 22/21 A3004 RMK AO2
     T02170205=
KRCX 081055Z AUTO 32005KT 10SM CLR 18/16 A3007 RMK AO2
     T01750162=
KRNH 081056Z AUTO 30003KT 10SM CLR 17/16 A3009 RMK AO2
     T01650160=
KRPD 081054Z AUTO 00000KT 10SM CLR 18/17 A3008 RMK AO2
     T01760165=
KRRL 081055Z AUTO 00000KT 1/2SM FG OVC002 18/17 A3004 RMK AO2
     T01750171=
KRYV 081055Z AUTO 00000KT 5SM BR SCT005 22/20 A3002 RMK AO2=
KSCF 081100Z AUTO 14020KT 9SM FEW015 28/25 A2990 RMK A01=
KSPF 081055Z AUTO 00000KT 10SM CLR 11/08 A3029 RMK AO2=
KSTE 081055Z AUTO 00000KT 10SM OVC005 20/19 A3002 RMK AO2=
KSUW 081055Z AUTO 21004KT 10SM CLR 15/14 A3003 RMK AO2=
KTKV 081055Z AUTO 00000KT 1/2SM FG OVC001 18/17 A3004 RMK AO2
     T01780171=
KTTS 081055Z 35002KT 10SM PRFG FEW030 FEW280 19/19 A2999 RMK
     SLP156 1SC /0/ 1CI /0/=
KUES 081055Z AUTO 24004KT 7SM SCT010 BKN015 OVC026 21/19 A3003 RMK
     AO2 T02080192=
KUNU 081052Z AUTO 00000KT 2 1/2SM BR SCT003 BKN023 21/19 A3003 RMK
     AO2 T02050193=
KVAD 081055Z AUTO 00000KT 8SM CLR 21/20 A3002 RMK AO2 SLP166
     T02150198 $=
KVBS 081055Z AUTO 12021G26KT 10SM SCT020 BKN027 BKN031 29/25 A2992
     RMK A01=
KVNP 081055Z AUTO 12008G14KT 090V160 8SM 28/25 A2996 RMK A01=
KY50 081056Z AUTO 28003KT 7SM FEW007 21/21 A3002 RMK AO2 T02050205
     SLP157 $=
PGUA 081055Z AUTO 09016G22KT 10SM BKN019 BKN025 27/ A2991 RMK AO2
     RAB1032E1041 CIG 017V024 SLP109 P0000 T0271 VISNO RWY24L
     $=
PAFS 081056Z AUTO 07005KT 10SM CLR 14/06 A2999 RMK AO2 TSNO
     T01380061 SLP162 $=
PAMB 081056Z AUTO 03007KT 10SM SCT027 BKN060 11/08 A2993 RMK AO2
     PWINO TSNO T01050077 SLP139 $=
PAVA 081057Z AUTO 36010KT 10SM CLR 10/09 A3008 RMK AO2 SLP188
     T01000089=
PPIZ 081056Z AUTO 21010KT 10SM CLR 06/02 A3009 RMK AO2 TSNO
     T00610016 SLP192 $=
####018000679####
SANL33 EHDB 081055
METAR EHAK 081055Z AUTO 25009KT 9999NDV 16/13 Q1016=
METAR EHDV 081055Z NIL=
METAR EHFD 081055Z AUTO 20012KT 9999NDV FEW042/// 17/16 Q1018=
METAR EHFZ 081055Z AUTO 22008KT 9999NDV 16/15 Q1018=
METAR EHJA 081055Z AUTO 24015KT 9999NDV FEW025/// SCT037/// BKN042///
16/15 Q1018=
METAR EHJR 081055Z NIL=
METAR EHKV 081055Z AUTO 27013KT 9999NDV FEW013/// OVC018/// 16/15
Q1018=
METAR EHMA 081055Z AUTO 24011KT 9999NDV 20/17 Q1019=
METAR EHMG 081055Z AUTO 23012KT 9999NDV 17/15 Q1018=
METAR EHPG 081055Z AUTO 23011KT 9999NDV ///////// 16/15 Q1019=
METAR EHQE 081055Z AUTO 23012KT 9999NDV 16/15 Q1019=
METAR EHSA 081055Z NIL=
METAR EHSC 081055Z NIL=
####018000312####
SAUK51 EGGY 081050
METAR EGDL 081050Z 23007KT 9999 FEW022 BKN250 19/11 Q1019 NOSIG=
METAR EGDM 081050Z NIL=
METAR EGDY 081050Z NIL=
METAR EGOV 081050Z NIL=
METAR EGUB 081050Z NIL=
METAR EGVN 081050Z NIL=
METAR EGWU 081050Z NIL=
METAR EGXC 081050Z NIL=
METAR EGXT 081050Z NIL=
METAR EGYD 081050Z NIL=
####018000074####
SAZB40 FLLS 081100
METAR FLLS 081100Z 05014KT 9999 BKN035 19/08 Q1027=
####018000068####
SABZ24 SBFL 081100
METAR SBFL 081100Z 16009KT CAVOK 20/16 Q1017=
####018000067####
SAAG SANT 080200
METAR SANT 080200Z  32008KT 6000  07/05 Q1018=
####018000127####
SAGW20 GGOV 081100
METAR GGOV 081100Z 18007KT 130V230 9999 SCT014TCU FEW020CB BKN250    
               30/23 Q1013 NOSIG=
####018000068####
SABZ19 SBCJ 081100
METAR SBCJ 081100Z 10002KT CAVOK 24/18 Q1018=
####018000358####
SAVN26 SVMC 081100
METAR SVMC 081100Z 36003KT 9999 SCT010 24/23 Q1011=
METAR SVJC 081100Z NIL=
METAR SVSA 081100Z 00000KT 9999 BKN020 21/20 Q1015=
METAR SVCR 081100Z NIL=
METAR SVVG 081100Z NIL=
METAR SVSZ 081100Z 00000KT 9999 OVC015 XX/XX Q1011=
METAR SVMD 081100Z NIL=
METAR SVPM 081100Z 00000KT 9999 SCT035 XX/XX Q1015=
METAR SVLF 081100Z NIL=
####018000451####
SAPK31 OPKC 081100
METAR OPGD 081100Z NIL=
METAR OPKC 081100Z 18014KTS 8000 SCT020 SCT030 TCU 35/24 Q.1002 TEMPO
NE 30KTS TSRA FEW025 CB=
METAR OPLA 081055Z 12994KT 6000 SCT040 37/23 Q1003 NOSIG=
????????????ZQ?6000M SCT035 SCT100 38/25 Q.1002=
METAR OPPS 081055Z NE-12KT 6000 HZ FEW040 FEW100 40/25 Q1002.9=
METAR OPRN 081100Z 23016KT 9999 SCT040 39/18 Q1005.8=
METAR OPSK 081055Z 13004KTS 6000 HZ FEW040 BKN100 35/25 QNH 1001 R.H.
57 PC=
####018000108####
SAGC31 MWCR 081100

METAR MWCR 081100Z 14006KT 9999 FEW018 BKN250 28/25 Q1012 NOSIG=

METAR MWCB NIL=
####018000623####
SPXX60 KWBC 081100
SPECI
KNMM 081057Z 00000KT 7SM FEW250 22/21 A3006 RMK AO2 $=
KCEF 081053Z AUTO 16005KT 10SM FEW010 24/22 A3006 RMK AO2 SLP179
     PWINO $=
KFRI 081054Z AUTO 04003KT 9SM FEW006 SCT016 BKN160 21/21 A3010 RMK
     AO2 FEW V SCT SLP183=
KHRT 081048Z AUTO 00000KT 1SM R18/2800VP6000FT BR CLR 23/23 A3001
     RMK AO2 SLP165 $=
KHRT 081050Z AUTO 00000KT 3/4SM R18/2800VP6000FT BR CLR 23/23
     A3001 RMK AO2 SLP165 $=
KNEL 081051Z AUTO 00000KT 2SM BR BKN005 OVC100 24/22 A3003 RMK AO2
     $=
KSKF 081054Z 04009KT 9SM -RA SCT013 BKN021 25/ A2992 RMK AO2A
     RAB1051 SLP123 $=
####018003716####
SAUS70 KWBC 081100 RRA
METAR
KLVN 081049Z AUTO 27005KT 10SM CLR 16/16 A3009 RMK AO2=
KLXL 081054Z AUTO 00000KT 3/4SM BR VV005 12/12 A3008 RMK AO2=
KM89 081056Z AUTO 00000KT 6SM BR OVC004 24/23 A3006 RMK AO2
     T02380233 SLP190=
KMDZ 081055Z AUTO 32003KT 1/4SM FG OVC002 19/18 A3005 RMK AO2=
KMGG 081055Z AUTO 27004KT 10SM CLR 16/15 A3011 RMK AO2
     T01580147=
KMJQ 081052Z AUTO 29003KT 4SM BR CLR 14/13 A3015 RMK AO2=
KMOX 081050Z AUTO 27004KT 10SM CLR 15/14 A3008 RMK AO2=
KMRJ 081055Z AUTO 28003KT M1/4SM FG OVC003 21/20 A3005 RMK AO2
     T02100195=
KMVE 081054Z AUTO 29003KT 10SM CLR 16/14 A3011 RMK AO2=
KMWC 081055Z AUTO 26003KT 5SM -DZ SCT007 BKN025 OVC090 21/20 A3002
     RMK AO2 P0001=
KMWM 081053Z AUTO 00000KT 7SM CLR 13/13 A3014 RMK AO2=
KMWO 081055Z AUTO 00000KT 1 1/2SM BR VV007 20/20 A3009 RMK AO2=
KOCF 081050Z 04003KT 11/2SM BR SKC 20/20 A3001=
KOEO 081055Z AUTO 00000KT 5SM BR CLR 16/15 A3010 RMK AO2=
KOMN 081050Z 00000KT 10SM SKC 19/19 A3000 RMK FIRST=
KONA 081051Z AUTO 31004KT 10SM CLR 20/17 A3004 RMK AO2=
KOVL 081054Z AUTO 00000KT 7SM CLR 13/12 A3012 RMK AO2
     T01320118=
KPEX 081053Z AUTO 25004KT 5SM BR CLR 13/12 A3011 RMK AO2
     T01250124=
KPNM 081053Z AUTO 00000KT 1/2SM FG VV005 13/12 A3009 RMK AO2 VIS
     M1/4V4=
KPQN 081053Z AUTO 33007KT 10SM CLR 17/14 A3017 RMK AO2=
KPVB 081053Z AUTO 29003KT 3/4SM BKN001 OVC008 21/20 A3006 RMK AO1
     T02070200=
KPWC 081053Z AUTO 00000KT 7SM SCT001 09/09 A3009 RMK AO2=
KROG 081057Z 18003KT 10SM OVC024 23/22 A3008 RMK AO2 SLP173
     T02280217=
KROX 081054Z AUTO 24005KT 10SM CLR 14/12 A3001 RMK AO2=
KRRT 081054Z AUTO 23006KT 10SM CLR 13/11 A3001 RMK AO2=
KRZN 081054Z AUTO 00000KT 10SM CLR 15/15 A3008 RMK AO2
     T01510145=
KSAZ 081054Z AUTO 25006KT 10SM CLR 16/16 A3009 RMK AO2=
KSGS 081053Z AUTO 00000KT 10SM CLR 18/16 A3009 RMK AO2
     T01810162=
KSME 081055Z AUTO 00000KT 1 3/4SM BR 20/19 A3010 RMK AO2=
KTEW 081052Z AUTO 15003KT 5SM BR CLR 21/19 A3005 RMK AO2=
KTOB 081054Z AUTO 00000KT 10SM CLR 17/16 A3010 RMK AO2=
KTWM 081053Z AUTO 30004KT 10SM CLR 16/13 A3002 RMK AO2=
K14Y 081058Z AUTO 21004KT 7SM CLR 15/15 A3010 RMK AO2
     T01480145=
KAIT 081053Z AUTO 00000KT 1/2SM FG VV005 12/11 A3007 RMK AO2=
KAJO 081056Z AUTO 00000KT 6SM BR FEW011 14/14 A2990 RMK AO2
     T01440138 SLP120 $=
KANE 081055Z AUTO 00000KT 10SM 17/16 A3009 RMK AO2=
KARV 081052Z AUTO 00000KT 10SM CLR 17/15 A3004 RMK AO2
     T01660153=
KBBB 081053Z AUTO 00000KT 1 1/2SM BR VV007 14/13 A3012 RMK AO2 VIS
     1/4V5=
KBWP 081051Z AUTO 27004KT 7SM CLR 14/13 A3010 RMK AO1
     T01360125=
KCMY 081055Z AUTO 00000KT 5SM BR BKN011 19/18 A3005 RMK AO2
     T01900183=
KCVH 081050Z AUTO 00000KT 9SM OVC008 13/11 A2992 RMK AO1=
KDIJ 081056Z AUTO 00000KT 10SM CLR 04/02 A3029 RMK AO2 T00440016
     SLP193 $=
KDXX 081054Z AUTO 00000KT 10SM CLR 14/14 A3012 RMK AO2=
KDYT 081054Z AUTO 19007KT 10SM CLR 17/15 A3005 RMK AO2=
KEFK 081055Z AUTO 22004KT 4SM BR CLR 21/20 A3007 RMK AO2=
KEFT 081055Z AUTO 26006KT 10SM CLR 21/19 A3004 RMK AO2
     T02070187=
KEGV 081052Z AUTO 35005KT 10SM CLR 17/18 A3003 RMK AO2
     T01730175=
KEKQ 081056Z AUTO 00000KT 1 1/4SM BR CLR 18/18 A3012 RMK AO2
     T01830177 SLP193=
KELO 081053Z AUTO 21004KT 10SM CLR 13/13 A3002 RMK AO2=
KETB 081052Z AUTO 00000KT 2 1/2SM BR BKN017 BKN120 21/21 A3001 RMK
     AO2 T02130205=
KEVM 081052Z AUTO 00000KT 10SM CLR 15/13 A3002 RMK AO1=
KEZS 081055Z AUTO 00000KT 4SM BR SCT006 OVC012 23/22 A2999 RMK AO2
     T02260217=
KFBL 081054Z AUTO 29004KT 10SM CLR 16/15 A3011 RMK AO2=
KFFM 081053Z AUTO 23003KT 10SM CLR 15/14 A3009 RMK AO2=
####018003683####
SAXX60 KWBC 081100 RRA
METAR
KPAM 081055Z 35005KT 10SM CLR 24/24 A3001 RMK AO2A SLP163
     T02350235=
MHSC 081055Z AUTO 12003KT 9999 BKN065 OVC140 22/19 A2994 RMK AO2
     SLP099 T02190191 $=
PWAK 081056Z 07012KT 6SM BR FEW024 27/25 A2999 RMK AO2A=
KGTB 081055Z AUTO 18003KT 10SM CLR 24/21 A3004 RMK AO2 SLP171
     T02390206=
KNIP 081053Z 25003KT 10SM CLR 22/21 A3001 RMK AO2 SLP158
     T02220206=
KNKT 081054Z 04006KT 4SM BR CLR 26/24 A2993 RMK AO2 SLP132
     T02610239=
KNQI 081056Z AUTO 02004KT 4SM RA BR BKN027 BKN035 BKN055 27/25
     A2982 RMK AO2 RAB18 SLP095 P0011 T02670250 $=
KNQX 081053Z 06004KT 10SM SCT022 SCT080 BKN200 28/25 A2993 RMK AO2
     SLP135 T2 SET T02830250 $=
KNRB 081052Z 00000KT 10SM CLR 24/21 A3000 RMK AO2 SLP158
     T02390211=
KNYG 081056Z 08007KT 5SM HZ FEW090 BKN200 27/22 A3000 RMK AO2
     SLP160 T02670222=
KPAM 081055Z 35005KT 10SM CLR 24/24 A3001 RMK AO2A SLP163
     T02350235=
KSKA 081055Z AUTO 00000KT 10SM CLR 15/08 A3007 RMK AO2 SLP170
     T01490082=
KSLI 081055Z AUTO 29003KT 10SM OVC015 17/14 A2989 RMK AO2 SLP125
     T01670137=
KTCM 081055Z AUTO 00000KT 10SM CLR 13/11 A2995 RMK AO2 SLP143
     T01310114=
KTIK 081055Z AUTO 03006KT 10SM FEW008 BKN011 BKN031 23/22 A3005
     RMK AO2 SLP163 T02330225 $=
KVAD 081055Z AUTO 00000KT 8SM CLR 21/20 A3002 RMK AO2 SLP166
     T02150198 $=
KVOK 081055Z 27006KT 10SM CLR 18/18 A3003 RMK AO2A SLP166
     T01790179=
KNBG 081055Z AUTO 05003KT 6SM HZ CLR A3002 RMK AO2 SLP166 PWINO
     FZRANO $=
KNFG 081056Z AUTO 00000KT 10SM OVC010 16/14 A2989 RMK AO2 SLP121
     T01560139 TSNO=
KNFL 081056Z AUTO 00000KT 10SM CLR 18/M01 A2998 RMK AO2 SLP124
     T01831006 TSNO=
KNGP 081056Z 09011KT 4SM +RA BR SCT013 BKN019 BKN033 28/27 A2982
     RMK AO2 RAB49 SLP096 P0009 T02780267 $=
KNJK 081056Z AUTO 13005KT 10SM CLR 23/12 A2969 RMK AO2 SLP070
     T02280122 TSNO=
KNJK 081056Z AUTO 13005KT 10SM CLR 23/12 A2969 RMK AO2 SLP070
     T02280122 TSNO=
KNKX 081055Z 33003KT 10SM OVC014 16/13 A2989 RMK AO2 SLP118
     T01610133=
KNTD 081056Z AUTO 28006KT 9SM OVC011 15/13 A2989 RMK AO2 SLP123
     T01500128 TSNO PNO VISNO N $=
KNXP 081056Z AUTO 29005KT CLR 23/00 A2991 RMK AO2 SLP089 T02330000
     $=
KNXX 081056Z 00000KT 3SM HZ CLR 24/21 A3005 RMK AO2 SLP177
     T02390206 $=
KPOE 081055Z AUTO 07005KT 10SM FEW015 24/23 A3001 RMK AO2 SLP164
     T02390228=
KPOE 081055Z AUTO 07005KT 10SM FEW015 24/23 A3001 RMK AO2 SLP164
     T02390228=
KVBG 081055Z AUTO 34003KT 10SM OVC004 12/11 A2993 RMK AO2 SLP125
     T01220111 TSNO $=
KNLC 081056Z AUTO 30007KT 10SM CLR 17/11 A2982 RMK AO2 SLP095
     T01720106 TSNO $=
PWAK 081056Z 07012KT 6SM BR FEW024 27/25 A2999 RMK AO2A=
KBIX 081055Z AUTO 00000KT 10SM CLR 25/25 A3003 RMK AO2 SLP169
     T02460246=
KHRT 081055Z 00000KT 3SM BR CLR 23/23 A3002 RMK AO2A VIS 2 N
     SLP167 T02300230 $=
KLFI 081055Z 10006KT 10SM FEW011 SCT090 26/22 A2998 RMK AO2A
     SLP152 T02570223 $=
KLUF 081055Z 00000KT 10SM CLR 26/06 A2976 RMK AO2A SLP047
     T02570061 $=
KMMT 081055Z 30003KT 10SM FEW100 21/19 A2998 RMK AO2A SLP152
     T02130190=
KMRT 081053Z AUTO 00000KT 2 1/2SM CLR 20/19 A3012 RMK AO2
     T02040190=
KMXF 081055Z AUTO 00000KT 7SM CLR 25/24 A3002 RMK AO2 SLP165
     T02460238=
KNYL 081055Z AUTO 16003KT 10SM CLR 27/04 A2971 RMK AO2 SLP056
     T02670039=
KNUW 081056Z 00000KT 10SM CLR 13/11 A2997 RMK AO2 SLP152 T01330106
     $=
KNRS 081056Z AUTO 31005KT 10SM FEW007 OVC016 17/14 A2990 RMK AO2
     SLP123 T01670144 TSNO $=
KGBK 081055Z AUTO 09012G17KT 10SM CLR 29/25 A2991 RMK A01=
####018000628####
SAUS80 KWBC 081100 CCA
METAR
KDAB 081053Z 33003KT 10SM FEW026 SCT150 21/20 A3000 RMK AO2 SLP158
     T02110200 $=
KTUP 081053Z 00000KT 10SM CLR 24/22 A3007 RMK AO2 SLP178
     T02390217=
KMGM 081053Z 00000KT 8SM CLR 24/23 A3003 RMK AO2 SLP163
     T02390228=
KNAK 081054Z AUTO 2SM HZ CLR 26/23 A3001 RMK AO2 SLP163 T02560228
     TSNO=
KBTR 081053Z 00000KT 6SM BR MIFG SCT003 BKN200 23/23 A3001 RMK AO2
     SLP160 T02330228 $=
KSMP 081056Z AUTO VRB03KT 10SM CLR 17/03 A3015 RMK AO2 SLP176
     T01670033 TSNO $=
KMCN 081053Z AUTO 00000KT 10SM CLR 20/19 A3002 RMK AO2 SLP162
     T02000194 TSNO=
####018003732####
SAUS70 KWBC 081100
METAR
KAPG 081054Z 00000KT 4SM BR SKC 26/24 A3002=
KUOX 081055Z AUTO 00000KT 9SM CLR 21/20 A3009 RMK AO2=
KWJF 081056Z 00000KT 10SM CLR 17/02 A2988 RMK AO2 SLP098
     T01720017=
KSDF 081056Z 12003KT 5SM HZ SCT120 25/21 A3006 RMK AO2 SLP172
     T02500211=
K1P1 081055Z AUTO 00000KT 1 1/4SM BR OVC003 23/22 A3007 RMK AO2
     T02260215=
KART 081056Z AUTO 00000KT 6SM HZ CLR 24/21 A3003 RMK AO2 SLP163
     T02390206=
KBED 081056Z 16007KT 6SM HZ SCT016 BKN070 24/21 A3007 RMK AO2
     SLP193 T02390211=
KBJJ 081056Z AUTO 00000KT 1 1/2SM BR FEW060 19/18 A3011 RMK AO2
     SLP186 T01890183=
KBVU 081055Z AUTO 00000KT 10SM CLR 23/05 A2986 RMK AO2=
KCEC 081056Z AUTO 23003KT 2SM BR OVC003 10/09 A2998 RMK AO2 SLP151
     T01000094=
KCXY 081056Z 21003KT 4SM HZ CLR 24/21 A3002 RMK AO2 SLP164
     T02390206=
KDAY 081056Z 00000KT 4SM HZ CLR 22/19 A3010 RMK AO2 SLP184
     T02220189=
KDUJ 081056Z AUTO 08003KT 4SM BR FEW065 20/18 A3012 RMK AO2 SLP185
     T02000178=
KE80 081055Z AUTO 22004KT 10SM CLR 18/12 A3025 RMK AO2
     T01810115=
KEDC 081055Z AUTO 06004KT BKN008 24/24 A2996 RMK AO2=
KEIK 081055Z AUTO 00000KT 10SM BKN004 11/11 A3032 RMK AO2=
KELZ 081056Z AUTO 00000KT 2SM BR CLR 19/19 A3016 RMK AO2 SLP198
     T01940189=
KEOE 081055Z AUTO 22003KT 10SM CLR 21/20 A3004 RMK AO2=
KFMH 081055Z AUTO 16006KT 10SM FEW009 BKN019 22/20 A3011 RMK
     AO2=
KGON 081056Z 09004KT 2SM BR BKN002 OVC013 23/21 A3007 RMK AO2
     SLP182 T02280206=
KHPN 081056Z 00000KT 2SM BR OVC004 24/22 A3005 RMK AO2 SLP169
     T02390217=
KHWV 081056Z AUTO 14003KT 5SM BR SCT013 SCT021 24/23 A3006 RMK AO2
     SLP178 T02440233=
KHYA 081056Z 00000KT 10SM BKN016 22/21 A3010 RMK AO2 SLP193
     T02220206=
KIFP 081055Z AUTO 00000KT 10SM CLR 27/00 A2975 RMK AO2=
KISO 081055Z 35004KT 4SM HZ CLR 24/21 AA2995=
KISP 081056Z 13005KT 5SM HZ BKN005 BKN011 OVC120 25/22 A3004 RMK
     AO2 SLP170 T02500222=
KITH 081056Z 09004KT 6SM BR CLR 21/19 A3010 RMK AO2 T02110188
     SLP185=
KJXN 081056Z 00000KT 7SM CLR 22/20 A3006 RMK AO2 SLP171
     T02170200=
KMAN 081055Z AUTO 00000KT 10SM CLR 13/07 A3005 RMK AO1=
KMDT 081056Z 00000KT 4SM HZ CLR 26/21 A3001 RMK AO2 SLP161
     T02560211=
KMRH 081056Z AUTO 05005KT 3SM HZ CLR 27/23 A2992 RMK AO2 SLP131
     T02670233 TSNO=
KPVF 081055Z AUTO 00000KT 10SM SCT044 21/12 A2994 RMK AO1=
KRBW 081055Z AUTO 27003KT 10SM CLR 22/20 A2998 RMK AO2=
KRCM 081055Z AUTO 00000KT 5SM BR BKN002 OVC006 22/22 A3005 RMK AO2
     LTG DSNT SE=
KSGH 081056Z 00000KT 3SM BR CLR 21/21 A3011 RMK AO2 T02050205
     SLP187=
KSGJ 081058Z 00000KT 10SM CLR 22/21 A3001 RMK AO2 SLP161
     T02220206=
KTME 081055Z AUTO 04008KT 5SM 25/25 A2993 RMK AO1=
KTPH 081056Z AUTO 35007KT 10SM CLR 14/M04 A3010 RMK AO2 SLP115
     T01391044=
KULM 081054Z AUTO 00000KT 7SM CLR 14/12 A3012 RMK AO2=
KUNI 081055Z AUTO 00000KT 4SM HZ CLR 22/17 A3009 RMK AO2
     T02150170=
KVES 081054Z AUTO 13003KT 2 1/2SM BR CLR 20/19 A3008 RMK AO2
     T01960190=
KVVV 081056Z AUTO 29004KT 10SM CLR 17/14 A3012 RMK AO2=
KY63 081100Z AUTO 21004KT 10SM CLR 14/14 A3011 RMK AO2
     T01400135=
PACM 081056Z AUTO 27006KT 10SM BKN060 11/09 A3008 RMK AO2 TSNO
     T01110094 SLP183 $=
PAGN 081056Z AUTO 00000KT CLR RMK AO2 PWINO TSNO SLPNO $=
PATQ 081056Z AUTO 25013KT 10SM CLR 09/03 A3004 RMK AO2 TSNO
     T00880033 SLP178 $=
KLJF 081053Z AUTO 25003KT 10SM CLR 17/16 A3012 RMK AO2=
KLNL 081055Z AUTO 00000KT 10SM SCT027 17/15 A3005 RMK AO2
     T01650148=
KLRD 081056Z 03007KT 10SM OVC022 27/24 A2990 RMK AO2 T02660244
     SLP111 $=
KLUM 081055Z AUTO 29005KT 10SM CLR 18/16 A3006 RMK AO2=
####018000299####
SAXX60 KWBC 081100 CCA
METAR
KNJK 081056Z AUTO 13005KT 10SM CLR 23/12 A2969 RMK AO2 SLP070
     T02280122 TSNO=
KLOR 081053Z AUTO 00000KT 6SM BR SCT070 21/19 A3002 RMK AO2 SLP163
     T02060189 TSNO $=
KPOE 081055Z AUTO 07005KT 10SM FEW015 24/23 A3001 RMK AO2 SLP164
     T02390228=
####018000096####
SAUZ31 UTTT 081100
METAR UTTT 081100Z 29004MPS 250V310 CAVOK 39/04 Q1010
R08R/CLRD70 NOSIG=
####018003698####
SAUS70 KWBC 081100 RRB
METAR
KFGN 081054Z AUTO 27008KT 1/4SM -DZ VV002 16/13 A2998 RMK AO2=
KFSO 081058Z AUTO 00000KT 5SM BR BKN065 24/23 A3001 RMK AO2=
KGDB 081052Z AUTO 22005KT 10SM CLR 13/13 A3015 RMK AO2
     T01320126=
KGHW 081053Z AUTO 26004KT 10SM CLR 15/13 A3014 RMK AO2=
KGLW 081053Z AUTO 00000KT 4SM BR CLR 21/20 A3008 RMK AO2
     T02050196=
KGYL 081054Z AUTO 24003KT 10SM CLR 14/14 A3011 RMK AO2
     T01440136=
KHCD 081052Z AUTO 25003KT 5SM BR CLR 14/13 A3012 RMK AO2
     T01370129=
KHCO 081054Z AUTO 19003KT 10SM BKN100 12/12 A3005 RMK AO2=
KHFJ 081055Z AUTO 00000KT 10SM SCT010 BKN050 BKN065 23/22 A3004
     RMK AO1=
KHZX 081051Z AUTO 00000KT 10SM CLR 13/13 A3007 RMK AO2=
KJKJ 081054Z AUTO 27003KT 10SM CLR 16/14 A3007 RMK AO2=
KJMR 081058Z AUTO 00000KT 10SM CLR 15/13 A3009 RMK AO2=
KPHL 081054Z 12004KT 3SM BR FEW150 25/23 A3003 RMK AO2 SLP168
     T02500228 $=
KAPG 081054Z 00000KT 4SM BR SKC 26/24 A3002=
KNSE 081056Z AUTO 00000KT 1/2SM FG VV004 22/21 A3003 RMK AO2
     SLP152 T02220206 $=
TJBQ 081050Z 11004KT 10SM SKC 25/25 A3000=
TJPS 081050Z 00000KT 8SM FEW030 26/24 A2998 HZ ALQDS=
KNSE 081056Z AUTO 00000KT 1/2SM FG VV004 22/21 A3003 RMK AO2
     SLP152 T02220206 $=
KTTS 081055Z 35002KT 10SM PRFG FEW030 FEW280 19/19 A2999 RMK
     SLP156 1SC /0/ 1CI /0/=
PACM 081056Z AUTO 27006KT 10SM BKN060 11/09 A3008 RMK AO2 TSNO
     T01110094 SLP183 $=
PAGN 081056Z AUTO 00000KT CLR RMK AO2 PWINO TSNO SLPNO $=
PAHC 081056Z AUTO 26003KT 10SM BKN085 11/09 A2999 RMK AO2 TSNO
     T01050094 SLP158 $=
PAIG 081056Z AUTO 00000KT 10SM FEW043 BKN049 OVC065 09/08 A2994
     RMK AO2 PWINO TSNO T00880083 SLP141 $=
PAMO 081056Z AUTO 01010KT 10SM SCT047 BKN070 11/09 A3005 RMK AO2
     TSNO T01110094 BKN V SCT RAB11E36 P0000 SLP173 $=
PAOH 081056Z AUTO 00000KT 10SM CLR 08/08 A3020 RMK AO2 TSNO
     T00830083 SLP227=
PAPM 081056Z AUTO 00000KT RA CLR 08/07 A2999 RMK AO2 TSNO
     T00770072 P0000 SLP157 $=
PARS 081056Z AUTO 28003KT 10SM OVC080 11/09 A3001 RMK AO2 TSNO
     T01110094 SLP166 $=
PATQ 081056Z AUTO 25013KT 10SM CLR 09/03 A3004 RMK AO2 TSNO
     T00880033 SLP178 $=
KSGH 081056Z 00000KT 3SM BR CLR 21/21 A3011 RMK AO2 T02050205
     SLP187=
KWJF 081056Z 00000KT 10SM CLR 17/02 A2988 RMK AO2 SLP098
     T01720017=
KAEL 081051Z AUTO 00000KT 5SM BR CLR 17/17 A3010 RMK AO2=
KAPG 081054Z 00000KT 4SM BR SKC 26/24 A3002=
KJVL 081045Z 00000KT 10SM OVC120 22/19 A3002=
KMDS 081045Z AUTO 29004KT 10SM CLR 14/14 A3017 RMK AO2=
KSWF 081045Z 00000KT 5SM HZ BKN100 25/22 A3007=
K4M9 081055Z AUTO 21004KT 6SM BR CLR 24/24 A3006 RMK AO2=
KAEJ 081055Z AUTO 00000KT 10SM SCT100 08/07 A3046 RMK AO2=
KBQX 081055Z AUTO 10011G22KT 2SM BR FEW004 SCT038 BKN065 26/25
     A2984 RMK A01=
KDLP 081055Z AUTO 09011KT 9SM FEW016 28/25 A2999 RMK A01=
KEHC 081055Z AUTO 12025KT 7SM FEW019 FEW026 FEW035 29/25 A2992 RMK
     A01=
KEIR 081055Z AUTO VRB05G13KT 9SM FEW014 28/25 A2996 RMK A01=
KEMK 081055Z AUTO 14021G26KT 9SM SCT055 BKN065 28/25 A2987 RMK
     A01=
KGVX 081055Z AUTO 12023KT 10SM FEW020 SCT070 BKN080 M40/ A2989 RMK
     A01=
KGYH 081055Z AUTO 10SM CLR 22/20 A3004 RMK AO2=
KHQI 081055Z AUTO 11023KT 8SM FEW055 SCT110 29/26 A2989 RMK
     A01=
KHXD 081055Z AUTO 22005KT 8SM CLR 24/21 A2999 RMK AO2 P0000=
KHYW 081055Z AUTO 00000KT 7SM CLR 24/22 A2994 RMK AO2=
KIPN 081055Z AUTO 09014KT 10SM FEW023 /55 A2999 RMK A01=
KJZI 081055Z AUTO 28007KT 10SM CLR 24/23 A2996 RMK A02 P000=
KMCJ 081055Z AUTO 05009KT 5SM SCT025 BKN033 25/24 A2989 RMK
     AO1=
KMDJ 081055Z AUTO 12011KT 10SM SCT019 SCT027 SCT070 28/24 A3000
     RMK A01=
####018000068####
SABZ24 SBCR 081100
METAR SBCR 081100Z 14007KT CAVOK 25/10 Q1013=
####018000747####
SAXX60 KWBC 081100 RRB
METAR
KGTB 081055Z AUTO 18003KT 10SM CLR 24/21 A3004 RMK AO2 SLP171
     T02390206=
KMHR 081055Z AUTO 16005KT 10SM CLR 13/10 A2985 RMK AO1=
KNQX 081053Z 06004KT 10SM SCT022 SCT080 BKN200 28/25 A2993 RMK AO2
     SLP135 T2 SET T02830250 $=
KNRB 081052Z 00000KT 10SM CLR 24/21 A3000 RMK AO2 SLP158
     T02390211=
KPAM 081055Z 35005KT 10SM CLR 24/24 A3001 RMK AO2A SLP163
     T02350235=
KVAD 081055Z AUTO 00000KT 8SM CLR 21/20 A3002 RMK AO2 SLP166
     T02150198 $=
PGUA 081055Z AUTO 09016G22KT 10SM BKN019 BKN025 27/ A2991 RMK AO2
     RAB1032E1041 CIG 017V024 SLP109 P0000 T0271 VISNO RWY24L
     $=
KEUF 081058Z AUTO 00000KT 10SM FEW070 22/19 A3002 RMK AO2 SLP162
     T02170194 PNO $=
####018000127####
SPUS80 KWBC 081100
SPECI
KVCT 081057Z AUTO VRB04KT 1 3/4SM +RA BR FEW001 BKN013 OVC022
     25/24 A2989 RMK AO2 P0002=
####018003232####
SAUS80 KWBC 081100
METAR
KALK 081056Z AUTO 08011KT 10SM CLR 22/09 A3008 RMK AO2 SLP082
     T02220089=
TJSJ 081056Z 11003KT 10SM FEW020 SCT110 28/24 A3000 RMK AO2 SLP158
     T02780244=
KSNC 081055Z AUTO 13003KT 2SM BR OVC001 22/ A3009 RMK AO2
     P0005=
KP53 081056Z AUTO 00000KT 18/18 A2998 RMK AO2 SLP150 T01830178
     PWINO TSNO=
K8D3 081056Z AUTO 26007KT 18/14 A3010 RMK AO2 SLP178 T01830144
     PWINO TSNO=
KCDJ 081056Z AUTO 00000KT 21/21 A3007 RMK AO2 SLP174 T02110206
     PWINO TSNO=
KFSD 081056Z 00000KT 10SM CLR 15/14 A3016 RMK AO2 SLP210 BKN ABV
     120 T01500139 $=
KSPD 081056Z AUTO 36007KT 16/14 A3029 RMK AO2 SLP199 P0006
     T01560144 PWINO TSNO=
KBIH 081056Z AUTO 34006KT 10SM CLR 14/03 A2999 RMK AO2 SLP102
     T01440028 TSNO=
KJQF 081055Z 00000KT 10SM SCT100 23/18 A3001=
KLYV 081058Z AUTO 00000KT 10SM CLR 13/12 A3017 RMK AO2=
KROS 081055Z AUTO 00000KT 10SM CLR 15/14 A3008 RMK AO2
     T01460140=
KTKC 081053Z AUTO 26006KT 10SM CLR 16/13 A3015 RMK AO2
     T01550127=
KAVP 081054Z 00000KT 4SM HZ CLR 21/18 A3008 RMK AO2 SLP171
     T02110178 $=
KCLI 081055Z AUTO 00000KT 2 1/2SM BR OVC007 22/21 A3000 RMK
     AO2=
KFWA 081054Z 00000KT 7SM CLR 23/20 A3006 RMK AO2 SLP172
     T02280200=
KGSO 081054Z 02004KT 6SM HZ FEW095 25/18 A3003 RMK AO2 SLP155
     T02500178=
KD07 081056Z AUTO 23004KT 14/07 A3021 RMK AO2 SLP220 T01440072
     PWINO TSNO=
KAKQ 081054Z AUTO 35003KT 2SM BR FEW015 24/22 A3000 RMK AO2 SLP156
     T02440222 TSNO=
KACY 081054Z 11003KT 8SM -RA FEW060 24/23 A3004 RMK AO2 RAB49
     SLP172 P0000 T02440228=
KCHS 081056Z 27005KT 8SM CLR 24/19 A2997 RMK AO2 SLP147
     T02390194=
KSAV 081053Z 22003KT 10SM FEW250 21/19 A3000 RMK AO2 SLP156
     T02110194=
KSYR 081054Z 00000KT 10SM CLR 24/21 A3004 RMK AO2 SLP167
     T02390206=
TJSJ 081056Z 11003KT 10SM FEW020 SCT110 28/24 A3000 RMK AO2 SLP158
     T02780244=
KABQ 081056Z 05009KT 10SM SCT100 BKN200 20/09 A3026 RMK AO2 SLP158
     T02000094=
KJAX 081056Z 25003KT 8SM CLR 20/19 A3000 RMK AO2 SLP158
     T02000189=
K29G 081054Z AUTO 00000KT 4SM CLR 20/19 A3010 RMK AO2 T01960185
     PWINO=
KCAE 081056Z 00000KT 10SM CLR 24/19 A2998 RMK AO2 SLP149
     T02390189=
KCHS 081056Z 27005KT 8SM CLR 24/19 A2997 RMK AO2 SLP147
     T02390194=
KIKW 081053Z AUTO 00000KT 10SM -DZ SCT050 SCT065 OVC080 23/21
     A3002 RMK AO2 T02310211=
KRFD 081054Z 27005KT 6SM BR OVC006 22/21 A3004 RMK AO2 SLP169
     T02220211=
KSHV 081056Z 13004KT 10SM SCT160 BKN280 24/23 A3003 RMK AO2 SLP164
     T02440233=
KSYN 081110Z AUTO 00000KT 10SM CLR 17/16 A3009 RMK AO2
     T01700158=
KTRI 081053Z 00000KT 4SM BR FEW030 20/18 A3011 RMK AO2 SLP176
     T02000183=
KTYS 081053Z 00000KT 6SM HZ CLR 22/19 A3007 RMK AO2 SLP170
     T02220194=
KFLG 081056Z AUTO 00000KT 10SM FEW070 10/01 A3026 RMK AO2 SLP141
     T01000006 TSNO=
K3A6 081110Z AUTO 36003KT 11/10 A2988 RMK AO1 SLP138 T01120101
     10130 20110 58009=
KMYT 081055Z AUTO 11013KT 9SM FEW018 28/24 A2997 RMK A01=
KSCF 081100Z AUTO 14020KT 9SM FEW015 28/25 A2990 RMK A01=
KTKV 081055Z AUTO 00000KT 1/2SM FG OVC001 18/17 A3004 RMK AO2
     T01780171=
####018000114####
SAUS70 KWBC 081200
METAR
KBBF 081155Z AUTO 13019G26KT 10SM FEW043 FEW050 SCT060 29/26 A2980
     RMK A01=
####018003735####
SAXX60 KWBC 081100
METAR
KBAN 081056Z AUTO 00000KT 10SM CLR 06/01 A3020 RMK AO2 SLP140
     T00610011 TSNO=
PHBK 081056Z AUTO 00000KT 10SM BKN050 BKN080 24/18 A3002 RMK AO2
     SLP168 T02440178 TSNO $=
KADW 081055Z AUTO 10003KT 7SM CLR 25/24 A3001 RMK AO2 SLP161
     T02550237 $=
KAFF 081055Z AUTO 16003KT 10SM OVC022 12/12 A3039 RMK AO2 CIG
     018V026 OVC V BKN SLP209 T01210118=
KBIX 081055Z AUTO 00000KT 10SM CLR 25/25 A3003 RMK AO2 SLP169
     T02460246=
KDLF 081055Z AUTO 00000KT 10SM BKN065 24/23 A2996 RMK AO2 SLP128
     T02390225 $=
KDYS 081055Z 36004KT 10SM OVC009 21/21 A3005 RMK AO2A SLP157
     T02130213 $=
KFCS 081055Z AUTO 23007KT 10SM OVC036 14/10 A3036 RMK AO2 SLP210
     T01420103=
KHRT 081055Z 00000KT 3SM BR CLR 23/23 A3002 RMK AO2A VIS 2 N
     SLP167 T02300230 $=
KLFI 081055Z 10006KT 10SM FEW011 SCT090 26/22 A2998 RMK AO2A
     SLP152 T02570223 $=
KLSV 081055Z AUTO 07005KT 10SM CLR 23/M04 A2983 RMK AO2 SLP080
     T02331036 PWINO=
KLTS 081055Z AUTO 06004KT 10SM FEW029 23/23 A3006 RMK AO2 SLP164
     T02320227 $=
KLUF 081055Z 00000KT 10SM CLR 26/06 A2976 RMK AO2A SLP047
     T02570061 $=
KMIB 081055Z AUTO VRB03KT 10SM BKN085 12/11 A3009 RMK AO2 SLP193
     T01190112 $=
KMMT 081055Z 30003KT 10SM FEW100 21/19 A2998 RMK AO2A SLP152
     T02130190=
KMXF 081055Z AUTO 00000KT 7SM CLR 25/24 A3002 RMK AO2 SLP165
     T02460238=
PMDY 081056Z AUTO 00000KT 10SM FEW029 25/20 A3011 RMK AO2 TSNO
     T02500200 402940233 SLP503=
KNUQ 081056Z AUTO 01005KT 10SM OVC011 15/12 A2992 RMK AO2 SLP135
     T01500117 TSNO=
KNBC 081056Z 25003KT 7SM CLR 24/19 A2998 RMK AO2 SLP152
     T02390194=
KINS 081056Z 00000KT 10SM CLR 20/M10 A2993 RMK AO2 SLP080
     T02001100 $=
KNID 081056Z AUTO 18007KT FEW090 22/04 A2985 RMK AO2 SLP083
     T02170039 TSNO $=
KNTU 081056Z 11007KT 10SM SCT005 SCT015 BKN035 BKN130 25/23 A2996
     RMK AO2 SLP149 T02500233 $=
KADW 081055Z AUTO 10003KT 7SM CLR 25/24 A3001 RMK AO2 SLP161
     T02550237 $=
KBIX 081055Z AUTO 00000KT 10SM CLR 25/25 A3003 RMK AO2 SLP169
     T02460246=
KGSB 081055Z AUTO 03004KT 9SM SCT160 25/20 A2993 RMK AO2 SLP135
     T02530202 $=
KLFI 081055Z 10006KT 10SM FEW011 SCT090 26/22 A2998 RMK AO2A
     SLP152 T02570223 $=
KMCF 081055Z AUTO 07004KT 10SM CLR 22/22 A2999 RMK AO2 SLP156
     T02220221=
KNCA 081056Z AUTO 00000KT 5SM BR CLR 23/22 A2993 RMK AO2 SLP136
     T02330217=
KNIP 081053Z 25003KT 10SM CLR 22/21 A3001 RMK AO2 SLP158
     T02220206=
KNKT 081054Z 04006KT 4SM BR CLR 26/24 A2993 RMK AO2 SLP132
     T02610239=
KNQX 081053Z 06004KT 10SM SCT022 SCT080 BKN200 28/25 A2993 RMK AO2
     SLP135 T2 SET T02830250 $=
KNRB 081052Z 00000KT 10SM CLR 24/21 A3000 RMK AO2 SLP158
     T02390211=
KPAM 081055Z 35005KT 10SM CLR 24/24 A3001 RMK AO2A SLP163
     T02350235=
KVAD 081055Z AUTO 00000KT 8SM CLR 21/20 A3002 RMK AO2 SLP166
     T02150198 $=
KWRI 081055Z AUTO 00000KT 1 1/4SM R18/5500VP6000FT BR SCT001 24/24
     A3001 RMK AO2 SLP162 T02360236 $=
KFCS 081055Z AUTO 23007KT 10SM OVC036 14/10 A3036 RMK AO2 SLP210
     T01420103=
KFRI 081055Z AUTO 04003KT 9SM FEW006 SCT016 BKN160 21/21 A3010 RMK
     AO2 FEW V SCT SLP183 T02120212=
KGRK 081055Z 08005KT 7SM FEW009 BKN024 OVC030 26/24 A2998 RMK
     SLP128=
KHLR 081056Z AUTO 08004KT 10SM SCT009 BKN015 OVC023 25/ A2999 RMK
     AO2 SLP146 T0250 $=
KNCA 081056Z AUTO 00000KT 5SM BR CLR 23/22 A2993 RMK AO2 SLP136
     T02330217=
KNQI 081056Z AUTO 02004KT 4SM RA BR BKN027 BKN035 BKN055 27/25
     A2982 RMK AO2 RAB18 SLP095 P0011 T02670250 $=
KNYG 081056Z 08007KT 5SM HZ FEW090 BKN200 27/22 A3000 RMK AO2
     SLP160 T02670222=
####018001928####
SAUS70 KWBC 081100 RRC
METAR
KMEI 081058Z 00000KT 9SM CLR 23/22 A3005 RMK AO2 SLP172 P0002
     T02280217=
KMIU 081055Z AUTO 12019KT 10SM FEW019 BKN032 OVC055 28/25 A2981
     RMK A01=
KMZG 081055Z AUTO 00000KT 9SM FEW020 SCT041 BKN095 28/25 A2981 RMK
     A01=
KNSE 081056Z AUTO 00000KT 1/2SM FG VV004 22/21 A3003 RMK AO2
     SLP152 T02220206 $=
KPBH 081055Z AUTO 00000KT 10SM CLR 18/17 A3006 RMK AO2=
KPCZ 081055Z AUTO 25003KT 4SM BR SCT010 BKN016 22/21 A3000 RMK AO2
     T02220210=
KPDC 081053Z AUTO 29004KT 7SM CLR 22/21 A3004 RMK AO2
     T02170205=
KRCX 081055Z AUTO 32005KT 10SM CLR 18/16 A3007 RMK AO2
     T01750162=
KRNH 081056Z AUTO 30003KT 10SM CLR 17/16 A3009 RMK AO2
     T01650160=
KRPD 081054Z AUTO 00000KT 10SM CLR 18/17 A3008 RMK AO2
     T01760165=
KRRL 081055Z AUTO 00000KT 1/2SM FG OVC002 18/17 A3004 RMK AO2
     T01750171=
KRYV 081055Z AUTO 00000KT 5SM BR SCT005 22/20 A3002 RMK AO2=
KSPF 081055Z AUTO 00000KT 10SM CLR 11/08 A3029 RMK AO2=
KSTE 081055Z AUTO 00000KT 10SM OVC005 20/19 A3002 RMK AO2=
KSUW 081055Z AUTO 21004KT 10SM CLR 15/14 A3003 RMK AO2=
KTTS 081055Z 35002KT 10SM PRFG FEW030 FEW280 19/19 A2999 RMK
     SLP156 1SC /0/ 1CI /0/=
KUES 081055Z AUTO 24004KT 7SM SCT010 BKN015 OVC026 21/19 A3003 RMK
     AO2 T02080192=
KUNU 081052Z AUTO 00000KT 2 1/2SM BR SCT003 BKN023 21/19 A3003 RMK
     AO2 T02050193=
KVBS 081055Z AUTO 12021G26KT 10SM SCT020 BKN027 BKN031 29/25 A2992
     RMK A01=
KVNP 081055Z AUTO 12008G14KT 090V160 8SM 28/25 A2996 RMK A01=
KY50 081056Z AUTO 28003KT 7SM FEW007 21/21 A3002 RMK AO2 T02050205
     SLP157 $=
PAFS 081056Z AUTO 07005KT 10SM CLR 14/06 A2999 RMK AO2 TSNO
     T01380061 SLP162 $=
PAMB 081056Z AUTO 03007KT 10SM SCT027 BKN060 11/08 A2993 RMK AO2
     PWINO TSNO T01050077 SLP139 $=
PPIZ 081056Z AUTO 21010KT 10SM CLR 06/02 A3009 RMK AO2 TSNO
     T00610016 SLP192 $=
####018000249####
SPUS70 KWBC 081100
SPECI
KAUS 081056Z COR 06005KT 10SM FEW007 SCT012 26/24 A2995 RMK
     AO2=
KHWV 081058Z AUTO 13003KT 5SM BR FEW006 SCT013 BKN021 24/23 A3006
     RMK AO2=
KIXD 081058Z 00000KT 2 1/2SM BR SCT002 21/20 A3005 RMK AO2=
####018000093####
SAAW34 KWBC 081045 RRC
METAR
OPPS 081055Z NE-12KT 6000 HZ FEW040 FEW100 40/25 Q1002.9=
####018000078####
SABR31 TBPB 081100
METAR TBPB 081100Z 08021KT 9999 BKN014 29/24 Q1013 NOSIG=####018000089####
SADL31 KWBC 081050 RRA
METAR
EDHL 081050Z 16007KT 120V200 CAVOK 28/13 Q1019 RMK N=
####018000230####
SADL32 KWBC 081050 RRA
METAR
EDLN 081050Z 21005KT 140V280 CAVOK 30/11 Q1019 RMK ATIS M=
EDLP 081050Z VRB04KT CAVOK 29/11 Q1020 RMK RWY24 TRL60 JP ATIS
     R=
EDLW 081050Z 20006KT 140V250 CAVOK 30/09 Q1020 RMK ATIS P=
####018000144####
SADL33 KWBC 081045 RRC
METAR
EDNY 081050Z 19006KT CAVOK 25/15 Q1022 RMK ATIS O=
EDXW 081050Z 22012KT CAVOK 23/12 Q1019 RMK ATIS INFO U=
####018000937####
SAGR31 KWBC 081050 RRA
METAR
LGAD 081050Z 31011KT 9999 FEW020 27/18 Q1014=
LGAL 081050Z NIL=
LGAV 081050Z 02016KT 9999 SCT030 28/10 Q1012 NOSIG=
LGEL 081050Z 34013G23KT CAVOK 27/12 Q1011=
LGIR 081050Z 36006KT 9999 FEW020 29/24 Q1011 NOSIG=
LGKF 081050Z 33016KT 9999 FEW025 27/14 Q1014=
LGKL 081050Z 33009KT 9999 FEW030 33/11 Q1011=
LGKO 081050Z 31017KT CAVOK 30/18 Q1009=
LGKR 081050Z 32018KT CAVOK 28/12 Q1013 NOSIG=
LGKV 081050Z 16006KT 9999 FEW020CB SCT025TCU BKN100 22/13
     Q1013=
LGLM 081050Z 06013KT 9999 FEW008 BKN020 21/16 Q1013=
LGMT 081050Z 36012KT 9999 FEW025 BKN120 26/19 Q1011=
LGRP 081050Z 25015KT CAVOK 30/18 Q1008 NOSIG=
LGSA 081050Z 29008KT 9999 FEW020 33/14 Q1011=
LGSM 081050Z 35012KT 9999 FEW020 31/14 Q1010=
LGSR 081050Z 35017KT 9999 FEW020 27/19 Q1011 NOSIG=
LGSR 081050Z 35017KT 9999 FEW020 27/19 Q1011 NOSIG BLU=
LGTS 081050Z 34019G29KT 9999 SCT025 24/12 Q1016 NOSIG=
####018000442####
SAGR41 KWBC 081050 RRA
METAR
LGKP 081050Z 33028KT CAVOK 29/16 Q1009=
LGKZ 081050Z 31012KT 9999 FEW020 SCT070 21/07 Q1018=
LGMK 081050Z 35021KT 9999 FEW012 24/17 Q1012=
LGPZ 081050Z 25012KT 9999 FEW025 27/18 Q1013 NOSIG=
LGPZ 081050Z 25012KT 9999 FEW025 27/18 Q1013 NOSIG BLU=
LGRX 081050Z 27013KT 9999 FEW025 28/16 Q1012 NOSIG BLU=
LGRX 081050Z 27013KT 9999 FEW025 28/16 Q1012 NOSIG=
LGSK 081050Z NIL=
LGZA 081050Z NIL=
####018000247####
SAMX31 KWBC 081045 RRD
METAR
MMGL 081046Z 00000KT 10SM SCT010 OVC080 18/15 A3003 RMK 60746
     8/57/ RAE20=
MMMZ 081049Z 00000KT 10SM SCT070 OVC200 27/22 A2975 RMK 8/077=
MMPR 081046Z 00000KT 12SM SCT025 BKN070 25/23 A2980 RMK 8/470=
####018000094####
SAMX42 KWBC 081045 RRB
METAR
MMTJ 081043Z 00000KT 5SM OVC013 16/14 A2993 RMK 8/5// HZY=
####018000419####
SAMX41 KWBC 081045 RRD
METAR
MMGL 081046Z 00000KT 10SM SCT010 OVC080 18/15 A3003 RMK 60746
     8/57/ RAE20=
MMHO 081045Z 00000KT 10SM BKN080 27/18 A2979 RMK 8/050 HZY=
MMML 081046Z 15010KT 10SM SKC 22/// A2969=
MMML 081046Z 15010KT 10SM SKC 22/// A2969 METAR MMMZ 081049Z
     00000KT 10SM SCT070 OVC200 27/22 A2975 RMK 8/077=
MMNL 081056Z 00000KT 8SM SCT010 OVC022 28/24 A2988 RMK 8/5//
     RTS=
####018000362####
SANL31 KWBC 081050 RRB
METAR
EHAM 081055Z 29008KT 250V320 CAVOK 23/16 Q1019 NOSIG=
EHBK 081055Z AUTO VRB04KT 9999NDV NCD 29/11 Q1019 NOSIG=
EHGG 081055Z AUTO 27011KT 230V310 9999NDV NSC 26/13 Q1019
     NOSIG=
EHKD 081055Z AUTO 25008KT 9999NDV FEW068/// BKN077/// 21/16 Q1019
     BLU BLU=
EHRD 081055Z 30005KT 240V030 CAVOK 24/16 Q1019 NOSIG=
####018000116####
SAHW31 KMSC 081059
METAR PHNY 081056Z AUTO 00000KT 10SM CLR 19/17 A3008 RMK AO2 TSNO 
    T01880166 SLP166 $=
