####018000735####
SAUS99 KWBC 081345 RRA
METAR
KIPJ 081340Z AUTO 36005KT 10SM CLR 30/20 A3004 RMK AO2
     T02960199=
KIXA 081340Z AUTO 07007KT 10SM CLR 30/21 A2998 RMK AO2
     T02970209=
KJES 081340Z AUTO 30006KT 10SM CLR 28/24 A3001 RMK AO2
     T02800240=
KJGG 081340Z AUTO 10004KT 10SM BKN018 31/24 A3002 RMK AO1=
KJKA 081340Z AUTO 00000KT 10SM CLR 31/27 A3004 RMK AO2
     T03130266=
KJYO 081340Z AUTO 00000KT 7SM CLR 31/22 A3003 RMK AO2=
KLDJ 081340Z AUTO 12006KT 4SM HZ SCT008 BKN014 OVC035 27/24 A3005
     RMK AO2 T02650236=
KLGC 081335Z AUTO 00000KT 10SM CLR 29/25 A3005 RMK AO1=
KLHZ 081340Z AUTO 07006KT 10SM CLR 31/20 A3000 RMK AO2
     T03070197=
KLKU 081340Z AUTO 04004KT 7SM CLR 31/21 A3002 RMK AO2=
####018003747####
SAUS99 KWBC 081345
METAR
PAKF 081342Z AUTO 00000KT 10SM OVC013 08/07 A2988 RMK AO2 SLP213
     T00830067=
KLNP 081338Z AUTO 04005KT 10SM CLR 26/19 A3020 RMK AO1=
KLOM 081340Z AUTO 13005KT 7SM CLR 29/23 A3004 RMK AO1
     T02920225=
KLWB 081341Z AUTO 00000KT 7SM SCT060 26/18 A3018 RMK AO2=
KMDQ 081340Z AUTO 36004KT 10SM CLR 29/22 A3009 RMK AO2
     T02850220=
KMFV 081342Z AUTO 08007KT 10SM CLR 26/22 A3002 RMK AO2=
KMGR 081340Z AUTO 30004KT 10SM CLR 29/20 A3005 RMK AO2=
KMKJ 081340Z AUTO 00000KT 10SM CLR 27/11 A3022 RMK AO1=
KMQS 081340Z AUTO 17004KT 9SM CLR 28/22 A3007 RMK AO2=
KMRN 081340Z AUTO 00000KT 10SM SCT085 27/17 A3012 RMK AO2=
KMTV 081340Z AUTO 01003KT 7SM CLR 31/21 A3006 RMK AO2=
KOBE 081341Z AUTO 07005KT 10SM CLR 28/22 A3000 RMK AO2=
KONX 081340Z AUTO 03008KT 10SM CLR 28/22 A2999 RMK AO2
     T02800219=
KOPN 081340Z AUTO 00000KT 10SM CLR 30/24 A3006 RMK AO1=
KPCM 081340Z AUTO 00000KT 10SM CLR 28/22 A3004 RMK AO2=
KPGV 081341Z AUTO 04006KT 5SM HZ SCT013 SCT110 27/23 A2999 RMK
     AO2=
KPSK 081342Z AUTO 33003KT 7SM CLR 29/17 A3016 RMK AO2=
KPTB 081342Z AUTO 08006KT 7SM CLR 30/23 A3000 RMK AO2=
KRCZ 081340Z AUTO 34004KT 10SM CLR 30/20 A2998 RMK AO2
     T02960204=
KRHP 081344Z AUTO 00000KT 10SM CLR 24/19 A3014 RMK AO2=
KSIF 081340Z AUTO 36005KT 7SM CLR 32/21 A3003 RMK AO2=
KSVH 081340Z AUTO 03004KT 7SM CLR 30/19 A3006 RMK AO2
     T03000186=
KTBR 081340Z AUTO 30005KT 10SM CLR 29/21 A3000 RMK AO2
     T02890205=
KTDF 081342Z AUTO 03003KT 7SM CLR 29/19 A3003 RMK AO1=
KTPF 081340Z AUTO 06003KT 10SM CLR 27/23 A3002 RMK AO2=
KVDI 081342Z AUTO 29003KT 10SM CLR 31/20 A3002 RMK AO1=
KVJI 081342Z AUTO 00000KT 7SM CLR A3015 RMK AO2=
KVUJ 081339Z AUTO 00000KT 10SM SCT075 SCT110 30/20 A2999 RMK
     AO2=
KVVG 081335Z AUTO 00000KT 27/22 A3002 RMK AO2=
KW45 081340Z AUTO 00000KT 7SM CLR 30/20 A3006 RMK AO2
     T03020195=
K3A1 081340Z AUTO 02004KT 10SM CLR 29/24 A3012 RMK AO2
     T02860242=
K4A9 081340Z AUTO 07005KT 10SM CLR 28/20 A3008 RMK AO2
     T02830197=
K4R4 081340Z AUTO 00000KT 7SM CLR 30/25 A3005 RMK AO2
     T02970254=
K8A0 081339Z AUTO 01004KT 10SM CLR 29/20 A3009 RMK AO2=
KAFP 081340Z AUTO 02005KT 10SM CLR 30/19 A2999 RMK AO2
     T02950187=
KALX 081340Z AUTO 00000KT 10SM CLR 31/22 A3006 RMK AO1=
KCDH 081340Z AUTO 00000KT 8SM SCT005 SCT080 24/24 A3008 RMK
     AO2=
KCPC 081340Z AUTO 05006KT 7SM CLR 29/23 A2995 RMK AO2
     T02900225=
KCWV 081350Z AUTO 30007KT 10SM CLR 31/22 A3001 RMK AO2=
KDBN 081340Z AUTO 31005KT 10SM CLR 31/20 A3001 RMK AO1=
KDNN 081338Z AUTO 00000KT 10SM CLR 26/21 A3007 RMK AO2=
KDQH 081340Z AUTO 29003KT 10SM CLR 30/18 A3003 RMK AO1=
KDRI 081340Z AUTO 07006KT 10SM BKN006 BKN013 26/26 A3005 RMK
     AO2=
KEHO 081340Z AUTO 01003KT 10SM CLR 29/19 A3004 RMK AO2
     T02920194=
KEYF 081340Z AUTO 00000KT 7SM CLR 29/22 A2996 RMK AO2
     T02930216=
KF24 081339Z AUTO 10SM BKN095 27/24 A3010 RMK AO2 T02650240=
KFFA 081338Z AUTO 06006KT 10SM CLR 27/22 A2997 RMK AO2
     T02700218=
KFKN 081340Z AUTO 08006KT 10SM SCT014 BKN020 29/24 A3000 RMK
     AO1=
KGHG 081340Z AUTO 10010KT 10SM CLR 26/22 A3011 RMK AO2=
KGWW 081340Z AUTO 04007KT 5SM HZ SCT080 29/22 A2998 RMK AO2
     T02880219=
KHDC 081342Z AUTO 09004KT 10SM CLR 29/27 A3006 RMK AO2=
KHLX 081341Z AUTO 02003KT 7SM CLR 27/23 A3018 RMK AO2=
KHNZ 081340Z AUTO 06006KT 7SM SCT110 30/21 A3001 RMK AO2
     T03000205=
KHOE 081339Z AUTO 32006KT 10SM CLR 27/23 A3003 RMK AO2
     T02730227=
KHSP 081340Z AUTO 07006KT 10SM SCT050 26/17 A3027 RMK AO2=
KHWY 081340Z AUTO 10003KT 7SM BKN110 30/22 A3002 RMK AO2=
KIDI 081340Z AUTO 00000KT 10SM CLR 27/21 A3011 RMK AO2=
####018000303####
SPUS99 KWBC 081345
SPECI
KCSM 081342Z 02008KT 10SM FEW008 23/21 A3013 RMK AO2 LTG DSNT SW
     RAB1258E27 P0000=
KJLN 081343Z 32003KT 1SM VCTS BR BKN004 BKN017 OVC033 22/22 A3009
     RMK AO2 P0024=
KLAA 081343Z AUTO 13007KT 10SM -RA FEW005 BKN011 OVC017 17/16
     A3029 RMK AO2 P0001=
####018000096####
SAGB20 GBYD 081300

SPECI GBYD 081305 25007KT 9999 SCT011 FEW018CB BKN120 TS AT SE OF
STN=
####018000131####
SPJP31 KWBC 081345
SPECI
RJCC 081341Z 19005KT 1400 R01L/1200VP1800D R01R/0900N -DZ BR
BKN002 17/16 Q1010 RMK 7ST002 A2985=
####018000136####
SPJP31 KWBC 081345
SPECI
RJCC 081337Z 18004KT 1500 R01L/1400VP1800D R01R/0800V1400D -DZ BR
BKN002 17/17 Q1011 RMK 7ST002 A2985=
####018000136####
SPJP31 KWBC 081345
SPECI
RJCC 081334Z 18004KT 1500 R01L/1400VP1800D R01R/0800V1400D -DZ BR
BKN002 17/17 Q1011 RMK 7ST002 A2985=
####018000113####
SPJP31 KWBC 081345
SPECI
RODN 081340Z AUTO 17010KT 9999 SCT016 SCT023 BKN200 29/26 A2987
RMK AO2 SLP115=
####018000113####
SPXX62 KWBC 081345
SPECI
RODN 081340Z AUTO 17010KT 9999 SCT016 SCT023 BKN200 29/26 A2987
RMK AO2 SLP115=
####018000137####
SPXX62 KWBC 081345
SPECI
RKSO 081338Z AUTO 00000KT 9999 -DZ CLR 22/22 A2981 RMK AO2
RAB1254E1329DZE1254B1310E1312B1329 SLP094 $=
####018000082####
SAUS41 KWBC 081300 RRI
METAR
KCTZ 081340Z AUTO 04006KT 7SM CLR 31/22 A2997=
####018000083####
SAUS42 KWBC 081300 RRE
METAR
KBQK 081337Z AUTO 29008KT 10SM CLR 28/23 A3002=
####018000091####
SPUS42 KWBC 081345
SPECI
KHRL 081342Z 35011KT 10SM FEW008 SCT012 BKN021 26/26 A2978=
####018000083####
SAUS52 KWBC 081300 RRE
METAR
KAYS 081340Z AUTO 29005KT 10SM CLR 28/23 A3002=
####018000083####
SAUS53 KWBC 081300 RRJ
METAR
KJNX 081339Z AUTO 36006KT 10SM CLR 29/21 A2997=
####018000083####
SAUS54 KWBC 081300 RRG
METAR
KJNX 081339Z AUTO 36006KT 10SM CLR 29/21 A2997=
####018000083####
SAUS72 KWBC 081300 RRH
METAR
KBQK 081337Z AUTO 29008KT 10SM CLR 28/23 A3002=
####018000091####
SPUS72 KWBC 081345
SPECI
KHRL 081342Z 35011KT 10SM FEW008 SCT012 BKN021 26/26 A2978=
####018000094####
SPNA35 KAWN 081345 RRD
SPECI KBRO 081338Z 31006KT 10SM SCT005 BKN060 26/25 A2978 RMK AO2=
####018001764####
SAUS20 KNKA 081345
METAR KUXL 081340Z AUTO 07007KT 10SM OVC007 27/26 A3002 RMK AO2=
METAR KCLS 081335Z AUTO 00000KT 10SM CLR 13/12 A2998 RMK AO2 =
SPECI KCNO 081344Z 22004KT 2 1/2SM BR OVC009 15/13 A2993 RMK AO2=
SPECI KEWB 081344Z 13006KT 10SM SCT010 BKN018 27/22 A3009 RMK AO2=
METAR KGAO 081340Z AUTO 07005KT CLR 30/25 A3003 RMK AO2 PWINO=
SPECI KGUY 081344Z AUTO 35007KT 10SM -RA BKN011 BKN021 OVC027 19/17 
    A3023 RMK AO2 RAB35 CIG 008V013 P0000=
METAR KGZL 081335Z AUTO 17004KT 10SM BKN027 OVC047 25/23 A3006 RMK 
     AO2 =
METAR KIER 081340Z AUTO 11005KT 10SM SCT110 27/26 A3006 RMK AO2 
     PWINO=
SPECI KIRK 081344Z AUTO 01007KT 10SM FEW008 23/21 A3010 RMK AO2=
SPECI KIZG 081344Z AUTO 08005KT 7SM OVC016 26/21 A3010 RMK AO2=
METAR KJFZ 081340Z AUTO 01003KT 8SM CLR 25/21 A3018 RMK=
METAR KOCW 081341Z AUTO 05007KT 10SM CLR 28/23 A2997 RMK AO2=
METAR KOKV 081340Z AUTO 04003KT 10SM SCT075 SCT085 31/17 A3005 
     RMK AO2 T03130173=
METAR KOMH 081340Z AUTO 33006KT 7SM CLR 30/23 A3004 RMK AO2 
     T03000226=
METAR KRMN 081340Z AUTO 13004KT 5SM BR SCT014 SCT090 SCT120 28/26 
     A3005 RMK AO2=
METAR KRUQ 081342Z AUTO 35003KT 7SM CLR 28/21 A3003 RMK AO2=
METAR KSFQ 081340Z AUTO 05003KT 10SM CLR 27/24 A3000 RMK AO2=
METAR KSHD 081340Z AUTO 00000KT 7SM CLR 29/19 A3009 RMK AO2=
METAR KVDF 081336Z AUTO 06003KT 10SM CLR 28/23 A3002 RMK AO2=
METAR KW22 081340Z AUTO 00000KT 9SM CLR 27/20 A3014 RMK AO2=
METAR KW99 081340Z AUTO 00000KT 10SM SCT085 28/17 A3009 RMK AO2=
METAR KWDR 081340Z AUTO 01003KT 10SM CLR 29/21 A3008 RMK AO1=
METAR KXLL 081340Z AUTO 16004KT 7SM CLR 29/23 A3005 RMK AO2 
     T02910233=
METAR KXSA 081340Z AUTO 07009KT 10SM SCT016 30/23 A3001 RMK AO2 
     PWINO=
####018000117####
SAUS44 KMAF 081345
MTRNFW
SPECI KNFW 081327Z COR 13007KT 10SM SCT012 BKN024 27/22 A3008 RMK 
RAE20 P0000 AO2
####018000119####
SAUS44 KCRP 081345
MTRVCT
SPECI KVCT 081344Z 03008KT 4SM -RA BR BKN022 BKN028 25/24 A2992 RMK 
AO2 RAB37 P0000
####018000115####
SPUS90 KWBC 081346
SPECI KVCT 081344Z 03008KT 4SM -RA BR BKN022 BKN028 25/24 A2992
     RMK AO2 RAB37 P0000=
####018001264####
SAUS99 KWBC 081346
METAR
KUXL 081340Z AUTO 07007KT 10SM OVC007 27/26 A3002 RMK AO2=
KCLS 081335Z AUTO 00000KT 10SM CLR 13/12 A2998 RMK AO2=
KGAO 081340Z AUTO 07005KT CLR 30/25 A3003 RMK AO2 PWINO=
KGZL 081335Z AUTO 17004KT 10SM BKN027 OVC047 25/23 A3006 RMK
     AO2=
KIER 081340Z AUTO 11005KT 10SM SCT110 27/26 A3006 RMK AO2
     PWINO=
KJFZ 081340Z AUTO 01003KT 8SM CLR 25/21 A3018 RMK=
KOCW 081341Z AUTO 05007KT 10SM CLR 28/23 A2997 RMK AO2=
KOKV 081340Z AUTO 04003KT 10SM SCT075 SCT085 31/17 A3005 RMK AO2
     T03130173=
KOMH 081340Z AUTO 33006KT 7SM CLR 30/23 A3004 RMK AO2
     T03000226=
KRMN 081340Z AUTO 13004KT 5SM BR SCT014 SCT090 SCT120 28/26 A3005
     RMK AO2=
KRUQ 081342Z AUTO 35003KT 7SM CLR 28/21 A3003 RMK AO2=
KSFQ 081340Z AUTO 05003KT 10SM CLR 27/24 A3000 RMK AO2=
KSHD 081340Z AUTO 00000KT 7SM CLR 29/19 A3009 RMK AO2=
KVDF 081336Z AUTO 06003KT 10SM CLR 28/23 A3002 RMK AO2=
KW22 081340Z AUTO 00000KT 9SM CLR 27/20 A3014 RMK AO2=
KW99 081340Z AUTO 00000KT 10SM SCT085 28/17 A3009 RMK AO2=
KWDR 081340Z AUTO 01003KT 10SM CLR 29/21 A3008 RMK AO1=
KXLL 081340Z AUTO 16004KT 7SM CLR 29/23 A3005 RMK AO2
     T02910233=
KXSA 081340Z AUTO 07009KT 10SM SCT016 30/23 A3001 RMK AO2
     PWINO=
####018000385####
SPUS99 KWBC 081346
SPECI
KCNO 081344Z 22004KT 2 1/2SM BR OVC009 15/13 A2993 RMK AO2=
KEWB 081344Z 13006KT 10SM SCT010 BKN018 27/22 A3009 RMK AO2=
KGUY 081344Z AUTO 35007KT 10SM -RA BKN011 BKN021 OVC027 19/17
     A3023 RMK AO2 RAB35 CIG 008V013 P0000=
KIRK 081344Z AUTO 01007KT 10SM FEW008 23/21 A3010 RMK AO2=
KIZG 081344Z AUTO 08005KT 7SM OVC016 26/21 A3010 RMK AO2=
####018000095####
SACN85 KWBC 081346
METAR CWEF 081340Z AUTO 12009KT 14/13 RMK AO1 SLP186 T01420127
53004=
####018000377####
SPXX60 KWBC 081346
SPECI
KHLR 081339Z AUTO 06006KT 9SM SCT009 BKN018 OVC039 26/ A3002 RMK
     AO2 RAE04 P0000 T0261 $=
KRND 081341Z 06007KT 5SM -RA BR OVC008 25/24 A2996 RMK AO2A
     RAB1327DZB1338E1340 SLP136=
KSZL 081334Z 03006KT 10SM SCT006 24/23 A3008 RMK AO2A SLP179 $=
KNFW 081327Z COR 13007KT 10SM SCT012 BKN024 27/22 A3008 RMK RAE20
     P0000 AO2=
####018003696####
SAUS70 KWBC 081346
METAR
KLNP 081338Z AUTO 04005KT 10SM CLR 26/19 A3020 RMK AO1=
KLOM 081340Z AUTO 13005KT 7SM CLR 29/23 A3004 RMK AO1
     T02920225=
KLWB 081341Z AUTO 00000KT 7SM SCT060 26/18 A3018 RMK AO2=
KMDQ 081340Z AUTO 36004KT 10SM CLR 29/22 A3009 RMK AO2
     T02850220=
KMFV 081342Z AUTO 08007KT 10SM CLR 26/22 A3002 RMK AO2=
KMGR 081340Z AUTO 30004KT 10SM CLR 29/20 A3005 RMK AO2=
KMKJ 081340Z AUTO 00000KT 10SM CLR 27/11 A3022 RMK AO1=
KMQS 081340Z AUTO 17004KT 9SM CLR 28/22 A3007 RMK AO2=
KMRN 081340Z AUTO 00000KT 10SM SCT085 27/17 A3012 RMK AO2=
KMTV 081340Z AUTO 01003KT 7SM CLR 31/21 A3006 RMK AO2=
KOBE 081341Z AUTO 07005KT 10SM CLR 28/22 A3000 RMK AO2=
KONX 081340Z AUTO 03008KT 10SM CLR 28/22 A2999 RMK AO2
     T02800219=
KOPN 081340Z AUTO 00000KT 10SM CLR 30/24 A3006 RMK AO1=
KPCM 081340Z AUTO 00000KT 10SM CLR 28/22 A3004 RMK AO2=
KPGV 081341Z AUTO 04006KT 5SM HZ SCT013 SCT110 27/23 A2999 RMK
     AO2=
KPSK 081342Z AUTO 33003KT 7SM CLR 29/17 A3016 RMK AO2=
KPTB 081342Z AUTO 08006KT 7SM CLR 30/23 A3000 RMK AO2=
KRCZ 081340Z AUTO 34004KT 10SM CLR 30/20 A2998 RMK AO2
     T02960204=
KRHP 081344Z AUTO 00000KT 10SM CLR 24/19 A3014 RMK AO2=
KSIF 081340Z AUTO 36005KT 7SM CLR 32/21 A3003 RMK AO2=
KSVH 081340Z AUTO 03004KT 7SM CLR 30/19 A3006 RMK AO2
     T03000186=
KTBR 081340Z AUTO 30005KT 10SM CLR 29/21 A3000 RMK AO2
     T02890205=
KTDF 081342Z AUTO 03003KT 7SM CLR 29/19 A3003 RMK AO1=
KTPF 081340Z AUTO 06003KT 10SM CLR 27/23 A3002 RMK AO2=
KVDI 081342Z AUTO 29003KT 10SM CLR 31/20 A3002 RMK AO1=
KVJI 081342Z AUTO 00000KT 7SM CLR A3015 RMK AO2=
KVUJ 081339Z AUTO 00000KT 10SM SCT075 SCT110 30/20 A2999 RMK
     AO2=
KVVG 081335Z AUTO 00000KT 27/22 A3002 RMK AO2=
KW45 081340Z AUTO 00000KT 7SM CLR 30/20 A3006 RMK AO2
     T03020195=
K3A1 081340Z AUTO 02004KT 10SM CLR 29/24 A3012 RMK AO2
     T02860242=
K4A9 081340Z AUTO 07005KT 10SM CLR 28/20 A3008 RMK AO2
     T02830197=
K4R4 081340Z AUTO 00000KT 7SM CLR 30/25 A3005 RMK AO2
     T02970254=
K8A0 081339Z AUTO 01004KT 10SM CLR 29/20 A3009 RMK AO2=
KAFP 081340Z AUTO 02005KT 10SM CLR 30/19 A2999 RMK AO2
     T02950187=
KALX 081340Z AUTO 00000KT 10SM CLR 31/22 A3006 RMK AO1=
KCDH 081340Z AUTO 00000KT 8SM SCT005 SCT080 24/24 A3008 RMK
     AO2=
KCPC 081340Z AUTO 05006KT 7SM CLR 29/23 A2995 RMK AO2
     T02900225=
KDNN 081338Z AUTO 00000KT 10SM CLR 26/21 A3007 RMK AO2=
KDQH 081340Z AUTO 29003KT 10SM CLR 30/18 A3003 RMK AO1=
KDRI 081340Z AUTO 07006KT 10SM BKN006 BKN013 26/26 A3005 RMK
     AO2=
KEHO 081340Z AUTO 01003KT 10SM CLR 29/19 A3004 RMK AO2
     T02920194=
KEYF 081340Z AUTO 00000KT 7SM CLR 29/22 A2996 RMK AO2
     T02930216=
KF24 081339Z AUTO 10SM BKN095 27/24 A3010 RMK AO2 T02650240=
KFFA 081338Z AUTO 06006KT 10SM CLR 27/22 A2997 RMK AO2
     T02700218=
KFKN 081340Z AUTO 08006KT 10SM SCT014 BKN020 29/24 A3000 RMK
     AO1=
KGHG 081340Z AUTO 10010KT 10SM CLR 26/22 A3011 RMK AO2=
KGWW 081340Z AUTO 04007KT 5SM HZ SCT080 29/22 A2998 RMK AO2
     T02880219=
KHDC 081342Z AUTO 09004KT 10SM CLR 29/27 A3006 RMK AO2=
KHLX 081341Z AUTO 02003KT 7SM CLR 27/23 A3018 RMK AO2=
KHNZ 081340Z AUTO 06006KT 7SM SCT110 30/21 A3001 RMK AO2
     T03000205=
KHOE 081339Z AUTO 32006KT 10SM CLR 27/23 A3003 RMK AO2
     T02730227=
KHSP 081340Z AUTO 07006KT 10SM SCT050 26/17 A3027 RMK AO2=
KHWY 081340Z AUTO 10003KT 7SM BKN110 30/22 A3002 RMK AO2=
KIDI 081340Z AUTO 00000KT 10SM CLR 27/21 A3011 RMK AO2=
KIPJ 081340Z AUTO 36005KT 10SM CLR 30/20 A3004 RMK AO2
     T02960199=
KIXA 081340Z AUTO 07007KT 10SM CLR 30/21 A2998 RMK AO2
     T02970209=
####018000508####
SPUS70 KWBC 081346
SPECI
KCSM 081342Z 02008KT 10SM FEW008 23/21 A3013 RMK AO2 LTG DSNT SW
     RAB1258E27 P0000=
KLAA 081343Z AUTO 13007KT 10SM -RA FEW005 BKN011 OVC017 17/16
     A3029 RMK AO2 P0001=
KCNO 081344Z 22004KT 2 1/2SM BR OVC009 15/13 A2993 RMK AO2=
KEWB 081344Z 13006KT 10SM SCT010 BKN018 27/22 A3009 RMK AO2=
KGUY 081344Z AUTO 35007KT 10SM -RA BKN011 BKN021 OVC027 19/17
     A3023 RMK AO2 RAB35 CIG 008V013 P0000=
KIZG 081344Z AUTO 08005KT 7SM OVC016 26/21 A3010 RMK AO2=
####018000087####
SAUS70 KWBC 081400
METAR
KCWV 081350Z AUTO 30007KT 10SM CLR 31/22 A3001 RMK AO2=
####018000135####
SAMX51 MMMX 081345
METAR MMPA 081345Z RTD 34004KT 5SM SCT030 SCT070 BKN280 27/24 A2987
      RMK 8/133 HZY DSNT CB, TCU 1,2 QUAD=
####018001820####
SAUS70 KWBC 081346 RRA
METAR
KJES 081340Z AUTO 30006KT 10SM CLR 28/24 A3001 RMK AO2
     T02800240=
KJGG 081340Z AUTO 10004KT 10SM BKN018 31/24 A3002 RMK AO1=
KJKA 081340Z AUTO 00000KT 10SM CLR 31/27 A3004 RMK AO2
     T03130266=
KJYO 081340Z AUTO 00000KT 7SM CLR 31/22 A3003 RMK AO2=
KLDJ 081340Z AUTO 12006KT 4SM HZ SCT008 BKN014 OVC035 27/24 A3005
     RMK AO2 T02650236=
KLGC 081335Z AUTO 00000KT 10SM CLR 29/25 A3005 RMK AO1=
KLHZ 081340Z AUTO 07006KT 10SM CLR 31/20 A3000 RMK AO2
     T03070197=
KLKU 081340Z AUTO 04004KT 7SM CLR 31/21 A3002 RMK AO2=
KUXL 081340Z AUTO 07007KT 10SM OVC007 27/26 A3002 RMK AO2=
KCLS 081335Z AUTO 00000KT 10SM CLR 13/12 A2998 RMK AO2=
KGAO 081340Z AUTO 07005KT CLR 30/25 A3003 RMK AO2 PWINO=
KGZL 081335Z AUTO 17004KT 10SM BKN027 OVC047 25/23 A3006 RMK
     AO2=
KIER 081340Z AUTO 11005KT 10SM SCT110 27/26 A3006 RMK AO2
     PWINO=
KJFZ 081340Z AUTO 01003KT 8SM CLR 25/21 A3018 RMK=
KOCW 081341Z AUTO 05007KT 10SM CLR 28/23 A2997 RMK AO2=
KOKV 081340Z AUTO 04003KT 10SM SCT075 SCT085 31/17 A3005 RMK AO2
     T03130173=
KOMH 081340Z AUTO 33006KT 7SM CLR 30/23 A3004 RMK AO2
     T03000226=
KRMN 081340Z AUTO 13004KT 5SM BR SCT014 SCT090 SCT120 28/26 A3005
     RMK AO2=
KRUQ 081342Z AUTO 35003KT 7SM CLR 28/21 A3003 RMK AO2=
KSFQ 081340Z AUTO 05003KT 10SM CLR 27/24 A3000 RMK AO2=
KSHD 081340Z AUTO 00000KT 7SM CLR 29/19 A3009 RMK AO2=
KVDF 081336Z AUTO 06003KT 10SM CLR 28/23 A3002 RMK AO2=
KW22 081340Z AUTO 00000KT 9SM CLR 27/20 A3014 RMK AO2=
KW99 081340Z AUTO 00000KT 10SM SCT085 28/17 A3009 RMK AO2=
KWDR 081340Z AUTO 01003KT 10SM CLR 29/21 A3008 RMK AO1=
KXLL 081340Z AUTO 16004KT 7SM CLR 29/23 A3005 RMK AO2
     T02910233=
KXSA 081340Z AUTO 07009KT 10SM SCT016 30/23 A3001 RMK AO2
     PWINO=
####018000087####
SAUS80 KWBC 081346
METAR
KDBN 081340Z AUTO 31005KT 10SM CLR 31/20 A3001 RMK AO1=
####018000268####
SPUS80 KWBC 081346
SPECI
KJLN 081343Z 32003KT 1SM VCTS BR BKN004 BKN017 OVC033 22/22 A3009
     RMK AO2 P0024=
KIRK 081344Z AUTO 01007KT 10SM FEW008 23/21 A3010 RMK AO2=
KVCT 081344Z 03008KT 4SM -RA BR BKN022 BKN028 25/24 A2992 RMK AO2
     RAB37 P0000=
####018000107####
SAAO33 KWBC 081300 RRE
METAR
GBYD 081305 25007KT 9999 SCT011 FEW018CB BKN120 TS AT SE OF
     STN=
####018000075####
SAGR41 KWBC 081320 RRB
METAR
LGZA 081320Z 32017KT CAVOK 29/10 Q1012=
####018000090####
SPUS52 KWBC 081346
SPECI
KVCT 081344Z 03008KT 4SM -RA BR BKN022 BKN028 25/24 A2992=
####018000098####
SPUS53 KWBC 081346
SPECI
KJLN 081343Z 32003KT 1SM VCTS BR BKN004 BKN017 OVC033 22/22 A3009=
####018000090####
SPUS72 KWBC 081346
SPECI
KVCT 081344Z 03008KT 4SM -RA BR BKN022 BKN028 25/24 A2992=
####018000098####
SPUS73 KWBC 081346
SPECI
KJLN 081343Z 32003KT 1SM VCTS BR BKN004 BKN017 OVC033 22/22 A3009=
####018000098####
SPUS81 KWBC 081346
SPECI
KJLN 081343Z 32003KT 1SM VCTS BR BKN004 BKN017 OVC033 22/22 A3009=
####018000423####
SAIN32 VIDP 081330
METAR VIJP 081330Z 29005KT 3000 HZ SCT030 BKN090 31/26 Q1005 NOSIG=
METAR VIDP 081330Z 02004KT 2300 HZ SCT030 FEW040CB BKN100 33/27 Q1003
    TEMPO 36030KT 1500 TSRA=
METAR VILK 081330Z VRB02KT 5000 HZ SCT020 SCT025 FEW030CB
    BKN090 34/24 Q1001 TEMPO 1500 TSRA SHRA=
METAR VIAR 081330Z 20007KT 6000 FEW040 SCT100 36/24 Q1003=
METAR VIBN 081330Z 07005KT 6000 SCT025 SCT100 37/22 Q1001=
####018000192####
SAXN17 KAWN 081300 RRK
METAR MMML 081340Z 12006KT 12SM SKC 25/14 A2972 RMK SC-ST-NE RTS=
METAR PKWA 081340Z AUTO 13005KT 10SM BKN026 BKN034 OVC065 26/23 A2983
      RMK AO2 T02590233=
####018000230####
SAZZ40 KAWN 081300 RRW
METAR OKBK 081330Z 34018KT 6000 -BLDU SKC 47/M07 Q0998 NOSIG=
METAR WMKK 081330Z 15001KT 9999 FEW030 BKN280 27/25 Q1010 NOSIG=
METAR WMKP 081330Z 29002KT 9000 FEW025 SCT140 BKN270 29/24 Q1010 NOSIG=
####018000090####
SPUS81 KWBC 081346
SPECI
KVCT 081344Z 03008KT 4SM -RA BR BKN022 BKN028 25/24 A2992=
####018000256####
SAUS20 KNKA 081346
SPECI KGKY 081344Z 12003KT 10SM SCT008 BKN055 26/24 A3005 RMK AO2=
SPECI KINK 081345Z AUTO 05006KT 10SM BKN024 BKN090 23/20 A3011 RMK 
    AO2 RAB1255E09 P0000 TSNO=
METAR KMMU 081345Z 14009KT 3SM HZ BKN013 OVC025 27/23 A3005=
####018000138####
SPXX70 KAWN 081300 RRC
SPECI KQAY 081339Z AUTO 01017G24KT 6000 FEW022 BKN028 47/M02 A2949
      RMK AO2 PK WND 35027/1312 SLP983 $=
####018000104####
SAAK41 KNKA 081346
SPECI PALG 081342Z AUTO 00000KT 1 1/2SM BR CLR 06/06 A2999 RMK AO2 
    TSNO =
####018000924####
SAUS20 KNKA 081346
METAR KCGF 081345Z 23007KT 10SM FEW075 32/18 A3007=
SPECI KDAL 081346Z 11006KT 10SM BKN012 BKN037 OVC049 26/24 A3004 RMK 
    AO2 RAE11 CIG 009V016 P0000=
SPECI KDDC 081345Z AUTO 01010KT 7SM OVC005 18/17 A3020 RMK AO2=
SPECI KEWR 081345Z 21007KT 7SM SCT008 BKN014 OVC025 27/24 A3005 RMK 
    AO2 SCT V BKN HAZE ALOFT=
METAR KHQU 081343Z AUTO 00000KT 10SM CLR 29/19 A3006 RMK AO1=
SPECI KMLT 081345Z AUTO VRB06KT 6SM HZ OVC015 24/21 A3007 RMK AO2=
SPECI KMSY 081345Z 09006KT 10SM SCT019 BKN027 29/24 A3004 RMK AO2=
SPECI KOSH 081345Z 30008KT 10SM OVC013 23/20 A3001 RMK AO2=
SPECI KPNC 081345Z AUTO 01007KT 10SM BKN011 BKN042 24/22 A3008 RMK 
    AO2=
SPECI KRKP 081345Z AUTO 13005KT 1 1/4SM -RA BKN023 BKN033 OVC044 
    A2987 RMK AO2 RAE05B32 P0023 FZRANO $=
METAR KRYN 081345Z 08014KT 10SM CLR 30/11 A2991=
SPECI KSJT 081344Z 07007KT 6SM BR OVC004 23/22 A3007 RMK AO2=
####018000087####
SAUS46 KLOX 081346
MTRMWS
METAR KMWS 081330Z 14505G07KT 20/M02 RMK SNOW DEPTH  M
####018000945####
SPUS99 KWBC 081347
SPECI
KGKY 081344Z 12003KT 10SM SCT008 BKN055 26/24 A3005 RMK AO2=
KINK 081345Z AUTO 05006KT 10SM BKN024 BKN090 23/20 A3011 RMK AO2
     RAB1255E09 P0000 TSNO=
PALG 081342Z AUTO 00000KT 1 1/2SM BR CLR 06/06 A2999 RMK AO2
     TSNO=
KDAL 081346Z 11006KT 10SM BKN012 BKN037 OVC049 26/24 A3004 RMK AO2
     RAE11 CIG 009V016 P0000=
KDDC 081345Z AUTO 01010KT 7SM OVC005 18/17 A3020 RMK AO2=
KEWR 081345Z 21007KT 7SM SCT008 BKN014 OVC025 27/24 A3005 RMK AO2
     SCT V BKN HAZE ALOFT=
KMLT 081345Z AUTO VRB06KT 6SM HZ OVC015 24/21 A3007 RMK AO2=
KMSY 081345Z 09006KT 10SM SCT019 BKN027 29/24 A3004 RMK AO2=
KOSH 081345Z 30008KT 10SM OVC013 23/20 A3001 RMK AO2=
KPNC 081345Z AUTO 01007KT 10SM BKN011 BKN042 24/22 A3008 RMK
     AO2=
KRKP 081345Z AUTO 13005KT 1 1/4SM -RA BKN023 BKN033 OVC044 A2987
     RMK AO2 RAE05B32 P0023 FZRANO $=
KSJT 081344Z 07007KT 6SM BR OVC004 23/22 A3007 RMK AO2=
####018000237####
SAUS99 KWBC 081347
METAR
KMMU 081345Z 14009KT 3SM HZ BKN013 OVC025 27/23 A3005=
KCGF 081345Z 23007KT 10SM FEW075 32/18 A3007=
KHQU 081343Z AUTO 00000KT 10SM CLR 29/19 A3006 RMK AO1=
KRYN 081345Z 08014KT 10SM CLR 30/11 A2991=
####018000098####
SAUS44 KLIX 081346
MTRMSY
SPECI KMSY 081345Z 09006KT 10SM SCT019 BKN027 29/24 A3004 RMK AO2
####018000424####
SAIN32 VIDP 081330
METAR VIJP 081330Z 29005KT 3000 HZ SCT030 BKN090 31/26 Q1005 NOSIG=
METAR VIDP 081330Z 02004KT 2300 HZ SCT030 FEW040CB BKN100 33/27 Q1003
    TEMPO 36030KT 1500 TSRA=
METAR VILK 081330Z VRB02KT 5000 HZ SCT020 SCT025 FEW030CB
    BKN090 34/24 Q1001 TEMPO 1500 TSRA SHRA =
METAR VIAR 081330Z 20007KT 6000 FEW040 SCT100 36/24 Q1003=
METAR VIBN 081330Z 07005KT 6000 SCT025 SCT100 37/22 Q1001=
####018000084####
SPUS41 KWBC 081347
SPECI
KEWB 081344Z 13006KT 10SM SCT010 BKN018 27/22 A3009=
####018000075####
SACN50 CWAO 081345
VOK SA 1345 AUTO8 M M M M/14/07/0601/M/M M 21MM=

####018000075####
SACN50 CWAO 081345
VOC SA 1345 AUTO8 M M M M/12/09/0000/M/M M 99MM=

####018000075####
SACN50 CWAO 081345
VOY SA 1345 AUTO8 M M M M/11/07/3302/M/M M 10MM=

####018000075####
SACN50 CWAO 081345
VOV SA 1345 AUTO8 M M M M/11/07/0501/M/M M 04MM=

####018000075####
SACN50 CWAO 081345
WHC SA 1345 AUTO8 M M M M/18/14/MMMM/M/M M 95MM=

####018000075####
SACN94 CWAO 081345
WSK SA 1345 AUTO8 M M M M/17/11/3603/M/M M 67MM=

####018000075####
SACN50 CWAO 081345
VOU SA 1345 AUTO8 M M M M/18/11/3502/M/M M 15MM=

####018000082####
SPUS53 KWBC 081347
SPECI
KIRK 081344Z AUTO 01007KT 10SM FEW008 23/21 A3010=
####018000082####
SPUS73 KWBC 081347
SPECI
KIRK 081344Z AUTO 01007KT 10SM FEW008 23/21 A3010=
####018000090####
SPCN31 CWAO 081345
SPECI CYQB 081345Z 08004KT 6SM HZ FEW012 BKN060 23/ RMK SC2SC3=

####018000082####
SPUS81 KWBC 081347
SPECI
KIRK 081344Z AUTO 01007KT 10SM FEW008 23/21 A3010=
####018000132####
SAXX70 KAWN 081400
METAR KQHT 081355Z 25007KT 9999 FEW150 SCT200 30/03 A2993 RMK SLP100
      WND DATA ESTMD ALSTG/SLP ESTMD=
####018000228####
SACN60 CWAO 081300 RRC
PAC SA 1300 AUTO8 M M M M/14/11/1803/M/ M 14MM=
PAT SA 1300 AUTO8 M M M M/11/10/1604/M/ M 98MM=
PAZ SA 1300 AUTO8 M M M M/10/08/2504/M/ M 29MM=
PBD SA 1300 AUTO8 M M M M/09/07/2905/M/ M 38MM=

####018000075####
SACN50 CWAO 081345
VWB SA 1345 AUTO8 M M M M/17/06/MMMM/M/M M 98MM=

####018000083####
SACN89 CWAO 081300 RRD
WBJ SA 1300 AUTO8 M M M 132/12/08/3206/M/ 8001 74MM=

####018000075####
SACN50 CWAO 081345
VOD SA 1345 AUTO8 M M M M/11/05/0903/M/M M 80MM=

####018000084####
SACN90 CWAO 081300 RRE
WEF SA 1300 AUTO8 M M M 179/14/13/1411/M/M 0003 90MM=

####018000083####
SACN88 CWAO 081300 RRF
WXI SA 1300 AUTO8 M M M 174/10/09/0306/M/ 8013 13MM=

####018000083####
SACN93 CWAO 081300 RRE
WNV SA 1300 AUTO8 M M M 201/07/06/2205/M/ 6003 48MM=

####018000075####
SACN50 CWAO 081345
VOB SA 1345 AUTO8 M M M M/15/08/0000/M/M M 96MM=

####018000139####
SACN97 CWAO 081300 RRE
XLC SA 1300 AUTO8 M M M 141/13/10/MMMM/M/M 8002 10MM=
XTN SA 1300 AUTO8 M M M 124/05/05/3007/M/ 7001 44MM=

####018000128####
SACN59 CWAO 081300 RRG
XVW SA 1300 AUTO8 M M M M/14/11/3401/M/ M 90MM=
ZMU SA 1300 AUTO8 M M M M/14/11/3007/M/ M 60MM=

####018000084####
SACN95 CWAO 081300 RRE
WTE SA 1300 AUTO8 M M M 157/15/11/0000/M/M 6007 71MM=

####018001058####
SAUS20 KNKA 081347
METAR KANE 081345Z 27005KT 12SM SKC 22/17 A3011=
METAR KBXK 081335Z AUTO 00000KT 10SM CLR 28/M02 A2982 RMK AO1 =
SPECI KGAG 081346Z AUTO 02007KT 4SM RA BR OVC005 20/19 A3016 RMK AO2 
    P0000=
METAR KGYY 081345Z 00000KT 3SM -RA BR BKN008 OVC035 24/23 A3003
    RB15=
SPECI KJLN 081346Z 34003KT 1/2SM VCTS FG BKN004 BKN017 OVC033 22/22 
    A3009 RMK AO2 P0033=
METAR KMNZ 081352Z AUTO 08006KT 7SM BKN005 OVC009 25/24 A3005 RMK 
     AO2=
SPECI KORD 081346Z 26005KT 6SM -RA BR FEW010 BKN026 OVC040 24/22 
    A3003 RMK AO2 RAB31 P0000=
METAR KORG 081345Z AUTO 06011KT 7SM OVC009 17/14 A3001 RMK AO2=
METAR KPAN 081355Z AUTO 11005KT 10SM CLR 23/05 A3017 RMK AO1 =
SPECI KPIL 081346Z AUTO 01006KT 9SM FEW015 SCT020 BKN037 28/26 A2977 
    RMK AO2 RAB24E36 P0002=
METAR KRCR 081345Z AUTO 28004KT 4SM +RA SCT024 BKN050 OVC090 
     26/22 A3006 RMK AO2=
METAR KRQO 081355Z AUTO 00000KT 1SM BR OVC001 23/23 A3009 RMK AO2=
SPECI KSSF 081346Z 06009KT 10SM SCT012 BKN027 BKN041 27/23 A2994 RMK 
    AO2=
####018000564####
SPUS17 KAWN 081347 RRG
SPECI KCEF 081343Z 19004KT 7SM SCT014 BKN018 OVC080 25/22 A3007 RMK
      AO2A SLP184 $=
SPECI KFSI 081344Z AUTO 03005KT 10SM BKN008 OVC085 25/23 A3006 RMK
      AO2 CIG 008V011 BKN V SCT SLP164=
SPECI KHLR 081339Z AUTO 06006KT 9SM SCT009 BKN018 OVC039 26/ A3002
      RMK AO2 RAE04 P0000 T0261 $=
SPECI KLTS 081343Z AUTO 32005KT 7SM R35L/5500FT R35R/5500VP6000FT RA
      BKN007 23/23 A3009 RMK AO2 RAB1322DZB1313E1322 SLP174 $=
SPECI KNFW 081327Z COR 13007KT 10SM SCT012 BKN024 27/22 A3008 RMK RAE20
      P0000 AO2=
####018000121####
SAUS44 KCRP 081347
MTRVCT
SPECI KVCT 081346Z 03008KT 1/2SM -RA FG BKN020 OVC028 25/24 A2993 
RMK AO2 RAB37 P0000
####018000193####
SPUS90 KWBC 081348
SPECI KMSY 081345Z 09006KT 10SM SCT019 BKN027 29/24 A3004 RMK
     AO2=
SPECI KVCT 081346Z 03008KT 1/2SM -RA FG BKN020 OVC028 25/24 A2993
     RMK AO2 RAB37 P0000=
####018000078####
SAUS90 KWBC 081348
METAR KMWS 081330Z 14505G07KT 20/M02 RMK SNOW DEPTH M=
####018000095####
SACN88 KWBC 081348
METAR CWXI 081300Z AUTO 03006KT 10/09 RMK AO1 SLP174 T01010093
58013=
####018000095####
SACN85 KWBC 081348
METAR CWEF 081300Z AUTO 14011KT 14/13 RMK AO1 SLP179 T01390130
50003=
####018000539####
SAUS99 KWBC 081348
METAR
KANE 081345Z 27005KT 12SM SKC 22/17 A3011=
KBXK 081335Z AUTO 00000KT 10SM CLR 28/M02 A2982 RMK AO1=
KGYY 081345Z 00000KT 3SM -RA BR BKN008 OVC035 24/23 A3003 RB15=
KMNZ 081352Z AUTO 08006KT 7SM BKN005 OVC009 25/24 A3005 RMK
     AO2=
KORG 081345Z AUTO 06011KT 7SM OVC009 17/14 A3001 RMK AO2=
KPAN 081355Z AUTO 11005KT 10SM CLR 23/05 A3017 RMK AO1=
KRCR 081345Z AUTO 28004KT 4SM +RA SCT024 BKN050 OVC090 26/22 A3006
     RMK AO2=
KRQO 081355Z AUTO 00000KT 1SM BR OVC001 23/23 A3009 RMK AO2=
####018000092####
SAQB31 LQSM 081330 CCY
METAR LQSA 081330Z 29006KT 220V350 9999 SCT060 23/12 Q1023 NOSIG=
####018000087####
SPCN48 CWAO 081341
SPECI CYPH 081341Z 25012G17KT 15SM BKN005 BKN070 RMK ST4AC1=

####018001254####
SPUS70 KWBC 081348
SPECI
KGKY 081344Z 12003KT 10SM SCT008 BKN055 26/24 A3005 RMK AO2=
KINK 081345Z AUTO 05006KT 10SM BKN024 BKN090 23/20 A3011 RMK AO2
     RAB1255E09 P0000 TSNO=
PALG 081342Z AUTO 00000KT 1 1/2SM BR CLR 06/06 A2999 RMK AO2
     TSNO=
KDDC 081345Z AUTO 01010KT 7SM OVC005 18/17 A3020 RMK AO2=
KEWR 081345Z 21007KT 7SM SCT008 BKN014 OVC025 27/24 A3005 RMK AO2
     SCT V BKN HAZE ALOFT=
KMLT 081345Z AUTO VRB06KT 6SM HZ OVC015 24/21 A3007 RMK AO2=
KMSY 081345Z 09006KT 10SM SCT019 BKN027 29/24 A3004 RMK AO2=
KOSH 081345Z 30008KT 10SM OVC013 23/20 A3001 RMK AO2=
KPNC 081345Z AUTO 01007KT 10SM BKN011 BKN042 24/22 A3008 RMK
     AO2=
KRKP 081345Z AUTO 13005KT 1 1/4SM -RA BKN023 BKN033 OVC044 A2987
     RMK AO2 RAE05B32 P0023 FZRANO $=
KSJT 081344Z 07007KT 6SM BR OVC004 23/22 A3007 RMK AO2=
KMSY 081345Z 09006KT 10SM SCT019 BKN027 29/24 A3004 RMK AO2=
KGAG 081346Z AUTO 02007KT 4SM RA BR OVC005 20/19 A3016 RMK AO2
     P0000=
KORD 081346Z 26005KT 6SM -RA BR FEW010 BKN026 OVC040 24/22 A3003
     RMK AO2 RAB31 P0000=
KPIL 081346Z AUTO 01006KT 9SM FEW015 SCT020 BKN037 28/26 A2977 RMK
     AO2 RAB24E36 P0002=
KSSF 081346Z 06009KT 10SM SCT012 BKN027 BKN041 27/23 A2994 RMK
     AO2=
####018000545####
SAUS70 KWBC 081400
METAR
KMMU 081345Z 14009KT 3SM HZ BKN013 OVC025 27/23 A3005=
KCGF 081345Z 23007KT 10SM FEW075 32/18 A3007=
KRYN 081345Z 08014KT 10SM CLR 30/11 A2991=
KANE 081345Z 27005KT 12SM SKC 22/17 A3011=
KGYY 081345Z 00000KT 3SM -RA BR BKN008 OVC035 24/23 A3003 RB15=
KMNZ 081352Z AUTO 08006KT 7SM BKN005 OVC009 25/24 A3005 RMK
     AO2=
KORG 081345Z AUTO 06011KT 7SM OVC009 17/14 A3001 RMK AO2=
KPAN 081355Z AUTO 11005KT 10SM CLR 23/05 A3017 RMK AO1=
KRQO 081355Z AUTO 00000KT 1SM BR OVC001 23/23 A3009 RMK AO2=
####018000468####
SPUS99 KWBC 081348
SPECI
KGAG 081346Z AUTO 02007KT 4SM RA BR OVC005 20/19 A3016 RMK AO2
     P0000=
KJLN 081346Z 34003KT 1/2SM VCTS FG BKN004 BKN017 OVC033 22/22
     A3009 RMK AO2 P0033=
KORD 081346Z 26005KT 6SM -RA BR FEW010 BKN026 OVC040 24/22 A3003
     RMK AO2 RAB31 P0000=
KPIL 081346Z AUTO 01006KT 9SM FEW015 SCT020 BKN037 28/26 A2977 RMK
     AO2 RAB24E36 P0002=
KSSF 081346Z 06009KT 10SM SCT012 BKN027 BKN041 27/23 A2994 RMK
     AO2=
####018000080####
SACN94 KWBC 081348
METAR CWSK 081345Z AUTO 36003KT 17/11 RMK AO1 T01660107=
####018000241####
SAAS31 KWBC 081330 RRB
METAR
VIAR 081330Z 20007KT 6000 FEW040 SCT100 36/24 Q1003=
VIBN 081330Z 07005KT 6000 SCT025 SCT100 37/22 Q1001=
VIDP 081330Z 02004KT 2300 HZ SCT030 FEW040CB BKN100 33/27 Q1003
     TEMPO 36030KT 1500 TSRA=
####018000312####
SPUS80 KWBC 081348
SPECI
KDAL 081346Z 11006KT 10SM BKN012 BKN037 OVC049 26/24 A3004 RMK AO2
     RAE11 CIG 009V016 P0000=
KJLN 081346Z 34003KT 1/2SM VCTS FG BKN004 BKN017 OVC033 22/22
     A3009 RMK AO2 P0033=
KVCT 081346Z 03008KT 1/2SM -RA FG BKN020 OVC028 25/24 A2993 RMK
     AO2 RAB37 P0000=
####018000417####
SAIN32 VIDP 081330
METAR VIJP 081330Z 29005KT 3000 HZ SCT030 BKN090 31/26 Q1005 NOSIG=
METAR VIDP 081330Z 02004KT 2300 HZ SCT030 FEW040CB BKN100 33/27 Q1003
    TEMPO 36030KT 1500 TSRA=
METAR VILK 081330Z VRB02KT 5000 HZ SCT020 SCT025 FEW030CB
    BKN090 34/24 Q1001 TEMPO 1500 TSRA SHRA =
METAR VIAR 081330Z 20007KT 6000 FEW040 SCT100 36/24 Q1003=
METAR VIBN 081330Z 07005KT 6000 SCT025 SCT100 37/22 Q1001=
####018000159####
SACN97 KWBC 081348
METAR CXLC 081300Z AUTO 13/10 RMK AO1 SLP141 T01310100 58002=
METAR CXTN 081300Z AUTO 30007KT 05/05 RMK AO1 SLP124 T00540054
57001=
####018000080####
SAUS80 KWBC 081348
METAR
KMWS 081330Z 14505G07KT 20/M02 RMK SNOW DEPTH M=
####018000092####
SAQB31 LQSM 081300 CCA
METAR LQSA 081300Z 30008KT 260V350 9999 SCT060 22/11 Q1023 NOSIG=
####018000146####
SAUS70 KWBC 081348
METAR
KHQU 081343Z AUTO 00000KT 10SM CLR 29/19 A3006 RMK AO1=
KBXK 081335Z AUTO 00000KT 10SM CLR 28/M02 A2982 RMK AO1=
####018000104####
SAMX55 MMIO 081400
METAR MMIO 081340Z 36005KT 6SM BKN010 OVC020 19/18 A3013 RMK
8/5// OCNL DROPS= 
####018000089####
SPCN31 KWBC 081348
SPECI
CYQB 081345Z 08004KT 6SM HZ FEW012 BKN060 23/ RMK SC2SC3=
####018000090####
SPUS31 KWBC 081348
SPECI
KEWR 081345Z 21007KT 7SM SCT008 BKN014 OVC025 27/24 A3005=
####018000084####
SPUS31 KWBC 081348
SPECI
KMSY 081345Z 09006KT 10SM SCT019 BKN027 29/24 A3004=
####018000090####
SPUS41 KWBC 081348
SPECI
KCEF 081343Z 19004KT 7SM SCT014 BKN018 OVC080 25/22 A3007=
####018000337####
SAUS20 KNKA 081347
SPECI KCEF 081343Z 19004KT 7SM SCT014 BKN018 OVC080 25/22 A3007 RMK
      AO2A SLP184 $=
SPECI KDYL 081346Z AUTO VRB04KT 6SM HZ BKN016 27/23 A3004 RMK AO2 
    TSNO=
METAR KSWF 081345Z 13010KT 4SM HZ SCT100 28/23 A3008=
SPECI KWST 081346Z AUTO 13006KT 10SM BKN006 26/22 A3009 RMK AO2 CIG 
    004V009=
####018000083####
SAUS31 KWBC 081300 RRD
METAR
KLGC 081335Z AUTO 00000KT 10SM CLR 29/25 A3005=
####018000091####
SPUS42 KWBC 081348
SPECI
KDAL 081346Z 11006KT 10SM BKN012 BKN037 OVC049 26/24 A3004=
####018000307####
SAXX99 KWBC 081300 RRX
METAR
MMPA 081345Z RTD 34004KT 5SM SCT030 SCT070 BKN280 27/24 A2987 RMK
     8/133 HZY DSNT CB, TCU 1,2 QUAD=
VIJP 081330Z 29005KT 3000 HZ SCT030 BKN090 31/26 Q1005 NOSIG=
VILK 081330Z VRB02KT 5000 HZ SCT020 SCT025 FEW030CB BKN090 34/24
     Q1001 TEMPO 1500 TSRA SHRA=
####018000140####
SAUS41 KWBC 081300 RRJ
METAR
KMMU 081345Z 14009KT 3SM HZ BKN013 OVC025 27/23 A3005=
KWDR 081340Z AUTO 01003KT 10SM CLR 29/21 A3008=
####018000133####
SAUS42 KWBC 081300 RRF
METAR
KLGC 081335Z AUTO 00000KT 10SM CLR 29/25 A3005=
KOPN 081340Z AUTO 00000KT 10SM CLR 30/24 A3006=
####018000093####
SAQB31 LQSM 081330 CCY
METAR LQSA 081330Z 29006KT 220V350 9999 SCT060 23/12 Q1023 NOSIG=
####018000089####
SPUS52 KWBC 081348
SPECI
KINK 081345Z AUTO 05006KT 10SM BKN024 BKN090 23/20 A3011=
####018000089####
SPUS52 KWBC 081348
SPECI
KPNC 081345Z AUTO 01007KT 10SM BKN011 BKN042 24/22 A3008=
####018000092####
SPUS52 KWBC 081348
SPECI
KVCT 081346Z 03008KT 1/2SM -RA FG BKN020 OVC028 25/24 A2993=
####018000083####
SAUS51 KWBC 081300 RRD
METAR
KIPJ 081340Z AUTO 36005KT 10SM CLR 30/20 A3004=
####018000081####
SPUS53 KWBC 081348
SPECI
KDDC 081345Z AUTO 01010KT 7SM OVC005 18/17 A3020=
####018000093####
SAUS52 KWBC 081300 RRF
METAR
KVUJ 081339Z AUTO 00000KT 10SM SCT075 SCT110 30/20 A2999=
####018000082####
SAUS53 KWBC 081300 RRK
METAR
KTDF 081342Z AUTO 03003KT 7SM CLR 29/19 A3003=
####018000067####
SAUS54 KWBC 081300 RRH
METAR
KMWS 081330Z 14505G07KT 20/M02=
####018000091####
SPUS72 KWBC 081348
SPECI
KDAL 081346Z 11006KT 10SM BKN012 BKN037 OVC049 26/24 A3004=
####018000089####
SPUS72 KWBC 081348
SPECI
KINK 081345Z AUTO 05006KT 10SM BKN024 BKN090 23/20 A3011=
####018000084####
SPUS72 KWBC 081348
SPECI
KMSY 081345Z 09006KT 10SM SCT019 BKN027 29/24 A3004=
####018000079####
SPUS72 KWBC 081348
SPECI
KSJT 081344Z 07007KT 6SM BR OVC004 23/22 A3007=
####018000092####
SPUS72 KWBC 081348
SPECI
KVCT 081346Z 03008KT 1/2SM -RA FG BKN020 OVC028 25/24 A2993=
####018000081####
SPUS73 KWBC 081348
SPECI
KDDC 081345Z AUTO 01010KT 7SM OVC005 18/17 A3020=
####018000077####
SPUS73 KWBC 081348
SPECI
KOSH 081345Z 30008KT 10SM OVC013 23/20 A3001=
####018000201####
SAEU KAWN 081300 RRX
METAR EBLH 081325Z 14005KT 9999 FEW250 30/08 Q1019 BLU BLU=
METAR LGZA 081320Z 32017KT CAVOK 29/10 Q1012=
METAR LQSA 081330Z 29006KT 220V350 9999 SCT060 23/12 Q1023 NOSIG=
####018000098####
SANA14 KAWN 081300 RRF
METAR KOSC 081334Z AUTO 22006KT 7SM SCT060 BKN075 23/21 A3001 RMK AO2=
####018000091####
SPUS81 KWBC 081348
SPECI
KDAL 081346Z 11006KT 10SM BKN012 BKN037 OVC049 26/24 A3004=
####018000075####
SACN50 CWAO 081345
VOH SA 1345 AUTO8 M M M M/15/03/0604/M/M M 12MM=

####018000075####
SACN95 CWAO 081345
WWA SA 1345 AUTO8 M M M M/20/11/0201/M/M M 58MM=

####018000092####
SPUS81 KWBC 081348
SPECI
KVCT 081346Z 03008KT 1/2SM -RA FG BKN020 OVC028 25/24 A2993=
####018000093####
SAAK41 KNKA 081348
SPECI PALG 081344Z AUTO 00000KT 1SM BR CLR 06/06 A2999 RMK AO2 TSNO =
####018002906####
SAUS20 KNKA 081348
METAR K0F2 081344Z AUTO 13004KT 7SM BKN011 OVC015 24/22 A3006 RMK 
     AO2 T02400224=
METAR K11R 081344Z AUTO 10013G19KT 2 1/2SM RA BKN006 BKN014 
     OVC019 26/24 A2999 RMK AO2 LTG DSNT E P0001=
METAR K1H2 081345Z AUTO 23006KT 10SM CLR 29/24 A3005 RMK AO2 LTG 
     DSNT W T02870240=
METAR K3LF 081345Z AUTO 17003KT 7SM -RA SCT036 SCT050 BKN070 
     23/22 A3006 RMK AO2 P0011 LTG DSNT E AND SE=
METAR K3T5 081344Z AUTO 00000KT 10SM -RA SCT032 BKN039 OVC050 
     25/24 A2996 RMK AO2 P0003 T02510236=
METAR K6R3 081341Z AUTO 09006KT 5SM BR OVC006 26/26 A3000 RMK AO2 
     LTG DSNT SE AND S T02610258=
METAR KAAA 081343Z AUTO 00000KT 10SM OVC008 24/23 A3005 RMK AO2 
     T02430225=
METAR KAJG 081345Z AUTO 27004KT 10SM SCT047 28/24 A3006 RMK AO2 
     T02810235=
METAR KAPY 081343Z AUTO 36006KT 10SM SCT008 BKN025 OVC032 26/25 
     A2986 RMK AO2 T02550245=
METAR KAQO 081345Z AUTO 10005KT 9SM FEW010 SCT026 BKN085 26/23 
     A3005 RMK AO2=
METAR KARM 081345Z AUTO 11005KT 5SM BR SCT021 SCT034 BKN070 27/25 
     A2995 RMK AO2 P0003 T02700250=
METAR KAXH 081345Z AUTO 06006KT 7SM SCT034 SCT042 SCT049 25/24 
     A2996 RMK AO2 T02530235=
METAR KBBD 081345Z AUTO 10003KT 10SM FEW007 BKN034 OVC060 24/22 
     A3006 RMK=
METAR KBEA 081343Z AUTO 06007KT 10SM BKN005 OVC009 25/25 A2989 
     RMK AO2 P0001 T02460246=
METAR KBKD 081341Z AUTO 07003KT 10SM BKN004 BKN014 OVC028 25/23 
     A3005 RMK AO2 T02480232=
METAR KBKS 081346Z AUTO 03009KT 10SM OVC006 27/25 A2984 RMK AO1 
     T02690254=
METAR KC09 081344Z AUTO 20003KT 4SM BR SCT006 BKN019 OVC025 23/22 
     A3003 RMK AO2=
METAR KCIR 081342Z AUTO 22003KT 10SM CLR 29/23 A3007 RMK AO2=
METAR KCUL 081345Z AUTO 22004KT 10SM CLR 28/22 A3006 RMK AO2 
     T02830221=
METAR KDKR 081345Z AUTO 11005KT 6SM  BR CLR 26/26 A3006 RMK AO2=
METAR KDNV 081345Z AUTO 24007KT 10SM CLR 27/22 A3002 RMK AO2 
     T02730221=
SPECI KDVN 081347Z AUTO 36006KT 10SM SCT007 24/21 A3006 RMK AO2=
METAR KECU 081345Z AUTO 05004KT 10SM CLR 24/22 A3010 RMK AO2=
METAR KGLE 081344Z AUTO 15005KT 10SM SCT006 SCT011 BKN065 26/23 
     A3007 RMK AO2=
METAR KGYR 081347Z 00000KT 20SM SCT120 SCT180 31/05 A2980=
METAR KHQZ 081346Z AUTO 12006KT 10SM OVC060 26/23 A3006 RMK AO2=
METAR KJOT 081346Z AUTO 00000KT 4SM BR CLR 24/23 A3003 RMK AO2=
METAR KLOT 081341Z AUTO 00000KT 4SM BR OVC023 24/22 A3003 RMK AO2=
METAR KOXI 081345Z AUTO 00000KT 2 1/2SM SCT038 BKN044 OVC080 
     23/22 A3003 RMK AO1 T02310218=
METAR KOZA 081341Z AUTO 00000KT 10SM SCT022 BKN038 BKN049 24/22 
     A3009 RMK AO2 T02370219=
METAR KPVW 081341Z AUTO 05008KT 10SM OVC007 21/19 A3018 RMK AO2=
METAR KSFY 081345Z AUTO 33004KT 10SM BKN007 23/21 A3004 RMK AO2=
SPECI KSTL 081347Z 33003KT 10SM -RA FEW009 SCT025TCU BKN075 BKN250 
    26/24 A3006 RMK AO2 RAB15E22B46 TCU N-E P0000=
####018000181####
SAUS20 KNKA 081348
METAR KTFP 081345Z AUTO 07004KT 4SM -RA SCT005 BKN014 OVC042 
     27/25 A2986 RMK AO2 P0006=
SPECI KUGN 081347Z VRB06KT 10SM BKN012 24/22 A3002 RMK AO2=
####018000569####
SPUS99 KWBC 081349
SPECI
KCEF 081343Z 19004KT 7SM SCT014 BKN018 OVC080 25/22 A3007 RMK AO2A
     SLP184 $=
KDYL 081346Z AUTO VRB04KT 6SM HZ BKN016 27/23 A3004 RMK AO2
     TSNO=
KWST 081346Z AUTO 13006KT 10SM BKN006 26/22 A3009 RMK AO2 CIG
     004V009=
PALG 081344Z AUTO 00000KT 1SM BR CLR 06/06 A2999 RMK AO2 TSNO=
KDVN 081347Z AUTO 36006KT 10SM SCT007 24/21 A3006 RMK AO2=
KSTL 081347Z 33003KT 10SM -RA FEW009 SCT025TCU BKN075 BKN250 26/24
     A3006 RMK AO2 RAB15E22B46 TCU N-E P0000=
KUGN 081347Z VRB06KT 10SM BKN012 24/22 A3002 RMK AO2=
####018000136####
SAUS46 KPQR 081348
MTRCZK

METAR KCZK 081345Z 09011KT 10SM SKC 18/10 RMK SLP154 NO SPECI CLD HGT
AND VIS VISUALLY ESTMD


####018002656####
SAUS99 KWBC 081349
METAR
KSWF 081345Z 13010KT 4SM HZ SCT100 28/23 A3008=
K0F2 081344Z AUTO 13004KT 7SM BKN011 OVC015 24/22 A3006 RMK AO2
     T02400224=
K11R 081344Z AUTO 10013G19KT 2 1/2SM RA BKN006 BKN014 OVC019 26/24
     A2999 RMK AO2 LTG DSNT E P0001=
K1H2 081345Z AUTO 23006KT 10SM CLR 29/24 A3005 RMK AO2 LTG DSNT W
     T02870240=
K3LF 081345Z AUTO 17003KT 7SM -RA SCT036 SCT050 BKN070 23/22 A3006
     RMK AO2 P0011 LTG DSNT E AND SE=
K3T5 081344Z AUTO 00000KT 10SM -RA SCT032 BKN039 OVC050 25/24
     A2996 RMK AO2 P0003 T02510236=
K6R3 081341Z AUTO 09006KT 5SM BR OVC006 26/26 A3000 RMK AO2 LTG
     DSNT SE AND S T02610258=
KAAA 081343Z AUTO 00000KT 10SM OVC008 24/23 A3005 RMK AO2
     T02430225=
KAJG 081345Z AUTO 27004KT 10SM SCT047 28/24 A3006 RMK AO2
     T02810235=
KAPY 081343Z AUTO 36006KT 10SM SCT008 BKN025 OVC032 26/25 A2986
     RMK AO2 T02550245=
KAQO 081345Z AUTO 10005KT 9SM FEW010 SCT026 BKN085 26/23 A3005 RMK
     AO2=
KARM 081345Z AUTO 11005KT 5SM BR SCT021 SCT034 BKN070 27/25 A2995
     RMK AO2 P0003 T02700250=
KAXH 081345Z AUTO 06006KT 7SM SCT034 SCT042 SCT049 25/24 A2996 RMK
     AO2 T02530235=
KBBD 081345Z AUTO 10003KT 10SM FEW007 BKN034 OVC060 24/22 A3006
     RMK=
KBEA 081343Z AUTO 06007KT 10SM BKN005 OVC009 25/25 A2989 RMK AO2
     P0001 T02460246=
KBKD 081341Z AUTO 07003KT 10SM BKN004 BKN014 OVC028 25/23 A3005
     RMK AO2 T02480232=
KBKS 081346Z AUTO 03009KT 10SM OVC006 27/25 A2984 RMK AO1
     T02690254=
KC09 081344Z AUTO 20003KT 4SM BR SCT006 BKN019 OVC025 23/22 A3003
     RMK AO2=
KCIR 081342Z AUTO 22003KT 10SM CLR 29/23 A3007 RMK AO2=
KCUL 081345Z AUTO 22004KT 10SM CLR 28/22 A3006 RMK AO2
     T02830221=
KDKR 081345Z AUTO 11005KT 6SM BR CLR 26/26 A3006 RMK AO2=
KDNV 081345Z AUTO 24007KT 10SM CLR 27/22 A3002 RMK AO2
     T02730221=
KECU 081345Z AUTO 05004KT 10SM CLR 24/22 A3010 RMK AO2=
KGLE 081344Z AUTO 15005KT 10SM SCT006 SCT011 BKN065 26/23 A3007
     RMK AO2=
KGYR 081347Z 00000KT 20SM SCT120 SCT180 31/05 A2980=
KHQZ 081346Z AUTO 12006KT 10SM OVC060 26/23 A3006 RMK AO2=
KJOT 081346Z AUTO 00000KT 4SM BR CLR 24/23 A3003 RMK AO2=
KLOT 081341Z AUTO 00000KT 4SM BR OVC023 24/22 A3003 RMK AO2=
KOXI 081345Z AUTO 00000KT 2 1/2SM SCT038 BKN044 OVC080 23/22 A3003
     RMK AO1 T02310218=
KOZA 081341Z AUTO 00000KT 10SM SCT022 BKN038 BKN049 24/22 A3009
     RMK AO2 T02370219=
KPVW 081341Z AUTO 05008KT 10SM OVC007 21/19 A3018 RMK AO2=
KSFY 081345Z AUTO 33004KT 10SM BKN007 23/21 A3004 RMK AO2=
KTFP 081345Z AUTO 07004KT 4SM -RA SCT005 BKN014 OVC042 27/25 A2986
     RMK AO2 P0006=
####018000125####
SAUS46 KLOX 081348
MTRCQT
METAR KCQT 081347Z AUTO 00000KT 5SM HZ OVC011 17/13 A2991 RMK AO2 
SLP127 T01720133 TSNO $
####018000068####
SALT33 EYVI 081350
METAR EYPA 081350Z 33006KT CAVOK 21/15 Q1019=
####018000075####
SADL45 ETGT 081350
METAR
ETNG 081350Z 30008KT CAVOK 32/12 Q1018 NOSIG=
####018000097####
SPUS31 KWBC 081349
SPECI
KORD 081346Z 26005KT 6SM -RA BR FEW010 BKN026 OVC040 24/22 A3003=
####018000093####
SAQB31 LQSM 081300 CCA
METAR LQSA 081300Z 30008KT 260V350 9999 SCT060 22/11 Q1023 NOSIG=
####018000077####
SAEO32 EETN 081350
METAR EEKA 081350Z 28008KT 250V320 CAVOK 23/12 Q1016=
####018000087####
SPUS52 KWBC 081349
SPECI
KGAG 081346Z AUTO 02007KT 4SM RA BR OVC005 20/19 A3016=
####018000102####
SPUS53 KWBC 081349
SPECI
KJLN 081346Z 34003KT 1/2SM VCTS FG BKN004 BKN017 OVC033 22/22
A3009=
####018000085####
SAEW KAWN 081300 RRO
METAR EBLH 081325Z 14005KT 9999 FEW250 30/08 Q1019 BLU BLU=
####018000202####
SAXX70 KAWN 081300 RRW
METAR KQEX 081340Z AUTO 22006KT 3SM -SHRA FEW041 FEW100 25/20 A2978
      RMK A02=
METAR KQFT 081340Z AUTO 09001KT 1SM -SHRA BR FEW016 BKN028 22/20 A2987
      RMK A02=
####018000102####
SPUS73 KWBC 081349
SPECI
KJLN 081346Z 34003KT 1/2SM VCTS FG BKN004 BKN017 OVC033 22/22
A3009=
####018000097####
SPUS73 KWBC 081349
SPECI
KORD 081346Z 26005KT 6SM -RA BR FEW010 BKN026 OVC040 24/22 A3003=
####018002954####
SAUS20 KNKA 081349
METAR KASW 081345Z AUTO 26006KT 7SM BKN055 BKN070 OVC080 26/21 
     A3006 RMK AO2 T02570209=
METAR KBBG 081345Z 00000KT 10SM BKN027 OVC034  24/22 A3012=
METAR KBPC 081348Z AUTO 01007KT 10SM OVC006 20/19 A3019 RMK AO2=
METAR KBPG 081345Z AUTO 02009KT 10SM OVC006 22/21 A3014 RMK AO1 
     T02200205=
METAR KBYY 081346Z AUTO 08008KT 10SM SCT023 SCT035 OVC085 27/26 
     A2992 RMK AO2 T02700258=
METAR KCPT 081345Z AUTO 09005KT 5SM  BR SCT006 25/24 A3006 RMK AO2=
METAR KCVB 081344Z AUTO 05007KT 7SM OVC014 26/24 A2997 RMK AO2 
     T02600242=
METAR KCWC 081345Z AUTO 12009KT 10SM CLR 26/23 A3005 RMK AO2 
     T02640226=
METAR KDUX 081347Z AUTO 02007KT 10SM OVC060 18/17 A3024 RMK AO2 
     P0001 T01800172=
METAR KDZB 081345Z AUTO 08003KT 4SM BR OVC007 25/24 A3000 RMK AO2 
     T02480240=
METAR KE38 081345Z AUTO 00000KT 10SM CLR 20/18 A3024 RMK AO2 
     T02040184=
METAR KEBG 081345Z AUTO 02011KT 10SM OVC007 27/26 A2982 RMK AO2 
     T02720255=
METAR KERV 081345Z AUTO 06006KT 10SM SCT011 SCT017 BKN030 25/22 
     A3002 RMK AO2 T02470220=
METAR KF05 081344Z AUTO 04007KT 10SM SCT007 SCT032 SCT042 25/23 
     A3007 RMK AO2 T02530225=
METAR KFEP 081345Z AUTO 30006KT 7SM OVC004 24/22 A3005 RMK AO2 
     T02360215=
METAR KFOA 081345Z AUTO 19004KT 10SM CLR 31/27 A3005 RMK AO2 
     T03050267=
METAR KFWC 081345Z AUTO 23004KT 10SM CLR 29/25 A3006 RMK AO2=
METAR KFWS 081345Z AUTO 00000KT 5SM BR BKN007 BKN022 OVC065 25/24 
     A3006 RMK AO2 P0001 T02500237=
METAR KGBG 081345Z AUTO 32004KT 5SM BR OVC006 23/22 A3006 RMK AO2=
METAR KGDJ 081344Z AUTO 07005KT 10SM BKN008 OVC049 26/24 A3005 
     RMK AO2 T02600237=
METAR KGNC 081345Z AUTO 04006KT 10SM SCT008 BKN019 OVC085 20/19 
     A3017 RMK AO2 T02000190=
METAR KGOP 081340Z AUTO 00000KT 7SM SCT009 BKN046 26/23 A3005 RMK 
     AO2=
METAR KGVT 081345Z AUTO 13005KT 10SM SCT014 OVC055 26/23 A3006 
     RMK AO2=
METAR KGWB 081345Z AUTO 00000KT 10SM CLR 30/16 A3005 RMK AO2=
METAR KGYB 081345Z AUTO 00000KT 1 1/4SM +RA SCT006 BKN013 OVC034 
     23/23 A3002 RMK AO2 P0081 T02320230=
METAR KGYI 081344Z AUTO 14009KT 25/25 A3006 RMK AO2 T02520246 
     PWINO=
METAR KHBV 081340Z AUTO 01011KT 10SM OVC008 26/24 A2988 RMK AO2 
     T02550235=
METAR KHHF 081345Z AUTO 07005KT 5SM RA SCT010 SCT020 OVC070 21/20 
     A3015 RMK AO2 P0073 T02110203=
METAR KHRX 081345Z AUTO 03006KT 10SM SCT023 BKN028 OVC110 18/17 
     A3024 RMK AO2 T01800165=
METAR KIJX 081345Z AUTO 30004KT 7SM BKN005 BKN010 BKN014 24/23 
     A3007 RMK AO2 T02420232=
METAR KINJ 081345Z AUTO 08006KT 7SM SCT005 SCT029 BKN080 25/23 
     A3003 RMK AO2 T02530234=
METAR KJAS 081346Z AUTO 10005KT 7SM BKN008 27/25 A3005 RMK AO2 
     T02690250=
METAR KJDD 081345Z AUTO 00000KT 7SM SCT008 26/25 A3007 RMK AO2=
METAR KJSO 081350Z AUTO 10003KT 7SM SCT006 BKN110 24/24 A3007 RMK 
     AO2 T02420237=
####018000070####
SALY31 HLLS 081400
METAR HLLS 081350Z O6O1OKT CAVOK  37/O9 Q1O15=
####018001888####
SAUS20 KNKA 081349
METAR KJWY 081345Z AUTO 10005KT 7SM 26/23 A3005 RMK AO2 T02560231=
METAR KJXI 081345Z AUTO 11003KT 26/25 A3008 RMK AO2=
METAR KLBR 081345Z AUTO 14004KT 10SM BKN007 BKN011 BKN055 26/23 
     A3007 RMK AO2 T02560231=
SPECI KLFK 081348Z AUTO 11008KT 10SM BKN010 27/24 A3003 RMK AO2 CIG 
    009V013=
METAR KLHB 081344Z AUTO 09006KT 4SM HZ BKN009 BKN055 26/24 A3001 
     RMK AO2 T02610236=
METAR KLNC 081345Z AUTO 09004KT 10SM BKN008 OVC070 26/24 A3005 
     RMK AO2 T02560244=
METAR KLUD 081345Z AUTO 12007KT 10SM OVC009 26/23 A3006 RMK AO2 
     T02560225=
METAR KM30 081346Z AUTO 25004KT 10SM CLR 27/22 A3007 RMK AO2=
METAR KMDD 081340Z AUTO 03006KT 10SM BKN006 OVC012 22/21 A3014 
     RMK AO2 T02200205=
METAR KMKN 081340Z AUTO 10004KT 8SM 24/23 A3007 RMK AO2=
METAR KMNZ 081349Z AUTO 08006KT 7SM BKN007 OVC014 25/25 A3005 RMK 
     AO2 T02500247=
METAR KMQB 081345Z AUTO 32004KT 10SM OVC006 24/22 A3008 RMK AO2 
     T02350220=
METAR KOLY 081343Z AUTO 00000KT 10SM SCT045 SCT055 29/24 A3005 
     RMK AO2=
METAR KOSA 081344Z AUTO 12005KT 10SM BKN008 OVC013 26/24 A3008 
     RMK AO1 T02600244=
METAR KPNT 081345Z AUTO 23003KT 10SM OVC019 25/23 A3004 RMK AO2=
METAR KPPQ 081346Z AUTO 30003KT 10SM SCT005 OVC011 24/23 A3008 
     RMK AO2=
METAR KPRG 081345Z AUTO 27005KT 10SM CLR 28/23 A3006 RMK AO2 
     T02830238=
METAR KPYX 081350Z AUTO 35006KT 4SM OVC004 19/18 A3021 RMK AO2 
     T01910183=
SPECI KRKP 081348Z AUTO 12004KT 2 1/2SM -RA FEW014 BKN029 OVC050 
    A2987 RMK AO2 VIS 1V5 RAE05B32 P0023 FZRANO $=
METAR KRPJ 081345Z AUTO 32007KT 7SM SCT009 BKN016 BKN030 23/21 
     A3005 RMK AO2 T02300206=
METAR KRSV 081342Z AUTO 24005KT 10SM CLR 30/24 A3006 RMK AO2 
     T02970235=
METAR KRYY 081347Z 00000KT 10SM SKC 28/21 A3007=
METAR KSUA 081347Z 07007KT 10SM SCT035 29/22 A3000 =
####018000102####
SPUS81 KWBC 081349
SPECI
KJLN 081346Z 34003KT 1/2SM VCTS FG BKN004 BKN017 OVC033 22/22
A3009=
####018001355####
SPZZ40 KAWN 081349 RRI
SPECI CYOY 081344Z AUTO 34002KT 8SM SCT009 24/19 A3000=
SPECI CYPH 081341Z 25012G17KT 15SM BKN005 BKN070 RMK ST4AC1=
SPECI CYQB 081345Z 08004KT 6SM HZ FEW012 BKN060 23/ RMK SC2SC3=
SPECI EGUN 081345Z AUTO 25008KT 9999 SCT041 24/15 A3006 RMK AO2 SLP168=
SPECI GBYD 081305Z 25007KT 9999 SCT011 FEW018CB BKN120 TS AT SE OF
      STN=
SPECI KCEF 081343Z 19004KT 7SM SCT014 BKN018 OVC080 25/22 A3007 RMK
      AO2A SLP184 $=
SPECI KFSI 081344Z AUTO 03005KT 10SM BKN008 OVC085 25/23 A3006 RMK
      AO2 CIG 008V011 BKN V SCT SLP164=
SPECI KLTS 081343Z AUTO 32005KT 7SM R35L/5500FT R35R/5500VP6000FT RA
      BKN007 23/23 A3009 RMK AO2 RAB1322DZB1313E1322 SLP174 $=
SPECI KNFW 081327Z COR 13007KT 10SM SCT012 BKN024 27/22 A3008 RMK RAE20
      P0000 AO2=
SPECI KRND 081345Z 06006KT 4SM -RA BR OVC007 25/24 A2996 RMK AO2A RAB1327DZB1338E1340
      SLP136=
SPECI KTBN 081340Z AUTO 00000KT 10SM BKN005 OVC034 25/ A3009 RMK AO2
      SLP173 $=
SPECI KTBN 081347Z VRB03KT 10SM SCT005 BKN035 OVC045 25/21 A3010 RMK
      AO2A SLP174 $=
SPECI OAUZ 081346Z 31004KT 9999 SKC 39/11 Q1005 BLU/=
SPECI RKJK 081345Z 06003KT 2400 R36/0700V1000 HZ BKN120 24/21 A2980
      RMK AO2A SLP092 $=
SPECI RODN 081346Z AUTO 18008KT 9999 BKN017 BKN200 29/26 A2987 RMK
      AO2 CIG 015V021 BKN017 V SCT SLP115=
####018000351####
SAUS20 KNKA 081349
SPECI KMAF 081348Z 03008KT 10SM FEW007 BKN015 OVC022 22/20 A3013 RMK 
    AO2=
SPECI KMKG 081348Z 21008KT 4SM -RA BR BKN007 BKN019 OVC047 23/22 
    A3003 RMK AO2 RAB03 P0004=
METAR KMTN 081345Z 11008KT 4SM HZ SCT008 SCT015  29/25 A3004=
SPECI KOKB 081348Z AUTO VRB03KT 8SM BKN013 OVC018 17/14 A2991 RMK 
    AO2 $=
