####018000073####
SAUS81 KWBC 081308
&EHA SA 1308  AMOS 63/62/0108/M PK WND 13 004

####018001692####
SAEU KAWN 081300 RRV
METAR EBBL 081255Z 23006KT 9999 FEW050 SCT220 32/10 Q1019 BLU BLU=
METAR EGXW 081250Z 28010KT 9999 FEW048 BKN250 22/08 Q1017 BLU NOSIG=
METAR ENMS 081250Z 32005KT 9999 FEW050 SCT070 19/10 Q1009=
METAR LFPM 081304Z 19005KT 120V260 CAVOK 32/11 Q1018=
METAR LFRL 081300Z 30008KT 9999 FEW024 22/16 Q1019=
METAR LIBH 081255Z 34016G31KT CAVOK 29/09 Q1016 RMK SKC QUK 2 QUL 1
      NE VIS MAR 20 KM VIS MIN 9999=
METAR LIBY 081255Z 34021G33KT CAVOK 25/08 Q1016 RMK SKC QUK 3 QUL 1
      N VIS MAR 20 KM VIS MIN 9999=
METAR LICC 081250Z 11013KT CAVOK 28/20 Q1018 RMK VIS MIN 9999=
METAR LICF 081255Z 20003KT 9999 SCT030 28/24 Q1017 RMK BKN SCT080 QUK
      1 QUL 0 VIS MAR 12 KM MON E CLD CIME NC MON W LIB NC VIS MIN
      9999=
METAR LICJ 081250Z 04015KT 9999 FEW018 28/23 Q1018 RMK VIS MIN 9999=
METAR LICL 081255Z 24008KT CAVOK 27/23 Q1018 RMK SKC QUK 2 QUL 1 SW
      VIS MAR 13 KM VIS MIN 9999=
METAR LICT 081255Z 33013G24KT 9999 FEW022 30/25 Q1018 RMK FEW VIS MIN
      9999 WIND THR13 33010KT BLU=
METAR LICZ 081255Z 10017KT 9999 FEW020 30/20 Q1017 RMK FEW VIS MIN
      9999 WIND THR28 //////KT BLU=
METAR LIEB 081255Z 12004KT 9999 SCT025TCU 32/25 Q1018 RMK SCT QUK 2
      QUL 0 VIS MAR 20 KM MON INVIS VIS MIN 8000W=
METAR LIEC 081255Z 36015KT 9999 FEW020 30/27 Q1019 RMK FEW QUK 2 QUL
      0 VIS MAR 15 KM VIS MIN 9999=
METAR LIEE 081255Z 16012KT 9999 FEW020 28/21 Q1019 RMK FEW VIS MIN
      9999 WIND THR14 18013KT BLU=
METAR LIQC 081255Z 07004KT CAVOK 28/10 Q1021 RMK SKC QUK 1 QUL 0 VIS
      MAR 15 KM VIS MIN 9999=
METAR LIQW 081255Z 21003KT 9999 SCT025 30/20 Q1020 RMK SCT VIS MIN
      9999 BLU=
####018000279####
SANA14 KAWN 081300 RRD
METAR SEGU 081300Z 20005KT 9999 BKN040 OVC100 23/19 Q1012 NOSIG=
METAR SKRG 081300Z VRB02KT 4000 BR BKN004 SCT080 15/14 A3032=
METAR SKSP 081300Z 10007KT 9999 SCT015TCU 29/26 A2987 REDZ=
METAR TVSV 081300Z 11016KT 9999 BKN022 BKN280 30/25 Q1014=
####018001035####
SAXN17 KAWN 081300 RRE
METAR MGSJ 081300Z 00000KT CAVOK 24/23 Q1012 A2988 BKN090 BKN200=
METAR MKJS 081300Z 13001KT 9999 FEW024 BKN220 29/23 Q1013=
METAR MMCS 081300Z RTD 02010KT 10SM FEW030 SCT080 23/17 A3013 RMK 8/570
      HZY=
METAR MMCZ 081245Z 09008KT 6SM BKN100 BKN200 26/24 A2988 RMK 8/079
      SC HZY=
METAR MMMD 081248Z 10007KT 5SM SCT005 BKN080 BKN140 18/18 A2988 RMK
      8/670 HZY CI=
METAR MMTP 081245Z 00000KT 10SM BKN020 OVC160 24/23 A2990 RMK 8/57/=
METAR MMUN 081245Z 11008KT 6SM BKN015TCU BKN090 OVC280 28/25 A2990
      RMK 8/277 HZ LWR SC BINOVC=
METAR PHNG 081257Z 11007KT 10SM 24/21 A3002 RMK AO2 SLP159 T02390206
      $=
METAR SKBO 081300Z 04004KT 9000 FEW015 BKN070 13/11 A3034 RMK HZ NOSIG=
METAR SKLT 081300Z 00000KT 9999 FEW015 BKN070 27/25 A2991 RMK APCLO=
METAR TGPY 081300Z 08012KT 9999 FEW019 SCT038 FEW///CB 27/25 Q1013
      CB TOP SE-SSE=
METAR TVSV 081300Z 11016KT 9999 BKN022 BKN280 30/25 Q1014=
METAR ZGGG 081300Z 16003MPS 9999 SCT033 32/25 Q1006 NOSIG=
####018000084####
SADO31 TDPD 081300

METAR TDCF 081300Z 03002KT 9999 SCT016TCU 30/23 Q1014=
####018002125####
SAUS20 KNKA 081310
SPECI K7R3 081301Z 04004KT6 10SM FEW003 SCT070 26/25 A3002 RMK
     DA012=
METAR KAAA 081305Z AUTO 24003KT 10SM BKN006 BKN048 OVC050 24/22 
     A3005 RMK AO2 T02400224=
SPECI KAPA 081309Z 01008KT 2 1/2SM BR BKN002 BKN070 14/13 A3035 RMK 
    AO2=
METAR KCCA 081315Z AUTO 00000KT 7SM OVC006 24/23 A3010 RMK AO2 =
METAR KCDN 081315Z AUTO 30005KT 10SM CLR 29/21 A3000 RMK A02 P000 
     =
METAR KCKI 081315Z AUTO 30005KT 10SM CLR 28/20 A2996 RMK AO2=
SPECI KDWH 081309Z 11009G15KT 1 3/4SM +RA BR FEW007 BKN016 BKN043 
    25/24 RMK AO2 VIS 1V5 LTG DSNT SE RAB04 CIG 013V026 P0006 $=
SPECI KESF 081309Z AUTO 10003KT 10SM FEW005 27/24 A3005 RMK AO2=
METAR KHHF 081305Z AUTO 07005KT 1/2SM +RA BKN006 OVC017 21/20 
     A3016 RMK AO2 P0031 T02110203=
METAR KIGQ 081300Z AUTO 00000KT 1 1/4SM -RA SCT006 BKN022 BKN032 
     24/22 A3003 RMK AO2 VIS 1/4V5 P0011=
METAR KLOT 081304Z AUTO 00000KT 4SM BR BKN021 OVC029 23/22 A3003 
     RMK AO2=
METAR KMKS 081315Z AUTO 33003KT 10SM CLR 27/21 A2996 RMK AO2 TSNO=
METAR KRYW 081305Z AUTO 07006KT 2SM BR OVC003 24/23 A3001 RMK AO2=
METAR KSAR 081305Z AUTO 21004KT 7SM SCT085 26/24 A3006 RMK AO2=
METAR KSLO 081303Z AUTO 24004KT 10SM SCT043 BKN050 BKN090 28/23 
     A3006 RMK AO2 T02790229=
METAR KSOA 081300Z AUTO 01003KT 6SM  BR 22/22 A3010 RMK AO2=
METAR KT82 081305Z AUTO 07005KT 23/22 A3003 RMK AO1 T02310220=
METAR KTAZ 081305Z AUTO 00000KT 10SM SCT080 27/24 A3004 RMK AO2=
METAR KTFP 081305Z AUTO 00000KT 10SM SCT038 BKN055 OVC075 27/25 
     A2984 RMK AO2 LTG DSNT S T02670253=
METAR KTIP 081305Z AUTO 00000KT 7SM SCT080 SCT090 26/24 A3006 RMK 
     AO2 T02550238=
SPECI KTVC 081309Z VRB03KT 7SM -RA BKN006 OVC012 22/21 A3000 RMK AO2 
    RAB01 P0000=
METAR KTYQ 081305Z AUTO 19005KT 10SM CLR 27/22 A3007 RMK AO2=
METAR KUVA 081305Z AUTO 05005KT 10SM CLR 24/23 A2996 RMK AO2 
     T02410227=
METAR KVYS 081305Z AUTO 26003KT 10SM SCT004 SCT007 BKN032 24/22 
     A3003 RMK AO2 T02420224=
METAR KXBP 081305Z AUTO 00000KT 10SM SCT012 BKN024 OVC029 24/23 
     A3006 RMK AO2 T02440230=
####018001538####
SARS18 KAWN 081300 RRD
METAR UELL 081300Z VRB01MPS 9999 VCFG SCT030CB BKN200 12/11 Q1012 TEMPO
      0600 FG VV003 RMK QFE685 08290050=
METAR UHHH 081300Z 04002MPS 9999 SCT033CB OVC100 16/15 Q1011 NOSIG
      RMK QFE752/1002 55090060=
METAR UHMM 081300Z 24002MPS 9999 OVC008 12/11 Q1016 RMK QFE747 88010070
      MT OBSC=
METAR UHNN 081300Z 08002MPS 9999 -SHRA FEW010 BKN023CB OVC070 11/10
      Q1013 RMK QFE755=
METAR UHSS 081300Z 00000MPS 9999 BKN018 13/12 Q1011 RMK MT OBSC QFE757/1010=
METAR UHWW 081300Z 22003MPS 9999 SCT013 BKN023CB OVC100 16/15 Q1011
      NOSIG RMK QFE757/1010 75CLRD70=
METAR UIAA 081300Z 31005MPS 9999 VCTS -SHRA BKN033CB OVC100 18/15 Q1009
      NOSIG RMK QFE698 29CLRD70=
METAR UIUU 081300Z 00000MPS 9999 SCT033CB OVC100 21/14 Q1007 NOSIG
      RMK QFE711/0949 26CLRD60=
METAR ULWW 081300Z 17004MPS 9999 SCT050TCU BKN/// 32/14 Q1016 NOSIG
      RMK QFE751 15CLRD60=
METAR UMKK 081300Z 30006MPS P8000 FEW030 SCT200 22/13 Q1020 NOSIG RMK
      QFE 764 SC07=
METAR URMM 081300Z 12004G07MPS 080V140 9999 BKN046 31/19 Q1012 NOSIG
      RMK / SC070=
METAR URSS 081300Z 29005MPS 9999 FEW040 27/21 Q1009 NOSIG RMK / QFE755
      06CLRD70=
METAR UWGG 081300Z 13002MPS 100V180 8000 FEW033 34/09 Q1015 NOSIG RMK
      QFE754 18090070=
METAR UWKD 081300Z 28003MPS 250V310 9999 FEW050CB SCT070 32/13 Q1015
      TEMPO VRB15MPS 3000 TSRA RMK QFE750/1000 79CLRD70=
METAR UWOO 081300Z 05004MPS 020V100 P5000 FEW220 32/02 Q1012 08LRD65
      NOSIG RMK QFE748/0998=
####018001026####
SAYE20 OYSC 081300
METAR OYAA 081300Z NIL=
METAR OYAG 081300Z 08016KT 9999 SCT025 28/24 Q1001=
METAR OYAM 081300Z NIL=
METAR OYAR 081300Z 04006KT 4000 DU SCT030 27/02 Q////=
METAR OYAS 081300Z 18004KT 6000 NSC 35/21 Q1004=
METAR OYAT 081300Z 35010KT CAVOK 39/09 Q0998=
METAR OYDM 081300Z 02015KT 6000 FEW030 SCT045 28/01 Q////=
METAR OYHD 081300Z 28008KT 8000 NSC 34/28 Q0999=
METAR OYIB 081300Z 29008KT 5000 DU SCT025 27/16 Q1015=
METAR OYKD 081300Z 19008KT 8000 NSC 34/23 Q////=
METAR OYMB 081300Z 03027KT 2000 SA FEW030 41/M09 Q1003=
METAR OYMK 081300Z 32005KT CAVOK 33/27 Q////=
METAR OYMT 081300Z 36007KT 7000 SCT030 25/17 Q////=
METAR OYRN 081300Z 20016KT 6000 NSC 30/25 Q1000=
METAR OYSD 081300Z 06006KT 5000 DU SCT030 28/M02 Q////=
METAR OYSH 081300Z 36014KT 3000 DU SCT030 33/04 Q////=
METAR OYSN 081300Z 03018KT 4000 DU SCT030 31/M03 Q1020=
METAR OYSQ 081300Z NIL=
METAR OYSY 081300Z 09006KT 050V140 8000 NSC 42/09 Q1000=
METAR OYTZ 081300Z 30012KT 8000 FEW030 30/16 Q1008=
####018000090####
SACH10 SCSC 081300 CCA
METAR
SCBA 081300Z 26006KT 9999 FEW030 SCT035 M04/M07 Q1003=
####018000083####
SASD31 OEJD 081300 RRA
METAR OYSN 081300Z 03018KT 4000 DU SCT030 31/M03 Q1020=
####018000082####
SASD32 OEJD 081300
METAR OETF 081300Z 11009KT 9999  SCT030 38/00 Q1014 NOSIG=
####018000113####
SARS35 RUMS 081300 RRA
METAR UWKE 081300Z 08003MPS 9999 FEW040 31/10 Q1015 NOSIG RMK
QFE744/0992 04090070=
####018000080####
SATR31 RUMS 081300 RRA
METAR UTAT 081300Z VRB02MPS CAVOK 43/19 Q1006 NOSIG=
####018001671####
SASD20 OEJD 081300
METAR OEAB 081300Z 03010KT 9999  SCT020 32/M02 Q1019 NOSIG=
METAR OEAH 081300Z 03014KT CAVOK 45/05 Q1000 NOSIG=
METAR OEBA 081300Z 08006KT 9999 FEW030 36/04 Q1015 NOSIG=
METAR OEBH 081300Z 03012KT CAVOK 41/03 Q1010 NOSIG=
METAR OEDF 081300Z 01015KT CAVOK 44/04 Q0998 NOSIG=
METAR OEDM 081300Z 09010KT CAVOK 42/04 Q1010=
METAR OEDR 081300Z 04011KT 8000 SKC 41/13 Q0997 NOSIG=
METAR OEGN 081300Z 26006KT CAVOK 36/30 Q1001 NOSIG=
METAR OEGS 081300Z 33007KT CAVOK 45/07 Q1007=
METAR OEGT 081300Z NIL=
METAR OEHL 081300Z 01004KT 9999 SCT040 42/00 Q1011 NOSIG=
METAR OEJN 081300Z 30014KT CAVOK 37/25 Q1001 NOSIG=
METAR OEKB 081300Z NIL=
METAR OEKJ 081300Z NIL=
METAR OEKK 081300Z 03016KT CAVOK 45/11 Q1005=
METAR OEKM 081300Z 03010KT 8000 SCT022 32/04 Q1011 NOSIG=
METAR OEMA 081300Z 08008KT 9999 SCT045 47/M04 Q1004 NOSIG=
METAR OEMH 081300Z NIL=
METAR OEMK 081300Z 21003KT CAVOK 45/26 Q1000=
METAR OENG 081300Z 03010KT 5000 DU SCT030 SCT080 40/M01 Q1009 NOSIG=
METAR OEPA 081300Z NIL=
METAR OERF 081300Z 33003KT CAVOK 45/13 Q1005=
METAR OERK 081300Z 01016KT 8000 BLDU SKC 43/M03 Q1006 NOSIG=
METAR OERR 081300Z 27008KT CAVOK 46/11 Q1006=
METAR OERY 081300Z 04015KT 5000 SA SKC 44/M02 Q1006 NOSIG=
METAR OESH 081300Z 05006KT 6000 SKC 41/17 Q1001 NOSIG=
METAR OESK 081300Z 26010KT CAVOK 44/01 Q1007=
METAR OETB 081300Z 36002KT CAVOK 42/05 Q1008 NOSIG=
METAR OETF 081300Z 11009KT 9999  SCT030 38/00 Q1014 NOSIG=
METAR OETR 081300Z 20004KT CAVOK 40/05 Q1010=
METAR OEWD 081300Z NIL=
METAR OEWJ 081300Z 30018KT CAVOK 33/24 Q1003=
METAR OEYN 081300Z 28018KT 4000 DU SKC 45/16 Q0998 TEMPO 3000=
####018000073####
SAIN31 EGGY 081300
METAR VOBG 081300Z NIL=
METAR VOCI 081300Z NIL=
####018000083####
SAAG SAWH 081300
METAR SAWH 081300Z  27003KT 9999  FEW030 SCT100
00/M05 Q0983=
####018000141####
SAMX41 MMMX 081308
METAR COR MMMX 081304Z 18003KT 2 1/2SM -RA HZ SCT008 BKN010 OVC020 15/14 A3020
      NOSIG RMK 60235 8/7// VSBY TWR=
####018001538####
SAUS99 KWBC 081311
METAR
KAAA 081305Z AUTO 24003KT 10SM BKN006 BKN048 OVC050 24/22 A3005
     RMK AO2 T02400224=
KCCA 081315Z AUTO 00000KT 7SM OVC006 24/23 A3010 RMK AO2=
KCDN 081315Z AUTO 30005KT 10SM CLR 29/21 A3000 RMK A02 P000=
KCKI 081315Z AUTO 30005KT 10SM CLR 28/20 A2996 RMK AO2=
KHHF 081305Z AUTO 07005KT 1/2SM +RA BKN006 OVC017 21/20 A3016 RMK
     AO2 P0031 T02110203=
KIGQ 081300Z AUTO 00000KT 1 1/4SM -RA SCT006 BKN022 BKN032 24/22
     A3003 RMK AO2 VIS 1/4V5 P0011=
KLOT 081304Z AUTO 00000KT 4SM BR BKN021 OVC029 23/22 A3003 RMK
     AO2=
KMKS 081315Z AUTO 33003KT 10SM CLR 27/21 A2996 RMK AO2 TSNO=
KRYW 081305Z AUTO 07006KT 2SM BR OVC003 24/23 A3001 RMK AO2=
KSAR 081305Z AUTO 21004KT 7SM SCT085 26/24 A3006 RMK AO2=
KSLO 081303Z AUTO 24004KT 10SM SCT043 BKN050 BKN090 28/23 A3006
     RMK AO2 T02790229=
KSOA 081300Z AUTO 01003KT 6SM BR 22/22 A3010 RMK AO2=
KT82 081305Z AUTO 07005KT 23/22 A3003 RMK AO1 T02310220=
KTAZ 081305Z AUTO 00000KT 10SM SCT080 27/24 A3004 RMK AO2=
KTFP 081305Z AUTO 00000KT 10SM SCT038 BKN055 OVC075 27/25 A2984
     RMK AO2 LTG DSNT S T02670253=
KTIP 081305Z AUTO 00000KT 7SM SCT080 SCT090 26/24 A3006 RMK AO2
     T02550238=
KTYQ 081305Z AUTO 19005KT 10SM CLR 27/22 A3007 RMK AO2=
KUVA 081305Z AUTO 05005KT 10SM CLR 24/23 A2996 RMK AO2
     T02410227=
KVYS 081305Z AUTO 26003KT 10SM SCT004 SCT007 BKN032 24/22 A3003
     RMK AO2 T02420224=
KXBP 081305Z AUTO 00000KT 10SM SCT012 BKN024 OVC029 24/23 A3006
     RMK AO2 T02440230=
####018000447####
SPUS99 KWBC 081311
SPECI
K7R3 081301Z 04004KT6 10SM FEW003 SCT070 26/25 A3002 RMK DA012=
KAPA 081309Z 01008KT 2 1/2SM BR BKN002 BKN070 14/13 A3035 RMK
     AO2=
KDWH 081309Z 11009G15KT 1 3/4SM +RA BR FEW007 BKN016 BKN043 25/24
     RMK AO2 VIS 1V5 LTG DSNT SE RAB04 CIG 013V026 P0006 $=
KESF 081309Z AUTO 10003KT 10SM FEW005 27/24 A3005 RMK AO2=
KTVC 081309Z VRB03KT 7SM -RA BKN006 OVC012 22/21 A3000 RMK AO2
     RAB01 P0000=
####018000568####
SARA32 RUMS 081300
METAR UHHH 081300Z 04002MPS 9999 SCT033CB OVC100 16/15 Q1011 NOSIG
RMK QFE752/1002 55090060=
METAR UHMA 081300Z NIL=
METAR UHMM 081300Z 24002MPS 9999 OVC008 12/11 Q1016 RMK QFE747
88010070 MT OBSC=
METAR UHMP 081300Z NIL=
METAR UHNN 081300Z 08002MPS 9999 -SHRA FEW010 BKN023CB OVC070 11/10
Q1013 RMK QFE755=
METAR UHPP 081300Z NIL=
METAR UHSH 081300Z NIL=
METAR UHSS 081300Z 00000MPS 9999 BKN018 13/12 Q1011 RMK MT OBSC
QFE757/1010=
METAR UHWW 081300Z 22003MPS 9999 SCT013 BKN023CB OVC100 16/15 Q1011
NOSIG RMK QFE757/1010 75CLRD70=
####018000654####
SAAM31 FCBB 081300
METAR FCBB 081300Z 21008KT 270V160 7000 FEW023 27/20 Q1013 NOSIG=
METAR FCPP 081300Z 18008KT 7000 FEW013 OVC033 24/21 Q1012 NOSIG=
METAR FKKD 081300Z VRB04KT 9999 BKN016 FEW020CB BKN120 28/25 Q1013
      TEMPO 4000 TSRA BKN013 SCT016CB BKN100=
METAR FKYS 081300Z 25003KT 210V280 9999 BKN016 26/20 Q1016 NOSIG=
METAR FEFF 081300Z 18002KT 9999 FEW026 FEW040CB BKN300 31/22 Q1013
      NOSIG=
METAR FOOL 081300Z 23006KT 190V260 9000 SCT011 BKN030 27/23 Q1013
      NOSIG=
METAR FGSL 081300Z 29005KT 270V330 7000 -TSRA BKN013 FEW020CB BKN130
      25/25 Q1013 NOSIG=
METAR FZAA 081300Z 27008KT 4000 BR SKC 27/19 Q1012 NOSIG=
####018000874####
SARA34 RUMS 081300
METAR UNAA 081300Z VRB02MPS 9999 SCT030CB BKN100 18/12 Q1012 NOSIG
RMK QFE736 202///55=
METAR COR UNBB 081300Z 14003MPS 9999 SCT040 SCT100 14/11 Q1009 NOSIG
RMK QFE735=
METAR UNEE 081300Z 18004MPS 9999 SCT026CB BKN066 BKN200 19/09 Q1009
NOSIG RMK QFE734 23CLRD60=
METAR UNKL 081300Z 27005G08MPS 9999 -SHRA VCTS BKN023CB OVC083 13/11
Q1011 TEMPO 26013G18MPS 1000 TSRA RMK QFE732 29////55=
METAR UNNT 081300Z 26005MPS 9999 SCT060CB BKN100 19/05 Q1007 NOSIG
RMK QFE745/0994 25090070=
METAR UNOO 081300Z 31004MPS 9999 BKN030CB 14/10 Q1008 NOSIG 25CLRD06
RMK QFE748=
METAR UNWW 081300Z 14002MPS 9999 SCT026CB OVC130 14/09 Q1011 NOSIG
RMK QFE731 1929//60=
METAR USTR 081300Z 04002MPS 9999 SCT046 19/06 Q1012 NOSIG RMK
QFE750/1000 30CLRD65=
METAR USHH 081300Z 34003G08MPS 280V060 8000 -SHRA SCT015CB OVC080
10/09 Q1009 NOSIG RMK QFE753 SC06=
####018000604####
SABY31 UMMN 081300
METAR UMBB 081300Z 31006G09MPS 8000 SCT031 24/13 Q1019 R29/CLRD//
NOSIG=
METAR UMGG 081300Z VRB02MPS 9999 BKN050CB BKN100 26/17 Q1014
R28/290550 NOSIG=
METAR UMII 081300Z 20005MPS P6000 BKN020CB 20/18 Q1014 R23/CLRD//
TEMPO 2000 SHRA BKN005 =
METAR UMMG 081300Z 32007G10MPS 9999 BKN023 BKN066 23/13 Q1016
R35/CLRD// NOSIG=
METAR UMMM 081300Z 26006G09MPS 6000 OVC012CB 18/15 Q1015 R30/CLRD//
NOSIG RMK QFE742=
METAR UMMS 081300Z 28003G06MPS 250V310 9999 OVC014 18/15 Q1015
R31/CLRD// NOSIG=
METAR UMOO 081300Z 29002MPS 9999 BKN023CB BKN/// 22/18 Q1013
R31/290056 NOSIG=
####018000989####
SAAM20 FCBB 081300
METAR FCBB 081300Z 21008KT 270V160 7000 FEW023 27/20 Q1013 NOSIG=
METAR FCPP 081300Z 18008KT 7000 FEW013 OVC033 24/21 Q1012 NOSIG=
METAR FKKD 081300Z VRB04KT 9999 BKN016 FEW020CB BKN120 28/25 Q1013
      TEMPO 4000 TSRA BKN013 SCT016CB BKN100=
METAR FKYS 081300Z 25003KT 210V280 9999 BKN016 26/20 Q1016 NOSIG=
METAR FKKR 081300Z 08004KT 9999 FEW020 BKN130 BKN300 27/23 Q1012
      NOSIG=
METAR FKKN NIL=
METAR FKKL NIL=
METAR FEFT NIL=
METAR FEFG NIL=
METAR FEFF 081300Z 18002KT 9999 FEW026 FEW040CB BKN300 31/22 Q1013
      NOSIG=
METAR FOOL 081300Z 23006KT 190V260 9000 SCT011 BKN030 27/23 Q1013
      NOSIG=
METAR FOOG NIL=
METAR FOON NIL=
METAR FGSL 081300Z 29005KT 270V330 7000 -TSRA BKN013 FEW020CB BKN130
      25/25 Q1013 NOSIG=
METAR FGBT NIL=
METAR FZRF NIL=
METAR FZOS NIL=
METAR FZAA 081300Z 27008KT 4000 BR SKC 27/19 Q1012 NOSIG=
METAR FZIC NIL=
METAR FZFK NIL=
METAR FZQA NIL=
METAR FNHU NIL=
METAR FNLU NIL=
METAR FPST NIL=
####018000116####
SATD31 TTPP 081300 RRA
METAR
TTPP 081300Z ///06KT 3000 -RA FEW006 FEW010CB SCT012 BKN035 26/25
Q1013 NOSIG=
 
####018000490####
SARA31 RUMS 081300
METAR UEEE 081300Z 26001MPS 9999 -SHRA BKN040CB OVC100 16/14 Q1009
NOSIG RMK QFE748 23290150=
METAR UELL 081300Z VRB01MPS 9999 VCFG SCT030CB BKN200 12/11 Q1012
TEMPO 0600 FG VV003 RMK QFE685 08290050=
METAR UERP 081300Z 02003MPS 9999 SCT040 BKN100 13/06 Q1014 NOSIG RMK
QFE717 35090065=
METAR UERR 081300Z VRB01MPS CAVOK 15/14 Q1012 NOSIG RMK QFE728
24CLRD60=
METAR UESO 081300Z NIL=
METAR UEST 081300Z 15002MPS 9999 -RA OVC130 05/03 Q1017 NOSIG RMK
QFE762=
####018000428####
SAAL40 DAMM 081300
METAR DAAG 081300Z 05013KT CAVOK 34/16 Q1018=
METAR DAAT 081300Z NIL=
METAR DABB 081300Z 02014KT CAVOK 28/21 Q1019=
METAR DABC 081300Z 36012KT CAVOK 34/05 Q1022=
METAR DABS 081300Z 32006KT CAVOK 35/06 Q1023=
METAR DAON 081300Z 02010KT 9999 FEW026 37/20 Q1016=
METAR DAOO 081300Z 35012KT CAVOK 30/21 Q1016=
METAR DAUH 081300Z 08010KT CAVOK 39/21 Q1017=
METAR DAUZ 081300Z 09005KT CAVOK 38/07 Q1016=
####018000551####
SABO SLLP 081300
METAR SLLP 081300Z VRB02KT 9999 FEW015 04/M04 Q1038=
METAR SLVR 081300Z 17012KT 9999 FEW025 BKN070 BKN200 20/16 Q1017=
METAR SLCB 081300Z 15003KT 4000E FU FEW027 SCT200 14/08 Q1027=
METAR SLTJ 081300Z 00000KT 9999 SKC 11/06 Q1022=
METAR SLTR 081300Z 15010KT 6000 TS VCSH FEW006 BKN015 FEW020CB OVC070
22/21 Q1015=
METAR SLCO 081300Z 00000KT 9999 SCT080 26/24 Q1014=
METAR SLET 081300Z 15010KT 9999 SCT080 19/16 Q1016=
METAR SLPS 081300Z 36005KT 9999 FEW070 28/16 Q1013=
METAR SLSU 081300Z 04008KT 9999 FEW013 11/08 Q1029=
####018000338####
SAPO32 LPMG 081300
METAR LPAZ 081300Z 25006KT 9999 BKN016 BKN030 21/20 Q1025=
METAR LPFL 081300Z 20007KT 150V240 9999 FEW023TCU BKN040 24/17 Q1022=
METAR LPHR 081300Z 22007KT 9999 SCT013 BKN035 23/18 Q1023=
METAR LPLA 081300Z 17007KT 9999 -SHRA SCT013 BKN028 21/19 Q1024=
METAR LPPD 081300Z 24006KT 9999 FEW020 BKN030 20/16 Q1024=
####018001208####
SAAL41 DAMM 081300
METAR DAAD 081300Z 00000KT CAVOK 39/14 Q1021=
METAR DAAE 081300Z 09010KT CAVOK 29/22 Q1019=
METAR DAAJ 081300Z NIL=
METAR DAAP 081300Z 15012KT CAVOK 40/10 Q1014=
METAR DAAS 081300Z 32010KT CAVOK 35/03 Q1024=
METAR DAAV 081300Z 36010KT CAVOK 30/23 Q1019=
METAR DAAY 081300Z 34008KT CAVOK 38/11 Q1024=
METAR DABT 081300Z NIL=
METAR DAFH 081300Z NIL=
METAR DAMH 081300Z 04008KT CAVOK 40/12 Q1015=
METAR DAOB 081300Z 03007KT CAVOK 38/07 Q1022=
METAR DAOF 081300Z 11004KT 4000 HZ NSC 45/05 Q1013=
METAR DAOI 081300Z 06008KT CAVOK 43/05 Q1015=
METAR DAOL 081300Z NIL=
METAR DAOR 081300Z 11004KT CAVOK 40/05 Q1022=
METAR DAOV 081300Z 03010KT CAVOK 43/06 Q1018=
METAR DATF 081300Z 02014KT CAVOK 40/08 Q1015=
METAR DATG 081300Z NIL=
METAR DATM 081300Z NIL=
METAR DAUA 081300Z 36019KT 7000 DRSA NSC 44/07 Q1012=
METAR DAUB 081300Z 24008KT CAVOK 37/15 Q1016=
METAR DAUE 081300Z 03010KT CAVOK 38/09 Q1020=
METAR DAUG 081300Z NIL=
METAR DAUI 081300Z NIL=
METAR DAUK 081300Z 00000KT CAVOK 37/16 Q1017=
METAR DAUL 081300Z NIL=
METAR DAUO 081300Z 00000KT CAVOK 38/16 Q1017=
METAR DAUT 081300Z ///18KT 4000 DRSA NSC 43/09 Q1014=
METAR DAUU 081300Z 05010KT CAVOK 39/16 Q1017=
####018000088####
SACH10 SCSC 081300 CCA
METAR
SCBA 081300Z 26006KT 9999 FEW030 SCT035 M04/M07 Q1003=
####018000924####
SAGU31 MGGT 081300
METAR
METAR MGTK 081300Z 00000KT CAVOK 23/23 Q1012 A2989 OVC090 =
METAR MGHT 081300Z 00000KT 9999 FEW004 OVC018 16/15 QFE 812.5 MTN N CUB C/L =
METAR MGPB 081300Z 00000KT 9999 SCT018 OVC090 24/23 Q1011 A2986 =
METAR MGGT 081300Z 00000KT CAVOK 17/14 Q1023 A3021 SCT080 BKN100 NOSIG =
METAR MGSJ 081300Z 00000KT CAVOK 24/23 Q1012 A2988 BKN090 BKN200 =
METAR MGRT 081300Z 00000KT 9999 SCT018 OVC100 24/22 Q1014 A2994 VOL. SANTA MARIA EN ACTIVIDAD =
METAR MGQZ 081300Z 00000KT 7000 FEW008 BKN070 12/12 QFE 767.2 BR =
METAR MGCB 081300Z 23004KT 9999 FEW018 OVC070 19/17 QFE 868.9 =
METAR MGZA 081300Z 00000KT CAVOK 24/22 QFE 987.2 FEW070 OVC100 =
METAR MGES 081300Z 00000KT 9999 SCT012 OVC080 20/19 QFE 909.5 =
METAR MGMT 081300Z 00000KT CAVOK 25/23 QFE 1007.0 SCT070 OVC200 =
METAR MGTU 081300Z 00000KT 9999 SCT018 BKN080 25/24 =
METAR MGCP 081300Z 360004KT CAVOK 24/23 QFEV 1008.1 BKN070 =
####018000148####
SAUK39 EGRR 081250 RRF
METAR EGUY 081250Z 21008KT 9999 FEW035 BKN150 23/11 Q1018 BLU=
METAR EGYH 081250Z 22015KT 9999 FEW035 23/// Q1018 BLU=
####018000088####
SPBZ24 SBPA 081310
SPECI SBPA 081310Z 17004KT 6000 SCT010 BKN015 BKN030 15/13 Q1021=
####018000092####
SAAG01 SABM 081300 RRC
METAR SAWG 081300Z  32005KT 9999  FEW020 BKN100
M03/M05 Q0990=
####018000079####
SPUS41 KWBC 081311
SPECI
KBAF 081308Z 15004KT 4SM HZ OVC009 24/22 A3008=
####018000083####
SPUS43 KWBC 081311
SPECI
KGRB 081308Z 31005KT 2 1/2SM BR OVC006 22/21 A3000=
####018000098####
SPUS51 KWBC 081311
SPECI
KNYC 081308Z AUTO 00000KT 5SM HZ SCT011 BKN020 BKN027 26/23 A3008=
####018000088####
SPUS53 KWBC 081311
SPECI
KCNU 081308Z AUTO 07004KT 1 1/2SM BR OVC001 23/22 A3009=
####018000099####
SPUS53 KWBC 081311
SPECI
KVIH 081308Z AUTO 00000KT 8SM -RA SCT007 BKN015 BKN046 24/22 A3008=
####018000090####
SAUS46 KSGX 081311
MTRSAN
SPECI KSAN 081310Z 32005KT 9SM OVC013 16/14 A2992 RMK AO2
####018000083####
SPUS73 KWBC 081311
SPECI
KGRB 081308Z 31005KT 2 1/2SM BR OVC006 22/21 A3000=
####018000088####
SPUS81 KWBC 081311
SPECI
KCNU 081308Z AUTO 07004KT 1 1/2SM BR OVC001 23/22 A3009=
####018000229####
SANG31 YBBN 081300
METAR AYPY 081300Z NIL=
METAR AYWK 081300Z NIL=
METAR AYVN 081300Z NIL=
METAR AYNZ 081300Z NIL=
METAR AYMH 081300Z NIL=
METAR AYGN 081300Z NIL=
METAR AYMO 081300Z NIL=
METAR AGGH 081300Z NIL=
####018000047####
SAID31 EGGY 081300
METAR WALL 081300Z NIL=
####018000125####
SACZ41 LKPW 081300
METAR LKKU 081300Z 01006KT CAVOK 25/07 Q1022=
METAR LKLB 081300Z 27006KT 210V340 CAVOK 25/05 Q1023=
####018000537####
SAAO33 DRRN 081300
METAR DBBB 081300Z 22011KT 9999 SCT012 BKN120 29/25 Q1012 NOSIG=
METAR DFFD 081300Z VRB02KT CAVOK 30/21 Q1015 NOSIG=
METAR DGAA 081300Z 20014KT 9999 FEW010 SCT016 BKN250 30/23 Q1013
NOSIG=
METAR DNKN 081300Z NIL=
METAR DNMM 081300Z 24010KT 9999 BKN012 FEW020CB 29/26 Q1014 NOSIG=
METAR DRRN 081300Z 18004KT 110V210 CAVOK 33/19 Q1012 NOSIG=
METAR DXXX 081300Z 20012KT 9999 FEW016 FEW025CB 29/24 Q1013 NOSIG=
METAR FTTJ 081300Z VRB04KT 9999 VCRA FEW040 FEW050CB BKN140 31/28
Q1012 TEMPO 3000 TSRA=
####018000196####
SATD31 TTPP 081300 RRB
METAR
TTPP 081300Z ///06KT 3000 -RA FEW006 FEW010CB SCT012 BKN035 26/25
Q1013 NOSIG=
TTCP 081300Z 06007KT 9999 TS SCT010CB SCT036 BKN080 26/23 Q1013 TEMPO
TSRA=
####018000051####
SAID31 EGGY 081300 RRA
METAR WALL 081300Z NIL=
####018001271####
SAAU32 YBBN 081300
METAR YAMB 081300Z AUTO 19001KT 9999NDV // NCD 13/10 Q1021=
METAR YMAV 081300Z AUTO 33004KT 9999NDV // BKN048 07/05 Q1028=
METAR YBRM 081300Z 06004KT 9999 SCT037 BKN071 23/22 Q1012=
METAR YCIN 081300Z AUTO 11006KT //// // ////// 22/18 Q1013=
METAR YSDU 081300Z AUTO 15007KT 9999NDV // NCD 06/04 Q1026=
METAR YFRT 081300Z AUTO 05009KT //// // ////// 11/02 Q1013=
METAR YGEL 081300Z AUTO 34018KT 2400NDV // BKN011 BKN028 OVC046 16/15
Q1001=
METAR YPGV 081300Z AUTO 15008KT 9999NDV // SCT011 BKN016 24/22 Q1014=
METAR YBHM 081300Z NIL=
METAR YMHB 081300Z 32006KT CAVOK 03/01 Q1031=
METAR YPKG 081300Z AUTO 35009KT 9999NDV // BKN068 17/05 Q1004=
METAR YMLT 081300Z AUTO 17004KT 1100NDV // NCD 02/02 Q1031=
METAR YBMA 081300Z NIL=
METAR YSNF 081300Z AUTO 11012KT 9999NDV // OVC035 15/08 Q1018=
METAR YPEA 081300Z AUTO 36011KT 9999NDV // SCT016 SCT040 SCT069 14/12
Q0997=
METAR YPPD 081300Z AUTO 35005KT 9000NDV // BKN032 BKN051 OVC100 21/21
Q1010=
METAR YSRI 081300Z AUTO 26004KT 9999NDV // SCT027 BKN057 OVC071 11/10
Q1028=
METAR YBRK 081300Z 23003KT 9999 FEW004 BKN030 13/12 Q1020=
METAR YWLM 081300Z AUTO 25007KT 9999NDV // ////// 10/10 Q1026=
METAR YPWR 081300Z AUTO 10005KT 9999NDV // NCD 07/01 Q1023=
####018000165####
SAID33 WIII 081300
METAR WABP NIL=
METAR WAJJ NIL=
METAR WAKK NIL=
METAR WAPP NIL=
METAR WARS NIL=
METAR WIAT NIL=
METAR WATT NIL=
METAR WALR NIL=
####018000357####
SAEE31 LOWM 081300
METAR UACK 081300Z 30006G09MPS CAVOK 20/02 Q1010 02010070 NOSIG RMK
QFE734=
METAR UACP 081300Z NIL=
METAR UAII 081300Z NIL=
METAR UADD 081300Z 36002MPS 9999 NSC 34/03 Q1012 NOSIG RMK
QFE702/0937=
METAR UASK 081300Z 04002MPS 9999 SCT043 21/12 Q1011
                   300/0060 NOSIG RMK QFE733=
METAR UASP 081300Z NIL=
####018000088####
SASC20 FSIA 081300
METAR FSIA 081303Z 16008KT 9999 SCT017 SCT250 27/22 Q1011 NOSIG=
####018001442####
SAAU31 YBBN 081300
METAR YPAD 081300Z 02004KT CAVOK 06/03 Q1026=
METAR YBAS 081300Z AUTO 00000KT 9999NDV // NCD 07/06 Q1021=
METAR YBBN 081300Z 22007KT 9999 BKN040 14/11 Q1021
NOSIG=
METAR YBCS 081300Z 15006KT 9999 FEW024 BKN040 23/19 Q1016=
METAR YSCB 081300Z AUTO 08002KT 9999NDV // SCT021 02/02 Q1028=
METAR YPXM 081300Z AUTO 22005KT 9999NDV // NCD 22/20 Q1014=
METAR YPCC 081300Z AUTO 14010KT 9999NDV // SCT026 OVC033 25/22 Q1014=
METAR YCFS 081300Z AUTO 23009KT 9999NDV // SCT083 14/09 Q1023=
METAR YPDN 081300Z 05005KT CAVOK 24/21 Q1013=
METAR YBCG 081300Z AUTO 20012KT 9999NDV // OVC100 15/12 Q1021=
METAR YHID 081300Z AUTO 16010KT 9999NDV // SCT018 25/22 Q1013=
METAR YPJT 081300Z AUTO 30008KT 5000NDV // SCT017 BKN046 OVC057 14/12
Q0997=
METAR YPKU 081300Z AUTO 13004KT 9999NDV // NCD 23/15 Q1015=
METAR YPLM 081300Z AUTO 22007KT 9999NDV // SCT027 BKN040 OVC048 20/17
Q1010=
METAR YMML 081300Z NIL=
METAR YPPH 081300Z 36008KT 9999 VCSH FEW009 SCT028 BKN058 14/13
Q0997
RMK WBD 0.3
INTER 1300/1600 29030G50KT 2000 TSGS BKN010 FEW030CB=
METAR YSSY 081300Z 24007KT 9999 -SHRA FEW010 SCT020 BKN050 11/11
Q1027
FM1300 22008KT 9999 -SHRA SCT020 BKN045
INTER 1300/1600 5000 SHRA BKN010=
METAR YSTW 081300Z AUTO 14007KT 9999NDV // NCD 06/04 Q1024=
METAR YPTN 081300Z AUTO 12004KT 9999NDV // OVC051 24/16 Q1015=
METAR YBTL 081300Z AUTO 13008KT 9999NDV // SCT018 OVC025 22/19 Q1017=
####018000300####
SAID32 WIII 081300
METAR WAMM 081300Z 14002KT 9999 FEW026 25/22 Q1011 NOSIG= 
METAR WIPT 081300Z 08003KT 7000 FEW020 26/24 Q1011= 
METAR WIPP 081300Z 00000KT 9999 FEW015 26/24 Q1010= 
METAR WIBB NIL=
METAR WIKN NIL=
METAR WIOO NIL=
METAR WAOO NIL=
METAR WALL NIL=
METAR WADA NIL=
####018000377####
SAID31 WIII 081300
METAR WIMM 081300Z 09005KT 5000 FEW016CB SCT017 29/25 Q1010 NOSIG= 
METAR WIDD 081300Z 18004KT 9999 FEW017 27/24 Q1010= 
METAR WAAA 081300Z 10002KT 9999 FEW020 26/26 Q1011= 
METAR WIII 081300Z 22003KT 7000 SCT020 25/22 Q1012 NOSIG= 
METAR WADD 081300Z 00000KT 9999 SCT018 26/25 Q1010 NOSIG= 
METAR WIHH NIL=
METAR WABB NIL=
METAR WARR NIL=
####018000095####
SAIN32 VIDP 081230 RRB
METAR VIBN 081230Z 11004KT 7000 FEW020 SCT025 FEW030CB 38/22 Q1001=
####018000098####
SPUS81 KWBC 081311
SPECI
KNYC 081308Z AUTO 00000KT 5SM HZ SCT011 BKN020 BKN027 26/23 A3008=
####018000762####
SAEW KAWN 081300 RRG
METAR EBBL 081255Z 23006KT 9999 FEW050 SCT220 32/10 Q1019 BLU BLU=
METAR LFLL 081308Z 18007KT 150V240 CAVOK 32/13 Q1019 NOSIG=
METAR LFMO 081300Z AUTO VRB02KT 9999NDV NSC 35/12 Q1019=
METAR LFMY 081300Z 18004KT 120V250 CAVOK 34/15 Q1019=
METAR LFOE 081300Z VRB04KT CAVOK 32/09 Q1018=
METAR LFPC 081300Z 12005KT 050V170 CAVOK 31/11 Q1018=
METAR LFPM 081304Z 19005KT 120V260 CAVOK 32/11 Q1018=
METAR LFQB 081300Z VRB04KT CAVOK 32/10 Q1018=
METAR LFRL 081300Z 30008KT 9999 FEW024 22/16 Q1019=
METAR LFRM 081300Z 14004KT 070V210 CAVOK 33/09 Q1018=
METAR LFRQ 081300Z 26006KT 210V290 9999 FEW040 26/13 Q1019 NOSIG=
METAR LFSX 081300Z AUTO VRB03KT 9999NDV NSC 31/11 Q1020=
METAR LFYR 081300Z VRB03KT CAVOK 33/10 Q1018=
####018001533####
SAZZ40 KAWN 081300 RRP
METAR DAAP 081300Z 15012KT CAVOK 40/10 Q1014=
METAR DAAV 081300Z 36010KT CAVOK 30/23 Q1019=
METAR DAAY 081300Z 34008KT CAVOK 38/11 Q1024=
METAR DAOB 081300Z 03007KT CAVOK 38/07 Q1022=
METAR DAOF 081300Z 11004KT 4000 HZ NSC 45/05 Q1013=
METAR DAOR 081300Z 11004KT CAVOK 40/05 Q1022=
METAR DAUB 081300Z 24008KT CAVOK 37/15 Q1016=
METAR DAUE 081300Z 03010KT CAVOK 38/09 Q1020=
METAR DAUK 081300Z 00000KT CAVOK 37/16 Q1017=
METAR DAUO 081300Z 00000KT CAVOK 38/16 Q1017=
METAR DAUT 081300Z ///18KT 4000 DRSA NSC 43/09 Q1014=
METAR DAUU 081300Z 05010KT CAVOK 39/16 Q1017=
METAR OEAH 081300Z 03014KT CAVOK 45/05 Q1000 NOSIG=
METAR OEGS 081300Z 33007KT CAVOK 45/07 Q1007=
METAR OEHL 081300Z 01004KT 9999 SCT040 42/00 Q1011 NOSIG=
METAR OEKK 081300Z 03016KT CAVOK 45/11 Q1005=
METAR OERF 081300Z 33003KT CAVOK 45/13 Q1005=
METAR OERR 081300Z 27008KT CAVOK 46/11 Q1006=
METAR OESK 081300Z 26010KT CAVOK 44/01 Q1007=
METAR OETB 081300Z 36002KT CAVOK 42/05 Q1008 NOSIG=
METAR OEYN 081300Z 28018KT 4000 DU SKC 45/16 Q0998 TEMPO 3000=
METAR PHNG 081257Z COR 11007KT 10SM SCT026 BKN040 24/21 A3002 RMK AO2
      SLP159 T02390206 $=
METAR TDCF 081300Z 03002KT 9999 SCT016TCU 30/23 Q1014=
METAR TTCP 081300Z 06007KT 9999 TS SCT010CB SCT036 BKN080 26/23 Q1013
      TEMPO TSRA=
METAR TTPP 081300Z ///06KT 3000 -RA FEW006 FEW010CB SCT012 BKN035 26/25
      Q1013 NOSIG=
METAR UUYY 081300Z 21003MPS 9999 FEW036 OVC200 30/15 Q1015 NOSIG 19CLRD61
      RMK QFE753/1004=
####018000123####
SAAK41 KNKA 081311
SPECI PAIL 081309Z AUTO 05005KT 1/2SM FG FEW001 OVC070 08/08 A2995 
    RMK AO2 RAE02 P0000 TSNO=
####018000093####
SPCN49 CWAO 081310
SPECI CYLU 081310Z 22008KT 2SM -DZ BR BCFG OVC004 RMK ST8 CIG RAG=

####018000188####
SPUS17 KAWN 081311 RRA
SPECI KCEF 081306Z 15005KT 6SM BR OVC011 25/23 A3008 RMK AO2A SLP186
      $=
SPECI PPIZ 081303Z AUTO 21010KT 2SM HZ CLR 06/02 A3008 RMK AO2 TSNO
      $=
####018000096####
SPNA35 KAWN 081311 RRA
SPECI KPHL 081304Z VRB03KT 5SM HZ SCT010 SCT100 27/23 A3004 RMK AO2=
####018000831####
SAXX70 KAWN 081300 RRJ
METAR KQFU 081250Z AUTO 02002KT 7SM CLR 23/18 A2993 RMK A02=
METAR KQOW 081255Z AUTO RMK AO2 SLPNO $=
METAR KQEX 081300Z AUTO 23003KT 5SM BR SCT035 26/20 A2978 RMK A02=
METAR KQFT 081300Z AUTO 11001KT 2SM BR FEW028 BKN034 23/20 A2987 RMK
      A02=
METAR KQEI 081310Z AUTO 15002KT 2SM DZ SCT036 BKN045 22/20 A2997 RMK
      A02=
METAR KQEN 081310Z AUTO 21004KT 7SM SCT075 SCT100 18/16 A3042 RMK A02=
METAR KQEP 081310Z AUTO 16004KT 5SM -SHRA SCT037 SCT070 BKN100 22/19
      A2990 RMK A02=
METAR KQER 081310Z AUTO 00000KT 2SM BR FEW004 21/19 A2992 RMK A02=
METAR KQES 081310Z AUTO 31005KT 4SM BR FEW038 BKN100 20/17 A2988 RMK
      A02=
METAR KQEY 081310Z AUTO 11001KT 7SM FEW080 SCT100 25/18 A2964 RMK A02=
METAR KQEV 081320Z AUTO 21003KT 4SM -RA OVC065 23/19 A2983 RMK A02=
####018001103####
SPZZ40 KAWN 081311 RRA
SPECI CYAM 081307Z 28010KT 5SM BR BKN002 OVC006 RMK SF6SF2=
SPECI CYMO 081308Z AUTO 30010KT 2 3/8SM RA FEW038 OVC067 19/18 A2990
      RMK VSBY VRBL 1.5V9.+=
SPECI CYUA 081306Z AUTO 21008KT 9SM FEW023 OVC030 06/ A3006=
SPECI CYUS 081304Z AUTO ///// 9SM CLR 13/ A2979=
SPECI EGUN 081303Z AUTO 27011KT 9999 SCT033 SCT043 24/16 A3006 RMK
      AO2 SLP169=
SPECI KCEF 081306Z 15005KT 6SM BR OVC011 25/23 A3008 RMK AO2A SLP186
      $=
SPECI KNKX 081306Z 00000KT 10SM DZ OVC008 16/14 A2991 RMK AO2 RAE02DZB02
      CIG 005V011 P0000=
PATC SP 1315 AWOS CLR BLO 120 10 46/43/0108/013=
SPECI RJCC 081305Z 19004KT 170V240 1000 R19R/P1800N R01R/0800V1300D
      DZ VV002 17/17 Q1010 RMK A2985=
SPECI RJCC 081307Z 19004KT 0800 R19R/P1800N R01R/0800V1400U DZ VV002
      17/17 Q1010 RMK A2985=
SPECI RKSO 081304Z AUTO 28003KT 9999 CLR 23/23 A2981 RMK AO2 RAB1254E1304DZE1254
      SLP096 $=
SPECI YSSY 081300Z 24007KT 9999 -SHRA FEW010 SCT020 BKN050 11/11 Q1027
      FM1300 22008KT 9999 -SHRA SCT020 BKN045 INTER 1300/1600 5000
      SHRA BKN010=
####018000073####
SAAL41 DAMM 081300 RRA
METAR DABT 081300Z 35016KT CAVOK 36/03 Q1022=
####018000438####
SAUS90 KWBC 081312
METAR KCBE 081311Z AUTO 00000KT 7SM CLR 26/18 A3011 RMK AO1=
METAR K2W6 081310Z AUTO 12008KT 7SM BKN013 BKN019 27/23 A3003 RMK
     AO1=
METAR KCGS 081315Z AUTO 04003KT 5SM SCT095 30/23 A3002 RMK AO1=
METAR K2G4 081310Z AUTO 00000KT 10SM CLR 25/15 A3020 RMK AO1=
METAR KCGE 081308Z AUTO 12009KT 10SM CLR 28/23 A3004 RMK AO1=
METAR KEHA 081308Z AUTO 01008KT 17/17 RMK AO1 PK WND 13 004
     T01720167=
####018000179####
SPUS90 KWBC 081312
SPECI KNYC 081308Z AUTO 00000KT 5SM HZ SCT011 BKN020 BKN027 26/23
     A3008 RMK AO2 TSNO $=
SPECI KSAN 081310Z 32005KT 9SM OVC013 16/14 A2992 RMK AO2=
####018000089####
SPBZ24 SBPA 081310
SPECI SBPA 081310Z 17004KT 6000 SCT010 BKN015 BKN030 15/13 Q1021=
####018000085####
SAMD90 KWBC 081311
METAR K2G4 081310Z AUTO 00000KT 10SM CLR 25/15 A3020 RMK AO1=
####018000084####
SAMD90 KWBC 081311
METAR KCBE 081311Z AUTO 00000KT 7SM CLR 26/18 A3011 RMK AO1=
####018000094####
SAMD90 KWBC 081311
METAR K2W6 081310Z AUTO 12008KT 7SM BKN013 BKN019 27/23 A3003 RMK AO1=
####018000087####
SAMD90 KWBC 081311
METAR KCGS 081315Z AUTO 04003KT 5SM SCT095 30/23 A3002 RMK AO1=
####018000085####
SAMD90 KWBC 081311
METAR KCGE 081308Z AUTO 12009KT 10SM CLR 28/23 A3004 RMK AO1=
####018000974####
SAUS20 KNKA 081311
METAR K1F0 081307Z AUTO 00000KT 24/24 A3003 RMK AO2 PWINO=
METAR K36U 081315Z AUTO 00000KT 10SM CLR 11/06 A3025 RMK AO2=
SPECI KAMA 081310Z 01011KT 10SM OVC007 18/17 A3022 RMK AO2 CIG 
    005V011=
METAR KBNL 081315Z AUTO 32007KT 10SM CLR 29/19 A3000 RMK AO2 =
SPECI KCOT 081310Z AUTO 03007KT 10SM FEW009 BKN019 BKN044 26/23 
    A2990 RMK AO2 RAE1257 P0000=
METAR KCQW 081315Z AUTO 34004KT 5SM  HZ CLR 29/19 A2998 RMK AO2 =
SPECI KIAH 081310Z 12010KT 1SM TS BR SCT008 OVC025CB 24/23 A2998 RMK 
    AO2 OCNL LTGIC VC NE-S TS VC NE-S MOV NW P0006 $=
METAR KISN 081252Z COR 22004KT 10SM SCT080 15/12 A3015 RMK AO2 
    SLP205 T01500117=
METAR KLKR 081315Z AUTO 00000KT 9SM CLR 27/22 A3002 RMK AO2 =
METAR KLRO 081315Z AUTO 29003KT 7SM CLR 27/21 A2996 RMK AO2 =
METAR KONM 081307Z AUTO 36006KT 10SM OVC080 19/15 A3025 RMK AO2 
     T01850145=
SPECI KPPF 081310Z AUTO 00000KT 10SM SCT006 BKN010 23/22 A3008 RMK 
    AO2=
####018000248####
SAHK31 VHHH 081300 RRA
METAR RCTP 081300Z 19006KT 150V250 9999 FEW025 BKN150 29/25
Q1007 NOSIG=
METAR RCKH 081300Z 24006KT 200V280 9999 FEW013 BKN300 30/26
Q1009 NOSIG=
METAR RCSS 081300Z VRB02KT 9999 FEW030 SCT120 30/24 Q1008
NOSIG=
####018000081####
SAAL41 DAMM 081300 RRB
METAR DAUI 081300Z 08020KT 8000 DRSA NSC 45/07 Q1012=
####018000096####
SAUS98 KWBC 081312
METAR KEHA 081308Z AUTO 01008KT 17/17 RMK AO1 PK WND 13 004
T01720167=
####018000536####
SAUS99 KWBC 081312
METAR
K1F0 081307Z AUTO 00000KT 24/24 A3003 RMK AO2 PWINO=
K36U 081315Z AUTO 00000KT 10SM CLR 11/06 A3025 RMK AO2=
KBNL 081315Z AUTO 32007KT 10SM CLR 29/19 A3000 RMK AO2=
KCQW 081315Z AUTO 34004KT 5SM HZ CLR 29/19 A2998 RMK AO2=
KISN 081252Z COR 22004KT 10SM SCT080 15/12 A3015 RMK AO2 SLP205
     T01500117=
KLKR 081315Z AUTO 00000KT 9SM CLR 27/22 A3002 RMK AO2=
KLRO 081315Z AUTO 29003KT 7SM CLR 27/21 A2996 RMK AO2=
KONM 081307Z AUTO 36006KT 10SM OVC080 19/15 A3025 RMK AO2
     T01850145=
####018000493####
SPUS99 KWBC 081312
SPECI
PAIL 081309Z AUTO 05005KT 1/2SM FG FEW001 OVC070 08/08 A2995 RMK
     AO2 RAE02 P0000 TSNO=
KAMA 081310Z 01011KT 10SM OVC007 18/17 A3022 RMK AO2 CIG
     005V011=
KCOT 081310Z AUTO 03007KT 10SM FEW009 BKN019 BKN044 26/23 A2990
     RMK AO2 RAE1257 P0000=
KIAH 081310Z 12010KT 1SM TS BR SCT008 OVC025CB 24/23 A2998 RMK AO2
     OCNL LTGIC VC NE-S TS VC NE-S MOV NW P0006 $=
KPPF 081310Z AUTO 00000KT 10SM SCT006 BKN010 23/22 A3008 RMK
     AO2=
####018000092####
SAUK51 EGGY 081250 RRC
METAR EGDY 081250Z 20009KT 9999 FWE035 SCT100 BKN220 22/14 Q1018=
####018000265####
SARS34 RUMS 081300
METAR UUYH 081300Z 20001MPS CAVOK 27/11 Q1016 NOSIG RMK QFE 750
18CLRD60=
METAR UUYS 081300Z 17003MPS CAVOK 20/07 Q1015 NOSIG RMK QFE754
14CLRD60=
METAR UUYY 081300Z 21003MPS 9999 FEW036 OVC200 30/15 Q1015 NOSIG
19CLRD61 RMK QFE753/1004=
####018000652####
SARA36 RUMS 081300
METAR UWUU 081300Z 36006G09MPS CAVOK 29/10 Q1015 82010060 NOSIG RMK
QFE750/1000=
METAR USCC 081300Z 01006G09MPS 9999 FEW040 FEW200 25/02 Q1013 NOSIG
RMK QFE740 27000070=
METAR USDD 081300Z 05008G11MPS CAVOK 17/00 Q1015 NOSIG RMK
QFE755/1007 SC060=
METAR USMU 081300Z 01005MPS 9999 SCT037CB OVC066 15/13 Q1007 NOSIG
RMK QFE749 09250345=
METAR USNN 081300Z 16004MPS P6000 SCT026 BKN200 18/11 Q1003 NOSIG RMK
QFE748 SC065=
METAR USRK 081300Z 34003MPS 6000 BKN022 OVC066 15/11 Q1004 NOSIG RMK
QFE747 351///55=
METAR USRR 081300Z 34003MPS 7000 OVC012 13/11 Q1005 TEMPO BKN007 RMK
QFE748 25////60=
METAR USSS 081300Z NIL=
####018000088####
SAUK34 EGGY 081250 CCA
METAR COR EGHK 081250Z 15006KT 9999 SCT020 18/15 Q1018 NOSIG=
####018000452####
SARS33 RUMS 081300
METAR ULLI 081300Z 00000MPS 9999 VCTS BKN033CB BKN066 BKN200 30/14
Q1013 TEMPO TSRA=
METAR UUDD 081300Z 17004MPS 130V210 9999 FEW050TCU BKN100 28/15 Q1015
TEMPO VRB12MPS TSRA=
METAR UUEE 081300Z 17005MPS 140V200 9999 SCT050CB BKN200 29/12 Q1015
NOSIG=
METAR UUEM 081300Z NIL=
METAR UUWW 081300Z 19004MPS CAVOK 27/15 Q1015 24000070 NOSIG=
METAR UUMO 081300Z 15004MPS 110V210 CAVOK 27/15 Q1015 NOSIG RMK
QFE746/0995 SC060=
####018000382####
SARA35 RUMS 081300
METAR ULDD 081300Z NIL=
METAR UOHH 081300Z 36003MPS 9999 CAVOK 15/04 Q1023 NOSIG RMK QFE761=
METAR UOII 081300Z 29002MPS 160V290 9999 -SHRA BKN026CB BKN100 19/17
Q1008 TEMPO -TSRA RMK QFE753 12////60=
METAR UOOO 081300Z 02008G10MPS CAVOK 21/10 Q1010 NOSIG RMK QFE743
010///60=
METAR USCM 081300Z VRB02MPS 9999 SKC 27/01 Q1014 NOSIG 01090065 RMK
QFE722=
####018000387####
SARA33 RUMS 081300
METAR UIAA 081300Z 31005MPS 9999 VCTS -SHRA BKN033CB OVC100 18/15
Q1009 NOSIG RMK     QFE698 29CLRD70=
METAR UIBB 081300Z 06002MPS 9999 BKN200 23/14 Q1006 NOSIG RMK
QFE711/0949 30CLRD60=
METAR UIII 081300Z 16004MPS CAVOK 18/11 Q1006 NOSIG RMK QFE712/0950
12CLRD60=
METAR UIUU 081300Z 00000MPS 9999 SCT033CB OVC100 21/14 Q1007 NOSIG
RMK QFE711/0949 26CLRD60=
####018000896####
SARS32 RUMS 081300
METAR URKA 081300Z NIL=
METAR URKK 081300Z 05006G09MPS 020V090 9999 BKN043 30/20 Q1011 NOSIG
RMK QFE755 SC070=
METAR URKM 081300Z 07003MPS 9999 SCT040 BKN100 30/17 Q1011 NOSIG RMK
QFE740=
METAR URML 081300Z 08005MPS 9999 FEW100 32/19 Q1012 NOSIG RMK QFE759
/ 07=
METAR URMM 081300Z 12004G07MPS 080V140 9999 BKN046 31/19 Q1012 NOSIG
RMK / SC070=
METAR URMN 081300Z 06003MPS 9999 BKN036CB BKN110 28/19 Q1013 NOSIG
RMK / QFE723 SC07=
METAR URMT 081300Z 05005G08MPS 9999 SCT026CB BKN100 28/17 Q1014 NOSIG
RMK QFE720 SC07=
METAR URRR 081300Z VRB01MPS 9999 FEW036 31/16 Q1013 NOSIG RMK SC070=
METAR URSS 081300Z 29005MPS 9999 FEW040 27/21 Q1009 NOSIG RMK /
QFE755 06CLRD70=
METAR URWA 081300Z 28002MPS CAVOK 38/11 Q1010 NOSIG RMK SC07=
METAR URWI 081300Z VRB02MPS CAVOK 31/16 Q1013 NOSIG RMK SC065=
METAR URWW 081300Z 30004MPS CAVOK 31/11 Q1014 NOSIG RMK SC070=
####018000955####
SARS35 RUMS 081300
METAR USPP 081300Z 35004MPS CAVOK 26/11 Q1015 NOSIG RMK QFE750/1000
21090060=
METAR UWKD 081300Z 28003MPS 250V310 9999 FEW050CB SCT070 32/13 Q1015
TEMPO VRB15MPS 3000 TSRA RMK QFE750/1000 79CLRD70=
METAR UWKE 081300Z NIL=
METAR UWKS 081300Z 07002MPS 030V100 9999 VCTS BKN033CB 27/16 Q1016
NOSIG RMK QFE748 SC0.60=
METAR UWLL 081300Z 08003MPS 9999 SCT050CB 32/10 Q1015 NOSIG RMK
QFE749/0998 SC065=
METAR UWLW 081300Z 02003MPS 8000 FEW040CB 33/14 Q1014 TEMPO -TSRA
02CLRD60 RMK QFE754=
METAR UWOR 081300Z 05005MPS CAVOK 29/00 Q1014 07CLRD65 NOSIG RMK
QFE735/0980=
METAR UWOO 081300Z 05004MPS 020V100 P5000 FEW220 32/02 Q1012 08LRD65
NOSIG RMK QFE748/0998=
METAR UWPP 081300Z 14006MPS 9999 SCT033 BKN100 33/09 Q1013 NOSIG RMK
QFE745 11090060=
METAR UWSS 081300Z 05005MPS CAVOK 31/09 Q1014 NOSIG RMK QFE748
120///60=
METAR UWWW 081300Z 08005MPS 9999 FEW033 BKN200 32/07 Q1014 NOSIG RMK
QFE748/0997 05CLRD60 15//99//=
####018000093####
SAIY41 LIIB 081300 RRA
METAR LIVE 081255Z 18006KT CAVOK 21/12 Q1025 RMK SKC VIS MIN 9999=
####018000911####
SPUS70 KWBC 081312
SPECI
K7R3 081301Z 04004KT6 10SM FEW003 SCT070 26/25 A3002 RMK DA012=
KAPA 081309Z 01008KT 2 1/2SM BR BKN002 BKN070 14/13 A3035 RMK
     AO2=
KDWH 081309Z 11009G15KT 1 3/4SM +RA BR FEW007 BKN016 BKN043 25/24
     RMK AO2 VIS 1V5 LTG DSNT SE RAB04 CIG 013V026 P0006 $=
KESF 081309Z AUTO 10003KT 10SM FEW005 27/24 A3005 RMK AO2=
KTVC 081309Z VRB03KT 7SM -RA BKN006 OVC012 22/21 A3000 RMK AO2
     RAB01 P0000=
PAIL 081309Z AUTO 05005KT 1/2SM FG FEW001 OVC070 08/08 A2995 RMK
     AO2 RAE02 P0000 TSNO=
KAMA 081310Z 01011KT 10SM OVC007 18/17 A3022 RMK AO2 CIG
     005V011=
KCOT 081310Z AUTO 03007KT 10SM FEW009 BKN019 BKN044 26/23 A2990
     RMK AO2 RAE1257 P0000=
KIAH 081310Z 12010KT 1SM TS BR SCT008 OVC025CB 24/23 A2998 RMK AO2
     OCNL LTGIC VC NE-S TS VC NE-S MOV NW P0006 $=
KPPF 081310Z AUTO 00000KT 10SM SCT006 BKN010 23/22 A3008 RMK
     AO2=
####018000087####
SAKN64 HKMO 081300
METAR HKJK 081300Z 17010KT 9999 SCT022 BKN090 20/13 Q1022 NOSIG=
####018000175####
SPUS80 KWBC 081312
SPECI
KNYC 081308Z AUTO 00000KT 5SM HZ SCT011 BKN020 BKN027 26/23 A3008
     RMK AO2 TSNO $=
KSAN 081310Z 32005KT 9SM OVC013 16/14 A2992 RMK AO2=
####018000160####
SAUS80 KWBC 081312
METAR
KCBE 081311Z AUTO 00000KT 7SM CLR 26/18 A3011 RMK AO1=
KEHA 081308Z AUTO 01008KT 17/17 RMK AO1 PK WND 13 004
     T01720167=
####018000125####
SAAF32 KWBC 081300 RRB
METAR
FTTJ 081300Z VRB04KT 9999 VCRA FEW040 FEW050CB BKN140 31/28 Q1012
     TEMPO 3000 TSRA=
####018000084####
SAEW37 LEMM 081300 RRA
METAR LEGA 081300Z 18017G27KT 9999 FEW060TCU 39/14 Q1017=
####018000147####
SANM40 FYWW 081300 RRA
METAR FYAN 081300Z AUTO 01008KT //// // ////// 22/02 Q1025=
METAR FYOA 081300Z AUTO 04007KT //// // ////// 26/02 Q1020=
####018000073####
SAAS31 KWBC 081305 RRA
METAR
VOBG 081300Z NIL=
VOCI 081300Z NIL=
####018001992####
SAUS70 KWBC 081312
METAR
KAAA 081305Z AUTO 24003KT 10SM BKN006 BKN048 OVC050 24/22 A3005
     RMK AO2 T02400224=
KCCA 081315Z AUTO 00000KT 7SM OVC006 24/23 A3010 RMK AO2=
KCDN 081315Z AUTO 30005KT 10SM CLR 29/21 A3000 RMK A02 P000=
KCKI 081315Z AUTO 30005KT 10SM CLR 28/20 A2996 RMK AO2=
KHHF 081305Z AUTO 07005KT 1/2SM +RA BKN006 OVC017 21/20 A3016 RMK
     AO2 P0031 T02110203=
KLOT 081304Z AUTO 00000KT 4SM BR BKN021 OVC029 23/22 A3003 RMK
     AO2=
KMKS 081315Z AUTO 33003KT 10SM CLR 27/21 A2996 RMK AO2 TSNO=
KRYW 081305Z AUTO 07006KT 2SM BR OVC003 24/23 A3001 RMK AO2=
KSAR 081305Z AUTO 21004KT 7SM SCT085 26/24 A3006 RMK AO2=
KSLO 081303Z AUTO 24004KT 10SM SCT043 BKN050 BKN090 28/23 A3006
     RMK AO2 T02790229=
KT82 081305Z AUTO 07005KT 23/22 A3003 RMK AO1 T02310220=
KTAZ 081305Z AUTO 00000KT 10SM SCT080 27/24 A3004 RMK AO2=
KTFP 081305Z AUTO 00000KT 10SM SCT038 BKN055 OVC075 27/25 A2984
     RMK AO2 LTG DSNT S T02670253=
KTIP 081305Z AUTO 00000KT 7SM SCT080 SCT090 26/24 A3006 RMK AO2
     T02550238=
KTYQ 081305Z AUTO 19005KT 10SM CLR 27/22 A3007 RMK AO2=
KUVA 081305Z AUTO 05005KT 10SM CLR 24/23 A2996 RMK AO2
     T02410227=
KVYS 081305Z AUTO 26003KT 10SM SCT004 SCT007 BKN032 24/22 A3003
     RMK AO2 T02420224=
KXBP 081305Z AUTO 00000KT 10SM SCT012 BKN024 OVC029 24/23 A3006
     RMK AO2 T02440230=
K2W6 081310Z AUTO 12008KT 7SM BKN013 BKN019 27/23 A3003 RMK
     AO1=
KCGS 081315Z AUTO 04003KT 5SM SCT095 30/23 A3002 RMK AO1=
K2G4 081310Z AUTO 00000KT 10SM CLR 25/15 A3020 RMK AO1=
K1F0 081307Z AUTO 00000KT 24/24 A3003 RMK AO2 PWINO=
K36U 081315Z AUTO 00000KT 10SM CLR 11/06 A3025 RMK AO2=
KBNL 081315Z AUTO 32007KT 10SM CLR 29/19 A3000 RMK AO2=
KCQW 081315Z AUTO 34004KT 5SM HZ CLR 29/19 A2998 RMK AO2=
KLKR 081315Z AUTO 00000KT 9SM CLR 27/22 A3002 RMK AO2=
KLRO 081315Z AUTO 29003KT 7SM CLR 27/21 A2996 RMK AO2=
KONM 081307Z AUTO 36006KT 10SM OVC080 19/15 A3025 RMK AO2
     T01850145=
####018000110####
SAIY42 LIIB 081300 RRA
METAR LIQW 081255Z 21003KT 9999 SCT025 30/20 Q1020 RMK SCT VIS MIN
      9999 BLU=
####018000955####
SARS31 RUMS 081300
METAR ULAA 081300Z 30004MPS 270V330 9999 FEW033 28/17 Q1015 TEMPO
TSRA RMK QFE760/1014 SC070=
METAR ULKK 081300Z 34002MPS 6000 FEW033 SCT099 32/16 Q1015 NOSIG RMK
QFE756=
METAR ULMM 081300Z 06001G04MPS 9999 BKN026 17/08 Q1018 NOSIG RMK
QFE756 32190060=
METAR ULOL 081300Z NIL=
METAR ULOO 081300Z VRB01MPS P6000 TS SCT033CB BKN047 BKN200 27/18
Q1012 NOSIG RMK QFE755=
METAR ULWW 081300Z 17004MPS 9999 SCT050TCU BKN/// 32/14 Q1016 NOSIG
RMK QFE751 15CLRD60=
METAR UMKK 081300Z 30006MPS P8000 FEW030 SCT200 22/13 Q1020 NOSIG RMK
QFE 764 SC07=
METAR UUBP 081300Z 36001MPS 9999 BKN033CB BKN/// 25/19 Q1014 NOSIG=
METAR UUOB 081300Z 27004MPS 9999 BKN040CB BKN200 27/17 Q1014 NOSIG
RMK SC065=
METAR UUOK 081300Z 29002MPS 9999 BKN033 29/17 Q1012 NOSIG=
METAR UUOO 081300Z VRB01MPS 9999 SCT033CB BKN100 29/13 Q1014 NOSIG
RMK 13090070=
METAR UWGG 081300Z 13002MPS 100V180 8000 FEW033 34/09 Q1015 NOSIG RMK
QFE754 18090070=
####018001575####
SAAU31 KWBC 081300 RRA
METAR
YBAS 081300Z AUTO 00000KT 9999NDV // NCD 07/06 Q1021=
YBBN 081300Z 22007KT 9999 BKN040 14/11 Q1021 NOSIG=
YBCG 081300Z AUTO 20012KT 9999NDV // OVC100 15/12 Q1021=
YBCS 081300Z 15006KT 9999 FEW024 BKN040 23/19 Q1016=
YBMA 081300Z NIL=
YBRK 081300Z 23003KT 9999 FEW004 BKN030 13/12 Q1020=
YBRM 081300Z 06004KT 9999 SCT037 BKN071 23/22 Q1012=
YBTL 081300Z AUTO 13008KT 9999NDV // SCT018 OVC025 22/19 Q1017=
YMHB 081300Z 32006KT CAVOK 03/01 Q1031=
YMML 081300Z NIL=
YPAD 081300Z 02004KT CAVOK 06/03 Q1026=
YPCC 081300Z AUTO 14010KT 9999NDV // SCT026 OVC033 25/22 Q1014=
YPDN 081300Z 05005KT CAVOK 24/21 Q1013=
YPEA 081300Z AUTO 36011KT 9999NDV // SCT016 SCT040 SCT069 14/12
     Q0997=
YPLM 081300Z AUTO 22007KT 9999NDV // SCT027 BKN040 OVC048 20/17
     Q1010=
YPPD 081300Z AUTO 35005KT 9000NDV // BKN032 BKN051 OVC100 21/21
     Q1010=
YPPH 081300Z 36008KT 9999 VCSH FEW009 SCT028 BKN058 14/13 Q0997
     RMK WBD 0.3 INTER 1300/1600 29030G50KT 2000 TSGS BKN010
     FEW030CB=
YPTN 081300Z AUTO 12004KT 9999NDV // OVC051 24/16 Q1015=
YPXM 081300Z AUTO 22005KT 9999NDV // NCD 22/20 Q1014=
YSCB 081300Z AUTO 08002KT 9999NDV // SCT021 02/02 Q1028=
YSDU 081300Z AUTO 15007KT 9999NDV // NCD 06/04 Q1026=
YSNF 081300Z AUTO 11012KT 9999NDV // OVC035 15/08 Q1018=
YSRI 081300Z AUTO 26004KT 9999NDV // SCT027 BKN057 OVC071 11/10
     Q1028=
YSSY 081300Z 24007KT 9999 -SHRA FEW010 SCT020 BKN050 11/11 Q1027
     FM1300 22008KT 9999 -SHRA SCT020 BKN045 INTER 1300/1600 5000
     SHRA BKN010=
####018000086####
SANO35 ENMI 081250 RRB
METAR ENMS 081250Z 32005KT 9999 FEW050 SCT070 19/10 Q1009 =
####018000091####
SPBZ31 KWBC 081312
SPECI
SBPA 081310Z 17004KT 6000 SCT010 BKN015 BKN030 15/13 Q1021=
####018000222####
SAUS70 KWBC 081300 RRJ
METAR
KIGQ 081300Z AUTO 00000KT 1 1/4SM -RA SCT006 BKN022 BKN032 24/22
     A3003 RMK AO2 VIS 1/4V5 P0011=
KISN 081252Z COR 22004KT 10SM SCT080 15/12 A3015 RMK AO2 SLP205
     T01500117=
####018000097####
SAAS31 KWBC 081230 RRE
METAR
VIBN 081230Z 11004KT 7000 FEW020 SCT025 FEW030CB 38/22 Q1001=
####018000168####
SAAW34 KWBC 081245 RRG
METAR
UACP 081300Z NIL=
UADD 081300Z 36002MPS 9999 NSC 34/03 Q1012 NOSIG RMK
     QFE702/0937=
UAII 081300Z NIL=
UASP 081300Z NIL=
####018000249####
SAAW33 KWBC 081300 RRA
METAR
OYAA 081300Z NIL=
OYAR 081300Z 04006KT 4000 DU SCT030 27/02 Q////=
OYHD 081300Z 28008KT 8000 NSC 34/28 Q0999=
OYSN 081300Z 03018KT 4000 DU SCT030 31/M03 Q1020=
OYTZ 081300Z 30012KT 8000 FEW030 30/16 Q1008=
####018000084####
SAAG SAWG 081300
METAR SAWG 081300Z  32005KT 9999  FEW020 BKN100
M03/M05 Q0990=
####018000089####
SAUS80 KWBC 081300 RRF
METAR
KSOA 081300Z AUTO 01003KT 6SM BR 22/22 A3010 RMK AO2=
####018000214####
SAXX60 KWBC 081300 RRI
METAR
PHNG 081257Z COR 11007KT 10SM SCT026 BKN040 24/21 A3002 RMK AO2
     SLP159 T02390206 $=
TTPP 081300Z ///06KT 3000 -RA FEW006 FEW010CB SCT012 BKN035 26/25
     Q1013 NOSIG=
####018001526####
SAIY40 LIIB 081300
METAR LIMG 081250Z 06007KT 9999 FEW060 30/25 Q1020 RMK VIS MIN 9999=
METAR LIMK 081255Z 00000KT CAVOK 21/12 Q1023 RMK SKC VAL NIL VIS MIN
      9999=
METAR LIMN 081255Z /////KT 9999 FEW030 28/17 Q1021 RMK FEW VIS MIN
      9999 BLU=
METAR LIMP 081250Z 07006KT 040V100 CAVOK 29/14 Q1021 RMK VIS MIN
9999=
METAR LIMS 081255Z 13003KT CAVOK 30/15 Q1020 RMK SKC VIS MIN 9999
      WIND THR30 13005KT BLU=
METAR LIMZ 081250Z 32005KT 8000 FEW035 SCT060 25/18 Q1023 RMK VIS
MIN 8000=
METAR LIPA 081255Z 22008KT 9999 FEW050 26/18 Q1021 RMK FEW VIS MIN
      9999 A3017 BLU=
METAR LIPB 081250Z 18013KT CAVOK 30/12 Q1019 RMK MON LIB VIS MIN
9999=
METAR LIPC 081300Z NIL=
METAR LIPF 081255Z 19004KT 9999 FEW035 29/20 Q1021 RMK FEW VIS MIN
      9999=
METAR LIPH 081245Z 13004KT 9999 SCT025 27/20 Q1022 RMK SCT VIS MIN
      9999 WIND THR07 /////KT BLU=
METAR LIPI 081255Z 19008KT CAVOK 27/19 Q1022 RMK SKC VIS MIN 9999
WIND THR06 19007KT BLU=
METAR LIPL 081255Z 06002KT 9999 FEW036 29/17 Q1021 RMK FEW VIS MIN
      9999 BLU=
METAR LIPO 081250Z 24005KT 100V260 9999 FEW050 29/12 Q1020 RMK VIS
MIN 9999=
METAR LIPQ 081250Z 28004KT CAVOK 27/14 Q1022=
METAR LIPR 081245Z 08011KT CAVOK 28/19 Q1021 RMK SKC VIS MIN 9999
      WIND THR31 08012KT BLU=
METAR LIPS 081255Z 00000KT 9999 SCT030 28/17 Q1021 RMK SCT VIS MIN
      9999 BLU=
METAR LIPX 081245Z 20005KT 9999 FEW040 30/14 Q1021 RMK FEW VIS MIN
      9999 BLU=
METAR LIPY 081250Z 06008KT 020V100 CAVOK 27/13 Q1021 RMK VIS MIN
9999=
####018000250####
SPXX60 KWBC 081312
SPECI
KCEF 081306Z 15005KT 6SM BR OVC011 25/23 A3008 RMK AO2A SLP186
     $=
KNKX 081306Z 00000KT 10SM DZ OVC008 16/14 A2991 RMK AO2 RAE02DZB02
     CIG 005V011 P0000=
PATC SP 1315 AWOS CLR BLO 120 10 46/43/0108/013=
####018000096####
SABX31 KWBC 081250 RRB
METAR
EBBL 081255Z 23006KT 9999 FEW050 SCT220 32/10 Q1019 BLU BLU=
####018000080####
SPAK32 KWBC 081312
SPECI
PATC SP 1315 AWOS CLR BLO 120 10 46/43/0108/013=
####018000068####
SAAG SACO 081300
METAR SACO 081300Z  34005KT CAVOK 11/M05 Q1019=
####018000245####
SAAF31 KWBC 081300 RRB
METAR
DBBB 081300Z 22011KT 9999 SCT012 BKN120 29/25 Q1012 NOSIG=
DGAA 081300Z 20014KT 9999 FEW010 SCT016 BKN250 30/23 Q1013
     NOSIG=
DNKN 081300Z NIL=
DRRN 081300Z 18004KT 110V210 CAVOK 33/19 Q1012 NOSIG=
####018000306####
SACI31 KWBC 081300 RRA
METAR
RCKH 081300Z 24006KT 200V280 9999 FEW013 BKN300 30/26 Q1009
     NOSIG=
RCKH 081300Z NIL=
RCSS 081300Z VRB02KT 9999 FEW030 SCT120 30/24 Q1008 NOSIG=
RCSS 081300Z NIL=
RCTP 081300Z 19006KT 150V250 9999 FEW025 BKN150 29/25 Q1007
     NOSIG=
RCTP 081300Z NIL=
####018000206####
SACA33 KWBC 081300 RRB
METAR
TTCP 081300Z 06007KT 9999 TS SCT010CB SCT036 BKN080 26/23 Q1013
     TEMPO TSRA=
TTPP 081300Z ///06KT 3000 -RA FEW006 FEW010CB SCT012 BKN035 26/25
     Q1013 NOSIG=
####018000095####
SAAS32 KWBC 081305 RRA
METAR
VMMC 081300Z 19008KT 180V260 9999 FEW020 29/26 Q1007 NOSIG=
####018000084####
SACA41 KWBC 081300 RRB
METAR
TDCF 081300Z 03002KT 9999 SCT016TCU 30/23 Q1014=
####018000089####
SAFR31 KWBC 081300 RRA
METAR
LFLL 081308Z 18007KT 150V240 CAVOK 32/13 Q1019 NOSIG=
####018000075####
SAFR41 KWBC 081300 RRB
METAR
LFQB 081300Z VRB04KT CAVOK 32/10 Q1018=
####018000094####
SAIO31 KWBC 081300 RRC
METAR
FSIA 081303Z 16008KT 9999 SCT017 SCT250 27/22 Q1011 NOSIG=
####018000198####
SAID31 KWBC 081300 RRA
METAR
WAAA 081300Z 10002KT 9999 FEW020 26/26 Q1011=
WIII 081300Z 22003KT 7000 SCT020 25/22 Q1012 NOSIG=
WIMM 081300Z 09005KT 5000 FEW016CB SCT017 29/25 Q1010 NOSIG=
####018000132####
SAIY31 KWBC 081250 RRC
METAR
LIEE 081255Z 16012KT 9999 FEW020 28/21 Q1019 RMK FEW VIS MIN 9999
     WIND THR14 18013KT BLU=
####018000397####
SAIY41 KWBC 081250 RRC
METAR
LIBY 081255Z 34021G33KT CAVOK 25/08 Q1016 RMK SKC QUK 3 QUL 1 N
     VIS MAR 20 KM VIS MIN 9999=
LICF 081255Z 20003KT 9999 SCT030 28/24 Q1017 RMK BKN SCT080 QUK 1
     QUL 0 VIS MAR 12 KM MON E CLD CIME NC MON W LIB NC VIS MIN
     9999=
LIEB 081255Z 12004KT 9999 SCT025TCU 32/25 Q1018 RMK SCT QUK 2 QUL
     0 VIS MAR 20 KM MON INVIS VIS MIN 8000W=
####018000194####
SAIY43 KWBC 081250 RRC
METAR
LIQC 081255Z 07004KT CAVOK 28/10 Q1021 RMK SKC QUK 1 QUL 0 VIS MAR
     15 KM VIS MIN 9999=
LIRV 081255Z 27013KT 9999 SCT028 29/22 Q1020 RMK SCT MON E SE=
####018000143####
SAMX31 KWBC 081345 RRB
METAR
MMMX 081304Z 18003KT 2 1/2SM -RA HZ SCT008 BKN010 OVC020 15/14
     A3020 NOSIG RMK 60235 8/7// VSBY TWR=
####018000359####
SAMX31 KWBC 081245 RRE
METAR
MMCZ 081245Z 09008KT 6SM BKN100 BKN200 26/24 A2988 RMK 8/079 SC
     HZY=
MMMD 081248Z 10007KT 5SM SCT005 BKN080 BKN140 18/18 A2988 RMK
     8/670 HZY CI=
MMTP 081245Z 00000KT 10SM BKN020 OVC160 24/23 A2990 RMK 8/57/=
MMUN 081245Z 11008KT 6SM BKN015TCU BKN090 OVC280 28/25 A2990 RMK
     8/277 HZ LWR SC BINOVC=
####018000095####
SAHW31 KWBC 081300 RRA
METAR
PHTO 081308Z 27005KT 10SM FEW027 BKN033 OVC040 21/19 A3002=
####018000119####
SPJP31 KWBC 081312
SPECI
RJCC 081307Z 19004KT 0800 R19R/P1800N R01R/0800V1400U DZ VV002
17/17 Q1010 RMK A2985=
####018000127####
SPJP31 KWBC 081312
SPECI
RJCC 081305Z 19004KT 170V240 1000 R19R/P1800N R01R/0800V1300D DZ
VV002 17/17 Q1010 RMK A2985=
####018000088####
SANO42 KWBC 081250 RRC
METAR
ENMS 081250Z 32005KT 9999 FEW050 SCT070 19/10 Q1009=
####018000093####
SAPH31 KWBC 081300 RRB
METAR
RPLB 081300Z NIL=
RPMD 081300Z NIL=
RPMZ 081300Z NIL=
####018000198####
SARA31 KWBC 081300 RRC
METAR
UIAA 081300Z 31005MPS 9999 VCTS -SHRA BKN033CB OVC100 18/15 Q1009
     NOSIG RMK     QFE698 29CLRD70=
UTAT 081300Z VRB02MPS CAVOK 43/19 Q1006 NOSIG=
####018000297####
SARS32 KWBC 081300 RRB
METAR
URMM 081300Z 12004G07MPS 080V140 9999 BKN046 31/19 Q1012 NOSIG RMK
     / SC070=
URMN 081300Z 06003MPS 9999 BKN036CB BKN110 28/19 Q1013 NOSIG RMK
     / QFE723 SC07=
URSS 081300Z 29005MPS 9999 FEW040 27/21 Q1009 NOSIG RMK / QFE755
     06CLRD70=
####018000120####
SARS41 KWBC 081300 RRB
METAR
UWKE 081300Z 08003MPS 9999 FEW040 31/10 Q1015 NOSIG RMK
     QFE744/0992 04090070=
####018000090####
SASA32 KWBC 081300 CCA
METAR
SCBA 081300Z 26006KT 9999 FEW030 SCT035 M04/M07 Q1003=
####018000119####
SASA32 KWBC 081300 RRB
METAR
SLTR 081300Z 15010KT 6000 TS VCSH FEW006 BKN015 FEW020CB OVC070
     22/21 Q1015=
####018000285####
SASD42 KWBC 081300 RRA
METAR
OEGS 081300Z 33007KT CAVOK 45/07 Q1007=
OEGT 081300Z NIL=
OEHL 081300Z 01004KT 9999 SCT040 42/00 Q1011 NOSIG=
OEKB 081300Z NIL=
OEKK 081300Z 03016KT CAVOK 45/11 Q1005=
OEKM 081300Z 03010KT 8000 SCT022 32/04 Q1011 NOSIG=
OEMH 081300Z NIL=
####018000286####
SASD41 KWBC 081300 RRA
METAR
OEAB 081300Z 03010KT 9999 SCT020 32/M02 Q1019 NOSIG=
OEAH 081300Z 03014KT CAVOK 45/05 Q1000 NOSIG=
OEBA 081300Z 08006KT 9999 FEW030 36/04 Q1015 NOSIG=
OEBH 081300Z 03012KT CAVOK 41/03 Q1010 NOSIG=
OEGN 081300Z 26006KT CAVOK 36/30 Q1001 NOSIG=
####018000337####
SASD43 KWBC 081300 RRA
METAR
OEMK 081300Z 21003KT CAVOK 45/26 Q1000=
OENG 081300Z 03010KT 5000 DU SCT030 SCT080 40/M01 Q1009 NOSIG=
OEPA 081300Z NIL=
OERF 081300Z 33003KT CAVOK 45/13 Q1005=
OERR 081300Z 27008KT CAVOK 46/11 Q1006=
OESH 081300Z 05006KT 6000 SKC 41/17 Q1001 NOSIG=
OESK 081300Z 26010KT CAVOK 44/01 Q1007=
####018000298####
SASD44 KWBC 081300 RRA
METAR
OETB 081300Z 36002KT CAVOK 42/05 Q1008 NOSIG=
OETF 081300Z 11009KT 9999 SCT030 38/00 Q1014 NOSIG=
OETR 081300Z 20004KT CAVOK 40/05 Q1010=
OEWD 081300Z NIL=
OEWJ 081300Z 30018KT CAVOK 33/24 Q1003=
OEYN 081300Z 28018KT 4000 DU SKC 45/16 Q0998 TEMPO 3000=
####018001625####
SAXX99 KWBC 081300 RRM
METAR
DABT 081300Z 35016KT CAVOK 36/03 Q1022=
DFFD 081300Z VRB02KT CAVOK 30/21 Q1015 NOSIG=
EGUY 081250Z 21008KT 9999 FEW035 BKN150 23/11 Q1018 BLU=
EGYH 081250Z 22015KT 9999 FEW035 23/// Q1018 BLU=
KCBE 081311Z AUTO 00000KT 7SM CLR 26/18 A3011 RMK AO1=
LKKU 081300Z 01006KT CAVOK 25/07 Q1022=
LKLB 081300Z 27006KT 210V340 CAVOK 25/05 Q1023=
OEDM 081300Z 09010KT CAVOK 42/04 Q1010=
OEKJ 081300Z NIL=
OYAG 081300Z 08016KT 9999 SCT025 28/24 Q1001=
OYAM 081300Z NIL=
OYAT 081300Z 35010KT CAVOK 39/09 Q0998=
OYDM 081300Z 02015KT 6000 FEW030 SCT045 28/01 Q////=
OYIB 081300Z 29008KT 5000 DU SCT025 27/16 Q1015=
OYRN 081300Z 20016KT 6000 NSC 30/25 Q1000=
OYSH 081300Z 36014KT 3000 DU SCT030 33/04 Q////=
OYSQ 081300Z NIL=
OYSY 081300Z 09006KT 050V140 8000 NSC 42/09 Q1000=
RPLI 081300Z NIL=
SAWH 081300Z 27003KT 9999 FEW030 SCT100 00/M05 Q0983=
UACK 081300Z 30006G09MPS CAVOK 20/02 Q1010 02010070 NOSIG RMK
     QFE734=
URML 081300Z 08005MPS 9999 FEW100 32/19 Q1012 NOSIG RMK QFE759 /
     07=
WADD 081300Z 00000KT 9999 SCT018 26/25 Q1010 NOSIG=
WALL 081300Z NIL=
YAMB 081300Z AUTO 19001KT 9999NDV // NCD 13/10 Q1021=
YBHM 081300Z NIL=
YCIN 081300Z AUTO 11006KT //// // ////// 22/18 Q1013=
YFRT 081300Z AUTO 05009KT //// // ////// 11/02 Q1013=
YMAV 081300Z AUTO 33004KT 9999NDV // BKN048 07/05 Q1028=
YMLT 081300Z AUTO 17004KT 1100NDV // NCD 02/02 Q1031=
YPGV 081300Z AUTO 15008KT 9999NDV // SCT011 BKN016 24/22 Q1014=
YPKG 081300Z AUTO 35009KT 9999NDV // BKN068 17/05 Q1004=
YPKU 081300Z AUTO 13004KT 9999NDV // NCD 23/15 Q1015=
####018000076####
SPUS31 KWBC 081312
SPECI
KSAN 081310Z 32005KT 9SM OVC013 16/14 A2992=
####018000118####
SPXX62 KWBC 081312
SPECI
RKSO 081304Z AUTO 28003KT 9999 CLR 23/23 A2981 RMK AO2
RAB1254E1304DZE1254 SLP096 $=
####018000106####
SPXX61 KWBC 081312
SPECI
EGUN 081303Z AUTO 27011KT 9999 SCT033 SCT043 24/16 A3006 RMK AO2
SLP169=
####018000079####
SPUS41 KWBC 081312
SPECI
KCEF 081306Z 15005KT 6SM BR OVC011 25/23 A3008=
####018000095####
SAUS31 KWBC 081300 RRB
METAR
KIAH 081302Z 07006KT 1SM -TSRA FEW008 OVC025CB 26/24 A2998=
####018000113####
SAUS45 KCYS 081312
MTRW43
SAUS70 KW43 081305
METAR KW43 081255Z AUTO 00000KT 10SM CLR 12/09 A3031 RMK

####018000113####
SAUS45 KCYS 081312
MTRECS
SAUS70 KECS 081307
METAR KECS 081259Z AUTO 00000KT 10SM CLR 13/11 A3032 RMK

####018000131####
SAUS44 KFWD 081312
MTRHLR
SPECI KHLR 081310Z AUTO 09004KT 10SM BKN009 BKN012 OVC037 26/ A3001 
RMK AO2 RAE04 P0000 T0256 $
####018000083####
SACN70 CWAO 081300 RRA
WSZ SA 1300 AUTO8 M M M 164/15/13/2607/M/ 2010 49MM=

####018000495####
SACN91 CWAO 081300 RRA
WGR SA 1300 AUTO8 M M M 168/20/18/2314+20/M/ PK WND 2320 1227Z 0003
18MM=
WGX SA 1300 AUTO8 M M M 078/15/11/2406/M/ 8008 86MM=
WIG SA 1300 AUTO8 M M M M/M/M/0106/M/M M MMMM=
WII SA 1300 AUTO8 M M M M/17/14/3117/M/M PK WND 3020 1217Z M 28MM=
WIS SA 1300 AUTO8 M M M 172/24/21/2005/M/ 3001 66MM=
WIT SA 1300 AUTO8 M M M M/28/22/2805/M/M M 18MM=
WIW SA 1300 AUTO8 M M M 199/14/11/2504/M/ 2002 52MM=
WJH SA 1300 AUTO8 M M M 127/15/09/2703/M/ 8005 56MM=

####018000083####
SACN95 CWAO 081200 RRG
WUX SA 1200 AUTO7 M M M 153/21/20/0402/M/ 1005 02MM=

####018000649####
SACN88 CWAO 081300 RRA
ABR SA 1300 AUTO7 M M M 216/22/19/2103/M/ 1006 84MM=
AFC SA 1300 AUTO8 M M M 186/23/18/1910/M/ 1003 54MM=
AHK SA 1300 AUTO7 M M M 205/20/18/2508/M/M 1010 04MM=
AHR SA 1300 AUTO8 M M M 185/22/19/2213+21/M/ PK WND 2221 1256Z 3002
19MM=
AHW SA 1300 AUTO7 M M M M/20/18/2406/M/M M 29MM=
AOH SA 1300 AUTO8 M M M 195/24/18/2407/M/ 0000 10MM=
AOS SA 1300 AUTO7 M M M M/17/17/2110/M/M M 55MM=
APR SA 1300 AUTO8 M M M 204/20/18/2805/M/ 1004 76MM=
AVA SA 1300 AUTO8 M M M 220/13/10/1713/M/ 6011 81MM=
ERM SA 1300 AUTO8 M M M 155/25/23/1602/M/ 0000 47MM=
XGD SA 1300 AUTO8 M M M 206/20/15/MMMM/M/ 6007 62MM=

####018000192####
SACN50 CWAO 081300 RRA
VQZ SA 1300 AUTO8 M M M 202/10/09/0000/M/ 2010 67MM=
VXS SA 1300 AUTO8 M M M 196/09/08/0801/M/ 3007 25MM=
ZKA SA 1300 AUTO8 M M M 197/15/M/1002/M/ 1010 1MMM=

####018000213####
SACN47 CWAO 081300 RRA
METAR CYKO 081300Z 22010KT 2SM -DZ BR OVC002 07/06 A2966 RMK FG1ST7
SLP045=
METAR CYTS 081300Z 30010G15KT 10SM -SHRA FEW007 SCT020 OVC050 18/16
A2992 RERA RMK SF2SC2SC4 SLP130=

####018000083####
SACN63 CWAO 081300 RRA
XAR SA 1300 AUTO8 M M M 024/07/07/1803/M/ 1002 97MM=

####018000682####
SACN89 CWAO 081300 RRA
WAG SA 1300 AUTO8 M M M 192/13/12/1904/M/M 8011 44MM=
WAQ SA 1300 AUTO8 M M M M/12/11/3403/M/ M 34MM=
WAV SA 1300 AUTO8 M M M 211/10/07/0000/M/ 8002 57MM=
WBL SA 1300 AUTO8 M M M 163/16/11/3013/M/M 1008 68MM=
WBM SA 1300 AUTO8 M M M 184/16/08/1301/M/ 1011 79MM=
WBT SA 1300 AUTO8 M M M 172/13/13/1503/M/ 7003 11MM=
WCJ SA 1300 AUTO8 M M M 140/17/17/1001/M/ 8004 49MM=
WCO SA 1300 AUTO8 M M M 145/30/22/1401/M/ 8003 58MM=
WDQ SA 1300 AUTO8 M M M 155/25/21/2202/M/M 0001 48MM=
WDU SA 1300 AUTO8 M M M M/12/06/2708/M/M M 53MM=
WDV SA 1300 AUTO8 M M M 153/18/16/2406/M/ 8001 05MM=
WDZ SA 1300 AUTO8 M M M 199/10/09/1605/M/ 8005 25MM=

####018000653####
SACN95 CWAO 081300 RRA
WTT SA 1300 AUTO8 M M M M/26/24/2502/M/M M 86MM=
WUX SA 1300 AUTO7 M M M 149/23/21/0403/M/ 8002 22MM=
WUY SA 1300 AUTO7 M M M 130/23/20/1907/M/ 8012 17MM=
WVI SA 1300 AUTO8 M M M 181/15/12/3108/M/ 3004 90MM=
WVN SA 1300 AUTO8 M M M 223/13/11/0201/M/ 1008 15MM=
WVP SA 1300 AUTO8 M M M 226/14/10/3402/M/ 2004 98MM=
WVU SA 1300 AUTO8 M M M 218/17/16/1711/M/ 1013 74MM=
WVW SA 1300 AUTO8 M M M 206/12/10/1812+18/M/M PK WND 1920 1214Z
8005 48MM=
WWK SA 1300 AUTO8 M M M 162/17/14/0000/M/ 2008 30MM=
WWP SA 1300 AUTO8 M M M 191/13/09/2803/M/ 3010 83MM=
WXG SA 1300 AUTO8 M M M 200/13/13/2604/M/ 3003 77MM=

####018000297####
SACN92 CWAO 081300 RRA
WJX SA 1300 AUTO8 M M M 211/12/11/2104/M/ 1002 11MM=
WKA SA 1300 AUTO8 M M M M/M/M/3301/M/M M MMMM=
WKX SA 1300 AUTO8 M M M 238/08/03/0303/M/ 0000 92MM=
WLE SA 1300 AUTO8 M M M 214/13/13/2206/M/ 1006 06MM=
WLF SA 1300 AUTO8 M M M 108/19/16/2205/M/ 8009 27MM=

####018000083####
SACN59 CWAO 081300 RRA
WLB SA 1300 AUTO8 M M M 172/16/13/2704/M/ 8001 99MM=

####018000248####
SACN78 CWAO 081300 RRA
TPQ SA 1300 AUTO8 M M M 166/28/21/1603/M/ 0001 58MM=
WBE SA 1300 AUTO8 M M M 161/18/17/0804/M/ 8002 82MM=
XBI SA 1300 AUTO8 M M M 165/27/23/1303/M/ 6001 95MM=
XZC SA 1300 AUTO8 M M M 123/19/17/2907/M/ 3014 39MM=

####018000150####
SACN49 CWAO 081300 RRA
METAR CYGW 081300Z 14004KT 15SM FEW025 SCT080 BKN120 OVC220 20/17
A2985 RMK SC1AC2AS2CI0 CU EMBD VIA CYQB FIC SLP110=

####018000530####
SACN97 CWAO 081300 RRA
XBO SA 1300 AUTO8 M M M M/20/18/0506/M/ M 05MM=
XEA SA 1300 AUTO8 M M M 140/16/13/2705/M/ 3006 47MM=
XGH SA 1300 AUTO8 M M M M/16/16/3006/M/M M 46MM=
XLT SA 1300 AUTO8 M M M 143/25/22/0405/M/M 8003 89MM=
XRH SA 1300 AUTO7 M M M M/17/14/1305/M/ M 81MM=
XSH SA 1300 AUTO7 M M M 153/27/21/1403/M/ 1005 07MM=
XTP SA 1300 AUTO8 M M M 218/15/12/2108/M/ PK WND 2217 1205Z 8009
44MM=
XVG SA 1300 AUTO8 M M M 160/14/09/2404/M/ 5000 59MM=
XZU SA 1300 AUTO8 M M M 187/11/09/2501/M/ 0001 47MM=

####018000122####
SACN48 CWAO 081300 RRA
METAR CYMU 081300Z 00000KT 15SM FEW004 OVC035 13/12 A2987 RMK SF2SC6
VIA CYQB FIC SLP120=

####018000082####
SACN85 CWAO 081300 RRA
WWE SA 1300 AUTO8 M M M 221/16/M/2204/M/ 1007 0MMM=

####018000353####
SACN93 CWAO 081300 RRA
WNQ SA 1300 AUTO7 M M M 153/27/22/2504/M/ 0003 55MM=
WNZ SA 1300 AUTO8 M M M 136/18/15/2702/M/ 6008 83MM=
WOE SA 1300 AUTO8 M M M M/13/09/3602/M/ M 33MM=
WPD SA 1300 AUTO8 M M M 129/24/22/1903/M/ 8003 24MM=
WPE SA 1300 AUTO8 M M M 207/13/13/1702/M/ 1009 40MM=
WPG SA 1300 AUTO8 M M M 183/16/11/2904/M/ 1017 24MM=

####018000349####
SACN90 CWAO 081300 RRA
WEI SA 1300 AUTO8 M M M 195/15/13/3203/M/ 2012 74MM=
WEW SA 1300 AUTO8 M M M 161/29/22/1401/M/ 0002 74MM=
WFE SA 1300 AUTO8 M M M M/14/11/3302/M/ M 03MM=
WFF SA 1300 AUTO8 M M M 189/12/09/2407/M/ 0000 20MM=
WGL SA 1300 AUTO8 M M M 171/25/25/1805/M/M 8003 38MM=
WGM SA 1300 AUTO8 M M M M/09/06/2703/M/ M 32MM=

####018000083####
SACN93 CWAO 081200 RRH
WNQ SA 1200 AUTO7 M M M 155/26/22/2604/M/ 3008 83MM=

####018000298####
SACN98 CWAO 081300 RRA
XKI SA 1300 AUTO8 M M M 123/23/20/MMMM/M/ 8014 18MM=
XTO SA 1300 AUTO8 M M M 167/28/24/MMMM/M/ 1002 50MM=
XVN SA 1300 AUTO8 M M M 155/29/20/2404/M/ 1002 89MM=
XZV SA 1300 AUTO8 M M M 174/13/13/0000/M/ 8003 33MM=
ZKD SA 1300 AUTO8 M M M M/15/10/2905/M/ M 91MM=

####018000097####
SACN41 CWAO 081300 RRA
METAR CYYE 081300Z 23005KT 30SM FEW210 14/07 A3002 RMK CI1 SLP171=

####018000303####
SACN66 CWAO 081300 RRA
POX SA 1300 AUTO8 M M M 193/14/11/2308/M/ 8001 60MM=
PQW SA 1300 AUTO8 M M M 199/13/11/2204/M/ 6001 98MM=
WBD SA 1300 AUTO8 M M M 205/13/10/3105/M/ 1011 54MM=
WIK SA 1300 AUTO8 M M M 204/13/11/2803/M/ 1013 00MM=
ZHB SA 1300 AUTO8 M M M 176/11/09/2205/M/ 1007 41MM=

####018000083####
SACN86 CWAO 081300 RRA
WPO SA 1300 AUTO8 M M M 203/15/12/2905/M/ 1014 77MM=

####018000298####
SACN96 CWAO 081300 RRA
WXN SA 1300 AUTO8 M M M 224/14/07/2303/M/ 8005 07MM=
WYJ SA 1300 AUTO8 M M M M/18/11/3303/M/ M 73MM=
WYY SA 1300 AUTO8 M M M 181/13/11/0701/M/ 3008 24MM=
WZL SA 1300 AUTO8 M M M 185/17/10/0802/M/ 3001 27MM=
ZWN SA 1300 AUTO8 M M M 196/13/11/2205/M/ 8005 36MM=

####018000672####
SACN94 CWAO 081300 RRA
WQF SA 1300 AUTO8 M M M M/11/08/2601/M/ M 55MM=
WQP SA 1300 AUTO8 M M M 167/25/22/2304/M/ 1002 03MM=
WQY SA 1300 AUTO8 M M M 116/10/09/3508/M/0004 PCPN 0.4MM PAST HR
1006 74MM=
WRJ SA 1300 AUTO8 M M M 198/13/13/2503/M/ 3001 88MM=
WRM SA 1300 AUTO8 M M M 210/08/07/3002/M/ 6003 87MM=
WRT SA 1300 AUTO8 M M M M/06/M/3301/M/M M 7MMM=
WRZ SA 1300 AUTO8 M M M 155/16/M/0502/M/ 1006 5MMM=
WSF SA 1300 AUTO8 M M M 169/13/13/3204/M/ 8002 11MM=
WSN SA 1300 AUTO8 M M M 175/27/21/MMMM/M/ 6001 18MM=
WSR SA 1300 AUTO8 M M M 174/15/13/2508/M/ 3001 86MM=
WSY SA 1300 AUTO8 M M M 093/05/05/1412/M/0006 PCPN 0.6MM PAST HR
8005 96MM=

####018000086####
SAUS42 KWBC 081300 RRB
METAR
KGLE 081306Z AUTO 15006KT 10SM SCT070 26/23 A3006=
####018000099####
SAMD90 KWBC 081311
METAR KDMW 081310Z AUTO 13003KT 7SM CLR 29/22 A3006 RMK AO2 LTG DSNT 
SE=
####018000084####
SAMD90 KWBC 081311
METAR KFME 081312Z AUTO 00000KT 7SM CLR 27/22 A3004 RMK AO1=
####018000087####
SAMD90 KWBC 081311
METAR KW29 081311Z AUTO 11006KT 7SM SCT012 27/23 A3002 RMK AO1=
####018000083####
SAID31 EGGY 081300 RRB
METAR WALL 081300Z 00000KT 8000 NIL FEW020 26/24 Q1010=
####018000708####
SAEG32 HECA 081300
METAR HEBL 081300Z 04014KT CAVOK       40/08 Q1008 NOSIG=
METAR HEAX 081300Z 32013KT 9999 FEW020 30/21 Q1010 NOSIG=
METAR HEMM 081300Z 33010KT CAVOK       28/21 Q1012 NOSIG=
METAR HEPS 081300Z 34011KT CAVOK       29/23 Q1010 NOSIG=
METAR HELX 081300Z 30012KT CAVOK       40/11 Q1006 NOSIG=
METAR HESN 081300Z NILG=
METAR HEGN 081300Z 36019KT CAVOK       37/09 Q1005 NOSIG=
METAR HESH 081300Z 36012KT CAVOK       39/11 Q1005 NOSIG=
METAR HEBA 081300Z 33015KT CAVOK       29/20 Q1011 NOSIG=
METAR HEMA 081300Z 01020KT CAVOK       34/17 Q1005 NOSIG=
METAR HETB 081300Z 33010KT CAVOK       34/09 Q1012 NOSIG=
METAR HESC 081300Z 05010KT CAVOK       32/10 Q1018 NOSIG=
####018000320####
SABN31 OBBI 081300
METAR OBBI 081300Z 04010KT 4500 HZ SKC 35/27 Q0999 NOSIG=
METAR OEDF 081300Z 01015KT CAVOK 44/04 Q0998 NOSIG=
METAR OEDR 081300Z 04011KT 8000 SKC 41/13 Q0997 NOSIG=
METAR OTBD 081300Z 06007KT 030V110 6000 NSC 36/30 Q0999 NOSIG=
METAR OKBK 081300Z 34020KT 6000 BLDU SKC 47/M05 Q0999 NOSIG=
####018000112####
SAIY42 LIIB 081300 RRB
METAR LIED 081255Z 14018KT 9999 SCT018 32/20 Q1018 RMK SCT VIS MIN
      9999 BLU=
####018000106####
SARA36 RUMS 081300 RRA
METAR USSS 081300Z 36006G11MPS CAVOK 25/M00 Q1014 NOSIG RMK QFE740
260///70=
####018000076####
SAAN40 FNLU 081300
METAR FNLU 081300Z 27011KT CAVOK  24/19 Q1011 NOSIG=
####018000079####
SAID32 WIII 081300
METAR WALL 081300Z 00000KT 8000 NIL FEW020 26/24 Q1010=
####018000735####
SAUZ31 UTTW 081300
METAR UTFN 081300Z 15002MPS 9999 FEW050CB FEW250 36/11 Q1009
R28/CLRD70 NOSIG=
METAR UTNN 081300Z VRB01MPS CAVOK 43/06 Q1005 R33/CLRD70 NOSIG=
METAR UTNU 081300Z 04003MPS CAVOK 38/22 Q1006 R13/CLRD60 NOSIG=
METAR UTSA 081300Z 02007MPS 9999 FEW220 39/04 Q1008 R88/CLRD70 NOSIG=
METAR UTSB 081300Z 36005MPS CAVOK 39/08 Q1007 R01/CLRD70 TEMPO
01008MPS=
UTSH NIL=
METAR UTSK 081300Z 33006MPS CAVOK 40/10 Q1005 R16/CLRD70=
METAR UTSS 081300Z 08006MPS 050V110 9999 NSC 34/11 Q1010 R88/CLRD70
NOSIG=
METAR UTST 081300Z VRB01MPS CAVOK 40/05 Q1004 R88/CLRD70 NOSIG=
METAR UTTT 081300Z 00000MPS CAVOK 38/06 Q1009 R08R/CLRD70 NOSIG=
METAR UTTP 081300Z 12001MPS CAVOK 37/12 Q1010 R88/CLRD70 NOSIG=
####018001269####
SAUS43 KWBC 081300 RRC
METAR
KAAA 081305Z AUTO 24003KT 10SM BKN006 BKN048 OVC050 24/22
     A3005=
KDKB 081301Z AUTO 28004KT 7SM BKN009 BKN016 22/22 A3004=
KDNV 081305Z AUTO 00000KT 7SM CLR 26/22 A3002=
KENL 081304Z AUTO 22007KT 10SM SCT047 BKN065 BKN090 27/19
     A3005=
KFEP 081305Z AUTO 30004KT 5SM HZ OVC006 24/21 A3006=
KFOA 081305Z AUTO 18004KT 10SM CLR 29/26 A3006=
KFWC 081305Z AUTO 21003KT 10SM CLR 27/24 A3006=
KGBG 081305Z AUTO 00000KT 10SM OVC004 23/22 A3005=
KHSB 081305Z AUTO 21004KT 10SM CLR 26/22 A3006=
KIGQ 081300Z AUTO 00000KT 1 1/4SM -RA SCT006 BKN022 BKN032 24/22
     A3003=
KIJX 081305Z AUTO 25004KT 7SM SCT007 24/23 A3007=
KLOT 081304Z AUTO 00000KT 4SM BR BKN021 OVC029 23/22 A3003=
KMQB 081305Z AUTO 00000KT 10SM OVC006 23/22 A3008=
KOLY 081303Z AUTO 00000KT 7SM SCT060 28/23 A3005=
KPNT 081305Z AUTO 00000KT 10SM BKN027 OVC039 24/23 A3004=
KPRG 081305Z AUTO 24005KT 10SM CLR 27/23 A3006=
KSAR 081305Z AUTO 21004KT 7SM SCT085 26/24 A3006=
KSLO 081303Z AUTO 24004KT 10SM SCT043 BKN050 BKN090 28/23
     A3006=
KTAZ 081305Z AUTO 00000KT 10SM SCT080 27/24 A3004=
KTIP 081305Z AUTO 00000KT 7SM SCT080 SCT090 26/24 A3006=
KVYS 081305Z AUTO 26003KT 10SM SCT004 SCT007 BKN032 24/22
     A3003=
####018000100####
SAUS44 KCRP 081312
MTRVCT
SPECI KVCT 081310Z 03007KT 4SM BR BKN016 OVC036 24/24 A2990 RMK AO2
####018000082####
SPUS52 KWBC 081312
SPECI
KESF 081309Z AUTO 10003KT 10SM FEW005 27/24 A3005=
####018000264####
SABC40 FBSK 081300 RRA
METAR FBSK 081300Z 07012KT 9999 BKN020 21/07 Q1028 NOSIG=
METAR FBFT 081300Z 11010KT 9999 BKN020 20/10 Q1029=
METAR FBMN 081300Z 07013KT CAVOK 25/05 Q1025=
METAR FBKE 081300Z 09014KT CAVOK 24/07 Q1025=
METAR EBSP 081300Z NIL=

####018000306####
SAPS31 NZKL 081300
METAR NCRG 081300Z 02004KT 9999 FEW010 SCT015 25/24 Q1018=
METAR NFTF 081300Z 00000KT 9999 FEW015 18/17 Q1015=
METAR NGFU 081300Z 09008KT 50KM SCT020TCU 28/24 Q1009=
METAR NIUE 081300Z AUTO 15006KT //// ////// 23/23 Q1014=
METAR NSFA 081300Z 00000KT 50KM FEW024 25/23 Q1012=
####018000170####
SAUS44 KWBC 081300 RRC
METAR
KBPG 081305Z AUTO 02007KT 10SM BKN006 OVC014 22/21 A3013=
KBYY 081306Z AUTO 07007KT 4SM -RA SCT019 BKN032 BKN042 27/26
     A2990=
####018000082####
SAUS51 KWBC 081300 RRA
METAR
KCBE 081311Z AUTO 00000KT 7SM CLR 26/18 A3011=
####018000272####
SAUS20 KNKA 081312
SPECI KBMQ 081311Z AUTO 06005KT 9SM SCT008 BKN039 OVC060 24/22 A3003 
    RMK AO2=
SPECI KCEF 081306Z 15005KT 6SM BR OVC011 25/23 A3008 RMK AO2A SLP186
      $=
SPECI KOKC 081310Z 32004KT 9SM FEW007 SCT080 BKN200 24/22 A3007 RMK 
    AO2=
####018001151####
SAAU31 AMMC 081300
METAR YBAS 081300Z AUTO 00000KT 9999NDV // NCD 07/06 Q1021=
METAR YBBN 081300Z 22007KT 9999 BKN040 14/11 Q1021
     NOSIG=
METAR YBCS 081300Z 15006KT 9999 FEW024 BKN040 23/19 Q1016
     NOSIG=
METAR YBTL 081300Z AUTO 13008KT 9999NDV // SCT018 OVC025 22/19 Q1017=
METAR YMML 081300Z 34005KT CAVOK 05/04 Q1028
     FM1300 VRB03KT 5000 HZ SKC
     FM1400 36005KT 2000 BR=
METAR YPAD 081300Z 02004KT CAVOK 06/03 Q1026
     NOSIG=
METAR YPCC 081300Z AUTO 14010KT 9999NDV // SCT026 OVC033 25/22 Q1014=
METAR YPDN 081300Z 05005KT CAVOK 24/21 Q1013=
METAR YPKU 081300Z AUTO 13004KT 9999NDV // NCD 23/15 Q1015=
METAR YPLM 081300Z AUTO 22007KT 9999NDV // SCT027 BKN040 OVC048 20/17 Q1010=
METAR YPPH 081300Z 36008KT 9999 VCSH FEW009 SCT028 BKN058 14/13 Q0997
     INTER 1300/1600 29030G50KT 2000 TSGS BKN010 FEW030CB=
METAR YPTN 081300Z AUTO 12004KT 9999NDV // OVC051 24/16 Q1015=
METAR YPXM 081300Z AUTO 22005KT 9999NDV // NCD 22/20 Q1014=
METAR YSSY 081300Z 24007KT 9999 -SHRA FEW010 SCT020 BKN050 11/11 Q1027
     FM1300 22008KT 9999 -SHRA SCT020 BKN045
     INTER 1300/1600 5000 SHRA BKN010=
####018000099####
SAUS52 KWBC 081300 RRB
METAR
KSEP 081305Z AUTO 07003KT 4SM BKN002 BKN006 OVC044 23/22 A3005=
####018001154####
SAAU31 AMMC 081300
METAR YBAS 081300Z AUTO 00000KT 9999NDV // NCD 07/06 Q1021=
METAR YBBN 081300Z 22007KT 9999 BKN040 14/11 Q1021
     NOSIG=
METAR YBCS 081300Z 15006KT 9999 FEW024 BKN040 23/19 Q1016
     NOSIG=
METAR YBTL 081300Z AUTO 13008KT 9999NDV // SCT018 OVC025 22/19 Q1017=
METAR YMML 081300Z 34005KT CAVOK 05/04 Q1028
     FM1300 VRB03KT 5000 HZ SKC
     FM1400 36005KT 2000 BR=
METAR YPAD 081300Z 02004KT CAVOK 06/03 Q1026
     NOSIG=
METAR YPCC 081300Z AUTO 14010KT 9999NDV // SCT026 OVC033 25/22 Q1014=
METAR YPDN 081300Z 05005KT CAVOK 24/21 Q1013=
METAR YPKU 081300Z AUTO 13004KT 9999NDV // NCD 23/15 Q1015=
METAR YPLM 081300Z AUTO 22007KT 9999NDV // SCT027 BKN040 OVC048 20/17 Q1010=
METAR YPPH 081300Z 36008KT 9999 VCSH FEW009 SCT028 BKN058 14/13 Q0997
     INTER 1300/1600 29030G50KT 2000 TSGS BKN010 FEW030CB=
METAR YPTN 081300Z AUTO 12004KT 9999NDV // OVC051 24/16 Q1015=
METAR YPXM 081300Z AUTO 22005KT 9999NDV // NCD 22/20 Q1014=
METAR YSSY 081300Z 24007KT 9999 -SHRA FEW010 SCT020 BKN050 11/11 Q1027
     FM1300 22008KT 9999 -SHRA SCT020 BKN045
     INTER 1300/1600 5000 SHRA BKN010=

####018000092####
SAUS53 KWBC 081300 RRC
METAR
KLNC 081305Z AUTO 10003KT 7SM BKN055 OVC070 25/25 A3004=
####018000082####
SPUS72 KWBC 081312
SPECI
KESF 081309Z AUTO 10003KT 10SM FEW005 27/24 A3005=
####018000078####
SAUS54 KWBC 081300 RRB
METAR
KHMS 081250Z 31010KT 15SM SKC 21/06 A2996=
####018000087####
SPUS73 KWBC 081312
SPECI
KTVC 081309Z VRB03KT 7SM -RA BKN006 OVC012 22/21 A3000=
####018000430####
SASA KAWN 081300 RRF
METAR SARP 081300Z 07006KT 6000 SCT005 BKN015 15/14 Q1018=
METAR SAWH 081300Z 27003KT 9999 FEW030 SCT100 00/M05 Q0983=
METAR SCBA 081300Z 26006KT 9999 FEW030 SCT035 M04/M07 Q1003=
METAR SEGU 081300Z 20005KT 9999 BKN040 OVC100 23/19 Q1012 NOSIG=
METAR SEMT 081300Z 20006KT 9999 BKN020 BKN100 23/20 Q1013=
METAR SLTR 081300Z 15010KT 6000 TS VCSH FEW006 BKN015 FEW020CB OVC070
      22/21 Q1015=
####018000076####
SPUS74 KWBC 081312
SPECI
KSAN 081310Z 32005KT 9SM OVC013 16/14 A2992=
####018000095####
SAUS72 KWBC 081300 RRD
METAR
KIAH 081302Z 07006KT 1SM -TSRA FEW008 OVC025CB 26/24 A2998=
####018000261####
SABC40 FBSK 081300 RRA
METAR FBSK 081300Z 07012KT 9999 BKN020 21/07 Q1028 NOSIG=
METAR FBFT 081300Z 11010KT 9999 BKN020 20/10 Q1029=
METAR FBMN 081300Z 07013KT CAVOK 25/05 Q1025=
METAR FBKE 081300Z 09014KT CAVOK 24/07 Q1025=
METAR EBSP 081300Z NIL=
####018000076####
SPUS81 KWBC 081312
SPECI
KSAN 081310Z 32005KT 9SM OVC013 16/14 A2992=
####018000107####
SAAE31 VTBB 081300 RRB
METAR VTSS 081300Z 00000KT 9999 FEW018CW BKN300 26/23 Q1010 A2
          984=
####018001125####
SAUS20 KNKA 081312
METAR K2G4 081310Z AUTO 00000KT 10SM CLR 25/15 A3020 RMK AO1=
METAR K2W6 081310Z AUTO 12008KT 7SM BKN013 BKN019 27/23 A3003 RMK
     AO1=
METAR KCBE 081311Z AUTO 00000KT 7SM CLR 26/18 A3011 RMK AO1=
METAR KCGE 081308Z AUTO 12009KT 10SM CLR 28/23 A3004 RMK AO1=
METAR KCGS 081315Z AUTO 04003KT 5SM SCT095 30/23 A3002 RMK AO1=
SPECI KGLR 081311Z AUTO 24006KT 2 1/2SM -RA BR FEW007 SCT020 BKN033 
    21/21 A3003 RMK AO2 P0004=
SPECI KGRR 081311Z 00000KT 4SM HZ SCT006 BKN055 OVC130 25/22 A3003 
    RMK AO2=
SPECI KILG 081311Z 13006KT 1SM BR OVC005 26/23 A3004 RMK AO2 SFC VIS 
    3 CIG 001V008=
SPECI KJFK 081311Z 14004KT 9SM BKN017 BKN030 OVC130 26/21 A3006 RMK 
    AO2=
SPECI KMCI 081311Z 02005KT 1SM BR OVC002 23/22 A3010 RMK AO2 SFC VIS 
    3 CIG 001V005=
SPECI KMDW 081311Z 22003KT 6SM BR FEW007 BKN023 OVC050 24/22 A3003 
    RMK AO2 RAE1256 P0000=
SPECI KMWL 081311Z AUTO 14004KT 10SM FEW008 SCT024 BKN031 24/23 
    A3004 RMK AO2 $=
SPECI KOKB 081311Z AUTO 9SM OVC015 17/14 A2990 RMK AO2 $=
SPECI KSAN 081310Z 32005KT 9SM OVC013 16/14 A2992 RMK AO2=
####018000336####
SAUS99 KWBC 081313
METAR
K2G4 081310Z AUTO 00000KT 10SM CLR 25/15 A3020 RMK AO1=
K2W6 081310Z AUTO 12008KT 7SM BKN013 BKN019 27/23 A3003 RMK
     AO1=
KCBE 081311Z AUTO 00000KT 7SM CLR 26/18 A3011 RMK AO1=
KCGE 081308Z AUTO 12009KT 10SM CLR 28/23 A3004 RMK AO1=
KCGS 081315Z AUTO 04003KT 5SM SCT095 30/23 A3002 RMK AO1=
####018000974####
SPUS99 KWBC 081313
SPECI
KBMQ 081311Z AUTO 06005KT 9SM SCT008 BKN039 OVC060 24/22 A3003 RMK
     AO2=
KCEF 081306Z 15005KT 6SM BR OVC011 25/23 A3008 RMK AO2A SLP186
     $=
KOKC 081310Z 32004KT 9SM FEW007 SCT080 BKN200 24/22 A3007 RMK
     AO2=
KGLR 081311Z AUTO 24006KT 2 1/2SM -RA BR FEW007 SCT020 BKN033
     21/21 A3003 RMK AO2 P0004=
KGRR 081311Z 00000KT 4SM HZ SCT006 BKN055 OVC130 25/22 A3003 RMK
     AO2=
KILG 081311Z 13006KT 1SM BR OVC005 26/23 A3004 RMK AO2 SFC VIS 3
     CIG 001V008=
KJFK 081311Z 14004KT 9SM BKN017 BKN030 OVC130 26/21 A3006 RMK
     AO2=
KMCI 081311Z 02005KT 1SM BR OVC002 23/22 A3010 RMK AO2 SFC VIS 3
     CIG 001V005=
KMDW 081311Z 22003KT 6SM BR FEW007 BKN023 OVC050 24/22 A3003 RMK
     AO2 RAE1256 P0000=
KMWL 081311Z AUTO 14004KT 10SM FEW008 SCT024 BKN031 24/23 A3004
     RMK AO2 $=
KOKB 081311Z AUTO 9SM OVC015 17/14 A2990 RMK AO2 $=
KSAN 081310Z 32005KT 9SM OVC013 16/14 A2992 RMK AO2=
####018000074####
SAAF17 LFPW 081300 RRA
METAR HLLS 081255Z O4O11KT  CAVOK  37/O9 Q1O16=
####018000107####
SAAF14 LFPW 081300 RRA
METAR FEFF 081300Z 18002KT 9999 FEW026 FEW040CB BKN300 31/22 Q1013
      NOSIG=
####018000353####
SAAF11 LFPW 081300 RRA
METAR FCPP 081300Z 18008KT 7000 FEW013 OVC033 24/21 Q1012 NOSIG=
METAR FKKD 081300Z VRB04KT 9999 BKN016 FEW020CB BKN120 28/25 Q1013
      TEMPO 4000 TSRA BKN013 SCT016CB BKN100=
METAR FKKR 081300Z 08004KT 9999 FEW020 BKN130 BKN300 27/23 Q1012
      NOSIG=
METAR FKYS 081300Z 25003KT 210V280 9999 BKN016 26/20 Q1016 NOSIG=
####018001493####
SAIY42 LIIB 081300
METAR LIBF 081250Z 32018KT CAVOK 28/06 Q1019 RMK VIS MIN 9999=
METAR LIEA 081250Z 21007KT 170V330 9999 FEW025 33/19 Q1019 RMK VIS
MIN 9999=
METAR LIED 081300Z NIL=
METAR LIEO 081250Z 05012KT CAVOK 30/20 Q1019 RMK VIS MIN 9999=
METAR LIMA 081250Z VRB03KT CAVOK 26/16 Q1022 RMK VIS MIN 9999=
METAR LIQN 081250Z 32008KT 9999 FEW045 29/17 Q1021 RMK VIS MIN 9999=
METAR LIQO 081255Z 20005KT 9999 SCT003 29/22 Q1022 RMK SCT VAL NIL NC
VIS MIN 9999=
METAR LIQW 081300Z NIL=
METAR LIRE 081255Z 24010KT 9999 FEW020 28/20 Q1019 RMK FEW VIS MIN
9999 WIND THR31 24009KT BLU=
METAR LIRG 081255Z 25010KT 9999 SCT033TCU 31/20 Q1019 RMK SCT MON
NE LIB NC VIS MIN 9999 BLU=
METAR LIRH 081255Z 28005KT 9999 FEW030 SCT035 FEW040CB 30/20 Q1019
RMK BKN MON LIB NC VIS MIN 9999 WIND THR16 28006KT BLU=
METAR LIRI 081250Z 03008KT CAVOK 30/12 Q1018 RMK VIS MIN 9999=
METAR LIRK 081255Z 12006KT CAVOK 16/15 Q1027 RMK BKN BKN060 MON NE
LIB NC VAL NIL NC VIS MIN 9999=
METAR LIRL 081255Z 25008KT 9999 FEW020 30/17 Q1019 RMK FEW MON LIB NC
VIS MIN 9999 BLU=
METAR LIRM 081255Z 12010KT 9999 FEW016 30/14 Q1019 RMK FEW VIS MIN
9999 WIND THR06 06005KT BLU=
METAR LIRS 081255Z 23012KT 9999 FEW040 30/21 Q1019 RMK FEW VIS MIN
9999 WIND THR21 /////KT BLU=
METAR LIRT 081255Z 36009KT CAVOK 18/05 Q1023 RMK SKC MON LIB VAL NIL
VIS MIN 9999=
METAR LIRU 081250Z 23007KT 9999 SCT040 30/17 Q1020 RMK VIS MIN 9999=
METAR LIRV 081255Z 27013KT 9999 SCT028 29/22 Q1020 RMK SCT MON E SE=
####018000901####
SAMX44 MMMD 081300
METAR MMCE 081240Z 16008KT 3SM SCT020 BKN040 OVC080 27/25 A2980RMK 8/43/=
METAR MMCM 081245Z 12008KT 7SM BKN005 BKN020 OVC050 25/24 A2981
      RMK 8/7//=
METAR MMCP 081243Z 10010KT 6SM BKN100 26/22 A2980
      RMK 8/030 HZY=
METAR MMCZ 081245Z 09008KT 6SM  BKN100 BKN200 26/24 A2988 
      RMK 8/079 SC HZY=
METAR MMMD 081248Z 10007KT 5SM  SCT005 BKN080 BKN140 18/18 A2988 
      RMK 8/670 HZY CI=
METAR MMMT 081145Z 23010KT 10SM BKN050 OVC100 23/18 A2979
      RMK SLP162 5//// 913  67308 8/57/=
METAR MMTG 081243Z 00000KT 3SM BCFG  SCT005 OVC070 23/23 A2994 
      RMK 8/62/ BCFG ARND ST OMTNS=
METAR MMTP 081245Z 00000KT 10SM BKN020 OVC160 24/23 A2990
      RMK 8/57/=
METAR MMUN 081245Z 11008KT 6SM  BKN015TCU BKN090 OVC280 28/25 A2990 
      RMK 8/277 HZ LWR SC BINOVC=
METAR MMVA 081254Z 00000KT 7SM  SCT100 BKN200 26/23 A2979 RMK 8/036=
####018000334####
SAAL31 DAAA 081300
METAR DAAG 081300Z 05013KT CAVOK 34/16 Q1018=
METAR DAAT 081300Z NIL=
METAR DABB 081300Z 02014KT CAVOK 28/21 Q1019=
METAR DABC 081300Z 36012KT CAVOK 34/05 Q1022=
METAR DAON 081300Z 02010KT 9999 FEW026 37/20 Q1016=
METAR DAOO 081300Z 35012KT CAVOK 30/21 Q1016=
METAR DAUH 081300Z 08010KT CAVOK 39/21 Q1017=
####018000109####
SAVN29 SVCS 081300
METAR SVCS 081300Z 00000KT 6000 RA OVC050 SCT025 28/XX Q1017=
METAR SVMP 081300Z NIL=
####018000324####
SAAF21 LFPW 081300 RRA
METAR FAJS 081300Z 03008KT 350V070 9999 SCT045 17/02 Q1032 NOSIG=
METAR FALA 081300Z 03008KT 350V090 9999 FEW049 18/04 Q1031 NOSIG=
METAR FAMM 081300Z 04008KT 9999 FEW040 20/03 Q1029 NOSIG=
METAR FAPE 081300Z 06012KT CAVOK 18/12 Q1021 NOSIG=
METAR FAUP 081300Z 35015KT CAVOK 24/02 Q1025 NOSIG=
####018000123####
SACZ41 LKPW 081300
METAR LKKU 081300Z 01006KT CAVOK 25/07 Q1022=
METAR LKLB 081300Z 27006KT 210V340 CAVOK 25/05 Q1023=
####018000192####
SAAF20 LFPW 081300 RRA
METAR FABL 081300Z 36008KT 320V040 9999 FEW050 18/04 Q1030 NOSIG=
METAR FAEL 081300Z 06012KT 9999 FEW050 21/13 Q1023=
METAR FAGG 081300Z 16005KT CAVOK 19/10 Q1019=
####018000194####
SATD31 TTPP 081300 RRB
METAR
TTPP 081300Z ///06KT 3000 -RA FEW006 FEW010CB SCT012 BKN035 26/25
Q1013 NOSIG=
TTCP 081300Z 06007KT 9999 TS SCT010CB SCT036 BKN080 26/23 Q1013 TEMPO
TSRA=
 
####018000093####
SAAF05 LFPW 081300 RRA
METAR DNMM 081300Z 24010KT 9999 BKN012 FEW020CB 29/26 Q1014 NOSIG=
####018000291####
SAAF18 LFPW 081300 RRA
METAR FMEE 081300Z 12019KT 9999 FEW023 SCT060 22/15 Q1021 TEMPO
13028G38KT=
METAR FMMI 081300Z 10008KT 080V150 9999 BKN020 SCT023 17/13 Q1025
 NOSIG=
METAR FMMT 081300Z 20014KT 9999 VCSH SCT017 BKN033 23/21 Q1021=
METAR FMNM 081300Z 16008KT CAVOK 31/13 Q1015=
####018000086####
SAFR31 LFPW 081300 RRA
METAR LFLL 081308Z 18007KT 150V240 CAVOK 32/13 Q1019 NOSIG=
####018000121####
SAAF27 LFPW 081300 RRA
METAR FGSL 081300Z 29005KT 270V330 7000 -TSRA BKN013 FEW020CB BKN130
      25/25 Q1013 NOSIG=
####018000348####
SAEE31 LOWM 081300
METAR UACK 081300Z 30006G09MPS CAVOK 20/02 Q1010 02010070 NOSIG RMK
QFE734=
METAR UACP 081300Z NIL=
METAR UAII 081300Z NIL=
METAR UADD 081300Z 36002MPS 9999 NSC 34/03 Q1012 NOSIG RMK
QFE702/0937=
METAR UASK 081300Z 04002MPS 9999 SCT043 21/12 Q1011
                   300/0060 NOSIG RMK QFE733=
METAR UASP 081300Z NIL=
####018001126####
SAAG05 SABM 081300
METAR SAAR 081300Z  00000KT 9000  NSC  07/04 Q1018=
METAR SABE 081300Z  29005KT CAVOK 12/00 Q1019=
METAR SACO 081300Z NIL=
METAR SADF 081300Z  29002KT CAVOK 09/04 Q1019=
METAR SAEZ 081300Z 32004KT CAVOK 09/01 Q1019=
METAR SAME 081300Z 00000KT 9999 NSC 04/M03 Q1015=
METAR SANT 081300Z  18004KT 8000  11/06 Q1018=
METAR SAOC 081300Z 36015KT CAVOK 12/M08 Q1015=
METAR SARC 081300Z  14010KT 9999  BKN012  12/09
Q1020=
METAR SARE 081300Z 11011KT 9999 SCT008 12/09 Q1019=
METAR SARF 081300Z  16014KT 9999  OVC008  15/12
Q1018=
METAR SARI 081300Z  20006KT 2000 BR BKN002 SCT100
17/17 Q1020=
METAR SARL 081300Z  14015KT 9999  11/07 Q1021=
METAR SARP 081300Z  07006KT 6000  SCT005 BKN015
15/14 Q1018=
METAR SASA 081300Z 00000KT CAVOK 11/06 Q1021=
METAR SASJ 081300Z  00000KT CAVOK 15/09 Q1018=
METAR SAVC 081300Z 27009KT CAVOK 04/M01 Q1001=
METAR SAWE 081300Z NIL=
METAR SAWG 081300Z NIL=
METAR SAWH 081300Z  27003KT 9999  FEW030 SCT100
00/M05 Q0983=
METAR SAZM 081300Z  32013KT CAVOK 08/02 Q1014=
METAR SAZN 081300Z 23004KT 9999 -RA BKN035 SCT060 10/04 Q1010=
METAR SAZS 081300Z NIL=
####018000092####
SAAG01 SABM 081300 RRD
METAR SAZS 081300Z  29012KT 6000 DZ SCT009 SCT025
04/02 Q1007=
####018000091####
SPUS31 KWBC 081313
SPECI
KIAH 081310Z 12010KT 1SM TS BR SCT008 OVC025CB 24/23 A2998=
####018000077####
SPUS42 KWBC 081313
SPECI
KAMA 081310Z 01011KT 10SM OVC007 18/17 A3022=
####018000708####
SAEG31 HECA 081300
METAR HEBL 081300Z 04014KT CAVOK       40/08 Q1008 NOSIG=
METAR HEAX 081300Z 32013KT 9999 FEW020 30/21 Q1010 NOSIG=
METAR HEMM 081300Z 33010KT CAVOK       28/21 Q1012 NOSIG=
METAR HEPS 081300Z 34011KT CAVOK       29/23 Q1010 NOSIG=
METAR HELX 081300Z 30012KT CAVOK       40/11 Q1006 NOSIG=
METAR HESN 081300Z NILG=
METAR HEGN 081300Z 36019KT CAVOK       37/09 Q1005 NOSIG=
METAR HESH 081300Z 36012KT CAVOK       39/11 Q1005 NOSIG=
METAR HEBA 081300Z 33015KT CAVOK       29/20 Q1011 NOSIG=
METAR HEMA 081300Z 01020KT CAVOK       34/17 Q1005 NOSIG=
METAR HETB 081300Z 33010KT CAVOK       34/09 Q1012 NOSIG=
METAR HESC 081300Z 05010KT CAVOK       32/10 Q1018 NOSIG=
####018001155####
SAAU31 AMMC 081300
METAR YBAS 081300Z AUTO 00000KT 9999NDV // NCD 07/06 Q1021=
METAR YBBN 081300Z 22007KT 9999 BKN040 14/11 Q1021
     NOSIG=
METAR YBCS 081300Z 15006KT 9999 FEW024 BKN040 23/19 Q1016
     NOSIG=
METAR YBTL 081300Z AUTO 13008KT 9999NDV // SCT018 OVC025 22/19 Q1017=
METAR YMML 081300Z 34005KT CAVOK 05/04 Q1028
     FM1300 VRB03KT 5000 HZ SKC
     FM1400 36005KT 2000 BR=
METAR YPAD 081300Z 02004KT CAVOK 06/03 Q1026
     NOSIG=
METAR YPCC 081300Z AUTO 14010KT 9999NDV // SCT026 OVC033 25/22 Q1014=
METAR YPDN 081300Z 05005KT CAVOK 24/21 Q1013=
METAR YPKU 081300Z AUTO 13004KT 9999NDV // NCD 23/15 Q1015=
METAR YPLM 081300Z AUTO 22007KT 9999NDV // SCT027 BKN040 OVC048 20/17
Q1010=
METAR YPPH 081300Z 36008KT 9999 VCSH FEW009 SCT028 BKN058 14/13 Q0997
     INTER 1300/1600 29030G50KT 2000 TSGS BKN010 FEW030CB=
METAR YPTN 081300Z AUTO 12004KT 9999NDV // OVC051 24/16 Q1015=
METAR YPXM 081300Z AUTO 22005KT 9999NDV // NCD 22/20 Q1014=
METAR YSSY 081300Z 24007KT 9999 -SHRA FEW010 SCT020 BKN050 11/11
Q1027
     FM1300 22008KT 9999 -SHRA SCT020 BKN045
     INTER 1300/1600 5000 SHRA BKN010=
####018000096####
SPUS52 KWBC 081313
SPECI
KCOT 081310Z AUTO 03007KT 10SM FEW009 BKN019 BKN044 26/23 A2990=
####018000086####
SPUS52 KWBC 081313
SPECI
KVCT 081310Z 03007KT 4SM BR BKN016 OVC036 24/24 A2990=
####018000111####
SAIY42 LIIB 081300 RRB
METAR LIED 081255Z 14018KT 9999 SCT018 32/20 Q1018 RMK SCT VIS MIN
      9999 BLU=
####018000078####
SADO31 TDPD 081300
METAR TDCF 081300Z 03002KT 9999 SCT016TCU 30/23 Q1014=
####018001333####
SACO20 SKBO 081300
METAR
SKAR 081300Z NIL=
SKBG 081300Z 00000KT 2000S BCFG SCT012 20/19 A3005=
SKBO 081300Z 04004KT 9000 FEW015 BKN070 13/11 A3034=
SKBQ 081300Z NIL=
SKCC 081300Z NIL=
SKCG 081300Z 09004KT 9999 FEW015CB SCT200 28/25 A2988=
SKCL 081300Z VRB02KT 9999 FEW017 BKN090 22/20 A3003=
SKEJ 081300Z 21006KT 9999 VCFG BKN015 25/25 A2992=
SKIB 081300Z NIL=
SKIP 081300Z 00000KT 9999 SCT016 BKN070 11/10 A3041=
SKLC 081300Z 00000KT 9999 SCT010 26/24 A2990=
SKLT 081300Z 00000KT 9999 FEW015 BKN070 27/25 A2991=
SKMD 081300Z 00000KT 6000 SCT030 OVC080 19/15 A3012=
SKMR 081300Z 15005KT 9999 SCT007 BKN090 26/25 A2988=
SKMZ 081300Z NIL=
SKNV 081300Z 00000KT 9999 SCT007 BKN100 24/22 A2996 REDZ=
SKPC 081300Z NIL=
SKPE 081300Z NIL=
SKPS 081300Z 00000KT 5000N 9999S VCFG SCT022 SCT080 17/16 A3020 REDZ=
SKPV 081300Z NIL=
SKRG 081300Z VRB02KT 4000 BR BKN004 SCT080 15/14 A3032=
SKRH 081300Z 14006KT 9999 TSRA FEW020CB OVC090 23/23 A2990=
SKSM 081300Z 00000KT 9999 SCT017 OVC070 27/24 A2989=
SKSP 081300Z 10007KT 9999 SCT015TCU 29/26 A2987 REDZ=
SKUC 081300Z 09006KT 1500 BKN007 23/23 A2997 RERA=
SKUI 081300Z 00000KT 4000 BR BKN008 BKN080 25/24 A2988=
SKVP 081300Z 07006KT 4000 -RA FEW004 SCT010 BKN070 23/23 A2997=
SKVV 081300Z 00000KT 9999 FEW023 OVC080 24/21 A2997=
NNNN
####018000077####
SPUS72 KWBC 081313
SPECI
KAMA 081310Z 01011KT 10SM OVC007 18/17 A3022=
####018000091####
SPUS72 KWBC 081313
SPECI
KIAH 081310Z 12010KT 1SM TS BR SCT008 OVC025CB 24/23 A2998=
####018000086####
SPUS72 KWBC 081313
SPECI
KVCT 081310Z 03007KT 4SM BR BKN016 OVC036 24/24 A2990=
####018000093####
SPUS75 KWBC 081313
SPECI
PAIL 081309Z AUTO 05005KT 1/2SM FG FEW001 OVC070 08/08 A2995=
####018000094####
SPUS81 KWBC 081313
SPECI
KHLR 081310Z AUTO 09004KT 10SM BKN009 BKN012 OVC037 26/ A3001=
####018000093####
SAEW32 LEMM 081300 RRA
METAR LEAS 081300Z 05003KT 350V090 9999 FEW015 24/20 Q1016 NOSIG=
####018000073####
SAAL41 DAMM 081300 RRC
METAR DAUL 081300Z 00000KT CAVOK 38/11 Q1021=
####018000086####
SPUS81 KWBC 081313
SPECI
KVCT 081310Z 03007KT 4SM BR BKN016 OVC036 24/24 A2990=
####018000334####
SANA35 KAWN 081300 RRD
METAR CYAW 081300Z 23005KT 6SM BR OVC003 20/19 A3018 RMK SF8 FIRST
      OBS SLP221=
METAR SAWH 081300Z 27003KT 9999 FEW030 SCT100 00/M05 Q0983=
METAR SCBA 081300Z 26006KT 9999 FEW030 SCT035 M04/M07 Q1003=
METAR TTPP 081300Z ///06KT 3000 -RA FEW006 FEW010CB SCT012 BKN035 26/25
      Q1013 NOSIG=
####018000503####
SAXX70 KAWN 081300 RRK
METAR KQCC 081255Z AUTO VRB03KT 9999 CLR 38/14 A2973 RMK AO2 SLP997
      T03840141 $=
METAR KQD2 081255Z AUTO VRB05KT 9999 CLR 33/M05 A2999 RMK AO2 SLP027
      T03341049 $=
METAR KQEL 081310Z AUTO 02002KT 3SM BR FEW006 SCT095 22/20 A2976 RMK
      A02=
METAR KQEQ 081310Z AUTO 16002KT 4SM BR SCT085 22/20 A2984 RMK A02=
METAR KQEW 081310Z AUTO 24001KT 7SM SCT095 SCT100 24/21 A2985 RMK A02=
METAR KQFB 081310Z AUTO 29005KT 4SM BR FEW065 24/20 A2996 RMK A02=
####018000520####
SAMS34 WMKK 081300
METAR 081300Z
METAR WBGB 081300Z 10004KT 9999 -RA FEW005 FEW015CB SCT016 OVC140 25/25
     Q1011=
METAR WBGR 081300Z 10002KT 9999 -RA SCT014 OVC140 25/23 Q1011=
METAR WBGS 081300Z 17002KT 9999 SCT018 BKN150 25/24 Q1012=
METAR WBGY NIL=
METAR WBKL 081300Z 20004KT 9999 FEW010 SCT140 BKN290 26/25 Q1010=
METAR WBKS 081300Z 15002KT 9999 FEW016 BKN300 27/26 Q1010=
METAR WBKT 081300Z 00000KT 9999 FEW006 BKN280 24/24 Q1010=
METAR WBKW 081300Z 34001KT 9999 FEW017 BKN300 27/25 Q1010=
####018000112####
SPEQ00 SEQU 081310
SPECI
SEGU 081310Z  20005KT 9999N 4000S BKN040 OVC100  23/19 Q1012
TEMPO 3000 NOSIG=
####018000099####
SAUK39 EGRR 081250 RRG
METAR EGUO 081250Z 25010KT 9999 FEW020 SCT050 BKN200 21/07 Q1019
BLU=
####018000096####
SAUK39 EGRR 081250 RRH
METAR EGQK 081250Z 22020KT 9999 FEW027 BKN050 18/07 Q1009 BLU NOSIG=
####018002956####
SAUS20 KNKA 081313
METAR K4O4 081308Z AUTO 14006KT 25/23 A3008 RMK AO2=
SPECI KAFN 081312Z AUTO 18006KT 7SM BKN010 OVC034 23/21 A3013 RMK 
    AO2 CIG 008V012=
METAR KAIK 081315Z AUTO 29007KT 10SM CLR 29/24 A3005 RMK AO2 PNO=
METAR KALM 081310Z AUTO 11005KT 10SM CLR 19/14 A3017 RMK AO2=
METAR KARW 081315Z AUTO 29006KT 10SM CLR 28/18 A2998 RMK AO2=
METAR KATS 081310Z AUTO 35006KT 10SM -RA BKN015 BKN033 19/18 
     A3019 RMK AO2=
METAR KAXS 081310Z AUTO 00000KT 10SM -RA SCT046 SCT060 BKN070 
     23/22 A3009 RMK AO2 LTG DSNT N T02330217=
METAR KBVS 081310Z AUTO 04007KT 5SM CLR 19/12 A2999 RMK A01 P000=
METAR KCHK 081311Z AUTO 01006KT 1 1/2SM BR OVC002 22/22 A3007 RMK 
     AO2=
METAR KCLK 081313Z AUTO 02005KT 10SM SCT005 SCT080 BKN110 22/21 
     A3010 RMK AO2=
METAR KCUH 081310Z AUTO 02003KT 7SM SCT003 BKN100 24/23 A3005 RMK 
     AO2=
SPECI KCXO 081312Z VRB03KT 10SM FEW006 24/24 A2999 RMK AO2=
SPECI KDMO 081312Z AUTO 34007KT 9SM SCT008 BKN012 OVC043 24/22 A3009 
    RMK AO2=
METAR KDUA 081317Z AUTO 15007KT 10SM SCT004 SCT026 BKN090 25/24 
     A3005 RMK AO2=
METAR KFDW 081315Z AUTO 31004KT 10SM CLR 28/19 A3002 RMK AO1=
METAR KFET 081310Z AUTO 01003KT 10SM CLR 19/17 A3018 RMK AO2=
METAR KGCD 081310Z AUTO 13008KT 10SM CLR 13/02 A3013 RMK AO2 
     T01330024=
METAR KGCM 081315Z AUTO 00000KT 10SM SCT003 BKN007 BKN080 23/23 
     A3008 RMK AO2=
METAR KGLY 081315Z AUTO 00000KT 8SM BKN005 OVC009 24/23 A3008 RMK 
     AO2 =
METAR KGMJ 081314Z AUTO 00000KT 24/24 A3007 RMK AO2 P0006 PWINO=
SPECI KIAH 081310Z COR 12010KT 1SM +TSRA BR SCT008 OVC025CB 24/23 
    A2998 RMK AO2 OCNL LTGIC VC NE-S TS VC NE-S MOV NW P0006 $=
METAR KIDP 081310Z AUTO 07003KT 10SM BKN008 BKN024 OVC110 22/21 
     A3007 RMK AO2=
SPECI KIWI 081312Z AUTO 12004KT 10SM SCT011 SCT024 23/19 A3012 RMK 
    AO2=
METAR KIZA 081309Z AUTO 00000KT 10SM OVC007 13/11 A2992 RMK AO2=
METAR KJSV 081311Z AUTO 10004KT 10SM SCT034 OVC048 24/23 A3006 
     RMK AO2=
METAR KL35 081311Z AUTO 00000KT 10SM CLR 07/M03 A3019 RMK AO2=
SPECI KLAA 081312Z AUTO 00000KT 10SM FEW005 BKN019 OVC100 17/16 
    A3028 RMK AO2 RAE04 P0000=
METAR KLAM 081310Z AUTO 00000KT 10SM CLR 14/08 A3040 RMK AO2=
METAR KLRU 081311Z AUTO 01008KT 10SM CLR 22/14 A3019 RMK AO2=
METAR KMEZ 081315Z AUTO 00000KT 4SM RA SCT017 BKN037 OVC055 26/23 
     A3010 RMK AO2=
METAR KOJA 081310Z AUTO 04005KT 5SM BR SCT007 22/22 A3010 RMK AO2=
METAR KOKM 081311Z AUTO 01004KT 7SM OVC007 24/24 A3005 RMK AO1=
METAR KONP 081310Z AUTO 00000KT 3/4SM BR OVC002 11/10 A3000 RMK 
     AO1=
METAR KORS 081310Z AUTO 00000KT 10SM CLR 14/12 A2997 RMK AO2=
METAR KPSO 081315Z AUTO 00000KT 10SM SCT085 OVC110 13/05 A3041 RMK 
     AO2=
METAR KPTS 081310Z AUTO 17004KT 7SM -RA SCT006 BKN017 OVC023 
     22/22 A3007 RMK AO2 LTG DSNT SE AND S P0001 T02200221=
METAR KPVJ 081307Z AUTO 00000KT 7SM OVC007 24/23 A3005 RMK AO2=
####018000242####
SAUS20 KNKA 081313
METAR KSVC 081310Z AUTO 05003KT 10SM OVC100 19/14 A3023 RMK AO2=
METAR KTMK 081313Z AUTO 00000KT 4SM BR OVC004 12/12 A2997 RMK AO2=
METAR KWWR 081309Z AUTO 35007KT 10SM OVC005 21/20 A3017 RMK AO2 
     T02130202=
####018000116####
SAAE31 VTBB 081300 CCA
METAR COR VTSS 081300Z 00000KT 9999 FEW018CW BKN300 26/23 Q1010
           A2984 N,NW=
####018000099####
SPUS90 KWBC 081314
SPECI KVCT 081310Z 03007KT 4SM BR BKN016 OVC036 24/24 A2990 RMK
     AO2=
####018000232####
SAUS90 KWBC 081314
METAR KDMW 081310Z AUTO 13003KT 7SM CLR 29/22 A3006 RMK AO2 LTG
     DSNT SE=
METAR KW29 081311Z AUTO 11006KT 7SM SCT012 27/23 A3002 RMK AO1=
METAR KFME 081312Z AUTO 00000KT 7SM CLR 27/22 A3004 RMK AO1=
####018002403####
SAUS99 KWBC 081314
METAR
KSVC 081310Z AUTO 05003KT 10SM OVC100 19/14 A3023 RMK AO2=
KTMK 081313Z AUTO 00000KT 4SM BR OVC004 12/12 A2997 RMK AO2=
KWWR 081309Z AUTO 35007KT 10SM OVC005 21/20 A3017 RMK AO2
     T02130202=
K4O4 081308Z AUTO 14006KT 25/23 A3008 RMK AO2=
KAIK 081315Z AUTO 29007KT 10SM CLR 29/24 A3005 RMK AO2 PNO=
KALM 081310Z AUTO 11005KT 10SM CLR 19/14 A3017 RMK AO2=
KARW 081315Z AUTO 29006KT 10SM CLR 28/18 A2998 RMK AO2=
KATS 081310Z AUTO 35006KT 10SM -RA BKN015 BKN033 19/18 A3019 RMK
     AO2=
KAXS 081310Z AUTO 00000KT 10SM -RA SCT046 SCT060 BKN070 23/22
     A3009 RMK AO2 LTG DSNT N T02330217=
KBVS 081310Z AUTO 04007KT 5SM CLR 19/12 A2999 RMK A01 P000=
KCHK 081311Z AUTO 01006KT 1 1/2SM BR OVC002 22/22 A3007 RMK
     AO2=
KCLK 081313Z AUTO 02005KT 10SM SCT005 SCT080 BKN110 22/21 A3010
     RMK AO2=
KCUH 081310Z AUTO 02003KT 7SM SCT003 BKN100 24/23 A3005 RMK
     AO2=
KDUA 081317Z AUTO 15007KT 10SM SCT004 SCT026 BKN090 25/24 A3005
     RMK AO2=
KFDW 081315Z AUTO 31004KT 10SM CLR 28/19 A3002 RMK AO1=
KFET 081310Z AUTO 01003KT 10SM CLR 19/17 A3018 RMK AO2=
KGCD 081310Z AUTO 13008KT 10SM CLR 13/02 A3013 RMK AO2
     T01330024=
KGCM 081315Z AUTO 00000KT 10SM SCT003 BKN007 BKN080 23/23 A3008
     RMK AO2=
KGLY 081315Z AUTO 00000KT 8SM BKN005 OVC009 24/23 A3008 RMK
     AO2=
KGMJ 081314Z AUTO 00000KT 24/24 A3007 RMK AO2 P0006 PWINO=
KIDP 081310Z AUTO 07003KT 10SM BKN008 BKN024 OVC110 22/21 A3007
     RMK AO2=
KIZA 081309Z AUTO 00000KT 10SM OVC007 13/11 A2992 RMK AO2=
KJSV 081311Z AUTO 10004KT 10SM SCT034 OVC048 24/23 A3006 RMK
     AO2=
KL35 081311Z AUTO 00000KT 10SM CLR 07/M03 A3019 RMK AO2=
KLAM 081310Z AUTO 00000KT 10SM CLR 14/08 A3040 RMK AO2=
KLRU 081311Z AUTO 01008KT 10SM CLR 22/14 A3019 RMK AO2=
KMEZ 081315Z AUTO 00000KT 4SM RA SCT017 BKN037 OVC055 26/23 A3010
     RMK AO2=
KOJA 081310Z AUTO 04005KT 5SM BR SCT007 22/22 A3010 RMK AO2=
KOKM 081311Z AUTO 01004KT 7SM OVC007 24/24 A3005 RMK AO1=
KONP 081310Z AUTO 00000KT 3/4SM BR OVC002 11/10 A3000 RMK AO1=
KORS 081310Z AUTO 00000KT 10SM CLR 14/12 A2997 RMK AO2=
KPSO 081315Z AUTO 00000KT 10SM SCT085 OVC110 13/05 A3041 RMK
     AO2=
KPTS 081310Z AUTO 17004KT 7SM -RA SCT006 BKN017 OVC023 22/22 A3007
     RMK AO2 LTG DSNT SE AND S P0001 T02200221=
KPVJ 081307Z AUTO 00000KT 7SM OVC007 24/23 A3005 RMK AO2=
####018000550####
SPUS99 KWBC 081314
SPECI
KAFN 081312Z AUTO 18006KT 7SM BKN010 OVC034 23/21 A3013 RMK AO2
     CIG 008V012=
KCXO 081312Z VRB03KT 10SM FEW006 24/24 A2999 RMK AO2=
KDMO 081312Z AUTO 34007KT 9SM SCT008 BKN012 OVC043 24/22 A3009 RMK
     AO2=
KIAH 081310Z COR 12010KT 1SM +TSRA BR SCT008 OVC025CB 24/23 A2998
     RMK AO2 OCNL LTGIC VC NE-S TS VC NE-S MOV NW P0006 $=
KIWI 081312Z AUTO 12004KT 10SM SCT011 SCT024 23/19 A3012 RMK
     AO2=
KLAA 081312Z AUTO 00000KT 10SM FEW005 BKN019 OVC100 17/16 A3028
     RMK AO2 RAE04 P0000=
####018000228####
SANG31 YBBN 081300
METAR AYPY 081300Z NIL=
METAR AYWK 081300Z NIL=
METAR AYVN 081300Z NIL=
METAR AYNZ 081300Z NIL=
METAR AYMH 081300Z NIL=
METAR AYGN 081300Z NIL=
METAR AYMO 081300Z NIL=
METAR AGGH 081300Z NIL=
####018001441####
SAAU31 YBBN 081300
METAR YPAD 081300Z 02004KT CAVOK 06/03 Q1026=
METAR YBAS 081300Z AUTO 00000KT 9999NDV // NCD 07/06 Q1021=
METAR YBBN 081300Z 22007KT 9999 BKN040 14/11 Q1021
NOSIG=
METAR YBCS 081300Z 15006KT 9999 FEW024 BKN040 23/19 Q1016=
METAR YSCB 081300Z AUTO 08002KT 9999NDV // SCT021 02/02 Q1028=
METAR YPXM 081300Z AUTO 22005KT 9999NDV // NCD 22/20 Q1014=
METAR YPCC 081300Z AUTO 14010KT 9999NDV // SCT026 OVC033 25/22 Q1014=
METAR YCFS 081300Z AUTO 23009KT 9999NDV // SCT083 14/09 Q1023=
METAR YPDN 081300Z 05005KT CAVOK 24/21 Q1013=
METAR YBCG 081300Z AUTO 20012KT 9999NDV // OVC100 15/12 Q1021=
METAR YHID 081300Z AUTO 16010KT 9999NDV // SCT018 25/22 Q1013=
METAR YPJT 081300Z AUTO 30008KT 5000NDV // SCT017 BKN046 OVC057 14/12
Q0997=
METAR YPKU 081300Z AUTO 13004KT 9999NDV // NCD 23/15 Q1015=
METAR YPLM 081300Z AUTO 22007KT 9999NDV // SCT027 BKN040 OVC048 20/17
Q1010=
METAR YMML 081300Z NIL=
METAR YPPH 081300Z 36008KT 9999 VCSH FEW009 SCT028 BKN058 14/13
Q0997
RMK WBD 0.3
INTER 1300/1600 29030G50KT 2000 TSGS BKN010 FEW030CB=
METAR YSSY 081300Z 24007KT 9999 -SHRA FEW010 SCT020 BKN050 11/11
Q1027
FM1300 22008KT 9999 -SHRA SCT020 BKN045
INTER 1300/1600 5000 SHRA BKN010=
METAR YSTW 081300Z AUTO 14007KT 9999NDV // NCD 06/04 Q1024=
METAR YPTN 081300Z AUTO 12004KT 9999NDV // OVC051 24/16 Q1015=
METAR YBTL 081300Z AUTO 13008KT 9999NDV // SCT018 OVC025 22/19 Q1017=
####018000983####
SACN86 KWBC 081314
METAR CWPO 081300Z AUTO 29005KT 15/12 RMK AO1 SLP203 T01470117
51014=
METAR CWBE 081300Z AUTO 08004KT 18/17 RMK AO1 SLP161 T01780172
58002=
METAR CWDQ 081300Z AUTO 22002KT 25/21 RMK AO1 SLP155 T02540208
50001=
METAR CWDV 081300Z AUTO 24006KT 18/16 RMK AO1 SLP153 T01800155
58001=
METAR CWNZ 081300Z AUTO 27002KT 18/15 RMK AO1 SLP136 T01780153
56008=
METAR CWDQ 081300Z AUTO 22002KT 25/21 RMK AO1 SLP155 T02540208
50001=
METAR CWDV 081300Z AUTO 24006KT 18/16 RMK AO1 SLP153 T01800155
58001=
METAR CWDV 081300Z AUTO 24006KT 18/16 RMK AO1 SLP153 T01800155
58001=
METAR CWDV 081300Z AUTO 24006KT 18/16 RMK AO1 SLP153 T01800155
58001=
METAR CWDV 081300Z AUTO 24006KT 18/16 RMK AO1 SLP153 T01800155
58001=
METAR CWDV 081300Z AUTO 24006KT 18/16 RMK AO1 SLP153 T01800155
58001=
METAR CWDV 081300Z AUTO 24006KT 18/16 RMK AO1 SLP153 T01800155
58001=
METAR CWDV 081300Z AUTO 24006KT 18/16 RMK AO1 SLP153 T01800155
58001=
####018000376####
SACN93 KWBC 081314
METAR CWNQ 081300Z AUTO 25004KT 27/22 RMK AO1 SLP153 T02650215
50003=
METAR CWOE 081300Z AUTO 36002KT 13/09 RMK AO1 T01330093=
METAR CWPD 081300Z AUTO 19003KT 24/22 RMK AO1 SLP129 T02420224
58003=
METAR CWPE 081300Z AUTO 17002KT 13/13 RMK AO1 SLP207 T01340130
51009=
METAR CWNQ 081200Z AUTO 26004KT 26/22 RMK AO1 SLP155 T02580223
53008=
####018000302####
SACN90 KWBC 081314
METAR CWEW 081300Z AUTO 14001KT 29/22 RMK AO1 SLP161 T02870224
50002=
METAR CWFF 081300Z AUTO 24007KT 12/09 RMK AO1 SLP189 T01220090
50000=
METAR CWGL 081300Z AUTO 18005KT 25/25 RMK AO1 SLP171 T02530248
58003=
METAR CWGM 081300Z AUTO 27003KT 09/06 RMK AO1 T00930062=
####018000169####
SACN87 KWBC 081314
METAR CWLB 081300Z AUTO 27004KT 16/13 RMK AO1 SLP172 T01590129
58001=
METAR CWRM 081300Z AUTO 30002KT 08/07 RMK AO1 SLP210 T00780067
56003=
####018000539####
SACN92 KWBC 081314
METAR CWJX 081300Z AUTO 21004KT 12/11 RMK AO1 SLP211 T01210111
51002=
METAR CWKX 081300Z AUTO 03003KT 08/03 RMK AO1 SLP238 T00790032
50000=
METAR CWLE 081300Z AUTO 22006KT 13/13 RMK AO1 SLP214 T01300126
51006=
METAR CWKX 081300Z AUTO 03003KT 08/03 RMK AO1 SLP238 T00790032
50000=
METAR CWLE 081300Z AUTO 22006KT 13/13 RMK AO1 SLP214 T01300126
51006=
METAR CWKX 081300Z AUTO 03003KT 08/03 RMK AO1 SLP238 T00790032
50000=
METAR CWLE 081300Z AUTO 22006KT 13/13 RMK AO1 SLP214 T01300126
51006=
####018001042####
SACN89 KWBC 081314
METAR CWAQ 081300Z AUTO 34003KT 12/11 RMK AO1 T01230114=
METAR CWAV 081300Z AUTO 00000KT 10/07 RMK AO1 SLP211 T00950067
58002=
METAR CWBT 081300Z AUTO 15003KT 13/13 RMK AO1 SLP172 T01310131
57003=
METAR CWCJ 081300Z AUTO 10001KT 17/17 RMK AO1 SLP140 T01740169
58004=
METAR CWCO 081300Z AUTO 14001KT 30/22 RMK AO1 SLP145 T02950218
58003=
METAR CWDZ 081300Z AUTO 16005KT 10/09 RMK AO1 SLP199 T01020085
58005=
METAR CWCO 081300Z AUTO 14001KT 30/22 RMK AO1 SLP145 T02950218
58003=
METAR CWDZ 081300Z AUTO 16005KT 10/09 RMK AO1 SLP199 T01020085
58005=
METAR CWDZ 081300Z AUTO 16005KT 10/09 RMK AO1 SLP199 T01020085
58005=
METAR CWDZ 081300Z AUTO 16005KT 10/09 RMK AO1 SLP199 T01020085
58005=
METAR CWDZ 081300Z AUTO 16005KT 10/09 RMK AO1 SLP199 T01020085
58005=
METAR CWDZ 081300Z AUTO 16005KT 10/09 RMK AO1 SLP199 T01020085
58005=
METAR CWDZ 081300Z AUTO 16005KT 10/09 RMK AO1 SLP199 T01020085
58005=
METAR CWDZ 081300Z AUTO 16005KT 10/09 RMK AO1 SLP199 T01020085
58005=
####018000362####
SACN94 KWBC 081314
METAR CWQP 081300Z AUTO 23004KT 25/22 RMK AO1 SLP167 T02500223
51002=
METAR CWRJ 081300Z AUTO 25003KT 13/13 RMK AO1 SLP198 T01280128
53001=
METAR CWRT 081300Z AUTO 33001KT 06/ RMK AO1 T0057=
METAR CWRZ 081300Z AUTO 05002KT 16/ RMK AO1 SLP155 T0155 51006=
METAR CWSR 081300Z AUTO 25008KT 15/13 RMK AO1 SLP174 T01480126
53001=
####018000228####
SACN96 KWBC 081314
METAR CWYJ 081300Z AUTO 33003KT 18/11 RMK AO1 T01770113=
METAR CWYY 081300Z AUTO 07001KT 13/11 RMK AO1 SLP181 T01320114
53008=
METAR CWZL 081300Z AUTO 08002KT 17/10 RMK AO1 SLP185 T01720097
53001=
####018000746####
SACN95 KWBC 081314
METAR CWUX 081200Z AUTO 04002KT 21/20 RMK AO1 SLP153 T02100202
51005=
METAR CWTT 081300Z AUTO 25002KT 26/24 RMK AO1 T02580236=
METAR CWUX 081300Z AUTO 04003KT 23/21 RMK AO1 SLP149 T02320212
58002=
METAR CWVI 081300Z AUTO 31008KT 15/12 RMK AO1 SLP181 T01490120
53004=
METAR CWVN 081300Z AUTO 02001KT 13/11 RMK AO1 SLP223 T01310105
51008=
METAR CWVP 081300Z AUTO 34002KT 14/10 RMK AO1 SLP226 T01390098
52004=
METAR CWVU 081300Z AUTO 17011KT 17/16 RMK AO1 SLP218 T01670164
51013=
METAR CWWK 081300Z AUTO 00000KT 17/14 RMK AO1 SLP162 T01730140
52008=
METAR CWVU 081300Z AUTO 17011KT 17/16 RMK AO1 SLP218 T01670164
51013=
METAR CWWK 081300Z AUTO 00000KT 17/14 RMK AO1 SLP162 T01730140
52008=
####018000870####
SACN97 KWBC 081314
METAR CXBO 081300Z AUTO 05006KT 20/18 RMK AO1 T02000175=
METAR CXEA 081300Z AUTO 27005KT 16/13 RMK AO1 SLP140 T01640127
53006=
METAR CXGH 081300Z AUTO 30006KT 16/16 RMK AO1 T01640156=
METAR CXRH 081300Z AUTO 13005KT 17/14 RMK AO1 T01680141=
METAR CXSH 081300Z AUTO 14003KT 27/21 RMK AO1 SLP153 T02700207
51005=
METAR CXTP 081300Z AUTO 21008KT 15/12 RMK AO1 PK WND 22017/1205
SLP218 T01540124 58009=
METAR CXZU 081300Z AUTO 25001KT 11/09 RMK AO1 SLP187 T01140087
50001=
METAR CXGH 081300Z AUTO 30006KT 16/16 RMK AO1 T01640156=
METAR CXRH 081300Z AUTO 13005KT 17/14 RMK AO1 T01680141=
METAR CXSH 081300Z AUTO 14003KT 27/21 RMK AO1 SLP153 T02700207
51005=
METAR CXTP 081300Z AUTO 21008KT 15/12 RMK AO1 PK WND 22017/1205
SLP218 T01540124 58009=
METAR CXZU 081300Z AUTO 25001KT 11/09 RMK AO1 SLP187 T01140087
50001=
####018001156####
SACN91 KWBC 081314
METAR CWGR 081300Z AUTO 23014G20KT 20/18 RMK AO1 PK WND 23020/1227
SLP168 T02010178 50003=
METAR CWGX 081300Z AUTO 24006KT 15/11 RMK AO1 SLP078 T01480106
58008=
METAR CWIG 081300Z AUTO 01006KT RMK AO1 =
METAR CWII 081300Z AUTO 31017KT 17/14 RMK AO1 PK WND 30020/1217
T01720138=
METAR CWIS 081300Z AUTO 20005KT 24/21 RMK AO1 SLP172 T02360206
53001=
METAR CWIT 081300Z AUTO 28005KT 28/22 RMK AO1 T02810218=
METAR CWIW 081300Z AUTO 25004KT 14/11 RMK AO1 SLP199 T01350112
52002=
METAR CWJH 081300Z AUTO 27003KT 15/09 RMK AO1 SLP127 T01450086
58005=
METAR CWIT 081300Z AUTO 28005KT 28/22 RMK AO1 T02810218=
METAR CWIW 081300Z AUTO 25004KT 14/11 RMK AO1 SLP199 T01350112
52002=
METAR CWJH 081300Z AUTO 27003KT 15/09 RMK AO1 SLP127 T01450086
58005=
METAR CWIT 081300Z AUTO 28005KT 28/22 RMK AO1 T02810218=
METAR CWIW 081300Z AUTO 25004KT 14/11 RMK AO1 SLP199 T01350112
52002=
METAR CWJH 081300Z AUTO 27003KT 15/09 RMK AO1 SLP127 T01450086
58005=
METAR CWIW 081300Z AUTO 25004KT 14/11 RMK AO1 SLP199 T01350112
52002=
METAR CWJH 081300Z AUTO 27003KT 15/09 RMK AO1 SLP127 T01450086
58005=
####018000190####
SACN88 KWBC 081314
METAR CAHR 081300Z AUTO 22013G21KT 22/19 RMK AO1 PK WND 22021/1256
SLP185 T02210189 53002=
METAR CERM 081300Z AUTO 16002KT 25/23 RMK AO1 SLP155 T02540227
50000=
####018000161####
SACN85 KWBC 081314
METAR CWWE 081300Z AUTO 22004KT 16/ RMK AO1 SLP221 T0160 51007=
METAR CWSF 081300Z AUTO 32004KT 13/13 RMK AO1 SLP169 T01310131
58002=
####018000169####
SACN78 KWBC 081314
METAR CXBI 081300Z AUTO 13003KT 27/23 RMK AO1 SLP165 T02690225
56001=
METAR CXZC 081300Z AUTO 29007KT 19/17 RMK AO1 SLP123 T01930169
53014=
####018000249####
SAMX41 MMMX 081309
METAR MMIT 081300Z RTD 00000KT 5SM HZ BKN010 OVC070 27/25 A2978 RMK 
           8/66/ BINOVC =
METAR MMTB 081300Z RTD 00000KT 4SM BCFG BKN018 OVC070 23/21 A2986 
           RMK 8/62/ VIS RED 1SM BR 2 QUAD BCMIFG 3 QUAD =
####018001270####
SAAU32 YBBN 081300
METAR YAMB 081300Z AUTO 19001KT 9999NDV // NCD 13/10 Q1021=
METAR YMAV 081300Z AUTO 33004KT 9999NDV // BKN048 07/05 Q1028=
METAR YBRM 081300Z 06004KT 9999 SCT037 BKN071 23/22 Q1012=
METAR YCIN 081300Z AUTO 11006KT //// // ////// 22/18 Q1013=
METAR YSDU 081300Z AUTO 15007KT 9999NDV // NCD 06/04 Q1026=
METAR YFRT 081300Z AUTO 05009KT //// // ////// 11/02 Q1013=
METAR YGEL 081300Z AUTO 34018KT 2400NDV // BKN011 BKN028 OVC046 16/15
Q1001=
METAR YPGV 081300Z AUTO 15008KT 9999NDV // SCT011 BKN016 24/22 Q1014=
METAR YBHM 081300Z NIL=
METAR YMHB 081300Z 32006KT CAVOK 03/01 Q1031=
METAR YPKG 081300Z AUTO 35009KT 9999NDV // BKN068 17/05 Q1004=
METAR YMLT 081300Z AUTO 17004KT 1100NDV // NCD 02/02 Q1031=
METAR YBMA 081300Z NIL=
METAR YSNF 081300Z AUTO 11012KT 9999NDV // OVC035 15/08 Q1018=
METAR YPEA 081300Z AUTO 36011KT 9999NDV // SCT016 SCT040 SCT069 14/12
Q0997=
METAR YPPD 081300Z AUTO 35005KT 9000NDV // BKN032 BKN051 OVC100 21/21
Q1010=
METAR YSRI 081300Z AUTO 26004KT 9999NDV // SCT027 BKN057 OVC071 11/10
Q1028=
METAR YBRK 081300Z 23003KT 9999 FEW004 BKN030 13/12 Q1020=
METAR YWLM 081300Z AUTO 25007KT 9999NDV // ////// 10/10 Q1026=
METAR YPWR 081300Z AUTO 10005KT 9999NDV // NCD 07/01 Q1023=
####018000527####
SAAO33 DRRN 081300
METAR DBBB 081300Z 22011KT 9999 SCT012 BKN120 29/25 Q1012 NOSIG=
METAR DFFD 081300Z VRB02KT CAVOK 30/21 Q1015 NOSIG=
METAR DGAA 081300Z 20014KT 9999 FEW010 SCT016 BKN250 30/23 Q1013
NOSIG=
METAR DNKN 081300Z NIL=
METAR DNMM 081300Z 24010KT 9999 BKN012 FEW020CB 29/26 Q1014 NOSIG=
METAR DRRN 081300Z 18004KT 110V210 CAVOK 33/19 Q1012 NOSIG=
METAR DXXX 081300Z 20012KT 9999 FEW016 FEW025CB 29/24 Q1013 NOSIG=
METAR FTTJ 081300Z VRB04KT 9999 VCRA FEW040 FEW050CB BKN140 31/28
Q1012 TEMPO 3000 TSRA=
####018000504####
SAHK31 VHHH 081300
METAR VHHH 081300Z 19007KT 140V240 9999 FEW020 31/25 Q1007 NOSIG=
METAR RCTP 081300Z NIL=
METAR RCKH 081300Z NIL=
METAR RCSS 081300Z NIL=
METAR VMMC 081300Z 19008KT 180V260 9999 FEW020 29/26 Q1007
     NOSIG=
METAR RPLL 081300Z 11003KT 9000 FEW025 31/26 Q1010 NOSIG RMK A2980=
METAR RPVM 081300Z 00000KT 9999 FEW018CB SCT090 BKN250 29/26 Q1011
           A2985 OCNL LTNG N=
METAR RPMD 081300Z NIL=
METAR RPLB 081300Z NIL=
METAR RPLI 081300Z NIL=
METAR RPMZ 081300Z NIL=
####018000369####
SAID31 WIII 081300
METAR WIMM 081300Z 09005KT 5000 FEW016CB SCT017 29/25 Q1010 NOSIG= 
METAR WIDD 081300Z 18004KT 9999 FEW017 27/24 Q1010= 
METAR WAAA 081300Z 10002KT 9999 FEW020 26/26 Q1011= 
METAR WIII 081300Z 22003KT 7000 SCT020 25/22 Q1012 NOSIG= 
METAR WADD 081300Z 00000KT 9999 SCT018 26/25 Q1010 NOSIG= 
METAR WIHH NIL=
METAR WABB NIL=
METAR WARR NIL=
####018000111####
SARS35 RUMS 081300 RRA
METAR UWKE 081300Z 08003MPS 9999 FEW040 31/10 Q1015 NOSIG RMK
QFE744/0992 04090070=
####018000204####
SPXX60 KWBC 081314
SPECI
KHLR 081310Z AUTO 09004KT 10SM BKN009 BKN012 OVC037 26/ A3001 RMK
     AO2 RAE04 P0000 T0256 $=
KCEF 081306Z 15005KT 6SM BR OVC011 25/23 A3008 RMK AO2A SLP186
     $=
####018000228####
SPUS80 KWBC 081314
SPECI
KVCT 081310Z 03007KT 4SM BR BKN016 OVC036 24/24 A2990 RMK AO2=
KGRR 081311Z 00000KT 4SM HZ SCT006 BKN055 OVC130 25/22 A3003 RMK
     AO2=
KSAN 081310Z 32005KT 9SM OVC013 16/14 A2992 RMK AO2=
####018000121####
SAXX60 KWBC 081300 RRJ
METAR
TTPP 081300Z ///06KT 3000 -RA FEW006 FEW010CB SCT012 BKN035 26/25
     Q1013 NOSIG=
####018002475####
SAUS70 KWBC 081314
METAR
KW29 081311Z AUTO 11006KT 7SM SCT012 27/23 A3002 RMK AO1=
K2G4 081310Z AUTO 00000KT 10SM CLR 25/15 A3020 RMK AO1=
K2W6 081310Z AUTO 12008KT 7SM BKN013 BKN019 27/23 A3003 RMK
     AO1=
KCGS 081315Z AUTO 04003KT 5SM SCT095 30/23 A3002 RMK AO1=
KSVC 081310Z AUTO 05003KT 10SM OVC100 19/14 A3023 RMK AO2=
KTMK 081313Z AUTO 00000KT 4SM BR OVC004 12/12 A2997 RMK AO2=
KWWR 081309Z AUTO 35007KT 10SM OVC005 21/20 A3017 RMK AO2
     T02130202=
K4O4 081308Z AUTO 14006KT 25/23 A3008 RMK AO2=
KAIK 081315Z AUTO 29007KT 10SM CLR 29/24 A3005 RMK AO2 PNO=
KALM 081310Z AUTO 11005KT 10SM CLR 19/14 A3017 RMK AO2=
KARW 081315Z AUTO 29006KT 10SM CLR 28/18 A2998 RMK AO2=
KATS 081310Z AUTO 35006KT 10SM -RA BKN015 BKN033 19/18 A3019 RMK
     AO2=
KAXS 081310Z AUTO 00000KT 10SM -RA SCT046 SCT060 BKN070 23/22
     A3009 RMK AO2 LTG DSNT N T02330217=
KBVS 081310Z AUTO 04007KT 5SM CLR 19/12 A2999 RMK A01 P000=
KCHK 081311Z AUTO 01006KT 1 1/2SM BR OVC002 22/22 A3007 RMK
     AO2=
KCLK 081313Z AUTO 02005KT 10SM SCT005 SCT080 BKN110 22/21 A3010
     RMK AO2=
KCUH 081310Z AUTO 02003KT 7SM SCT003 BKN100 24/23 A3005 RMK
     AO2=
KDUA 081317Z AUTO 15007KT 10SM SCT004 SCT026 BKN090 25/24 A3005
     RMK AO2=
KFDW 081315Z AUTO 31004KT 10SM CLR 28/19 A3002 RMK AO1=
KFET 081310Z AUTO 01003KT 10SM CLR 19/17 A3018 RMK AO2=
KGCD 081310Z AUTO 13008KT 10SM CLR 13/02 A3013 RMK AO2
     T01330024=
KGCM 081315Z AUTO 00000KT 10SM SCT003 BKN007 BKN080 23/23 A3008
     RMK AO2=
KGLY 081315Z AUTO 00000KT 8SM BKN005 OVC009 24/23 A3008 RMK
     AO2=
KGMJ 081314Z AUTO 00000KT 24/24 A3007 RMK AO2 P0006 PWINO=
KIDP 081310Z AUTO 07003KT 10SM BKN008 BKN024 OVC110 22/21 A3007
     RMK AO2=
KJSV 081311Z AUTO 10004KT 10SM SCT034 OVC048 24/23 A3006 RMK
     AO2=
KL35 081311Z AUTO 00000KT 10SM CLR 07/M03 A3019 RMK AO2=
KLAM 081310Z AUTO 00000KT 10SM CLR 14/08 A3040 RMK AO2=
KLRU 081311Z AUTO 01008KT 10SM CLR 22/14 A3019 RMK AO2=
KMEZ 081315Z AUTO 00000KT 4SM RA SCT017 BKN037 OVC055 26/23 A3010
     RMK AO2=
KOJA 081310Z AUTO 04005KT 5SM BR SCT007 22/22 A3010 RMK AO2=
KOKM 081311Z AUTO 01004KT 7SM OVC007 24/24 A3005 RMK AO1=
KONP 081310Z AUTO 00000KT 3/4SM BR OVC002 11/10 A3000 RMK AO1=
KORS 081310Z AUTO 00000KT 10SM CLR 14/12 A2997 RMK AO2=
KPSO 081315Z AUTO 00000KT 10SM SCT085 OVC110 13/05 A3041 RMK
     AO2=
KPVJ 081307Z AUTO 00000KT 7SM OVC007 24/23 A3005 RMK AO2=
####018001638####
SASD20 OEJD 081300
METAR OEAB 081300Z 03010KT 9999  SCT020 32/M02 Q1019 NOSIG=
METAR OEAH 081300Z 03014KT CAVOK 45/05 Q1000 NOSIG=
METAR OEBA 081300Z 08006KT 9999 FEW030 36/04 Q1015 NOSIG=
METAR OEBH 081300Z 03012KT CAVOK 41/03 Q1010 NOSIG=
METAR OEDF 081300Z 01015KT CAVOK 44/04 Q0998 NOSIG=
METAR OEDM 081300Z 09010KT CAVOK 42/04 Q1010=
METAR OEDR 081300Z 04011KT 8000 SKC 41/13 Q0997 NOSIG=
METAR OEGN 081300Z 26006KT CAVOK 36/30 Q1001 NOSIG=
METAR OEGS 081300Z 33007KT CAVOK 45/07 Q1007=
METAR OEGT 081300Z NIL=
METAR OEHL 081300Z 01004KT 9999 SCT040 42/00 Q1011 NOSIG=
METAR OEJN 081300Z 30014KT CAVOK 37/25 Q1001 NOSIG=
METAR OEKB 081300Z NIL=
METAR OEKJ 081300Z NIL=
METAR OEKK 081300Z 03016KT CAVOK 45/11 Q1005=
METAR OEKM 081300Z 03010KT 8000 SCT022 32/04 Q1011 NOSIG=
METAR OEMA 081300Z 08008KT 9999 SCT045 47/M04 Q1004 NOSIG=
METAR OEMH 081300Z NIL=
METAR OEMK 081300Z 21003KT CAVOK 45/26 Q1000=
METAR OENG 081300Z 03010KT 5000 DU SCT030 SCT080 40/M01 Q1009 NOSIG=
METAR OEPA 081300Z NIL=
METAR OERF 081300Z 33003KT CAVOK 45/13 Q1005=
METAR OERK 081300Z 01016KT 8000 BLDU SKC 43/M03 Q1006 NOSIG=
METAR OERR 081300Z 27008KT CAVOK 46/11 Q1006=
METAR OERY 081300Z 04015KT 5000 SA SKC 44/M02 Q1006 NOSIG=
METAR OESH 081300Z 05006KT 6000 SKC 41/17 Q1001 NOSIG=
METAR OESK 081300Z 26010KT CAVOK 44/01 Q1007=
METAR OETB 081300Z 36002KT CAVOK 42/05 Q1008 NOSIG=
METAR OETF 081300Z 11009KT 9999  SCT030 38/00 Q1014 NOSIG=
METAR OETR 081300Z 20004KT CAVOK 40/05 Q1010=
METAR OEWD 081300Z NIL=
METAR OEWJ 081300Z 30018KT CAVOK 33/24 Q1003=
METAR OEYN 081300Z 28018KT 4000 DU SKC 45/16 Q0998 TEMPO 3000=
####018001286####
SPUS70 KWBC 081314
SPECI
KBMQ 081311Z AUTO 06005KT 9SM SCT008 BKN039 OVC060 24/22 A3003 RMK
     AO2=
KOKC 081310Z 32004KT 9SM FEW007 SCT080 BKN200 24/22 A3007 RMK
     AO2=
KGLR 081311Z AUTO 24006KT 2 1/2SM -RA BR FEW007 SCT020 BKN033
     21/21 A3003 RMK AO2 P0004=
KILG 081311Z 13006KT 1SM BR OVC005 26/23 A3004 RMK AO2 SFC VIS 3
     CIG 001V008=
KJFK 081311Z 14004KT 9SM BKN017 BKN030 OVC130 26/21 A3006 RMK
     AO2=
KMCI 081311Z 02005KT 1SM BR OVC002 23/22 A3010 RMK AO2 SFC VIS 3
     CIG 001V005=
KMDW 081311Z 22003KT 6SM BR FEW007 BKN023 OVC050 24/22 A3003 RMK
     AO2 RAE1256 P0000=
KMWL 081311Z AUTO 14004KT 10SM FEW008 SCT024 BKN031 24/23 A3004
     RMK AO2 $=
KOKB 081311Z AUTO 9SM OVC015 17/14 A2990 RMK AO2 $=
KAFN 081312Z AUTO 18006KT 7SM BKN010 OVC034 23/21 A3013 RMK AO2
     CIG 008V012=
KCXO 081312Z VRB03KT 10SM FEW006 24/24 A2999 RMK AO2=
KDMO 081312Z AUTO 34007KT 9SM SCT008 BKN012 OVC043 24/22 A3009 RMK
     AO2=
KIAH 081310Z COR 12010KT 1SM +TSRA BR SCT008 OVC025CB 24/23 A2998
     RMK AO2 OCNL LTGIC VC NE-S TS VC NE-S MOV NW P0006 $=
KIWI 081312Z AUTO 12004KT 10SM SCT011 SCT024 23/19 A3012 RMK
     AO2=
KLAA 081312Z AUTO 00000KT 10SM FEW005 BKN019 OVC100 17/16 A3028
     RMK AO2 RAE04 P0000=
####018000266####
SAUS80 KWBC 081314
METAR
KCBE 081311Z AUTO 00000KT 7SM CLR 26/18 A3011 RMK AO1=
KIZA 081309Z AUTO 00000KT 10SM OVC007 13/11 A2992 RMK AO2=
KPTS 081310Z AUTO 17004KT 7SM -RA SCT006 BKN017 OVC023 22/22 A3007
     RMK AO2 LTG DSNT SE AND S P0001 T02200221=
####018000085####
SAMC32 GMMC 081300 RRA
METAR GMMC 081300Z 36007KT 5000 SCT016 BKN026 25/20 Q1013=
####018000079####
SATR31 RUMS 081300 RRA
METAR UTAT 081300Z VRB02MPS CAVOK 43/19 Q1006 NOSIG=
####018000081####
SASD32 OEJD 081300
METAR OETF 081300Z 11009KT 9999  SCT030 38/00 Q1014 NOSIG=
####018000081####
SAAF33 KWBC 081300 RRB
METAR
FNLU 081300Z 27011KT CAVOK 24/19 Q1011 NOSIG=
####018000137####
SAAF08 LFPW 081300 RRA
METAR DFFD 081300Z VRB02KT CAVOK 30/21 Q1015 NOSIG=
METAR GABS 081300Z VRB02KT 9999 FEW030 33/21 Q1015 NOSIG=
####018000142####
SAAF36 KWBC 081300 RRB
METAR
HEMA 081300Z 01020KT CAVOK 34/17 Q1005 NOSIG=
HKJK 081300Z 17010KT 9999 SCT022 BKN090 20/13 Q1022 NOSIG=
####018000161####
SAUS44 KCRP 081314
MTRNGP
SPECI KNGP 081312Z 02006KT 9SM -RA FEW011 SCT022CB BKN034 28/26 
A2983 RMK AO2 RAB12 CB DSNT SE TCU DSNT N AND S-SW WR// P0001
####018000721####
SAUZ31 UTTW 081300
METAR UTFN 081300Z 15002MPS 9999 FEW050CB FEW250 36/11 Q1009
R28/CLRD70 NOSIG=
METAR UTNN 081300Z VRB01MPS CAVOK 43/06 Q1005 R33/CLRD70 NOSIG=
METAR UTNU 081300Z 04003MPS CAVOK 38/22 Q1006 R13/CLRD60 NOSIG=
METAR UTSA 081300Z 02007MPS 9999 FEW220 39/04 Q1008 R88/CLRD70 NOSIG=
METAR UTSB 081300Z 36005MPS CAVOK 39/08 Q1007 R01/CLRD70 TEMPO
01008MPS=
UTSH NIL=
METAR UTSK 081300Z 33006MPS CAVOK 40/10 Q1005 R16/CLRD70=
METAR UTSS 081300Z 08006MPS 050V110 9999 NSC 34/11 Q1010 R88/CLRD70
NOSIG=
METAR UTST 081300Z VRB01MPS CAVOK 40/05 Q1004 R88/CLRD70 NOSIG=
METAR UTTT 081300Z 00000MPS CAVOK 38/06 Q1009 R08R/CLRD70 NOSIG=
METAR UTTP 081300Z 12001MPS CAVOK 37/12 Q1010 R88/CLRD70 NOSIG=
####018000390####
SAAF13 LFPW 081300 RRA
METAR GBYD 081300Z VRB03KT SCT012 FEWCB018 BKN120 30/27 Q1013 CB
S-NW=
METAR GFLL 081300Z 15010KT 9999 SCT012 FEW028CB 29/24 Q1013 CB-NE=
METAR GGOV 081300Z 20009KT 140V260 9999 BKN015TCU FEW020CB 31/23
Q1013                    NOSIG=
METAR GLRB 081300Z 25005KT 9999 BKN018 30/25 Q1013 NOSIG=
METAR GVAC 081300Z 08010KT 9999 BKN014 BKN018 25/20 Q1014 NOSIG=
####018000108####
SAAS33 KWBC 081305 CCA
METAR
VTSS 081300Z 00000KT 9999 FEW018CW BKN300 26/23 Q1010 A2984
     N,NW=
####018000087####
SAKN61 HKJK 081300
METAR HKJK 081300Z 17010KT 9999 SCT022 BKN090 20/13 Q1022 NOSIG=
####018000094####
SAIN32 VIDP 081230 RRB
METAR VIBN 081230Z 11004KT 7000 FEW020 SCT025 FEW030CB 38/22 Q1001=
####018000174####
SAAG41 KWBC 081300 RRA
METAR
SANT 081300Z 18004KT 8000 11/06 Q1018=
SARL 081300Z 14015KT 9999 11/07 Q1021=
SAZN 081300Z 23004KT 9999 -RA BKN035 SCT060 10/04 Q1010=
####018000082####
SASD31 OEJD 081300 RRA
METAR OYSN 081300Z 03018KT 4000 DU SCT030 31/M03 Q1020=
####018000110####
SAIY42 LIIB 081300 RRB
METAR LIED 081255Z 14018KT 9999 SCT018 32/20 Q1018 RMK SCT VIS MIN
      9999 BLU=
####018000139####
SAAG05 SABM 081300 RRA
METAR SACO 081300Z  34005KT CAVOK 11/M05 Q1019=
METAR SAWG 081300Z  32005KT 9999  FEW020 BKN100
M03/M05 Q0990=
####018000555####
SAAL33 DAAA 081300
METAR DAAD 081300Z 00000KT CAVOK 39/14 Q1021=
METAR DAAE 081300Z 09010KT CAVOK 29/22 Q1019=
METAR DAAJ 081300Z NIL=
METAR DAAP 081300Z 15012KT CAVOK 40/10 Q1014=
METAR DAAV 081300Z 36010KT CAVOK 30/23 Q1019=
METAR DABT 081300Z NIL=
METAR DAFH 081300Z NIL=
METAR DATG 081300Z NIL=
METAR DATM 081300Z NIL=
METAR DAUE 081300Z 03010KT CAVOK 38/09 Q1020=
METAR DAUI 081300Z NIL=
METAR DAUK 081300Z 00000KT CAVOK 37/16 Q1017=
METAR DAUO 081300Z 00000KT CAVOK 38/16 Q1017=
METAR DAUT 081300Z ///18KT 4000 DRSA NSC 43/09 Q1014=
####018000149####
SAAW32 KWBC 081300 RRC
METAR
OKBK 081300Z 34020KT 6000 BLDU SKC 47/M05 Q0999 NOSIG=
OTBD 081300Z 06007KT 030V110 6000 NSC 36/30 Q0999 NOSIG=
####018000483####
SAAL32 DAAA 081300
METAR DAAS 081300Z 32010KT CAVOK 35/03 Q1024=
METAR DABS 081300Z 32006KT CAVOK 35/06 Q1023=
METAR DAOB 081300Z 03007KT CAVOK 38/07 Q1022=
METAR DAOF 081300Z 11004KT 4000 HZ NSC 45/05 Q1013=
METAR DAOR 081300Z 11004KT CAVOK 40/05 Q1022=
METAR DAUA 081300Z 36019KT 7000 DRSA NSC 44/07 Q1012=
METAR DAUB 081300Z 24008KT CAVOK 37/15 Q1016=
METAR DAUG 081300Z NIL=
METAR DAUU 081300Z 05010KT CAVOK 39/16 Q1017=
METAR DAUZ 081300Z 09005KT CAVOK 38/07 Q1016=
####018000444####
SAAF35 KWBC 081300 RRB
METAR
HEAX 081300Z 32013KT 9999 FEW020 30/21 Q1010 NOSIG=
HEBA 081300Z 33015KT CAVOK 29/20 Q1011 NOSIG=
HEBL 081300Z 04014KT CAVOK 40/08 Q1008 NOSIG=
HEGN 081300Z 36019KT CAVOK 37/09 Q1005 NOSIG=
HELX 081300Z 30012KT CAVOK 40/11 Q1006 NOSIG=
HEMM 081300Z 33010KT CAVOK 28/21 Q1012 NOSIG=
HEPS 081300Z 34011KT CAVOK 29/23 Q1010 NOSIG=
HESC 081300Z 05010KT CAVOK 32/10 Q1018 NOSIG=
HESN 081300Z NILG=
####018000177####
SAAF14 LFPW 081300 RRB
METAR DRRN 081300Z 18004KT 110V210 CAVOK 33/19 Q1012 NOSIG=
METAR FTTJ 081300Z VRB04KT 9999 VCRA FEW040 FEW050CB BKN140 31/28
Q1012 TEMPO 3000 TSRA=
####018000111####
SAAW34 KWBC 081245 RRH
METAR
UTSS 081300Z 08006MPS 050V110 9999 NSC 34/11 Q1010 R88/CLRD70
     NOSIG=
####018000091####
SAAF05 LFPW 081300 RRB
METAR DBBB 081300Z 22011KT 9999 SCT012 BKN120 29/25 Q1012 NOSIG=
####018000097####
SAAS33 KWBC 081305 RRA
METAR
VTSS 081300Z 00000KT 9999 FEW018CW BKN300 26/23 Q1010 A2 984=
####018000693####
SAAO32 GOOY 081300
METAR GABS 081300Z VRB02KT 9999 FEW030 33/21 Q1015 NOSIG=
METAR GGOV 081300Z 20009KT 140V260 9999 BKN015TCU FEW020CB 31/23
Q1013                    NOSIG=
METAR GOOY 081300Z 16009KT 120V210 9999 SCT013 31/25 Q1012 NOSIG=
METAR DIAP 081300Z 19006KT 160V240 8000 SCT012 BKN020 29/25 Q1014
NOSIG=
METAR GQNN 081300Z 21013KT 6000 NSC 32/23 Q1012 NOSIG=
METAR GQPP 081300Z NIL=
METAR GUCY 081300Z NIL=
METAR GVAC 081300Z 08010KT 9999 BKN014 BKN018 25/20 Q1014 NOSIG=
METAR GFLL 081300Z 15010KT 9999 SCT012 FEW028CB 29/24 Q1013 CB-NE=
METAR GBYD 081300Z VRB03KT SCT012 FEWCB018 BKN120 30/27 Q1013 CB
S-NW=
METAR GLRB 081300Z 25005KT 9999 BKN018 30/25 Q1013 NOSIG=
####018000087####
SAAW33 KWBC 081300 RRB
METAR
OBBI 081300Z 04010KT 4500 HZ SKC 35/27 Q0999 NOSIG=
####018000104####
SARA36 RUMS 081300 RRA
METAR USSS 081300Z 36006G11MPS CAVOK 25/M00 Q1014 NOSIG RMK QFE740
260///70=
####018000242####
SAHK31 VHHH 081300 RRA
METAR RCTP 081300Z 19006KT 150V250 9999 FEW025 BKN150 29/25
Q1007 NOSIG=
METAR RCKH 081300Z 24006KT 200V280 9999 FEW013 BKN300 30/26
Q1009 NOSIG=
METAR RCSS 081300Z VRB02KT 9999 FEW030 SCT120 30/24 Q1008
NOSIG=
####018000368####
SAAU31 KWBC 081300 RRB
METAR
YBCS 081300Z 15006KT 9999 FEW024 BKN040 23/19 Q1016 NOSIG=
YMML 081300Z 34005KT CAVOK 05/04 Q1028 FM1300 VRB03KT 5000 HZ SKC
     FM1400 36005KT 2000 BR=
YPAD 081300Z 02004KT CAVOK 06/03 Q1026 NOSIG=
YPPH 081300Z 36008KT 9999 VCSH FEW009 SCT028 BKN058 14/13 Q0997
     INTER 1300/1600 29030G50KT 2000 TSGS BKN010 FEW030CB=
####018000306####
SAAG31 KWBC 081300 RRA
METAR
SAAR 081300Z 00000KT 9000 NSC 07/04 Q1018=
SACO 081300Z NIL=
SACO 081300Z 34005KT CAVOK 11/M05 Q1019=
SARC 081300Z 14010KT 9999 BKN012 12/09 Q1020=
SAWE 081300Z NIL=
SAWG 081300Z NIL=
SAWG 081300Z 32005KT 9999 FEW020 BKN100 M03/M05 Q0990=
SAZS 081300Z NIL=
####018000087####
SAAW42 KWBC 081300 RRA
METAR
OBBI 081300Z 04010KT 4500 HZ SKC 35/27 Q0999 NOSIG=
####018000053####
SABX31 KWBC 081250 RRC
METAR
EBSP 081300Z NIL=
####018000113####
SAIY41 KWBC 081250 RRD
METAR
LIED 081255Z 14018KT 9999 SCT018 32/20 Q1018 RMK SCT VIS MIN 9999
     BLU=
####018000188####
SAMX41 KWBC 081245 RRD
METAR
MMCE 081240Z 16008KT 3SM SCT020 BKN040 OVC080 27/25 A2980RMK
     8/43/=
MMCM 081245Z 12008KT 7SM BKN005 BKN020 OVC050 25/24 A2981 RMK
     8/7//=
####018000110####
SPSA31 KWBC 081314
SPECI
SEGU 081310Z 20005KT 9999N 4000S BKN040 OVC100 23/19 Q1012 TEMPO
3000 NOSIG=
####018000090####
SPUS31 KWBC 081314
SPECI
KJFK 081311Z 14004KT 9SM BKN017 BKN030 OVC130 26/21 A3006=
####018000487####
SARA31 KWBC 081300 RRD
METAR
UTNN 081300Z VRB01MPS CAVOK 43/06 Q1005 R33/CLRD70 NOSIG=
UTNU 081300Z 04003MPS CAVOK 38/22 Q1006 R13/CLRD60 NOSIG=
UTSA 081300Z 02007MPS 9999 FEW220 39/04 Q1008 R88/CLRD70 NOSIG=
UTSB 081300Z 36005MPS CAVOK 39/08 Q1007 R01/CLRD70 TEMPO
     01008MPS=
UTSK 081300Z 33006MPS CAVOK 40/10 Q1005 R16/CLRD70=
UTSS 081300Z 08006MPS 050V110 9999 NSC 34/11 Q1010 R88/CLRD70
     NOSIG=
UTST 081300Z VRB01MPS CAVOK 40/05 Q1004 R88/CLRD70 NOSIG=
####018000079####
SPUS31 KWBC 081314
SPECI
KMCI 081311Z 02005KT 1SM BR OVC002 23/22 A3010=
####018000113####
SARS33 KWBC 081300 RRB
METAR
USSS 081300Z 36006G11MPS CAVOK 25/M00 Q1014 NOSIG RMK QFE740
     260///70=
####018000200####
SASA31 KWBC 081300 RRB
METAR
SKBO 081300Z 04004KT 9000 FEW015 BKN070 13/11 A3034=
SKCG 081300Z 09004KT 9999 FEW015CB SCT200 28/25 A2988=
SKLT 081300Z 00000KT 9999 FEW015 BKN070 27/25 A2991=
####018000090####
SPUS31 KWBC 081314
SPECI
KOKC 081310Z 32004KT 9SM FEW007 SCT080 BKN200 24/22 A3007=
####018000197####
SASA41 KWBC 081300 RRB
METAR
SKBG 081300Z 00000KT 2000S BCFG SCT012 20/19 A3005=
SKMD 081300Z 00000KT 6000 SCT030 OVC080 19/15 A3012=
SKSM 081300Z 00000KT 9999 SCT017 OVC070 27/24 A2989=
####018000095####
SASP31 KWBC 081300 RRA
METAR
LEAS 081300Z 05003KT 350V090 9999 FEW015 24/20 Q1016 NOSIG=
####018000098####
SAUK42 KWBC 081250 RRC
METAR
EGQK 081250Z 22020KT 9999 FEW027 BKN050 18/07 Q1009 BLU NOSIG=
####018000079####
SPUS41 KWBC 081314
SPECI
KILG 081311Z 13006KT 1SM BR OVC005 26/23 A3004=
####018000189####
SAXX99 KWBC 081200 RRX
METAR
MMCP 081243Z 10010KT 6SM BKN100 26/22 A2980 RMK 8/030 HZY=
MMTG 081243Z 00000KT 3SM BCFG SCT005 OVC070 23/23 A2994 RMK 8/62/
     BCFG ARND ST OMTNS=
####018002024####
SAXX99 KWBC 081300 RRN
METAR
CYGW 081300Z 14004KT 15SM FEW025 SCT080 BKN120 OVC220 20/17 A2985
     RMK SC1AC2AS2CI0 CU EMBD VIA CYQB FIC SLP110=
CYKO 081300Z 22010KT 2SM -DZ BR OVC002 07/06 A2966 RMK FG1ST7
     SLP045=
CYMU 081300Z 00000KT 15SM FEW004 OVC035 13/12 A2987 RMK SF2SC6 VIA
     CYQB FIC SLP120=
CYTS 081300Z 30010G15KT 10SM -SHRA FEW007 SCT020 OVC050 18/16
     A2992 RERA RMK SF2SC2SC4 SLP130=
CYYE 081300Z 23005KT 30SM FEW210 14/07 A3002 RMK CI1 SLP171=
DAUI 081300Z 08020KT 8000 DRSA NSC 45/07 Q1012=
DAUL 081300Z 00000KT CAVOK 38/11 Q1021=
HESH 081300Z 36012KT CAVOK 39/11 Q1005 NOSIG=
HETB 081300Z 33010KT CAVOK 34/09 Q1012 NOSIG=
KFME 081312Z AUTO 00000KT 7SM CLR 27/22 A3004 RMK AO1=
MMVA 081254Z 00000KT 7SM SCT100 BKN200 26/23 A2979 RMK 8/036=
SAOC 081300Z 36015KT CAVOK 12/M08 Q1015=
SKEJ 081300Z 21006KT 9999 VCFG BKN015 25/25 A2992=
SKIP 081300Z 00000KT 9999 SCT016 BKN070 11/10 A3041=
SKLC 081300Z 00000KT 9999 SCT010 26/24 A2990=
SKMR 081300Z 15005KT 9999 SCT007 BKN090 26/25 A2988=
SKNV 081300Z 00000KT 9999 SCT007 BKN100 24/22 A2996 REDZ=
SKPS 081300Z 00000KT 5000N 9999S VCFG SCT022 SCT080 17/16 A3020
     REDZ=
SKRH 081300Z 14006KT 9999 TSRA FEW020CB OVC090 23/23 A2990=
SKUC 081300Z 09006KT 1500 BKN007 23/23 A2997 RERA=
SKUI 081300Z 00000KT 4000 BR BKN008 BKN080 25/24 A2988=
SKVP 081300Z 07006KT 4000 -RA FEW004 SCT010 BKN070 23/23 A2997=
SKVV 081300Z 00000KT 9999 FEW023 OVC080 24/21 A2997=
UTTP 081300Z 12001MPS CAVOK 37/12 Q1010 R88/CLRD70 NOSIG=
WALL 081300Z 00000KT 8000 NIL FEW020 26/24 Q1010=
WBGB 081300Z 10004KT 9999 -RA FEW005 FEW015CB SCT016 OVC140 25/25
     Q1011=
WBGR 081300Z 10002KT 9999 -RA SCT014 OVC140 25/23 Q1011=
WBGS 081300Z 17002KT 9999 SCT018 BKN150 25/24 Q1012=
WBKL 081300Z 20004KT 9999 FEW010 SCT140 BKN290 26/25 Q1010=
WBKS 081300Z 15002KT 9999 FEW016 BKN300 27/26 Q1010=
WBKT 081300Z 00000KT 9999 FEW006 BKN280 24/24 Q1010=
WBKW 081300Z 34001KT 9999 FEW017 BKN300 27/25 Q1010=
####018000093####
SPUS43 KWBC 081314
SPECI
KGRR 081311Z 00000KT 4SM HZ SCT006 BKN055 OVC130 25/22 A3003=
####018000093####
SPUS43 KWBC 081314
SPECI
KMDW 081311Z 22003KT 6SM BR FEW007 BKN023 OVC050 24/22 A3003=
####018000096####
SPUS52 KWBC 081314
SPECI
KMWL 081311Z AUTO 14004KT 10SM FEW008 SCT024 BKN031 24/23 A3004=
####018000646####
SABN32 OBBI 081300
METAR OMAA 081300Z 34013KT 9000 NSC 41/23 Q0997 A2946 NOSIG=
METAR OMAD 081300Z NIL=
METAR OMAL 081300Z 22009KT 180V250 9999 FEW045TCU 34/25 Q1001 A2956=
METAR OMDB 081300Z 35011KT 7000 FEW035 40/22 Q0999 NOSIG=
METAR OMDW 081300Z 35014KT 8000 FEW030 FEW35TCU 40/21 Q0999 NOSIG=
METAR OMFJ 081300Z 11007KT 040V140 6000 FEW025 34/27 Q1000 A2955=
METAR OMRK 081300Z 35009KT CAVOK 41/35 Q0998 A2947=
METAR OMSJ 081300Z 35010KT 320V020 7000 FEW030 40/21 Q0999=
METAR OOMS 081300Z 06006KT 030V090 6000 SCT025 OVC100
33/28 Q1000 NOSIG=
METAR OOSA 081300Z 15007KT 8000 FEW008 SC012 BKN020
28/23 Q1002 NOSIG=
####018000090####
SPUS72 KWBC 081314
SPECI
KOKC 081310Z 32004KT 9SM FEW007 SCT080 BKN200 24/22 A3007=
####018000206####
SAUS20 KNKA 081314
METAR KOAJ 081315Z AUTO 05008KT 7SM CLR 28/24 A2996 RMK AO1=
METAR KSOP 081315Z AUTO 04006KT 8SM CLR 29/20 A2999 RMK AO1=
METAR KUDG 081315Z 34006KT 10SM CLR 29/19 A2999 RMK AO1=
####018000079####
SAAM31 FCBB 081200 RRA
METAR FOOG 081300Z /////KT 9999 SCT010 27/22 Q1014=
####018000093####
SPUS73 KWBC 081314
SPECI
KGRR 081311Z 00000KT 4SM HZ SCT006 BKN055 OVC130 25/22 A3003=
####018000093####
SPUS73 KWBC 081314
SPECI
KMDW 081311Z 22003KT 6SM BR FEW007 BKN023 OVC050 24/22 A3003=
####018000079####
SPUS73 KWBC 081314
SPECI
KMCI 081311Z 02005KT 1SM BR OVC002 23/22 A3010=
####018000110####
SAEW32 LEMM 081300 CCA
METAR LEAS 081300Z 05003KT 350V090 9999 FEW015 24/20 Q1016 TEMPO 
TSRA SCT025CB=
####018000089####
SAQB31 LQSM 081300
METAR LQSA 081300Z 30008KT 260V350 9999 SCT600 22/11 Q1023 NOSIG=
####018000724####
SAAM31 FCBB 081300 AMD
METAR FCBB 081300Z 21008KT 270V160 7000 FEW023 27/20 Q1013 NOSIG=
METAR FCPP 081300Z 18008KT 7000 FEW013 OVC033 24/21 Q1012 NOSIG=
METAR FKKD 081300Z VRB04KT 9999 BKN016 FEW020CB BKN120 28/25 Q1013
      TEMPO 4000 TSRA BKN013 SCT016CB BKN100=
METAR FKYS 081300Z 25003KT 210V280 9999 BKN016 26/20 Q1016 NOSIG=
METAR FEFF 081300Z 18002KT 9999 FEW026 FEW040CB BKN300 31/22 Q1013
      NOSIG=
METAR FOOL 081300Z 23006KT 190V260 9000 SCT011 BKN030 27/23 Q1013
      NOSIG=
METAR FGSL 081300Z 29005KT 270V330 7000 -TSRA BKN013 FEW020CB BKN130
      25/25 Q1013 NOSIG=
METAR FZAA 081300Z 27008KT 4000 BR SKC 27/19 Q1012 NOSIG=
METAR FNLU 081300Z 27011KT CAVOK 24/19 Q1011 NOSIG=
####018000093####
SPUS81 KWBC 081314
SPECI
KGRR 081311Z 00000KT 4SM HZ SCT006 BKN055 OVC130 25/22 A3003=
####018000295####
SAUK KAWN 081300 RRD
METAR EGQK 081250Z 22020KT 9999 FEW027 BKN050 18/07 Q1009 BLU NOSIG=
METAR EGUO 081250Z 25010KT 9999 FEW020 SCT050 BKN200 21/07 Q1019 BLU=
METAR EGXW 081250Z 28010KT 9999 FEW048 BKN250 22/08 Q1017 BLU NOSIG=
METAR EGYH 081250Z 22015KT 9999 FEW035 23/// Q1018 BLU=
####018000206####
SASG21 GOOY 081300
METAR GOTT 081300Z 22006KT 170V320 9999 BKN013 TCU 32/26 Q1013=
METAR GOSS 081300Z 26006KT 9999 SCT013 BKN230 33/25 Q1012=
METAR GOGG 081300Z 00000KT 9999 BKN016 TCU 34/26 Q1014=
####018000133####
SAAM20 FCBB 081200 RRA
METAR FOOG 081300Z /////KT 9999 SCT010 27/22 Q1014=
METAR FOON 081300Z 32009KT 8000 SCT025 29/22 Q1014=
####018000175####
SPXX70 KAWN 081300
SPECI KQCJ 081310Z 14011G20KT 7SM SKC 29/08 A3016 RMK AO2A SLP089 $=
SPECI KQCJ 081312Z AUTO 15013G20KT 7SM CLR 29/08 A3016 RMK AO2 SLP089
      $=
####018000940####
SAKO51 RJTD 081300
METAR RKPC 081300Z 00000KT 4000 BR SCT030 OVC120 24/20 Q1009 NOSIG=
METAR RKPC 081300Z 00000KT 4000 BR SCT030 OVC120 24/20 Q1009 NOSIG=
METAR RKPK 081300Z 23004KT 9999 SCT050 BKN200 23/19 Q1010 NOSIG=
METAR RKPK 081300Z 23004KT 9999 SCT050 BKN200 23/19 Q1010 NOSIG=
METAR RKSI 081300Z 25005KT 8000 -DZ FEW030 OVC110 22/19 Q1009 NOSIG=
METAR RKSM 081300Z 21003KT 9000 -RA BR BKN050 OVC100 22/21 A2983=
METAR RKSS 081300Z 35001KT 8000 SCT030 OVC100 23/18 Q1009 NOSIG=
METAR RKSS 081300Z 35001KT 8000 SCT030 OVC100 23/18 Q1009 NOSIG=
METAR RKTN 081300Z 15005KT 6000 SCT020 BKN040 OVC200 24/21 Q1009
           NOSIG=
METAR RKTN 081300Z 15005KT 6000 SCT020 BKN040 OVC200 24/21 Q1009
           NOSIG=
METAR RKTU 081300Z 12003KT 9000 -RA SCT030 BKN080 OVC200 24/20 Q1010
           TEMPO 4500 BR=
METAR RKTU 081300Z 12003KT 9000 -RA SCT030 BKN080 OVC200 24/20 Q1010
           TEMPO 4500 BR=
