####018000101####
SAUS90 KWBC 081200
METAR KSYN 081150Z AUTO 00000KT 7SM CLR 17/16 A3010 RMK AO2
     T01710159=
####018001749####
SAUS90 KWBC 081140 RRA
METAR KVVV 081136Z AUTO 28004KT 10SM CLR 17/14 A3011 RMK AO2=
METAR KROS 081135Z AUTO 00000KT 10SM CLR 16/15 A3008 RMK AO2
     T01560149=
METAR KHCD 081132Z AUTO 00000KT 5SM BR CLR 14/13 A3012 RMK AO2
     T01380130=
METAR KSGS 081133Z AUTO 29003KT 10SM CLR 19/16 A3010 RMK AO2
     T01860164=
METAR KMJQ 081132Z AUTO 25003KT 7SM CLR 15/14 A3016 RMK AO2=
METAR KHCO 081134Z AUTO 25003KT 10SM SCT080 14/14 A3006 RMK
     AO2=
METAR KLVN 081128Z AUTO 27005KT 10SM CLR 17/16 A3010 RMK AO2=
METAR KPEX 081133Z AUTO 25004KT 5SM BR CLR 14/14 A3012 RMK AO2
     T01360135=
METAR KJMR 081138Z AUTO 00000KT 10SM CLR 14/12 A3010 RMK AO2=
METAR KJKJ 081134Z AUTO 22003KT 10SM CLR 16/14 A3008 RMK AO2=
METAR KMVE 081134Z AUTO 29003KT 10SM CLR 16/14 A3011 RMK AO2=
METAR KTKC 081133Z AUTO 25006KT 10SM CLR 16/13 A3015 RMK AO2
     T01580130=
METAR KGYL 081135Z AUTO 00000KT 10SM CLR 16/15 A3011 RMK AO2
     T01550145=
METAR KDXX 081134Z AUTO 00000KT 10SM CLR 15/14 A3011 RMK AO2=
METAR KHZX 081131Z AUTO 00000KT 10SM CLR 14/13 A3007 RMK AO2=
METAR KSAZ 081134Z AUTO 25005KT 10SM CLR 16/16 A3009 RMK AO2=
METAR KONA 081130Z AUTO 31005KT 10SM CLR 20/17 A3005 RMK AO2=
METAR KOVL 081134Z AUTO 30003KT 7SM CLR 14/12 A3012 RMK AO2
     T01380124=
METAR KLJF 081133Z AUTO 27004KT 10SM CLR 18/16 A3012 RMK AO2=
METAR KAEL 081131Z AUTO 33003KT 10SM CLR 17/16 A3011 RMK AO2=
METAR K29G 081134Z AUTO 00000KT 5SM CLR 22/20 A3010 RMK AO2
     T02200198 PWINO=
METAR KMRT 081133Z AUTO 00000KT 4SM CLR 22/20 A3012 RMK AO2
     T02180196=
METAR KIKW 081134Z AUTO 00000KT 7SM OVC090 23/21 A3001 RMK AO2
     T02310212=
METAR KMDS 081125Z AUTO 26003KT 10SM CLR 14/14 A3018 RMK AO2=
####018003702####
SAUS90 KWBC 081140
METAR KBAX 081135Z AUTO 00000KT 5SM BR CLR 24/23 A3000 RMK AO2=
METAR KACB 081135Z AUTO 20003KT 5SM -RA SCT021 OVC070 23/21 A3000
     RMK AO2=
METAR K4I3 081136Z AUTO 00000KT 5SM BR SCT060 20/19 A3010 RMK
     AO2=
METAR KAUM 081135Z AUTO 32006KT 7SM CLR 17/17 A3010 RMK AO2=
METAR KADC 081137Z AUTO 24004KT 10SM CLR 14/13 A3009 RMK AO2=
METAR KACQ 081139Z AUTO 30003KT 10SM CLR 16/15 A3013 RMK AO2=
METAR KFKA 081143Z AUTO 32008KT 10SM CLR 18/17 A3009 RMK AO2
     T01820174=
METAR KFPK 081136Z AUTO 00000KT 5SM BR CLR 22/21 A3003 RMK AO2=
METAR KMOP 081134Z AUTO 25004KT 10SM OVC085 23/23 A3002 RMK
     AO2=
METAR KCAD 081135Z AUTO 22007KT 5SM RA SCT048 BKN070 OVC090 22/21
     A3003 RMK AO2=
METAR KMGN 081135Z AUTO 26003KT 7SM -DZ SCT012 SCT055 OVC100 22/20
     A2999 RMK AO2=
METAR KHAI 081135Z AUTO 00000KT 5SM BR CLR 22/21 A3005 RMK AO2=
METAR KLWA 081136Z AUTO 00000KT 10SM BKN044 BKN050 BKN095 23/21
     A3003 RMK AO2=
METAR KDRM 081136Z AUTO 00000KT 1 3/4SM -RA BKN002 OVC100 20/20
     A2996 RMK AO2=
METAR KVLL 081134Z AUTO 25003KT 10SM CLR 26/21 A3006 RMK AO2=
METAR KCFS 081135Z AUTO 23004KT 7SM CLR 23/22 A3003 RMK AO2=
METAR KOZW 081135Z AUTO 00000KT 7SM CLR 24/21 A3005 RMK AO2=
METAR KRNP 081135Z AUTO 00000KT 10SM CLR 25/21 A3002 RMK AO2=
METAR KDUH 081135Z AUTO 00000KT 10SM CLR 24/18 A3005 RMK AO2=
METAR KJYM 081135Z AUTO 00000KT 5SM BR CLR 22/21 A3007 RMK AO2=
METAR KIRS 081135Z AUTO 00000KT 4SM BR CLR 22/21 A3005 RMK AO2=
METAR KRQB 081135Z AUTO 00000KT 7SM -RA BKN075 OVC090 22/21 A3003
     RMK AO2=
METAR KOEB 081135Z AUTO 00000KT 4SM BR CLR 23/21 A3006 RMK AO2=
METAR KFFX 081135Z AUTO 18003KT 2SM BR BKN004 BKN039 OVC080 22/22
     A3003 RMK AO2=
METAR KCNB 081138Z AUTO 24005KT 10SM CLR 17/13 A3014 RMK AO2
     T01710133=
METAR KCKN 081135Z AUTO 21004KT 10SM CLR 14/12 A3006 RMK AO2=
METAR KCFE 081135Z AUTO 27003KT 10SM CLR 18/16 A3011 RMK AO2
     T01760161=
METAR KCQM 081137Z AUTO 24003KT 10SM CLR 16/14 A3004 RMK AO2=
METAR KDTL 081135Z AUTO 23003KT 10SM CLR 16/11 A3010 RMK AO2=
METAR KBDH 081135Z AUTO 00000KT 7SM CLR 15/14 A3013 RMK AO2=
METAR KCBG 081135Z AUTO 00000KT 10SM CLR 16/14 A3009 RMK AO2=
METAR KHAF 081130Z AUTO 00000KT 9SM OVC006 12/11 A2993 RMK AO2=
METAR KCKC 081135Z AUTO 28005KT 10SM CLR 17/13 A3004 RMK AO2=
METAR KJYG 081135Z AUTO 00000KT 10SM CLR 17/17 A3015 RMK AO2=
METAR KCOQ 081136Z AUTO 27005KT 10SM CLR 16/16 A3006 RMK AO2=
METAR KRGK 081135Z AUTO 29003KT 10SM CLR 19/17 A3008 RMK AO2=
METAR KFSE 081134Z AUTO 19005KT 10SM CLR 12/11 A3006 RMK AO2=
METAR KY70 081135Z AUTO 00000KT 2 1/2SM BR SCT070 23/22 A3003 RMK
     AO2 T02300220=
METAR KUKT 081135Z AUTO 00000KT 5SM CLR 24/22 A3006 RMK AO1=
METAR KTEW 081132Z AUTO 00000KT 7SM CLR 22/21 A3005 RMK AO2=
METAR KCVH 081130Z AUTO 00000KT 8SM OVC006 13/11 A2992 RMK AO1=
METAR KFSO 081138Z AUTO 00000KT 5SM BR SCT060 SCT075 SCT090 26/23
     A3001 RMK AO2=
METAR KFBL 081134Z AUTO 30003KT 10SM CLR 17/15 A3011 RMK AO2=
METAR KLYV 081138Z AUTO 00000KT 10SM CLR 13/12 A3017 RMK AO2=
METAR KEFK 081136Z AUTO 20004KT 5SM BR CLR 23/21 A3006 RMK AO2=
METAR KRRT 081134Z AUTO 22006KT 10SM CLR 14/12 A3001 RMK AO2=
METAR KTOB 081134Z AUTO 00000KT 10SM CLR 17/16 A3011 RMK AO2=
METAR KLXL 081134Z AUTO 00000KT 3SM BR 13/12 A3009 RMK AO2 SKY
     OBSCURED=
METAR KEVM 081132Z AUTO 00000KT 2 1/2SM BR CLR 13/12 A3002 RMK AO1
     VIS 1 3/4V4=
METAR KELO 081133Z AUTO 22003KT 10SM CLR 14/14 A3002 RMK AO2=
METAR KANE 081135Z AUTO 26003KT 10SM 17/16 A3010 RMK AO2=
METAR KROX 081134Z AUTO 22005KT 10SM SCT095 14/13 A3001 RMK
     AO2=
####018000380####
SPUS90 KWBC 081140
SPECI KCRP 081136Z 03013KT 2SM +TSRA BR SCT016CB BKN021 OVC048
     26/25 A2984 RMK AO2 SFC VIS 4 TSB32RAB27 OCNL LTGIC SE-S TS
     SE-S MOV W P0002 $=
SPECI KLXV 081138Z AUTO 00000KT 3/4SM BR BKN002 05/05 A3052 RMK
     AO2 TSNO=
SPECI KGDP 081138Z AUTO 05026KT 1 1/4SM BR FEW001 BKN005 OVC060
     16/16 A3021 RMK AO2 PK WND 04030/1128 TSNO=
####018001289####
SAUS99 KWBC 081140
METAR
KBBF 081235Z AUTO 13021KT 9SM SCT024 SCT045 BKN075 29/26 A2981 RMK
     A01=
KBQX 081135Z AUTO 12015G23KT 8SM 28/26 A2985 RMK A01=
KDLP 081135Z AUTO 10012KT 9SM CLR 28/25 A3000 RMK A01=
KEDU 081135Z AUTO 00000KT 10SM CLR 13/10 A2982 RMK AO1=
KEHC 081135Z AUTO 12024KT 6SM HZ CLR 29/25 A2992 RMK A01=
KEMK 081135Z AUTO 14025KT 4SM HZ SCT038 BKN055 BKN065 28/25 A2989
     RMK A01=
KGBK 081135Z AUTO 10014G24KT 10SM SCT019 SCT025 SCT033 29/25 A2991
     RMK A01=
KGVX 081135Z AUTO 12028G36KT 10SM SCT020 BKN029 BKN047 M40/ A2991
     RMK A01=
KHQI 081135Z AUTO 10024KT 7SM CLR 29/26 A2991 RMK A01=
KIPN 081135Z AUTO 09013KT 10SM SCT022 SCT029 /54 A3000 RMK A01=
KMDJ 081135Z AUTO 12012KT 10SM FEW020 FEW026 28/24 A3001 RMK
     A01=
KMHR 081135Z AUTO 17006KT 10SM CLR 12/10 A2985 RMK AO1=
KMIU 081135Z AUTO 09016KT 5SM BR FEW021 SCT041 BKN049 27/26 A2980
     RMK A01=
KMYT 081135Z AUTO 11012KT 10SM SCT019 28/24 A2997 RMK A01=
KMZG 081135Z AUTO 00000KT 10SM FEW020 SCT039 BKN045 29/25 A2982
     RMK A01=
KSCF 081140Z AUTO 14018KT 7SM 29/25 A2991 RMK A01=
KVBS 081135Z AUTO 12024KT 10SM SCT021 BKN026 29/25 A2993 RMK
     A01=
KVNP 081135Z AUTO 12012G18KT 7SM SCT018 BKN023 BKN028 28/25 A2997
     RMK A01=
####018000588####
SPUS99 KWBC 081140
SPECI
KDWH 081138Z 06008KT 6SM BR BKN005 24/24 A2995 RMK AO2 CIG
     004V009=
KGLH 081138Z AUTO 00000KT 2SM BR CLR 22/22 A3006 RMK AO2=
KHUL 081138Z AUTO 22008KT 5SM HZ SCT009 22/19 A3004 RMK AO2=
KMKG 081138Z 14004KT 2SM -RA BR BKN041 BKN065 OVC080 23/22 A3002
     RMK AO2 RAB02 P0004=
KPSX 081138Z AUTO 09021G27KT 2 1/2SM +RA BR FEW002 SCT014 BKN085
     27/24 A2988 RMK AO2 PK WND 10027/1136 RAB35 P0010=
KSBM 081138Z AUTO 00000KT 8SM BKN012 22/21 A3001 RMK AO2 $=
KUIN 081138Z AUTO 29003KT 1SM BR BKN001 OVC008 23/22 A3005 RMK
     AO2=
####018000172####
SAXX60 KWBC 081140
METAR
KGBK 081135Z AUTO 10014G24KT 10SM SCT019 SCT025 SCT033 29/25 A2991
     RMK A01=
KMHR 081135Z AUTO 17006KT 10SM CLR 12/10 A2985 RMK AO1=
####018002668####
SAUS70 KWBC 081140
METAR
K14Y 081139Z AUTO 22005KT 10SM CLR 16/15 A3011 RMK AO2
     T01570150=
K4M9 081135Z AUTO 19004KT 5SM BR CLR 25/25 A3006 RMK AO2=
KAEJ 081135Z AUTO 00000KT 5SM BR CLR 07/07 A3045 RMK AO2=
KBVU 081135Z AUTO 00000KT 10SM CLR 23/02 A2986 RMK AO2=
KEFT 081135Z AUTO 27007KT 10SM CLR 21/19 A3005 RMK AO2
     T02110186=
KEGV 081132Z AUTO 33003KT 10SM CLR 18/18 A3004 RMK AO2
     T01770177=
KETB 081132Z AUTO 27003KT 5SM BR SCT005 BKN013 OVC018 22/21 A3002
     RMK AO2 T02190208=
KEZS 081135Z AUTO 28003KT 5SM BR BKN005 23/22 A3000 RMK AO2
     T02250216=
KGLW 081133Z AUTO 00000KT 5SM BR CLR 22/20 A3008 RMK AO2
     T02160203=
KHFJ 081135Z AUTO 00000KT 7SM OVC016 22/22 A3005 RMK AO1=
KHYW 081135Z AUTO 00000KT 7SM CLR 25/23 A2994 RMK AO2=
KLNL 081135Z AUTO 33005KT 10SM CLR 17/15 A3006 RMK AO2
     T01700146=
KLUM 081135Z AUTO 29005KT 10SM CLR 18/17 A3008 RMK AO2=
KMCJ 081135Z AUTO 16017G25KT 1 3/4SM BKN004 OVC021 25/24 A2991 RMK
     AO1 P0011=
KMDZ 081135Z AUTO 32005KT 4SM BR OVC002 19/18 A3005 RMK AO2=
KMRJ 081135Z AUTO 00000KT 1/4SM FG OVC003 22/20 A3006 RMK AO2
     T02150200=
KOEO 081135Z AUTO 00000KT 10SM CLR 17/16 A3011 RMK AO2=
KPBH 081135Z AUTO 30003KT 10SM SCT044 19/17 A3007 RMK AO2=
KPCZ 081135Z AUTO 26004KT 3SM BR CLR 22/21 A3001 RMK AO2
     T02220209=
KPDC 081133Z AUTO 00000KT 7SM CLR 22/21 A3004 RMK AO2
     T02170205=
KRCM 081135Z AUTO 00000KT 7SM OVC004 22/22 A3006 RMK AO2=
KRCX 081135Z AUTO 33008KT 10SM SCT047 18/17 A3007 RMK AO2
     T01840167=
KRNH 081136Z AUTO 00000KT 10SM CLR 17/16 A3010 RMK AO2
     T01670162=
KY63 081140Z AUTO 22003KT 10SM CLR 15/14 A3011 RMK AO2
     T01450139=
KBBF 081235Z AUTO 13021KT 9SM SCT024 SCT045 BKN075 29/26 A2981 RMK
     A01=
KBQX 081135Z AUTO 12015G23KT 8SM 28/26 A2985 RMK A01=
KDLP 081135Z AUTO 10012KT 9SM CLR 28/25 A3000 RMK A01=
KEHC 081135Z AUTO 12024KT 6SM HZ CLR 29/25 A2992 RMK A01=
KEMK 081135Z AUTO 14025KT 4SM HZ SCT038 BKN055 BKN065 28/25 A2989
     RMK A01=
KGVX 081135Z AUTO 12028G36KT 10SM SCT020 BKN029 BKN047 M40/ A2991
     RMK A01=
KHQI 081135Z AUTO 10024KT 7SM CLR 29/26 A2991 RMK A01=
KIPN 081135Z AUTO 09013KT 10SM SCT022 SCT029 /54 A3000 RMK A01=
KMDJ 081135Z AUTO 12012KT 10SM FEW020 FEW026 28/24 A3001 RMK
     A01=
KMIU 081135Z AUTO 09016KT 5SM BR FEW021 SCT041 BKN049 27/26 A2980
     RMK A01=
KMZG 081135Z AUTO 00000KT 10SM FEW020 SCT039 BKN045 29/25 A2982
     RMK A01=
KVBS 081135Z AUTO 12024KT 10SM SCT021 BKN026 29/25 A2993 RMK
     A01=
KVNP 081135Z AUTO 12012G18KT 7SM SCT018 BKN023 BKN028 28/25 A2997
     RMK A01=
####018000881####
SPUS70 KWBC 081140
SPECI
KHOU 081137Z 18005KT 4SM RA BR FEW012 SCT023 OVC042 24/23 A2992
     RMK AO2 RAB23 P0021=
KIXD 081137Z 35004KT 3SM BR CLR 22/21 A3007 RMK AO2=
KLNR 081137Z AUTO 00000KT 2 1/2SM BR OVC002 21/20 A3004 RMK AO2
     CIG 001V004=
KMLI 081137Z 00000KT 9SM OVC011 23/22 A3004 RMK AO2 $=
KSET 081137Z AUTO 00000KT 5SM BR SCT006 BKN010 OVC038 24/24 A3003
     RMK AO2 CIG 008V011=
KDWH 081138Z 06008KT 6SM BR BKN005 24/24 A2995 RMK AO2 CIG
     004V009=
KGLH 081138Z AUTO 00000KT 2SM BR CLR 22/22 A3006 RMK AO2=
KHUL 081138Z AUTO 22008KT 5SM HZ SCT009 22/19 A3004 RMK AO2=
KPSX 081138Z AUTO 09021G27KT 2 1/2SM +RA BR FEW002 SCT014 BKN085
     27/24 A2988 RMK AO2 PK WND 10027/1136 RAB35 P0010=
KSBM 081138Z AUTO 00000KT 8SM BKN012 22/21 A3001 RMK AO2 $=
KUIN 081138Z AUTO 29003KT 1SM BR BKN001 OVC008 23/22 A3005 RMK
     AO2=
####018000204####
SAUS80 KWBC 081140
METAR
KSNC 081135Z AUTO 15004KT 5SM HZ OVC003 22/ A3009 RMK AO2=
KMYT 081135Z AUTO 11012KT 10SM SCT019 28/24 A2997 RMK A01=
KSCF 081140Z AUTO 14018KT 7SM 29/25 A2991 RMK A01=
####018000525####
SPUS80 KWBC 081140
SPECI
KCRP 081136Z 03013KT 2SM +TSRA BR SCT016CB BKN021 OVC048 26/25
     A2984 RMK AO2 SFC VIS 4 TSB32RAB27 OCNL LTGIC SE-S TS SE-S
     MOV W P0002 $=
KSTC 081137Z AUTO 00000KT 5SM BR CLR 15/13 A3010 RMK AO2=
KLXV 081138Z AUTO 00000KT 3/4SM BR BKN002 05/05 A3052 RMK AO2
     TSNO=
KGDP 081138Z AUTO 05026KT 1 1/4SM BR FEW001 BKN005 OVC060 16/16
     A3021 RMK AO2 PK WND 04030/1128 TSNO=
KMKG 081138Z 14004KT 2SM -RA BR BKN041 BKN065 OVC080 23/22 A3002
     RMK AO2 RAB02 P0004=
####018000091####
SAFR36 LFPW 081130 RRA
METAR LFJR 081130Z AUTO 19006KT 130V240 9999NDV NCD 32/12 Q1018=
####018000517####
SAAO32 GOOY 081130
METAR GABS 081130Z 22007KT 9999 FEW030 31/22 Q1016 NOSIG=
METAR GGOV 081130Z NIL=
METAR GOOY 081130Z 17007KT 130V220 9999 SCT013 30/25 Q1012 NOSIG=
METAR DIAP 081130Z 20005KT 150V250 7000 SCT012 BKN070 28/25 Q1015
TEMPO BKN012 BKN070=
METAR GQNN 081130Z 18011KT 150V210 6000 SKC 31/22 Q1013 NOSIG=
METAR GQPP 081130Z NIL=
METAR GUCY 081130Z NIL=
METAR GVAC 081130Z NIL=
METAR GFLL 081130Z NIL=
METAR GBYD 081130Z NIL=
METAR GLRB 081130Z 20007KT 9999 BKN018 FEW026CB 30/25 Q1015 CB-S=
####018000658####
SPXX60 KWBC 081140
SPECI
KGRK 081135Z 06005KT 7SM -SHRA SCT009 BKN015 OVC027 26/24
     A2999=
KLTS 081134Z AUTO 02009KT 4SM R35L/4000VP6000FT +RA BR BKN013
     22/22 A3008 RMK AO2 RAB1110 SLP171 $=
KNQI 081134Z AUTO 02005KT 10SM TS CLR 27/24 A2983 RMK AO2
     TSB28RAE19 P0006 $=
KWRI 081136Z AUTO 15003KT 2SM BR FEW006 24/24 A3002 RMK AO2 SLP166
     $=
PASV SP 1135 AWOS 90 SCT 10 48/45/0000/996=
KNQI 081134Z COR 02005KT 10SM TS SCT014CB BKN140 BKN280 27/24
     A2983 RMK AO2 OCNL LTGICCG NE-SE TSB28RAE19 TS NE-SE MOV W
     P0006 $=
KHLR 081137Z AUTO 05003KT 10SM BKN013 BKN022 OVC047 25/ A3000 RMK
     AO2 T0250 $=
####018000088####
SABY31 UMMN 081130 RRA
METAR UMBB 081130Z 29005G08MPS 8000 SCT030 23/12 Q1019 NOSIG=
####018000095####
SAAL31 KWBC 081100 RRC
METAR
DABS 081130Z 32012KT CAVOK 34/10 Q1023=
DAUZ 081130Z NIL=
####018000091####
SAAF18 LFPW 081100 RRB
METAR FWCL 081100Z 15012KT 9999 SCT030 BKN090 22/11 Q1026 NOSIG=
####018000637####
SAAS33 KWBC 081130 RRA
METAR
VDPP 081130Z 23007KT 9000 SCT015 FEW017CB SCT040 30/22 Q1007 CB:NE
     NW=
VDSR 081130Z 09005KT 9999 SCT015 FEW020CB BKN040 31/22 Q1006
     CB:SE,NE=
VDSR 081130Z NIL=
VLVT 081130Z NIL=
VTBD 081130Z 15006KT 9999 FEW020 SCT120 BKN300 30/23 Q1006
     NOSIG=
VTBU 081130Z NIL=
VTCC 081130Z 01013KT 9999 FEW025CB SCT035 BKN300 32/20 Q1008 A2976
     CB N-NE,E=
VTSP 081130Z NIL=
VTSS 081130Z 00000KT 9999 FEW016CB BKN300 26/22 Q1009 A2979 CB
     SE,NW=
VTSS 081130Z NIL=
VVDN 081130Z NIL=
VVNB 081130Z 11016KT 9999 FEW026CB BKN100 34/27 Q1001 NOSIG=
VVTS 081130Z NIL=
####018000175####
SAAO33 KWBC 081100 RRE
METAR
GBYD 081130Z NIL=
GFLL 081130Z NIL=
GGOV 081130Z NIL=
GLRB 081130Z 20007KT 9999 BKN018 FEW026CB 30/25 Q1015 CB-S=
GUCY 081130Z NIL=
####018000053####
SAAS31 KWBC 081130 RRA
METAR
VTBS 081130Z NIL=
####018000107####
SAAO32 KWBC 081100 RRD
METAR
GABS 081130Z 22007KT 9999 FEW030 31/22 Q1016 NOSIG=
GQPP 081130Z NIL=
####018000096####
SAAW34 KWBC 081115 RRD
METAR
UTSS 081130Z 07006MPS 9999 NSC 35/12 Q1010 R88/CLRD70 NOSIG=
####018000085####
SABX31 KWBC 081020 RRD
METAR
EBDT 081025Z 25006KT 9999 FEW160 29/09 Q1019 BLU=
####018000243####
SAEE31 KWBC 081130 RRB
METAR
EPSC 081130Z 18002KT CAVOK 24/12 Q1021=
UMMM 081130Z 26006G09MPS 9999 OVC018 20/15 Q1015 R30/CLRD// NOSIG
     RMK QFE742=
UMMS 081130Z 28002MPS 230V330 9999 BKN023 20/17 Q1015 R31/CLRD//
     NOSIG=
####018000073####
SAIO31 KWBC 081100 RRD
METAR
VYMD 081130Z NIL=
VYYY 081130Z NIL=
####018000298####
SAJP31 KWBC 081130 RRB
METAR
RJAA 081130Z 15006KT 9999 FEW020 BKN/// 23/22 Q1011 NOSIG RMK
     1CU020 A2986=
RJCC 081130Z 20005KT 160V260 2300 -DZ BR BKN002 17/16 Q1011 RMK
     7ST002 A2986=
RJTT 081130Z 19011KT 9999 FEW007 SCT012 BKN/// 25/22 Q1010 RMK
     1ST007 4CU012 A2983=
####018000053####
SANT31 KWBC 081100 RRC
METAR
GVAC 081130Z NIL=
####018000354####
SARS32 KWBC 081100 RRC
METAR
URKA 081130Z 06006MPS 9999 SCT026 29/20 Q1012 NOSIG RMK 065=
URMM 081130Z 10005G07MPS 070V130 9999 BKN043 30/19 Q1012 NOSIG RMK
     / SC070=
URMN 081130Z 10002MPS 9999 BKN036CB BKN110 29/20 Q1013 NOSIG RMK /
     QFE723 SC07=
URSS 081130Z 29005MPS 9999 FEW040 28/21 Q1009 NOSIG RMK / QFE756
     06CLRD70=
####018000635####
SARA31 KWBC 081100 RRJ
METAR
UMGG 081130Z 15003MPS 9999 BKN038CB BKN100 28/16 Q1014 R28/290550
     NOSIG=
UMMM 081130Z 26006G09MPS 9999 OVC018 20/15 Q1015 R30/CLRD// NOSIG
     RMK QFE742=
UMMS 081130Z 28002MPS 230V330 9999 BKN023 20/17 Q1015 R31/CLRD//
     NOSIG=
UTNN 081130Z 24003MPS 200V260 CAVOK 43/05 Q1006 R33/CLRD70
     NOSIG=
UTSA 081130Z 03007MPS 9999 NSC 40/04 Q1008 R88/CLRD70 NOSIG=
UTSB 081130Z 01006MPS CAVOK 41/02 Q1007 R01/CLRD70 TEMPO
     01008MPS=
UTSS 081130Z 07006MPS 9999 NSC 35/12 Q1010 R88/CLRD70 NOSIG=
UTST 081130Z 19002MPS 110V250 CAVOK 41/03 Q1005 R88/CLRD70
     NOSIG=
####018000120####
SARS41 KWBC 081100 RRC
METAR
UWKE 081130Z 06004MPS 9999 FEW040 31/09 Q1016 NOSIG RMK
     QFE745/0993 22090070=
####018000535####
SAXX99 KWBC 081100 RRX
METAR
EGUB 081050Z AUTO 23006KT 9999NDV // BKN026/// SCT110/// 20/16
     Q1018=
EGVO 081050Z AUTO 25002KT 9999NDV SCT009/// BKN017/// 18/16
     Q1019=
EGVP 081050Z AUTO 22006KT 9999NDV // SCT014/// BKN018/// BKN030///
     20/15 Q1018=
EGXG 081050Z AUTO 23009KT 9999NDV FEW040/// SCT048/// 20/08
     Q1016=
EPLL 081130Z 34008KT 300V010 CAVOK 23/06 Q1022=
LQBK 081130Z 29006KT 9999 FEW040 23/11 Q1022 NOSIG=
URML 081130Z 06006MPS 9999 FEW100 32/20 Q1012 NOSIG RMK QFE759 /
     07=
####018000081####
SAXX99 KWBC 081000 CCH
METAR
HETB 081000Z 00000KT CAVOK 32/10 Q1013 NOSIG=
####018000096####
SPUS42 KWBC 081140
SPECI
KHOU 081137Z 18005KT 4SM RA BR FEW012 SCT023 OVC042 24/23 A2992=
####018000110####
SAUS43 KLOT 081140
MTRRFD
SPECI KRFD 081138Z 25003KT 6SM BR SCT006 BKN022 OVC047 22/21 A3005 
RMK AO2
####018000076####
SPUS43 KWBC 081140
SPECI
KMLI 081137Z 00000KT 9SM OVC011 23/22 A3004=
####018000104####
SPUS52 KWBC 081140
SPECI
KGDP 081138Z AUTO 05026KT 1 1/4SM BR FEW001 BKN005 OVC060 16/16
A3021=
####018000086####
SPUS53 KWBC 081140
SPECI
KLXV 081138Z AUTO 00000KT 3/4SM BR BKN002 05/05 A3052=
####018000081####
SPUS53 KWBC 081140
SPECI
KSTC 081137Z AUTO 00000KT 5SM BR CLR 15/13 A3010=
####018000089####
SABY31 UMMN 081130 RRA
METAR UMBB 081130Z 29005G08MPS 8000 SCT030 23/12 Q1019 NOSIG=
####018000096####
SPUS72 KWBC 081140
SPECI
KHOU 081137Z 18005KT 4SM RA BR FEW012 SCT023 OVC042 24/23 A2992=
####018000076####
SPUS73 KWBC 081140
SPECI
KMLI 081137Z 00000KT 9SM OVC011 23/22 A3004=
####018000081####
SPUS73 KWBC 081140
SPECI
KSTC 081137Z AUTO 00000KT 5SM BR CLR 15/13 A3010=
####018000092####
SAFR36 LFPW 081130 RRA
METAR LFJR 081130Z AUTO 19006KT 130V240 9999NDV NCD 32/12 Q1018=
####018000104####
SPUS81 KWBC 081140
SPECI
KGDP 081138Z AUTO 05026KT 1 1/4SM BR FEW001 BKN005 OVC060 16/16
A3021=
####018000094####
SPUS81 KWBC 081140
SPECI
KHLR 081137Z AUTO 05003KT 10SM BKN013 BKN022 OVC047 25/ A3000=
####018000086####
SPUS81 KWBC 081140
SPECI
KLXV 081138Z AUTO 00000KT 3/4SM BR BKN002 05/05 A3052=
####018000081####
SPUS81 KWBC 081140
SPECI
KSTC 081137Z AUTO 00000KT 5SM BR CLR 15/13 A3010=
####018001423####
SAEW KAWN 081100 RRN
METAR LFBD 081130Z 10010KT 060V130 CAVOK 33/12 Q1016 NOSIG=
METAR LFBO 081130Z 11011KT CAVOK 34/13 Q1018 NOSIG=
METAR LFGJ 081130Z AUTO VRB04KT 9999NDV NSC 29/11 Q1020=
METAR LFKB 081130Z 10006KT 070V140 9999 FEW021 29/20 Q1020 NOSIG=
METAR LFKJ 081130Z 22009KT 9999 FEW030 29/23 Q1019 NOSIG=
METAR LFLN 081130Z AUTO VRB03KT 9999NDV NSC 31/13 Q1020=
METAR LFMD 081130Z AUTO 16007KT 130V190 9999NDV NSC 29/22 Q1020=
METAR LFMK 081130Z AUTO 09015KT 060V130 9999NDV NSC 33/14 Q1019=
METAR LFML 081130Z 27008KT CAVOK 32/18 Q1020 NOSIG=
METAR LFOT 081130Z AUTO VRB05KT 9999NDV NSC 31/11 Q1018=
METAR LFPG 081130Z 10004KT 040V180 CAVOK 30/09 Q1019 NOSIG=
METAR LFPM 081130Z VRB02KT CAVOK 31/10 Q1019=
METAR LFPO 081130Z 22003KT 180V260 CAVOK 30/11 Q1019 NOSIG=
METAR LFRC 081130Z AUTO 36005KT 330V050 9999NDV FEW016 21/16 Q1019=
METAR LFRD 081130Z AUTO 01005KT 320V090 9999NDV NSC 21/15 Q1019=
METAR LFRJ 081130Z AUTO 02003KT 320V100 9999NDV BKN023/// BKN029///
      BKN190/// 23/16 Q1019=
METAR LFRN 081130Z AUTO VRB04KT 9999NDV NSC 28/14 Q1018=
METAR LFRO 081130Z AUTO 03006KT 340V090 9999NDV NSC 21/16 Q1019=
METAR LFRZ 081130Z AUTO 19003KT 140V290 9999NDV NSC 31/09 Q1017=
METAR LFSL 081130Z AUTO 13006KT 090V180 9999NDV NSC 30/14 Q1020=
METAR LFST 081130Z VRB04KT CAVOK 29/10 Q1020 NOSIG=
METAR LFTW 081130Z AUTO 17005KT 060V230 9999NDV NSC 32/15 Q1020=
####018001393####
SAEU KAWN 081100 RRX
METAR EGUB 081050Z AUTO 23006KT 9999NDV // BKN026/// SCT110/// 20/16
      Q1018=
METAR EGXG 081050Z AUTO 23009KT 9999NDV FEW040/// SCT048/// 20/08 Q1016=
METAR LELO 081130Z 07010KT 040V100 CAVOK 31/18 Q1017=
METAR LKKV 081130Z VRB05KT CAVOK 23/10 Q1023 RMK REG QNH 1021=
METAR LKMT 081130Z VRB05KT CAVOK 21/10 Q1023 NOSIG RMK REG QNH 1021=
METAR LKPR 081130Z 33005KT 290V040 CAVOK 24/09 Q1023 NOSIG RMK REG
      QNH 1021=
METAR LKTB 081130Z 32005KT 260V020 CAVOK 24/08 Q1022 NOSIG RMK REG
      QNH 1021=
METAR LPAZ 081130Z 24004KT 9999 BKN016 BKN030 21/19 Q1025=
METAR LPFL 081130Z 20008KT 150V250 9999 SCT023 24/17 Q1022=
METAR LPHR 081130Z 23005KT 200V260 9999 SCT013 BKN035 23/19 Q1023=
METAR LPPD 081130Z 27004KT 230V300 9999 FEW017 BKN030 20/16 Q1024=
METAR LQBK 081130Z 29006KT 9999 FEW040 23/11 Q1022 NOSIG=
METAR LRAR 081130Z 02006KT 320V080 9999 SCT036 23/14 Q1020=
METAR LRBC 081130Z 01012KT 330V040 9999 BKN024 23/17 Q1017=
METAR LRCL 081130Z 36004KT 330V040 9999 FEW019 OVC030 17/13 Q1021 0821//95=
METAR LRCV 081130Z VRB02KT 9999 SCT039 23/14 Q1017=
METAR LRIA 081130Z 30014KT 9999 FEW022 22/17 Q1017=
METAR COR LRSV 081130Z 31013KT 9999 BKN012 OVC028 16/14 Q1019=
METAR LRTC 081130Z 34012KT 9999 FEW030CB BKN040 23/17 Q1015=
METAR LRTM 081130Z 22006KT 190V260 9999 FEW016 SCT026 BKN031 18/14
      Q1020=
####018000085####
SAMC31 GMMC 081000 RRA
METAR GMAD 081000Z 24003KT 8000 SCT020 26/18 Q1014 NOSIG=
####018001256####
SAUS20 KNKA 081140
METAR KBWD 081135Z AUTO 07003KT 10SM BKN020 OVC026 24/23 A3003 RMK 
     AO2 =
METAR KDCM 081135Z AUTO 00000KT 7SM CLR 22/22 A3003 RMK AO2 LTG 
     DSNT SE=
SPECI KDEQ 081137Z AUTO 04003KT 9SM BKN005 OVC060 24/23 A3004 RMK 
    AO2=
METAR KHXD 081135Z AUTO 25007KT 010V020 10SM CLR 25/21 A3000 RMK 
     AO2 P0000 =
METAR KJZI 081135Z AUTO 27009KT 10SM CLR 26/24 A2997 RMK A02 P000 
     =
SPECI KLVJ 081139Z AUTO 14006KT 3SM RA BR BKN020 BKN044 OVC060 25/23 
    A2993 RMK AO2 PK WND 13026/1101 TSB20E35RAB02 P0041=
METAR KRPD 081134Z AUTO 00000KT 10SM CLR 18/17 A3009 RMK AO2 
     T01800168=
METAR KRRL 081135Z AUTO 00000KT 3/4SM BR OVC002 18/18 A3005 RMK 
     AO2 T01840179=
METAR KRYV 081135Z AUTO 26003KT 5SM BR OVC005 22/20 A3003 RMK AO2=
METAR KSPF 081135Z AUTO 23004KT 10SM CLR 11/07 A3029 RMK AO2 =
METAR KSTE 081135Z AUTO 35004KT 10SM OVC005 20/19 A3004 RMK AO2=
METAR KSUW 081135Z AUTO 22006KT 10SM CLR 16/14 A3003 RMK AO2=
METAR KSYN 081150Z AUTO 00000KT 7SM CLR 17/16 A3010 RMK AO2
     T01710159=
METAR KTKV 081135Z AUTO 00000KT 5SM BR SCT003 SCT006 18/17 A3005 
     RMK AO2 T01800174=
METAR KUNU 081132Z AUTO 25005KT 5SM BR OVC006 21/20 A3004 RMK AO2 
     T02060195=
####018000119####
SAUS46 KLOX 081140
MTR3A6
METAR K3A6 081110Z AUTO 36003KT 11/10 A2988 RMK AO1 SLP138 T01120101 10130 20110 58009
####018000109####
SAAK41 KNKA 081140
SPECI PAKI 081136Z AUTO 36004KT 1/4SM FG CLR 07/07 A3001 RMK AO2 
    PWINO TSNO $=
####018000118####
SAMH31 PKWA 081140
METAR PKWA 081140Z AUTO 06014KT 10SM SCT011 SCT018 OVC049 25/23 A2986 RMK AO2 P0001 T02520234=
####018000310####
SPUS99 KWBC 081141
SPECI
KDEQ 081137Z AUTO 04003KT 9SM BKN005 OVC060 24/23 A3004 RMK
     AO2=
KLVJ 081139Z AUTO 14006KT 3SM RA BR BKN020 BKN044 OVC060 25/23
     A2993 RMK AO2 PK WND 13026/1101 TSB20E35RAB02 P0041=
PAKI 081136Z AUTO 36004KT 1/4SM FG CLR 07/07 A3001 RMK AO2 PWINO
     TSNO $=
####018000960####
SAUS99 KWBC 081141
METAR
KBWD 081135Z AUTO 07003KT 10SM BKN020 OVC026 24/23 A3003 RMK
     AO2=
KDCM 081135Z AUTO 00000KT 7SM CLR 22/22 A3003 RMK AO2 LTG DSNT
     SE=
KHXD 081135Z AUTO 25007KT 010V020 10SM CLR 25/21 A3000 RMK AO2
     P0000=
KJZI 081135Z AUTO 27009KT 10SM CLR 26/24 A2997 RMK A02 P000=
KRPD 081134Z AUTO 00000KT 10SM CLR 18/17 A3009 RMK AO2
     T01800168=
KRRL 081135Z AUTO 00000KT 3/4SM BR OVC002 18/18 A3005 RMK AO2
     T01840179=
KRYV 081135Z AUTO 26003KT 5SM BR OVC005 22/20 A3003 RMK AO2=
KSPF 081135Z AUTO 23004KT 10SM CLR 11/07 A3029 RMK AO2=
KSTE 081135Z AUTO 35004KT 10SM OVC005 20/19 A3004 RMK AO2=
KSUW 081135Z AUTO 22006KT 10SM CLR 16/14 A3003 RMK AO2=
KSYN 081150Z AUTO 00000KT 7SM CLR 17/16 A3010 RMK AO2
     T01710159=
KTKV 081135Z AUTO 00000KT 5SM BR SCT003 SCT006 18/17 A3005 RMK AO2
     T01800174=
KUNU 081132Z AUTO 25005KT 5SM BR OVC006 21/20 A3004 RMK AO2
     T02060195=
####018001442####
SAAU31 YBBN 081130
METAR YPAD 081130Z 09005KT CAVOK 07/04 Q1026=
METAR YBAS 081130Z AUTO 08007KT 9999NDV // NCD 10/06 Q1020=
METAR YBBN 081130Z 19009KT 9999 FEW040 16/11 Q1020
NOSIG=
METAR YBCS 081130Z 18008KT 9999 FEW024 BKN035 23/19 Q1016=
METAR YSCB 081130Z AUTO 00000KT 9999NDV // NCD 04/03 Q1028=
METAR YPXM 081130Z NIL=
METAR YPCC 081130Z AUTO 15009KT 9999NDV // SCT020 SCT025 BKN030 26/22
Q1013=
METAR YCFS 081130Z AUTO 24011KT 9999NDV // SCT069 14/10 Q1023=
METAR YPDN 081130Z 03005KT CAVOK 25/20 Q1013=
METAR YBCG 081130Z AUTO 19010KT 9999NDV // BKN047 BKN105 15/13 Q1021=
METAR YHID 081130Z AUTO 16009KT 9999NDV // OVC054 25/23 Q1013=
METAR YPJT 081130Z AUTO 01007KT 9999NDV // SCT100 13/13 Q0998=
METAR YPKU 081130Z AUTO 12006KT 9999NDV // NCD 23/15 Q1014=
METAR YPLM 081130Z AUTO 22002KT 9999NDV // OVC027 21/17 Q1009=
METAR YMML 081130Z NIL=
METAR YPPH 081130Z 01011KT 9999 FEW024 SCT082 14/13 Q0998
RMK WBD 0.7
INTER 1130/1200 27025G35KT 3000 +SHRA BKN010
INTER 1200/1430 27030G50KT 2000 TSGS BKN010 FEW030CB=
METAR YSSY 081130Z 22013KT 9000 -SHRA FEW006 SCT020 BKN065 12/11
Q1027
RMK VIS REDUCED TO NORTH
FM1150 22010KT 9999 -SHRA SCT025 BKN040
INTER 1150/1430 5000 SHRA BKN010=
METAR YSTW 081130Z AUTO 15007KT 9999NDV // NCD 08/05 Q1024=
METAR YPTN 081130Z AUTO 13005KT 9999NDV // OVC049 23/16 Q1015=
METAR YBTL 081130Z 15006KT 9999 FEW015 SCT027 BKN040 22/20 Q1018=
####018001122####
SAAU32 YBBN 081130
METAR YAMB 081130Z AUTO 19007KT 9999NDV // SCT084 OVC100 15/11 Q1022=
METAR YMAV 081130Z AUTO 00000KT 9999NDV // OVC048 09/06 Q1028=
METAR YBRM 081130Z 07005KT 9999 -DZ FEW024 BKN046 23/23 Q1012=
METAR YCIN 081130Z AUTO 11006KT //// // ////// 22/19 Q1013=
METAR YSDU 081130Z AUTO 07005KT 9999NDV // NCD 07/04 Q1026=
METAR YFRT 081130Z NIL=
METAR YGEL 081130Z AUTO 33020KT 3400NDV // SCT014 BKN022 OVC039 16/15
Q1002=
METAR YPGV 081130Z 14008KT 9999 FEW014 SCT019 BKN350 24/22 Q1014=
METAR YBHM 081130Z NIL=
METAR YMHB 081130Z 31007KT CAVOK 03/02 Q1030=
METAR YPKG 081130Z AUTO 36010KT 9999NDV // SCT070 BKN086 17/04 Q1004=
METAR YMLT 081130Z AUTO 20004KT 9999NDV // BKN036 03/01 Q1030=
METAR YBMA 081130Z AUTO 00000KT 9999NDV // NCD 09/09 Q1020=
METAR YSNF 081130Z 11011KT 9999 FEW018 BKN028 15/09 Q1018=
METAR YPEA 081130Z NIL=
METAR YPPD 081130Z NIL=
METAR YSRI 081130Z NIL=
METAR YBRK 081130Z 23003KT 9999 FEW008 BKN040 14/12 Q1020=
METAR YWLM 081130Z AUTO 31005KT 9999NDV // ////// 11/10 Q1026=
METAR YPWR 081130Z AUTO 09006KT 9999NDV // NCD 07/M00 Q1023=
####018000376####
SAEE31 LOWM 081130
METAR UACK 081130Z 33006G10MPS 9999 FEW053 BKN067 19/01 Q1011
02010070 NOSIG RMK QFE734=
METAR UACP 081130Z NIL=
METAR UAII 081130Z NIL=
METAR UADD 081130Z 33003MPS 300V010 9999 NSC 34/03 Q1013
NOSIG RMK QFE703/0937=
METAR UASK 081130Z 01002MPS 9999 SCT032 BKN100 23/11 Q1012
                   300/0060 NOSIG RMK QFE733=
METAR UASP 081130Z NIL=
####018000107####
SAKY31 RUMS 081130 RRA
METAR UAFO 081130Z 02001MPS 9999 FEW050CB SCT100 34/12 Q1017 NOSIG
RMK QFEM684=
####018000120####
SAAE31 VTBB 081130 RRC
METAR VTBS 081130Z 17003KT 090V170 9999 FEW020 SCT120 BKN300 29/23
           Q1006 NOSIG=
####018000084####
SPUS41 KWBC 081141
SPECI
KHUL 081138Z AUTO 22008KT 5SM HZ SCT009 22/19 A3004=
####018000111####
SPUS52 KWBC 081141
SPECI
KPSX 081138Z AUTO 09021G27KT 2 1/2SM +RA BR FEW002 SCT014 BKN085
27/24 A2988=
####018000097####
SPUS53 KWBC 081141
SPECI
KMKG 081138Z 14004KT 2SM -RA BR BKN041 BKN065 OVC080 23/22 A3002=
####018000093####
SPUS53 KWBC 081141
SPECI
KRFD 081138Z 25003KT 6SM BR SCT006 BKN022 OVC047 22/21 A3005=
####018000091####
SPUS53 KWBC 081141
SPECI
KUIN 081138Z AUTO 29003KT 1SM BR BKN001 OVC008 23/22 A3005=
####018000109####
SAKY31 RUMS 081130 RRA
METAR UAFO 081130Z 02001MPS 9999 FEW050CB SCT100 34/12 Q1017 NOSIG
RMK QFEM684=
####018002925####
SAUS20 KNKA 081140
METAR KHZX 081131Z AUTO 00000KT 10SM CLR 14/13 A3007 RMK AO2=
METAR KIKW 081134Z AUTO 00000KT 7SM OVC090 23/21 A3001 RMK AO2
     T02310212=
METAR KIRS 081135Z AUTO 00000KT 4SM BR CLR 22/21 A3005 RMK AO2=
METAR KJKJ 081134Z AUTO 22003KT 10SM CLR 16/14 A3008 RMK AO2=
METAR KJMR 081138Z AUTO 00000KT 10SM CLR 14/12 A3010 RMK AO2=
METAR KJYG 081135Z AUTO 00000KT 10SM CLR 17/17 A3015 RMK AO2=
METAR KJYM 081135Z AUTO 00000KT 5SM BR CLR 22/21 A3007 RMK AO2=
METAR KLJF 081133Z AUTO 27004KT 10SM CLR 18/16 A3012 RMK AO2=
METAR KLVN 081128Z AUTO 27005KT 10SM CLR 17/16 A3010 RMK AO2=
METAR KLWA 081136Z AUTO 00000KT 10SM BKN044 BKN050 BKN095 23/21
     A3003 RMK AO2=
METAR KLXL 081134Z AUTO 00000KT 3SM BR 13/12 A3009 RMK AO2 SKY
     OBSCURED=
SPECI KLXV 081138Z AUTO 00000KT 3/4SM BR BKN002 05/05 A3052 RMK
     AO2 TSNO=
METAR KLYV 081138Z AUTO 00000KT 10SM CLR 13/12 A3017 RMK AO2=
METAR KMDS 081125Z AUTO 26003KT 10SM CLR 14/14 A3018 RMK AO2=
METAR KMGN 081135Z AUTO 26003KT 7SM -DZ SCT012 SCT055 OVC100 22/20
     A2999 RMK AO2=
SPECI KMIE 081139Z AUTO 19004KT 2 1/2SM HZ CLR 25/20 A3007 RMK AO2=
METAR KMJQ 081132Z AUTO 25003KT 7SM CLR 15/14 A3016 RMK AO2=
METAR KMOP 081134Z AUTO 25004KT 10SM OVC085 23/23 A3002 RMK
     AO2=
METAR KMRT 081133Z AUTO 00000KT 4SM CLR 22/20 A3012 RMK AO2
     T02180196=
METAR KMVE 081134Z AUTO 29003KT 10SM CLR 16/14 A3011 RMK AO2=
METAR KOEB 081135Z AUTO 00000KT 4SM BR CLR 23/21 A3006 RMK AO2=
METAR KONA 081130Z AUTO 31005KT 10SM CLR 20/17 A3005 RMK AO2=
METAR KOVL 081134Z AUTO 30003KT 7SM CLR 14/12 A3012 RMK AO2
     T01380124=
METAR KOZW 081135Z AUTO 00000KT 7SM CLR 24/21 A3005 RMK AO2=
METAR KPEX 081133Z AUTO 25004KT 5SM BR CLR 14/14 A3012 RMK AO2
     T01360135=
METAR KRGK 081135Z AUTO 29003KT 10SM CLR 19/17 A3008 RMK AO2=
METAR KRNP 081135Z AUTO 00000KT 10SM CLR 25/21 A3002 RMK AO2=
METAR KROS 081135Z AUTO 00000KT 10SM CLR 16/15 A3008 RMK AO2
     T01560149=
METAR KROX 081134Z AUTO 22005KT 10SM SCT095 14/13 A3001 RMK
     AO2=
METAR KRQB 081135Z AUTO 00000KT 7SM -RA BKN075 OVC090 22/21 A3003
     RMK AO2=
METAR KRRT 081134Z AUTO 22006KT 10SM CLR 14/12 A3001 RMK AO2=
METAR KSAZ 081134Z AUTO 25005KT 10SM CLR 16/16 A3009 RMK AO2=
SPECI KSGF 081139Z 34003KT 6SM BR FEW004 23/22 A3007 RMK AO2 LTG 
    DSNT N=
METAR KSGS 081133Z AUTO 29003KT 10SM CLR 19/16 A3010 RMK AO2
     T01860164=
SPECI KSMQ 081139Z AUTO VRB03KT 4SM HZ BKN009 24/22 A3003 RMK AO2=
METAR KTEW 081132Z AUTO 00000KT 7SM CLR 22/21 A3005 RMK AO2=
METAR KTKC 081133Z AUTO 25006KT 10SM CLR 16/13 A3015 RMK AO2
     T01580130=
METAR KTOB 081134Z AUTO 00000KT 10SM CLR 17/16 A3011 RMK AO2=
METAR KUKT 081135Z AUTO 00000KT 5SM CLR 24/22 A3006 RMK AO1=
METAR KVLL 081134Z AUTO 25003KT 10SM CLR 26/21 A3006 RMK AO2=
METAR KVVV 081136Z AUTO 28004KT 10SM CLR 17/14 A3011 RMK AO2=
####018000111####
SAUS20 KNKA 081140
METAR KY70 081135Z AUTO 00000KT 2 1/2SM BR SCT070 23/22 A3003 RMK
     AO2 T02300220=
####018002975####
SAUS20 KNKA 081140
METAR K29G 081134Z AUTO 00000KT 5SM CLR 22/20 A3010 RMK AO2
     T02200198 PWINO=
METAR K4I3 081136Z AUTO 00000KT 5SM BR SCT060 20/19 A3010 RMK
     AO2=
METAR KACB 081135Z AUTO 20003KT 5SM -RA SCT021 OVC070 23/21 A3000
     RMK AO2=
METAR KACQ 081139Z AUTO 30003KT 10SM CLR 16/15 A3013 RMK AO2=
METAR KADC 081137Z AUTO 24004KT 10SM CLR 14/13 A3009 RMK AO2=
METAR KAEL 081131Z AUTO 33003KT 10SM CLR 17/16 A3011 RMK AO2=
METAR KANE 081135Z AUTO 26003KT 10SM 17/16 A3010 RMK AO2=
METAR KAUM 081135Z AUTO 32006KT 7SM CLR 17/17 A3010 RMK AO2=
METAR KBAX 081135Z AUTO 00000KT 5SM BR CLR 24/23 A3000 RMK AO2=
METAR KBDH 081135Z AUTO 00000KT 7SM CLR 15/14 A3013 RMK AO2=
METAR KCAD 081135Z AUTO 22007KT 5SM RA SCT048 BKN070 OVC090 22/21
     A3003 RMK AO2=
METAR KCBG 081135Z AUTO 00000KT 10SM CLR 16/14 A3009 RMK AO2=
METAR KCFE 081135Z AUTO 27003KT 10SM CLR 18/16 A3011 RMK AO2
     T01760161=
METAR KCFS 081135Z AUTO 23004KT 7SM CLR 23/22 A3003 RMK AO2=
METAR KCKC 081135Z AUTO 28005KT 10SM CLR 17/13 A3004 RMK AO2=
METAR KCKN 081135Z AUTO 21004KT 10SM CLR 14/12 A3006 RMK AO2=
METAR KCNB 081138Z AUTO 24005KT 10SM CLR 17/13 A3014 RMK AO2
     T01710133=
METAR KCOQ 081136Z AUTO 27005KT 10SM CLR 16/16 A3006 RMK AO2=
METAR KCQM 081137Z AUTO 24003KT 10SM CLR 16/14 A3004 RMK AO2=
SPECI KCRP 081136Z 03013KT 2SM +TSRA BR SCT016CB BKN021 OVC048
     26/25 A2984 RMK AO2 SFC VIS 4 TSB32RAB27 OCNL LTGIC SE-S TS
     SE-S MOV W P0002 $=
METAR KCVH 081130Z AUTO 00000KT 8SM OVC006 13/11 A2992 RMK AO1=
METAR KDRM 081136Z AUTO 00000KT 1 3/4SM -RA BKN002 OVC100 20/20
     A2996 RMK AO2=
METAR KDTL 081135Z AUTO 23003KT 10SM CLR 16/11 A3010 RMK AO2=
METAR KDUH 081135Z AUTO 00000KT 10SM CLR 24/18 A3005 RMK AO2=
METAR KDXX 081134Z AUTO 00000KT 10SM CLR 15/14 A3011 RMK AO2=
METAR KEFK 081136Z AUTO 20004KT 5SM BR CLR 23/21 A3006 RMK AO2=
METAR KELO 081133Z AUTO 22003KT 10SM CLR 14/14 A3002 RMK AO2=
METAR KEVM 081132Z AUTO 00000KT 2 1/2SM BR CLR 13/12 A3002 RMK AO1
     VIS 1 3/4V4=
METAR KFBL 081134Z AUTO 30003KT 10SM CLR 17/15 A3011 RMK AO2=
METAR KFFX 081135Z AUTO 18003KT 2SM BR BKN004 BKN039 OVC080 22/22
     A3003 RMK AO2=
METAR KFKA 081143Z AUTO 32008KT 10SM CLR 18/17 A3009 RMK AO2
     T01820174=
METAR KFPK 081136Z AUTO 00000KT 5SM BR CLR 22/21 A3003 RMK AO2=
METAR KFSE 081134Z AUTO 19005KT 10SM CLR 12/11 A3006 RMK AO2=
METAR KFSO 081138Z AUTO 00000KT 5SM BR SCT060 SCT075 SCT090 26/23
     A3001 RMK AO2=
SPECI KFVE 081139Z AUTO 16004KT 1 1/2SM BR OVC001 23/23 A3002 RMK 
    AO2=
METAR KGYL 081135Z AUTO 00000KT 10SM CLR 16/15 A3011 RMK AO2
     T01550145=
METAR KHAF 081130Z AUTO 00000KT 9SM OVC006 12/11 A2993 RMK AO2=
METAR KHAI 081135Z AUTO 00000KT 5SM BR CLR 22/21 A3005 RMK AO2=
METAR KHCD 081132Z AUTO 00000KT 5SM BR CLR 14/13 A3012 RMK AO2
     T01380130=
METAR KHCO 081134Z AUTO 25003KT 10SM SCT080 14/14 A3006 RMK
     AO2=
####018000097####
SPUS73 KWBC 081141
SPECI
KMKG 081138Z 14004KT 2SM -RA BR BKN041 BKN065 OVC080 23/22 A3002=
####018000093####
SPUS73 KWBC 081141
SPECI
KRFD 081138Z 25003KT 6SM BR SCT006 BKN022 OVC047 22/21 A3005=
####018000091####
SPUS73 KWBC 081141
SPECI
KUIN 081138Z AUTO 29003KT 1SM BR BKN001 OVC008 23/22 A3005=
####018000385####
SAEE31 LOWM 081130
METAR UACK 081130Z 33006G10MPS 9999 FEW053 BKN067 19/01 Q1011
02010070 NOSIG RMK QFE734=
METAR UACP 081130Z NIL=
METAR UAII 081130Z NIL=
METAR UADD 081130Z 33003MPS 300V010 9999 NSC 34/03 Q1013
NOSIG RMK QFE703/0937=
METAR UASK 081130Z 01002MPS 9999 SCT032 BKN100 23/11 Q1012
                   300/0060 NOSIG RMK QFE733=
METAR UASP 081130Z NIL=
####018000165####
SAID33 WIII 081130
METAR WABP NIL=
METAR WAJJ NIL=
METAR WAKK NIL=
METAR WAPP NIL=
METAR WARS NIL=
METAR WIAT NIL=
METAR WATT NIL=
METAR WALR NIL=
####018001443####
SAAU31 YBBN 081130
METAR YPAD 081130Z 09005KT CAVOK 07/04 Q1026=
METAR YBAS 081130Z AUTO 08007KT 9999NDV // NCD 10/06 Q1020=
METAR YBBN 081130Z 19009KT 9999 FEW040 16/11 Q1020
NOSIG=
METAR YBCS 081130Z 18008KT 9999 FEW024 BKN035 23/19 Q1016=
METAR YSCB 081130Z AUTO 00000KT 9999NDV // NCD 04/03 Q1028=
METAR YPXM 081130Z NIL=
METAR YPCC 081130Z AUTO 15009KT 9999NDV // SCT020 SCT025 BKN030 26/22
Q1013=
METAR YCFS 081130Z AUTO 24011KT 9999NDV // SCT069 14/10 Q1023=
METAR YPDN 081130Z 03005KT CAVOK 25/20 Q1013=
METAR YBCG 081130Z AUTO 19010KT 9999NDV // BKN047 BKN105 15/13 Q1021=
METAR YHID 081130Z AUTO 16009KT 9999NDV // OVC054 25/23 Q1013=
METAR YPJT 081130Z AUTO 01007KT 9999NDV // SCT100 13/13 Q0998=
METAR YPKU 081130Z AUTO 12006KT 9999NDV // NCD 23/15 Q1014=
METAR YPLM 081130Z AUTO 22002KT 9999NDV // OVC027 21/17 Q1009=
METAR YMML 081130Z NIL=
METAR YPPH 081130Z 01011KT 9999 FEW024 SCT082 14/13 Q0998
RMK WBD 0.7
INTER 1130/1200 27025G35KT 3000 +SHRA BKN010
INTER 1200/1430 27030G50KT 2000 TSGS BKN010 FEW030CB=
METAR YSSY 081130Z 22013KT 9000 -SHRA FEW006 SCT020 BKN065 12/11
Q1027
RMK VIS REDUCED TO NORTH
FM1150 22010KT 9999 -SHRA SCT025 BKN040
INTER 1150/1430 5000 SHRA BKN010=
METAR YSTW 081130Z AUTO 15007KT 9999NDV // NCD 08/05 Q1024=
METAR YPTN 081130Z AUTO 13005KT 9999NDV // OVC049 23/16 Q1015=
METAR YBTL 081130Z 15006KT 9999 FEW015 SCT027 BKN040 22/20 Q1018=
####018000360####
SAID32 WIII 081130
METAR WAMM 081130Z 16003KT 9999 FEW025 25/23 Q1010 NOSIG= 
METAR WIPT 081130Z 00000KT 9999 FEW020TCU 28/24 Q1010= 
METAR WIOO 081130Z 29013KT 6000 FEW010CB BKN009 26/24 Q.1010 RA = 
METAR WALL 081130Z 17003KT 9999 FEW020 26/24 Q1008 NOSIG= 
METAR WIBB NIL=
METAR WIKN NIL=
METAR WIPP NIL=
METAR WAOO NIL=
METAR WADA NIL=
####018000353####
SAID31 WIII 081130
METAR WIMM 081130Z 05006KT 6000 FEW016CB FEW017 30/24 Q1008 NOSIG= 
METAR WIDD 081130Z 20005KT 9999 FEW017 28/25 Q1009= 
METAR WAAA 081130Z 18002KT CAVOK 26/25 Q1009= 
METAR WIII 081130Z 22003KT 25/23 Q1011= 
METAR WADD 081130Z 00000KT 9999 FEW018 28/25 Q1008 NOSIG= 
METAR WIHH NIL=
METAR WABB NIL=
METAR WARR NIL=
####018000078####
SPCN44 CWAO 081140
SPECI CYUS 081140Z AUTO ///// 9SM FEW094 12/ A2979=

####018000097####
SPUS81 KWBC 081141
SPECI
KMKG 081138Z 14004KT 2SM -RA BR BKN041 BKN065 OVC080 23/22 A3002=
####018000093####
SPUS81 KWBC 081141
SPECI
KRFD 081138Z 25003KT 6SM BR SCT006 BKN022 OVC047 22/21 A3005=
####018000520####
SAZZ40 KAWN 081100 RRT
METAR KFMH 081135Z AUTO 15008KT 10SM FEW009 SCT017 23/21 A3011 RMK
      AO2=
METAR LKKV 081130Z VRB05KT CAVOK 23/10 Q1023 RMK REG QNH 1021=
METAR LQBK 081130Z 29006KT 9999 FEW040 23/11 Q1022 NOSIG=
METAR UACC 081130Z 33005MPS 290V360 CAVOK 25/01 Q1008 220/0070 NOSIG
      RMK QFE725/0967=
METAR UATT 081130Z 05008MPS 9999 NSC 33/02 Q1010 13CLRD70 NOSIG RMK
      QFE738/0984=
METAR UUYY 081130Z VRB01MPS 9999 FEW033 OVC200 30/15 Q1016 NOSIG 01CLRD61
      RMK QFE752/1003=
####018000343####
SAXX70 KAWN 081100 RRU
METAR KQFT 081130Z AUTO 16002KT 2SM -SHRA FEW006 SCT009 BKN012 BKN018
      24/20 A2984 RMK A02=
METAR KQEN 081140Z AUTO 27008KT 7SM BKN075 20/16 A3041 RMK A02=
METAR KQEP 081140Z AUTO 22005KT 3SM -RA SCT034 BKN120 23/20 A2987 RMK
      A02=
METAR KQEY 081140Z AUTO 28003KT 7SM FEW110 25/18 A2960 RMK A02=
####018000121####
SAAE31 VTBB 081130 RRC
METAR VTBS 081130Z 17003KT 090V170 9999 FEW020 SCT120 BKN300 29/23 
           Q1006 NOSIG=
####018000125####
SPCN47 CWAO 081141
SPECI CYZE 081141Z AUTO 18006KT 4SM BR BKN004 BKN150 20/20 A2997 RMK
 SLP149 DENSITY ALT 1300FT=

####018002567####
SAUS20 KNKA 081141
SPECI KARA 081140Z 07005KT 5SM BR SCT003 25/24 A3001 RMK AO2=
METAR KAWG 081135Z AUTO 30003KT 5SM CLR 21/19 A3006 RMK AO2=
METAR KAXA 081135Z AUTO 33005KT 10SM CLR 17/16 A3013 RMK AO2=
METAR KBNW 081135Z AUTO 33006KT 10SM CLR 20/17 A3012 RMK AO2=
METAR KCAV 081135Z AUTO 33003KT 7SM CLR 19/17 A3012 RMK AO2=
METAR KCBF 081135Z AUTO 34004KT 10SM CLR 20/16 A3015 RMK AO2=
METAR KCCY 081135Z AUTO 33006KT 10SM CLR 19/16 A3010 RMK AO2=
METAR KCIN 081135Z AUTO 00000KT 7SM CLR 17/15 A3015 RMK AO2=
METAR KCNC 081135Z AUTO 36006KT 7SM CLR 20/18 A3010 RMK AO2=
METAR KCSQ 081135Z AUTO 01007KT 10SM CLR 20/18 A3012 RMK AO2=
METAR KDEH 081135Z AUTO 33003KT 3 1/2SM SCT006 21/18 A3010 RMK AO2=
METAR KDNS 081135Z AUTO 36003KT 10SM CLR 19/16 A3018 RMK AO2=
SPECI KDXR 081140Z 00000KT 1SM BR OVC001 23/23 A3008 RMK AO2=
SPECI KELZ 081140Z AUTO 00000KT 3SM BR CLR 21/19 A3016 RMK AO2=
METAR KEOK 081135Z AUTO 00000KT 10SM CLR 22/19 A3004 RMK AO2=
METAR KFFL 081135Z AUTO 31004KT 7SM CLR 22/20 A3007 RMK AO2=
METAR KFSW 081135Z AUTO 33004KT 3/4SM OVC002 22/21 A3004 RMK AO2=
METAR KFXY 081135Z AUTO 34004KT 10SM CLR 17/16 A3012 RMK AO2=
METAR KGGI 081135Z AUTO 31003KT 5SM CLR 21/19 A3009 RMK AO2=
METAR KHNR 081135Z AUTO 00000KT 4SM CLR 17/17 A3017 RMK AO2=
METAR KI75 081135Z AUTO 35005KT 7SM CLR 20/18 A3009 RMK AO2 P0001=
METAR KICL 081135Z AUTO 02003KT 7SM CLR 21/18 A3012 RMK AO2=
METAR KIFA 081135Z AUTO 33006KT 10SM SCT110 20/18 A3011 RMK AO2=
METAR KIIB 081135Z AUTO 33004KT 4SM CLR 20/19 A3007 RMK AO1=
METAR KIKV 081135Z AUTO 36004KT 10SM CLR 21/18 A3010 RMK AO2=
SPECI KLHQ 081140Z AUTO 00000KT 2 1/2SM BR CLR 22/21 A3010 RMK AO2=
METAR KLRJ 081135Z AUTO 00000KT 2 1/2SM CLR 15/14 A3018 RMK AO2=
METAR KMPZ 081135Z AUTO 32005KT 4SM OVC004 22/21 A3006 RMK AO2=
METAR KMUT 081135Z AUTO 34006KT 4SM OVC008 23/22 A3005 RMK AO2=
METAR KMXO 081135Z AUTO 30003KT 4SM SCT005 BKN015 21/19 A3006 RMK 
     AO2=
METAR KORC 081135Z AUTO 31004KT 7SM CLR 16/16 A3017 RMK AO2=
METAR KOXV 081135Z AUTO 34003KT 10SM CLR 21/20 A3009 RMK AO2=
METAR KPEA 081135Z AUTO 34004KT 7SM CLR 20/20 A3009 RMK AO2=
METAR KRDK 081135Z AUTO 01004KT 7SM CLR 21/18 A3012 RMK AO2=
METAR KSDA 081135Z AUTO 01006KT 7SM CLR 21/19 A3013 RMK AO2=
METAR KSHL 081135Z AUTO 00000KT 2 1/2SM CLR 15/13 A3018 RMK AO2=
METAR KTNU 081135Z AUTO 35008KT 10SM CLR 21/18 A3009 RMK AO2=
SPECI KUCP 081141Z AUTO 00000KT 1 1/2SM BR CLR 21/19 A3011 RMK AO2 $=
METAR KVTI 081135Z AUTO 00000KT 4SM SCT003 20/20 A3007 RMK AO2=
####018000075####
SACN95 CWAO 081130
WWA SA 1130 AUTO8 M M M M/19/09/3602/M/M M 33MM=

####018000082####
SPCN48 CWAO 081140
SPECI CYPH 081140Z AUTO 25015KT 9SM OVC003 07/06 A2981=

####018000106####
SPUS90 KWBC 081142
SPECI KRFD 081138Z 25003KT 6SM BR SCT006 BKN022 OVC047 22/21 A3005
     RMK AO2=
####018002235####
SAUS90 KWBC 081142
METAR K3A6 081110Z AUTO 36003KT 11/10 A2988 RMK AO1 SLP138
     T01120101 10130 20110 58009=
METAR KCVX 081135Z AUTO 25005KT 7SM -RA SCT017 BKN070 OVC110 21/20
     A3001 RMK AO2=
METAR KFKS 081135Z AUTO 26006KT 5SM -RA BKN006 BKN012 OVC065 21/20
     A3002 RMK AO2=
METAR KSLH 081135Z AUTO 24003KT 7SM RA SCT013 OVC110 22/21 A2997
     RMK AO2=
METAR KSJX 081136Z AUTO 24009KT 2SM DZ OVC002 20/18 A2999 RMK
     AO2=
METAR KLDM 081136Z AUTO 20007KT 4SM RA SCT007 BKN023 OVC080 22/21
     A3002 RMK AO2 P0005=
METAR KGOV 081135Z AUTO 23004KT 10SM DZ BKN070 OVC100 22/21 A3003
     RMK AO2=
METAR KPZQ 081135Z AUTO 24003KT 10SM OVC100 22/22 A2998 RMK
     AO2=
METAR KHYX 081135Z AUTO 28004KT 10SM -RA SCT085 OVC110 23/21 A3001
     RMK AO2=
METAR KPHN 081136Z AUTO 00000KT 7SM CLR 23/21 A3003 RMK AO2=
METAR KONZ 081137Z AUTO 00000KT 10SM SCT075 26/21 A3003 RMK
     AO2=
METAR KISQ 081136Z AUTO 34003KT 2SM -RA OVC002 19/17 A2998 RMK
     AO2=
METAR KRMY 081136Z AUTO 00000KT 7SM CLR 22/20 A3005 RMK AO2=
METAR KOSC 081134Z AUTO 22004KT 7SM CLR 23/21 A3000 RMK AO2=
METAR KTTF 081133Z AUTO 00000KT 10SM CLR 24/21 A3003 RMK AO2=
METAR KAMN 081136Z AUTO 00000KT 3SM BR BKN100 23/22 A3001 RMK
     AO2=
METAR KMCD 081136Z AUTO 24003KT 5SM -RA OVC007 21/18 A2998 RMK
     AO2=
METAR KERY 081135Z AUTO 35004KT 1 1/4SM -DZ OVC003 19/18 A2999 RMK
     AO2=
METAR KDVP 081136Z AUTO 27003KT 10SM CLR 15/13 A3018 RMK AO2
     T01510128=
METAR KCDD 081131Z AUTO 20003KT 10SM CLR 17/17 A3003 RMK AO2=
METAR KFOZ 081133Z AUTO 00000KT 5SM BR CLR 13/13 A3005 RMK AO2=
METAR KAQP 081133Z AUTO 00000KT 10SM CLR 13/13 A3011 RMK AO2=
METAR KETH 081134Z AUTO 23004KT 10SM CLR 17/15 A3011 RMK AO2=
METAR KXVG 081136Z AUTO 00000KT 10SM CLR 16/15 A3005 RMK AO2=
METAR KORB 081134Z AUTO 00000KT 10SM CLR 14/13 A3000 RMK AO2=
METAR KMZH 081131Z AUTO 00000KT 10SM CLR 14/13 A3005 RMK AO2=
METAR KBFW 081133Z AUTO 30003KT 10SM CLR 18/14 A3001 RMK AO2=
METAR KVWU 081131Z AUTO 26008KT 10SM CLR 18/14 A3003 RMK AO2=
METAR KOWA 081134Z AUTO 30004KT 10SM CLR 17/16 A3010 RMK AO2=
METAR KCDA 081135Z AUTO 00000KT 5SM HZ SCT060 22/19 A3011 RMK
     AO2=
####018003741####
SAUS99 KWBC 081142
METAR
KHZX 081131Z AUTO 00000KT 10SM CLR 14/13 A3007 RMK AO2=
KIKW 081134Z AUTO 00000KT 7SM OVC090 23/21 A3001 RMK AO2
     T02310212=
KIRS 081135Z AUTO 00000KT 4SM BR CLR 22/21 A3005 RMK AO2=
KJKJ 081134Z AUTO 22003KT 10SM CLR 16/14 A3008 RMK AO2=
KJMR 081138Z AUTO 00000KT 10SM CLR 14/12 A3010 RMK AO2=
KJYG 081135Z AUTO 00000KT 10SM CLR 17/17 A3015 RMK AO2=
KJYM 081135Z AUTO 00000KT 5SM BR CLR 22/21 A3007 RMK AO2=
KLJF 081133Z AUTO 27004KT 10SM CLR 18/16 A3012 RMK AO2=
KLVN 081128Z AUTO 27005KT 10SM CLR 17/16 A3010 RMK AO2=
KLWA 081136Z AUTO 00000KT 10SM BKN044 BKN050 BKN095 23/21 A3003
     RMK AO2=
KLXL 081134Z AUTO 00000KT 3SM BR 13/12 A3009 RMK AO2 SKY
     OBSCURED=
KLYV 081138Z AUTO 00000KT 10SM CLR 13/12 A3017 RMK AO2=
KMDS 081125Z AUTO 26003KT 10SM CLR 14/14 A3018 RMK AO2=
KMGN 081135Z AUTO 26003KT 7SM -DZ SCT012 SCT055 OVC100 22/20 A2999
     RMK AO2=
KMJQ 081132Z AUTO 25003KT 7SM CLR 15/14 A3016 RMK AO2=
KMOP 081134Z AUTO 25004KT 10SM OVC085 23/23 A3002 RMK AO2=
KMRT 081133Z AUTO 00000KT 4SM CLR 22/20 A3012 RMK AO2
     T02180196=
KMVE 081134Z AUTO 29003KT 10SM CLR 16/14 A3011 RMK AO2=
KOEB 081135Z AUTO 00000KT 4SM BR CLR 23/21 A3006 RMK AO2=
KONA 081130Z AUTO 31005KT 10SM CLR 20/17 A3005 RMK AO2=
KOVL 081134Z AUTO 30003KT 7SM CLR 14/12 A3012 RMK AO2
     T01380124=
KOZW 081135Z AUTO 00000KT 7SM CLR 24/21 A3005 RMK AO2=
KPEX 081133Z AUTO 25004KT 5SM BR CLR 14/14 A3012 RMK AO2
     T01360135=
KRGK 081135Z AUTO 29003KT 10SM CLR 19/17 A3008 RMK AO2=
KRNP 081135Z AUTO 00000KT 10SM CLR 25/21 A3002 RMK AO2=
KROS 081135Z AUTO 00000KT 10SM CLR 16/15 A3008 RMK AO2
     T01560149=
KROX 081134Z AUTO 22005KT 10SM SCT095 14/13 A3001 RMK AO2=
KRQB 081135Z AUTO 00000KT 7SM -RA BKN075 OVC090 22/21 A3003 RMK
     AO2=
KRRT 081134Z AUTO 22006KT 10SM CLR 14/12 A3001 RMK AO2=
KSAZ 081134Z AUTO 25005KT 10SM CLR 16/16 A3009 RMK AO2=
KSGS 081133Z AUTO 29003KT 10SM CLR 19/16 A3010 RMK AO2
     T01860164=
KTEW 081132Z AUTO 00000KT 7SM CLR 22/21 A3005 RMK AO2=
KTKC 081133Z AUTO 25006KT 10SM CLR 16/13 A3015 RMK AO2
     T01580130=
KTOB 081134Z AUTO 00000KT 10SM CLR 17/16 A3011 RMK AO2=
KUKT 081135Z AUTO 00000KT 5SM CLR 24/22 A3006 RMK AO1=
KVLL 081134Z AUTO 25003KT 10SM CLR 26/21 A3006 RMK AO2=
KVVV 081136Z AUTO 28004KT 10SM CLR 17/14 A3011 RMK AO2=
KY70 081135Z AUTO 00000KT 2 1/2SM BR SCT070 23/22 A3003 RMK AO2
     T02300220=
K29G 081134Z AUTO 00000KT 5SM CLR 22/20 A3010 RMK AO2 T02200198
     PWINO=
K4I3 081136Z AUTO 00000KT 5SM BR SCT060 20/19 A3010 RMK AO2=
KACB 081135Z AUTO 20003KT 5SM -RA SCT021 OVC070 23/21 A3000 RMK
     AO2=
KACQ 081139Z AUTO 30003KT 10SM CLR 16/15 A3013 RMK AO2=
KADC 081137Z AUTO 24004KT 10SM CLR 14/13 A3009 RMK AO2=
KAEL 081131Z AUTO 33003KT 10SM CLR 17/16 A3011 RMK AO2=
KANE 081135Z AUTO 26003KT 10SM 17/16 A3010 RMK AO2=
KAUM 081135Z AUTO 32006KT 7SM CLR 17/17 A3010 RMK AO2=
KBAX 081135Z AUTO 00000KT 5SM BR CLR 24/23 A3000 RMK AO2=
KBDH 081135Z AUTO 00000KT 7SM CLR 15/14 A3013 RMK AO2=
KCAD 081135Z AUTO 22007KT 5SM RA SCT048 BKN070 OVC090 22/21 A3003
     RMK AO2=
KCBG 081135Z AUTO 00000KT 10SM CLR 16/14 A3009 RMK AO2=
KCFE 081135Z AUTO 27003KT 10SM CLR 18/16 A3011 RMK AO2
     T01760161=
KCFS 081135Z AUTO 23004KT 7SM CLR 23/22 A3003 RMK AO2=
KCKC 081135Z AUTO 28005KT 10SM CLR 17/13 A3004 RMK AO2=
KCKN 081135Z AUTO 21004KT 10SM CLR 14/12 A3006 RMK AO2=
KCNB 081138Z AUTO 24005KT 10SM CLR 17/13 A3014 RMK AO2
     T01710133=
KCOQ 081136Z AUTO 27005KT 10SM CLR 16/16 A3006 RMK AO2=
KCQM 081137Z AUTO 24003KT 10SM CLR 16/14 A3004 RMK AO2=
KCVH 081130Z AUTO 00000KT 8SM OVC006 13/11 A2992 RMK AO1=
####018003718####
SAUS99 KWBC 081142 RRA
METAR
KDRM 081136Z AUTO 00000KT 1 3/4SM -RA BKN002 OVC100 20/20 A2996
     RMK AO2=
KDTL 081135Z AUTO 23003KT 10SM CLR 16/11 A3010 RMK AO2=
KDUH 081135Z AUTO 00000KT 10SM CLR 24/18 A3005 RMK AO2=
KDXX 081134Z AUTO 00000KT 10SM CLR 15/14 A3011 RMK AO2=
KEFK 081136Z AUTO 20004KT 5SM BR CLR 23/21 A3006 RMK AO2=
KELO 081133Z AUTO 22003KT 10SM CLR 14/14 A3002 RMK AO2=
KEVM 081132Z AUTO 00000KT 2 1/2SM BR CLR 13/12 A3002 RMK AO1 VIS 1
     3/4V4=
KFBL 081134Z AUTO 30003KT 10SM CLR 17/15 A3011 RMK AO2=
KFFX 081135Z AUTO 18003KT 2SM BR BKN004 BKN039 OVC080 22/22 A3003
     RMK AO2=
KFKA 081143Z AUTO 32008KT 10SM CLR 18/17 A3009 RMK AO2
     T01820174=
KFPK 081136Z AUTO 00000KT 5SM BR CLR 22/21 A3003 RMK AO2=
KFSE 081134Z AUTO 19005KT 10SM CLR 12/11 A3006 RMK AO2=
KFSO 081138Z AUTO 00000KT 5SM BR SCT060 SCT075 SCT090 26/23 A3001
     RMK AO2=
KGYL 081135Z AUTO 00000KT 10SM CLR 16/15 A3011 RMK AO2
     T01550145=
KHAF 081130Z AUTO 00000KT 9SM OVC006 12/11 A2993 RMK AO2=
KHAI 081135Z AUTO 00000KT 5SM BR CLR 22/21 A3005 RMK AO2=
KHCD 081132Z AUTO 00000KT 5SM BR CLR 14/13 A3012 RMK AO2
     T01380130=
KHCO 081134Z AUTO 25003KT 10SM SCT080 14/14 A3006 RMK AO2=
KCVX 081135Z AUTO 25005KT 7SM -RA SCT017 BKN070 OVC110 21/20 A3001
     RMK AO2=
KFKS 081135Z AUTO 26006KT 5SM -RA BKN006 BKN012 OVC065 21/20 A3002
     RMK AO2=
KSLH 081135Z AUTO 24003KT 7SM RA SCT013 OVC110 22/21 A2997 RMK
     AO2=
KSJX 081136Z AUTO 24009KT 2SM DZ OVC002 20/18 A2999 RMK AO2=
KLDM 081136Z AUTO 20007KT 4SM RA SCT007 BKN023 OVC080 22/21 A3002
     RMK AO2 P0005=
KGOV 081135Z AUTO 23004KT 10SM DZ BKN070 OVC100 22/21 A3003 RMK
     AO2=
KPZQ 081135Z AUTO 24003KT 10SM OVC100 22/22 A2998 RMK AO2=
KHYX 081135Z AUTO 28004KT 10SM -RA SCT085 OVC110 23/21 A3001 RMK
     AO2=
KPHN 081136Z AUTO 00000KT 7SM CLR 23/21 A3003 RMK AO2=
KONZ 081137Z AUTO 00000KT 10SM SCT075 26/21 A3003 RMK AO2=
KISQ 081136Z AUTO 34003KT 2SM -RA OVC002 19/17 A2998 RMK AO2=
KRMY 081136Z AUTO 00000KT 7SM CLR 22/20 A3005 RMK AO2=
KOSC 081134Z AUTO 22004KT 7SM CLR 23/21 A3000 RMK AO2=
KTTF 081133Z AUTO 00000KT 10SM CLR 24/21 A3003 RMK AO2=
KAMN 081136Z AUTO 00000KT 3SM BR BKN100 23/22 A3001 RMK AO2=
KMCD 081136Z AUTO 24003KT 5SM -RA OVC007 21/18 A2998 RMK AO2=
KERY 081135Z AUTO 35004KT 1 1/4SM -DZ OVC003 19/18 A2999 RMK
     AO2=
KDVP 081136Z AUTO 27003KT 10SM CLR 15/13 A3018 RMK AO2
     T01510128=
KCDD 081131Z AUTO 20003KT 10SM CLR 17/17 A3003 RMK AO2=
KFOZ 081133Z AUTO 00000KT 5SM BR CLR 13/13 A3005 RMK AO2=
KAQP 081133Z AUTO 00000KT 10SM CLR 13/13 A3011 RMK AO2=
KETH 081134Z AUTO 23004KT 10SM CLR 17/15 A3011 RMK AO2=
KXVG 081136Z AUTO 00000KT 10SM CLR 16/15 A3005 RMK AO2=
KORB 081134Z AUTO 00000KT 10SM CLR 14/13 A3000 RMK AO2=
KMZH 081131Z AUTO 00000KT 10SM CLR 14/13 A3005 RMK AO2=
KBFW 081133Z AUTO 30003KT 10SM CLR 18/14 A3001 RMK AO2=
KVWU 081131Z AUTO 26008KT 10SM CLR 18/14 A3003 RMK AO2=
KOWA 081134Z AUTO 30004KT 10SM CLR 17/16 A3010 RMK AO2=
KCDA 081135Z AUTO 00000KT 5SM HZ SCT060 22/19 A3011 RMK AO2=
KAWG 081135Z AUTO 30003KT 5SM CLR 21/19 A3006 RMK AO2=
KAXA 081135Z AUTO 33005KT 10SM CLR 17/16 A3013 RMK AO2=
KBNW 081135Z AUTO 33006KT 10SM CLR 20/17 A3012 RMK AO2=
KCAV 081135Z AUTO 33003KT 7SM CLR 19/17 A3012 RMK AO2=
KCBF 081135Z AUTO 34004KT 10SM CLR 20/16 A3015 RMK AO2=
KCCY 081135Z AUTO 33006KT 10SM CLR 19/16 A3010 RMK AO2=
KCIN 081135Z AUTO 00000KT 7SM CLR 17/15 A3015 RMK AO2=
KCNC 081135Z AUTO 36006KT 7SM CLR 20/18 A3010 RMK AO2=
KCSQ 081135Z AUTO 01007KT 10SM CLR 20/18 A3012 RMK AO2=
KDEH 081135Z AUTO 33003KT 3 1/2SM SCT006 21/18 A3010 RMK AO2=
####018000080####
SACN95 KWBC 081142
METAR CWWA 081130Z AUTO 36002KT 19/09 RMK AO1 T01930093=
####018001456####
SAUS99 KWBC 081142 RRB
METAR
KDNS 081135Z AUTO 36003KT 10SM CLR 19/16 A3018 RMK AO2=
KEOK 081135Z AUTO 00000KT 10SM CLR 22/19 A3004 RMK AO2=
KFFL 081135Z AUTO 31004KT 7SM CLR 22/20 A3007 RMK AO2=
KFSW 081135Z AUTO 33004KT 3/4SM OVC002 22/21 A3004 RMK AO2=
KFXY 081135Z AUTO 34004KT 10SM CLR 17/16 A3012 RMK AO2=
KGGI 081135Z AUTO 31003KT 5SM CLR 21/19 A3009 RMK AO2=
KHNR 081135Z AUTO 00000KT 4SM CLR 17/17 A3017 RMK AO2=
KI75 081135Z AUTO 35005KT 7SM CLR 20/18 A3009 RMK AO2 P0001=
KICL 081135Z AUTO 02003KT 7SM CLR 21/18 A3012 RMK AO2=
KIFA 081135Z AUTO 33006KT 10SM SCT110 20/18 A3011 RMK AO2=
KIIB 081135Z AUTO 33004KT 4SM CLR 20/19 A3007 RMK AO1=
KIKV 081135Z AUTO 36004KT 10SM CLR 21/18 A3010 RMK AO2=
KLRJ 081135Z AUTO 00000KT 2 1/2SM CLR 15/14 A3018 RMK AO2=
KMPZ 081135Z AUTO 32005KT 4SM OVC004 22/21 A3006 RMK AO2=
KMUT 081135Z AUTO 34006KT 4SM OVC008 23/22 A3005 RMK AO2=
KMXO 081135Z AUTO 30003KT 4SM SCT005 BKN015 21/19 A3006 RMK
     AO2=
KORC 081135Z AUTO 31004KT 7SM CLR 16/16 A3017 RMK AO2=
KOXV 081135Z AUTO 34003KT 10SM CLR 21/20 A3009 RMK AO2=
KPEA 081135Z AUTO 34004KT 7SM CLR 20/20 A3009 RMK AO2=
KRDK 081135Z AUTO 01004KT 7SM CLR 21/18 A3012 RMK AO2=
KSDA 081135Z AUTO 01006KT 7SM CLR 21/19 A3013 RMK AO2=
KSHL 081135Z AUTO 00000KT 2 1/2SM CLR 15/13 A3018 RMK AO2=
KTNU 081135Z AUTO 35008KT 10SM CLR 21/18 A3009 RMK AO2=
KVTI 081135Z AUTO 00000KT 4SM SCT003 20/20 A3007 RMK AO2=
####018000842####
SPUS99 KWBC 081142
SPECI
KLXV 081138Z AUTO 00000KT 3/4SM BR BKN002 05/05 A3052 RMK AO2
     TSNO=
KMIE 081139Z AUTO 19004KT 2 1/2SM HZ CLR 25/20 A3007 RMK AO2=
KSGF 081139Z 34003KT 6SM BR FEW004 23/22 A3007 RMK AO2 LTG DSNT
     N=
KSMQ 081139Z AUTO VRB03KT 4SM HZ BKN009 24/22 A3003 RMK AO2=
KCRP 081136Z 03013KT 2SM +TSRA BR SCT016CB BKN021 OVC048 26/25
     A2984 RMK AO2 SFC VIS 4 TSB32RAB27 OCNL LTGIC SE-S TS SE-S
     MOV W P0002 $=
KFVE 081139Z AUTO 16004KT 1 1/2SM BR OVC001 23/23 A3002 RMK
     AO2=
KARA 081140Z 07005KT 5SM BR SCT003 25/24 A3001 RMK AO2=
KDXR 081140Z 00000KT 1SM BR OVC001 23/23 A3008 RMK AO2=
KELZ 081140Z AUTO 00000KT 3SM BR CLR 21/19 A3016 RMK AO2=
KLHQ 081140Z AUTO 00000KT 2 1/2SM BR CLR 22/21 A3010 RMK AO2=
KUCP 081141Z AUTO 00000KT 1 1/2SM BR CLR 21/19 A3011 RMK AO2 $=
####018000338####
SPUS80 KWBC 081142
SPECI
KRFD 081138Z 25003KT 6SM BR SCT006 BKN022 OVC047 22/21 A3005 RMK
     AO2=
KLXV 081138Z AUTO 00000KT 3/4SM BR BKN002 05/05 A3052 RMK AO2
     TSNO=
KCRP 081136Z 03013KT 2SM +TSRA BR SCT016CB BKN021 OVC048 26/25
     A2984 RMK AO2 SFC VIS 4 TSB32RAB27 OCNL LTGIC SE-S TS SE-S
     MOV W P0002 $=
####018000632####
SAUS80 KWBC 081142
METAR
KTKV 081135Z AUTO 00000KT 5SM BR SCT003 SCT006 18/17 A3005 RMK AO2
     T01800174=
K3A6 081110Z AUTO 36003KT 11/10 A2988 RMK AO1 SLP138 T01120101
     10130 20110 58009=
KIKW 081134Z AUTO 00000KT 7SM OVC090 23/21 A3001 RMK AO2
     T02310212=
KLYV 081138Z AUTO 00000KT 10SM CLR 13/12 A3017 RMK AO2=
KROS 081135Z AUTO 00000KT 10SM CLR 16/15 A3008 RMK AO2
     T01560149=
KTKC 081133Z AUTO 25006KT 10SM CLR 16/13 A3015 RMK AO2
     T01580130=
K29G 081134Z AUTO 00000KT 5SM CLR 22/20 A3010 RMK AO2 T02200198
     PWINO=
KVTI 081135Z AUTO 00000KT 4SM SCT003 20/20 A3007 RMK AO2=
####018000345####
SAID31 WIII 081130
METAR WIMM 081130Z 05006KT 6000 FEW016CB FEW017 30/24 Q1008 NOSIG= 
METAR WIDD 081130Z 20005KT 9999 FEW017 28/25 Q1009= 
METAR WAAA 081130Z 18002KT CAVOK 26/25 Q1009= 
METAR WIII 081130Z 22003KT 25/23 Q1011= 
METAR WADD 081130Z 00000KT 9999 FEW018 28/25 Q1008 NOSIG= 
METAR WIHH NIL=
METAR WABB NIL=
METAR WARR NIL=
####018000103####
SAUS80 KWBC 081200
METAR
KSYN 081150Z AUTO 00000KT 7SM CLR 17/16 A3010 RMK AO2
     T01710159=
####018003705####
SAUS70 KWBC 081142
METAR
KBWD 081135Z AUTO 07003KT 10SM BKN020 OVC026 24/23 A3003 RMK
     AO2=
KDCM 081135Z AUTO 00000KT 7SM CLR 22/22 A3003 RMK AO2 LTG DSNT
     SE=
KHXD 081135Z AUTO 25007KT 010V020 10SM CLR 25/21 A3000 RMK AO2
     P0000=
KJZI 081135Z AUTO 27009KT 10SM CLR 26/24 A2997 RMK A02 P000=
KRPD 081134Z AUTO 00000KT 10SM CLR 18/17 A3009 RMK AO2
     T01800168=
KRRL 081135Z AUTO 00000KT 3/4SM BR OVC002 18/18 A3005 RMK AO2
     T01840179=
KRYV 081135Z AUTO 26003KT 5SM BR OVC005 22/20 A3003 RMK AO2=
KSPF 081135Z AUTO 23004KT 10SM CLR 11/07 A3029 RMK AO2=
KSTE 081135Z AUTO 35004KT 10SM OVC005 20/19 A3004 RMK AO2=
KSUW 081135Z AUTO 22006KT 10SM CLR 16/14 A3003 RMK AO2=
KUNU 081132Z AUTO 25005KT 5SM BR OVC006 21/20 A3004 RMK AO2
     T02060195=
KHZX 081131Z AUTO 00000KT 10SM CLR 14/13 A3007 RMK AO2=
KIRS 081135Z AUTO 00000KT 4SM BR CLR 22/21 A3005 RMK AO2=
KJKJ 081134Z AUTO 22003KT 10SM CLR 16/14 A3008 RMK AO2=
KJMR 081138Z AUTO 00000KT 10SM CLR 14/12 A3010 RMK AO2=
KJYG 081135Z AUTO 00000KT 10SM CLR 17/17 A3015 RMK AO2=
KJYM 081135Z AUTO 00000KT 5SM BR CLR 22/21 A3007 RMK AO2=
KLJF 081133Z AUTO 27004KT 10SM CLR 18/16 A3012 RMK AO2=
KLVN 081128Z AUTO 27005KT 10SM CLR 17/16 A3010 RMK AO2=
KLWA 081136Z AUTO 00000KT 10SM BKN044 BKN050 BKN095 23/21 A3003
     RMK AO2=
KLXL 081134Z AUTO 00000KT 3SM BR 13/12 A3009 RMK AO2 SKY
     OBSCURED=
KMDS 081125Z AUTO 26003KT 10SM CLR 14/14 A3018 RMK AO2=
KMGN 081135Z AUTO 26003KT 7SM -DZ SCT012 SCT055 OVC100 22/20 A2999
     RMK AO2=
KMJQ 081132Z AUTO 25003KT 7SM CLR 15/14 A3016 RMK AO2=
KMOP 081134Z AUTO 25004KT 10SM OVC085 23/23 A3002 RMK AO2=
KMVE 081134Z AUTO 29003KT 10SM CLR 16/14 A3011 RMK AO2=
KOEB 081135Z AUTO 00000KT 4SM BR CLR 23/21 A3006 RMK AO2=
KONA 081130Z AUTO 31005KT 10SM CLR 20/17 A3005 RMK AO2=
KOVL 081134Z AUTO 30003KT 7SM CLR 14/12 A3012 RMK AO2
     T01380124=
KOZW 081135Z AUTO 00000KT 7SM CLR 24/21 A3005 RMK AO2=
KPEX 081133Z AUTO 25004KT 5SM BR CLR 14/14 A3012 RMK AO2
     T01360135=
KRGK 081135Z AUTO 29003KT 10SM CLR 19/17 A3008 RMK AO2=
KRNP 081135Z AUTO 00000KT 10SM CLR 25/21 A3002 RMK AO2=
KROX 081134Z AUTO 22005KT 10SM SCT095 14/13 A3001 RMK AO2=
KRQB 081135Z AUTO 00000KT 7SM -RA BKN075 OVC090 22/21 A3003 RMK
     AO2=
KRRT 081134Z AUTO 22006KT 10SM CLR 14/12 A3001 RMK AO2=
KSAZ 081134Z AUTO 25005KT 10SM CLR 16/16 A3009 RMK AO2=
KSGS 081133Z AUTO 29003KT 10SM CLR 19/16 A3010 RMK AO2
     T01860164=
KTEW 081132Z AUTO 00000KT 7SM CLR 22/21 A3005 RMK AO2=
KTOB 081134Z AUTO 00000KT 10SM CLR 17/16 A3011 RMK AO2=
KUKT 081135Z AUTO 00000KT 5SM CLR 24/22 A3006 RMK AO1=
KVLL 081134Z AUTO 25003KT 10SM CLR 26/21 A3006 RMK AO2=
KVVV 081136Z AUTO 28004KT 10SM CLR 17/14 A3011 RMK AO2=
KY70 081135Z AUTO 00000KT 2 1/2SM BR SCT070 23/22 A3003 RMK AO2
     T02300220=
K4I3 081136Z AUTO 00000KT 5SM BR SCT060 20/19 A3010 RMK AO2=
KACB 081135Z AUTO 20003KT 5SM -RA SCT021 OVC070 23/21 A3000 RMK
     AO2=
KACQ 081139Z AUTO 30003KT 10SM CLR 16/15 A3013 RMK AO2=
KADC 081137Z AUTO 24004KT 10SM CLR 14/13 A3009 RMK AO2=
KAEL 081131Z AUTO 33003KT 10SM CLR 17/16 A3011 RMK AO2=
KANE 081135Z AUTO 26003KT 10SM 17/16 A3010 RMK AO2=
KAUM 081135Z AUTO 32006KT 7SM CLR 17/17 A3010 RMK AO2=
KBAX 081135Z AUTO 00000KT 5SM BR CLR 24/23 A3000 RMK AO2=
KBDH 081135Z AUTO 00000KT 7SM CLR 15/14 A3013 RMK AO2=
KCAD 081135Z AUTO 22007KT 5SM RA SCT048 BKN070 OVC090 22/21 A3003
     RMK AO2=
KCBG 081135Z AUTO 00000KT 10SM CLR 16/14 A3009 RMK AO2=
KCFE 081135Z AUTO 27003KT 10SM CLR 18/16 A3011 RMK AO2
     T01760161=
KCFS 081135Z AUTO 23004KT 7SM CLR 23/22 A3003 RMK AO2=
####018003566####
SAUS70 KWBC 081142 RRA
METAR
KCKC 081135Z AUTO 28005KT 10SM CLR 17/13 A3004 RMK AO2=
KCKN 081135Z AUTO 21004KT 10SM CLR 14/12 A3006 RMK AO2=
KCNB 081138Z AUTO 24005KT 10SM CLR 17/13 A3014 RMK AO2
     T01710133=
KCOQ 081136Z AUTO 27005KT 10SM CLR 16/16 A3006 RMK AO2=
KCQM 081137Z AUTO 24003KT 10SM CLR 16/14 A3004 RMK AO2=
KCVH 081130Z AUTO 00000KT 8SM OVC006 13/11 A2992 RMK AO1=
KDRM 081136Z AUTO 00000KT 1 3/4SM -RA BKN002 OVC100 20/20 A2996
     RMK AO2=
KDTL 081135Z AUTO 23003KT 10SM CLR 16/11 A3010 RMK AO2=
KDUH 081135Z AUTO 00000KT 10SM CLR 24/18 A3005 RMK AO2=
KDXX 081134Z AUTO 00000KT 10SM CLR 15/14 A3011 RMK AO2=
KEFK 081136Z AUTO 20004KT 5SM BR CLR 23/21 A3006 RMK AO2=
KELO 081133Z AUTO 22003KT 10SM CLR 14/14 A3002 RMK AO2=
KEVM 081132Z AUTO 00000KT 2 1/2SM BR CLR 13/12 A3002 RMK AO1 VIS 1
     3/4V4=
KFBL 081134Z AUTO 30003KT 10SM CLR 17/15 A3011 RMK AO2=
KFFX 081135Z AUTO 18003KT 2SM BR BKN004 BKN039 OVC080 22/22 A3003
     RMK AO2=
KFKA 081143Z AUTO 32008KT 10SM CLR 18/17 A3009 RMK AO2
     T01820174=
KFPK 081136Z AUTO 00000KT 5SM BR CLR 22/21 A3003 RMK AO2=
KFSE 081134Z AUTO 19005KT 10SM CLR 12/11 A3006 RMK AO2=
KFSO 081138Z AUTO 00000KT 5SM BR SCT060 SCT075 SCT090 26/23 A3001
     RMK AO2=
KGYL 081135Z AUTO 00000KT 10SM CLR 16/15 A3011 RMK AO2
     T01550145=
KHAF 081130Z AUTO 00000KT 9SM OVC006 12/11 A2993 RMK AO2=
KHAI 081135Z AUTO 00000KT 5SM BR CLR 22/21 A3005 RMK AO2=
KHCD 081132Z AUTO 00000KT 5SM BR CLR 14/13 A3012 RMK AO2
     T01380130=
KHCO 081134Z AUTO 25003KT 10SM SCT080 14/14 A3006 RMK AO2=
KFMH 081135Z AUTO 15008KT 10SM FEW009 SCT017 23/21 A3011 RMK
     AO2=
KAWG 081135Z AUTO 30003KT 5SM CLR 21/19 A3006 RMK AO2=
KAXA 081135Z AUTO 33005KT 10SM CLR 17/16 A3013 RMK AO2=
KBNW 081135Z AUTO 33006KT 10SM CLR 20/17 A3012 RMK AO2=
KCAV 081135Z AUTO 33003KT 7SM CLR 19/17 A3012 RMK AO2=
KCBF 081135Z AUTO 34004KT 10SM CLR 20/16 A3015 RMK AO2=
KCCY 081135Z AUTO 33006KT 10SM CLR 19/16 A3010 RMK AO2=
KCIN 081135Z AUTO 00000KT 7SM CLR 17/15 A3015 RMK AO2=
KCNC 081135Z AUTO 36006KT 7SM CLR 20/18 A3010 RMK AO2=
KCSQ 081135Z AUTO 01007KT 10SM CLR 20/18 A3012 RMK AO2=
KDEH 081135Z AUTO 33003KT 3 1/2SM SCT006 21/18 A3010 RMK AO2=
KDNS 081135Z AUTO 36003KT 10SM CLR 19/16 A3018 RMK AO2=
KEOK 081135Z AUTO 00000KT 10SM CLR 22/19 A3004 RMK AO2=
KFFL 081135Z AUTO 31004KT 7SM CLR 22/20 A3007 RMK AO2=
KFSW 081135Z AUTO 33004KT 3/4SM OVC002 22/21 A3004 RMK AO2=
KFXY 081135Z AUTO 34004KT 10SM CLR 17/16 A3012 RMK AO2=
KGGI 081135Z AUTO 31003KT 5SM CLR 21/19 A3009 RMK AO2=
KHNR 081135Z AUTO 00000KT 4SM CLR 17/17 A3017 RMK AO2=
KICL 081135Z AUTO 02003KT 7SM CLR 21/18 A3012 RMK AO2=
KIFA 081135Z AUTO 33006KT 10SM SCT110 20/18 A3011 RMK AO2=
KIIB 081135Z AUTO 33004KT 4SM CLR 20/19 A3007 RMK AO1=
KIKV 081135Z AUTO 36004KT 10SM CLR 21/18 A3010 RMK AO2=
KLRJ 081135Z AUTO 00000KT 2 1/2SM CLR 15/14 A3018 RMK AO2=
KMPZ 081135Z AUTO 32005KT 4SM OVC004 22/21 A3006 RMK AO2=
KMUT 081135Z AUTO 34006KT 4SM OVC008 23/22 A3005 RMK AO2=
KMXO 081135Z AUTO 30003KT 4SM SCT005 BKN015 21/19 A3006 RMK
     AO2=
KORC 081135Z AUTO 31004KT 7SM CLR 16/16 A3017 RMK AO2=
KOXV 081135Z AUTO 34003KT 10SM CLR 21/20 A3009 RMK AO2=
KPEA 081135Z AUTO 34004KT 7SM CLR 20/20 A3009 RMK AO2=
KRDK 081135Z AUTO 01004KT 7SM CLR 21/18 A3012 RMK AO2=
KSDA 081135Z AUTO 01006KT 7SM CLR 21/19 A3013 RMK AO2=
KSHL 081135Z AUTO 00000KT 2 1/2SM CLR 15/13 A3018 RMK AO2=
KTNU 081135Z AUTO 35008KT 10SM CLR 21/18 A3009 RMK AO2=
####018000103####
SAXX60 KWBC 081142
METAR
KMRT 081133Z AUTO 00000KT 4SM CLR 22/20 A3012 RMK AO2
     T02180196=
####018000094####
SAAF33 KWBC 081100 RRB
METAR
FWCL 081100Z 15012KT 9999 SCT030 BKN090 22/11 Q1026 NOSIG=
####018000893####
SPUS70 KWBC 081142
SPECI
KDEQ 081137Z AUTO 04003KT 9SM BKN005 OVC060 24/23 A3004 RMK
     AO2=
KLVJ 081139Z AUTO 14006KT 3SM RA BR BKN020 BKN044 OVC060 25/23
     A2993 RMK AO2 PK WND 13026/1101 TSB20E35RAB02 P0041=
PAKI 081136Z AUTO 36004KT 1/4SM FG CLR 07/07 A3001 RMK AO2 PWINO
     TSNO $=
KMIE 081139Z AUTO 19004KT 2 1/2SM HZ CLR 25/20 A3007 RMK AO2=
KSGF 081139Z 34003KT 6SM BR FEW004 23/22 A3007 RMK AO2 LTG DSNT
     N=
KSMQ 081139Z AUTO VRB03KT 4SM HZ BKN009 24/22 A3003 RMK AO2=
KFVE 081139Z AUTO 16004KT 1 1/2SM BR OVC001 23/23 A3002 RMK
     AO2=
KARA 081140Z 07005KT 5SM BR SCT003 25/24 A3001 RMK AO2=
KDXR 081140Z 00000KT 1SM BR OVC001 23/23 A3008 RMK AO2=
KELZ 081140Z AUTO 00000KT 3SM BR CLR 21/19 A3016 RMK AO2=
KLHQ 081140Z AUTO 00000KT 2 1/2SM BR CLR 22/21 A3010 RMK AO2=
KUCP 081141Z AUTO 00000KT 1 1/2SM BR CLR 21/19 A3011 RMK AO2 $=
####018000116####
SAAS31 KWBC 081130 RRB
METAR
VTBS 081130Z 17003KT 090V170 9999 FEW020 SCT120 BKN300 29/23 Q1006
     NOSIG=
####018000176####
SAAW34 KWBC 081115 RRE
METAR
UACP 081130Z NIL=
UADD 081130Z 33003MPS 300V010 9999 NSC 34/03 Q1013 NOSIG RMK
     QFE703/0937=
UAII 081130Z NIL=
UASP 081130Z NIL=
####018001446####
SAAU31 KWBC 081100 RRB
METAR
YBAS 081130Z AUTO 08007KT 9999NDV // NCD 10/06 Q1020=
YBBN 081130Z 19009KT 9999 FEW040 16/11 Q1020 NOSIG=
YBCG 081130Z AUTO 19010KT 9999NDV // BKN047 BKN105 15/13 Q1021=
YBCS 081130Z 18008KT 9999 FEW024 BKN035 23/19 Q1016=
YBMA 081130Z AUTO 00000KT 9999NDV // NCD 09/09 Q1020=
YBRK 081130Z 23003KT 9999 FEW008 BKN040 14/12 Q1020=
YBRM 081130Z 07005KT 9999 -DZ FEW024 BKN046 23/23 Q1012=
YBTL 081130Z 15006KT 9999 FEW015 SCT027 BKN040 22/20 Q1018=
YMHB 081130Z 31007KT CAVOK 03/02 Q1030=
YMML 081130Z NIL=
YPAD 081130Z 09005KT CAVOK 07/04 Q1026=
YPCC 081130Z AUTO 15009KT 9999NDV // SCT020 SCT025 BKN030 26/22
     Q1013=
YPDN 081130Z 03005KT CAVOK 25/20 Q1013=
YPEA 081130Z NIL=
YPLM 081130Z AUTO 22002KT 9999NDV // OVC027 21/17 Q1009=
YPPD 081130Z NIL=
YPPH 081130Z 01011KT 9999 FEW024 SCT082 14/13 Q0998 RMK WBD 0.7
     INTER 1130/1200 27025G35KT 3000 +SHRA BKN010 INTER 1200/1430
     27030G50KT 2000 TSGS BKN010 FEW030CB=
YPTN 081130Z AUTO 13005KT 9999NDV // OVC049 23/16 Q1015=
YPXM 081130Z NIL=
YSCB 081130Z AUTO 00000KT 9999NDV // NCD 04/03 Q1028=
YSDU 081130Z AUTO 07005KT 9999NDV // NCD 07/04 Q1026=
YSNF 081130Z 11011KT 9999 FEW018 BKN028 15/09 Q1018=
YSRI 081130Z NIL=
YSSY 081130Z 22013KT 9000 -SHRA FEW006 SCT020 BKN065 12/11 Q1027
     RMK VIS REDUCED TO NORTH FM1150 22010KT 9999 -SHRA SCT025
     BKN040 INTER 1150/1430 5000 SHRA BKN010=
####018000107####
SAPQ31 KWBC 081100 RRB
METAR
PKWA 081140Z AUTO 06014KT 10SM SCT011 SCT018 OVC049 25/23
     A2986=
####018000107####
SAPA41 KWBC 081100 RRB
METAR
PKWA 081140Z AUTO 06014KT 10SM SCT011 SCT018 OVC049 25/23
     A2986=
####018000223####
SAEE32 KWBC 081130 RRA
METAR
LRAR 081130Z 02006KT 320V080 9999 SCT036 23/14 Q1020=
LRTC 081130Z 34012KT 9999 FEW030CB BKN040 23/17 Q1015=
LRTM 081130Z 22006KT 190V260 9999 FEW016 SCT026 BKN031 18/14
     Q1020=
####018000111####
SAUS44 KLZK 081141
MTRMWT
SPECI KMWT 081140Z AUTO 00000KT 10SM FEW017 BKN024 23/23 A3006 RMK 
AO2 TSNO
####018000258####
SAEM31 KWBC 081130 RRB
METAR
LKMT 081130Z VRB05KT CAVOK 21/10 Q1023 NOSIG RMK REG QNH 1021=
LKPR 081130Z 33005KT 290V040 CAVOK 24/09 Q1023 NOSIG RMK REG QNH
     1021=
LKTB 081130Z 32005KT 260V020 CAVOK 24/08 Q1022 NOSIG RMK REG QNH
     1021=
####018000174####
SAID31 KWBC 081100 RRC
METAR
WAAA 081130Z 18002KT CAVOK 26/25 Q1009=
WIII 081130Z 22003KT 25/23 Q1011=
WIMM 081130Z 05006KT 6000 FEW016CB FEW017 30/24 Q1008 NOSIG=
####018000131####
SAPA31 KWBC 081100 RRD
METAR
PKWA 081140Z AUTO 06014KT 10SM SCT011 SCT018 OVC049 25/23 A2986
     RMK AO2 P0001 T02520234=
####018000174####
SARA31 KWBC 081100 RRK
METAR
UAFO 081130Z 02001MPS 9999 FEW050CB SCT100 34/12 Q1017 NOSIG RMK
     QFEM684=
UMBB 081130Z 29005G08MPS 8000 SCT030 23/12 Q1019 NOSIG=
####018000131####
SAXX62 KWBC 081100 RRD
METAR
PKWA 081140Z AUTO 06014KT 10SM SCT011 SCT018 OVC049 25/23 A2986
     RMK AO2 P0001 T02520234=
####018000087####
SAXX99 KWBC 081000 RRX
METAR
GMAD 081000Z 24003KT 8000 SCT020 26/18 Q1014 NOSIG=
####018000817####
SAXX99 KWBC 081100 RRX
METAR
LKKV 081130Z VRB05KT CAVOK 23/10 Q1023 RMK REG QNH 1021=
UACK 081130Z 33006G10MPS 9999 FEW053 BKN067 19/01 Q1011 02010070
     NOSIG RMK QFE734=
WADD 081130Z 00000KT 9999 FEW018 28/25 Q1008 NOSIG=
YAMB 081130Z AUTO 19007KT 9999NDV // SCT084 OVC100 15/11 Q1022=
YBHM 081130Z NIL=
YCIN 081130Z AUTO 11006KT //// // ////// 22/19 Q1013=
YFRT 081130Z NIL=
YMAV 081130Z AUTO 00000KT 9999NDV // OVC048 09/06 Q1028=
YMLT 081130Z AUTO 20004KT 9999NDV // BKN036 03/01 Q1030=
YPGV 081130Z 14008KT 9999 FEW014 SCT019 BKN350 24/22 Q1014=
YPKG 081130Z AUTO 36010KT 9999NDV // SCT070 BKN086 17/04 Q1004=
YPKU 081130Z AUTO 12006KT 9999NDV // NCD 23/15 Q1014=
YSTW 081130Z AUTO 15007KT 9999NDV // NCD 08/05 Q1024=
YWLM 081130Z AUTO 31005KT 9999NDV // ////// 11/10 Q1026=
####018000082####
SAUS43 KWBC 081100 RRJ
METAR
KPHN 081136Z AUTO 00000KT 7SM CLR 23/21 A3003=
####018000124####
SAUS43 KAPX 081142
MTRANJ
SPECI KANJ 081140Z AUTO 23005KT 2 1/2SM -RA BR OVC004 21/19 A2996 
RMK AO2 RAE08B29 P0000
####018001123####
SAAU32 YBBN 081130
METAR YAMB 081130Z AUTO 19007KT 9999NDV // SCT084 OVC100 15/11 Q1022=
METAR YMAV 081130Z AUTO 00000KT 9999NDV // OVC048 09/06 Q1028=
METAR YBRM 081130Z 07005KT 9999 -DZ FEW024 BKN046 23/23 Q1012=
METAR YCIN 081130Z AUTO 11006KT //// // ////// 22/19 Q1013=
METAR YSDU 081130Z AUTO 07005KT 9999NDV // NCD 07/04 Q1026=
METAR YFRT 081130Z NIL=
METAR YGEL 081130Z AUTO 33020KT 3400NDV // SCT014 BKN022 OVC039 16/15
Q1002=
METAR YPGV 081130Z 14008KT 9999 FEW014 SCT019 BKN350 24/22 Q1014=
METAR YBHM 081130Z NIL=
METAR YMHB 081130Z 31007KT CAVOK 03/02 Q1030=
METAR YPKG 081130Z AUTO 36010KT 9999NDV // SCT070 BKN086 17/04 Q1004=
METAR YMLT 081130Z AUTO 20004KT 9999NDV // BKN036 03/01 Q1030=
METAR YBMA 081130Z AUTO 00000KT 9999NDV // NCD 09/09 Q1020=
METAR YSNF 081130Z 11011KT 9999 FEW018 BKN028 15/09 Q1018=
METAR YPEA 081130Z NIL=
METAR YPPD 081130Z NIL=
METAR YSRI 081130Z NIL=
METAR YBRK 081130Z 23003KT 9999 FEW008 BKN040 14/12 Q1020=
METAR YWLM 081130Z AUTO 31005KT 9999NDV // ////// 11/10 Q1026=
METAR YPWR 081130Z AUTO 09006KT 9999NDV // NCD 07/M00 Q1023=
####018000124####
SAUS44 KCRP 081142
MTRVCT
SPECI KVCT 081140Z AUTO 00000KT 3SM RA BR BKN008 BKN019 OVC045 24/24 
A2990 RMK AO2 P0095
####018000083####
SACN88 CWAO 081100 RRE
WNS SA 1100 AUTO8 M M M 203/20/18/MMMM/M/ 3003 62MM=

####018000112####
SPCN46 CWAO 081140
SPECI CYVQ 081140Z 29004KT 30SM -SHRA FEW003 BKN040 BKN080 OVC270 RMK
SF1SC5AC2CI1=

####018000092####
SAAE31 VTBB 081130 RRD
METAR VTBU 081130Z 12002KT 9999 FEW020 BKN300 32/25 Q1007 A2974=
####018000236####
SPUS17 KAWN 081142 RRF
SPECI KHLR 081137Z AUTO 05003KT 10SM BKN013 BKN022 OVC047 25/ A3000
      RMK AO2 T0250 $=
SPECI KLTS 081134Z AUTO 02009KT 4SM R35L/4000VP6000FT +RA BR BKN013
      22/22 A3008 RMK AO2 RAB1110 SLP171 $=
####018000959####
SARS18 KAWN 081100 RRJ
METAR UHSS 081130Z 00000MPS 9999 BKN016 13/12 Q1011 NOSIG RMK MT OBSC
      QFE757/1010 01CLRD70=
METAR UIBB 081130Z 06004MPS 9999 BKN200 27/12 Q1006 NOSIG RMK QFE711/0949
      30CLRD60=
METAR UIII 081130Z 11002MPS CAVOK 21/13 Q1006 NOSIG RMK QFE712/0950
      12CLRD60=
METAR UMGG 081130Z 15003MPS 9999 BKN038CB BKN100 28/16 Q1014 R28/290550
      NOSIG=
METAR UMKK 081130Z 31008MPS P8000 FEW033 BKN200 22/15 Q1020 NOSIG RMK
      QFE 764 SC07=
METAR UMMM 081130Z 26006G09MPS 9999 OVC018 20/15 Q1015 R30/D NOSIG
      RMK QFE742=
METAR UMMS 081130Z 28002MPS 230V330 9999 BKN023 20/17 Q1015 R31/D NOSIG=
METAR UTAA 081130Z 09004MPS 060V120 9999 SKC 44/03 Q1007 NOSIG=
METAR UTSS 081130Z 07006MPS 9999 NSC 35/12 Q1010 R88/70D NOSIG=
METAR UWGG 081130Z 09003MPS 010V150 8000 FEW033 34/09 Q1016 NOSIG RMK
      QFE755 18090070=
METAR VTBD 081130Z 15006KT 9999 FEW020 SCT120 BKN300 30/23 Q1006 NOSIG=
####018000693####
SAUS20 KNKA 081142
METAR KASJ 081137Z AUTO 01003KT 2 1/2SM HZ CLR 26/23 A2998 RMK AO2=
METAR KBQP 081147Z AUTO 00000KT 1 1/2SM BR VV007 23/23 A3006 RMK 
     AO2=
METAR KCTZ 081140Z AUTO 00000KT 7SM CLR 25/21 A2995 RMK AO2=
METAR KCWV 081149Z AUTO 27003KT 10SM CLR 24/22 A3001 RMK AO2=
METAR KEBS 081135Z AUTO 33004KT 10SM CLR 18/16 A3012 RMK AO2=
SPECI KESF 081141Z AUTO 05003KT 6SM BR FEW011 23/23 A3004 RMK AO2=
METAR KFQD 081139Z AUTO 00000KT 10SM SCT100 22/18 A3006 RMK AO2=
METAR KO22 081135Z AUTO 00000KT 10SM CLR 15/12 A2990 RMK AO1 =
METAR KRHP 081142Z AUTO 00000KT 4SM BR CLR 18/17 A3014 RMK AO2=
METAR KTVK 081135Z AUTO 35003KT 10SM CLR 20/20 A3010 RMK AO2=
####018000079####
SACN88 CWAO 081131
WXI SA 1131 AUTO8 M M M 182/10/M/0406/M/M 8002 9MMM=

####018000110####
SAAE31 VTBB 081130 RRE
METAR VVTS 081130Z 00000KT 8000 TS SCT015 SCT017CB 29/24 Q1007
           NOSIG=
####018000126####
SAUS44 KMOB 081142 COR
MTRNSE
SPECI KNSE 081137Z 00000KT 1 1/2SM BR FEW001 SCT250 23/22 A3003 RMK 
AO2 VIS NE-E 3/4 $
####018000567####
SAUS20 KNKA 081142
SPECI KCEW 081140Z AUTO 00000KT 5SM BR SCT001 22/21 A3004 RMK AO2=
SPECI KEMP 081141Z AUTO 33006KT 6SM BR SCT006 22/20 A3009 RMK AO2=
SPECI KFVE 081141Z AUTO 17004KT 2SM BR OVC001 23/23 A3002 RMK AO2=
SPECI KGLD 081141Z AUTO 00000KT 10SM BKN004 OVC120 17/16 A3029 RMK 
    AO2 CIG 003V009=
SPECI KGON 081141Z 12003KT 5SM HZ BKN006 OVC017 24/21 A3008 RMK AO2=
SPECI KHWV 081141Z AUTO 14007KT 8SM OVC011 25/23 A3007 RMK AO2=
SPECI KMKE 081141Z 28006KT 6SM BR BKN007 BKN013 OVC018 23/21 A3002 
    RMK AO2 RAE21 CIG 005V009 P0000=
####018000596####
SPUS99 KWBC 081143
SPECI
KESF 081141Z AUTO 05003KT 6SM BR FEW011 23/23 A3004 RMK AO2=
KCEW 081140Z AUTO 00000KT 5SM BR SCT001 22/21 A3004 RMK AO2=
KEMP 081141Z AUTO 33006KT 6SM BR SCT006 22/20 A3009 RMK AO2=
KFVE 081141Z AUTO 17004KT 2SM BR OVC001 23/23 A3002 RMK AO2=
KGLD 081141Z AUTO 00000KT 10SM BKN004 OVC120 17/16 A3029 RMK AO2
     CIG 003V009=
KGON 081141Z 12003KT 5SM HZ BKN006 OVC017 24/21 A3008 RMK AO2=
KHWV 081141Z AUTO 14007KT 8SM OVC011 25/23 A3007 RMK AO2=
KMKE 081141Z 28006KT 6SM BR BKN007 BKN013 OVC018 23/21 A3002 RMK
     AO2 RAE21 CIG 005V009 P0000=
####018000569####
SAUS99 KWBC 081143
METAR
KASJ 081137Z AUTO 01003KT 2 1/2SM HZ CLR 26/23 A2998 RMK AO2=
KBQP 081147Z AUTO 00000KT 1 1/2SM BR VV007 23/23 A3006 RMK AO2=
KCTZ 081140Z AUTO 00000KT 7SM CLR 25/21 A2995 RMK AO2=
KCWV 081149Z AUTO 27003KT 10SM CLR 24/22 A3001 RMK AO2=
KEBS 081135Z AUTO 33004KT 10SM CLR 18/16 A3012 RMK AO2=
KFQD 081139Z AUTO 00000KT 10SM SCT100 22/18 A3006 RMK AO2=
KO22 081135Z AUTO 00000KT 10SM CLR 15/12 A2990 RMK AO1=
KRHP 081142Z AUTO 00000KT 4SM BR CLR 18/17 A3014 RMK AO2=
KTVK 081135Z AUTO 35003KT 10SM CLR 20/20 A3010 RMK AO2=
####018000082####
SACY42 EGRR 081050
METAR LCRA 081050Z AUTO 22011KT 9999NDV // NCD 28/21 Q1008=
####018000088####
SPUS41 KWBC 081143
SPECI
KFVE 081139Z AUTO 16004KT 1 1/2SM BR OVC001 23/23 A3002=
####018000079####
SPUS43 KWBC 081143
SPECI
KSGF 081139Z 34003KT 6SM BR FEW004 23/22 A3007=
####018000084####
SPUS51 KWBC 081143
SPECI
KSMQ 081139Z AUTO VRB03KT 4SM HZ BKN009 24/22 A3003=
####018000103####
SPUS52 KWBC 081143
SPECI
KVCT 081140Z AUTO 00000KT 3SM RA BR BKN008 BKN019 OVC045 24/24
A2990=
####018001595####
SPZZ40 KAWN 081142 RRJ
SPECI CYJT 081137Z 09005KT 8SM -SHRA BKN015 OVC030 RMK SC6SC2=
SPECI CYPH 081140Z AUTO 25015KT 9SM OVC003 07/06 A2981=
SPECI CYSB 081139Z 19004KT 1/2SM R22/2600V4500FT/U FG VV002 RMK FG8=
SPECI CYUA 081138Z AUTO 25004KT 7SM -DZ FEW009 OVC013 06/ A3007=
SPECI CYUS 081140Z AUTO ///// 9SM FEW094 12/ A2979=
SPECI CYZE 081141Z AUTO 18006KT 4SM BR BKN004 BKN150 20/20 A2997 RMK
      SLP149 DENSITY ALT 1300FT=
SPECI KEGI 081139Z AUTO 00000KT 2SM BR CLR 22/22 A3003 RMK AO2 VIS
      1 1/4V5 SLP170 $=
SPECI KEGI 081140Z AUTO 00000KT 2 1/2SM BR CLR 22/22 A3003 RMK AO2
      VIS 1 1/4V5 SLP170 $=
SPECI KHLR 081137Z AUTO 05003KT 10SM BKN013 BKN022 OVC047 25/ A3000
      RMK AO2 T0250 $=
SPECI KNQI 081134Z COR 02005KT 10SM TS SCT014CB BKN140 BKN280 27/24
      A2983 RMK AO2 OCNL LTGICCG NE-SE TSB28RAE19 TS NE-SE MOV W
      P0006 $=
SPECI KSLI 081139Z AUTO 00000KT 10SM OVC015 17/14 A2990 RMK AO2 SLP125=
SPECI KSZL 081135Z 00000KT 4SM BR OVC003 23/22 A3006 RMK AO2A SLP173
      $=
SPECI KTIK 081136Z AUTO 36004KT 10SM FEW007 OVC013 23/22 A3006 RMK
      AO2 SLP166 $=
SPECI OMAL 081132Z 12013G35KT 100V300 1400 R01/1500D R19/1000V1500D
      TSRA SCT045CB 37/25 Q1001 /A2957/ WIND RWY19 16013G38KT=
SPECI RJCC 081136Z 19005KT 160V250 1700 -DZ BR BKN002 17/17 Q1011 RMK
      7ST002 A2986=
SPECI RJCK 081139Z 22004KT 0300 R17/0900V1400D FG VV001 16/15 Q1011
      REDZ RMK A2986=
SPECI RKJK 081140Z 12009KT 2800 R36/0800V1200 -RA BR BKN065 24/22 A2979
      RMK AO2A RAB1116DZB1103E1116 CLDS LWR RWY18 SLP087 $=
####018000103####
SPUS72 KWBC 081143
SPECI
KVCT 081140Z AUTO 00000KT 3SM RA BR BKN008 BKN019 OVC045 24/24
A2990=
####018000075####
SACN96 CWAO 081140
WZQ SA 1140 AUTO8 M M M M/23/17/1808/M/M M 36MM=

####018000079####
SPUS73 KWBC 081143
SPECI
KSGF 081139Z 34003KT 6SM BR FEW004 23/22 A3007=
####018000092####
SPUS81 KWBC 081143
SPECI
KANJ 081140Z AUTO 23005KT 2 1/2SM -RA BR OVC004 21/19 A2996=
####018000089####
SPUS81 KWBC 081143
SPECI
KMWT 081140Z AUTO 00000KT 10SM FEW017 BKN024 23/23 A3006=
####018000103####
SPUS81 KWBC 081143
SPECI
KVCT 081140Z AUTO 00000KT 3SM RA BR BKN008 BKN019 OVC045 24/24
A2990=
####018000171####
SAUS17 KAWN 081100 RRG
METAR KFMH 081135Z AUTO 15008KT 10SM FEW009 SCT017 23/21 A3011 RMK
      AO2=
METAR KIWA 081136Z AUTO 15004KT 10SM CLR 29/04 A2981 RMK AO2=
####018000081####
SAEW KAWN 081000 RRR
METAR EBDT 081025Z 25006KT 9999 FEW160 29/09 Q1019 BLU=
####018000541####
SAMS31 WMKK 081130
METAR 081130Z
METAR WBGG 081130Z 22003KT 9999 -TSRA FEW015CB SCT020 BKN150 25/24 
Q1011
     NOSIG=
METAR WBKK 081130Z 10006KT 9999 FEW014 SCT140 BKN270 25/23 Q1009 
NOSIG=
METAR WBSB 081130Z 15006KT 9999 -RA FEW005 FEW016CB BKN150 25/25 
Q1009 RETS
     TEMPO -SHRA=
METAR WMKK 081130Z 19003KT 9999 FEW018 BKN280 28/25 Q1008 NOSIG=
METAR WMKP 081130Z 24004KT 9999 FEW020 BKN280 29/25 Q1009 NOSIG=
METAR WSSL NIL=
METAR WSSS 081130Z 20004KT 180V240 9999 -RA FEW016 BKN180 28/25 Q1009
 NOSIG=
####018002707####
SAUS20 KNKA 081143
METAR KHBI 081141Z AUTO 00000KT 10SM CLR 24/18 A3004 RMK AO2=
METAR KHRJ 081141Z AUTO 00000KT 5SM HZ CLR 27/21 A2997 RMK AO2=
METAR KHYX 081135Z AUTO 28004KT 10SM -RA SCT085 OVC110 23/21 A3001
     RMK AO2=
METAR KISQ 081136Z AUTO 34003KT 2SM -RA OVC002 19/17 A2998 RMK
     AO2=
SPECI KJLN 081142Z 01005KT 10SM SCT003 BKN024 OVC100 22/22 A3006 RMK 
    AO2 TSE1056 LTG DSNT N=
METAR KJNX 081139Z AUTO 00000KT 7SM CLR 25/20 A2997 RMK AO2=
METAR KJYL 081141Z AUTO 00000KT 10SM CLR 24/22 A3001 RMK AO2=
METAR KLDM 081136Z AUTO 20007KT 4SM RA SCT007 BKN023 OVC080 22/21
     A3002 RMK AO2 P0005=
SPECI KLEB 081142Z 00000KT 3SM BR BKN013 24/22 A3007 RMK AO2=
METAR KLWB 081140Z AUTO 00000KT 4SM BR CLR 21/18 A3017 RMK AO2=
SPECI KLWD 081142Z AUTO 01007KT 7SM SCT007 21/20 A3010 RMK AO2=
METAR KMCD 081136Z AUTO 24003KT 5SM -RA OVC007 21/18 A2998 RMK
     AO2=
SPECI KMFE 081142Z 35008KT 10SM BKN008 BKN014 OVC032 26/24 A2981 RMK 
    AO2 CIG 005V011=
METAR KMQI 081136Z AUTO 07007KT 10SM SCT011 26/23 A2997 RMK AO2=
METAR KMWK 081142Z AUTO 00000KT 5SM HZ CLR 24/19 A3006 RMK AO2=
METAR KMZH 081131Z AUTO 00000KT 10SM CLR 14/13 A3005 RMK AO2=
METAR KONZ 081137Z AUTO 00000KT 10SM SCT075 26/21 A3003 RMK
     AO2=
METAR KORB 081134Z AUTO 00000KT 10SM CLR 14/13 A3000 RMK AO2=
METAR KOSC 081134Z AUTO 22004KT 7SM CLR 23/21 A3000 RMK AO2=
METAR KOWA 081134Z AUTO 30004KT 10SM CLR 17/16 A3010 RMK AO2=
METAR KPGV 081140Z AUTO 02003KT 3SM BR SCT110 24/23 A2997 RMK AO2=
METAR KPHN 081136Z AUTO 00000KT 7SM CLR 23/21 A3003 RMK AO2=
SPECI KPIA 081142Z 22003KT 3SM BR SCT004 BKN008 OVC014 23/22 A3004 
    RMK AO2 CIG 006V011=
METAR KPZQ 081135Z AUTO 24003KT 10SM OVC100 22/22 A2998 RMK
     AO2=
SPECI KRFD 081138Z 25003KT 6SM BR SCT006 BKN022 OVC047 22/21 A3005
     RMK AO2=
METAR KRMY 081136Z AUTO 00000KT 7SM CLR 22/20 A3005 RMK AO2=
METAR KSJX 081136Z AUTO 24009KT 2SM DZ OVC002 20/18 A2999 RMK
     AO2=
METAR KSLH 081135Z AUTO 24003KT 7SM RA SCT013 OVC110 22/21 A2997
     RMK AO2=
METAR KTNB 081141Z AUTO 00000KT 7SM CLR 17/15 A3021 RMK AO2=
SPECI KTOP 081142Z 30003KT 10SM FEW009 22/20 A3008 RMK AO2=
METAR KTTF 081133Z AUTO 00000KT 10SM CLR 24/21 A3003 RMK AO2=
SPECI KUIN 081142Z AUTO 29003KT 3SM BR BKN001 OVC008 23/22 A3005 RMK 
    AO2=
METAR KUKF 081141Z AUTO 00000KT 5SM CLR 21/19 A3008 RMK AO1=
METAR KUNV 081140Z AUTO 00000KT 7SM CLR 21/19 A3010 RMK AO2 
     T02140192=
SPECI KVAY 081142Z AUTO 00000KT 3/4SM BR BKN002 OVC006 24/23 A3003 
    RMK AO2=
METAR KVWU 081131Z AUTO 26008KT 10SM CLR 18/14 A3003 RMK AO2=
METAR KXVG 081136Z AUTO 00000KT 10SM CLR 16/15 A3005 RMK AO2=
####018002952####
SAUS20 KNKA 081143
METAR K0R3 081139Z AUTO 06003KT 5SM BR SCT003 SCT007 25/25 A3000 
     RMK AO2=
METAR K1A5 081140Z AUTO 00000KT 1/4SM FG OVC001 17/16 A3017 RMK 
     AO2 T01700160=
METAR K3I2 081140Z AUTO 00000KT 4SM BR OVC001 20/19 A3010 RMK AO2=
METAR K3J7 081140Z AUTO 00000KT 10SM CLR 23/21 A3000 RMK AO2=
METAR K47A 081140Z AUTO 00000KT 10SM CLR 22/18 A3007 RMK AO2 LTG 
     DSNT SW T02180176=
METAR KACP 081139Z AUTO 00000KT 4SM BR CLR 24/24 A3002 RMK AO2=
METAR KAMN 081136Z AUTO 00000KT 3SM BR BKN100 23/22 A3001 RMK
     AO2=
METAR KAQP 081133Z AUTO 00000KT 10SM CLR 13/13 A3011 RMK AO2=
METAR KAVC 081140Z AUTO 00000KT 5SM HZ CLR 27/20 A3004 RMK AO2=
METAR KAYS 081140Z AUTO 00000KT 10SM CLR 22/22 A3002 RMK AO1=
METAR KBFW 081133Z AUTO 30003KT 10SM CLR 18/14 A3001 RMK AO2=
METAR KBGE 081140Z AUTO 00000KT M1/4SM FG OVC001 21/21 A3003 RMK 
     AO2=
METAR KBIJ 081140Z AUTO 00000KT 10SM CLR 21/ A3003 RMK AO2=
SPECI KBJJ 081142Z AUTO 00000KT 2SM BR CLR 21/19 A3011 RMK AO2=
METAR KBQK 081137Z AUTO 27005KT 10SM CLR 22/22 A3001 RMK AO1 
     T02240216 PNO=
METAR KCCO 081140Z AUTO 00000KT 4SM CLR 21/20 A3007 RMK AO1=
METAR KCDA 081135Z AUTO 00000KT 5SM HZ SCT060 22/19 A3011 RMK
     AO2=
METAR KCDD 081131Z AUTO 20003KT 10SM CLR 17/17 A3003 RMK AO2=
METAR KCDH 081140Z AUTO 00000KT 7SM FEW002 22/22 A3006 RMK AO2=
METAR KCPK 081140Z AUTO 00000KT 7SM SCT009 BKN110 25/23 A2998 RMK 
     AO2=
METAR KCTJ 081140Z AUTO 00000KT 10SM CLR 22/20 A3008 RMK AO2 
     T02230201=
METAR KCVX 081135Z AUTO 25005KT 7SM -RA SCT017 BKN070 OVC110 21/20
     A3001 RMK AO2=
SPECI KDBQ 081142Z 30004KT 6SM BR SCT003 OVC016 21/20 A3007 RMK AO2=
METAR KDPL 081140Z AUTO 00000KT 5SM HZ CLR 27/22 A2995 RMK AO2=
METAR KDVP 081136Z AUTO 27003KT 10SM CLR 15/13 A3018 RMK AO2
     T01510128=
METAR KEDE 081136Z AUTO 07004KT 2 1/2SM BR SCT015 26/24 A2997 RMK 
     AO2=
METAR KEMV 081137Z AUTO 03004KT 4SM BR SCT075 25/23 A2999 RMK AO2=
METAR KERY 081135Z AUTO 35004KT 1 1/4SM -DZ OVC003 19/18 A2999 RMK
     AO2=
METAR KETH 081134Z AUTO 23004KT 10SM CLR 17/15 A3011 RMK AO2=
METAR KEXX 081139Z AUTO 00000KT 7SM CLR 23/19 A3002 RMK AO2=
METAR KEZF 081138Z AUTO 09003KT 5SM BR CLR 28/26 A2999 RMK AO2 
     T02760257=
METAR KF24 081139Z AUTO 5SM BR CLR 24/23 A3009 RMK AO2 T02400229=
METAR KFKN 081140Z AUTO 36004KT 2SM BKN075 26/24 A2999 RMK AO1=
METAR KFKS 081135Z AUTO 26006KT 5SM -RA BKN006 BKN012 OVC065 21/20
     A3002 RMK AO2=
SPECI KFNB 081142Z AUTO 35008KT 8SM SCT019 21/19 A3010 RMK AO2=
SPECI KFOK 081142Z 12005KT 10SM SCT004 OVC013 24/21 A3008 RMK AO2=
METAR KFOZ 081133Z AUTO 00000KT 5SM BR CLR 13/13 A3005 RMK AO2=
METAR KFYJ 081141Z AUTO 00000KT 4SM CLR 27/25 A3001 RMK AO1=
METAR KGEV 081141Z AUTO 00000KT 7SM SCT070 SCT080 22/18 A3020 RMK 
     AO2=
METAR KGOV 081135Z AUTO 23004KT 10SM DZ BKN070 OVC100 22/21 A3003
     RMK AO2=
####018000138####
SAUS44 KMAF 081143
MTRGDP
SPECI KGDP 081142Z AUTO 05026KT 4SM BR FEW001 BKN005 OVC095 16/16 
A3021 RMK AO2 PK WND 04030/1128 TSNO
####018000418####
SPUS90 KWBC 081144
SPECI KMWT 081140Z AUTO 00000KT 10SM FEW017 BKN024 23/23 A3006 RMK
     AO2 TSNO=
SPECI KANJ 081140Z AUTO 23005KT 2 1/2SM -RA BR OVC004 21/19 A2996
     RMK AO2 RAE08B29 P0000=
SPECI KVCT 081140Z AUTO 00000KT 3SM RA BR BKN008 BKN019 OVC045
     24/24 A2990 RMK AO2 P0095=
SPECI KGDP 081142Z AUTO 05026KT 4SM BR FEW001 BKN005 OVC095 16/16
     A3021 RMK AO2 PK WND 04030/1128 TSNO=
####018003708####
SAUS99 KWBC 081144
METAR
KHBI 081141Z AUTO 00000KT 10SM CLR 24/18 A3004 RMK AO2=
KHRJ 081141Z AUTO 00000KT 5SM HZ CLR 27/21 A2997 RMK AO2=
KHYX 081135Z AUTO 28004KT 10SM -RA SCT085 OVC110 23/21 A3001 RMK
     AO2=
KISQ 081136Z AUTO 34003KT 2SM -RA OVC002 19/17 A2998 RMK AO2=
KJNX 081139Z AUTO 00000KT 7SM CLR 25/20 A2997 RMK AO2=
KJYL 081141Z AUTO 00000KT 10SM CLR 24/22 A3001 RMK AO2=
KLDM 081136Z AUTO 20007KT 4SM RA SCT007 BKN023 OVC080 22/21 A3002
     RMK AO2 P0005=
KLWB 081140Z AUTO 00000KT 4SM BR CLR 21/18 A3017 RMK AO2=
KMCD 081136Z AUTO 24003KT 5SM -RA OVC007 21/18 A2998 RMK AO2=
KMQI 081136Z AUTO 07007KT 10SM SCT011 26/23 A2997 RMK AO2=
KMWK 081142Z AUTO 00000KT 5SM HZ CLR 24/19 A3006 RMK AO2=
KMZH 081131Z AUTO 00000KT 10SM CLR 14/13 A3005 RMK AO2=
KONZ 081137Z AUTO 00000KT 10SM SCT075 26/21 A3003 RMK AO2=
KORB 081134Z AUTO 00000KT 10SM CLR 14/13 A3000 RMK AO2=
KOSC 081134Z AUTO 22004KT 7SM CLR 23/21 A3000 RMK AO2=
KOWA 081134Z AUTO 30004KT 10SM CLR 17/16 A3010 RMK AO2=
KPGV 081140Z AUTO 02003KT 3SM BR SCT110 24/23 A2997 RMK AO2=
KPHN 081136Z AUTO 00000KT 7SM CLR 23/21 A3003 RMK AO2=
KPZQ 081135Z AUTO 24003KT 10SM OVC100 22/22 A2998 RMK AO2=
KRMY 081136Z AUTO 00000KT 7SM CLR 22/20 A3005 RMK AO2=
KSJX 081136Z AUTO 24009KT 2SM DZ OVC002 20/18 A2999 RMK AO2=
KSLH 081135Z AUTO 24003KT 7SM RA SCT013 OVC110 22/21 A2997 RMK
     AO2=
KTNB 081141Z AUTO 00000KT 7SM CLR 17/15 A3021 RMK AO2=
KTTF 081133Z AUTO 00000KT 10SM CLR 24/21 A3003 RMK AO2=
KUKF 081141Z AUTO 00000KT 5SM CLR 21/19 A3008 RMK AO1=
KUNV 081140Z AUTO 00000KT 7SM CLR 21/19 A3010 RMK AO2
     T02140192=
KVWU 081131Z AUTO 26008KT 10SM CLR 18/14 A3003 RMK AO2=
KXVG 081136Z AUTO 00000KT 10SM CLR 16/15 A3005 RMK AO2=
K0R3 081139Z AUTO 06003KT 5SM BR SCT003 SCT007 25/25 A3000 RMK
     AO2=
K1A5 081140Z AUTO 00000KT 1/4SM FG OVC001 17/16 A3017 RMK AO2
     T01700160=
K3I2 081140Z AUTO 00000KT 4SM BR OVC001 20/19 A3010 RMK AO2=
K3J7 081140Z AUTO 00000KT 10SM CLR 23/21 A3000 RMK AO2=
K47A 081140Z AUTO 00000KT 10SM CLR 22/18 A3007 RMK AO2 LTG DSNT SW
     T02180176=
KACP 081139Z AUTO 00000KT 4SM BR CLR 24/24 A3002 RMK AO2=
KAMN 081136Z AUTO 00000KT 3SM BR BKN100 23/22 A3001 RMK AO2=
KAQP 081133Z AUTO 00000KT 10SM CLR 13/13 A3011 RMK AO2=
KAVC 081140Z AUTO 00000KT 5SM HZ CLR 27/20 A3004 RMK AO2=
KAYS 081140Z AUTO 00000KT 10SM CLR 22/22 A3002 RMK AO1=
KBFW 081133Z AUTO 30003KT 10SM CLR 18/14 A3001 RMK AO2=
KBGE 081140Z AUTO 00000KT M1/4SM FG OVC001 21/21 A3003 RMK AO2=
KBIJ 081140Z AUTO 00000KT 10SM CLR 21/ A3003 RMK AO2=
KBQK 081137Z AUTO 27005KT 10SM CLR 22/22 A3001 RMK AO1 T02240216
     PNO=
KCCO 081140Z AUTO 00000KT 4SM CLR 21/20 A3007 RMK AO1=
KCDA 081135Z AUTO 00000KT 5SM HZ SCT060 22/19 A3011 RMK AO2=
KCDD 081131Z AUTO 20003KT 10SM CLR 17/17 A3003 RMK AO2=
KCDH 081140Z AUTO 00000KT 7SM FEW002 22/22 A3006 RMK AO2=
KCPK 081140Z AUTO 00000KT 7SM SCT009 BKN110 25/23 A2998 RMK
     AO2=
KCTJ 081140Z AUTO 00000KT 10SM CLR 22/20 A3008 RMK AO2
     T02230201=
KCVX 081135Z AUTO 25005KT 7SM -RA SCT017 BKN070 OVC110 21/20 A3001
     RMK AO2=
KDPL 081140Z AUTO 00000KT 5SM HZ CLR 27/22 A2995 RMK AO2=
KDVP 081136Z AUTO 27003KT 10SM CLR 15/13 A3018 RMK AO2
     T01510128=
KEDE 081136Z AUTO 07004KT 2 1/2SM BR SCT015 26/24 A2997 RMK
     AO2=
KEMV 081137Z AUTO 03004KT 4SM BR SCT075 25/23 A2999 RMK AO2=
KERY 081135Z AUTO 35004KT 1 1/4SM -DZ OVC003 19/18 A2999 RMK
     AO2=
KETH 081134Z AUTO 23004KT 10SM CLR 17/15 A3011 RMK AO2=
KEXX 081139Z AUTO 00000KT 7SM CLR 23/19 A3002 RMK AO2=
KEZF 081138Z AUTO 09003KT 5SM BR CLR 28/26 A2999 RMK AO2
     T02760257=
####018000080####
SACN96 KWBC 081144
METAR CWZQ 081140Z AUTO 18008KT 23/17 RMK AO1 T02330166=
####018000087####
SACN88 KWBC 081144
METAR CWXI 081131Z AUTO 04006KT 10/ RMK AO1 SLP182 T0099 58002=
####018000509####
SAUS99 KWBC 081144 RRA
METAR
KF24 081139Z AUTO 5SM BR CLR 24/23 A3009 RMK AO2 T02400229=
KFKN 081140Z AUTO 36004KT 2SM BKN075 26/24 A2999 RMK AO1=
KFKS 081135Z AUTO 26006KT 5SM -RA BKN006 BKN012 OVC065 21/20 A3002
     RMK AO2=
KFOZ 081133Z AUTO 00000KT 5SM BR CLR 13/13 A3005 RMK AO2=
KFYJ 081141Z AUTO 00000KT 4SM CLR 27/25 A3001 RMK AO1=
KGEV 081141Z AUTO 00000KT 7SM SCT070 SCT080 22/18 A3020 RMK
     AO2=
KGOV 081135Z AUTO 23004KT 10SM DZ BKN070 OVC100 22/21 A3003 RMK
     AO2=
####018000962####
SPUS99 KWBC 081144
SPECI
KJLN 081142Z 01005KT 10SM SCT003 BKN024 OVC100 22/22 A3006 RMK AO2
     TSE1056 LTG DSNT N=
KLEB 081142Z 00000KT 3SM BR BKN013 24/22 A3007 RMK AO2=
KLWD 081142Z AUTO 01007KT 7SM SCT007 21/20 A3010 RMK AO2=
KMFE 081142Z 35008KT 10SM BKN008 BKN014 OVC032 26/24 A2981 RMK AO2
     CIG 005V011=
KPIA 081142Z 22003KT 3SM BR SCT004 BKN008 OVC014 23/22 A3004 RMK
     AO2 CIG 006V011=
KRFD 081138Z 25003KT 6SM BR SCT006 BKN022 OVC047 22/21 A3005 RMK
     AO2=
KTOP 081142Z 30003KT 10SM FEW009 22/20 A3008 RMK AO2=
KUIN 081142Z AUTO 29003KT 3SM BR BKN001 OVC008 23/22 A3005 RMK
     AO2=
KVAY 081142Z AUTO 00000KT 3/4SM BR BKN002 OVC006 24/23 A3003 RMK
     AO2=
KBJJ 081142Z AUTO 00000KT 2SM BR CLR 21/19 A3011 RMK AO2=
KDBQ 081142Z 30004KT 6SM BR SCT003 OVC016 21/20 A3007 RMK AO2=
KFNB 081142Z AUTO 35008KT 8SM SCT019 21/19 A3010 RMK AO2=
KFOK 081142Z 12005KT 10SM SCT004 OVC013 24/21 A3008 RMK AO2=
####018000091####
SACY42 EGRR 081050 CCA
METAR COR LCRA 081050Z 22011KT 9999 FEW040TCU 28/21 Q1008 NOSIG=
####018000100####
SAMX55 MMIO 081200
METAR MMIO 081140Z 00000KT 8SM BKN012 OVC030 18/15 A3010 RMK
8/5// BINOVC= 
####018001015####
SPUS70 KWBC 081144
SPECI
KESF 081141Z AUTO 05003KT 6SM BR FEW011 23/23 A3004 RMK AO2=
KCEW 081140Z AUTO 00000KT 5SM BR SCT001 22/21 A3004 RMK AO2=
KFVE 081141Z AUTO 17004KT 2SM BR OVC001 23/23 A3002 RMK AO2=
KGLD 081141Z AUTO 00000KT 10SM BKN004 OVC120 17/16 A3029 RMK AO2
     CIG 003V009=
KGON 081141Z 12003KT 5SM HZ BKN006 OVC017 24/21 A3008 RMK AO2=
KHWV 081141Z AUTO 14007KT 8SM OVC011 25/23 A3007 RMK AO2=
KMKE 081141Z 28006KT 6SM BR BKN007 BKN013 OVC018 23/21 A3002 RMK
     AO2 RAE21 CIG 005V009 P0000=
KLEB 081142Z 00000KT 3SM BR BKN013 24/22 A3007 RMK AO2=
KMFE 081142Z 35008KT 10SM BKN008 BKN014 OVC032 26/24 A2981 RMK AO2
     CIG 005V011=
KTOP 081142Z 30003KT 10SM FEW009 22/20 A3008 RMK AO2=
KUIN 081142Z AUTO 29003KT 3SM BR BKN001 OVC008 23/22 A3005 RMK
     AO2=
KVAY 081142Z AUTO 00000KT 3/4SM BR BKN002 OVC006 24/23 A3003 RMK
     AO2=
KBJJ 081142Z AUTO 00000KT 2SM BR CLR 21/19 A3011 RMK AO2=
KFOK 081142Z 12005KT 10SM SCT004 OVC013 24/21 A3008 RMK AO2=
####018000913####
SAUS70 KWBC 081144 RRA
METAR
KEDE 081136Z AUTO 07004KT 2 1/2SM BR SCT015 26/24 A2997 RMK
     AO2=
KEMV 081137Z AUTO 03004KT 4SM BR SCT075 25/23 A2999 RMK AO2=
KERY 081135Z AUTO 35004KT 1 1/4SM -DZ OVC003 19/18 A2999 RMK
     AO2=
KETH 081134Z AUTO 23004KT 10SM CLR 17/15 A3011 RMK AO2=
KEXX 081139Z AUTO 00000KT 7SM CLR 23/19 A3002 RMK AO2=
KEZF 081138Z AUTO 09003KT 5SM BR CLR 28/26 A2999 RMK AO2
     T02760257=
KF24 081139Z AUTO 5SM BR CLR 24/23 A3009 RMK AO2 T02400229=
KFKN 081140Z AUTO 36004KT 2SM BKN075 26/24 A2999 RMK AO1=
KFKS 081135Z AUTO 26006KT 5SM -RA BKN006 BKN012 OVC065 21/20 A3002
     RMK AO2=
KFOZ 081133Z AUTO 00000KT 5SM BR CLR 13/13 A3005 RMK AO2=
KFYJ 081141Z AUTO 00000KT 4SM CLR 27/25 A3001 RMK AO1=
KGEV 081141Z AUTO 00000KT 7SM SCT070 SCT080 22/18 A3020 RMK
     AO2=
KGOV 081135Z AUTO 23004KT 10SM DZ BKN070 OVC100 22/21 A3003 RMK
     AO2=
####018003677####
SAUS70 KWBC 081144
METAR
KASJ 081137Z AUTO 01003KT 2 1/2SM HZ CLR 26/23 A2998 RMK AO2=
KCTZ 081140Z AUTO 00000KT 7SM CLR 25/21 A2995 RMK AO2=
KEBS 081135Z AUTO 33004KT 10SM CLR 18/16 A3012 RMK AO2=
KFQD 081139Z AUTO 00000KT 10SM SCT100 22/18 A3006 RMK AO2=
KO22 081135Z AUTO 00000KT 10SM CLR 15/12 A2990 RMK AO1=
KRHP 081142Z AUTO 00000KT 4SM BR CLR 18/17 A3014 RMK AO2=
KTVK 081135Z AUTO 35003KT 10SM CLR 20/20 A3010 RMK AO2=
KFMH 081135Z AUTO 15008KT 10SM FEW009 SCT017 23/21 A3011 RMK
     AO2=
KIWA 081136Z AUTO 15004KT 10SM CLR 29/04 A2981 RMK AO2=
KHBI 081141Z AUTO 00000KT 10SM CLR 24/18 A3004 RMK AO2=
KHRJ 081141Z AUTO 00000KT 5SM HZ CLR 27/21 A2997 RMK AO2=
KHYX 081135Z AUTO 28004KT 10SM -RA SCT085 OVC110 23/21 A3001 RMK
     AO2=
KISQ 081136Z AUTO 34003KT 2SM -RA OVC002 19/17 A2998 RMK AO2=
KJYL 081141Z AUTO 00000KT 10SM CLR 24/22 A3001 RMK AO2=
KLDM 081136Z AUTO 20007KT 4SM RA SCT007 BKN023 OVC080 22/21 A3002
     RMK AO2 P0005=
KLWB 081140Z AUTO 00000KT 4SM BR CLR 21/18 A3017 RMK AO2=
KMCD 081136Z AUTO 24003KT 5SM -RA OVC007 21/18 A2998 RMK AO2=
KMQI 081136Z AUTO 07007KT 10SM SCT011 26/23 A2997 RMK AO2=
KMWK 081142Z AUTO 00000KT 5SM HZ CLR 24/19 A3006 RMK AO2=
KMZH 081131Z AUTO 00000KT 10SM CLR 14/13 A3005 RMK AO2=
KONZ 081137Z AUTO 00000KT 10SM SCT075 26/21 A3003 RMK AO2=
KORB 081134Z AUTO 00000KT 10SM CLR 14/13 A3000 RMK AO2=
KOSC 081134Z AUTO 22004KT 7SM CLR 23/21 A3000 RMK AO2=
KOWA 081134Z AUTO 30004KT 10SM CLR 17/16 A3010 RMK AO2=
KPGV 081140Z AUTO 02003KT 3SM BR SCT110 24/23 A2997 RMK AO2=
KPHN 081136Z AUTO 00000KT 7SM CLR 23/21 A3003 RMK AO2=
KRMY 081136Z AUTO 00000KT 7SM CLR 22/20 A3005 RMK AO2=
KSJX 081136Z AUTO 24009KT 2SM DZ OVC002 20/18 A2999 RMK AO2=
KSLH 081135Z AUTO 24003KT 7SM RA SCT013 OVC110 22/21 A2997 RMK
     AO2=
KTNB 081141Z AUTO 00000KT 7SM CLR 17/15 A3021 RMK AO2=
KTTF 081133Z AUTO 00000KT 10SM CLR 24/21 A3003 RMK AO2=
KUKF 081141Z AUTO 00000KT 5SM CLR 21/19 A3008 RMK AO1=
KUNV 081140Z AUTO 00000KT 7SM CLR 21/19 A3010 RMK AO2
     T02140192=
KVWU 081131Z AUTO 26008KT 10SM CLR 18/14 A3003 RMK AO2=
KXVG 081136Z AUTO 00000KT 10SM CLR 16/15 A3005 RMK AO2=
K0R3 081139Z AUTO 06003KT 5SM BR SCT003 SCT007 25/25 A3000 RMK
     AO2=
K1A5 081140Z AUTO 00000KT 1/4SM FG OVC001 17/16 A3017 RMK AO2
     T01700160=
K3I2 081140Z AUTO 00000KT 4SM BR OVC001 20/19 A3010 RMK AO2=
K3J7 081140Z AUTO 00000KT 10SM CLR 23/21 A3000 RMK AO2=
K47A 081140Z AUTO 00000KT 10SM CLR 22/18 A3007 RMK AO2 LTG DSNT SW
     T02180176=
KACP 081139Z AUTO 00000KT 4SM BR CLR 24/24 A3002 RMK AO2=
KAMN 081136Z AUTO 00000KT 3SM BR BKN100 23/22 A3001 RMK AO2=
KAQP 081133Z AUTO 00000KT 10SM CLR 13/13 A3011 RMK AO2=
KAVC 081140Z AUTO 00000KT 5SM HZ CLR 27/20 A3004 RMK AO2=
KBFW 081133Z AUTO 30003KT 10SM CLR 18/14 A3001 RMK AO2=
KBGE 081140Z AUTO 00000KT M1/4SM FG OVC001 21/21 A3003 RMK AO2=
KBIJ 081140Z AUTO 00000KT 10SM CLR 21/ A3003 RMK AO2=
KBQK 081137Z AUTO 27005KT 10SM CLR 22/22 A3001 RMK AO1 T02240216
     PNO=
KCCO 081140Z AUTO 00000KT 4SM CLR 21/20 A3007 RMK AO1=
KCDA 081135Z AUTO 00000KT 5SM HZ SCT060 22/19 A3011 RMK AO2=
KCDD 081131Z AUTO 20003KT 10SM CLR 17/17 A3003 RMK AO2=
KCDH 081140Z AUTO 00000KT 7SM FEW002 22/22 A3006 RMK AO2=
KCPK 081140Z AUTO 00000KT 7SM SCT009 BKN110 25/23 A2998 RMK
     AO2=
KCTJ 081140Z AUTO 00000KT 10SM CLR 22/20 A3008 RMK AO2
     T02230201=
KCVX 081135Z AUTO 25005KT 7SM -RA SCT017 BKN070 OVC110 21/20 A3001
     RMK AO2=
KDPL 081140Z AUTO 00000KT 5SM HZ CLR 27/22 A2995 RMK AO2=
KDVP 081136Z AUTO 27003KT 10SM CLR 15/13 A3018 RMK AO2
     T01510128=
####018000122####
SAIY43 LIIB 081100 RRA
METAR LIBQ 081055Z 24004KT 9999 SCT009 17/09 Q1024 RMK SCT MON LIB
      VAL NIL VIS MIN 9999=
####018000497####
SPXX60 KWBC 081144
SPECI
KHLR 081137Z AUTO 05003KT 10SM BKN013 BKN022 OVC047 25/ A3000 RMK
     AO2 T0250 $=
KNQI 081134Z COR 02005KT 10SM TS SCT014CB BKN140 BKN280 27/24
     A2983 RMK AO2 OCNL LTGICCG NE-SE TSB28RAE19 TS NE-SE MOV W
     P0006 $=
KSLI 081139Z AUTO 00000KT 10SM OVC015 17/14 A2990 RMK AO2
     SLP125=
KSZL 081135Z 00000KT 4SM BR OVC003 23/22 A3006 RMK AO2A SLP173
     $=
KTIK 081136Z AUTO 36004KT 10SM FEW007 OVC013 23/22 A3006 RMK AO2
     SLP166 $=
####018000124####
SPUS70 KWBC 081144 CCA
SPECI
KNSE 081137Z 00000KT 1 1/2SM BR FEW001 SCT250 23/22 A3003 RMK AO2
     VIS NE-E 3/4 $=
####018000916####
SPUS80 KWBC 081144
SPECI
KMWT 081140Z AUTO 00000KT 10SM FEW017 BKN024 23/23 A3006 RMK AO2
     TSNO=
KANJ 081140Z AUTO 23005KT 2 1/2SM -RA BR OVC004 21/19 A2996 RMK
     AO2 RAE08B29 P0000=
KVCT 081140Z AUTO 00000KT 3SM RA BR BKN008 BKN019 OVC045 24/24
     A2990 RMK AO2 P0095=
KEMP 081141Z AUTO 33006KT 6SM BR SCT006 22/20 A3009 RMK AO2=
KJLN 081142Z 01005KT 10SM SCT003 BKN024 OVC100 22/22 A3006 RMK AO2
     TSE1056 LTG DSNT N=
KLWD 081142Z AUTO 01007KT 7SM SCT007 21/20 A3010 RMK AO2=
KPIA 081142Z 22003KT 3SM BR SCT004 BKN008 OVC014 23/22 A3004 RMK
     AO2 CIG 006V011=
KRFD 081138Z 25003KT 6SM BR SCT006 BKN022 OVC047 22/21 A3005 RMK
     AO2=
KDBQ 081142Z 30004KT 6SM BR SCT003 OVC016 21/20 A3007 RMK AO2=
KFNB 081142Z AUTO 35008KT 8SM SCT019 21/19 A3010 RMK AO2=
KGDP 081142Z AUTO 05026KT 4SM BR FEW001 BKN005 OVC095 16/16 A3021
     RMK AO2 PK WND 04030/1128 TSNO=
####018000153####
SAUS70 KWBC 081200
METAR
KBQP 081147Z AUTO 00000KT 1 1/2SM BR VV007 23/23 A3006 RMK AO2=
KCWV 081149Z AUTO 27003KT 10SM CLR 24/22 A3001 RMK AO2=
####018000205####
SAUS80 KWBC 081144
METAR
KJNX 081139Z AUTO 00000KT 7SM CLR 25/20 A2997 RMK AO2=
KPZQ 081135Z AUTO 24003KT 10SM OVC100 22/22 A2998 RMK AO2=
KAYS 081140Z AUTO 00000KT 10SM CLR 22/22 A3002 RMK AO1=
####018000152####
SPAW33 KWBC 081144
SPECI
OMAL 081132Z 12013G35KT 100V300 1400 R01/1500D R19/1000V1500D TSRA
SCT045CB 37/25 Q1001 /A2957/ WIND RWY19 16013G38KT=
####018000440####
SAAS33 KWBC 081130 RRB
METAR
VTBU 081130Z 12002KT 9999 FEW020 BKN300 32/25 Q1007 A2974=
VVTS 081130Z 00000KT 8000 TS SCT015 SCT017CB 29/24 Q1007 NOSIG=
WBGG 081130Z 22003KT 9999 -TSRA FEW015CB SCT020 BKN150 25/24 Q1011
     NOSIG=
WBKK 081130Z 10006KT 9999 FEW014 SCT140 BKN270 25/23 Q1009
     NOSIG=
WMKK 081130Z 19003KT 9999 FEW018 BKN280 28/25 Q1008 NOSIG=
WMKP 081130Z 24004KT 9999 FEW020 BKN280 29/25 Q1009 NOSIG=
####018000111####
SPJP31 KWBC 081144
SPECI
RJCC 081136Z 19005KT 160V250 1700 -DZ BR BKN002 17/17 Q1011 RMK
7ST002 A2986=
####018000111####
SPJP41 KWBC 081144
SPECI
RJCK 081139Z 22004KT 0300 R17/0900V1400D FG VV001 16/15 Q1011 REDZ
RMK A2986=
####018000283####
SAIO31 KWBC 081100 RRE
METAR
WBGG 081130Z 22003KT 9999 -TSRA FEW015CB SCT020 BKN150 25/24 Q1011
     NOSIG=
WBKK 081130Z 10006KT 9999 FEW014 SCT140 BKN270 25/23 Q1009
     NOSIG=
WBSB 081130Z 15006KT 9999 -RA FEW005 FEW016CB BKN150 25/25 Q1009
     RETS TEMPO -SHRA=
####018000089####
SAMM31 KWBC 081030 RRC
METAR
LCRA 081050Z AUTO 22011KT 9999NDV // NCD 28/21 Q1008=
####018000153####
SPXX62 KWBC 081144
SPECI
RKJK 081140Z 12009KT 2800 R36/0800V1200 -RA BR BKN065 24/22 A2979
RMK AO2A RAB1116DZB1103E1116 CLDS LWR RWY18 SLP087 $=
####018000084####
SPUS41 KWBC 081144
SPECI
KFVE 081141Z AUTO 17004KT 2SM BR OVC001 23/23 A3002=
####018000086####
SPUS41 KWBC 081144
SPECI
KGON 081141Z 12003KT 5SM HZ BKN006 OVC017 24/21 A3008=
####018000093####
SPUS43 KWBC 081144
SPECI
KMKE 081141Z 28006KT 6SM BR BKN007 BKN013 OVC018 23/21 A3002=
####018000124####
SAIY43 LIIB 081100 RRA
METAR LIBQ 081055Z 24004KT 9999 SCT009 17/09 Q1024 RMK SCT MON LIB
      VAL NIL VIS MIN 9999=
####018000084####
SPUS52 KWBC 081144
SPECI
KESF 081141Z AUTO 05003KT 6SM BR FEW011 23/23 A3004=
####018000098####
SPUS52 KWBC 081144
SPECI
KGDP 081142Z AUTO 05026KT 4SM BR FEW001 BKN005 OVC095 16/16 A3021=
####018000076####
SPCN47 CWAO 081143
SPECI CYYY 081143Z 34002KT 3SM BR OVC003 RMK ST7=

####018000089####
SPUS53 KWBC 081144
SPECI
KGLD 081141Z AUTO 00000KT 10SM BKN004 OVC120 17/16 A3029=
####018000084####
SPUS72 KWBC 081144
SPECI
KCEW 081140Z AUTO 00000KT 5SM BR SCT001 22/21 A3004=
####018000084####
SPUS72 KWBC 081144
SPECI
KESF 081141Z AUTO 05003KT 6SM BR FEW011 23/23 A3004=
####018000093####
SPUS73 KWBC 081144
SPECI
KMKE 081141Z 28006KT 6SM BR BKN007 BKN013 OVC018 23/21 A3002=
####018000084####
SPUS81 KWBC 081144
SPECI
KEMP 081141Z AUTO 33006KT 6SM BR SCT006 22/20 A3009=
####018000098####
SPUS81 KWBC 081144
SPECI
KGDP 081142Z AUTO 05026KT 4SM BR FEW001 BKN005 OVC095 16/16 A3021=
####018000135####
SAUS44 KLIX 081144 COR
MTRBTR
SPECI KBTR 081139Z 06004KT 1 SM BR MIFG BKN003 24/23 A3002 RMK AO2 
SFC VIS 1 1/4 VIS N-NE 3/4 $
####018000108####
SAAE31 VTBB 081130 RRF
METAR VYYY 081130Z 28010KT 8000 SCT020 FEW025CB SCT110 31/25 Q
          1007=
####018000715####
SPNA14 KAWN 081144 RRG
SPECI KEGI 081139Z AUTO 00000KT 2SM BR CLR 22/22 A3003 RMK AO2 VIS
      1 1/4V5 SLP170 $=
SPECI KEGI 081140Z AUTO 00000KT 2 1/2SM BR CLR 22/22 A3003 RMK AO2
      VIS 1 1/4V5 SLP170 $=
SPECI KEGI 081142Z AUTO 00000KT 3SM BR CLR 22/22 A3003 RMK AO2 VIS
      1 1/4V5 SLP170 $=
SPECI KNQI 081134Z COR 02005KT 10SM TS SCT014CB BKN140 BKN280 27/24
      A2983 RMK AO2 OCNL LTGICCG NE-SE TSB28RAE19 TS NE-SE MOV W
      P0006 $=
SPECI KSLI 081139Z AUTO 00000KT 10SM OVC015 17/14 A2990 RMK AO2 SLP125=
SPECI KSZL 081135Z 00000KT 4SM BR OVC003 23/22 A3006 RMK AO2A SLP173
      $=
SPECI KTIK 081136Z AUTO 36004KT 10SM FEW007 OVC013 23/22 A3006 RMK
      AO2 SLP166 $=
####018000090####
SAXX70 KAWN 081200
METAR KQEV 081150Z AUTO 28001KT 3SM BR BKN065 26/20 A2979 RMK A02=
####018000181####
SAXX70 KAWN 081100 RRV
METAR KQEJ 081130Z AUTO 00000KT 7SM -SHRA FEW041 SCT095 23/20 A2993
      RMK A02=
METAR KQFB 081140Z AUTO 27007KT 3SM BR FEW021 24/21 A2994 RMK A02=
####018000355####
SAUK KAWN 081100 RRJ
METAR EGUB 081050Z AUTO 23006KT 9999NDV // BKN026/// SCT110/// 20/16
      Q1018=
METAR EGVO 081050Z AUTO 25002KT 9999NDV SCT009/// BKN017/// 18/16 Q1019=
METAR EGVP 081050Z AUTO 22006KT 9999NDV // SCT014/// BKN018/// BKN030///
      20/15 Q1018=
METAR EGXG 081050Z AUTO 23009KT 9999NDV FEW040/// SCT048/// 20/08 Q1016=
####018002955####
SAUS20 KNKA 081144
METAR K3A1 081140Z AUTO 00000KT 10SM CLR 23/23 A3011 RMK AO2 
     T02300229=
METAR K4A9 081140Z AUTO 01003KT 7SM CLR 21/19 A3008 RMK AO2 
     T02070188=
METAR K4R4 081140Z AUTO 00000KT 1 1/2SM BR VV007 24/23 A3003 RMK 
     AO2 T02400232=
METAR K8A0 081139Z AUTO 00000KT 10SM CLR 24/23 A3008 RMK AO2=
METAR KAFP 081140Z AUTO 00000KT 10SM SCT100 24/18 A2999 RMK AO2 
     T02360181=
METAR KALX 081140Z AUTO 00000KT 10SM CLR 22/21 A3005 RMK AO1=
SPECI KBOK 081144Z AUTO 00000KT 1 1/4SM BR OVC002 09/09 A2998 RMK 
    AO2 $=
METAR KCPC 081140Z AUTO 00000KT 10SM CLR 26/19 A2993 RMK AO2 
     T02550194=
METAR KDBN 081140Z AUTO 33005KT 10SM CLR 26/18 A3000 RMK AO1=
METAR KDNN 081138Z AUTO 00000KT 10SM CLR 20/20 A3006 RMK AO2=
METAR KDQH 081140Z AUTO 00000KT 10SM CLR 24/19 A3002 RMK AO1=
METAR KDRI 081140Z AUTO 06003KT 7SM BKN010 OVC019 23/23 A3004 RMK 
     AO2=
SPECI KDRT 081143Z AUTO 00000KT 10SM FEW024 BKN039 BKN050 24/22 
    A2996 RMK AO2=
METAR KEHO 081140Z AUTO 00000KT 10SM CLR 21/19 A3004 RMK AO2 
     T02100185=
METAR KEYF 081140Z AUTO 00000KT 7SM CLR 25/20 A2994 RMK AO2 
     T02540200=
METAR KFFA 081138Z AUTO 08004KT 10SM CLR 26/23 A2997 RMK AO2 
     T02570226=
METAR KGHG 081140Z AUTO 14006KT 10SM OVC008 23/21 A3011 RMK AO2=
SPECI KGRR 081143Z 26003KT 2SM BR FEW006 BKN050 OVC130 24/22 A3004 
    RMK AO2=
METAR KGWW 081140Z AUTO 05004KT 5SM HZ CLR 25/21 A2997 RMK AO2 
     T02500210=
METAR KHDC 081143Z AUTO 06003KT 7SM SCT014 26/26 A3005 RMK AO2=
METAR KHLX 081141Z AUTO 00000KT 5SM BR CLR 23/22 A3018 RMK AO2=
METAR KHNZ 081140Z AUTO 00000KT 4SM HZ SCT110 24/20 A3000 RMK AO2 
     T02370200=
METAR KHOE 081139Z AUTO 00000KT 10SM CLR 22/ A3003 RMK AO2 T0215=
METAR KHQU 081142Z AUTO 00000KT 10SM CLR 22/19 A3006 RMK AO1=
METAR KHSP 081140Z AUTO 07003KT 10SM SCT060 23/16 A3027 RMK AO2=
METAR KHWY 081140Z AUTO 05004KT 7SM SCT110 27/19 A3001 RMK AO2=
METAR KIDI 081140Z AUTO 00000KT 5SM SCT070 21/19 A3012 RMK AO2=
METAR KIPJ 081140Z AUTO 00000KT 10SM CLR 24/18 A3003 RMK AO2 
     T02370175=
METAR KIXA 081140Z AUTO 02004KT 5SM HZ SCT080 25/21 A2997 RMK AO2 
     T02460208=
METAR KJES 081140Z AUTO 26003KT 10SM CLR 21/21 A3001 RMK AO2 
     T02110212=
METAR KJGG 081140Z AUTO 32003KT 5SM SCT013 28/25 A3000 RMK AO1=
METAR KJKA 081140Z AUTO 00000KT 1 1/4SM BR VV007 26/25 A3003 RMK 
     AO2 T02560247=
METAR KJYO 081140Z AUTO 00000KT 7SM CLR 28/19 A3003 RMK AO2=
METAR KLDJ 081140Z AUTO 14006KT 3SM BR OVC004 25/23 A3004 RMK AO2 
     T02460230=
METAR KLGC 081135Z AUTO 00000KT 4SM CLR 21/ A3004 RMK AO1=
METAR KLHZ 081140Z AUTO 01003KT 7SM SCT120 25/20 A3000 RMK AO2 
     T02540201=
METAR KLKU 081140Z AUTO 01004KT 5SM HZ CLR 27/20 A3001 RMK AO2=
METAR KLNP 081138Z AUTO 00000KT 5SM CLR 22/19 A3020 RMK AO1=
METAR KLOM 081140Z AUTO 00000KT 4SM CLR 26/23 A3003 RMK AO1 
     T02590225=
####018002318####
SAUS20 KNKA 081144
SPECI KMCI 081143Z 33004KT 6SM BR BKN004 BKN110 22/21 A3007 RMK AO2 
    $=
METAR KMDQ 081140Z AUTO 00000KT 7SM CLR 23/22 A3009 RMK AO2 
     T02250215=
METAR KMFV 081142Z AUTO 09006KT 10SM SCT080 SCT100 25/23 A3001 
     RMK AO2=
METAR KMGR 081140Z AUTO 00000KT 10SM CLR 22/21 A3004 RMK AO2=
METAR KMKJ 081140Z AUTO 00000KT 3SM CLR 19/08 A3022 RMK AO1=
METAR KMQS 081140Z AUTO 00000KT 5SM CLR 24/22 A3006 RMK AO2 PWINO 
     PNO=
METAR KMRN 081141Z AUTO 28003KT 10SM SCT100 22/18 A3012 RMK AO2=
METAR KMTV 081140Z AUTO 00000KT 5SM BR CLR 24/22 A3006 RMK AO2=
SPECI KMWT 081140Z AUTO 00000KT 10SM FEW017 BKN024 23/23 A3006 RMK
     AO2 TSNO=
METAR KOBE 081141Z AUTO 04004KT 10SM CLR 24/23 A2999 RMK AO2 LTG 
     DSNT SE=
METAR KOKV 081140Z AUTO 00000KT 5SM HZ CLR 26/20 A3005 RMK AO2 
     T02610195=
METAR KONX 081140Z AUTO 07007KT 10SM OVC110 26/22 A2998 RMK AO2 
     T02610224=
METAR KOPN 081140Z AUTO 00000KT 10SM CLR 26/22 A3006 RMK AO1=
METAR KPCM 081140Z AUTO 00000KT 10SM CLR 23/22 A3002 RMK AO2=
SPECI KPIL 081143Z AUTO 02007KT 10SM FEW020 SCT028 SCT037 27/25 
    A2977 RMK AO2 RAB31E41 P0000 $=
METAR KPSK 081142Z AUTO 18003KT 5SM HZ CLR 24/18 A3016 RMK AO2=
METAR KPTB 081142Z AUTO 00000KT 4SM HZ SCT090 27/23 A2999 RMK AO2=
METAR KRCZ 081140Z AUTO 34003KT 10SM CLR 25/19 A2998 RMK AO2 
     T02450187=
METAR KRUQ 081141Z AUTO 00000KT 10SM SCT095 23/22 A3003 RMK AO2=
METAR KSIF 081140Z AUTO 00000KT 5SM HZ CLR 25/22 A3003 RMK AO2=
METAR KSVH 081140Z AUTO 00000KT 10SM CLR 23/19 A3005 RMK AO2 
     T02330187=
METAR KTBR 081140Z AUTO 26004KT 10SM CLR 25/20 A3000 RMK AO2 
     T02450202=
METAR KTDF 081142Z AUTO 00000KT 4SM CLR 23/21 A3002 RMK AO1=
METAR KTSP 081135Z AUTO 00000KT 10SM CLR 10/04 A3003 RMK AO2 =
METAR KTVI 081140Z AUTO 00000KT 10SM CLR 23/22 A3004 RMK AO2 
     T02250215=
METAR KVDI 081142Z AUTO 00000KT 10SM CLR 24/21 A3002 RMK AO1=
METAR KVJI 081143Z AUTO 00000KT 4SM BR CLR 22/21 A3015 RMK AO2=
METAR KVUJ 081139Z AUTO 00000KT 10SM SCT090 SCT110 25/20 A2999 
     RMK AO2=
METAR KVVG 081135Z AUTO 00000KT 22/21 A3000 RMK AO2=
METAR KW45 081140Z AUTO 00000KT 7SM CLR 24/19 A3006 RMK AO2 
     T02440194=
METAR KW99 081140Z AUTO 00000KT 5SM HZ BKN080 22/18 A3010 RMK AO2=
####018000080####
SACN90 CWAO 081140
WEF SA 1140 AUTO8 M M M 185/13/12/1310/M/M 3006 82MM=

