####018000113####
SPUS90 KWBC 080826
SPECI KNGP 080824Z AUTO 08010KT 10SM TS FEW019 BKN055 28/26 A2980
     RMK AO2 TSB18 $=
####018000106####
SAUS90 KWBC 080826
METAR K40B 080825Z AUTO VRB02KT 21/21 A3002 RMK AO1 SLP151
     T02070208 55001=
####018000245####
SADL35 EDZO 080820
METAR EDHI 080820Z 22004KT 150V280 CAVOK 26/13 Q1019=
METAR EDMO 080820Z 09007KT 050V120 CAVOK 21/08 Q1023=
METAR EDOP 080820Z 17007KT 150V210 CAVOK 26/12 Q1021=
METAR EDTD 080820Z 15005KT 110V210 CAVOK 22/10 Q1023=
####018000398####
SANO33 ENMI 080820
METAR ENAT 080820Z NIL=
METAR ENBL 080820Z 21010KT 9999 FEW030 BKN040 15/08 Q1010=
METAR ENEV 080820Z NIL=
METAR ENFL 080820Z 18019KT 9999 FEW015 SCT050 16/12 Q1010=
METAR ENKB 080820Z VRB02KT 9999 FEW057 SCT075 17/11 Q1009=
METAR ENKR 080820Z NIL=
METAR ENML 080820Z 07007KT 9999 FEW050 SCT060 16/12 Q1009=
METAR ENNA 080820Z 16017KT 9999 FEW040 18/09 Q1014 =
####018000115####
SPCN46 CWAO 080825
SPECI CYKF 080825Z AUTO 00000KT 2SM BR CLR 20/20 A3006 RMK SLP174
 DENSITY ALT 1700FT=

####018000119####
SAIN90 VECC 080820
METAR VECC 080820Z 18010KT 4000 HZ SCT018 FEW030CB SCT100 33/25 Q1005
TEMPO TL0920 1500 TSRA=
####018001814####
SAEU KAWN 080800 RRX
METAR EDAC 080820Z 24004KT CAVOK 23/13 Q1022=
METAR EDAH 080820Z 14007KT 110V180 CAVOK 21/11 Q1022=
METAR EDFH 080820Z 12007KT 080V170 CAVOK 23/12 Q1021=
METAR EDHL 080820Z 15007KT 120V190 CAVOK 24/16 Q1020=
METAR EDLN 080820Z VRB03KT CAVOK 27/15 Q1019=
METAR EDLP 080820Z 21006KT 170V240 CAVOK 27/11 Q1020=
METAR EDLW 080820Z 22009KT 180V240 CAVOK 27/10 Q1020=
METAR EDMA 080820Z 13007KT 090V160 CAVOK 22/09 Q1023=
METAR EDNY 080820Z VRB02KT CAVOK 24/13 Q1022=
METAR EDQM 080820Z 24004KT 200V280 CAVOK 22/07 Q1024=
METAR EDSB 080820Z 34004KT 290V020 CAVOK 24/13 Q1021=
METAR EDTL 080820Z 23003KT CAVOK 24/14 Q1020=
METAR EDVK 080820Z 22006KT 170V240 CAVOK 24/11 Q1021=
METAR EDXW 080820Z 21014KT CAVOK 22/11 Q1018=
METAR EGGP 080820Z 20009KT 9999 FEW030 17/11 Q1017=
METAR EGHI 080820Z 24006KT 210V280 8000 SCT007 BKN012 17/16 Q1019=
METAR EGJA 080820Z 17003KT 9999 0800SE BCFG SCT001 BKN015 16/16 Q1020=
METAR EGJJ 080820Z 29002KT 240V340 9999 FEW004 SCT010 19/17 Q1019 NOSIG=
METAR EGLF 080820Z 24006KT 9000 4000N VCSH SCT009 BKN001 18/16 Q1019=
METAR EGMC 080820Z 26008KT 9999 FEW017 SCT040 20/16 Q1019=
METAR EGMD 080820Z 25003KT 9999 3500SE FEW000 SCT003 BKN006 17/15 Q1020=
METAR EGMH 080820Z 27008KT 230V310 9999 FEW012 20/16 Q1019=
METAR EGNT 080820Z 22007KT 180V260 9999 FEW040 16/11 Q1015=
METAR EGTC 080820Z 25005KT 210V300 9999 FEW018 SCT030 17/12 Q1018=
METAR EGTE 080820Z 05002KT 9999 FEW025 18/14 Q1019=
METAR ETNN 080820Z 21006KT 9999 FEW300 27/06 Q1020 BLU/BLU/=
METAR ETNS 080820Z 16007KT 9999 BKN050 SCT120 24/09 Q1019 BLU BLU=
METAR ETSA 080820Z 08007KT 9999 FEW270 21/10 Q1023 BLU/BLU/=
METAR ETSE 080820Z 11008KT 9999 FEW170 21/09 Q1023 BLU/BLU/=
METAR ETSI 080820Z 09006KT 9999 FEW120 22/09 Q1023 BLU/BLU/=
####018001749####
SAEW KAWN 080800 RRJ
METAR EDAC 080820Z 24004KT CAVOK 23/13 Q1022=
METAR EDAH 080820Z 14007KT 110V180 CAVOK 21/11 Q1022=
METAR EDFH 080820Z 12007KT 080V170 CAVOK 23/12 Q1021=
METAR EDHL 080820Z 15007KT 120V190 CAVOK 24/16 Q1020=
METAR EDLN 080820Z VRB03KT CAVOK 27/15 Q1019=
METAR EDLP 080820Z 21006KT 170V240 CAVOK 27/11 Q1020=
METAR EDLW 080820Z 22009KT 180V240 CAVOK 27/10 Q1020=
METAR EDMA 080820Z 13007KT 090V160 CAVOK 22/09 Q1023=
METAR EDNY 080820Z VRB02KT CAVOK 24/13 Q1022=
METAR EDQM 080820Z 24004KT 200V280 CAVOK 22/07 Q1024=
METAR EDSB 080820Z 34004KT 290V020 CAVOK 24/13 Q1021=
METAR EDTL 080820Z 23003KT CAVOK 24/14 Q1020=
METAR EDVK 080820Z 22006KT 170V240 CAVOK 24/11 Q1021=
METAR EDXW 080820Z 21014KT CAVOK 22/11 Q1018=
METAR EGJJ 080820Z 29002KT 240V340 9999 FEW004 SCT010 19/17 Q1019 NOSIG=
METAR EKAH 080820Z AUTO 20007KT 140V260 9999NDV SCT041/// BKN068///
      21/13 Q1018=
METAR EKEB 080820Z AUTO 21010KT 9999NDV FEW039/// BKN066/// 21/14 Q1017=
METAR EKRN 080820Z AUTO 20004KT 170V230 9999NDV NCD 19/15 Q1022=
METAR ETHS 080820Z 17005KT 9999 FEW160 25/10 Q1020 BLU/BLU/=
METAR ETNH 080820Z 18006KT 9999 BKN050 SCT110 23/13 Q1019 BLU BLU/
      TEMPO BLU=
METAR ETNN 080820Z 21006KT 9999 FEW300 27/06 Q1020 BLU/BLU/=
METAR ETNS 080820Z 16007KT 9999 BKN050 SCT120 24/09 Q1019 BLU BLU=
METAR ETNU 080820Z 16003KT 9999 BKN160 22/10 Q1022 BLU BLU TEMPO BLU/=
METAR ETSA 080820Z 08007KT 9999 FEW270 21/10 Q1023 BLU/BLU/=
METAR ETSE 080820Z 11008KT 9999 FEW170 21/09 Q1023 BLU/BLU/=
METAR ETSH 080820Z 17006KT 9999 FEW170 23/08 Q1022 BLU/BLU/=
METAR ETSI 080820Z 09006KT 9999 FEW120 22/09 Q1023 BLU/BLU/=
METAR ETWM 080820Z 22007KT 9999 FEW060 SCT240 27/09 Q1019 BLU/=
####018000489####
SAUS20 KNKA 080825
SPECI KCEC 080824Z AUTO 24003KT 2SM BR OVC001 10/09 A2997 RMK AO2=
SPECI KDHT 080824Z AUTO 02018G24KT 10SM SCT015 BKN025 OVC037 18/14 
    A3027 RMK AO2 PK WND 01027/0810 WSHFT 0804=
SPECI KELZ 080824Z AUTO 00000KT 1/4SM FG VV001 19/18 A3016 RMK AO2=
SPECI KHZY 080824Z AUTO 00000KT 1 3/4SM BR CLR 18/18 A3008 RMK AO2=
SPECI KLHQ 080824Z AUTO 00000KT 1 3/4SM BR CLR 19/18 A3008 RMK AO2=
SPECI KSGF 080824Z 00000KT 10SM BKN023 BKN033 23/22 A3005 RMK AO2=
####018000117####
SAUS44 KCRP 080825
MTRNGP
SPECI KNGP 080824Z AUTO 08010KT 10SM TS FEW019 BKN055 28/26 A2980 
RMK AO2 TSB18 $
####018001860####
SAEU KAWN 080800 RRX
METAR EDHI 080820Z 22004KT 150V280 CAVOK 26/13 Q1019=
METAR EDHK 080820Z 16005KT 9999 FEW060 SCT100 BKN120 24/12 Q1019 BLU
      BLU=
METAR EDMO 080820Z 09007KT 050V120 CAVOK 21/08 Q1023=
METAR EDOP 080820Z 17007KT 150V210 CAVOK 26/12 Q1021=
METAR ETGG 080820Z 18008KT 9999 BKN055 SCT120 24/13 Q1018 BLU=
METAR ETGY 080820Z 22004KT 9999 FEW140 27/11 Q1019 BLU/=
METAR ETGZ 080820Z 13004KT 9999 FEW120 20/08 Q1024 BLU/=
METAR ETHA 080820Z 07006KT 9999 FEW150 20/10 Q1023 BLU/BLU/=
METAR ETHB 080820Z 20005KT 9999 FEW140 25/12 Q1020 BLU/BLU/=
METAR ETHC 080820Z 22004KT 9999 FEW056 25/11 Q1020 BLU/BLU/=
METAR ETHE 080820Z 17004KT 9999 FEW050 BKN260 26/12 Q1019 BLU/BLU/=
METAR ETHF 080820Z 16006KT 9999 FEW300 23/12 Q1021 BLU/BLU/=
METAR ETHL 080820Z 07004KT 9999 FEW140 22/09 Q1022 BLU/BLU/=
METAR ETHR 080820Z 13003KT 9999 FEW200 23/07 Q1023 BLU/BLU/=
METAR ETHS 080820Z 17005KT 9999 FEW160 25/10 Q1020 BLU/BLU/=
METAR ETMN 080820Z 21005KT 9999 FEW050 SCT110 BKN270 25/10 Q1019 BLU/BLU/=
METAR ETND 080820Z 20005KT 9999 FEW180 25/14 Q1019 BLU/=
METAR ETNH 080820Z 18006KT 9999 BKN050 SCT110 23/13 Q1019 BLU BLU/
      TEMPO BLU=
METAR ETNL 080820Z 18004KT 9999 SCT090 SCT150 22/12 Q1021 BLU/BLU/=
METAR ETNT 080820Z 22008KT 9999 FEW090 SCT270 27/11 Q1018 BLU/BLU/=
METAR ETNU 080820Z 16003KT 9999 BKN160 22/10 Q1022 BLU BLU TEMPO BLU/=
METAR ETSB 080820Z 16005KT 9999 SCT290 24/08 Q1022 BLU/BLU/=
METAR ETSH 080820Z 17006KT 9999 FEW170 23/08 Q1022 BLU/BLU/=
METAR ETSL 080820Z 08006KT 9999 FEW250 22/09 Q1023 BLU/BLU/=
METAR ETSN 080820Z 07004KT 9999 FEW160 22/09 Q1023 BLU/BLU/=
METAR ETWM 080820Z 22007KT 9999 FEW060 SCT240 27/09 Q1019 BLU/=
METAR LOWG 080820Z 16003KT 090V220 9999 FEW060 22/09 Q1024 NOSIG=
METAR LOWW 080820Z 35005KT 270V040 9999 FEW035 20/10 Q1024 NOSIG=
####018000238####
SANO35 ENMI 080820
METAR ENMS 080820Z NIL=
METAR ENRM 080820Z NIL=
METAR ENRS 080820Z NIL=
METAR ENSK 080820Z NIL=
METAR ENSO 080820Z 18008KT 9999 FEW015 SCT070 17/12 Q1012=
METAR ENST 080820Z NIL=
METAR ENVD 080820Z NIL=
####018000203####
SANO34 ENMI 080820
METAR ENBN 080820Z NIL=
METAR ENBV 080820Z NIL=
METAR ENDI 080820Z NIL=
METAR ENFG 080820Z NIL=
METAR ENHF 080820Z NIL=
METAR ENRA 080820Z NIL=
METAR ENSH 080820Z NIL=
####018000079####
SACN87 KWBC 080826
METAR CWWL 080822Z AUTO 13/ RMK AO1 SLP170 T0132 50002=
####018000080####
SACN96 KWBC 080826
METAR CWZQ 080820Z AUTO 18007KT 22/16 RMK AO1 T02150162=
####018000220####
SAUS99 KWBC 080826
METAR
KCLS 080815Z AUTO 00000KT 10SM CLR 15/14 A2994 RMK AO2=
KGZL 080815Z AUTO 14007KT 10SM BKN023 BKN046 24/23 A3002 RMK
     AO2=
KTNB 080824Z AUTO 00000KT 10SM CLR 16/13 A3020 RMK AO2=
####018000585####
SPUS99 KWBC 080826
SPECI
KLRD 080823Z AUTO 00000KT 10SM BKN015 26/25 A2989 RMK AO2 $=
KTRL 080824Z AUTO 12004KT 10SM BKN014 27/22 A3001 RMK AO2=
KCEC 080824Z AUTO 24003KT 2SM BR OVC001 10/09 A2997 RMK AO2=
KDHT 080824Z AUTO 02018G24KT 10SM SCT015 BKN025 OVC037 18/14 A3027
     RMK AO2 PK WND 01027/0810 WSHFT 0804=
KELZ 080824Z AUTO 00000KT 1/4SM FG VV001 19/18 A3016 RMK AO2=
KHZY 080824Z AUTO 00000KT 1 3/4SM BR CLR 18/18 A3008 RMK AO2=
KLHQ 080824Z AUTO 00000KT 1 3/4SM BR CLR 19/18 A3008 RMK AO2=
KSGF 080824Z 00000KT 10SM BKN023 BKN033 23/22 A3005 RMK AO2=
####018000088####
SAUK31 EGGY 080820 CCA
METAR COR EGCC 080820Z 21009KT 9999 FEW030 16/12 Q1017 NOSIG=
####018000085####
SAOS32 LOWM 080820
METAR LOXZ 080820Z VRB02KT 70KM SKC 17/10 Q1024 NOSIG RMK SKC=
####018000389####
SAOS31 LOWM 080820
METAR LOWW 080820Z 35005KT 270V040 9999 FEW035 20/10 Q1024 NOSIG=
METAR LOWL 080820Z 10004KT 050V140 CAVOK 20/10 Q1024 NOSIG=
METAR LOWS 080820Z VRB02KT CAVOK 21/08 Q1023 NOSIG=
METAR LOWI 080820Z VRB02KT CAVOK 21/13 Q1023 NOSIG=
METAR LOWG 080820Z 16003KT 090V220 9999 FEW060 22/09 Q1024 NOSIG=
METAR LOWK 080820Z 29003KT 220V350 9999 FEW050 20/10 Q1024 NOSIG=
####018000140####
SAAG05 SABM 080800 RRD
METAR SABE 080800Z  27008KT CAVOK 08/04 Q1019=
METAR SAZS 080800Z  32014KT 5000 +DZ BKN010 SCT040
 03/01 Q1005=
####018000284####
SAFI33 EFHK 080820
EFJO 080820Z 05003KT CAVOK 23/19 Q1015=
EFLP 080820Z 11006KT 020V170 CAVOK 29/16 Q1014=
EFMI 080820Z AUTO VRB03KT 9999 FEW028 26/19 Q1014=
EFSA 080820Z 36003KT 9999 FEW025 25/19 Q1014=
EFUT 080820Z 04006KT 340V100 CAVOK 28/17 Q1014=
METAR EFVR 080825Z NIL=
####018000196####
SANO37 ENMI 080820
METAR ENNO 080820Z NIL=
METAR ENOV 080820Z NIL=
METAR ENSD 080820Z NIL=
METAR ENSG 080820Z NIL=
METAR ENSN 080820Z NIL=
METAR ENSR 080820Z NIL=
METAR ENSS 080820Z NIL=
####018000093####
SPEO32 EETN 080824
SPECI EETU 080824Z 29004KT 240V340 9999 SCT016TCU BKN031 25/20
Q1013=
####018000856####
SPXX60 KWBC 080826
SPECI
KNFW 080823Z AUTO 15008KT 10SM SCT024 27/22 A3003 RMK AO2=
KDOV 080823Z AUTO 00000KT 2SM BR CLR 24/24 A2998 RMK AO2
     SLP155=
KHST 080822Z AUTO 06006KT 9SM -RA FEW021 SCT065 27/25 A2993 RMK
     AO2 RAB0822 SLP136 $=
KNQI 080822Z AUTO 36005KT 9SM TS SCT023 SCT031 BKN120 27/25 A2983
     RMK AO2 TSB16 $=
KVOK 080821Z 31008KT 10SM SCT009 OVC014 22/22 A3001 RMK AO2A
     SLP156=
KWRI 080821Z AUTO 00000KT 1 1/2SM R18/2800V5500FT R24/2400V2800FT
     BR OVC003 24/24 A2999 RMK AO2 SLP156 $=
KWRI 080822Z AUTO 00000KT 1 1/4SM R18/1800V5000FT R24/2200V2800FT
     BR OVC003 24/24 A2999 RMK AO2 SLP156 $=
KWRI 080823Z AUTO 00000KT 1SM R18/1000V4500FT R24/2000V2800FT BR
     OVC003 24/24 A2999 RMK AO2 SLP156 $=
KNGP 080824Z AUTO 08010KT 10SM TS FEW019 BKN055 28/26 A2980 RMK
     AO2 TSB18 $=
####018000090####
SAAF36 KWBC 080800 RRD
METAR
HKMO 080800Z 18012KT 9999 SCT023TCU 27/21 Q1019 NOSIG=
####018000165####
SAUS80 KWBC 080826
METAR
KJNX 080821Z AUTO 00000KT 4SM CLR 21/21 A2993 RMK AO2=
K40B 080825Z AUTO VRB02KT 21/21 A3002 RMK AO1 SLP151 T02070208
     55001=
####018000089####
SAAW42 KWBC 080800 RRA
METAR
OMAD 080800Z 18008KT 150V230 CAVOK 41/18 Q1000 A2955=
####018000779####
SPUS70 KWBC 080826
SPECI
KTUL 080823Z 00000KT 3SM +TSRA BR SCT008 BKN047 OVC080 23/22 A3001
     RMK AO2 FRQ LTGIC OHD-S-SW TS OHD-S-SW MOV N P0006=
KNSE 080811Z AUTO 00000KT 1 3/4SM BR CLR 23/22 A3002 RMK AO2 $=
KLRD 080823Z AUTO 00000KT 10SM BKN015 26/25 A2989 RMK AO2 $=
KTRL 080824Z AUTO 12004KT 10SM BKN014 27/22 A3001 RMK AO2=
KCEC 080824Z AUTO 24003KT 2SM BR OVC001 10/09 A2997 RMK AO2=
KDHT 080824Z AUTO 02018G24KT 10SM SCT015 BKN025 OVC037 18/14 A3027
     RMK AO2 PK WND 01027/0810 WSHFT 0804=
KELZ 080824Z AUTO 00000KT 1/4SM FG VV001 19/18 A3016 RMK AO2=
KHZY 080824Z AUTO 00000KT 1 3/4SM BR CLR 18/18 A3008 RMK AO2=
KLHQ 080824Z AUTO 00000KT 1 3/4SM BR CLR 19/18 A3008 RMK AO2=
KSGF 080824Z 00000KT 10SM BKN023 BKN033 23/22 A3005 RMK AO2=
####018000540####
SANO32 ENMI 080820
METAR ENAL 080820Z 17009KT 9999 SCT055 SCT085 18/06 Q1008=
METAR ENCN 080820Z 20007KT 8000 BKN004 16/15 Q1015=
METAR ENHD 080820Z 19010KT 9999 FEW008 16/12 Q1013=
METAR ENRO 080820Z 19010KT 140V240 9999 SCT030 BKN110 16/08 Q1011=
METAR ENRY 080820Z 19010KT 150V220 8000 -SHRA SCT008 BKN012 16/15
           Q1016 TEMPO 4000 RA BR BKN006=
METAR ENSB 080820Z NIL=
METAR ENTC 080820Z 33003KT 280V360 9999 FEW068 SCT090 15/08 Q1011
           NOSIG =
METAR ENTO 080820Z 18007KT 6000 DZ FEW005 SCT026 16/15 Q1016=
####018000355####
SABX31 EBBR 080820
METAR EBAW 080820Z 20006KT 180V250 CAVOK 26/13 Q1019 NOSIG=
METAR EBBR 080820Z 25004KT 210V290 CAVOK 27/11 Q1019 NOSIG=
METAR EBCI 080820Z 19007KT CAVOK 26/11 Q1020 NOSIG=
METAR EBLG 080820Z 20008KT CAVOK 26/09 Q1020 NOSIG=
METAR EBOS 080820Z 28007KT CAVOK 20/15 Q1019 NOSIG=
METAR ELLX 080820Z VRB03KT CAVOK 24/10 Q1021 NOSIG=
####018000084####
SAAF17 LFPW 080800 RRB
METAR HETB 080800Z 00000KT CAVOK       27/13 Q1014 NOSIG=
####018000028####
SABX31 KWBC 080820
NIL=
####018000549####
SAIY32 LIIB 080820
METAR LIBD 080820Z 01011KT 9999 FEW030 25/12 Q1019=
METAR LIBR 080815Z /////KT CAVOK 25/15 Q1017 NOSIG=
METAR LICC 080820Z 09005KT CAVOK 29/21 Q1018=
METAR LICJ 080820Z 04014KT CAVOK 26/22 Q1018=
METAR LIPE 080820Z 12006KT 070V180 CAVOK 27/16 Q1021=
METAR LIPH 080815Z 03003KT 9999 SCT035 BKN070 23/19 Q1023=
METAR LIPQ 080820Z VRB01KT 9999 BKN050 24/14 Q1022=
METAR LIPR 080815Z 12005KT CAVOK 27/18 Q1021=
METAR LIPX 080815Z 10006KT 9999 SCT080 27/15 Q1022=
METAR LIPZ 080820Z 12007KT 9999 SCT040 BKN070 25/16 Q1022=
####018000760####
SAIY31 LIIB 080820
METAR LIEA 080820Z 05005KT 350V120 CAVOK 28/20 Q1019=
METAR LIEE 080815Z 24002KT CAVOK 26/19 Q1018 NOSIG=
METAR LIEO 080820Z 03004KT 300V070 CAVOK 29/20 Q1019=
METAR LIMC 080820Z VRB03KT 9999 SCT040 BKN060 25/14 Q1022 NOSIG=
METAR LIME 080820Z 13008KT 090V170 9999 SCT055 25/15 Q1023=
METAR LIMF 080820Z VRB02KT 9999 SCT030 SCT050 23/17 Q1022=
METAR LIMJ 080820Z 04007KT CAVOK 29/21 Q1020=
METAR LIML 080820Z 11007KT 070V180 9999 BKN070 25/17 Q1022 NOSIG=
METAR LIRA 080815Z 23002KT 180V250 9999 SCT018 27/20 Q1019=
METAR LIRF 080820Z 19008KT 160V240 9999 SCT020 28/20 Q1019 NOSIG=
METAR LIRN 080820Z 06008KT CAVOK 26/12 Q1019=
METAR LIRP 080815Z 11011KT CAVOK 28/16 Q1019 NOSIG=
METAR LIRQ 080820Z VRB02KT CAVOK 28/13 Q1020=
####018000390####
SANO33 ENMI 080820
METAR ENAT 080820Z NIL=
METAR ENBL 080820Z 21010KT 9999 FEW030 BKN040 15/08 Q1010=
METAR ENEV 080820Z NIL=
METAR ENFL 080820Z 18019KT 9999 FEW015 SCT050 16/12 Q1010=
METAR ENKB 080820Z VRB02KT 9999 FEW057 SCT075 17/11 Q1009=
METAR ENKR 080820Z NIL=
METAR ENML 080820Z 07007KT 9999 FEW050 SCT060 16/12 Q1009=
METAR ENNA 080820Z 16017KT 9999 FEW040 18/09 Q1014 =
####018000080####
SPCN31 KWBC 080826
SPECI
CYZX 080823Z 09002KT 2SM BR OVC006 RMK SF8 WNDY=
####018000081####
SPCN31 KWBC 080826
SPECI
CYMH 080823Z AUTO 15004KT 9SM OVC004 06/06 A3010=
####018000074####
SAEW LEJR 080830
METAR LEJR 080830Z 25003KT 230V320 CAVOK 24/19 Q1016=
####018000134####
SAAG31 KWBC 080800 RRB
METAR
SABE 080800Z 27008KT CAVOK 08/04 Q1019=
SAZS 080800Z 32014KT 5000 +DZ BKN010 SCT040 03/01 Q1005=
####018000238####
SANO38 ENMI 080820
METAR ENDR 080820Z NIL=
METAR ENEK 080820Z NIL=
METAR ENGC 080820Z 19029KT CAVOK 13/11 Q1007=
METAR ENHE 080820Z NIL=
METAR ENOA 080820Z 19023KT CAVOK1 13/11 Q1009=
METAR ENSL 080820Z 22026KT CAVOK 14/11 Q1011=
####018000231####
SANO35 ENMI 080820
METAR ENMS 080820Z NIL=
METAR ENRM 080820Z NIL=
METAR ENRS 080820Z NIL=
METAR ENSK 080820Z NIL=
METAR ENSO 080820Z 18008KT 9999 FEW015 SCT070 17/12 Q1012=
METAR ENST 080820Z NIL=
METAR ENVD 080820Z NIL=
####018000196####
SPUS80 KWBC 080826
SPECI
KCNK 080823Z AUTO 35005KT 10SM BKN014 BKN021 OVC026 20/19 A3014
     RMK AO2=
KSUS 080823Z AUTO 00000KT 10SM SCT055 24/23 A3002 RMK AO2
     TSE17RAE04 P0000=
####018000125####
SACI32 KWBC 080800 RRB
METAR
ZMUB 080830Z 15010MPS 8000 SHRA SCT027CB SCT030 15/12 Q1008 NOSIG
     RMK QFE649.7 83=
####018000709####
SADL31 KWBC 080820
METAR
EDBB NIL=
EDBT NIL=
EDCK NIL=
EDDF 080820Z 35003KT CAVOK 25/10 Q1021 NOSIG=
EDDH 080820Z 19006KT CAVOK 24/12 Q1019 NOSIG=
EDDK 080820Z 20006KT CAVOK 26/10 Q1020 NOSIG=
EDDL 080820Z 20005KT 170V230 CAVOK 26/11 Q1020 NOSIG=
EDDM 080820Z 08006KT CAVOK 21/09 Q1023 NOSIG=
EDDN 080820Z 14005KT CAVOK 23/08 Q1022 NOSIG=
EDDS 080820Z 15004KT CAVOK 23/09 Q1022 NOSIG=
EDDW 080820Z 17005KT CAVOK 26/09 Q1019 NOSIG=
EDFE 080820Z VRB02KT CAVOK 25/11 Q1021=
EDFM 080820Z 15006KT 110V230 CAVOK 27/09 Q1020=
EDHI 080820Z 22004KT 150V280 CAVOK 26/13 Q1019=
EDHL 080820Z 15007KT 120V190 CAVOK 24/16 Q1020=
EDKB NIL=
EDKS NIL=
EDLE NIL=
EDLG NIL=
EDLI NIL=
####018000527####
SADL32 KWBC 080820
METAR
EDLN 080820Z VRB03KT CAVOK 27/15 Q1019=
EDLP 080820Z 21006KT 170V240 CAVOK 27/11 Q1020=
EDLS NIL=
EDLW 080820Z 22009KT 180V240 CAVOK 27/10 Q1020=
EDMA 080820Z 13007KT 090V160 CAVOK 22/09 Q1023=
EDML NIL=
EDMO 080820Z 09007KT 050V120 CAVOK 21/08 Q1023=
EDMS NIL=
EDQD NIL=
EDQM 080820Z 24004KT 200V280 CAVOK 22/07 Q1024=
EDRS NIL=
EDRT NIL=
EDTB NIL=
EDTD 080820Z 15005KT 110V210 CAVOK 22/10 Q1023=
EDTF NIL=
EDTK NIL=
EDTO NIL=
EDTY NIL=
EDTZ NIL=
EDVE NIL=
####018003285####
SAUS70 KWBC 080826
METAR
K3J7 080821Z AUTO 00000KT 10SM CLR 23/21 A2999 RMK AO2=
KUXL 080820Z AUTO 08006KT 10SM CLR 26/24 A2997 RMK AO2=
KDQH 080820Z AUTO 00000KT 10SM CLR 23/20 A3001 RMK AO1=
KEHO 080820Z AUTO 04004KT 7SM CLR 20/18 A3001 RMK AO2
     T01950183=
KEYF 080820Z AUTO 29004KT 10SM CLR 27/19 A2992 RMK AO2
     T02680185=
KFFA 080818Z AUTO 08005KT 10SM CLR 25/24 A2994 RMK AO2
     T02480235=
KFYJ 080823Z AUTO 00000KT 5SM OVC120 27/24 A2997 RMK AO1=
KGAO 080820Z AUTO 09004KT 10SM CLR 27/25 A2999 RMK AO2=
KGWW 080820Z AUTO 00000KT 10SM CLR 24/21 A2992 RMK AO2
     T02390210=
KHNZ 080820Z AUTO 34003KT 5SM HZ SCT100 23/19 A2997 RMK AO2
     T02310191=
KIER 080822Z AUTO 00000KT 10SM CLR 24/24 A3001 RMK AO2 PWINO=
KISO 080820Z AUTO 00000KT 10SM CLR 23/20 A2993 RMK AO2
     T02300199=
KIXA 080820Z AUTO 01003KT 7SM CLR 21/19 A2994 RMK AO2
     T02140189=
KJFZ 080820Z AUTO 00000KT 7SM SCT065 22/21 A3016 RMK=
KLDJ 080820Z AUTO 00000KT 2 1/2SM BR OVC002 25/23 A3001 RMK AO2
     T02450232=
KLHZ 080820Z AUTO 00000KT 7SM CLR 22/19 A2996 RMK AO2
     T02220190=
KLKU 080820Z AUTO 35003KT 7SM SCT110 26/20 A2999 RMK AO2=
KLNP 080818Z AUTO 00000KT 7SM CLR 21/19 A3018 RMK AO1=
KMDQ 080820Z AUTO 00000KT 7SM CLR 22/21 A3006 RMK AO2
     T02200214=
KMKJ 080820Z AUTO 00000KT 1 3/4SM CLR 18/08 A3021 RMK AO1=
KMLJ 080823Z AUTO 00000KT 7SM CLR 22/22 A3001 RMK AO2=
KMQS 080820Z AUTO 00000KT 9SM CLR 24/22 A3004 RMK AO2 PWINO
     PNO=
KMTV 080820Z AUTO 00000KT 5SM BR CLR 22/21 A3004 RMK AO2=
KOBE 080821Z AUTO 00000KT 10SM CLR 23/22 A2996 RMK AO2=
KOKV 080820Z AUTO 00000KT 7SM CLR 24/19 A3004 RMK AO2
     T02360189=
KOMH 080820Z AUTO 01003KT 10SM CLR 27/20 A3002 RMK AO2
     T02700201=
KONX 080820Z AUTO 00000KT 10SM BKN110 26/24 A2995 RMK AO2
     T02600235=
KOPN 080820Z AUTO 00000KT 10SM CLR 25/22 A3004 RMK AO1=
KPCM 080820Z AUTO 00000KT 10SM CLR 23/22 A3000 RMK AO2=
KRCZ 080820Z AUTO 33003KT 10SM CLR 26/19 A2996 RMK AO2
     T02560185=
KRMN 080820Z AUTO 00000KT 5SM BR SCT090 23/23 A3001 RMK AO2=
KRUQ 080822Z AUTO 00000KT 10SM CLR 21/20 A3000 RMK AO2=
KSFQ 080820Z AUTO 08004KT 4SM BR SCT008 24/22 A2995 RMK AO2=
KSHD 080820Z AUTO 00000KT 7SM CLR 22/18 A3007 RMK AO2=
KSVH 080820Z AUTO 00000KT 10SM SCT095 22/15 A3003 RMK AO2
     T02220150=
KTBR 080820Z AUTO 00000KT 10SM CLR 23/20 A2999 RMK AO2
     T02310202=
KTDF 080822Z AUTO 00000KT 2 1/2SM CLR 21/21 A2999 RMK AO1=
KTVI 080820Z AUTO 22003KT 10SM CLR 22/21 A3002 RMK AO2
     T02150208=
KVDF 080816Z AUTO 00000KT 7SM CLR 23/22 A2999 RMK AO2=
KVJI 080823Z AUTO 00000KT 5SM BR SCT075 BKN080 21/19 A3014 RMK
     AO2=
KVVG 080815Z AUTO 00000KT 21/21 A3000 RMK AO2=
KW22 080820Z AUTO 00000KT 5SM BR FEW070 20/20 A3012 RMK AO2=
KW45 080820Z AUTO 00000KT 7SM CLR 23/19 A3004 RMK AO2
     T02310192=
KWDR 080820Z AUTO 00000KT 10SM CLR 23/21 A3007 RMK AO1=
KXLL 080820Z AUTO 00000KT 7SM CLR 24/22 A3002 RMK AO2
     T02400220=
KXSA 080820Z AUTO 00000KT 5SM OVC120 24/23 A2996 RMK AO2 PWINO=
KCLS 080815Z AUTO 00000KT 10SM CLR 15/14 A2994 RMK AO2=
KGZL 080815Z AUTO 14007KT 10SM BKN023 BKN046 24/23 A3002 RMK
     AO2=
KTNB 080824Z AUTO 00000KT 10SM CLR 16/13 A3020 RMK AO2=
####018000167####
SADL33 KWBC 080815 RRB
METAR
EDNY 080820Z VRB02KT CAVOK 24/13 Q1022=
EDVK 080820Z 22006KT 170V240 CAVOK 24/11 Q1021=
EDXW 080820Z 21014KT CAVOK 22/11 Q1018=
####018001110####
SADN31 KWBC 080820
METAR
EKAH 080820Z AUTO 20007KT 140V260 9999NDV SCT041/// BKN068///
     21/13 Q1018=
EKBI 080820Z 21005KT 170V250 9999 BKN045 BKN063 20/15 Q1018=
EKCH 080820Z 17011KT 140V200 CAVOK 21/15 Q1020 NOSIG=
EKEB 080820Z AUTO 21010KT 9999NDV FEW039/// BKN066/// 21/14
     Q1017=
EKHO NIL=
EKKA 080820Z 20010KT 170V240 9999 FEW028TCU BKN045 20/14 Q1017
     TEMPO 6000 SHRA SCT020CB=
EKMB NIL=
EKOD 080820Z NIL=
EKRK 080821Z 17012KT 140V200 CAVOK 23/12 Q1020=
EKRN 080820Z AUTO 20004KT 170V230 9999NDV NCD 19/15 Q1022=
EKSB 080820Z NIL=
EKSN 080820Z NIL=
EKSP 080820Z 19007KT CAVOK 22/13 Q1018 NOSIG RMK FEW050 BKN090=
EKSV NIL=
EKTS NIL=
EKVA NIL=
EKVD 080820Z NIL=
EKVG 080822Z 17012KT 9999 SCT004 BKN006 BKN010 11/10 Q0992 RMK/RWY
     13/31 CLOSED DUE WIP/ SEE NOTAM E0050/10 WIND 850FT
     VRB07G18KT=
EKVG 080822Z 17012KT 9999 SCT004 BKN006 BKN010 11/10 Q0992 RMK/RWY
     13/31 CLOSED DUE WIP. SEE NOTAM E0050/10 WIND 850FT
     VRB07G18KT=
EKVJ 080820Z NIL=
EKVL NIL=
EKYT 080820Z 22009KT 9999 FEW025 BKN032 20/14 Q1017 NOSIG=
####018000157####
SAEM31 KWBC 080800 RRD
METAR
LOWG 080820Z 16003KT 090V220 9999 FEW060 22/09 Q1024 NOSIG=
LOWW 080820Z 35005KT 270V040 9999 FEW035 20/10 Q1024 NOSIG=
####018001266####
SAEN31 KWBC 080820
METAR
EETN 080820Z 31007KT 280V350 CAVOK 22/18 Q1014 NOSIG=
EFHF 080820Z 34006KT 300V040 9999 SCT033 26/19 Q1014=
EFHK 080820Z 35006KT 300V010 9999 FEW030 SCT200 26/18 Q1014
     NOSIG=
EFIV NIL=
EFJY 080820Z 02001KT 9999 BKN014 20/17 Q1016=
EFKE NIL=
EFKK 080820Z VRB02KT CAVOK 22/13 Q1015=
EFKU 080820Z AUTO VRB03KT 9999NDV BKN016 BKN104 22/17 Q1015=
EFMA 080820Z 27007KT CAVOK 20/12 Q1016=
EFOU 080820Z 13004KT 070V190 9999 FEW018 SCT200 20/12 Q1016=
EFPN NIL=
EFPO 080820Z VRB01KT 9999 FEW045 SCT120 23/12 Q1016=
EFRO 080820Z AUTO 21004KT 180V280 9999NDV FEW026 18/11 Q1017=
EFTN NIL=
EFTP 080820Z VRB03KT 9999 FEW040 23/14 Q1015=
EFTU 080820Z AUTO 34007KT 300V040 CAVOK 24/09 Q1016=
EFVA 080820Z 15004KT 100V190 9999 FEW020 BKN200 21/12 Q1015=
ENBO NIL=
ENBR NIL=
ENCN 080820Z 20007KT 8000 BKN004 16/15 Q1015=
ENEB NIL=
ENFB NIL=
ENGM NIL=
ENHD 080820Z 19010KT 9999 FEW008 16/12 Q1013=
ENKR 080820Z NIL=
ENSB 080820Z NIL=
ENTC 080820Z 33003KT 280V360 9999 FEW068 SCT090 15/08 Q1011
     NOSIG=
ENVA NIL=
ENZV NIL=
EVRA 080820Z 31009KT 280V350 9999 OVC005 18/17 Q1015 BECMG BKN010
     OVC015=
EYVI 080820Z 28008KT 250V310 2600 RA BKN007 OVC023 15/14 Q1014
     NOSIG=
####018000028####
SAGR31 KWBC 080820
NIL=
####018000028####
SAGR41 KWBC 080820
NIL=
####018000028####
SAIY31 KWBC 080820
NIL=
####018000028####
SAIY41 KWBC 080820
NIL=
####018000028####
SAIY42 KWBC 080820
NIL=
####018000028####
SAIY32 KWBC 080820
NIL=
####018000028####
SAIY43 KWBC 080820
NIL=
####018000131####
SPXX61 KWBC 080826
SPECI
EGUL 080823Z AUTO 25005KT 9999 FEW005 SCT015 OVC022 17/17 A3007
RMK AO2 DZE0823 FEW V SCT SLP183=
####018000535####
SANO41 KWBC 080820
METAR
ENAL 080820Z 17009KT 9999 SCT055 SCT085 18/06 Q1008=
ENAN NIL=
ENAT 080820Z NIL=
ENBL 080820Z 21010KT 9999 FEW030 BKN040 15/08 Q1010=
ENBN 080820Z NIL=
ENBV 080820Z NIL=
ENDI 080820Z NIL=
ENDU NIL=
ENEK 080820Z NIL=
ENEV 080820Z NIL=
ENFG 080820Z NIL=
ENFL 080820Z 18019KT 9999 FEW015 SCT050 16/12 Q1010=
ENFR NIL=
ENGC 080820Z 19029KT CAVOK 13/11 Q1007=
ENHF 080820Z NIL=
ENHV NIL=
ENKB 080820Z VRB02KT 9999 FEW057 SCT075 17/11 Q1009=
ENLI NIL=
ENLK NIL=
ENMH NIL=
####018000342####
SANL31 KWBC 080820
METAR
EHAM NIL=
EHBD NIL=
EHBK NIL=
EHDL NIL=
EHEH 080825Z AUTO 23006KT 9999NDV NCD 27/12 Q1019 BLU BLU=
EHGG NIL=
EHGR NIL=
EHHO NIL=
EHHV NIL=
EHKD NIL=
EHLE NIL=
EHLW NIL=
EHMZ NIL=
EHRD NIL=
EHSB NIL=
EHTE NIL=
EHTW NIL=
EHTX NIL=
EHVB NIL=
EHVK NIL=
EHVL NIL=
EHWO NIL=
####018000779####
SANO42 KWBC 080820
METAR
ENML 080820Z 07007KT 9999 FEW050 SCT060 16/12 Q1009=
ENMS 080820Z NIL=
ENNA 080820Z 16017KT 9999 FEW040 18/09 Q1014=
ENNK NIL=
ENNM NIL=
ENNO 080820Z NIL=
ENOA 080820Z 19023KT CAVOK1 13/11 Q1009=
ENOL NIL=
ENOV 080820Z NIL=
ENRA 080820Z NIL=
ENRM 080820Z NIL=
ENRO 080820Z 19010KT 140V240 9999 SCT030 BKN110 16/08 Q1011=
ENRS 080820Z NIL=
ENRY 080820Z 19010KT 150V220 8000 -SHRA SCT008 BKN012 16/15 Q1016
     TEMPO 4000 RA BR BKN006=
ENSD 080820Z NIL=
ENSG 080820Z NIL=
ENSH 080820Z NIL=
ENSK 080820Z NIL=
ENSN 080820Z NIL=
ENSO 080820Z 18008KT 9999 FEW015 SCT070 17/12 Q1012=
ENSR 080820Z NIL=
ENST 080820Z NIL=
ENSV NIL=
ENTO 080820Z 18007KT 6000 DZ FEW005 SCT026 16/15 Q1016=
ENVD 080820Z NIL=
####018000081####
SPUS41 KWBC 080826
SPECI
KDOV 080823Z AUTO 00000KT 2SM BR CLR 24/24 A2998=
####018000768####
SAPA32 KWBC 080800
METAR
NCRG 080800Z 08003KT 9999 SCT014 BKN290 24/23 Q1017=
NFFN 080800Z 12004KT 40KM SCT028 SCT048 23/19 Q1013 NOSIG RMK RR
     NIL=
NFNA 080800Z 00000KT 40KM SCT023 BKN050 OVC120 23/21 Q1014 RMK RR
     NIL=
NFTF 080800Z 19002KT 9999 FEW015 18/18 Q1015=
NFTV NIL=
NGFU 080800Z 08080Z 07007KT 50KM FEW020 SCT310 28/24 1009=
NGTA NIL=
NIUE 080800Z AUTO 15004KT //// ////// 25/24 Q1014=
NLWW NIL=
NSFA 080800Z 07006KT 45KM FEW020 27/25 Q1011=
NSFI NIL=
NSFU NIL=
NSMA NIL=
NSTU 080759Z 08009KT 10SM SCT014 BKN045 28/26 A2988 RMK SLP119
     T02790262=
NTAA 080800Z 09002KT 9999 FEW023 25/22 Q1015 WS ALL RWY NOSIG=
NTTG NIL=
NTTO NIL=
NVVV NIL=
NWWW 080800Z AUTO 04002KT 9999NDV FEW046/// 19/16 Q1016=
####018000122####
SPUS41 KWBC 080826
SPECI
KWRI 080822Z AUTO 00000KT 1 1/4SM R18/1800V5000FT R24/2200V2800FT
BR OVC003 24/24 A2999=
####018000118####
SPUS41 KWBC 080826
SPECI
KWRI 080823Z AUTO 00000KT 1SM R18/1000V4500FT R24/2000V2800FT BR
OVC003 24/24 A2999=
####018001137####
SASN31 KWBC 080820
METAR
ESDB NIL=
ESDF 080820Z 22004KT 150V100 CAVOK 22/12 Q1021=
ESGG 080820Z 21015KT 9999 BKN040 19/14 Q1018=
ESGJ 080820Z AUTO 20010KT 9999NDV BKN037/// 20/12 Q1019=
ESGP 080820Z 19012KT 9999 OVC039 19/15 Q1018=
ESKN 080820Z 31009KT 270V350 CAVOK 22/11 Q1018=
ESMK 080820Z 20007KT CAVOK 23/13 Q1021=
ESMS 080820Z 20010KT CAVOK 22/11 Q1021=
ESMX 080820Z 22007KT 170V260 CAVOK 22/11 Q1020=
ESNN 080820Z 14007KT CAVOK 20/12 Q1013=
ESNO 080820Z 14012KT 9999 FEW043 SCT076 20/11 Q1014=
ESNQ 080820Z 21010KT 9999 FEW020 SCT068 BKN092 16/09 Q1013 RERA
     REDZ=
ESNS 080820Z 14008KT 110V170 CAVOK 21/11 Q1015=
ESNU 080820Z 12008KT CAVOK 19/12 Q1015=
ESOK 080820Z 20007KT 9999 SCT025 BKN036 19/13 Q1017=
ESOW 080820Z 24009KT 210V270 CAVOK 21/13 Q1017=
ESPA 080820Z 15012KT CAVOK 18/13 Q1016=
ESPC NIL=
ESSA 080820Z 25008KT 210V290 CAVOK 22/11 Q1017 NOSIG=
ESSB 080820Z 27009KT 240V300 CAVOK 22/11 Q1017=
ESSD 080820Z 22008KT 180V260 9999NDV SCT030/// 19/12 Q1016=
ESSN NIL=
ESSP 080820Z 25008KT 210V280 CAVOK 22/12 Q1018=
ESSV 080820Z 30006KT 270V340 CAVOK 20/12 Q1019=
####018000513####
SASW31 KWBC 080820
METAR
LSGC 080820Z 24008KT 190V270 CAVOK 22/12 Q1024=
LSGG 080820Z 07004KT 330V120 CAVOK 25/11 Q1022 NOSIG=
LSGL NIL=
LSGN NIL=
LSGS 080820Z VRB02KT CAVOK 25/12 Q1022=
LSZA 080820Z 15004KT 120V200 9999 BKN055 24/14 Q1023 NOSIG=
LSZB 080820Z VRB02KT CAVOK 23/15 Q1022 NOSIG=
LSZD NIL=
LSZG 080820Z VRB01KT CAVOK 22/11 Q1022 NOSIG=
LSZH 080820Z 32004KT 260V050 CAVOK 22/12 Q1022 NOSIG=
LSZL NIL=
LSZR 080820Z VRB01KT CAVOK 21/15 Q1022 NOSIG RMK E=
LSZS 080820Z NIL=
####018001030####
SAUK31 KWBC 080820
METAR
EGAA 080820Z 22011KT 9999 FEW015 14/11 Q1014=
EGBB 080820Z 21008KT CAVOK 16/10 Q1018=
EGCC 080820Z 21009KT 9999 FEW030 16/12 Q1017=
EGFF 080820Z 21005KT 9999 SCT016 17/13 Q1019=
EGGD 080820Z 23004KT 9999 -RADZ FEW015 15/13 Q1019=
EGGP 080820Z 20009KT 9999 FEW030 17/11 Q1017=
EGGW 080820Z 26007KT 9999 BKN023 17/13 Q1019=
EGHD 080820Z NIL=
EGHH 080820Z NIL=
EGHI 080820Z 24006KT 210V280 8000 SCT007 BKN012 17/16 Q1019=
EGJB 080820Z 22004KT 180V270 9999 2200SE VCFG FEW001 BKN006 17/16
     Q1020=
EGJJ 080820Z 29002KT 240V340 9999 FEW004 SCT010 19/17 Q1019
     NOSIG=
EGKA 080820Z NIL=
EGKB 080820Z 24006KT 200V280 9999 BKN013 19/15 Q1020=
EGKK 080820Z 23006KT 9999 BKN014 19/14 Q1019=
EGLF 080820Z 24006KT 9000 4000N VCSH SCT009 BKN001 18/16 Q1019=
EGLL 080820Z 30007KT 5000 -RA SCT008 BKN012 17/15 Q1019=
EGMC 080820Z 26008KT 9999 FEW017 SCT040 20/16 Q1019=
EGMD 080820Z 25003KT 9999 3500SE FEW000 SCT003 BKN006 17/15
     Q1020=
EGNH NIL=
EGNJ NIL=
####018000630####
SAUK32 KWBC 080820
METAR
EGNM 080820Z 25006KT 200V290 9999 SCT018 15/10 Q1016=
EGNS NIL=
EGNT 080820Z 22007KT 180V260 9999 FEW040 16/11 Q1015=
EGNV 080820Z 19009KT 9999 FEW022 16/13 Q1016=
EGNX 080820Z 22010KT CAVOK 16/10 Q1017=
EGPA NIL=
EGPB 080820Z 20014KT CAVOK 14/11 Q1006=
EGPC NIL=
EGPD 080820Z 22011KT 180V250 9999 FEW032 16/09 Q1010 NOSIG=
EGPF 080820Z 22015KT 9999 FEW020 SCT030 15/10 Q1012=
EGPH 080820Z 22015KT 9999 FEW025 17/10 Q1012=
EGPK 080820Z 22012KT 9999 SCT025 15/10 Q1013=
EGSH NIL=
EGTE 080820Z 05002KT 9999 FEW025 18/14 Q1019=
EGTG 080820Z 25004KT 9999 SCT015 17/12 Q1019=
####018000628####
SAUK41 KWBC 080820
METAR
EGAC 080820Z 22010KT 190V250 9999 FEW018 SCT024 15/10 Q1014=
EGAE NIL=
EGBE NIL=
EGBJ NIL=
EGDC NIL=
EGDG NIL=
EGDL NIL=
EGDM 080818Z 26003KT 9999 FEW014 BKN022 BKN130 17/13 Q1019 WHT
     TEMPO SCT014 GRN=
EGDN NIL=
EGDP NIL=
EGDR NIL=
EGDY NIL=
EGFH NIL=
EGGP 080820Z 20009KT 9999 FEW030 17/11 Q1017=
EGGW 080820Z 26007KT 9999 BKN023 17/13 Q1019=
EGHE 080820Z NIL=
EGJA 080820Z 17003KT 9999 0800SE BCFG SCT001 BKN015 16/16
     Q1020=
EGLC 080820Z 25006KT 220V280 9999 BKN022 20/14 Q1019=
EGNC NIL=
EGNT 080820Z 22007KT 180V260 9999 FEW040 16/11 Q1015=
####018000422####
SAUK42 KWBC 080820
METAR
EGOS NIL=
EGOV NIL=
EGPC NIL=
EGPE NIL=
EGPF 080820Z 22015KT 9999 FEW020 SCT030 15/10 Q1012=
EGPL NIL=
EGPM NIL=
EGPN NIL=
EGPO NIL=
EGPT NIL=
EGPU NIL=
EGPW NIL=
EGQJ NIL=
EGQK NIL=
EGQL NIL=
EGQM NIL=
EGQS NIL=
EGSC NIL=
EGSS 080820Z 28007KT 4000 -DZ SCT003 BKN006 16/15 Q1019=
EGTC 080820Z 25005KT 210V300 9999 FEW018 SCT030 17/12 Q1018=
EGTI NIL=
####018000181####
SAXX61 KWBC 080800 RRC
METAR
EDAH 080820Z 14007KT 110V180 CAVOK 21/11 Q1022=
EDMA 080820Z 13007KT 090V160 CAVOK 22/09 Q1023=
EGPK 080820Z 22012KT 9999 SCT025 15/10 Q1013=
####018000099####
SPUS42 KWBC 080826
SPECI
KTUL 080823Z 00000KT 3SM +TSRA BR SCT008 BKN047 OVC080 23/22 A3001=
####018003703####
SAXX99 KWBC 080800 RRS
METAR
CZFS 080800Z AUTO 36004KT 16/15 RMK AO1 SLP157 T01580145 55000=
EDAC 080820Z 24004KT CAVOK 23/13 Q1022=
EDFH 080820Z 12007KT 080V170 CAVOK 23/12 Q1021=
EDGS 080820Z 15007KT 120V210 CAVOK 22/10 Q1022=
EDHK 080820Z 16005KT 9999 FEW060 SCT100 BKN120 24/12 Q1019 BLU
     BLU=
EDLV 080820Z 20006KT 160V230 CAVOK 27/11 Q1019=
EDOP 080820Z 17007KT 150V210 CAVOK 26/12 Q1021=
EDRZ 080820Z 14005KT 080V190 CAVOK 25/13 Q1021=
EDSB 080820Z 34004KT 290V020 CAVOK 24/13 Q1021=
EDTL 080820Z 23003KT CAVOK 24/14 Q1020=
EFHA 080820Z 33002KT 9999 BKN006 OVC070 20/18 Q1016=
EFKA 080820Z VRB02KT 9999 FEW022 SCT200 22/16 Q1015=
EFSI 080820Z AUTO VRB03KT CAVOK 22/14 Q1015=
EGHK 080820Z NIL=
EGMH 080820Z 27008KT 230V310 9999 FEW012 20/16 Q1019=
EGTG 080820Z 25004KT 9999 SCT015 17/12 Q1019=
EKGF 080820Z NIL=
ENDR 080820Z NIL=
ENHE 080820Z NIL=
ENSS 080820Z NIL=
ESGR 080820Z AUTO 19009KT 9999NDV OVC039/// 20/14 Q1018=
ESGT 080820Z 21009KT 9999 SCT030 BKN040 20/13 Q1017=
ESKM 080820Z NIL=
ESMQ 080820Z 17008KT CAVOK 22/13 Q1020=
ESMT 080820Z 17010KT CAVOK 21/14 Q1020=
ESNG 080820Z NIL=
ESNK 080820Z AUTO 15010KT 9999NDV NCD 21/14 Q1013=
ESNL 080820Z 14012KT CAVOK 19/11 Q1013=
ESNX 080820Z AUTO 17012KT 9999NDV BKN078/// ///// Q1014=
ESNY 080820Z AUTO 17006KT 130V260 9999 SKC 22/15 Q1014=
ESOE 080820Z 22011KT 9999 BKN040 20/12 Q1018=
ESSF 080820Z NIL=
ESSK 080820Z NIL=
ESSL 080820Z 26010KT 220V290 9999 BKN041 21/11 Q1019=
ESTA 080820Z 17013KT CAVOK 20/14 Q1020=
ESTL 080820Z AUTO 19009KT 9999NDV FEW054/// SCT069/// 21/13
     Q1020=
ESUD 080820Z NIL=
ESUT 080820Z AUTO 15010KT 9999NDV FEW080/// OVC130/// 18/10
     Q1010=
ETGG 080820Z 18008KT 9999 BKN055 SCT120 24/13 Q1018 BLU=
ETGY 080820Z 22004KT 9999 FEW140 27/11 Q1019 BLU/=
ETGY 080820Z 22004KT 9999 FEW140 27/11 Q1019 BLU+=
ETGZ 080820Z 13004KT 9999 FEW120 20/08 Q1024 BLU/=
ETGZ 080820Z 13004KT 9999 FEW120 20/08 Q1024 BLU+=
ETHA 080820Z 07006KT 9999 FEW150 20/10 Q1023 BLU+BLU+=
ETHB 080820Z 20005KT 9999 FEW140 25/12 Q1020 BLU+BLU+=
ETHC 080820Z 22004KT 9999 FEW056 25/11 Q1020 BLU+BLU+=
ETHE 080820Z 17004KT 9999 FEW050 BKN260 26/12 Q1019 BLU/BLU/=
ETHE 080820Z 17004KT 9999 FEW050 BKN260 26/12 Q1019 BLU+BLU+=
ETHF 080820Z 16006KT 9999 FEW300 23/12 Q1021 BLU+BLU+=
ETHL 080820Z 07004KT 9999 FEW140 22/09 Q1022 BLU+BLU+=
ETHR 080820Z 13003KT 9999 FEW200 23/07 Q1023 BLU+BLU+=
ETHS 080820Z 17005KT 9999 FEW160 25/10 Q1020 BLU+BLU+=
ETMN 080820Z 21005KT 9999 FEW050 SCT110 BKN270 25/10 Q1019
     BLU/BLU/=
ETMN 080820Z 21005KT 9999 FEW050 SCT110 BKN270 25/10 Q1019
     BLU+BLU+=
ETND 080820Z 20005KT 9999 FEW180 25/14 Q1019 BLU/=
ETND 080820Z 20005KT 9999 FEW180 25/14 Q1019 BLU+=
ETNH 080820Z 18006KT 9999 BKN050 SCT110 23/13 Q1019 BLU BLU/ TEMPO
     BLU=
ETNH 080820Z 18006KT 9999 BKN050 SCT110 23/13 Q1019 BLU BLU+ TEMPO
     BLU=
ETNL 080820Z 18004KT 9999 SCT090 SCT150 22/12 Q1021 BLU/BLU/=
ETNL 080820Z 18004KT 9999 SCT090 SCT150 22/12 Q1021 BLU+BLU+=
ETNN 080820Z 21006KT 9999 FEW300 27/06 Q1020 BLU+BLU+=
ETNS 080820Z 16007KT 9999 BKN050 SCT120 24/09 Q1019 BLU BLU=
ETNT 080820Z 22008KT 9999 FEW090 SCT270 27/11 Q1018 BLU/BLU/=
ETNT 080820Z 22008KT 9999 FEW090 SCT270 27/11 Q1018 BLU+BLU+=
ETNU 080820Z 16003KT 9999 BKN160 22/10 Q1022 BLU BLU TEMPO
     BLU/=
ETNU 080820Z 16003KT 9999 BKN160 22/10 Q1022 BLU BLU TEMPO
     BLU+=
ETSA 080820Z 08007KT 9999 FEW270 21/10 Q1023 BLU+BLU+=
ETSB 080820Z 16005KT 9999 SCT290 24/08 Q1022 BLU+BLU+=
ETSE 080820Z 11008KT 9999 FEW170 21/09 Q1023 BLU+BLU+=
ETSH 080820Z 17006KT 9999 FEW170 23/08 Q1022 BLU+BLU+=
####018000401####
SAXX99 KWBC 080800 RRT
METAR
ETSI 080820Z 09006KT 9999 FEW120 22/09 Q1023 BLU+BLU+=
ETSL 080820Z 08006KT 9999 FEW250 22/09 Q1023 BLU+BLU+=
ETSN 080820Z 07004KT 9999 FEW160 22/09 Q1023 BLU+BLU+=
ETWM 080820Z 22007KT 9999 FEW060 SCT240 27/09 Q1019 BLU/=
ETWM 080820Z 22007KT 9999 FEW060 SCT240 27/09 Q1019 BLU+=
VTCH 080800Z 19002KT 9999 FEW025 SCT030 35/20 Q1006 A2972 INFO :
     H=
####018000081####
SPCN47 CWAO 080824
SPECI CYPQ 080824Z AUTO ///// 2 1/8SM CLR 19/19 A3003=

####018000116####
SPCN47 CWAO 080823
SPECI CYYY 080823Z 29002KT 3/4SM R06/2600VP6000FT/D BR OVC004 RMK
FG6SF2 VIS 3 SW QUAD=

####018000082####
SPUS43 KWBC 080826
SPECI
KSUS 080823Z AUTO 00000KT 10SM SCT055 24/23 A3002=
####018000238####
SANO36 ENMI 080820
METAR ENBS 080820Z NIL=
METAR ENHK 080820Z 10014KT 9999 FEW035 BKN080 15/08 Q1012=
METAR ENHV 080820Z NIL=
METAR ENLK 080820Z NIL=
METAR ENMH 080820Z NIL=
METAR ENNK 080820Z NIL=
METAR ENNM 080820Z NIL=
####018000590####
SANO31 ENMI 080820
METAR ENAN 080820Z 16007KT 9999 FEW045 17/10 Q1010 NOSIG =
METAR ENBR 080820Z 17012KT 9999 FEW015 SCT060 BKN080 15/12 Q1012
           NOSIG =
METAR ENBO 080820Z 02008KT 340V060 9999 FEW050 BKN100 17/10 Q1010
           NOSIG =
METAR ENDU 080820Z 09004KT 010V140 9999 FEW050 SCT080 19/08 Q1011
           NOSIG=
METAR ENGM 080813Z 19013KT 9999 FEW010 SCT013 BKN018 16/14 Q1015
           TEMPO BKN012=
METAR ENOL 080820Z NIL=
METAR ENVA 080820Z 14007KT 110V190 CAVOK 20/12 Q1009 NOSIG =
METAR ENZV 080820Z 20009KT 9999 FEW020 18/13 Q1013 NOSIG=
####018000096####
SPUS53 KWBC 080826
SPECI
KCNK 080823Z AUTO 35005KT 10SM BKN014 BKN021 OVC026 20/19 A3014=
####018000096####
SPCN44 CWAO 080824
SPECI CYPE 080824Z 29012KT 15SM -TSRA BKN060CB RMK CB5 OCNL LTGCG NW=

####018000092####
SPUS72 KWBC 080826
SPECI
KNGP 080824Z AUTO 08010KT 10SM TS FEW019 BKN055 28/26 A2980=
####018000335####
SADL36 EDZO 080820
METAR EDHK 080820Z 16005KT 9999 FEW060 SCT100 BKN120 24/12 Q1019
      BLU BLU=
METAR ETNL 080820Z 18004KT 9999 SCT090 SCT150 22/12 Q1021
      BLU+BLU+=
METAR ETNU 080820Z 16003KT 9999 BKN160 22/10 Q1022
      BLU BLU TEMPO BLU+=
METAR ETSI 080820Z 09006KT 9999 FEW120 22/09 Q1023
      BLU+BLU+=
####018000099####
SPUS72 KWBC 080826
SPECI
KTUL 080823Z 00000KT 3SM +TSRA BR SCT008 BKN047 OVC080 23/22 A3001=
####018000082####
SPUS73 KWBC 080826
SPECI
KSUS 080823Z AUTO 00000KT 10SM SCT055 24/23 A3002=
####018000096####
SPUS81 KWBC 080826
SPECI
KCNK 080823Z AUTO 35005KT 10SM BKN014 BKN021 OVC026 20/19 A3014=
####018001727####
SAEU KAWN 080800 RRX
METAR EBAW 080820Z 20006KT 180V250 CAVOK 26/13 Q1019 NOSIG=
METAR EBCI 080820Z 19007KT CAVOK 26/11 Q1020 NOSIG=
METAR EBOS 080820Z 28007KT CAVOK 20/15 Q1019 NOSIG=
METAR COR EGCC 080820Z 21009KT 9999 FEW030 16/12 Q1017 NOSIG=
METAR EGNS 080820Z 24011KT 9999 FEW020 16/10 Q1015 NOSIG=
METAR EGVP 080821Z 30003KT 7000 -RA FEW004 BKN016 BKN030 15/14 Q1019
      WHT TEMPO SCT012 GRN=
METAR ELLX 080820Z VRB03KT CAVOK 24/10 Q1021 NOSIG=
METAR ENAL 080820Z 17009KT 9999 SCT055 SCT085 18/06 Q1008=
METAR ENGC 080820Z 19029KT CAVOK 13/11 Q1007=
METAR ENOA 080820Z 19023KT CAVOK1 13/11 Q1009=
METAR ENRY 080820Z 19010KT 150V220 8000 -SHRA SCT008 BKN012 16/15 Q1016
      TEMPO 4000 RA BR BKN006=
METAR LIEA 080820Z 05005KT 350V120 CAVOK 28/20 Q1019=
METAR LIEE 080815Z 24002KT CAVOK 26/19 Q1018 NOSIG=
METAR LIEO 080820Z 03004KT 300V070 CAVOK 29/20 Q1019=
METAR LIMC 080820Z VRB03KT 9999 SCT040 BKN060 25/14 Q1022 NOSIG=
METAR LIME 080820Z 13008KT 090V170 9999 SCT055 25/15 Q1023=
METAR LIMF 080820Z VRB02KT 9999 SCT030 SCT050 23/17 Q1022=
METAR LIMJ 080820Z 04007KT CAVOK 29/21 Q1020=
METAR LIML 080820Z 11007KT 070V180 9999 BKN070 25/17 Q1022 NOSIG=
METAR LIRA 080815Z 23002KT 180V250 9999 SCT018 27/20 Q1019=
METAR LIRF 080820Z 19008KT 160V240 9999 SCT020 28/20 Q1019 NOSIG=
METAR LIRN 080820Z 06008KT CAVOK 26/12 Q1019=
METAR LIRP 080815Z 11011KT CAVOK 28/16 Q1019 NOSIG=
METAR LIRQ 080820Z VRB02KT CAVOK 28/13 Q1020=
METAR LOWI 080820Z VRB02KT CAVOK 21/13 Q1023 NOSIG=
METAR LOWK 080820Z 29003KT 220V350 9999 FEW050 20/10 Q1024 NOSIG=
METAR LOWL 080820Z 10004KT 050V140 CAVOK 20/10 Q1024 NOSIG=
METAR LOWS 080820Z VRB02KT CAVOK 21/08 Q1023 NOSIG=
####018000087####
SABN32 OBBI 080800 RRA
METAR OMAD 080800Z 18008KT 150V230 CAVOK 41/18 Q1000 A2955=
####018000639####
SAEG31 HECA 080800
METAR HEBL 080800Z 03014KT CAVOK       38/09 Q1011 NOSIG=
METAR HEAX 080800Z 29010KT 9999 SCT020 29/21 Q1010 NOSIG=
METAR HEMM 080800Z 31010KT CAVOK       27/22 Q1012 NOSIG=
METAR HEPS 080800Z 26007KT 9999 SCT025 28/21 Q1010 NOSIG=
METAR HELX 080800Z NIL=
METAR HESN 080800Z NIL=
METAR HEGN 080800Z 34023KT CAVOK       34/19 Q1006 NOSIG=
METAR HESH 080800Z 02014KT CAVOK       34/14 Q1007 NOSIG=
METAR HEBA 080800Z NIL=
METAR HEMA 080800Z 01017KT CAVOK       33/19 Q1007 NOSIG=
METAR HETB 080800Z 00000KT CAVOK       27/13 Q1014 NOSIG=
METAR HESC 080800Z 05008KT CAVOK       28/12 Q1018 NOSIG=
####018000773####
SAIY31 LIIB 080820
METAR LIEA 080820Z 05005KT 350V120 CAVOK 28/20 Q1019=
METAR LIEE 080815Z 24002KT CAVOK 26/19 Q1018 NOSIG=
METAR LIEO 080820Z 03004KT 300V070 CAVOK 29/20 Q1019=
METAR LIMC 080820Z VRB03KT 9999 SCT040 BKN060 25/14 Q1022 NOSIG=
METAR LIME 080820Z 13008KT 090V170 9999 SCT055 25/15 Q1023=
METAR LIMF 080820Z VRB02KT 9999 SCT030 SCT050 23/17 Q1022=
METAR LIMJ 080820Z 04007KT CAVOK 29/21 Q1020=
METAR LIML 080820Z 11007KT 070V180 9999 BKN070 25/17 Q1022 NOSIG=
METAR LIRA 080815Z 23002KT 180V250 9999 SCT018 27/20 Q1019=
METAR LIRF 080820Z 19008KT 160V240 9999 SCT020 28/20 Q1019 NOSIG=
METAR LIRN 080820Z 06008KT CAVOK 26/12 Q1019=
METAR LIRP 080815Z 11011KT CAVOK 28/16 Q1019 NOSIG=
METAR LIRQ 080820Z VRB02KT CAVOK 28/13 Q1020=
####018000559####
SAIY32 LIIB 080820
METAR LIBD 080820Z 01011KT 9999 FEW030 25/12 Q1019=
METAR LIBR 080815Z /////KT CAVOK 25/15 Q1017 NOSIG=
METAR LICC 080820Z 09005KT CAVOK 29/21 Q1018=
METAR LICJ 080820Z 04014KT CAVOK 26/22 Q1018=
METAR LIPE 080820Z 12006KT 070V180 CAVOK 27/16 Q1021=
METAR LIPH 080815Z 03003KT 9999 SCT035 BKN070 23/19 Q1023=
METAR LIPQ 080820Z VRB01KT 9999 BKN050 24/14 Q1022=
METAR LIPR 080815Z 12005KT CAVOK 27/18 Q1021=
METAR LIPX 080815Z 10006KT 9999 SCT080 27/15 Q1022=
METAR LIPZ 080820Z 12007KT 9999 SCT040 BKN070 25/16 Q1022=
####018000082####
SPUS81 KWBC 080826
SPECI
KSUS 080823Z AUTO 00000KT 10SM SCT055 24/23 A3002=
####018000635####
SASA KAWN 080800 RRF
METAR SABE 080800Z 27008KT CAVOK 08/04 Q1019=
METAR SAZN 080800Z 00000KT 9999 SCT050 BKN100 04/01 Q1011=
METAR SAZS 080800Z 32014KT 5000 +DZ BKN010 SCT040 03/01 Q1005=
METAR SBAF 080800Z 00000KT CAVOK 14/12 Q1019=
METAR SBAN 080800Z 11005KT CAVOK 15/09 Q1022=
METAR SBBH 080800Z 07003KT CAVOK 11/08 Q1022=
METAR SBBU 080800Z 04010KT CAVOK 17/11 Q1018=
METAR SBDN 080800Z 06006KT CAVOK 18/10 Q1017=
METAR SBIL 080800Z 29004KT 9999 FEW020 22/21 Q1017=
METAR SBME 080800Z 03003KT CAVOK 15/14 Q1018=
METAR SBUL 080800Z 09006KT CAVOK 15/07 Q1021=
METAR SBUR 080800Z 08004KT CAVOK 16/07 Q1020=
####018000130####
SAXN17 KAWN 080800 RRF
METAR PKWA 080820Z AUTO 11013KT 10SM BKN009 BKN015 OVC030 25/23 A2985
      RMK AO2 P0001 T02520232=
####018000074####
SASA KAWN 080600 RRI
METAR SBSC 080600Z 04004KT 7000 NSC 16/15 Q1017=
####018000334####
SAZZ40 KAWN 080800 RRQ
METAR EFKU 080820Z AUTO VRB03KT 9999NDV BKN016 BKN104 22/17 Q1015=
METAR EFOU 080820Z 13004KT 070V190 9999 FEW018 SCT200 20/12 Q1016=
METAR EGMH 080820Z 27008KT 230V310 9999 FEW012 20/16 Q1019=
METAR OIFM 080800Z 11010KT CAVOK 37/04 Q1017 A3005=
METAR OKBK 080830Z 36017KT CAVOK 46/M08 Q1001 NOSIG=
####018000524####
SASN33 ESWI 080820
METAR ESNG 080820Z NIL=
METAR ESNK 080820Z AUTO 15010KT 9999NDV NCD 21/14 Q1013=
METAR ESNN 080820Z 14007KT CAVOK 20/12 Q1013=
METAR ESNO 080820Z 14012KT 9999 FEW043 SCT076 20/11 Q1014=
METAR ESNQ 080820Z 21010KT 9999 FEW020 SCT068 BKN092 16/09 Q1013
RERA REDZ=
METAR ESNS 080820Z 14008KT 110V170 CAVOK 21/11 Q1015=
METAR ESNU 080820Z 12008KT CAVOK 19/12 Q1015=
METAR ESNZ 080820Z 18009KT CAVOK 16/11 Q1012=
METAR ESUT 080820Z AUTO 15010KT 9999NDV FEW080/// OVC130/// 18/10
Q1010=
####018000361####
SABX31 EBBR 080820
METAR EBAW 080820Z 20006KT 180V250 CAVOK 26/13 Q1019 NOSIG=
METAR EBBR 080820Z 25004KT 210V290 CAVOK 27/11 Q1019 NOSIG=
METAR EBCI 080820Z 19007KT CAVOK 26/11 Q1020 NOSIG=
METAR EBLG 080820Z 20008KT CAVOK 26/09 Q1020 NOSIG=
METAR EBOS 080820Z 28007KT CAVOK 20/15 Q1019 NOSIG=
METAR ELLX 080820Z VRB03KT CAVOK 24/10 Q1021 NOSIG=
####018000089####
SAUK31 EGGY 080820 CCA
METAR COR EGCC 080820Z 21009KT 9999 FEW030 16/12 Q1017 NOSIG=
####018000083####
SAPK31 OPKC 080825
METAR OPKC 080830Z 10018KTS 9000 BKN030 35/24 Q.1003 NOSIG=
####018000187####
SASN34 ESWI 080820
METAR ESDF 080820Z 22004KT 150V100 CAVOK 22/12 Q1021=
METAR ESPA 080820Z 15012KT CAVOK 18/13 Q1016=
METAR ESSL 080820Z 26010KT 220V290 9999 BKN041 21/11 Q1019=
####018000639####
SAEG32 HECA 080800
METAR HEBL 080800Z 03014KT CAVOK       38/09 Q1011 NOSIG=
METAR HEAX 080800Z 29010KT 9999 SCT020 29/21 Q1010 NOSIG=
METAR HEMM 080800Z 31010KT CAVOK       27/22 Q1012 NOSIG=
METAR HEPS 080800Z 26007KT 9999 SCT025 28/21 Q1010 NOSIG=
METAR HELX 080800Z NIL=
METAR HESN 080800Z NIL=
METAR HEGN 080800Z 34023KT CAVOK       34/19 Q1006 NOSIG=
METAR HESH 080800Z 02014KT CAVOK       34/14 Q1007 NOSIG=
METAR HEBA 080800Z NIL=
METAR HEMA 080800Z 01017KT CAVOK       33/19 Q1007 NOSIG=
METAR HETB 080800Z 00000KT CAVOK       27/13 Q1014 NOSIG=
METAR HESC 080800Z 05008KT CAVOK       28/12 Q1018 NOSIG=
####018000359####
SAUK33 EGGY 080820
METAR EGGD 080820Z 23004KT 9999 -RADZ FEW015 15/13 Q1019=
METAR EGGP 080820Z 20009KT 9999 FEW030 17/11 Q1017=
METAR EGHI 080820Z 24006KT 210V280 8000 SCT007 BKN012 17/16 Q1019 =
METAR EGNS 080820Z NIL=
METAR EGNT 080820Z NIL=
METAR EGNV 080820Z 19009KT 9999 FEW022 16/13 Q1016=
METAR EGPB 080820Z 20014KT CAVOK 14/11 Q1006=
####018000373####
SAFI32 EFHK 080820
EFHA 080820Z 33002KT 9999 BKN006 OVC070 20/18 Q1016=
EFHF 080820Z 34006KT 300V040 9999 SCT033 26/19 Q1014=
EFKA 080820Z VRB02KT 9999 FEW022 SCT200 22/16 Q1015=
EFKK 080820Z VRB02KT CAVOK 22/13 Q1015=
EFMA 080820Z 27007KT CAVOK 20/12 Q1016=
EFPO 080820Z VRB01KT 9999 FEW045 SCT120 23/12 Q1016=
EFSI 080820Z AUTO VRB03KT CAVOK 22/14 Q1015=
####018000085####
SAUK33 EGGY 080820 RRB
METAR EGNS 080820Z 24011KT 9999 FEW020 16/10 Q1015 NOSIG=
####018000395####
SAOS31 LOWM 080820
METAR LOWW 080820Z 35005KT 270V040 9999 FEW035 20/10 Q1024 NOSIG=
METAR LOWL 080820Z 10004KT 050V140 CAVOK 20/10 Q1024 NOSIG=
METAR LOWS 080820Z VRB02KT CAVOK 21/08 Q1023 NOSIG=
METAR LOWI 080820Z VRB02KT CAVOK 21/13 Q1023 NOSIG=
METAR LOWG 080820Z 16003KT 090V220 9999 FEW060 22/09 Q1024 NOSIG=
METAR LOWK 080820Z 29003KT 220V350 9999 FEW050 20/10 Q1024 NOSIG=
####018000087####
SAUK33 EGGY 080820 RRA
METAR EGNT 080820Z 22007KT 180V260 9999 FEW040 16/11 Q1015=
####018000432####
SASN35 ESWI 080820
METAR ESGL 080820Z AUTO 22010KT 9999NDV OVC043/// 20/14 Q1017=
METAR ESGR 080820Z AUTO 19009KT 9999NDV OVC039/// 20/14 Q1018=
METAR ESKM 080820Z NIL=
METAR ESNL 080820Z 14012KT CAVOK 19/11 Q1013=
METAR ESNX 080820Z AUTO 17012KT 9999NDV BKN078/// ///// Q1014=
METAR ESNY 080820Z AUTO 17006KT 130V260 9999 SKC 22/15 Q1014=
METAR ESSF 080820Z NIL=
METAR ESSK 080820Z NIL=
METAR ESUD 080820Z NIL=
####018000086####
SAOS32 LOWM 080820
METAR LOXZ 080820Z VRB02KT 70KM SKC 17/10 Q1024 NOSIG RMK SKC=
####018000290####
SAFI33 EFHK 080820
EFJO 080820Z 05003KT CAVOK 23/19 Q1015=
EFLP 080820Z 11006KT 020V170 CAVOK 29/16 Q1014=
EFMI 080820Z AUTO VRB03KT 9999 FEW028 26/19 Q1014=
EFSA 080820Z 36003KT 9999 FEW025 25/19 Q1014=
EFUT 080820Z 04006KT 340V100 CAVOK 28/17 Q1014=
METAR EFVR 080825Z NIL=
####018000086####
SPAU32 YBBN 080824
SPECI YSNF 080821Z 09010KT 9999 -RA SCT010 BKN018 14/12 Q1017=
####018000546####
SASN32 ESWI 080820
METAR ESKN 080820Z 31009KT 270V350 CAVOK 22/11 Q1018=
METAR ESOE 080820Z 22011KT 9999 BKN040 20/12 Q1018=
METAR ESOK 080820Z 20007KT 9999 SCT025 BKN036 19/13 Q1017=
METAR ESOW 080820Z 24009KT 210V270 CAVOK 21/13 Q1017=
METAR ESSA 080820Z 25008KT 210V290 CAVOK 22/11 Q1017 NOSIG=
METAR ESSB 080820Z 27009KT 240V300 CAVOK 22/11 Q1017=
METAR ESSD 080820Z 22008KT 180V260 9999NDV SCT030/// 19/12 Q1016=
METAR ESSP 080820Z 25008KT 210V280 CAVOK 22/12 Q1018=
METAR ESSV 080820Z 30006KT 270V340 CAVOK 20/12 Q1019=
####018000480####
SAUK34 EGGY 080820
METAR EGHD 080820Z NIL=
METAR EGHE 080820Z NIL=
METAR EGHK 080820Z NIL=
METAR EGHQ 080820Z NIL=
METAR EGJA 080820Z 17003KT 9999 0800SE BCFG SCT001 BKN015 16/16
    Q1020=
METAR EGJB 080820Z 22004KT 180V270 9999 2200SE VCFG FEW001 BKN006
    17/16 Q1020=
METAR EGJJ 080820Z 29002KT 240V340 9999 FEW004 SCT010 19/17 Q1019
    NOSIG=
METAR EGTE 080820Z 05002KT 9999 FEW025 18/14 Q1019=
METAR EGTG 080820Z 25004KT 9999 SCT015 17/12 Q1019=
####018000482####
SAUK35 EGGY 080820
METAR EGHH 080820Z NIL=
METAR EGKA 080820Z NIL=
METAR EGKB 080820Z 24006KT 200V280 9999 BKN013 19/15 Q1020 =
METAR EGLF 080820Z 24006KT 9000 4000N VCSH SCT009 BKN001 18/16 Q1019=
METAR EGMC 080820Z 26008KT 9999 FEW017 SCT040 20/16 Q1019=
METAR EGMD 080820Z 25003KT 9999 3500SE FEW000 SCT003 BKN006 17/15
    Q1020=
METAR EGMH 080820Z 27008KT 230V310 9999 FEW012 20/16 Q1019 =
METAR EGTC 080820Z 25005KT 210V300 9999 FEW018 SCT030 17/12 Q1018=
####018001752####
SAEU KAWN 080800 RRX
METAR EBBR 080820Z 25004KT 210V290 CAVOK 27/11 Q1019 NOSIG=
METAR EBLG 080820Z 20008KT CAVOK 26/09 Q1020 NOSIG=
METAR EGWU 080822Z 30004KT 8000 HZ SCT006 OVC014 17/16 Q1019 RERA REDZ
      YLO1=
METAR ENAN 080820Z 16007KT 9999 FEW045 17/10 Q1010 NOSIG=
METAR ENBL 080820Z 21010KT 9999 FEW030 BKN040 15/08 Q1010=
METAR ENBR 080820Z 17012KT 9999 FEW015 SCT060 BKN080 15/12 Q1012 NOSIG=
METAR ENCN 080820Z 20007KT 8000 BKN004 16/15 Q1015=
METAR ENFL 080820Z 18019KT 9999 FEW015 SCT050 16/12 Q1010=
METAR ENHD 080820Z 19010KT 9999 FEW008 16/12 Q1013=
METAR ENHK 080820Z 10014KT 9999 FEW035 BKN080 15/08 Q1012=
METAR ENKB 080820Z VRB02KT 9999 FEW057 SCT075 17/11 Q1009=
METAR ENML 080820Z 07007KT 9999 FEW050 SCT060 16/12 Q1009=
METAR ENNA 080820Z 16017KT 9999 FEW040 18/09 Q1014=
METAR ENRO 080820Z 19010KT 140V240 9999 SCT030 BKN110 16/08 Q1011=
METAR ENSO 080820Z 18008KT 9999 FEW015 SCT070 17/12 Q1012=
METAR ENTC 080820Z 33003KT 280V360 9999 FEW068 SCT090 15/08 Q1011 NOSIG=
METAR ENTO 080820Z 18007KT 6000 DZ FEW005 SCT026 16/15 Q1016=
METAR ENVA 080820Z 14007KT 110V190 CAVOK 20/12 Q1009 NOSIG=
METAR LEJR 080830Z 25003KT 230V320 CAVOK 24/19 Q1016=
METAR LIBD 080820Z 01011KT 9999 FEW030 25/12 Q1019=
METAR LIBR 080815Z /////KT CAVOK 25/15 Q1017 NOSIG=
METAR LICC 080820Z 09005KT CAVOK 29/21 Q1018=
METAR LICJ 080820Z 04014KT CAVOK 26/22 Q1018=
METAR LIPE 080820Z 12006KT 070V180 CAVOK 27/16 Q1021=
METAR LIPH 080815Z 03003KT 9999 SCT035 BKN070 23/19 Q1023=
METAR LIPQ 080820Z VRB01KT 9999 BKN050 24/14 Q1022=
METAR LIPR 080815Z 12005KT CAVOK 27/18 Q1021=
METAR LIPX 080815Z 10006KT 9999 SCT080 27/15 Q1022=
METAR LIPZ 080820Z 12007KT 9999 SCT040 BKN070 25/16 Q1022=
####018000188####
SPAU31 AMMC 080826
SPECI YSSY 080823Z 21015KT 7000 -SHRA FEW010 SCT020 BKN055 12/12 Q1026
     FM0823 19015KT 9999 -SHRA SCT025 BKN040
     INTER 0823/1123 5000 SHRA BKN015=


####018000182####
SPAU31 AMMC 080826
SPECI YSSY 080823Z 21015KT 7000 -SHRA FEW010 SCT020 BKN055 12/12 Q1026
     FM0823 19015KT 9999 -SHRA SCT025 BKN040
     INTER 0823/1123 5000 SHRA BKN015=
####018000260####
SAUS20 KNKA 080826
SPECI KBDR 080825Z AUTO 09006KT 1 3/4SM BR OVC004 24/23 A3002 RMK 
    AO2 CIG 001V006=
SPECI KBJJ 080825Z AUTO 00000KT 3SM BR CLR 18/18 A3009 RMK AO2=
SPECI KRHI 080825Z AUTO 29005KT 10SM FEW005 SCT100 19/18 A3002 RMK 
    AO2=
####018000250####
SPUS99 KWBC 080827
SPECI
KBDR 080825Z AUTO 09006KT 1 3/4SM BR OVC004 24/23 A3002 RMK AO2
     CIG 001V006=
KBJJ 080825Z AUTO 00000KT 3SM BR CLR 18/18 A3009 RMK AO2=
KRHI 080825Z AUTO 29005KT 10SM FEW005 SCT100 19/18 A3002 RMK
     AO2=
####018000196####
SANO34 ENMI 080820
METAR ENBN 080820Z NIL=
METAR ENBV 080820Z NIL=
METAR ENDI 080820Z NIL=
METAR ENFG 080820Z NIL=
METAR ENHF 080820Z NIL=
METAR ENRA 080820Z NIL=
METAR ENSH 080820Z NIL=
####018000231####
SANO36 ENMI 080820
METAR ENBS 080820Z NIL=
METAR ENHK 080820Z 10014KT 9999 FEW035 BKN080 15/08 Q1012=
METAR ENHV 080820Z NIL=
METAR ENLK 080820Z NIL=
METAR ENMH 080820Z NIL=
METAR ENNK 080820Z NIL=
METAR ENNM 080820Z NIL=
####018000578####
SANO31 ENMI 080820
METAR ENAN 080820Z 16007KT 9999 FEW045 17/10 Q1010 NOSIG =
METAR ENBR 080820Z 17012KT 9999 FEW015 SCT060 BKN080 15/12 Q1012
           NOSIG =
METAR ENBO 080820Z 02008KT 340V060 9999 FEW050 BKN100 17/10 Q1010
           NOSIG =
METAR ENDU 080820Z 09004KT 010V140 9999 FEW050 SCT080 19/08 Q1011
           NOSIG=
METAR ENGM 080813Z 19013KT 9999 FEW010 SCT013 BKN018 16/14 Q1015
           TEMPO BKN012=
METAR ENOL 080820Z NIL=
METAR ENVA 080820Z 14007KT 110V190 CAVOK 20/12 Q1009 NOSIG =
METAR ENZV 080820Z 20009KT 9999 FEW020 18/13 Q1013 NOSIG=
####018000327####
SADL36 EDZO 080820
METAR EDHK 080820Z 16005KT 9999 FEW060 SCT100 BKN120 24/12 Q1019
      BLU BLU=
METAR ETNL 080820Z 18004KT 9999 SCT090 SCT150 22/12 Q1021
      BLU+BLU+=
METAR ETNU 080820Z 16003KT 9999 BKN160 22/10 Q1022
      BLU BLU TEMPO BLU+=
METAR ETSI 080820Z 09006KT 9999 FEW120 22/09 Q1023
      BLU+BLU+=
####018000502####
SAGR31 LGAT 080820
METAR LGAD 080820Z NIL=
METAR LGAV 080820Z 01017KT 9999 FEW020 SCT030 27/13 Q1013 NOSIG=
METAR LGIR 080820Z 07004KT CAVOK 30/20 Q1010 NOSIG=
METAR LGKL 080820Z 33006KT 9999 FEW030 31/15 Q1011=
METAR LGKO 080820Z NIL=
METAR LGKR 080820Z NIL=
METAR LGLM 080820Z NIL=
METAR LGRP 080820Z 24015KT CAVOK 29/20 Q1007 NOSIG=
METAR LGSA 080820Z 29008KT CAVOK 31/16 Q1011=
METAR LGSM 080820Z 01012KT CAVOK 28/15 Q1010=
METAR LGTS 080820Z 34017G27KT 9999 FEW025 22/12 Q1016 NOSIG=
####018000389####
SAFI34 EFHK 080820
EFET 080820Z AUTO 18010KT 140V220 CAVOK 18/08 Q1014=
EFIV 080820Z AUTO 16005KT 090V220 CAVOK 17/11 Q1016=
EFKE 080820Z AUTO 21004KT 140V280 9999 FEW025 SCT029 19/13 Q1016=
EFKI 080820Z AUTO 34004KT 280V020 CAVOK 19/14 Q1016=
EFKS 080820Z VRB01KT 9999 BKN019 16/11 Q1017=
EFKT 080820Z AUTO 18008KT 140V230 9999 FEW039 SCT131 20/10 Q1016=
METAR EFSO 080826Z NIL=
####018000444####
SAGR32 LGAT 080820
METAR LGAL 080820Z NIL=
METAR LGEL 080820Z 02013G23KT 9999 FEW025 SCT080 25/14 Q1012=
METAR LGKV 080820Z 12008KT 9999 SCT020TCU 19/16 Q1013=
METAR LGMT 080820Z 34013G26KT 9999 FEW020 SCT030 BKN100 28/17 Q1010=
METAR LGPZ 080820Z 27015KT 9999 FEW025 28/19 Q1013 NOSIG=
METAR LGRX 080820Z NIL=
METAR LGSK 080820Z NIL=
METAR LGSR 080820Z 35014KT CAVOK 29/15 Q1010 NOSIG=
METAR LGZA 080820Z 33012KT CAVOK 31/16 Q1013=
####018000299####
SAGR33 LGAT 080820
METAR LGHI 080820Z NIL=
METAR LGKC 080820Z NIL=
METAR LGKF 080820Z NIL=
METAR LGKP 080820Z 33021KT CAVOK 29/16 Q1008=
METAR LGKZ 080820Z NIL=
METAR LGMK 080820Z 36027G38KT 9999 FEW012 24/17 Q1012=
METAR LGNX 080820Z NIL=
METAR LGPA 080820Z NIL=
METAR LGSO 080820Z NIL=
####018000172####
SAGR32 LGAT 080820 RRA
METAR LGAL 080820Z 05013KT 9999 -RA FEW008 FEW020TCU SCT025 BKN080
      15/13 Q1014=
METAR LGRX 080820Z 27007KT 9999 FEW025 28/20 Q1012 NOSIG=
####018000197####
SPAU31 YBBN 080826
SPECI YSSY 080823Z 21015KT 7000 -SHRA FEW010 SCT020 BKN055 12/12
Q1026
RMK VIS REDUCED TO SE
FM0823 19015KT 9999 -SHRA SCT025 BKN040
INTER 0823/1123 5000 SHRA BKN015=
####018000069####
SALY31 HLLB 080830
METAR HLLB 080825Z 32017KT CAVOK 29/16 Q1016=
####018000174####
SPAU31 KWBC 080827
SPECI
YSSY 080823Z 21015KT 7000 -SHRA FEW010 SCT020 BKN055 12/12 Q1026
FM0823 19015KT 9999 -SHRA SCT025 BKN040 INTER 0823/1123 5000 SHRA
BKN015=
####018000080####
SAUS31 KWBC 080800 RRB
METAR
KLGC 080815Z AUTO 00000KT 7SM CLR 21/ A3002=
####018000170####
SAUS41 KWBC 080800 RRF
METAR
K40B 080825Z AUTO VRB02KT 21/21 A3002=
KMMU 080820Z AUTO 00000KT 5SM BR CLR 21/20=
KWDR 080820Z AUTO 00000KT 10SM CLR 23/21 A3007=
####018000180####
SAUS42 KWBC 080800 RRC
METAR
KBQK 080817Z AUTO 26003KT 10SM CLR 22/21 A3000=
KLGC 080815Z AUTO 00000KT 7SM CLR 21/ A3002=
KOPN 080820Z AUTO 00000KT 10SM CLR 25/22 A3004=
####018000525####
SANL40 EHWX 080825
METAR EHDL 080825Z AUTO 22009KT 9999NDV NCD 27/11 Q1019 
BLU=
METAR EHEH 080825Z AUTO 23006KT 9999NDV NCD 27/12 Q1019 
BLU BLU=
METAR EHGR 080825Z AUTO 24005KT 9999NDV BKN140 26/13 Q1019 
BLU BLU=
METAR EHLW 080825Z AUTO 23008KT 9999NDV BKN100 OVC210 23/17 Q1018 
BLU BLU=
METAR EHVK 080825Z AUTO 23006KT 9999NDV BKN150 27/12 Q1019 
BLU=
METAR EHVL 080825Z AUTO 24014KT 9999NDV SCT056 OVC097 19/15 Q1018 
BLU=
METAR EHWO 080825Z AUTO 28006KT 9999NDV NCD 24/13 Q1019 
BLU BLU=
####018000082####
SPUS42 KWBC 080827
SPECI
KLRD 080823Z AUTO 00000KT 10SM BKN015 26/25 A2989=
####018000124####
SAUS51 KWBC 080800 RRD
METAR
K40B 080825Z AUTO VRB02KT 21/21 A3002=
KIPJ 080820Z AUTO 00000KT 10SM CLR 20/18 A3001=
####018000084####
SPUS43 KWBC 080827
SPECI
KSGF 080824Z 00000KT 10SM BKN023 BKN033 23/22 A3005=
####018000186####
SAUS52 KWBC 080800 RRC
METAR
KAYS 080820Z AUTO 00000KT 10SM CLR 22/21 A3001=
KJQF 080820Z AUTO 00000KT 10SM CLR 22/18 A2999=
KVUJ 080818Z AUTO 00000KT 10SM OVC090 22/19 A2997=
####018000135####
SAUS53 KWBC 080800 RRF
METAR
KJNX 080821Z AUTO 00000KT 4SM CLR 21/21 A2993=
KTDF 080822Z AUTO 00000KT 2 1/2SM CLR 21/21 A2999=
####018000083####
SARW20 HRYR 080830
METAR
HRYR 080830Z 14013KT 9999 FEW026 22/12 Q1023 NOSIG=
####018000099####
SPUS52 KWBC 080827
SPECI
KDHT 080824Z AUTO 02018G24KT 10SM SCT015 BKN025 OVC037 18/14 A3027=
####018000082####
SAUS54 KWBC 080800 RRD
METAR
KJNX 080821Z AUTO 00000KT 4SM CLR 21/21 A2993=
####018000078####
SACN70 CWAO 080800 RRC
XMN SA 0800 AUTO8 M M M M/11/09/2607/M/ M 01MM=

####018000108####
SACN89 CWAO 080800 RRC
WCJ SA 0800 AUTO8 M M M 135/16/16/0303/M/0002 PCPN 0.2MM PAST HR
6024 05MM=

####018000083####
SPCN46 CWAO 080826
SPECI CYBN 080826Z AUTO 00000KT 3 1/2SM CLR 20/19 A3003=

####018000253####
SACN59 CWAO 080800 RRD
PRO SA 0800 AUTO8 M M M M/10/10/2303/M/0004 PCPN 0.4MM PAST HR M
30MM=
XDB SA 0800 AUTO8 M M M M/10/06/2304/M/ M 18MM=
XFM SA 0800 AUTO8 M M M M/11/09/1803/M/ M 77MM=
XTH SA 0800 AUTO8 M M M M/13/11/1907/M/ M 14MM=

####018000084####
SACN92 CWAO 080800 RRD
WME SA 0800 AUTO8 M M M 150/19/14/0301/M/M 1010 22MM=

####018000104####
SACN50 CWAO 080800 RRB
WFG SA 0800 AUTO8 M M M 172/13/12/3320/M/M PK WND 3321 0746Z 1002
95MM=

####018000136####
SACN93 CWAO 080800 RRD
WNZ SA 0800 AUTO8 M M M 134/18/15/2703/M/ 8012 55MM=
WPA SA 0800 AUTO8 M M M M/05/03/MMMM/M/ 6002 93MM=

####018000098####
SACN96 CWAO 080800 RRD
WZV SA 0800 AUTO8 M M M M/M/M/3310/M/M PK WND 3217 0720Z 8002 MMMM=

####018000128####
SACN98 CWAO 080800 RRD
XCP SA 0800 AUTO8 M M M M/11/10/2404/M/ M 20MM=
XWM SA 0800 AUTO8 M M M M/12/09/0000/M/ M 87MM=

####018000078####
SACN88 CWAO 080800 RRD
AFY SA 0800 AUTO7 M M M M/15/15/MMMM/M/ M 35MM=

####018000097####
SACN49 CWAO 080800 RRB
METAR CYDP 080800Z 00000KT 15SM SCT100 08/06 A2990 RMK AC3 SLP124=

####018001677####
SPZZ40 KAWN 080827 RRF
SPECI CYKF 080825Z AUTO 00000KT 2SM BR CLR 20/20 A3006 RMK SLP174 DENSITY
      ALT 1700FT=
SPECI CYMH 080823Z AUTO 15004KT 9SM OVC004 06/06 A3010=
SPECI CYPE 080824Z 29012KT 15SM -TSRA BKN060CB RMK CB5 OCNL LTGCG NW=
SPECI CYPQ 080824Z AUTO ///// 2 1/8SM CLR 19/19 A3003=
SPECI CYSC 080824Z AUTO VRB02KT 2 1/4SM BR SCT086 20/20 A3003 RMK SLP168
      DENSITY ALT 1400FT=
SPECI CYYY 080823Z 29002KT 3/4SM R06/2600VP6000FT/D BR OVC004 RMK FG6SF2
      VIS 3 SW QUAD=
SPECI EETU 080824Z 29004KT 240V340 9999 SCT016TCU BKN031 25/20 Q1013=
SPECI KEGI 080824Z AUTO 00000KT 1SM R18/1600V3000FT BR CLR 22/22 A3002
      RMK AO2 SLP164 $=
SPECI KHST 080823Z AUTO 06005KT 8SM -RA FEW004 SCT021 SCT065 27/25
      A2993 RMK AO2 RAB0822 FEW V SCT SLP136 $=
SPECI KNFW 080823Z AUTO 15008KT 10SM SCT024 27/22 A3003 RMK AO2=
SPECI KNGP 080824Z AUTO 08010KT 10SM TS FEW019 BKN055 28/26 A2980 RMK
      AO2 TSB18 $=
SPECI KRND 080825Z AUTO 05005KT 10SM BKN016 25/23 A2994 RMK AO2 CIG
      011V020 BKN V OVC SLP127=
SPECI KRND 080826Z AUTO 06005KT 10SM BKN014 BKN019 25/23 A2994 RMK
      AO2 CIG 011V017 BKN019 V OVC SLP127=
SPECI KWRI 080824Z AUTO 00000KT 3/4SM R18/1000V4000FT R24/1000V2800FT
      BR OVC002 24/24 A2999 RMK AO2 SLP155 $=
SPECI RJNG 080823Z 22006KT 180V250 9999 FEW020 SCT030 BKN230 29/22
      Q1008 RMK 1CU020 4CU030 A2977=
SPECI RJST 080819Z 18007KT 9999 FEW008 SCT040 BKN200 24/22 Q1009 RMK
      1ST008 4CU040 A2980 1ST008 E=
SPECI YSSY 080823Z 21015KT 7000 -SHRA FEW010 SCT020 BKN055 12/12 Q1026
      FM0823 19015KT 9999 -SHRA SCT025 BKN040 INTER 0823/1123 5000
      SHRA BKN015=
####018000083####
SAUS72 KWBC 080800 RRE
METAR
KBQK 080817Z AUTO 26003KT 10SM CLR 22/21 A3000=
####018000082####
SPUS72 KWBC 080827
SPECI
KLRD 080823Z AUTO 00000KT 10SM BKN015 26/25 A2989=
####018000626####
SAPS32 NFFN 080800
METAR NFNA 080800Z 00000KT 40KM SCT023 BKN050 OVC120 23/21 Q1014 RMK 
RR NIL=
METAR NFTF 080800Z 19002KT 9999 FEW015 18/18 Q1015=
METAR NFTL 080800Z NIL=
METAR NFTV 080800Z NIL=
METAR NLWW 080800Z AUTO 13008KT 100V160 9999NDV NCD 27/25 Q1011=
METAR NSAP 080800Z NIL=
METAR NSFA 080800Z 07006KT 45KM FEW020 27/25 Q1011=
METAR NSTU 080759Z 08009KT 10SM SCT014 BKN045 28/26 A2988 RMK SLP119 
T02790262=
METAR NTAA 080800Z 09002KT 9999 FEW023 25/22 Q1015 WS ALL RWY NOSIG=
METAR NVSS 080800Z NIL=
METAR NVVV 080800Z VRB01KT 9999 BKN022 22/20 Q1013 RMK NIL=
METAR NWWW 080800Z NIL=
####018000084####
SPUS73 KWBC 080827
SPECI
KSGF 080824Z 00000KT 10SM BKN023 BKN033 23/22 A3005=
####018000659####
SAPS31 NFFN 080800
METAR NCRG 080800Z 08003KT 9999 SCT014 BKN290 24/23 Q1017=
METAR NFFN 080800Z 12004KT 40KM SCT028 SCT048 23/19 Q1013 NOSIG RMK 
RR NIL=
METAR NFNA 080800Z 00000KT 40KM SCT023 BKN050 OVC120 23/21 Q1014 RMK 
RR NIL=
METAR NGFU 080800Z 08080Z 07007KT 50KM FEW020 SCT310 28/24 1009=
METAR NGTA 080800Z NIL=
METAR NIUE 080800Z AUTO 15004KT //// ////// 25/24 Q1014=
METAR NSFA 080800Z 07006KT 45KM FEW020 27/25 Q1011=
METAR NSTU 080759Z 08009KT 10SM SCT014 BKN045 28/26 A2988 RMK SLP119 
T02790262=
METAR NTAA 080800Z 09002KT 9999 FEW023 25/22 Q1015 WS ALL RWY NOSIG=
METAR NWWW 080800Z NIL=
METAR PLCH 080800Z NIL=
####018000513####
SAGR31 LGAT 080820
METAR LGAD 080820Z NIL=
METAR LGAV 080820Z 01017KT 9999 FEW020 SCT030 27/13 Q1013 NOSIG=
METAR LGIR 080820Z 07004KT CAVOK 30/20 Q1010 NOSIG=
METAR LGKL 080820Z 33006KT 9999 FEW030 31/15 Q1011=
METAR LGKO 080820Z NIL=
METAR LGKR 080820Z NIL=
METAR LGLM 080820Z NIL=
METAR LGRP 080820Z 24015KT CAVOK 29/20 Q1007 NOSIG=
METAR LGSA 080820Z 29008KT CAVOK 31/16 Q1011=
METAR LGSM 080820Z 01012KT CAVOK 28/15 Q1010=
METAR LGTS 080820Z 34017G27KT 9999 FEW025 22/12 Q1016 NOSIG=
####018000097####
SATU20 LTAA 080750 RRC
METAR LTCC 080820Z VRB03KT CAVOK 38/02 Q1007 NOSIG RMK RWY16 08003KT=
####018000175####
SAGR32 LGAT 080820 RRA
METAR LGAL 080820Z 05013KT 9999 -RA FEW008 FEW020TCU SCT025 BKN080
      15/13 Q1014=
METAR LGRX 080820Z 27007KT 9999 FEW025 28/20 Q1012 NOSIG=
####018000308####
SAGR33 LGAT 080820
METAR LGHI 080820Z NIL=
METAR LGKC 080820Z NIL=
METAR LGKF 080820Z NIL=
METAR LGKP 080820Z 33021KT CAVOK 29/16 Q1008=
METAR LGKZ 080820Z NIL=
METAR LGMK 080820Z 36027G38KT 9999 FEW012 24/17 Q1012=
METAR LGNX 080820Z NIL=
METAR LGPA 080820Z NIL=
METAR LGSO 080820Z NIL=
####018000081####
SAMJ41 LWSK 080830
METAR LWSK 080830Z 34009KT 9999 BKN050 17/11 Q1020 NOSIG=
####018000453####
SAGR32 LGAT 080820
METAR LGAL 080820Z NIL=
METAR LGEL 080820Z 02013G23KT 9999 FEW025 SCT080 25/14 Q1012=
METAR LGKV 080820Z 12008KT 9999 SCT020TCU 19/16 Q1013=
METAR LGMT 080820Z 34013G26KT 9999 FEW020 SCT030 BKN100 28/17 Q1010=
METAR LGPZ 080820Z 27015KT 9999 FEW025 28/19 Q1013 NOSIG=
METAR LGRX 080820Z NIL=
METAR LGSK 080820Z NIL=
METAR LGSR 080820Z 35014KT CAVOK 29/15 Q1010 NOSIG=
METAR LGZA 080820Z 33012KT CAVOK 31/16 Q1013=
####018000396####
SAFI34 EFHK 080820
EFET 080820Z AUTO 18010KT 140V220 CAVOK 18/08 Q1014=
EFIV 080820Z AUTO 16005KT 090V220 CAVOK 17/11 Q1016=
EFKE 080820Z AUTO 21004KT 140V280 9999 FEW025 SCT029 19/13 Q1016=
EFKI 080820Z AUTO 34004KT 280V020 CAVOK 19/14 Q1016=
EFKS 080820Z VRB01KT 9999 BKN019 16/11 Q1017=
EFKT 080820Z AUTO 18008KT 140V230 9999 FEW039 SCT131 20/10 Q1016=
METAR EFSO 080826Z NIL=
####018000084####
SPUS74 KWBC 080827
SPECI
KCEC 080824Z AUTO 24003KT 2SM BR OVC001 10/09 A2997=
####018001381####
SPNA14 KAWN 080827 RRB
SPECI KEGI 080821Z AUTO 00000KT 1 1/4SM R18/1600V5000FT BR CLR 22/22
      A3002 RMK AO2 SLP164 $=
SPECI KEGI 080823Z AUTO 00000KT 1SM R18/1600V4500FT BR CLR 22/22 A3002
      RMK AO2 SLP164 $=
SPECI KEGI 080824Z AUTO 00000KT 1SM R18/1600V3000FT BR CLR 22/22 A3002
      RMK AO2 SLP164 $=
SPECI KNGP 080824Z AUTO 08010KT 10SM TS FEW019 BKN055 28/26 A2980 RMK
      AO2 TSB18 $=
SPECI KNQI 080822Z AUTO 36005KT 9SM TS SCT023 SCT031 BKN120 27/25 A2983
      RMK AO2 TSB16 $=
SPECI KNSE 080811Z AUTO 00000KT 1 3/4SM BR CLR 23/22 A3002 RMK AO2
      $=
SPECI KRND 080825Z AUTO 05005KT 10SM BKN016 25/23 A2994 RMK AO2 CIG
      011V020 BKN V OVC SLP127=
SPECI KRND 080826Z AUTO 06005KT 10SM BKN014 BKN019 25/23 A2994 RMK
      AO2 CIG 011V017 BKN019 V OVC SLP127=
SPECI KVOK 080821Z 31008KT 10SM SCT009 OVC014 22/22 A3001 RMK AO2A
      SLP156=
SPECI KWRI 080822Z AUTO 00000KT 1 1/4SM R18/1800V5000FT R24/2200V2800FT
      BR OVC003 24/24 A2999 RMK AO2 SLP156 $=
SPECI KWRI 080823Z AUTO 00000KT 1SM R18/1000V4500FT R24/2000V2800FT
      BR OVC003 24/24 A2999 RMK AO2 SLP156 $=
SPECI KWRI 080824Z AUTO 00000KT 3/4SM R18/1000V4000FT R24/1000V2800FT
      BR OVC002 24/24 A2999 RMK AO2 SLP155 $=
SPECI KWRI 080826Z AUTO 00000KT 1/2SM R18/0800V4000FT R24/0800V2600FT
      FG OVC002 24/24 A2999 RMK AO2 SLP155 $=
####018000300####
SAGR33 LGAT 080820
METAR LGHI 080820Z NIL=
METAR LGKC 080820Z NIL=
METAR LGKF 080820Z NIL=
METAR LGKP 080820Z 33021KT CAVOK 29/16 Q1008=
METAR LGKZ 080820Z NIL=
METAR LGMK 080820Z 36027G38KT 9999 FEW012 24/17 Q1012=
METAR LGNX 080820Z NIL=
METAR LGPA 080820Z NIL=
METAR LGSO 080820Z NIL=
####018000101####
SPCN49 CWAO 080825
SPECI CYSJ 080825Z 20005KT 1/2SM R23/P6000FT/U FG OVC002 15/ RMK
FG2ST6=

####018002048####
SAUS20 KNKA 080827
METAR K0F2 080824Z AUTO 14003KT 10SM SCT034 24/22 A3001 RMK AO2 
     T02350218=
METAR K1H2 080825Z AUTO 00000KT 7SM CLR 25/24 A3003 RMK AO2 
     T02470237=
METAR K3T5 080824Z AUTO 00000KT 7SM SCT010 SCT024 25/24 A2992 RMK 
     AO2 T02510236=
METAR KAAA 080823Z AUTO 00000KT 2 1/2SM -TSRA SCT007 BKN022 
     OVC049 23/22 A3003 RMK AO2 LTG DSNT NW THRU E P0018 T02270218=
METAR KADS 080823Z AUTO 16005KT 10SM OVC014 25/22 A3000 RMK AO2 
     T02500220=
METAR KAJG 080825Z AUTO 00000KT 10SM SCT090 SCT120 24/22 A3004 
     RMK AO2 T02350220=
METAR KALN 080823Z AUTO 17003KT 10SM SCT041 BKN048 BKN055 25/24 
     A3003 RMK AO2 T02470240=
METAR KAPY 080823Z AUTO 00000KT 10SM SCT014 25/24 A2984 RMK AO2 
     LTG DSNT NE T02510240=
METAR KBXK 080815Z AUTO 00000KT 8SM CLR 27/05 A2976 RMK AO1 =
METAR KGPM 080831Z AUTO 17005KT 10SM CLR 26/23 A3000 RMK AO2=
METAR KHQZ 080826Z AUTO 00000KT 10SM SCT015 25/23 A3000 RMK AO2=
METAR KIKK 080825Z AUTO 06004KT 2SM -RA SCT024 BKN075 OVC095 
     26/23 A3003 RMK AO2 LTG DSNT SW P0001=
METAR KJOT 080826Z AUTO 00000KT 2 1/2SM -DZ SCT090 23/22 A3003 
     RMK AO2 P0001=
METAR KLOT 080821Z AUTO 00000KT 7SM DZ SCT033 SCT048 BKN090 23/22 
     A3003 RMK AO2=
METAR KORG 080825Z AUTO 07006KT 7SM SCT013 18/15 A2996 RMK AO2=
METAR KOXI 080825Z AUTO 00000KT 7SM CLR 21/19 A3002 RMK AO1 
     T02070194=
METAR KOZA 080821Z AUTO 06004KT 7SM SCT037 SCT120 23/22 A3005 RMK 
     AO2 T02250215=
METAR KPAN 080835Z AUTO 00000KT 10SM FEW120 21/03 A3012 RMK AO1 =
METAR KPPQ 080825Z AUTO 00000KT 4SM BR BKN035 OVC049 23/23 A3005 
     RMK AO2 P0002=
METAR KPVW 080821Z AUTO 33011KT 10SM CLR 19/18 A3015 RMK AO2=
METAR KRBO 080824Z AUTO 36005KT 1 3/4SM +TSRA SCT005 BKN021 
     OVC032 26/25 A2984 RMK AO2 LTG DSNT ALQS P0030=
METAR KRCR 080825Z AUTO 00000KT 3/4SM BR VV005 23/22 A3005 RMK AO2=
METAR KRQO 080835Z AUTO 00000KT 7SM CLR 23/22 A3006 RMK AO2=
METAR KSFY 080825Z AUTO 00000KT 3SM BR SCT010 22/22 A3000 RMK AO2=
####018000068####
SAUS90 KWBC 080828
METAR K40B 080825Z AUTO VRB02KT 21/21 A3002=
####018001736####
SAEU KAWN 080800 RRX
METAR EHDL 080825Z AUTO 22009KT 9999NDV NCD 27/11 Q1019 BLU=
METAR EHGR 080825Z AUTO 24005KT 9999NDV BKN140 26/13 Q1019 BLU BLU=
METAR EHLW 080825Z AUTO 23008KT 9999NDV BKN100 OVC210 23/17 Q1018 BLU
      BLU=
METAR EHVK 080825Z AUTO 23006KT 9999NDV BKN150 27/12 Q1019 BLU=
METAR EHVL 080825Z AUTO 24014KT 9999NDV SCT056 OVC097 19/15 Q1018 BLU=
METAR EHWO 080825Z AUTO 28006KT 9999NDV NCD 24/13 Q1019 BLU BLU=
METAR ENBO 080820Z 02008KT 340V060 9999 FEW050 BKN100 17/10 Q1010 NOSIG=
METAR ENDU 080820Z 09004KT 010V140 9999 FEW050 SCT080 19/08 Q1011 NOSIG=
METAR ENGM 080813Z 19013KT 9999 FEW010 SCT013 BKN018 16/14 Q1015 TEMPO
      BKN012=
METAR ENZV 080820Z 20009KT 9999 FEW020 18/13 Q1013 NOSIG=
METAR LGAL 080820Z 05013KT 9999 -RA FEW008 FEW020TCU SCT025 BKN080
      15/13 Q1014=
METAR LGEL 080820Z 02013G23KT 9999 FEW025 SCT080 25/14 Q1012=
METAR LGIR 080820Z 07004KT CAVOK 30/20 Q1010 NOSIG=
METAR LGKL 080820Z 33006KT 9999 FEW030 31/15 Q1011=
METAR LGKP 080820Z 33021KT CAVOK 29/16 Q1008=
METAR LGKV 080820Z 12008KT 9999 SCT020TCU 19/16 Q1013=
METAR LGMK 080820Z 36027G38KT 9999 FEW012 24/17 Q1012=
METAR LGMT 080820Z 34013G26KT 9999 FEW020 SCT030 BKN100 28/17 Q1010=
METAR LGPZ 080820Z 27015KT 9999 FEW025 28/19 Q1013 NOSIG=
METAR LGRP 080820Z 24015KT CAVOK 29/20 Q1007 NOSIG=
METAR LGRX 080820Z 27007KT 9999 FEW025 28/20 Q1012 NOSIG=
METAR LGSA 080820Z 29008KT CAVOK 31/16 Q1011=
METAR LGSM 080820Z 01012KT CAVOK 28/15 Q1010=
METAR LGSR 080820Z 35014KT CAVOK 29/15 Q1010 NOSIG=
METAR LGTS 080820Z 34017G27KT 9999 FEW025 22/12 Q1016 NOSIG=
METAR LGZA 080820Z 33012KT CAVOK 31/16 Q1013=
METAR LWSK 080830Z 34009KT 9999 BKN050 17/11 Q1020 NOSIG=
####018001796####
SAEW KAWN 080800 RRK
METAR EBAW 080820Z 20006KT 180V250 CAVOK 26/13 Q1019 NOSIG=
METAR EBBR 080820Z 25004KT 210V290 CAVOK 27/11 Q1019 NOSIG=
METAR EBCI 080820Z 19007KT CAVOK 26/11 Q1020 NOSIG=
METAR EBLG 080820Z 20008KT CAVOK 26/09 Q1020 NOSIG=
METAR EBOS 080820Z 28007KT CAVOK 20/15 Q1019 NOSIG=
METAR EDHI 080820Z 22004KT 150V280 CAVOK 26/13 Q1019=
METAR EDHK 080820Z 16005KT 9999 FEW060 SCT100 BKN120 24/12 Q1019 BLU
      BLU=
METAR EDMO 080820Z 09007KT 050V120 CAVOK 21/08 Q1023=
METAR EDOP 080820Z 17007KT 150V210 CAVOK 26/12 Q1021=
METAR EHLW 080825Z AUTO 23008KT 9999NDV BKN100 OVC210 23/17 Q1018 BLU
      BLU=
METAR ELLX 080820Z VRB03KT CAVOK 24/10 Q1021 NOSIG=
METAR ETGG 080820Z 18008KT 9999 BKN055 SCT120 24/13 Q1018 BLU=
METAR ETGY 080820Z 22004KT 9999 FEW140 27/11 Q1019 BLU/=
METAR ETGZ 080820Z 13004KT 9999 FEW120 20/08 Q1024 BLU/=
METAR ETHA 080820Z 07006KT 9999 FEW150 20/10 Q1023 BLU/BLU/=
METAR ETHB 080820Z 20005KT 9999 FEW140 25/12 Q1020 BLU/BLU/=
METAR ETHC 080820Z 22004KT 9999 FEW056 25/11 Q1020 BLU/BLU/=
METAR ETHE 080820Z 17004KT 9999 FEW050 BKN260 26/12 Q1019 BLU/BLU/=
METAR ETHF 080820Z 16006KT 9999 FEW300 23/12 Q1021 BLU/BLU/=
METAR ETHL 080820Z 07004KT 9999 FEW140 22/09 Q1022 BLU/BLU/=
METAR ETHR 080820Z 13003KT 9999 FEW200 23/07 Q1023 BLU/BLU/=
METAR ETMN 080820Z 21005KT 9999 FEW050 SCT110 BKN270 25/10 Q1019 BLU/BLU/=
METAR ETND 080820Z 20005KT 9999 FEW180 25/14 Q1019 BLU/=
METAR ETNL 080820Z 18004KT 9999 SCT090 SCT150 22/12 Q1021 BLU/BLU/=
METAR ETNT 080820Z 22008KT 9999 FEW090 SCT270 27/11 Q1018 BLU/BLU/=
METAR ETSB 080820Z 16005KT 9999 SCT290 24/08 Q1022 BLU/BLU/=
METAR ETSL 080820Z 08006KT 9999 FEW250 22/09 Q1023 BLU/BLU/=
METAR ETSN 080820Z 07004KT 9999 FEW160 22/09 Q1023 BLU/BLU/=
####018000086####
SAMC32 GMMC 080800 RRB
METAR GMTA 080800Z 36008KT 9999 FEW020 SCT030 23/20 Q1016=
####018000082####
SPCN48 CWAO 080826
SPECI CYPH 080826Z AUTO 24018KT 9SM OVC003 05/05 A2978=

####018000119####
SPCN46 CWAO 080827
SPECI CYKF 080827Z AUTO 00000KT 1 1/4SM BR CLR 20/20 A3006 RMK SLP174
 DENSITY ALT 1700FT=

####018000122####
SPCN46 CWAO 080827
SPECI CYSC 080827Z AUTO VRB02KT 1 3/4SM BR BKN086 20/20 A3003 RMK
 SLP168 DENSITY ALT 1400FT=

####018000233####
SAUS20 KNKA 080827
SPECI KBRL 080826Z AUTO 2SM BR OVC001 23/22 A3002 RMK AO2 $=
SPECI KELD 080827Z AUTO 00000KT 3SM BR SCT001 23/23 A3003 RMK AO2=
SPECI KMIV 080826Z AUTO 08003KT 2 1/2SM BR SCT004 24/23 A2998 RMK 
    AO2=
####018001895####
SAUS99 KWBC 080828
METAR
K0F2 080824Z AUTO 14003KT 10SM SCT034 24/22 A3001 RMK AO2
     T02350218=
K1H2 080825Z AUTO 00000KT 7SM CLR 25/24 A3003 RMK AO2
     T02470237=
K3T5 080824Z AUTO 00000KT 7SM SCT010 SCT024 25/24 A2992 RMK AO2
     T02510236=
KAAA 080823Z AUTO 00000KT 2 1/2SM -TSRA SCT007 BKN022 OVC049 23/22
     A3003 RMK AO2 LTG DSNT NW THRU E P0018 T02270218=
KADS 080823Z AUTO 16005KT 10SM OVC014 25/22 A3000 RMK AO2
     T02500220=
KAJG 080825Z AUTO 00000KT 10SM SCT090 SCT120 24/22 A3004 RMK AO2
     T02350220=
KALN 080823Z AUTO 17003KT 10SM SCT041 BKN048 BKN055 25/24 A3003
     RMK AO2 T02470240=
KAPY 080823Z AUTO 00000KT 10SM SCT014 25/24 A2984 RMK AO2 LTG DSNT
     NE T02510240=
KBXK 080815Z AUTO 00000KT 8SM CLR 27/05 A2976 RMK AO1=
KGPM 080831Z AUTO 17005KT 10SM CLR 26/23 A3000 RMK AO2=
KHQZ 080826Z AUTO 00000KT 10SM SCT015 25/23 A3000 RMK AO2=
KIKK 080825Z AUTO 06004KT 2SM -RA SCT024 BKN075 OVC095 26/23 A3003
     RMK AO2 LTG DSNT SW P0001=
KJOT 080826Z AUTO 00000KT 2 1/2SM -DZ SCT090 23/22 A3003 RMK AO2
     P0001=
KLOT 080821Z AUTO 00000KT 7SM DZ SCT033 SCT048 BKN090 23/22 A3003
     RMK AO2=
KORG 080825Z AUTO 07006KT 7SM SCT013 18/15 A2996 RMK AO2=
KOXI 080825Z AUTO 00000KT 7SM CLR 21/19 A3002 RMK AO1
     T02070194=
KOZA 080821Z AUTO 06004KT 7SM SCT037 SCT120 23/22 A3005 RMK AO2
     T02250215=
KPAN 080835Z AUTO 00000KT 10SM FEW120 21/03 A3012 RMK AO1=
KPPQ 080825Z AUTO 00000KT 4SM BR BKN035 OVC049 23/23 A3005 RMK AO2
     P0002=
KPVW 080821Z AUTO 33011KT 10SM CLR 19/18 A3015 RMK AO2=
KRBO 080824Z AUTO 36005KT 1 3/4SM +TSRA SCT005 BKN021 OVC032 26/25
     A2984 RMK AO2 LTG DSNT ALQS P0030=
KRCR 080825Z AUTO 00000KT 3/4SM BR VV005 23/22 A3005 RMK AO2=
KRQO 080835Z AUTO 00000KT 7SM CLR 23/22 A3006 RMK AO2=
KSFY 080825Z AUTO 00000KT 3SM BR SCT010 22/22 A3000 RMK AO2=
####018000223####
SPUS99 KWBC 080828
SPECI
KBRL 080826Z AUTO 2SM BR OVC001 23/22 A3002 RMK AO2 $=
KELD 080827Z AUTO 00000KT 3SM BR SCT001 23/23 A3003 RMK AO2=
KMIV 080826Z AUTO 08003KT 2 1/2SM BR SCT004 24/23 A2998 RMK
     AO2=
####018000095####
SACN87 KWBC 080828
METAR CWME 080800Z AUTO 03001KT 19/14 RMK AO1 SLP150 T01920142
51010=
####018000095####
SACN86 KWBC 080828
METAR CWNZ 080800Z AUTO 27003KT 18/15 RMK AO1 SLP134 T01750145
58012=
####018000115####
SACN89 KWBC 080828
METAR CWCJ 080800Z AUTO 03003KT 16/16 RMK AO1 2PAST HR 6024 SLP135
P0001 T01600155 50002=
####018000088####
SACN96 KWBC 080828
METAR CWZV 080800Z AUTO 33010KT RMK AO1 PK WND 32017/0720 58002=
####018000085####
SAMC32 GMMC 080800 RRB
METAR GMTA 080800Z 36008KT 9999 FEW020 SCT030 23/20 Q1016=
####018000289####
SANL31 EHDB 080825
METAR EHAM 080825Z 25009KT 210V290 CAVOK 23/15 Q1019 NOSIG=
METAR EHBK 080825Z AUTO 21007KT 170V250 9999NDV NCD 26/12 Q1019
NOSIG=
METAR EHGG 080825Z AUTO 24008KT 200V280 9999NDV NSC 25/13 Q1018
NOSIG=
METAR EHRD 080825Z 28006KT 240V320 CAVOK 23/15 Q1019 NOSIG=
####018000111####
SAUK31 EGGY 080820 CCB
METAR COR EGLL 080820Z 30007KT 5000 -RA SCT008 BKN012 17/15 Q1019
    BECMG SCT040=
####018000074####
SPBZ24 SBNF 080826
SPECI SBNF 080830Z 28006KT 5000 BR NSC 18/17 Q1014=
####018000078####
SAUK34 EGGY 080820 RRA
METAR EGHE 080820Z 20005KT 9999 FEW018 18/13 Q1019=
####018000605####
SPXX60 KWBC 080828
SPECI
KHST 080823Z AUTO 06005KT 8SM -RA FEW004 SCT021 SCT065 27/25 A2993
     RMK AO2 RAB0822 FEW V SCT SLP136 $=
KNFW 080823Z AUTO 15008KT 10SM SCT024 27/22 A3003 RMK AO2=
KNGP 080824Z AUTO 08010KT 10SM TS FEW019 BKN055 28/26 A2980 RMK
     AO2 TSB18 $=
KRND 080825Z AUTO 05005KT 10SM BKN016 25/23 A2994 RMK AO2 CIG
     011V020 BKN V OVC SLP127=
KRND 080826Z AUTO 06005KT 10SM BKN014 BKN019 25/23 A2994 RMK AO2
     CIG 011V017 BKN019 V OVC SLP127=
KWRI 080824Z AUTO 00000KT 3/4SM R18/1000V4000FT R24/1000V2800FT BR
     OVC002 24/24 A2999 RMK AO2 SLP155 $=
####018000115####
SPUS80 KWBC 080828
SPECI
KBDR 080825Z AUTO 09006KT 1 3/4SM BR OVC004 24/23 A3002 RMK AO2
     CIG 001V006=
####018000358####
SPUS70 KWBC 080828
SPECI
KBJJ 080825Z AUTO 00000KT 3SM BR CLR 18/18 A3009 RMK AO2=
KRHI 080825Z AUTO 29005KT 10SM FEW005 SCT100 19/18 A3002 RMK
     AO2=
KBRL 080826Z AUTO 2SM BR OVC001 23/22 A3002 RMK AO2 $=
KELD 080827Z AUTO 00000KT 3SM BR SCT001 23/23 A3003 RMK AO2=
KMIV 080826Z AUTO 08003KT 2 1/2SM BR SCT004 24/23 A2998 RMK
     AO2=
####018000119####
SAXX60 KWBC 080828
METAR
KAPY 080823Z AUTO 00000KT 10SM SCT014 25/24 A2984 RMK AO2 LTG DSNT
     NE T02510240=
####018001678####
SAUS70 KWBC 080828
METAR
K0F2 080824Z AUTO 14003KT 10SM SCT034 24/22 A3001 RMK AO2
     T02350218=
K1H2 080825Z AUTO 00000KT 7SM CLR 25/24 A3003 RMK AO2
     T02470237=
K3T5 080824Z AUTO 00000KT 7SM SCT010 SCT024 25/24 A2992 RMK AO2
     T02510236=
KAAA 080823Z AUTO 00000KT 2 1/2SM -TSRA SCT007 BKN022 OVC049 23/22
     A3003 RMK AO2 LTG DSNT NW THRU E P0018 T02270218=
KADS 080823Z AUTO 16005KT 10SM OVC014 25/22 A3000 RMK AO2
     T02500220=
KAJG 080825Z AUTO 00000KT 10SM SCT090 SCT120 24/22 A3004 RMK AO2
     T02350220=
KALN 080823Z AUTO 17003KT 10SM SCT041 BKN048 BKN055 25/24 A3003
     RMK AO2 T02470240=
KBXK 080815Z AUTO 00000KT 8SM CLR 27/05 A2976 RMK AO1=
KGPM 080831Z AUTO 17005KT 10SM CLR 26/23 A3000 RMK AO2=
KHQZ 080826Z AUTO 00000KT 10SM SCT015 25/23 A3000 RMK AO2=
KIKK 080825Z AUTO 06004KT 2SM -RA SCT024 BKN075 OVC095 26/23 A3003
     RMK AO2 LTG DSNT SW P0001=
KJOT 080826Z AUTO 00000KT 2 1/2SM -DZ SCT090 23/22 A3003 RMK AO2
     P0001=
KLOT 080821Z AUTO 00000KT 7SM DZ SCT033 SCT048 BKN090 23/22 A3003
     RMK AO2=
KORG 080825Z AUTO 07006KT 7SM SCT013 18/15 A2996 RMK AO2=
KOXI 080825Z AUTO 00000KT 7SM CLR 21/19 A3002 RMK AO1
     T02070194=
KOZA 080821Z AUTO 06004KT 7SM SCT037 SCT120 23/22 A3005 RMK AO2
     T02250215=
KPAN 080835Z AUTO 00000KT 10SM FEW120 21/03 A3012 RMK AO1=
KPPQ 080825Z AUTO 00000KT 4SM BR BKN035 OVC049 23/23 A3005 RMK AO2
     P0002=
KPVW 080821Z AUTO 33011KT 10SM CLR 19/18 A3015 RMK AO2=
KRBO 080824Z AUTO 36005KT 1 3/4SM +TSRA SCT005 BKN021 OVC032 26/25
     A2984 RMK AO2 LTG DSNT ALQS P0030=
KRQO 080835Z AUTO 00000KT 7SM CLR 23/22 A3006 RMK AO2=
####018000092####
SAUS80 KWBC 080828
METAR
KSFY 080825Z AUTO 00000KT 3SM BR SCT010 22/22 A3000 RMK AO2=
####018000435####
SAAF35 KWBC 080800 RRB
METAR
HEAX 080800Z 29010KT 9999 SCT020 29/21 Q1010 NOSIG=
HEBA 080800Z NIL=
HEBL 080800Z 03014KT CAVOK 38/09 Q1011 NOSIG=
HEGN 080800Z 34023KT CAVOK 34/19 Q1006 NOSIG=
HELX 080800Z NIL=
HEMM 080800Z 31010KT CAVOK 27/22 Q1012 NOSIG=
HEPS 080800Z 26007KT 9999 SCT025 28/21 Q1010 NOSIG=
HESC 080800Z 05008KT CAVOK 28/12 Q1018 NOSIG=
HESN 080800Z NIL=
HLLB 080825Z 32017KT CAVOK 29/16 Q1016=
####018000135####
SAAF36 KWBC 080800 RRE
METAR
HEMA 080800Z 01017KT CAVOK 33/19 Q1007 NOSIG=
HRYR 080830Z 14013KT 9999 FEW026 22/12 Q1023 NOSIG=
####018000088####
SAAO31 KWBC 080800 RRB
METAR
GMTA 080800Z 36008KT 9999 FEW020 SCT030 23/20 Q1016=
####018000099####
SAAW41 KWBC 080850 RRA
METAR
LTCC 080820Z VRB03KT CAVOK 38/02 Q1007 NOSIG RMK RWY16 08003KT=
####018000089####
SAAW34 KWBC 080815 RRA
METAR
OPKC 080830Z 10018KTS 9000 BKN030 35/24 Q.1003 NOSIG=
####018000098####
SPCN31 KWBC 080828
SPECI
CYSJ 080825Z 20005KT 1/2SM R23/P6000FT/U FG OVC002 15/ RMK FG2ST6=
####018000337####
SABX31 KWBC 080820 RRA
METAR
EBAW 080820Z 20006KT 180V250 CAVOK 26/13 Q1019 NOSIG=
EBBR 080820Z 25004KT 210V290 CAVOK 27/11 Q1019 NOSIG=
EBCI 080820Z 19007KT CAVOK 26/11 Q1020 NOSIG=
EBLG 080820Z 20008KT CAVOK 26/09 Q1020 NOSIG=
EBOS 080820Z 28007KT CAVOK 20/15 Q1019 NOSIG=
ELLX 080820Z VRB03KT CAVOK 24/10 Q1021 NOSIG=
####018000247####
SAEM31 KWBC 080800 RRE
METAR
LOWI 080820Z VRB02KT CAVOK 21/13 Q1023 NOSIG=
LOWK 080820Z 29003KT 220V350 9999 FEW050 20/10 Q1024 NOSIG=
LOWL 080820Z 10004KT 050V140 CAVOK 20/10 Q1024 NOSIG=
LOWS 080820Z VRB02KT CAVOK 21/08 Q1023 NOSIG=
####018000424####
SAEN31 KWBC 080820 RRA
METAR
EFIV 080820Z AUTO 16005KT 090V220 CAVOK 17/11 Q1016=
EFKE 080820Z AUTO 21004KT 140V280 9999 FEW025 SCT029 19/13
     Q1016=
ENBO 080820Z 02008KT 340V060 9999 FEW050 BKN100 17/10 Q1010
     NOSIG=
ENBR 080820Z 17012KT 9999 FEW015 SCT060 BKN080 15/12 Q1012
     NOSIG=
ENVA 080820Z 14007KT 110V190 CAVOK 20/12 Q1009 NOSIG=
ENZV 080820Z 20009KT 9999 FEW020 18/13 Q1013 NOSIG=
####018000115####
SAEN31 KWBC 080750 RRB
METAR
ENGM 080813Z 19013KT 9999 FEW010 SCT013 BKN018 16/14 Q1015 TEMPO
     BKN012=
####018000125####
SPJP43 KWBC 080828
SPECI
RJNG 080823Z 22006KT 180V250 9999 FEW020 SCT030 BKN230 29/22 Q1008
RMK 1CU020 4CU030 A2977=
####018000126####
SPJP44 KWBC 080828
SPECI
RJST 080819Z 18007KT 9999 FEW008 SCT040 BKN200 24/22 Q1009 RMK
1ST008 4CU040 A2980 1ST008 E=
####018000804####
SAGR31 KWBC 080820 RRA
METAR
LGAD 080820Z NIL=
LGAL 080820Z 05013KT 9999 -RA FEW008 FEW020TCU SCT025 BKN080 15/13
     Q1014=
LGAL 080820Z NIL=
LGAV 080820Z 01017KT 9999 FEW020 SCT030 27/13 Q1013 NOSIG=
LGEL 080820Z 02013G23KT 9999 FEW025 SCT080 25/14 Q1012=
LGIR 080820Z 07004KT CAVOK 30/20 Q1010 NOSIG=
LGKF 080820Z NIL=
LGKL 080820Z 33006KT 9999 FEW030 31/15 Q1011=
LGKO 080820Z NIL=
LGKR 080820Z NIL=
LGKV 080820Z 12008KT 9999 SCT020TCU 19/16 Q1013=
LGLM 080820Z NIL=
LGMT 080820Z 34013G26KT 9999 FEW020 SCT030 BKN100 28/17 Q1010=
LGRP 080820Z 24015KT CAVOK 29/20 Q1007 NOSIG=
LGSA 080820Z 29008KT CAVOK 31/16 Q1011=
LGSM 080820Z 01012KT CAVOK 28/15 Q1010=
LGSR 080820Z 35014KT CAVOK 29/15 Q1010 NOSIG=
LGTS 080820Z 34017G27KT 9999 FEW025 22/12 Q1016 NOSIG=
####018000336####
SAGR41 KWBC 080820 RRA
METAR
LGKP 080820Z 33021KT CAVOK 29/16 Q1008=
LGKZ 080820Z NIL=
LGMK 080820Z 36027G38KT 9999 FEW012 24/17 Q1012=
LGPZ 080820Z 27015KT 9999 FEW025 28/19 Q1013 NOSIG=
LGRX 080820Z 27007KT 9999 FEW025 28/20 Q1012 NOSIG=
LGRX 080820Z NIL=
LGSK 080820Z NIL=
LGZA 080820Z 33012KT CAVOK 31/16 Q1013=
####018000637####
SAIY31 KWBC 080820 RRA
METAR
LIBD 080820Z 01011KT 9999 FEW030 25/12 Q1019=
LIBR 080815Z /////KT CAVOK 25/15 Q1017 NOSIG=
LICC 080820Z 09005KT CAVOK 29/21 Q1018=
LICJ 080820Z 04014KT CAVOK 26/22 Q1018=
LIEA 080820Z 05005KT 350V120 CAVOK 28/20 Q1019=
LIEE 080815Z 24002KT CAVOK 26/19 Q1018 NOSIG=
LIEO 080820Z 03004KT 300V070 CAVOK 29/20 Q1019=
LIMC 080820Z VRB03KT 9999 SCT040 BKN060 25/14 Q1022 NOSIG=
LIME 080820Z 13008KT 090V170 9999 SCT055 25/15 Q1023=
LIMF 080820Z VRB02KT 9999 SCT030 SCT050 23/17 Q1022=
LIMJ 080820Z 04007KT CAVOK 29/21 Q1020=
LIML 080820Z 11007KT 070V180 9999 BKN070 25/17 Q1022 NOSIG=
####018000539####
SAIY32 KWBC 080820 RRA
METAR
LIPE 080820Z 12006KT 070V180 CAVOK 27/16 Q1021=
LIPH 080815Z 03003KT 9999 SCT035 BKN070 23/19 Q1023=
LIPQ 080820Z VRB01KT 9999 BKN050 24/14 Q1022=
LIPR 080815Z 12005KT CAVOK 27/18 Q1021=
LIPX 080815Z 10006KT 9999 SCT080 27/15 Q1022=
LIPZ 080820Z 12007KT 9999 SCT040 BKN070 25/16 Q1022=
LIRA 080815Z 23002KT 180V250 9999 SCT018 27/20 Q1019=
LIRF 080820Z 19008KT 160V240 9999 SCT020 28/20 Q1019 NOSIG=
LIRP 080815Z 11011KT CAVOK 28/16 Q1019 NOSIG=
LIRQ 080820Z VRB02KT CAVOK 28/13 Q1020=
####018000094####
SAIY41 KWBC 080820 RRA
METAR
LIMC 080820Z VRB03KT 9999 SCT040 BKN060 25/14 Q1022 NOSIG=
####018000427####
SANL31 KWBC 080820 RRA
METAR
EHDL 080825Z AUTO 22009KT 9999NDV NCD 27/11 Q1019 BLU=
EHGR 080825Z AUTO 24005KT 9999NDV BKN140 26/13 Q1019 BLU BLU=
EHLW 080825Z AUTO 23008KT 9999NDV BKN100 OVC210 23/17 Q1018 BLU
     BLU=
EHVK 080825Z AUTO 23006KT 9999NDV BKN150 27/12 Q1019 BLU=
EHVL 080825Z AUTO 24014KT 9999NDV SCT056 OVC097 19/15 Q1018
     BLU=
EHWO 080825Z AUTO 28006KT 9999NDV NCD 24/13 Q1019 BLU BLU=
####018000093####
SANO42 KWBC 080820 RRA
METAR
ENNK 080820Z NIL=
ENNM 080820Z NIL=
ENOL 080820Z NIL=
####018000081####
SAIY43 KWBC 080820 RRA
METAR
LIPX 080815Z 10006KT 9999 SCT080 27/15 Q1022=
####018000223####
SANO41 KWBC 080820 RRA
METAR
ENAN 080820Z 16007KT 9999 FEW045 17/10 Q1010 NOSIG=
ENDU 080820Z 09004KT 010V140 9999 FEW050 SCT080 19/08 Q1011
     NOSIG=
ENHV 080820Z NIL=
ENLK 080820Z NIL=
ENMH 080820Z NIL=
####018000088####
SPUS41 KWBC 080828
SPECI
KBDR 080825Z AUTO 09006KT 1 3/4SM BR OVC004 24/23 A3002=
####018000127####
SAUK32 KWBC 080820 RRA
METAR
EGNS 080820Z NIL=
EGNS 080820Z 24011KT 9999 FEW020 16/10 Q1015 NOSIG=
EGNT 080820Z NIL=
####018000087####
SAUK31 KWBC 080820 CCA
METAR
EGCC 080820Z 21009KT 9999 FEW030 16/12 Q1017 NOSIG=
####018000053####
SAUK41 KWBC 080820 RRA
METAR
EGNT 080820Z NIL=
####018000075####
SAXX61 KWBC 080800 RRD
METAR
LIRN 080820Z 06008KT CAVOK 26/12 Q1019=
####018000120####
SPUS41 KWBC 080828
SPECI
KWRI 080826Z AUTO 00000KT 1/2SM R18/0800V4000FT R24/0800V2600FT FG
OVC002 24/24 A2999=
####018001096####
SAXX99 KWBC 080800 RRU
METAR
CYDP 080800Z 00000KT 15SM SCT100 08/06 A2990 RMK AC3 SLP124=
EFET 080820Z AUTO 18010KT 140V220 CAVOK 18/08 Q1014=
EFJO 080820Z 05003KT CAVOK 23/19 Q1015=
EFKI 080820Z AUTO 34004KT 280V020 CAVOK 19/14 Q1016=
EFKS 080820Z VRB01KT 9999 BKN019 16/11 Q1017=
EFKT 080820Z AUTO 18008KT 140V230 9999 FEW039 SCT131 20/10
     Q1016=
EFLP 080820Z 11006KT 020V170 CAVOK 29/16 Q1014=
EFMI 080820Z AUTO VRB03KT 9999 FEW028 26/19 Q1014=
EFSA 080820Z 36003KT 9999 FEW025 25/19 Q1014=
EFUT 080820Z 04006KT 340V100 CAVOK 28/17 Q1014=
EFVR 080825Z NIL=
EGVP 080821Z 30003KT 7000 -RA FEW004 BKN016 BKN030 15/14 Q1019 WHT
     TEMPO SCT012 GRN=
EGWU 080822Z 30004KT 8000 HZ SCT006 OVC014 17/16 Q1019 RERA REDZ
     YLO1=
ENBS 080820Z NIL=
ENHK 080820Z 10014KT 9999 FEW035 BKN080 15/08 Q1012=
HESH 080800Z 02014KT CAVOK 34/14 Q1007 NOSIG=
HETB 080800Z 00000KT CAVOK 27/13 Q1014 NOSIG=
LGHI 080820Z NIL=
LGKC 080820Z NIL=
LGNX 080820Z NIL=
LGPA 080820Z NIL=
LGSO 080820Z NIL=
LOXZ 080820Z VRB02KT 70KM SKC 17/10 Q1024 NOSIG RMK SKC=
####018000120####
SPUS41 KWBC 080828
SPECI
KWRI 080824Z AUTO 00000KT 3/4SM R18/1000V4000FT R24/1000V2800FT BR
OVC002 24/24 A2999=
####018000081####
SPCN47 CWAO 080826
SPECI CYPQ 080826Z AUTO ///// 1 1/8SM CLR 20/20 A3003=

####018000088####
SPUS81 KWBC 080828
SPECI
KBDR 080825Z AUTO 09006KT 1 3/4SM BR OVC004 24/23 A3002=
####018000071####
SALY31 HLLB 080830
METAR HLLB 080825Z 
32017KT CAVOK 29/16 Q1016=
####018000075####
SAMP31 LMMM 080830 RRA
METAR HLLB 080825Z 
32017KT CAVOK 29/16 Q1016=
####018000075####
SAMP31 LMMM 080830 RRA
METAR HLLB 080825Z
32017KT CAVOK 29/16 Q1016=
####018000079####
SAUK34 EGGY 080820 RRA
METAR EGHE 080820Z 20005KT 9999 FEW018 18/13 Q1019=
####018000074####
SAMP31 LMMM 080830 RRA
METAR HLLB 080825Z
32017KT CAVOK 29/16 Q1016=
####018000173####
SAGR32 LGAT 080820 RRA
METAR LGAL 080820Z 05013KT 9999 -RA FEW008 FEW020TCU SCT025 BKN080
      15/13 Q1014=
METAR LGRX 080820Z 27007KT 9999 FEW025 28/20 Q1012 NOSIG=
####018000113####
SAUK31 EGGY 080820 CCB
METAR COR EGLL 080820Z 30007KT 5000 -RA SCT008 BKN012 17/15 Q1019
    BECMG SCT040=
####018000295####
SANL31 EHDB 080825
METAR EHAM 080825Z 25009KT 210V290 CAVOK 23/15 Q1019 NOSIG=
METAR EHBK 080825Z AUTO 21007KT 170V250 9999NDV NCD 26/12 Q1019
NOSIG=
METAR EHGG 080825Z AUTO 24008KT 200V280 9999NDV NSC 25/13 Q1018
NOSIG=
METAR EHRD 080825Z 28006KT 240V320 CAVOK 23/15 Q1019 NOSIG=
####018000386####
SPUS17 KAWN 080828 RRB
SPECI KDOV 080823Z AUTO 00000KT 2SM BR CLR 24/24 A2998 RMK AO2 SLP155=
SPECI KHST 080822Z AUTO 06006KT 9SM -RA FEW021 SCT065 27/25 A2993 RMK
      AO2 RAB0822 SLP136 $=
SPECI KHST 080823Z AUTO 06005KT 8SM -RA FEW004 SCT021 SCT065 27/25
      A2993 RMK AO2 RAB0822 FEW V SCT SLP136 $=
SPECI KNFW 080823Z AUTO 15008KT 10SM SCT024 27/22 A3003 RMK AO2=
####018000088####
SANA14 KAWN 080800 RRF
METAR KOSC 080814Z AUTO 00000KT 7SM CLR 19/18 A3000 RMK AO2=
####018000080####
SPCN42 CWAO 080827
SPECI CYUA 080827Z AUTO 30010KT 9SM OVC003 05/ A3008=

####018000103####
SAUS44 KMOB 080828 COR
MTRNSE
SPECI KNSE 080823Z AUTO 00000KT 1/2SM FG CLR 23/21 A3002 RMK AO2 $
####018000060####
SAUS45 KTFX 080828
MTR8S0
METAR K8S0 080725Z 26006KT 
####018002980####
SAUS20 KNKA 080828
METAR K3LF 080823Z AUTO 00000KT 7SM CLR 23/22 A3004 RMK AO2 LTG 
     DSNT N=
METAR K6R3 080821Z AUTO 07003KT 7SM SCT032 SCT047 SCT050 24/24 
     A2995 RMK AO2 T02420242=
METAR KAQO 080825Z AUTO 12005KT OVC050 26/23 A3001 RMK AO2=
METAR KARM 080825Z AUTO 04006KT 7SM RA SCT039 SCT047 SCT055 26/25 
     A2990 RMK AO2 T02630248=
SPECI KARR 080827Z AUTO 14003KT 2 1/2SM BR FEW020 BKN095 22/22 A3003 
    RMK AO2 RAE0758 P0000 $=
METAR KASW 080825Z AUTO 00000KT 7SM CLR 22/21 A3005 RMK AO2 
     T02170205=
METAR KAXH 080825Z AUTO 00000KT 10SM SCT028 BKN034 26/24 A2990 
     RMK AO2 T02560240=
METAR KBBD 080825Z AUTO 00000KT 10SM SCT018 23/21 A3001 RMK=
METAR KBKD 080821Z AUTO 15003KT 5SM BR CLR 24/23 A3001 RMK AO2 
     T02350230=
METAR KBKS 080826Z AUTO 02004KT 10SM SCT021 SCT100 26/25 A2982 
     RMK AO1 T02620247=
METAR KBPC 080827Z AUTO 02008KT 10SM -RA SCT039 BKN050 OVC100 
     18/17 A3016 RMK AO2 P0003=
METAR KBPG 080825Z AUTO 00000KT 10SM CLR 21/20 A3009 RMK AO1 
     T02090196=
METAR KBYY 080826Z AUTO 07007KT 10SM SCT024 SCT037 BKN050 27/26 
     A2988 RMK AO2 T02710256=
METAR KC09 080824Z AUTO 00000KT 3SM -DZ SCT065 BKN080 OVC110 
     21/21 A3003 RMK AO2=
METAR KCIR 080822Z AUTO 00000KT 10SM CLR 24/22 A3004 RMK AO2=
METAR KCPT 080825Z AUTO 11003KT 10SM CLR 24/24 A3002 RMK AO2=
METAR KCUL 080825Z AUTO 00000KT 7SM CLR 23/21 A3004 RMK AO2 
     T02280206=
METAR KCVB 080824Z AUTO 07003KT 10SM OVC021 25/24 A2994 RMK AO2 
     T02520238=
METAR KCWC 080825Z AUTO 05004KT 10SM CLR 24/22 A3002 RMK AO2 
     T02350218=
METAR KDKB 080821Z AUTO 00000KT 4SM BR BKN065 BKN090 BKN120 22/21 
     A3002 RMK AO2 T02150210=
METAR KDKR 080825Z AUTO 06004KT 7SM CLR 24/24 A3001 RMK AO2=
METAR KDNV 080825Z AUTO 00000KT 7SM SCT060 BKN075 BKN100 22/20 
     A3001 RMK AO2 T02210203=
METAR KDUX 080827Z AUTO 32004KT 10SM -RA SCT030 BKN070 OVC100 
     18/16 A3022 RMK AO2 P0002 T01750164=
METAR KDZB 080825Z AUTO 00000KT 5SM BR SCT050 23/23 A2997 RMK AO2 
     T02310232=
METAR KE38 080825Z AUTO 00000KT 10SM CLR 19/16 A3019 RMK AO2 
     T01850161=
METAR KEBG 080825Z AUTO 00000KT 10SM SCT100 26/25 A2980 RMK AO2 
     LTG DSNT NE T02620248=
METAR KECU 080825Z AUTO 05003KT 10SM CLR 22/21 A3007 RMK AO2=
SPECI KELM 080827Z AUTO 00000KT 3SM BR CLR 17/17 A3008 RMK AO2=
METAR KENL 080824Z AUTO 19004KT 10SM CLR 24/16 A3004 RMK AO2 
     T02400160=
METAR KERV 080825Z AUTO 08006KT 10SM SCT022 OVC034 23/21 A2999 
     RMK AO2 T02330213=
METAR KF05 080824Z AUTO 01003KT 10SM SCT120 24/22 A3003 RMK AO2 
     T02390220=
METAR KFEP 080825Z AUTO 15003KT 7SM SCT065 BKN085 23/21 A3000 RMK 
     AO2 T02280208=
METAR KFOA 080825Z AUTO 00000KT 7SM CLR 26/25 A3003 RMK AO2 
     T02550251=
METAR KFWC 080825Z AUTO 00000KT 7SM CLR 23/22 A3004 RMK AO2=
METAR KFWS 080825Z AUTO 13004KT 10SM BKN018 BKN022 25/23 A3000 
     RMK AO2 T02480233=
####018001794####
SAUS20 KNKA 080828
METAR KGBG 080825Z AUTO 19005KT 5SM BR OVC002 23/22 A3001 RMK AO2=
METAR KGDJ 080824Z AUTO 00000KT 10SM OVC012 25/23 A3000 RMK AO2 
     T02500226=
METAR KGNC 080825Z AUTO 05009KT 7SM RA SCT014 BKN050 OVC070 20/19 
     A3014 RMK AO2 P0002 T02030192=
METAR KGOP 080820Z AUTO 00000KT 10SM SCT013 BKN020 25/23 A3001 
     RMK AO2=
METAR KGVT 080825Z AUTO 16005KT 10SM CLR 25/23 A3001 RMK AO2=
METAR KGWB 080825Z AUTO 00000KT 7SM CLR 23/17 A3006 RMK AO2=
METAR KGYB 080825Z AUTO 07003KT 7SM BKN008 BKN012 OVC024 24/24 
     A2998 RMK AO2 T02420238=
METAR KGYI 080824Z AUTO 16005KT 10SM SCT024 BKN070 BKN080 26/24 
     A3002 RMK AO2 T02560237=
METAR KHBV 080820Z AUTO 03005KT 10SM BKN007 OVC013 25/24 A2987 
     RMK AO2 LTG DSNT NE T02530240=
METAR KHHF 080825Z AUTO 35006KT 10SM SCT016 BKN036 OVC110 22/20 
     A3012 RMK AO2 LTG DSNT NW T02200195=
METAR KHSB 080825Z AUTO 00000KT 5SM BR CLR 22/21 A3004 RMK AO2=
METAR KIJX 080825Z AUTO 00000KT 4SM BR BKN028 BKN034 OVC050 24/23 
     A3004 RMK AO2 LTG DSNT NE T02350226=
SPECI KMVY 080827Z AUTO 15004KT 1/2SM R24/2600V4000FT FG VV001 21/20 
    A3007 RMK AO2=
METAR KOLY 080823Z AUTO 00000KT 5SM BR CLR 24/23 A3003 RMK AO2=
METAR KPNT 080825Z AUTO 00000KT 3SM BR SCT030 BKN034 OVC060 23/22 
     A3003 RMK AO2 LTG DSNT SW=
METAR KPRG 080825Z AUTO 00000KT 5SM BR SCT060 SCT080 OVC085 22/22 
     A3004 RMK AO2 T02270220=
METAR KRPJ 080825Z AUTO 00000KT 4SM BR SCT013 BKN048 BKN055 21/20 
     A3003 RMK AO2 T02070197=
METAR KRSV 080822Z AUTO 00000KT 7SM CLR 24/23 A3004 RMK AO2 
     T02400227=
SPECI KTAN 080827Z AUTO 16003KT 10SM BKN006 21/21 A3004 RMK AO2=
SPECI KUIN 080827Z AUTO 00000KT 10SM FEW001 BKN048 BKN060 23/22 
    A3003 RMK AO2 RAE21 P0005=
####018000333####
SAUS99 KWBC 080829 RRA
METAR
KFEP 080825Z AUTO 15003KT 7SM SCT065 BKN085 23/21 A3000 RMK AO2
     T02280208=
KFOA 080825Z AUTO 00000KT 7SM CLR 26/25 A3003 RMK AO2
     T02550251=
KFWC 080825Z AUTO 00000KT 7SM CLR 23/22 A3004 RMK AO2=
KFWS 080825Z AUTO 13004KT 10SM BKN018 BKN022 25/23 A3000 RMK AO2
     T02480233=
####018003694####
SAUS99 KWBC 080829
METAR
KGBG 080825Z AUTO 19005KT 5SM BR OVC002 23/22 A3001 RMK AO2=
KGDJ 080824Z AUTO 00000KT 10SM OVC012 25/23 A3000 RMK AO2
     T02500226=
KGNC 080825Z AUTO 05009KT 7SM RA SCT014 BKN050 OVC070 20/19 A3014
     RMK AO2 P0002 T02030192=
KGOP 080820Z AUTO 00000KT 10SM SCT013 BKN020 25/23 A3001 RMK
     AO2=
KGVT 080825Z AUTO 16005KT 10SM CLR 25/23 A3001 RMK AO2=
KGWB 080825Z AUTO 00000KT 7SM CLR 23/17 A3006 RMK AO2=
KGYB 080825Z AUTO 07003KT 7SM BKN008 BKN012 OVC024 24/24 A2998 RMK
     AO2 T02420238=
KGYI 080824Z AUTO 16005KT 10SM SCT024 BKN070 BKN080 26/24 A3002
     RMK AO2 T02560237=
KHBV 080820Z AUTO 03005KT 10SM BKN007 OVC013 25/24 A2987 RMK AO2
     LTG DSNT NE T02530240=
KHHF 080825Z AUTO 35006KT 10SM SCT016 BKN036 OVC110 22/20 A3012
     RMK AO2 LTG DSNT NW T02200195=
KHSB 080825Z AUTO 00000KT 5SM BR CLR 22/21 A3004 RMK AO2=
KIJX 080825Z AUTO 00000KT 4SM BR BKN028 BKN034 OVC050 24/23 A3004
     RMK AO2 LTG DSNT NE T02350226=
KOLY 080823Z AUTO 00000KT 5SM BR CLR 24/23 A3003 RMK AO2=
KPNT 080825Z AUTO 00000KT 3SM BR SCT030 BKN034 OVC060 23/22 A3003
     RMK AO2 LTG DSNT SW=
KPRG 080825Z AUTO 00000KT 5SM BR SCT060 SCT080 OVC085 22/22 A3004
     RMK AO2 T02270220=
KRPJ 080825Z AUTO 00000KT 4SM BR SCT013 BKN048 BKN055 21/20 A3003
     RMK AO2 T02070197=
KRSV 080822Z AUTO 00000KT 7SM CLR 24/23 A3004 RMK AO2
     T02400227=
K3LF 080823Z AUTO 00000KT 7SM CLR 23/22 A3004 RMK AO2 LTG DSNT
     N=
K6R3 080821Z AUTO 07003KT 7SM SCT032 SCT047 SCT050 24/24 A2995 RMK
     AO2 T02420242=
KAQO 080825Z AUTO 12005KT OVC050 26/23 A3001 RMK AO2=
KARM 080825Z AUTO 04006KT 7SM RA SCT039 SCT047 SCT055 26/25 A2990
     RMK AO2 T02630248=
KASW 080825Z AUTO 00000KT 7SM CLR 22/21 A3005 RMK AO2
     T02170205=
KAXH 080825Z AUTO 00000KT 10SM SCT028 BKN034 26/24 A2990 RMK AO2
     T02560240=
KBBD 080825Z AUTO 00000KT 10SM SCT018 23/21 A3001 RMK=
KBKD 080821Z AUTO 15003KT 5SM BR CLR 24/23 A3001 RMK AO2
     T02350230=
KBKS 080826Z AUTO 02004KT 10SM SCT021 SCT100 26/25 A2982 RMK AO1
     T02620247=
KBPC 080827Z AUTO 02008KT 10SM -RA SCT039 BKN050 OVC100 18/17
     A3016 RMK AO2 P0003=
KBPG 080825Z AUTO 00000KT 10SM CLR 21/20 A3009 RMK AO1
     T02090196=
KBYY 080826Z AUTO 07007KT 10SM SCT024 SCT037 BKN050 27/26 A2988
     RMK AO2 T02710256=
KC09 080824Z AUTO 00000KT 3SM -DZ SCT065 BKN080 OVC110 21/21 A3003
     RMK AO2=
KCIR 080822Z AUTO 00000KT 10SM CLR 24/22 A3004 RMK AO2=
KCPT 080825Z AUTO 11003KT 10SM CLR 24/24 A3002 RMK AO2=
KCUL 080825Z AUTO 00000KT 7SM CLR 23/21 A3004 RMK AO2
     T02280206=
KCVB 080824Z AUTO 07003KT 10SM OVC021 25/24 A2994 RMK AO2
     T02520238=
KCWC 080825Z AUTO 05004KT 10SM CLR 24/22 A3002 RMK AO2
     T02350218=
KDKB 080821Z AUTO 00000KT 4SM BR BKN065 BKN090 BKN120 22/21 A3002
     RMK AO2 T02150210=
KDKR 080825Z AUTO 06004KT 7SM CLR 24/24 A3001 RMK AO2=
KDNV 080825Z AUTO 00000KT 7SM SCT060 BKN075 BKN100 22/20 A3001 RMK
     AO2 T02210203=
KDUX 080827Z AUTO 32004KT 10SM -RA SCT030 BKN070 OVC100 18/16
     A3022 RMK AO2 P0002 T01750164=
KDZB 080825Z AUTO 00000KT 5SM BR SCT050 23/23 A2997 RMK AO2
     T02310232=
KE38 080825Z AUTO 00000KT 10SM CLR 19/16 A3019 RMK AO2
     T01850161=
KEBG 080825Z AUTO 00000KT 10SM SCT100 26/25 A2980 RMK AO2 LTG DSNT
     NE T02620248=
KECU 080825Z AUTO 05003KT 10SM CLR 22/21 A3007 RMK AO2=
KENL 080824Z AUTO 19004KT 10SM CLR 24/16 A3004 RMK AO2
     T02400160=
KERV 080825Z AUTO 08006KT 10SM SCT022 OVC034 23/21 A2999 RMK AO2
     T02330213=
KF05 080824Z AUTO 01003KT 10SM SCT120 24/22 A3003 RMK AO2
     T02390220=
####018000428####
SPUS99 KWBC 080829
SPECI
KMVY 080827Z AUTO 15004KT 1/2SM R24/2600V4000FT FG VV001 21/20
     A3007 RMK AO2=
KTAN 080827Z AUTO 16003KT 10SM BKN006 21/21 A3004 RMK AO2=
KUIN 080827Z AUTO 00000KT 10SM FEW001 BKN048 BKN060 23/22 A3003
     RMK AO2 RAE21 P0005=
KARR 080827Z AUTO 14003KT 2 1/2SM BR FEW020 BKN095 22/22 A3003 RMK
     AO2 RAE0758 P0000 $=
KELM 080827Z AUTO 00000KT 3SM BR CLR 17/17 A3008 RMK AO2=
####018000087####
SAQB31 LQSM 080830
METAR LQSA 080830Z 01004KT 9999 FEW039 BKN050 18/10 Q1023 NOSIG=
####018000163####
SANL32 EHDB 080825
METAR EHEH 080825Z AUTO 23006KT 9999NDV NCD 27/12 Q1019 
BLU BLU=
METAR EHKD 080825Z AUTO 24010KT 9999NDV OVC057/// 20/16 Q1018 
BLU BLU=
####018000640####
SAUZ31 UTTW 080800
METAR UTNN 080800Z 19006MPS 160V220 CAVOK 41/08 Q1008 R15/CLRD70
NOSIG=
METAR UTNU 080800Z 21003MPS 170V250 CAVOK 41/13 Q1008 R13/CLRD60
NOSIG=
UTSA NIL=
METAR UTSB 080800Z 02006MPS CAVOK 40/06 Q1008 R01/CLRD70 NOSIG=
METAR UTSH 080800Z 18002MPS 9999 NSC 39/13 Q1014 R99/CLRD070=
METAR UTSK 080800Z 32003MPS CAVOK 40/13 Q1007 R16/CLRD70=
METAR UTSS 080800Z 09004MPS 9999 NSC 34/12 Q1011 R88/CLRD70 NOSIG=
METAR UTST 080830Z VRB01MPS CAVOK 40/02 Q1007 R88/CLRD70 NOSIG=
METAR UTTT 080800Z 27003MPS 180V350 CAVOK 38/09 Q1011 R08R/CLRD70
NOSIG=
METAR UTTP 080800Z 07001MPS CAVOK 37/10 Q1011 R88/CLRD70 NOSIG=
####018000084####
SPUS52 KWBC 080829
SPECI
KELD 080827Z AUTO 00000KT 3SM BR SCT001 23/23 A3003=
####018000076####
SPUS53 KWBC 080829
SPECI
KBRL 080826Z AUTO 2SM BR OVC001 23/22 A3002=
####018000079####
SPCN47 CWAO 080827
SPECI CYPQ 080827Z AUTO ///// 3/4SM CLR 20/20 A3003=

####018000653####
SAUZ31 UTTW 080800
METAR UTNN 080800Z 19006MPS 160V220 CAVOK 41/08 Q1008 R15/CLRD70
NOSIG=
METAR UTNU 080800Z 21003MPS 170V250 CAVOK 41/13 Q1008 R13/CLRD60
NOSIG=
UTSA NIL=
METAR UTSB 080800Z 02006MPS CAVOK 40/06 Q1008 R01/CLRD70 NOSIG=
METAR UTSH 080800Z 18002MPS 9999 NSC 39/13 Q1014 R99/CLRD070=
METAR UTSK 080800Z 32003MPS CAVOK 40/13 Q1007 R16/CLRD70=
METAR UTSS 080800Z 09004MPS 9999 NSC 34/12 Q1011 R88/CLRD70 NOSIG=
METAR UTST 080830Z VRB01MPS CAVOK 40/02 Q1007 R88/CLRD70 NOSIG=
METAR UTTT 080800Z 27003MPS 180V350 CAVOK 38/09 Q1011 R08R/CLRD70
NOSIG=
METAR UTTP 080800Z 07001MPS CAVOK 37/10 Q1011 R88/CLRD70 NOSIG=
####018000105####
SADL51 ETGT 080820 RRA
METAR
ETNW 080820Z 20005KT 9999 FEW150 SCT200 26/11 Q1020
      BLU+BLU+=
####018000076####
SPUS73 KWBC 080829
SPECI
KBRL 080826Z AUTO 2SM BR OVC001 23/22 A3002=
####018000111####
SAUS44 KLZK 080829
MTRMWT
SPECI KMWT 080827Z AUTO 00000KT 10SM FEW001 BKN014 23/23 A3004 RMK 
AO2 TSNO
####018000098####
SADL52 ETGT 080820 RRA
METAR
ETHN 080820Z 16006KT 9999 FEW060 23/08 Q1022
      BLU+BLU+=
####018000087####
SARS18 KAWN 080800 RRG
METAR ESSA 080820Z 25008KT 210V290 CAVOK 22/11 Q1017 NOSIG=
####018000090####
SANA35 KAWN 080800 RRG
METAR SAZS 080800Z 32014KT 5000 +DZ BKN010 SCT040 03/01 Q1005=
####018000870####
SAUK KAWN 080800 RRG
METAR COR EGCC 080820Z 21009KT 9999 FEW030 16/12 Q1017 NOSIG=
METAR EGGP 080820Z 20009KT 9999 FEW030 17/11 Q1017=
METAR EGHE 080820Z 20005KT 9999 FEW018 18/13 Q1019=
METAR EGHI 080820Z 24006KT 210V280 8000 SCT007 BKN012 17/16 Q1019=
METAR COR EGLL 080820Z 30007KT 5000 -RA SCT008 BKN012 17/15 Q1019 BECMG
      SCT040=
METAR EGMD 080820Z 25003KT 9999 3500SE FEW000 SCT003 BKN006 17/15 Q1020=
METAR EGMH 080820Z 27008KT 230V310 9999 FEW012 20/16 Q1019=
METAR EGNS 080820Z 24011KT 9999 FEW020 16/10 Q1015 NOSIG=
METAR EGNT 080820Z 22007KT 180V260 9999 FEW040 16/11 Q1015=
METAR EGTC 080820Z 25005KT 210V300 9999 FEW018 SCT030 17/12 Q1018=
METAR EGVP 080821Z 30003KT 7000 -RA FEW004 BKN016 BKN030 15/14 Q1019
      WHT TEMPO SCT012 GRN=
METAR EGWU 080822Z 30004KT 8000 HZ SCT006 OVC014 17/16 Q1019 RERA REDZ
      YLO1=
####018000088####
SAQB31 LQSM 080830
METAR LQSA 080830Z 01004KT 9999 FEW039 BKN050 18/10 Q1023 NOSIG=
####018000167####
SANL32 EHDB 080825
METAR EHEH 080825Z AUTO 23006KT 9999NDV NCD 27/12 Q1019 
BLU BLU=
METAR EHKD 080825Z AUTO 24010KT 9999NDV OVC057/// 20/16 Q1018 
BLU BLU=
####018000087####
SASB31 VCCC 080810 RRA
VCBI 080810Z 25009KT 210V290 9999 SCT016 30/25 Q1008 NOSIG=
####018000409####
SAUK36 EGGY 080820
METAR EGBE 080820Z NIL=
METAR EGBJ 080820Z 20003KT 9999 FEW024 17/12 Q1018=
METAR EGCN 080820Z 23009KT 9999 FEW044 17/11 Q1017=
METAR EGDL 080820Z NIL=
METAR EGSC 080820Z 27007KT 240V300 8000 FEW012 BKN018 17/13 Q1018=
METAR EGSD 080820Z NIL=
METAR COR EGSH 080820Z 24007KT 9999 -RA FEW011 BKN029 20/16 Q1018
    NOSIG=
METAR EGVN 080820Z NIL=
METAR EGWU 080820Z NIL=
####018000465####
SAUK37 EGGY 080820
METAR EGAE 080820Z 22013KT 9999 FEW018 SCT045 15/10 Q1012=
METAR EGNC 080820Z 23011KT 9999 SCT030 SCT045 16/11 Q1014=
METAR EGNH 080820Z 23011KT 9999 FEW019 17/10 Q1016=
METAR EGNJ 080820Z 23012KT 9999 -RA SCT025 17/12 Q1017=
METAR EGNR 080820Z 20006KT 150V240 9999 FEW030 17/12 Q1017=
METAR EGPE 080820Z 21015KT 9999 FEW022 SCT048 15/09 Q1008=
METAR EGPI 080820Z NIL=
METAR EGPN 080820Z 24019KT 9999 FEW022 SCT048 15/12 Q1011=
####018000384####
SAUK38 EGGY 080820
METAR EGEC 080820Z NIL=
METAR EGPA 080820Z 19013KT 9999 FEW030 SCT044 15/11 Q1006=
METAR EGPC 080820Z 19014G24KT 9999 FEW024 SCT041 14/11 Q1007=
METAR EGPL 080820Z 22020KT 9999 FEW018 15/11 Q1006=
METAR EGPM 080820Z 21020G30KT 9999 FEW012 SCT030 15/10 Q1004=
METAR EGPO 080820Z 22020KT 9999 VCSH FEW014CB SCT030 13/10 Q1004=
METAR EGPU 080820Z NIL=
####018000112####
SAUS20 KNKA 080829
METAR KSNK 080826Z AUTO 32003KT 7SM SCT042 BKN120 21/20 A3007 RMK 
     AO2 T02080200=
####018002919####
SAUS20 KNKA 080829
METAR K11R 080826Z AUTO 07004KT 7SM CLR 25/23 A2994 RMK AO2=
SPECI KCOT 080828Z AUTO 05005KT 10SM SCT022 25/23 A2989 RMK AO2=
SPECI KFTW 080827Z 15008KT 10SM SCT022 25/23 A2998 RMK AO2=
METAR KHRX 080825Z AUTO 00000KT 10SM SCT035 BKN065 OVC080 17/17 
     A3019 RMK AO2 T01730165=
METAR KINJ 080825Z AUTO 12004KT 10SM CLR 25/23 A2999 RMK AO2 
     T02480226=
METAR KJAS 080825Z AUTO 00000KT 7SM CLR 25/24 A3001 RMK AO2 
     T02480238=
METAR KJDD 080825Z AUTO 00000KT 5SM  BR BKN003 24/24 A3002 RMK AO2=
METAR KJSO 080830Z AUTO 00000KT 4SM BR CLR 24/24 A3003 RMK AO2 
     T02350235=
METAR KJWY 080825Z AUTO 14003KT 10SM 24/23 A3000 RMK AO2 T02400225=
METAR KJXI 080825Z AUTO 00000KT BKN006 25/25 A3002 RMK AO2=
METAR KLBR 080825Z AUTO 00000KT 7SM BKN002 24/23 A3002 RMK AO2 
     T02400230=
METAR KLHB 080824Z AUTO 08003KT 7SM BKN120 25/23 A2996 RMK AO2 
     T02520234=
METAR KLNC 080825Z AUTO 00000KT 10SM BKN014 24/24 A3000 RMK AO2 
     T02410240=
METAR KLUD 080825Z AUTO 15005KT 10SM SCT024 SCT042 SCT050 25/22 
     A3001 RMK AO2 T02500215=
METAR KM30 080826Z AUTO 00000KT 7SM CLR 22/21 A3004 RMK AO2=
METAR KMDD 080820Z AUTO 00000KT 10SM SCT120 22/20 A3008 RMK AO2 
     T02240204=
METAR KMKN 080820Z AUTO 00000KT 10SM 24/23 A3001 RMK AO2=
METAR KMNZ 080829Z AUTO 13004KT 10SM CLR 24/24 A2999 RMK AO2 
     T02440237=
METAR KMQB 080825Z AUTO 23004KT 10SM OVC006 23/23 A3004 RMK AO2 
     LTG DSNT E T02310230=
METAR KMWA 080825Z AUTO 00000KT 10SM CLR 25/24 A3005 RMK AO2 
     T02450236=
METAR KOSA 080824Z AUTO 00000KT 7SM SCT016 25/24 A3003 RMK AO1 
     T02480241=
METAR KPEZ 080825Z AUTO 04005KT 5SM HZ BKN013 BKN023 BKN031 25/23 
     A2991 RMK AO2 LTG DSNT SE T02530230=
METAR KPKV 080826Z AUTO 08007KT 10SM SCT010 BKN022 OVC090 25/23 
     A2986 RMK AO2 T02500234=
METAR KPPA 080825Z AUTO 03007KT 10SM -DZ SCT030 BKN038 OVC085 
     17/16 A3018 RMK AO2=
METAR KPSN 080825Z AUTO 11003KT 7SM 24/24 A3001 RMK AO2 T02420235=
METAR KPYX 080830Z AUTO 09005KT 4SM SCT006 BKN016 OVC027 19/18 
     A3018 RMK AO2 P0004 T01910182=
METAR KRAS 080825Z AUTO 11014G19KT 8SM VCTS FEW017 28/26 A2984 
     RMK AO2 LTG DSNT S-NW=
METAR KRBO 080825Z AUTO 35005KT 1 3/4SM TSRA SCT005 BKN021 OVC032 
     26/25 A2984 RMK AO2 VIS 1V5 LTG DSNT ALQS P0030 T02600250=
METAR KRFI 080825Z AUTO 00000KT 4SM BR CLR 24/23 A3001 RMK AO2 
     T02380230=
METAR KRPH 080825Z AUTO 00000KT 10SM CLR 23/21 A2999 RMK AO2 
     T02290211=
METAR KRWV 080820Z AUTO 00000KT 8SM FEW007 24/24 A2998 RMK AO2=
METAR KRYW 080825Z AUTO 06004KT 5SM BR OVC008 24/23 A2999 RMK AO2=
METAR KSAR 080825Z AUTO 19004KT 7SM CLR 26/23 A3004 RMK AO2=
METAR KSEP 080825Z AUTO 00000KT 10SM BKN011 BKN065 BKN075 23/21 
     A3001 RMK AO1=
METAR KSLR 080822Z AUTO 12005KT 10SM SCT010 SCT026 25/23 A3003 
     RMK AO2 T02500233=
####018000075####
SPCN44 CWAO 080828
SPECI CYUS 080828Z AUTO ///// 9SM CLR 10/ A2980=

####018000051####
SAUS90 KWBC 080830
METAR K8S0 080725Z 26006KT=
####018000107####
SPUS90 KWBC 080830
SPECI KMWT 080827Z AUTO 00000KT 10SM FEW001 BKN014 23/23 A3004 RMK
     AO2 TSNO=
####018000320####
SAUS20 KNKA 080829
SPECI KBOS 080828Z 16005KT 10SM OVC015 23/20 A3006 RMK AO2=
SPECI KDVN 080828Z AUTO 00000KT 5SM BR BKN005 22/21 A3002 RMK AO2 
    CIG 004V009=
SPECI KIRK 080828Z AUTO 00000KT 4SM BR CLR 19/19 A3006 RMK AO2=
SPECI KOJC 080828Z AUTO 34006KT 6SM BR BKN004 OVC100 23/22 A3005 RMK 
    AO2=
####018002660####
SAUS99 KWBC 080830
METAR
KSNK 080826Z AUTO 32003KT 7SM SCT042 BKN120 21/20 A3007 RMK AO2
     T02080200=
K11R 080826Z AUTO 07004KT 7SM CLR 25/23 A2994 RMK AO2=
KHRX 080825Z AUTO 00000KT 10SM SCT035 BKN065 OVC080 17/17 A3019
     RMK AO2 T01730165=
KINJ 080825Z AUTO 12004KT 10SM CLR 25/23 A2999 RMK AO2
     T02480226=
KJAS 080825Z AUTO 00000KT 7SM CLR 25/24 A3001 RMK AO2
     T02480238=
KJDD 080825Z AUTO 00000KT 5SM BR BKN003 24/24 A3002 RMK AO2=
KJSO 080830Z AUTO 00000KT 4SM BR CLR 24/24 A3003 RMK AO2
     T02350235=
KJWY 080825Z AUTO 14003KT 10SM 24/23 A3000 RMK AO2 T02400225=
KJXI 080825Z AUTO 00000KT BKN006 25/25 A3002 RMK AO2=
KLBR 080825Z AUTO 00000KT 7SM BKN002 24/23 A3002 RMK AO2
     T02400230=
KLHB 080824Z AUTO 08003KT 7SM BKN120 25/23 A2996 RMK AO2
     T02520234=
KLNC 080825Z AUTO 00000KT 10SM BKN014 24/24 A3000 RMK AO2
     T02410240=
KLUD 080825Z AUTO 15005KT 10SM SCT024 SCT042 SCT050 25/22 A3001
     RMK AO2 T02500215=
KM30 080826Z AUTO 00000KT 7SM CLR 22/21 A3004 RMK AO2=
KMDD 080820Z AUTO 00000KT 10SM SCT120 22/20 A3008 RMK AO2
     T02240204=
KMKN 080820Z AUTO 00000KT 10SM 24/23 A3001 RMK AO2=
KMNZ 080829Z AUTO 13004KT 10SM CLR 24/24 A2999 RMK AO2
     T02440237=
KMQB 080825Z AUTO 23004KT 10SM OVC006 23/23 A3004 RMK AO2 LTG DSNT
     E T02310230=
KMWA 080825Z AUTO 00000KT 10SM CLR 25/24 A3005 RMK AO2
     T02450236=
KOSA 080824Z AUTO 00000KT 7SM SCT016 25/24 A3003 RMK AO1
     T02480241=
KPEZ 080825Z AUTO 04005KT 5SM HZ BKN013 BKN023 BKN031 25/23 A2991
     RMK AO2 LTG DSNT SE T02530230=
KPKV 080826Z AUTO 08007KT 10SM SCT010 BKN022 OVC090 25/23 A2986
     RMK AO2 T02500234=
KPPA 080825Z AUTO 03007KT 10SM -DZ SCT030 BKN038 OVC085 17/16
     A3018 RMK AO2=
KPSN 080825Z AUTO 11003KT 7SM 24/24 A3001 RMK AO2 T02420235=
KPYX 080830Z AUTO 09005KT 4SM SCT006 BKN016 OVC027 19/18 A3018 RMK
     AO2 P0004 T01910182=
KRAS 080825Z AUTO 11014G19KT 8SM VCTS FEW017 28/26 A2984 RMK AO2
     LTG DSNT S-NW=
KRBO 080825Z AUTO 35005KT 1 3/4SM TSRA SCT005 BKN021 OVC032 26/25
     A2984 RMK AO2 VIS 1V5 LTG DSNT ALQS P0030 T02600250=
KRFI 080825Z AUTO 00000KT 4SM BR CLR 24/23 A3001 RMK AO2
     T02380230=
KRPH 080825Z AUTO 00000KT 10SM CLR 23/21 A2999 RMK AO2
     T02290211=
KRWV 080820Z AUTO 00000KT 8SM FEW007 24/24 A2998 RMK AO2=
KRYW 080825Z AUTO 06004KT 5SM BR OVC008 24/23 A2999 RMK AO2=
KSAR 080825Z AUTO 19004KT 7SM CLR 26/23 A3004 RMK AO2=
KSEP 080825Z AUTO 00000KT 10SM BKN011 BKN065 BKN075 23/21 A3001
     RMK AO1=
KSLR 080822Z AUTO 12005KT 10SM SCT010 SCT026 25/23 A3003 RMK AO2
     T02500233=
####018000421####
SPUS99 KWBC 080830
SPECI
KCOT 080828Z AUTO 05005KT 10SM SCT022 25/23 A2989 RMK AO2=
KFTW 080827Z 15008KT 10SM SCT022 25/23 A2998 RMK AO2=
KBOS 080828Z 16005KT 10SM OVC015 23/20 A3006 RMK AO2=
KDVN 080828Z AUTO 00000KT 5SM BR BKN005 22/21 A3002 RMK AO2 CIG
     004V009=
KIRK 080828Z AUTO 00000KT 4SM BR CLR 19/19 A3006 RMK AO2=
KOJC 080828Z AUTO 34006KT 6SM BR BKN004 OVC100 23/22 A3005 RMK
     AO2=
####018000437####
SAUS80 KWBC 080830
METAR
KCIR 080822Z AUTO 00000KT 10SM CLR 24/22 A3004 RMK AO2=
KCUL 080825Z AUTO 00000KT 7SM CLR 23/21 A3004 RMK AO2
     T02280206=
KMKN 080820Z AUTO 00000KT 10SM 24/23 A3001 RMK AO2=
KPSN 080825Z AUTO 11003KT 7SM 24/24 A3001 RMK AO2 T02420235=
KRFI 080825Z AUTO 00000KT 4SM BR CLR 24/23 A3001 RMK AO2
     T02380230=
KSEP 080825Z AUTO 00000KT 10SM BKN011 BKN065 BKN075 23/21 A3001
     RMK AO1=
####018003703####
SAUS70 KWBC 080830
METAR
KOSC 080814Z AUTO 00000KT 7SM CLR 19/18 A3000 RMK AO2=
KGBG 080825Z AUTO 19005KT 5SM BR OVC002 23/22 A3001 RMK AO2=
KGDJ 080824Z AUTO 00000KT 10SM OVC012 25/23 A3000 RMK AO2
     T02500226=
KGNC 080825Z AUTO 05009KT 7SM RA SCT014 BKN050 OVC070 20/19 A3014
     RMK AO2 P0002 T02030192=
KGOP 080820Z AUTO 00000KT 10SM SCT013 BKN020 25/23 A3001 RMK
     AO2=
KGVT 080825Z AUTO 16005KT 10SM CLR 25/23 A3001 RMK AO2=
KGWB 080825Z AUTO 00000KT 7SM CLR 23/17 A3006 RMK AO2=
KGYB 080825Z AUTO 07003KT 7SM BKN008 BKN012 OVC024 24/24 A2998 RMK
     AO2 T02420238=
KGYI 080824Z AUTO 16005KT 10SM SCT024 BKN070 BKN080 26/24 A3002
     RMK AO2 T02560237=
KHBV 080820Z AUTO 03005KT 10SM BKN007 OVC013 25/24 A2987 RMK AO2
     LTG DSNT NE T02530240=
KHHF 080825Z AUTO 35006KT 10SM SCT016 BKN036 OVC110 22/20 A3012
     RMK AO2 LTG DSNT NW T02200195=
KHSB 080825Z AUTO 00000KT 5SM BR CLR 22/21 A3004 RMK AO2=
KIJX 080825Z AUTO 00000KT 4SM BR BKN028 BKN034 OVC050 24/23 A3004
     RMK AO2 LTG DSNT NE T02350226=
KOLY 080823Z AUTO 00000KT 5SM BR CLR 24/23 A3003 RMK AO2=
KPNT 080825Z AUTO 00000KT 3SM BR SCT030 BKN034 OVC060 23/22 A3003
     RMK AO2 LTG DSNT SW=
KPRG 080825Z AUTO 00000KT 5SM BR SCT060 SCT080 OVC085 22/22 A3004
     RMK AO2 T02270220=
KRPJ 080825Z AUTO 00000KT 4SM BR SCT013 BKN048 BKN055 21/20 A3003
     RMK AO2 T02070197=
KRSV 080822Z AUTO 00000KT 7SM CLR 24/23 A3004 RMK AO2
     T02400227=
K3LF 080823Z AUTO 00000KT 7SM CLR 23/22 A3004 RMK AO2 LTG DSNT
     N=
K6R3 080821Z AUTO 07003KT 7SM SCT032 SCT047 SCT050 24/24 A2995 RMK
     AO2 T02420242=
KAQO 080825Z AUTO 12005KT OVC050 26/23 A3001 RMK AO2=
KARM 080825Z AUTO 04006KT 7SM RA SCT039 SCT047 SCT055 26/25 A2990
     RMK AO2 T02630248=
KASW 080825Z AUTO 00000KT 7SM CLR 22/21 A3005 RMK AO2
     T02170205=
KAXH 080825Z AUTO 00000KT 10SM SCT028 BKN034 26/24 A2990 RMK AO2
     T02560240=
KBBD 080825Z AUTO 00000KT 10SM SCT018 23/21 A3001 RMK=
KBKD 080821Z AUTO 15003KT 5SM BR CLR 24/23 A3001 RMK AO2
     T02350230=
KBKS 080826Z AUTO 02004KT 10SM SCT021 SCT100 26/25 A2982 RMK AO1
     T02620247=
KBPC 080827Z AUTO 02008KT 10SM -RA SCT039 BKN050 OVC100 18/17
     A3016 RMK AO2 P0003=
KBPG 080825Z AUTO 00000KT 10SM CLR 21/20 A3009 RMK AO1
     T02090196=
KBYY 080826Z AUTO 07007KT 10SM SCT024 SCT037 BKN050 27/26 A2988
     RMK AO2 T02710256=
KC09 080824Z AUTO 00000KT 3SM -DZ SCT065 BKN080 OVC110 21/21 A3003
     RMK AO2=
KCPT 080825Z AUTO 11003KT 10SM CLR 24/24 A3002 RMK AO2=
KCVB 080824Z AUTO 07003KT 10SM OVC021 25/24 A2994 RMK AO2
     T02520238=
KCWC 080825Z AUTO 05004KT 10SM CLR 24/22 A3002 RMK AO2
     T02350218=
KDKB 080821Z AUTO 00000KT 4SM BR BKN065 BKN090 BKN120 22/21 A3002
     RMK AO2 T02150210=
KDKR 080825Z AUTO 06004KT 7SM CLR 24/24 A3001 RMK AO2=
KDNV 080825Z AUTO 00000KT 7SM SCT060 BKN075 BKN100 22/20 A3001 RMK
     AO2 T02210203=
KDUX 080827Z AUTO 32004KT 10SM -RA SCT030 BKN070 OVC100 18/16
     A3022 RMK AO2 P0002 T01750164=
KDZB 080825Z AUTO 00000KT 5SM BR SCT050 23/23 A2997 RMK AO2
     T02310232=
KE38 080825Z AUTO 00000KT 10SM CLR 19/16 A3019 RMK AO2
     T01850161=
KEBG 080825Z AUTO 00000KT 10SM SCT100 26/25 A2980 RMK AO2 LTG DSNT
     NE T02620248=
KECU 080825Z AUTO 05003KT 10SM CLR 22/21 A3007 RMK AO2=
KENL 080824Z AUTO 19004KT 10SM CLR 24/16 A3004 RMK AO2
     T02400160=
KERV 080825Z AUTO 08006KT 10SM SCT022 OVC034 23/21 A2999 RMK AO2
     T02330213=
KF05 080824Z AUTO 01003KT 10SM SCT120 24/22 A3003 RMK AO2
     T02390220=
KFEP 080825Z AUTO 15003KT 7SM SCT065 BKN085 23/21 A3000 RMK AO2
     T02280208=
####018000399####
SAUK36 EGGY 080820
METAR EGBE 080820Z NIL=
METAR EGBJ 080820Z 20003KT 9999 FEW024 17/12 Q1018=
METAR EGCN 080820Z 23009KT 9999 FEW044 17/11 Q1017=
METAR EGDL 080820Z NIL=
METAR EGSC 080820Z 27007KT 240V300 8000 FEW012 BKN018 17/13 Q1018=
METAR EGSD 080820Z NIL=
METAR COR EGSH 080820Z 24007KT 9999 -RA FEW011 BKN029 20/16 Q1018
    NOSIG=
METAR EGVN 080820Z NIL=
METAR EGWU 080820Z NIL=
####018000457####
SAUK37 EGGY 080820
METAR EGAE 080820Z 22013KT 9999 FEW018 SCT045 15/10 Q1012=
METAR EGNC 080820Z 23011KT 9999 SCT030 SCT045 16/11 Q1014=
METAR EGNH 080820Z 23011KT 9999 FEW019 17/10 Q1016=
METAR EGNJ 080820Z 23012KT 9999 -RA SCT025 17/12 Q1017=
METAR EGNR 080820Z 20006KT 150V240 9999 FEW030 17/12 Q1017=
METAR EGPE 080820Z 21015KT 9999 FEW022 SCT048 15/09 Q1008=
METAR EGPI 080820Z NIL=
METAR EGPN 080820Z 24019KT 9999 FEW022 SCT048 15/12 Q1011=
####018000097####
SPUS70 KWBC 080830 CCA
SPECI
KNSE 080823Z AUTO 00000KT 1/2SM FG CLR 23/21 A3002 RMK AO2 $=
####018000745####
SANL33 EHDB 080825
METAR EHAK 080825Z AUTO 24015KT 9999NDV SCT029/// BKN035/// 16/15
Q1016=
METAR EHDV 080825Z NIL=
METAR EHFD 080825Z AUTO 23013KT 9999NDV BKN023/// BKN026/// OVC030///
16/15 Q1018=
METAR EHFZ 080825Z AUTO 22013KT 9999NDV 17/15 Q1017=
METAR EHJA 080825Z AUTO 25016KT 9999NDV DZ FEW026/// BKN030///
OVC034/// 16/15 Q1017=
METAR EHJR 080825Z NIL=
METAR EHKV 080825Z AUTO 24015KT 9999NDV BKN033/// BKN038/// 16/15
Q1018=
METAR EHMA 080825Z AUTO 22010KT 9999NDV 21/16 Q1018=
METAR EHMG 080825Z AUTO 24015KT 9999NDV FEW037/// SCT041/// 17/15
Q1017=
METAR EHPG 080825Z AUTO 24015KT 9999NDV ///////// 16/15 Q1018=
METAR EHQE 080825Z AUTO 23014KT 9999NDV 16/15 Q1018=
METAR EHSA 080825Z NIL=
METAR EHSC 080825Z NIL=
####018000169####
SPUS80 KWBC 080830
SPECI
KMWT 080827Z AUTO 00000KT 10SM FEW001 BKN014 23/23 A3004 RMK AO2
     TSNO=
KIRK 080828Z AUTO 00000KT 4SM BR CLR 19/19 A3006 RMK AO2=
####018000377####
SAUK38 EGGY 080820
METAR EGEC 080820Z NIL=
METAR EGPA 080820Z 19013KT 9999 FEW030 SCT044 15/11 Q1006=
METAR EGPC 080820Z 19014G24KT 9999 FEW024 SCT041 14/11 Q1007=
METAR EGPL 080820Z 22020KT 9999 FEW018 15/11 Q1006=
METAR EGPM 080820Z 21020G30KT 9999 FEW012 SCT030 15/10 Q1004=
METAR EGPO 080820Z 22020KT 9999 VCSH FEW014CB SCT030 13/10 Q1004=
METAR EGPU 080820Z NIL=
####018002604####
SAUS70 KWBC 080830 RRA
METAR
KFOA 080825Z AUTO 00000KT 7SM CLR 26/25 A3003 RMK AO2
     T02550251=
KFWC 080825Z AUTO 00000KT 7SM CLR 23/22 A3004 RMK AO2=
KFWS 080825Z AUTO 13004KT 10SM BKN018 BKN022 25/23 A3000 RMK AO2
     T02480233=
KSNK 080826Z AUTO 32003KT 7SM SCT042 BKN120 21/20 A3007 RMK AO2
     T02080200=
K11R 080826Z AUTO 07004KT 7SM CLR 25/23 A2994 RMK AO2=
KHRX 080825Z AUTO 00000KT 10SM SCT035 BKN065 OVC080 17/17 A3019
     RMK AO2 T01730165=
KINJ 080825Z AUTO 12004KT 10SM CLR 25/23 A2999 RMK AO2
     T02480226=
KJAS 080825Z AUTO 00000KT 7SM CLR 25/24 A3001 RMK AO2
     T02480238=
KJDD 080825Z AUTO 00000KT 5SM BR BKN003 24/24 A3002 RMK AO2=
KJSO 080830Z AUTO 00000KT 4SM BR CLR 24/24 A3003 RMK AO2
     T02350235=
KJWY 080825Z AUTO 14003KT 10SM 24/23 A3000 RMK AO2 T02400225=
KJXI 080825Z AUTO 00000KT BKN006 25/25 A3002 RMK AO2=
KLBR 080825Z AUTO 00000KT 7SM BKN002 24/23 A3002 RMK AO2
     T02400230=
KLHB 080824Z AUTO 08003KT 7SM BKN120 25/23 A2996 RMK AO2
     T02520234=
KLNC 080825Z AUTO 00000KT 10SM BKN014 24/24 A3000 RMK AO2
     T02410240=
KLUD 080825Z AUTO 15005KT 10SM SCT024 SCT042 SCT050 25/22 A3001
     RMK AO2 T02500215=
KM30 080826Z AUTO 00000KT 7SM CLR 22/21 A3004 RMK AO2=
KMDD 080820Z AUTO 00000KT 10SM SCT120 22/20 A3008 RMK AO2
     T02240204=
KMNZ 080829Z AUTO 13004KT 10SM CLR 24/24 A2999 RMK AO2
     T02440237=
KMQB 080825Z AUTO 23004KT 10SM OVC006 23/23 A3004 RMK AO2 LTG DSNT
     E T02310230=
KMWA 080825Z AUTO 00000KT 10SM CLR 25/24 A3005 RMK AO2
     T02450236=
KOSA 080824Z AUTO 00000KT 7SM SCT016 25/24 A3003 RMK AO1
     T02480241=
KPEZ 080825Z AUTO 04005KT 5SM HZ BKN013 BKN023 BKN031 25/23 A2991
     RMK AO2 LTG DSNT SE T02530230=
KPKV 080826Z AUTO 08007KT 10SM SCT010 BKN022 OVC090 25/23 A2986
     RMK AO2 T02500234=
KPPA 080825Z AUTO 03007KT 10SM -DZ SCT030 BKN038 OVC085 17/16
     A3018 RMK AO2=
KPYX 080830Z AUTO 09005KT 4SM SCT006 BKN016 OVC027 19/18 A3018 RMK
     AO2 P0004 T01910182=
KRAS 080825Z AUTO 11014G19KT 8SM VCTS FEW017 28/26 A2984 RMK AO2
     LTG DSNT S-NW=
KRBO 080825Z AUTO 35005KT 1 3/4SM TSRA SCT005 BKN021 OVC032 26/25
     A2984 RMK AO2 VIS 1V5 LTG DSNT ALQS P0030 T02600250=
KRPH 080825Z AUTO 00000KT 10SM CLR 23/21 A2999 RMK AO2
     T02290211=
KRWV 080820Z AUTO 00000KT 8SM FEW007 24/24 A2998 RMK AO2=
KRYW 080825Z AUTO 06004KT 5SM BR OVC008 24/23 A2999 RMK AO2=
KSAR 080825Z AUTO 19004KT 7SM CLR 26/23 A3004 RMK AO2=
KSLR 080822Z AUTO 12005KT 10SM SCT010 SCT026 25/23 A3003 RMK AO2
     T02500233=
####018000260####
SAPK31 OPKC 080830
METAR OPGD 080830Z NIL=
METAR OPKC 080830Z 10018KTS 9000 BKN030 35/24 Q.1003 NOSIG=
METAR OPLA 080825Z 10004KT 6000 SCT040 38/23 Q1005=
METAR OPNH 080830Z NIL=
METAR OPPS 080830Z NIL=
METAR OPRN 080830Z NIL=
METAR OPSK 080830Z NIL=
####018000089####
SAAJ31 UBBB 080830
METAR UBBB 080830Z 35024KT CAVOK 31/28 Q1011 NOSIG RMK
R88CLRD70=
####018000760####
SPUS70 KWBC 080830
SPECI
KMVY 080827Z AUTO 15004KT 1/2SM R24/2600V4000FT FG VV001 21/20
     A3007 RMK AO2=
KTAN 080827Z AUTO 16003KT 10SM BKN006 21/21 A3004 RMK AO2=
KUIN 080827Z AUTO 00000KT 10SM FEW001 BKN048 BKN060 23/22 A3003
     RMK AO2 RAE21 P0005=
KARR 080827Z AUTO 14003KT 2 1/2SM BR FEW020 BKN095 22/22 A3003 RMK
     AO2 RAE0758 P0000 $=
KELM 080827Z AUTO 00000KT 3SM BR CLR 17/17 A3008 RMK AO2=
KCOT 080828Z AUTO 05005KT 10SM SCT022 25/23 A2989 RMK AO2=
KFTW 080827Z 15008KT 10SM SCT022 25/23 A2998 RMK AO2=
KBOS 080828Z 16005KT 10SM OVC015 23/20 A3006 RMK AO2=
KDVN 080828Z AUTO 00000KT 5SM BR BKN005 22/21 A3002 RMK AO2 CIG
     004V009=
KOJC 080828Z AUTO 34006KT 6SM BR BKN004 OVC100 23/22 A3005 RMK
     AO2=
####018000106####
SPLT31 EYVI 080829
SPECI EYVI 080829Z 28009KT 240V300 7000 BKN008 OVC030 15/14 Q1014
     RERA NOSIG=
####018000095####
SAAS31 KWBC 080805 RRE
METAR
VCBI 080810Z 25009KT 210V290 9999 SCT016 30/25 Q1008 NOSIG=
