####018000082####
SPCN48 CWAO 080748
SPECI CYMH 080748Z AUTO 21005KT 9SM BKN003 07/06 A3012=

####018002714####
SAUS20 KNKA 080750
METAR KAUW 080749Z AUTO 32006KT 10SM BKN006 BKN013 BKN023 20/19 
    A2999 RMK AO2 RAB07E19 CIG 004V008 SLP154 P0000 T02000189 $=
SPECI KAVX 080749Z AUTO 28004KT 1SM BR VV001 12/12 A2993 RMK AO2 
    401670106 TSNO=
METAR KCCA 080755Z AUTO 00000KT 5SM  BR CLR 22/22 A3006 RMK AO2 =
METAR KCDN 080755Z AUTO 29003KT 10SM CLR 26/22 A2999 RMK A02 P000 
     =
METAR KCKI 080755Z AUTO 25003KT 10SM CLR 22/21 A2995 RMK AO2=
SPECI KFRG 080749Z AUTO 00000KT 5SM BR BKN008 BKN090 26/24 A3002 RMK 
    AO2=
SPECI KHAO 080749Z AUTO 00000KT 3SM BR CLR 22/20 A3007 RMK AO2=
METAR KIGQ 080740Z AUTO 00000KT 7SM SCT043 SCT055 24/22 A3004 RMK 
     AO2 LTG DSNT N=
SPECI KILG 080749Z AUTO 00000KT 6SM HZ SCT009 25/22 A3001 RMK AO2 $=
METAR KLRO 080755Z AUTO 00000KT 10SM CLR 24/19 A2995 RMK AO2 =
SPECI KMFI 080749Z AUTO 31007KT 2SM BR OVC001 20/19 A3000 RMK AO2=
METAR KMKS 080755Z AUTO 29003KT 7SM CLR 23/20 A2995 RMK AO2 TSNO=
METAR KRAS 080745Z AUTO 11010KT 7SM BKN017 BKN021 BKN050 28/26 
     A2985 RMK AO2 P0002=
METAR KRFI 080745Z AUTO 00000KT 7SM CLR 24/23 A3000 RMK AO2 
     T02430233=
METAR KRWV 080740Z AUTO 00000KT 10SM SCT005 SCT021 24/24 A2998 
     RMK AO2=
METAR KRYW 080745Z AUTO 09004KT 7SM -RA BKN008 OVC012 24/22 A2999 
     RMK AO2 P0001=
METAR KSAR 080745Z AUTO 19004KT 10SM SCT055 26/23 A3004 RMK AO2=
SPECI KSBY 080749Z AUTO 00000KT 3SM BR BKN003 OVC110 24/23 A2999 RMK 
    AO2=
METAR KSEP 080745Z AUTO 00000KT 10SM CLR 23/21 A3001 RMK AO1=
METAR KSLO 080741Z AUTO 18004KT 10SM CLR 25/21 A3005 RMK AO2 
     T02450213=
METAR KSLR 080742Z AUTO 00000KT 10SM SCT008 SCT015 SCT020 25/23 
     A3003 RMK AO2 T02470231=
METAR KSNK 080746Z AUTO 00000KT 10SM SCT039 BKN120 21/20 A3007 
     RMK AO2 T02080198=
METAR KSOA 080740Z AUTO 03003KT 10SM 23/21 A3007 RMK AO2=
METAR KSWW 080745Z AUTO 16005KT 10SM CLR 22/21 A3007 RMK AO1 
     T02200207=
METAR KT65 080745Z AUTO 00000KT 10SM SCT015 26/25 A2980 RMK AO2 
     T02580250=
METAR KT82 080745Z AUTO 00000KT 24/22 A3002 RMK AO1 T02350220=
METAR KTAZ 080745Z AUTO 00000KT 10SM CLR 23/23 A3003 RMK AO2=
METAR KTFP 080745Z AUTO 00000KT 10SM SCT020 SCT026 SCT042 27/26 
     A2983 RMK AO2 LTG DSNT NE P0001 T02710257=
METAR KTIP 080745Z AUTO 00000KT 10SM SCT044 SCT060 SCT075 25/23 
     A3005 RMK AO2 LTG DSNT NE T02450230=
METAR KTYQ 080745Z AUTO 00000KT 5SM BR CLR 21/20 A3007 RMK AO2=
METAR KUVA 080745Z AUTO 06005KT 10SM CLR 24/23 A2994 RMK AO2 
     T02410227=
METAR KVYS 080745Z AUTO 12005KT 4SM BR SCT055 OVC075 23/22 A3002 
     RMK AO2 T02330218=
METAR KXBP 080745Z AUTO 00000KT 10SM SCT045 25/22 A3001 RMK AO2 
     T02470221=
####018000189####
SAAK41 KNKA 080750
METAR PAWR 080749Z 08005G13KT 2SM -RA BR OVC020 11/11 A3008 RMK 
     SLP186 401290089 NOSPECI =
METAR PAXK 080705Z 36007KT 20SM FEW080 11/07 A3013 LAST NOSPECI=
####018000081####
SRPR30 KWAL 080750
CE2D864E 189075036bB1r@IK@IK@IL@IL@IM@IM@IN@INJ 43-0NN 161E####018000705####
SPUS99 KWBC 080751
SPECI
KAUW 080748Z AUTO 32008KT 10SM BKN006 BKN013 BKN023 20/19 A2999
     RMK AO2 RAB07E19 CIG 004V008 P0000 $=
KBRL 080748Z AUTO 2 1/2SM BR BKN001 BKN065 23/22 A3002 RMK AO2
     $=
KLHQ 080748Z AUTO 00000KT 2 1/2SM BR CLR 19/19 A3008 RMK AO2=
KAVX 080749Z AUTO 28004KT 1SM BR VV001 12/12 A2993 RMK AO2
     401670106 TSNO=
KFRG 080749Z AUTO 00000KT 5SM BR BKN008 BKN090 26/24 A3002 RMK
     AO2=
KHAO 080749Z AUTO 00000KT 3SM BR CLR 22/20 A3007 RMK AO2=
KILG 080749Z AUTO 00000KT 6SM HZ SCT009 25/22 A3001 RMK AO2 $=
KMFI 080749Z AUTO 31007KT 2SM BR OVC001 20/19 A3000 RMK AO2=
KSBY 080749Z AUTO 00000KT 3SM BR BKN003 OVC110 24/23 A2999 RMK
     AO2=
####018003696####
SAUS99 KWBC 080751
METAR
K11R 080746Z AUTO 06005KT 7SM CLR 25/24 A2994 RMK AO2=
KC75 080745Z AUTO 16003KT 5SM BR OVC065 24/24 A3003 RMK AO2
     P0001=
KCWC 080745Z AUTO 04008KT 10SM CLR 24/22 A3002 RMK AO2
     T02410220=
KDUX 080747Z AUTO 00000KT 10SM -RA SCT035 BKN050 OVC090 17/16
     A3021 RMK AO2 P0006 T01740164=
KE38 080745Z AUTO 00000KT 10SM CLR 21/18 A3019 RMK AO2
     T02120175=
KEBG 080746Z AUTO 00000KT 10SM CLR 26/25 A2981 RMK AO2
     T02630247=
KGBG 080745Z AUTO 21005KT 7SM OVC004 23/22 A3001 RMK AO2=
KGOP 080740Z AUTO 00000KT 10SM BKN016 25/23 A3001 RMK AO2=
KGVT 080745Z AUTO 17004KT 10SM CLR 25/23 A3001 RMK AO2=
KGWB 080745Z AUTO 00000KT 7SM CLR 23/17 A3006 RMK AO2=
KGYB 080745Z AUTO 06004KT 7SM CLR 25/24 A2998 RMK AO2
     T02450238=
KGYI 080744Z AUTO 15007KT 10SM SCT022 SCT060 SCT070 26/24 A3001
     RMK AO2 T02580235=
KHBV 080740Z AUTO 04007KT 10SM BKN006 OVC013 25/24 A2987 RMK AO2
     T02530240=
KHHF 080745Z AUTO 31003KT 10SM BKN024 BKN065 OVC100 23/22 A3012
     RMK AO2 LTG DSNT NW T02270216=
KHRX 080745Z AUTO 07004KT 10SM RA SCT004 BKN031 OVC040 18/17 A3021
     RMK AO2 T01750165=
KHSB 080745Z AUTO 00000KT 5SM BR CLR 22/21 A3005 RMK AO2=
KIJX 080745Z AUTO 00000KT 4SM BR SCT022 SCT032 SCT075 24/23 A3004
     RMK AO2 T02350226=
KINJ 080745Z AUTO 12004KT 10SM CLR 25/23 A2998 RMK AO2
     T02480227=
KJAS 080745Z AUTO 00000KT 10SM CLR 25/24 A3001 RMK AO2
     T02490237=
KJDD 080745Z AUTO 00000KT 3SM BR BKN003 OVC011 24/24 A3001 RMK
     AO2=
KJSO 080750Z AUTO 00000KT 7SM CLR 24/24 A3003 RMK AO2
     T02360235=
KJWY 080745Z AUTO 13004KT 10SM 24/23 A3000 RMK AO2 T02430225=
KJXI 080745Z AUTO 12004KT BKN006 OVC011 26/25 A3002 RMK AO2=
KLBR 080745Z AUTO 00000KT 7SM SCT002 24/23 A3002 RMK AO2
     T02400229=
KLHB 080743Z AUTO 00000KT 5SM BR SCT100 BKN120 25/24 A2996 RMK AO2
     T02520235=
KLNC 080745Z AUTO 00000KT 10SM BKN016 24/24 A3000 RMK AO2
     T02420240=
KLUD 080745Z AUTO 15005KT 10SM CLR 25/21 A3000 RMK AO2
     T02480214=
KM30 080746Z AUTO 00000KT 5SM BR CLR 22/21 A3004 RMK AO2=
KMDD 080740Z AUTO 10004KT 10SM CLR 23/20 A3009 RMK AO2
     T02260200=
KMKN 080740Z AUTO 00000KT 9SM 24/22 A3002 RMK AO2=
KMNZ 080749Z AUTO 13005KT 10SM CLR 25/24 A3000 RMK AO2
     T02460236=
KMQB 080745Z AUTO 20005KT 10SM OVC006 23/23 A3004 RMK AO2
     T02300230=
KMWA 080745Z AUTO 00000KT 10SM CLR 25/24 A3006 RMK AO2
     T02470237=
KOSA 080744Z AUTO 00000KT 7SM SCT012 SCT017 SCT022 25/24 A3003 RMK
     AO1 T02470240=
KPEQ 080745Z AUTO 04005KT 10SM CLR 23/21 A3005 RMK AO2=
KPEZ 080745Z AUTO 05007KT 7SM OVC017 26/23 A2993 RMK AO2
     T02550230=
KPKV 080746Z AUTO 09008KT 4SM -RA BKN014 BKN044 OVC070 25/23 A2987
     RMK AO2 P0008 T02500233=
KPPA 080745Z AUTO 02009KT 10SM SCT006 SCT010 OVC055 18/17 A3019
     RMK AO2=
KPSN 080745Z AUTO 12003KT 7SM 24/24 A3001 RMK AO2 T02430235=
KPYX 080750Z AUTO 03008KT 4SM SCT006 BKN030 OVC040 19/18 A3018 RMK
     AO2 P0007 T01940184=
KRBO 080745Z AUTO 03005KT 10SM SCT022 SCT040 BKN080 27/25 A2984
     RMK AO2 LTG DSNT NE T02660251=
KRCR 080747Z AUTO 00000KT 3/4SM BR VV005 23/21 A3005 RMK AO2=
KRPH 080745Z AUTO 00000KT 10SM CLR 23/21 A2998 RMK AO2
     T02330212=
KAUW 080749Z AUTO 32006KT 10SM BKN006 BKN013 BKN023 20/19 A2999
     RMK AO2 RAB07E19 CIG 004V008 SLP154 P0000 T02000189 $=
KCCA 080755Z AUTO 00000KT 5SM BR CLR 22/22 A3006 RMK AO2=
KCDN 080755Z AUTO 29003KT 10SM CLR 26/22 A2999 RMK A02 P000=
KCKI 080755Z AUTO 25003KT 10SM CLR 22/21 A2995 RMK AO2=
KIGQ 080740Z AUTO 00000KT 7SM SCT043 SCT055 24/22 A3004 RMK AO2
     LTG DSNT N=
####018001836####
SAUS99 KWBC 080751 RRA
METAR
KLRO 080755Z AUTO 00000KT 10SM CLR 24/19 A2995 RMK AO2=
KMKS 080755Z AUTO 29003KT 7SM CLR 23/20 A2995 RMK AO2 TSNO=
KRAS 080745Z AUTO 11010KT 7SM BKN017 BKN021 BKN050 28/26 A2985 RMK
     AO2 P0002=
KRFI 080745Z AUTO 00000KT 7SM CLR 24/23 A3000 RMK AO2
     T02430233=
KRWV 080740Z AUTO 00000KT 10SM SCT005 SCT021 24/24 A2998 RMK
     AO2=
KRYW 080745Z AUTO 09004KT 7SM -RA BKN008 OVC012 24/22 A2999 RMK
     AO2 P0001=
KSAR 080745Z AUTO 19004KT 10SM SCT055 26/23 A3004 RMK AO2=
KSEP 080745Z AUTO 00000KT 10SM CLR 23/21 A3001 RMK AO1=
KSLO 080741Z AUTO 18004KT 10SM CLR 25/21 A3005 RMK AO2
     T02450213=
KSLR 080742Z AUTO 00000KT 10SM SCT008 SCT015 SCT020 25/23 A3003
     RMK AO2 T02470231=
KSNK 080746Z AUTO 00000KT 10SM SCT039 BKN120 21/20 A3007 RMK AO2
     T02080198=
KSOA 080740Z AUTO 03003KT 10SM 23/21 A3007 RMK AO2=
KSWW 080745Z AUTO 16005KT 10SM CLR 22/21 A3007 RMK AO1
     T02200207=
KT65 080745Z AUTO 00000KT 10SM SCT015 26/25 A2980 RMK AO2
     T02580250=
KT82 080745Z AUTO 00000KT 24/22 A3002 RMK AO1 T02350220=
KTAZ 080745Z AUTO 00000KT 10SM CLR 23/23 A3003 RMK AO2=
KTFP 080745Z AUTO 00000KT 10SM SCT020 SCT026 SCT042 27/26 A2983
     RMK AO2 LTG DSNT NE P0001 T02710257=
KTIP 080745Z AUTO 00000KT 10SM SCT044 SCT060 SCT075 25/23 A3005
     RMK AO2 LTG DSNT NE T02450230=
KTYQ 080745Z AUTO 00000KT 5SM BR CLR 21/20 A3007 RMK AO2=
KUVA 080745Z AUTO 06005KT 10SM CLR 24/23 A2994 RMK AO2
     T02410227=
KVYS 080745Z AUTO 12005KT 4SM BR SCT055 OVC075 23/22 A3002 RMK AO2
     T02330218=
KXBP 080745Z AUTO 00000KT 10SM SCT045 25/22 A3001 RMK AO2
     T02470221=
PAWR 080749Z 08005G13KT 2SM -RA BR OVC020 11/11 A3008 RMK SLP186
     401290089 NOSPECI=
PAXK 080705Z 36007KT 20SM FEW080 11/07 A3013 LAST NOSPECI=
####018000096####
SALV31 EVRA 080750
METAR EVRA 080750Z 32010KT 9999 OVC005 17/17 Q1014 BECMG BKN010 
OVC015=
####018000076####
SALT32 EYVI 080750
METAR EYKA 080750Z 29007KT 230V010 CAVOK 18/14 Q1015=
####018000075####
SALT34 EYVI 080750
METAR EYSA 080750Z 33012KT 9999 -RA NSC 16/13 Q1016=
####018000177####
SAFA31 EKCH 080750
METAR EKVG 080750Z 16009KT 120V200 9999 SCT004 BKN006 BKN010
11/10 Q0992 RMK/RWY 13/31 CLOSED DUE WIP. SEE NOTAM E0050/10
WIND 850FT 17011G21KT 130V230=
####018000104####
SALT31 EYVI 080750
METAR EYVI 080750Z 28007KT 260V320 2600 RA BKN005 OVC017 15/14 Q1014
     NOSIG=
####018000080####
SAEO31 EETN 080750
METAR EETN 080750Z 31007KT 9999 FEW010 22/18 Q1014 NOSIG=
####018000081####
SPCN31 KWBC 080751
SPECI
CYMH 080748Z AUTO 21005KT 9SM BKN003 07/06 A3012=
####018000083####
SAUS42 KWBC 080700 RRH
METAR
KGLE 080744Z AUTO 00000KT 10SM CLR 24/22 A3002=
####018000903####
SAUS43 KWBC 080700 RRK
METAR
K1H2 080745Z AUTO 00000KT 7SM CLR 25/24 A3004=
KAAA 080743Z AUTO 00000KT 5SM BR SCT028 BKN070 OVC120 23/22
     A3004=
KC09 080744Z AUTO 00000KT 2 1/2SM -RA OVC100 21/21 A3003=
KDKB 080741Z AUTO 00000KT 5SM BR SCT065 SCT075 SCT090 22/21
     A3003=
KDNV 080745Z AUTO 00000KT 7SM CLR 23/21 A3001=
KENL 080744Z AUTO 18003KT 10SM CLR 24/16 A3004=
KFEP 080745Z AUTO 18003KT 7SM -DZ SCT060 23/21 A3001=
KFOA 080745Z AUTO 00000KT 7SM CLR 26/25 A3004=
KFWC 080745Z AUTO 00000KT 7SM SCT110 24/23 A3004=
KJOT 080746Z AUTO 00000KT 5SM BR SCT100 23/22 A3004=
KLOT 080741Z AUTO 00000KT 7SM OVC100 23/22 A3003=
KOLY 080743Z AUTO 00000KT 5SM BR CLR 23/22 A3004=
KPNT 080745Z AUTO 00000KT 3SM BR SCT018 BKN065 120 23/22 A3004=
KPPQ 080745Z AUTO 00000KT 4SM BR SCT001 SCT011 OVC035 23/23
     A3005=
KPRG 080745Z AUTO 00000KT 7SM OVC095 22/21 A3005=
####018000133####
SAUS44 KWBC 080700 RRH
METAR
KBPG 080745Z AUTO 14003KT 10SM CLR 22/20 A3009=
KBYY 080746Z AUTO 09007KT 10SM CLR 27/26 A2988=
####018000125####
SAUS54 KWBC 080700 RRH
METAR
KIGM 080748Z AUTO 00000KT 10SM CLR 23/M03 A2995=
KJDN 080748Z AUTO 30004KT 12/09 A3018=
####018000098####
SALV31 EVRA 080750
METAR EVRA 080750Z 32010KT 9999 OVC005 17/17 Q1014 BECMG BKN010 
OVC015=
####018000076####
SALT34 EYVI 080750
METAR EYSA 080750Z 33012KT 9999 -RA NSC 16/13 Q1016=
####018000077####
SALT32 EYVI 080750
METAR EYKA 080750Z 29007KT 230V010 CAVOK 18/14 Q1015=
####018000106####
SALT31 EYVI 080750
METAR EYVI 080750Z 28007KT 260V320 2600 RA BKN005 OVC017 15/14 Q1014
     NOSIG=
####018000128####
SAMP31 LMMM 080800
METAR HLLT NIL=
METAR HLLB NIL=
METAR LMML 080745Z 33005KT 260V020 9000 NSC 26/20 Q1018 BECMG 9999 =
####018000081####
SAEO31 EETN 080750
METAR EETN 080750Z 31007KT 9999 FEW010 22/18 Q1014 NOSIG=
####018000083####
SAEO32 EETN 080750
METAR EETU 080750Z 29004KT 250V020 9999 BKN014 24/20 Q1013=
####018000180####
SAFA31 EKCH 080750
METAR EKVG 080750Z 16009KT 120V200 9999 SCT004 BKN006 BKN010
11/10 Q0992 RMK/RWY 13/31 CLOSED DUE WIP. SEE NOTAM E0050/10
WIND 850FT 17011G21KT 130V230=
####018000385####
SAXN17 KAWN 080800
METAR COR MMHO 080745Z 00000KT 10SM SCT080 28/07 A2979 RMK 8/030 HZY=
METAR COR MMVR 080745Z 12006KT 5SM +TSRA OVC012CB 24/24 A2982 RMK 60375
      8/9// +RA B37 FQT LTGICCG OVHD VRBL COND=
METAR MPTO 080800Z 00000KT 9999 SCT018TCU 25/24 Q1010=
PATC SA 0755 AWOS CLR BLO 120 10 52/44/0000/016=
METAR TBPB 080800Z 08016KT 9999 SCT018 28/24 Q1012 NOSIG=
####018000083####
SAUS73 KWBC 080700 RRK
METAR
KALN 080743Z AUTO 00000KT 10SM CLR 25/24 A3003=
####018000387####
SAUS90 KWBC 080800
METAR KJDN 080748Z AUTO 30004KT 12/09 A3018 RMK AO2 SLP213
     T01220089 PWINO TSNO=
METAR KIGM 080748Z AUTO 00000KT 10SM CLR 23/M03 A2995 RMK AO2
     SLP063 T02281028 TSNO $=
METAR MYEG 080759Z AUTO 09004KT 10SM BKN023 BKN033 BKN050 26/23
     A2992 RMK AO2 LTG DSNT SW=
METAR KEHA 080748Z AUTO 32003KT 17/16 RMK AO1 PK WND 12 008
     T01670162=
####018000100####
SPCN31 CWAO 080749
SPECI CYQX 080749Z 15008KT 15SM BKN003 BKN007 OVC029 09/ RMK
SF6SF1SC1=

####018000104####
SAAK27 PADN 080750
METAR PAWI 080750Z 22013KT 10SM CLR 07/04 A3002 RMK VIA PHONE=
$$




####018000076####
SAKW35 OKBK 080800
METAR OKBK 080800Z 35016KT CAVOK 45/M04 Q1001 NOSIG=
####018000792####
SAUS20 KNKA 080751
METAR K5C1 080748Z AUTO 08003KT 10SM BKN011 BKN017 BKN026 24/22 
     A2998 RMK AO1=
SPECI KAMW 080750Z AUTO 35007KT 10SM SCT021 21/19 A3008 RMK AO2=
METAR KBNL 080755Z AUTO 27005KT 10SM CLR 24/18 A2999 RMK AO2 =
METAR KCQW 080755Z AUTO 27005KT 7SM CLR 24/18 A2996 RMK AO2 =
METAR KIKK 080745Z AUTO 28005KT 4SM RA SCT023 BKN038 BKN050 26/23 
     A3005 RMK AO2 P0001 LTG DSNT SW=
METAR KLKR 080755Z AUTO 00000KT 7SM CLR 19/19 A2999 RMK AO2 =
SPECI KOJC 080750Z AUTO 33003KT 10SM BKN014 OVC080 23/22 A3006 RMK 
    AO2=
METAR KOLV 080755Z AUTO 00000KT 8SM CLR 23/23 A3007 RMK A01 P000 =
METAR KONM 080747Z AUTO 31003KT 10SM CLR 19/14 A3023 RMK AO2 
     T01930137=
SPECI KSBA 080750Z 00000KT 10SM BKN021 13/11 A2991 RMK AO2 401890122 
    $=
####018000096####
SAUS98 KWBC 080752
METAR KEHA 080748Z AUTO 32003KT 17/16 RMK AO1 PK WND 12 008
T01670162=
####018000240####
SPUS99 KWBC 080752
SPECI
KAMW 080750Z AUTO 35007KT 10SM SCT021 21/19 A3008 RMK AO2=
KOJC 080750Z AUTO 33003KT 10SM BKN014 OVC080 23/22 A3006 RMK
     AO2=
KSBA 080750Z 00000KT 10SM BKN021 13/11 A2991 RMK AO2 401890122
     $=
####018000522####
SAUS99 KWBC 080752
METAR
K5C1 080748Z AUTO 08003KT 10SM BKN011 BKN017 BKN026 24/22 A2998
     RMK AO1=
KBNL 080755Z AUTO 27005KT 10SM CLR 24/18 A2999 RMK AO2=
KCQW 080755Z AUTO 27005KT 7SM CLR 24/18 A2996 RMK AO2=
KIKK 080745Z AUTO 28005KT 4SM RA SCT023 BKN038 BKN050 26/23 A3005
     RMK AO2 P0001 LTG DSNT SW=
KLKR 080755Z AUTO 00000KT 7SM CLR 19/19 A2999 RMK AO2=
KOLV 080755Z AUTO 00000KT 8SM CLR 23/23 A3007 RMK A01 P000=
KONM 080747Z AUTO 31003KT 10SM CLR 19/14 A3023 RMK AO2
     T01930137=
####018000087####
SAAZ61 LPLA 080800
METAR LPLA 080800Z 32010KT 7000 -SHRA SCT016 BKN028 20/18 Q1024=
####018000068####
SAVN23 SVBC 080800
METAR SVBC 080800Z 00000KT CAVOK 25/23 Q1012=
####018000136####
SAUS80 KWBC 080752
METAR
KMKN 080740Z AUTO 00000KT 9SM 24/22 A3002 RMK AO2=
KSOA 080740Z AUTO 03003KT 10SM 23/21 A3007 RMK AO2=
####018001133####
SAUS70 KWBC 080800 RRA
METAR
KTFP 080745Z AUTO 00000KT 10SM SCT020 SCT026 SCT042 27/26 A2983
     RMK AO2 LTG DSNT NE P0001 T02710257=
KTIP 080745Z AUTO 00000KT 10SM SCT044 SCT060 SCT075 25/23 A3005
     RMK AO2 LTG DSNT NE T02450230=
KTYQ 080745Z AUTO 00000KT 5SM BR CLR 21/20 A3007 RMK AO2=
KUVA 080745Z AUTO 06005KT 10SM CLR 24/23 A2994 RMK AO2
     T02410227=
KVYS 080745Z AUTO 12005KT 4SM BR SCT055 OVC075 23/22 A3002 RMK AO2
     T02330218=
KXBP 080745Z AUTO 00000KT 10SM SCT045 25/22 A3001 RMK AO2
     T02470221=
PAWR 080749Z 08005G13KT 2SM -RA BR OVC020 11/11 A3008 RMK SLP186
     401290089 NOSPECI=
K5C1 080748Z AUTO 08003KT 10SM BKN011 BKN017 BKN026 24/22 A2998
     RMK AO1=
KBNL 080755Z AUTO 27005KT 10SM CLR 24/18 A2999 RMK AO2=
KCQW 080755Z AUTO 27005KT 7SM CLR 24/18 A2996 RMK AO2=
KIKK 080745Z AUTO 28005KT 4SM RA SCT023 BKN038 BKN050 26/23 A3005
     RMK AO2 P0001 LTG DSNT SW=
KLKR 080755Z AUTO 00000KT 7SM CLR 19/19 A2999 RMK AO2=
KOLV 080755Z AUTO 00000KT 8SM CLR 23/23 A3007 RMK A01 P000=
KONM 080747Z AUTO 31003KT 10SM CLR 19/14 A3023 RMK AO2
     T01930137=
####018000472####
SAUS80 KWBC 080800
METAR
KJDN 080748Z AUTO 30004KT 12/09 A3018 RMK AO2 SLP213 T01220089
     PWINO TSNO=
KPSN 080745Z AUTO 12003KT 7SM 24/24 A3001 RMK AO2 T02430235=
KIGM 080748Z AUTO 00000KT 10SM CLR 23/M03 A2995 RMK AO2 SLP063
     T02281028 TSNO $=
KRFI 080745Z AUTO 00000KT 7SM CLR 24/23 A3000 RMK AO2
     T02430233=
KSEP 080745Z AUTO 00000KT 10SM CLR 23/21 A3001 RMK AO1=
KEHA 080748Z AUTO 32003KT 17/16 RMK AO1 PK WND 12 008
     T01670162=
####018000916####
SPUS70 KWBC 080752
SPECI
KAUW 080748Z AUTO 32008KT 10SM BKN006 BKN013 BKN023 20/19 A2999
     RMK AO2 RAB07E19 CIG 004V008 P0000 $=
KBRL 080748Z AUTO 2 1/2SM BR BKN001 BKN065 23/22 A3002 RMK AO2
     $=
KLHQ 080748Z AUTO 00000KT 2 1/2SM BR CLR 19/19 A3008 RMK AO2=
KAVX 080749Z AUTO 28004KT 1SM BR VV001 12/12 A2993 RMK AO2
     401670106 TSNO=
KFRG 080749Z AUTO 00000KT 5SM BR BKN008 BKN090 26/24 A3002 RMK
     AO2=
KHAO 080749Z AUTO 00000KT 3SM BR CLR 22/20 A3007 RMK AO2=
KILG 080749Z AUTO 00000KT 6SM HZ SCT009 25/22 A3001 RMK AO2 $=
KMFI 080749Z AUTO 31007KT 2SM BR OVC001 20/19 A3000 RMK AO2=
KSBY 080749Z AUTO 00000KT 3SM BR BKN003 OVC110 24/23 A2999 RMK
     AO2=
KAMW 080750Z AUTO 35007KT 10SM SCT021 21/19 A3008 RMK AO2=
KOJC 080750Z AUTO 33003KT 10SM BKN014 OVC080 23/22 A3006 RMK
     AO2=
KSBA 080750Z 00000KT 10SM BKN021 13/11 A2991 RMK AO2 401890122
     $=
####018003647####
SAUS70 KWBC 080800
METAR
K11R 080746Z AUTO 06005KT 7SM CLR 25/24 A2994 RMK AO2=
KC75 080745Z AUTO 16003KT 5SM BR OVC065 24/24 A3003 RMK AO2
     P0001=
KCWC 080745Z AUTO 04008KT 10SM CLR 24/22 A3002 RMK AO2
     T02410220=
KDUX 080747Z AUTO 00000KT 10SM -RA SCT035 BKN050 OVC090 17/16
     A3021 RMK AO2 P0006 T01740164=
KE38 080745Z AUTO 00000KT 10SM CLR 21/18 A3019 RMK AO2
     T02120175=
KEBG 080746Z AUTO 00000KT 10SM CLR 26/25 A2981 RMK AO2
     T02630247=
KGBG 080745Z AUTO 21005KT 7SM OVC004 23/22 A3001 RMK AO2=
KGVT 080745Z AUTO 17004KT 10SM CLR 25/23 A3001 RMK AO2=
KGWB 080745Z AUTO 00000KT 7SM CLR 23/17 A3006 RMK AO2=
KGYB 080745Z AUTO 06004KT 7SM CLR 25/24 A2998 RMK AO2
     T02450238=
KHHF 080745Z AUTO 31003KT 10SM BKN024 BKN065 OVC100 23/22 A3012
     RMK AO2 LTG DSNT NW T02270216=
KHRX 080745Z AUTO 07004KT 10SM RA SCT004 BKN031 OVC040 18/17 A3021
     RMK AO2 T01750165=
KHSB 080745Z AUTO 00000KT 5SM BR CLR 22/21 A3005 RMK AO2=
KIJX 080745Z AUTO 00000KT 4SM BR SCT022 SCT032 SCT075 24/23 A3004
     RMK AO2 T02350226=
KINJ 080745Z AUTO 12004KT 10SM CLR 25/23 A2998 RMK AO2
     T02480227=
KJAS 080745Z AUTO 00000KT 10SM CLR 25/24 A3001 RMK AO2
     T02490237=
KJDD 080745Z AUTO 00000KT 3SM BR BKN003 OVC011 24/24 A3001 RMK
     AO2=
KJSO 080750Z AUTO 00000KT 7SM CLR 24/24 A3003 RMK AO2
     T02360235=
KJWY 080745Z AUTO 13004KT 10SM 24/23 A3000 RMK AO2 T02430225=
KJXI 080745Z AUTO 12004KT BKN006 OVC011 26/25 A3002 RMK AO2=
KLBR 080745Z AUTO 00000KT 7SM SCT002 24/23 A3002 RMK AO2
     T02400229=
KLNC 080745Z AUTO 00000KT 10SM BKN016 24/24 A3000 RMK AO2
     T02420240=
KLUD 080745Z AUTO 15005KT 10SM CLR 25/21 A3000 RMK AO2
     T02480214=
KM30 080746Z AUTO 00000KT 5SM BR CLR 22/21 A3004 RMK AO2=
KMNZ 080749Z AUTO 13005KT 10SM CLR 25/24 A3000 RMK AO2
     T02460236=
KMQB 080745Z AUTO 20005KT 10SM OVC006 23/23 A3004 RMK AO2
     T02300230=
KMWA 080745Z AUTO 00000KT 10SM CLR 25/24 A3006 RMK AO2
     T02470237=
KPEQ 080745Z AUTO 04005KT 10SM CLR 23/21 A3005 RMK AO2=
KPEZ 080745Z AUTO 05007KT 7SM OVC017 26/23 A2993 RMK AO2
     T02550230=
KPKV 080746Z AUTO 09008KT 4SM -RA BKN014 BKN044 OVC070 25/23 A2987
     RMK AO2 P0008 T02500233=
KPPA 080745Z AUTO 02009KT 10SM SCT006 SCT010 OVC055 18/17 A3019
     RMK AO2=
KPYX 080750Z AUTO 03008KT 4SM SCT006 BKN030 OVC040 19/18 A3018 RMK
     AO2 P0007 T01940184=
KRBO 080745Z AUTO 03005KT 10SM SCT022 SCT040 BKN080 27/25 A2984
     RMK AO2 LTG DSNT NE T02660251=
KRPH 080745Z AUTO 00000KT 10SM CLR 23/21 A2998 RMK AO2
     T02330212=
KAUW 080749Z AUTO 32006KT 10SM BKN006 BKN013 BKN023 20/19 A2999
     RMK AO2 RAB07E19 CIG 004V008 SLP154 P0000 T02000189 $=
KCCA 080755Z AUTO 00000KT 5SM BR CLR 22/22 A3006 RMK AO2=
KCDN 080755Z AUTO 29003KT 10SM CLR 26/22 A2999 RMK A02 P000=
KCKI 080755Z AUTO 25003KT 10SM CLR 22/21 A2995 RMK AO2=
KLRO 080755Z AUTO 00000KT 10SM CLR 24/19 A2995 RMK AO2=
KMKS 080755Z AUTO 29003KT 7SM CLR 23/20 A2995 RMK AO2 TSNO=
KRAS 080745Z AUTO 11010KT 7SM BKN017 BKN021 BKN050 28/26 A2985 RMK
     AO2 P0002=
KRYW 080745Z AUTO 09004KT 7SM -RA BKN008 OVC012 24/22 A2999 RMK
     AO2 P0001=
KSAR 080745Z AUTO 19004KT 10SM SCT055 26/23 A3004 RMK AO2=
KSNK 080746Z AUTO 00000KT 10SM SCT039 BKN120 21/20 A3007 RMK AO2
     T02080198=
KSWW 080745Z AUTO 16005KT 10SM CLR 22/21 A3007 RMK AO1
     T02200207=
KT65 080745Z AUTO 00000KT 10SM SCT015 26/25 A2980 RMK AO2
     T02580250=
KT82 080745Z AUTO 00000KT 24/22 A3002 RMK AO1 T02350220=
KTAZ 080745Z AUTO 00000KT 10SM CLR 23/23 A3003 RMK AO2=
####018000908####
SAUS70 KWBC 080752
METAR
KGOP 080740Z AUTO 00000KT 10SM BKN016 25/23 A3001 RMK AO2=
KGYI 080744Z AUTO 15007KT 10SM SCT022 SCT060 SCT070 26/24 A3001
     RMK AO2 T02580235=
KHBV 080740Z AUTO 04007KT 10SM BKN006 OVC013 25/24 A2987 RMK AO2
     T02530240=
KLHB 080743Z AUTO 00000KT 5SM BR SCT100 BKN120 25/24 A2996 RMK AO2
     T02520235=
KMDD 080740Z AUTO 10004KT 10SM CLR 23/20 A3009 RMK AO2
     T02260200=
KOSA 080744Z AUTO 00000KT 7SM SCT012 SCT017 SCT022 25/24 A3003 RMK
     AO1 T02470240=
KIGQ 080740Z AUTO 00000KT 7SM SCT043 SCT055 24/22 A3004 RMK AO2
     LTG DSNT N=
KRWV 080740Z AUTO 00000KT 10SM SCT005 SCT021 24/24 A2998 RMK
     AO2=
KSLO 080741Z AUTO 18004KT 10SM CLR 25/21 A3005 RMK AO2
     T02450213=
KSLR 080742Z AUTO 00000KT 10SM SCT008 SCT015 SCT020 25/23 A3003
     RMK AO2 T02470231=
PAXK 080705Z 36007KT 20SM FEW080 11/07 A3013 LAST NOSPECI=
####018000099####
SAAW34 KWBC 080745 RRA
METAR
OAKB 080750Z VRB02KT 9999 FEW070 32/10 Q1017 NOSIG RMK BLU BLU=
####018000097####
SPCN31 KWBC 080752
SPECI
CYQX 080749Z 15008KT 15SM BKN003 BKN007 OVC029 09/ RMK SF6SF1SC1=
####018000082####
SAEE31 KWBC 080730 RRC
METAR
EYSA 080750Z 33012KT 9999 -RA NSC 16/13 Q1016=
####018000097####
SAMM31 KWBC 080730 RRA
METAR
LMML 080745Z 33005KT 260V020 9000 NSC 26/20 Q1018 BECMG 9999=
####018000084####
SPUS41 KWBC 080752
SPECI
KILG 080749Z AUTO 00000KT 6SM HZ SCT009 25/22 A3001=
####018000121####
SAUS46 KSGX 080751
MTRSAN
METAR KSAN 080751Z 30004KT 10SM OVC013 17/13 A2992 RMK AO2 SLP132 
T01720133 401890150
####018000087####
SPUS53 KWBC 080752
SPECI
KBRL 080748Z AUTO 2 1/2SM BR BKN001 BKN065 23/22 A3002=
####018000087####
SPUS73 KWBC 080752
SPECI
KBRL 080748Z AUTO 2 1/2SM BR BKN001 BKN065 23/22 A3002=
####018000428####
SACN59 CWAO 080700 RRH
NLB SA 0700 AUTO8 M M M M/11/09/2603/M/ M 06MM=
NLD SA 0700 AUTO8 M M M M/12/10/3008/M/0004 PCPN 0.4MM PAST HR M
72MM=
NNR SA 0700 AUTO8 M M M M/10/07/2505/M/ M 23MM=
NTK SA 0700 AUTO8 M M M M/14/10/1703/M/ M 93MM=
PCM SA 0700 AUTO8 M M M M/10/09/MMMM/M/0004 PCPN 0.4MM PAST HR M
43MM=
PQU SA 0700 AUTO8 M M M M/13/11/1203/M/ M 49MM=
PTR SA 0700 AUTO8 M M M M/12/09/MMMM/M/ M 94MM=

####018001704####
SPZZ40 KAWN 080752 RRK
SPECI CYFC 080749Z AUTO 19005KT 8SM OVC008 19/18 A3004 RMK SLP174 DENSITY
      ALT 400FT RVR MISG=
SPECI CYMH 080748Z AUTO 21005KT 9SM BKN003 07/06 A3012=
SPECI CYPH 080746Z AUTO 24019KT 1 3/8SM OVC001 05/05 A2977=
SPECI CYYL 080749Z AUTO 33011G18KT 9SM FEW031 BKN051 BKN061 OVC080
      13/09 A2984 RMK PRESRR SLP117 DENSITY ALT 1200FT MAX WND
      34018KT AT 0748Z WSHFT AT 0737Z=
SPECI EGUL 080749Z AUTO 24009KT 4800 BR BKN005 BKN017 OVC023 17/16
      A3006 RMK AO2 RAB0711E0731DZB0708E0711B0731E0734 SLP182=
SPECI EGUL 080751Z AUTO 24009KT 4800 -DZ BR BKN005 BKN016 OVC022 17/16
      A3006 RMK AO2 RAB0711E0731DZB0708E0711B0731E0734B0751 BKN016
      V OVC SLP182=
SPECI EGUN 080747Z AUTO 26008KT 9999 BKN005 BKN022 OVC027 17/17 A3007
      RMK AO2 RAB0711E0735 BKN022 V OVC SLP173=
SPECI FCBB 080746Z 26005KT 230V300 6000 FEW012 BKN140 22/20 Q1016 NOSIG=
SPECI KAFF 080747Z AUTO 00000KT 10SM FEW011 BKN019 13/12 A3041 RMK
      AO2 CIG 016V022 SLP209=
SPECI KFFO 080737Z 00000KT 9SM R23R/5500VP6000FT CLR 22/20 A3007 RMK
      AO2A SLP178=
SPECI KVOK 080747Z 00000KT 8SM R27/5000VP6000FT SCT013 BKN019 22/22
      A3000 RMK AO2A SLP154=
SPECI KVOK 080749Z 00000KT 8SM R27/5000VP6000FT BKN013 BKN019 22/22
      A3000 RMK AO2A CIG 010V016 SLP154=
SPECI RJCB 080744Z 15005KT 9999 FEW007 SCT009 BKN015 20/17 Q1009 RMK
      1ST007 4ST009 7ST015 A2979=
SPECI RJSS 080742Z 07010KT 9999 FEW010 SCT050 BKN/// 26/21 Q1009 RMK
      1ST010 3CU050 A2980=
SPECI YPPH 080745Z 35014KT 9999 -SHRA FEW010 SCT022 BKN055 15/14 Q1000
      FM0745 33018G28KT 9999 -SHRA BKN020 INTER 0745/1045
      27025G35KT 3000 +SHRA BKN010=
####018000083####
SACN96 CWAO 080700 RRF
XND SA 0700 AUTO8 M M M 228/08/07/MM01/M/ 3002 41MM=

####018000083####
SACN94 CWAO 080700 RRF
WSQ SA 0700 AUTO8 M M M 096/05/03/2607/M/ 1004 42MM=

####018000083####
SACN97 CWAO 080700 RRF
XLL SA 0700 AUTO8 M M M 167/16/15/0000/M/ 1019 88MM=

####018000079####
SACN91 CWAO 080700 RRE
WIX SA 0700 AUTO7 M M M M/21/21/3602/M/M M 75MM=

####018000178####
SACN60 CWAO 080700 RRD
PHE SA 0700 AUTO8 M M M M/12/11/MMMM/M/ M 70MM=
PRD SA 0700 AUTO8 M M M M/14/09/1505/M/ M 98MM=
PSA SA 0700 AUTO8 M M M M/13/12/MMMM/M/ M 56MM=

####018000083####
SACN88 CWAO 080700 RRF
WZN SA 0700 AUTO8 M M M 205/11/M/0907/M/M 0002 0MMM=

####018000098####
SAEU31 BKPR 080800
METAR BKPR 080800Z 34012KT 9999 SCT040 SCT080 17/10 Q1020 NOSIG RMK
BLU=
####018000343####
SAIS31 LLBG 080750
METAR LLBG 080750Z 26005KT 9999 FEW030 30/20 Q1009 NOSIG=
METAR LLOV 080750Z 01005KT CAVOK 30/11 Q1011=
METAR LLET 080750Z 03013KT CAVOK 35/12 Q1007=
METAR LLHA 080750Z 25009KT 9999 FEW025 SCT030 29/18 Q1010=
METAR LLIB 080750Z 14007KT 9000 SKC 28/17 Q1010=
METAR LLSD 080750Z 24011KT 9999 FEW026 28/21 Q1009=
####018000087####
SAAN40 FNLU 080800
METAR FNLU 080800Z VRB03 6000 SCT017 BKN020 23/19 Q1015 NOSIG =
####018000259####
SASW31 LSSW 080750
METAR LSZH 080750Z 33003KT 250V050 CAVOK 21/12 Q1022 NOSIG=
METAR LSGG 080750Z VRB01KT CAVOK 24/12 Q1022 NOSIG=
METAR LSZB 080750Z VRB01KT CAVOK 22/14 Q1022 NOSIG=
METAR LSZA 080750Z 18004KT 150V210 9999 BKN050 24/14 Q1023 NOSIG=
####018000087####
SAEW32 LEMM 080730 RRA
METAR LEGR 080730Z 03003KT 340V070 9999 SCT060 27/12 Q1018=
####018000087####
SACA01 KMSC 080752
METAR TJPS 080750Z 04005KT 8SM FEW030 26/23 A2997 RMK HZ ALQDS=
####018000178####
SAUS20 KNKA 080752
SPECI KDFW 080751Z 16006KT 10SM SCT019 BKN090 26/23 A2999 RMK AO2=
SPECI KTXK 080751Z AUTO 00000KT 6SM BR BKN003 23/23 A3003 RMK AO2 
    CIG 001V007=
####018000126####
SAMP31 LMMM 080800
METAR HLLT NIL=
METAR HLLB NIL=
METAR LMML 080745Z 33005KT 260V020 9000 NSC 26/20 Q1018 BECMG 9999 =
####018000393####
SPUS17 KAWN 080752 RRG
SPECI KAFF 080746Z AUTO 00000KT 10SM SCT013 BKN020 13/12 A3041 RMK
      AO2 CIG 018V025 SLP209=
SPECI KAFF 080747Z AUTO 00000KT 10SM FEW011 BKN019 13/12 A3041 RMK
      AO2 CIG 016V022 SLP209=
SPECI KFFO 080731Z COR 00000KT 8SM CLR 22/21 A3007 RMK SLP177 COR 0745=
SPECI KFFO 080737Z 00000KT 9SM R23R/5500VP6000FT CLR 22/20 A3007 RMK
      AO2A SLP178=
####018000072####
SAAK17 KAWN 080800
PATC SA 0755 AWOS CLR BLO 120 10 52/44/0000/016=
####018000205####
SANA35 KAWN 080800
METAR COR MMVR 080745Z 12006KT 5SM +TSRA OVC012CB 24/24 A2982 RMK 60375
      8/9// +RA B37 FQT LTGICCG OVHD VRBL COND=
METAR TBPB 080800Z 08016KT 9999 SCT018 28/24 Q1012 NOSIG=
####018000578####
SAXX70 KAWN 080800 RRA
METAR KQEI 080750Z AUTO 36002KT 7SM FEW075 28/18 A2992 RMK A02=
METAR KQEN 080750Z AUTO 05004KT M1/4SM BR FEW003 BKN023 18/17 A3039
      RMK A02=
METAR KQEP 080750Z AUTO 22001KT 7SM FEW047 29/16 A2984 RMK A02=
METAR KQER 080750Z AUTO 22002KT 7SM FEW100 26/17 A2987 RMK A02=
METAR KQES 080750Z AUTO 31007KT 6SM BR FEW100 21/18 A2983 RMK A02=
METAR KQEY 080750Z AUTO 24004KT 7SM CLR 28/16 A2956 RMK A02=
METAR KQFV 080750Z AUTO 03004KT 7SM SCT037 BKN042 26/17 A3000 RMK A02=
METAR KQEV 080800Z AUTO 26003KT 7SM CLR 30/17 A2975 RMK A02=
####018000090####
SAXX70 KAWN 080700 RRW
METAR KQFU 080730Z AUTO 09004KT 7SM VV005 26/17 A2988 RMK A02=
####018000079####
SACH01 SCFA 080800 CCA
METAR SCFA 080800Z 00000KT 9999 OVC015 13/09 Q1016=
####018000086####
SAAK41 KNKA 080752
METAR PAWI 080750Z 22013KT 10SM CLR 07/04 A3002 RMK VIA PHONE=
####018000118####
SAUS45 KTWC 080752
MTRSAD
METAR KSAD 080751Z AUTO 1605KT 10SM CLR 25/13 A2998 RMK AO2 SLP088 
T02500133 TSNO
####018000115####
SAUS43 KDTX 080752
MTRP58
METAR KP58 080751Z AUTO 23004KT 24/21 A3000 RMK AO2 SLP149 T02390211 
PWINO TSNO
####018000151####
SAUS44 KMAF 080752
MTRGDP
METAR KGDP 080751Z AUTO 06018G23KT 9SM -RA OVC008 18/17 A3022 RMK 
AO2 RAB38 CIG 006V010 SLP154 P0001 T01780167 TSNO
####018000130####
SAUS44 KCRP 080752
MTRVCT
METAR KVCT 080751Z AUTO 05008KT 9SM TS BKN050 26/25 A2989 RMK AO2 
TSB07E23B44 SLP118 T02560250
####018000125####
SAUS41 KGYX 080752
MTRCON
METAR KCON 080751Z AUTO 00000KT 6SM BR SCT050 OVC085 23/21 A3005 RMK 
AO2 SLP172 T02280211
####018000117####
SAUS44 KSJT 080752
MTRJCT
METAR KJCT 080751Z AUTO 00000KT 8SM CLR 22/21 A3000 RMK AO2 SLP121 
T02220211 TSNO
####018000110####
SAUS41 KAKQ 080752
MTRORF
METAR KORF 080751Z 00000KT 4SM BR CLR 26/24 A2995 RMK AO2 SLP142 
T02560244
####018000088####
SAUS99 KWBC 080753
METAR
PAWI 080750Z 22013KT 10SM CLR 07/04 A3002 RMK VIA PHONE=
####018000174####
SPUS99 KWBC 080753
SPECI
KDFW 080751Z 16006KT 10SM SCT019 BKN090 26/23 A2999 RMK AO2=
KTXK 080751Z AUTO 00000KT 6SM BR BKN003 23/23 A3003 RMK AO2 CIG
     001V007=
####018000074####
SABZ21 SBAR 080800
METAR SBAR 080800Z 22005KT 9999 FEW015 22/22 Q1016=
####018000193####
SASW39 LSSW 080750
METAR LSMA 080750Z NIL=
METAR LSMD 080750Z NIL=
METAR LSME 080750Z NIL=
METAR LSMM 080750Z NIL=
METAR LSMP 080750Z NIL=
METAR LSMS 080750Z VRB02KT CAVOK 24/12 Q1022=
####018000129####
SPIV20 DIAP 080752
SPECI COR DIAP 080741Z 00000KT 6000 FEW005 BKN012 BKN080 26/25 Q1015
TEMPO 5000 -RA BKN005 BKN012 OVC080=
####018000098####
SALV32 EVRA 080750
METAR EVLA 080752Z NIL=
METAR EVVA 080750Z AUTO 34010KT CAVOK 21/17 Q1017=
####018000255####
SASW31 LSSW 080750
METAR LSZH 080750Z 33003KT 250V050 CAVOK 21/12 Q1022 NOSIG=
METAR LSGG 080750Z VRB01KT CAVOK 24/12 Q1022 NOSIG=
METAR LSZB 080750Z VRB01KT CAVOK 22/14 Q1022 NOSIG=
METAR LSZA 080750Z 18004KT 150V210 9999 BKN050 24/14 Q1023 NOSIG=
####018000088####
SAHW31 PWAK 080752
METAR PWAK 080751Z 08013KT 7SM HZ CLR 28/24 A2997 
RMK AO2A
=
####018000182####
SPAU31 KWBC 080753
SPECI
YPPH 080745Z 35014KT 9999 -SHRA FEW010 SCT022 BKN055 15/14 Q1000
FM0745 33018G28KT 9999 -SHRA BKN020 INTER 0745/1045 27025G35KT
3000 +SHRA BKN010=
####018000117####
SPJP31 KWBC 080753
SPECI
RJSS 080742Z 07010KT 9999 FEW010 SCT050 BKN/// 26/21 Q1009 RMK
1ST010 3CU050 A2980=
####018000124####
SPJP41 KWBC 080753
SPECI
RJCB 080744Z 15005KT 9999 FEW007 SCT009 BKN015 20/17 Q1009 RMK
1ST007 4ST009 7ST015 A2979=
####018000175####
SPXX61 KWBC 080753
SPECI
EGUL 080751Z AUTO 24009KT 4800 -DZ BR BKN005 BKN016 OVC022 17/16
A3006 RMK AO2 RAB0711E0731DZB0708E0711B0731E0734B0751 BKN016 V OVC
SLP182=
####018000139####
SPXX61 KWBC 080753
SPECI
EGUN 080747Z AUTO 26008KT 9999 BKN005 BKN022 OVC027 17/17 A3007
RMK AO2 RAB0711E0735 BKN022 V OVC SLP173=
####018000151####
SPXX61 KWBC 080753
SPECI
EGUL 080749Z AUTO 24009KT 4800 BR BKN005 BKN017 OVC023 17/16 A3006
RMK AO2 RAB0711E0731DZB0708E0711B0731E0734 SLP182=
####018000133####
SAUS46 KLOX 080752
MTRSMX
METAR KSMX 080751Z AUTO 00000KT 10SM OVC011 13/11 A2992 RMK AO2 
SLP134 T01280106 401940100 TSNO $
####018000107####
SAUS41 KPHI 080752
MTRABE
METAR KABE 080751Z 00000KT 7SM CLR 23/20 A3001 RMK AO2 SLP159 
T02280200
####018000116####
SAUS45 KPIH 080752
MTRSNT
METAR KSNT 080751Z AUTO 00000KT 05/M01 A3029 RMK AO2 SLP181 
T00501006 PWINO TSNO
####018002931####
SAUS20 KNKA 080752
METAR KILG 080751Z AUTO 00000KT 6SM HZ SCT009 25/22 A3001 RMK AO2 
    SLP160 T02500222 $=
METAR KIZA 080749Z AUTO 00000KT 10SM OVC009 14/11 A2991 RMK AO2=
METAR KJFK 080751Z 12003KT 2SM BR SCT003 BKN010 BKN100 24/23 A3002 
    RMK AO2 SLP164 T02440228 $=
METAR KJSV 080750Z AUTO 00000KT 10SM SCT060 23/23 A3003 RMK AO2 
     LTG DSNT NW=
METAR KJWG 080750Z AUTO 04004KT 10SM SCT036 BKN050 OVC090 23/23 
     A3009 RMK AO2=
METAR KLGA 080751Z 00000KT 6SM HZ BKN110 BKN250 27/23 A3000 RMK AO2 
    SLP160 T02670228=
METAR KLGU 080751Z AUTO 00000KT 10SM CLR 15/07 A3012 RMK AO2 SLP155 
    T01500067=
METAR KLRU 080751Z AUTO 04013KT 10SM CLR 21/14 A3016 RMK AO2=
METAR KMDW 080751Z 33003KT 10SM FEW015 SCT038 BKN090 OVC200 23/22 
    A3003 RMK AO2 RAB0654E29 SLP156 P0004 T02330217=
SPECI KMIV 080751Z AUTO 08003KT 2SM BR OVC002 24/23 A2999 RMK AO2=
METAR KMPV 080751Z AUTO 00000KT 4SM BR CLR 21/19 A3010 RMK AO2 
    SLP184 T02060194=
METAR KMYL 080751Z AUTO 00000KT 10SM CLR 12/06 A3017 RMK AO2 SLP181 
    T01170061=
METAR KOKM 080751Z AUTO 07003KT 10SM VCTS OVC015 24/24 A3001 RMK 
     AO1=
METAR KORD 080751Z 00000KT 10SM -RA FEW008 SCT065 OVC100 23/22 A3003 
    RMK AO2 TSE0658 SLP163 P0003 T02280217=
METAR KOXR 080751Z AUTO 29007KT 10SM OVC013 16/12 A2991 RMK AO2 
    SLP128 T01560122 401890150 $=
METAR KPHX 080751Z 00000KT 10SM FEW120 33/03 A2975 RMK AO2 SLP052 
    T03280028 $=
METAR KPIT 080751Z 00000KT 7SM CLR 22/18 A3008 RMK AO2 SLP180 
    T02170183=
METAR KPTS 080750Z AUTO 00000KT 10SM SCT047 22/22 A3003 RMK AO2 
     T02200221=
METAR KPWM 080751Z AUTO 17004KT 9SM OVC006 21/19 A3006 RMK AO2 
    SLP178 T02110194 $=
METAR KRDU 080751Z 00000KT 7SM FEW090 25/18 A2996 RMK AO2 SLP139 
    T02500183 $=
METAR KROW 080751Z AUTO 35007KT 10SM SCT080 BKN090 BKN120 21/16 
    A3017 RMK AO2 SLP151 T02060156 TSNO=
METAR KSJT 080751Z AUTO 00000KT 10SM CLR 22/20 A3001 RMK AO2 RAE0655 
    SLP137 P0000 T02170200=
METAR KSLK 080751Z AUTO 00000KT 3SM BR CLR 18/17 A3008 RMK AO2 
    SLP176 T01780167=
METAR KSMO 080751Z AUTO 00000KT 10SM OVC011 17/13 A2991 RMK AO2 
    SLP128 T01670128 401890150=
METAR KSTL 080751Z 24004KT 10SM FEW039 SCT049TCU SCT075 BKN150 
    BKN250 27/23 A3004 RMK AO2 RAB0653E51 SLP158 OCNL LTGICCG DSNT W 
    CB DSNT W MOV NE TCU NE-E VCSH NE P0000 T02670228=
METAR KTEB 080751Z 00000KT 5SM HZ CLR 26/22 A3000 RMK AO2 SLP159 
    T02560222=
SPECI KUUU 080751Z AUTO 14005KT 1 3/4SM BR OVC002 21/21 A3006 RMK 
    AO2 CIG 001V004=
SPECI KVIH 080751Z AUTO 00000KT 4SM BR SCT002 SCT006 BKN049 23/22 
    A3004 RMK AO2=
METAR KVNY 080751Z AUTO 00000KT 7SM OVC008 16/13 A2991 RMK AO2 
    SLP122 T01560133 402560144=
METAR KYNG 080751Z 11003KT 5SM BR HZ CLR 19/18 A3008 RMK AO2 SLP176 
    T01940178=
METAR PGWT 080751Z 11010KT 7SM FEW015 SCT100 29/24 A2986
=
####018000083####
SAHW31 KMSC 080752
METAR PGWT 080751Z 11010KT 7SM FEW015 SCT100 29/24 A2986
=
####018002935####
SAUS20 KNKA 080752
METAR K1F0 080747Z AUTO 00000KT 10SM OVC034 24/24 A3000 RMK AO2=
METAR K4O4 080748Z AUTO 00000KT 10SM SCT001 BKN013 23/22 A3004 
     RMK AO2=
METAR KACT 080751Z 11003KT 10SM FEW016 26/23 A2998 RMK AO2 SLP142 
    T02610233=
METAR KADH 080750Z AUTO 00000KT 5SM BR OVC004 23/22 A3003 RMK AO2=
METAR KADM 080750Z AUTO 35003KT 7SM OVC035 23/23 A3001 RMK AO2=
METAR KAHN 080751Z AUTO 00000KT 8SM CLR 22/20 A3003 RMK AO2 SLP160 
    T02220200 $=
METAR KALB 080751Z 23003KT 6SM HZ CLR 24/21 A3002 RMK AO2 SLP162 
    T02390206=
METAR KALM 080750Z AUTO 32008KT 10SM FEW075 FEW085 20/14 A3015 
     RMK AO2=
METAR KASH 080751Z 14003KT 8SM FEW055 24/22 A3005 RMK AO2 T02440222 
    SLP176=
METAR KATS 080750Z AUTO 36011KT 10SM FEW047 BKN060 BKN090 19/17 
     A3016 RMK AO2=
METAR KAVX 080751Z AUTO 28004KT 1 1/4SM BR OVC001 12/12 A2993 RMK 
    AO2 SLP128 T01170117 401670106 TSNO=
METAR KBAZ 080751Z AUTO 05005KT 10SM BKN016 BKN022 OVC034 25/24 
    A2993 RMK AO2 RAB40E49 SLP127 P0000 T02500239=
METAR KBDL 080751Z 16007KT 6SM HZ BKN080 24/21 A3002 RMK AO2 SLP165 
    T02440211=
METAR KBGD 080751Z AUTO 27004KT 10SM -RA BKN075 OVC095 19/18 A3018 
    RMK AO2 LTG DSNT N SLP178 P0006 T01890178=
METAR KBKW 080751Z AUTO 00000KT 4SM BR CLR 20/18 A3016 RMK AO2 
    SLP173 T02000178 VISNO RWY19 $=
METAR KCHK 080751Z AUTO 00000KT 10SM BKN021 BKN095 23/23 A3004 
     RMK AO2=
METAR KCLE 080751Z 17003KT 5SM HZ CLR 23/18 A3008 RMK AO2 SLP177 
    T02280178 $=
METAR KCMH 080751Z 00000KT 9SM CLR 22/19 A3007 RMK AO2 SLP175 
    T02220194 $=
METAR KCQB 080750Z AUTO 06003KT 10SM 23/23 A3003 RMK AO2 TSNO=
METAR KCSG 080751Z 00000KT 10SM CLR 25/20 A3002 RMK AO2 SLP158 
    T02500200=
METAR KDAW 080751Z AUTO 00000KT 1 1/4SM BR OVC003 22/21 A3005 RMK 
    AO2 SLP171 T02170206 $=
METAR KDUC 080752Z AUTO 00000KT 10SM CLR 23/22 A3003 RMK AO2=
METAR KEKN 080751Z AUTO 00000KT 2 1/2SM BR FEW085 17/17 A3015 RMK 
    AO2 SLP196 T01720167 TSNO=
METAR KELP 080751Z 01015KT 10SM FEW060 SCT080 BKN110 23/15 A3011 RMK 
    AO2 SLP120 T02280150=
METAR KERI 080751Z 00000KT 8SM CLR 22/18 A3006 RMK AO2 SLP173 
    T02220183=
METAR KEWR 080751Z 00000KT 6SM BR FEW006 BKN110 BKN250 26/25 A3001 
    RMK AO2 SLP161 T02560250=
SPECI KGAG 080751Z AUTO 04007KT 10SM FEW020 BKN028 22/19 A3013 RMK 
    AO2 RAB08E19 P0000=
METAR KGCM 080755Z AUTO 00000KT 10SM -RA SCT002 SCT007 OVC014 
     23/23 A3004 RMK AO2 LTG DSNT SW P0005=
METAR KGMJ 080754Z AUTO 00000KT BKN065 BKN075 26/26 A3004 RMK AO2 
     P0002 PWINO=
METAR KHDO 080751Z AUTO 06006KT 10SM CLR 24/23 A2995 RMK AO2 SLP126 
    T02440228=
METAR KHTS 080751Z 00000KT 2 1/2SM BR CLR 22/21 A3007 RMK AO2 SLP173 
    T02220206=
SPECI KHZY 080751Z AUTO 00000KT 3SM BR CLR 19/18 A3008 RMK AO2=
METAR KIDP 080750Z AUTO 35004KT 10SM BKN032 BKN038 21/20 A3004 
     RMK AO2=
####018000121####
SAUS42 KMHX 080753
MTRHSE
METAR KHSE 080751Z AUTO 05004KT 10SM BKN110 25/23 A2991 RMK AO2 
SLP129 T02500228 TSNO
####018000115####
SAUS43 KMQT 080753
MTRP59
METAR KP59 080751Z AUTO 24008KT 19/18 A2994 RMK AO2 SLP131 T01890178 
PWINO TSNO
####018000147####
SAUS44 KCRP 080753
MTRCRP
METAR KCRP 080751Z 08006G14KT 9SM RA FEW010 SCT025 BKN080 26/24 
A2984 RMK AO2 RAE0652B43 SLP102 P0013 T02560244
####018000088####
SAMD90 KWBC 080753
METAR K2G4 080750Z AUTO 00000KT 10SM SCT070 23/13 A3019 RMK AO1=
####018000107####
SAUS41 KCLE 080753
MTRCAK
METAR KCAK 080751Z 00000KT 7SM CLR 22/17 A3009 RMK AO2 SLP177 
T02170172
####018000123####
SAUS41 KOKX 080753
MTRNYC
METAR KNYC 080751Z AUTO 00000KT 6SM HZ BKN110 26/23 A3004 RMK AO2 
SLP162 T02560228 TSNO
####018000149####
SAUS44 KEWX 080753
MTRATT
METAR KATT 080751Z AUTO VRB03KT 10SM FEW011 BKN022 OVC038 26/23 
A2996 RMK AO2 RAB0655E22 SLP131 P0000 T02560233 $
####018000128####
SAMO31 ZMUB 080800
METAR ZMUB 080800Z 15007G12MPS 120V180 9999 -SHRA SCT030CB SCT033 
 16/13 Q1009 NOSIG RMK QFE650.1 83=
####018000090####
SAFK41 EGYP 080750
METAR EGYP 080750Z 01020KT 7000 -RA SCT010 OVC050 05/03 Q0998 GRN=
####018000084####
SAMD90 KWBC 080753
METAR K2W6 080752Z AUTO 00000KT 7SM CLR 23/22 A2999 RMK AO1=
####018000084####
SAMD90 KWBC 080753
METAR KCBE 080752Z AUTO 00000KT 7SM CLR 22/18 A3010 RMK AO1=
####018000084####
SAMD90 KWBC 080753
METAR KCGE 080750Z AUTO 10003KT 5SM CLR 25/23 A2999 RMK AO1=
####018000084####
SAMD90 KWBC 080753
METAR KCGS 080755Z AUTO 00000KT 7SM CLR 27/23 A2998 RMK AO1=
####018000084####
SAMD90 KWBC 080753
METAR KDMW 080752Z AUTO 00000KT 7SM CLR 26/21 A3003 RMK AO2=
####018000087####
SAMD90 KWBC 080753
METAR KESN 080757Z AUTO 00000KT 5SM BR CLR 23/23 A3002 RMK AO2=
####018000090####
SAMD90 KWBC 080753
METAR KFDK 080749Z AUTO 00000KT 5SM HZ SCT090 24/22 A3002 RMK AO2=
####018000077####
SPUS74 KWBC 080753
SPECI
KSBA 080750Z 00000KT 10SM BKN021 13/11 A2991=
####018000139####
SAYE20 OYAA 080800
METAR OYAA 080800Z 21013KT 7000 FEW018 33/22 Q1004=
METAR OYSQ 080800Z 21045G55KT 8000 FEW018 SCT200 32/24 Q1007=
####018000100####
SALV32 EVRA 080750
METAR EVLA 080752Z NIL=
METAR EVVA 080750Z AUTO 34010KT CAVOK 21/17 Q1017=
####018000131####
SPIV20 DIAP 080752
SPECI COR DIAP 080741Z 00000KT 6000 FEW005 BKN012 BKN080 26/25 Q1015
TEMPO 5000 -RA BKN005 BKN012 OVC080=
####018000495####
SAFI31 EFHK 080750
METAR EFHK 080750Z 32007KT 280V350 9999 FEW025 BKN200 26/18 Q1014
NOSIG=
EFJY 080750Z 36001KT 9999 BKN014 20/17 Q1015=
METAR EFKU 080750Z AUTO VRB03KT 9999NDV BKN014 
21/17 Q1015=
EFOU 080750Z 31004KT 270V360 9999 FEW018 18/12 Q1016=
METAR EFRO 080750Z AUTO 23004KT 130V320 CAVOK 17/11
 Q1017=
EFTP 080750Z 34003KT 9999 FEW040 23/15 Q1015=
METAR EFTU 080750Z AUTO 36005KT 300V050 CAVOK 23/10 Q1016=
EFVA 080750Z 16002KT 9999 FEW020 BKN200 21/12 Q1015=
####018000088####
SACV20 GVAC 080800
METAR GVAC 080800Z 05012KT 9999 SCT014 BKN016 24/19 Q1012 NOSIG=
####018000621####
SASN31 ESWI 080750
METAR ESGG 080750Z 21014KT 9999 BKN036 19/13 Q1018=
METAR ESGJ 080750Z AUTO 22011KT 9999NDV ////// 19/12 Q1019=
METAR ESGP 080750Z 19016KT 9999 OVC039 19/15 Q1018=
METAR ESGT 080750Z 20009KT 9999 FEW030 BKN040 19/13 Q1017=
METAR ESMK 080750Z 22005KT 170V270 CAVOK 23/13 Q1020=
METAR ESMQ 080750Z 16006KT CAVOK 22/13 Q1020=
METAR ESMS 080750Z 18010KT CAVOK 22/12 Q1021=
METAR ESMT 080750Z 17010KT CAVOK 20/14 Q1020=
METAR ESMX 080750Z 23006KT 190V290 CAVOK 21/11 Q1020=
METAR ESTA 080750Z 17009KT CAVOK 19/14 Q1020=
METAR ESTL 080750Z AUTO 21012KT 9999NDV FEW069/// 22/13 Q1020=
####018000089####
SAQB31 LQSM 080800
METAR LQSA 080800Z 30004KT 230V010 9999 SCT050 18/11 Q1023 NOSIG=
####018000199####
SASW39 LSSW 080750
METAR LSMA 080750Z NIL=
METAR LSMD 080750Z NIL=
METAR LSME 080750Z NIL=
METAR LSMM 080750Z NIL=
METAR LSMP 080750Z NIL=
METAR LSMS 080750Z VRB02KT CAVOK 24/12 Q1022=
####018002937####
SAUS20 KNKA 080753
METAR K36U 080756Z AUTO 00000KT 10SM CLR 12/05 A3019 RMK AO2=
METAR KAFK 080750Z AUTO 34007KT 7SM CLR 21/19 A3010 RMK AO2 
     T02050193=
METAR KANW 080750Z AUTO 27003KT 10SM OVC110 17/15 A3023 RMK AO2 
     T01700147=
METAR KARR 080752Z AUTO 00000KT 5SM -RA BR FEW110 23/22 A3004 RMK 
    AO2 RAE0657B14 SLP165 P0000 T02280217 $=
METAR KATL 080752Z 32006KT 10SM CLR 24/20 A3004 RMK AO2 SLP161 
    T02440200=
METAR KAUH 080750Z AUTO 34005KT 10SM CLR 16/15 A3018 RMK AO2 
     T01600150=
METAR KAUN 080750Z AUTO 08004KT 10SM CLR 21/13 A2988 RMK AO1=
METAR KAXS 080750Z AUTO 36004KT 10SM SCT036 24/22 A3006 RMK AO2 
     T02350215=
METAR KAXX 080750Z AUTO 00000KT 10SM CLR 06/05 A3047 RMK AO2=
METAR KBIE 080750Z AUTO 36006KT 10SM CLR 20/19 A3012 RMK AO2 
     T01970185=
METAR KBIS 080752Z AUTO 22004KT 10SM CLR 13/10 A3013 RMK AO2 SLP197 
    T01330100=
METAR KBLH 080752Z AUTO 21003KT 10SM CLR 31/03 A2971 RMK AO2 SLP052 
    T03110028 404170222=
METAR KBTA 080750Z AUTO 35008KT 10SM OVC023 20/17 A3012 RMK AO2 
     T01980172=
METAR KBVN 080750Z AUTO 00000KT 10SM BKN090 16/15 A3018 RMK AO2 
     T01560145=
METAR KBVS 080750Z AUTO 04007KT 10SM CLR 21/16 A2996 RMK A01 P000=
METAR KCFV 080752Z AUTO 35006KT 10SM BKN100 23/22 A3003 RMK AO2 
    SLP163 T02280217=
METAR KCID 080752Z AUTO 33004KT 10SM CLR 20/19 A3001 RMK AO2 SLP158 
    T02000194=
METAR KCKV 080752Z AUTO 00000KT 9SM CLR 23/22 A3006 RMK AO2 SLP171 
    T02330222=
METAR KCLK 080753Z AUTO 01005KT 10SM CLR 22/21 A3007 RMK AO2=
METAR KCLT 080752Z 35008KT 10SM CLR 24/18 A3001 RMK AO2 SLP150 
    T02390178=
METAR KCNU 080752Z AUTO 31005KT 10SM FEW075 21/19 A3006 RMK AO2 
    SLP168 T02110194=
METAR KCUH 080750Z AUTO 36005KT 10SM SCT016 BKN036 BKN080 24/23 
     A3003 RMK AO2=
METAR KDCA 080752Z 04004KT 7SM FEW080 SCT250 28/22 A2998 RMK AO2 
    SLP150 T02830217=
METAR KDDC 080752Z AUTO 03006KT 8SM FEW009 18/17 A3016 RMK AO2 
    SLP191 T01830172=
METAR KDPA 080752Z 00000KT 6SM -RA BR FEW080 OVC100 23/22 A3003 RMK 
    AO2 SLP164 P0000 T02280217=
METAR KDUA 080757Z AUTO 16006KT 10SM SCT070 BKN080 25/23 A3001 
     RMK AO2=
METAR KDVN 080752Z AUTO 00000KT 3SM BR FEW007 SCT023 22/21 A3001 RMK 
    AO2 SLP159 T02220211=
METAR KDVO 080750Z AUTO 00000KT 10SM OVC012 12/12 A2994 RMK AO2=
METAR KEST 080752Z AUTO 31005KT 10SM CLR 17/15 A3012 RMK AO2 SLP195 
    T01670150=
METAR KFET 080750Z AUTO 34004KT 10SM CLR 18/17 A3013 RMK AO2=
METAR KGCD 080750Z AUTO 12008KT 10SM CLR 18/04 A3010 RMK AO2 
     T01770043 403070096=
METAR KGLS 080752Z AUTO 11016G21KT 10SM SCT026 BKN033 28/24 A2991 
    RMK AO2 SLP129 T02830239=
METAR KHRL 080752Z AUTO 02005KT 4SM -RA BR FEW006 BKN024 OVC047 
    26/26 A2979 RMK AO2 RAB38 SLP088 P0002 T02610261=
METAR KHUT 080752Z AUTO 28004KT 10SM CLR 21/20 A3012 RMK AO2 SLP176 
    T02110200=
####018000075####
SPCN44 CWAO 080752
SPECI CYUS 080752Z AUTO ///// 9SM CLR 11/ A2980=

####018000189####
SAUS20 KNKA 080753
METAR KWDG 080750Z AUTO 03005KT 10SM SCT048 22/22 A3009 RMK AO2 
     LTG DSNT E=
METAR KWWR 080749Z AUTO 03009KT 10SM CLR 22/21 A3015 RMK AO2 
     T02230206=
####018002971####
SAUS20 KNKA 080753
METAR KIAD 080752Z 34004KT 7SM SCT100 28/19 A2999 RMK AO2 SLP151 
    T02780189=
METAR KIOW 080752Z AUTO 34004KT 10SM BKN005 BKN009 22/22 A3002 RMK 
    AO2 CIG 005V008 SLP162 T02220217=
METAR KISN 080752Z 00000KT 10SM BKN095 OVC120 15/12 A3012 RMK AO2 
    SLP194 T01500117=
METAR KLAM 080750Z AUTO 00000KT 10SM CLR 15/09 A3037 RMK AO2=
METAR KLWC 080752Z AUTO 31005KT 10SM FEW008 BKN027 OVC110 22/21 
    A3007 RMK AO2 LTG DSNT NE CIG 022V038 SLP176 T02170206=
METAR KMDH 080752Z AUTO 00000KT 10SM FEW080 24/22 A3005 RMK AO2 
    SLP169 T02390222=
METAR KMEB 080752Z AUTO 31005KT 10SM CLR 24/17 A2995 RMK AO2 SLP139 
    T02440172=
METAR KMHK 080752Z AUTO 02003KT 10SM SCT120 22/20 A3008 RMK AO2 
    SLP177 T02170200=
METAR KMKE 080752Z 20006KT 10SM SCT060 BKN090 OVC200 24/21 A3001 RMK 
    AO2 RAE0655 SLP159 P0000 T02390211=
METAR KMLI 080752Z 00000KT 10SM CLR 23/22 A3001 RMK AO2 SLP158 
    T02280217 $=
METAR KMWH 080752Z AUTO 01007KT 10SM CLR 18/07 A3000 RMK AO2 SLP152 
    T01830067 403390117=
METAR KOJA 080750Z AUTO 01004KT 10SM CLR 22/22 A3008 RMK AO2=
METAR KOKB 080752Z AUTO 30004KT 9SM OVC014 18/14 A2990 RMK AO2 
    SLP126 T01780139 402110161=
METAR KOMA 080752Z 34010KT 10SM FEW019 SCT130 21/19 A3011 RMK AO2 
    SLP189 T02060189=
METAR KONP 080750Z AUTO 21011KT 5SM BR OVC002 11/10 A2999 RMK AO1=
METAR KORS 080750Z AUTO 10SM CLR 17/13 A2994 RMK AO2=
METAR KOUN 080752Z AUTO 01004KT 10SM BKN020 24/23 A3004 RMK AO2=
METAR KPLU 080750Z AUTO 00000KT 10SM FEW031 FEW042 16/13 A2993 
     RMK AO2=
METAR KPPF 080752Z AUTO 00000KT 10SM CLR 22/21 A3006 RMK AO2 SLP168 
    T02170206=
METAR KPVJ 080747Z AUTO 00000KT 10SM SCT009 BKN012 OVC026 25/24 
     A3003 RMK AO2=
METAR KPWK 080752Z AUTO 00000KT 10SM SCT065 OVC100 23/21 A3004 RMK 
    AO2 RAE50 SLP168 P0004 T02280211=
METAR KRKR 080752Z AUTO 00000KT 10SM OVC028 26/24 A3003 RMK AO2=
METAR KSGF 080752Z 00000KT 10SM FEW023 23/22 A3005 RMK AO2 SLP161 
    T02330222=
METAR KSNL 080752Z AUTO 36003KT 10SM BKN007 OVC011 25/24 A3004 
     RMK AO2 LTG DSNT NE=
METAR KSPI 080752Z AUTO 00000KT 10SM -RA FEW027 SCT055 BKN100 24/23 
    A3005 RMK AO2 TSB16E44 SLP168 P0005 T02390228=
METAR KSPS 080752Z 06005KT 10SM CLR 23/22 A3001 RMK AO2 SLP148 
    T02330217=
METAR KSRE 080750Z AUTO 00000KT 7SM 24/24 A3002 RMK AO2 LTG DSNT 
     NE=
METAR KSUX 080752Z 35003KT 10SM CLR 18/16 A3014 RMK AO2 SLP201 
    T01780161=
METAR KSVC 080750Z AUTO 05009KT 5SM RA FEW001 SCT023 BKN037 16/14 
     A3023 RMK AO2 P0010=
METAR KTMK 080753Z AUTO 17003KT 10SM OVC006 13/12 A2995 RMK AO2=
METAR KTQH 080754Z AUTO 00000KT 7SM SCT024 SCT040 SCT046 23/23 
     A3004 RMK AO2=
METAR KUGN 080752Z AUTO 00000KT 8SM -RA SCT032 BKN090 OVC110 23/21 
    A3002 RMK AO2 TSB0658E13 SLP152 P0015 T02280211=
METAR KVTN 080752Z AUTO 20005KT 10SM BKN120 16/15 A3023 RMK AO2 
    SLP223 T01610150=
####018000239####
SPNA14 KAWN 080753 RRF
SPECI KVOK 080747Z 00000KT 8SM R27/5000VP6000FT SCT013 BKN019 22/22
      A3000 RMK AO2A SLP154=
SPECI KVOK 080749Z 00000KT 8SM R27/5000VP6000FT BKN013 BKN019 22/22
      A3000 RMK AO2A CIG 010V016 SLP154=
####018000663####
SAIN31 VABB 080740
METAR VAAH 080740Z 16006KT 4000 HZ SCT018 SCT025 31/25 Q1005 NOSIG=
METAR VABB 080740Z 13006KT 2500 HZ SCT012 SCT018 FEW030CB OVC080
     27/25 Q1008 TEMPO 1500 SHRA=
METAR VANP 080740Z 22005KT 4000 HZ FEW010 SCT015 FEW030CB BKN080
    27/26 Q1006 NOSIG CB TO S=
METAR VOHS 080740Z 24012KT 5000 HZ SCT010 SCT015 BKN080 26/22 Q1012
    NOSIG=
METAR VOHY 080740Z 27009KT 5000 -DZ SCT015 SCT025 BKN080 25/20 Q1012
    NOSIG=
METAR VOMM 080740Z 12005KT 2000 -DZ SCT018 OVC080 28/26 Q1010 NOSIG=
METAR VOTR 080740Z 29003KT 6000 SCT020 OVC100 32/23 Q1009=
METAR VOTV 080740Z 31007KT 5000 HZ FEW015 BKN200 28/24 Q1009 NOSIG=
####018000084####
SAMD90 KWBC 080753
METAR KMTN 080754Z AUTO 00000KT 7SM CLR 26/24 A2999 RMK AO2=
####018000084####
SAMD90 KWBC 080753
METAR KFME 080754Z AUTO 00000KT 4SM CLR 20/20 A3001 RMK AO1=
####018000084####
SAMD90 KWBC 080753
METAR KW29 080752Z AUTO 00000KT 7SM CLR 25/22 A2998 RMK AO1=
####018000118####
SAUS90 KWBC 080800 CCA
METAR KSAD 080751Z AUTO 16005KT 10SM CLR 25/13 A2998 RMK AO2
     SLP088 T02500133 TSNO=
####018003059####
SAUS90 KWBC 080800
METAR KSAN 080751Z 30004KT 10SM OVC013 17/13 A2992 RMK AO2 SLP132
     T01720133 401890150=
METAR KP58 080751Z AUTO 23004KT 24/21 A3000 RMK AO2 SLP149
     T02390211 PWINO TSNO=
METAR KSAD 080751Z AUTO 1605KT 10SM CLR 25/13 A2998 RMK AO2
     SLP088 T02500133 TSNO=
METAR KVCT 080751Z AUTO 05008KT 9SM TS BKN050 26/25 A2989 RMK AO2
     TSB07E23B44 SLP118 T02560250=
METAR KGDP 080751Z AUTO 06018G23KT 9SM -RA OVC008 18/17 A3022 RMK
     AO2 RAB38 CIG 006V010 SLP154 P0001 T01780167 TSNO=
METAR KJCT 080751Z AUTO 00000KT 8SM CLR 22/21 A3000 RMK AO2 SLP121
     T02220211 TSNO=
METAR KCON 080751Z AUTO 00000KT 6SM BR SCT050 OVC085 23/21 A3005
     RMK AO2 SLP172 T02280211=
METAR KORF 080751Z 00000KT 4SM BR CLR 26/24 A2995 RMK AO2 SLP142
     T02560244=
METAR KSMX 080751Z AUTO 00000KT 10SM OVC011 13/11 A2992 RMK AO2
     SLP134 T01280106 401940100 TSNO $=
METAR KABE 080751Z 00000KT 7SM CLR 23/20 A3001 RMK AO2 SLP159
     T02280200=
METAR KSNT 080751Z AUTO 00000KT 05/M01 A3029 RMK AO2 SLP181
     T00501006 PWINO TSNO=
METAR KHSE 080751Z AUTO 05004KT 10SM BKN110 25/23 A2991 RMK AO2
     SLP129 T02500228 TSNO=
METAR KP59 080751Z AUTO 24008KT 19/18 A2994 RMK AO2 SLP131
     T01890178 PWINO TSNO=
METAR KCRP 080751Z 08006G14KT 9SM RA FEW010 SCT025 BKN080 26/24
     A2984 RMK AO2 RAE0652B43 SLP102 P0013 T02560244=
METAR K2G4 080750Z AUTO 00000KT 10SM SCT070 23/13 A3019 RMK
     AO1=
METAR KATT 080751Z AUTO VRB03KT 10SM FEW011 BKN022 OVC038 26/23
     A2996 RMK AO2 RAB0655E22 SLP131 P0000 T02560233 $=
METAR KNYC 080751Z AUTO 00000KT 6SM HZ BKN110 26/23 A3004 RMK AO2
     SLP162 T02560228 TSNO=
METAR KCAK 080751Z 00000KT 7SM CLR 22/17 A3009 RMK AO2 SLP177
     T02170172=
METAR K2W6 080752Z AUTO 00000KT 7SM CLR 23/22 A2999 RMK AO1=
METAR KCBE 080752Z AUTO 00000KT 7SM CLR 22/18 A3010 RMK AO1=
METAR KCGE 080750Z AUTO 10003KT 5SM CLR 25/23 A2999 RMK AO1=
METAR KCGS 080755Z AUTO 00000KT 7SM CLR 27/23 A2998 RMK AO1=
METAR KDMW 080752Z AUTO 00000KT 7SM CLR 26/21 A3003 RMK AO2=
METAR KESN 080757Z AUTO 00000KT 5SM BR CLR 23/23 A3002 RMK AO2=
METAR KFDK 080749Z AUTO 00000KT 5SM HZ SCT090 24/22 A3002 RMK
     AO2=
METAR KMTN 080754Z AUTO 00000KT 7SM CLR 26/24 A2999 RMK AO2=
METAR KFME 080754Z AUTO 00000KT 4SM CLR 20/20 A3001 RMK AO1=
METAR KW29 080752Z AUTO 00000KT 7SM CLR 25/22 A2998 RMK AO1=
METAR KBLU 080752Z AUTO 00000KT 10SM CLR 21/10 A3010 RMK AO2
     SLP089 T02060100 402440167 TSNO=
METAR KMLF 080752Z AUTO 27006KT 10SM CLR 13/01 A3009 RMK AO2
     SLP127 T01330011 TSNO=
METAR KN60 080752Z AUTO 29007KT 14/12 A3010 RMK AO1 SLP189
     T01440117=
METAR KP69 080752Z AUTO 35003KT 13/11 A3008 RMK AO2 SLP166
     T01330111 403440100 PWINO TSNO $=
METAR KABI 080752Z 11005KT 10SM CLR 22/21 A3003 RMK AO2 SLP140
     T02220211 $=
METAR KSDB 080752Z AUTO 33010KT 10SM CLR 19/02 A3004 RMK AO2
     SLP115 T01890022 TSNO $=
METAR PATC 080755Z AUTO 00000KT 10SM CLR 11/07 A3016 RMK AO1
     T01110067=
####018000122####
SAUS45 KTWC 080753 COR
MTRSAD
METAR KSAD 080751Z AUTO 16005KT 10SM CLR 25/13 A2998 RMK AO2 SLP088 
T02500133 TSNO
####018000407####
SADL32 EDZO 080750
METAR EDDB 080750Z 22003KT CAVOK 22/08 Q1022 NOSIG=
METAR EDDC 080750Z VRB02KT CAVOK 21/10 Q1023 NOSIG=
METAR EDDE 080750Z VRB02KT CAVOK 22/10 Q1022 NOSIG=
METAR EDDG 080750Z 16004KT CAVOK 24/12 Q1019 NOSIG=
METAR EDDP 080750Z 21004KT CAVOK 22/12 Q1022 NOSIG=
METAR EDDR 080750Z 08004KT CAVOK 23/12 Q1021 NOSIG=
METAR EDDW 080750Z 19004KT 170V230 CAVOK 25/11 Q1019 NOSIG=
####018000084####
SPCN48 CWAO 080752
SPECI CYPH 080752Z AUTO 24016G21KT 1SM VV001 05/05 A2977=

####018000531####
SADL31 EDZO 080750
METAR EDDF 080750Z 03004KT CAVOK 24/11 Q1021 NOSIG=
METAR EDDH 080750Z 16005KT CAVOK 24/13 Q1019 NOSIG=
METAR EDDK 080750Z 17006KT CAVOK 25/12 Q1020 NOSIG=
METAR EDDL 080750Z 20006KT 160V220 CAVOK 25/11 Q1019 NOSIG=
METAR EDDM 080750Z 08007KT CAVOK 20/11 Q1023 NOSIG=
METAR EDDN 080750Z 13004KT CAVOK 22/09 Q1023 NOSIG=
METAR EDDS 080750Z 15004KT CAVOK 23/08 Q1022 NOSIG=
METAR EDDT 080750Z 14004KT 110V210 CAVOK 24/07 Q1022 NOSIG=
METAR EDDV 080750Z 18004KT 130V210 CAVOK 25/11 Q1020 NOSIG=
####018000128####
SAUS46 KSTO 080753
MTRBLU
METAR KBLU 080752Z AUTO 00000KT 10SM CLR 21/10 A3010 RMK AO2 SLP089 
T02060100 402440167 TSNO
####018000086####
SAHW31 KMSC 080753
METAR PWAK 080751Z 08013KT 7SM HZ CLR 28/24 A2997 
RMK AO2A=
####018000118####
SAUS45 KSLC 080753
MTRMLF
METAR KMLF 080752Z AUTO 27006KT 10SM CLR 13/01 A3009 RMK AO2 SLP127 
T01330011 TSNO
####018000116####
SAUS44 KMAF 080753
MTRNFW
METAR KNFW 080752Z AUTO 14010KT 10SM OVC024 27/22 A3003 RMK AO2 
SLP151 T02670222
####018000127####
SAUS45 KMSO 080753
MTRP69
METAR KP69 080752Z AUTO 35003KT 13/11 A3008 RMK AO2 SLP166 T01330111 
403440100 PWINO TSNO $
####018000110####
SAUS44 KSJT 080753
MTRABI
METAR KABI 080752Z 11005KT 10SM CLR 22/21 A3003 RMK AO2 SLP140 
T02220211 $
####018000118####
SAUS41 KLWX 080753
MTRNHK
METAR KNHK 080752Z AUTO 10006KT 5SM HZ FEW120 27/23 A2997 RMK AO2 
SLP148 T02720233
####018000101####
SAUS43 KBIS 080753
MTRN60
METAR KN60 080752Z AUTO 29007KT 14/12 A3010 RMK AO1 SLP189 T01440117
####018000120####
SAUS46 KLOX 080753
MTRSDB
METAR KSDB 080752Z AUTO 33010KT 10SM CLR 19/02 A3004 RMK AO2 SLP115 
T01890022 TSNO $
####018000069####
SALY31 HLLS 080800
METAR HLLS 080750Z 11018KT CAVOK 31/11 Q1018=
####018000087####
SPCN42 CWAO 080752
SPECI CYUA 080752Z AUTO 31015KT 9SM OVC004 OVC017 05/ A3007=

####018000097####
SAUS98 KWBC 080754
METAR PATC 080755Z AUTO 00000KT 10SM CLR 11/07 A3016 RMK AO1
T01110067=
####018003747####
SAUS99 KWBC 080754 RRA
METAR
KOXR 080751Z AUTO 29007KT 10SM OVC013 16/12 A2991 RMK AO2 SLP128
     T01560122 401890150 $=
KPHX 080751Z 00000KT 10SM FEW120 33/03 A2975 RMK AO2 SLP052
     T03280028 $=
KPIT 080751Z 00000KT 7SM CLR 22/18 A3008 RMK AO2 SLP180
     T02170183=
KPTS 080750Z AUTO 00000KT 10SM SCT047 22/22 A3003 RMK AO2
     T02200221=
KPWM 080751Z AUTO 17004KT 9SM OVC006 21/19 A3006 RMK AO2 SLP178
     T02110194 $=
KRDU 080751Z 00000KT 7SM FEW090 25/18 A2996 RMK AO2 SLP139
     T02500183 $=
KROW 080751Z AUTO 35007KT 10SM SCT080 BKN090 BKN120 21/16 A3017
     RMK AO2 SLP151 T02060156 TSNO=
KSJT 080751Z AUTO 00000KT 10SM CLR 22/20 A3001 RMK AO2 RAE0655
     SLP137 P0000 T02170200=
KSLK 080751Z AUTO 00000KT 3SM BR CLR 18/17 A3008 RMK AO2 SLP176
     T01780167=
KSMO 080751Z AUTO 00000KT 10SM OVC011 17/13 A2991 RMK AO2 SLP128
     T01670128 401890150=
KSTL 080751Z 24004KT 10SM FEW039 SCT049TCU SCT075 BKN150 BKN250
     27/23 A3004 RMK AO2 RAB0653E51 SLP158 OCNL LTGICCG DSNT W CB
     DSNT W MOV NE TCU NE-E VCSH NE P0000 T02670228=
KTEB 080751Z 00000KT 5SM HZ CLR 26/22 A3000 RMK AO2 SLP159
     T02560222=
KVNY 080751Z AUTO 00000KT 7SM OVC008 16/13 A2991 RMK AO2 SLP122
     T01560133 402560144=
KYNG 080751Z 11003KT 5SM BR HZ CLR 19/18 A3008 RMK AO2 SLP176
     T01940178=
PGWT 080751Z 11010KT 7SM FEW015 SCT100 29/24 A2986=
KWDG 080750Z AUTO 03005KT 10SM SCT048 22/22 A3009 RMK AO2 LTG DSNT
     E=
KWWR 080749Z AUTO 03009KT 10SM CLR 22/21 A3015 RMK AO2
     T02230206=
K36U 080756Z AUTO 00000KT 10SM CLR 12/05 A3019 RMK AO2=
KAFK 080750Z AUTO 34007KT 7SM CLR 21/19 A3010 RMK AO2
     T02050193=
KANW 080750Z AUTO 27003KT 10SM OVC110 17/15 A3023 RMK AO2
     T01700147=
KARR 080752Z AUTO 00000KT 5SM -RA BR FEW110 23/22 A3004 RMK AO2
     RAE0657B14 SLP165 P0000 T02280217 $=
KATL 080752Z 32006KT 10SM CLR 24/20 A3004 RMK AO2 SLP161
     T02440200=
KAUH 080750Z AUTO 34005KT 10SM CLR 16/15 A3018 RMK AO2
     T01600150=
KAUN 080750Z AUTO 08004KT 10SM CLR 21/13 A2988 RMK AO1=
KAXS 080750Z AUTO 36004KT 10SM SCT036 24/22 A3006 RMK AO2
     T02350215=
KAXX 080750Z AUTO 00000KT 10SM CLR 06/05 A3047 RMK AO2=
KBIE 080750Z AUTO 36006KT 10SM CLR 20/19 A3012 RMK AO2
     T01970185=
KBIS 080752Z AUTO 22004KT 10SM CLR 13/10 A3013 RMK AO2 SLP197
     T01330100=
KBLH 080752Z AUTO 21003KT 10SM CLR 31/03 A2971 RMK AO2 SLP052
     T03110028 404170222=
KBTA 080750Z AUTO 35008KT 10SM OVC023 20/17 A3012 RMK AO2
     T01980172=
KBVN 080750Z AUTO 00000KT 10SM BKN090 16/15 A3018 RMK AO2
     T01560145=
KBVS 080750Z AUTO 04007KT 10SM CLR 21/16 A2996 RMK A01 P000=
KCFV 080752Z AUTO 35006KT 10SM BKN100 23/22 A3003 RMK AO2 SLP163
     T02280217=
KCID 080752Z AUTO 33004KT 10SM CLR 20/19 A3001 RMK AO2 SLP158
     T02000194=
KCKV 080752Z AUTO 00000KT 9SM CLR 23/22 A3006 RMK AO2 SLP171
     T02330222=
KCLK 080753Z AUTO 01005KT 10SM CLR 22/21 A3007 RMK AO2=
KCLT 080752Z 35008KT 10SM CLR 24/18 A3001 RMK AO2 SLP150
     T02390178=
KCNU 080752Z AUTO 31005KT 10SM FEW075 21/19 A3006 RMK AO2 SLP168
     T02110194=
KCUH 080750Z AUTO 36005KT 10SM SCT016 BKN036 BKN080 24/23 A3003
     RMK AO2=
KDCA 080752Z 04004KT 7SM FEW080 SCT250 28/22 A2998 RMK AO2 SLP150
     T02830217=
KDDC 080752Z AUTO 03006KT 8SM FEW009 18/17 A3016 RMK AO2 SLP191
     T01830172=
KDPA 080752Z 00000KT 6SM -RA BR FEW080 OVC100 23/22 A3003 RMK AO2
     SLP164 P0000 T02280217=
KDUA 080757Z AUTO 16006KT 10SM SCT070 BKN080 25/23 A3001 RMK
     AO2=
KDVN 080752Z AUTO 00000KT 3SM BR FEW007 SCT023 22/21 A3001 RMK AO2
     SLP159 T02220211=
KDVO 080750Z AUTO 00000KT 10SM OVC012 12/12 A2994 RMK AO2=
####018003689####
SAUS99 KWBC 080754
METAR
K1F0 080747Z AUTO 00000KT 10SM OVC034 24/24 A3000 RMK AO2=
K4O4 080748Z AUTO 00000KT 10SM SCT001 BKN013 23/22 A3004 RMK
     AO2=
KACT 080751Z 11003KT 10SM FEW016 26/23 A2998 RMK AO2 SLP142
     T02610233=
KADH 080750Z AUTO 00000KT 5SM BR OVC004 23/22 A3003 RMK AO2=
KADM 080750Z AUTO 35003KT 7SM OVC035 23/23 A3001 RMK AO2=
KAHN 080751Z AUTO 00000KT 8SM CLR 22/20 A3003 RMK AO2 SLP160
     T02220200 $=
KALB 080751Z 23003KT 6SM HZ CLR 24/21 A3002 RMK AO2 SLP162
     T02390206=
KALM 080750Z AUTO 32008KT 10SM FEW075 FEW085 20/14 A3015 RMK
     AO2=
KASH 080751Z 14003KT 8SM FEW055 24/22 A3005 RMK AO2 T02440222
     SLP176=
KATS 080750Z AUTO 36011KT 10SM FEW047 BKN060 BKN090 19/17 A3016
     RMK AO2=
KAVX 080751Z AUTO 28004KT 1 1/4SM BR OVC001 12/12 A2993 RMK AO2
     SLP128 T01170117 401670106 TSNO=
KBAZ 080751Z AUTO 05005KT 10SM BKN016 BKN022 OVC034 25/24 A2993
     RMK AO2 RAB40E49 SLP127 P0000 T02500239=
KBDL 080751Z 16007KT 6SM HZ BKN080 24/21 A3002 RMK AO2 SLP165
     T02440211=
KBGD 080751Z AUTO 27004KT 10SM -RA BKN075 OVC095 19/18 A3018 RMK
     AO2 LTG DSNT N SLP178 P0006 T01890178=
KBKW 080751Z AUTO 00000KT 4SM BR CLR 20/18 A3016 RMK AO2 SLP173
     T02000178 VISNO RWY19 $=
KCHK 080751Z AUTO 00000KT 10SM BKN021 BKN095 23/23 A3004 RMK
     AO2=
KCLE 080751Z 17003KT 5SM HZ CLR 23/18 A3008 RMK AO2 SLP177
     T02280178 $=
KCMH 080751Z 00000KT 9SM CLR 22/19 A3007 RMK AO2 SLP175 T02220194
     $=
KCQB 080750Z AUTO 06003KT 10SM 23/23 A3003 RMK AO2 TSNO=
KCSG 080751Z 00000KT 10SM CLR 25/20 A3002 RMK AO2 SLP158
     T02500200=
KDAW 080751Z AUTO 00000KT 1 1/4SM BR OVC003 22/21 A3005 RMK AO2
     SLP171 T02170206 $=
KDUC 080752Z AUTO 00000KT 10SM CLR 23/22 A3003 RMK AO2=
KEKN 080751Z AUTO 00000KT 2 1/2SM BR FEW085 17/17 A3015 RMK AO2
     SLP196 T01720167 TSNO=
KELP 080751Z 01015KT 10SM FEW060 SCT080 BKN110 23/15 A3011 RMK AO2
     SLP120 T02280150=
KERI 080751Z 00000KT 8SM CLR 22/18 A3006 RMK AO2 SLP173
     T02220183=
KEWR 080751Z 00000KT 6SM BR FEW006 BKN110 BKN250 26/25 A3001 RMK
     AO2 SLP161 T02560250=
KGCM 080755Z AUTO 00000KT 10SM -RA SCT002 SCT007 OVC014 23/23
     A3004 RMK AO2 LTG DSNT SW P0005=
KGMJ 080754Z AUTO 00000KT BKN065 BKN075 26/26 A3004 RMK AO2 P0002
     PWINO=
KHDO 080751Z AUTO 06006KT 10SM CLR 24/23 A2995 RMK AO2 SLP126
     T02440228=
KHTS 080751Z 00000KT 2 1/2SM BR CLR 22/21 A3007 RMK AO2 SLP173
     T02220206=
KIDP 080750Z AUTO 35004KT 10SM BKN032 BKN038 21/20 A3004 RMK
     AO2=
KILG 080751Z AUTO 00000KT 6SM HZ SCT009 25/22 A3001 RMK AO2 SLP160
     T02500222 $=
KIZA 080749Z AUTO 00000KT 10SM OVC009 14/11 A2991 RMK AO2=
KJFK 080751Z 12003KT 2SM BR SCT003 BKN010 BKN100 24/23 A3002 RMK
     AO2 SLP164 T02440228 $=
KJSV 080750Z AUTO 00000KT 10SM SCT060 23/23 A3003 RMK AO2 LTG DSNT
     NW=
KJWG 080750Z AUTO 04004KT 10SM SCT036 BKN050 OVC090 23/23 A3009
     RMK AO2=
KLGA 080751Z 00000KT 6SM HZ BKN110 BKN250 27/23 A3000 RMK AO2
     SLP160 T02670228=
KLGU 080751Z AUTO 00000KT 10SM CLR 15/07 A3012 RMK AO2 SLP155
     T01500067=
KLRU 080751Z AUTO 04013KT 10SM CLR 21/14 A3016 RMK AO2=
KMDW 080751Z 33003KT 10SM FEW015 SCT038 BKN090 OVC200 23/22 A3003
     RMK AO2 RAB0654E29 SLP156 P0004 T02330217=
KMPV 080751Z AUTO 00000KT 4SM BR CLR 21/19 A3010 RMK AO2 SLP184
     T02060194=
KMYL 080751Z AUTO 00000KT 10SM CLR 12/06 A3017 RMK AO2 SLP181
     T01170061=
KOKM 080751Z AUTO 07003KT 10SM VCTS OVC015 24/24 A3001 RMK AO1=
KORD 080751Z 00000KT 10SM -RA FEW008 SCT065 OVC100 23/22 A3003 RMK
     AO2 TSE0658 SLP163 P0003 T02280217=
####018000412####
SPUS99 KWBC 080754
SPECI
KGAG 080751Z AUTO 04007KT 10SM FEW020 BKN028 22/19 A3013 RMK AO2
     RAB08E19 P0000=
KHZY 080751Z AUTO 00000KT 3SM BR CLR 19/18 A3008 RMK AO2=
KMIV 080751Z AUTO 08003KT 2SM BR OVC002 24/23 A2999 RMK AO2=
KUUU 080751Z AUTO 14005KT 1 3/4SM BR OVC002 21/21 A3006 RMK AO2
     CIG 001V004=
KVIH 080751Z AUTO 00000KT 4SM BR SCT002 SCT006 BKN049 23/22 A3004
     RMK AO2=
####018000087####
SACN88 KWBC 080754
METAR CWZN 080700Z AUTO 09007KT 11/ RMK AO1 SLP205 T0110 50002=
####018000095####
SACN97 KWBC 080754
METAR CXLL 080700Z AUTO 00000KT 16/15 RMK AO1 SLP167 T01580148
51019=
####018003291####
SAUS99 KWBC 080754 RRB
METAR
KEST 080752Z AUTO 31005KT 10SM CLR 17/15 A3012 RMK AO2 SLP195
     T01670150=
KFET 080750Z AUTO 34004KT 10SM CLR 18/17 A3013 RMK AO2=
KGCD 080750Z AUTO 12008KT 10SM CLR 18/04 A3010 RMK AO2 T01770043
     403070096=
KGLS 080752Z AUTO 11016G21KT 10SM SCT026 BKN033 28/24 A2991 RMK
     AO2 SLP129 T02830239=
KHRL 080752Z AUTO 02005KT 4SM -RA BR FEW006 BKN024 OVC047 26/26
     A2979 RMK AO2 RAB38 SLP088 P0002 T02610261=
KHUT 080752Z AUTO 28004KT 10SM CLR 21/20 A3012 RMK AO2 SLP176
     T02110200=
KIAD 080752Z 34004KT 7SM SCT100 28/19 A2999 RMK AO2 SLP151
     T02780189=
KIOW 080752Z AUTO 34004KT 10SM BKN005 BKN009 22/22 A3002 RMK AO2
     CIG 005V008 SLP162 T02220217=
KISN 080752Z 00000KT 10SM BKN095 OVC120 15/12 A3012 RMK AO2 SLP194
     T01500117=
KLAM 080750Z AUTO 00000KT 10SM CLR 15/09 A3037 RMK AO2=
KLWC 080752Z AUTO 31005KT 10SM FEW008 BKN027 OVC110 22/21 A3007
     RMK AO2 LTG DSNT NE CIG 022V038 SLP176 T02170206=
KMDH 080752Z AUTO 00000KT 10SM FEW080 24/22 A3005 RMK AO2 SLP169
     T02390222=
KMEB 080752Z AUTO 31005KT 10SM CLR 24/17 A2995 RMK AO2 SLP139
     T02440172=
KMHK 080752Z AUTO 02003KT 10SM SCT120 22/20 A3008 RMK AO2 SLP177
     T02170200=
KMKE 080752Z 20006KT 10SM SCT060 BKN090 OVC200 24/21 A3001 RMK AO2
     RAE0655 SLP159 P0000 T02390211=
KMLI 080752Z 00000KT 10SM CLR 23/22 A3001 RMK AO2 SLP158 T02280217
     $=
KMWH 080752Z AUTO 01007KT 10SM CLR 18/07 A3000 RMK AO2 SLP152
     T01830067 403390117=
KOJA 080750Z AUTO 01004KT 10SM CLR 22/22 A3008 RMK AO2=
KOKB 080752Z AUTO 30004KT 9SM OVC014 18/14 A2990 RMK AO2 SLP126
     T01780139 402110161=
KOMA 080752Z 34010KT 10SM FEW019 SCT130 21/19 A3011 RMK AO2 SLP189
     T02060189=
KONP 080750Z AUTO 21011KT 5SM BR OVC002 11/10 A2999 RMK AO1=
KORS 080750Z AUTO 10SM CLR 17/13 A2994 RMK AO2=
KOUN 080752Z AUTO 01004KT 10SM BKN020 24/23 A3004 RMK AO2=
KPLU 080750Z AUTO 00000KT 10SM FEW031 FEW042 16/13 A2993 RMK
     AO2=
KPPF 080752Z AUTO 00000KT 10SM CLR 22/21 A3006 RMK AO2 SLP168
     T02170206=
KPVJ 080747Z AUTO 00000KT 10SM SCT009 BKN012 OVC026 25/24 A3003
     RMK AO2=
KPWK 080752Z AUTO 00000KT 10SM SCT065 OVC100 23/21 A3004 RMK AO2
     RAE50 SLP168 P0004 T02280211=
KRKR 080752Z AUTO 00000KT 10SM OVC028 26/24 A3003 RMK AO2=
KSGF 080752Z 00000KT 10SM FEW023 23/22 A3005 RMK AO2 SLP161
     T02330222=
KSNL 080752Z AUTO 36003KT 10SM BKN007 OVC011 25/24 A3004 RMK AO2
     LTG DSNT NE=
KSPI 080752Z AUTO 00000KT 10SM -RA FEW027 SCT055 BKN100 24/23
     A3005 RMK AO2 TSB16E44 SLP168 P0005 T02390228=
KSPS 080752Z 06005KT 10SM CLR 23/22 A3001 RMK AO2 SLP148
     T02330217=
KSRE 080750Z AUTO 00000KT 7SM 24/24 A3002 RMK AO2 LTG DSNT NE=
KSUX 080752Z 35003KT 10SM CLR 18/16 A3014 RMK AO2 SLP201
     T01780161=
KSVC 080750Z AUTO 05009KT 5SM RA FEW001 SCT023 BKN037 16/14 A3023
     RMK AO2 P0010=
KTMK 080753Z AUTO 17003KT 10SM OVC006 13/12 A2995 RMK AO2=
KTQH 080754Z AUTO 00000KT 7SM SCT024 SCT040 SCT046 23/23 A3004 RMK
     AO2=
KUGN 080752Z AUTO 00000KT 8SM -RA SCT032 BKN090 OVC110 23/21 A3002
     RMK AO2 TSB0658E13 SLP152 P0015 T02280211=
KVTN 080752Z AUTO 20005KT 10SM BKN120 16/15 A3023 RMK AO2 SLP223
     T01610150=
####018000080####
SACN91 KWBC 080754
METAR CWIX 080700Z AUTO 36002KT 21/21 RMK AO1 T02070205=
####018000484####
SAFI31 EFHK 080750
METAR EFHK 080750Z 32007KT 280V350 9999 FEW025 BKN200 26/18 Q1014
NOSIG=
EFJY 080750Z 36001KT 9999 BKN014 20/17 Q1015=
METAR EFKU 080750Z AUTO VRB03KT 9999NDV BKN014 
21/17 Q1015=
EFOU 080750Z 31004KT 270V360 9999 FEW018 18/12 Q1016=
METAR EFRO 080750Z AUTO 23004KT 130V320 CAVOK 17/11
 Q1017=
EFTP 080750Z 34003KT 9999 FEW040 23/15 Q1015=
METAR EFTU 080750Z AUTO 36005KT 300V050 CAVOK 23/10 Q1016=
EFVA 080750Z 16002KT 9999 FEW020 BKN200 21/12 Q1015=
####018000118####
SAKA31 PTKK 080800
METAR PTKK 080752Z 06008KT 15SM FEW012 BKN120 OVC280 25/23 A2981 RMK
 RAE40 SLP098 T02530232=
####018000088####
SAQB31 LQSM 080800
METAR LQSA 080800Z 30004KT 230V010 9999 SCT050 18/11 Q1023 NOSIG=
####018000522####
SADL31 EDZO 080750
METAR EDDF 080750Z 03004KT CAVOK 24/11 Q1021 NOSIG=
METAR EDDH 080750Z 16005KT CAVOK 24/13 Q1019 NOSIG=
METAR EDDK 080750Z 17006KT CAVOK 25/12 Q1020 NOSIG=
METAR EDDL 080750Z 20006KT 160V220 CAVOK 25/11 Q1019 NOSIG=
METAR EDDM 080750Z 08007KT CAVOK 20/11 Q1023 NOSIG=
METAR EDDN 080750Z 13004KT CAVOK 22/09 Q1023 NOSIG=
METAR EDDS 080750Z 15004KT CAVOK 23/08 Q1022 NOSIG=
METAR EDDT 080750Z 14004KT 110V210 CAVOK 24/07 Q1022 NOSIG=
METAR EDDV 080750Z 18004KT 130V210 CAVOK 25/11 Q1020 NOSIG=
####018000233####
SAPQ50 KWBC 080800
METAR
PGWT 080751Z 11010KT 7SM FEW015 SCT100 29/24 A2986=
PGWT 080751Z 11010KT 7SM FEW015 SCT100 29/24 A2986=
PTKK 080752Z 06008KT 15SM FEW012 BKN120 OVC280 25/23 A2981 RMK
     RAE40 SLP098 T02530232=
####018000074####
SABZ21 SBFN 080800
METAR SBFN 080800Z 12004KT 9999 SCT017 25/22 Q1013=
####018000400####
SADL32 EDZO 080750
METAR EDDB 080750Z 22003KT CAVOK 22/08 Q1022 NOSIG=
METAR EDDC 080750Z VRB02KT CAVOK 21/10 Q1023 NOSIG=
METAR EDDE 080750Z VRB02KT CAVOK 22/10 Q1022 NOSIG=
METAR EDDG 080750Z 16004KT CAVOK 24/12 Q1019 NOSIG=
METAR EDDP 080750Z 21004KT CAVOK 22/12 Q1022 NOSIG=
METAR EDDR 080750Z 08004KT CAVOK 23/12 Q1021 NOSIG=
METAR EDDW 080750Z 19004KT 170V230 CAVOK 25/11 Q1019 NOSIG=
####018000182####
SADN33 EKCH 080750
METAR EKKA 080750Z 20008KT 9999 FEW022TCU BKN060 20/14 Q1017
TEMPO 6000 SHRA SCT020CB=
METAR EKSP 080750Z 18008KT CAVOK 21/13 Q1018 NOSIG RMK FEW050
BKN090=
####018000408####
SPXX60 KWBC 080754
SPECI
KAFF 080747Z AUTO 00000KT 10SM FEW011 BKN019 13/12 A3041 RMK AO2
     CIG 016V022 SLP209=
KFFO 080737Z 00000KT 9SM R23R/5500VP6000FT CLR 22/20 A3007 RMK
     AO2A SLP178=
KVOK 080747Z 00000KT 8SM R27/5000VP6000FT SCT013 BKN019 22/22
     A3000 RMK AO2A SLP154=
KVOK 080749Z 00000KT 8SM R27/5000VP6000FT BKN013 BKN019 22/22
     A3000 RMK AO2A CIG 010V016 SLP154=
####018000332####
SAXX60 KWBC 080800
METAR
PWAK 080751Z 08013KT 7SM HZ CLR 28/24 A2997 RMK AO2A=
KNFW 080752Z AUTO 14010KT 10SM OVC024 27/22 A3003 RMK AO2 SLP151
     T02670222=
KNHK 080752Z AUTO 10006KT 5SM HZ FEW120 27/23 A2997 RMK AO2 SLP148
     T02720233=
PATC 080755Z AUTO 00000KT 10SM CLR 11/07 A3016 RMK AO1
     T01110067=
####018003681####
SAUS80 KWBC 080800
METAR
KSAN 080751Z 30004KT 10SM OVC013 17/13 A2992 RMK AO2 SLP132
     T01720133 401890150=
KP58 080751Z AUTO 23004KT 24/21 A3000 RMK AO2 SLP149 T02390211
     PWINO TSNO=
KSAD 080751Z AUTO 1605KT 10SM CLR 25/13 A2998 RMK AO2 SLP088
     T02500133 TSNO=
KVCT 080751Z AUTO 05008KT 9SM TS BKN050 26/25 A2989 RMK AO2
     TSB07E23B44 SLP118 T02560250=
KGDP 080751Z AUTO 06018G23KT 9SM -RA OVC008 18/17 A3022 RMK AO2
     RAB38 CIG 006V010 SLP154 P0001 T01780167 TSNO=
KCON 080751Z AUTO 00000KT 6SM BR SCT050 OVC085 23/21 A3005 RMK AO2
     SLP172 T02280211=
KORF 080751Z 00000KT 4SM BR CLR 26/24 A2995 RMK AO2 SLP142
     T02560244=
KSMX 080751Z AUTO 00000KT 10SM OVC011 13/11 A2992 RMK AO2 SLP134
     T01280106 401940100 TSNO $=
KABE 080751Z 00000KT 7SM CLR 23/20 A3001 RMK AO2 SLP159
     T02280200=
KSNT 080751Z AUTO 00000KT 05/M01 A3029 RMK AO2 SLP181 T00501006
     PWINO TSNO=
KALB 080751Z 23003KT 6SM HZ CLR 24/21 A3002 RMK AO2 SLP162
     T02390206=
KBDL 080751Z 16007KT 6SM HZ BKN080 24/21 A3002 RMK AO2 SLP165
     T02440211=
KBKW 080751Z AUTO 00000KT 4SM BR CLR 20/18 A3016 RMK AO2 SLP173
     T02000178 VISNO RWY19 $=
KEKN 080751Z AUTO 00000KT 2 1/2SM BR FEW085 17/17 A3015 RMK AO2
     SLP196 T01720167 TSNO=
KELP 080751Z 01015KT 10SM FEW060 SCT080 BKN110 23/15 A3011 RMK AO2
     SLP120 T02280150=
KHTS 080751Z 00000KT 2 1/2SM BR CLR 22/21 A3007 RMK AO2 SLP173
     T02220206=
KIZA 080749Z AUTO 00000KT 10SM OVC009 14/11 A2991 RMK AO2=
KMYL 080751Z AUTO 00000KT 10SM CLR 12/06 A3017 RMK AO2 SLP181
     T01170061=
KOXR 080751Z AUTO 29007KT 10SM OVC013 16/12 A2991 RMK AO2 SLP128
     T01560122 401890150 $=
KPTS 080750Z AUTO 00000KT 10SM SCT047 22/22 A3003 RMK AO2
     T02200221=
KROW 080751Z AUTO 35007KT 10SM SCT080 BKN090 BKN120 21/16 A3017
     RMK AO2 SLP151 T02060156 TSNO=
KTEB 080751Z 00000KT 5SM HZ CLR 26/22 A3000 RMK AO2 SLP159
     T02560222=
KYNG 080751Z 11003KT 5SM BR HZ CLR 19/18 A3008 RMK AO2 SLP176
     T01940178=
KHSE 080751Z AUTO 05004KT 10SM BKN110 25/23 A2991 RMK AO2 SLP129
     T02500228 TSNO=
KP59 080751Z AUTO 24008KT 19/18 A2994 RMK AO2 SLP131 T01890178
     PWINO TSNO=
KCRP 080751Z 08006G14KT 9SM RA FEW010 SCT025 BKN080 26/24 A2984
     RMK AO2 RAE0652B43 SLP102 P0013 T02560244=
KATT 080751Z AUTO VRB03KT 10SM FEW011 BKN022 OVC038 26/23 A2996
     RMK AO2 RAB0655E22 SLP131 P0000 T02560233 $=
KNYC 080751Z AUTO 00000KT 6SM HZ BKN110 26/23 A3004 RMK AO2 SLP162
     T02560228 TSNO=
KCAK 080751Z 00000KT 7SM CLR 22/17 A3009 RMK AO2 SLP177
     T02170172=
KCBE 080752Z AUTO 00000KT 7SM CLR 22/18 A3010 RMK AO1=
KESN 080757Z AUTO 00000KT 5SM BR CLR 23/23 A3002 RMK AO2=
KCID 080752Z AUTO 33004KT 10SM CLR 20/19 A3001 RMK AO2 SLP158
     T02000194=
KCNU 080752Z AUTO 31005KT 10SM FEW075 21/19 A3006 RMK AO2 SLP168
     T02110194=
KMHK 080752Z AUTO 02003KT 10SM SCT120 22/20 A3008 RMK AO2 SLP177
     T02170200=
KSPS 080752Z 06005KT 10SM CLR 23/22 A3001 RMK AO2 SLP148
     T02330217=
KVTN 080752Z AUTO 20005KT 10SM BKN120 16/15 A3023 RMK AO2 SLP223
     T01610150=
KBLU 080752Z AUTO 00000KT 10SM CLR 21/10 A3010 RMK AO2 SLP089
     T02060100 402440167 TSNO=
KMLF 080752Z AUTO 27006KT 10SM CLR 13/01 A3009 RMK AO2 SLP127
     T01330011 TSNO=
KN60 080752Z AUTO 29007KT 14/12 A3010 RMK AO1 SLP189 T01440117=
KP69 080752Z AUTO 35003KT 13/11 A3008 RMK AO2 SLP166 T01330111
     403440100 PWINO TSNO $=
KABI 080752Z 11005KT 10SM CLR 22/21 A3003 RMK AO2 SLP140 T02220211
     $=
KSDB 080752Z AUTO 33010KT 10SM CLR 19/02 A3004 RMK AO2 SLP115
     T01890022 TSNO $=
####018000215####
SADN34 EKCH 080750
METAR EKGF 080750Z 20014KT CAVOK 16/16 Q1016=
METAR EKHN 080750Z AUTO 19012KT 9999NDV -SHRA  BKN038/// 18/14
Q1018=
METAR EKHR 080750Z AUTO 20012KT 9999NDV FEW043/// BKN049///
19/15 Q1017=
####018003664####
SAUS70 KWBC 080800
METAR
PAWI 080750Z 22013KT 10SM CLR 07/04 A3002 RMK VIA PHONE=
KJCT 080751Z AUTO 00000KT 8SM CLR 22/21 A3000 RMK AO2 SLP121
     T02220211 TSNO=
K1F0 080747Z AUTO 00000KT 10SM OVC034 24/24 A3000 RMK AO2=
K4O4 080748Z AUTO 00000KT 10SM SCT001 BKN013 23/22 A3004 RMK
     AO2=
KACT 080751Z 11003KT 10SM FEW016 26/23 A2998 RMK AO2 SLP142
     T02610233=
KADH 080750Z AUTO 00000KT 5SM BR OVC004 23/22 A3003 RMK AO2=
KADM 080750Z AUTO 35003KT 7SM OVC035 23/23 A3001 RMK AO2=
KAHN 080751Z AUTO 00000KT 8SM CLR 22/20 A3003 RMK AO2 SLP160
     T02220200 $=
KALM 080750Z AUTO 32008KT 10SM FEW075 FEW085 20/14 A3015 RMK
     AO2=
KASH 080751Z 14003KT 8SM FEW055 24/22 A3005 RMK AO2 T02440222
     SLP176=
KATS 080750Z AUTO 36011KT 10SM FEW047 BKN060 BKN090 19/17 A3016
     RMK AO2=
KAVX 080751Z AUTO 28004KT 1 1/4SM BR OVC001 12/12 A2993 RMK AO2
     SLP128 T01170117 401670106 TSNO=
KBAZ 080751Z AUTO 05005KT 10SM BKN016 BKN022 OVC034 25/24 A2993
     RMK AO2 RAB40E49 SLP127 P0000 T02500239=
KBGD 080751Z AUTO 27004KT 10SM -RA BKN075 OVC095 19/18 A3018 RMK
     AO2 LTG DSNT N SLP178 P0006 T01890178=
KCHK 080751Z AUTO 00000KT 10SM BKN021 BKN095 23/23 A3004 RMK
     AO2=
KCLE 080751Z 17003KT 5SM HZ CLR 23/18 A3008 RMK AO2 SLP177
     T02280178 $=
KCMH 080751Z 00000KT 9SM CLR 22/19 A3007 RMK AO2 SLP175 T02220194
     $=
KCQB 080750Z AUTO 06003KT 10SM 23/23 A3003 RMK AO2 TSNO=
KCSG 080751Z 00000KT 10SM CLR 25/20 A3002 RMK AO2 SLP158
     T02500200=
KDAW 080751Z AUTO 00000KT 1 1/4SM BR OVC003 22/21 A3005 RMK AO2
     SLP171 T02170206 $=
KDUC 080752Z AUTO 00000KT 10SM CLR 23/22 A3003 RMK AO2=
KERI 080751Z 00000KT 8SM CLR 22/18 A3006 RMK AO2 SLP173
     T02220183=
KEWR 080751Z 00000KT 6SM BR FEW006 BKN110 BKN250 26/25 A3001 RMK
     AO2 SLP161 T02560250=
KGCM 080755Z AUTO 00000KT 10SM -RA SCT002 SCT007 OVC014 23/23
     A3004 RMK AO2 LTG DSNT SW P0005=
KGMJ 080754Z AUTO 00000KT BKN065 BKN075 26/26 A3004 RMK AO2 P0002
     PWINO=
KHDO 080751Z AUTO 06006KT 10SM CLR 24/23 A2995 RMK AO2 SLP126
     T02440228=
KIDP 080750Z AUTO 35004KT 10SM BKN032 BKN038 21/20 A3004 RMK
     AO2=
KILG 080751Z AUTO 00000KT 6SM HZ SCT009 25/22 A3001 RMK AO2 SLP160
     T02500222 $=
KJFK 080751Z 12003KT 2SM BR SCT003 BKN010 BKN100 24/23 A3002 RMK
     AO2 SLP164 T02440228 $=
KJSV 080750Z AUTO 00000KT 10SM SCT060 23/23 A3003 RMK AO2 LTG DSNT
     NW=
KJWG 080750Z AUTO 04004KT 10SM SCT036 BKN050 OVC090 23/23 A3009
     RMK AO2=
KLGA 080751Z 00000KT 6SM HZ BKN110 BKN250 27/23 A3000 RMK AO2
     SLP160 T02670228=
KLGU 080751Z AUTO 00000KT 10SM CLR 15/07 A3012 RMK AO2 SLP155
     T01500067=
KLRU 080751Z AUTO 04013KT 10SM CLR 21/14 A3016 RMK AO2=
KMDW 080751Z 33003KT 10SM FEW015 SCT038 BKN090 OVC200 23/22 A3003
     RMK AO2 RAB0654E29 SLP156 P0004 T02330217=
KMPV 080751Z AUTO 00000KT 4SM BR CLR 21/19 A3010 RMK AO2 SLP184
     T02060194=
KOKM 080751Z AUTO 07003KT 10SM VCTS OVC015 24/24 A3001 RMK AO1=
KORD 080751Z 00000KT 10SM -RA FEW008 SCT065 OVC100 23/22 A3003 RMK
     AO2 TSE0658 SLP163 P0003 T02280217=
KPHX 080751Z 00000KT 10SM FEW120 33/03 A2975 RMK AO2 SLP052
     T03280028 $=
KPIT 080751Z 00000KT 7SM CLR 22/18 A3008 RMK AO2 SLP180
     T02170183=
KPWM 080751Z AUTO 17004KT 9SM OVC006 21/19 A3006 RMK AO2 SLP178
     T02110194 $=
KRDU 080751Z 00000KT 7SM FEW090 25/18 A2996 RMK AO2 SLP139
     T02500183 $=
KSJT 080751Z AUTO 00000KT 10SM CLR 22/20 A3001 RMK AO2 RAE0655
     SLP137 P0000 T02170200=
KSLK 080751Z AUTO 00000KT 3SM BR CLR 18/17 A3008 RMK AO2 SLP176
     T01780167=
####018000171####
SAAW31 KWBC 080730 RRA
METAR
LLBG 080750Z 26005KT 9999 FEW030 30/20 Q1009 NOSIG=
LLET 080750Z 03013KT CAVOK 35/12 Q1007=
LLOV 080750Z 01005KT CAVOK 30/11 Q1011=
####018000137####
SAYE20 OYAA 080800
METAR OYAA 080800Z 21013KT 7000 FEW018 33/22 Q1004=
METAR OYSQ 080800Z 21045G55KT 8000 FEW018 SCT200 32/24 Q1007=
####018000072####
SADN31 EKCH 080750 RRB
METAR EKRK 080753Z 17010KT CAVOK 23/13 Q1020=
####018000072####
SADN31 EKCH 080750 RRA
METAR EKRK 080753Z 17010KT CAVOK 23/13 Q1020=
####018000170####
SADR31 MDSD 080800
METAR
MDST 080800Z 13004KT 9999 FEW016 23/22 Q1014=
MDPC 080800Z 00000KT 9999 FEW018 24/22 Q1012=
MDSD 080800Z 00000KT 9999 FEW018 24/23 Q1014==
####018000129####
SPAF31 KWBC 080754
SPECI
DIAP 080741Z 00000KT 6000 FEW005 BKN012 BKN080 26/25 Q1015 TEMPO
5000 -RA BKN005 BKN012 OVC080=
####018000096####
SAGU31 MGGT 080800
METAR
MGGT  080800Z  20006KT 9999 FEW015 OVC100 17/13 Q1022 A3018 NOSIG=
####018000089####
SAFK41 EGYP 080750
METAR EGYP 080750Z 01020KT 7000 -RA SCT010 OVC050 05/03 Q0998 GRN=
####018000557####
SPUS70 KWBC 080754
SPECI
KDFW 080751Z 16006KT 10SM SCT019 BKN090 26/23 A2999 RMK AO2=
KTXK 080751Z AUTO 00000KT 6SM BR BKN003 23/23 A3003 RMK AO2 CIG
     001V007=
KGAG 080751Z AUTO 04007KT 10SM FEW020 BKN028 22/19 A3013 RMK AO2
     RAB08E19 P0000=
KHZY 080751Z AUTO 00000KT 3SM BR CLR 19/18 A3008 RMK AO2=
KMIV 080751Z AUTO 08003KT 2SM BR OVC002 24/23 A2999 RMK AO2=
KUUU 080751Z AUTO 14005KT 1 3/4SM BR OVC002 21/21 A3006 RMK AO2
     CIG 001V004=
KVIH 080751Z AUTO 00000KT 4SM BR SCT002 SCT006 BKN049 23/22 A3004
     RMK AO2=
####018002311####
SAUS70 KWBC 080800 RRB
METAR
KLWC 080752Z AUTO 31005KT 10SM FEW008 BKN027 OVC110 22/21 A3007
     RMK AO2 LTG DSNT NE CIG 022V038 SLP176 T02170206=
KMDH 080752Z AUTO 00000KT 10SM FEW080 24/22 A3005 RMK AO2 SLP169
     T02390222=
KMEB 080752Z AUTO 31005KT 10SM CLR 24/17 A2995 RMK AO2 SLP139
     T02440172=
KMKE 080752Z 20006KT 10SM SCT060 BKN090 OVC200 24/21 A3001 RMK AO2
     RAE0655 SLP159 P0000 T02390211=
KMLI 080752Z 00000KT 10SM CLR 23/22 A3001 RMK AO2 SLP158 T02280217
     $=
KMWH 080752Z AUTO 01007KT 10SM CLR 18/07 A3000 RMK AO2 SLP152
     T01830067 403390117=
KOJA 080750Z AUTO 01004KT 10SM CLR 22/22 A3008 RMK AO2=
KOKB 080752Z AUTO 30004KT 9SM OVC014 18/14 A2990 RMK AO2 SLP126
     T01780139 402110161=
KOMA 080752Z 34010KT 10SM FEW019 SCT130 21/19 A3011 RMK AO2 SLP189
     T02060189=
KONP 080750Z AUTO 21011KT 5SM BR OVC002 11/10 A2999 RMK AO1=
KORS 080750Z AUTO 10SM CLR 17/13 A2994 RMK AO2=
KOUN 080752Z AUTO 01004KT 10SM BKN020 24/23 A3004 RMK AO2=
KPLU 080750Z AUTO 00000KT 10SM FEW031 FEW042 16/13 A2993 RMK
     AO2=
KPPF 080752Z AUTO 00000KT 10SM CLR 22/21 A3006 RMK AO2 SLP168
     T02170206=
KPVJ 080747Z AUTO 00000KT 10SM SCT009 BKN012 OVC026 25/24 A3003
     RMK AO2=
KPWK 080752Z AUTO 00000KT 10SM SCT065 OVC100 23/21 A3004 RMK AO2
     RAE50 SLP168 P0004 T02280211=
KRKR 080752Z AUTO 00000KT 10SM OVC028 26/24 A3003 RMK AO2=
KSGF 080752Z 00000KT 10SM FEW023 23/22 A3005 RMK AO2 SLP161
     T02330222=
KSNL 080752Z AUTO 36003KT 10SM BKN007 OVC011 25/24 A3004 RMK AO2
     LTG DSNT NE=
KSPI 080752Z AUTO 00000KT 10SM -RA FEW027 SCT055 BKN100 24/23
     A3005 RMK AO2 TSB16E44 SLP168 P0005 T02390228=
KSRE 080750Z AUTO 00000KT 7SM 24/24 A3002 RMK AO2 LTG DSNT NE=
KSUX 080752Z 35003KT 10SM CLR 18/16 A3014 RMK AO2 SLP201
     T01780161=
KSVC 080750Z AUTO 05009KT 5SM RA FEW001 SCT023 BKN037 16/14 A3023
     RMK AO2 P0010=
KTMK 080753Z AUTO 17003KT 10SM OVC006 13/12 A2995 RMK AO2=
KTQH 080754Z AUTO 00000KT 7SM SCT024 SCT040 SCT046 23/23 A3004 RMK
     AO2=
KUGN 080752Z AUTO 00000KT 8SM -RA SCT032 BKN090 OVC110 23/21 A3002
     RMK AO2 TSB0658E13 SLP152 P0015 T02280211=
KMTN 080754Z AUTO 00000KT 7SM CLR 26/24 A2999 RMK AO2=
KW29 080752Z AUTO 00000KT 7SM CLR 25/22 A2998 RMK AO1=
####018000441####
SADL33 KWBC 080745 RRA
METAR
EDDB 080750Z 22003KT CAVOK 22/08 Q1022 NOSIG=
EDDC 080750Z VRB02KT CAVOK 21/10 Q1023 NOSIG=
EDDG 080750Z 16004KT CAVOK 24/12 Q1019 NOSIG=
EDDP 080750Z 21004KT CAVOK 22/12 Q1022 NOSIG=
EDDR 080750Z 08004KT CAVOK 23/12 Q1021 NOSIG=
EDDT 080750Z 14004KT 110V210 CAVOK 24/07 Q1022 NOSIG=
EDDV 080750Z 18004KT 130V210 CAVOK 25/11 Q1020 NOSIG=
EDDW 080750Z 19004KT 170V230 CAVOK 25/11 Q1019 NOSIG=
####018000610####
SASN31 ESWI 080750
METAR ESGG 080750Z 21014KT 9999 BKN036 19/13 Q1018=
METAR ESGJ 080750Z AUTO 22011KT 9999NDV ////// 19/12 Q1019=
METAR ESGP 080750Z 19016KT 9999 OVC039 19/15 Q1018=
METAR ESGT 080750Z 20009KT 9999 FEW030 BKN040 19/13 Q1017=
METAR ESMK 080750Z 22005KT 170V270 CAVOK 23/13 Q1020=
METAR ESMQ 080750Z 16006KT CAVOK 22/13 Q1020=
METAR ESMS 080750Z 18010KT CAVOK 22/12 Q1021=
METAR ESMT 080750Z 17010KT CAVOK 20/14 Q1020=
METAR ESMX 080750Z 23006KT 190V290 CAVOK 21/11 Q1020=
METAR ESTA 080750Z 17009KT CAVOK 19/14 Q1020=
METAR ESTL 080750Z AUTO 21012KT 9999NDV FEW069/// 22/13 Q1020=
####018003666####
SAUS70 KWBC 080800 RRA
METAR
KSMO 080751Z AUTO 00000KT 10SM OVC011 17/13 A2991 RMK AO2 SLP128
     T01670128 401890150=
KSTL 080751Z 24004KT 10SM FEW039 SCT049TCU SCT075 BKN150 BKN250
     27/23 A3004 RMK AO2 RAB0653E51 SLP158 OCNL LTGICCG DSNT W CB
     DSNT W MOV NE TCU NE-E VCSH NE P0000 T02670228=
KVNY 080751Z AUTO 00000KT 7SM OVC008 16/13 A2991 RMK AO2 SLP122
     T01560133 402560144=
K2G4 080750Z AUTO 00000KT 10SM SCT070 23/13 A3019 RMK AO1=
K2W6 080752Z AUTO 00000KT 7SM CLR 23/22 A2999 RMK AO1=
KCGS 080755Z AUTO 00000KT 7SM CLR 27/23 A2998 RMK AO1=
KFDK 080749Z AUTO 00000KT 5SM HZ SCT090 24/22 A3002 RMK AO2=
KWDG 080750Z AUTO 03005KT 10SM SCT048 22/22 A3009 RMK AO2 LTG DSNT
     E=
KWWR 080749Z AUTO 03009KT 10SM CLR 22/21 A3015 RMK AO2
     T02230206=
K36U 080756Z AUTO 00000KT 10SM CLR 12/05 A3019 RMK AO2=
KAFK 080750Z AUTO 34007KT 7SM CLR 21/19 A3010 RMK AO2
     T02050193=
KANW 080750Z AUTO 27003KT 10SM OVC110 17/15 A3023 RMK AO2
     T01700147=
KARR 080752Z AUTO 00000KT 5SM -RA BR FEW110 23/22 A3004 RMK AO2
     RAE0657B14 SLP165 P0000 T02280217 $=
KATL 080752Z 32006KT 10SM CLR 24/20 A3004 RMK AO2 SLP161
     T02440200=
KAUH 080750Z AUTO 34005KT 10SM CLR 16/15 A3018 RMK AO2
     T01600150=
KAUN 080750Z AUTO 08004KT 10SM CLR 21/13 A2988 RMK AO1=
KAXS 080750Z AUTO 36004KT 10SM SCT036 24/22 A3006 RMK AO2
     T02350215=
KAXX 080750Z AUTO 00000KT 10SM CLR 06/05 A3047 RMK AO2=
KBIE 080750Z AUTO 36006KT 10SM CLR 20/19 A3012 RMK AO2
     T01970185=
KBIS 080752Z AUTO 22004KT 10SM CLR 13/10 A3013 RMK AO2 SLP197
     T01330100=
KBLH 080752Z AUTO 21003KT 10SM CLR 31/03 A2971 RMK AO2 SLP052
     T03110028 404170222=
KBTA 080750Z AUTO 35008KT 10SM OVC023 20/17 A3012 RMK AO2
     T01980172=
KBVN 080750Z AUTO 00000KT 10SM BKN090 16/15 A3018 RMK AO2
     T01560145=
KBVS 080750Z AUTO 04007KT 10SM CLR 21/16 A2996 RMK A01 P000=
KCFV 080752Z AUTO 35006KT 10SM BKN100 23/22 A3003 RMK AO2 SLP163
     T02280217=
KCKV 080752Z AUTO 00000KT 9SM CLR 23/22 A3006 RMK AO2 SLP171
     T02330222=
KCLK 080753Z AUTO 01005KT 10SM CLR 22/21 A3007 RMK AO2=
KCLT 080752Z 35008KT 10SM CLR 24/18 A3001 RMK AO2 SLP150
     T02390178=
KCUH 080750Z AUTO 36005KT 10SM SCT016 BKN036 BKN080 24/23 A3003
     RMK AO2=
KDCA 080752Z 04004KT 7SM FEW080 SCT250 28/22 A2998 RMK AO2 SLP150
     T02830217=
KDDC 080752Z AUTO 03006KT 8SM FEW009 18/17 A3016 RMK AO2 SLP191
     T01830172=
KDPA 080752Z 00000KT 6SM -RA BR FEW080 OVC100 23/22 A3003 RMK AO2
     SLP164 P0000 T02280217=
KDUA 080757Z AUTO 16006KT 10SM SCT070 BKN080 25/23 A3001 RMK
     AO2=
KDVN 080752Z AUTO 00000KT 3SM BR FEW007 SCT023 22/21 A3001 RMK AO2
     SLP159 T02220211=
KDVO 080750Z AUTO 00000KT 10SM OVC012 12/12 A2994 RMK AO2=
KEST 080752Z AUTO 31005KT 10SM CLR 17/15 A3012 RMK AO2 SLP195
     T01670150=
KFET 080750Z AUTO 34004KT 10SM CLR 18/17 A3013 RMK AO2=
KGCD 080750Z AUTO 12008KT 10SM CLR 18/04 A3010 RMK AO2 T01770043
     403070096=
KGLS 080752Z AUTO 11016G21KT 10SM SCT026 BKN033 28/24 A2991 RMK
     AO2 SLP129 T02830239=
KHRL 080752Z AUTO 02005KT 4SM -RA BR FEW006 BKN024 OVC047 26/26
     A2979 RMK AO2 RAB38 SLP088 P0002 T02610261=
KHUT 080752Z AUTO 28004KT 10SM CLR 21/20 A3012 RMK AO2 SLP176
     T02110200=
KIAD 080752Z 34004KT 7SM SCT100 28/19 A2999 RMK AO2 SLP151
     T02780189=
KIOW 080752Z AUTO 34004KT 10SM BKN005 BKN009 22/22 A3002 RMK AO2
     CIG 005V008 SLP162 T02220217=
KISN 080752Z 00000KT 10SM BKN095 OVC120 15/12 A3012 RMK AO2 SLP194
     T01500117=
KLAM 080750Z AUTO 00000KT 10SM CLR 15/09 A3037 RMK AO2=
####018000085####
SAQB31 LQMO 080800
METAR LQMO 080800Z 36010G20KT 310V040 9999 FEW045 25/08 Q1018=
####018000443####
SADN31 EKCH 080750
METAR EKCH 080750Z 18011KT CAVOK 21/15 Q1020 NOSIG=
METAR EKBI 080750Z 19005KT 150V220 9999 FEW038 BKN047 20/15
Q1018=
METAR EKYT 080750Z 23009KT 9999 BKN032 20/14 Q1017 NOSIG=
METAR EKRK 080750Z NIL=
METAR EKAH 080750Z AUTO 18009KT 130V250 9999NDV FEW039/// FEW088///
21/14 Q1018=
METAR EKEB 080750Z AUTO 21011KT 9999NDV BKN042/// BKN069///
21/14 Q1017=
METAR EKRN 080750Z AUTO 22003KT 9999NDV NCD 19/16 Q1022=
####018000552####
SAAS31 KWBC 080730 RRC
METAR
VAAH 080740Z 16006KT 4000 HZ SCT018 SCT025 31/25 Q1005 NOSIG=
VABB 080740Z 13006KT 2500 HZ SCT012 SCT018 FEW030CB OVC080 27/25
     Q1008 TEMPO 1500 SHRA=
VANP 080740Z 22005KT 4000 HZ FEW010 SCT015 FEW030CB BKN080 27/26
     Q1006 NOSIG CB TO S=
VOHY 080740Z 27009KT 5000 -DZ SCT015 SCT025 BKN080 25/20 Q1012
     NOSIG=
VOMM 080740Z 12005KT 2000 -DZ SCT018 OVC080 28/26 Q1010 NOSIG=
VOTR 080740Z 29003KT 6000 SCT020 OVC100 32/23 Q1009=
VOTV 080740Z 31007KT 5000 HZ FEW015 BKN200 28/24 Q1009 NOSIG=
####018000120####
SAUS80 KWBC 080800 CCA
METAR
KSAD 080751Z AUTO 16005KT 10SM CLR 25/13 A2998 RMK AO2 SLP088
     T02500133 TSNO=
####018000084####
SPUS31 KWBC 080754
SPECI
KDFW 080751Z 16006KT 10SM SCT019 BKN090 26/23 A2999=
####018000089####
SASP31 KWBC 080730 RRA
METAR
LEGR 080730Z 03003KT 340V070 9999 SCT060 27/12 Q1018=
####018002148####
SAUS20 KNKA 080753
METAR KMAF 080753Z AUTO 03004KT 10SM OVC110 22/20 A3008 RMK AO2 
    SLP138 T02170200=
METAR KMEZ 080755Z AUTO 20003KT 10SM BKN016 BKN022 26/23 A3006 RMK 
     AO2=
METAR KMFD 080752Z AUTO 00000KT 7SM CLR 22/17 A3010 RMK AO2 SLP180 
    T02170172=
METAR KMKO 080753Z AUTO 00000KT 10SM SCT019 BKN055 OVC090 24/23 
    A3002 RMK AO2 SLP158 T02390228=
METAR KMLC 080753Z AUTO 13004KT 10SM BKN060 OVC080 24/23 A3002 RMK 
    AO2 SLP156 T02390228=
METAR KMYR 080755Z AUTO 29008KT 10SM BKN100 BKN120 26/20 A2996 RMK 
    AO1=
METAR KOAJ 080755Z AUTO 00000KT 10SM CLR 23/22 A2992 RMK AO1=
METAR KOCF 080755Z AUTO 00000KT 7SM CLR 21/20 A3001 RMK AO1=
METAR KOGB 080753Z AUTO 31005KT 10SM CLR 25/19 A2998 RMK AO2 SLP150 
    T02500189=
METAR KOKC 080752Z 36004KT 10SM SCT150 24/22 A3004 RMK AO2 SLP156 
    T02390222=
METAR KORE 080752Z AUTO 00000KT 8SM FEW070 24/22 A3005 RMK AO2 
    SLP170 T02390217=
METAR KPSO 080755Z AUTO 00000KT 10SM BKN100 12/07 A3038 RMK AO2=
METAR KPWA 080753Z 36006KT 9SM CLR 23/22 A3004 RMK AO2 SLP156 
    T02330217=
METAR KPYM 080752Z AUTO 15003KT 6SM BR SCT003 BKN006 22/19 A3007 RMK 
    AO2 SLP182 T02170194=
METAR KRAP 080752Z AUTO 29005KT 10SM CLR 10/09 A3024 RMK AO2 SLP231 
    T01000089=
METAR KRBD 080753Z 16005KT 10SM OVC012 26/23 A3000 RMK AO2 SLP147 
    T02560228=
METAR KSOP 080755Z AUTO 32003KT 10SM CLR 25/17 A2996 RMK AO1=
METAR KSSI 080753Z AUTO 24005KT 10SM CLR 23/22 A2999 RMK AO2 SLP157 
    T02330217=
METAR KTAN 080752Z AUTO 14003KT 10SM BKN027 22/21 A3004 RMK AO2 
    SLP172 T02170206=
METAR KTOL 080752Z 00000KT 10SM CLR 22/18 A3004 RMK AO2 SLP167 
    T02170178=
METAR KTRL 080753Z AUTO 13003KT 10SM CLR 27/22 A3000 RMK AO2 SLP153 
    T02670222=
METAR KTRM 080752Z AUTO 34008KT 10SM CLR 26/12 A2968 RMK AO2 SLP052 
    T02610122 404000211=
METAR KTXK 080753Z AUTO 00000KT 6SM BR BKN003 23/23 A3003 RMK AO2 
    CIG 001V007 SLP162 T02330233=
METAR KTYR 080753Z AUTO 13005KT 10SM BKN006 24/24 A3002 RMK AO2 
    SLP156 T02440239=
METAR KUDG 080755Z 27004KT 10SM OVC100 27/18 A2997 RMK AO1=
####018002964####
SAUS20 KNKA 080753
METAR KAFN 080752Z AUTO 00000KT 7SM CLR 22/21 A3008 RMK AO2 SLP180 
    T02220211 $=
METAR KAFW 080753Z 15005KT 10SM BKN021 OVC060 27/23 A2999 RMK AO2 
    SLP137 T02670228=
METAR KAIK 080755Z AUTO 00000KT 10SM CLR 23/22 A3004 RMK AO2 PNO=
METAR KALS 080752Z AUTO 04005KT 10SM CLR 08/07 A3039 RMK AO2 SLP216 
    T00780067=
METAR KAQW 080752Z AUTO 00000KT 4SM BR CLR 19/18 A3004 RMK AO2 
    SLP169 T01890183=
METAR KARW 080755Z AUTO 25005KT 10SM CLR 24/18 A2997 RMK AO2=
METAR KBDR 080752Z AUTO 07007KT 3SM BR OVC004 24/22 A3002 RMK AO2 
    SLP166 T02390222=
METAR KBLF 080752Z AUTO 25004KT 5SM HZ CLR 21/18 A3019 RMK AO2 
    SLP175 T02110183=
METAR KBML 080752Z AUTO 00000KT 2SM BR OVC003 19/19 A3009 RMK AO2 
    SLP181 T01940189 $=
METAR KCDS 080753Z AUTO 04004KT 10SM CLR 23/21 A3009 RMK AO2 SLP160 
    T02280206=
METAR KCEW 080753Z AUTO 00000KT 5SM BR CLR 22/22 A3003 RMK AO2 
    SLP166 T02170217=
METAR KCQX 080752Z AUTO 18003KT 1/2SM FG VV001 19/19 A3008 RMK AO2 
    SLP187 T01890189=
METAR KCRS 080753Z AUTO 13005KT 10SM OVC013 26/23 A2998 RMK AO2 
    SLP146 T02560233=
METAR KCUB 080753Z AUTO 00000KT 10SM CLR 25/19 A2999 RMK AO2 SLP152 
    T02500189=
METAR KCVG 080752Z 00000KT 7SM CLR 23/19 A3007 RMK AO2 SLP171 
    T02280189=
METAR KDAL 080753Z 16006KT 10SM BKN017 BKN230 26/23 A3000 RMK AO2 
    SLP150 BKN017 V SCT T02610228=
METAR KDEQ 080753Z AUTO 00000KT 10SM BKN008 OVC013 24/23 A3002 RMK 
    AO2 CIG 007V011 SLP159 T02440233=
METAR KDTN 080753Z AUTO 10003KT 10SM CLR 24/24 A3001 RMK AO2 SLP158 
    T02440239=
METAR KDTS 080753Z AUTO 00000KT 10SM CLR 26/23 A3001 RMK AO2 SLP160 
    T02560233=
METAR KELD 080753Z AUTO 00000KT 6SM BR CLR 23/23 A3002 RMK AO2 
    SLP162 T02330228=
METAR KFDW 080755Z AUTO 25004KT 10SM CLR 26/18 A3000 RMK AO1=
METAR KFIT 080752Z AUTO 14006KT 6SM BR SCT065 24/22 A3006 RMK AO2 
    SLP176 T02390217=
METAR KFLO 080753Z AUTO 30006KT 10SM FEW095 26/19 A2994 RMK AO2 
    SLP136 T02610189=
METAR KGGG 080753Z AUTO 00000KT 10SM CLR 25/24 A3000 RMK AO2 SLP154 
    T02500244=
METAR KGKY 080753Z AUTO 16005KT 10SM CLR 25/23 A3000 RMK AO2 SLP147 
    T02500228=
METAR KGLY 080755Z AUTO 00000KT 9SM BKN006 OVC010 23/23 A3005 RMK 
     AO2 =
METAR KGNV 080753Z AUTO 00000KT 9SM FEW085 19/18 A3001 RMK AO2 
    SLP160 T01940183=
METAR KGOK 080753Z AUTO 00000KT 9SM BKN027 OVC047 23/22 A3004 RMK 
    AO2 SLP161 T02330222=
METAR KGZH 080753Z AUTO 00000KT 8SM CLR 23/22 A3003 RMK AO2 SLP166 
    T02280217=
METAR KHBR 080753Z AUTO 11003KT 10SM FEW035 SCT046 SCT055 23/22 
    A3007 RMK AO2 SLP164 T02280217=
METAR KHZY 080752Z AUTO 00000KT 3SM BR CLR 19/18 A3008 RMK AO2 
    SLP179 T01890183=
METAR KIEN 080752Z AUTO 00000KT 10SM CLR 11/09 A3026 RMK AO2 SLP236 
    T01060094=
METAR KINK 080753Z AUTO 08007KT 10SM SCT085 23/19 A3005 RMK AO2 
    SLP129 T02280189 TSNO=
####018000088####
SAUS41 KWBC 080700 RRK
METAR
KFDK 080749Z AUTO 00000KT 5SM HZ SCT090 24/22 A3002=
####018000075####
SAIQ01 ORBI 080750
METAR ORBI 080800Z 32008KT CAVOK 40/10 Q1004 NOSIG=
####018000795####
SAUS43 KWBC 080700 RRL
METAR
KC75 080745Z AUTO 16003KT 5SM BR OVC065 24/24 A3003=
KGBG 080745Z AUTO 21005KT 7SM OVC004 23/22 A3001=
KHSB 080745Z AUTO 00000KT 5SM BR CLR 22/21 A3005=
KIGQ 080740Z AUTO 00000KT 7SM SCT043 SCT055 24/22 A3004=
KIJX 080745Z AUTO 00000KT 4SM BR SCT022 SCT032 SCT075 24/23
     A3004=
KIKK 080745Z AUTO 28005KT 4SM RA SCT023 BKN038 BKN050 26/23
     A3005=
KMQB 080745Z AUTO 20005KT 10SM OVC006 23/23 A3004=
KMWA 080745Z AUTO 00000KT 10SM CLR 25/24 A3006=
KSAR 080745Z AUTO 19004KT 10SM SCT055 26/23 A3004=
KSLO 080741Z AUTO 18004KT 10SM CLR 25/21 A3005=
KTAZ 080745Z AUTO 00000KT 10SM CLR 23/23 A3003=
KTIP 080745Z AUTO 00000KT 10SM SCT044 SCT060 SCT075 25/23
     A3005=
KVYS 080745Z AUTO 12005KT 4SM BR SCT055 OVC075 23/22 A3002=
####018000082####
SAUS44 KWBC 080700 RRI
METAR
K11R 080746Z AUTO 06005KT 7SM CLR 25/24 A2994=
####018000123####
SAUS46 KLOX 080754
MTRNZY
METAR KNZY 080752Z 30007KT 10SM OVC015 18/13 A2990 RMK AO2 SLP125 
T01830128 402110167 $
####018000113####
SAUS42 KJAX 080754
MTRNRB
METAR KNRB 080752Z AUTO 00000KT 10SM CLR 24/21 A3000 RMK AO2 SLP159 
T02390206
####018000126####
SAUS46 KPQR 080754
MTRREO
METAR KREO 080752Z AUTO 09004KT 13/M02 A3009 RMK AO2 SLP153 
T01331022 403110039 PWINO TSNO
####018000083####
SAUS52 KWBC 080700 RRJ
METAR
KSEP 080745Z AUTO 00000KT 10SM CLR 23/21 A3001=
####018000084####
SPUS72 KWBC 080754
SPECI
KDFW 080751Z 16006KT 10SM SCT019 BKN090 26/23 A2999=
####018000121####
SAUS53 KWBC 080700 RRN
METAR
KEHA 080748Z AUTO 32003KT 17/16=
KLNC 080745Z AUTO 00000KT 10SM BKN016 24/24 A3000=
####018000084####
SPUS72 KWBC 080754
SPECI
KTXK 080751Z AUTO 00000KT 6SM BR BKN003 23/23 A3003=
####018001704####
SAEU KAWN 080800
METAR EDDB 080750Z 22003KT CAVOK 22/08 Q1022 NOSIG=
METAR EDDC 080750Z VRB02KT CAVOK 21/10 Q1023 NOSIG=
METAR EDDE 080750Z VRB02KT CAVOK 22/10 Q1022 NOSIG=
METAR EDDF 080750Z 03004KT CAVOK 24/11 Q1021 NOSIG=
METAR EDDG 080750Z 16004KT CAVOK 24/12 Q1019 NOSIG=
METAR EDDH 080750Z 16005KT CAVOK 24/13 Q1019 NOSIG=
METAR EDDK 080750Z 17006KT CAVOK 25/12 Q1020 NOSIG=
METAR EDDL 080750Z 20006KT 160V220 CAVOK 25/11 Q1019 NOSIG=
METAR EDDM 080750Z 08007KT CAVOK 20/11 Q1023 NOSIG=
METAR EDDN 080750Z 13004KT CAVOK 22/09 Q1023 NOSIG=
METAR EDDP 080750Z 21004KT CAVOK 22/12 Q1022 NOSIG=
METAR EDDR 080750Z 08004KT CAVOK 23/12 Q1021 NOSIG=
METAR EDDS 080750Z 15004KT CAVOK 23/08 Q1022 NOSIG=
METAR EDDT 080750Z 14004KT 110V210 CAVOK 24/07 Q1022 NOSIG=
METAR EDDV 080750Z 18004KT 130V210 CAVOK 25/11 Q1020 NOSIG=
METAR EDDW 080750Z 19004KT 170V230 CAVOK 25/11 Q1019 NOSIG=
METAR EKVG 080750Z 16009KT 120V200 9999 SCT004 BKN006 BKN010 11/10
      Q0992 RMK/RWY 13/31 CLOSED DUE WIP/ SEE NOTAM E0050/10 WIND
      850FT 17011G21KT 130V230=
METAR ETNG 080750Z 23006KT CAVOK 27/11 Q1020 NOSIG=
METAR GVAC 080800Z 05012KT 9999 SCT014 BKN016 24/19 Q1012 NOSIG=
METAR LMML 080745Z 33005KT 260V020 9000 NSC 26/20 Q1018 BECMG 9999=
METAR LPLA 080800Z 32010KT 7000 -SHRA SCT016 BKN028 20/18 Q1024=
METAR LQSA 080800Z 30004KT 230V010 9999 SCT050 18/11 Q1023 NOSIG=
METAR LQTZ 080800Z 26004KT 9999 FEW030 16/// Q1023=
METAR LSGG 080750Z VRB01KT CAVOK 24/12 Q1022 NOSIG=
METAR LSZA 080750Z 18004KT 150V210 9999 BKN050 24/14 Q1023 NOSIG=
METAR LSZB 080750Z VRB01KT CAVOK 22/14 Q1022 NOSIG=
METAR LSZH 080750Z 33003KT 250V050 CAVOK 21/12 Q1022 NOSIG=
####018000081####
SAAI41 FHAW 080750
METAR
FHAW 080750Z 12012KT 9999 BKN028 25/22 Q1015 BLU=
####018000115####
SAUS43 KFSD 080754
MTR9V9
METAR K9V9 080752Z AUTO 25003KT 17/14 A3018 RMK AO2 SLP212 T01670144 
PWINO TSNO
####018000086####
SAQB31 LQMO 080800
METAR LQMO 080800Z 36010G20KT 310V040 9999 FEW045 25/08 Q1018=
####018000186####
SADN33 EKCH 080750
METAR EKKA 080750Z 20008KT 9999 FEW022TCU BKN060 20/14 Q1017
TEMPO 6000 SHRA SCT020CB=
METAR EKSP 080750Z 18008KT CAVOK 21/13 Q1018 NOSIG RMK FEW050
BKN090=
####018000220####
SADN34 EKCH 080750
METAR EKGF 080750Z 20014KT CAVOK 16/16 Q1016=
METAR EKHN 080750Z AUTO 19012KT 9999NDV -SHRA  BKN038/// 18/14
Q1018=
METAR EKHR 080750Z AUTO 20012KT 9999NDV FEW043/// BKN049///
19/15 Q1017=
####018000453####
SADN31 EKCH 080750
METAR EKCH 080750Z 18011KT CAVOK 21/15 Q1020 NOSIG=
METAR EKBI 080750Z 19005KT 150V220 9999 FEW038 BKN047 20/15
Q1018=
METAR EKYT 080750Z 23009KT 9999 BKN032 20/14 Q1017 NOSIG=
METAR EKRK 080750Z NIL=
METAR EKAH 080750Z AUTO 18009KT 130V250 9999NDV FEW039/// FEW088///
21/14 Q1018=
METAR EKEB 080750Z AUTO 21011KT 9999NDV BKN042/// BKN069///
21/14 Q1017=
METAR EKRN 080750Z AUTO 22003KT 9999NDV NCD 19/16 Q1022=
####018000073####
SADN31 EKCH 080750 RRA
METAR EKRK 080753Z 17010KT CAVOK 23/13 Q1020=
####018000341####
SAGL31 BGSF 080750
METAR BGSF 080750Z 07008KT 9999 FEW060 08/02 Q1009=
METAR BGBW 080750Z 08002KT 9999 SCT068 09/05 Q1009 RMK 3AC =
METAR BGGH 080750Z AUTO 01003KT 9999NDV  OVC003/// 05/03 Q1010=
METAR BGJN 080750Z AUTO 35002KT 0350NDV  FG VV001/// 05/05 Q1010=
METAR BGKK 080750Z 09004KT 030V170 9999 FEW100 BKN160 06/03 Q1008=
####018000073####
SADN31 EKCH 080750 RRB
METAR EKRK 080753Z 17010KT CAVOK 23/13 Q1020=
####018000499####
SAUK32 EGGY 080750
METAR EGAA 080750Z 23012KT 9999 SCT014 14/10 Q1014=
METAR EGAC 080750Z 21011KT 9999 FEW018 SCT024 15/10 Q1013=
METAR EGFF 080750Z 22004KT 180V260 9999 SCT018 16/13 Q1018=
METAR EGGW 080750Z 26007KT 9999 OVC022 16/13 Q1019=
METAR EGLC 080750Z 24006KT 200V270 9999 BKN016 19/14 Q1019=
METAR EGNM 080750Z 23007KT 190V270 9999 FEW010 SCT035 15/11
    Q1016=
METAR EGNX 080750Z 22009KT CAVOK 16/10 Q1017=
METAR EGPD 080750Z 21011KT 170V240 CAVOK 15/09 Q1010 NOSIG=
####018000081####
SADN32 EKCH 080750 RRA
METAR EKVD 080750Z 19006KT 160V220 CAVOK 21/13 Q1018=
####018000487####
SAUK31 EGGY 080750
METAR EGBB 080750Z 23006KT 200V270 9999 FEW024 15/11 Q1018=
METAR EGCC 080750Z 19006KT 160V220 9999 FEW036 16/12 Q1017=
METAR EGKK 080750Z 23005KT 9999 BKN010 18/14 Q1019=
METAR EGLL 080750Z 27008KT 9999 FEW009 BKN011 19/15 Q1019=
METAR EGPF 080750Z 22015KT 9999 FEW030 SCT040 14/10 Q1012=
METAR EGPH 080750Z 22015KT 9999 FEW022 15/09 Q1012=
METAR EGPK 080750Z 23013KT 9999 SCT025 15/10 Q1013=
METAR EGSS 080750Z 24007KT 3700 -DZ BKN006 17/16 Q1019=
####018000109####
SAUS73 KWBC 080700 RRL
METAR
KIKK 080745Z AUTO 28005KT 4SM RA SCT023 BKN038 BKN050 26/23
     A3005=
####018000488####
SARS18 KAWN 080800
METAR EETN 080750Z 31007KT 9999 FEW010 22/18 Q1014 NOSIG=
METAR EETU 080750Z 29004KT 250V020 9999 BKN014 24/20 Q1013=
METAR EFHK 080750Z 32007KT 280V350 9999 FEW025 BKN200 26/18 Q1014 NOSIG=
METAR EVRA 080750Z 32010KT 9999 OVC005 17/17 Q1014 BECMG BKN010 OVC015=
METAR EYKA 080750Z 29007KT 230V010 CAVOK 18/14 Q1015=
METAR EYPA 080750Z 34007KT CAVOK 20/16 Q1018 NOSIG=
METAR EYVI 080750Z 28007KT 260V320 2600 RA BKN005 OVC017 15/14 Q1014
      NOSIG=
####018001697####
SAEW KAWN 080800
METAR EDDB 080750Z 22003KT CAVOK 22/08 Q1022 NOSIG=
METAR EDDC 080750Z VRB02KT CAVOK 21/10 Q1023 NOSIG=
METAR EDDE 080750Z VRB02KT CAVOK 22/10 Q1022 NOSIG=
METAR EDDF 080750Z 03004KT CAVOK 24/11 Q1021 NOSIG=
METAR EDDG 080750Z 16004KT CAVOK 24/12 Q1019 NOSIG=
METAR EDDH 080750Z 16005KT CAVOK 24/13 Q1019 NOSIG=
METAR EDDK 080750Z 17006KT CAVOK 25/12 Q1020 NOSIG=
METAR EDDL 080750Z 20006KT 160V220 CAVOK 25/11 Q1019 NOSIG=
METAR EDDM 080750Z 08007KT CAVOK 20/11 Q1023 NOSIG=
METAR EDDN 080750Z 13004KT CAVOK 22/09 Q1023 NOSIG=
METAR EDDP 080750Z 21004KT CAVOK 22/12 Q1022 NOSIG=
METAR EDDR 080750Z 08004KT CAVOK 23/12 Q1021 NOSIG=
METAR EDDS 080750Z 15004KT CAVOK 23/08 Q1022 NOSIG=
METAR EDDT 080750Z 14004KT 110V210 CAVOK 24/07 Q1022 NOSIG=
METAR EDDV 080750Z 18004KT 130V210 CAVOK 25/11 Q1020 NOSIG=
METAR EDDW 080750Z 19004KT 170V230 CAVOK 25/11 Q1019 NOSIG=
METAR EKAH 080750Z AUTO 18009KT 130V250 9999NDV FEW039/// FEW088///
      21/14 Q1018=
METAR EKKA 080750Z 20008KT 9999 FEW022TCU BKN060 20/14 Q1017 TEMPO
      6000 SHRA SCT020CB=
METAR EKRN 080750Z AUTO 22003KT 9999NDV NCD 19/16 Q1022=
METAR EKSP 080750Z 18008KT CAVOK 21/13 Q1018 NOSIG RMK FEW050 BKN090=
METAR EKVG 080750Z 16009KT 120V200 9999 SCT004 BKN006 BKN010 11/10
      Q0992 RMK/RWY 13/31 CLOSED DUE WIP/ SEE NOTAM E0050/10 WIND
      850FT 17011G21KT 130V230=
METAR ETNG 080750Z 23006KT CAVOK 27/11 Q1020 NOSIG=
METAR LSGG 080750Z VRB01KT CAVOK 24/12 Q1022 NOSIG=
METAR LSZA 080750Z 18004KT 150V210 9999 BKN050 24/14 Q1023 NOSIG=
METAR LSZB 080750Z VRB01KT CAVOK 22/14 Q1022 NOSIG=
METAR LSZH 080750Z 33003KT 250V050 CAVOK 21/12 Q1022 NOSIG=
####018000746####
SAXX70 KAWN 080800 RRB
METAR KQEL 080750Z AUTO 23003KT 7SM CLR 27/19 A2970 RMK A02=
METAR KQEW 080750Z AUTO 01002KT 7SM CLR 27/19 A2981 RMK A02=
METAR KQFB 080750Z AUTO 26001KT 5SM -SHRA OVC045 25/22 A2991 RMK A02=
METAR KQCQ 080755Z 33024G34KT 9999 CLR 46/M03 A2957 RMK SLP010=
METAR KQDD 080755Z AUTO VRB03KT 9999 CLR 29/11 A2994 RMK AO2 SLP136=
METAR KQFS 080755Z AUTO 14007G16KT 9999 FEW044 SCT075 28/18 A2977 RMK
      AO2 SLP078 T02840181 PWINO PNO $=
METAR KQSA 080755Z 34004KT 9999 FEW120 33/13 A3000 RMK SLP343 WND DATA
      ESTMD ALSTG/SLP ESTMD=
METAR KQTU 080755Z 33009KT 9999 CLR 39/05 A2967 RMK SLP027=
METAR KQXJ 080755Z 32018G26KT 3200 BLDU BKN000 45/00 A2958 RMK DU BKN000
      SLP018 PA+337 DA+3826=
####018000293####
SASW32 LSSW 080750
METAR LSGC 080750Z 24007KT 200V290 CAVOK 22/11 Q1024=
METAR LSGS 080750Z VRB02KT CAVOK 24/12 Q1022=
METAR LSZG 080750Z NIL=
METAR LSZR 080750Z VRB02KT CAVOK 20/14 Q1022 NOSIG RMK E=
METAR LSZS 080750Z 13004KT 060V170 CAVOK 17/11 Q1027=
METAR LSZC 080750Z NIL=
####018000079####
SADL41 EGRR 080750
METAR ETUO 080750Z 16004KT CAVOK 25/10 Q1020 BLU NOSIG=
####018000072####
SABZ22 SBBR 080800
METAR SBBR 080800Z 00000KT CAVOK 15/09 Q1022,5 =
####018000129####
SAPY SGAS 080800
METAR SGAS 080800Z 16006KT 9999 BKN010 OVC017 18/16 Q1015=
METAR SGES 080800Z 00000KT CAVOK 17/15  Q1015=
####018000131####
SAPY59 SGAS 080800
METAR SGAS 080800Z 16006KT 9999 BKN010 OVC017 18/16 Q1015=
METAR SGES 080800Z 00000KT CAVOK 17/15  Q1015=
####018000133####
SAIN90 VECC 080720
METAR VECC 080720Z 19009KT 4000 HZ FEW018 SCT025 FEW030CB BKN090
     33/25 Q1006
TEMPO FM0920 1500 TSRA=
####018000200####
SAAK41 KNKA 080754
METAR PATA 080752Z AUTO 00000KT 10SM CLR 16/08 A3005 RMK AO2 SLP176 
    T01610083 TSNO=
METAR PHJR 080753Z VRB04KT 10SM FEW050 24/18 A3005 RMK AO2 SLP180 
    T02390183=
####018001774####
SAEU KAWN 080800 RRA
METAR EGAA 080750Z 23012KT 9999 SCT014 14/10 Q1014=
METAR EGAC 080750Z 21011KT 9999 FEW018 SCT024 15/10 Q1013=
METAR EGBB 080750Z 23006KT 200V270 9999 FEW024 15/11 Q1018=
METAR EGCC 080750Z 19006KT 160V220 9999 FEW036 16/12 Q1017=
METAR EGFF 080750Z 22004KT 180V260 9999 SCT018 16/13 Q1018=
METAR EGGW 080750Z 26007KT 9999 OVC022 16/13 Q1019=
METAR EGKK 080750Z 23005KT 9999 BKN010 18/14 Q1019=
METAR EGLC 080750Z 24006KT 200V270 9999 BKN016 19/14 Q1019=
METAR EGLL 080750Z 27008KT 9999 FEW009 BKN011 19/15 Q1019=
METAR EGNM 080750Z 23007KT 190V270 9999 FEW010 SCT035 15/11 Q1016=
METAR EGNX 080750Z 22009KT CAVOK 16/10 Q1017=
METAR EGPD 080750Z 21011KT 170V240 CAVOK 15/09 Q1010 NOSIG=
METAR EGPF 080750Z 22015KT 9999 FEW030 SCT040 14/10 Q1012=
METAR EGPH 080750Z 22015KT 9999 FEW022 15/09 Q1012=
METAR EGPK 080750Z 23013KT 9999 SCT025 15/10 Q1013=
METAR EGSS 080750Z 24007KT 3700 -DZ BKN006 17/16 Q1019=
METAR EHEH 080755Z AUTO 26004KT 9999NDV NCD 26/13 Q1019 BLU BLU=
METAR EKAH 080750Z AUTO 18009KT 130V250 9999NDV FEW039/// FEW088///
      21/14 Q1018=
METAR EKBI 080750Z 19005KT 150V220 9999 FEW038 BKN047 20/15 Q1018=
METAR EKCH 080750Z 18011KT CAVOK 21/15 Q1020 NOSIG=
METAR EKEB 080750Z AUTO 21011KT 9999NDV BKN042/// BKN069/// 21/14 Q1017=
METAR EKKA 080750Z 20008KT 9999 FEW022TCU BKN060 20/14 Q1017 TEMPO
      6000 SHRA SCT020CB=
METAR EKRK 080753Z 17010KT CAVOK 23/13 Q1020=
METAR EKRN 080750Z AUTO 22003KT 9999NDV NCD 19/16 Q1022=
METAR EKSP 080750Z 18008KT CAVOK 21/13 Q1018 NOSIG RMK FEW050 BKN090=
METAR EKVD 080750Z 19006KT 160V220 CAVOK 21/13 Q1018=
METAR EKYT 080750Z 23009KT 9999 BKN032 20/14 Q1017 NOSIG=
METAR LQMO 080800Z 36010G20KT 310V040 9999 FEW045 25/08 Q1018=
####018001588####
SAZZ40 KAWN 080800 RRA
METAR EFKU 080750Z AUTO VRB03KT 9999NDV BKN014 21/17 Q1015=
METAR EFOU 080750Z 31004KT 270V360 9999 FEW018 18/12 Q1016=
METAR KBLV 080755Z AUTO 00000KT 10SM FEW045 24/24 A3003 RMK AO2 SLP165
      T02410239=
METAR KEGI 080755Z AUTO 00000KT 10SM CLR 23/22 A3002 RMK AO2 SLP166
      T02280223 $=
METAR KHMN 080755Z 35006KT 10SM SCT085 BKN130 OVC150 20/15 A3015 RMK
      AO2A SLP125 T02040148 $=
METAR KLRF 080755Z AUTO 00000KT 10SM SCT160 24/22 A3005 RMK AO2 SLP175
      T02350224=
METAR KMGE 080755Z AUTO 00000KT 10SM CLR 23/19 A3005 RMK AO2 SLP163
      T02300190 $=
METAR KPOB 080755Z AUTO 00000KT 10SM CLR 25/20 A2994 RMK AO2 SLP135
      T02470196 $=
METAR KRDR 080755Z AUTO 24007KT 10SM CLR 13/12 A3004 RMK AO2 SLP181
      T01300122 $=
METAR KSAN 080751Z 30004KT 10SM OVC013 17/13 A2992 RMK AO2 SLP132 T01720133
      401890150=
METAR LLBG 080750Z 26005KT 9999 FEW030 30/20 Q1009 NOSIG=
METAR LLET 080750Z 03013KT CAVOK 35/12 Q1007=
METAR LLOV 080750Z 01005KT CAVOK 30/11 Q1011=
METAR LPLA 080800Z 32010KT 7000 -SHRA SCT016 BKN028 20/18 Q1024=
METAR MDPC 080800Z 00000KT 9999 FEW018 24/22 Q1012=
METAR MDST 080800Z 13004KT 9999 FEW016 23/22 Q1014=
METAR OAFZ 080750Z 36005KT 9999 SKC 37/M00 Q1016 BLU/=
METAR OAMS 080750Z 03005KT 9999 VCPO SKC 40/01 Q1008 BLU/BLU/=
METAR OKBK 080800Z 35016KT CAVOK 45/M04 Q1001 NOSIG=
METAR ORBI 080800Z 32008KT CAVOK 40/10 Q1004 NOSIG=
METAR PWAK 080751Z 08013KT 7SM HZ CLR 28/24 A2997 RMK AO2A=
METAR TJPS 080750Z 04005KT 8SM FEW030 26/23 A2997 RMK HZ ALQDS=
####018000128####
SAUS46 KSEW 080754
MTRUIL
METAR KUIL 080753Z AUTO 00000KT 10SM CLR 16/12 A2993 RMK AO2 SLP135 
T01610117 403330094 TSNO
####018000111####
SAUS42 KCHS 080754
MTRSAV
METAR KSAV 080753Z 26004KT 10SM FEW024 22/19 A2999 RMK AO2 SLP155 
T02170194
####018000118####
SAUS45 KABQ 080754
MTRCQC
METAR KCQC 080753Z AUTO 08005KT 10SM CLR 12/10 A3034 RMK AO2 SLP214 
T01170100 TSNO
####018000117####
SAUS44 KHGX 080754
MTRSGR
METAR KSGR 080753Z AUTO 09004KT 8SM CLR 26/24 A2991 RMK AO2 SLP135 
T02610239 TSNO
####018000108####
SAUS44 KMRX 080754
MTRCHA
METAR KCHA 080753Z 00000KT 10SM CLR 23/19 A3005 RMK AO2 SLP166 
T02280189
####018000118####
SAUS45 KABQ 080754
MTRRTN
METAR KRTN 080753Z AUTO 01004KT 10SM CLR 14/11 A3035 RMK AO2 SLP189 
T01440106 TSNO
####018000112####
SAUS44 KSHV 080754
MTRDNK
METAR KDNK 080753Z AUTO 12003KT 9SM CLR 24/22 A3000 RMK AO2 SLP154 
T02440217
####018000117####
SAUS42 KTAE 080754
MTRCTY
METAR KCTY 080753Z AUTO 00000KT 21/21 A3001 RMK AO2 SLP160 T02110206 
PWINO TSNO $
####018000108####
SAUS43 KFGF 080754
MTRFAR
METAR KFAR 080753Z 21003KT 10SM CLR 16/12 A3006 RMK AO2 SLP178 
T01560122
####018000128####
SAUS46 KPQR 080754
MTRBNO
METAR KBNO 080753Z AUTO 31003KT 10SM CLR 09/02 A3011 RMK AO2 SLP167 
T00940022 402940039 TSNO
####018000113####
SAUS45 KRIW 080754
MTRLND
METAR KLND 080753Z AUTO 00000KT 10SM CLR 11/03 A3031 RMK AO2 SLP217 
T01110033
####018000108####
SAUS44 KMRX 080754
MTRNIP
METAR KNIP 080753Z 25004KT 10SM CLR 23/21 A3001 RMK AO2 SLP158 
T02330211
####018000118####
SAUS45 KFGZ 080754
MTRRQE
METAR KRQE 080753Z AUTO 24003KT 10SM CLR 16/06 A3026 RMK AO2 SLP113 
T01560056 TSNO
####018000115####
SAUS44 KMAF 080754
MTR6R6
METAR K6R6 080753Z AUTO 01006KT 23/20 A3000 RMK AO2 SLP122 T02280200 
PWINO TSNO
####018000121####
SAUS46 KLOX 080754
MTRLAX
METAR KLAX 080753Z 27005KT 10SM OVC014 17/13 A2991 RMK AO2 SLP128 
T01670128 401940156
####018000121####
SAUS45 KPUB 080754
MTRLXV
METAR KLXV 080753Z AUTO 00000KT 10SM OVC033 07/06 A3053 RMK AO2 
SLP180 T00670056 TSNO
####018000108####
SAUS42 KTAE 080754
MTRTLH
METAR KTLH 080753Z 00000KT 10SM CLR 22/21 A3000 RMK AO2 SLP158 
T02220206
####018000131####
SAUS46 KSGX 080754
MTRSDM
METAR KSDM 080753Z AUTO 00000KT 10SM OVC012 17/13 A2991 RMK AO2 
SLP125 T01670128 402000144 TSNO
####018000118####
SAUS41 KAKQ 080754
MTRNUI
METAR KNUI 080753Z AUTO 00000KT 4SM BR FEW120 26/24 A2996 RMK AO2 
SLP145 T02560239
####018003729####
SAUS99 KWBC 080755
METAR
KMAF 080753Z AUTO 03004KT 10SM OVC110 22/20 A3008 RMK AO2 SLP138
     T02170200=
KMEZ 080755Z AUTO 20003KT 10SM BKN016 BKN022 26/23 A3006 RMK
     AO2=
KMFD 080752Z AUTO 00000KT 7SM CLR 22/17 A3010 RMK AO2 SLP180
     T02170172=
KMKO 080753Z AUTO 00000KT 10SM SCT019 BKN055 OVC090 24/23 A3002
     RMK AO2 SLP158 T02390228=
KMLC 080753Z AUTO 13004KT 10SM BKN060 OVC080 24/23 A3002 RMK AO2
     SLP156 T02390228=
KMYR 080755Z AUTO 29008KT 10SM BKN100 BKN120 26/20 A2996 RMK
     AO1=
KOAJ 080755Z AUTO 00000KT 10SM CLR 23/22 A2992 RMK AO1=
KOCF 080755Z AUTO 00000KT 7SM CLR 21/20 A3001 RMK AO1=
KOGB 080753Z AUTO 31005KT 10SM CLR 25/19 A2998 RMK AO2 SLP150
     T02500189=
KOKC 080752Z 36004KT 10SM SCT150 24/22 A3004 RMK AO2 SLP156
     T02390222=
KORE 080752Z AUTO 00000KT 8SM FEW070 24/22 A3005 RMK AO2 SLP170
     T02390217=
KPSO 080755Z AUTO 00000KT 10SM BKN100 12/07 A3038 RMK AO2=
KPWA 080753Z 36006KT 9SM CLR 23/22 A3004 RMK AO2 SLP156
     T02330217=
KPYM 080752Z AUTO 15003KT 6SM BR SCT003 BKN006 22/19 A3007 RMK AO2
     SLP182 T02170194=
KRAP 080752Z AUTO 29005KT 10SM CLR 10/09 A3024 RMK AO2 SLP231
     T01000089=
KRBD 080753Z 16005KT 10SM OVC012 26/23 A3000 RMK AO2 SLP147
     T02560228=
KSOP 080755Z AUTO 32003KT 10SM CLR 25/17 A2996 RMK AO1=
KSSI 080753Z AUTO 24005KT 10SM CLR 23/22 A2999 RMK AO2 SLP157
     T02330217=
KTAN 080752Z AUTO 14003KT 10SM BKN027 22/21 A3004 RMK AO2 SLP172
     T02170206=
KTOL 080752Z 00000KT 10SM CLR 22/18 A3004 RMK AO2 SLP167
     T02170178=
KTRL 080753Z AUTO 13003KT 10SM CLR 27/22 A3000 RMK AO2 SLP153
     T02670222=
KTRM 080752Z AUTO 34008KT 10SM CLR 26/12 A2968 RMK AO2 SLP052
     T02610122 404000211=
KTXK 080753Z AUTO 00000KT 6SM BR BKN003 23/23 A3003 RMK AO2 CIG
     001V007 SLP162 T02330233=
KTYR 080753Z AUTO 13005KT 10SM BKN006 24/24 A3002 RMK AO2 SLP156
     T02440239=
KUDG 080755Z 27004KT 10SM OVC100 27/18 A2997 RMK AO1=
KAFN 080752Z AUTO 00000KT 7SM CLR 22/21 A3008 RMK AO2 SLP180
     T02220211 $=
KAFW 080753Z 15005KT 10SM BKN021 OVC060 27/23 A2999 RMK AO2 SLP137
     T02670228=
KAIK 080755Z AUTO 00000KT 10SM CLR 23/22 A3004 RMK AO2 PNO=
KALS 080752Z AUTO 04005KT 10SM CLR 08/07 A3039 RMK AO2 SLP216
     T00780067=
KAQW 080752Z AUTO 00000KT 4SM BR CLR 19/18 A3004 RMK AO2 SLP169
     T01890183=
KARW 080755Z AUTO 25005KT 10SM CLR 24/18 A2997 RMK AO2=
KBDR 080752Z AUTO 07007KT 3SM BR OVC004 24/22 A3002 RMK AO2 SLP166
     T02390222=
KBLF 080752Z AUTO 25004KT 5SM HZ CLR 21/18 A3019 RMK AO2 SLP175
     T02110183=
KBML 080752Z AUTO 00000KT 2SM BR OVC003 19/19 A3009 RMK AO2 SLP181
     T01940189 $=
KCDS 080753Z AUTO 04004KT 10SM CLR 23/21 A3009 RMK AO2 SLP160
     T02280206=
KCEW 080753Z AUTO 00000KT 5SM BR CLR 22/22 A3003 RMK AO2 SLP166
     T02170217=
KCQX 080752Z AUTO 18003KT 1/2SM FG VV001 19/19 A3008 RMK AO2
     SLP187 T01890189=
KCRS 080753Z AUTO 13005KT 10SM OVC013 26/23 A2998 RMK AO2 SLP146
     T02560233=
KCUB 080753Z AUTO 00000KT 10SM CLR 25/19 A2999 RMK AO2 SLP152
     T02500189=
KCVG 080752Z 00000KT 7SM CLR 23/19 A3007 RMK AO2 SLP171
     T02280189=
KDAL 080753Z 16006KT 10SM BKN017 BKN230 26/23 A3000 RMK AO2 SLP150
     BKN017 V SCT T02610228=
KDEQ 080753Z AUTO 00000KT 10SM BKN008 OVC013 24/23 A3002 RMK AO2
     CIG 007V011 SLP159 T02440233=
KDTN 080753Z AUTO 10003KT 10SM CLR 24/24 A3001 RMK AO2 SLP158
     T02440239=
KDTS 080753Z AUTO 00000KT 10SM CLR 26/23 A3001 RMK AO2 SLP160
     T02560233=
KELD 080753Z AUTO 00000KT 6SM BR CLR 23/23 A3002 RMK AO2 SLP162
     T02330228=
KFDW 080755Z AUTO 25004KT 10SM CLR 26/18 A3000 RMK AO1=
####018001221####
SAUS99 KWBC 080755 RRA
METAR
KFIT 080752Z AUTO 14006KT 6SM BR SCT065 24/22 A3006 RMK AO2 SLP176
     T02390217=
KFLO 080753Z AUTO 30006KT 10SM FEW095 26/19 A2994 RMK AO2 SLP136
     T02610189=
KGGG 080753Z AUTO 00000KT 10SM CLR 25/24 A3000 RMK AO2 SLP154
     T02500244=
KGKY 080753Z AUTO 16005KT 10SM CLR 25/23 A3000 RMK AO2 SLP147
     T02500228=
KGLY 080755Z AUTO 00000KT 9SM BKN006 OVC010 23/23 A3005 RMK
     AO2=
KGNV 080753Z AUTO 00000KT 9SM FEW085 19/18 A3001 RMK AO2 SLP160
     T01940183=
KGOK 080753Z AUTO 00000KT 9SM BKN027 OVC047 23/22 A3004 RMK AO2
     SLP161 T02330222=
KGZH 080753Z AUTO 00000KT 8SM CLR 23/22 A3003 RMK AO2 SLP166
     T02280217=
KHBR 080753Z AUTO 11003KT 10SM FEW035 SCT046 SCT055 23/22 A3007
     RMK AO2 SLP164 T02280217=
KHZY 080752Z AUTO 00000KT 3SM BR CLR 19/18 A3008 RMK AO2 SLP179
     T01890183=
KIEN 080752Z AUTO 00000KT 10SM CLR 11/09 A3026 RMK AO2 SLP236
     T01060094=
KINK 080753Z AUTO 08007KT 10SM SCT085 23/19 A3005 RMK AO2 SLP129
     T02280189 TSNO=
PATA 080752Z AUTO 00000KT 10SM CLR 16/08 A3005 RMK AO2 SLP176
     T01610083 TSNO=
PHJR 080753Z VRB04KT 10SM FEW050 24/18 A3005 RMK AO2 SLP180
     T02390183=
####018000336####
SAGL31 BGSF 080750
METAR BGSF 080750Z 07008KT 9999 FEW060 08/02 Q1009=
METAR BGBW 080750Z 08002KT 9999 SCT068 09/05 Q1009 RMK 3AC =
METAR BGGH 080750Z AUTO 01003KT 9999NDV  OVC003/// 05/03 Q1010=
METAR BGJN 080750Z AUTO 35002KT 0350NDV  FG VV001/// 05/05 Q1010=
METAR BGKK 080750Z 09004KT 030V170 9999 FEW100 BKN160 06/03 Q1008=
####018000080####
SADN32 EKCH 080750 RRA
METAR EKVD 080750Z 19006KT 160V220 CAVOK 21/13 Q1018=
####018000127####
SAPY SGAS 080800
METAR SGAS 080800Z 16006KT 9999 BKN010 OVC017 18/16 Q1015=
METAR SGES 080800Z 00000KT CAVOK 17/15  Q1015=
####018000071####
SABZ22 SBBR 080800
METAR SBBR 080800Z 00000KT CAVOK 15/09 Q1022,5 =
####018000091####
SAPR01 SPIM 080800
METAR
SPIM 080800Z 00000KT 7000 OVC022 16/14 Q1013 NOSIG RMK PP000=
####018000479####
SAUK31 EGGY 080750
METAR EGBB 080750Z 23006KT 200V270 9999 FEW024 15/11 Q1018=
METAR EGCC 080750Z 19006KT 160V220 9999 FEW036 16/12 Q1017=
METAR EGKK 080750Z 23005KT 9999 BKN010 18/14 Q1019=
METAR EGLL 080750Z 27008KT 9999 FEW009 BKN011 19/15 Q1019=
METAR EGPF 080750Z 22015KT 9999 FEW030 SCT040 14/10 Q1012=
METAR EGPH 080750Z 22015KT 9999 FEW022 15/09 Q1012=
METAR EGPK 080750Z 23013KT 9999 SCT025 15/10 Q1013=
METAR EGSS 080750Z 24007KT 3700 -DZ BKN006 17/16 Q1019=
####018000577####
SAUK34 EGGY 080750
METAR EGHD 080750Z 00000KT 9999 FEW025 17/12 Q1019=
METAR EGHE 080750Z 19003KT CAVOK 17/13 Q1019=
METAR COR EGHK 080750Z 12002KT 9999 VCFG FEW018 16/15 Q1018 NOSIG=
METAR EGHQ 080750Z NIL=
METAR EGJA 080750Z 18003KT 4000 0800SE R26/1000 BCFG FEW000
    SCT001 BKN015 16/16 Q1020=
METAR EGJB 080750Z 23005KT 200V270 9999 2800SE VCFG FEW001 BKN006
    17/16 Q1020=
METAR EGJJ 080750Z 31007KT 240V340 9999 FEW002 BKN010 19/17 Q1020
    NOSIG=
METAR EGTE 080750Z 08001KT CAVOK 17/14 Q1018=
METAR EGTG 080750Z 26003KT 9999 -SHRA SCT018 16/12 Q1019=
####018000077####
SABZ18 SBSJ 080800
METAR SBSJ 080800Z 00000KT 5000 BR SCT010 12/11 Q1022=
####018000452####
SAUK35 EGGY 080750
METAR EGHH 080750Z 24005KT 9999 SCT007 BKN012 17/17 Q1019=
METAR EGKA 080750Z NIL=
METAR EGKB 080750Z 22005KT 190V260 9999 SCT012 18/15 Q1019 =
METAR EGLF 080750Z 24005KT 200V260 9999 -DZ SCT006 BKN009 17/16
    Q1019=
METAR EGMC 080750Z 24009KT 9999 FEW016 SCT040 19/15 Q1019=
METAR EGMD 080750Z NIL=
METAR EGMH 080750Z 27008KT 250V310 9999 FEW010 20/17 Q1019 =
METAR EGTC 080750Z 29007KT 9999 FEW012 BKN030 16/13 Q1018=
####018000500####
SASN32 ESWI 080750
METAR ESKN 080750Z 26008KT 200V330 CAVOK 22/11 Q1018=
METAR ESOE 080750Z 21010KT 9999 BKN040 20/13 Q1017=
METAR ESOK 080750Z 20009KT 9999 BKN023 18/13 Q1017=
METAR ESOW 080750Z 24008KT CAVOK 20/12 Q1018=
METAR ESSA 080750Z 24009KT 200V280 CAVOK 22/11 Q1017 NOSIG=
METAR ESSB 080750Z 27007KT 240V350 CAVOK 22/11 Q1017=
METAR ESSD 080750Z 18008KT 9999NDV NCD 20/13 Q1016=
METAR ESSP 080750Z 25008KT 220V290 CAVOK 21/12 Q1018=
METAR ESSV 080750Z 31007KT CAVOK 19/12 Q1019=
####018000485####
SASN33 ESWI 080750
METAR ESNG 080750Z 15009KT 110V180 CAVOK 20/08 Q1014=
METAR ESNK 080750Z NIL=
METAR ESNN 080750Z AUTO 15007KT 9999NDV NCD 20/12 Q1013=
METAR ESNO 080750Z 13011KT CAVOK 20/11 Q1014=
METAR ESNQ 080750Z 20011KT CAVOK 17/08 Q1013=
METAR ESNS 080750Z 17007KT 130V200 CAVOK 21/11 Q1015=
METAR ESNU 080750Z 14006KT 110V180 CAVOK 20/12 Q1015=
METAR ESNZ 080750Z 19009KT CAVOK 16/10 Q1011=
METAR ESUT 080750Z AUTO 15011KT 9999NDV SCT080/// BKN160/// 18/10
Q1010=
####018000184####
SASN34 ESWI 080750
METAR ESDF 080750Z 22004KT 160V250 CAVOK 22/12 Q1021=
METAR ESPA 080750Z 17012KT CAVOK 19/13 Q1016=
METAR ESSL 080750Z 26008KT 220V300 9999 SCT040 21/11 Q1019=
####018000081####
SABZ21 SBFZ 080800
METAR SBFZ 080800Z 17005KT 9999 SCT017 SCT100 24/22 Q1013=
####018000361####
SAFI32 EFHK 080750
EFHA 080750Z 34003KT 9999 BKN006 BKN070 19/18 Q1016=
EFHF 080750Z 35005KT 270V070 9999 FEW028 25/19 Q1014=
EFKA 080750Z VRB01KT 9999 SCT015 SCT200 22/16 Q1016=
EFKK 080750Z 10003KT CAVOK 21/12 Q1016=
EFMA 080750Z 21006KT 150V310 CAVOK 21/13 Q1016=
EFPO 080750Z 32003KT CAVOK 22/11 Q1016=
EFSI 080750Z AUTO VRB03KT CAVOK 22/13 Q1016=
####018000287####
SASW32 LSSW 080750
METAR LSGC 080750Z 24007KT 200V290 CAVOK 22/11 Q1024=
METAR LSGS 080750Z VRB02KT CAVOK 24/12 Q1022=
METAR LSZG 080750Z NIL=
METAR LSZR 080750Z VRB02KT CAVOK 20/14 Q1022 NOSIG RMK E=
METAR LSZS 080750Z 13004KT 060V170 CAVOK 17/11 Q1027=
METAR LSZC 080750Z NIL=
####018000470####
SASN35 ESWI 080750
METAR ESGL 080750Z AUTO 21010KT 9999NDV OVC040/// 20/15 Q1018=
METAR ESGR 080750Z AUTO 21010KT 9999NDV BKN036/// 20/13 Q1018=
METAR ESKM 080750Z NIL=
METAR ESNL 080750Z AUTO 15011KT 120V190 9999NDV FEW023///
BKN080/// 19/11 Q1013=
METAR ESNX 080750Z AUTO 15009KT 9999NDV BKN078/// BKN150/// /////
Q1013=
METAR ESNY 080750Z AUTO 19006KT 150V250 9999 SKC 22/15 Q1014=
METAR ESSF 080750Z NIL=
METAR ESSK 080750Z NIL=
METAR ESUD 080750Z NIL=
####018000104####
SAPH31 RPLC 080800
METAR RPLC 080800Z
VRB03KT 9999 FEW036 SCT100 BKN270 32/24 Q1008 A2979 RMK NOSIG
####018000128####
SAUS44 KLZK 080754
MTRMWT
METAR KMWT 080753Z AUTO 00000KT 10SM BKN012 OVC020 23/23 A3004 RMK 
AO2 SLP160 T02330228 TSNO
####018000117####
SAUS44 KMRX 080754
MTROQT
METAR KOQT 080753Z AUTO 00000KT 8SM CLR 23/20 A3008 RMK AO2 SLP166 
T02280200 TSNO
####018002981####
SAUS20 KNKA 080754
METAR K2G4 080750Z AUTO 00000KT 10SM SCT070 23/13 A3019 RMK
     AO1=
METAR K2W6 080752Z AUTO 00000KT 7SM CLR 23/22 A2999 RMK AO1=
METAR KPMV 080750Z AUTO 31005KT 7SM CLR 20/20 A3011 RMK AO2 
     T02040196=
METAR KABI 080752Z 11005KT 10SM CLR 22/21 A3003 RMK AO2 SLP140
     T02220211 $=
METAR KABR 080753Z AUTO 23004KT 10SM CLR 15/14 A3012 RMK AO2 SLP195 
    T01500139=
METAR KACK 080753Z AUTO 12006KT 6SM BR BKN001 19/18 A3006 RMK AO2 
    SLP180 T01890183 TSNO=
METAR KACV 080753Z AUTO 00000KT 5SM BR OVC003 11/10 A2996 RMK AO2 
    SLP152 T01060100 401330094=
METAR KADG 080753Z AUTO 00000KT 7SM CLR 22/19 A3005 RMK AO2 SLP172 
    T02170194=
METAR KAEX 080753Z 12004KT 10SM CLR 24/23 A2998 RMK AO2 SLP155 
    T02440228=
METAR KAGC 080753Z 12003KT 4SM HZ CLR 23/19 A3008 RMK AO2 SLP178 
    T02280194=
METAR KAGS 080753Z AUTO 25007KT 10SM CLR 25/19 A2998 RMK AO2 SLP151 
    T02500189 TSNO=
METAR KAIA 080753Z AUTO 00000KT 10SM OVC085 16/14 A3028 RMK AO2 
    SLP228 T01560144 $=
METAR KAKO 080753Z AUTO 13005KT 7SM BKN004 BKN009 OVC041 14/14 A3032 
    RMK AO2 CIG 003V007 SLP231 T01440139 TSNO=
METAR KALI 080753Z AUTO 00000KT 10SM FEW021 SCT075 OVC095 26/26 
    A2984 RMK AO2 RAB23E46 SLP103 P0000 T02560256=
METAR KALW 080753Z AUTO 11005KT 10SM CLR 18/08 A2996 RMK AO2 SLP139 
    T01780083 403500128=
METAR KAMA 080753Z 04006KT 1SM -RA BR SCT055 BKN070 OVC090 17/16 
    A3018 RMK AO2 SFC VIS 5 SLP171 P0028 T01670161 $=
METAR KAMW 080753Z AUTO 35007KT 10SM FEW021 21/19 A3007 RMK AO2 
    SLP175 T02110194=
METAR KANB 080753Z AUTO 00000KT 10SM CLR 22/21 A3004 RMK AO2 SLP161 
    T02220206=
METAR KAOH 080753Z AUTO 00000KT 8SM 23/19 A3007 RMK AO2 SLP173 
    T02280194 $=
METAR KAOO 080753Z AUTO 00000KT 4SM BR CLR 18/16 A3010 RMK AO2 
    SLP180 T01830161=
METAR KAPA 080753Z 00000KT 9SM FEW010 OVC020 14/13 A3035 RMK AO2 
    SLP229 T01440128 $=
METAR KAPF 080753Z AUTO 04005KT 10SM CLR 25/22 A2995 RMK AO2 SLP140 
    T02500222=
METAR KARA 080753Z AUTO 07003KT 10SM CLR 24/24 A3000 RMK AO2 SLP157 
    T02440239=
METAR KARB 080753Z AUTO 00000KT 5SM BR CLR 20/19 A3003 RMK AO2 
    SLP163 T02000189=
METAR KASD 080753Z AUTO 00000KT 10SM FEW001 24/23 A3000 RMK AO2 
    SLP160 T02440228=
METAR KASE 080753Z 19003KT 10SM BKN100 09/06 A3040 RMK AO2 LTG DSNT 
    W SLP184 T00890056=
METAR KASX 080753Z AUTO 00000KT 10SM FEW075 SCT090 BKN120 17/16 
    A3001 RMK AO2 SLP161 T01720156=
METAR KATY 080753Z AUTO 22005KT 10SM CLR 14/13 A3014 RMK AO2 SLP203 
    T01440128=
METAR KAUG 080753Z AUTO 19004KT 6SM BR SCT005 OVC041 21/19 A3007 RMK 
    AO2 SLP181 T02060194=
METAR KAUS 080753Z 05004KT 10SM BKN014 OVC019 26/23 A2995 RMK AO2 
    SLP128 T02610233=
METAR KAWM 080753Z AUTO 00000KT 10SM CLR 24/22 A3004 RMK AO2 SLP168 
    T02390222=
METAR KAXN 080753Z AUTO 21004KT 10SM CLR 16/14 A3011 RMK AO2 SLP196 
    T01560144=
####018002947####
SAUS20 KNKA 080754
METAR KAZO 080753Z AUTO 00000KT 5SM BR SCT055 23/21 A3005 RMK AO2 
    SLP167 T02280206 $=
METAR KBAF 080753Z 18003KT 9SM OVC085 24/21 A3003 RMK AO2 SLP164 
    T02390211=
METAR KBBW 080753Z AUTO 00000KT 10SM OVC080 17/15 A3021 RMK AO2 
    SLP217 T01670150=
METAR KBCE 080753Z AUTO 34005KT 10SM BKN110 11/02 A3031 RMK AO2 
    SLP154 T01110022 TSNO=
METAR KBDE 080753Z AUTO 00000KT 10SM FEW110 16/13 A2998 RMK AO2 
    SLP153 T01610128=
METAR KBEH 080753Z AUTO 00000KT 5SM BR OVC060 23/22 A3003 RMK AO2 
    SLP164 T02330222 $=
METAR KBFD 080753Z AUTO 00000KT 4SM BR CLR 17/16 A3014 RMK AO2 
    SLP189 T01670156=
METAR KBFF 080753Z AUTO 00000KT 10SM OVC065 16/14 A3028 RMK AO2 
    SLP227 T01610139=
METAR KBFI 080753Z 00000KT 10SM CLR 23/12 A2993 RMK AO2 SLP136 
    T02280117 403110167=
METAR KBFM 080753Z AUTO 33004KT 10SM CLR 24/23 A3002 RMK AO2 SLP166 
    T02440233=
METAR KBGM 080753Z AUTO 00000KT 5SM HZ CLR 22/18 A3011 RMK AO2 
    SLP182 T02170183=
METAR KBGR 080753Z 18008KT 3SM -RA BR OVC003 20/19 A3007 RMK AO2 
    RAB21 SLP178 P0004 T02000194=
METAR KBHK 080753Z AUTO 00000KT 10SM FEW090 10/08 A3021 RMK AO2 
    SLP220 T01000078=
METAR KBHM 080753Z 00000KT 9SM CLR 24/22 A3006 RMK AO2 SLP168 
    T02440217=
METAR KBIL 080753Z 00000KT 10SM CLR 16/06 A3023 RMK AO2 SLP213 
    T01560061=
METAR KBIV 080753Z AUTO 00000KT 5SM -RA BR BKN001 BKN021 OVC085 
    24/22 A3003 RMK AO2 RAB03 SLP164 P0008 T02440222=
METAR KBKE 080753Z AUTO 00000KT 10SM CLR 08/06 A3010 RMK AO2 SLP175 
    T00830061 402890028=
METAR KBKL 080753Z 15007KT 8SM CLR 26/19 A3004 RMK AO2 SLP168 
    T02560189=
METAR KBLI 080753Z AUTO 00000KT 10SM CLR 17/14 A2995 RMK AO2 SLP147 
    T01670139 402890100=
METAR KBMG 080753Z AUTO 00000KT 5SM BR CLR 22/21 A3005 RMK AO2 
    SLP167 T02170211=
METAR KBMQ 080753Z AUTO 08004KT 10SM SCT013 OVC033 24/22 A3001 RMK 
    AO2 SLP140 T02440222 $=
METAR KBNA 080753Z 00000KT 10SM FEW100 26/21 A3007 RMK AO2 SLP173 
    T02560211=
METAR KBOI 080753Z 20003KT 10SM CLR 19/07 A3003 RMK AO2 SLP141 
    T01890067=
METAR KBPI 080753Z AUTO 19004KT 10SM CLR 11/02 A3037 RMK AO2 SLP206 
    T01060017=
METAR KBPK 080753Z AUTO 00000KT 9SM CLR 23/22 A3004 RMK AO2 SLP161 
    T02280217=
METAR KBPT 080753Z 09009KT 10SM FEW035 27/24 A2994 RMK AO2 SLP138 
    T02670244 $=
METAR KBRD 080753Z AUTO 19003KT 6SM BR CLR 14/12 A3008 RMK AO2 
    SLP183 T01440122=
METAR KBRL 080753Z AUTO 1SM BR BKN001 BKN065 23/22 A3002 RMK AO2 
    SLP159 T02330222 $=
METAR KBRO 080753Z 33003KT 10SM CLR 27/25 A2979 RMK AO2 SLP085 
    T02670250=
METAR KBTL 080753Z AUTO 16004KT 10SM CLR 23/20 A3005 RMK AO2 SLP166 
    T02330200=
METAR KBTM 080753Z AUTO 14006KT 10SM CLR 08/01 A3030 RMK AO2 SLP224 
    T00830011=
METAR KBUR 080753Z 15005KT 9SM OVC011 16/13 A2991 RMK AO2 SLP118 
    T01560128 402330144=
####018002988####
SAUS20 KNKA 080754
METAR KBVO 080753Z AUTO 00000KT 10SM FEW070 BKN100 23/22 A3003 RMK 
    AO2 SLP159 T02280217=
METAR KBVY 080753Z 15006KT 6SM BR OVC009 23/21 A3004 RMK AO2 SLP167 
    T02280211 PNO=
METAR KBWG 080753Z AUTO 00000KT 9SM CLR 24/21 A3006 RMK AO2 SLP173 
    T02390211=
METAR KBYG 080753Z AUTO 25006KT 10SM CLR 11/04 A3031 RMK AO2 SLP233 
    T01060044=
METAR KBYI 080753Z AUTO 00000KT 10SM CLR 09/04 A3011 RMK AO2 SLP162 
    T00940039=
METAR KCAG 080753Z AUTO 00000KT 10SM CLR 12/07 A3031 RMK AO2 SLP197 
    T01220067=
METAR KCAK 080751Z 00000KT 7SM CLR 22/17 A3009 RMK AO2 SLP177
     T02170172=
METAR KCBE 080752Z AUTO 00000KT 7SM CLR 22/18 A3010 RMK AO1=
METAR KCCR 080753Z AUTO 25005KT 10SM CLR 13/10 A2991 RMK AO2 SLP113 
    T01330100 402500133=
METAR KCDC 080753Z AUTO 33003KT 10SM CLR 13/03 A3013 RMK AO2 SLP125 
    T01330033 $=
METAR KCDR 080753Z AUTO 00000KT 10SM CLR 10/08 A3028 RMK AO2 SLP248 
    T01000083=
METAR KCDW 080753Z AUTO 00000KT 6SM HZ CLR 24/21 A3002 RMK AO2 
    SLP168 T02440211 TSNO=
METAR KCEZ 080753Z AUTO 28003KT 10SM CLR 19/06 A3021 RMK AO2 PK WND 
    15027/0703 SLP135 T01940056=
METAR KCGE 080750Z AUTO 10003KT 5SM CLR 25/23 A2999 RMK AO1=
METAR KCGI 080753Z AUTO 00000KT 10SM CLR 25/24 A3003 RMK AO2 SLP165 
    T02500239 TSNO=
METAR KCGS 080755Z AUTO 00000KT 7SM CLR 27/23 A2998 RMK AO1=
METAR KCHO 080753Z AUTO 00000KT 4SM HZ CLR 23/20 A3001 RMK AO2 
    SLP153 T02280200 TSNO=
METAR KCKB 080753Z AUTO 00000KT 3SM BR CLR 20/19 A3009 RMK AO2 
    SLP173 T02000189=
METAR KCLL 080753Z 08006KT 10SM SCT110 26/23 A2995 RMK AO2 SLP137 
    T02560228=
METAR KCLM 080753Z AUTO A2997 RMK AO2 SLPNO PWINO FZRANO $=
METAR KCMI 080753Z AUTO 00000KT 5SM BR FEW065 23/22 A3004 RMK AO2 
    RAB0657E08 SLP166 P0000 T02330222=
METAR KCMX 080753Z AUTO 30005KT 7SM OVC002 18/17 A2999 RMK AO2 
    SLP150 T01780172=
METAR KCNM 080753Z AUTO 00000KT 8SM RA BKN025 BKN029 OVC060 21/19 
    A3012 RMK AO2 TSB22E39RAB07 SLP145 P0007 T02060194=
METAR KCNO 080753Z 28004KT 5SM HZ CLR 14/12 A2992 RMK AO2 SLP129 
    T01440117 402670144=
METAR KCNY 080753Z AUTO 05017G23KT 10SM CLR 23/04 A3008 RMK AO2 PK 
    WND 05027/0717 SLP119 T02280044=
METAR KCOT 080753Z AUTO 06005KT 10SM OVC017 25/22 A2989 RMK AO2 
    SLP114 T02500222=
METAR KCPR 080753Z AUTO 00000KT 10SM CLR 06/05 A3033 RMK AO2 SLP237 
    T00610050=
METAR KCPS 080753Z AUTO 00000KT 10SM SCT060 OVC075 24/22 A3003 RMK 
    AO2 LTG DSNT W AND NW TSB38E53 SLP163 T02440222=
METAR KCRE 080753Z AUTO 31004KT 10SM CLR 27/21 A2992 RMK AO2 SLP132 
    T02670206=
METAR KCRP 080751Z 08006G14KT 9SM RA FEW010 SCT025 BKN080 26/24
     A2984 RMK AO2 RAE0652B43 SLP102 P0013 T02560244=
METAR KCRQ 080753Z AUTO 00000KT 8SM BKN009 OVC012 17/14 A2991 RMK 
    AO2 CIG 007V012 SLP125 T01670139 401830156=
METAR KCSM 080753Z AUTO 35005KT 10SM CLR 23/20 A3010 RMK AO2 SLP165 
    T02280200=
####018001692####
SAUK KAWN 080800
METAR EGAA 080750Z 23012KT 9999 SCT014 14/10 Q1014=
METAR EGAC 080750Z 21011KT 9999 FEW018 SCT024 15/10 Q1013=
METAR EGBB 080750Z 23006KT 200V270 9999 FEW024 15/11 Q1018=
METAR EGCC 080750Z 19006KT 160V220 9999 FEW036 16/12 Q1017=
METAR EGFF 080750Z 22004KT 180V260 9999 SCT018 16/13 Q1018=
METAR EGGP 080750Z 21010KT 9999 FEW025 16/11 Q1016=
METAR EGGW 080750Z 26007KT 9999 OVC022 16/13 Q1019=
METAR EGHD 080750Z 00000KT 9999 FEW025 17/12 Q1019=
METAR EGHE 080750Z 19003KT CAVOK 17/13 Q1019=
METAR EGHH 080750Z 24005KT 9999 SCT007 BKN012 17/17 Q1019=
METAR EGJA 080750Z 18003KT 4000 0800SE R26/1000 BCFG FEW000 SCT001
      BKN015 16/16 Q1020=
METAR EGKB 080750Z 22005KT 190V260 9999 SCT012 18/15 Q1019=
METAR EGKK 080750Z 23005KT 9999 BKN010 18/14 Q1019=
METAR EGLC 080750Z 24006KT 200V270 9999 BKN016 19/14 Q1019=
METAR EGLF 080750Z 24005KT 200V260 9999 -DZ SCT006 BKN009 17/16 Q1019=
METAR EGLL 080750Z 27008KT 9999 FEW009 BKN011 19/15 Q1019=
METAR EGMC 080750Z 24009KT 9999 FEW016 SCT040 19/15 Q1019=
METAR EGMH 080750Z 27008KT 250V310 9999 FEW010 20/17 Q1019=
METAR EGNM 080750Z 23007KT 190V270 9999 FEW010 SCT035 15/11 Q1016=
METAR EGNV 080750Z 18009KT 9999 FEW030 16/13 Q1015=
METAR EGNX 080750Z 22009KT CAVOK 16/10 Q1017=
METAR EGPD 080750Z 21011KT 170V240 CAVOK 15/09 Q1010 NOSIG=
METAR EGPF 080750Z 22015KT 9999 FEW030 SCT040 14/10 Q1012=
METAR EGPH 080750Z 22015KT 9999 FEW022 15/09 Q1012=
METAR EGPK 080750Z 23013KT 9999 SCT025 15/10 Q1013=
METAR EGSS 080750Z 24007KT 3700 -DZ BKN006 17/16 Q1019=
METAR EGTC 080750Z 29007KT 9999 FEW012 BKN030 16/13 Q1018=
METAR EGTE 080750Z 08001KT CAVOK 17/14 Q1018=
####018000148####
SAUS43 KAPX 080755
MTRHTL
METAR KHTL 080753Z AUTO 26007KT 2SM -RA BR FEW008 BKN060 OVC120 
23/22 A3004 RMK AO2 RAB44 SLP164 P0011 T02330217
####018000110####
SAUS43 KMKX 080755
MTRMSN
METAR KMSN 080753Z 00000KT 7SM BKN110 22/21 A2999 RMK AO2 SLP150 
T02170206
####018000120####
SAUS41 KBTV 080755
MTRBTV
METAR KBTV 080754Z 00000KT 6SM BR SCT055 OVC070 24/22 A3001 RMK AO2 
SLP159 T02390217
####018000089####
SPUS52 KWBC 080755
SPECI
KGAG 080751Z AUTO 04007KT 10SM FEW020 BKN028 22/19 A3013=
####018000098####
SPUS53 KWBC 080755
SPECI
KVIH 080751Z AUTO 00000KT 4SM BR SCT002 SCT006 BKN049 23/22 A3004=
####018000115####
SAUS42 KKEY 080755
MTRNQX
METAR KNQX 080753Z AUTO 05003KT 10SM CLR 28/25 A2992 RMK AO2 SLP131 
T02830250 $
####018000115####
SAUS42 KTAE 080755
MTR40J
METAR K40J 080753Z AUTO 00000KT 22/21 A3000 RMK AO2 SLP158 T02170206 
PWINO TSNO
####018000125####
SAGM31 PGUM 080755
MTRGUM
METAR PGUM 080754Z 08010KT 10SM SCT020 SCT026 BKN031 29/24 A2986 RMK 
AO2 SLP104 T02940244
####018002938####
SAUS20 KNKA 080754
METAR KGVL 080753Z AUTO 31003KT 10SM CLR 23/20 A3007 RMK AO2 SLP165 
    T02330200=
METAR KGWO 080753Z AUTO 02003KT 10SM CLR 22/22 A3004 RMK AO2 SLP172 
    T02220222=
METAR KHAO 080753Z AUTO 00000KT 3SM BR CLR 22/21 A3007 RMK AO2 
    SLP177 T02170206=
METAR KHBG 080753Z AUTO 00000KT 8SM CLR 24/23 A3003 RMK AO2 SLP164 
    T02390233=
METAR KHDE 080750Z AUTO 33004KT 10SM CLR 16/15 A3020 RMK AO2 
     T01600145=
METAR KHEI 080753Z AUTO 00000KT 10SM FEW085 10/08 A3019 RMK AO2 
    SLP215 T01000083=
METAR KHFD 080753Z AUTO 00000KT 5SM HZ FEW100 25/22 A3002 RMK AO2 
    SLP166 T02500217=
METAR KHGR 080753Z AUTO 33004KT 6SM HZ CLR 25/17 A3002 RMK AO2 
    SLP168 T02500167=
METAR KHHR 080753Z AUTO 25005KT 10SM OVC014 17/13 A2992 RMK AO2 
    SLP129 T01720133 402000156=
METAR KHIB 080753Z AUTO 00000KT 1/2SM FG VV001 10/10 A3005 RMK AO2 
    SLP177 T01000100=
METAR KHIO 080753Z AUTO 29004KT 10SM CLR 19/13 A2987 RMK AO2 SLP109 
    T01890128 403390100=
METAR KHJH 080750Z AUTO 35003KT 10SM BKN021 20/18 A3015 RMK AO2 
     T01950181=
METAR KHJO 080753Z AUTO 33007KT 10SM CLR 24/12 A2982 RMK AO2 SLP096 
    T02390122 403440161=
METAR KHKA 080753Z AUTO 22004KT 7SM CLR 27/22 A3005 RMK AO2 SLP173 
    T02670222=
METAR KHKS 080753Z AUTO 00000KT 10SM CLR 24/23 A3004 RMK AO2 SLP165 
    T02390228=
METAR KHKY 080753Z AUTO 31005KT 10SM CLR 23/17 A3004 RMK AO2 SLP145 
    T02280172 $=
METAR KHLC 080753Z AUTO 01007KT 10SM OVC022 17/16 A3019 RMK AO2 
    SLP208 T01720156=
METAR KHLG 080753Z AUTO 00000KT 4SM BR CLR 22/19 A3009 RMK AO2 
    SLP179 T02170194=
METAR KHLN 080753Z AUTO 26005KT 10SM CLR 12/04 A3024 RMK AO2 SLP232 
    T01170044=
METAR KHOT 080753Z AUTO 00000KT 10SM BKN012 24/23 A3005 RMK AO2 
    SLP170 T02390228=
METAR KHOU 080753Z 10006KT 10SM FEW030 BKN130 BKN250 27/23 A2991 RMK 
    AO2 SLP134 T02720233=
METAR KHQM 080753Z AUTO 00000KT 10SM 20/13 A2990 RMK AO2 SLP130 
    T02000128 403440122 $=
METAR KHRI 080753Z AUTO 00000KT 10SM CLR 15/08 A2992 RMK AO2 SLP128 
    T01500078 403560078=
METAR KHRO 080753Z AUTO 00000KT 6SM BR CLR 23/22 A3007 RMK AO2 
    SLP166 T02280217=
METAR KHSI 080753Z AUTO 35005KT 10SM CLR 16/15 A3018 RMK AO2 SLP210 
    T01610150=
METAR KHSV 080753Z 00000KT 10SM CLR 24/23 A3005 RMK AO2 SLP168 
    T02390233=
METAR KHUF 080753Z 00000KT 7SM BKN110 23/22 A3004 RMK AO2 SLP166 
    T02330217 $=
METAR KHUL 080753Z AUTO 20003KT 7SM CLR 21/18 A3001 RMK AO2 SLP160 
    T02110183=
METAR KHVN 080753Z AUTO 00000KT 2 1/2SM HZ OVC004 24/23 A3003 RMK 
    AO2 SLP168 T02440228=
METAR KHVR 080753Z AUTO 00000KT 10SM CLR 12/09 A3018 RMK AO2 SLP214 
    T01220089=
METAR KHWO 080753Z AUTO 00000KT 10SM CLR 25/24 A2994 RMK AO2 SLP138 
    T02500239=
METAR KHYR 080753Z AUTO VRB03KT 10SM SCT050 BKN060 OVC100 20/16 
    A3003 RMK AO2 SLP165 T02000156=
####018002990####
SAUS20 KNKA 080754
METAR KCSV 080753Z AUTO 00000KT 10SM CLR 21/17 A3013 RMK AO2 SLP178 
    T02110172=
METAR KCXO 080753Z VRB03KT 9SM CLR 24/23 A2994 RMK AO2 SLP136 
    T02390233=
METAR KCYS 080753Z AUTO 10004KT 4SM BR OVC002 12/12 A3035 RMK AO2 
    RAB02E29 SLP232 P0000 T01170117 TSNO=
METAR KDAG 080753Z AUTO 26008G16KT 10SM CLR 27/M01 A2985 RMK AO2 
    SLP075 T02721006 403940206 TSNO $=
METAR KDAN 080753Z AUTO 33003KT 6SM HZ FEW100 24/20 A3000 RMK AO2 
    SLP144 T02390200=
METAR KDBQ 080753Z AUTO 18004KT 10SM BKN120 20/19 A3002 RMK AO2 
    SLP160 T02000194=
METAR KDCU 080753Z AUTO 00000KT 9SM CLR 23/21 A3006 RMK AO2 SLP171 
    T02330211=
METAR KDEN 080753Z 17004KT 6SM BR BKN006 BKN021 15/14 A3033 RMK AO2 
    CIG 004V009 SLP212 OCNL LTGICCC DSNT E-SE CB DSNT E-SE MOV NE 
    T01500144 $=
METAR KDET 080753Z 00000KT 9SM CLR 26/21 A3003 RMK AO2 SLP163 
    T02610211 $=
METAR KDEW 080753Z AUTO 02008KT 10SM CLR 18/08 A3006 RMK AO2 SLP167 
    T01780078 402890067=
METAR KDFI 080753Z AUTO 00000KT 8SM CLR 22/19 A3005 RMK AO2 SLP170 
    T02220189=
METAR KDFW 080753Z 16006KT 10SM SCT019 BKN090 26/23 A2999 RMK AO2 
    SLP145 T02560228=
METAR KDGW 080753Z AUTO 00000KT 10SM CLR 08/06 A3032 RMK AO2 SLP241 
    T00780061 $=
METAR KDHT 080753Z AUTO 27005KT 9SM FEW013 OVC045 18/16 A3026 RMK 
    AO2 SLP194 T01830161=
METAR KDKK 080753Z AUTO 18003KT 8SM BKN090 21/18 A3006 RMK AO2 
    SLP172 T02060183=
METAR KDLN 080753Z AUTO 13003KT 10SM CLR 09/03 A3027 RMK AO2 SLP214 
    T00940033=
METAR KDLS 080753Z AUTO 11007KT 10SM CLR 19/05 A2993 RMK AO2 SLP134 
    T01890050 403670111=
METAR KDMN 080753Z AUTO 04010KT 10SM BKN100 22/12 A3012 RMK AO2 
    SLP113 T02220122=
METAR KDMO 080753Z AUTO 17003KT 7SM -RA SCT001 BKN006 OVC065 24/22 
    A3005 RMK AO2 RAE0656B51 SLP165 P0000 T02390222=
METAR KFDK 080749Z AUTO 00000KT 5SM HZ SCT090 24/22 A3002 RMK
     AO2=
METAR KDMW 080752Z AUTO 00000KT 7SM CLR 26/21 A3003 RMK AO2=
METAR KDNL 080753Z AUTO 26003KT 10SM CLR 26/18 A3001 RMK AO2 SLP154 
    T02610178=
METAR KDRO 080753Z AUTO 05007KT 10SM CLR 13/05 A3030 RMK AO2 SLP170 
    T01330050=
METAR KDRT 080753Z AUTO 08004KT 10SM CLR 25/22 A2992 RMK AO2 SLP116 
    T02500222=
METAR KDTO 080753Z AUTO 15008KT 10SM OVC020 26/23 A2999 RMK AO2 
    SLP145 T02610233=
METAR KDTW 080753Z 20003KT 6SM HZ FEW150 24/21 A3003 RMK AO2 SLP163 
    T02390211=
METAR KDVT 080753Z 13003KT 10SM CLR 31/01 A2978 RMK AO2 SLP053 
    T03060011=
METAR KDWH 080753Z 04004KT 8SM CLR 24/24 A2994 RMK AO2 SLP134 
    T02440239=
METAR KDXR 080753Z AUTO 12003KT 6SM BR CLR 23/22 A3005 RMK AO2 
    SLP169 T02330217=
METAR KECP 080753Z AUTO 00000KT 5SM BR CLR 23/23 A3001 RMK AO2 
    SLP172 T02330228=
METAR KEEO 080753Z AUTO 10SM BKN110 13/07 A3028 RMK AO2 SLP169 
    T01280067 PNO $=
METAR KEET 080753Z AUTO 00000KT 7SM OVC070 25/22 A3003 RMK AO2 
    SLP162 T02500217=
####018002982####
SAUS20 KNKA 080754
METAR KFST 080753Z AUTO 10006KT 10SM OVC100 22/19 A3006 RMK AO2 
    SLP130 T02220189=
METAR KFTW 080753Z 14010KT 10SM OVC020 26/23 A2998 RMK AO2 SLP141 
    T02560228=
METAR KFTY 080753Z 00000KT 9SM CLR 21/18 A3004 RMK AO2 SLP160 
    T02110183=
METAR KFUL 080753Z 00000KT 10SM OVC017 17/12 A2990 RMK AO2 SLP125 
    T01720122 402390161=
METAR KFVE 080753Z AUTO 13004KT 7SM CLR 22/22 A2999 RMK AO2 SLP147 
    T02220217=
METAR KFWN 080753Z AUTO 00000KT 3SM BR CLR 21/21 A3003 RMK AO2 
    SLP164 T02110206=
METAR KFXE 080753Z 06004KT 10SM FEW022 28/23 A2992 RMK AO2 SLP134 
    T02780228 $=
METAR KFYV 080753Z AUTO 00000KT 10SM CLR 22/21 A3006 RMK AO2 SLP165 
    T02220211=
METAR KGAG 080753Z AUTO 04007KT 10SM FEW020 BKN028 22/19 A3013 RMK 
    AO2 RAB08E19 SLP173 P0000 T02170194=
METAR KGCC 080753Z AUTO 00000KT 10SM CLR 09/06 A3028 RMK AO2 SLP227 
    T00940061=
METAR KGEG 080753Z 02005KT 10SM CLR 19/09 A3006 RMK AO2 SLP160 
    T01890089 402890122=
METAR KGEY 080753Z AUTO 00000KT 10SM CLR 14/03 A3024 RMK AO2 SLP216 
    T01440028=
METAR KGEZ 080753Z AUTO 00000KT 6SM BR CLR 21/20 A3004 RMK AO2 
    SLP166 T02110200=
METAR KGFK 080753Z 24004KT 10SM CLR 16/12 A3003 RMK AO2 SLP167 
    T01560122=
METAR KGFL 080753Z AUTO 00000KT 3/4SM BR CLR 21/21 A3001 RMK AO2 
    SLP158 T02060206=
METAR KGGW 080753Z AUTO 07006KT 10SM CLR 13/09 A3013 RMK AO2 SLP199 
    T01280094 TSNO=
METAR KGIF 080753Z AUTO 00000KT 10SM CLR 23/21 A3000 RMK AO2 SLP156 
    T02330211 TSNO=
METAR KGJT 080753Z AUTO 07013G22KT 10SM CLR 22/06 A3015 RMK AO2 PK 
    WND 06031/0708 SLP131 T02170061=
METAR KGKJ 080753Z AUTO 00000KT 8SM CLR 21/18 A3010 RMK AO2 SLP179 
    T02110178=
METAR KGLD 080753Z AUTO 34003KT 10SM OVC037 17/16 A3029 RMK AO2 
    SLP223 T01720161=
METAR KGLH 080753Z AUTO 00000KT 3SM BR CLR 23/22 A3004 RMK AO2 
    SLP177 T02280222=
METAR KGLR 080753Z AUTO 20005KT 10SM FEW110 22/21 A3001 RMK AO2 
    SLP156 T02220206=
METAR KGMU 080753Z AUTO 30004KT 10SM CLR 27/19 A3003 RMK AO2 SLP156 
    T02670194=
METAR KGPT 080753Z 00000KT 7SM CLR 26/24 A3000 RMK AO2 SLP156 
    T02610239=
METAR KGRB 080753Z AUTO 17004KT 10SM CLR 21/19 A2996 RMK AO2 
    RAE06B24E50 SLP142 P0001 T02110194=
METAR KGRI 080753Z AUTO 34005KT 10SM CLR 16/14 A3019 RMK AO2 SLP213 
    T01610139=
METAR KGRR 080753Z AUTO 26011KT 1 3/4SM +RA SCT014 BKN038 OVC060 
    24/22 A3006 RMK AO2 RAB39 SLP172 P0011 T02440217=
METAR KGSH 080753Z AUTO 00000KT 6SM BR CLR 22/20 A3005 RMK AO2 
    SLP169 T02220200=
METAR KGSP 080753Z AUTO 28005KT 10SM CLR 24/19 A3001 RMK AO2 SLP147 
    T02390189=
METAR KGTF 080753Z 20007KT 10SM CLR 10/06 A3023 RMK AO2 SLP223 
    T01000061 $=
METAR KGUP 080753Z AUTO 04005KT 10SM FEW120 20/07 A3024 RMK AO2 
    SLP046 T02000067=
METAR KGUY 080753Z AUTO 06007KT 10SM FEW060 SCT120 20/17 A3018 RMK 
    AO2 LTG DSNT SW SLP178 T02000167=
####018002966####
SAUS20 KNKA 080754
METAR KMEM 080753Z 26003KT 10SM SCT250 26/22 A3006 RMK AO2 SLP172 
    T02610222=
METAR KMFR 080753Z AUTO 00000KT 10SM CLR 26/12 A2987 RMK AO2 SLP100 
    T02560122 403830144=
METAR KMGW 080753Z AUTO 00000KT 4SM HZ CLR 21/18 A3010 RMK AO2 
    SLP180 T02110183=
METAR KMGY 080753Z AUTO 00000KT 7SM CLR 24/19 A3007 RMK AO2 SLP173 
    T02390194=
METAR KMHE 080753Z AUTO 25004KT 10SM CLR 18/14 A3016 RMK AO2 SLP209 
    T01830144 TSNO=
METAR KMHT 080753Z 17004KT 6SM HZ OVC060 24/22 A3002 RMK AO2 RAE05 
    SLP174 P0000 T02440217=
METAR KMIA 080753Z 00000KT 10SM FEW030 SCT250 27/24 A2992 RMK AO2 
    SLP133 T02720244=
METAR KMIC 080753Z 32004KT 10SM CLR 19/17 A3006 RMK AO2 SLP175 
    T01890167=
METAR KMIE 080753Z AUTO 19003KT 10SM CLR 24/19 A3007 RMK AO2 SLP168 
    T02390194=
METAR KMIW 080753Z AUTO 34007KT 10SM CLR 20/19 A3005 RMK AO2 SLP168 
    T02000189=
METAR KMKL 080753Z AUTO 00000KT 10SM CLR 23/21 A3006 RMK AO2 SLP173 
    T02280211=
METAR KMLB 080753Z AUTO 00000KT 10SM CLR 22/21 A2997 RMK AO2 SLP148 
    T02220206=
METAR KMLE 080750Z AUTO 35005KT 10SM SCT020 21/17 A3011 RMK AO2 
     T02050170=
METAR KMLP 080753Z AUTO 11008KT 10SM CLR 14/00 A3027 RMK AO2 SLP159 
    T01440000 402110100 TSNO=
METAR KMLS 080753Z AUTO 30004KT 10SM SCT095 14/09 A3019 RMK AO2 
    SLP212 T01440094=
METAR KMLT 080753Z AUTO 00000KT 6SM BR CLR 21/18 A3005 RMK AO2 
    SLP177 T02060183=
METAR KMLU 080753Z AUTO 10003KT 10SM CLR 26/23 A3002 RMK AO2 SLP165 
    T02560233=
METAR KMMH 080750Z AUTO 29004KT 10SM CLR 13/03 A3021 RMK AO1=
METAR KMMK 080753Z AUTO 00000KT 2 1/2SM BR BKN100 23/22 A3003 RMK 
    AO2 SLP166 T02280217=
METAR KMMV 080753Z AUTO 29003KT 10SM CLR 21/12 A2986 RMK AO2 SLP111 
    T02060117 403500167=
METAR KMNN 080753Z AUTO 00000KT 8SM FEW060 21/19 A3008 RMK AO2 
    SLP178 T02060189=
METAR KMOD 080753Z AUTO 36004KT 10SM CLR 19/10 A2983 RMK AO2 SLP102 
    T01890100 403280133=
METAR KMPO 080753Z AUTO 34005KT 7SM FEW085 19/17 A3010 RMK AO2 
    SLP176 T01940172=
METAR KMRB 080753Z AUTO 00000KT 5SM HZ FEW085 23/18 A3002 RMK AO2 
    SLP160 T02330183=
METAR KMSL 080753Z AUTO 00000KT 10SM CLR 24/22 A3007 RMK AO2 SLP174 
    T02390222=
METAR KMSO 080753Z AUTO 32004KT 10SM CLR 13/06 A3018 RMK AO2 SLP205 
    T01280056 $=
METAR KMSP 080753Z 31008KT 10SM FEW090 19/17 A3007 RMK AO2 SLP179 
    T01940167=
METAR KMSS 080753Z AUTO 23003KT 7SM CLR 23/21 A3000 RMK AO2 SLP156 
    T02330206=
METAR KMSY 080753Z 00000KT 10SM FEW025 SCT250 27/23 A2999 RMK AO2 
    SLP158 T02670233=
METAR KMTH 080753Z AUTO 04004KT 10SM FEW019 27/24 A2991 RMK AO2 
    SLP128 T02720244=
METAR KMTJ 080753Z AUTO 17006KT 10SM SCT110 17/06 A3026 RMK AO2 
    SLP165 T01720056=
METAR KMTN 080754Z AUTO 00000KT 7SM CLR 26/24 A2999 RMK AO2=
METAR KMTO 080753Z AUTO 21003KT 8SM CLR 24/23 A3003 RMK AO2 SLP163 
    T02440233=
####018002968####
SAUS20 KNKA 080754
METAR KLFT 080753Z AUTO 00000KT 10SM CLR 25/23 A2999 RMK AO2 SLP156 
    T02500233=
METAR KLGB 080753Z 30004KT 10SM OVC017 17/13 A2991 RMK AO2 SLP128 
    T01720128 402280161=
METAR KLHM 080751Z AUTO 15012KT 10SM CLR 19/12 A2981 RMK AO1 
     T01940115 403490133=
METAR KLHQ 080753Z AUTO 00000KT 2SM BR CLR 19/19 A3008 RMK AO2 
    SLP179 T01890189=
METAR KLHX 080753Z AUTO 35009KT 7SM RA BKN033 OVC070 16/14 A3031 RMK 
    AO2 SLP219 T01560144 PNO $=
METAR KLIT 080753Z 00000KT 7SM FEW150 24/23 A3005 RMK AO2 SLP176 
    T02440228=
METAR KLLQ 080753Z AUTO 00000KT 7SM CLR 23/22 A3006 RMK AO2 SLP174 
    T02280222=
METAR KLMT 080753Z AUTO 18007KT 10SM FEW090 19/11 A3002 RMK AO2 
    SLP116 T01890111 403110089=
METAR KLNS 080753Z AUTO 08004KT 4SM HZ CLR 24/21 A3001 RMK AO2 
    SLP156 T02390211=
METAR KLOL 080753Z AUTO 07009KT 10SM CLR 22/M07 A2997 RMK AO2 SLP099 
    T02221072 403610172=
METAR KLOU 080753Z AUTO 00000KT 7SM CLR 26/21 A3006 RMK AO2 SLP171 
    T02560211=
METAR KLOZ 080753Z AUTO 00000KT 3SM BR CLR 21/19 A3010 RMK AO2 
    SLP176 T02060194=
METAR KLPR 080753Z AUTO 00000KT 7SM SCT060 23/19 A3007 RMK AO2 
    SLP175 T02330194=
METAR KLSE 080753Z AUTO 00000KT 10SM CLR 22/19 A3000 RMK AO2 SLP150 
    T02170194=
METAR KLUK 080753Z AUTO 00000KT 2SM R21L/5000VP6000FT BR CLR 22/21 
    A3007 RMK AO2 SLP177 T02170211=
METAR KLVJ 080753Z AUTO 10004KT 10SM CLR 28/23 A2992 RMK AO2 SLP132 
    T02780233=
METAR KLVK 080753Z AUTO 31008KT 10SM CLR 13/11 A2990 RMK AO2 SLP123 
    T01280106 402720122=
METAR KLVM 080753Z AUTO 27003KT 10SM CLR 08/03 A3028 RMK AO2 SLP229 
    T00780033=
METAR KLVS 080753Z AUTO 03005KT 10SM SCT110 12/08 A3036 RMK AO2 
    SLP182 T01170083 TSNO=
METAR KLWD 080753Z AUTO 00000KT 9SM CLR 21/20 A3007 RMK AO2 SLP173 
    T02060200=
METAR KLWV 080753Z AUTO 21003KT 5SM HZ CLR 25/22 A3003 RMK AO2 
    SLP164 T02500222=
METAR KLXN 080750Z AUTO 31004KT 10SM SCT045 BKN075 16/15 A3022 
     RMK AO2 T01560150=
METAR KLXT 080753Z AUTO 30004KT 7SM FEW065 BKN090 OVC110 23/22 A3007 
    RMK AO2 SLP175 T02280217=
METAR KMAE 080753Z AUTO 31007KT 10SM CLR 21/11 A2982 RMK AO2 SLP095 
    T02060111 403390139=
METAR KMAI 080753Z AUTO 00000KT 9SM CLR 23/22 A3001 RMK AO2 SLP160 
    T02330217=
METAR KMBS 080753Z 24004KT 10SM CLR 24/22 A3002 RMK AO2 SLP158 
    T02390222=
METAR KMCB 080753Z AUTO 00000KT 9SM CLR 23/22 A3003 RMK AO2 SLP164 
    T02330222=
METAR KMCE 080753Z AUTO 31005KT 10SM CLR 19/10 A2982 RMK AO2 SLP097 
    T01940100 403330139=
METAR KMCI 080753Z 36003KT 9SM FEW041 23/22 A3007 RMK AO2 SLP172 
    T02280217 $=
METAR KMCK 080753Z AUTO 32005KT 10SM BKN120 16/16 A3024 RMK AO2 
    SLP225 T01610156=
METAR KMCO 080753Z 01003KT 10SM FEW120 22/20 A2999 RMK AO2 SLP153 
    T02220200=
METAR KMCW 080753Z AUTO 32007KT 10SM CLR 18/18 A3011 RMK AO2 SLP183 
    T01830178 $=
####018002969####
SAUS20 KNKA 080754
METAR KIAG 080753Z AUTO 22004KT 6SM BR CLR 23/21 A3004 RMK AO2 
    SLP163 T02330211=
METAR KIAH 080753Z 08008KT 10SM FEW020 SCT130 BKN250 25/24 A2993 RMK 
    AO2 SLP134 T02500244=
METAR KIBM 080750Z AUTO 00000KT 10SM OVC018 12/11 A3031 RMK AO2 
     T01210111=
METAR KICR 080753Z AUTO 25004KT 10SM CLR 18/13 A3020 RMK AO2 SLP215 
    T01780128 TSNO=
METAR KICT 080753Z 07004KT 10SM SCT070 BKN200 22/21 A3008 RMK AO2 
    SLP172 T02220206 $=
METAR KIDA 080753Z AUTO 01007KT 10SM CLR 09/06 A3017 RMK AO2 SLP184 
    T00940061=
METAR KILM 080753Z AUTO 00000KT 10SM CLR 25/21 A2990 RMK AO2 SLP125 
    T02500211=
METAR KIML 080753Z AUTO 00000KT 10SM BKN060 17/14 A3026 RMK AO2 
    SLP228 T01670144=
METAR KIPL 080753Z AUTO 35004KT 10SM CLR 29/09 A2967 RMK AO2 SLP049 
    T02890089 404060211=
METAR KITR 080753Z AUTO 00000KT 10SM OVC010 17/15 A3030 RMK AO2 CIG 
    007V013 SLP219 T01670150=
METAR KIWI 080753Z AUTO 00000KT 8SM BKN005 OVC012 21/19 A3008 RMK 
    AO2 SLP186 T02060194=
METAR KIXD 080753Z AUTO 32007KT 5SM BR OVC002 23/21 A3008 RMK AO2 
    LTG DSNT N SLP175 T02280211=
METAR KJBR 080753Z AUTO 25003KT 10SM CLR 26/23 A3005 RMK AO2 SLP170 
    T02560228 $=
METAR KJCT 080751Z AUTO 00000KT 8SM CLR 22/21 A3000 RMK AO2 SLP121
     T02220211 TSNO=
METAR KJEF 080753Z AUTO 00000KT 10SM -RA FEW055 24/23 A3003 RMK AO2 
    RAB0654 SLP153 P0019 T02390228=
METAR KJER 080753Z AUTO 03011KT 10SM CLR 14/M02 A3011 RMK AO2 SLP159 
    T01441017=
METAR KJKL 080753Z AUTO 00000KT 5SM HZ CLR 24/19 A3010 RMK AO2 
    SLP175 T02390194=
METAR KJLN 080753Z 00000KT 9SM BKN028 BKN120 23/22 A3004 RMK AO2 
    RAB04E19 SLP162 P0000 T02280222=
METAR KJYR 080750Z AUTO 35004KT 10SM CLR 17/16 A3015 RMK AO2=
METAR KLAA 080753Z AUTO 06004KT 10SM SCT028 BKN033 OVC110 18/16 
    A3025 RMK AO2 LTG DSNT NE AND E RAE20 SLP205 P0001 T01780161=
METAR KLAN 080753Z 00000KT 7SM CLR 24/22 A3004 RMK AO2 SLP163 
    T02390217 $=
METAR KLAR 080753Z AUTO 19006KT 10SM FEW014 09/08 A3037 RMK AO2 
    SLP213 T00890083=
METAR KLAW 080753Z AUTO 03006KT 10SM CLR 23/22 A3003 RMK AO2 SLP154 
    T02330222=
METAR KLBB 080753Z 32003KT 10SM SCT006 SCT070 BKN110 OVC130 21/19 
    A3013 RMK AO2 RAB08E52 SLP158 P0000 T02060189=
METAR KLBF 080753Z AUTO 00000KT 10SM OVC075 17/16 A3024 RMK AO2 
    SLP223 T01670156=
METAR KLCG 080750Z AUTO 00000KT 10SM CLR 16/15 A3016 RMK AO2 
     T01590152=
METAR KLBX 080753Z AUTO 11006KT 10SM -RA FEW024 SCT031 BKN043 27/25 
    A2989 RMK AO2 RAB22 SLP121 P0001 T02720250=
METAR KLCH 080753Z AUTO 08007KT 9SM CLR 26/23 A2996 RMK AO2 SLP154 
    T02560233=
METAR KLEB 080753Z AUTO 00000KT 2SM BR CLR 22/20 A3004 RMK AO2 VIS 
    1V4 SLP158 T02170200=
METAR KLEE 080753Z AUTO 00000KT 10SM CLR 23/21 A3000 RMK AO2 SLP159 
    T02280211=
METAR KLFK 080753Z AUTO 11005KT 10SM CLR 24/23 A2999 RMK AO2 SLP150 
    T02440228=
####018002930####
SAUS20 KNKA 080754
METAR KELM 080753Z AUTO 00000KT 4SM BR CLR 18/17 A3008 RMK AO2 
    SLP179 T01780167=
METAR KELN 080753Z AUTO VRB03KT 10SM CLR 17/07 A3004 RMK AO2 SLPNO 
    T01720067 403330094 $=
METAR KEMP 080753Z AUTO 08004KT 9SM BKN060 OVC070 22/20 A3008 RMK 
    AO2 SLP175 T02170200=
METAR KENW 080753Z AUTO 19003KT 8SM -RA FEW039 BKN075 OVC095 23/22 
    A3003 RMK AO2 SLP163 P0004 T02280217 $=
METAR KEPH 080753Z AUTO 32007KT 10SM CLR 22/06 A3000 RMK AO2 SLP148 
    T02170056 403330144=
METAR KEQY 080753Z AUTO 00000KT 10SM CLR 24/18 A2999 RMK AO2 SLP149 
    T02390183=
METAR KESF 080753Z AUTO 00000KT 8SM CLR 23/22 A3000 RMK AO2 SLP157 
    T02330222=
METAR KESN 080757Z AUTO 00000KT 5SM BR CLR 23/23 A3002 RMK AO2=
METAR KEVW 080753Z AUTO 09013KT 10SM CLR 13/03 A3028 RMK AO2 SLP170 
    T01280033 TSNO=
METAR KEWB 080753Z AUTO 15007KT 9SM OVC006 22/20 A3006 RMK AO2 CIG 
    003V007 SLP177 T02170200=
METAR KEYE 080753Z AUTO 00000KT 8SM FEW100 23/21 A3005 RMK AO2 
    SLP166 T02330206=
METAR KEYW 080753Z AUTO 00000KT 10SM CLR 28/24 A2993 RMK AO2 SLP134 
    T02780244=
METAR KFAT 080753Z 32009KT 10SM CLR 24/09 A2982 RMK AO2 SLP093 
    T02390089 403500172=
METAR KFAY 080753Z AUTO 00000KT 10SM CLR 27/18 A2992 RMK AO2 SLP126 
    T02670178=
METAR KFCM 080753Z AUTO 00000KT 10SM CLR 19/16 A3007 RMK AO2 SLP178 
    T01940161=
METAR KFDR 080753Z AUTO 02006KT 10SM 24/23 A3001 RMK AO2 SLP142 
    T02390228=
METAR KFDY 080753Z AUTO 00000KT 9SM CLR 23/18 A3005 RMK AO2 SLP166 
    T02280183=
METAR KFFC 080753Z AUTO 00000KT 8SM CLR 21/19 A3005 RMK AO2 SLP165 
    T02110194=
METAR KFFT 080753Z AUTO 00000KT 5SM BR CLR 21/19 A3007 RMK AO2 
    SLP172 T02110194=
METAR KFHR 080753Z AUTO 00000KT 10SM CLR 15/11 A2997 RMK AO2 SLP146 
    T01500111 402940100=
METAR KFLD 080753Z AUTO 17004KT 10SM -RA BKN043 22/21 A2998 RMK AO2 
    SLP148 P0003 T02170206=
METAR KFLL 080753Z 06007KT 10SM SCT023 28/24 A2991 RMK AO2 SLP129 
    T02780244=
METAR KFME 080754Z AUTO 00000KT 4SM CLR 20/20 A3001 RMK AO1=
METAR KFMN 080753Z AUTO 07009KT 10SM CLR 21/06 A3019 RMK AO2 SLP149 
    T02060056=
METAR KFMY 080753Z AUTO 05005KT 10SM CLR 24/22 A2995 RMK AO2 SLP143 
    T02440222=
METAR KFNB 080753Z AUTO 00000KT 7SM CLR 22/21 A3006 RMK AO2 SLP172 
    T02220206=
METAR KFNT 080753Z AUTO 00000KT 8SM CLR 23/21 A3003 RMK AO2 SLP162 
    T02280211=
METAR KFOE 080753Z AUTO 05005KT 10SM OVC100 22/20 A3007 RMK AO2 
    RAE17 SLP172 P0002 T02220200=
METAR KFOK 080753Z AUTO 00000KT 5SM BR BKN003 OVC070 24/22 A3004 RMK 
    AO2 SLP173 T02390222 TSNO=
METAR KFPR 080753Z AUTO 00000KT 10SM CLR 25/22 A2995 RMK AO2 SLP142 
    T02500217=
METAR KFRG 080753Z AUTO 00000KT 5SM BR BKN008 26/24 A3001 RMK AO2 
    SLP163 T02560239=
METAR KFSM 080753Z AUTO 15003KT 10SM OVC032 24/22 A3003 RMK AO2 
    SLP161 T02440222=
####018002933####
SAUS20 KNKA 080754
METAR KMVY 080753Z AUTO 14005KT 1/4SM R24/2000V2800FT FG VV001 21/20 
    A3006 RMK AO2 SLP179 T02110200=
METAR KMWL 080753Z AUTO 13005KT 10SM CLR 23/21 A2998 RMK AO2 SLP139 
    T02280211=
METAR KMYF 080753Z AUTO 34005KT 10SM OVC015 17/14 A2991 RMK AO2 
    SLP126 T01670139 401890144 TSNO=
METAR KMYV 080753Z AUTO 16010KT 10SM CLR 19/11 A2981 RMK AO2 SLP097 
    T01890111 403390133=
METAR KNEW 080753Z AUTO 10006KT 10SM CLR 27/25 A3000 RMK AO2 SLP151 
    T02720250 TSNO=
METAR KOAK 080753Z 28012KT 10SM BKN009 OVC017 14/11 A2995 RMK AO2 
    CIG 007V013 SLP139 T01440106 402060144=
METAR KODX 080753Z AUTO 32004KT 10SM FEW080 16/14 A3019 RMK AO2 
    SLP218 T01560144=
METAR KOGA 080750Z AUTO 00000KT 10SM BKN070 16/15 A3027 RMK AO2 
     T01610150=
METAR KOGD 080753Z 17009KT 10SM CLR 19/07 A3008 RMK AO2 SLP128 
    T01940067=
METAR KOJC 080753Z AUTO 33003KT 10SM BKN014 OVC085 23/22 A3007 RMK 
    AO2 SLP170 T02330217=
METAR KOLF 080753Z AUTO 00000KT 10SM BKN085 13/09 A3014 RMK AO2 
    SLP202 T01280094=
METAR KOMK 080753Z AUTO 30003KT 10SM CLR 17/08 A3004 RMK AO2 SLP165 
    T01670078 403170100=
METAR KONL 080750Z AUTO 26004KT 10SM OVC110 16/14 A3021 RMK AO2 
     T01580142=
METAR KONO 080753Z AUTO 27004KT 10SM CLR 14/07 A3002 RMK AO2 SLP155 
    T01440072=
METAR KONT 080753Z 25003KT 6SM BR OVC012 15/13 A2991 RMK AO2 SLP120 
    T01500128 402610150=
METAR KOPF 080753Z AUTO 04004KT 10SM CLR 27/24 A2993 RMK AO2 SLP135 
    T02670244=
METAR KORF 080751Z 00000KT 4SM BR CLR 26/24 A2995 RMK AO2 SLP142
     T02560244=
METAR KORL 080753Z AUTO 00000KT 10SM CLR 23/21 A2999 RMK AO2 SLP157 
    T02330211=
METAR KOSH 080753Z AUTO 15006KT 6SM BR FEW050 22/21 A2996 RMK AO2 
    RAE50 SLP130 P0002 T02170206=
METAR KOSU 080753Z AUTO 00000KT 6SM HZ CLR 22/19 A3008 RMK AO2 
    SLP177 T02220189=
METAR KOTM 080753Z AUTO 00000KT 4SM BR CLR 21/21 A3004 RMK AO2 
    SLP165 T02060206=
METAR KOVE 080753Z AUTO 16003KT 10SM CLR 22/14 A2982 RMK AO2 SLP098 
    T02220139 403330156 TSNO=
METAR KOVS 080753Z AUTO 00000KT 10SM BKN008 BKN018 21/20 A3001 RMK 
    AO2 SLP158 T02110200=
METAR KOWD 080753Z AUTO 16005KT 10SM BKN013 OVC018 23/19 A3005 RMK 
    AO2 SLP176 T02330189=
METAR KOXB 080753Z AUTO 08003KT 7SM BKN095 24/24 A2999 RMK AO2 
    SLP155 T02440244 $=
METAR KPAE 080753Z AUTO 00000KT 10SM CLR 21/11 A2997 RMK AO2 SLP144 
    T02060111 402830144=
METAR KPAH 080753Z AUTO 00000KT 10SM CLR 23/22 A3003 RMK AO2 SLP166 
    T02280217=
METAR KPBF 080753Z AUTO 00000KT 8SM CLR 24/22 A3005 RMK AO2 SLP171 
    T02390222=
METAR KPBG 080753Z AUTO 00000KT 7SM CLR 23/21 A2999 RMK AO2 SLP153 
    T02280211=
METAR KPBI 080753Z 05006KT 10SM FEW022 SCT032 SCT250 27/23 A2992 RMK 
    AO2 SLP131 T02720233=
METAR KPDK 080753Z AUTO 00000KT 10SM CLR 23/19 A3005 RMK AO2 SLP152 
    T02330189=
####018000080####
SAYE20 OYSY 080800
METAR OYSY 080800Z 24005KT 170V340 8000 NSC 40/11 Q1004=
####018000083####
SAMJ41 LWOH 080800
METAR LWOH 080800Z 01009KT 330V050 9999 FEW033 18/07 Q1019=
####018000075####
SAGI32 EGRR 080750
METAR LXGB 080750Z 10013KT CAVOK 24/24 Q1016 NOSIG=
####018000118####
SAUS43 KUNR 080755
MTRCUT
METAR KCUT 080753Z AUTO 31005KT 10SM CLR 08/07 A3034 RMK AO2 SLP240 
T00830067 TSNO
####018000150####
SAUS45 KABQ 080755
MTRTCS
METAR KTCS 080753Z AUTO 00000KT 10SM -RA FEW080 BKN110 19/16 A3020 
RMK AO2 RAB12E30B49 SLP138 P0000 T01940156 TSNO
####018000119####
SAIN90 VECC 080750
METAR VECC 080750Z 18009KT 4000 HZ SCT018 FEW030CB SCT100 32/25 Q1005
TEMPO TL0920 1500 TSRA=
####018000100####
SAFJ31 NFNA 080800
METAR NFNA 080800Z 00000KT 40KM SCT023 BKN050 OVC120 23/21 Q1014 RMK
RR NIL
####018000126####
SAUS45 KLKN 080755
MTRELY
METAR KELY 080753Z AUTO 17004KT 10SM CLR 09/M05 A3019 RMK AO2 SLP130 
T00941050 403000061 $
####018000115####
SAUS45 KABQ 080755
MTRGNT
METAR KGNT 080753Z AUTO 16017KT 18/08 A3028 RMK AO2 SLP150 T01830078 
PWINO TSNO
####018000110####
SAUS44 KJAN 080755
MTRJAN
METAR KJAN 080754Z 00000KT 10SM CLR 24/22 A3004 RMK AO2 SLP166 
T02390222 $
####018002958####
SAUS20 KNKA 080755
METAR KAAF 080753Z AUTO 01004KT 10SM CLR 23/22 A3000 RMK AO2 SLP158 
    T02330222=
METAR KAAO 080754Z AUTO 06006KT 10SM CLR 21/20 A3008 RMK AO2 SLP173 
    T02110200=
METAR KAEG 080755Z AUTO 15012KT 10SM CLR 17/08 A3028 RMK AO1  =
METAR KAIZ 080755Z AUTO 06004KT 10SM FEW002 22/21 A3005 RMK AO1 
    P0002=
METAR KAKH 080754Z AUTO 00000KT 10SM CLR 22/18 A3000 RMK AO2 SLP151 
    T02220183=
METAR KALO 080754Z AUTO 31005KT 10SM CLR 19/19 A3004 RMK AO2 SLP167 
    T01940194=
METAR KAPC 080754Z AUTO 26013KT 10SM CLR 12/10 A2991 RMK AO2 SLP118 
    T01170100 402110117=
METAR KARG 080755Z AUTO 17005KT 10SM CLR 25/23 A3005 RMK AO1=
METAR KAUO 080755Z AUTO 21003KT 10SM CLR 26/21 A3002 RMK AO1=
METAR KAVL 080754Z AUTO 00000KT 10SM CLR 19/18 A3013 RMK AO2 SLP173 
    T01890178=
METAR KAWO 080755Z AUTO 00000KT 10SM CLR 16/14 A2997 RMK AO1=
METAR KBDN 080755Z AUTO 30006KT 10SM CLR 19/03 A3009 RMK AO2 =
METAR KBOW 080755Z AUTO 00000KT 10SM CLR 22/21 A3000 RMK AO2 =
METAR KBVX 080755Z AUTO 14003KT 10SM CLR 24/22 A3006 RMK AO1=
METAR KBWI 080754Z 10005KT 7SM FEW200 27/22 A2998 RMK AO2 SLP150 
    T02670222=
METAR KCGC 080755Z AUTO 00000KT 10SM CLR 22/21 A2999 RMK=
METAR KCIU 080755Z AUTO 20006KT 5SM SCT045 BKN080 OVC090 19/17 A2997 
    RMK AO1 P0001=
METAR KCOE 080755Z AUTO 04010KT 10SM CLR 17/09 A3008 RMK AO1=
METAR KCVN 080755Z AUTO 02006KT 10SM SCT075 BKN100 17/14 A3022 RMK 
    AO1=
METAR KCVO 080755Z AUTO 28014KT 10SM CLR 16/09 A2989 RMK AO1=
METAR KCWI 080755Z 00000KT 7SM SCT075 A3002 RMK AO1=
METAR KDEC 080754Z AUTO 22003KT 10SM CLR 25/22 A3004 RMK AO2 SLP166 
    T02500222=
METAR KDYR 080755Z AUTO 00000KT 10SM CLR 24/20 A3006 RMK AO1=
METAR KEAR 080755Z AUTO 34004KT 10SM CLR 16/14 A3022 RMK AO1=
METAR KECG 080754Z AUTO 00000KT 4SM BR CLR 26/24 A2994 RMK AO2 
    SLP139 T02560244=
METAR KEHR 080755Z AUTO 24003KT 9SM BKN090 23/19 A3005 RMK AO1=
METAR KESC 080755Z AUTO 00000KT 4SM CLR 19/17 A2996 RMK AO1=
METAR KEUG 080754Z 21010KT 10SM CLR 16/11 A2989 RMK AO2 SLP121 
    T01560111 403610100=
METAR KEWK 080755Z AUTO 09003KT 10SM CLR 21/19 A3006 RMK AO1=
METAR KEWN 080754Z AUTO 05007KT 7SM CLR 26/22 A2992 RMK AO2 SLP132 
    T02560222=
METAR KFAM 080755Z AUTO 00000KT 10SM CLR 22/22 A3008 RMK AO1=
METAR KFLP 080755Z AUTO 00000KT 10SM FEW090 23/22 A3004 RMK AO1=
METAR KFOD 080755Z AUTO 32003KT 10SM CLR 19/18 A3011 RMK AO1=
METAR KGAD 080755Z AUTO 00000KT 10SM CLR 22/21 A3004 RMK AO1=
METAR KGAI 080755Z 00000KT 9SM BKN090 BKN110 26/21 A3003 RMK AO1 
     =
METAR KGBD 080755Z AUTO 36006KT 6SM OVC013 19/18 A3015 RMK AO1=
METAR KGCK 080754Z AUTO 05009KT 10SM BKN060 BKN080 18/17 A3020 RMK 
    AO2 SLP198 T01830167=
METAR KGTR 080755Z 32003KT 10SM CLR 24/22 A3004 RMK AO1=
METAR KHEF 080755Z AUTO 00000KT 7SM CLR 24/20 A2998 RMK AO1=
METAR KHEZ 080755Z AUTO 00000KT 10SM CLR 23/23 A3002 RMK AO1=
####018000200####
SACA01 KMSC 080754
METAR TISX 080753Z 09007KT 10SM FEW022 27/24 A2997 RMK AO2 SLP148 
    T02720239=
METAR TIST 080753Z AUTO 08004KT 10SM CLR 28/24 A2997 RMK AO2 SLP150 
    T02780244 TSNO=
####018002923####
SAUS20 KNKA 080754
METAR KSMF 080753Z 16009KT 10SM CLR 16/11 A2981 RMK AO2 SLP094 
    T01610106 403220128=
METAR KSMQ 080753Z AUTO 00000KT 4SM BR CLR 22/21 A3000 RMK AO2 
    SLP156 T02170211=
METAR KSNA 080753Z 00000KT 10SM OVC017 18/12 A2991 RMK AO2 SLP127 
    T01830122 402330172=
METAR KSNS 080753Z AUTO 29005KT 10SM OVC011 13/11 A2993 RMK AO2 
    SLP144 T01330106 401720128=
METAR KSNY 080753Z AUTO 00000KT 10SM FEW075 17/14 A3031 RMK AO2 
    SLP232 T01670144=
METAR KSOW 080750Z AUTO 21005KT 10SM BKN100 21/04 A3023 RMK AO2=
METAR KSPB 080753Z AUTO 29004KT 10SM CLR 20/13 A2986 RMK AO2 SLP112 
    T02000128 403390106=
METAR KSPG 080753Z 11008KT 10SM CLR 27/22 A2997 RMK AO2 SLP149 
    T02670217=
METAR KSPW 080753Z AUTO 31004KT 10SM CLR 16/15 A3014 RMK AO2 SLP200 
    T01610150=
METAR KSRQ 080753Z 07004KT 10SM CLR 24/22 A2997 RMK AO2 SLP148 
    T02390217=
METAR KSSF 080753Z AUTO 05005KT 10SM BKN015 OVC020 26/23 A2992 RMK 
    AO2 SLP118 T02610228=
METAR KSTC 080753Z AUTO 00000KT 3/4SM BR CLR 14/13 A3008 RMK AO2 VIS 
    1/2V2 1/2 SLP191 T01390128=
METAR KSTJ 080753Z AUTO 24005KT 7SM BKN008 BKN018 OVC023 23/22 A3007 
    RMK AO2 LTG DSNT S SLP174 T02280217=
METAR KSTP 080753Z 32004KT 10SM BKN037 20/17 A3007 RMK AO2 SLP176 
    T02000172=
METAR KSTS 080753Z AUTO 00000KT 10SM OVC008 12/10 A2992 RMK AO2 
    SLP126 T01220100 402170117=
METAR KSUN 080751Z AUTO 31008KT 10SM CLR 12/02 A3022 RMK AO2=
METAR KSWO 080753Z AUTO 02006KT 10SM BKN029 BKN047 OVC055 23/22 
    A3003 RMK AO2 SLP156 T02330217=
METAR KSZT 080750Z AUTO 00000KT 10SM CLR 11/09 A3009 RMK AO2=
METAR KTCC 080753Z AUTO 04011KT 10SM SCT120 18/14 A3020 RMK AO2 
    RAB10E24 SLP169 P0000 T01780144=
METAR KTCL 080753Z AUTO 00000KT 8SM CLR 24/23 A3003 RMK AO2 SLP166 
    T02440228=
METAR KTDZ 080753Z AUTO 00000KT 10SM FEW070 24/18 A3005 RMK AO2 
    SLP169 T02390183=
METAR KTHV 080753Z AUTO 00000KT 5SM HZ CLR 23/20 A3001 RMK AO2 
    SLP159 T02280200=
METAR KTIF 080750Z AUTO 00000KT 10SM OVC080 16/14 A3025 RMK AO2 
     T01580143=
METAR KTIW 080753Z AUTO 02004KT 10SM FEW090 23/12 A2993 RMK AO2 
    SLP131 T02280117 402890133=
METAR KTKI 080753Z AUTO 17005KT 10SM BKN019 26/23 A3000 RMK AO2 
    SLP153 T02560228=
METAR KTMB 080753Z AUTO 02003KT 10SM CLR 27/25 A2992 RMK AO2 SLP132 
    T02720250=
METAR KTOI 080753Z AUTO 00000KT 8SM CLR 22/22 A3003 RMK AO2 SLP163 
    T02220217=
METAR KTOP 080753Z AUTO 07007KT 10SM OVC090 22/21 A3006 RMK AO2 
    RAE39 SLP172 P0011 T02170206=
METAR KTOR 080753Z AUTO 02005KT 10SM CLR 13/12 A3029 RMK AO2 SLP233 
    T01330117=
METAR KTPA 080753Z 00000KT 10SM FEW250 25/21 A2999 RMK AO2 SLP155 
    T02500211 $=
METAR KTRK 080750Z AUTO 32005KT 10SM FEW110 13/09 A3016 RMK AO2=
METAR KTTD 080753Z AUTO 00000KT 10SM FEW090 19/13 A2985 RMK AO2 
    SLP108 T01940128 403390117=
####018002919####
SAUS20 KNKA 080754
METAR KPDT 080753Z AUTO 12007KT 10SM CLR 17/07 A2996 RMK AO2 SLP130 
    T01670072 403330111=
METAR KPDX 080753Z 00000KT 10SM CLR 21/14 A2987 RMK AO2 SLP114 
    T02110144 403500139=
METAR KPEO 080753Z AUTO 22004KT 4SM BR CLR 22/21 A3008 RMK AO2 
    SLP178 T02220211=
METAR KPGA 080753Z AUTO 00000KT 10SM FEW120 28/M01 A3002 RMK AO2 
    SLP088 T02781006=
METAR KPGD 080753Z AUTO 04005KT 10SM CLR 23/22 A2999 RMK AO2 SLP155 
    T02330222 TSNO=
METAR KPHD 080753Z AUTO 00000KT 2 1/2SM BR CLR 20/18 A3009 RMK AO2 
    SLP181 T02000178=
METAR KPIE 080753Z AUTO 10005KT 10SM CLR 25/21 A2999 RMK AO2 SLP155 
    T02500211 TSNO=
METAR KPIH 080753Z AUTO 20003KT 10SM CLR 08/03 A3015 RMK AO2 SLP175 
    T00780028=
METAR KPIL 080753Z AUTO 05006KT 10SM FEW019 29/25 A2979 RMK AO2 
    SLP086 T02890250 $=
METAR KPIR 080753Z AUTO 25007KT 10SM CLR 16/13 A3015 RMK AO2 SLP202 
    T01610128=
METAR KPKB 080753Z AUTO 00000KT 3SM BR CLR 21/19 A3010 RMK AO2 
    SLP182 T02060194 TSNO=
METAR KPKD 080753Z AUTO 00000KT 10SM CLR 15/13 A3007 RMK AO2 SLP182 
    T01500133=
METAR KPMD 080753Z AUTO 20005KT 10SM CLR 19/07 A2990 RMK AO2 SLP096 
    T01940067 403500178 TSNO $=
METAR KPMP 080753Z AUTO 07006KT 10SM CLR 28/23 A2992 RMK AO2 SLP133 
    T02780233=
METAR KPNA 080750Z AUTO 30003KT 10SM CLR 08/00 A3037 RMK AO2 
     T00830001=
METAR KPNC 080753Z AUTO 03004KT 10SM SCT110 22/21 A3004 RMK AO2 
    SLP161 T02220211=
METAR KPOF 080753Z AUTO 21003KT 7SM CLR 24/23 A3004 RMK AO2 SLP165 
    T02440233 $=
METAR KPOU 080753Z 00000KT 6SM BR CLR 23/22 A3000 RMK AO2 SLP154 
    T02330217=
METAR KPQL 080753Z AUTO 00000KT 5SM BR CLR 24/23 A3001 RMK AO2 
    SLP162 T02390233=
METAR KPRB 080753Z AUTO 00000KT 10SM CLR 13/11 A2990 RMK AO2 SLP122 
    T01330106 402390117=
METAR KPRC 080753Z AUTO 19003KT 10SM SCT075 BKN120 19/05 A3009 RMK 
    AO2 SLP097 T01940050=
METAR KPSC 080753Z AUTO 32003KT 10SM CLR 16/11 A2994 RMK AO2 SLP137 
    T01610106 403560106=
METAR KPSP 080753Z 32007KT 10SM CLR 28/11 A2973 RMK AO2 SLP062 
    T02780106 404060211=
METAR KPSX 080753Z AUTO 11008KT 10SM -RA FEW016 27/25 A2986 RMK AO2 
    PK WND 09031/0730 RAB05 SLP111 P0011 T02670250=
METAR KPTK 080753Z 00000KT 9SM SCT250 24/22 A3004 RMK AO2 SLP162 
    T02440217=
METAR KPTT 080750Z AUTO 01007KT 10SM CLR 19/18 A3014 RMK AO2=
METAR KPUB 080753Z AUTO 08006KT 10SM OVC044 16/13 A3034 RMK AO2 
    SLP219 T01560133=
METAR KPUC 080753Z AUTO 05007KT 10SM CLR 14/01 A3021 RMK AO2 SLP152 
    T01440006 TSNO=
METAR KPUW 080753Z AUTO 00000KT 10SM CLR 11/08 A3007 RMK AO2 SLP172 
    T01110078 402940056=
METAR KRAC 080753Z AUTO 21006KT 6SM -RA BR FEW042 SCT070 OVC090 
    23/22 A3004 RMK AO2 RAB19 SLP168 P0002 T02330217=
METAR KRAL 080753Z AUTO 28003KT 7SM CLR 15/12 A2991 RMK AO2 SLP116 
    T01500122 402670150=
####018002964####
SAUS20 KNKA 080754
METAR KRBG 080753Z AUTO 34004KT 10SM CLR 21/12 A2990 RMK AO2 SLP121 
    T02110122 403780133=
METAR KRDD 080753Z AUTO 31005KT 10SM CLR 26/15 A2982 RMK AO2 SLP091 
    T02560150 403720200=
METAR KRHI 080753Z AUTO 28003KT 2SM BR BKN001 OVC007 19/18 A3003 RMK 
    AO2 SLP163 T01890183=
METAR KRIW 080753Z AUTO 36005KT 10SM CLR 09/03 A3032 RMK AO2 SLP227 
    T00890028=
METAR KRKP 080753Z AUTO 10015G20KT 10SM FEW021 SCT033 BKN041 28/26 
    A2982 RMK AO2 LTG DSNT N TSE0658 SLP101 T02780256=
METAR KRMG 080753Z AUTO 00000KT 10SM CLR 22/19 A3003 RMK AO2 SLP159 
    T02170189=
METAR KRNT 080753Z AUTO 00000KT 10SM CLR 21/14 A2993 RMK AO2 SLP140 
    T02060144 403060161=
METAR KRSL 080753Z AUTO 35006KT 8SM BKN012 18/18 A3014 RMK AO2 
    SLP193 T01830178=
METAR KRSW 080753Z 04007KT 10SM CLR 24/22 A2995 RMK AO2 SLP141 
    T02390222=
METAR KRUE 080753Z AUTO 00000KT 10SM BKN025 24/23 A3005 RMK AO2 
    SLP167 T02390228=
METAR KRVS 080753Z VRB03KT 2SM +TSRA BR BKN005 BKN017 OVC034 23/23 
    A3003 RMK AO2 TSB18 SLP172 P0106 T02280228=
METAR KRWF 080753Z AUTO 28006KT 10SM CLR 16/14 A3011 RMK AO2 SLP194 
    T01560144=
METAR KRWI 080753Z AUTO 00000KT 6SM HZ CLR 24/20 A2994 RMK AO2 
    SLP136 T02390200=
METAR KRWL 080753Z AUTO 06004KT 10SM CLR 08/07 A3036 RMK AO2 SLP219 
    T00830067=
METAR KRXE 080753Z AUTO 05005KT 10SM CLR 11/06 A3019 RMK AO2 SLP190 
    T01060061=
METAR KSAC 080753Z 17006KT 10SM CLR 15/10 A2984 RMK AO2 SLP102 
    T01500100 403060122=
METAR KSAF 080753Z AUTO 16004KT 10SM CLR 16/10 A3031 RMK AO2 SLP160 
    T01560100=
METAR KSAN 080751Z 30004KT 10SM OVC013 17/13 A2992 RMK AO2 SLP132
     T01720133 401890150=
METAR KSAT 080753Z 08008KT 10SM BKN016 BKN250 26/23 A2994 RMK AO2 
    SLP120 T02560228=
METAR KSBA 080753Z 00000KT 10SM BKN021 13/11 A2991 RMK AO2 SLP127 
    T01330111 401890122 $=
METAR KSBM 080753Z AUTO 00000KT 9SM -RA BKN090 22/21 A2999 RMK AO2 
    RAB0659E12B49 SLP149 P0000 T02220211=
METAR KSDL 080753Z 00000KT 10SM CLR 31/07 A2979 RMK AO2 SLP058 
    T03060067=
METAR KSEA 080753Z 02011KT 10SM CLR 24/10 A2995 RMK AO2 SLP144 
    T02390100 403220150 $=
METAR KSEG 080753Z AUTO 32003KT 5SM HZ CLR 22/18 A3003 RMK AO2 
    SLP165 T02170178=
METAR KSFF 080753Z AUTO 00000KT 10SM CLR 15/11 A3005 RMK AO2 SLP162 
    T01500111 403000100=
METAR KSHN 080753Z AUTO 00000KT 10SM CLR 14/12 A2992 RMK AO2 SLP130 
    T01390122 403330089=
METAR KSHR 080753Z AUTO 20003KT 10SM CLR 08/06 A3026 RMK AO2 SLP231 
    T00830061=
METAR KSIY 080753Z AUTO 20003KT 10SM CLR 23/09 A2994 RMK AO2 SLP117 
    T02280094 403610172 $=
METAR KSJC 080753Z AUTO 35004KT 10SM OVC015 16/11 A2993 RMK AO2 
    SLP133 T01560111 402500139=
METAR KSLC 080753Z 19004KT 10SM FEW130 19/07 A3008 RMK AO2 SLP132 
    T01940072=
METAR KSLN 080753Z AUTO 36008KT 7SM CLR 21/20 A3011 RMK AO2 SLP184 
    T02110200=
####018002604####
SAUS20 KNKA 080754
METAR KTTN 080753Z AUTO 00000KT 5SM HZ CLR 25/21 A3001 RMK AO2 
    SLP154 T02500211 PWINO=
METAR KTUL 080753Z 14006KT 5SM +TSRA BR FEW055 BKN075 BKN095 23/22 
    A3000 RMK AO2 TSB26 SLP151 FRQ LTGIC S-SW TS S-SW MOV N P0031 
    T02330217=
METAR KTUS 080753Z 07004KT 10SM CLR 32/07 A2988 RMK AO2 SLP058 
    T03220072=
METAR KTVC 080753Z AUTO 00000KT 10SM BKN120 23/20 A2998 RMK AO2 
    SLP148 T02330200=
METAR KTVL 080753Z AUTO 00000KT 10SM FEW120 13/07 A3016 RMK AO2 
    SLP150 T01280072 402670078=
METAR KTVR 080753Z AUTO 09003KT 8SM CLR 23/22 A3002 RMK AO2 SLP171 
    T02330222 $=
METAR KTWF 080753Z AUTO 18003KT 10SM CLR 12/M01 A3010 RMK AO2 SLP144 
    T01171006=
METAR KUAO 080753Z AUTO 00000KT 10SM CLR 23/11 A2986 RMK AO2 SLP109 
    T02330111 403560167=
METAR KUNO 080753Z AUTO 20004KT 10SM CLR 24/21 A3008 RMK AO2 SLP171 
    T02390211 TSNO=
METAR KUTS 080753Z AUTO 00000KT 9SM CLR 24/23 A2997 RMK AO2 SLP143 
    T02440233=
METAR KUUU 080753Z AUTO 14005KT 1 1/4SM BR OVC002 21/21 A3006 RMK 
    AO2 CIG 001V004 SLP177 T02110206=
METAR KVCB 080753Z AUTO 23005KT 10SM CLR 19/09 A2981 RMK AO2 SLP094 
    T01940094 403330133=
METAR KVEL 080753Z AUTO 34007KT 10SM CLR 18/06 A3021 RMK AO2 SLP167 
    T01780056=
METAR KVGT 080753Z AUTO 31003KT 10SM CLR 29/M04 A2983 RMK AO2 SLP062 
    T02891039 403940222 TSNO=
METAR KVIH 080753Z AUTO 00000KT 4SM BR FEW002 SCT006 BKN049 23/22 
    A3004 RMK AO2 SLP157 T02330217=
METAR KVPC 080753Z AUTO 00000KT 8SM CLR 20/19 A3005 RMK AO2 SLP161 
    T02000189=
METAR KVPZ 080753Z AUTO 31005KT 8SM SCT060 23/22 A3004 RMK AO2 
    SLP167 T02330217=
METAR KVRB 080753Z AUTO 00000KT 10SM FEW028 23/21 A2996 RMK AO2 
    SLP143 T02280211=
METAR KVUO 080753Z AUTO 00000KT 10SM CLR 19/14 A2986 RMK AO2 SLP112 
    T01890139 403560111=
METAR KW29 080752Z AUTO 00000KT 7SM CLR 25/22 A2998 RMK AO1=
METAR KWRL 080753Z AUTO 15008KT 10SM CLR 15/04 A3025 RMK AO2 SLP214 
    T01500039=
METAR KWST 080753Z AUTO 00000KT 10SM SCT013 BKN090 23/21 A3005 RMK 
    AO2 SLP174 T02280206=
METAR KWVI 080753Z AUTO 00000KT 10SM OVC011 13/11 A2994 RMK AO2 
    SLP137 T01280106 401780128=
METAR KXNA 080753Z 19004KT 10SM FEW080 23/22 A3006 RMK AO2 RAE05 
    SLP164 P0000 T02280222=
METAR KYIP 080753Z 00000KT 5SM BR CLR 23/21 A3004 RMK AO2 SLP164 
    T02280206=
METAR KYKM 080753Z AUTO 26009KT 10SM CLR 18/06 A3000 RMK AO2 SLP151 
    T01830056 403330094=
METAR KZZV 080753Z AUTO 00000KT 2 1/2SM BR SCT065 20/19 A3008 RMK 
    AO2 SLP177 T02000189=
####018000464####
SAHW31 KMSC 080754
METAR PHNL 080753Z 05008KT 10SM FEW032 SCT045 25/18 A3004 RMK AO2 
    SLP170 T02500178=
METAR PHTO 080753Z 09003KT 10SM OVC065 23/17 A3005 RMK AO2 SLP174 
    T02330172=
METAR PHKO 080753Z 17004KT 10SM CLR 24/18 A2999 RMK AO2 SLP155 
    T02390178=
METAR PHLI 080753Z AUTO 07012KT 10SM SCT023 OVC038 A3006 RMK AO2 
    SLPNO FZRANO TSNO $=
METAR PHJR 080753Z VRB04KT 10SM FEW050 24/18 A3005 RMK AO2 SLP180 
    T02390183=
####018001262####
SAUS20 KNKA 080755
METAR KSGT 080755Z 00000KT 10SM CLR 24/22 A3005 RMK AO1=
METAR KSKX 080755Z AUTO 00000KT 10SM CLR 12/03 A3037 RMK AO1=
METAR KSLG 080755Z AUTO 16006KT 10SM FEW024 23/21 A3006 RMK AO1=
METAR KSPA 080755Z AUTO 36003KT 10SM CLR 24/23 A3001 RMK AO2=
METAR KSPL 080755Z AUTO 05008KT FEW020 BKN047 BKN090 29/25 A2978 
     RMK AO2 PWINO PNO =
METAR KSQI 080755Z 00000KT 6SM BKN008 BKN018 OVC050 22/22 A3004 RMK 
    AO1=
METAR KSUE 080755Z AUTO 14003KT 2SM SCT005 SCT070 OVC110 20/19 A2997 
    RMK AO1 P0001=
METAR KSUS 080754Z AUTO 28006KT 3SM R08R/4500VP6000FT VCTS RA BR 
    FEW017 BKN038 OVC050 24/23 A3003 RMK AO2 LTG DSNT N TSB38RAB44 
    SLP159 P0005 T02440233=
METAR KUIN 080754Z AUTO 21005KT 4SM +RA BR FEW014 BKN020 OVC046 
    23/22 A3004 RMK AO2 RAB48 SLP165 P0004 T02280222=
METAR KUTA 080755Z AUTO 00000KT 10SM CLR 23/22 A3006 RMK AO2=
METAR KUZA 080754Z AUTO 00000KT 10SM CLR 22/18 A3000 RMK AO2 SLP143 
    T02220178=
METAR KVBT 080755Z AUTO 00000KT 10SM SCT085 23/22 A3003 RMK AO1 
    P0001=
METAR KWLD 080754Z AUTO 03004KT 10SM FEW047 BKN075 23/21 A3007 RMK 
    AO2 RAB0656E22 SLP170 P0001 T02280211=
METAR KX40 080755Z AUTO 00000KT 7SM CLR 23/22 A3001 RMK AO2 
     T02270220=
####018002958####
SAUS20 KNKA 080755
METAR KHNB 080755Z AUTO 00000KT 10SM SCT070 23/21 A3005 RMK AO1=
METAR KHWD 080754Z AUTO 33006KT 10SM OVC011 14/11 A2993 RMK AO2 
    SLP144 T01390106 402220139=
METAR KHYS 080755Z AUTO 35007KT 10SM SCT014 18/17 A3017 RMK AO1=
METAR KINT 080754Z AUTO 34003KT 10SM FEW090 24/17 A3002 RMK AO2 
    SLP151 T02440172=
METAR KIWD 080755Z AUTO 00000KT 10SM FEW070 BKN100 17/16 A3000 RMK 
    AO1=
METAR KKLS 080755Z AUTO 00000KT 10SM CLR 17/14 A2989 RMK AO1=
METAR KL35 080753Z AUTO 00000KT 10SM CLR 07/M06 A3018 RMK AO2=
METAR KLAF 080754Z AUTO 00000KT 9SM CLR 23/21 A3003 RMK AO2 SLP163 
    T02330211 TSNO=
METAR KLBL 080755Z 06010KT 10SM FEW033 20/17 A3020 RMK AO1=
METAR KLBT 080754Z AUTO 31004KT 10SM SCT100 27/19 A2993 RMK AO2 
    SLP131 T02670189=
METAR KLGD 080755Z AUTO 34003KT 10SM CLR 14/06 A3004 RMK AO1=
METAR KLKV 080755Z AUTO 34007KT 10SM CLR 11/02 A3012 RMK AO1=
METAR KLUX 080755Z AUTO 28004KT 10SM CLR 22/22 A3002 RMK AO2=
METAR KLYH 080754Z AUTO 00000KT 5SM HZ CLR 24/19 A3003 RMK AO2 
    SLP157 T02390194=
METAR KMBL 080755Z AUTO 00000KT 10SM OVC110 21/19 A3001 RMK AO1=
METAR KMER 080755Z AUTO 33005KT 10SM CLR 18/10 A2983 RMK AO1 =
METAR KMFE 080753Z AUTO 01006KT 10SM CLR 26/24 A2981 RMK AO2 SLP091 
    T02610244=
METAR KMKC 080754Z AUTO VRB04KT 10SM SCT011 BKN044 OVC050 23/21 
    A3006 RMK AO2 LTG DSNT NW SLP172 T02330211=
METAR KMNI 080755Z AUTO 00000KT 10SM CLR 21/21 A2996 RMK AO2=
METAR KMNM 080755Z AUTO 00000KT 7SM BKN120 21/19 A2997 RMK AO1 P0001=
METAR KMRF 080755Z AUTO 04006KT 10SM FEW120 17/14 A3016 RMK AO1=
METAR KMRY 080754Z AUTO 31004KT 10SM OVC010 14/10 A2994 RMK AO2 
    SLP150 T01390100 401830128=
METAR KMTW 080755Z 21004KT 10SM OVC090 22/20 A2999 RMK AO1=
METAR KMVN 080755Z AUTO 00000KT 1 3/4SM CLR 22/21 A3005 RMK AO1=
METAR KODO 080753Z AUTO 02005KT 10SM OVC100 22/20 A3010 RMK AO2 
    RAE16 SLP144 P0001 T02170200=
METAR KOFP 080754Z AUTO 00000KT 6SM HZ CLR 24/19 A2999 RMK AO2 
    SLP153 T02440194=
METAR KOLM 080754Z AUTO 00000KT 10SM CLR 16/12 A2993 RMK AO2 SLP135 
    T01560117 403280089=
METAR KOLS 080754Z AUTO 04010KT 10SM CLR 28/07 A2996 RMK AO2 SLP060 
    T02780072=
METAR KOLU 080755Z AUTO 31003KT 10SM CLR 16/14 A3016 RMK AO1=
METAR KOTH 080755Z 22003KT 10SM OVC008 11/08 A3001 RMK AO1=
METAR KPHF 080754Z 00000KT 3SM BR FEW080 BKN110 24/24 A2996 RMK AO2 
    SLP144 T02440239=
METAR KPIA 080754Z 15003KT 6SM -RA BR BKN070 OVC085 23/22 A3003 RMK 
    AO2 RAB19 SLP164 P0002 T02280217=
METAR KPIB 080755Z AUTO 00000KT 10SM CLR 23/21 A3004 RMK AO1=
METAR KPTN 080755Z AUTO 00000KT 10SM CLR 24/M09 A3001 RMK AO1=
METAR KPWT 080755Z AUTO 04009KT 10SM CLR 23/07 A2997 RMK AO1=
METAR KRBL 080754Z AUTO 23003KT 10SM CLR 25/18 A2982 RMK AO2 SLP091 
    T02500178 403500183=
METAR KSET 080754Z AUTO 00000KT 6SM BR CLR 25/24 A3002 RMK AO2 LTG 
    DSNT SW SLP161 T02500244=
####018000589####
SAUK34 EGGY 080750
METAR EGHD 080750Z 00000KT 9999 FEW025 17/12 Q1019=
METAR EGHE 080750Z 19003KT CAVOK 17/13 Q1019=
METAR COR EGHK 080750Z 12002KT 9999 VCFG FEW018 16/15 Q1018 NOSIG=
METAR EGHQ 080750Z NIL=
METAR EGJA 080750Z 18003KT 4000 0800SE R26/1000 BCFG FEW000
    SCT001 BKN015 16/16 Q1020=
METAR EGJB 080750Z 23005KT 200V270 9999 2800SE VCFG FEW001 BKN006
    17/16 Q1020=
METAR EGJJ 080750Z 31007KT 240V340 9999 FEW002 BKN010 19/17 Q1020
    NOSIG=
METAR EGTE 080750Z 08001KT CAVOK 17/14 Q1018=
METAR EGTG 080750Z 26003KT 9999 -SHRA SCT018 16/12 Q1019=
####018000481####
SASN35 ESWI 080750
METAR ESGL 080750Z AUTO 21010KT 9999NDV OVC040/// 20/15 Q1018=
METAR ESGR 080750Z AUTO 21010KT 9999NDV BKN036/// 20/13 Q1018=
METAR ESKM 080750Z NIL=
METAR ESNL 080750Z AUTO 15011KT 120V190 9999NDV FEW023///
BKN080/// 19/11 Q1013=
METAR ESNX 080750Z AUTO 15009KT 9999NDV BKN078/// BKN150/// /////
Q1013=
METAR ESNY 080750Z AUTO 19006KT 150V250 9999 SKC 22/15 Q1014=
METAR ESSF 080750Z NIL=
METAR ESSK 080750Z NIL=
METAR ESUD 080750Z NIL=
####018000509####
SASN32 ESWI 080750
METAR ESKN 080750Z 26008KT 200V330 CAVOK 22/11 Q1018=
METAR ESOE 080750Z 21010KT 9999 BKN040 20/13 Q1017=
METAR ESOK 080750Z 20009KT 9999 BKN023 18/13 Q1017=
METAR ESOW 080750Z 24008KT CAVOK 20/12 Q1018=
METAR ESSA 080750Z 24009KT 200V280 CAVOK 22/11 Q1017 NOSIG=
METAR ESSB 080750Z 27007KT 240V350 CAVOK 22/11 Q1017=
METAR ESSD 080750Z 18008KT 9999NDV NCD 20/13 Q1016=
METAR ESSP 080750Z 25008KT 220V290 CAVOK 21/12 Q1018=
METAR ESSV 080750Z 31007KT CAVOK 19/12 Q1019=
####018000495####
SASN33 ESWI 080750
METAR ESNG 080750Z 15009KT 110V180 CAVOK 20/08 Q1014=
METAR ESNK 080750Z NIL=
METAR ESNN 080750Z AUTO 15007KT 9999NDV NCD 20/12 Q1013=
METAR ESNO 080750Z 13011KT CAVOK 20/11 Q1014=
METAR ESNQ 080750Z 20011KT CAVOK 17/08 Q1013=
METAR ESNS 080750Z 17007KT 130V200 CAVOK 21/11 Q1015=
METAR ESNU 080750Z 14006KT 110V180 CAVOK 20/12 Q1015=
METAR ESNZ 080750Z 19009KT CAVOK 16/10 Q1011=
METAR ESUT 080750Z AUTO 15011KT 9999NDV SCT080/// BKN160/// 18/10
Q1010=
####018000172####
SAAK17 KAWN 080800 RRA
PACZ SA 0755 AWOS MM 10 52/47/0910/007=
PAEH SA 0755 AWOS M9 BKN 20 OVC 10 49/-19/0000/001=
PAIM SA 0755 AWOS CLR BLO 120 10 58/46/3103/008=
####018000361####
SABX31 EBBR 080750
METAR EBAW 080750Z 19005KT 140V230 CAVOK 24/12 Q1019 NOSIG=
METAR EBBR 080750Z 22005KT 190V280 CAVOK 26/11 Q1019 NOSIG=
METAR EBCI 080750Z 21007KT CAVOK 25/10 Q1020 NOSIG=
METAR EBLG 080750Z 20006KT CAVOK 25/09 Q1020 NOSIG=
METAR EBOS 080750Z 28006KT CAVOK 19/15 Q1019 NOSIG=
METAR ELLX 080750Z VRB02KT CAVOK 23/10 Q1021 NOSIG=
####018000187####
SASN34 ESWI 080750
METAR ESDF 080750Z 22004KT 160V250 CAVOK 22/12 Q1021=
METAR ESPA 080750Z 17012KT CAVOK 19/13 Q1016=
METAR ESSL 080750Z 26008KT 220V300 9999 SCT040 21/11 Q1019=
####018000087####
SAPK31 OPSK 080753
METAR OPSK 080755Z 05006KT 6000 HZ SCT100 39/25 QNH1003 RH45PC=
####018000422####
SAUK33 EGGY 080750
METAR EGGD 080750Z 19004KT 160V220 9999 FEW025 15/13 Q1019=
METAR EGGP 080750Z 21010KT 9999 FEW025 16/11 Q1016=
METAR EGHI 080750Z 24007KT 210V270 6000 -SHRA BR SCT005 BKN008 16/15
    Q1019 =
METAR EGNS 080750Z NIL=
METAR EGNT 080750Z 22008KT 190V260 9999 FEW040 15/10 Q1014=
METAR EGNV 080750Z 18009KT 9999 FEW030 16/13 Q1015=
METAR COR EGPB 080750Z 20015KT CAVOK 14/10 Q1005 NOSIG=
####018000107####
SAPH31 RPLC 080800
METAR RPLC 080800Z
VRB03KT 9999 FEW036 SCT100 BKN270 32/24 Q1008 A2979 RMK NOSIG=
####018000047####
SAOS32 LOWM 080750
METAR LOXZ 080750Z NIL=
####018000461####
SAUK35 EGGY 080750
METAR EGHH 080750Z 24005KT 9999 SCT007 BKN012 17/17 Q1019=
METAR EGKA 080750Z NIL=
METAR EGKB 080750Z 22005KT 190V260 9999 SCT012 18/15 Q1019 =
METAR EGLF 080750Z 24005KT 200V260 9999 -DZ SCT006 BKN009 17/16
    Q1019=
METAR EGMC 080750Z 24009KT 9999 FEW016 SCT040 19/15 Q1019=
METAR EGMD 080750Z NIL=
METAR EGMH 080750Z 27008KT 250V310 9999 FEW010 20/17 Q1019 =
METAR EGTC 080750Z 29007KT 9999 FEW012 BKN030 16/13 Q1018=
####018000088####
SAXX70 KAWN 080700 RRX
METAR KQEJ 080740Z AUTO 21003KT 7SM CLR 27/18 A2990 RMK A02=
####018000395####
SAOS31 LOWM 080750
METAR LOWW 080750Z 01005KT 300V050 9999 FEW035 20/11 Q1024 NOSIG=
METAR LOWL 080750Z 09005KT 050V150 CAVOK 19/10 Q1024 NOSIG=
METAR LOWS 080750Z 14004KT 060V220 CAVOK 20/08 Q1023 NOSIG=
METAR LOWI 080750Z 26004KT 180V310 CAVOK 19/12 Q1023 NOSIG=
METAR LOWG 080750Z VRB02KT 9999 FEW060 21/11 Q1024 NOSIG=
METAR LOWK 080750Z VRB02KT 9999 FEW050 19/11 Q1024 NOSIG=
####018000292####
SAFI33 EFHK 080750
EFJO 080750Z 01003KT CAVOK 23/20 Q1015=
EFLP 080750Z 07007KT 020V110 CAVOK 28/17 Q1013=
EFMI 080750Z AUTO VRB03KT 9999 FEW025 26/18 Q1014=
EFSA 080750Z 35004KT 320V020 CAVOK 24/20 Q1014=
EFUT 080750Z 02004KT 310V130 CAVOK 28/18 Q1013=
METAR EFVR 080755Z NIL=
####018000368####
SAFI32 EFHK 080750
EFHA 080750Z 34003KT 9999 BKN006 BKN070 19/18 Q1016=
EFHF 080750Z 35005KT 270V070 9999 FEW028 25/19 Q1014=
EFKA 080750Z VRB01KT 9999 SCT015 SCT200 22/16 Q1016=
EFKK 080750Z 10003KT CAVOK 21/12 Q1016=
EFMA 080750Z 21006KT 150V310 CAVOK 21/13 Q1016=
EFPO 080750Z 32003KT CAVOK 22/11 Q1016=
EFSI 080750Z AUTO VRB03KT CAVOK 22/13 Q1016=
####018000244####
SASY31 OSDI 080800
OSDI 080800Z 21016KT CAVOK 31/06 Q1010=
OSAP 080800Z 27017KT CAVOK 30/18 Q1007=
OSLK 080800Z 23004KT 9999 FEW026 SCT030 28/19 Q1009=
OSDZ 080800Z 06008KT CAVOK 34/13 Q1006=
OSKL 080800Z 29008KT CAVOK 38/06 Q1005=
####018000126####
SAUS45 KLKN 080755
MTRP68
METAR KP68 080753Z AUTO 22003KT 12/M02 A3013 RMK AO2 SLP117 
T01221022 403110083 PWINO TSNO
