####018000285####
SASW32 LSSW 080720
METAR LSGC 080720Z NIL=
METAR LSGS 080720Z 09003KT 050V160 CAVOK 23/13 Q1022=
METAR LSZG 080720Z NIL=
METAR LSZR 080720Z VRB01KT CAVOK 20/14 Q1022 NOSIG RMK D=
METAR LSZS 080720Z VRB01KT CAVOK 14/11 Q1027=
METAR LSZC 080720Z 07004KT CAVOK 20/14 Q1022=
####018000232####
SPUS99 KWBC 080725
SPECI
KHVN 080723Z AUTO 07003KT 3SM HZ OVC004 24/23 A3003 RMK AO2=
KILG 080723Z AUTO 10003KT 6SM HZ FEW009 26/22 A3001 RMK AO2 $=
KLWC 080723Z AUTO 31006KT 10SM BKN008 OVC024 22/21 A3008 RMK
     AO2=
####018002848####
SAUS99 KWBC 080725
METAR
KW22 080720Z AUTO 00000KT 5SM BR FEW070 21/20 A3013 RMK AO2=
KW45 080720Z AUTO 00000KT 10SM CLR 24/19 A3004 RMK AO2
     T02390191=
KWDR 080720Z AUTO 00000KT 10SM CLR 23/20 A3008 RMK AO1=
KXLL 080720Z AUTO 00000KT 7SM CLR 25/22 A3003 RMK AO2
     T02450221=
KXSA 080720Z AUTO 00000KT 5SM BKN120 24/23 A2997 RMK AO2 PWINO=
KUXL 080720Z AUTO 08006KT 10SM CLR 26/24 A2997 RMK AO2=
KEYF 080720Z AUTO 29003KT 10SM SCT110 27/19 A2993 RMK AO2
     T02740188=
KFFA 080718Z AUTO 08004KT 10SM CLR 25/24 A2994 RMK AO2
     T02500236=
KFYJ 080723Z AUTO 00000KT 4SM CLR 26/24 A2997 RMK AO1=
KGAO 080720Z AUTO 00000KT 10SM SCT015 SCT022 27/25 A3000 RMK
     AO2=
KGWW 080720Z AUTO 00000KT 10SM CLR 25/20 A2993 RMK AO2
     T02450203=
KHBI 080723Z AUTO 00000KT 10SM CLR 23/18 A3001 RMK AO2=
KHDC 080723Z AUTO 00000KT 10SM CLR 26/26 A3002 RMK AO2=
KHNZ 080720Z AUTO 00000KT 7SM SCT100 24/19 A2998 RMK AO2
     T02390185=
KIER 080720Z AUTO 00000KT 10SM CLR 24/24 A3000 RMK AO2 PWINO=
KISO 080720Z AUTO 00000KT 10SM CLR 24/20 A2993 RMK AO2
     T02400197=
KIXA 080720Z AUTO 00000KT 7SM CLR 23/19 A2994 RMK AO2
     T02270191=
KJFZ 080720Z AUTO 00000KT 8SM FEW070 22/21 A3017 RMK=
KLDJ 080720Z AUTO 11003KT 4SM BR OVC002 25/23 A3001 RMK AO2
     T02460232=
KLHZ 080720Z AUTO 00000KT 7SM CLR 23/19 A2997 RMK AO2
     T02290190=
KLKU 080720Z AUTO 00000KT 5SM HZ SCT075 24/21 A2999 RMK AO2=
KLNP 080718Z AUTO 00000KT 5SM CLR 20/18 A3019 RMK AO1=
KMDQ 080720Z AUTO 00000KT 10SM CLR 22/22 A3007 RMK AO2
     T02240216=
KMKJ 080720Z AUTO 00000KT 2 1/2SM CLR 18/08 A3021 RMK AO1=
KMLJ 080724Z AUTO 00000KT 10SM CLR 23/23 A3002 RMK AO2=
KMQS 080720Z AUTO 00000KT 8SM CLR 24/22 A3004 RMK AO2 PWINO
     PNO=
KMTV 080720Z AUTO 00000KT 4SM BR CLR 22/21 A3004 RMK AO2=
KOBE 080721Z AUTO 00000KT 10SM CLR 23/22 A2997 RMK AO2=
KOKV 080720Z AUTO 00000KT 7SM SCT100 25/19 A3003 RMK AO2
     T02490190=
KOMH 080720Z AUTO 00000KT 10SM CLR 27/21 A3002 RMK AO2
     T02650209=
KONX 080720Z AUTO 00000KT 5SM BR SCT090 26/24 A2995 RMK AO2
     T02600240=
KOPN 080720Z AUTO 00000KT 10SM CLR 26/22 A3005 RMK AO1=
KPCM 080720Z AUTO 00000KT 10SM CLR 24/23 A3002 RMK AO2=
KRCZ 080720Z AUTO 00000KT 10SM SCT095 26/18 A2996 RMK AO2
     T02580183=
KRHP 080724Z AUTO 00000KT 7SM CLR 18/17 A3012 RMK AO2=
KRMN 080720Z AUTO 00000KT 5SM BR SCT075 BKN100 23/23 A3000 RMK
     AO2=
KSFQ 080720Z AUTO 00000KT 5SM BR CLR 23/21 A2996 RMK AO2=
KSHD 080720Z AUTO 00000KT 7SM CLR 24/18 A3007 RMK AO2=
KTBR 080720Z AUTO 00000KT 10SM CLR 24/20 A3000 RMK AO2
     T02360202=
KTNB 080722Z AUTO 00000KT 10SM CLR 16/13 A3020 RMK AO2=
KTVI 080720Z AUTO 00000KT 10SM CLR 22/22 A3003 RMK AO2
     T02220215=
KVDF 080716Z AUTO 00000KT 10SM CLR 23/22 A3000 RMK AO2=
####018000520####
SASN32 ESWI 080720
METAR ESKN 080720Z 29007KT 260V340 CAVOK 21/12 Q1018=
METAR ESOE 080720Z 23008KT 9999 SCT039 19/12 Q1018=
METAR ESOK 080720Z 22008KT 190V250 9999 SCT023 BKN045 19/13 Q1017=
METAR ESOW 080720Z 24009KT 210V280 CAVOK 20/12 Q1017=
METAR ESSA 080720Z 27009KT CAVOK 21/10 Q1017 NOSIG=
METAR ESSB 080720Z 25009KT 230V290 CAVOK 21/11 Q1017=
METAR ESSD 080720Z AUTO 23006KT 190V260 9999NDV NCD 19/12 Q1016=
METAR ESSP 080720Z 26009KT CAVOK 21/10 Q1018=
METAR ESSV 080720Z 30008KT CAVOK 19/12 Q1019=
####018000375####
SAUK35 EGGY 080720
METAR EGHH 080720Z NIL=
METAR EGKA 080720Z NIL=
METAR EGKB 080720Z 21006KT 190V250 9999 SCT010 SCT045 17/15 Q1019 =
METAR EGLF 080720Z 25007KT 210V270 7000 -DZ BKN009 17/15 Q1019=
METAR EGMC 080720Z 23008KT 9999 FEW012 BKN016 19/16 Q1019=
METAR EGMD 080720Z NIL=
METAR EGMH 080720Z NIL=
METAR EGTC 080720Z 30005KT 9999 FEW012 SCT024 16/13 Q1018=
####018000347####
SAFI32 EFHK 080720
EFHA 080720Z 04003KT 9999 BKN007 BKN070 19/17 Q1015=
EFHF 080720Z 36005KT 340V050 CAVOK 25/19 Q1014=
EFKA 080720Z 25003KT 9999 SCT015 SCT200 20/16 Q1016=
EFKK 080720Z VRB03KT CAVOK 21/13 Q1016=
EFMA 080720Z VRB01KT CAVOK 22/12 Q1016=
EFPO 080720Z VRB02KT CAVOK 22/13 Q1016=
EFSI 080720Z AUTO VRB01KT CAVOK 21/14 Q1016=
####018000461####
SAUK34 EGGY 080720
METAR EGHD 080720Z 00000KT 9999 FEW025 16/13 Q1019=
METAR EGHE 080720Z NIL=
METAR EGHK 080720Z NIL=
METAR EGHQ 080720Z NIL=
METAR EGJA 080720Z 19005KT 0400 R26/0325 FG FEW000 BKN001 16/16
    Q1020=
METAR EGJB 080720Z 25005KT 210V270 9999 VCFG FEW001 BKN006 17/16
    Q1020=
METAR EGJJ 080720Z 30006KT 260V330 9999 FEW006 18/17 Q1020 BECMG
    BKN012=
METAR EGTE 080720Z 35002KT 9999 FEW035 17/14 Q1019=
METAR EGTG 080720Z NIL=
####018000176####
SASN34 ESWI 080720
METAR ESDF 080720Z 25004KT 200V350 CAVOK 21/12 Q1021=
METAR ESPA 080720Z 17010KT CAVOK 18/12 Q1016=
METAR ESSL 080720Z 26009KT 9999 SCT041 21/11 Q1019=
####018000451####
SASN35 ESWI 080720
METAR ESGL 080720Z AUTO 21009KT 9999NDV OVC038/// 19/14 Q1018=
METAR ESGR 080720Z AUTO 21010KT 9999NDV BKN037/// 19/13 Q1018=
METAR ESKM 080720Z NIL=
METAR ESNL 080720Z AUTO 12013KT 9999NDV FEW026/// BKN082/// 21/11
Q1013=
METAR ESNX 080720Z AUTO 15009KT 9999NDV OVC082/// ///// Q1014=
METAR ESNY 080720Z AUTO 22006KT 180V250 9999 SKC 21/15 Q1014=
METAR ESSF 080720Z NIL=
METAR ESSK 080720Z NIL=
METAR ESUD 080720Z NIL=
####018000474####
SAUK31 EGGY 080720
METAR EGBB 080720Z 24006KT 9999 -RA FEW019 15/11 Q1018=
METAR EGCC 080720Z 19008KT 9999 FEW032 SCT036 15/12 Q1017=
METAR EGKK 080720Z 26008KT 9999 FEW008 BKN010 18/14 Q1019=
METAR EGLL 080720Z 25009KT 9999 BKN010 18/15 Q1019=
METAR EGPF 080720Z 22014KT 9999 FEW030 SCT040 14/11 Q1012=
METAR EGPH 080720Z 23015KT 9999 FEW022 15/09 Q1012=
METAR EGPK 080720Z 22013KT 9999 SCT025 15/10 Q1013=
METAR EGSS 080720Z 22009KT 9999 -DZ BKN011 18/15 Q1019=
####018000279####
SASW32 LSSW 080720
METAR LSGC 080720Z NIL=
METAR LSGS 080720Z 09003KT 050V160 CAVOK 23/13 Q1022=
METAR LSZG 080720Z NIL=
METAR LSZR 080720Z VRB01KT CAVOK 20/14 Q1022 NOSIG RMK D=
METAR LSZS 080720Z VRB01KT CAVOK 14/11 Q1027=
METAR LSZC 080720Z 07004KT CAVOK 20/14 Q1022=
####018000521####
SASN33 ESWI 080720
METAR ESNG 080720Z 16011KT 130V200 CAVOK 19/07 Q1014=
METAR ESNK 080720Z AUTO 17012KT 9999NDV NCD 20/13 Q1013=
METAR ESNN 080720Z AUTO 16005KT 9999NDV FEW052/// 20/12 Q1013=
METAR ESNO 080720Z 12008KT CAVOK 19/11 Q1014=
METAR ESNQ 080720Z 18009KT CAVOK 16/08 Q1013 RERA=
METAR ESNS 080720Z 16007KT CAVOK 20/10 Q1015=
METAR ESNU 080720Z 13005KT 100V170 CAVOK 19/12 Q1015=
METAR ESNZ 080720Z 18009KT CAVOK 16/11 Q1011=
METAR ESUT 080720Z AUTO 16009KT 9999NDV FEW088/// SCT130/// 17/10
Q1010=
####018000118####
SAUS43 KLOT 080724
MTRRFD
SPECI KRFD 080723Z 00000KT 10SM -RA SCT008 BKN013 OVC050 22/21 A3004 
RMK AO2 P0000
####018000075####
SALY31 HLLM 080700
METAR HLLM 080650Z VRB03KT 6000 BKN025 26/20 Q1019=
####018000077####
SPUS31 KWBC 080725
SPECI
KSFO 080722Z 29009KT 10SM BKN008 13/10 A2993=
####018000107####
SPUS52 KWBC 080725
SPECI
KCNM 080722Z AUTO 00000KT 10SM VCTS -RA SCT023 BKN029 OVC090 21/19
A3012=
####018000199####
SADN33 EKCH 080720
METAR EKKA 080720Z 21009KT 170V240 9999 FEW030 BKN060 20/14
Q1017 TEMPO 6000 SHRA SCT020CB=
METAR EKSP 080720Z 19009KT 150V210 CAVOK 21/12 Q1018 NOSIG RMK
SCT050 BKN150=
####018000378####
SAUK33 EGGY 080720
METAR EGGD 080720Z 22004KT 9999 FEW025 15/13 Q1019=
METAR EGGP 080720Z 21009KT 9999 FEW025 16/11 Q1016=
METAR EGHI 080720Z 24008KT 210V270 4000 -SHRA BR SCT005 BKN008 17/15
    Q1019 =
METAR EGNS 080720Z NIL=
METAR EGNT 080720Z NIL=
METAR EGNV 080720Z 18009KT 9999 FEW030 15/12 Q1015=
METAR COR EGPB 080720Z 20016KT CAVOK 13/10 Q1005 NOSIG=
####018000179####
SASN34 ESWI 080720
METAR ESDF 080720Z 25004KT 200V350 CAVOK 21/12 Q1021=
METAR ESPA 080720Z 17010KT CAVOK 18/12 Q1016=
METAR ESSL 080720Z 26009KT 9999 SCT041 21/11 Q1019=
####018001701####
SAEU KAWN 080700 RRX
METAR EGAA 080720Z 23013KT 9999 SCT014 BKN018 13/10 Q1014=
METAR EGAC 080720Z 21011KT 9999 FEW015 SCT023 15/10 Q1013=
METAR EGBB 080720Z 24006KT 9999 -RA FEW019 15/11 Q1018=
METAR EGCC 080720Z 19008KT 9999 FEW032 SCT036 15/12 Q1017=
METAR EGFF 080720Z 00000KT 9999 FEW021 16/13 Q1018=
METAR EGGD 080720Z 22004KT 9999 FEW025 15/13 Q1019=
METAR EGGP 080720Z 21009KT 9999 FEW025 16/11 Q1016=
METAR EGGW 080720Z 25005KT 9999 SCT017 OVC020 16/14 Q1019=
METAR EGHI 080720Z 24008KT 210V270 4000 -SHRA BR SCT005 BKN008 17/15
      Q1019=
METAR EGKK 080720Z 26008KT 9999 FEW008 BKN010 18/14 Q1019=
METAR EGLC 080720Z 25007KT 9999 BKN014 19/14 Q1019=
METAR EGLL 080720Z 25009KT 9999 BKN010 18/15 Q1019=
METAR EGNM 080720Z 23005KT 180V270 9999 FEW035 14/11 Q1016=
METAR EGNV 080720Z 18009KT 9999 FEW030 15/12 Q1015=
METAR EGNX 080720Z 22013KT CAVOK 16/10 Q1018=
METAR COR EGPB 080720Z 20016KT CAVOK 13/10 Q1005 NOSIG=
METAR EGPD 080720Z 21013KT CAVOK 14/09 Q1010 NOSIG=
METAR EGPF 080720Z 22014KT 9999 FEW030 SCT040 14/11 Q1012=
METAR EGPH 080720Z 23015KT 9999 FEW022 15/09 Q1012=
METAR EGPK 080720Z 22013KT 9999 SCT025 15/10 Q1013=
METAR EGSS 080720Z 22009KT 9999 -DZ BKN011 18/15 Q1019=
METAR EKAH 080720Z AUTO 19007KT 140V270 9999NDV FEW038/// SCT150///
      21/13 Q1018=
METAR EKBI 080720Z 19004KT 150V230 9999 FEW038 BKN045 19/15 Q1018=
METAR EKCH 080720Z 18010KT CAVOK 21/15 Q1020 NOSIG=
METAR EKEB 080720Z AUTO 20009KT 9999NDV OVC044/// 21/17 Q1017=
METAR EKRK 080720Z 18010KT CAVOK 21/14 Q1020=
METAR EKYT 080720Z 23011KT 9999 BKN032 BKN120 20/14 Q1017 NOSIG=
METAR LWOH 080730Z 01008KT 330V060 9999 FEW033 18/07 Q1019=
####018000482####
SAUK31 EGGY 080720
METAR EGBB 080720Z 24006KT 9999 -RA FEW019 15/11 Q1018=
METAR EGCC 080720Z 19008KT 9999 FEW032 SCT036 15/12 Q1017=
METAR EGKK 080720Z 26008KT 9999 FEW008 BKN010 18/14 Q1019=
METAR EGLL 080720Z 25009KT 9999 BKN010 18/15 Q1019=
METAR EGPF 080720Z 22014KT 9999 FEW030 SCT040 14/11 Q1012=
METAR EGPH 080720Z 23015KT 9999 FEW022 15/09 Q1012=
METAR EGPK 080720Z 22013KT 9999 SCT025 15/10 Q1013=
METAR EGSS 080720Z 22009KT 9999 -DZ BKN011 18/15 Q1019=
####018000083####
SAMJ41 LWOH 080730
METAR LWOH 080730Z 01008KT 330V060 9999 FEW033 18/07 Q1019=
####018001771####
SAUK KAWN 080700 RRF
METAR EGAA 080720Z 23013KT 9999 SCT014 BKN018 13/10 Q1014=
METAR EGAC 080720Z 21011KT 9999 FEW015 SCT023 15/10 Q1013=
METAR EGBB 080720Z 24006KT 9999 -RA FEW019 15/11 Q1018=
METAR EGCC 080720Z 19008KT 9999 FEW032 SCT036 15/12 Q1017=
METAR EGFF 080720Z 00000KT 9999 FEW021 16/13 Q1018=
METAR EGGD 080720Z 22004KT 9999 FEW025 15/13 Q1019=
METAR EGGP 080720Z 21009KT 9999 FEW025 16/11 Q1016=
METAR EGGW 080720Z 25005KT 9999 SCT017 OVC020 16/14 Q1019=
METAR EGHD 080720Z 00000KT 9999 FEW025 16/13 Q1019=
METAR EGHI 080720Z 24008KT 210V270 4000 -SHRA BR SCT005 BKN008 17/15
      Q1019=
METAR EGJA 080720Z 19005KT 0400 R26/0325 FG FEW000 BKN001 16/16 Q1020=
METAR EGJB 080720Z 25005KT 210V270 9999 VCFG FEW001 BKN006 17/16 Q1020=
METAR EGJJ 080720Z 30006KT 260V330 9999 FEW006 18/17 Q1020 BECMG BKN012=
METAR EGKB 080720Z 21006KT 190V250 9999 SCT010 SCT045 17/15 Q1019=
METAR EGKK 080720Z 26008KT 9999 FEW008 BKN010 18/14 Q1019=
METAR EGLC 080720Z 25007KT 9999 BKN014 19/14 Q1019=
METAR EGLF 080720Z 25007KT 210V270 7000 -DZ BKN009 17/15 Q1019=
METAR EGLL 080720Z 25009KT 9999 BKN010 18/15 Q1019=
METAR EGMC 080720Z 23008KT 9999 FEW012 BKN016 19/16 Q1019=
METAR EGNM 080720Z 23005KT 180V270 9999 FEW035 14/11 Q1016=
METAR EGNV 080720Z 18009KT 9999 FEW030 15/12 Q1015=
METAR EGNX 080720Z 22013KT CAVOK 16/10 Q1018=
METAR COR EGPB 080720Z 20016KT CAVOK 13/10 Q1005 NOSIG=
METAR EGPD 080720Z 21013KT CAVOK 14/09 Q1010 NOSIG=
METAR EGPF 080720Z 22014KT 9999 FEW030 SCT040 14/11 Q1012=
METAR EGPH 080720Z 23015KT 9999 FEW022 15/09 Q1012=
METAR EGPK 080720Z 22013KT 9999 SCT025 15/10 Q1013=
METAR EGSS 080720Z 22009KT 9999 -DZ BKN011 18/15 Q1019=
METAR EGTE 080720Z 35002KT 9999 FEW035 17/14 Q1019=
####018000529####
SASN32 ESWI 080720
METAR ESKN 080720Z 29007KT 260V340 CAVOK 21/12 Q1018=
METAR ESOE 080720Z 23008KT 9999 SCT039 19/12 Q1018=
METAR ESOK 080720Z 22008KT 190V250 9999 SCT023 BKN045 19/13 Q1017=
METAR ESOW 080720Z 24009KT 210V280 CAVOK 20/12 Q1017=
METAR ESSA 080720Z 27009KT CAVOK 21/10 Q1017 NOSIG=
METAR ESSB 080720Z 25009KT 230V290 CAVOK 21/11 Q1017=
METAR ESSD 080720Z AUTO 23006KT 190V260 9999NDV NCD 19/12 Q1016=
METAR ESSP 080720Z 26009KT CAVOK 21/10 Q1018=
METAR ESSV 080720Z 30008KT CAVOK 19/12 Q1019=
####018000531####
SASN33 ESWI 080720
METAR ESNG 080720Z 16011KT 130V200 CAVOK 19/07 Q1014=
METAR ESNK 080720Z AUTO 17012KT 9999NDV NCD 20/13 Q1013=
METAR ESNN 080720Z AUTO 16005KT 9999NDV FEW052/// 20/12 Q1013=
METAR ESNO 080720Z 12008KT CAVOK 19/11 Q1014=
METAR ESNQ 080720Z 18009KT CAVOK 16/08 Q1013 RERA=
METAR ESNS 080720Z 16007KT CAVOK 20/10 Q1015=
METAR ESNU 080720Z 13005KT 100V170 CAVOK 19/12 Q1015=
METAR ESNZ 080720Z 18009KT CAVOK 16/11 Q1011=
METAR ESUT 080720Z AUTO 16009KT 9999NDV FEW088/// SCT130/// 17/10
Q1010=
####018000151####
SADN32 EKCH 080720
METAR EKVJ 080720Z NIL=
METAR EKSB 080720Z NIL=
METAR EKSN 080720Z NIL=
METAR EKVD 080720Z NIL=
METAR EKOD 080720Z NIL=
####018000461####
SASN35 ESWI 080720
METAR ESGL 080720Z AUTO 21009KT 9999NDV OVC038/// 19/14 Q1018=
METAR ESGR 080720Z AUTO 21010KT 9999NDV BKN037/// 19/13 Q1018=
METAR ESKM 080720Z NIL=
METAR ESNL 080720Z AUTO 12013KT 9999NDV FEW026/// BKN082/// 21/11
Q1013=
METAR ESNX 080720Z AUTO 15009KT 9999NDV OVC082/// ///// Q1014=
METAR ESNY 080720Z AUTO 22006KT 180V250 9999 SKC 21/15 Q1014=
METAR ESSF 080720Z NIL=
METAR ESSK 080720Z NIL=
METAR ESUD 080720Z NIL=
####018000106####
SATU20 LTAA 080650 RRD
METAR LTBU 080720Z 34013KT 9999 SCT030 BKN100 23/12 Q1014 RMK RWY23
34014KT=
####018000077####
SALY31 HLLM 080700
METAR HLLM 080650Z 
VRB03KT 6000 BKN025 26/20 Q1019=
####018000199####
SADN34 EKCH 080720
METAR EKGF 080720Z NIL=
METAR EKHN 080720Z AUTO 20008KT 170V240 9999NDV BKN046/// 18/14
Q1018=
METAR EKHR 080720Z AUTO 20013KT 9999NDV SCT043/// OVC050///
18/15 Q1017=
####018000354####
SAFI32 EFHK 080720
EFHA 080720Z 04003KT 9999 BKN007 BKN070 19/17 Q1015=
EFHF 080720Z 36005KT 340V050 CAVOK 25/19 Q1014=
EFKA 080720Z 25003KT 9999 SCT015 SCT200 20/16 Q1016=
EFKK 080720Z VRB03KT CAVOK 21/13 Q1016=
EFMA 080720Z VRB01KT CAVOK 22/12 Q1016=
EFPO 080720Z VRB02KT CAVOK 22/13 Q1016=
EFSI 080720Z AUTO VRB01KT CAVOK 21/14 Q1016=
####018000473####
SAUK34 EGGY 080720
METAR EGHD 080720Z 00000KT 9999 FEW025 16/13 Q1019=
METAR EGHE 080720Z NIL=
METAR EGHK 080720Z NIL=
METAR EGHQ 080720Z NIL=
METAR EGJA 080720Z 19005KT 0400 R26/0325 FG FEW000 BKN001 16/16
    Q1020=
METAR EGJB 080720Z 25005KT 210V270 9999 VCFG FEW001 BKN006 17/16
    Q1020=
METAR EGJJ 080720Z 30006KT 260V330 9999 FEW006 18/17 Q1020 BECMG
    BKN012=
METAR EGTE 080720Z 35002KT 9999 FEW035 17/14 Q1019=
METAR EGTG 080720Z NIL=
####018000383####
SAUK35 EGGY 080720
METAR EGHH 080720Z NIL=
METAR EGKA 080720Z NIL=
METAR EGKB 080720Z 21006KT 190V250 9999 SCT010 SCT045 17/15 Q1019 =
METAR EGLF 080720Z 25007KT 210V270 7000 -DZ BKN009 17/15 Q1019=
METAR EGMC 080720Z 23008KT 9999 FEW012 BKN016 19/16 Q1019=
METAR EGMD 080720Z NIL=
METAR EGMH 080720Z NIL=
METAR EGTC 080720Z 30005KT 9999 FEW012 SCT024 16/13 Q1018=
####018000476####
SAUK32 EGGY 080720
METAR EGAA 080720Z 23013KT 9999 SCT014 BKN018 13/10 Q1014=
METAR EGAC 080720Z 21011KT 9999 FEW015 SCT023 15/10 Q1013=
METAR EGFF 080720Z 00000KT 9999 FEW021 16/13 Q1018=
METAR EGGW 080720Z 25005KT 9999 SCT017 OVC020 16/14 Q1019=
METAR EGLC 080720Z 25007KT 9999 BKN014 19/14 Q1019=
METAR EGNM 080720Z 23005KT 180V270 9999 FEW035 14/11 Q1016=
METAR EGNX 080720Z 22013KT CAVOK 16/10 Q1018=
METAR EGPD 080720Z 21013KT CAVOK 14/09 Q1010 NOSIG=
####018000095####
SPUS53 KWBC 080725
SPECI
KVIH 080722Z AUTO 01003KT 8SM SCT002 BKN039 OVC049 23/22 A3005=
####018000107####
SPUS72 KWBC 080725
SPECI
KCNM 080722Z AUTO 00000KT 10SM VCTS -RA SCT023 BKN029 OVC090 21/19
A3012=
####018000267####
SAUS20 KNKA 080725
METAR KCLS 080715Z AUTO 00000KT 10SM CLR 17/14 A2993 RMK AO2 =
METAR KGZL 080715Z AUTO 12004KT 10SM FEW023 OVC065 24/23 A3003 RMK 
     AO2 =
SPECI KMKO 080724Z AUTO 07004KT 10SM SCT009 BKN023 OVC080 23/23 
    A3002 RMK AO2 LTG DSNT N=
####018000081####
SAMJ41 LWSK 080730
METAR LWSK 080730Z 00000KT 9999 BKN050 17/12 Q1019 NOSIG=
####018001051####
SADL51 ETGT 080720
METAR
EDHK 080720Z 16006KT 9999 FEW060 SCT110 21/12 Q1019
      BLU+BLU=
ETGG 080720Z 17009KT 9999 BKN060 21/14 Q1018
      BLU=
ETGY 080720Z 24004KT 9999 FEW120 SCT250 23/12 Q1019
      BLU+=
ETHB 080720Z 18004KT 9999 FEW140 24/11 Q1019
      BLU+BLU+=
ETHC 080720Z 19004KT 9999 FEW050 23/11 Q1020
      BLU+BLU+=
ETHE 080720Z 16003KT 9999 FEW130 SCT250 23/12 Q1019
      BLU+BLU+=
ETHF 080720Z 12003KT 9999 FEW170 21/13 Q1021
      BLU+BLU+=
ETHS 080720Z 20005KT 9999 FEW160 24/09 Q1020
      BLU+BLU+=
ETMN NIL=
ETND NIL=
ETNH 080720Z 16005KT 9999 SCT050 BKN110 23/12 Q1019
      BLU BLU+ TEMPO BLU=
ETNJ NIL=
ETNL 080720Z 20004KT 9999 FEW100 BKN200 21/12 Q1021
      BLU+BLU+=
ETNS NIL=
ETNT 080720Z 19007KT 9999 FEW090 SCT270 24/11 Q1018
      BLU+BLU+=
ETNU NIL=
ETNW 080720Z 19006KT 9999 FEW150 SCT200 24/10 Q1020
      BLU+BLU+=
ETSH 080720Z 15004KT 9999 FEW170 21/11 Q1022
      BLU+BLU+=
ETWM 080720Z 21006KT 9999 FEW050 SCT300 25/11 Q1019
      BLU+=
####018000077####
SPUS74 KWBC 080725
SPECI
KSFO 080722Z 29009KT 10SM BKN008 13/10 A2993=
####018000092####
SPUS17 KAWN 080725 RRC
SPECI KNFW 080717Z AUTO 14006KT 10SM BKN022 27/22 A3003 RMK AO2=
####018000114####
SAUS41 KCAR 080725
MTR40B
METAR K40B 080725Z AUTO 00000KT 21/21 A3001 RMK AO1 SLP148
     T02090207 55004
####018000711####
SADL52 ETGT 080720
METAR
ETGQ NIL=
ETGZ 080720Z 13004KT 9999 FEW120 20/08 Q1024
      BLU+=
ETHA 080720Z 06003KT 9999 FEW150 18/11 Q1023
      BLU+BLU+=
ETHL 080720Z 05003KT 9999 FEW140 19/11 Q1022
      BLU+BLU+=
ETHN NIL=
ETHR 080720Z 13004KT 9999 FEW200 22/09 Q1023
      BLU+BLU+=
ETNN 080720Z 17004KT 9999 FEW170 25/10 Q1019
      BLU+BLU+=
ETSA NIL=
ETSB 080720Z 15005KT 9999 FEW290 23/09 Q1022
      BLU+BLU+=
ETSE 080720Z 11006KT 9999 FEW250 19/10 Q1023
      BLU+BLU+=
ETSI 080720Z 04003KT 9999 FEW120 20/11 Q1023
      BLU+BLU+=
ETSL 080720Z 08005KT 9999 FEW250 20/11 Q1023
      BLU+BLU+=
ETSN 080720Z 06004KT 9999 FEW160 19/10 Q1023
      BLU+BLU+=
####018000528####
SANO32 ENMI 080720
METAR ENAL 080720Z 14003KT 100V210 9999 SCT055 SCT085 16/09 Q1009=
METAR ENCN 080720Z 19009KT 7000 -RA FEW003 BKN006 16/15 Q1015=
METAR ENHD 080720Z 18010KT 9999 FEW008 16/12 Q1013=
METAR ENRO 080720Z 18009KT 100V220 9999 SCT025 BKN100 15/08 Q1011=
METAR ENRY 080720Z 19009KT 7000 VCSH SCT006 BKN009 16/15 Q1016 TEMPO
           4000 RA BR BKN006=
METAR ENSB 080720Z NIL=
METAR ENTC 080720Z 36005KT 9999 BKN070 14/08 Q1011 NOSIG =
METAR ENTO 080720Z 20006KT 3000 -RA BR VV004 16/15 Q1016=
####018000077####
SPUS81 KWBC 080725
SPECI
KSFO 080722Z 29009KT 10SM BKN008 13/10 A2993=
####018001638####
SPZZ40 KAWN 080725 RRE
SPECI BGTL 080720Z AUTO 00000KT 0400 FG VV001 05/04 A2985 RMK AO2 SLP112=
SPECI CYPQ 080720Z AUTO ///// 1/8SM CLR 20/20 A3003 RMK VSBY VRBL 0.1V5.0=
SPECI CYQA 080720Z AUTO 00000KT 2 1/4SM BR CLR 19/19 A3003 RMK SLP170
      DENSITY ALT 1400FT=
SPECI CYQT 080719Z 19004KT 15SM BKN069 OVC150 19/16 RMK AC6AC2=
SPECI CYRT 080719Z 08010KT 1/4SM -DZ FG VV001 RMK FG8=
SPECI CYUA 080720Z AUTO 31017G22KT 9SM OVC005 05/ A3007=
SPECI DAUI 080710Z 06024KT 0600 BLSA VV/// 35/08 Q1012=
SPECI EGUN 080719Z AUTO 25008KT 9999 -RA SCT006 OVC017 17/17 A3007
      RMK AO2 VIS 2800 RWY11 RAB0711 SLP171=
SPECI FCPP 080700Z VRB03KT 1500 R17/P1500 BR BKN016 21/21 Q1014 BECMG
      3000 BR=
SPECI KRND 080722Z AUTO 07007KT 10SM BKN014 OVC024 25/23 A2995 RMK
      AO2 CIG 011V019 SLP130=
SPECI KSKF 080724Z 07007KT 10SM BKN017 26/ A2993 RMK AO2A CIG 014V021
      SLP126 $=
SPECI KWRI 080722Z AUTO 13003KT 2 1/2SM R18/4500V5500FT R24/2800V3000FT
      BR OVC001 24/24 A2999 RMK AO2 SLP157 $=
SPECI LFRH 080723Z 02006KT CAVOK 15/15 Q1019 RMK B2=
SPECI PGUA 080720Z AUTO 07015KT 10SM SCT017 BKN024 28/ A2986 RMK AO2
      BKN V SCT CIG 017 RWY24L SLP092 VISNO RWY24L $=
SPECI PGUA 080721Z AUTO 07015KT 10SM SCT017 28/ A2986 RMK AO2 SLP093
      VISNO RWY24L $=
SPECI RJCC 080716Z 17008KT 4900 -DZ BR FEW002 BKN003 18/17 Q1009 RMK
      1ST002 7ST003 A2979=
SPECI RJCK 080714Z 21003KT 160V240 3100 BR SCT002 BKN003 17/16 Q1009
      RMK 3ST002 7ST003 A2981=
SPECI RJCM 080715Z 02006KT 5000 -SHRA BR FEW002 SCT005 BKN012 17/15
      Q1009 RETS RMK 1ST002 4ST005 6ST012 A2979=
####018000237####
SADL35 EDZO 080720
METAR EDHI 080720Z VRB03KT CAVOK 23/13 Q1019=
METAR EDMO 080720Z 08005KT 050V130 CAVOK 20/10 Q1023=
METAR EDOP 080720Z 16007KT 100V210 CAVOK 23/11 Q1021=
METAR EDTD 080720Z 18004KT 120V240 CAVOK 20/12 Q1023=
####018000406####
SANO33 ENMI 080720
METAR ENAT 080720Z NIL=
METAR ENBL 080720Z 19006KT 9999 SCT030 SCT060 14/08 Q1010=
METAR ENEV 080720Z NIL=
METAR ENFL 080720Z 18013KT 9999 FEW015 SCT050 15/11 Q1010=
METAR ENKB 080720Z 22004KT 180V270 9999 FEW020 SCT093 16/12 Q1009=
METAR ENKR 080720Z NIL=
METAR ENML 080720Z 12004KT 9999 FEW050 BKN060 16/11 Q1009=
METAR ENNA 080720Z 17015KT 9999 FEW040 16/09 Q1014 =
####018000203####
SANO34 ENMI 080720
METAR ENBN 080720Z NIL=
METAR ENBV 080720Z NIL=
METAR ENDI 080720Z NIL=
METAR ENFG 080720Z NIL=
METAR ENHF 080720Z NIL=
METAR ENRA 080720Z NIL=
METAR ENSH 080720Z NIL=
####018000325####
SADL33 EDZO 080720
METAR EDFE 080720Z VRB02KT CAVOK 23/12 Q1021=
METAR EDFH 080720Z 12006KT CAVOK 22/11 Q1022=
METAR EDFM 080720Z 14006KT 100V190 CAVOK 25/10 Q1020=
METAR EDLV 080720Z 18004KT 140V220 CAVOK 25/13 Q1019=
METAR EDTL 080720Z VRB03KT CAVOK 22/13 Q1020=
METAR EDVK 080720Z 12006KT CAVOK 21/11 Q1021=
####018000749####
SADL34 EDZO 080720
METAR EDAC 080720Z 21006KT CAVOK 20/11 Q1022=
METAR EDAH 080720Z 14005KT 090V190 CAVOK 20/11 Q1022=
METAR EDGS 080720Z 18006KT 140V210 CAVOK 22/09 Q1022=
METAR EDHL 080720Z 16008KT CAVOK 22/15 Q1020=
METAR EDJA 080720Z 06004KT 020V090 CAVOK 20/12 Q1023=
METAR EDLN 080720Z VRB03KT CAVOK 23/14 Q1019=
METAR EDLP 080720Z 19008KT 150V220 CAVOK 25/11 Q1020=
METAR EDLW 080720Z 19009KT CAVOK 25/09 Q1020=
METAR EDMA 080720Z 13005KT 100V180 CAVOK 20/10 Q1022=
METAR EDNY 080720Z VRB05KT CAVOK 21/12 Q1022=
METAR EDQM 080720Z 22006KT 180V270 CAVOK 20/09 Q1024=
METAR EDRZ 080720Z VRB02KT 340V340 CAVOK 23/14 Q1021=
METAR EDSB 080720Z VRB01KT CAVOK 22/14 Q1021=
METAR EDXW 080720Z 20011KT CAVOK 21/13 Q1018=
####018000203####
SANO37 ENMI 080720
METAR ENNO 080720Z NIL=
METAR ENOV 080720Z NIL=
METAR ENSD 080720Z NIL=
METAR ENSG 080720Z NIL=
METAR ENSN 080720Z NIL=
METAR ENSR 080720Z NIL=
METAR ENSS 080720Z NIL=
####018000278####
SANO38 ENMI 080720
METAR ENDR 080720Z NIL=
METAR ENEK 080720Z 22016KT CAVOK 15/13 Q1014 W14/S3=
METAR ENGC 080720Z 18026KT CAVOK 13/11 Q1007=
METAR ENHE 080720Z 20018KT 9999 FEW012 15/11 Q1008=
METAR ENOA 080720Z NIL=
METAR ENSL 080720Z 22026KT CAVOK 14/11 Q1010=
####018000101####
SPCN31 CWAO 080723
SPECI CYZV 080723Z 15003KT 3/8SM R09/2400V4500FT/D -DZ FG VV003 RMK
FG8=

####018001694####
SAEW KAWN 080700 RRJ
METAR EDAC 080720Z 21006KT CAVOK 20/11 Q1022=
METAR EDAH 080720Z 14005KT 090V190 CAVOK 20/11 Q1022=
METAR EDFH 080720Z 12006KT CAVOK 22/11 Q1022=
METAR EDHK 080720Z 16006KT 9999 FEW060 SCT110 21/12 Q1019 BLU/BLU=
METAR EDHL 080720Z 16008KT CAVOK 22/15 Q1020=
METAR EDLN 080720Z VRB03KT CAVOK 23/14 Q1019=
METAR EDLP 080720Z 19008KT 150V220 CAVOK 25/11 Q1020=
METAR EDLW 080720Z 19009KT CAVOK 25/09 Q1020=
METAR EDMA 080720Z 13005KT 100V180 CAVOK 20/10 Q1022=
METAR EDNY 080720Z VRB05KT CAVOK 21/12 Q1022=
METAR EDQM 080720Z 22006KT 180V270 CAVOK 20/09 Q1024=
METAR EDSB 080720Z VRB01KT CAVOK 22/14 Q1021=
METAR EDTL 080720Z VRB03KT CAVOK 22/13 Q1020=
METAR EDVK 080720Z 12006KT CAVOK 21/11 Q1021=
METAR EDXW 080720Z 20011KT CAVOK 21/13 Q1018=
METAR EGJJ 080720Z 30006KT 260V330 9999 FEW006 18/17 Q1020 BECMG BKN012=
METAR EKAH 080720Z AUTO 19007KT 140V270 9999NDV FEW038/// SCT150///
      21/13 Q1018=
METAR EKBI 080720Z 19004KT 150V230 9999 FEW038 BKN045 19/15 Q1018=
METAR EKEB 080720Z AUTO 20009KT 9999NDV OVC044/// 21/17 Q1017=
METAR EKRK 080720Z 18010KT CAVOK 21/14 Q1020=
METAR EKYT 080720Z 23011KT 9999 BKN032 BKN120 20/14 Q1017 NOSIG=
METAR ETGY 080720Z 24004KT 9999 FEW120 SCT250 23/12 Q1019 BLU/=
METAR ETHC 080720Z 19004KT 9999 FEW050 23/11 Q1020 BLU/BLU/=
METAR ETHF 080720Z 12003KT 9999 FEW170 21/13 Q1021 BLU/BLU/=
METAR ETHS 080720Z 20005KT 9999 FEW160 24/09 Q1020 BLU/BLU/=
METAR ETNH 080720Z 16005KT 9999 SCT050 BKN110 23/12 Q1019 BLU BLU/
      TEMPO BLU=
METAR ETNL 080720Z 20004KT 9999 FEW100 BKN200 21/12 Q1021 BLU/BLU/=
METAR ETNT 080720Z 19007KT 9999 FEW090 SCT270 24/11 Q1018 BLU/BLU/=
####018001724####
SAEU KAWN 080700 RRX
METAR EDAC 080720Z 21006KT CAVOK 20/11 Q1022=
METAR EDAH 080720Z 14005KT 090V190 CAVOK 20/11 Q1022=
METAR EDFH 080720Z 12006KT CAVOK 22/11 Q1022=
METAR EDHL 080720Z 16008KT CAVOK 22/15 Q1020=
METAR EDLN 080720Z VRB03KT CAVOK 23/14 Q1019=
METAR EDLP 080720Z 19008KT 150V220 CAVOK 25/11 Q1020=
METAR EDLW 080720Z 19009KT CAVOK 25/09 Q1020=
METAR EDMA 080720Z 13005KT 100V180 CAVOK 20/10 Q1022=
METAR EDNY 080720Z VRB05KT CAVOK 21/12 Q1022=
METAR EDQM 080720Z 22006KT 180V270 CAVOK 20/09 Q1024=
METAR EDSB 080720Z VRB01KT CAVOK 22/14 Q1021=
METAR EDTL 080720Z VRB03KT CAVOK 22/13 Q1020=
METAR EDVK 080720Z 12006KT CAVOK 21/11 Q1021=
METAR EDXW 080720Z 20011KT CAVOK 21/13 Q1018=
METAR EGHD 080720Z 00000KT 9999 FEW025 16/13 Q1019=
METAR EGJA 080720Z 19005KT 0400 R26/0325 FG FEW000 BKN001 16/16 Q1020=
METAR EGJB 080720Z 25005KT 210V270 9999 VCFG FEW001 BKN006 17/16 Q1020=
METAR EGJJ 080720Z 30006KT 260V330 9999 FEW006 18/17 Q1020 BECMG BKN012=
METAR EGKB 080720Z 21006KT 190V250 9999 SCT010 SCT045 17/15 Q1019=
METAR EGLF 080720Z 25007KT 210V270 7000 -DZ BKN009 17/15 Q1019=
METAR EGMC 080720Z 23008KT 9999 FEW012 BKN016 19/16 Q1019=
METAR EGTC 080720Z 30005KT 9999 FEW012 SCT024 16/13 Q1018=
METAR EGTE 080720Z 35002KT 9999 FEW035 17/14 Q1019=
METAR ETGY 080720Z 24004KT 9999 FEW120 SCT250 23/12 Q1019 BLU/=
METAR ETHC 080720Z 19004KT 9999 FEW050 23/11 Q1020 BLU/BLU/=
METAR ETHS 080720Z 20005KT 9999 FEW160 24/09 Q1020 BLU/BLU/=
METAR ETNH 080720Z 16005KT 9999 SCT050 BKN110 23/12 Q1019 BLU BLU/
      TEMPO BLU=
METAR ETNL 080720Z 20004KT 9999 FEW100 BKN200 21/12 Q1021 BLU/BLU/=
METAR LWSK 080730Z 00000KT 9999 BKN050 17/12 Q1019 NOSIG=
####018000507####
SAUS20 KNKA 080725
SPECI KACK 080724Z AUTO 12007KT 1 3/4SM BR OVC001 19/18 A3006 RMK 
    AO2 TSNO=
METAR KASJ 080720Z AUTO 00000KT 5SM HZ CLR 24/21 A2995 RMK AO2=
SPECI KBRL 080724Z AUTO 1 1/2SM BR CLR 23/22 A3001 RMK AO2 $=
SPECI KGOK 080724Z AUTO 01003KT 8SM BKN023 23/22 A3004 RMK AO2=
METAR KJYO 080720Z AUTO 32003KT 7SM CLR 28/19 A3000 RMK AO2=
SPECI KLXT 080724Z AUTO 00000KT 8SM FEW006 SCT065 BKN085 23/22 A3006 
    RMK AO2=
METAR KVVG 080715Z AUTO 00000KT 22/21 A3001 RMK AO2=
####018000114####
SPUS90 KWBC 080726
SPECI KRFD 080723Z 00000KT 10SM -RA SCT008 BKN013 OVC050 22/21
     A3004 RMK AO2 P0000=
####018000106####
SAUS90 KWBC 080726
METAR K40B 080725Z AUTO 00000KT 21/21 A3001 RMK AO1 SLP148
     T02090207 55004=
####018000079####
SACN87 KWBC 080726
METAR CWWL 080722Z AUTO 13/ RMK AO1 SLP170 T0128 50002=
####018000400####
SPUS99 KWBC 080726
SPECI
KMKO 080724Z AUTO 07004KT 10SM SCT009 BKN023 OVC080 23/23 A3002
     RMK AO2 LTG DSNT N=
KACK 080724Z AUTO 12007KT 1 3/4SM BR OVC001 19/18 A3006 RMK AO2
     TSNO=
KBRL 080724Z AUTO 1 1/2SM BR CLR 23/22 A3001 RMK AO2 $=
KGOK 080724Z AUTO 01003KT 8SM BKN023 23/22 A3004 RMK AO2=
KLXT 080724Z AUTO 00000KT 8SM FEW006 SCT065 BKN085 23/22 A3006 RMK
     AO2=
####018000328####
SAUS99 KWBC 080726
METAR
KCLS 080715Z AUTO 00000KT 10SM CLR 17/14 A2993 RMK AO2=
KGZL 080715Z AUTO 12004KT 10SM FEW023 OVC065 24/23 A3003 RMK
     AO2=
KASJ 080720Z AUTO 00000KT 5SM HZ CLR 24/21 A2995 RMK AO2=
KJYO 080720Z AUTO 32003KT 7SM CLR 28/19 A3000 RMK AO2=
KVVG 080715Z AUTO 00000KT 22/21 A3001 RMK AO2=
####018000106####
SPAF32 KWBC 080726
SPECI
FCPP 080700Z VRB03KT 1500 R17/P1500 BR BKN016 21/21 Q1014 BECMG
3000 BR=
####018000116####
SPUS80 KWBC 080726
SPECI
KRFD 080723Z 00000KT 10SM -RA SCT008 BKN013 OVC050 22/21 A3004 RMK
     AO2 P0000=
####018000108####
SAUS80 KWBC 080726
METAR
K40B 080725Z AUTO 00000KT 21/21 A3001 RMK AO1 SLP148 T02090207
     55004=
####018000529####
SPXX60 KWBC 080726
SPECI
KRND 080722Z AUTO 07007KT 10SM BKN014 OVC024 25/23 A2995 RMK AO2
     CIG 011V019 SLP130=
KSKF 080724Z 07007KT 10SM BKN017 26/ A2993 RMK AO2A CIG 014V021
     SLP126 $=
KWRI 080722Z AUTO 13003KT 2 1/2SM R18/4500V5500FT R24/2800V3000FT
     BR OVC001 24/24 A2999 RMK AO2 SLP157 $=
PGUA 080720Z AUTO 07015KT 10SM SCT017 BKN024 28/ A2986 RMK AO2 BKN
     V SCT CIG 017 RWY24L SLP092 VISNO RWY24L $=
PGUA 080721Z AUTO 07015KT 10SM SCT017 28/ A2986 RMK AO2 SLP093
     VISNO RWY24L $=
####018003147####
SAUS70 KWBC 080726
METAR
KW22 080720Z AUTO 00000KT 5SM BR FEW070 21/20 A3013 RMK AO2=
KW45 080720Z AUTO 00000KT 10SM CLR 24/19 A3004 RMK AO2
     T02390191=
KWDR 080720Z AUTO 00000KT 10SM CLR 23/20 A3008 RMK AO1=
KXLL 080720Z AUTO 00000KT 7SM CLR 25/22 A3003 RMK AO2
     T02450221=
KXSA 080720Z AUTO 00000KT 5SM BKN120 24/23 A2997 RMK AO2 PWINO=
KUXL 080720Z AUTO 08006KT 10SM CLR 26/24 A2997 RMK AO2=
KEYF 080720Z AUTO 29003KT 10SM SCT110 27/19 A2993 RMK AO2
     T02740188=
KFFA 080718Z AUTO 08004KT 10SM CLR 25/24 A2994 RMK AO2
     T02500236=
KFYJ 080723Z AUTO 00000KT 4SM CLR 26/24 A2997 RMK AO1=
KGAO 080720Z AUTO 00000KT 10SM SCT015 SCT022 27/25 A3000 RMK
     AO2=
KGWW 080720Z AUTO 00000KT 10SM CLR 25/20 A2993 RMK AO2
     T02450203=
KHBI 080723Z AUTO 00000KT 10SM CLR 23/18 A3001 RMK AO2=
KHDC 080723Z AUTO 00000KT 10SM CLR 26/26 A3002 RMK AO2=
KHNZ 080720Z AUTO 00000KT 7SM SCT100 24/19 A2998 RMK AO2
     T02390185=
KIER 080720Z AUTO 00000KT 10SM CLR 24/24 A3000 RMK AO2 PWINO=
KISO 080720Z AUTO 00000KT 10SM CLR 24/20 A2993 RMK AO2
     T02400197=
KIXA 080720Z AUTO 00000KT 7SM CLR 23/19 A2994 RMK AO2
     T02270191=
KJFZ 080720Z AUTO 00000KT 8SM FEW070 22/21 A3017 RMK=
KLDJ 080720Z AUTO 11003KT 4SM BR OVC002 25/23 A3001 RMK AO2
     T02460232=
KLHZ 080720Z AUTO 00000KT 7SM CLR 23/19 A2997 RMK AO2
     T02290190=
KLKU 080720Z AUTO 00000KT 5SM HZ SCT075 24/21 A2999 RMK AO2=
KLNP 080718Z AUTO 00000KT 5SM CLR 20/18 A3019 RMK AO1=
KMDQ 080720Z AUTO 00000KT 10SM CLR 22/22 A3007 RMK AO2
     T02240216=
KMKJ 080720Z AUTO 00000KT 2 1/2SM CLR 18/08 A3021 RMK AO1=
KMLJ 080724Z AUTO 00000KT 10SM CLR 23/23 A3002 RMK AO2=
KMQS 080720Z AUTO 00000KT 8SM CLR 24/22 A3004 RMK AO2 PWINO
     PNO=
KMTV 080720Z AUTO 00000KT 4SM BR CLR 22/21 A3004 RMK AO2=
KOBE 080721Z AUTO 00000KT 10SM CLR 23/22 A2997 RMK AO2=
KOKV 080720Z AUTO 00000KT 7SM SCT100 25/19 A3003 RMK AO2
     T02490190=
KOMH 080720Z AUTO 00000KT 10SM CLR 27/21 A3002 RMK AO2
     T02650209=
KONX 080720Z AUTO 00000KT 5SM BR SCT090 26/24 A2995 RMK AO2
     T02600240=
KOPN 080720Z AUTO 00000KT 10SM CLR 26/22 A3005 RMK AO1=
KPCM 080720Z AUTO 00000KT 10SM CLR 24/23 A3002 RMK AO2=
KRCZ 080720Z AUTO 00000KT 10SM SCT095 26/18 A2996 RMK AO2
     T02580183=
KRHP 080724Z AUTO 00000KT 7SM CLR 18/17 A3012 RMK AO2=
KRMN 080720Z AUTO 00000KT 5SM BR SCT075 BKN100 23/23 A3000 RMK
     AO2=
KSFQ 080720Z AUTO 00000KT 5SM BR CLR 23/21 A2996 RMK AO2=
KSHD 080720Z AUTO 00000KT 7SM CLR 24/18 A3007 RMK AO2=
KTBR 080720Z AUTO 00000KT 10SM CLR 24/20 A3000 RMK AO2
     T02360202=
KTNB 080722Z AUTO 00000KT 10SM CLR 16/13 A3020 RMK AO2=
KTVI 080720Z AUTO 00000KT 10SM CLR 22/22 A3003 RMK AO2
     T02220215=
KVDF 080716Z AUTO 00000KT 10SM CLR 23/22 A3000 RMK AO2=
KCLS 080715Z AUTO 00000KT 10SM CLR 17/14 A2993 RMK AO2=
KGZL 080715Z AUTO 12004KT 10SM FEW023 OVC065 24/23 A3003 RMK
     AO2=
KASJ 080720Z AUTO 00000KT 5SM HZ CLR 24/21 A2995 RMK AO2=
KJYO 080720Z AUTO 32003KT 7SM CLR 28/19 A3000 RMK AO2=
KVVG 080715Z AUTO 00000KT 22/21 A3001 RMK AO2=
####018000603####
SPUS70 KWBC 080726
SPECI
KHVN 080723Z AUTO 07003KT 3SM HZ OVC004 24/23 A3003 RMK AO2=
KILG 080723Z AUTO 10003KT 6SM HZ FEW009 26/22 A3001 RMK AO2 $=
KLWC 080723Z AUTO 31006KT 10SM BKN008 OVC024 22/21 A3008 RMK
     AO2=
KMKO 080724Z AUTO 07004KT 10SM SCT009 BKN023 OVC080 23/23 A3002
     RMK AO2 LTG DSNT N=
KACK 080724Z AUTO 12007KT 1 3/4SM BR OVC001 19/18 A3006 RMK AO2
     TSNO=
KBRL 080724Z AUTO 1 1/2SM BR CLR 23/22 A3001 RMK AO2 $=
KGOK 080724Z AUTO 01003KT 8SM BKN023 23/22 A3004 RMK AO2=
KLXT 080724Z AUTO 00000KT 8SM FEW006 SCT065 BKN085 23/22 A3006 RMK
     AO2=
####018000125####
SAUK34 EGGY 080720 RRA
METAR EGHE 080720Z 19003KT CAVOK 17/13 Q1019=
METAR EGTG 080720Z 26004KT 9999 BKN014 16/12 Q1019=
####018001844####
SAEU KAWN 080700 RRX
METAR EBFN 080655Z 28006KT 9999 FEW042 SCT130 BKN190 19/15 Q1019 BLU
      BLU=
METAR EDHK 080720Z 16006KT 9999 FEW060 SCT110 21/12 Q1019 BLU/BLU=
METAR EGHE 080720Z 19003KT CAVOK 17/13 Q1019=
METAR COR EGLL 080720Z 25009KT 9999 BKN010 18/15 Q1019 BECMG SCT040=
METAR EGTG 080720Z 26004KT 9999 BKN014 16/12 Q1019=
METAR ENAL 080720Z 14003KT 100V210 9999 SCT055 SCT085 16/09 Q1009=
METAR ENCN 080720Z 19009KT 7000 -RA FEW003 BKN006 16/15 Q1015=
METAR ENHD 080720Z 18010KT 9999 FEW008 16/12 Q1013=
METAR ENKB 080720Z 22004KT 180V270 9999 FEW020 SCT093 16/12 Q1009=
METAR ENNA 080720Z 17015KT 9999 FEW040 16/09 Q1014=
METAR ENRO 080720Z 18009KT 100V220 9999 SCT025 BKN100 15/08 Q1011=
METAR ENRY 080720Z 19009KT 7000 VCSH SCT006 BKN009 16/15 Q1016 TEMPO
      4000 RA BR BKN006=
METAR ENTC 080720Z 36005KT 9999 BKN070 14/08 Q1011 NOSIG=
METAR ENTO 080720Z 20006KT 3000 -RA BR VV004 16/15 Q1016=
METAR ETGG 080720Z 17009KT 9999 BKN060 21/14 Q1018 BLU=
METAR ETGZ 080720Z 13004KT 9999 FEW120 20/08 Q1024 BLU/=
METAR ETHA 080720Z 06003KT 9999 FEW150 18/11 Q1023 BLU/BLU/=
METAR ETHB 080720Z 18004KT 9999 FEW140 24/11 Q1019 BLU/BLU/=
METAR ETHE 080720Z 16003KT 9999 FEW130 SCT250 23/12 Q1019 BLU/BLU/=
METAR ETHF 080720Z 12003KT 9999 FEW170 21/13 Q1021 BLU/BLU/=
METAR ETNT 080720Z 19007KT 9999 FEW090 SCT270 24/11 Q1018 BLU/BLU/=
METAR ETNW 080720Z 19006KT 9999 FEW150 SCT200 24/10 Q1020 BLU/BLU/=
METAR ETSB 080720Z 15005KT 9999 FEW290 23/09 Q1022 BLU/BLU/=
METAR ETSE 080720Z 11006KT 9999 FEW250 19/10 Q1023 BLU/BLU/=
METAR ETSH 080720Z 15004KT 9999 FEW170 21/11 Q1022 BLU/BLU/=
METAR ETSI 080720Z 04003KT 9999 FEW120 20/11 Q1023 BLU/BLU/=
METAR ETSL 080720Z 08005KT 9999 FEW250 20/11 Q1023 BLU/BLU/=
METAR ETWM 080720Z 21006KT 9999 FEW050 SCT300 25/11 Q1019 BLU/=
####018000196####
SANO34 ENMI 080720
METAR ENBN 080720Z NIL=
METAR ENBV 080720Z NIL=
METAR ENDI 080720Z NIL=
METAR ENFG 080720Z NIL=
METAR ENHF 080720Z NIL=
METAR ENRA 080720Z NIL=
METAR ENSH 080720Z NIL=
####018000272####
SANO38 ENMI 080720
METAR ENDR 080720Z NIL=
METAR ENEK 080720Z 22016KT CAVOK 15/13 Q1014 W14/S3=
METAR ENGC 080720Z 18026KT CAVOK 13/11 Q1007=
METAR ENHE 080720Z 20018KT 9999 FEW012 15/11 Q1008=
METAR ENOA 080720Z NIL=
METAR ENSL 080720Z 22026KT CAVOK 14/11 Q1010=
####018000519####
SANO32 ENMI 080720
METAR ENAL 080720Z 14003KT 100V210 9999 SCT055 SCT085 16/09 Q1009=
METAR ENCN 080720Z 19009KT 7000 -RA FEW003 BKN006 16/15 Q1015=
METAR ENHD 080720Z 18010KT 9999 FEW008 16/12 Q1013=
METAR ENRO 080720Z 18009KT 100V220 9999 SCT025 BKN100 15/08 Q1011=
METAR ENRY 080720Z 19009KT 7000 VCSH SCT006 BKN009 16/15 Q1016 TEMPO
           4000 RA BR BKN006=
METAR ENSB 080720Z NIL=
METAR ENTC 080720Z 36005KT 9999 BKN070 14/08 Q1011 NOSIG =
METAR ENTO 080720Z 20006KT 3000 -RA BR VV004 16/15 Q1016=
####018000363####
SABX31 EBBR 080720
METAR EBAW 080720Z 29003KT 220V340 CAVOK 23/13 Q1019 NOSIG=
METAR EBBR 080720Z 21004KT 180V250 CAVOK 25/13 Q1019 NOSIG=
METAR EBCI 080720Z 18006KT CAVOK 24/11 Q1020 NOSIG=
METAR EBLG 080720Z 18007KT 150V220 CAVOK 24/10 Q1020 NOSIG=
METAR EBOS 080720Z 27007KT CAVOK 19/15 Q1019 NOSIG=
METAR ELLX 080720Z VRB03KT CAVOK 23/09 Q1021 NOSIG=
####018000278####
SAFI33 EFHK 080720
EFJO 080720Z 05003KT CAVOK 23/19 Q1015=
EFLP 080720Z 03004KT 340V110 CAVOK 27/18 Q1014=
EFMI 080720Z AUTO 05003KT 9999 FEW026 25/19 Q1014=
EFSA 080720Z 02003KT CAVOK 22/20 Q1014=
EFUT 080720Z 02006KT 340V080 CAVOK 27/17 Q1014=
METAR EFVR 080725Z NIL=
####018000369####
SAOS31 LOWM 080720
METAR LOWW 080720Z 02004KT 330V080 CAVOK 18/11 Q1024 NOSIG=
METAR LOWL 080720Z 10004KT 050V160 CAVOK 18/10 Q1024 NOSIG=
METAR LOWS 080720Z 17005KT 130V210 CAVOK 18/09 Q1023 NOSIG=
METAR LOWI 080720Z VRB01KT CAVOK 19/12 Q1023 NOSIG=
METAR LOWG 080720Z VRB02KT CAVOK 20/12 Q1024 NOSIG=
METAR LOWK 080720Z VRB01KT 9999 FEW050 18/11 Q1024 NOSIG=
####018000398####
SANO33 ENMI 080720
METAR ENAT 080720Z NIL=
METAR ENBL 080720Z 19006KT 9999 SCT030 SCT060 14/08 Q1010=
METAR ENEV 080720Z NIL=
METAR ENFL 080720Z 18013KT 9999 FEW015 SCT050 15/11 Q1010=
METAR ENKB 080720Z 22004KT 180V270 9999 FEW020 SCT093 16/12 Q1009=
METAR ENKR 080720Z NIL=
METAR ENML 080720Z 12004KT 9999 FEW050 BKN060 16/11 Q1009=
METAR ENNA 080720Z 17015KT 9999 FEW040 16/09 Q1014 =
####018000196####
SANO37 ENMI 080720
METAR ENNO 080720Z NIL=
METAR ENOV 080720Z NIL=
METAR ENSD 080720Z NIL=
METAR ENSG 080720Z NIL=
METAR ENSN 080720Z NIL=
METAR ENSR 080720Z NIL=
METAR ENSS 080720Z NIL=
####018000085####
SAOS32 LOWM 080720
METAR LOXZ 080720Z VRB02KT 70KM SKC 15/09 Q1024 NOSIG RMK SKC=
####018000095####
SAUK31 EGGY 080720 CCA
METAR COR EGLL 080720Z 25009KT 9999 BKN010 18/15 Q1019 BECMG SCT040=
####018000589####
SANO31 ENMI 080720
METAR ENAN 080720Z 17009KT 9999 FEW045 SCT070 16/09 Q1010 NOSIG =
METAR ENBR 080720Z 17012KT 9999 FEW008 SCT060 BKN075 15/13 Q1012
           NOSIG =
METAR ENBO 080720Z 35004KT 300V060 CAVOK 17/09 Q1010 NOSIG=
METAR ENDU 080720Z VRB01KT 9999 FEW050 BKN080 15/08 Q1011 NOSIG=
METAR ENGM 080715Z 18010KT 9999 FEW009 SCT012 BKN019 15/14 Q1015
           TEMPO BKN012=
METAR ENOL 080720Z 12006KT 9999 FEW025 BKN090 16/12 Q1009 NOSIG=
METAR ENVA 080720Z 27004KT CAVOK 16/13 Q1009 NOSIG =
METAR ENZV 080720Z 19009KT 9999 FEW015 SCT150 17/13 Q1013 NOSIG=
####018000203####
SANO35 ENMI 080720
METAR ENMS 080720Z NIL=
METAR ENRM 080720Z NIL=
METAR ENRS 080720Z NIL=
METAR ENSK 080720Z NIL=
METAR ENSO 080720Z NIL=
METAR ENST 080720Z NIL=
METAR ENVD 080720Z NIL=
####018000203####
SANO36 ENMI 080720
METAR ENBS 080720Z NIL=
METAR ENHK 080720Z NIL=
METAR ENHV 080720Z NIL=
METAR ENLK 080720Z NIL=
METAR ENMH 080720Z NIL=
METAR ENNK 080720Z NIL=
METAR ENNM 080720Z NIL=
####018000098####
SPCN31 KWBC 080726
SPECI
CYZV 080723Z 15003KT 3/8SM R09/2400V4500FT/D -DZ FG VV003 RMK FG8=
####018000028####
SABX31 KWBC 080720
NIL=
####018000145####
SABX31 KWBC 080650 RRB
METAR
EBBL 080655Z VRB03KT 9999 FEW220 25/12 Q1019 BLU BLU=
EBFS 080655Z 16004KT 9999 SCT250 22/11 Q1020 BLU BLU=
####018000087####
SPPA41 KWBC 080726
SPECI
PGUA 080720Z AUTO 07015KT 10SM SCT017 BKN024 28/ A2986=
####018000080####
SPPA41 KWBC 080726
SPECI
PGUA 080721Z AUTO 07015KT 10SM SCT017 28/ A2986=
####018000126####
SACI32 KWBC 080700 RRB
METAR
ZMUB 080730Z 21007MPS 9999 -SHRA SCT030CB SCT033 16/14 Q1010 NOSIG
     RMK QFE650.6 84=
####018000078####
SPFR41 KWBC 080726
SPECI
LFRH 080723Z 02006KT CAVOK 15/15 Q1019 RMK B2=
####018000685####
SADL31 KWBC 080720
METAR
EDBB NIL=
EDBT NIL=
EDCK NIL=
EDDF 080720Z VRB03KT CAVOK 22/12 Q1021 NOSIG=
EDDH 080720Z 17007KT CAVOK 22/12 Q1019 NOSIG=
EDDK 080720Z 14006KT CAVOK 24/12 Q1020 NOSIG=
EDDL 080720Z 18007KT CAVOK 25/11 Q1019 NOSIG=
EDDM 080720Z 07004KT CAVOK 19/12 Q1023 NOSIG=
EDDN 080720Z 13004KT CAVOK 21/10 Q1023 NOSIG=
EDDS 080720Z 14004KT CAVOK 22/11 Q1022 NOSIG=
EDDW 080720Z 17003KT CAVOK 24/12 Q1019 NOSIG=
EDFE 080720Z VRB02KT CAVOK 23/12 Q1021=
EDFM 080720Z 14006KT 100V190 CAVOK 25/10 Q1020=
EDHI 080720Z VRB03KT CAVOK 23/13 Q1019=
EDHL 080720Z 16008KT CAVOK 22/15 Q1020=
EDKB NIL=
EDKS NIL=
EDLE NIL=
EDLG NIL=
EDLI NIL=
####018000519####
SADL32 KWBC 080720
METAR
EDLN 080720Z VRB03KT CAVOK 23/14 Q1019=
EDLP 080720Z 19008KT 150V220 CAVOK 25/11 Q1020=
EDLS NIL=
EDLW 080720Z 19009KT CAVOK 25/09 Q1020=
EDMA 080720Z 13005KT 100V180 CAVOK 20/10 Q1022=
EDML NIL=
EDMO 080720Z 08005KT 050V130 CAVOK 20/10 Q1023=
EDMS NIL=
EDQD NIL=
EDQM 080720Z 22006KT 180V270 CAVOK 20/09 Q1024=
EDRS NIL=
EDRT NIL=
EDTB NIL=
EDTD 080720Z 18004KT 120V240 CAVOK 20/12 Q1023=
EDTF NIL=
EDTK NIL=
EDTO NIL=
EDTY NIL=
EDTZ NIL=
EDVE NIL=
####018000159####
SADL33 KWBC 080715 RRB
METAR
EDNY 080720Z VRB05KT CAVOK 21/12 Q1022=
EDVK 080720Z 12006KT CAVOK 21/11 Q1021=
EDXW 080720Z 20011KT CAVOK 21/13 Q1018=
####018000117####
SPJP31 KWBC 080726
SPECI
RJCC 080716Z 17008KT 4900 -DZ BR FEW002 BKN003 18/17 Q1009 RMK
1ST002 7ST003 A2979=
####018000121####
SPJP41 KWBC 080726
SPECI
RJCK 080714Z 21003KT 160V240 3100 BR SCT002 BKN003 17/16 Q1009 RMK
3ST002 7ST003 A2981=
####018000799####
SADN31 KWBC 080720
METAR
EKAH 080720Z AUTO 19007KT 140V270 9999NDV FEW038/// SCT150///
     21/13 Q1018=
EKBI 080720Z 19004KT 150V230 9999 FEW038 BKN045 19/15 Q1018=
EKCH 080720Z 18010KT CAVOK 21/15 Q1020 NOSIG=
EKEB 080720Z AUTO 20009KT 9999NDV OVC044/// 21/17 Q1017=
EKHO NIL=
EKKA 080720Z 21009KT 170V240 9999 FEW030 BKN060 20/14 Q1017 TEMPO
     6000 SHRA SCT020CB=
EKMB NIL=
EKOD 080720Z NIL=
EKRK 080720Z 18010KT CAVOK 21/14 Q1020=
EKRN 080720Z AUTO 21003KT 9999NDV NCD 19/15 Q1022=
EKSB 080720Z NIL=
EKSN 080720Z NIL=
EKSP 080720Z 19009KT 150V210 CAVOK 21/12 Q1018 NOSIG RMK SCT050
     BKN150=
EKSV NIL=
EKTS NIL=
EKVA NIL=
EKVD 080720Z NIL=
EKVG NIL=
EKVJ 080720Z NIL=
EKVL NIL=
EKYT 080720Z 23011KT 9999 BKN032 BKN120 20/14 Q1017 NOSIG=
####018000138####
SPJP41 KWBC 080726
SPECI
RJCM 080715Z 02006KT 5000 -SHRA BR FEW002 SCT005 BKN012 17/15
Q1009 RETS RMK 1ST002 4ST005 6ST012 A2979=
####018001162####
SAEN31 KWBC 080720
METAR
EETN 080720Z 32007KT 9999 FEW010 22/18 Q1014 NOSIG=
EFHF 080720Z 36005KT 340V050 CAVOK 25/19 Q1014=
EFHK 080720Z 32007KT 290V360 9999 FEW025 BKN200 25/19 Q1014
     NOSIG=
EFIV NIL=
EFJY 080720Z 00000KT 9999 BKN012 20/17 Q1015=
EFKE NIL=
EFKK 080720Z VRB03KT CAVOK 21/13 Q1016=
EFKU 080720Z AUTO VRB02KT 9999NDV OVC014 21/17 Q1016=
EFMA 080720Z VRB01KT CAVOK 22/12 Q1016=
EFOU 080720Z VRB02KT 9999 FEW018 19/14 Q1016=
EFPN NIL=
EFPO 080720Z VRB02KT CAVOK 22/13 Q1016=
EFRO 080720Z AUTO 21004KT 160V260 CAVOK 17/12 Q1017=
EFTN NIL=
EFTP 080720Z 35003KT 9999 FEW040 22/13 Q1016=
EFTU 080720Z AUTO 34005KT 280V020 CAVOK 22/11 Q1016=
EFVA 080720Z 27002KT 9999 FEW020 BKN200 20/15 Q1015=
ENBO NIL=
ENBR NIL=
ENCN 080720Z 19009KT 7000 -RA FEW003 BKN006 16/15 Q1015=
ENEB NIL=
ENFB NIL=
ENGM NIL=
ENHD 080720Z 18010KT 9999 FEW008 16/12 Q1013=
ENKR 080720Z NIL=
ENSB 080720Z NIL=
ENTC 080720Z 36005KT 9999 BKN070 14/08 Q1011 NOSIG=
ENVA NIL=
ENZV NIL=
EVRA 080720Z 32011KT 9999 OVC005 18/17 Q1014 NOSIG=
EYVI 080720Z 27007KT 2600 SHRA BKN010CB OVC020 15/14 Q1014
     NOSIG=
####018000099####
SPNT31 KWBC 080726
SPECI
BGTL 080720Z AUTO 00000KT 0400 FG VV001 05/04 A2985 RMK AO2 SLP112=
####018000028####
SAGR31 KWBC 080720
NIL=
####018000028####
SAGR41 KWBC 080720
NIL=
####018000144####
SPPA31 KWBC 080726
SPECI
PGUA 080720Z AUTO 07015KT 10SM SCT017 BKN024 28/ A2986 RMK AO2 BKN
V SCT CIG 017 RWY24L SLP092 VISNO RWY24L $=
####018000112####
SPPA31 KWBC 080726
SPECI
PGUA 080721Z AUTO 07015KT 10SM SCT017 28/ A2986 RMK AO2 SLP093
VISNO RWY24L $=
####018000028####
SAIY31 KWBC 080720
NIL=
####018000028####
SAIY32 KWBC 080720
NIL=
####018000028####
SAIY41 KWBC 080720
NIL=
####018000028####
SAIY43 KWBC 080720
NIL=
####018000028####
SAIY42 KWBC 080720
NIL=
####018000133####
SPXX61 KWBC 080726
SPECI
EGUN 080719Z AUTO 25008KT 9999 -RA SCT006 OVC017 17/17 A3007 RMK
AO2 VIS 2800 RWY11 RAB0711 SLP171=
####018000342####
SANL31 KWBC 080720
METAR
EHAM NIL=
EHBD NIL=
EHBK NIL=
EHDL NIL=
EHEH 080725Z AUTO 22005KT 9999NDV NCD 26/13 Q1019 BLU BLU=
EHGG NIL=
EHGR NIL=
EHHO NIL=
EHHV NIL=
EHKD NIL=
EHLE NIL=
EHLW NIL=
EHMZ NIL=
EHRD NIL=
EHSB NIL=
EHTE NIL=
EHTW NIL=
EHTX NIL=
EHVB NIL=
EHVK NIL=
EHVL NIL=
EHWO NIL=
####018000580####
SANO41 KWBC 080720
METAR
ENAL 080720Z 14003KT 100V210 9999 SCT055 SCT085 16/09 Q1009=
ENAN NIL=
ENAT 080720Z NIL=
ENBL 080720Z 19006KT 9999 SCT030 SCT060 14/08 Q1010=
ENBN 080720Z NIL=
ENBV 080720Z NIL=
ENDI 080720Z NIL=
ENDU NIL=
ENEK 080720Z 22016KT CAVOK 15/13 Q1014 W14/S3=
ENEV 080720Z NIL=
ENFG 080720Z NIL=
ENFL 080720Z 18013KT 9999 FEW015 SCT050 15/11 Q1010=
ENFR NIL=
ENGC 080720Z 18026KT CAVOK 13/11 Q1007=
ENHF 080720Z NIL=
ENHV NIL=
ENKB 080720Z 22004KT 180V270 9999 FEW020 SCT093 16/12 Q1009=
ENLI NIL=
ENLK NIL=
ENMH NIL=
####018000084####
SPUS41 KWBC 080726
SPECI
KILG 080723Z AUTO 10003KT 6SM HZ FEW009 26/22 A3001=
####018000652####
SANO42 KWBC 080720
METAR
ENML 080720Z 12004KT 9999 FEW050 BKN060 16/11 Q1009=
ENMS NIL=
ENNA 080720Z 17015KT 9999 FEW040 16/09 Q1014=
ENNK NIL=
ENNM NIL=
ENNO 080720Z NIL=
ENOA 080720Z NIL=
ENOL NIL=
ENOV 080720Z NIL=
ENRA 080720Z NIL=
ENRM NIL=
ENRO 080720Z 18009KT 100V220 9999 SCT025 BKN100 15/08 Q1011=
ENRS NIL=
ENRY 080720Z 19009KT 7000 VCSH SCT006 BKN009 16/15 Q1016 TEMPO
     4000 RA BR BKN006=
ENSD 080720Z NIL=
ENSG 080720Z NIL=
ENSH 080720Z NIL=
ENSK NIL=
ENSN 080720Z NIL=
ENSO NIL=
ENSR 080720Z NIL=
ENST NIL=
ENSV NIL=
ENTO 080720Z 20006KT 3000 -RA BR VV004 16/15 Q1016=
ENVD NIL=
####018000084####
SPUS41 KWBC 080726
SPECI
KHVN 080723Z AUTO 07003KT 3SM HZ OVC004 24/23 A3003=
####018000767####
SAPA32 KWBC 080700
METAR
NCRG 080700Z 11005KT 9999 SCT014 BKN290 24/23 Q1017=
NFFN 080700Z 16005KT 40KM SCT028 SCT048 24/19 Q1013 NOSIG RMK RR
     NIL=
NFNA 080700Z 00000KT 40KM SCT023 BKN050 OVC110 23/21 Q1013 RMK RR
     NIL=
NFTF 080700Z 20002KT 9999 FEW015 19/18 Q1015=
NFTV NIL=
NGFU 080700Z 07008KT 50KM FEW020 29/23 Q1009=
NGTA NIL=
NIUE 080700Z AUTO 16006KT //// ////// 25/24 Q1013=
NLWW NIL=
NSFA 080700Z 08006KT 45KM FEW020 28/25 Q1011=
NSFI NIL=
NSFU NIL=
NSMA NIL=
NSTU 080659Z 34003KT 10SM SCT014 BKN040 BKN130 27/26 A2986 RMK
     SHRAB20E45 SLP113 T02710261=
NTAA 080700Z 10003KT 9999 FEW020 25/22 Q1015 WS ALL RWY NOSIG=
NTTG NIL=
NTTO NIL=
NVVV NIL=
NWWW 080700Z AUTO 18002KT 9999NDV NCD 20/16 Q1015=
####018000122####
SPUS41 KWBC 080726
SPECI
KWRI 080722Z AUTO 13003KT 2 1/2SM R18/4500V5500FT R24/2800V3000FT
BR OVC001 24/24 A2999=
####018001104####
SASN31 KWBC 080720
METAR
ESDB NIL=
ESDF 080720Z 25004KT 200V350 CAVOK 21/12 Q1021=
ESGG 080720Z 19013KT 9999 BKN037 19/13 Q1018=
ESGJ 080720Z AUTO 22010KT 9999NDV ////// 19/11 Q1019=
ESGP 080720Z 19016KT 9999 BKN036 OVC042 19/15 Q1018=
ESKN 080720Z 29007KT 260V340 CAVOK 21/12 Q1018=
ESMK 080720Z 23005KT 210V270 CAVOK 22/13 Q1021=
ESMS 080720Z 20010KT CAVOK 21/13 Q1021=
ESMX 080720Z 21005KT 160V260 CAVOK 20/11 Q1020=
ESNN 080720Z AUTO 16005KT 9999NDV FEW052/// 20/12 Q1013=
ESNO 080720Z 12008KT CAVOK 19/11 Q1014=
ESNQ 080720Z 18009KT CAVOK 16/08 Q1013 RERA=
ESNS 080720Z 16007KT CAVOK 20/10 Q1015=
ESNU 080720Z 13005KT 100V170 CAVOK 19/12 Q1015=
ESOK 080720Z 22008KT 190V250 9999 SCT023 BKN045 19/13 Q1017=
ESOW 080720Z 24009KT 210V280 CAVOK 20/12 Q1017=
ESPA 080720Z 17010KT CAVOK 18/12 Q1016=
ESPC NIL=
ESSA 080720Z 27009KT CAVOK 21/10 Q1017 NOSIG=
ESSB 080720Z 25009KT 230V290 CAVOK 21/11 Q1017=
ESSD 080720Z AUTO 23006KT 190V260 9999NDV NCD 19/12 Q1016=
ESSN NIL=
ESSP 080720Z 26009KT CAVOK 21/10 Q1018=
ESSV 080720Z 30008KT CAVOK 19/12 Q1019=
####018000441####
SASW31 KWBC 080720
METAR
LSGC 080720Z NIL=
LSGG 080720Z VRB01KT CAVOK 23/12 Q1022 NOSIG=
LSGL NIL=
LSGN NIL=
LSGS 080720Z 09003KT 050V160 CAVOK 23/13 Q1022=
LSZA 080720Z 19004KT 150V220 9999 BKN050 24/14 Q1023 NOSIG=
LSZB 080720Z VRB01KT CAVOK 21/14 Q1022 NOSIG=
LSZD NIL=
LSZG 080720Z NIL=
LSZH 080720Z NIL=
LSZL NIL=
LSZR 080720Z VRB01KT CAVOK 20/14 Q1022 NOSIG RMK D=
LSZS 080720Z VRB01KT CAVOK 14/11 Q1027=
####018001033####
SAUK31 KWBC 080720
METAR
EGAA 080720Z 23013KT 9999 SCT014 BKN018 13/10 Q1014=
EGBB 080720Z 24006KT 9999 -RA FEW019 15/11 Q1018=
EGCC 080720Z 19008KT 9999 FEW032 SCT036 15/12 Q1017=
EGFF 080720Z 00000KT 9999 FEW021 16/13 Q1018=
EGGD 080720Z 22004KT 9999 FEW025 15/13 Q1019=
EGGP 080720Z 21009KT 9999 FEW025 16/11 Q1016=
EGGW 080720Z 25005KT 9999 SCT017 OVC020 16/14 Q1019=
EGHD 080720Z 00000KT 9999 FEW025 16/13 Q1019=
EGHH 080720Z NIL=
EGHI 080720Z 24008KT 210V270 4000 -SHRA BR SCT005 BKN008 17/15
     Q1019=
EGJB 080720Z 25005KT 210V270 9999 VCFG FEW001 BKN006 17/16
     Q1020=
EGJJ 080720Z 30006KT 260V330 9999 FEW006 18/17 Q1020 BECMG
     BKN012=
EGKA 080720Z NIL=
EGKB 080720Z 21006KT 190V250 9999 SCT010 SCT045 17/15 Q1019=
EGKK 080720Z 26008KT 9999 FEW008 BKN010 18/14 Q1019=
EGLF 080720Z 25007KT 210V270 7000 -DZ BKN009 17/15 Q1019=
EGLL 080720Z 25009KT 9999 BKN010 18/15 Q1019=
EGMC 080720Z 23008KT 9999 FEW012 BKN016 19/16 Q1019=
EGMD 080720Z NIL=
EGNH NIL=
EGNJ NIL=
####018000566####
SAUK32 KWBC 080720
METAR
EGNM 080720Z 23005KT 180V270 9999 FEW035 14/11 Q1016=
EGNS 080720Z NIL=
EGNT 080720Z NIL=
EGNV 080720Z 18009KT 9999 FEW030 15/12 Q1015=
EGNX 080720Z 22013KT CAVOK 16/10 Q1018=
EGPA NIL=
EGPB 080720Z 20016KT CAVOK 13/10 Q1005 NOSIG=
EGPC NIL=
EGPD 080720Z 21013KT CAVOK 14/09 Q1010 NOSIG=
EGPF 080720Z 22014KT 9999 FEW030 SCT040 14/11 Q1012=
EGPH 080720Z 23015KT 9999 FEW022 15/09 Q1012=
EGPK 080720Z 22013KT 9999 SCT025 15/10 Q1013=
EGSH NIL=
EGTE 080720Z 35002KT 9999 FEW035 17/14 Q1019=
EGTG 080720Z NIL=
####018000505####
SAUK41 KWBC 080720
METAR
EGAC 080720Z 21011KT 9999 FEW015 SCT023 15/10 Q1013=
EGAE NIL=
EGBE NIL=
EGBJ NIL=
EGDC NIL=
EGDG NIL=
EGDL NIL=
EGDM NIL=
EGDN NIL=
EGDP NIL=
EGDR NIL=
EGDY NIL=
EGFH NIL=
EGGP 080720Z 21009KT 9999 FEW025 16/11 Q1016=
EGGW 080720Z 25005KT 9999 SCT017 OVC020 16/14 Q1019=
EGHE 080720Z NIL=
EGJA 080720Z 19005KT 0400 R26/0325 FG FEW000 BKN001 16/16
     Q1020=
EGLC 080720Z 25007KT 9999 BKN014 19/14 Q1019=
EGNC NIL=
EGNT 080720Z NIL=
####018000407####
SAUK42 KWBC 080720
METAR
EGOS NIL=
EGOV NIL=
EGPC NIL=
EGPE NIL=
EGPF 080720Z 22014KT 9999 FEW030 SCT040 14/11 Q1012=
EGPL NIL=
EGPM NIL=
EGPN NIL=
EGPO NIL=
EGPT NIL=
EGPU NIL=
EGPW NIL=
EGQJ NIL=
EGQK NIL=
EGQL NIL=
EGQM NIL=
EGQS NIL=
EGSC NIL=
EGSS 080720Z 22009KT 9999 -DZ BKN011 18/15 Q1019=
EGTC 080720Z 30005KT 9999 FEW012 SCT024 16/13 Q1018=
EGTI NIL=
####018000181####
SAXX61 KWBC 080700 RRC
METAR
EDAH 080720Z 14005KT 090V190 CAVOK 20/11 Q1022=
EDMA 080720Z 13005KT 100V180 CAVOK 20/10 Q1022=
EGPK 080720Z 22013KT 9999 SCT025 15/10 Q1013=
####018003724####
SAXX99 KWBC 080700 RRS
METAR
CWIK 080700Z AUTO 27003KT 12/12 RMK AO1 SLP185 T01200116 55000=
CZHY 080700Z AUTO 32004KT 17/12 RMK AO1 SLP140 T01680115 53001=
EDAC 080720Z 21006KT CAVOK 20/11 Q1022=
EDFH 080720Z 12006KT CAVOK 22/11 Q1022=
EDGS 080720Z 18006KT 140V210 CAVOK 22/09 Q1022=
EDHK 080720Z 16006KT 9999 FEW060 SCT110 21/12 Q1019 BLU/BLU=
EDHK 080720Z 16006KT 9999 FEW060 SCT110 21/12 Q1019 BLU+BLU=
EDLV 080720Z 18004KT 140V220 CAVOK 25/13 Q1019=
EDOP 080720Z 16007KT 100V210 CAVOK 23/11 Q1021=
EDRZ 080720Z VRB02KT 340V340 CAVOK 23/14 Q1021=
EDSB 080720Z VRB01KT CAVOK 22/14 Q1021=
EDTL 080720Z VRB03KT CAVOK 22/13 Q1020=
EFHA 080720Z 04003KT 9999 BKN007 BKN070 19/17 Q1015=
EFKA 080720Z 25003KT 9999 SCT015 SCT200 20/16 Q1016=
EFSI 080720Z AUTO VRB01KT CAVOK 21/14 Q1016=
EGHK 080720Z NIL=
EGMH 080720Z NIL=
EGTG 080720Z NIL=
EKGF 080720Z NIL=
ENDR 080720Z NIL=
ENHE 080720Z 20018KT 9999 FEW012 15/11 Q1008=
ENSS 080720Z NIL=
ESGR 080720Z AUTO 21010KT 9999NDV BKN037/// 19/13 Q1018=
ESGT 080720Z 19010KT 160V220 9999 FEW035 BKN045 19/13 Q1017=
ESKM 080720Z NIL=
ESMQ 080720Z 17005KT 120V210 CAVOK 22/12 Q1020=
ESMT 080720Z 17011KT CAVOK 19/14 Q1020=
ESNG 080720Z 16011KT 130V200 CAVOK 19/07 Q1014=
ESNK 080720Z AUTO 17012KT 9999NDV NCD 20/13 Q1013=
ESNL 080720Z AUTO 12013KT 9999NDV FEW026/// BKN082/// 21/11
     Q1013=
ESNX 080720Z AUTO 15009KT 9999NDV OVC082/// ///// Q1014=
ESNY 080720Z AUTO 22006KT 180V250 9999 SKC 21/15 Q1014=
ESOE 080720Z 23008KT 9999 SCT039 19/12 Q1018=
ESSF 080720Z NIL=
ESSK 080720Z NIL=
ESSL 080720Z 26009KT 9999 SCT041 21/11 Q1019=
ESTA 080720Z 17009KT CAVOK 19/14 Q1020=
ESTL 080720Z AUTO 21010KT 9999NDV NCD 21/14 Q1020=
ESUD 080720Z NIL=
ESUT 080720Z AUTO 16009KT 9999NDV FEW088/// SCT130/// 17/10
     Q1010=
ETGG 080720Z 17009KT 9999 BKN060 21/14 Q1018 BLU=
ETGY 080720Z 24004KT 9999 FEW120 SCT250 23/12 Q1019 BLU/=
ETGY 080720Z 24004KT 9999 FEW120 SCT250 23/12 Q1019 BLU+=
ETGZ 080720Z 13004KT 9999 FEW120 20/08 Q1024 BLU+=
ETHA 080720Z 06003KT 9999 FEW150 18/11 Q1023 BLU+BLU+=
ETHB 080720Z 18004KT 9999 FEW140 24/11 Q1019 BLU+BLU+=
ETHC 080720Z 19004KT 9999 FEW050 23/11 Q1020 BLU+BLU+=
ETHE 080720Z 16003KT 9999 FEW130 SCT250 23/12 Q1019 BLU+BLU+=
ETHF 080720Z 12003KT 9999 FEW170 21/13 Q1021 BLU+BLU+=
ETHL 080720Z 05003KT 9999 FEW140 19/11 Q1022 BLU+BLU+=
ETHR 080720Z 13004KT 9999 FEW200 22/09 Q1023 BLU+BLU+=
ETHS 080720Z 20005KT 9999 FEW160 24/09 Q1020 BLU+BLU+=
ETNH 080720Z 16005KT 9999 SCT050 BKN110 23/12 Q1019 BLU BLU/ TEMPO
     BLU=
ETNH 080720Z 16005KT 9999 SCT050 BKN110 23/12 Q1019 BLU BLU+ TEMPO
     BLU=
ETNL 080720Z 20004KT 9999 FEW100 BKN200 21/12 Q1021 BLU/BLU/=
ETNL 080720Z 20004KT 9999 FEW100 BKN200 21/12 Q1021 BLU+BLU+=
ETNN 080720Z 17004KT 9999 FEW170 25/10 Q1019 BLU+BLU+=
ETNT 080720Z 19007KT 9999 FEW090 SCT270 24/11 Q1018 BLU/BLU/=
ETNT 080720Z 19007KT 9999 FEW090 SCT270 24/11 Q1018 BLU+BLU+=
ETNW 080720Z 19006KT 9999 FEW150 SCT200 24/10 Q1020 BLU+BLU+=
ETSB 080720Z 15005KT 9999 FEW290 23/09 Q1022 BLU+BLU+=
ETSE 080720Z 11006KT 9999 FEW250 19/10 Q1023 BLU+BLU+=
ETSH 080720Z 15004KT 9999 FEW170 21/11 Q1022 BLU+BLU+=
ETSI 080720Z 04003KT 9999 FEW120 20/11 Q1023 BLU+BLU+=
ETSL 080720Z 08005KT 9999 FEW250 20/11 Q1023 BLU+BLU+=
ETSN 080720Z 06004KT 9999 FEW160 19/10 Q1023 BLU+BLU+=
ETWM 080720Z 21006KT 9999 FEW050 SCT300 25/11 Q1019 BLU+=
HLLM 080650Z VRB03KT 6000 BKN025 26/20 Q1019=
LFBE 080700Z VRB03KT CAVOK 21/16 Q1018 NOSIG=
LTBU 080720Z 34013KT 9999 SCT030 BKN100 23/12 Q1014 RMK RWY23
     34014KT=
VTCT 080700Z 26006KT 9999 SCT025 34/22 Q1007 A2974 RMK/RWY03 INFO
     H=
####018000375####
SAOS31 LOWM 080720
METAR LOWW 080720Z 02004KT 330V080 CAVOK 18/11 Q1024 NOSIG=
METAR LOWL 080720Z 10004KT 050V160 CAVOK 18/10 Q1024 NOSIG=
METAR LOWS 080720Z 17005KT 130V210 CAVOK 18/09 Q1023 NOSIG=
METAR LOWI 080720Z VRB01KT CAVOK 19/12 Q1023 NOSIG=
METAR LOWG 080720Z VRB02KT CAVOK 20/12 Q1024 NOSIG=
METAR LOWK 080720Z VRB01KT 9999 FEW050 18/11 Q1024 NOSIG=
####018000369####
SABX31 EBBR 080720
METAR EBAW 080720Z 29003KT 220V340 CAVOK 23/13 Q1019 NOSIG=
METAR EBBR 080720Z 21004KT 180V250 CAVOK 25/13 Q1019 NOSIG=
METAR EBCI 080720Z 18006KT CAVOK 24/11 Q1020 NOSIG=
METAR EBLG 080720Z 18007KT 150V220 CAVOK 24/10 Q1020 NOSIG=
METAR EBOS 080720Z 27007KT CAVOK 19/15 Q1019 NOSIG=
METAR ELLX 080720Z VRB03KT CAVOK 23/09 Q1021 NOSIG=
####018000127####
SAUK34 EGGY 080720 RRA
METAR EGHE 080720Z 19003KT CAVOK 17/13 Q1019=
METAR EGTG 080720Z 26004KT 9999 BKN014 16/12 Q1019=
####018000096####
SAUK31 EGGY 080720 CCA
METAR COR EGLL 080720Z 25009KT 9999 BKN010 18/15 Q1019 BECMG SCT040=
####018000086####
SAOS32 LOWM 080720
METAR LOXZ 080720Z VRB02KT 70KM SKC 15/09 Q1024 NOSIG RMK SKC=
####018000284####
SAFI33 EFHK 080720
EFJO 080720Z 05003KT CAVOK 23/19 Q1015=
EFLP 080720Z 03004KT 340V110 CAVOK 27/18 Q1014=
EFMI 080720Z AUTO 05003KT 9999 FEW026 25/19 Q1014=
EFSA 080720Z 02003KT CAVOK 22/20 Q1014=
EFUT 080720Z 02006KT 340V080 CAVOK 27/17 Q1014=
METAR EFVR 080725Z NIL=
####018000095####
SPUS53 KWBC 080726
SPECI
KRFD 080723Z 00000KT 10SM -RA SCT008 BKN013 OVC050 22/21 A3004=
####018000247####
SADL36 EDZO 080720
METAR EDHK 080720Z 16006KT 9999 FEW060 SCT110 21/12 Q1019
      BLU+BLU=
METAR ETNL 080720Z 20004KT 9999 FEW100 BKN200 21/12 Q1021
      BLU+BLU+=
METAR ETSI 080720Z 04003KT 9999 FEW120 20/11 Q1023
      BLU+BLU+=
####018000081####
SAZA42 FAJS 080730
METAR FAJS 080730Z 09010KT 6000 SCT005 08/08 Q1037 NOSIG=
####018000098####
SADL52 ETGT 080720 RRA
METAR
ETHN 080720Z 16005KT 9999 FEW300 22/09 Q1022
      BLU+BLU+=
####018000509####
SASA KAWN 080700 RRE
METAR SAZM 080700Z 32005KT CAVOK 04/03 Q1014=
METAR SBAF 080700Z 00000KT CAVOK 14/12 Q1019=
METAR SBAN 080700Z 13005KT CAVOK 16/09 Q1021=
METAR SBBH 080700Z 09003KT CAVOK 11/09 Q1022=
METAR SBBU 080700Z 06009KT CAVOK 17/11 Q1018=
METAR SBDN 080700Z 08007KT CAVOK 19/10 Q1017=
METAR SBIL 080700Z 28005KT 9999 SCT020 22/21 Q1017=
METAR SBME 080700Z 34005KT CAVOK 16/15 Q1018=
METAR SBUL 080700Z 09006KT CAVOK 15/07 Q1021=
METAR SBUR 080700Z 08003KT CAVOK 16/07 Q1020=
####018000133####
SAXN17 KAWN 080700 RRH
METAR PKWA 080720Z AUTO 06013KT 4SM +RA SCT007 BKN039 OVC060 25/23
      A2983 RMK AO2 P0007 T02520232=
####018000095####
SPUS73 KWBC 080726
SPECI
KRFD 080723Z 00000KT 10SM -RA SCT008 BKN013 OVC050 22/21 A3004=
####018000095####
SPUS81 KWBC 080726
SPECI
KRFD 080723Z 00000KT 10SM -RA SCT008 BKN013 OVC050 22/21 A3004=
####018001767####
SAEU KAWN 080700 RRX
METAR EBAW 080720Z 29003KT 220V340 CAVOK 23/13 Q1019 NOSIG=
METAR EBBR 080720Z 21004KT 180V250 CAVOK 25/13 Q1019 NOSIG=
METAR EBCI 080720Z 18006KT CAVOK 24/11 Q1020 NOSIG=
METAR EBLG 080720Z 18007KT 150V220 CAVOK 24/10 Q1020 NOSIG=
METAR EBOS 080720Z 27007KT CAVOK 19/15 Q1019 NOSIG=
METAR EDHI 080720Z VRB03KT CAVOK 23/13 Q1019=
METAR EDMO 080720Z 08005KT 050V130 CAVOK 20/10 Q1023=
METAR EDOP 080720Z 16007KT 100V210 CAVOK 23/11 Q1021=
METAR ELLX 080720Z VRB03KT CAVOK 23/09 Q1021 NOSIG=
METAR ENAN 080720Z 17009KT 9999 FEW045 SCT070 16/09 Q1010 NOSIG=
METAR ENBL 080720Z 19006KT 9999 SCT030 SCT060 14/08 Q1010=
METAR ENEK 080720Z 22016KT CAVOK 15/13 Q1014 W14/S3=
METAR ENFL 080720Z 18013KT 9999 FEW015 SCT050 15/11 Q1010=
METAR ENGC 080720Z 18026KT CAVOK 13/11 Q1007=
METAR ENGM 080715Z 18010KT 9999 FEW009 SCT012 BKN019 15/14 Q1015 TEMPO
      BKN012=
METAR ENHE 080720Z 20018KT 9999 FEW012 15/11 Q1008=
METAR ENML 080720Z 12004KT 9999 FEW050 BKN060 16/11 Q1009=
METAR ENOL 080720Z 12006KT 9999 FEW025 BKN090 16/12 Q1009 NOSIG=
METAR ENZV 080720Z 19009KT 9999 FEW015 SCT150 17/13 Q1013 NOSIG=
METAR ETHL 080720Z 05003KT 9999 FEW140 19/11 Q1022 BLU/BLU/=
METAR ETHR 080720Z 13004KT 9999 FEW200 22/09 Q1023 BLU/BLU/=
METAR ETNN 080720Z 17004KT 9999 FEW170 25/10 Q1019 BLU/BLU/=
METAR ETSN 080720Z 06004KT 9999 FEW160 19/10 Q1023 BLU/BLU/=
METAR LOWG 080720Z VRB02KT CAVOK 20/12 Q1024 NOSIG=
METAR LOWI 080720Z VRB01KT CAVOK 19/12 Q1023 NOSIG=
METAR LOWK 080720Z VRB01KT 9999 FEW050 18/11 Q1024 NOSIG=
METAR LOWL 080720Z 10004KT 050V160 CAVOK 18/10 Q1024 NOSIG=
METAR LOWS 080720Z 17005KT 130V210 CAVOK 18/09 Q1023 NOSIG=
METAR LOWW 080720Z 02004KT 330V080 CAVOK 18/11 Q1024 NOSIG=
####018000126####
SAAK41 KNKA 080726
SPECI PAWD 080724Z AUTO 00000KT 5SM -RA BR BKN001 BKN047 OVC055 
    11/09 A2998 RMK AO2 P0000 TSNO=
####018000796####
SAUS20 KNKA 080726
SPECI KALI 080725Z AUTO 05007KT 10SM -RA FEW006 OVC075 26/26 A2986 
    RMK AO2 LTG DSNT E RAB23 P0000=
SPECI KDMO 080725Z AUTO 17003KT 9SM SCT004 BKN042 OVC060 24/22 A3005 
    RMK AO2 RAE0656 P0000=
SPECI KHWV 080725Z AUTO 13003KT 1/2SM FG OVC002 24/24 A3003 RMK AO2=
SPECI KJFK 080725Z 00000KT 1 3/4SM BR BKN003 OVC009 24/23 A3002 RMK 
    AO2 $=
SPECI KMYF 080725Z AUTO 35004KT 10SM OVC015 17/14 A2991 RMK AO2 TSNO=
SPECI KONT 080725Z 25004KT 6SM HZ BKN012 15/12 A2991 RMK AO2=
SPECI KPWK 080725Z AUTO 32003KT 8SM -RA BKN041 BKN110 23/21 A3005 
    RMK AO2 LTG DSNT SE P0004=
SPECI KRFD 080723Z 00000KT 10SM -RA SCT008 BKN013 OVC050 22/21
     A3004 RMK AO2 P0000=
SPECI KVAY 080725Z AUTO 00000KT 1 1/4SM BR OVC003 23/23 A3001 RMK 
    AO2=
####018000849####
SPUS99 KWBC 080727
SPECI
PAWD 080724Z AUTO 00000KT 5SM -RA BR BKN001 BKN047 OVC055 11/09
     A2998 RMK AO2 P0000 TSNO=
KALI 080725Z AUTO 05007KT 10SM -RA FEW006 OVC075 26/26 A2986 RMK
     AO2 LTG DSNT E RAB23 P0000=
KDMO 080725Z AUTO 17003KT 9SM SCT004 BKN042 OVC060 24/22 A3005 RMK
     AO2 RAE0656 P0000=
KHWV 080725Z AUTO 13003KT 1/2SM FG OVC002 24/24 A3003 RMK AO2=
KJFK 080725Z 00000KT 1 3/4SM BR BKN003 OVC009 24/23 A3002 RMK AO2
     $=
KMYF 080725Z AUTO 35004KT 10SM OVC015 17/14 A2991 RMK AO2 TSNO=
KONT 080725Z 25004KT 6SM HZ BKN012 15/12 A2991 RMK AO2=
KPWK 080725Z AUTO 32003KT 8SM -RA BKN041 BKN110 23/21 A3005 RMK
     AO2 LTG DSNT SE P0004=
KRFD 080723Z 00000KT 10SM -RA SCT008 BKN013 OVC050 22/21 A3004 RMK
     AO2 P0000=
KVAY 080725Z AUTO 00000KT 1 1/4SM BR OVC003 23/23 A3001 RMK
     AO2=
####018000196####
SANO35 ENMI 080720
METAR ENMS 080720Z NIL=
METAR ENRM 080720Z NIL=
METAR ENRS 080720Z NIL=
METAR ENSK 080720Z NIL=
METAR ENSO 080720Z NIL=
METAR ENST 080720Z NIL=
METAR ENVD 080720Z NIL=
####018000579####
SANO31 ENMI 080720
METAR ENAN 080720Z 17009KT 9999 FEW045 SCT070 16/09 Q1010 NOSIG =
METAR ENBR 080720Z 17012KT 9999 FEW008 SCT060 BKN075 15/13 Q1012
           NOSIG =
METAR ENBO 080720Z 35004KT 300V060 CAVOK 17/09 Q1010 NOSIG=
METAR ENDU 080720Z VRB01KT 9999 FEW050 BKN080 15/08 Q1011 NOSIG=
METAR ENGM 080715Z 18010KT 9999 FEW009 SCT012 BKN019 15/14 Q1015
           TEMPO BKN012=
METAR ENOL 080720Z 12006KT 9999 FEW025 BKN090 16/12 Q1009 NOSIG=
METAR ENVA 080720Z 27004KT CAVOK 16/13 Q1009 NOSIG =
METAR ENZV 080720Z 19009KT 9999 FEW015 SCT150 17/13 Q1013 NOSIG=
####018000196####
SANO36 ENMI 080720
METAR ENBS 080720Z NIL=
METAR ENHK 080720Z NIL=
METAR ENHV 080720Z NIL=
METAR ENLK 080720Z NIL=
METAR ENMH 080720Z NIL=
METAR ENNK 080720Z NIL=
METAR ENNM 080720Z NIL=
####018000241####
SADL36 EDZO 080720
METAR EDHK 080720Z 16006KT 9999 FEW060 SCT110 21/12 Q1019
      BLU+BLU=
METAR ETNL 080720Z 20004KT 9999 FEW100 BKN200 21/12 Q1021
      BLU+BLU+=
METAR ETSI 080720Z 04003KT 9999 FEW120 20/11 Q1023
      BLU+BLU+=
####018000080####
SAZA42 FAJS 080730
METAR FAJS 080730Z 09010KT 6000 SCT005 08/08 Q1037 NOSIG=
####018000383####
SAFI34 EFHK 080720
EFET 080720Z AUTO 16007KT 120V220 CAVOK 18/10 Q1014=
EFIV 080720Z AUTO 14004KT 070V210 9999 FEW016 15/11 Q1016=
EFKE 080720Z AUTO 18005KT 130V220 9999 BKN025 19/13 Q1016=
EFKI 080720Z AUTO 33005KT 300V360 CAVOK 18/14 Q1016=
EFKS 080720Z 06004KT 360V110 9999 BKN018 15/10 Q1017=
EFKT 080720Z AUTO 18007KT 150V240 CAVOK 19/10 Q1016=
METAR EFSO 080726Z NIL=
####018000066####
SAEW LEJR 080730
METAR LEJR 080730Z VRB02KT CAVOK 23/19 Q1015=
####018000159####
SACN50 CWAO 080700 RRC
VTS SA 0700 AUTO8 M M M 146/25/07/2601/M/ 3008 06MM=
WFG SA 0700 AUTO8 M M M 172/13/12/3317/M/M PK WND 3319 0646Z 2003
56MM=

####018000083####
SACN93 CWAO 080700 RRC
WPA SA 0700 AUTO8 M M M 202/06/04/MMMM/M/ 0001 41MM=

####018000128####
SACN59 CWAO 080700 RRC
XDB SA 0700 AUTO8 M M M M/11/06/1904/M/ M 93MM=
XTH SA 0700 AUTO8 M M M M/13/11/1906/M/ M 80MM=

####018000128####
SACN98 CWAO 080700 RRD
XCP SA 0700 AUTO8 M M M M/12/11/2705/M/ M 40MM=
XWM SA 0700 AUTO8 M M M M/12/09/0000/M/ M 14MM=

####018000084####
SACN92 CWAO 080700 RRD
WME SA 0700 AUTO8 M M M 148/23/14/2106/M/M 2012 75MM=

####018000081####
SAUS31 KWBC 080700 RRB
METAR
KLGC 080715Z AUTO 00000KT 10SM CLR 22/ A3003=
####018000170####
SAUS41 KWBC 080700 RRF
METAR
K40B 080725Z AUTO 00000KT 21/21 A3001=
KMMU 080720Z AUTO 00000KT 5SM BR CLR 21/20=
KWDR 080720Z AUTO 00000KT 10SM CLR 23/20 A3008=
####018000186####
SAUS42 KWBC 080700 RRD
METAR
KBQK 080717Z AUTO 00000KT 1 1/2SM VV007 22/22 A3000=
KLGC 080715Z AUTO 00000KT 10SM CLR 22/ A3003=
KOPN 080720Z AUTO 00000KT 10SM CLR 26/22 A3005=
####018000608####
SAPS32 NFFN 080700
METAR NFNA 080700Z 00000KT 40KM SCT023 BKN050 OVC110 23/21 Q1013 RMK 
RR NIL=
METAR NFTF 080700Z 20002KT 9999 FEW015 19/18 Q1015=
METAR NFTL 080700Z NIL=
METAR NFTV 080700Z NIL=
METAR NLWW 080700Z AUTO 13007KT 090V160 9999NDV NCD 27/24 Q1010=
METAR NSAP 080700Z NIL=
METAR NSFA 080700Z 08006KT 45KM FEW020 28/25 Q1011=
METAR NSTU 080659Z 34003KT 10SM SCT014 BKN040 BKN130 27/26 A2986 RMK 
SHRAB20E45 SLP113 T02710261=
METAR NTAA 080700Z 10003KT 9999 FEW020 25/22 Q1015 WS ALL RWY NOSIG=
METAR NVSS 080700Z NIL=
METAR NVVV 080700Z NIL=
METAR NWWW 080700Z NIL=
####018000664####
SAPS31 NFFN 080700
METAR NCRG 080700Z 11005KT 9999 SCT014 BKN290 24/23 Q1017=
METAR NFFN 080700Z 16005KT 40KM SCT028 SCT048 24/19 Q1013 NOSIG RMK 
RR NIL=
METAR NFNA 080700Z 00000KT 40KM SCT023 BKN050 OVC110 23/21 Q1013 RMK 
RR NIL=
METAR NGFU 080700Z 07008KT 50KM FEW020 29/23 Q1009=
METAR NGTA 080700Z NIL=
METAR NIUE 080700Z AUTO 16006KT //// ////// 25/24 Q1013=
METAR NSFA 080700Z 08006KT 45KM FEW020 28/25 Q1011=
METAR NSTU 080659Z 34003KT 10SM SCT014 BKN040 BKN130 27/26 A2986 RMK 
SHRAB20E45 SLP113 T02710261=
METAR NTAA 080700Z 10003KT 9999 FEW020 25/22 Q1015 WS ALL RWY NOSIG=
METAR NWWW 080700Z NIL=
METAR PLCH 080700Z NIL=
####018000104####
SATU20 LTAA 080650 RRD
METAR LTBU 080720Z 34013KT 9999 SCT030 BKN100 23/12 Q1014 RMK RWY23 34014KT=
####018000232####
SATU20 LTAA 080650 RRE
METAR LTCC 080720Z VRB03KT CAVOK 35/06 Q1007 NOSIG RMK RWY16 VRB03KT=
METAR LTCE 080720Z 08011KT 050V110 9999 FEW025 25/10 Q1018 NOSIG RMK
RWY08R 05011KT 020V080 RWY26R 08012KT RWY08L 06010KT 040V110=
####018000079####
SATH31 VTBB 080700 RRC
METAR VTPP 080700Z 29004KT 9999 SCT025 35/23 Q1006=
####018000087####
SAUK33 EGGY 080720 RRA
METAR EGNT 080720Z 20004KT 160V250 9999 FEW040 15/11 Q1014=
####018000390####
SAFI34 EFHK 080720
EFET 080720Z AUTO 16007KT 120V220 CAVOK 18/10 Q1014=
EFIV 080720Z AUTO 14004KT 070V210 9999 FEW016 15/11 Q1016=
EFKE 080720Z AUTO 18005KT 130V220 9999 BKN025 19/13 Q1016=
EFKI 080720Z AUTO 33005KT 300V360 CAVOK 18/14 Q1016=
EFKS 080720Z 06004KT 360V110 9999 BKN018 15/10 Q1017=
EFKT 080720Z AUTO 18007KT 150V240 CAVOK 19/10 Q1016=
METAR EFSO 080726Z NIL=
####018000085####
SAUK33 EGGY 080720 RRB
METAR EGNS 080720Z 24011KT 9999 FEW020 15/10 Q1015 NOSIG=
####018000566####
SAIY32 LIIB 080720
METAR LIBD 080720Z 02014KT CAVOK 24/10 Q1019=
METAR LIBR 080715Z /////KT 9999 FEW020 25/16 Q1016 NOSIG=
METAR LICC 080720Z VRB02KT CAVOK 27/21 Q1018=
METAR LICJ 080720Z 05013KT CAVOK 28/21 Q1018=
METAR LIPE 080720Z 11004KT 050V140 CAVOK 25/17 Q1021=
METAR LIPH 080715Z 04002KT 9999 FEW030 BKN045 22/18 Q1023=
METAR LIPQ 080720Z VRB02KT 9999 BKN050 22/15 Q1023=
METAR LIPR 080715Z 12008KT CAVOK 26/17 Q1021=
METAR LIPX 080715Z 07008KT 9999 FEW060 BKN080 25/15 Q1021=
METAR LIPZ 080720Z 13007KT 9999 SCT045 BKN060 25/16 Q1022=
####018000754####
SAIY31 LIIB 080720
METAR LIEA 080720Z 35005KT 270V050 CAVOK 26/21 Q1019=
METAR LIEE 080715Z 28005KT CAVOK 24/19 Q1018 NOSIG=
METAR LIEO 080720Z VRB02KT 9999 FEW025 27/23 Q1019=
METAR LIMC 080720Z VRB02KT 9999 FEW040 SCT060 24/15 Q1022 NOSIG=
METAR LIME 080720Z 13007KT 9999 BKN055 24/15 Q1023=
METAR LIMF 080720Z VRB02KT 9999 SCT030 SCT050 22/16 Q1022=
METAR LIMJ 080720Z VRB01KT CAVOK 28/21 1020=
METAR LIML 080720Z 08006KT 9999 BKN060 24/16 Q1022 NOSIG=
METAR LIRA 080715Z 35004KT 9999 SCT018 FEW020TCU 27/20 Q1019=
METAR LIRF 080720Z VRB03KT 9999 FEW035 28/21 Q1019 NOSIG=
METAR LIRN 080720Z 05010KT CAVOK 25/13 Q1019=
METAR LIRP 080715Z 11012KT 9999 FEW060 26/16 Q1019 NOSIG=
METAR LIRQ 080720Z VRB01KT CAVOK 26/15 Q1020=
####018000124####
SAUS51 KWBC 080700 RRC
METAR
K40B 080725Z AUTO 00000KT 21/21 A3001=
KIPJ 080720Z AUTO 00000KT 10SM CLR 20/18 A3002=
####018000077####
SPUS53 KWBC 080727
SPECI
KBRL 080724Z AUTO 1 1/2SM BR CLR 23/22 A3001=
####018000186####
SAUS52 KWBC 080700 RRD
METAR
KAYS 080720Z AUTO 00000KT 10SM CLR 23/21 A3001=
KJQF 080720Z AUTO 00000KT 10SM CLR 24/18 A3000=
KVUJ 080719Z AUTO 00000KT 10SM SCT095 22/18 A2997=
####018000085####
SAAE31 VTBB 080700 RRB
METAR VVNB 080700Z 05006KT 9999 SCT023 36/26 Q1002 NOSIG=
####018000086####
SAUS53 KWBC 080700 RRH
METAR
KTDF 080722Z AUTO 00000KT 2 1/2SM CLR 21/21 A3000=
####018000523####
SANL40 EHWX 080725
METAR EHDL 080725Z AUTO 22008KT 9999NDV SCT150 25/12 Q1019 
BLU=
METAR EHEH 080725Z AUTO 22005KT 9999NDV NCD 26/13 Q1019 
BLU BLU=
METAR EHGR 080725Z AUTO 23005KT 9999NDV FEW300 25/12 Q1019 
BLU BLU=
METAR EHLW 080725Z AUTO 23007KT 9999NDV OVC110 22/16 Q1018 RE// 
BLU BLU=
METAR EHVK 080725Z AUTO 20005KT 9999NDV NCD 25/12 Q1019 
BLU BLU=
METAR EHVL 080725Z AUTO 23013KT 9999NDV OVC100 19/15 Q1018 
BLU=
METAR EHWO 080725Z AUTO 27006KT 9999NDV BKN140 23/14 Q1019 
BLU BLU=
####018000077####
SPUS73 KWBC 080727
SPECI
KBRL 080724Z AUTO 1 1/2SM BR CLR 23/22 A3001=
####018000088####
SAUS72 KWBC 080700 RRE
METAR
KBQK 080717Z AUTO 00000KT 1 1/2SM VV007 22/22 A3000=
####018000124####
SAGW20 GGOV 080700
METAR GGOV 080700Z 17006KT 140V200 9999 FEW009 SCT014TCU FEW020CB
      BKN090 26/25 Q1012  NOSIG=
####018000197####
SADL51 ETGT 080720 RRA
METAR
ETMN 080720Z 19004KT 9999 BKN090 BKN260 22/11 Q1019
      BLU BLU BECMG BLU+=
ETNU 080720Z 16003KT 9999 FEW130 BKN180 21/11 Q1022
      BLU BLU TEMPO BLU+=
####018000338####
SPNA14 KAWN 080727 RRC
SPECI KRND 080722Z AUTO 07007KT 10SM BKN014 OVC024 25/23 A2995 RMK
      AO2 CIG 011V019 SLP130=
SPECI KSKF 080724Z 07007KT 10SM BKN017 26/ A2993 RMK AO2A CIG 014V021
      SLP126 $=
SPECI KWRI 080722Z AUTO 13003KT 2 1/2SM R18/4500V5500FT R24/2800V3000FT
      BR OVC001 24/24 A2999 RMK AO2 SLP157 $=
####018000147####
SPNA35 KAWN 080727 RRC
SPECI KWRI 080722Z AUTO 13003KT 2 1/2SM R18/4500V5500FT R24/2800V3000FT
      BR OVC001 24/24 A2999 RMK AO2 SLP157 $=
####018002279####
SAUS20 KNKA 080727
METAR K0F2 080724Z AUTO 00000KT 10SM CLR 23/22 A3000 RMK AO2 
     T02330217=
METAR K11R 080724Z AUTO 06005KT 7SM CLR 25/24 A2995 RMK AO2=
METAR K1H2 080725Z AUTO 00000KT 7SM CLR 25/24 A3004 RMK AO2 
     T02500240=
METAR K3T5 080724Z AUTO 00000KT 10SM SCT008 25/24 A2992 RMK AO2 
     T02520236=
METAR K5C1 080725Z AUTO 08003KT 10SM BKN011 OVC014 24/22 A2998 
     RMK AO1=
METAR KAAA 080723Z AUTO 00000KT 5SM BR SCT095 OVC120 23/22 A3003 
     RMK AO2 LTG DSNT SW T02250215=
METAR KADS 080723Z AUTO 17005KT 10SM BKN018 25/22 A3000 RMK AO2 
     T02530218=
METAR KAJG 080725Z AUTO 00000KT 10SM CLR 24/23 A3004 RMK AO2 
     T02430226=
METAR KALN 080723Z AUTO 00000KT 10SM CLR 25/24 A3003 RMK AO2 
     T02480240=
METAR KAPY 080723Z AUTO 00000KT 10SM SCT012 SCT017 SCT022 25/24 
     A2986 RMK AO2 T02500241=
METAR KAQO 080725Z AUTO 12007KT BKN047 OVC055 26/23 A3001 RMK AO2=
METAR KBXK 080715Z AUTO 36004KT 10SM CLR 30/M02 A2975 RMK AO1 =
METAR KC09 080724Z AUTO 00000KT 3SM BR OVC100 21/21 A3004 RMK AO2=
METAR KGLE 080724Z AUTO 00000KT 10SM CLR 26/23 A3002 RMK AO2=
METAR KGPM 080731Z AUTO 16005KT 10SM SCT015 SCT020 26/23 A3000 
     RMK AO2=
METAR KHQZ 080726Z AUTO 15004KT 10SM BKN015 25/23 A3001 RMK AO2=
SPECI KIOW 080726Z AUTO 33006KT 10SM FEW005 SCT100 22/22 A3002 RMK 
    AO2=
METAR KJOT 080726Z AUTO 00000KT 7SM CLR 23/22 A3003 RMK AO2=
METAR KLOT 080721Z AUTO 00000KT 7SM BKN100 23/22 A3003 RMK AO2 
     LTG DSNT NE=
METAR KORG 080725Z AUTO 07006KT 7SM SCT015 SCT028 SCT035 18/16 
     A2997 RMK AO2=
METAR KOXI 080725Z AUTO 00000KT 7SM CLR 22/20 A3003 RMK AO1 
     T02150200=
METAR KOZA 080721Z AUTO 03005KT 10SM -RA SCT038 BKN070 OVC120 
     23/22 A3006 RMK AO2 T02250215=
METAR KPAN 080735Z AUTO 00000KT 10SM CLR 22/04 A3011 RMK AO1 =
METAR KPPQ 080725Z AUTO 00000KT 4SM DZ SCT001 BKN009 OVC029 23/23 
     A3005 RMK AO2 P0001=
METAR KPVW 080721Z AUTO 29006KT 10SM SCT075 SCT120 21/20 A3015 
     RMK AO2=
METAR KRQO 080735Z AUTO 00000KT 7SM CLR 23/23 A3006 RMK AO2=
METAR KSLO 080721Z AUTO 19003KT 10SM CLR 24/22 A3005 RMK AO2=
SPECI KUGN 080726Z AUTO 22004KT 3SM RA BR BKN030 BKN049 OVC060 23/22 
    A3004 RMK AO2 LTG DSNT S TSB0658E13 P0012=
####018001735####
SAEU KAWN 080700 RRX
METAR EGNS 080720Z 24011KT 9999 FEW020 15/10 Q1015 NOSIG=
METAR EGNT 080720Z 20004KT 160V250 9999 FEW040 15/11 Q1014=
METAR ENBO 080720Z 35004KT 300V060 CAVOK 17/09 Q1010 NOSIG=
METAR ENBR 080720Z 17012KT 9999 FEW008 SCT060 BKN075 15/13 Q1012 NOSIG=
METAR ENDU 080720Z VRB01KT 9999 FEW050 BKN080 15/08 Q1011 NOSIG=
METAR ENVA 080720Z 27004KT CAVOK 16/13 Q1009 NOSIG=
METAR ETHN 080720Z 16005KT 9999 FEW300 22/09 Q1022 BLU/BLU/=
METAR LEJR 080730Z VRB02KT CAVOK 23/19 Q1015=
METAR LIBD 080720Z 02014KT CAVOK 24/10 Q1019=
METAR LIBR 080715Z /////KT 9999 FEW020 25/16 Q1016 NOSIG=
METAR LICC 080720Z VRB02KT CAVOK 27/21 Q1018=
METAR LICJ 080720Z 05013KT CAVOK 28/21 Q1018=
METAR LIEA 080720Z 35005KT 270V050 CAVOK 26/21 Q1019=
METAR LIEE 080715Z 28005KT CAVOK 24/19 Q1018 NOSIG=
METAR LIEO 080720Z VRB02KT 9999 FEW025 27/23 Q1019=
METAR LIMC 080720Z VRB02KT 9999 FEW040 SCT060 24/15 Q1022 NOSIG=
METAR LIME 080720Z 13007KT 9999 BKN055 24/15 Q1023=
METAR LIMF 080720Z VRB02KT 9999 SCT030 SCT050 22/16 Q1022=
METAR LIMJ 080720Z VRB01KT CAVOK 28/21 1020=
METAR LIML 080720Z 08006KT 9999 BKN060 24/16 Q1022 NOSIG=
METAR LIPH 080715Z 04002KT 9999 FEW030 BKN045 22/18 Q1023=
METAR LIPQ 080720Z VRB02KT 9999 BKN050 22/15 Q1023=
METAR LIPR 080715Z 12008KT CAVOK 26/17 Q1021=
METAR LIPX 080715Z 07008KT 9999 FEW060 BKN080 25/15 Q1021=
METAR LIPZ 080720Z 13007KT 9999 SCT045 BKN060 25/16 Q1022=
METAR LIRA 080715Z 35004KT 9999 SCT018 FEW020TCU 27/20 Q1019=
METAR LIRF 080720Z VRB03KT 9999 FEW035 28/21 Q1019 NOSIG=
METAR LIRN 080720Z 05010KT CAVOK 25/13 Q1019=
METAR LIRP 080715Z 11012KT 9999 FEW060 26/16 Q1019 NOSIG=
METAR LIRQ 080720Z VRB01KT CAVOK 26/15 Q1020=
####018001835####
SAEW KAWN 080700 RRK
METAR EBAW 080720Z 29003KT 220V340 CAVOK 23/13 Q1019 NOSIG=
METAR EBBR 080720Z 21004KT 180V250 CAVOK 25/13 Q1019 NOSIG=
METAR EBCI 080720Z 18006KT CAVOK 24/11 Q1020 NOSIG=
METAR EBFN 080655Z 28006KT 9999 FEW042 SCT130 BKN190 19/15 Q1019 BLU
      BLU=
METAR EBLG 080720Z 18007KT 150V220 CAVOK 24/10 Q1020 NOSIG=
METAR EBOS 080720Z 27007KT CAVOK 19/15 Q1019 NOSIG=
METAR EDHI 080720Z VRB03KT CAVOK 23/13 Q1019=
METAR EDMO 080720Z 08005KT 050V130 CAVOK 20/10 Q1023=
METAR EDOP 080720Z 16007KT 100V210 CAVOK 23/11 Q1021=
METAR EHBK 080725Z AUTO 20009KT 170V230 9999NDV NCD 24/12 Q1019 NOSIG=
METAR EHRD 080725Z 27007KT 240V310 9999 FEW036 22/14 Q1019 NOSIG=
METAR ELLX 080720Z VRB03KT CAVOK 23/09 Q1021 NOSIG=
METAR ETGG 080720Z 17009KT 9999 BKN060 21/14 Q1018 BLU=
METAR ETGZ 080720Z 13004KT 9999 FEW120 20/08 Q1024 BLU/=
METAR ETHA 080720Z 06003KT 9999 FEW150 18/11 Q1023 BLU/BLU/=
METAR ETHB 080720Z 18004KT 9999 FEW140 24/11 Q1019 BLU/BLU/=
METAR ETHE 080720Z 16003KT 9999 FEW130 SCT250 23/12 Q1019 BLU/BLU/=
METAR ETHL 080720Z 05003KT 9999 FEW140 19/11 Q1022 BLU/BLU/=
METAR ETHN 080720Z 16005KT 9999 FEW300 22/09 Q1022 BLU/BLU/=
METAR ETHR 080720Z 13004KT 9999 FEW200 22/09 Q1023 BLU/BLU/=
METAR ETNN 080720Z 17004KT 9999 FEW170 25/10 Q1019 BLU/BLU/=
METAR ETNW 080720Z 19006KT 9999 FEW150 SCT200 24/10 Q1020 BLU/BLU/=
METAR ETSB 080720Z 15005KT 9999 FEW290 23/09 Q1022 BLU/BLU/=
METAR ETSE 080720Z 11006KT 9999 FEW250 19/10 Q1023 BLU/BLU/=
METAR ETSH 080720Z 15004KT 9999 FEW170 21/11 Q1022 BLU/BLU/=
METAR ETSI 080720Z 04003KT 9999 FEW120 20/11 Q1023 BLU/BLU/=
METAR ETSL 080720Z 08005KT 9999 FEW250 20/11 Q1023 BLU/BLU/=
METAR ETSN 080720Z 06004KT 9999 FEW160 19/10 Q1023 BLU/BLU/=
METAR ETWM 080720Z 21006KT 9999 FEW050 SCT300 25/11 Q1019 BLU/=
####018000288####
SAUS20 KNKA 080727
SPECI KHZY 080726Z AUTO 00000KT 1 1/4SM BR CLR 19/19 A3008 RMK AO2=
SPECI KSLK 080726Z AUTO 00000KT 2 1/2SM BR CLR 18/17 A3009 RMK AO2=
SPECI KTUL 080726Z 10008KT 3SM -TSRA BR BKN043 BKN075 OVC090 23/22 
    A2999 RMK AO2 TSB26 OCNL LTGIC S TS S MOV N P0027=
####018000068####
SAUS90 KWBC 080728
METAR K40B 080725Z AUTO 00000KT 21/21 A3001=
####018000468####
SPUS99 KWBC 080728
SPECI
KIOW 080726Z AUTO 33006KT 10SM FEW005 SCT100 22/22 A3002 RMK
     AO2=
KUGN 080726Z AUTO 22004KT 3SM RA BR BKN030 BKN049 OVC060 23/22
     A3004 RMK AO2 LTG DSNT S TSB0658E13 P0012=
KHZY 080726Z AUTO 00000KT 1 1/4SM BR CLR 19/19 A3008 RMK AO2=
KSLK 080726Z AUTO 00000KT 2 1/2SM BR CLR 18/17 A3009 RMK AO2=
KTUL 080726Z 10008KT 3SM -TSRA BR BKN043 BKN075 OVC090 23/22 A2999
     RMK AO2 TSB26 OCNL LTGIC S TS S MOV N P0027=
####018000095####
SACN87 KWBC 080728
METAR CWME 080700Z AUTO 21006KT 23/14 RMK AO1 SLP148 T02270135
52012=
####018000122####
SAGW20 GGOV 080700
METAR GGOV 080700Z 17006KT 140V200 9999 FEW009 SCT014TCU FEW020CB
      BKN090 26/25 Q1012  NOSIG=
####018000295####
SANL31 EHDB 080725
METAR EHAM 080725Z 27008KT 230V300 CAVOK 22/15 Q1019 NOSIG=
METAR EHBK 080725Z AUTO 20009KT 170V230 9999NDV NCD 24/12 Q1019
NOSIG=
METAR EHGG 080725Z AUTO 21008KT 180V240 9999NDV NSC 22/12 Q1018
NOSIG=
METAR EHRD 080725Z 27007KT 240V310 9999 FEW036 22/14 Q1019 NOSIG=
####018000088####
SAUK35 EGGY 080720 RRA
METAR EGMD 080720Z 22010KT 0900 FG SCT000 BKN001 16/15 Q1019=
####018000095####
SAUK31 EGGY 080720 CCB
METAR COR EGCC 080720Z 19008KT 9999 FEW032 SCT036 15/12 Q1017 NOSIG=
####018000741####
SAIY31 LIIB 080720
METAR LIEA 080720Z 35005KT 270V050 CAVOK 26/21 Q1019=
METAR LIEE 080715Z 28005KT CAVOK 24/19 Q1018 NOSIG=
METAR LIEO 080720Z VRB02KT 9999 FEW025 27/23 Q1019=
METAR LIMC 080720Z VRB02KT 9999 FEW040 SCT060 24/15 Q1022 NOSIG=
METAR LIME 080720Z 13007KT 9999 BKN055 24/15 Q1023=
METAR LIMF 080720Z VRB02KT 9999 SCT030 SCT050 22/16 Q1022=
METAR LIMJ 080720Z VRB01KT CAVOK 28/21 1020=
METAR LIML 080720Z 08006KT 9999 BKN060 24/16 Q1022 NOSIG=
METAR LIRA 080715Z 35004KT 9999 SCT018 FEW020TCU 27/20 Q1019=
METAR LIRF 080720Z VRB03KT 9999 FEW035 28/21 Q1019 NOSIG=
METAR LIRN 080720Z 05010KT CAVOK 25/13 Q1019=
METAR LIRP 080715Z 11012KT 9999 FEW060 26/16 Q1019 NOSIG=
METAR LIRQ 080720Z VRB01KT CAVOK 26/15 Q1020=
####018001911####
SAUS99 KWBC 080728
METAR
K0F2 080724Z AUTO 00000KT 10SM CLR 23/22 A3000 RMK AO2
     T02330217=
K11R 080724Z AUTO 06005KT 7SM CLR 25/24 A2995 RMK AO2=
K1H2 080725Z AUTO 00000KT 7SM CLR 25/24 A3004 RMK AO2
     T02500240=
K3T5 080724Z AUTO 00000KT 10SM SCT008 25/24 A2992 RMK AO2
     T02520236=
K5C1 080725Z AUTO 08003KT 10SM BKN011 OVC014 24/22 A2998 RMK
     AO1=
KAAA 080723Z AUTO 00000KT 5SM BR SCT095 OVC120 23/22 A3003 RMK AO2
     LTG DSNT SW T02250215=
KADS 080723Z AUTO 17005KT 10SM BKN018 25/22 A3000 RMK AO2
     T02530218=
KAJG 080725Z AUTO 00000KT 10SM CLR 24/23 A3004 RMK AO2
     T02430226=
KALN 080723Z AUTO 00000KT 10SM CLR 25/24 A3003 RMK AO2
     T02480240=
KAPY 080723Z AUTO 00000KT 10SM SCT012 SCT017 SCT022 25/24 A2986
     RMK AO2 T02500241=
KAQO 080725Z AUTO 12007KT BKN047 OVC055 26/23 A3001 RMK AO2=
KBXK 080715Z AUTO 36004KT 10SM CLR 30/M02 A2975 RMK AO1=
KC09 080724Z AUTO 00000KT 3SM BR OVC100 21/21 A3004 RMK AO2=
KGLE 080724Z AUTO 00000KT 10SM CLR 26/23 A3002 RMK AO2=
KGPM 080731Z AUTO 16005KT 10SM SCT015 SCT020 26/23 A3000 RMK
     AO2=
KHQZ 080726Z AUTO 15004KT 10SM BKN015 25/23 A3001 RMK AO2=
KJOT 080726Z AUTO 00000KT 7SM CLR 23/22 A3003 RMK AO2=
KLOT 080721Z AUTO 00000KT 7SM BKN100 23/22 A3003 RMK AO2 LTG DSNT
     NE=
KORG 080725Z AUTO 07006KT 7SM SCT015 SCT028 SCT035 18/16 A2997 RMK
     AO2=
KOXI 080725Z AUTO 00000KT 7SM CLR 22/20 A3003 RMK AO1
     T02150200=
KOZA 080721Z AUTO 03005KT 10SM -RA SCT038 BKN070 OVC120 23/22
     A3006 RMK AO2 T02250215=
KPAN 080735Z AUTO 00000KT 10SM CLR 22/04 A3011 RMK AO1=
KPPQ 080725Z AUTO 00000KT 4SM DZ SCT001 BKN009 OVC029 23/23 A3005
     RMK AO2 P0001=
KPVW 080721Z AUTO 29006KT 10SM SCT075 SCT120 21/20 A3015 RMK
     AO2=
KRQO 080735Z AUTO 00000KT 7SM CLR 23/23 A3006 RMK AO2=
KSLO 080721Z AUTO 19003KT 10SM CLR 24/22 A3005 RMK AO2=
####018000556####
SAIY32 LIIB 080720
METAR LIBD 080720Z 02014KT CAVOK 24/10 Q1019=
METAR LIBR 080715Z /////KT 9999 FEW020 25/16 Q1016 NOSIG=
METAR LICC 080720Z VRB02KT CAVOK 27/21 Q1018=
METAR LICJ 080720Z 05013KT CAVOK 28/21 Q1018=
METAR LIPE 080720Z 11004KT 050V140 CAVOK 25/17 Q1021=
METAR LIPH 080715Z 04002KT 9999 FEW030 BKN045 22/18 Q1023=
METAR LIPQ 080720Z VRB02KT 9999 BKN050 22/15 Q1023=
METAR LIPR 080715Z 12008KT CAVOK 26/17 Q1021=
METAR LIPX 080715Z 07008KT 9999 FEW060 BKN080 25/15 Q1021=
METAR LIPZ 080720Z 13007KT 9999 SCT045 BKN060 25/16 Q1022=
####018001819####
SAUS70 KWBC 080728
METAR
K0F2 080724Z AUTO 00000KT 10SM CLR 23/22 A3000 RMK AO2
     T02330217=
K11R 080724Z AUTO 06005KT 7SM CLR 25/24 A2995 RMK AO2=
K1H2 080725Z AUTO 00000KT 7SM CLR 25/24 A3004 RMK AO2
     T02500240=
K3T5 080724Z AUTO 00000KT 10SM SCT008 25/24 A2992 RMK AO2
     T02520236=
K5C1 080725Z AUTO 08003KT 10SM BKN011 OVC014 24/22 A2998 RMK
     AO1=
KAAA 080723Z AUTO 00000KT 5SM BR SCT095 OVC120 23/22 A3003 RMK AO2
     LTG DSNT SW T02250215=
KADS 080723Z AUTO 17005KT 10SM BKN018 25/22 A3000 RMK AO2
     T02530218=
KAJG 080725Z AUTO 00000KT 10SM CLR 24/23 A3004 RMK AO2
     T02430226=
KALN 080723Z AUTO 00000KT 10SM CLR 25/24 A3003 RMK AO2
     T02480240=
KAQO 080725Z AUTO 12007KT BKN047 OVC055 26/23 A3001 RMK AO2=
KBXK 080715Z AUTO 36004KT 10SM CLR 30/M02 A2975 RMK AO1=
KC09 080724Z AUTO 00000KT 3SM BR OVC100 21/21 A3004 RMK AO2=
KGLE 080724Z AUTO 00000KT 10SM CLR 26/23 A3002 RMK AO2=
KGPM 080731Z AUTO 16005KT 10SM SCT015 SCT020 26/23 A3000 RMK
     AO2=
KHQZ 080726Z AUTO 15004KT 10SM BKN015 25/23 A3001 RMK AO2=
KJOT 080726Z AUTO 00000KT 7SM CLR 23/22 A3003 RMK AO2=
KLOT 080721Z AUTO 00000KT 7SM BKN100 23/22 A3003 RMK AO2 LTG DSNT
     NE=
KORG 080725Z AUTO 07006KT 7SM SCT015 SCT028 SCT035 18/16 A2997 RMK
     AO2=
KOXI 080725Z AUTO 00000KT 7SM CLR 22/20 A3003 RMK AO1
     T02150200=
KOZA 080721Z AUTO 03005KT 10SM -RA SCT038 BKN070 OVC120 23/22
     A3006 RMK AO2 T02250215=
KPAN 080735Z AUTO 00000KT 10SM CLR 22/04 A3011 RMK AO1=
KPPQ 080725Z AUTO 00000KT 4SM DZ SCT001 BKN009 OVC029 23/23 A3005
     RMK AO2 P0001=
KPVW 080721Z AUTO 29006KT 10SM SCT075 SCT120 21/20 A3015 RMK
     AO2=
KRQO 080735Z AUTO 00000KT 7SM CLR 23/23 A3006 RMK AO2=
KSLO 080721Z AUTO 19003KT 10SM CLR 24/22 A3005 RMK AO2=
####018001201####
SPUS70 KWBC 080728
SPECI
PAWD 080724Z AUTO 00000KT 5SM -RA BR BKN001 BKN047 OVC055 11/09
     A2998 RMK AO2 P0000 TSNO=
KALI 080725Z AUTO 05007KT 10SM -RA FEW006 OVC075 26/26 A2986 RMK
     AO2 LTG DSNT E RAB23 P0000=
KDMO 080725Z AUTO 17003KT 9SM SCT004 BKN042 OVC060 24/22 A3005 RMK
     AO2 RAE0656 P0000=
KHWV 080725Z AUTO 13003KT 1/2SM FG OVC002 24/24 A3003 RMK AO2=
KJFK 080725Z 00000KT 1 3/4SM BR BKN003 OVC009 24/23 A3002 RMK AO2
     $=
KMYF 080725Z AUTO 35004KT 10SM OVC015 17/14 A2991 RMK AO2 TSNO=
KONT 080725Z 25004KT 6SM HZ BKN012 15/12 A2991 RMK AO2=
KPWK 080725Z AUTO 32003KT 8SM -RA BKN041 BKN110 23/21 A3005 RMK
     AO2 LTG DSNT SE P0004=
KVAY 080725Z AUTO 00000KT 1 1/4SM BR OVC003 23/23 A3001 RMK
     AO2=
KIOW 080726Z AUTO 33006KT 10SM FEW005 SCT100 22/22 A3002 RMK
     AO2=
KUGN 080726Z AUTO 22004KT 3SM RA BR BKN030 BKN049 OVC060 23/22
     A3004 RMK AO2 LTG DSNT S TSB0658E13 P0012=
KHZY 080726Z AUTO 00000KT 1 1/4SM BR CLR 19/19 A3008 RMK AO2=
KSLK 080726Z AUTO 00000KT 2 1/2SM BR CLR 18/17 A3009 RMK AO2=
KTUL 080726Z 10008KT 3SM -TSRA BR BKN043 BKN075 OVC090 23/22 A2999
     RMK AO2 TSB26 OCNL LTGIC S TS S MOV N P0027=
####018000116####
SPUS80 KWBC 080728
SPECI
KRFD 080723Z 00000KT 10SM -RA SCT008 BKN013 OVC050 22/21 A3004 RMK
     AO2 P0000=
####018000121####
SAXX60 KWBC 080728
METAR
KAPY 080723Z AUTO 00000KT 10SM SCT012 SCT017 SCT022 25/24 A2986
     RMK AO2 T02500241=
####018000087####
SAAS33 KWBC 080705 RRA
METAR
VVNB 080700Z 05006KT 9999 SCT023 36/26 Q1002 NOSIG=
####018000240####
SAAW41 KWBC 080750 RRA
METAR
LTCC 080720Z VRB03KT CAVOK 35/06 Q1007 NOSIG RMK RWY16 VRB03KT=
LTCE 080720Z 08011KT 050V110 9999 FEW025 25/10 Q1018 NOSIG RMK
     RWY08R 05011KT 020V080 RWY26R 08012KT RWY08L 06010KT
     040V110=
####018000345####
SABX31 KWBC 080720 RRA
METAR
EBAW 080720Z 29003KT 220V340 CAVOK 23/13 Q1019 NOSIG=
EBBR 080720Z 21004KT 180V250 CAVOK 25/13 Q1019 NOSIG=
EBCI 080720Z 18006KT CAVOK 24/11 Q1020 NOSIG=
EBLG 080720Z 18007KT 150V220 CAVOK 24/10 Q1020 NOSIG=
EBOS 080720Z 27007KT CAVOK 19/15 Q1019 NOSIG=
ELLX 080720Z VRB03KT CAVOK 23/09 Q1021 NOSIG=
####018000110####
SABX31 KWBC 080650 RRC
METAR
EBFN 080655Z 28006KT 9999 FEW042 SCT130 BKN190 19/15 Q1019 BLU
     BLU=
####018000351####
SAEM31 KWBC 080700 RRC
METAR
LOWG 080720Z VRB02KT CAVOK 20/12 Q1024 NOSIG=
LOWI 080720Z VRB01KT CAVOK 19/12 Q1023 NOSIG=
LOWK 080720Z VRB01KT 9999 FEW050 18/11 Q1024 NOSIG=
LOWL 080720Z 10004KT 050V160 CAVOK 18/10 Q1024 NOSIG=
LOWS 080720Z 17005KT 130V210 CAVOK 18/09 Q1023 NOSIG=
LOWW 080720Z 02004KT 330V080 CAVOK 18/11 Q1024 NOSIG=
####018000477####
SAEN31 KWBC 080720 RRA
METAR
EFIV 080720Z AUTO 14004KT 070V210 9999 FEW016 15/11 Q1016=
EFKE 080720Z AUTO 18005KT 130V220 9999 BKN025 19/13 Q1016=
ENBO 080720Z 35004KT 300V060 CAVOK 17/09 Q1010 NOSIG=
ENBR 080720Z 17012KT 9999 FEW008 SCT060 BKN075 15/13 Q1012
     NOSIG=
ENGM 080715Z 18010KT 9999 FEW009 SCT012 BKN019 15/14 Q1015 TEMPO
     BKN012=
ENVA 080720Z 27004KT CAVOK 16/13 Q1009 NOSIG=
ENZV 080720Z 19009KT 9999 FEW015 SCT150 17/13 Q1013 NOSIG=
####018000090####
SPUS31 KWBC 080728
SPECI
KJFK 080725Z 00000KT 1 3/4SM BR BKN003 OVC009 24/23 A3002=
####018000079####
SPUS31 KWBC 080728
SPECI
KONT 080725Z 25004KT 6SM HZ BKN012 15/12 A2991=
####018000618####
SAIY31 KWBC 080720 RRA
METAR
LIBD 080720Z 02014KT CAVOK 24/10 Q1019=
LIBR 080715Z /////KT 9999 FEW020 25/16 Q1016 NOSIG=
LICC 080720Z VRB02KT CAVOK 27/21 Q1018=
LICJ 080720Z 05013KT CAVOK 28/21 Q1018=
LIEA 080720Z 35005KT 270V050 CAVOK 26/21 Q1019=
LIEE 080715Z 28005KT CAVOK 24/19 Q1018 NOSIG=
LIEO 080720Z VRB02KT 9999 FEW025 27/23 Q1019=
LIMC 080720Z VRB02KT 9999 FEW040 SCT060 24/15 Q1022 NOSIG=
LIME 080720Z 13007KT 9999 BKN055 24/15 Q1023=
LIMF 080720Z VRB02KT 9999 SCT030 SCT050 22/16 Q1022=
LIMJ 080720Z VRB01KT CAVOK 28/21 1020=
LIML 080720Z 08006KT 9999 BKN060 24/16 Q1022 NOSIG=
####018000546####
SAIY32 KWBC 080720 RRA
METAR
LIPE 080720Z 11004KT 050V140 CAVOK 25/17 Q1021=
LIPH 080715Z 04002KT 9999 FEW030 BKN045 22/18 Q1023=
LIPQ 080720Z VRB02KT 9999 BKN050 22/15 Q1023=
LIPR 080715Z 12008KT CAVOK 26/17 Q1021=
LIPX 080715Z 07008KT 9999 FEW060 BKN080 25/15 Q1021=
LIPZ 080720Z 13007KT 9999 SCT045 BKN060 25/16 Q1022=
LIRA 080715Z 35004KT 9999 SCT018 FEW020TCU 27/20 Q1019=
LIRF 080720Z VRB03KT 9999 FEW035 28/21 Q1019 NOSIG=
LIRP 080715Z 11012KT 9999 FEW060 26/16 Q1019 NOSIG=
LIRQ 080720Z VRB01KT CAVOK 26/15 Q1020=
####018000094####
SAIY41 KWBC 080720 RRA
METAR
LIMC 080720Z VRB02KT 9999 FEW040 SCT060 24/15 Q1022 NOSIG=
####018000088####
SAIY43 KWBC 080720 RRA
METAR
LIPX 080715Z 07008KT 9999 FEW060 BKN080 25/15 Q1021=
####018000554####
SANL31 KWBC 080720 RRA
METAR
EHBK 080725Z AUTO 20009KT 170V230 9999NDV NCD 24/12 Q1019
     NOSIG=
EHDL 080725Z AUTO 22008KT 9999NDV SCT150 25/12 Q1019 BLU=
EHGR 080725Z AUTO 23005KT 9999NDV FEW300 25/12 Q1019 BLU BLU=
EHLW 080725Z AUTO 23007KT 9999NDV OVC110 22/16 Q1018 RE// BLU
     BLU=
EHRD 080725Z 27007KT 240V310 9999 FEW036 22/14 Q1019 NOSIG=
EHVK 080725Z AUTO 20005KT 9999NDV NCD 25/12 Q1019 BLU BLU=
EHVL 080725Z AUTO 23013KT 9999NDV OVC100 19/15 Q1018 BLU=
EHWO 080725Z AUTO 27006KT 9999NDV BKN140 23/14 Q1019 BLU BLU=
####018000215####
SANO41 KWBC 080720 RRA
METAR
ENAN 080720Z 17009KT 9999 FEW045 SCT070 16/09 Q1010 NOSIG=
ENDU 080720Z VRB01KT 9999 FEW050 BKN080 15/08 Q1011 NOSIG=
ENHV 080720Z NIL=
ENLK 080720Z NIL=
ENMH 080720Z NIL=
####018000274####
SANO42 KWBC 080720 RRA
METAR
ENMS 080720Z NIL=
ENNK 080720Z NIL=
ENNM 080720Z NIL=
ENOL 080720Z 12006KT 9999 FEW025 BKN090 16/12 Q1009 NOSIG=
ENRM 080720Z NIL=
ENRS 080720Z NIL=
ENSK 080720Z NIL=
ENSO 080720Z NIL=
ENST 080720Z NIL=
ENVD 080720Z NIL=
####018000094####
SAUK31 KWBC 080720 CCA
METAR
EGLL 080720Z 25009KT 9999 BKN010 18/15 Q1019 BECMG SCT040=
####018000131####
SAUK41 KWBC 080720 RRA
METAR
EGHE 080720Z 19003KT CAVOK 17/13 Q1019=
EGNT 080720Z 20004KT 160V250 9999 FEW040 15/11 Q1014=
####018000191####
SAUK32 KWBC 080720 RRA
METAR
EGNS 080720Z 24011KT 9999 FEW020 15/10 Q1015 NOSIG=
EGNT 080720Z 20004KT 160V250 9999 FEW040 15/11 Q1014=
EGTG 080720Z 26004KT 9999 BKN014 16/12 Q1019=
####018000075####
SAXX61 KWBC 080700 RRD
METAR
LIRN 080720Z 05010KT CAVOK 25/13 Q1019=
####018001166####
SAXX99 KWBC 080700 RRT
METAR
EFET 080720Z AUTO 16007KT 120V220 CAVOK 18/10 Q1014=
EFJO 080720Z 05003KT CAVOK 23/19 Q1015=
EFKI 080720Z AUTO 33005KT 300V360 CAVOK 18/14 Q1016=
EFKS 080720Z 06004KT 360V110 9999 BKN018 15/10 Q1017=
EFKT 080720Z AUTO 18007KT 150V240 CAVOK 19/10 Q1016=
EFLP 080720Z 03004KT 340V110 CAVOK 27/18 Q1014=
EFMI 080720Z AUTO 05003KT 9999 FEW026 25/19 Q1014=
EFSA 080720Z 02003KT CAVOK 22/20 Q1014=
EFUT 080720Z 02006KT 340V080 CAVOK 27/17 Q1014=
EFVR 080725Z NIL=
EGTG 080720Z 26004KT 9999 BKN014 16/12 Q1019=
ENBS 080720Z NIL=
ENHK 080720Z NIL=
ETGZ 080720Z 13004KT 9999 FEW120 20/08 Q1024 BLU/=
ETHE 080720Z 16003KT 9999 FEW130 SCT250 23/12 Q1019 BLU/BLU/=
ETHN 080720Z 16005KT 9999 FEW300 22/09 Q1022 BLU+BLU+=
ETMN 080720Z 19004KT 9999 BKN090 BKN260 22/11 Q1019 BLU BLU BECMG
     BLU+=
ETNU 080720Z 16003KT 9999 FEW130 BKN180 21/11 Q1022 BLU BLU TEMPO
     BLU+=
ETNW 080720Z 19006KT 9999 FEW150 SCT200 24/10 Q1020 BLU/BLU/=
ETWM 080720Z 21006KT 9999 FEW050 SCT300 25/11 Q1019 BLU/=
LOXZ 080720Z VRB02KT 70KM SKC 15/09 Q1024 NOSIG RMK SKC=
VTPP 080700Z 29004KT 9999 SCT025 35/23 Q1006=
####018000087####
SAZA31 KWBC 080700 RRA
METAR
FAJS 080730Z 09010KT 6000 SCT005 08/08 Q1037 NOSIG=
####018000093####
SPUS52 KWBC 080728
SPECI
KALI 080725Z AUTO 05007KT 10SM -RA FEW006 OVC075 26/26 A2986=
####018000089####
SAUK35 EGGY 080720 RRA
METAR EGMD 080720Z 22010KT 0900 FG SCT000 BKN001 16/15 Q1019=
####018000301####
SANL31 EHDB 080725
METAR EHAM 080725Z 27008KT 230V300 CAVOK 22/15 Q1019 NOSIG=
METAR EHBK 080725Z AUTO 20009KT 170V230 9999NDV NCD 24/12 Q1019
NOSIG=
METAR EHGG 080725Z AUTO 21008KT 180V240 9999NDV NSC 22/12 Q1018
NOSIG=
METAR EHRD 080725Z 27007KT 240V310 9999 FEW036 22/14 Q1019 NOSIG=
####018000093####
SPUS72 KWBC 080728
SPECI
KALI 080725Z AUTO 05007KT 10SM -RA FEW006 OVC075 26/26 A2986=
####018000079####
SPUS74 KWBC 080728
SPECI
KONT 080725Z 25004KT 6SM HZ BKN012 15/12 A2991=
####018000079####
SALY31 HLMC 080700 RRA
METAR HLLM 080650Z VRB03KT 6000 BKN025 26/20 Q1019=
####018000091####
SANA14 KAWN 080700 RRF
METAR KOSC 080714Z AUTO 00000KT 5SM BR CLR 20/18 A3002 RMK AO2=
####018000202####
SAZZ40 KAWN 080700 RRR
METAR EFKI 080720Z AUTO 33005KT 300V360 CAVOK 18/14 Q1016=
METAR EFKU 080720Z AUTO VRB02KT 9999NDV OVC014 21/17 Q1016=
METAR EFOU 080720Z VRB02KT 9999 FEW018 19/14 Q1016=
####018000154####
SARS18 KAWN 080700 RRG
METAR EFHK 080720Z 32007KT 290V360 9999 FEW025 BKN200 25/19 Q1014 NOSIG=
METAR ESSA 080720Z 27009KT CAVOK 21/10 Q1017 NOSIG=
####018000111####
SPCN31 CWAO 080727
SPECI CYYT 080727Z 11004KT 1/2SM R11/P6000FT/N R16/P6000FT/N FG VV002
08/ RMK FG8=

####018000218####
SPAU31 AMMC 080728
SPECI YPPH 080727Z 34013KT 3500 SHRA FEW008 SCT022 BKN045 FEW022CB 15/14
     Q1000 RESHRA
     FM0727 33018G28KT 9999 -SHRA BKN020
     INTER 0727/1027 27025G35KT 3000 +SHRA BKN010=


####018000212####
SPAU31 AMMC 080728
SPECI YPPH 080727Z 34013KT 3500 SHRA FEW008 SCT022 BKN045 FEW022CB 15/14
     Q1000 RESHRA
     FM0727 33018G28KT 9999 -SHRA BKN020
     INTER 0727/1027 27025G35KT 3000 +SHRA BKN010=
####018000115####
SPXX70 KAWN 080700 RRB
SPECI KQXJ 080720Z 32018G32KT 3200 DU HZ BKN000 43/03 A2958 RMK PA+337
      DA+3634=
####018000117####
SAIY42 LIIB 080700 RRB
METAR LIRX 080655Z 19004KT CAVOK 22/12 Q1018 RMK SKC VIS MIN 9999E
      VIS MAR 20 KM=
####018000104####
SADL51 ETGT 080720 RRB
METAR
ETNS 080720Z 16007KT 9999 SCT050 SCT120 23/09 Q1019
      BLU+BLU=
####018000060####
SAUS45 KTFX 080728
MTR8S0
METAR K8S0 080625Z 27006KT 
####018000119####
SPCN46 CWAO 080728
SPECI CYKF 080728Z AUTO 00000KT 2 1/4SM BR CLR 19/18 A3006 RMK SLP178
 DENSITY ALT 1600FT=

####018002955####
SAUS20 KNKA 080728
METAR K3LF 080723Z AUTO 00000KT 10SM CLR 24/22 A3004 RMK AO2=
METAR K6R3 080721Z AUTO 08003KT 7SM SCT027 24/24 A2995 RMK AO2 
     T02420242=
METAR KARM 080725Z AUTO 06004KT 7SM SCT027 SCT039 BKN080 27/25 
     A2991 RMK AO2 LTG DSNT SW T02650247=
METAR KASW 080725Z AUTO 00000KT 7SM CLR 23/21 A3006 RMK AO2 
     T02260209=
METAR KAXH 080725Z AUTO 10003KT 7SM SCT037 26/24 A2991 RMK AO2 
     T02600238=
METAR KBBD 080725Z AUTO 04005KT 10SM FEW019 23/21 A3002 RMK=
METAR KBKD 080721Z AUTO 00000KT 7SM CLR 24/23 A3000 RMK AO2 
     T02390231=
METAR KBKS 080726Z AUTO 36003KT 10SM CLR 26/25 A2983 RMK AO1 
     T02620247=
METAR KBPC 080728Z AUTO 02008KT 10SM -RA SCT014 BKN035 OVC050 
     18/17 A3017 RMK AO2 P0001=
METAR KBPG 080725Z AUTO 10006KT 10SM CLR 22/20 A3009 RMK AO1 
     T02200200=
METAR KBYY 080726Z AUTO 08005KT 10SM CLR 27/26 A2988 RMK AO2 
     T02680258=
METAR KCIR 080722Z AUTO 00000KT 10SM CLR 24/22 A3004 RMK AO2=
METAR KCPT 080725Z AUTO 12006KT 10SM CLR 24/24 A3001 RMK AO2=
METAR KCUL 080725Z AUTO 00000KT 10SM CLR 23/21 A3004 RMK AO2 
     T02320208=
METAR KCVB 080724Z AUTO 08004KT 10SM CLR 25/24 A2995 RMK AO2 
     T02500237=
METAR KCWC 080725Z AUTO 04004KT 10SM CLR 24/22 A3002 RMK AO2 
     T02410220=
METAR KDKB 080721Z AUTO 00000KT 5SM -RA SCT013 SCT018 SCT090 
     22/21 A3003 RMK AO2 T02150210=
METAR KDKR 080725Z AUTO 00000KT 6SM  BR CLR 24/24 A3001 RMK AO2=
METAR KDNV 080725Z AUTO 00000KT 7SM CLR 22/20 A3001 RMK AO2 
     T02240203=
METAR KDUX 080727Z AUTO 21003KT 10SM -RA SCT022 BKN035 OVC040 
     17/16 A3021 RMK AO2 P0004 T01730163=
METAR KDZB 080725Z AUTO 12003KT 5SM BR CLR 24/24 A2997 RMK AO2 
     T02350236=
METAR KE38 080725Z AUTO 00000KT 10SM SCT100 21/18 A3019 RMK AO2 
     T02110175=
METAR KECU 080725Z AUTO 00000KT 10SM CLR 22/20 A3007 RMK AO2=
METAR KENL 080724Z AUTO 19003KT 10SM CLR 24/16 A3004 RMK AO2 
     T02400160=
METAR KERV 080725Z AUTO 00000KT 10SM SCT013 SCT120 23/22 A2999 
     RMK AO2 T02330215=
METAR KF05 080724Z AUTO 01004KT 10SM CLR 24/22 A3003 RMK AO2 
     T02380219=
METAR KFEP 080725Z AUTO 00000KT 7SM -DZ SCT050 BKN060 24/22 A3001 
     RMK AO2 T02360215=
METAR KFOA 080725Z AUTO 00000KT 7SM SCT110 26/25 A3004 RMK AO2 
     T02600254=
METAR KFWC 080725Z AUTO 00000KT 7SM SCT110 24/23 A3004 RMK AO2=
METAR KFWS 080725Z AUTO 11004KT 10SM SCT013 BKN019 25/23 A3001 
     RMK AO2 T02510230=
METAR KGBG 080725Z AUTO 22004KT 10SM OVC006 23/22 A3002 RMK AO2=
METAR KGDJ 080724Z AUTO 00000KT 10SM OVC019 25/23 A3001 RMK AO2 
     T02480230=
METAR KGNC 080725Z AUTO 00000KT 10SM SCT070 OVC090 21/19 A3012 
     RMK AO2 T02050191=
METAR KGVT 080725Z AUTO 17005KT 10SM CLR 25/23 A3001 RMK AO2=
METAR KGWB 080725Z AUTO 00000KT 10SM CLR 23/17 A3006 RMK AO2=
METAR KGYB 080725Z AUTO 08004KT 7SM SCT010 SCT023 25/24 A2998 RMK 
     AO2 T02460237=
####018001205####
SAUS20 KNKA 080728
METAR KGYI 080724Z AUTO 15007KT 10SM SCT060 BKN070 26/24 A3001 
     RMK AO2 T02600235=
METAR KHBV 080720Z AUTO 03005KT 10SM OVC006 25/24 A2988 RMK AO2 
     T02530240=
METAR KHHF 080725Z AUTO 00000KT 10SM SCT047 SCT065 OVC100 23/22 
     A3012 RMK AO2 LTG DSNT N AND NW T02310217=
METAR KHRX 080725Z AUTO 06004KT 7SM RA SCT004 OVC022 18/17 A3021 
     RMK AO2 T01750165=
METAR KHSB 080725Z AUTO 00000KT 4SM BR CLR 22/21 A3004 RMK AO2=
METAR KIJX 080725Z AUTO 00000KT 5SM BR SCT022 SCT028 BKN080 24/23 
     A3004 RMK AO2 LTG DSNT NE T02370228=
METAR KIKK 080725Z AUTO 00000KT 5SM HZ CLR 26/23 A3004 RMK AO2 
     LTG DSNT SW=
METAR KOLY 080723Z AUTO 00000KT 5SM BR SCT090 24/23 A3004 RMK AO2=
METAR KPNT 080725Z AUTO 00000KT 3SM BR SCT055 SCT065 OVC110 23/22 
     A3004 RMK AO2=
METAR KPRG 080725Z AUTO 00000KT 5SM BR BKN100 BKN120 22/21 A3005 
     RMK AO2 T02200213=
METAR KRPJ 080725Z AUTO 00000KT 4SM BR SCT009 BKN015 21/20 A3004 
     RMK AO2 P0001 T02070197=
METAR KRSV 080722Z AUTO 00000KT 10SM CLR 25/23 A3005 RMK AO2 
     T02490230=
METAR KSFY 080726Z AUTO 13005KT 2 1/2SM BR SCT005 SCT012 SCT085 
     22/21 A3000 RMK AO2=
####018003731####
SAUS99 KWBC 080729
METAR
KGYI 080724Z AUTO 15007KT 10SM SCT060 BKN070 26/24 A3001 RMK AO2
     T02600235=
KHBV 080720Z AUTO 03005KT 10SM OVC006 25/24 A2988 RMK AO2
     T02530240=
KHHF 080725Z AUTO 00000KT 10SM SCT047 SCT065 OVC100 23/22 A3012
     RMK AO2 LTG DSNT N AND NW T02310217=
KHRX 080725Z AUTO 06004KT 7SM RA SCT004 OVC022 18/17 A3021 RMK AO2
     T01750165=
KHSB 080725Z AUTO 00000KT 4SM BR CLR 22/21 A3004 RMK AO2=
KIJX 080725Z AUTO 00000KT 5SM BR SCT022 SCT028 BKN080 24/23 A3004
     RMK AO2 LTG DSNT NE T02370228=
KIKK 080725Z AUTO 00000KT 5SM HZ CLR 26/23 A3004 RMK AO2 LTG DSNT
     SW=
KOLY 080723Z AUTO 00000KT 5SM BR SCT090 24/23 A3004 RMK AO2=
KPNT 080725Z AUTO 00000KT 3SM BR SCT055 SCT065 OVC110 23/22 A3004
     RMK AO2=
KPRG 080725Z AUTO 00000KT 5SM BR BKN100 BKN120 22/21 A3005 RMK AO2
     T02200213=
KRPJ 080725Z AUTO 00000KT 4SM BR SCT009 BKN015 21/20 A3004 RMK AO2
     P0001 T02070197=
KRSV 080722Z AUTO 00000KT 10SM CLR 25/23 A3005 RMK AO2
     T02490230=
KSFY 080726Z AUTO 13005KT 2 1/2SM BR SCT005 SCT012 SCT085 22/21
     A3000 RMK AO2=
K3LF 080723Z AUTO 00000KT 10SM CLR 24/22 A3004 RMK AO2=
K6R3 080721Z AUTO 08003KT 7SM SCT027 24/24 A2995 RMK AO2
     T02420242=
KARM 080725Z AUTO 06004KT 7SM SCT027 SCT039 BKN080 27/25 A2991 RMK
     AO2 LTG DSNT SW T02650247=
KASW 080725Z AUTO 00000KT 7SM CLR 23/21 A3006 RMK AO2
     T02260209=
KAXH 080725Z AUTO 10003KT 7SM SCT037 26/24 A2991 RMK AO2
     T02600238=
KBBD 080725Z AUTO 04005KT 10SM FEW019 23/21 A3002 RMK=
KBKD 080721Z AUTO 00000KT 7SM CLR 24/23 A3000 RMK AO2
     T02390231=
KBKS 080726Z AUTO 36003KT 10SM CLR 26/25 A2983 RMK AO1
     T02620247=
KBPC 080728Z AUTO 02008KT 10SM -RA SCT014 BKN035 OVC050 18/17
     A3017 RMK AO2 P0001=
KBPG 080725Z AUTO 10006KT 10SM CLR 22/20 A3009 RMK AO1
     T02200200=
KBYY 080726Z AUTO 08005KT 10SM CLR 27/26 A2988 RMK AO2
     T02680258=
KCIR 080722Z AUTO 00000KT 10SM CLR 24/22 A3004 RMK AO2=
KCPT 080725Z AUTO 12006KT 10SM CLR 24/24 A3001 RMK AO2=
KCUL 080725Z AUTO 00000KT 10SM CLR 23/21 A3004 RMK AO2
     T02320208=
KCVB 080724Z AUTO 08004KT 10SM CLR 25/24 A2995 RMK AO2
     T02500237=
KCWC 080725Z AUTO 04004KT 10SM CLR 24/22 A3002 RMK AO2
     T02410220=
KDKB 080721Z AUTO 00000KT 5SM -RA SCT013 SCT018 SCT090 22/21 A3003
     RMK AO2 T02150210=
KDKR 080725Z AUTO 00000KT 6SM BR CLR 24/24 A3001 RMK AO2=
KDNV 080725Z AUTO 00000KT 7SM CLR 22/20 A3001 RMK AO2
     T02240203=
KDUX 080727Z AUTO 21003KT 10SM -RA SCT022 BKN035 OVC040 17/16
     A3021 RMK AO2 P0004 T01730163=
KDZB 080725Z AUTO 12003KT 5SM BR CLR 24/24 A2997 RMK AO2
     T02350236=
KE38 080725Z AUTO 00000KT 10SM SCT100 21/18 A3019 RMK AO2
     T02110175=
KECU 080725Z AUTO 00000KT 10SM CLR 22/20 A3007 RMK AO2=
KENL 080724Z AUTO 19003KT 10SM CLR 24/16 A3004 RMK AO2
     T02400160=
KERV 080725Z AUTO 00000KT 10SM SCT013 SCT120 23/22 A2999 RMK AO2
     T02330215=
KF05 080724Z AUTO 01004KT 10SM CLR 24/22 A3003 RMK AO2
     T02380219=
KFEP 080725Z AUTO 00000KT 7SM -DZ SCT050 BKN060 24/22 A3001 RMK
     AO2 T02360215=
KFOA 080725Z AUTO 00000KT 7SM SCT110 26/25 A3004 RMK AO2
     T02600254=
KFWC 080725Z AUTO 00000KT 7SM SCT110 24/23 A3004 RMK AO2=
KFWS 080725Z AUTO 11004KT 10SM SCT013 BKN019 25/23 A3001 RMK AO2
     T02510230=
KGBG 080725Z AUTO 22004KT 10SM OVC006 23/22 A3002 RMK AO2=
KGDJ 080724Z AUTO 00000KT 10SM OVC019 25/23 A3001 RMK AO2
     T02480230=
KGNC 080725Z AUTO 00000KT 10SM SCT070 OVC090 21/19 A3012 RMK AO2
     T02050191=
KGVT 080725Z AUTO 17005KT 10SM CLR 25/23 A3001 RMK AO2=
KGWB 080725Z AUTO 00000KT 10SM CLR 23/17 A3006 RMK AO2=
####018000117####
SAUS99 KWBC 080729 RRA
METAR
KGYB 080725Z AUTO 08004KT 7SM SCT010 SCT023 25/24 A2998 RMK AO2
     T02460237=
####018000115####
SAIY42 LIIB 080700 RRB
METAR LIRX 080655Z 19004KT CAVOK 22/12 Q1018 RMK SKC VIS MIN 9999E
      VIS MAR 20 KM=
####018000163####
SANL32 EHDB 080725
METAR EHEH 080725Z AUTO 22005KT 9999NDV NCD 26/13 Q1019 
BLU BLU=
METAR EHKD 080725Z AUTO 23010KT 9999NDV FEW200/// 20/15 Q1018 
BLU BLU=
####018000196####
SPAU31 YBBN 080728
SPECI YPPH 080727Z 34013KT 3500 SHRA FEW008 SCT022 BKN045 FEW022CB
15/14 Q1000 RESHRA
FM0727 33018G28KT 9999 -SHRA BKN020
INTER 0727/1027 27025G35KT 3000 +SHRA BKN010=
####018000197####
SPAU31 KWBC 080729
SPECI
YPPH 080727Z 34013KT 3500 SHRA FEW008 SCT022 BKN045 FEW022CB 15/14
Q1000 RESHRA FM0727 33018G28KT 9999 -SHRA BKN020 INTER 0727/1027
27025G35KT 3000 +SHRA BKN010=
####018000110####
SPCN31 KWBC 080729
SPECI
CYYT 080727Z 11004KT 1/2SM R11/P6000FT/N R16/P6000FT/N FG VV002
08/ RMK FG8=
####018000107####
SPIQ31 KWBC 080729
SPECI
KQXJ 080720Z 32018G32KT 3200 DU HZ BKN000 43/03 A2958 RMK PA+337
DA+3634=
####018000099####
SPUS42 KWBC 080729
SPECI
KTUL 080726Z 10008KT 3SM -TSRA BR BKN043 BKN075 OVC090 23/22 A2999=
####018000099####
SPUS72 KWBC 080729
SPECI
KTUL 080726Z 10008KT 3SM -TSRA BR BKN043 BKN075 OVC090 23/22 A2999=
####018000113####
SADL36 EDZO 080720 RRA
METAR ETNU 080720Z 16003KT 9999 FEW130 BKN180 21/11 Q1022
      BLU BLU TEMPO BLU+=
####018000167####
SANL32 EHDB 080725
METAR EHEH 080725Z AUTO 22005KT 9999NDV NCD 26/13 Q1019 
BLU BLU=
METAR EHKD 080725Z AUTO 23010KT 9999NDV FEW200/// 20/15 Q1018 
BLU BLU=
####018000096####
SAUK31 EGGY 080720 CCB
METAR COR EGCC 080720Z 19008KT 9999 FEW032 SCT036 15/12 Q1017 NOSIG=
####018000083####
SAPK31 OPKC 080725
METAR OPKC 080730Z 09010KTS 9000 BKN030 35/25 Q.1003 NOSIG=
####018000114####
SATH31 VTBB 080700 RRD
METAR VTCH 080700Z 33002KT 5000 FEW025 SCT030 35/21 Q1007 A2975
           INFO : G=
####018000116####
SAIY42 LIIB 080700 RRB
METAR LIRX 080655Z 19004KT CAVOK 22/12 Q1018 RMK SKC VIS MIN 9999E
      VIS MAR 20 KM=
####018000514####
SAUK KAWN 080700 RRG
METAR COR EGCC 080720Z 19008KT 9999 FEW032 SCT036 15/12 Q1017 NOSIG=
METAR EGHE 080720Z 19003KT CAVOK 17/13 Q1019=
METAR COR EGLL 080720Z 25009KT 9999 BKN010 18/15 Q1019 BECMG SCT040=
METAR EGMD 080720Z 22010KT 0900 FG SCT000 BKN001 16/15 Q1019=
METAR EGNS 080720Z 24011KT 9999 FEW020 15/10 Q1015 NOSIG=
METAR EGNT 080720Z 20004KT 160V250 9999 FEW040 15/11 Q1014=
METAR EGTC 080720Z 30005KT 9999 FEW012 SCT024 16/13 Q1018=
METAR EGTG 080720Z 26004KT 9999 BKN014 16/12 Q1019=
####018000083####
SARW20 HRYR 080730
METAR
HRYR 080730Z 16010KT 9999 FEW026 22/13 Q1024 NOSIG=
####018000075####
SPCN44 CWAO 080728
SPECI CYUS 080728Z AUTO ///// 9SM CLR 11/ A2980=

####018001610####
SPZZ40 KAWN 080729 RRF
SPECI CYKF 080728Z AUTO 00000KT 2 1/4SM BR CLR 19/18 A3006 RMK SLP178
      DENSITY ALT 1600FT=
SPECI CYYT 080727Z 11004KT 1/2SM R11/P6000FT/N R16/P6000FT/N FG VV002
      08/ RMK FG8=
SPECI CYZV 080723Z 15003KT 3/8SM R09/2400V4500FT/D -DZ FG VV003 RMK
      FG8=
SPECI EGUN 080725Z AUTO 24007KT 9999 -RA BKN005 BKN014 OVC019 17/17
      A3007 RMK AO2 VIS 2800 RWY11 RAB0711 SLP171=
SPECI ETIK 080726Z AUTO 00000KT 9999 -RA CLR 22/12 A3021 RMK AO2 RAE0659B0726DZB0659E0705
      SLP215 $=
SPECI KAFF 080728Z AUTO 00000KT 10SM SCT013 BKN019 BKN027 BKN043 13/12
      A3041 RMK AO2 SLP207=
SPECI KDOV 080728Z AUTO 00000KT 4SM R01/4000V4500FT BR SCT110 25/25
      A2998 RMK AO2 SLP155=
SPECI KGRF 080722Z AUTO 00000KT 10SM -DZ CLR 19/11 A2993 RMK AO2 DZB0722
      SLP135 $=
SPECI KLTS 080720Z AUTO 34006KT 10SM CLR 23/23 A3005 RMK AO2 DZB0657E0720
      SLP157 $=
SPECI RJFZ 080714Z 02002KT 8000 FEW030 BKN045 OVC230 27/21 Q1007 RMK
      1CU030 5SC045 A2975=
SPECI RJSM 080718Z 10006KT 7000 -SHRA FEW003 SCT005 BKN035 20/18 Q1008
      RMK 2ST003 3ST005 5CU035 A2978 WIND BY EQPT/10 VIS NE-E 5KM=
SPECI RJST 080717Z 16007KT 9999 -SHRA FEW002 BKN015 FEW020CB BKN025
      22/21 Q1009 RETS RMK 1ST002 5CU015 2CB020 5CU025 A2980 VIS
      E-SE 6KM 1ST002 SE-S CB E=
SPECI RJTR 080730Z 17007KT 110V190 9999 FEW020 BKN160 28/22 A2980 RMK
      LAST=
SPECI YPPH 080727Z 34013KT 3500 SHRA FEW008 SCT022 BKN045 FEW022CB
      15/14 Q1000 RESHRA FM0727 33018G28KT 9999 -SHRA BKN020 INTER
      0727/1027 27025G35KT 3000 +SHRA BKN010=
####018002935####
SAUS20 KNKA 080729
SPECI KDDC 080728Z AUTO 02007KT 7SM FEW009 18/17 A3016 RMK AO2=
SPECI KDEN 080728Z 00000KT 5SM BR SCT004 BKN026 OVC120 15/14 A3033 
    RMK AO2 $=
METAR KEBG 080726Z AUTO 00000KT 10SM SCT014 SCT029 SCT034 27/25 
     A2982 RMK AO2 T02650248=
METAR KGOP 080720Z AUTO 00000KT 10SM SCT016 BKN049 25/23 A3001 
     RMK AO2=
METAR KINJ 080725Z AUTO 12005KT 10SM CLR 25/23 A2999 RMK AO2 
     T02480227=
SPECI KIXD 080728Z AUTO 33007KT 5SM BR BKN002 BKN015 BKN032 23/21 
    A3008 RMK AO2=
METAR KJAS 080726Z AUTO 00000KT 10SM CLR 25/24 A3001 RMK AO2 
     T02500237=
METAR KJDD 080725Z AUTO 00000KT 4SM  BR OVC004 24/24 A3001 RMK AO2=
METAR KJSO 080730Z AUTO 00000KT 7SM CLR 24/23 A3003 RMK AO2 
     T02360234=
METAR KJXI 080725Z AUTO 00000KT OVC006 26/25 A3002 RMK AO2=
METAR KLBR 080725Z AUTO 00000KT 7SM SCT004 SCT007 SCT016 24/23 
     A3002 RMK AO2 T02400229=
METAR KLHB 080724Z AUTO 10004KT 5SM BR SCT100 OVC120 25/24 A2997 
     RMK AO2 T02520235=
METAR KLNC 080725Z AUTO 00000KT 10SM CLR 24/24 A3000 RMK AO2 
     T02400237=
METAR KLUD 080725Z AUTO 14005KT 10SM SCT040 25/22 A3000 RMK AO2 
     T02500215=
SPECI KLUK 080728Z AUTO 00000KT 2SM R21L/1800VP6000FT BR CLR 22/22 
    A3007 RMK AO2=
METAR KM30 080726Z AUTO 00000KT 7SM CLR 22/21 A3004 RMK AO2=
SPECI KMCI 080728Z 34004KT 10SM FEW011 OVC043 23/22 A3008 RMK AO2 $=
METAR KMDD 080720Z AUTO 11006KT 10SM SCT120 23/20 A3009 RMK AO2 
     T02280200=
SPECI KMIV 080728Z AUTO 08003KT 1 1/2SM BR OVC004 24/23 A2999 RMK 
    AO2=
METAR KMNZ 080729Z AUTO 14006KT 10SM SCT025 25/24 A3000 RMK AO2 
     T02480235=
METAR KMQB 080725Z AUTO 22005KT 10SM OVC008 23/23 A3005 RMK AO2 
     T02310230=
METAR KMWA 080725Z AUTO 00000KT 10SM CLR 25/24 A3005 RMK AO2 
     T02490235=
METAR KOSA 080725Z AUTO 08003KT 7SM SCT009 BKN014 BKN022 25/24 
     A3002 RMK AO1 T02480240=
METAR KPEZ 080725Z AUTO 04005KT 10SM BKN015 OVC023 26/23 A2993 
     RMK AO2 T02550229=
METAR KPKV 080726Z AUTO 05007KT 10SM SCT011 BKN018 OVC085 25/23 
     A2987 RMK AO2 T02480231=
METAR KPPA 080725Z AUTO 35004KT 10SM BKN055 OVC085 18/17 A3018 
     RMK AO2=
METAR KPSN 080725Z AUTO 12005KT 10SM 24/24 A3001 RMK AO2 T02430235=
METAR KPYX 080730Z AUTO 05008KT 5SM SCT037 BKN046 OVC070 20/18 
     A3018 RMK AO2 P0003 T01970184=
METAR KRAS 080725Z AUTO 09012KT 5SM  BR SCT017 BKN021 28/26 A2986 
     RMK AO2=
METAR KRBO 080725Z AUTO 02005KT 10SM TS BKN080 BKN110 27/25 A2984 
     RMK AO2 LTG DSNT NE T02660253=
METAR KRCR 080727Z AUTO 00000KT 2SM BR CLR 23/22 A3005 RMK AO2=
METAR KRFI 080725Z AUTO 00000KT 7SM CLR 24/23 A3000 RMK AO2 
     T02430233=
METAR KRPH 080725Z AUTO 00000KT 10SM CLR 24/21 A2998 RMK AO2 
     T02350212=
METAR KRWV 080720Z AUTO 00000KT 10SM BKN005 BKN019 24/24 A2999 
     RMK AO2=
METAR KSEP 080725Z AUTO 00000KT 10SM CLR 23/21 A3001 RMK AO1=
####018000188####
SAUS20 KNKA 080729
METAR KSLR 080722Z AUTO 00000KT 10SM CLR 25/23 A3003 RMK AO2 
     T02500230=
METAR KSNK 080726Z AUTO 00000KT 10SM BKN110 21/20 A3007 RMK AO2 
     T02090197=
####018000051####
SAUS90 KWBC 080730
METAR K8S0 080625Z 27006KT=
####018000094####
SPCN31 CWAO 080728
SPECI CYZV 080728Z 15004KT 1/4SM R09/2200FT/N -DZ FG VV002 RMK FG8=

####018000478####
SPUS99 KWBC 080730
SPECI
KDDC 080728Z AUTO 02007KT 7SM FEW009 18/17 A3016 RMK AO2=
KDEN 080728Z 00000KT 5SM BR SCT004 BKN026 OVC120 15/14 A3033 RMK
     AO2 $=
KIXD 080728Z AUTO 33007KT 5SM BR BKN002 BKN015 BKN032 23/21 A3008
     RMK AO2=
KLUK 080728Z AUTO 00000KT 2SM R21L/1800VP6000FT BR CLR 22/22 A3007
     RMK AO2=
KMCI 080728Z 34004KT 10SM FEW011 OVC043 23/22 A3008 RMK AO2 $=
KMIV 080728Z AUTO 08003KT 1 1/2SM BR OVC004 24/23 A2999 RMK
     AO2=
####018002412####
SAUS99 KWBC 080730
METAR
KEBG 080726Z AUTO 00000KT 10SM SCT014 SCT029 SCT034 27/25 A2982
     RMK AO2 T02650248=
KGOP 080720Z AUTO 00000KT 10SM SCT016 BKN049 25/23 A3001 RMK
     AO2=
KINJ 080725Z AUTO 12005KT 10SM CLR 25/23 A2999 RMK AO2
     T02480227=
KJAS 080726Z AUTO 00000KT 10SM CLR 25/24 A3001 RMK AO2
     T02500237=
KJDD 080725Z AUTO 00000KT 4SM BR OVC004 24/24 A3001 RMK AO2=
KJSO 080730Z AUTO 00000KT 7SM CLR 24/23 A3003 RMK AO2
     T02360234=
KJXI 080725Z AUTO 00000KT OVC006 26/25 A3002 RMK AO2=
KLBR 080725Z AUTO 00000KT 7SM SCT004 SCT007 SCT016 24/23 A3002 RMK
     AO2 T02400229=
KLHB 080724Z AUTO 10004KT 5SM BR SCT100 OVC120 25/24 A2997 RMK AO2
     T02520235=
KLNC 080725Z AUTO 00000KT 10SM CLR 24/24 A3000 RMK AO2
     T02400237=
KLUD 080725Z AUTO 14005KT 10SM SCT040 25/22 A3000 RMK AO2
     T02500215=
KM30 080726Z AUTO 00000KT 7SM CLR 22/21 A3004 RMK AO2=
KMDD 080720Z AUTO 11006KT 10SM SCT120 23/20 A3009 RMK AO2
     T02280200=
KMNZ 080729Z AUTO 14006KT 10SM SCT025 25/24 A3000 RMK AO2
     T02480235=
KMQB 080725Z AUTO 22005KT 10SM OVC008 23/23 A3005 RMK AO2
     T02310230=
KMWA 080725Z AUTO 00000KT 10SM CLR 25/24 A3005 RMK AO2
     T02490235=
KOSA 080725Z AUTO 08003KT 7SM SCT009 BKN014 BKN022 25/24 A3002 RMK
     AO1 T02480240=
KPEZ 080725Z AUTO 04005KT 10SM BKN015 OVC023 26/23 A2993 RMK AO2
     T02550229=
KPKV 080726Z AUTO 05007KT 10SM SCT011 BKN018 OVC085 25/23 A2987
     RMK AO2 T02480231=
KPPA 080725Z AUTO 35004KT 10SM BKN055 OVC085 18/17 A3018 RMK
     AO2=
KPSN 080725Z AUTO 12005KT 10SM 24/24 A3001 RMK AO2 T02430235=
KPYX 080730Z AUTO 05008KT 5SM SCT037 BKN046 OVC070 20/18 A3018 RMK
     AO2 P0003 T01970184=
KRAS 080725Z AUTO 09012KT 5SM BR SCT017 BKN021 28/26 A2986 RMK
     AO2=
KRBO 080725Z AUTO 02005KT 10SM TS BKN080 BKN110 27/25 A2984 RMK
     AO2 LTG DSNT NE T02660253=
KRCR 080727Z AUTO 00000KT 2SM BR CLR 23/22 A3005 RMK AO2=
KRFI 080725Z AUTO 00000KT 7SM CLR 24/23 A3000 RMK AO2
     T02430233=
KRPH 080725Z AUTO 00000KT 10SM CLR 24/21 A2998 RMK AO2
     T02350212=
KRWV 080720Z AUTO 00000KT 10SM BKN005 BKN019 24/24 A2999 RMK
     AO2=
KSEP 080725Z AUTO 00000KT 10SM CLR 23/21 A3001 RMK AO1=
KSLR 080722Z AUTO 00000KT 10SM CLR 25/23 A3003 RMK AO2
     T02500230=
KSNK 080726Z AUTO 00000KT 10SM BKN110 21/20 A3007 RMK AO2
     T02090197=
####018000397####
SAUK38 EGGY 080720
METAR EGEC 080720Z NIL=
METAR EGPA 080720Z 19014KT 9999 SCT030 15/11 Q1006=
METAR EGPC 080720Z 19013KT 9999 FEW025 14/11 Q1007=
METAR EGPL 080720Z 22021KT 9999 VCSH FEW015 SCT020 14/11 Q1006=
METAR COR EGPM 080720Z 21023KT 9999 FEW012 SCT040 14/10 Q1004 NOSIG=
METAR EGPO 080720Z 22019KT 9999 6000NE -SHRA FEW018 BKN030 13/10
    Q1004 RESHRA=
METAR EGPU 080720Z NIL=
####018000089####
SAAJ31 UBBB 080730
METAR UBBB 080730Z 34022KT CAVOK 31/26 Q1011 NOSIG RMK
R88CLRD70=
####018000468####
SAUK37 EGGY 080720
METAR EGAE 080720Z 22012KT 9999 FEW014 SCT023 BKN050 14/10 Q1012=
METAR EGNC 080720Z 22012KT 190V250 9999 SCT035 15/11 Q1014=
METAR EGNH 080720Z 22011KT 9999 FEW015 SCT042 17/11 Q1016=
METAR EGNJ 080720Z 22009KT 9999 FEW030 16/12 Q1017=
METAR EGNR 080720Z 17005KT 140V210 9999 FEW025 16/11 Q1017=
METAR EGPE 080720Z 22018KT 9999 FEW025 SCT048 15/09 Q1007=
METAR EGPI 080720Z NIL=
METAR EGPN 080720Z 23015KT 9999 FEW022 SCT048 15/11 Q1011=
####018000400####
SAUK36 EGGY 080720
METAR EGBE 080720Z NIL=
METAR EGBJ 080720Z 22003KT 9999 FEW020 17/11 Q1018=
METAR EGCN 080720Z 23010KT 9999 FEW035 16/11 Q1018=
METAR EGDL 080720Z NIL=
METAR EGSC 080720Z 24005KT 210V280 8000 VCSH FEW012 BKN018 17/16
    Q1018=
METAR EGSD 080720Z NIL=
METAR COR EGSH 080720Z 23007KT 9999 SCT010 BKN028 20/16 Q1018 NOSIG=
METAR EGVN 080720Z NIL=
METAR EGWU 080720Z NIL=
####018000111####
SADL36 EDZO 080720 RRA
METAR ETNU 080720Z 16003KT 9999 FEW130 BKN180 21/11 Q1022
      BLU BLU TEMPO BLU+=
####018000713####
SANL33 EHDB 080725
METAR EHAK 080725Z AUTO 21012KT 9999NDV 16/15 Q1015=
METAR EHDV 080725Z NIL=
METAR EHFD 080725Z AUTO 23011KT 9999NDV FEW025/// 16/15 Q1017=
METAR EHFZ 080725Z AUTO 22012KT 9999NDV -RA FEW017/// SCT023///
BKN044/// 17/15 Q1017=
METAR EHJA 080725Z AUTO 23018KT 9999NDV FEW025/// SCT030/// BKN034///
16/15 Q1017=
METAR EHJR 080725Z NIL=
METAR EHKV 080725Z AUTO 25018KT 9999NDV SCT035/// 16/15 Q1017=
METAR EHMA 080725Z AUTO 22009KT 9999NDV 20/16 Q1018=
METAR EHMG 080725Z AUTO 23017KT 9999NDV OVC040/// 17/15 Q1017=
METAR EHPG 080725Z AUTO 24016KT 9999NDV ///////// 16/14 Q1018=
METAR EHQE 080725Z AUTO 24014KT 9999NDV 16/14 Q1018=
METAR EHSA 080725Z NIL=
METAR EHSC 080725Z NIL=
####018000260####
SAPK31 OPKC 080730
METAR OPGD 080730Z NIL=
METAR OPKC 080730Z 09010KTS 9000 BKN030 35/25 Q.1003 NOSIG=
METAR OPLA 080725Z 12006KT 6000 SCT040 37/23 Q1006=
METAR OPNH 080730Z NIL=
METAR OPPS 080730Z NIL=
METAR OPRN 080730Z NIL=
METAR OPSK 080730Z NIL=
####018000083####
SAKN64 HKMO 080700
METAR HKMO 080700Z 18010KT 9999 FEW022TCU 25/20 Q1020 NOSIG=
####018000478####
SPUS70 KWBC 080730
SPECI
KDDC 080728Z AUTO 02007KT 7SM FEW009 18/17 A3016 RMK AO2=
KDEN 080728Z 00000KT 5SM BR SCT004 BKN026 OVC120 15/14 A3033 RMK
     AO2 $=
KIXD 080728Z AUTO 33007KT 5SM BR BKN002 BKN015 BKN032 23/21 A3008
     RMK AO2=
KLUK 080728Z AUTO 00000KT 2SM R21L/1800VP6000FT BR CLR 22/22 A3007
     RMK AO2=
KMCI 080728Z 34004KT 10SM FEW011 OVC043 23/22 A3008 RMK AO2 $=
KMIV 080728Z AUTO 08003KT 1 1/2SM BR OVC004 24/23 A2999 RMK
     AO2=
####018000391####
SPXX60 KWBC 080730
SPECI
KAFF 080728Z AUTO 00000KT 10SM SCT013 BKN019 BKN027 BKN043 13/12
     A3041 RMK AO2 SLP207=
KDOV 080728Z AUTO 00000KT 4SM R01/4000V4500FT BR SCT110 25/25
     A2998 RMK AO2 SLP155=
KGRF 080722Z AUTO 00000KT 10SM -DZ CLR 19/11 A2993 RMK AO2 DZB0722
     SLP135 $=
KLTS 080720Z AUTO 34006KT 10SM CLR 23/23 A3005 RMK AO2
     DZB0657E0720 SLP157 $=
####018000446####
SAUS80 KWBC 080730
METAR
KSFY 080726Z AUTO 13005KT 2 1/2SM BR SCT005 SCT012 SCT085 22/21
     A3000 RMK AO2=
KCIR 080722Z AUTO 00000KT 10SM CLR 24/22 A3004 RMK AO2=
KCUL 080725Z AUTO 00000KT 10SM CLR 23/21 A3004 RMK AO2
     T02320208=
KPSN 080725Z AUTO 12005KT 10SM 24/24 A3001 RMK AO2 T02430235=
KRFI 080725Z AUTO 00000KT 7SM CLR 24/23 A3000 RMK AO2
     T02430233=
KSEP 080725Z AUTO 00000KT 10SM CLR 23/21 A3001 RMK AO1=
####018002068####
SAUS70 KWBC 080730 RRA
METAR
KGOP 080720Z AUTO 00000KT 10SM SCT016 BKN049 25/23 A3001 RMK
     AO2=
KINJ 080725Z AUTO 12005KT 10SM CLR 25/23 A2999 RMK AO2
     T02480227=
KJAS 080726Z AUTO 00000KT 10SM CLR 25/24 A3001 RMK AO2
     T02500237=
KJDD 080725Z AUTO 00000KT 4SM BR OVC004 24/24 A3001 RMK AO2=
KJSO 080730Z AUTO 00000KT 7SM CLR 24/23 A3003 RMK AO2
     T02360234=
KJXI 080725Z AUTO 00000KT OVC006 26/25 A3002 RMK AO2=
KLBR 080725Z AUTO 00000KT 7SM SCT004 SCT007 SCT016 24/23 A3002 RMK
     AO2 T02400229=
KLHB 080724Z AUTO 10004KT 5SM BR SCT100 OVC120 25/24 A2997 RMK AO2
     T02520235=
KLNC 080725Z AUTO 00000KT 10SM CLR 24/24 A3000 RMK AO2
     T02400237=
KLUD 080725Z AUTO 14005KT 10SM SCT040 25/22 A3000 RMK AO2
     T02500215=
KM30 080726Z AUTO 00000KT 7SM CLR 22/21 A3004 RMK AO2=
KMDD 080720Z AUTO 11006KT 10SM SCT120 23/20 A3009 RMK AO2
     T02280200=
KMNZ 080729Z AUTO 14006KT 10SM SCT025 25/24 A3000 RMK AO2
     T02480235=
KMQB 080725Z AUTO 22005KT 10SM OVC008 23/23 A3005 RMK AO2
     T02310230=
KMWA 080725Z AUTO 00000KT 10SM CLR 25/24 A3005 RMK AO2
     T02490235=
KOSA 080725Z AUTO 08003KT 7SM SCT009 BKN014 BKN022 25/24 A3002 RMK
     AO1 T02480240=
KPEZ 080725Z AUTO 04005KT 10SM BKN015 OVC023 26/23 A2993 RMK AO2
     T02550229=
KPKV 080726Z AUTO 05007KT 10SM SCT011 BKN018 OVC085 25/23 A2987
     RMK AO2 T02480231=
KPPA 080725Z AUTO 35004KT 10SM BKN055 OVC085 18/17 A3018 RMK
     AO2=
KPYX 080730Z AUTO 05008KT 5SM SCT037 BKN046 OVC070 20/18 A3018 RMK
     AO2 P0003 T01970184=
KRAS 080725Z AUTO 09012KT 5SM BR SCT017 BKN021 28/26 A2986 RMK
     AO2=
KRBO 080725Z AUTO 02005KT 10SM TS BKN080 BKN110 27/25 A2984 RMK
     AO2 LTG DSNT NE T02660253=
KRPH 080725Z AUTO 00000KT 10SM CLR 24/21 A2998 RMK AO2
     T02350212=
KRWV 080720Z AUTO 00000KT 10SM BKN005 BKN019 24/24 A2999 RMK
     AO2=
KSLR 080722Z AUTO 00000KT 10SM CLR 25/23 A3003 RMK AO2
     T02500230=
KSNK 080726Z AUTO 00000KT 10SM BKN110 21/20 A3007 RMK AO2
     T02090197=
####018003746####
SAUS70 KWBC 080730
METAR
KOSC 080714Z AUTO 00000KT 5SM BR CLR 20/18 A3002 RMK AO2=
KGYI 080724Z AUTO 15007KT 10SM SCT060 BKN070 26/24 A3001 RMK AO2
     T02600235=
KHBV 080720Z AUTO 03005KT 10SM OVC006 25/24 A2988 RMK AO2
     T02530240=
KHHF 080725Z AUTO 00000KT 10SM SCT047 SCT065 OVC100 23/22 A3012
     RMK AO2 LTG DSNT N AND NW T02310217=
KHRX 080725Z AUTO 06004KT 7SM RA SCT004 OVC022 18/17 A3021 RMK AO2
     T01750165=
KHSB 080725Z AUTO 00000KT 4SM BR CLR 22/21 A3004 RMK AO2=
KIJX 080725Z AUTO 00000KT 5SM BR SCT022 SCT028 BKN080 24/23 A3004
     RMK AO2 LTG DSNT NE T02370228=
KIKK 080725Z AUTO 00000KT 5SM HZ CLR 26/23 A3004 RMK AO2 LTG DSNT
     SW=
KOLY 080723Z AUTO 00000KT 5SM BR SCT090 24/23 A3004 RMK AO2=
KPNT 080725Z AUTO 00000KT 3SM BR SCT055 SCT065 OVC110 23/22 A3004
     RMK AO2=
KPRG 080725Z AUTO 00000KT 5SM BR BKN100 BKN120 22/21 A3005 RMK AO2
     T02200213=
KRPJ 080725Z AUTO 00000KT 4SM BR SCT009 BKN015 21/20 A3004 RMK AO2
     P0001 T02070197=
KRSV 080722Z AUTO 00000KT 10SM CLR 25/23 A3005 RMK AO2
     T02490230=
K3LF 080723Z AUTO 00000KT 10SM CLR 24/22 A3004 RMK AO2=
K6R3 080721Z AUTO 08003KT 7SM SCT027 24/24 A2995 RMK AO2
     T02420242=
KARM 080725Z AUTO 06004KT 7SM SCT027 SCT039 BKN080 27/25 A2991 RMK
     AO2 LTG DSNT SW T02650247=
KASW 080725Z AUTO 00000KT 7SM CLR 23/21 A3006 RMK AO2
     T02260209=
KAXH 080725Z AUTO 10003KT 7SM SCT037 26/24 A2991 RMK AO2
     T02600238=
KBBD 080725Z AUTO 04005KT 10SM FEW019 23/21 A3002 RMK=
KBKD 080721Z AUTO 00000KT 7SM CLR 24/23 A3000 RMK AO2
     T02390231=
KBKS 080726Z AUTO 36003KT 10SM CLR 26/25 A2983 RMK AO1
     T02620247=
KBPC 080728Z AUTO 02008KT 10SM -RA SCT014 BKN035 OVC050 18/17
     A3017 RMK AO2 P0001=
KBPG 080725Z AUTO 10006KT 10SM CLR 22/20 A3009 RMK AO1
     T02200200=
KBYY 080726Z AUTO 08005KT 10SM CLR 27/26 A2988 RMK AO2
     T02680258=
KCPT 080725Z AUTO 12006KT 10SM CLR 24/24 A3001 RMK AO2=
KCVB 080724Z AUTO 08004KT 10SM CLR 25/24 A2995 RMK AO2
     T02500237=
KCWC 080725Z AUTO 04004KT 10SM CLR 24/22 A3002 RMK AO2
     T02410220=
KDKB 080721Z AUTO 00000KT 5SM -RA SCT013 SCT018 SCT090 22/21 A3003
     RMK AO2 T02150210=
KDKR 080725Z AUTO 00000KT 6SM BR CLR 24/24 A3001 RMK AO2=
KDNV 080725Z AUTO 00000KT 7SM CLR 22/20 A3001 RMK AO2
     T02240203=
KDUX 080727Z AUTO 21003KT 10SM -RA SCT022 BKN035 OVC040 17/16
     A3021 RMK AO2 P0004 T01730163=
KDZB 080725Z AUTO 12003KT 5SM BR CLR 24/24 A2997 RMK AO2
     T02350236=
KE38 080725Z AUTO 00000KT 10SM SCT100 21/18 A3019 RMK AO2
     T02110175=
KECU 080725Z AUTO 00000KT 10SM CLR 22/20 A3007 RMK AO2=
KENL 080724Z AUTO 19003KT 10SM CLR 24/16 A3004 RMK AO2
     T02400160=
KERV 080725Z AUTO 00000KT 10SM SCT013 SCT120 23/22 A2999 RMK AO2
     T02330215=
KF05 080724Z AUTO 01004KT 10SM CLR 24/22 A3003 RMK AO2
     T02380219=
KFEP 080725Z AUTO 00000KT 7SM -DZ SCT050 BKN060 24/22 A3001 RMK
     AO2 T02360215=
KFOA 080725Z AUTO 00000KT 7SM SCT110 26/25 A3004 RMK AO2
     T02600254=
KFWC 080725Z AUTO 00000KT 7SM SCT110 24/23 A3004 RMK AO2=
KFWS 080725Z AUTO 11004KT 10SM SCT013 BKN019 25/23 A3001 RMK AO2
     T02510230=
KGBG 080725Z AUTO 22004KT 10SM OVC006 23/22 A3002 RMK AO2=
KGDJ 080724Z AUTO 00000KT 10SM OVC019 25/23 A3001 RMK AO2
     T02480230=
KGNC 080725Z AUTO 00000KT 10SM SCT070 OVC090 21/19 A3012 RMK AO2
     T02050191=
KGVT 080725Z AUTO 17005KT 10SM CLR 25/23 A3001 RMK AO2=
KGWB 080725Z AUTO 00000KT 10SM CLR 23/17 A3006 RMK AO2=
KGYB 080725Z AUTO 08004KT 7SM SCT010 SCT023 25/24 A2998 RMK AO2
     T02460237=
KEBG 080726Z AUTO 00000KT 10SM SCT014 SCT029 SCT034 27/25 A2982
     RMK AO2 T02650248=
####018000091####
SAAJ31 UBBB 080730
METAR UBBB 080730Z 34022KT CAVOK 31/26 Q1011 NOSIG RMK
R88CLRD70=
####018000428####
SANM40 FYWW 080700 CCA
METAR COR FYAN 080700Z AUTO 04007KT //// // ////// 13/02 Q1029=
METAR COR FYKB 080700Z AUTO 03008G55KT //// // ////// 18/01 Q1025=
METAR COR FYKT 080700Z AUTO 36008KT //// // ////// 18/01 Q1027=
METAR COR FYKX 080700Z AUTO 14014KT //// // ////// ///// Q1025=
METAR COR FYML 080700Z AUTO 35002KT //// // ////// 11/M02 Q1029=
METAR COR FYRH 080700Z AUTO 04014KT //// // ////// ///// Q////=

####018000728####
SANL33 EHDB 080725
METAR EHAK 080725Z AUTO 21012KT 9999NDV 16/15 Q1015=
METAR EHDV 080725Z NIL=
METAR EHFD 080725Z AUTO 23011KT 9999NDV FEW025/// 16/15 Q1017=
METAR EHFZ 080725Z AUTO 22012KT 9999NDV -RA FEW017/// SCT023///
BKN044/// 17/15 Q1017=
METAR EHJA 080725Z AUTO 23018KT 9999NDV FEW025/// SCT030/// BKN034///
16/15 Q1017=
METAR EHJR 080725Z NIL=
METAR EHKV 080725Z AUTO 25018KT 9999NDV SCT035/// 16/15 Q1017=
METAR EHMA 080725Z AUTO 22009KT 9999NDV 20/16 Q1018=
METAR EHMG 080725Z AUTO 23017KT 9999NDV OVC040/// 17/15 Q1017=
METAR EHPG 080725Z AUTO 24016KT 9999NDV ///////// 16/14 Q1018=
METAR EHQE 080725Z AUTO 24014KT 9999NDV 16/14 Q1018=
METAR EHSA 080725Z NIL=
METAR EHSC 080725Z NIL=
####018000110####
SATH33 VTBB 080700 RRB
METAR VTBO 080700Z 24010KT 9999 TS FEW018CB BKN020 30/26 Q1008 CB
           AD=
####018000410####
SAUK36 EGGY 080720
METAR EGBE 080720Z NIL=
METAR EGBJ 080720Z 22003KT 9999 FEW020 17/11 Q1018=
METAR EGCN 080720Z 23010KT 9999 FEW035 16/11 Q1018=
METAR EGDL 080720Z NIL=
METAR EGSC 080720Z 24005KT 210V280 8000 VCSH FEW012 BKN018 17/16
    Q1018=
METAR EGSD 080720Z NIL=
METAR COR EGSH 080720Z 23007KT 9999 SCT010 BKN028 20/16 Q1018 NOSIG=
METAR EGVN 080720Z NIL=
METAR EGWU 080720Z NIL=
####018000476####
SAUK37 EGGY 080720
METAR EGAE 080720Z 22012KT 9999 FEW014 SCT023 BKN050 14/10 Q1012=
METAR EGNC 080720Z 22012KT 190V250 9999 SCT035 15/11 Q1014=
METAR EGNH 080720Z 22011KT 9999 FEW015 SCT042 17/11 Q1016=
METAR EGNJ 080720Z 22009KT 9999 FEW030 16/12 Q1017=
METAR EGNR 080720Z 17005KT 140V210 9999 FEW025 16/11 Q1017=
METAR EGPE 080720Z 22018KT 9999 FEW025 SCT048 15/09 Q1007=
METAR EGPI 080720Z NIL=
METAR EGPN 080720Z 23015KT 9999 FEW022 SCT048 15/11 Q1011=
####018000405####
SAUK38 EGGY 080720
METAR EGEC 080720Z NIL=
METAR EGPA 080720Z 19014KT 9999 SCT030 15/11 Q1006=
METAR EGPC 080720Z 19013KT 9999 FEW025 14/11 Q1007=
METAR EGPL 080720Z 22021KT 9999 VCSH FEW015 SCT020 14/11 Q1006=
METAR COR EGPM 080720Z 21023KT 9999 FEW012 SCT040 14/10 Q1004 NOSIG=
METAR EGPO 080720Z 22019KT 9999 6000NE -SHRA FEW018 BKN030 13/10
    Q1004 RESHRA=
METAR EGPU 080720Z NIL=
####018000267####
SAPK31 OPKC 080730
METAR OPGD 080730Z NIL=
METAR OPKC 080730Z 09010KTS 9000 BKN030 35/25 Q.1003 NOSIG=
METAR OPLA 080725Z 12006KT 6000 SCT040 37/23 Q1006=
METAR OPNH 080730Z NIL=
METAR OPPS 080730Z NIL=
METAR OPRN 080730Z NIL=
METAR OPSK 080730Z NIL=
####018000073####
SAUS81 KWBC 080728
&EHA SA 0728  AMOS 62/59/3007/M PK WND 12 008

