####018000072####
SALY31 HLLS 080800
METAR HLLS 080750Z 
11018KT CAVOK 31/11 Q1018 =
####018000115####
SAUS44 KLCH 080755
MTRP92
METAR KP92 080753Z AUTO 00000KT 26/24 A2998 RMK AO2 SLP150 T02560244 
PWINO TSNO
####018000085####
SPCN51 CWAO 080754
SPECI CWZZ 080754Z AUTO ///// 6SM OVC010 OVC032 10/ A2982=

####018000709####
SADL34 EDZO 080750
METAR EDAH 080750Z 15006KT 110V180 CAVOK 21/11 Q1022=
METAR EDGS 080750Z 16008KT 130V190 CAVOK 22/09 Q1022=
METAR EDHL 080750Z 17006KT 130V190 CAVOK 24/16 Q1020=
METAR EDJA 080750Z 07006KT 030V100 CAVOK 21/12 Q1023=
METAR EDLN 080750Z VRB03KT CAVOK 25/14 Q1019=
METAR EDLP 080750Z 19007KT 140V220 CAVOK 26/11 Q1020=
METAR EDLW 080750Z 20009KT 170V240 CAVOK 26/10 Q1020=
METAR EDMA 080750Z 13005KT 070V190 CAVOK 22/11 Q1023=
METAR EDNY 080750Z VRB01KT CAVOK 23/12 Q1022=
METAR EDQM 080750Z 22008KT CAVOK 21/10 Q1024=
METAR EDRZ 080750Z 13003KT 030V220 CAVOK 24/13 Q1021=
METAR EDSB 080750Z VRB03KT CAVOK 23/12 Q1021=
METAR EDXW 080750Z 20012KT CAVOK 22/13 Q1018=
####018001682####
SAEU KAWN 080800 RRB
METAR EDFH 080750Z 11007KT CAVOK 23/12 Q1021=
METAR EDHI 080750Z 14004KT 100V220 CAVOK 24/12 Q1019=
METAR EDMO 080750Z 07006KT 040V110 CAVOK 21/10 Q1023=
METAR EDOP 080750Z 18007KT 140V220 CAVOK 24/11 Q1021=
METAR EDTL 080750Z VRB03KT CAVOK 23/14 Q1020=
METAR EDVK 080750Z VRB05KT CAVOK 23/11 Q1021=
METAR EGGD 080750Z 19004KT 160V220 9999 FEW025 15/13 Q1019=
METAR EGGP 080750Z 21010KT 9999 FEW025 16/11 Q1016=
METAR EGHD 080750Z 00000KT 9999 FEW025 17/12 Q1019=
METAR EGHE 080750Z 19003KT CAVOK 17/13 Q1019=
METAR EGHH 080750Z 24005KT 9999 SCT007 BKN012 17/17 Q1019=
METAR EGHI 080750Z 24007KT 210V270 6000 -SHRA BR SCT005 BKN008 16/15
      Q1019=
METAR EGJA 080750Z 18003KT 4000 0800SE R26/1000 BCFG FEW000 SCT001
      BKN015 16/16 Q1020=
METAR EGJB 080750Z 23005KT 200V270 9999 2800SE VCFG FEW001 BKN006 17/16
      Q1020=
METAR EGJJ 080750Z 31007KT 240V340 9999 FEW002 BKN010 19/17 Q1020 NOSIG=
METAR EGKB 080750Z 22005KT 190V260 9999 SCT012 18/15 Q1019=
METAR EGLF 080750Z 24005KT 200V260 9999 -DZ SCT006 BKN009 17/16 Q1019=
METAR EGMC 080750Z 24009KT 9999 FEW016 SCT040 19/15 Q1019=
METAR EGMH 080750Z 27008KT 250V310 9999 FEW010 20/17 Q1019=
METAR EGNT 080750Z 22008KT 190V260 9999 FEW040 15/10 Q1014=
METAR EGNV 080750Z 18009KT 9999 FEW030 16/13 Q1015=
METAR COR EGPB 080750Z 20015KT CAVOK 14/10 Q1005 NOSIG=
METAR EGTC 080750Z 29007KT 9999 FEW012 BKN030 16/13 Q1018=
METAR EGTE 080750Z 08001KT CAVOK 17/14 Q1018=
METAR EGTG 080750Z 26003KT 9999 -SHRA SCT018 16/12 Q1019=
METAR ETUO 080750Z 16004KT CAVOK 25/10 Q1020 BLU NOSIG=
METAR LWOH 080800Z 01009KT 330V050 9999 FEW033 18/07 Q1019=
####018000245####
SADL35 EDZO 080750
METAR EDHI 080750Z 14004KT 100V220 CAVOK 24/12 Q1019=
METAR EDMO 080750Z 07006KT 040V110 CAVOK 21/10 Q1023=
METAR EDOP 080750Z 18007KT 140V220 CAVOK 24/11 Q1021=
METAR EDTD 080750Z 15003KT 110V210 CAVOK 22/11 Q1023=
####018000325####
SADL33 EDZO 080750
METAR EDFE 080750Z VRB02KT CAVOK 24/10 Q1021=
METAR EDFH 080750Z 11007KT CAVOK 23/12 Q1021=
METAR EDFM 080750Z 15005KT 090V200 CAVOK 26/09 Q1020=
METAR EDLV 080750Z 18005KT 150V230 CAVOK 26/12 Q1019=
METAR EDTL 080750Z VRB03KT CAVOK 23/14 Q1020=
METAR EDVK 080750Z VRB05KT CAVOK 23/11 Q1021=
####018000124####
SPCN31 CWAO 080753
SPECI CYYT 080753Z 13004KT 3/4SM R11/2800V6000FT/D R16/3000VP6000FT/N
BR OVC004 08/ RMK FG6SF2=

####018000301####
SANO38 ENMI 080750
METAR ENDR 080750Z NIL=
METAR ENEK 080750Z 23017KT CAVOK 15/13 Q1014 W14/S3=
METAR ENGC 080750Z 18027KT CAVOK 13/11 Q1007=
METAR ENHE 080750Z 19017KT 9999 FEW015 15/11 Q1008=
METAR ENOA 080750Z 19024KT CAVOK1 13/11 Q1008=
METAR ENSL 080750Z 22026KT CAVOK 14/11 Q1011=
####018000393####
SANO34 ENMI 080750
METAR ENBN 080750Z 34007KT CAVOK 17/09 Q1009=
METAR ENBV 080750Z 09007KT 9999 BKN017 10/08 Q1017=
METAR ENDI 080750Z NIL=
METAR ENFG 080750Z 18005KT 9999 VCSH BKN017 13/09 Q1013=
METAR ENHF 080750Z 19010KT 160V220 9999 FEW035 SCT085 16/07 Q1013 =
METAR ENRA 080750Z 00000KT 9999 BKN070 19/12 Q1009=
METAR ENSH 080750Z 18004KT 9999 FEW040 SCT070 15/09 Q1010=
####018000568####
SANO32 ENMI 080750
METAR ENAL 080750Z 17005KT 9999 SCT055 SCT085 18/07 Q1008=
METAR ENCN 080750Z 19007KT 9999 FEW002 BKN006 16/15 Q1015=
METAR ENHD 080750Z 18011KT 9999 FEW008 16/12 Q1013=
METAR ENRO 080750Z 18005KT 9999 SCT025 BKN100 16/08 Q1011=
METAR ENRY 080750Z 20008KT 9000 SCT007 BKN012 16/15 Q1016 TEMPO 4000
           RA BR BKN006=
METAR ENSB 080750Z 30004KT 9999 FEW015 SCT035 BKN060 08/05 Q1008
           NOSIG =
METAR ENTC 080750Z 01004KT 9999 SCT070 BKN090 14/08 Q1011 NOSIG =
METAR ENTO 080750Z 21010KT 3500 RA VV006 16/15 Q1016=
####018000502####
SANO33 ENMI 080750
METAR ENAT 080750Z 17007KT 140V210 9999 FEW040 SCT088 17/09 Q1014 =
METAR ENBL 080750Z 18014KT 9999 FEW030 BKN040 15/09 Q1010=
METAR ENEV 080750Z 21003KT 120V250 9999 FEW070 19/09 Q1011 =
METAR ENFL 080750Z 19017KT 9999 FEW015 SCT050 15/11 Q1010=
METAR ENKB 080750Z VRB02KT CAVOK 17/12 Q1009=
METAR ENKR 080750Z VRB02KT 9999 SCT009 BKN015 12/09 Q1017 =
METAR ENML 080750Z 03005KT 9999 FEW050 BKN060 16/12 Q1009=
METAR ENNA 080750Z 17014KT 9999 FEW040 17/09 Q1014 =
####018000427####
SANO37 ENMI 080750
METAR ENNO 080750Z 08007KT 050V110 9000 -RA SCT020 BKN030 16/14
           Q1014=
METAR ENOV 080750Z VRB03KT 9999 SCT055 SCT085 17/07 Q1009 =
METAR ENSD 080750Z NIL=
METAR ENSG 080750Z 20003KT 120V280 9999 -SHRA SCT040 SCT060 13/10
           Q1012=
METAR ENSN 080750Z NIL=
METAR ENSR 080750Z 15009KT 110V210 CAVOK 18/09 Q1012=
METAR ENSS 080750Z 34005KT 9999 SCT004 BKN024 10/08 Q1017 =
####018002958####
SAAK41 KNKA 080755
METAR PAAQ 080753Z AUTO 36004KT 10SM OVC090 14/08 A3002 RMK AO2 
    SLP161 T01390083 TSNO=
METAR PABE 080753Z 35005KT 10SM FEW080 SCT120 14/07 A3001 RMK AO2 
    SLPNO T01400070 PNO $=
METAR PABI 080753Z AUTO 00000KT 10SM CLR 16/08 A3008 RMK AO2 SLP185 
    T01560078 TSNO=
METAR PABR 080753Z 26015KT 10SM BKN200 05/03 A2999 RMK AO2 SLP155 
    T00500028 $=
METAR PABT 080753Z 00000KT 10SM FEW040 SCT075 BKN200 14/12 A3005 RMK 
    AO2 SLP184 T01440122=
METAR PACD 080753Z 15008KT 10SM FEW048 07/03 A2994 RMK AO2 SLP140 
    T00670033=
METAR PACV 080753Z 05006KT 10SM -RA SCT035 BKN045 OVC060 15/10 A3009 
    RMK AO2 SLP188 P0000 T01500100=
METAR PADE 080753Z AUTO 25004KT 10SM CLR 09/05 A3014 RMK AO2 SLP207 
    T00940050 TSNO=
METAR PADQ 080753Z 34004KT 1 1/2SM -RA BR BKN006 OVC010 10/09 A2982 
    RMK AO2 SLP099 P0002 T01000094 $=
METAR PAEG 080753Z AUTO 00000KT 10SM FEW090 11/06 A3001 RMK AO2 
    SLP162 T01060061 TSNO=
METAR PAEN 080753Z AUTO 01016G20KT 10SM BKN090 BKN110 14/11 A2997 
    RMK AO2 RAE24 SLP151 P0000 T01440106 TSNO=
METAR PAFA 080753Z 00000KT 10SM FEW070 SCT200 17/09 A3003 RMK AO2 
    SLP171 T01720089=
METAR PAGK 080753Z AUTO 04004KT 10SM CLR 11/08 A3007 RMK AO2 SLP191 
    T01060078 TSNO=
METAR PAGY 080753Z AUTO 00000KT 10SM CLR 12/11 A3021 RMK AO2 SLP230 
    T01170106 TSNO=
METAR PAHO 080753Z AUTO 08004KT 10SM BKN060 OVC080 12/09 A2990 RMK 
    AO2 SLP124 T01220094 TSNO=
METAR PAIL 080753Z AUTO 02007KT 10SM BKN060 OVC095 11/09 A2993 RMK 
    AO2 SLP136 T01110089 TSNO=
METAR PAJN 080753Z 00000KT 10SM CLR 12/11 A3019 RMK AO2 SLP223 
    T01170106=
METAR PAKT 080753Z AUTO 33007KT 10SM CLR 19/12 A3008 RMK AO2 SLP185 
    T01890117 TSNO=
METAR PAKV 080753Z AUTO 00000KT 10SM CLR 15/06 A3009 RMK AO2 SLP191 
    T01500061 TSNO=
METAR PAKW 080753Z AUTO 00000KT 10SM CLR 13/11 A3012 RMK AO2 SLP198 
    T01280106 TSNO=
METAR PALH 080753Z 00000KT 10SM -RA BKN070 OVC090 14/10 A3002 RMK 
    AO2 SLP165 P0000 T01440100=
METAR PAMC 080753Z 05005KT 10SM SCT040 SCT080 BKN200 15/08 A2998 RMK 
    AO2 SLP155 T01500078=
METAR PAMR 080753Z 00000KT 10SM FEW055 BKN075 BKN090 14/09 A3000 RMK 
    AO2 SLP161 VIRGA E-S T01390094=
METAR PANC 080753Z 00000KT 10SM -RA FEW055 BKN070 BKN120 BKN200 
    13/11 A3001 RMK AO2 SLP161 P0000 T01280106=
METAR PANN 080753Z AUTO 00000KT 10SM FEW080 15/10 A3002 RMK AO2 
    SLP172 T01500100 TSNO=
METAR PANT 080753Z AUTO 32005KT 10SM CLR 18/12 A3006 RMK AO2 SLP179 
    T01780117 TSNO=
METAR PAOM 080753Z 04008KT 10SM FEW045 SCT065 SCT095 17/09 A3008 RMK 
    AO2 SLP187 T01720089=
METAR PAOR 080753Z 00000KT 10SM FEW070 12/09 A3009 RMK AO2 SLP189 
    T01220094=
METAR PAOT 080753Z 28011KT 10SM FEW040 SCT090 BKN210 12/07 A3013 RMK 
    AO2 SLP201 T01170067=
METAR PAPB 080753Z AUTO 09016KT 10SM OVC022 08/07 A2991 RMK AO2 
    SLP117 T00780067 TSNO=
####018000970####
SAAK41 KNKA 080755
METAR PAQT 080753Z AUTO 28006KT 10SM OVC026 12/07 A3003 RMK AO2 
    SLP171 T01220072 TSNO=
METAR PASC 080753Z 20008KT 10SM FEW036 BKN060 10/07 A3000 RMK AO2 
    SLP161 T01000072=
METAR PASI 080753Z 00000KT 10SM CLR 13/12 A3018 RMK AO2 SLP219 
    T01330117=
METAR PASN 080753Z AUTO 08010KT 9SM OVC039 06/05 A2994 RMK AO2 
    SLP139 T00560050 TSNO=
METAR PASO 080753Z AUTO 00000KT 10SM OVC075 11/10 A2989 RMK AO2 
    SLP121 T01060100 TSNO=
METAR PATK 080753Z AUTO 14003KT 10SM CLR 17/08 A3002 RMK AO2 SLP167 
    T01670083 TSNO=
METAR PATO 080753Z AUTO 12013G28KT 3SM RA BR FEW021 BKN030 OVC039 
    13/11 A3002 RMK AO2 PK WND 14030/0730 SLP166 P0022 T01280106 
    TSNO=
METAR PAWD 080753Z AUTO 00000KT 1 1/4SM -RA BR BKN003 OVC050 11/09 
    A2998 RMK AO2 CIG 001V005 SLP153 P0002 T01060094 TSNO=
METAR PAYA 080753Z 00000KT 10SM FEW090 SCT200 11/09 A3020 RMK AO2 
    SLP225 BAY TWR WND 160MMKT T01110094=
####018000110####
SAUS43 KIWX 080755
MTRSBN
METAR KSBN 080754Z 00000KT 9SM BKN120 24/21 A3004 RMK AO2 SLP164 
T02440211
####018000112####
SAUS43 KAPX 080755
MTRAPN
METAR KAPN 080754Z AUTO 00000KT 7SM CLR 20/19 A3000 RMK AO2 SLP155 
T02000189
####018000115####
SAUS41 KPHI 080755
MTR12N
METAR K12N 080754Z AUTO 00000KT 22/21 A3003 RMK AO2 SLP159 T02170206 
PWINO TSNO
####018000080####
SAPS31 NIUE 080800
METAR NIUE 080800Z AUTO 15004KT //// ////// 25/24 Q1014=
####018000334####
SANO36 ENMI 080750
METAR ENBS 080750Z VRB02KT 9999 FEW002 SCT012 BKN015 10/07 Q1017=
METAR ENHK 080750Z NIL=
METAR ENHV 080750Z 21008KT 190V240 CAVOK 11/08 Q1015 =
METAR ENLK 080750Z NIL=
METAR ENMH 080750Z NIL=
METAR ENNK 080750Z 03004KT 9999 BKN060 17/10 Q1011=
METAR ENNM 080750Z 24003KT 200V280 CAVOK 18/10 Q1009=
####018000385####
SANO35 ENMI 080750
METAR ENMS 080750Z VRB02KT 9999 FEW060 20/10 Q1009 =
METAR ENRM 080750Z 01007KT 330V050 CAVOK 17/09 Q1010=
METAR ENRS 080750Z NIL=
METAR ENSK 080750Z 16002KT CAVOK 17/09 Q1010=
METAR ENSO 080750Z 15012KT 9999 FEW015 SCT070 17/12 Q1012=
METAR ENST 080750Z 32004KT 260V030 CAVOK 16/11 Q1010=
METAR ENVD 080750Z 16004KT 130V190 9999 BKN022 11/08 Q1017=
####018000630####
SANO31 ENMI 080750
METAR ENAN 080750Z 15009KT 9999 FEW045 17/10 Q1010 NOSIG =
METAR ENBR 080750Z 17012KT 9999 FEW015 SCT060 BKN080 16/12 Q1012
           NOSIG =
METAR ENBO 080750Z 03005KT 340V060 9999 FEW050 SCT100 17/09 Q1010
           NOSIG=
METAR ENDU 080750Z 07003KT 010V130 9999 FEW050 SCT080 17/09 Q1011
           NOSIG=
METAR ENGM 080740Z 20008KT 9999 FEW009 SCT012 BKN019 16/14 Q1015
           TEMPO BKN012=
METAR ENOL 080750Z 11008KT 9999 FEW025 BKN090 16/12 Q1008 NOSIG=
METAR ENVA 080750Z 32003KT 260V360 CAVOK 18/11 Q1009 NOSIG =
METAR ENZV 080750Z 20009KT 9999 FEW015 18/12 Q1013 NOSIG=
####018000125####
SAUS46 KSGX 080755
MTRCZZ
METAR KCZZ 080752Z AUTO 00000KT 09/08 A2989 RMK AO2 SLP096 T00940083 
402670039 PWINO TSNO
####018000113####
SAUS44 KSHV 080755
MTRBKB
METAR KBKB 080754Z AUTO 00000KT 10SM CLR 24/23 A2997 RMK AO2 SLP175 
T02440228
####018000114####
SAUS41 KGYX 080755
MTRNKT
METAR KNKT 080754Z AUTO 05006KT 8SM CLR 26/21 A2991 RMK AO2 SLP125 
T02610211 $
####018000108####
SAUS43 KIWX 080755
MTRFWA
METAR KFWA 080754Z 23003KT 10SM CLR 24/21 A3006 RMK AO2 SLP172 
T02390206
####018000107####
SAUS41 KBTV 080755
MTR1V4
METAR K1V4 080754Z AUTO 21/19 A3004 RMK AO2 SLP157 T02110194 PWINO 
TSNO
####018000133####
SAUS46 KSGX 080755
MTRRNM
METAR KRNM 080753Z AUTO 00000KT 5SM BR OVC004 14/13 A2991 RMK AO2 
SLP119 T01440128 402280139 TSNO
####018000101####
SAUS41 KBOX 080755
MTRMQE
METAR KMQE 080754Z AUTO 16009KT 22/19 A3007 RMK AO1 SLP186 T02220189
####018001624####
SAZZ40 KAWN 080800 RRB
METAR BGBW 080750Z 08002KT 9999 SCT068 09/05 Q1009 RMK 3AC=
METAR BGGH 080750Z AUTO 01003KT 9999NDV OVC003/// 05/03 Q1010=
METAR BGJN 080750Z AUTO 35002KT 0350NDV FG VV001/// 05/05 Q1010=
METAR BGKK 080750Z 09004KT 030V170 9999 FEW100 BKN160 06/03 Q1008=
METAR BGSF 080750Z 07008KT 9999 FEW060 08/02 Q1009=
METAR EGMH 080750Z 27008KT 250V310 9999 FEW010 20/17 Q1019=
METAR KBAF 080753Z 18003KT 9SM OVC085 24/21 A3003 RMK AO2 SLP164 T02390211=
METAR KCEF 080755Z AUTO 16003KT 10SM BKN080 BKN100 24/22 A3003 RMK
      AO2 SLP167 T02440218 PWINO $=
METAR KDTS 080753Z AUTO 00000KT 10SM CLR 26/23 A3001 RMK AO2 SLP160
      T02560233=
METAR KGRF 080755Z AUTO 00000KT 10SM CLR 17/11 A2993 RMK AO2 DZB0722E0731
      SLP136 P0000 T01730110 403240096 $=
METAR KGUS 080755Z AUTO 18003KT 10SM CLR 23/20 A3005 RMK AO2 SLP168
      T02270204=
METAR KNFW 080752Z AUTO 14010KT 10SM OVC024 27/22 A3003 RMK AO2 SLP151
      T02670222=
METAR KNHK 080752Z AUTO 10006KT 5SM HZ FEW120 27/23 A2997 RMK AO2 SLP148
      T02720233=
METAR KNZY 080752Z 30007KT 10SM OVC015 18/13 A2990 RMK AO2 SLP125 T01830128
      402110167 $=
METAR KOZR 080755Z AUTO 00000KT 10SM CLR 22/22 A3002 RMK AO2 SLP162
      T02220222=
METAR MDSD 080800Z 00000KT 9999 FEW018 24/23 Q1014=
METAR MGGT 080800Z 20006KT 9999 FEW015 OVC100 17/13 Q1022 A3018 NOSIG=
METAR OSAP 080800Z 27017KT CAVOK 30/18 Q1007=
METAR OSDI 080800Z 21016KT CAVOK 31/06 Q1010=
METAR OSLK 080800Z 23004KT 9999 FEW026 SCT030 28/19 Q1009=
METAR PHJR 080753Z VRB04KT 10SM FEW050 24/18 A3005 RMK AO2 SLP180 T02390183=
####018000122####
SAUS41 KLWX 080755
MTRNAK
METAR KNAK 080754Z AUTO 05003KT 5SM HZ CLR 27/23 A2997 RMK AO2 
SLP151 T02670228 TSNO $
####018000115####
SAUS41 KOKX 080755
MTRMTP
METAR KMTP 080754Z AUTO VRB04KT 22/20 A3005 RMK AO2 SLP174 T02220200 
PWINO TSNO
####018000110####
SAUS42 KRAH 080755
MTRGSO
METAR KGSO 080754Z 00000KT 8SM SCT090 26/18 A3001 RMK AO2 SLP148 
T02560178
####018000110####
SAUS41 KPHI 080755
MTRACY
METAR KACY 080754Z 00000KT 7SM FEW100 24/22 A3001 RMK AO2 SLP162 
T02440222
####018003728####
SAUS99 KWBC 080756
METAR
K2G4 080750Z AUTO 00000KT 10SM SCT070 23/13 A3019 RMK AO1=
K2W6 080752Z AUTO 00000KT 7SM CLR 23/22 A2999 RMK AO1=
KPMV 080750Z AUTO 31005KT 7SM CLR 20/20 A3011 RMK AO2
     T02040196=
KABI 080752Z 11005KT 10SM CLR 22/21 A3003 RMK AO2 SLP140 T02220211
     $=
KABR 080753Z AUTO 23004KT 10SM CLR 15/14 A3012 RMK AO2 SLP195
     T01500139=
KACK 080753Z AUTO 12006KT 6SM BR BKN001 19/18 A3006 RMK AO2 SLP180
     T01890183 TSNO=
KACV 080753Z AUTO 00000KT 5SM BR OVC003 11/10 A2996 RMK AO2 SLP152
     T01060100 401330094=
KADG 080753Z AUTO 00000KT 7SM CLR 22/19 A3005 RMK AO2 SLP172
     T02170194=
KAEX 080753Z 12004KT 10SM CLR 24/23 A2998 RMK AO2 SLP155
     T02440228=
KAGC 080753Z 12003KT 4SM HZ CLR 23/19 A3008 RMK AO2 SLP178
     T02280194=
KAGS 080753Z AUTO 25007KT 10SM CLR 25/19 A2998 RMK AO2 SLP151
     T02500189 TSNO=
KAIA 080753Z AUTO 00000KT 10SM OVC085 16/14 A3028 RMK AO2 SLP228
     T01560144 $=
KAKO 080753Z AUTO 13005KT 7SM BKN004 BKN009 OVC041 14/14 A3032 RMK
     AO2 CIG 003V007 SLP231 T01440139 TSNO=
KALI 080753Z AUTO 00000KT 10SM FEW021 SCT075 OVC095 26/26 A2984
     RMK AO2 RAB23E46 SLP103 P0000 T02560256=
KALW 080753Z AUTO 11005KT 10SM CLR 18/08 A2996 RMK AO2 SLP139
     T01780083 403500128=
KAMA 080753Z 04006KT 1SM -RA BR SCT055 BKN070 OVC090 17/16 A3018
     RMK AO2 SFC VIS 5 SLP171 P0028 T01670161 $=
KAMW 080753Z AUTO 35007KT 10SM FEW021 21/19 A3007 RMK AO2 SLP175
     T02110194=
KANB 080753Z AUTO 00000KT 10SM CLR 22/21 A3004 RMK AO2 SLP161
     T02220206=
KAOH 080753Z AUTO 00000KT 8SM 23/19 A3007 RMK AO2 SLP173 T02280194
     $=
KAOO 080753Z AUTO 00000KT 4SM BR CLR 18/16 A3010 RMK AO2 SLP180
     T01830161=
KAPA 080753Z 00000KT 9SM FEW010 OVC020 14/13 A3035 RMK AO2 SLP229
     T01440128 $=
KAPF 080753Z AUTO 04005KT 10SM CLR 25/22 A2995 RMK AO2 SLP140
     T02500222=
KARA 080753Z AUTO 07003KT 10SM CLR 24/24 A3000 RMK AO2 SLP157
     T02440239=
KARB 080753Z AUTO 00000KT 5SM BR CLR 20/19 A3003 RMK AO2 SLP163
     T02000189=
KASD 080753Z AUTO 00000KT 10SM FEW001 24/23 A3000 RMK AO2 SLP160
     T02440228=
KASE 080753Z 19003KT 10SM BKN100 09/06 A3040 RMK AO2 LTG DSNT W
     SLP184 T00890056=
KASX 080753Z AUTO 00000KT 10SM FEW075 SCT090 BKN120 17/16 A3001
     RMK AO2 SLP161 T01720156=
KATY 080753Z AUTO 22005KT 10SM CLR 14/13 A3014 RMK AO2 SLP203
     T01440128=
KAUG 080753Z AUTO 19004KT 6SM BR SCT005 OVC041 21/19 A3007 RMK AO2
     SLP181 T02060194=
KAUS 080753Z 05004KT 10SM BKN014 OVC019 26/23 A2995 RMK AO2 SLP128
     T02610233=
KAWM 080753Z AUTO 00000KT 10SM CLR 24/22 A3004 RMK AO2 SLP168
     T02390222=
KAXN 080753Z AUTO 21004KT 10SM CLR 16/14 A3011 RMK AO2 SLP196
     T01560144=
KAZO 080753Z AUTO 00000KT 5SM BR SCT055 23/21 A3005 RMK AO2 SLP167
     T02280206 $=
KBAF 080753Z 18003KT 9SM OVC085 24/21 A3003 RMK AO2 SLP164
     T02390211=
KBBW 080753Z AUTO 00000KT 10SM OVC080 17/15 A3021 RMK AO2 SLP217
     T01670150=
KBCE 080753Z AUTO 34005KT 10SM BKN110 11/02 A3031 RMK AO2 SLP154
     T01110022 TSNO=
KBDE 080753Z AUTO 00000KT 10SM FEW110 16/13 A2998 RMK AO2 SLP153
     T01610128=
KBEH 080753Z AUTO 00000KT 5SM BR OVC060 23/22 A3003 RMK AO2 SLP164
     T02330222 $=
KBFD 080753Z AUTO 00000KT 4SM BR CLR 17/16 A3014 RMK AO2 SLP189
     T01670156=
KBFF 080753Z AUTO 00000KT 10SM OVC065 16/14 A3028 RMK AO2 SLP227
     T01610139=
KBFI 080753Z 00000KT 10SM CLR 23/12 A2993 RMK AO2 SLP136 T02280117
     403110167=
KBFM 080753Z AUTO 33004KT 10SM CLR 24/23 A3002 RMK AO2 SLP166
     T02440233=
KBGM 080753Z AUTO 00000KT 5SM HZ CLR 22/18 A3011 RMK AO2 SLP182
     T02170183=
####018003732####
SAUS99 KWBC 080756 RRA
METAR
KBGR 080753Z 18008KT 3SM -RA BR OVC003 20/19 A3007 RMK AO2 RAB21
     SLP178 P0004 T02000194=
KBHK 080753Z AUTO 00000KT 10SM FEW090 10/08 A3021 RMK AO2 SLP220
     T01000078=
KBHM 080753Z 00000KT 9SM CLR 24/22 A3006 RMK AO2 SLP168
     T02440217=
KBIL 080753Z 00000KT 10SM CLR 16/06 A3023 RMK AO2 SLP213
     T01560061=
KBIV 080753Z AUTO 00000KT 5SM -RA BR BKN001 BKN021 OVC085 24/22
     A3003 RMK AO2 RAB03 SLP164 P0008 T02440222=
KBKE 080753Z AUTO 00000KT 10SM CLR 08/06 A3010 RMK AO2 SLP175
     T00830061 402890028=
KBKL 080753Z 15007KT 8SM CLR 26/19 A3004 RMK AO2 SLP168
     T02560189=
KBLI 080753Z AUTO 00000KT 10SM CLR 17/14 A2995 RMK AO2 SLP147
     T01670139 402890100=
KBMG 080753Z AUTO 00000KT 5SM BR CLR 22/21 A3005 RMK AO2 SLP167
     T02170211=
KBMQ 080753Z AUTO 08004KT 10SM SCT013 OVC033 24/22 A3001 RMK AO2
     SLP140 T02440222 $=
KBNA 080753Z 00000KT 10SM FEW100 26/21 A3007 RMK AO2 SLP173
     T02560211=
KBOI 080753Z 20003KT 10SM CLR 19/07 A3003 RMK AO2 SLP141
     T01890067=
KBPI 080753Z AUTO 19004KT 10SM CLR 11/02 A3037 RMK AO2 SLP206
     T01060017=
KBPK 080753Z AUTO 00000KT 9SM CLR 23/22 A3004 RMK AO2 SLP161
     T02280217=
KBPT 080753Z 09009KT 10SM FEW035 27/24 A2994 RMK AO2 SLP138
     T02670244 $=
KBRD 080753Z AUTO 19003KT 6SM BR CLR 14/12 A3008 RMK AO2 SLP183
     T01440122=
KBRL 080753Z AUTO 1SM BR BKN001 BKN065 23/22 A3002 RMK AO2 SLP159
     T02330222 $=
KBRO 080753Z 33003KT 10SM CLR 27/25 A2979 RMK AO2 SLP085
     T02670250=
KBTL 080753Z AUTO 16004KT 10SM CLR 23/20 A3005 RMK AO2 SLP166
     T02330200=
KBTM 080753Z AUTO 14006KT 10SM CLR 08/01 A3030 RMK AO2 SLP224
     T00830011=
KBUR 080753Z 15005KT 9SM OVC011 16/13 A2991 RMK AO2 SLP118
     T01560128 402330144=
KBVO 080753Z AUTO 00000KT 10SM FEW070 BKN100 23/22 A3003 RMK AO2
     SLP159 T02280217=
KBVY 080753Z 15006KT 6SM BR OVC009 23/21 A3004 RMK AO2 SLP167
     T02280211 PNO=
KBWG 080753Z AUTO 00000KT 9SM CLR 24/21 A3006 RMK AO2 SLP173
     T02390211=
KBYG 080753Z AUTO 25006KT 10SM CLR 11/04 A3031 RMK AO2 SLP233
     T01060044=
KBYI 080753Z AUTO 00000KT 10SM CLR 09/04 A3011 RMK AO2 SLP162
     T00940039=
KCAG 080753Z AUTO 00000KT 10SM CLR 12/07 A3031 RMK AO2 SLP197
     T01220067=
KCAK 080751Z 00000KT 7SM CLR 22/17 A3009 RMK AO2 SLP177
     T02170172=
KCBE 080752Z AUTO 00000KT 7SM CLR 22/18 A3010 RMK AO1=
KCCR 080753Z AUTO 25005KT 10SM CLR 13/10 A2991 RMK AO2 SLP113
     T01330100 402500133=
KCDC 080753Z AUTO 33003KT 10SM CLR 13/03 A3013 RMK AO2 SLP125
     T01330033 $=
KCDR 080753Z AUTO 00000KT 10SM CLR 10/08 A3028 RMK AO2 SLP248
     T01000083=
KCDW 080753Z AUTO 00000KT 6SM HZ CLR 24/21 A3002 RMK AO2 SLP168
     T02440211 TSNO=
KCEZ 080753Z AUTO 28003KT 10SM CLR 19/06 A3021 RMK AO2 PK WND
     15027/0703 SLP135 T01940056=
KCGE 080750Z AUTO 10003KT 5SM CLR 25/23 A2999 RMK AO1=
KCGI 080753Z AUTO 00000KT 10SM CLR 25/24 A3003 RMK AO2 SLP165
     T02500239 TSNO=
KCGS 080755Z AUTO 00000KT 7SM CLR 27/23 A2998 RMK AO1=
KCHO 080753Z AUTO 00000KT 4SM HZ CLR 23/20 A3001 RMK AO2 SLP153
     T02280200 TSNO=
KCKB 080753Z AUTO 00000KT 3SM BR CLR 20/19 A3009 RMK AO2 SLP173
     T02000189=
KCLL 080753Z 08006KT 10SM SCT110 26/23 A2995 RMK AO2 SLP137
     T02560228=
KCLM 080753Z AUTO A2997 RMK AO2 SLPNO PWINO FZRANO $=
KCMI 080753Z AUTO 00000KT 5SM BR FEW065 23/22 A3004 RMK AO2
     RAB0657E08 SLP166 P0000 T02330222=
KCMX 080753Z AUTO 30005KT 7SM OVC002 18/17 A2999 RMK AO2 SLP150
     T01780172=
KCNM 080753Z AUTO 00000KT 8SM RA BKN025 BKN029 OVC060 21/19 A3012
     RMK AO2 TSB22E39RAB07 SLP145 P0007 T02060194=
####018003674####
SAUS99 KWBC 080756 RRB
METAR
KCNO 080753Z 28004KT 5SM HZ CLR 14/12 A2992 RMK AO2 SLP129
     T01440117 402670144=
KCNY 080753Z AUTO 05017G23KT 10SM CLR 23/04 A3008 RMK AO2 PK WND
     05027/0717 SLP119 T02280044=
KCOT 080753Z AUTO 06005KT 10SM OVC017 25/22 A2989 RMK AO2 SLP114
     T02500222=
KCPR 080753Z AUTO 00000KT 10SM CLR 06/05 A3033 RMK AO2 SLP237
     T00610050=
KCPS 080753Z AUTO 00000KT 10SM SCT060 OVC075 24/22 A3003 RMK AO2
     LTG DSNT W AND NW TSB38E53 SLP163 T02440222=
KCRE 080753Z AUTO 31004KT 10SM CLR 27/21 A2992 RMK AO2 SLP132
     T02670206=
KCRP 080751Z 08006G14KT 9SM RA FEW010 SCT025 BKN080 26/24 A2984
     RMK AO2 RAE0652B43 SLP102 P0013 T02560244=
KCRQ 080753Z AUTO 00000KT 8SM BKN009 OVC012 17/14 A2991 RMK AO2
     CIG 007V012 SLP125 T01670139 401830156=
KCSM 080753Z AUTO 35005KT 10SM CLR 23/20 A3010 RMK AO2 SLP165
     T02280200=
KCSV 080753Z AUTO 00000KT 10SM CLR 21/17 A3013 RMK AO2 SLP178
     T02110172=
KCXO 080753Z VRB03KT 9SM CLR 24/23 A2994 RMK AO2 SLP136
     T02390233=
KCYS 080753Z AUTO 10004KT 4SM BR OVC002 12/12 A3035 RMK AO2
     RAB02E29 SLP232 P0000 T01170117 TSNO=
KDAG 080753Z AUTO 26008G16KT 10SM CLR 27/M01 A2985 RMK AO2 SLP075
     T02721006 403940206 TSNO $=
KDAN 080753Z AUTO 33003KT 6SM HZ FEW100 24/20 A3000 RMK AO2 SLP144
     T02390200=
KDBQ 080753Z AUTO 18004KT 10SM BKN120 20/19 A3002 RMK AO2 SLP160
     T02000194=
KDCU 080753Z AUTO 00000KT 9SM CLR 23/21 A3006 RMK AO2 SLP171
     T02330211=
KDEN 080753Z 17004KT 6SM BR BKN006 BKN021 15/14 A3033 RMK AO2 CIG
     004V009 SLP212 OCNL LTGICCC DSNT E-SE CB DSNT E-SE MOV NE
     T01500144 $=
KDET 080753Z 00000KT 9SM CLR 26/21 A3003 RMK AO2 SLP163 T02610211
     $=
KDEW 080753Z AUTO 02008KT 10SM CLR 18/08 A3006 RMK AO2 SLP167
     T01780078 402890067=
KDFI 080753Z AUTO 00000KT 8SM CLR 22/19 A3005 RMK AO2 SLP170
     T02220189=
KDFW 080753Z 16006KT 10SM SCT019 BKN090 26/23 A2999 RMK AO2 SLP145
     T02560228=
KDGW 080753Z AUTO 00000KT 10SM CLR 08/06 A3032 RMK AO2 SLP241
     T00780061 $=
KDHT 080753Z AUTO 27005KT 9SM FEW013 OVC045 18/16 A3026 RMK AO2
     SLP194 T01830161=
KDKK 080753Z AUTO 18003KT 8SM BKN090 21/18 A3006 RMK AO2 SLP172
     T02060183=
KDLN 080753Z AUTO 13003KT 10SM CLR 09/03 A3027 RMK AO2 SLP214
     T00940033=
KDLS 080753Z AUTO 11007KT 10SM CLR 19/05 A2993 RMK AO2 SLP134
     T01890050 403670111=
KDMN 080753Z AUTO 04010KT 10SM BKN100 22/12 A3012 RMK AO2 SLP113
     T02220122=
KDMO 080753Z AUTO 17003KT 7SM -RA SCT001 BKN006 OVC065 24/22 A3005
     RMK AO2 RAE0656B51 SLP165 P0000 T02390222=
KFDK 080749Z AUTO 00000KT 5SM HZ SCT090 24/22 A3002 RMK AO2=
KDMW 080752Z AUTO 00000KT 7SM CLR 26/21 A3003 RMK AO2=
KDNL 080753Z AUTO 26003KT 10SM CLR 26/18 A3001 RMK AO2 SLP154
     T02610178=
KDRO 080753Z AUTO 05007KT 10SM CLR 13/05 A3030 RMK AO2 SLP170
     T01330050=
KDRT 080753Z AUTO 08004KT 10SM CLR 25/22 A2992 RMK AO2 SLP116
     T02500222=
KDTO 080753Z AUTO 15008KT 10SM OVC020 26/23 A2999 RMK AO2 SLP145
     T02610233=
KDTW 080753Z 20003KT 6SM HZ FEW150 24/21 A3003 RMK AO2 SLP163
     T02390211=
KDVT 080753Z 13003KT 10SM CLR 31/01 A2978 RMK AO2 SLP053
     T03060011=
KDWH 080753Z 04004KT 8SM CLR 24/24 A2994 RMK AO2 SLP134
     T02440239=
KDXR 080753Z AUTO 12003KT 6SM BR CLR 23/22 A3005 RMK AO2 SLP169
     T02330217=
KECP 080753Z AUTO 00000KT 5SM BR CLR 23/23 A3001 RMK AO2 SLP172
     T02330228=
KEEO 080753Z AUTO 10SM BKN110 13/07 A3028 RMK AO2 SLP169 T01280067
     PNO $=
KEET 080753Z AUTO 00000KT 7SM OVC070 25/22 A3003 RMK AO2 SLP162
     T02500217=
####018003692####
SAUS99 KWBC 080756 RRC
METAR
KGVL 080753Z AUTO 31003KT 10SM CLR 23/20 A3007 RMK AO2 SLP165
     T02330200=
KGWO 080753Z AUTO 02003KT 10SM CLR 22/22 A3004 RMK AO2 SLP172
     T02220222=
KHAO 080753Z AUTO 00000KT 3SM BR CLR 22/21 A3007 RMK AO2 SLP177
     T02170206=
KHBG 080753Z AUTO 00000KT 8SM CLR 24/23 A3003 RMK AO2 SLP164
     T02390233=
KHDE 080750Z AUTO 33004KT 10SM CLR 16/15 A3020 RMK AO2
     T01600145=
KHEI 080753Z AUTO 00000KT 10SM FEW085 10/08 A3019 RMK AO2 SLP215
     T01000083=
KHFD 080753Z AUTO 00000KT 5SM HZ FEW100 25/22 A3002 RMK AO2 SLP166
     T02500217=
KHGR 080753Z AUTO 33004KT 6SM HZ CLR 25/17 A3002 RMK AO2 SLP168
     T02500167=
KHHR 080753Z AUTO 25005KT 10SM OVC014 17/13 A2992 RMK AO2 SLP129
     T01720133 402000156=
KHIB 080753Z AUTO 00000KT 1/2SM FG VV001 10/10 A3005 RMK AO2
     SLP177 T01000100=
KHIO 080753Z AUTO 29004KT 10SM CLR 19/13 A2987 RMK AO2 SLP109
     T01890128 403390100=
KHJH 080750Z AUTO 35003KT 10SM BKN021 20/18 A3015 RMK AO2
     T01950181=
KHJO 080753Z AUTO 33007KT 10SM CLR 24/12 A2982 RMK AO2 SLP096
     T02390122 403440161=
KHKA 080753Z AUTO 22004KT 7SM CLR 27/22 A3005 RMK AO2 SLP173
     T02670222=
KHKS 080753Z AUTO 00000KT 10SM CLR 24/23 A3004 RMK AO2 SLP165
     T02390228=
KHKY 080753Z AUTO 31005KT 10SM CLR 23/17 A3004 RMK AO2 SLP145
     T02280172 $=
KHLC 080753Z AUTO 01007KT 10SM OVC022 17/16 A3019 RMK AO2 SLP208
     T01720156=
KHLG 080753Z AUTO 00000KT 4SM BR CLR 22/19 A3009 RMK AO2 SLP179
     T02170194=
KHLN 080753Z AUTO 26005KT 10SM CLR 12/04 A3024 RMK AO2 SLP232
     T01170044=
KHOT 080753Z AUTO 00000KT 10SM BKN012 24/23 A3005 RMK AO2 SLP170
     T02390228=
KHOU 080753Z 10006KT 10SM FEW030 BKN130 BKN250 27/23 A2991 RMK AO2
     SLP134 T02720233=
KHQM 080753Z AUTO 00000KT 10SM 20/13 A2990 RMK AO2 SLP130
     T02000128 403440122 $=
KHRI 080753Z AUTO 00000KT 10SM CLR 15/08 A2992 RMK AO2 SLP128
     T01500078 403560078=
KHRO 080753Z AUTO 00000KT 6SM BR CLR 23/22 A3007 RMK AO2 SLP166
     T02280217=
KHSI 080753Z AUTO 35005KT 10SM CLR 16/15 A3018 RMK AO2 SLP210
     T01610150=
KHSV 080753Z 00000KT 10SM CLR 24/23 A3005 RMK AO2 SLP168
     T02390233=
KHUF 080753Z 00000KT 7SM BKN110 23/22 A3004 RMK AO2 SLP166
     T02330217 $=
KHUL 080753Z AUTO 20003KT 7SM CLR 21/18 A3001 RMK AO2 SLP160
     T02110183=
KHVN 080753Z AUTO 00000KT 2 1/2SM HZ OVC004 24/23 A3003 RMK AO2
     SLP168 T02440228=
KHVR 080753Z AUTO 00000KT 10SM CLR 12/09 A3018 RMK AO2 SLP214
     T01220089=
KHWO 080753Z AUTO 00000KT 10SM CLR 25/24 A2994 RMK AO2 SLP138
     T02500239=
KHYR 080753Z AUTO VRB03KT 10SM SCT050 BKN060 OVC100 20/16 A3003
     RMK AO2 SLP165 T02000156=
KFST 080753Z AUTO 10006KT 10SM OVC100 22/19 A3006 RMK AO2 SLP130
     T02220189=
KFTW 080753Z 14010KT 10SM OVC020 26/23 A2998 RMK AO2 SLP141
     T02560228=
KFTY 080753Z 00000KT 9SM CLR 21/18 A3004 RMK AO2 SLP160
     T02110183=
KFUL 080753Z 00000KT 10SM OVC017 17/12 A2990 RMK AO2 SLP125
     T01720122 402390161=
KFVE 080753Z AUTO 13004KT 7SM CLR 22/22 A2999 RMK AO2 SLP147
     T02220217=
KFWN 080753Z AUTO 00000KT 3SM BR CLR 21/21 A3003 RMK AO2 SLP164
     T02110206=
KFXE 080753Z 06004KT 10SM FEW022 28/23 A2992 RMK AO2 SLP134
     T02780228 $=
KFYV 080753Z AUTO 00000KT 10SM CLR 22/21 A3006 RMK AO2 SLP165
     T02220211=
KGAG 080753Z AUTO 04007KT 10SM FEW020 BKN028 22/19 A3013 RMK AO2
     RAB08E19 SLP173 P0000 T02170194=
KGCC 080753Z AUTO 00000KT 10SM CLR 09/06 A3028 RMK AO2 SLP227
     T00940061=
KGEG 080753Z 02005KT 10SM CLR 19/09 A3006 RMK AO2 SLP160 T01890089
     402890122=
####018003719####
SAUS99 KWBC 080756 RRD
METAR
KGEY 080753Z AUTO 00000KT 10SM CLR 14/03 A3024 RMK AO2 SLP216
     T01440028=
KGEZ 080753Z AUTO 00000KT 6SM BR CLR 21/20 A3004 RMK AO2 SLP166
     T02110200=
KGFK 080753Z 24004KT 10SM CLR 16/12 A3003 RMK AO2 SLP167
     T01560122=
KGFL 080753Z AUTO 00000KT 3/4SM BR CLR 21/21 A3001 RMK AO2 SLP158
     T02060206=
KGGW 080753Z AUTO 07006KT 10SM CLR 13/09 A3013 RMK AO2 SLP199
     T01280094 TSNO=
KGIF 080753Z AUTO 00000KT 10SM CLR 23/21 A3000 RMK AO2 SLP156
     T02330211 TSNO=
KGJT 080753Z AUTO 07013G22KT 10SM CLR 22/06 A3015 RMK AO2 PK WND
     06031/0708 SLP131 T02170061=
KGKJ 080753Z AUTO 00000KT 8SM CLR 21/18 A3010 RMK AO2 SLP179
     T02110178=
KGLD 080753Z AUTO 34003KT 10SM OVC037 17/16 A3029 RMK AO2 SLP223
     T01720161=
KGLH 080753Z AUTO 00000KT 3SM BR CLR 23/22 A3004 RMK AO2 SLP177
     T02280222=
KGLR 080753Z AUTO 20005KT 10SM FEW110 22/21 A3001 RMK AO2 SLP156
     T02220206=
KGMU 080753Z AUTO 30004KT 10SM CLR 27/19 A3003 RMK AO2 SLP156
     T02670194=
KGPT 080753Z 00000KT 7SM CLR 26/24 A3000 RMK AO2 SLP156
     T02610239=
KGRB 080753Z AUTO 17004KT 10SM CLR 21/19 A2996 RMK AO2 RAE06B24E50
     SLP142 P0001 T02110194=
KGRI 080753Z AUTO 34005KT 10SM CLR 16/14 A3019 RMK AO2 SLP213
     T01610139=
KGRR 080753Z AUTO 26011KT 1 3/4SM +RA SCT014 BKN038 OVC060 24/22
     A3006 RMK AO2 RAB39 SLP172 P0011 T02440217=
KGSH 080753Z AUTO 00000KT 6SM BR CLR 22/20 A3005 RMK AO2 SLP169
     T02220200=
KGSP 080753Z AUTO 28005KT 10SM CLR 24/19 A3001 RMK AO2 SLP147
     T02390189=
KGTF 080753Z 20007KT 10SM CLR 10/06 A3023 RMK AO2 SLP223 T01000061
     $=
KGUP 080753Z AUTO 04005KT 10SM FEW120 20/07 A3024 RMK AO2 SLP046
     T02000067=
KGUY 080753Z AUTO 06007KT 10SM FEW060 SCT120 20/17 A3018 RMK AO2
     LTG DSNT SW SLP178 T02000167=
KMEM 080753Z 26003KT 10SM SCT250 26/22 A3006 RMK AO2 SLP172
     T02610222=
KMFR 080753Z AUTO 00000KT 10SM CLR 26/12 A2987 RMK AO2 SLP100
     T02560122 403830144=
KMGW 080753Z AUTO 00000KT 4SM HZ CLR 21/18 A3010 RMK AO2 SLP180
     T02110183=
KMGY 080753Z AUTO 00000KT 7SM CLR 24/19 A3007 RMK AO2 SLP173
     T02390194=
KMHE 080753Z AUTO 25004KT 10SM CLR 18/14 A3016 RMK AO2 SLP209
     T01830144 TSNO=
KMHT 080753Z 17004KT 6SM HZ OVC060 24/22 A3002 RMK AO2 RAE05
     SLP174 P0000 T02440217=
KMIA 080753Z 00000KT 10SM FEW030 SCT250 27/24 A2992 RMK AO2 SLP133
     T02720244=
KMIC 080753Z 32004KT 10SM CLR 19/17 A3006 RMK AO2 SLP175
     T01890167=
KMIE 080753Z AUTO 19003KT 10SM CLR 24/19 A3007 RMK AO2 SLP168
     T02390194=
KMIW 080753Z AUTO 34007KT 10SM CLR 20/19 A3005 RMK AO2 SLP168
     T02000189=
KMKL 080753Z AUTO 00000KT 10SM CLR 23/21 A3006 RMK AO2 SLP173
     T02280211=
KMLB 080753Z AUTO 00000KT 10SM CLR 22/21 A2997 RMK AO2 SLP148
     T02220206=
KMLE 080750Z AUTO 35005KT 10SM SCT020 21/17 A3011 RMK AO2
     T02050170=
KMLP 080753Z AUTO 11008KT 10SM CLR 14/00 A3027 RMK AO2 SLP159
     T01440000 402110100 TSNO=
KMLS 080753Z AUTO 30004KT 10SM SCT095 14/09 A3019 RMK AO2 SLP212
     T01440094=
KMLT 080753Z AUTO 00000KT 6SM BR CLR 21/18 A3005 RMK AO2 SLP177
     T02060183=
KMLU 080753Z AUTO 10003KT 10SM CLR 26/23 A3002 RMK AO2 SLP165
     T02560233=
KMMH 080750Z AUTO 29004KT 10SM CLR 13/03 A3021 RMK AO1=
KMMK 080753Z AUTO 00000KT 2 1/2SM BR BKN100 23/22 A3003 RMK AO2
     SLP166 T02280217=
KMMV 080753Z AUTO 29003KT 10SM CLR 21/12 A2986 RMK AO2 SLP111
     T02060117 403500167=
KMNN 080753Z AUTO 00000KT 8SM FEW060 21/19 A3008 RMK AO2 SLP178
     T02060189=
KMOD 080753Z AUTO 36004KT 10SM CLR 19/10 A2983 RMK AO2 SLP102
     T01890100 403280133=
####018003686####
SAUS99 KWBC 080756 RRE
METAR
KMPO 080753Z AUTO 34005KT 7SM FEW085 19/17 A3010 RMK AO2 SLP176
     T01940172=
KMRB 080753Z AUTO 00000KT 5SM HZ FEW085 23/18 A3002 RMK AO2 SLP160
     T02330183=
KMSL 080753Z AUTO 00000KT 10SM CLR 24/22 A3007 RMK AO2 SLP174
     T02390222=
KMSO 080753Z AUTO 32004KT 10SM CLR 13/06 A3018 RMK AO2 SLP205
     T01280056 $=
KMSP 080753Z 31008KT 10SM FEW090 19/17 A3007 RMK AO2 SLP179
     T01940167=
KMSS 080753Z AUTO 23003KT 7SM CLR 23/21 A3000 RMK AO2 SLP156
     T02330206=
KMSY 080753Z 00000KT 10SM FEW025 SCT250 27/23 A2999 RMK AO2 SLP158
     T02670233=
KMTH 080753Z AUTO 04004KT 10SM FEW019 27/24 A2991 RMK AO2 SLP128
     T02720244=
KMTJ 080753Z AUTO 17006KT 10SM SCT110 17/06 A3026 RMK AO2 SLP165
     T01720056=
KMTN 080754Z AUTO 00000KT 7SM CLR 26/24 A2999 RMK AO2=
KMTO 080753Z AUTO 21003KT 8SM CLR 24/23 A3003 RMK AO2 SLP163
     T02440233=
KIAG 080753Z AUTO 22004KT 6SM BR CLR 23/21 A3004 RMK AO2 SLP163
     T02330211=
KIAH 080753Z 08008KT 10SM FEW020 SCT130 BKN250 25/24 A2993 RMK AO2
     SLP134 T02500244=
KIBM 080750Z AUTO 00000KT 10SM OVC018 12/11 A3031 RMK AO2
     T01210111=
KICR 080753Z AUTO 25004KT 10SM CLR 18/13 A3020 RMK AO2 SLP215
     T01780128 TSNO=
KICT 080753Z 07004KT 10SM SCT070 BKN200 22/21 A3008 RMK AO2 SLP172
     T02220206 $=
KIDA 080753Z AUTO 01007KT 10SM CLR 09/06 A3017 RMK AO2 SLP184
     T00940061=
KILM 080753Z AUTO 00000KT 10SM CLR 25/21 A2990 RMK AO2 SLP125
     T02500211=
KIML 080753Z AUTO 00000KT 10SM BKN060 17/14 A3026 RMK AO2 SLP228
     T01670144=
KIPL 080753Z AUTO 35004KT 10SM CLR 29/09 A2967 RMK AO2 SLP049
     T02890089 404060211=
KITR 080753Z AUTO 00000KT 10SM OVC010 17/15 A3030 RMK AO2 CIG
     007V013 SLP219 T01670150=
KIWI 080753Z AUTO 00000KT 8SM BKN005 OVC012 21/19 A3008 RMK AO2
     SLP186 T02060194=
KIXD 080753Z AUTO 32007KT 5SM BR OVC002 23/21 A3008 RMK AO2 LTG
     DSNT N SLP175 T02280211=
KJBR 080753Z AUTO 25003KT 10SM CLR 26/23 A3005 RMK AO2 SLP170
     T02560228 $=
KJCT 080751Z AUTO 00000KT 8SM CLR 22/21 A3000 RMK AO2 SLP121
     T02220211 TSNO=
KJEF 080753Z AUTO 00000KT 10SM -RA FEW055 24/23 A3003 RMK AO2
     RAB0654 SLP153 P0019 T02390228=
KJER 080753Z AUTO 03011KT 10SM CLR 14/M02 A3011 RMK AO2 SLP159
     T01441017=
KJKL 080753Z AUTO 00000KT 5SM HZ CLR 24/19 A3010 RMK AO2 SLP175
     T02390194=
KJLN 080753Z 00000KT 9SM BKN028 BKN120 23/22 A3004 RMK AO2
     RAB04E19 SLP162 P0000 T02280222=
KJYR 080750Z AUTO 35004KT 10SM CLR 17/16 A3015 RMK AO2=
KLAA 080753Z AUTO 06004KT 10SM SCT028 BKN033 OVC110 18/16 A3025
     RMK AO2 LTG DSNT NE AND E RAE20 SLP205 P0001 T01780161=
KLAN 080753Z 00000KT 7SM CLR 24/22 A3004 RMK AO2 SLP163 T02390217
     $=
KLAR 080753Z AUTO 19006KT 10SM FEW014 09/08 A3037 RMK AO2 SLP213
     T00890083=
KLAW 080753Z AUTO 03006KT 10SM CLR 23/22 A3003 RMK AO2 SLP154
     T02330222=
KLBB 080753Z 32003KT 10SM SCT006 SCT070 BKN110 OVC130 21/19 A3013
     RMK AO2 RAB08E52 SLP158 P0000 T02060189=
KLBF 080753Z AUTO 00000KT 10SM OVC075 17/16 A3024 RMK AO2 SLP223
     T01670156=
KLCG 080750Z AUTO 00000KT 10SM CLR 16/15 A3016 RMK AO2
     T01590152=
KLBX 080753Z AUTO 11006KT 10SM -RA FEW024 SCT031 BKN043 27/25
     A2989 RMK AO2 RAB22 SLP121 P0001 T02720250=
KLCH 080753Z AUTO 08007KT 9SM CLR 26/23 A2996 RMK AO2 SLP154
     T02560233=
KLEB 080753Z AUTO 00000KT 2SM BR CLR 22/20 A3004 RMK AO2 VIS 1V4
     SLP158 T02170200=
KLEE 080753Z AUTO 00000KT 10SM CLR 23/21 A3000 RMK AO2 SLP159
     T02280211=
KLFK 080753Z AUTO 11005KT 10SM CLR 24/23 A2999 RMK AO2 SLP150
     T02440228=
####018003692####
SAUS99 KWBC 080756 RRF
METAR
KLFT 080753Z AUTO 00000KT 10SM CLR 25/23 A2999 RMK AO2 SLP156
     T02500233=
KLGB 080753Z 30004KT 10SM OVC017 17/13 A2991 RMK AO2 SLP128
     T01720128 402280161=
KLHM 080751Z AUTO 15012KT 10SM CLR 19/12 A2981 RMK AO1 T01940115
     403490133=
KLHQ 080753Z AUTO 00000KT 2SM BR CLR 19/19 A3008 RMK AO2 SLP179
     T01890189=
KLHX 080753Z AUTO 35009KT 7SM RA BKN033 OVC070 16/14 A3031 RMK AO2
     SLP219 T01560144 PNO $=
KLIT 080753Z 00000KT 7SM FEW150 24/23 A3005 RMK AO2 SLP176
     T02440228=
KLLQ 080753Z AUTO 00000KT 7SM CLR 23/22 A3006 RMK AO2 SLP174
     T02280222=
KLMT 080753Z AUTO 18007KT 10SM FEW090 19/11 A3002 RMK AO2 SLP116
     T01890111 403110089=
KLNS 080753Z AUTO 08004KT 4SM HZ CLR 24/21 A3001 RMK AO2 SLP156
     T02390211=
KLOL 080753Z AUTO 07009KT 10SM CLR 22/M07 A2997 RMK AO2 SLP099
     T02221072 403610172=
KLOU 080753Z AUTO 00000KT 7SM CLR 26/21 A3006 RMK AO2 SLP171
     T02560211=
KLOZ 080753Z AUTO 00000KT 3SM BR CLR 21/19 A3010 RMK AO2 SLP176
     T02060194=
KLPR 080753Z AUTO 00000KT 7SM SCT060 23/19 A3007 RMK AO2 SLP175
     T02330194=
KLSE 080753Z AUTO 00000KT 10SM CLR 22/19 A3000 RMK AO2 SLP150
     T02170194=
KLUK 080753Z AUTO 00000KT 2SM R21L/5000VP6000FT BR CLR 22/21 A3007
     RMK AO2 SLP177 T02170211=
KLVJ 080753Z AUTO 10004KT 10SM CLR 28/23 A2992 RMK AO2 SLP132
     T02780233=
KLVK 080753Z AUTO 31008KT 10SM CLR 13/11 A2990 RMK AO2 SLP123
     T01280106 402720122=
KLVM 080753Z AUTO 27003KT 10SM CLR 08/03 A3028 RMK AO2 SLP229
     T00780033=
KLVS 080753Z AUTO 03005KT 10SM SCT110 12/08 A3036 RMK AO2 SLP182
     T01170083 TSNO=
KLWD 080753Z AUTO 00000KT 9SM CLR 21/20 A3007 RMK AO2 SLP173
     T02060200=
KLWV 080753Z AUTO 21003KT 5SM HZ CLR 25/22 A3003 RMK AO2 SLP164
     T02500222=
KLXN 080750Z AUTO 31004KT 10SM SCT045 BKN075 16/15 A3022 RMK AO2
     T01560150=
KLXT 080753Z AUTO 30004KT 7SM FEW065 BKN090 OVC110 23/22 A3007 RMK
     AO2 SLP175 T02280217=
KMAE 080753Z AUTO 31007KT 10SM CLR 21/11 A2982 RMK AO2 SLP095
     T02060111 403390139=
KMAI 080753Z AUTO 00000KT 9SM CLR 23/22 A3001 RMK AO2 SLP160
     T02330217=
KMBS 080753Z 24004KT 10SM CLR 24/22 A3002 RMK AO2 SLP158
     T02390222=
KMCB 080753Z AUTO 00000KT 9SM CLR 23/22 A3003 RMK AO2 SLP164
     T02330222=
KMCE 080753Z AUTO 31005KT 10SM CLR 19/10 A2982 RMK AO2 SLP097
     T01940100 403330139=
KMCI 080753Z 36003KT 9SM FEW041 23/22 A3007 RMK AO2 SLP172
     T02280217 $=
KMCK 080753Z AUTO 32005KT 10SM BKN120 16/16 A3024 RMK AO2 SLP225
     T01610156=
KMCO 080753Z 01003KT 10SM FEW120 22/20 A2999 RMK AO2 SLP153
     T02220200=
KMCW 080753Z AUTO 32007KT 10SM CLR 18/18 A3011 RMK AO2 SLP183
     T01830178 $=
KMVY 080753Z AUTO 14005KT 1/4SM R24/2000V2800FT FG VV001 21/20
     A3006 RMK AO2 SLP179 T02110200=
KMWL 080753Z AUTO 13005KT 10SM CLR 23/21 A2998 RMK AO2 SLP139
     T02280211=
KMYF 080753Z AUTO 34005KT 10SM OVC015 17/14 A2991 RMK AO2 SLP126
     T01670139 401890144 TSNO=
KMYV 080753Z AUTO 16010KT 10SM CLR 19/11 A2981 RMK AO2 SLP097
     T01890111 403390133=
KNEW 080753Z AUTO 10006KT 10SM CLR 27/25 A3000 RMK AO2 SLP151
     T02720250 TSNO=
KOAK 080753Z 28012KT 10SM BKN009 OVC017 14/11 A2995 RMK AO2 CIG
     007V013 SLP139 T01440106 402060144=
KODX 080753Z AUTO 32004KT 10SM FEW080 16/14 A3019 RMK AO2 SLP218
     T01560144=
KOGA 080750Z AUTO 00000KT 10SM BKN070 16/15 A3027 RMK AO2
     T01610150=
KOGD 080753Z 17009KT 10SM CLR 19/07 A3008 RMK AO2 SLP128
     T01940067=
KOJC 080753Z AUTO 33003KT 10SM BKN014 OVC085 23/22 A3007 RMK AO2
     SLP170 T02330217=
####018003735####
SAUS99 KWBC 080756 RRG
METAR
KOLF 080753Z AUTO 00000KT 10SM BKN085 13/09 A3014 RMK AO2 SLP202
     T01280094=
KOMK 080753Z AUTO 30003KT 10SM CLR 17/08 A3004 RMK AO2 SLP165
     T01670078 403170100=
KONL 080750Z AUTO 26004KT 10SM OVC110 16/14 A3021 RMK AO2
     T01580142=
KONO 080753Z AUTO 27004KT 10SM CLR 14/07 A3002 RMK AO2 SLP155
     T01440072=
KONT 080753Z 25003KT 6SM BR OVC012 15/13 A2991 RMK AO2 SLP120
     T01500128 402610150=
KOPF 080753Z AUTO 04004KT 10SM CLR 27/24 A2993 RMK AO2 SLP135
     T02670244=
KORF 080751Z 00000KT 4SM BR CLR 26/24 A2995 RMK AO2 SLP142
     T02560244=
KORL 080753Z AUTO 00000KT 10SM CLR 23/21 A2999 RMK AO2 SLP157
     T02330211=
KOSH 080753Z AUTO 15006KT 6SM BR FEW050 22/21 A2996 RMK AO2 RAE50
     SLP130 P0002 T02170206=
KOSU 080753Z AUTO 00000KT 6SM HZ CLR 22/19 A3008 RMK AO2 SLP177
     T02220189=
KOTM 080753Z AUTO 00000KT 4SM BR CLR 21/21 A3004 RMK AO2 SLP165
     T02060206=
KOVE 080753Z AUTO 16003KT 10SM CLR 22/14 A2982 RMK AO2 SLP098
     T02220139 403330156 TSNO=
KOVS 080753Z AUTO 00000KT 10SM BKN008 BKN018 21/20 A3001 RMK AO2
     SLP158 T02110200=
KOWD 080753Z AUTO 16005KT 10SM BKN013 OVC018 23/19 A3005 RMK AO2
     SLP176 T02330189=
KOXB 080753Z AUTO 08003KT 7SM BKN095 24/24 A2999 RMK AO2 SLP155
     T02440244 $=
KPAE 080753Z AUTO 00000KT 10SM CLR 21/11 A2997 RMK AO2 SLP144
     T02060111 402830144=
KPAH 080753Z AUTO 00000KT 10SM CLR 23/22 A3003 RMK AO2 SLP166
     T02280217=
KPBF 080753Z AUTO 00000KT 8SM CLR 24/22 A3005 RMK AO2 SLP171
     T02390222=
KPBG 080753Z AUTO 00000KT 7SM CLR 23/21 A2999 RMK AO2 SLP153
     T02280211=
KPBI 080753Z 05006KT 10SM FEW022 SCT032 SCT250 27/23 A2992 RMK AO2
     SLP131 T02720233=
KPDK 080753Z AUTO 00000KT 10SM CLR 23/19 A3005 RMK AO2 SLP152
     T02330189=
KELM 080753Z AUTO 00000KT 4SM BR CLR 18/17 A3008 RMK AO2 SLP179
     T01780167=
KELN 080753Z AUTO VRB03KT 10SM CLR 17/07 A3004 RMK AO2 SLPNO
     T01720067 403330094 $=
KEMP 080753Z AUTO 08004KT 9SM BKN060 OVC070 22/20 A3008 RMK AO2
     SLP175 T02170200=
KENW 080753Z AUTO 19003KT 8SM -RA FEW039 BKN075 OVC095 23/22 A3003
     RMK AO2 SLP163 P0004 T02280217 $=
KEPH 080753Z AUTO 32007KT 10SM CLR 22/06 A3000 RMK AO2 SLP148
     T02170056 403330144=
KEQY 080753Z AUTO 00000KT 10SM CLR 24/18 A2999 RMK AO2 SLP149
     T02390183=
KESF 080753Z AUTO 00000KT 8SM CLR 23/22 A3000 RMK AO2 SLP157
     T02330222=
KESN 080757Z AUTO 00000KT 5SM BR CLR 23/23 A3002 RMK AO2=
KEVW 080753Z AUTO 09013KT 10SM CLR 13/03 A3028 RMK AO2 SLP170
     T01280033 TSNO=
KEWB 080753Z AUTO 15007KT 9SM OVC006 22/20 A3006 RMK AO2 CIG
     003V007 SLP177 T02170200=
KEYE 080753Z AUTO 00000KT 8SM FEW100 23/21 A3005 RMK AO2 SLP166
     T02330206=
KEYW 080753Z AUTO 00000KT 10SM CLR 28/24 A2993 RMK AO2 SLP134
     T02780244=
KFAT 080753Z 32009KT 10SM CLR 24/09 A2982 RMK AO2 SLP093 T02390089
     403500172=
KFAY 080753Z AUTO 00000KT 10SM CLR 27/18 A2992 RMK AO2 SLP126
     T02670178=
KFCM 080753Z AUTO 00000KT 10SM CLR 19/16 A3007 RMK AO2 SLP178
     T01940161=
KFDR 080753Z AUTO 02006KT 10SM 24/23 A3001 RMK AO2 SLP142
     T02390228=
KFDY 080753Z AUTO 00000KT 9SM CLR 23/18 A3005 RMK AO2 SLP166
     T02280183=
KFFC 080753Z AUTO 00000KT 8SM CLR 21/19 A3005 RMK AO2 SLP165
     T02110194=
KFFT 080753Z AUTO 00000KT 5SM BR CLR 21/19 A3007 RMK AO2 SLP172
     T02110194=
KFHR 080753Z AUTO 00000KT 10SM CLR 15/11 A2997 RMK AO2 SLP146
     T01500111 402940100=
KFLD 080753Z AUTO 17004KT 10SM -RA BKN043 22/21 A2998 RMK AO2
     SLP148 P0003 T02170206=
KFLL 080753Z 06007KT 10SM SCT023 28/24 A2991 RMK AO2 SLP129
     T02780244=
####018003747####
SAUS99 KWBC 080756 RRH
METAR
KFME 080754Z AUTO 00000KT 4SM CLR 20/20 A3001 RMK AO1=
KFMN 080753Z AUTO 07009KT 10SM CLR 21/06 A3019 RMK AO2 SLP149
     T02060056=
KFMY 080753Z AUTO 05005KT 10SM CLR 24/22 A2995 RMK AO2 SLP143
     T02440222=
KFNB 080753Z AUTO 00000KT 7SM CLR 22/21 A3006 RMK AO2 SLP172
     T02220206=
KFNT 080753Z AUTO 00000KT 8SM CLR 23/21 A3003 RMK AO2 SLP162
     T02280211=
KFOE 080753Z AUTO 05005KT 10SM OVC100 22/20 A3007 RMK AO2 RAE17
     SLP172 P0002 T02220200=
KFOK 080753Z AUTO 00000KT 5SM BR BKN003 OVC070 24/22 A3004 RMK AO2
     SLP173 T02390222 TSNO=
KFPR 080753Z AUTO 00000KT 10SM CLR 25/22 A2995 RMK AO2 SLP142
     T02500217=
KFRG 080753Z AUTO 00000KT 5SM BR BKN008 26/24 A3001 RMK AO2 SLP163
     T02560239=
KFSM 080753Z AUTO 15003KT 10SM OVC032 24/22 A3003 RMK AO2 SLP161
     T02440222=
KTTN 080753Z AUTO 00000KT 5SM HZ CLR 25/21 A3001 RMK AO2 SLP154
     T02500211 PWINO=
KTUL 080753Z 14006KT 5SM +TSRA BR FEW055 BKN075 BKN095 23/22 A3000
     RMK AO2 TSB26 SLP151 FRQ LTGIC S-SW TS S-SW MOV N P0031
     T02330217=
KTUS 080753Z 07004KT 10SM CLR 32/07 A2988 RMK AO2 SLP058
     T03220072=
KTVC 080753Z AUTO 00000KT 10SM BKN120 23/20 A2998 RMK AO2 SLP148
     T02330200=
KTVL 080753Z AUTO 00000KT 10SM FEW120 13/07 A3016 RMK AO2 SLP150
     T01280072 402670078=
KTVR 080753Z AUTO 09003KT 8SM CLR 23/22 A3002 RMK AO2 SLP171
     T02330222 $=
KTWF 080753Z AUTO 18003KT 10SM CLR 12/M01 A3010 RMK AO2 SLP144
     T01171006=
KUAO 080753Z AUTO 00000KT 10SM CLR 23/11 A2986 RMK AO2 SLP109
     T02330111 403560167=
KUNO 080753Z AUTO 20004KT 10SM CLR 24/21 A3008 RMK AO2 SLP171
     T02390211 TSNO=
KUTS 080753Z AUTO 00000KT 9SM CLR 24/23 A2997 RMK AO2 SLP143
     T02440233=
KUUU 080753Z AUTO 14005KT 1 1/4SM BR OVC002 21/21 A3006 RMK AO2
     CIG 001V004 SLP177 T02110206=
KVCB 080753Z AUTO 23005KT 10SM CLR 19/09 A2981 RMK AO2 SLP094
     T01940094 403330133=
KVEL 080753Z AUTO 34007KT 10SM CLR 18/06 A3021 RMK AO2 SLP167
     T01780056=
KVGT 080753Z AUTO 31003KT 10SM CLR 29/M04 A2983 RMK AO2 SLP062
     T02891039 403940222 TSNO=
KVIH 080753Z AUTO 00000KT 4SM BR FEW002 SCT006 BKN049 23/22 A3004
     RMK AO2 SLP157 T02330217=
KVPC 080753Z AUTO 00000KT 8SM CLR 20/19 A3005 RMK AO2 SLP161
     T02000189=
KVPZ 080753Z AUTO 31005KT 8SM SCT060 23/22 A3004 RMK AO2 SLP167
     T02330217=
KVRB 080753Z AUTO 00000KT 10SM FEW028 23/21 A2996 RMK AO2 SLP143
     T02280211=
KVUO 080753Z AUTO 00000KT 10SM CLR 19/14 A2986 RMK AO2 SLP112
     T01890139 403560111=
KW29 080752Z AUTO 00000KT 7SM CLR 25/22 A2998 RMK AO1=
KWRL 080753Z AUTO 15008KT 10SM CLR 15/04 A3025 RMK AO2 SLP214
     T01500039=
KWST 080753Z AUTO 00000KT 10SM SCT013 BKN090 23/21 A3005 RMK AO2
     SLP174 T02280206=
KWVI 080753Z AUTO 00000KT 10SM OVC011 13/11 A2994 RMK AO2 SLP137
     T01280106 401780128=
KXNA 080753Z 19004KT 10SM FEW080 23/22 A3006 RMK AO2 RAE05 SLP164
     P0000 T02280222=
KYIP 080753Z 00000KT 5SM BR CLR 23/21 A3004 RMK AO2 SLP164
     T02280206=
KYKM 080753Z AUTO 26009KT 10SM CLR 18/06 A3000 RMK AO2 SLP151
     T01830056 403330094=
KZZV 080753Z AUTO 00000KT 2 1/2SM BR SCT065 20/19 A3008 RMK AO2
     SLP177 T02000189=
KAAF 080753Z AUTO 01004KT 10SM CLR 23/22 A3000 RMK AO2 SLP158
     T02330222=
KAAO 080754Z AUTO 06006KT 10SM CLR 21/20 A3008 RMK AO2 SLP173
     T02110200=
KAEG 080755Z AUTO 15012KT 10SM CLR 17/08 A3028 RMK AO1=
KAIZ 080755Z AUTO 06004KT 10SM FEW002 22/21 A3005 RMK AO1
     P0002=
KAKH 080754Z AUTO 00000KT 10SM CLR 22/18 A3000 RMK AO2 SLP151
     T02220183=
KALO 080754Z AUTO 31005KT 10SM CLR 19/19 A3004 RMK AO2 SLP167
     T01940194=
####018003720####
SAUS99 KWBC 080756 RRI
METAR
KAPC 080754Z AUTO 26013KT 10SM CLR 12/10 A2991 RMK AO2 SLP118
     T01170100 402110117=
KARG 080755Z AUTO 17005KT 10SM CLR 25/23 A3005 RMK AO1=
KAUO 080755Z AUTO 21003KT 10SM CLR 26/21 A3002 RMK AO1=
KAVL 080754Z AUTO 00000KT 10SM CLR 19/18 A3013 RMK AO2 SLP173
     T01890178=
KAWO 080755Z AUTO 00000KT 10SM CLR 16/14 A2997 RMK AO1=
KBDN 080755Z AUTO 30006KT 10SM CLR 19/03 A3009 RMK AO2=
KBOW 080755Z AUTO 00000KT 10SM CLR 22/21 A3000 RMK AO2=
KBVX 080755Z AUTO 14003KT 10SM CLR 24/22 A3006 RMK AO1=
KBWI 080754Z 10005KT 7SM FEW200 27/22 A2998 RMK AO2 SLP150
     T02670222=
KCGC 080755Z AUTO 00000KT 10SM CLR 22/21 A2999 RMK=
KCIU 080755Z AUTO 20006KT 5SM SCT045 BKN080 OVC090 19/17 A2997 RMK
     AO1 P0001=
KCOE 080755Z AUTO 04010KT 10SM CLR 17/09 A3008 RMK AO1=
KCVN 080755Z AUTO 02006KT 10SM SCT075 BKN100 17/14 A3022 RMK
     AO1=
KCVO 080755Z AUTO 28014KT 10SM CLR 16/09 A2989 RMK AO1=
KCWI 080755Z 00000KT 7SM SCT075 A3002 RMK AO1=
KDEC 080754Z AUTO 22003KT 10SM CLR 25/22 A3004 RMK AO2 SLP166
     T02500222=
KDYR 080755Z AUTO 00000KT 10SM CLR 24/20 A3006 RMK AO1=
KEAR 080755Z AUTO 34004KT 10SM CLR 16/14 A3022 RMK AO1=
KECG 080754Z AUTO 00000KT 4SM BR CLR 26/24 A2994 RMK AO2 SLP139
     T02560244=
KEHR 080755Z AUTO 24003KT 9SM BKN090 23/19 A3005 RMK AO1=
KESC 080755Z AUTO 00000KT 4SM CLR 19/17 A2996 RMK AO1=
KEUG 080754Z 21010KT 10SM CLR 16/11 A2989 RMK AO2 SLP121 T01560111
     403610100=
KEWK 080755Z AUTO 09003KT 10SM CLR 21/19 A3006 RMK AO1=
KEWN 080754Z AUTO 05007KT 7SM CLR 26/22 A2992 RMK AO2 SLP132
     T02560222=
KFAM 080755Z AUTO 00000KT 10SM CLR 22/22 A3008 RMK AO1=
KFLP 080755Z AUTO 00000KT 10SM FEW090 23/22 A3004 RMK AO1=
KFOD 080755Z AUTO 32003KT 10SM CLR 19/18 A3011 RMK AO1=
KGAD 080755Z AUTO 00000KT 10SM CLR 22/21 A3004 RMK AO1=
KGAI 080755Z 00000KT 9SM BKN090 BKN110 26/21 A3003 RMK AO1=
KGBD 080755Z AUTO 36006KT 6SM OVC013 19/18 A3015 RMK AO1=
KGCK 080754Z AUTO 05009KT 10SM BKN060 BKN080 18/17 A3020 RMK AO2
     SLP198 T01830167=
KGTR 080755Z 32003KT 10SM CLR 24/22 A3004 RMK AO1=
KHEF 080755Z AUTO 00000KT 7SM CLR 24/20 A2998 RMK AO1=
KHEZ 080755Z AUTO 00000KT 10SM CLR 23/23 A3002 RMK AO1=
KSMF 080753Z 16009KT 10SM CLR 16/11 A2981 RMK AO2 SLP094 T01610106
     403220128=
KSMQ 080753Z AUTO 00000KT 4SM BR CLR 22/21 A3000 RMK AO2 SLP156
     T02170211=
KSNA 080753Z 00000KT 10SM OVC017 18/12 A2991 RMK AO2 SLP127
     T01830122 402330172=
KSNS 080753Z AUTO 29005KT 10SM OVC011 13/11 A2993 RMK AO2 SLP144
     T01330106 401720128=
KSNY 080753Z AUTO 00000KT 10SM FEW075 17/14 A3031 RMK AO2 SLP232
     T01670144=
KSOW 080750Z AUTO 21005KT 10SM BKN100 21/04 A3023 RMK AO2=
KSPB 080753Z AUTO 29004KT 10SM CLR 20/13 A2986 RMK AO2 SLP112
     T02000128 403390106=
KSPG 080753Z 11008KT 10SM CLR 27/22 A2997 RMK AO2 SLP149
     T02670217=
KSPW 080753Z AUTO 31004KT 10SM CLR 16/15 A3014 RMK AO2 SLP200
     T01610150=
KSRQ 080753Z 07004KT 10SM CLR 24/22 A2997 RMK AO2 SLP148
     T02390217=
KSSF 080753Z AUTO 05005KT 10SM BKN015 OVC020 26/23 A2992 RMK AO2
     SLP118 T02610228=
KSTC 080753Z AUTO 00000KT 3/4SM BR CLR 14/13 A3008 RMK AO2 VIS
     1/2V2 1/2 SLP191 T01390128=
KSTJ 080753Z AUTO 24005KT 7SM BKN008 BKN018 OVC023 23/22 A3007 RMK
     AO2 LTG DSNT S SLP174 T02280217=
KSTP 080753Z 32004KT 10SM BKN037 20/17 A3007 RMK AO2 SLP176
     T02000172=
KSTS 080753Z AUTO 00000KT 10SM OVC008 12/10 A2992 RMK AO2 SLP126
     T01220100 402170117=
KSUN 080751Z AUTO 31008KT 10SM CLR 12/02 A3022 RMK AO2=
KSWO 080753Z AUTO 02006KT 10SM BKN029 BKN047 OVC055 23/22 A3003
     RMK AO2 SLP156 T02330217=
####018003690####
SAUS99 KWBC 080756 RRJ
METAR
KSZT 080750Z AUTO 00000KT 10SM CLR 11/09 A3009 RMK AO2=
KTCC 080753Z AUTO 04011KT 10SM SCT120 18/14 A3020 RMK AO2 RAB10E24
     SLP169 P0000 T01780144=
KTCL 080753Z AUTO 00000KT 8SM CLR 24/23 A3003 RMK AO2 SLP166
     T02440228=
KTDZ 080753Z AUTO 00000KT 10SM FEW070 24/18 A3005 RMK AO2 SLP169
     T02390183=
KTHV 080753Z AUTO 00000KT 5SM HZ CLR 23/20 A3001 RMK AO2 SLP159
     T02280200=
KTIF 080750Z AUTO 00000KT 10SM OVC080 16/14 A3025 RMK AO2
     T01580143=
KTIW 080753Z AUTO 02004KT 10SM FEW090 23/12 A2993 RMK AO2 SLP131
     T02280117 402890133=
KTKI 080753Z AUTO 17005KT 10SM BKN019 26/23 A3000 RMK AO2 SLP153
     T02560228=
KTMB 080753Z AUTO 02003KT 10SM CLR 27/25 A2992 RMK AO2 SLP132
     T02720250=
KTOI 080753Z AUTO 00000KT 8SM CLR 22/22 A3003 RMK AO2 SLP163
     T02220217=
KTOP 080753Z AUTO 07007KT 10SM OVC090 22/21 A3006 RMK AO2 RAE39
     SLP172 P0011 T02170206=
KTOR 080753Z AUTO 02005KT 10SM CLR 13/12 A3029 RMK AO2 SLP233
     T01330117=
KTPA 080753Z 00000KT 10SM FEW250 25/21 A2999 RMK AO2 SLP155
     T02500211 $=
KTRK 080750Z AUTO 32005KT 10SM FEW110 13/09 A3016 RMK AO2=
KTTD 080753Z AUTO 00000KT 10SM FEW090 19/13 A2985 RMK AO2 SLP108
     T01940128 403390117=
KPDT 080753Z AUTO 12007KT 10SM CLR 17/07 A2996 RMK AO2 SLP130
     T01670072 403330111=
KPDX 080753Z 00000KT 10SM CLR 21/14 A2987 RMK AO2 SLP114 T02110144
     403500139=
KPEO 080753Z AUTO 22004KT 4SM BR CLR 22/21 A3008 RMK AO2 SLP178
     T02220211=
KPGA 080753Z AUTO 00000KT 10SM FEW120 28/M01 A3002 RMK AO2 SLP088
     T02781006=
KPGD 080753Z AUTO 04005KT 10SM CLR 23/22 A2999 RMK AO2 SLP155
     T02330222 TSNO=
KPHD 080753Z AUTO 00000KT 2 1/2SM BR CLR 20/18 A3009 RMK AO2
     SLP181 T02000178=
KPIE 080753Z AUTO 10005KT 10SM CLR 25/21 A2999 RMK AO2 SLP155
     T02500211 TSNO=
KPIH 080753Z AUTO 20003KT 10SM CLR 08/03 A3015 RMK AO2 SLP175
     T00780028=
KPIL 080753Z AUTO 05006KT 10SM FEW019 29/25 A2979 RMK AO2 SLP086
     T02890250 $=
KPIR 080753Z AUTO 25007KT 10SM CLR 16/13 A3015 RMK AO2 SLP202
     T01610128=
KPKB 080753Z AUTO 00000KT 3SM BR CLR 21/19 A3010 RMK AO2 SLP182
     T02060194 TSNO=
KPKD 080753Z AUTO 00000KT 10SM CLR 15/13 A3007 RMK AO2 SLP182
     T01500133=
KPMD 080753Z AUTO 20005KT 10SM CLR 19/07 A2990 RMK AO2 SLP096
     T01940067 403500178 TSNO $=
KPMP 080753Z AUTO 07006KT 10SM CLR 28/23 A2992 RMK AO2 SLP133
     T02780233=
KPNA 080750Z AUTO 30003KT 10SM CLR 08/00 A3037 RMK AO2
     T00830001=
KPNC 080753Z AUTO 03004KT 10SM SCT110 22/21 A3004 RMK AO2 SLP161
     T02220211=
KPOF 080753Z AUTO 21003KT 7SM CLR 24/23 A3004 RMK AO2 SLP165
     T02440233 $=
KPOU 080753Z 00000KT 6SM BR CLR 23/22 A3000 RMK AO2 SLP154
     T02330217=
KPQL 080753Z AUTO 00000KT 5SM BR CLR 24/23 A3001 RMK AO2 SLP162
     T02390233=
KPRB 080753Z AUTO 00000KT 10SM CLR 13/11 A2990 RMK AO2 SLP122
     T01330106 402390117=
KPRC 080753Z AUTO 19003KT 10SM SCT075 BKN120 19/05 A3009 RMK AO2
     SLP097 T01940050=
KPSC 080753Z AUTO 32003KT 10SM CLR 16/11 A2994 RMK AO2 SLP137
     T01610106 403560106=
KPSP 080753Z 32007KT 10SM CLR 28/11 A2973 RMK AO2 SLP062 T02780106
     404060211=
KPSX 080753Z AUTO 11008KT 10SM -RA FEW016 27/25 A2986 RMK AO2 PK
     WND 09031/0730 RAB05 SLP111 P0011 T02670250=
KPTK 080753Z 00000KT 9SM SCT250 24/22 A3004 RMK AO2 SLP162
     T02440217=
KPTT 080750Z AUTO 01007KT 10SM CLR 19/18 A3014 RMK AO2=
KPUB 080753Z AUTO 08006KT 10SM OVC044 16/13 A3034 RMK AO2 SLP219
     T01560133=
KPUC 080753Z AUTO 05007KT 10SM CLR 14/01 A3021 RMK AO2 SLP152
     T01440006 TSNO=
####018003732####
SAUS99 KWBC 080756 RRK
METAR
KPUW 080753Z AUTO 00000KT 10SM CLR 11/08 A3007 RMK AO2 SLP172
     T01110078 402940056=
KRAC 080753Z AUTO 21006KT 6SM -RA BR FEW042 SCT070 OVC090 23/22
     A3004 RMK AO2 RAB19 SLP168 P0002 T02330217=
KRAL 080753Z AUTO 28003KT 7SM CLR 15/12 A2991 RMK AO2 SLP116
     T01500122 402670150=
KRBG 080753Z AUTO 34004KT 10SM CLR 21/12 A2990 RMK AO2 SLP121
     T02110122 403780133=
KRDD 080753Z AUTO 31005KT 10SM CLR 26/15 A2982 RMK AO2 SLP091
     T02560150 403720200=
KRHI 080753Z AUTO 28003KT 2SM BR BKN001 OVC007 19/18 A3003 RMK AO2
     SLP163 T01890183=
KRIW 080753Z AUTO 36005KT 10SM CLR 09/03 A3032 RMK AO2 SLP227
     T00890028=
KRKP 080753Z AUTO 10015G20KT 10SM FEW021 SCT033 BKN041 28/26 A2982
     RMK AO2 LTG DSNT N TSE0658 SLP101 T02780256=
KRMG 080753Z AUTO 00000KT 10SM CLR 22/19 A3003 RMK AO2 SLP159
     T02170189=
KRNT 080753Z AUTO 00000KT 10SM CLR 21/14 A2993 RMK AO2 SLP140
     T02060144 403060161=
KRSL 080753Z AUTO 35006KT 8SM BKN012 18/18 A3014 RMK AO2 SLP193
     T01830178=
KRSW 080753Z 04007KT 10SM CLR 24/22 A2995 RMK AO2 SLP141
     T02390222=
KRUE 080753Z AUTO 00000KT 10SM BKN025 24/23 A3005 RMK AO2 SLP167
     T02390228=
KRVS 080753Z VRB03KT 2SM +TSRA BR BKN005 BKN017 OVC034 23/23 A3003
     RMK AO2 TSB18 SLP172 P0106 T02280228=
KRWF 080753Z AUTO 28006KT 10SM CLR 16/14 A3011 RMK AO2 SLP194
     T01560144=
KRWI 080753Z AUTO 00000KT 6SM HZ CLR 24/20 A2994 RMK AO2 SLP136
     T02390200=
KRWL 080753Z AUTO 06004KT 10SM CLR 08/07 A3036 RMK AO2 SLP219
     T00830067=
KRXE 080753Z AUTO 05005KT 10SM CLR 11/06 A3019 RMK AO2 SLP190
     T01060061=
KSAC 080753Z 17006KT 10SM CLR 15/10 A2984 RMK AO2 SLP102 T01500100
     403060122=
KSAF 080753Z AUTO 16004KT 10SM CLR 16/10 A3031 RMK AO2 SLP160
     T01560100=
KSAN 080751Z 30004KT 10SM OVC013 17/13 A2992 RMK AO2 SLP132
     T01720133 401890150=
KSAT 080753Z 08008KT 10SM BKN016 BKN250 26/23 A2994 RMK AO2 SLP120
     T02560228=
KSBA 080753Z 00000KT 10SM BKN021 13/11 A2991 RMK AO2 SLP127
     T01330111 401890122 $=
KSBM 080753Z AUTO 00000KT 9SM -RA BKN090 22/21 A2999 RMK AO2
     RAB0659E12B49 SLP149 P0000 T02220211=
KSDL 080753Z 00000KT 10SM CLR 31/07 A2979 RMK AO2 SLP058
     T03060067=
KSEA 080753Z 02011KT 10SM CLR 24/10 A2995 RMK AO2 SLP144 T02390100
     403220150 $=
KSEG 080753Z AUTO 32003KT 5SM HZ CLR 22/18 A3003 RMK AO2 SLP165
     T02170178=
KSFF 080753Z AUTO 00000KT 10SM CLR 15/11 A3005 RMK AO2 SLP162
     T01500111 403000100=
KSHN 080753Z AUTO 00000KT 10SM CLR 14/12 A2992 RMK AO2 SLP130
     T01390122 403330089=
KSHR 080753Z AUTO 20003KT 10SM CLR 08/06 A3026 RMK AO2 SLP231
     T00830061=
KSIY 080753Z AUTO 20003KT 10SM CLR 23/09 A2994 RMK AO2 SLP117
     T02280094 403610172 $=
KSJC 080753Z AUTO 35004KT 10SM OVC015 16/11 A2993 RMK AO2 SLP133
     T01560111 402500139=
KSLC 080753Z 19004KT 10SM FEW130 19/07 A3008 RMK AO2 SLP132
     T01940072=
KSLN 080753Z AUTO 36008KT 7SM CLR 21/20 A3011 RMK AO2 SLP184
     T02110200=
KSGT 080755Z 00000KT 10SM CLR 24/22 A3005 RMK AO1=
KSKX 080755Z AUTO 00000KT 10SM CLR 12/03 A3037 RMK AO1=
KSLG 080755Z AUTO 16006KT 10SM FEW024 23/21 A3006 RMK AO1=
KSPA 080755Z AUTO 36003KT 10SM CLR 24/23 A3001 RMK AO2=
KSPL 080755Z AUTO 05008KT FEW020 BKN047 BKN090 29/25 A2978 RMK AO2
     PWINO PNO=
KSQI 080755Z 00000KT 6SM BKN008 BKN018 OVC050 22/22 A3004 RMK
     AO1=
KSUE 080755Z AUTO 14003KT 2SM SCT005 SCT070 OVC110 20/19 A2997 RMK
     AO1 P0001=
KSUS 080754Z AUTO 28006KT 3SM R08R/4500VP6000FT VCTS RA BR FEW017
     BKN038 OVC050 24/23 A3003 RMK AO2 LTG DSNT N TSB38RAB44
     SLP159 P0005 T02440233=
####018003706####
SAUS99 KWBC 080756 RRL
METAR
KUIN 080754Z AUTO 21005KT 4SM +RA BR FEW014 BKN020 OVC046 23/22
     A3004 RMK AO2 RAB48 SLP165 P0004 T02280222=
KUTA 080755Z AUTO 00000KT 10SM CLR 23/22 A3006 RMK AO2=
KUZA 080754Z AUTO 00000KT 10SM CLR 22/18 A3000 RMK AO2 SLP143
     T02220178=
KVBT 080755Z AUTO 00000KT 10SM SCT085 23/22 A3003 RMK AO1
     P0001=
KWLD 080754Z AUTO 03004KT 10SM FEW047 BKN075 23/21 A3007 RMK AO2
     RAB0656E22 SLP170 P0001 T02280211=
KX40 080755Z AUTO 00000KT 7SM CLR 23/22 A3001 RMK AO2
     T02270220=
KHNB 080755Z AUTO 00000KT 10SM SCT070 23/21 A3005 RMK AO1=
KHWD 080754Z AUTO 33006KT 10SM OVC011 14/11 A2993 RMK AO2 SLP144
     T01390106 402220139=
KHYS 080755Z AUTO 35007KT 10SM SCT014 18/17 A3017 RMK AO1=
KINT 080754Z AUTO 34003KT 10SM FEW090 24/17 A3002 RMK AO2 SLP151
     T02440172=
KIWD 080755Z AUTO 00000KT 10SM FEW070 BKN100 17/16 A3000 RMK
     AO1=
KKLS 080755Z AUTO 00000KT 10SM CLR 17/14 A2989 RMK AO1=
KL35 080753Z AUTO 00000KT 10SM CLR 07/M06 A3018 RMK AO2=
KLAF 080754Z AUTO 00000KT 9SM CLR 23/21 A3003 RMK AO2 SLP163
     T02330211 TSNO=
KLBL 080755Z 06010KT 10SM FEW033 20/17 A3020 RMK AO1=
KLBT 080754Z AUTO 31004KT 10SM SCT100 27/19 A2993 RMK AO2 SLP131
     T02670189=
KLGD 080755Z AUTO 34003KT 10SM CLR 14/06 A3004 RMK AO1=
KLKV 080755Z AUTO 34007KT 10SM CLR 11/02 A3012 RMK AO1=
KLUX 080755Z AUTO 28004KT 10SM CLR 22/22 A3002 RMK AO2=
KLYH 080754Z AUTO 00000KT 5SM HZ CLR 24/19 A3003 RMK AO2 SLP157
     T02390194=
KMBL 080755Z AUTO 00000KT 10SM OVC110 21/19 A3001 RMK AO1=
KMER 080755Z AUTO 33005KT 10SM CLR 18/10 A2983 RMK AO1=
KMFE 080753Z AUTO 01006KT 10SM CLR 26/24 A2981 RMK AO2 SLP091
     T02610244=
KMKC 080754Z AUTO VRB04KT 10SM SCT011 BKN044 OVC050 23/21 A3006
     RMK AO2 LTG DSNT NW SLP172 T02330211=
KMNI 080755Z AUTO 00000KT 10SM CLR 21/21 A2996 RMK AO2=
KMNM 080755Z AUTO 00000KT 7SM BKN120 21/19 A2997 RMK AO1 P0001=
KMRF 080755Z AUTO 04006KT 10SM FEW120 17/14 A3016 RMK AO1=
KMRY 080754Z AUTO 31004KT 10SM OVC010 14/10 A2994 RMK AO2 SLP150
     T01390100 401830128=
KMTW 080755Z 21004KT 10SM OVC090 22/20 A2999 RMK AO1=
KMVN 080755Z AUTO 00000KT 1 3/4SM CLR 22/21 A3005 RMK AO1=
KODO 080753Z AUTO 02005KT 10SM OVC100 22/20 A3010 RMK AO2 RAE16
     SLP144 P0001 T02170200=
KOFP 080754Z AUTO 00000KT 6SM HZ CLR 24/19 A2999 RMK AO2 SLP153
     T02440194=
KOLM 080754Z AUTO 00000KT 10SM CLR 16/12 A2993 RMK AO2 SLP135
     T01560117 403280089=
KOLS 080754Z AUTO 04010KT 10SM CLR 28/07 A2996 RMK AO2 SLP060
     T02780072=
KOLU 080755Z AUTO 31003KT 10SM CLR 16/14 A3016 RMK AO1=
KOTH 080755Z 22003KT 10SM OVC008 11/08 A3001 RMK AO1=
KPHF 080754Z 00000KT 3SM BR FEW080 BKN110 24/24 A2996 RMK AO2
     SLP144 T02440239=
KPIA 080754Z 15003KT 6SM -RA BR BKN070 OVC085 23/22 A3003 RMK AO2
     RAB19 SLP164 P0002 T02280217=
KPIB 080755Z AUTO 00000KT 10SM CLR 23/21 A3004 RMK AO1=
KPTN 080755Z AUTO 00000KT 10SM CLR 24/M09 A3001 RMK AO1=
KPWT 080755Z AUTO 04009KT 10SM CLR 23/07 A2997 RMK AO1=
KRBL 080754Z AUTO 23003KT 10SM CLR 25/18 A2982 RMK AO2 SLP091
     T02500178 403500183=
KSET 080754Z AUTO 00000KT 6SM BR CLR 25/24 A3002 RMK AO2 LTG DSNT
     SW SLP161 T02500244=
PAAQ 080753Z AUTO 36004KT 10SM OVC090 14/08 A3002 RMK AO2 SLP161
     T01390083 TSNO=
PABE 080753Z 35005KT 10SM FEW080 SCT120 14/07 A3001 RMK AO2 SLPNO
     T01400070 PNO $=
PABI 080753Z AUTO 00000KT 10SM CLR 16/08 A3008 RMK AO2 SLP185
     T01560078 TSNO=
PABR 080753Z 26015KT 10SM BKN200 05/03 A2999 RMK AO2 SLP155
     T00500028 $=
PABT 080753Z 00000KT 10SM FEW040 SCT075 BKN200 14/12 A3005 RMK AO2
     SLP184 T01440122=
####018000068####
SABZ20 SBRB 080800
METAR SBRB 080800Z 00000KT CAVOK 23/23 Q1011=
####018000117####
SAKA31 PTRO 080800
METAR PTRO 080752Z 00000KT 14SM SCT009 SCT016TCU BKN120 BKN300 29/24 
A2983 RMK TCU VC ALQDS
####018000046####
SAOS32 LOWM 080750
METAR LOXZ 080750Z NIL=
####018000286####
SAFI33 EFHK 080750
EFJO 080750Z 01003KT CAVOK 23/20 Q1015=
EFLP 080750Z 07007KT 020V110 CAVOK 28/17 Q1013=
EFMI 080750Z AUTO VRB03KT 9999 FEW025 26/18 Q1014=
EFSA 080750Z 35004KT 320V020 CAVOK 24/20 Q1014=
EFUT 080750Z 02004KT 310V130 CAVOK 28/18 Q1013=
METAR EFVR 080755Z NIL=
####018003240####
SAUS99 KWBC 080756 RRM
METAR
PACD 080753Z 15008KT 10SM FEW048 07/03 A2994 RMK AO2 SLP140
     T00670033=
PACV 080753Z 05006KT 10SM -RA SCT035 BKN045 OVC060 15/10 A3009 RMK
     AO2 SLP188 P0000 T01500100=
PADE 080753Z AUTO 25004KT 10SM CLR 09/05 A3014 RMK AO2 SLP207
     T00940050 TSNO=
PADQ 080753Z 34004KT 1 1/2SM -RA BR BKN006 OVC010 10/09 A2982 RMK
     AO2 SLP099 P0002 T01000094 $=
PAEG 080753Z AUTO 00000KT 10SM FEW090 11/06 A3001 RMK AO2 SLP162
     T01060061 TSNO=
PAEN 080753Z AUTO 01016G20KT 10SM BKN090 BKN110 14/11 A2997 RMK
     AO2 RAE24 SLP151 P0000 T01440106 TSNO=
PAFA 080753Z 00000KT 10SM FEW070 SCT200 17/09 A3003 RMK AO2 SLP171
     T01720089=
PAGK 080753Z AUTO 04004KT 10SM CLR 11/08 A3007 RMK AO2 SLP191
     T01060078 TSNO=
PAGY 080753Z AUTO 00000KT 10SM CLR 12/11 A3021 RMK AO2 SLP230
     T01170106 TSNO=
PAHO 080753Z AUTO 08004KT 10SM BKN060 OVC080 12/09 A2990 RMK AO2
     SLP124 T01220094 TSNO=
PAIL 080753Z AUTO 02007KT 10SM BKN060 OVC095 11/09 A2993 RMK AO2
     SLP136 T01110089 TSNO=
PAJN 080753Z 00000KT 10SM CLR 12/11 A3019 RMK AO2 SLP223
     T01170106=
PAKT 080753Z AUTO 33007KT 10SM CLR 19/12 A3008 RMK AO2 SLP185
     T01890117 TSNO=
PAKV 080753Z AUTO 00000KT 10SM CLR 15/06 A3009 RMK AO2 SLP191
     T01500061 TSNO=
PAKW 080753Z AUTO 00000KT 10SM CLR 13/11 A3012 RMK AO2 SLP198
     T01280106 TSNO=
PALH 080753Z 00000KT 10SM -RA BKN070 OVC090 14/10 A3002 RMK AO2
     SLP165 P0000 T01440100=
PAMC 080753Z 05005KT 10SM SCT040 SCT080 BKN200 15/08 A2998 RMK AO2
     SLP155 T01500078=
PAMR 080753Z 00000KT 10SM FEW055 BKN075 BKN090 14/09 A3000 RMK AO2
     SLP161 VIRGA E-S T01390094=
PANC 080753Z 00000KT 10SM -RA FEW055 BKN070 BKN120 BKN200 13/11
     A3001 RMK AO2 SLP161 P0000 T01280106=
PANN 080753Z AUTO 00000KT 10SM FEW080 15/10 A3002 RMK AO2 SLP172
     T01500100 TSNO=
PANT 080753Z AUTO 32005KT 10SM CLR 18/12 A3006 RMK AO2 SLP179
     T01780117 TSNO=
PAOM 080753Z 04008KT 10SM FEW045 SCT065 SCT095 17/09 A3008 RMK AO2
     SLP187 T01720089=
PAOR 080753Z 00000KT 10SM FEW070 12/09 A3009 RMK AO2 SLP189
     T01220094=
PAOT 080753Z 28011KT 10SM FEW040 SCT090 BKN210 12/07 A3013 RMK AO2
     SLP201 T01170067=
PAPB 080753Z AUTO 09016KT 10SM OVC022 08/07 A2991 RMK AO2 SLP117
     T00780067 TSNO=
PAQT 080753Z AUTO 28006KT 10SM OVC026 12/07 A3003 RMK AO2 SLP171
     T01220072 TSNO=
PASC 080753Z 20008KT 10SM FEW036 BKN060 10/07 A3000 RMK AO2 SLP161
     T01000072=
PASI 080753Z 00000KT 10SM CLR 13/12 A3018 RMK AO2 SLP219
     T01330117=
PASN 080753Z AUTO 08010KT 9SM OVC039 06/05 A2994 RMK AO2 SLP139
     T00560050 TSNO=
PASO 080753Z AUTO 00000KT 10SM OVC075 11/10 A2989 RMK AO2 SLP121
     T01060100 TSNO=
PATK 080753Z AUTO 14003KT 10SM CLR 17/08 A3002 RMK AO2 SLP167
     T01670083 TSNO=
PATO 080753Z AUTO 12013G28KT 3SM RA BR FEW021 BKN030 OVC039 13/11
     A3002 RMK AO2 PK WND 14030/0730 SLP166 P0022 T01280106
     TSNO=
PAWD 080753Z AUTO 00000KT 1 1/4SM -RA BR BKN003 OVC050 11/09 A2998
     RMK AO2 CIG 001V005 SLP153 P0002 T01060094 TSNO=
PAYA 080753Z 00000KT 10SM FEW090 SCT200 11/09 A3020 RMK AO2 SLP225
     BAY TWR WND 160MMKT T01110094=
####018000389####
SAOS31 LOWM 080750
METAR LOWW 080750Z 01005KT 300V050 9999 FEW035 20/11 Q1024 NOSIG=
METAR LOWL 080750Z 09005KT 050V150 CAVOK 19/10 Q1024 NOSIG=
METAR LOWS 080750Z 14004KT 060V220 CAVOK 20/08 Q1023 NOSIG=
METAR LOWI 080750Z 26004KT 180V310 CAVOK 19/12 Q1023 NOSIG=
METAR LOWG 080750Z VRB02KT 9999 FEW060 21/11 Q1024 NOSIG=
METAR LOWK 080750Z VRB02KT 9999 FEW050 19/11 Q1024 NOSIG=
####018000081####
SABZ20 SBBV 080800
METAR SBBV 080800Z 32004KT 9999 SCT025 SCT100 25/23 Q1012=
####018000355####
SABX31 EBBR 080750
METAR EBAW 080750Z 19005KT 140V230 CAVOK 24/12 Q1019 NOSIG=
METAR EBBR 080750Z 22005KT 190V280 CAVOK 26/11 Q1019 NOSIG=
METAR EBCI 080750Z 21007KT CAVOK 25/10 Q1020 NOSIG=
METAR EBLG 080750Z 20006KT CAVOK 25/09 Q1020 NOSIG=
METAR EBOS 080750Z 28006KT CAVOK 19/15 Q1019 NOSIG=
METAR ELLX 080750Z VRB02KT CAVOK 23/10 Q1021 NOSIG=
####018000137####
SAMH31 PKMR 080800
METAR PKMR 080752Z 08013KT 12SM -SHRA SCT014TCU BKN045 OVC110 28/25
A2981 RMK SHRAB47 TCU ALQDS SLP097 T02750245
####018000651####
SAUS90 KWBC 080800 RRA
METAR KRNM 080753Z AUTO 00000KT 5SM BR OVC004 14/13 A2991 RMK AO2
     SLP119 T01440128 402280139 TSNO=
METAR K1V4 080754Z AUTO 21/19 A3004 RMK AO2 SLP157 T02110194 PWINO
     TSNO=
METAR KMQE 080754Z AUTO 16009KT 22/19 A3007 RMK AO1 SLP186
     T02220189=
METAR KMTP 080754Z AUTO VRB04KT 22/20 A3005 RMK AO2 SLP174
     T02220200 PWINO TSNO=
METAR KACY 080754Z 00000KT 7SM FEW100 24/22 A3001 RMK AO2 SLP162
     T02440222=
METAR KNAK 080754Z AUTO 05003KT 5SM HZ CLR 27/23 A2997 RMK AO2
     SLP151 T02670228 TSNO $=
METAR KGSO 080754Z 00000KT 8SM SCT090 26/18 A3001 RMK AO2 SLP148
     T02560178=
####018003746####
SAUS90 KWBC 080800
METAR KFDK 080749Z AUTO 00000KT 5SM HZ SCT090 24/22 A3002=
METAR KREO 080752Z AUTO 09004KT 13/M02 A3009 RMK AO2 SLP153
     T01331022 403110039 PWINO TSNO=
METAR K9V9 080752Z AUTO 25003KT 17/14 A3018 RMK AO2 SLP212
     T01670144 PWINO TSNO=
METAR KUIL 080753Z AUTO 00000KT 10SM CLR 16/12 A2993 RMK AO2
     SLP135 T01610117 403330094 TSNO=
METAR KSAV 080753Z 26004KT 10SM FEW024 22/19 A2999 RMK AO2 SLP155
     T02170194=
METAR KCQC 080753Z AUTO 08005KT 10SM CLR 12/10 A3034 RMK AO2
     SLP214 T01170100 TSNO=
METAR KCHA 080753Z 00000KT 10SM CLR 23/19 A3005 RMK AO2 SLP166
     T02280189=
METAR KSGR 080753Z AUTO 09004KT 8SM CLR 26/24 A2991 RMK AO2 SLP135
     T02610239 TSNO=
METAR KLND 080753Z AUTO 00000KT 10SM CLR 11/03 A3031 RMK AO2
     SLP217 T01110033=
METAR KBNO 080753Z AUTO 31003KT 10SM CLR 09/02 A3011 RMK AO2
     SLP167 T00940022 402940039 TSNO=
METAR KFAR 080753Z 21003KT 10SM CLR 16/12 A3006 RMK AO2 SLP178
     T01560122=
METAR K6R6 080753Z AUTO 01006KT 23/20 A3000 RMK AO2 SLP122
     T02280200 PWINO TSNO=
METAR KCTY 080753Z AUTO 00000KT 21/21 A3001 RMK AO2 SLP160
     T02110206 PWINO TSNO $=
METAR KRTN 080753Z AUTO 01004KT 10SM CLR 14/11 A3035 RMK AO2
     SLP189 T01440106 TSNO=
METAR KRQE 080753Z AUTO 24003KT 10SM CLR 16/06 A3026 RMK AO2
     SLP113 T01560056 TSNO=
METAR KDNK 080753Z AUTO 12003KT 9SM CLR 24/22 A3000 RMK AO2 SLP154
     T02440217=
METAR KLXV 080753Z AUTO 00000KT 10SM OVC033 07/06 A3053 RMK AO2
     SLP180 T00670056 TSNO=
METAR KSDM 080753Z AUTO 00000KT 10SM OVC012 17/13 A2991 RMK AO2
     SLP125 T01670128 402000144 TSNO=
METAR KTLH 080753Z 00000KT 10SM CLR 22/21 A3000 RMK AO2 SLP158
     T02220206=
METAR KLAX 080753Z 27005KT 10SM OVC014 17/13 A2991 RMK AO2 SLP128
     T01670128 401940156=
METAR KOQT 080753Z AUTO 00000KT 8SM CLR 23/20 A3008 RMK AO2 SLP166
     T02280200 TSNO=
METAR KMWT 080753Z AUTO 00000KT 10SM BKN012 OVC020 23/23 A3004 RMK
     AO2 SLP160 T02330228 TSNO=
METAR KHTL 080753Z AUTO 26007KT 2SM -RA BR FEW008 BKN060 OVC120
     23/22 A3004 RMK AO2 RAB44 SLP164 P0011 T02330217=
METAR KMSN 080753Z 00000KT 7SM BKN110 22/21 A2999 RMK AO2 SLP150
     T02170206=
METAR KBTV 080754Z 00000KT 6SM BR SCT055 OVC070 24/22 A3001 RMK
     AO2 SLP159 T02390217=
METAR PGUM 080754Z 08010KT 10SM SCT020 SCT026 BKN031 29/24 A2986
     RMK AO2 SLP104 T02940244=
METAR K40J 080753Z AUTO 00000KT 22/21 A3000 RMK AO2 SLP158
     T02170206 PWINO TSNO=
METAR KCUT 080753Z AUTO 31005KT 10SM CLR 08/07 A3034 RMK AO2
     SLP240 T00830067 TSNO=
METAR KTCS 080753Z AUTO 00000KT 10SM -RA FEW080 BKN110 19/16 A3020
     RMK AO2 RAB12E30B49 SLP138 P0000 T01940156 TSNO=
METAR KGNT 080753Z AUTO 16017KT 18/08 A3028 RMK AO2 SLP150
     T01830078 PWINO TSNO=
METAR KELY 080753Z AUTO 17004KT 10SM CLR 09/M05 A3019 RMK AO2
     SLP130 T00941050 403000061 $=
METAR KJAN 080754Z 00000KT 10SM CLR 24/22 A3004 RMK AO2 SLP166
     T02390222 $=
METAR KP68 080753Z AUTO 22003KT 12/M02 A3013 RMK AO2 SLP117
     T01221022 403110083 PWINO TSNO=
METAR KP92 080753Z AUTO 00000KT 26/24 A2998 RMK AO2 SLP150
     T02560244 PWINO TSNO=
METAR KAPN 080754Z AUTO 00000KT 7SM CLR 20/19 A3000 RMK AO2 SLP155
     T02000189=
METAR K12N 080754Z AUTO 00000KT 22/21 A3003 RMK AO2 SLP159
     T02170206 PWINO TSNO=
METAR KSBN 080754Z 00000KT 9SM BKN120 24/21 A3004 RMK AO2 SLP164
     T02440211=
METAR KBKB 080754Z AUTO 00000KT 10SM CLR 24/23 A2997 RMK AO2
     SLP175 T02440228=
METAR KCZZ 080752Z AUTO 00000KT 09/08 A2989 RMK AO2 SLP096
     T00940083 402670039 PWINO TSNO=
METAR KFWA 080754Z 23003KT 10SM CLR 24/21 A3006 RMK AO2 SLP172
     T02390206=
####018000089####
SALI20 GLRB 080800
METAR GLRB 080800Z 03004KT 9999 BKN013 FEW024CB 25/23 Q1015 CB-SW=
####018000295####
SANO38 ENMI 080750
METAR ENDR 080750Z NIL=
METAR ENEK 080750Z 23017KT CAVOK 15/13 Q1014 W14/S3=
METAR ENGC 080750Z 18027KT CAVOK 13/11 Q1007=
METAR ENHE 080750Z 19017KT 9999 FEW015 15/11 Q1008=
METAR ENOA 080750Z 19024KT CAVOK1 13/11 Q1008=
METAR ENSL 080750Z 22026KT CAVOK 14/11 Q1011=
####018000418####
SANO37 ENMI 080750
METAR ENNO 080750Z 08007KT 050V110 9000 -RA SCT020 BKN030 16/14
           Q1014=
METAR ENOV 080750Z VRB03KT 9999 SCT055 SCT085 17/07 Q1009 =
METAR ENSD 080750Z NIL=
METAR ENSG 080750Z 20003KT 120V280 9999 -SHRA SCT040 SCT060 13/10
           Q1012=
METAR ENSN 080750Z NIL=
METAR ENSR 080750Z 15009KT 110V210 CAVOK 18/09 Q1012=
METAR ENSS 080750Z 34005KT 9999 SCT004 BKN024 10/08 Q1017 =
####018000327####
SANO36 ENMI 080750
METAR ENBS 080750Z VRB02KT 9999 FEW002 SCT012 BKN015 10/07 Q1017=
METAR ENHK 080750Z NIL=
METAR ENHV 080750Z 21008KT 190V240 CAVOK 11/08 Q1015 =
METAR ENLK 080750Z NIL=
METAR ENMH 080750Z NIL=
METAR ENNK 080750Z 03004KT 9999 BKN060 17/10 Q1011=
METAR ENNM 080750Z 24003KT 200V280 CAVOK 18/10 Q1009=
####018000079####
SAAI41 FHAW 080750
METAR
FHAW 080750Z 12012KT 9999 BKN028 25/22 Q1015 BLU=
####018000494####
SANO33 ENMI 080750
METAR ENAT 080750Z 17007KT 140V210 9999 FEW040 SCT088 17/09 Q1014 =
METAR ENBL 080750Z 18014KT 9999 FEW030 BKN040 15/09 Q1010=
METAR ENEV 080750Z 21003KT 120V250 9999 FEW070 19/09 Q1011 =
METAR ENFL 080750Z 19017KT 9999 FEW015 SCT050 15/11 Q1010=
METAR ENKB 080750Z VRB02KT CAVOK 17/12 Q1009=
METAR ENKR 080750Z VRB02KT 9999 SCT009 BKN015 12/09 Q1017 =
METAR ENML 080750Z 03005KT 9999 FEW050 BKN060 16/12 Q1009=
METAR ENNA 080750Z 17014KT 9999 FEW040 17/09 Q1014 =
####018000558####
SANO32 ENMI 080750
METAR ENAL 080750Z 17005KT 9999 SCT055 SCT085 18/07 Q1008=
METAR ENCN 080750Z 19007KT 9999 FEW002 BKN006 16/15 Q1015=
METAR ENHD 080750Z 18011KT 9999 FEW008 16/12 Q1013=
METAR ENRO 080750Z 18005KT 9999 SCT025 BKN100 16/08 Q1011=
METAR ENRY 080750Z 20008KT 9000 SCT007 BKN012 16/15 Q1016 TEMPO 4000
           RA BR BKN006=
METAR ENSB 080750Z 30004KT 9999 FEW015 SCT035 BKN060 08/05 Q1008
           NOSIG =
METAR ENTC 080750Z 01004KT 9999 SCT070 BKN090 14/08 Q1011 NOSIG =
METAR ENTO 080750Z 21010KT 3500 RA VV006 16/15 Q1016=
####018000081####
SACY42 EGRR 080750
METAR LCRA 080750Z 20008KT 9999 FEW020 27/21 Q1008 NO SIG=
####018000386####
SANO34 ENMI 080750
METAR ENBN 080750Z 34007KT CAVOK 17/09 Q1009=
METAR ENBV 080750Z 09007KT 9999 BKN017 10/08 Q1017=
METAR ENDI 080750Z NIL=
METAR ENFG 080750Z 18005KT 9999 VCSH BKN017 13/09 Q1013=
METAR ENHF 080750Z 19010KT 160V220 9999 FEW035 SCT085 16/07 Q1013 =
METAR ENRA 080750Z 00000KT 9999 BKN070 19/12 Q1009=
METAR ENSH 080750Z 18004KT 9999 FEW040 SCT070 15/09 Q1010=
####018003714####
SAUS70 KWBC 080800
METAR
KMAF 080753Z AUTO 03004KT 10SM OVC110 22/20 A3008 RMK AO2 SLP138
     T02170200=
KMEZ 080755Z AUTO 20003KT 10SM BKN016 BKN022 26/23 A3006 RMK
     AO2=
KMKO 080753Z AUTO 00000KT 10SM SCT019 BKN055 OVC090 24/23 A3002
     RMK AO2 SLP158 T02390228=
KMLC 080753Z AUTO 13004KT 10SM BKN060 OVC080 24/23 A3002 RMK AO2
     SLP156 T02390228=
KMYR 080755Z AUTO 29008KT 10SM BKN100 BKN120 26/20 A2996 RMK
     AO1=
KOAJ 080755Z AUTO 00000KT 10SM CLR 23/22 A2992 RMK AO1=
KOCF 080755Z AUTO 00000KT 7SM CLR 21/20 A3001 RMK AO1=
KOGB 080753Z AUTO 31005KT 10SM CLR 25/19 A2998 RMK AO2 SLP150
     T02500189=
KOKC 080752Z 36004KT 10SM SCT150 24/22 A3004 RMK AO2 SLP156
     T02390222=
KORE 080752Z AUTO 00000KT 8SM FEW070 24/22 A3005 RMK AO2 SLP170
     T02390217=
KPSO 080755Z AUTO 00000KT 10SM BKN100 12/07 A3038 RMK AO2=
KPWA 080753Z 36006KT 9SM CLR 23/22 A3004 RMK AO2 SLP156
     T02330217=
KPYM 080752Z AUTO 15003KT 6SM BR SCT003 BKN006 22/19 A3007 RMK AO2
     SLP182 T02170194=
KRAP 080752Z AUTO 29005KT 10SM CLR 10/09 A3024 RMK AO2 SLP231
     T01000089=
KRBD 080753Z 16005KT 10SM OVC012 26/23 A3000 RMK AO2 SLP147
     T02560228=
KSOP 080755Z AUTO 32003KT 10SM CLR 25/17 A2996 RMK AO1=
KSSI 080753Z AUTO 24005KT 10SM CLR 23/22 A2999 RMK AO2 SLP157
     T02330217=
KTAN 080752Z AUTO 14003KT 10SM BKN027 22/21 A3004 RMK AO2 SLP172
     T02170206=
KTRL 080753Z AUTO 13003KT 10SM CLR 27/22 A3000 RMK AO2 SLP153
     T02670222=
KTRM 080752Z AUTO 34008KT 10SM CLR 26/12 A2968 RMK AO2 SLP052
     T02610122 404000211=
KTXK 080753Z AUTO 00000KT 6SM BR BKN003 23/23 A3003 RMK AO2 CIG
     001V007 SLP162 T02330233=
KTYR 080753Z AUTO 13005KT 10SM BKN006 24/24 A3002 RMK AO2 SLP156
     T02440239=
KUDG 080755Z 27004KT 10SM OVC100 27/18 A2997 RMK AO1=
KAFN 080752Z AUTO 00000KT 7SM CLR 22/21 A3008 RMK AO2 SLP180
     T02220211 $=
KAFW 080753Z 15005KT 10SM BKN021 OVC060 27/23 A2999 RMK AO2 SLP137
     T02670228=
KAIK 080755Z AUTO 00000KT 10SM CLR 23/22 A3004 RMK AO2 PNO=
KAQW 080752Z AUTO 00000KT 4SM BR CLR 19/18 A3004 RMK AO2 SLP169
     T01890183=
KARW 080755Z AUTO 25005KT 10SM CLR 24/18 A2997 RMK AO2=
KBLF 080752Z AUTO 25004KT 5SM HZ CLR 21/18 A3019 RMK AO2 SLP175
     T02110183=
KBML 080752Z AUTO 00000KT 2SM BR OVC003 19/19 A3009 RMK AO2 SLP181
     T01940189 $=
KCDS 080753Z AUTO 04004KT 10SM CLR 23/21 A3009 RMK AO2 SLP160
     T02280206=
KCEW 080753Z AUTO 00000KT 5SM BR CLR 22/22 A3003 RMK AO2 SLP166
     T02170217=
KCQX 080752Z AUTO 18003KT 1/2SM FG VV001 19/19 A3008 RMK AO2
     SLP187 T01890189=
KCRS 080753Z AUTO 13005KT 10SM OVC013 26/23 A2998 RMK AO2 SLP146
     T02560233=
KCUB 080753Z AUTO 00000KT 10SM CLR 25/19 A2999 RMK AO2 SLP152
     T02500189=
KCVG 080752Z 00000KT 7SM CLR 23/19 A3007 RMK AO2 SLP171
     T02280189=
KDEQ 080753Z AUTO 00000KT 10SM BKN008 OVC013 24/23 A3002 RMK AO2
     CIG 007V011 SLP159 T02440233=
KDTN 080753Z AUTO 10003KT 10SM CLR 24/24 A3001 RMK AO2 SLP158
     T02440239=
KELD 080753Z AUTO 00000KT 6SM BR CLR 23/23 A3002 RMK AO2 SLP162
     T02330228=
KFDW 080755Z AUTO 25004KT 10SM CLR 26/18 A3000 RMK AO1=
KFIT 080752Z AUTO 14006KT 6SM BR SCT065 24/22 A3006 RMK AO2 SLP176
     T02390217=
KFLO 080753Z AUTO 30006KT 10SM FEW095 26/19 A2994 RMK AO2 SLP136
     T02610189=
KGGG 080753Z AUTO 00000KT 10SM CLR 25/24 A3000 RMK AO2 SLP154
     T02500244=
KGKY 080753Z AUTO 16005KT 10SM CLR 25/23 A3000 RMK AO2 SLP147
     T02500228=
KGLY 080755Z AUTO 00000KT 9SM BKN006 OVC010 23/23 A3005 RMK
     AO2=
KGNV 080753Z AUTO 00000KT 9SM FEW085 19/18 A3001 RMK AO2 SLP160
     T01940183=
####018003694####
SAUS70 KWBC 080800 RRI
METAR
KVUO 080753Z AUTO 00000KT 10SM CLR 19/14 A2986 RMK AO2 SLP112
     T01890139 403560111=
KW29 080752Z AUTO 00000KT 7SM CLR 25/22 A2998 RMK AO1=
KWRL 080753Z AUTO 15008KT 10SM CLR 15/04 A3025 RMK AO2 SLP214
     T01500039=
KWST 080753Z AUTO 00000KT 10SM SCT013 BKN090 23/21 A3005 RMK AO2
     SLP174 T02280206=
KWVI 080753Z AUTO 00000KT 10SM OVC011 13/11 A2994 RMK AO2 SLP137
     T01280106 401780128=
KXNA 080753Z 19004KT 10SM FEW080 23/22 A3006 RMK AO2 RAE05 SLP164
     P0000 T02280222=
KYIP 080753Z 00000KT 5SM BR CLR 23/21 A3004 RMK AO2 SLP164
     T02280206=
KZZV 080753Z AUTO 00000KT 2 1/2SM BR SCT065 20/19 A3008 RMK AO2
     SLP177 T02000189=
KAAO 080754Z AUTO 06006KT 10SM CLR 21/20 A3008 RMK AO2 SLP173
     T02110200=
KAEG 080755Z AUTO 15012KT 10SM CLR 17/08 A3028 RMK AO1=
KAIZ 080755Z AUTO 06004KT 10SM FEW002 22/21 A3005 RMK AO1
     P0002=
KAKH 080754Z AUTO 00000KT 10SM CLR 22/18 A3000 RMK AO2 SLP151
     T02220183=
KALO 080754Z AUTO 31005KT 10SM CLR 19/19 A3004 RMK AO2 SLP167
     T01940194=
KAPC 080754Z AUTO 26013KT 10SM CLR 12/10 A2991 RMK AO2 SLP118
     T01170100 402110117=
KARG 080755Z AUTO 17005KT 10SM CLR 25/23 A3005 RMK AO1=
KAUO 080755Z AUTO 21003KT 10SM CLR 26/21 A3002 RMK AO1=
KAVL 080754Z AUTO 00000KT 10SM CLR 19/18 A3013 RMK AO2 SLP173
     T01890178=
KAWO 080755Z AUTO 00000KT 10SM CLR 16/14 A2997 RMK AO1=
KBDN 080755Z AUTO 30006KT 10SM CLR 19/03 A3009 RMK AO2=
KBOW 080755Z AUTO 00000KT 10SM CLR 22/21 A3000 RMK AO2=
KBVX 080755Z AUTO 14003KT 10SM CLR 24/22 A3006 RMK AO1=
KBWI 080754Z 10005KT 7SM FEW200 27/22 A2998 RMK AO2 SLP150
     T02670222=
KCGC 080755Z AUTO 00000KT 10SM CLR 22/21 A2999 RMK=
KCIU 080755Z AUTO 20006KT 5SM SCT045 BKN080 OVC090 19/17 A2997 RMK
     AO1 P0001=
KCOE 080755Z AUTO 04010KT 10SM CLR 17/09 A3008 RMK AO1=
KCVN 080755Z AUTO 02006KT 10SM SCT075 BKN100 17/14 A3022 RMK
     AO1=
KCVO 080755Z AUTO 28014KT 10SM CLR 16/09 A2989 RMK AO1=
KCWI 080755Z 00000KT 7SM SCT075 A3002 RMK AO1=
KDEC 080754Z AUTO 22003KT 10SM CLR 25/22 A3004 RMK AO2 SLP166
     T02500222=
KDYR 080755Z AUTO 00000KT 10SM CLR 24/20 A3006 RMK AO1=
KEHR 080755Z AUTO 24003KT 9SM BKN090 23/19 A3005 RMK AO1=
KESC 080755Z AUTO 00000KT 4SM CLR 19/17 A2996 RMK AO1=
KEUG 080754Z 21010KT 10SM CLR 16/11 A2989 RMK AO2 SLP121 T01560111
     403610100=
KEWK 080755Z AUTO 09003KT 10SM CLR 21/19 A3006 RMK AO1=
KEWN 080754Z AUTO 05007KT 7SM CLR 26/22 A2992 RMK AO2 SLP132
     T02560222=
KFAM 080755Z AUTO 00000KT 10SM CLR 22/22 A3008 RMK AO1=
KFLP 080755Z AUTO 00000KT 10SM FEW090 23/22 A3004 RMK AO1=
KFOD 080755Z AUTO 32003KT 10SM CLR 19/18 A3011 RMK AO1=
KGAD 080755Z AUTO 00000KT 10SM CLR 22/21 A3004 RMK AO1=
KGAI 080755Z 00000KT 9SM BKN090 BKN110 26/21 A3003 RMK AO1=
KGBD 080755Z AUTO 36006KT 6SM OVC013 19/18 A3015 RMK AO1=
KGCK 080754Z AUTO 05009KT 10SM BKN060 BKN080 18/17 A3020 RMK AO2
     SLP198 T01830167=
KGTR 080755Z 32003KT 10SM CLR 24/22 A3004 RMK AO1=
KHEF 080755Z AUTO 00000KT 7SM CLR 24/20 A2998 RMK AO1=
KHEZ 080755Z AUTO 00000KT 10SM CLR 23/23 A3002 RMK AO1=
PHJR 080753Z VRB04KT 10SM FEW050 24/18 A3005 RMK AO2 SLP180
     T02390183=
KSMF 080753Z 16009KT 10SM CLR 16/11 A2981 RMK AO2 SLP094 T01610106
     403220128=
KSMQ 080753Z AUTO 00000KT 4SM BR CLR 22/21 A3000 RMK AO2 SLP156
     T02170211=
KSNA 080753Z 00000KT 10SM OVC017 18/12 A2991 RMK AO2 SLP127
     T01830122 402330172=
KSNS 080753Z AUTO 29005KT 10SM OVC011 13/11 A2993 RMK AO2 SLP144
     T01330106 401720128=
KSNY 080753Z AUTO 00000KT 10SM FEW075 17/14 A3031 RMK AO2 SLP232
     T01670144=
####018003730####
SAUS70 KWBC 080800 RRA
METAR
KGOK 080753Z AUTO 00000KT 9SM BKN027 OVC047 23/22 A3004 RMK AO2
     SLP161 T02330222=
KGZH 080753Z AUTO 00000KT 8SM CLR 23/22 A3003 RMK AO2 SLP166
     T02280217=
KHBR 080753Z AUTO 11003KT 10SM FEW035 SCT046 SCT055 23/22 A3007
     RMK AO2 SLP164 T02280217=
KHZY 080752Z AUTO 00000KT 3SM BR CLR 19/18 A3008 RMK AO2 SLP179
     T01890183=
KIEN 080752Z AUTO 00000KT 10SM CLR 11/09 A3026 RMK AO2 SLP236
     T01060094=
KINK 080753Z AUTO 08007KT 10SM SCT085 23/19 A3005 RMK AO2 SLP129
     T02280189 TSNO=
PATA 080752Z AUTO 00000KT 10SM CLR 16/08 A3005 RMK AO2 SLP176
     T01610083 TSNO=
PHJR 080753Z VRB04KT 10SM FEW050 24/18 A3005 RMK AO2 SLP180
     T02390183=
TJPS 080750Z 04005KT 8SM FEW030 26/23 A2997 RMK HZ ALQDS=
KSGR 080753Z AUTO 09004KT 8SM CLR 26/24 A2991 RMK AO2 SLP135
     T02610239 TSNO=
KRTN 080753Z AUTO 01004KT 10SM CLR 14/11 A3035 RMK AO2 SLP189
     T01440106 TSNO=
K2G4 080750Z AUTO 00000KT 10SM SCT070 23/13 A3019 RMK AO1=
K2W6 080752Z AUTO 00000KT 7SM CLR 23/22 A2999 RMK AO1=
KPMV 080750Z AUTO 31005KT 7SM CLR 20/20 A3011 RMK AO2
     T02040196=
KABR 080753Z AUTO 23004KT 10SM CLR 15/14 A3012 RMK AO2 SLP195
     T01500139=
KACK 080753Z AUTO 12006KT 6SM BR BKN001 19/18 A3006 RMK AO2 SLP180
     T01890183 TSNO=
KACV 080753Z AUTO 00000KT 5SM BR OVC003 11/10 A2996 RMK AO2 SLP152
     T01060100 401330094=
KADG 080753Z AUTO 00000KT 7SM CLR 22/19 A3005 RMK AO2 SLP172
     T02170194=
KAEX 080753Z 12004KT 10SM CLR 24/23 A2998 RMK AO2 SLP155
     T02440228=
KAGC 080753Z 12003KT 4SM HZ CLR 23/19 A3008 RMK AO2 SLP178
     T02280194=
KAGS 080753Z AUTO 25007KT 10SM CLR 25/19 A2998 RMK AO2 SLP151
     T02500189 TSNO=
KAIA 080753Z AUTO 00000KT 10SM OVC085 16/14 A3028 RMK AO2 SLP228
     T01560144 $=
KAKO 080753Z AUTO 13005KT 7SM BKN004 BKN009 OVC041 14/14 A3032 RMK
     AO2 CIG 003V007 SLP231 T01440139 TSNO=
KALI 080753Z AUTO 00000KT 10SM FEW021 SCT075 OVC095 26/26 A2984
     RMK AO2 RAB23E46 SLP103 P0000 T02560256=
KALW 080753Z AUTO 11005KT 10SM CLR 18/08 A2996 RMK AO2 SLP139
     T01780083 403500128=
KAMA 080753Z 04006KT 1SM -RA BR SCT055 BKN070 OVC090 17/16 A3018
     RMK AO2 SFC VIS 5 SLP171 P0028 T01670161 $=
KAMW 080753Z AUTO 35007KT 10SM FEW021 21/19 A3007 RMK AO2 SLP175
     T02110194=
KANB 080753Z AUTO 00000KT 10SM CLR 22/21 A3004 RMK AO2 SLP161
     T02220206=
KAOH 080753Z AUTO 00000KT 8SM 23/19 A3007 RMK AO2 SLP173 T02280194
     $=
KAOO 080753Z AUTO 00000KT 4SM BR CLR 18/16 A3010 RMK AO2 SLP180
     T01830161=
KAPA 080753Z 00000KT 9SM FEW010 OVC020 14/13 A3035 RMK AO2 SLP229
     T01440128 $=
KAPF 080753Z AUTO 04005KT 10SM CLR 25/22 A2995 RMK AO2 SLP140
     T02500222=
KARA 080753Z AUTO 07003KT 10SM CLR 24/24 A3000 RMK AO2 SLP157
     T02440239=
KARB 080753Z AUTO 00000KT 5SM BR CLR 20/19 A3003 RMK AO2 SLP163
     T02000189=
KASD 080753Z AUTO 00000KT 10SM FEW001 24/23 A3000 RMK AO2 SLP160
     T02440228=
KASE 080753Z 19003KT 10SM BKN100 09/06 A3040 RMK AO2 LTG DSNT W
     SLP184 T00890056=
KASX 080753Z AUTO 00000KT 10SM FEW075 SCT090 BKN120 17/16 A3001
     RMK AO2 SLP161 T01720156=
KATY 080753Z AUTO 22005KT 10SM CLR 14/13 A3014 RMK AO2 SLP203
     T01440128=
KAUG 080753Z AUTO 19004KT 6SM BR SCT005 OVC041 21/19 A3007 RMK AO2
     SLP181 T02060194=
KAUS 080753Z 05004KT 10SM BKN014 OVC019 26/23 A2995 RMK AO2 SLP128
     T02610233=
KAWM 080753Z AUTO 00000KT 10SM CLR 24/22 A3004 RMK AO2 SLP168
     T02390222=
KAXN 080753Z AUTO 21004KT 10SM CLR 16/14 A3011 RMK AO2 SLP196
     T01560144=
KAZO 080753Z AUTO 00000KT 5SM BR SCT055 23/21 A3005 RMK AO2 SLP167
     T02280206 $=
####018000618####
SANO31 ENMI 080750
METAR ENAN 080750Z 15009KT 9999 FEW045 17/10 Q1010 NOSIG =
METAR ENBR 080750Z 17012KT 9999 FEW015 SCT060 BKN080 16/12 Q1012
           NOSIG =
METAR ENBO 080750Z 03005KT 340V060 9999 FEW050 SCT100 17/09 Q1010
           NOSIG=
METAR ENDU 080750Z 07003KT 010V130 9999 FEW050 SCT080 17/09 Q1011
           NOSIG=
METAR ENGM 080740Z 20008KT 9999 FEW009 SCT012 BKN019 16/14 Q1015
           TEMPO BKN012=
METAR ENOL 080750Z 11008KT 9999 FEW025 BKN090 16/12 Q1008 NOSIG=
METAR ENVA 080750Z 32003KT 260V360 CAVOK 18/11 Q1009 NOSIG =
METAR ENZV 080750Z 20009KT 9999 FEW015 18/12 Q1013 NOSIG=
####018003703####
SAUS70 KWBC 080800 RRB
METAR
KBAF 080753Z 18003KT 9SM OVC085 24/21 A3003 RMK AO2 SLP164
     T02390211=
KBBW 080753Z AUTO 00000KT 10SM OVC080 17/15 A3021 RMK AO2 SLP217
     T01670150=
KBCE 080753Z AUTO 34005KT 10SM BKN110 11/02 A3031 RMK AO2 SLP154
     T01110022 TSNO=
KBDE 080753Z AUTO 00000KT 10SM FEW110 16/13 A2998 RMK AO2 SLP153
     T01610128=
KBEH 080753Z AUTO 00000KT 5SM BR OVC060 23/22 A3003 RMK AO2 SLP164
     T02330222 $=
KBFD 080753Z AUTO 00000KT 4SM BR CLR 17/16 A3014 RMK AO2 SLP189
     T01670156=
KBFI 080753Z 00000KT 10SM CLR 23/12 A2993 RMK AO2 SLP136 T02280117
     403110167=
KBFM 080753Z AUTO 33004KT 10SM CLR 24/23 A3002 RMK AO2 SLP166
     T02440233=
KBGM 080753Z AUTO 00000KT 5SM HZ CLR 22/18 A3011 RMK AO2 SLP182
     T02170183=
KBGR 080753Z 18008KT 3SM -RA BR OVC003 20/19 A3007 RMK AO2 RAB21
     SLP178 P0004 T02000194=
KBHK 080753Z AUTO 00000KT 10SM FEW090 10/08 A3021 RMK AO2 SLP220
     T01000078=
KBHM 080753Z 00000KT 9SM CLR 24/22 A3006 RMK AO2 SLP168
     T02440217=
KBIV 080753Z AUTO 00000KT 5SM -RA BR BKN001 BKN021 OVC085 24/22
     A3003 RMK AO2 RAB03 SLP164 P0008 T02440222=
KBKE 080753Z AUTO 00000KT 10SM CLR 08/06 A3010 RMK AO2 SLP175
     T00830061 402890028=
KBKL 080753Z 15007KT 8SM CLR 26/19 A3004 RMK AO2 SLP168
     T02560189=
KBLI 080753Z AUTO 00000KT 10SM CLR 17/14 A2995 RMK AO2 SLP147
     T01670139 402890100=
KBMG 080753Z AUTO 00000KT 5SM BR CLR 22/21 A3005 RMK AO2 SLP167
     T02170211=
KBMQ 080753Z AUTO 08004KT 10SM SCT013 OVC033 24/22 A3001 RMK AO2
     SLP140 T02440222 $=
KBNA 080753Z 00000KT 10SM FEW100 26/21 A3007 RMK AO2 SLP173
     T02560211=
KBOI 080753Z 20003KT 10SM CLR 19/07 A3003 RMK AO2 SLP141
     T01890067=
KBPI 080753Z AUTO 19004KT 10SM CLR 11/02 A3037 RMK AO2 SLP206
     T01060017=
KBPK 080753Z AUTO 00000KT 9SM CLR 23/22 A3004 RMK AO2 SLP161
     T02280217=
KBPT 080753Z 09009KT 10SM FEW035 27/24 A2994 RMK AO2 SLP138
     T02670244 $=
KBRD 080753Z AUTO 19003KT 6SM BR CLR 14/12 A3008 RMK AO2 SLP183
     T01440122=
KBRL 080753Z AUTO 1SM BR BKN001 BKN065 23/22 A3002 RMK AO2 SLP159
     T02330222 $=
KBRO 080753Z 33003KT 10SM CLR 27/25 A2979 RMK AO2 SLP085
     T02670250=
KBTL 080753Z AUTO 16004KT 10SM CLR 23/20 A3005 RMK AO2 SLP166
     T02330200=
KBTM 080753Z AUTO 14006KT 10SM CLR 08/01 A3030 RMK AO2 SLP224
     T00830011=
KBUR 080753Z 15005KT 9SM OVC011 16/13 A2991 RMK AO2 SLP118
     T01560128 402330144=
KBVO 080753Z AUTO 00000KT 10SM FEW070 BKN100 23/22 A3003 RMK AO2
     SLP159 T02280217=
KBVY 080753Z 15006KT 6SM BR OVC009 23/21 A3004 RMK AO2 SLP167
     T02280211 PNO=
KBWG 080753Z AUTO 00000KT 9SM CLR 24/21 A3006 RMK AO2 SLP173
     T02390211=
KBYG 080753Z AUTO 25006KT 10SM CLR 11/04 A3031 RMK AO2 SLP233
     T01060044=
KBYI 080753Z AUTO 00000KT 10SM CLR 09/04 A3011 RMK AO2 SLP162
     T00940039=
KCAG 080753Z AUTO 00000KT 10SM CLR 12/07 A3031 RMK AO2 SLP197
     T01220067=
KCCR 080753Z AUTO 25005KT 10SM CLR 13/10 A2991 RMK AO2 SLP113
     T01330100 402500133=
KCDC 080753Z AUTO 33003KT 10SM CLR 13/03 A3013 RMK AO2 SLP125
     T01330033 $=
KCDW 080753Z AUTO 00000KT 6SM HZ CLR 24/21 A3002 RMK AO2 SLP168
     T02440211 TSNO=
KCEZ 080753Z AUTO 28003KT 10SM CLR 19/06 A3021 RMK AO2 PK WND
     15027/0703 SLP135 T01940056=
KCGI 080753Z AUTO 00000KT 10SM CLR 25/24 A3003 RMK AO2 SLP165
     T02500239 TSNO=
KCGS 080755Z AUTO 00000KT 7SM CLR 27/23 A2998 RMK AO1=
KCHO 080753Z AUTO 00000KT 4SM HZ CLR 23/20 A3001 RMK AO2 SLP153
     T02280200 TSNO=
KCKB 080753Z AUTO 00000KT 3SM BR CLR 20/19 A3009 RMK AO2 SLP173
     T02000189=
####018000378####
SANO35 ENMI 080750
METAR ENMS 080750Z VRB02KT 9999 FEW060 20/10 Q1009 =
METAR ENRM 080750Z 01007KT 330V050 CAVOK 17/09 Q1010=
METAR ENRS 080750Z NIL=
METAR ENSK 080750Z 16002KT CAVOK 17/09 Q1010=
METAR ENSO 080750Z 15012KT 9999 FEW015 SCT070 17/12 Q1012=
METAR ENST 080750Z 32004KT 260V030 CAVOK 16/11 Q1010=
METAR ENVD 080750Z 16004KT 130V190 9999 BKN022 11/08 Q1017=
####018003690####
SAUS80 KWBC 080800 RRA
METAR
KHLC 080753Z AUTO 01007KT 10SM OVC022 17/16 A3019 RMK AO2 SLP208
     T01720156=
KHSI 080753Z AUTO 35005KT 10SM CLR 16/15 A3018 RMK AO2 SLP210
     T01610150=
KHSV 080753Z 00000KT 10SM CLR 24/23 A3005 RMK AO2 SLP168
     T02390233=
KHVR 080753Z AUTO 00000KT 10SM CLR 12/09 A3018 RMK AO2 SLP214
     T01220089=
KGCC 080753Z AUTO 00000KT 10SM CLR 09/06 A3028 RMK AO2 SLP227
     T00940061=
KGEG 080753Z 02005KT 10SM CLR 19/09 A3006 RMK AO2 SLP160 T01890089
     402890122=
KGRR 080753Z AUTO 26011KT 1 3/4SM +RA SCT014 BKN038 OVC060 24/22
     A3006 RMK AO2 RAB39 SLP172 P0011 T02440217=
KMLU 080753Z AUTO 10003KT 10SM CLR 26/23 A3002 RMK AO2 SLP165
     T02560233=
KJBR 080753Z AUTO 25003KT 10SM CLR 26/23 A3005 RMK AO2 SLP170
     T02560228 $=
KJLN 080753Z 00000KT 9SM BKN028 BKN120 23/22 A3004 RMK AO2
     RAB04E19 SLP162 P0000 T02280222=
KLAN 080753Z 00000KT 7SM CLR 24/22 A3004 RMK AO2 SLP163 T02390217
     $=
KLBB 080753Z 32003KT 10SM SCT006 SCT070 BKN110 OVC130 21/19 A3013
     RMK AO2 RAB08E52 SLP158 P0000 T02060189=
KLIT 080753Z 00000KT 7SM FEW150 24/23 A3005 RMK AO2 SLP176
     T02440228=
KLWD 080753Z AUTO 00000KT 9SM CLR 21/20 A3007 RMK AO2 SLP173
     T02060200=
KODX 080753Z AUTO 32004KT 10SM FEW080 16/14 A3019 RMK AO2 SLP218
     T01560144=
KORF 080751Z 00000KT 4SM BR CLR 26/24 A2995 RMK AO2 SLP142
     T02560244=
KEMP 080753Z AUTO 08004KT 9SM BKN060 OVC070 22/20 A3008 RMK AO2
     SLP175 T02170200=
KESN 080757Z AUTO 00000KT 5SM BR CLR 23/23 A3002 RMK AO2=
KFAT 080753Z 32009KT 10SM CLR 24/09 A2982 RMK AO2 SLP093 T02390089
     403500172=
KFMN 080753Z AUTO 07009KT 10SM CLR 21/06 A3019 RMK AO2 SLP149
     T02060056=
KFNB 080753Z AUTO 00000KT 7SM CLR 22/21 A3006 RMK AO2 SLP172
     T02220206=
KFNT 080753Z AUTO 00000KT 8SM CLR 23/21 A3003 RMK AO2 SLP162
     T02280211=
KCUT 080753Z AUTO 31005KT 10SM CLR 08/07 A3034 RMK AO2 SLP240
     T00830067 TSNO=
KTCS 080753Z AUTO 00000KT 10SM -RA FEW080 BKN110 19/16 A3020 RMK
     AO2 RAB12E30B49 SLP138 P0000 T01940156 TSNO=
KGNT 080753Z AUTO 16017KT 18/08 A3028 RMK AO2 SLP150 T01830078
     PWINO TSNO=
KELY 080753Z AUTO 17004KT 10SM CLR 09/M05 A3019 RMK AO2 SLP130
     T00941050 403000061 $=
KJAN 080754Z 00000KT 10SM CLR 24/22 A3004 RMK AO2 SLP166 T02390222
     $=
KTUS 080753Z 07004KT 10SM CLR 32/07 A2988 RMK AO2 SLP058
     T03220072=
KYKM 080753Z AUTO 26009KT 10SM CLR 18/06 A3000 RMK AO2 SLP151
     T01830056 403330094=
KAAF 080753Z AUTO 01004KT 10SM CLR 23/22 A3000 RMK AO2 SLP158
     T02330222=
KEAR 080755Z AUTO 34004KT 10SM CLR 16/14 A3022 RMK AO1=
PHTO 080753Z 09003KT 10SM OVC065 23/17 A3005 RMK AO2 SLP174
     T02330172=
PHKO 080753Z 17004KT 10SM CLR 24/18 A2999 RMK AO2 SLP155
     T02390178=
PHLI 080753Z AUTO 07012KT 10SM SCT023 OVC038 A3006 RMK AO2 SLPNO
     FZRANO TSNO $=
KSOW 080750Z AUTO 21005KT 10SM BKN100 21/04 A3023 RMK AO2=
KSTC 080753Z AUTO 00000KT 3/4SM BR CLR 14/13 A3008 RMK AO2 VIS
     1/2V2 1/2 SLP191 T01390128=
KPDX 080753Z 00000KT 10SM CLR 21/14 A2987 RMK AO2 SLP114 T02110144
     403500139=
KPGA 080753Z AUTO 00000KT 10SM FEW120 28/M01 A3002 RMK AO2 SLP088
     T02781006=
KPOF 080753Z AUTO 21003KT 7SM CLR 24/23 A3004 RMK AO2 SLP165
     T02440233 $=
KRIW 080753Z AUTO 36005KT 10SM CLR 09/03 A3032 RMK AO2 SLP227
     T00890028=
KRMG 080753Z AUTO 00000KT 10SM CLR 22/19 A3003 RMK AO2 SLP159
     T02170189=
KSAN 080751Z 30004KT 10SM OVC013 17/13 A2992 RMK AO2 SLP132
     T01720133 401890150=
KSAT 080753Z 08008KT 10SM BKN016 BKN250 26/23 A2994 RMK AO2 SLP120
     T02560228=
####018000087####
SAVN22 SVMI 080800
METAR SVMI 080800Z 07001KT 9000 -TSDZ FEW013 BKN016 25/24 Q1013=
####018003697####
SAUS70 KWBC 080800 RRG
METAR
KLWV 080753Z AUTO 21003KT 5SM HZ CLR 25/22 A3003 RMK AO2 SLP164
     T02500222=
KLXN 080750Z AUTO 31004KT 10SM SCT045 BKN075 16/15 A3022 RMK AO2
     T01560150=
KLXT 080753Z AUTO 30004KT 7SM FEW065 BKN090 OVC110 23/22 A3007 RMK
     AO2 SLP175 T02280217=
KMAE 080753Z AUTO 31007KT 10SM CLR 21/11 A2982 RMK AO2 SLP095
     T02060111 403390139=
KMAI 080753Z AUTO 00000KT 9SM CLR 23/22 A3001 RMK AO2 SLP160
     T02330217=
KMBS 080753Z 24004KT 10SM CLR 24/22 A3002 RMK AO2 SLP158
     T02390222=
KMCB 080753Z AUTO 00000KT 9SM CLR 23/22 A3003 RMK AO2 SLP164
     T02330222=
KMCE 080753Z AUTO 31005KT 10SM CLR 19/10 A2982 RMK AO2 SLP097
     T01940100 403330139=
KMCI 080753Z 36003KT 9SM FEW041 23/22 A3007 RMK AO2 SLP172
     T02280217 $=
KMCK 080753Z AUTO 32005KT 10SM BKN120 16/16 A3024 RMK AO2 SLP225
     T01610156=
KMCO 080753Z 01003KT 10SM FEW120 22/20 A2999 RMK AO2 SLP153
     T02220200=
KMCW 080753Z AUTO 32007KT 10SM CLR 18/18 A3011 RMK AO2 SLP183
     T01830178 $=
KMVY 080753Z AUTO 14005KT 1/4SM R24/2000V2800FT FG VV001 21/20
     A3006 RMK AO2 SLP179 T02110200=
KMWL 080753Z AUTO 13005KT 10SM CLR 23/21 A2998 RMK AO2 SLP139
     T02280211=
KMYF 080753Z AUTO 34005KT 10SM OVC015 17/14 A2991 RMK AO2 SLP126
     T01670139 401890144 TSNO=
KMYV 080753Z AUTO 16010KT 10SM CLR 19/11 A2981 RMK AO2 SLP097
     T01890111 403390133=
KNEW 080753Z AUTO 10006KT 10SM CLR 27/25 A3000 RMK AO2 SLP151
     T02720250 TSNO=
KOAK 080753Z 28012KT 10SM BKN009 OVC017 14/11 A2995 RMK AO2 CIG
     007V013 SLP139 T01440106 402060144=
KOGA 080750Z AUTO 00000KT 10SM BKN070 16/15 A3027 RMK AO2
     T01610150=
KOGD 080753Z 17009KT 10SM CLR 19/07 A3008 RMK AO2 SLP128
     T01940067=
KOJC 080753Z AUTO 33003KT 10SM BKN014 OVC085 23/22 A3007 RMK AO2
     SLP170 T02330217=
KOLF 080753Z AUTO 00000KT 10SM BKN085 13/09 A3014 RMK AO2 SLP202
     T01280094=
KOMK 080753Z AUTO 30003KT 10SM CLR 17/08 A3004 RMK AO2 SLP165
     T01670078 403170100=
KONL 080750Z AUTO 26004KT 10SM OVC110 16/14 A3021 RMK AO2
     T01580142=
KONO 080753Z AUTO 27004KT 10SM CLR 14/07 A3002 RMK AO2 SLP155
     T01440072=
KONT 080753Z 25003KT 6SM BR OVC012 15/13 A2991 RMK AO2 SLP120
     T01500128 402610150=
KOPF 080753Z AUTO 04004KT 10SM CLR 27/24 A2993 RMK AO2 SLP135
     T02670244=
KORL 080753Z AUTO 00000KT 10SM CLR 23/21 A2999 RMK AO2 SLP157
     T02330211=
KOSH 080753Z AUTO 15006KT 6SM BR FEW050 22/21 A2996 RMK AO2 RAE50
     SLP130 P0002 T02170206=
KOSU 080753Z AUTO 00000KT 6SM HZ CLR 22/19 A3008 RMK AO2 SLP177
     T02220189=
KOTM 080753Z AUTO 00000KT 4SM BR CLR 21/21 A3004 RMK AO2 SLP165
     T02060206=
KOVE 080753Z AUTO 16003KT 10SM CLR 22/14 A2982 RMK AO2 SLP098
     T02220139 403330156 TSNO=
KOVS 080753Z AUTO 00000KT 10SM BKN008 BKN018 21/20 A3001 RMK AO2
     SLP158 T02110200=
KOWD 080753Z AUTO 16005KT 10SM BKN013 OVC018 23/19 A3005 RMK AO2
     SLP176 T02330189=
KOXB 080753Z AUTO 08003KT 7SM BKN095 24/24 A2999 RMK AO2 SLP155
     T02440244 $=
KPAE 080753Z AUTO 00000KT 10SM CLR 21/11 A2997 RMK AO2 SLP144
     T02060111 402830144=
KPAH 080753Z AUTO 00000KT 10SM CLR 23/22 A3003 RMK AO2 SLP166
     T02280217=
KPBF 080753Z AUTO 00000KT 8SM CLR 24/22 A3005 RMK AO2 SLP171
     T02390222=
KPBG 080753Z AUTO 00000KT 7SM CLR 23/21 A2999 RMK AO2 SLP153
     T02280211=
KPBI 080753Z 05006KT 10SM FEW022 SCT032 SCT250 27/23 A2992 RMK AO2
     SLP131 T02720233=
KPDK 080753Z AUTO 00000KT 10SM CLR 23/19 A3005 RMK AO2 SLP152
     T02330189=
KELM 080753Z AUTO 00000KT 4SM BR CLR 18/17 A3008 RMK AO2 SLP179
     T01780167=
####018003731####
SAUS70 KWBC 080800 RRF
METAR
KICR 080753Z AUTO 25004KT 10SM CLR 18/13 A3020 RMK AO2 SLP215
     T01780128 TSNO=
KICT 080753Z 07004KT 10SM SCT070 BKN200 22/21 A3008 RMK AO2 SLP172
     T02220206 $=
KIDA 080753Z AUTO 01007KT 10SM CLR 09/06 A3017 RMK AO2 SLP184
     T00940061=
KILM 080753Z AUTO 00000KT 10SM CLR 25/21 A2990 RMK AO2 SLP125
     T02500211=
KIML 080753Z AUTO 00000KT 10SM BKN060 17/14 A3026 RMK AO2 SLP228
     T01670144=
KIPL 080753Z AUTO 35004KT 10SM CLR 29/09 A2967 RMK AO2 SLP049
     T02890089 404060211=
KITR 080753Z AUTO 00000KT 10SM OVC010 17/15 A3030 RMK AO2 CIG
     007V013 SLP219 T01670150=
KIWI 080753Z AUTO 00000KT 8SM BKN005 OVC012 21/19 A3008 RMK AO2
     SLP186 T02060194=
KIXD 080753Z AUTO 32007KT 5SM BR OVC002 23/21 A3008 RMK AO2 LTG
     DSNT N SLP175 T02280211=
KJCT 080751Z AUTO 00000KT 8SM CLR 22/21 A3000 RMK AO2 SLP121
     T02220211 TSNO=
KJEF 080753Z AUTO 00000KT 10SM -RA FEW055 24/23 A3003 RMK AO2
     RAB0654 SLP153 P0019 T02390228=
KJER 080753Z AUTO 03011KT 10SM CLR 14/M02 A3011 RMK AO2 SLP159
     T01441017=
KJKL 080753Z AUTO 00000KT 5SM HZ CLR 24/19 A3010 RMK AO2 SLP175
     T02390194=
KJYR 080750Z AUTO 35004KT 10SM CLR 17/16 A3015 RMK AO2=
KLAA 080753Z AUTO 06004KT 10SM SCT028 BKN033 OVC110 18/16 A3025
     RMK AO2 LTG DSNT NE AND E RAE20 SLP205 P0001 T01780161=
KLAR 080753Z AUTO 19006KT 10SM FEW014 09/08 A3037 RMK AO2 SLP213
     T00890083=
KLAW 080753Z AUTO 03006KT 10SM CLR 23/22 A3003 RMK AO2 SLP154
     T02330222=
KLBF 080753Z AUTO 00000KT 10SM OVC075 17/16 A3024 RMK AO2 SLP223
     T01670156=
KLCG 080750Z AUTO 00000KT 10SM CLR 16/15 A3016 RMK AO2
     T01590152=
KLBX 080753Z AUTO 11006KT 10SM -RA FEW024 SCT031 BKN043 27/25
     A2989 RMK AO2 RAB22 SLP121 P0001 T02720250=
KLCH 080753Z AUTO 08007KT 9SM CLR 26/23 A2996 RMK AO2 SLP154
     T02560233=
KLEB 080753Z AUTO 00000KT 2SM BR CLR 22/20 A3004 RMK AO2 VIS 1V4
     SLP158 T02170200=
KLEE 080753Z AUTO 00000KT 10SM CLR 23/21 A3000 RMK AO2 SLP159
     T02280211=
KLFK 080753Z AUTO 11005KT 10SM CLR 24/23 A2999 RMK AO2 SLP150
     T02440228=
KLFT 080753Z AUTO 00000KT 10SM CLR 25/23 A2999 RMK AO2 SLP156
     T02500233=
KLGB 080753Z 30004KT 10SM OVC017 17/13 A2991 RMK AO2 SLP128
     T01720128 402280161=
KLHM 080751Z AUTO 15012KT 10SM CLR 19/12 A2981 RMK AO1 T01940115
     403490133=
KLHQ 080753Z AUTO 00000KT 2SM BR CLR 19/19 A3008 RMK AO2 SLP179
     T01890189=
KLHX 080753Z AUTO 35009KT 7SM RA BKN033 OVC070 16/14 A3031 RMK AO2
     SLP219 T01560144 PNO $=
KLLQ 080753Z AUTO 00000KT 7SM CLR 23/22 A3006 RMK AO2 SLP174
     T02280222=
KLMT 080753Z AUTO 18007KT 10SM FEW090 19/11 A3002 RMK AO2 SLP116
     T01890111 403110089=
KLNS 080753Z AUTO 08004KT 4SM HZ CLR 24/21 A3001 RMK AO2 SLP156
     T02390211=
KLOL 080753Z AUTO 07009KT 10SM CLR 22/M07 A2997 RMK AO2 SLP099
     T02221072 403610172=
KLOU 080753Z AUTO 00000KT 7SM CLR 26/21 A3006 RMK AO2 SLP171
     T02560211=
KLOZ 080753Z AUTO 00000KT 3SM BR CLR 21/19 A3010 RMK AO2 SLP176
     T02060194=
KLPR 080753Z AUTO 00000KT 7SM SCT060 23/19 A3007 RMK AO2 SLP175
     T02330194=
KLSE 080753Z AUTO 00000KT 10SM CLR 22/19 A3000 RMK AO2 SLP150
     T02170194=
KLUK 080753Z AUTO 00000KT 2SM R21L/5000VP6000FT BR CLR 22/21 A3007
     RMK AO2 SLP177 T02170211=
KLVJ 080753Z AUTO 10004KT 10SM CLR 28/23 A2992 RMK AO2 SLP132
     T02780233=
KLVK 080753Z AUTO 31008KT 10SM CLR 13/11 A2990 RMK AO2 SLP123
     T01280106 402720122=
KLVM 080753Z AUTO 27003KT 10SM CLR 08/03 A3028 RMK AO2 SLP229
     T00780033=
KLVS 080753Z AUTO 03005KT 10SM SCT110 12/08 A3036 RMK AO2 SLP182
     T01170083 TSNO=
####018003728####
SAUS70 KWBC 080800 RRE
METAR
KGLR 080753Z AUTO 20005KT 10SM FEW110 22/21 A3001 RMK AO2 SLP156
     T02220206=
KGMU 080753Z AUTO 30004KT 10SM CLR 27/19 A3003 RMK AO2 SLP156
     T02670194=
KGPT 080753Z 00000KT 7SM CLR 26/24 A3000 RMK AO2 SLP156
     T02610239=
KGRB 080753Z AUTO 17004KT 10SM CLR 21/19 A2996 RMK AO2 RAE06B24E50
     SLP142 P0001 T02110194=
KGRI 080753Z AUTO 34005KT 10SM CLR 16/14 A3019 RMK AO2 SLP213
     T01610139=
KGSH 080753Z AUTO 00000KT 6SM BR CLR 22/20 A3005 RMK AO2 SLP169
     T02220200=
KGSP 080753Z AUTO 28005KT 10SM CLR 24/19 A3001 RMK AO2 SLP147
     T02390189=
KGTF 080753Z 20007KT 10SM CLR 10/06 A3023 RMK AO2 SLP223 T01000061
     $=
KGUP 080753Z AUTO 04005KT 10SM FEW120 20/07 A3024 RMK AO2 SLP046
     T02000067=
KGUY 080753Z AUTO 06007KT 10SM FEW060 SCT120 20/17 A3018 RMK AO2
     LTG DSNT SW SLP178 T02000167=
KMEM 080753Z 26003KT 10SM SCT250 26/22 A3006 RMK AO2 SLP172
     T02610222=
KMFR 080753Z AUTO 00000KT 10SM CLR 26/12 A2987 RMK AO2 SLP100
     T02560122 403830144=
KMGW 080753Z AUTO 00000KT 4SM HZ CLR 21/18 A3010 RMK AO2 SLP180
     T02110183=
KMGY 080753Z AUTO 00000KT 7SM CLR 24/19 A3007 RMK AO2 SLP173
     T02390194=
KMHE 080753Z AUTO 25004KT 10SM CLR 18/14 A3016 RMK AO2 SLP209
     T01830144 TSNO=
KMHT 080753Z 17004KT 6SM HZ OVC060 24/22 A3002 RMK AO2 RAE05
     SLP174 P0000 T02440217=
KMIA 080753Z 00000KT 10SM FEW030 SCT250 27/24 A2992 RMK AO2 SLP133
     T02720244=
KMIC 080753Z 32004KT 10SM CLR 19/17 A3006 RMK AO2 SLP175
     T01890167=
KMIE 080753Z AUTO 19003KT 10SM CLR 24/19 A3007 RMK AO2 SLP168
     T02390194=
KMIW 080753Z AUTO 34007KT 10SM CLR 20/19 A3005 RMK AO2 SLP168
     T02000189=
KMKL 080753Z AUTO 00000KT 10SM CLR 23/21 A3006 RMK AO2 SLP173
     T02280211=
KMLB 080753Z AUTO 00000KT 10SM CLR 22/21 A2997 RMK AO2 SLP148
     T02220206=
KMLE 080750Z AUTO 35005KT 10SM SCT020 21/17 A3011 RMK AO2
     T02050170=
KMLP 080753Z AUTO 11008KT 10SM CLR 14/00 A3027 RMK AO2 SLP159
     T01440000 402110100 TSNO=
KMLS 080753Z AUTO 30004KT 10SM SCT095 14/09 A3019 RMK AO2 SLP212
     T01440094=
KMLT 080753Z AUTO 00000KT 6SM BR CLR 21/18 A3005 RMK AO2 SLP177
     T02060183=
KMMH 080750Z AUTO 29004KT 10SM CLR 13/03 A3021 RMK AO1=
KMMK 080753Z AUTO 00000KT 2 1/2SM BR BKN100 23/22 A3003 RMK AO2
     SLP166 T02280217=
KMMV 080753Z AUTO 29003KT 10SM CLR 21/12 A2986 RMK AO2 SLP111
     T02060117 403500167=
KMNN 080753Z AUTO 00000KT 8SM FEW060 21/19 A3008 RMK AO2 SLP178
     T02060189=
KMOD 080753Z AUTO 36004KT 10SM CLR 19/10 A2983 RMK AO2 SLP102
     T01890100 403280133=
KMPO 080753Z AUTO 34005KT 7SM FEW085 19/17 A3010 RMK AO2 SLP176
     T01940172=
KMRB 080753Z AUTO 00000KT 5SM HZ FEW085 23/18 A3002 RMK AO2 SLP160
     T02330183=
KMSL 080753Z AUTO 00000KT 10SM CLR 24/22 A3007 RMK AO2 SLP174
     T02390222=
KMSO 080753Z AUTO 32004KT 10SM CLR 13/06 A3018 RMK AO2 SLP205
     T01280056 $=
KMSP 080753Z 31008KT 10SM FEW090 19/17 A3007 RMK AO2 SLP179
     T01940167=
KMSS 080753Z AUTO 23003KT 7SM CLR 23/21 A3000 RMK AO2 SLP156
     T02330206=
KMSY 080753Z 00000KT 10SM FEW025 SCT250 27/23 A2999 RMK AO2 SLP158
     T02670233=
KMTH 080753Z AUTO 04004KT 10SM FEW019 27/24 A2991 RMK AO2 SLP128
     T02720244=
KMTJ 080753Z AUTO 17006KT 10SM SCT110 17/06 A3026 RMK AO2 SLP165
     T01720056=
KMTN 080754Z AUTO 00000KT 7SM CLR 26/24 A2999 RMK AO2=
KMTO 080753Z AUTO 21003KT 8SM CLR 24/23 A3003 RMK AO2 SLP163
     T02440233=
KIAH 080753Z 08008KT 10SM FEW020 SCT130 BKN250 25/24 A2993 RMK AO2
     SLP134 T02500244=
KIBM 080750Z AUTO 00000KT 10SM OVC018 12/11 A3031 RMK AO2
     T01210111=
####018003724####
SAUS70 KWBC 080800 RRL
METAR
KUIN 080754Z AUTO 21005KT 4SM +RA BR FEW014 BKN020 OVC046 23/22
     A3004 RMK AO2 RAB48 SLP165 P0004 T02280222=
KUTA 080755Z AUTO 00000KT 10SM CLR 23/22 A3006 RMK AO2=
KUZA 080754Z AUTO 00000KT 10SM CLR 22/18 A3000 RMK AO2 SLP143
     T02220178=
KVBT 080755Z AUTO 00000KT 10SM SCT085 23/22 A3003 RMK AO1
     P0001=
KWLD 080754Z AUTO 03004KT 10SM FEW047 BKN075 23/21 A3007 RMK AO2
     RAB0656E22 SLP170 P0001 T02280211=
KX40 080755Z AUTO 00000KT 7SM CLR 23/22 A3001 RMK AO2
     T02270220=
KHNB 080755Z AUTO 00000KT 10SM SCT070 23/21 A3005 RMK AO1=
KHWD 080754Z AUTO 33006KT 10SM OVC011 14/11 A2993 RMK AO2 SLP144
     T01390106 402220139=
KHYS 080755Z AUTO 35007KT 10SM SCT014 18/17 A3017 RMK AO1=
KINT 080754Z AUTO 34003KT 10SM FEW090 24/17 A3002 RMK AO2 SLP151
     T02440172=
KIWD 080755Z AUTO 00000KT 10SM FEW070 BKN100 17/16 A3000 RMK
     AO1=
KKLS 080755Z AUTO 00000KT 10SM CLR 17/14 A2989 RMK AO1=
KL35 080753Z AUTO 00000KT 10SM CLR 07/M06 A3018 RMK AO2=
KLAF 080754Z AUTO 00000KT 9SM CLR 23/21 A3003 RMK AO2 SLP163
     T02330211 TSNO=
KLBL 080755Z 06010KT 10SM FEW033 20/17 A3020 RMK AO1=
KLBT 080754Z AUTO 31004KT 10SM SCT100 27/19 A2993 RMK AO2 SLP131
     T02670189=
KLGD 080755Z AUTO 34003KT 10SM CLR 14/06 A3004 RMK AO1=
KLKV 080755Z AUTO 34007KT 10SM CLR 11/02 A3012 RMK AO1=
KLUX 080755Z AUTO 28004KT 10SM CLR 22/22 A3002 RMK AO2=
KMBL 080755Z AUTO 00000KT 10SM OVC110 21/19 A3001 RMK AO1=
KMER 080755Z AUTO 33005KT 10SM CLR 18/10 A2983 RMK AO1=
KMFE 080753Z AUTO 01006KT 10SM CLR 26/24 A2981 RMK AO2 SLP091
     T02610244=
KMKC 080754Z AUTO VRB04KT 10SM SCT011 BKN044 OVC050 23/21 A3006
     RMK AO2 LTG DSNT NW SLP172 T02330211=
KMNI 080755Z AUTO 00000KT 10SM CLR 21/21 A2996 RMK AO2=
KMNM 080755Z AUTO 00000KT 7SM BKN120 21/19 A2997 RMK AO1 P0001=
KMRF 080755Z AUTO 04006KT 10SM FEW120 17/14 A3016 RMK AO1=
KMRY 080754Z AUTO 31004KT 10SM OVC010 14/10 A2994 RMK AO2 SLP150
     T01390100 401830128=
KMTW 080755Z 21004KT 10SM OVC090 22/20 A2999 RMK AO1=
KMVN 080755Z AUTO 00000KT 1 3/4SM CLR 22/21 A3005 RMK AO1=
KODO 080753Z AUTO 02005KT 10SM OVC100 22/20 A3010 RMK AO2 RAE16
     SLP144 P0001 T02170200=
KOFP 080754Z AUTO 00000KT 6SM HZ CLR 24/19 A2999 RMK AO2 SLP153
     T02440194=
KOLM 080754Z AUTO 00000KT 10SM CLR 16/12 A2993 RMK AO2 SLP135
     T01560117 403280089=
KOLS 080754Z AUTO 04010KT 10SM CLR 28/07 A2996 RMK AO2 SLP060
     T02780072=
KOLU 080755Z AUTO 31003KT 10SM CLR 16/14 A3016 RMK AO1=
KOTH 080755Z 22003KT 10SM OVC008 11/08 A3001 RMK AO1=
KPHF 080754Z 00000KT 3SM BR FEW080 BKN110 24/24 A2996 RMK AO2
     SLP144 T02440239=
KPIB 080755Z AUTO 00000KT 10SM CLR 23/21 A3004 RMK AO1=
KPTN 080755Z AUTO 00000KT 10SM CLR 24/M09 A3001 RMK AO1=
KPWT 080755Z AUTO 04009KT 10SM CLR 23/07 A2997 RMK AO1=
KRBL 080754Z AUTO 23003KT 10SM CLR 25/18 A2982 RMK AO2 SLP091
     T02500178 403500183=
KSET 080754Z AUTO 00000KT 6SM BR CLR 25/24 A3002 RMK AO2 LTG DSNT
     SW SLP161 T02500244=
PAAQ 080753Z AUTO 36004KT 10SM OVC090 14/08 A3002 RMK AO2 SLP161
     T01390083 TSNO=
PABR 080753Z 26015KT 10SM BKN200 05/03 A2999 RMK AO2 SLP155
     T00500028 $=
PACV 080753Z 05006KT 10SM -RA SCT035 BKN045 OVC060 15/10 A3009 RMK
     AO2 SLP188 P0000 T01500100=
PADE 080753Z AUTO 25004KT 10SM CLR 09/05 A3014 RMK AO2 SLP207
     T00940050 TSNO=
PAEG 080753Z AUTO 00000KT 10SM FEW090 11/06 A3001 RMK AO2 SLP162
     T01060061 TSNO=
PAEN 080753Z AUTO 01016G20KT 10SM BKN090 BKN110 14/11 A2997 RMK
     AO2 RAE24 SLP151 P0000 T01440106 TSNO=
PAGK 080753Z AUTO 04004KT 10SM CLR 11/08 A3007 RMK AO2 SLP191
     T01060078 TSNO=
####018003727####
SAUS70 KWBC 080800 RRC
METAR
KCLM 080753Z AUTO A2997 RMK AO2 SLPNO PWINO FZRANO $=
KCMI 080753Z AUTO 00000KT 5SM BR FEW065 23/22 A3004 RMK AO2
     RAB0657E08 SLP166 P0000 T02330222=
KCMX 080753Z AUTO 30005KT 7SM OVC002 18/17 A2999 RMK AO2 SLP150
     T01780172=
KCNM 080753Z AUTO 00000KT 8SM RA BKN025 BKN029 OVC060 21/19 A3012
     RMK AO2 TSB22E39RAB07 SLP145 P0007 T02060194=
KCNO 080753Z 28004KT 5SM HZ CLR 14/12 A2992 RMK AO2 SLP129
     T01440117 402670144=
KCOT 080753Z AUTO 06005KT 10SM OVC017 25/22 A2989 RMK AO2 SLP114
     T02500222=
KCPR 080753Z AUTO 00000KT 10SM CLR 06/05 A3033 RMK AO2 SLP237
     T00610050=
KCPS 080753Z AUTO 00000KT 10SM SCT060 OVC075 24/22 A3003 RMK AO2
     LTG DSNT W AND NW TSB38E53 SLP163 T02440222=
KCRE 080753Z AUTO 31004KT 10SM CLR 27/21 A2992 RMK AO2 SLP132
     T02670206=
KCSM 080753Z AUTO 35005KT 10SM CLR 23/20 A3010 RMK AO2 SLP165
     T02280200=
KCSV 080753Z AUTO 00000KT 10SM CLR 21/17 A3013 RMK AO2 SLP178
     T02110172=
KCXO 080753Z VRB03KT 9SM CLR 24/23 A2994 RMK AO2 SLP136
     T02390233=
KCYS 080753Z AUTO 10004KT 4SM BR OVC002 12/12 A3035 RMK AO2
     RAB02E29 SLP232 P0000 T01170117 TSNO=
KDAG 080753Z AUTO 26008G16KT 10SM CLR 27/M01 A2985 RMK AO2 SLP075
     T02721006 403940206 TSNO $=
KDAN 080753Z AUTO 33003KT 6SM HZ FEW100 24/20 A3000 RMK AO2 SLP144
     T02390200=
KDCU 080753Z AUTO 00000KT 9SM CLR 23/21 A3006 RMK AO2 SLP171
     T02330211=
KDEN 080753Z 17004KT 6SM BR BKN006 BKN021 15/14 A3033 RMK AO2 CIG
     004V009 SLP212 OCNL LTGICCC DSNT E-SE CB DSNT E-SE MOV NE
     T01500144 $=
KDET 080753Z 00000KT 9SM CLR 26/21 A3003 RMK AO2 SLP163 T02610211
     $=
KDEW 080753Z AUTO 02008KT 10SM CLR 18/08 A3006 RMK AO2 SLP167
     T01780078 402890067=
KDFI 080753Z AUTO 00000KT 8SM CLR 22/19 A3005 RMK AO2 SLP170
     T02220189=
KDFW 080753Z 16006KT 10SM SCT019 BKN090 26/23 A2999 RMK AO2 SLP145
     T02560228=
KDGW 080753Z AUTO 00000KT 10SM CLR 08/06 A3032 RMK AO2 SLP241
     T00780061 $=
KDHT 080753Z AUTO 27005KT 9SM FEW013 OVC045 18/16 A3026 RMK AO2
     SLP194 T01830161=
KDKK 080753Z AUTO 18003KT 8SM BKN090 21/18 A3006 RMK AO2 SLP172
     T02060183=
KDLN 080753Z AUTO 13003KT 10SM CLR 09/03 A3027 RMK AO2 SLP214
     T00940033=
KDLS 080753Z AUTO 11007KT 10SM CLR 19/05 A2993 RMK AO2 SLP134
     T01890050 403670111=
KDMO 080753Z AUTO 17003KT 7SM -RA SCT001 BKN006 OVC065 24/22 A3005
     RMK AO2 RAE0656B51 SLP165 P0000 T02390222=
KFDK 080749Z AUTO 00000KT 5SM HZ SCT090 24/22 A3002 RMK AO2=
KDNL 080753Z AUTO 26003KT 10SM CLR 26/18 A3001 RMK AO2 SLP154
     T02610178=
KDRO 080753Z AUTO 05007KT 10SM CLR 13/05 A3030 RMK AO2 SLP170
     T01330050=
KDTO 080753Z AUTO 15008KT 10SM OVC020 26/23 A2999 RMK AO2 SLP145
     T02610233=
KDTW 080753Z 20003KT 6SM HZ FEW150 24/21 A3003 RMK AO2 SLP163
     T02390211=
KDVT 080753Z 13003KT 10SM CLR 31/01 A2978 RMK AO2 SLP053
     T03060011=
KDWH 080753Z 04004KT 8SM CLR 24/24 A2994 RMK AO2 SLP134
     T02440239=
KDXR 080753Z AUTO 12003KT 6SM BR CLR 23/22 A3005 RMK AO2 SLP169
     T02330217=
KECP 080753Z AUTO 00000KT 5SM BR CLR 23/23 A3001 RMK AO2 SLP172
     T02330228=
KEEO 080753Z AUTO 10SM BKN110 13/07 A3028 RMK AO2 SLP169 T01280067
     PNO $=
KEET 080753Z AUTO 00000KT 7SM OVC070 25/22 A3003 RMK AO2 SLP162
     T02500217=
KGVL 080753Z AUTO 31003KT 10SM CLR 23/20 A3007 RMK AO2 SLP165
     T02330200=
KGWO 080753Z AUTO 02003KT 10SM CLR 22/22 A3004 RMK AO2 SLP172
     T02220222=
KHAO 080753Z AUTO 00000KT 3SM BR CLR 22/21 A3007 RMK AO2 SLP177
     T02170206=
KHBG 080753Z AUTO 00000KT 8SM CLR 24/23 A3003 RMK AO2 SLP164
     T02390233=
####018001450####
SAUS70 KWBC 080800 RRM
METAR
PAGY 080753Z AUTO 00000KT 10SM CLR 12/11 A3021 RMK AO2 SLP230
     T01170106 TSNO=
PAIL 080753Z AUTO 02007KT 10SM BKN060 OVC095 11/09 A2993 RMK AO2
     SLP136 T01110089 TSNO=
PAKT 080753Z AUTO 33007KT 10SM CLR 19/12 A3008 RMK AO2 SLP185
     T01890117 TSNO=
PAKV 080753Z AUTO 00000KT 10SM CLR 15/06 A3009 RMK AO2 SLP191
     T01500061 TSNO=
PAKW 080753Z AUTO 00000KT 10SM CLR 13/11 A3012 RMK AO2 SLP198
     T01280106 TSNO=
PALH 080753Z 00000KT 10SM -RA BKN070 OVC090 14/10 A3002 RMK AO2
     SLP165 P0000 T01440100=
PAMR 080753Z 00000KT 10SM FEW055 BKN075 BKN090 14/09 A3000 RMK AO2
     SLP161 VIRGA E-S T01390094=
PAPB 080753Z AUTO 09016KT 10SM OVC022 08/07 A2991 RMK AO2 SLP117
     T00780067 TSNO=
PASC 080753Z 20008KT 10SM FEW036 BKN060 10/07 A3000 RMK AO2 SLP161
     T01000072=
PASI 080753Z 00000KT 10SM CLR 13/12 A3018 RMK AO2 SLP219
     T01330117=
PASO 080753Z AUTO 00000KT 10SM OVC075 11/10 A2989 RMK AO2 SLP121
     T01060100 TSNO=
PATO 080753Z AUTO 12013G28KT 3SM RA BR FEW021 BKN030 OVC039 13/11
     A3002 RMK AO2 PK WND 14030/0730 SLP166 P0022 T01280106
     TSNO=
PAWD 080753Z AUTO 00000KT 1 1/4SM -RA BR BKN003 OVC050 11/09 A2998
     RMK AO2 CIG 001V005 SLP153 P0002 T01060094 TSNO=
KBAF 080753Z 18003KT 9SM OVC085 24/21 A3003 RMK AO2 SLP164
     T02390211=
PHJR 080753Z VRB04KT 10SM FEW050 24/18 A3005 RMK AO2 SLP180
     T02390183=
####018000336####
SAPQ50 KWBC 080800
METAR
PGUM 080754Z 08010KT 10SM SCT020 SCT026 BKN031 29/24 A2986 RMK AO2
     SLP104 T02940244=
PTRO 080752Z 00000KT 14SM SCT009 SCT016TCU BKN120 BKN300 29/24
     A2983 RMK TCU VC ALQDS=
PKMR 080752Z 08013KT 12SM -SHRA SCT014TCU BKN045 OVC110 28/25
     A2981 RMK SHRAB47 TCU ALQDS SLP097 T02750245=
####018003724####
SAUS70 KWBC 080800 RRD
METAR
KHDE 080750Z AUTO 33004KT 10SM CLR 16/15 A3020 RMK AO2
     T01600145=
KHEI 080753Z AUTO 00000KT 10SM FEW085 10/08 A3019 RMK AO2 SLP215
     T01000083=
KHFD 080753Z AUTO 00000KT 5SM HZ FEW100 25/22 A3002 RMK AO2 SLP166
     T02500217=
KHGR 080753Z AUTO 33004KT 6SM HZ CLR 25/17 A3002 RMK AO2 SLP168
     T02500167=
KHHR 080753Z AUTO 25005KT 10SM OVC014 17/13 A2992 RMK AO2 SLP129
     T01720133 402000156=
KHIB 080753Z AUTO 00000KT 1/2SM FG VV001 10/10 A3005 RMK AO2
     SLP177 T01000100=
KHIO 080753Z AUTO 29004KT 10SM CLR 19/13 A2987 RMK AO2 SLP109
     T01890128 403390100=
KHJH 080750Z AUTO 35003KT 10SM BKN021 20/18 A3015 RMK AO2
     T01950181=
KHJO 080753Z AUTO 33007KT 10SM CLR 24/12 A2982 RMK AO2 SLP096
     T02390122 403440161=
KHKA 080753Z AUTO 22004KT 7SM CLR 27/22 A3005 RMK AO2 SLP173
     T02670222=
KHKS 080753Z AUTO 00000KT 10SM CLR 24/23 A3004 RMK AO2 SLP165
     T02390228=
KHKY 080753Z AUTO 31005KT 10SM CLR 23/17 A3004 RMK AO2 SLP145
     T02280172 $=
KHLG 080753Z AUTO 00000KT 4SM BR CLR 22/19 A3009 RMK AO2 SLP179
     T02170194=
KHLN 080753Z AUTO 26005KT 10SM CLR 12/04 A3024 RMK AO2 SLP232
     T01170044=
KHOT 080753Z AUTO 00000KT 10SM BKN012 24/23 A3005 RMK AO2 SLP170
     T02390228=
KHOU 080753Z 10006KT 10SM FEW030 BKN130 BKN250 27/23 A2991 RMK AO2
     SLP134 T02720233=
KHQM 080753Z AUTO 00000KT 10SM 20/13 A2990 RMK AO2 SLP130
     T02000128 403440122 $=
KHRI 080753Z AUTO 00000KT 10SM CLR 15/08 A2992 RMK AO2 SLP128
     T01500078 403560078=
KHRO 080753Z AUTO 00000KT 6SM BR CLR 23/22 A3007 RMK AO2 SLP166
     T02280217=
KHUF 080753Z 00000KT 7SM BKN110 23/22 A3004 RMK AO2 SLP166
     T02330217 $=
KHUL 080753Z AUTO 20003KT 7SM CLR 21/18 A3001 RMK AO2 SLP160
     T02110183=
KHVN 080753Z AUTO 00000KT 2 1/2SM HZ OVC004 24/23 A3003 RMK AO2
     SLP168 T02440228=
KHWO 080753Z AUTO 00000KT 10SM CLR 25/24 A2994 RMK AO2 SLP138
     T02500239=
KHYR 080753Z AUTO VRB03KT 10SM SCT050 BKN060 OVC100 20/16 A3003
     RMK AO2 SLP165 T02000156=
KFST 080753Z AUTO 10006KT 10SM OVC100 22/19 A3006 RMK AO2 SLP130
     T02220189=
KFTW 080753Z 14010KT 10SM OVC020 26/23 A2998 RMK AO2 SLP141
     T02560228=
KFTY 080753Z 00000KT 9SM CLR 21/18 A3004 RMK AO2 SLP160
     T02110183=
KFUL 080753Z 00000KT 10SM OVC017 17/12 A2990 RMK AO2 SLP125
     T01720122 402390161=
KFVE 080753Z AUTO 13004KT 7SM CLR 22/22 A2999 RMK AO2 SLP147
     T02220217=
KFWN 080753Z AUTO 00000KT 3SM BR CLR 21/21 A3003 RMK AO2 SLP164
     T02110206=
KFXE 080753Z 06004KT 10SM FEW022 28/23 A2992 RMK AO2 SLP134
     T02780228 $=
KFYV 080753Z AUTO 00000KT 10SM CLR 22/21 A3006 RMK AO2 SLP165
     T02220211=
KGAG 080753Z AUTO 04007KT 10SM FEW020 BKN028 22/19 A3013 RMK AO2
     RAB08E19 SLP173 P0000 T02170194=
KGEY 080753Z AUTO 00000KT 10SM CLR 14/03 A3024 RMK AO2 SLP216
     T01440028=
KGEZ 080753Z AUTO 00000KT 6SM BR CLR 21/20 A3004 RMK AO2 SLP166
     T02110200=
KGFK 080753Z 24004KT 10SM CLR 16/12 A3003 RMK AO2 SLP167
     T01560122=
KGFL 080753Z AUTO 00000KT 3/4SM BR CLR 21/21 A3001 RMK AO2 SLP158
     T02060206=
KGGW 080753Z AUTO 07006KT 10SM CLR 13/09 A3013 RMK AO2 SLP199
     T01280094 TSNO=
KGIF 080753Z AUTO 00000KT 10SM CLR 23/21 A3000 RMK AO2 SLP156
     T02330211 TSNO=
KGJT 080753Z AUTO 07013G22KT 10SM CLR 22/06 A3015 RMK AO2 PK WND
     06031/0708 SLP131 T02170061=
KGKJ 080753Z AUTO 00000KT 8SM CLR 21/18 A3010 RMK AO2 SLP179
     T02110178=
KGLD 080753Z AUTO 34003KT 10SM OVC037 17/16 A3029 RMK AO2 SLP223
     T01720161=
KGLH 080753Z AUTO 00000KT 3SM BR CLR 23/22 A3004 RMK AO2 SLP177
     T02280222=
####018000074####
SAGI32 EGRR 080750
METAR LXGB 080750Z 10013KT CAVOK 24/24 Q1016 NOSIG=
####018003747####
SAUS70 KWBC 080800 RRK
METAR
KPSC 080753Z AUTO 32003KT 10SM CLR 16/11 A2994 RMK AO2 SLP137
     T01610106 403560106=
KPSP 080753Z 32007KT 10SM CLR 28/11 A2973 RMK AO2 SLP062 T02780106
     404060211=
KPSX 080753Z AUTO 11008KT 10SM -RA FEW016 27/25 A2986 RMK AO2 PK
     WND 09031/0730 RAB05 SLP111 P0011 T02670250=
KPTK 080753Z 00000KT 9SM SCT250 24/22 A3004 RMK AO2 SLP162
     T02440217=
KPTT 080750Z AUTO 01007KT 10SM CLR 19/18 A3014 RMK AO2=
KPUB 080753Z AUTO 08006KT 10SM OVC044 16/13 A3034 RMK AO2 SLP219
     T01560133=
KPUC 080753Z AUTO 05007KT 10SM CLR 14/01 A3021 RMK AO2 SLP152
     T01440006 TSNO=
KPUW 080753Z AUTO 00000KT 10SM CLR 11/08 A3007 RMK AO2 SLP172
     T01110078 402940056=
KRAC 080753Z AUTO 21006KT 6SM -RA BR FEW042 SCT070 OVC090 23/22
     A3004 RMK AO2 RAB19 SLP168 P0002 T02330217=
KRAL 080753Z AUTO 28003KT 7SM CLR 15/12 A2991 RMK AO2 SLP116
     T01500122 402670150=
KRBG 080753Z AUTO 34004KT 10SM CLR 21/12 A2990 RMK AO2 SLP121
     T02110122 403780133=
KRDD 080753Z AUTO 31005KT 10SM CLR 26/15 A2982 RMK AO2 SLP091
     T02560150 403720200=
KRHI 080753Z AUTO 28003KT 2SM BR BKN001 OVC007 19/18 A3003 RMK AO2
     SLP163 T01890183=
KRKP 080753Z AUTO 10015G20KT 10SM FEW021 SCT033 BKN041 28/26 A2982
     RMK AO2 LTG DSNT N TSE0658 SLP101 T02780256=
KRNT 080753Z AUTO 00000KT 10SM CLR 21/14 A2993 RMK AO2 SLP140
     T02060144 403060161=
KRSL 080753Z AUTO 35006KT 8SM BKN012 18/18 A3014 RMK AO2 SLP193
     T01830178=
KRSW 080753Z 04007KT 10SM CLR 24/22 A2995 RMK AO2 SLP141
     T02390222=
KRUE 080753Z AUTO 00000KT 10SM BKN025 24/23 A3005 RMK AO2 SLP167
     T02390228=
KRVS 080753Z VRB03KT 2SM +TSRA BR BKN005 BKN017 OVC034 23/23 A3003
     RMK AO2 TSB18 SLP172 P0106 T02280228=
KRWF 080753Z AUTO 28006KT 10SM CLR 16/14 A3011 RMK AO2 SLP194
     T01560144=
KRWI 080753Z AUTO 00000KT 6SM HZ CLR 24/20 A2994 RMK AO2 SLP136
     T02390200=
KRWL 080753Z AUTO 06004KT 10SM CLR 08/07 A3036 RMK AO2 SLP219
     T00830067=
KRXE 080753Z AUTO 05005KT 10SM CLR 11/06 A3019 RMK AO2 SLP190
     T01060061=
KSAC 080753Z 17006KT 10SM CLR 15/10 A2984 RMK AO2 SLP102 T01500100
     403060122=
KSAF 080753Z AUTO 16004KT 10SM CLR 16/10 A3031 RMK AO2 SLP160
     T01560100=
KSBA 080753Z 00000KT 10SM BKN021 13/11 A2991 RMK AO2 SLP127
     T01330111 401890122 $=
KSBM 080753Z AUTO 00000KT 9SM -RA BKN090 22/21 A2999 RMK AO2
     RAB0659E12B49 SLP149 P0000 T02220211=
KSDL 080753Z 00000KT 10SM CLR 31/07 A2979 RMK AO2 SLP058
     T03060067=
KSEG 080753Z AUTO 32003KT 5SM HZ CLR 22/18 A3003 RMK AO2 SLP165
     T02170178=
KSFF 080753Z AUTO 00000KT 10SM CLR 15/11 A3005 RMK AO2 SLP162
     T01500111 403000100=
KSHN 080753Z AUTO 00000KT 10SM CLR 14/12 A2992 RMK AO2 SLP130
     T01390122 403330089=
KSHR 080753Z AUTO 20003KT 10SM CLR 08/06 A3026 RMK AO2 SLP231
     T00830061=
KSIY 080753Z AUTO 20003KT 10SM CLR 23/09 A2994 RMK AO2 SLP117
     T02280094 403610172 $=
KSJC 080753Z AUTO 35004KT 10SM OVC015 16/11 A2993 RMK AO2 SLP133
     T01560111 402500139=
KSLC 080753Z 19004KT 10SM FEW130 19/07 A3008 RMK AO2 SLP132
     T01940072=
KSLN 080753Z AUTO 36008KT 7SM CLR 21/20 A3011 RMK AO2 SLP184
     T02110200=
KSGT 080755Z 00000KT 10SM CLR 24/22 A3005 RMK AO1=
KSKX 080755Z AUTO 00000KT 10SM CLR 12/03 A3037 RMK AO1=
KSLG 080755Z AUTO 16006KT 10SM FEW024 23/21 A3006 RMK AO1=
KSPA 080755Z AUTO 36003KT 10SM CLR 24/23 A3001 RMK AO2=
KSPL 080755Z AUTO 05008KT FEW020 BKN047 BKN090 29/25 A2978 RMK AO2
     PWINO PNO=
KSQI 080755Z 00000KT 6SM BKN008 BKN018 OVC050 22/22 A3004 RMK
     AO1=
KSUE 080755Z AUTO 14003KT 2SM SCT005 SCT070 OVC110 20/19 A2997 RMK
     AO1 P0001=
####018000183####
SAUK31 EGGY 080750 CCA
METAR COR EGCC 080750Z 19006KT 160V220 9999 FEW036 16/12 Q1017
    NOSIG=
METAR COR EGLL 080750Z 27008KT 9999 FEW009 BKN011 19/15 Q1019 BECMG
    SCT040=
####018003699####
SAUS70 KWBC 080800 RRH
METAR
KELN 080753Z AUTO VRB03KT 10SM CLR 17/07 A3004 RMK AO2 SLPNO
     T01720067 403330094 $=
KENW 080753Z AUTO 19003KT 8SM -RA FEW039 BKN075 OVC095 23/22 A3003
     RMK AO2 SLP163 P0004 T02280217 $=
KEPH 080753Z AUTO 32007KT 10SM CLR 22/06 A3000 RMK AO2 SLP148
     T02170056 403330144=
KEQY 080753Z AUTO 00000KT 10SM CLR 24/18 A2999 RMK AO2 SLP149
     T02390183=
KESF 080753Z AUTO 00000KT 8SM CLR 23/22 A3000 RMK AO2 SLP157
     T02330222=
KEVW 080753Z AUTO 09013KT 10SM CLR 13/03 A3028 RMK AO2 SLP170
     T01280033 TSNO=
KEWB 080753Z AUTO 15007KT 9SM OVC006 22/20 A3006 RMK AO2 CIG
     003V007 SLP177 T02170200=
KEYE 080753Z AUTO 00000KT 8SM FEW100 23/21 A3005 RMK AO2 SLP166
     T02330206=
KEYW 080753Z AUTO 00000KT 10SM CLR 28/24 A2993 RMK AO2 SLP134
     T02780244=
KFAY 080753Z AUTO 00000KT 10SM CLR 27/18 A2992 RMK AO2 SLP126
     T02670178=
KFCM 080753Z AUTO 00000KT 10SM CLR 19/16 A3007 RMK AO2 SLP178
     T01940161=
KFDR 080753Z AUTO 02006KT 10SM 24/23 A3001 RMK AO2 SLP142
     T02390228=
KFDY 080753Z AUTO 00000KT 9SM CLR 23/18 A3005 RMK AO2 SLP166
     T02280183=
KFFC 080753Z AUTO 00000KT 8SM CLR 21/19 A3005 RMK AO2 SLP165
     T02110194=
KFFT 080753Z AUTO 00000KT 5SM BR CLR 21/19 A3007 RMK AO2 SLP172
     T02110194=
KFHR 080753Z AUTO 00000KT 10SM CLR 15/11 A2997 RMK AO2 SLP146
     T01500111 402940100=
KFLD 080753Z AUTO 17004KT 10SM -RA BKN043 22/21 A2998 RMK AO2
     SLP148 P0003 T02170206=
KFLL 080753Z 06007KT 10SM SCT023 28/24 A2991 RMK AO2 SLP129
     T02780244=
KFMY 080753Z AUTO 05005KT 10SM CLR 24/22 A2995 RMK AO2 SLP143
     T02440222=
KFOE 080753Z AUTO 05005KT 10SM OVC100 22/20 A3007 RMK AO2 RAE17
     SLP172 P0002 T02220200=
KFOK 080753Z AUTO 00000KT 5SM BR BKN003 OVC070 24/22 A3004 RMK AO2
     SLP173 T02390222 TSNO=
KFPR 080753Z AUTO 00000KT 10SM CLR 25/22 A2995 RMK AO2 SLP142
     T02500217=
KFRG 080753Z AUTO 00000KT 5SM BR BKN008 26/24 A3001 RMK AO2 SLP163
     T02560239=
KFSM 080753Z AUTO 15003KT 10SM OVC032 24/22 A3003 RMK AO2 SLP161
     T02440222=
KTTN 080753Z AUTO 00000KT 5SM HZ CLR 25/21 A3001 RMK AO2 SLP154
     T02500211 PWINO=
KTUL 080753Z 14006KT 5SM +TSRA BR FEW055 BKN075 BKN095 23/22 A3000
     RMK AO2 TSB26 SLP151 FRQ LTGIC S-SW TS S-SW MOV N P0031
     T02330217=
KTVC 080753Z AUTO 00000KT 10SM BKN120 23/20 A2998 RMK AO2 SLP148
     T02330200=
KTVL 080753Z AUTO 00000KT 10SM FEW120 13/07 A3016 RMK AO2 SLP150
     T01280072 402670078=
KTVR 080753Z AUTO 09003KT 8SM CLR 23/22 A3002 RMK AO2 SLP171
     T02330222 $=
KTWF 080753Z AUTO 18003KT 10SM CLR 12/M01 A3010 RMK AO2 SLP144
     T01171006=
KUAO 080753Z AUTO 00000KT 10SM CLR 23/11 A2986 RMK AO2 SLP109
     T02330111 403560167=
KUNO 080753Z AUTO 20004KT 10SM CLR 24/21 A3008 RMK AO2 SLP171
     T02390211 TSNO=
KUTS 080753Z AUTO 00000KT 9SM CLR 24/23 A2997 RMK AO2 SLP143
     T02440233=
KUUU 080753Z AUTO 14005KT 1 1/4SM BR OVC002 21/21 A3006 RMK AO2
     CIG 001V004 SLP177 T02110206=
KVCB 080753Z AUTO 23005KT 10SM CLR 19/09 A2981 RMK AO2 SLP094
     T01940094 403330133=
KVEL 080753Z AUTO 34007KT 10SM CLR 18/06 A3021 RMK AO2 SLP167
     T01780056=
KVGT 080753Z AUTO 31003KT 10SM CLR 29/M04 A2983 RMK AO2 SLP062
     T02891039 403940222 TSNO=
KVIH 080753Z AUTO 00000KT 4SM BR FEW002 SCT006 BKN049 23/22 A3004
     RMK AO2 SLP157 T02330217=
KVPC 080753Z AUTO 00000KT 8SM CLR 20/19 A3005 RMK AO2 SLP161
     T02000189=
KVPZ 080753Z AUTO 31005KT 8SM SCT060 23/22 A3004 RMK AO2 SLP167
     T02330217=
KVRB 080753Z AUTO 00000KT 10SM FEW028 23/21 A2996 RMK AO2 SLP143
     T02280211=
####018003688####
SAUS70 KWBC 080800 RRJ
METAR
KSPB 080753Z AUTO 29004KT 10SM CLR 20/13 A2986 RMK AO2 SLP112
     T02000128 403390106=
KSPG 080753Z 11008KT 10SM CLR 27/22 A2997 RMK AO2 SLP149
     T02670217=
KSPW 080753Z AUTO 31004KT 10SM CLR 16/15 A3014 RMK AO2 SLP200
     T01610150=
KSRQ 080753Z 07004KT 10SM CLR 24/22 A2997 RMK AO2 SLP148
     T02390217=
KSSF 080753Z AUTO 05005KT 10SM BKN015 OVC020 26/23 A2992 RMK AO2
     SLP118 T02610228=
KSTJ 080753Z AUTO 24005KT 7SM BKN008 BKN018 OVC023 23/22 A3007 RMK
     AO2 LTG DSNT S SLP174 T02280217=
KSTP 080753Z 32004KT 10SM BKN037 20/17 A3007 RMK AO2 SLP176
     T02000172=
KSTS 080753Z AUTO 00000KT 10SM OVC008 12/10 A2992 RMK AO2 SLP126
     T01220100 402170117=
KSUN 080751Z AUTO 31008KT 10SM CLR 12/02 A3022 RMK AO2=
KSWO 080753Z AUTO 02006KT 10SM BKN029 BKN047 OVC055 23/22 A3003
     RMK AO2 SLP156 T02330217=
KSZT 080750Z AUTO 00000KT 10SM CLR 11/09 A3009 RMK AO2=
KTCC 080753Z AUTO 04011KT 10SM SCT120 18/14 A3020 RMK AO2 RAB10E24
     SLP169 P0000 T01780144=
KTCL 080753Z AUTO 00000KT 8SM CLR 24/23 A3003 RMK AO2 SLP166
     T02440228=
KTDZ 080753Z AUTO 00000KT 10SM FEW070 24/18 A3005 RMK AO2 SLP169
     T02390183=
KTHV 080753Z AUTO 00000KT 5SM HZ CLR 23/20 A3001 RMK AO2 SLP159
     T02280200=
KTIF 080750Z AUTO 00000KT 10SM OVC080 16/14 A3025 RMK AO2
     T01580143=
KTIW 080753Z AUTO 02004KT 10SM FEW090 23/12 A2993 RMK AO2 SLP131
     T02280117 402890133=
KTKI 080753Z AUTO 17005KT 10SM BKN019 26/23 A3000 RMK AO2 SLP153
     T02560228=
KTMB 080753Z AUTO 02003KT 10SM CLR 27/25 A2992 RMK AO2 SLP132
     T02720250=
KTOI 080753Z AUTO 00000KT 8SM CLR 22/22 A3003 RMK AO2 SLP163
     T02220217=
KTOP 080753Z AUTO 07007KT 10SM OVC090 22/21 A3006 RMK AO2 RAE39
     SLP172 P0011 T02170206=
KTOR 080753Z AUTO 02005KT 10SM CLR 13/12 A3029 RMK AO2 SLP233
     T01330117=
KTPA 080753Z 00000KT 10SM FEW250 25/21 A2999 RMK AO2 SLP155
     T02500211 $=
KTRK 080750Z AUTO 32005KT 10SM FEW110 13/09 A3016 RMK AO2=
KTTD 080753Z AUTO 00000KT 10SM FEW090 19/13 A2985 RMK AO2 SLP108
     T01940128 403390117=
KPDT 080753Z AUTO 12007KT 10SM CLR 17/07 A2996 RMK AO2 SLP130
     T01670072 403330111=
KPEO 080753Z AUTO 22004KT 4SM BR CLR 22/21 A3008 RMK AO2 SLP178
     T02220211=
KPGD 080753Z AUTO 04005KT 10SM CLR 23/22 A2999 RMK AO2 SLP155
     T02330222 TSNO=
KPHD 080753Z AUTO 00000KT 2 1/2SM BR CLR 20/18 A3009 RMK AO2
     SLP181 T02000178=
KPIE 080753Z AUTO 10005KT 10SM CLR 25/21 A2999 RMK AO2 SLP155
     T02500211 TSNO=
KPIH 080753Z AUTO 20003KT 10SM CLR 08/03 A3015 RMK AO2 SLP175
     T00780028=
KPIL 080753Z AUTO 05006KT 10SM FEW019 29/25 A2979 RMK AO2 SLP086
     T02890250 $=
KPIR 080753Z AUTO 25007KT 10SM CLR 16/13 A3015 RMK AO2 SLP202
     T01610128=
KPKB 080753Z AUTO 00000KT 3SM BR CLR 21/19 A3010 RMK AO2 SLP182
     T02060194 TSNO=
KPKD 080753Z AUTO 00000KT 10SM CLR 15/13 A3007 RMK AO2 SLP182
     T01500133=
KPMD 080753Z AUTO 20005KT 10SM CLR 19/07 A2990 RMK AO2 SLP096
     T01940067 403500178 TSNO $=
KPMP 080753Z AUTO 07006KT 10SM CLR 28/23 A2992 RMK AO2 SLP133
     T02780233=
KPNA 080750Z AUTO 30003KT 10SM CLR 08/00 A3037 RMK AO2
     T00830001=
KPNC 080753Z AUTO 03004KT 10SM SCT110 22/21 A3004 RMK AO2 SLP161
     T02220211=
KPOU 080753Z 00000KT 6SM BR CLR 23/22 A3000 RMK AO2 SLP154
     T02330217=
KPQL 080753Z AUTO 00000KT 5SM BR CLR 24/23 A3001 RMK AO2 SLP162
     T02390233=
KPRB 080753Z AUTO 00000KT 10SM CLR 13/11 A2990 RMK AO2 SLP122
     T01330106 402390117=
KPRC 080753Z AUTO 19003KT 10SM SCT075 BKN120 19/05 A3009 RMK AO2
     SLP097 T01940050=
####018003299####
SAUS80 KWBC 080800 RRB
METAR
KSEA 080753Z 02011KT 10SM CLR 24/10 A2995 RMK AO2 SLP144 T02390100
     403220150 $=
KSUS 080754Z AUTO 28006KT 3SM R08R/4500VP6000FT VCTS RA BR FEW017
     BKN038 OVC050 24/23 A3003 RMK AO2 LTG DSNT N TSB38RAB44
     SLP159 P0005 T02440233=
KLYH 080754Z AUTO 00000KT 5SM HZ CLR 24/19 A3003 RMK AO2 SLP157
     T02390194=
KPIA 080754Z 15003KT 6SM -RA BR BKN070 OVC085 23/22 A3003 RMK AO2
     RAB19 SLP164 P0002 T02280217=
KP68 080753Z AUTO 22003KT 12/M02 A3013 RMK AO2 SLP117 T01221022
     403110083 PWINO TSNO=
KP92 080753Z AUTO 00000KT 26/24 A2998 RMK AO2 SLP150 T02560244
     PWINO TSNO=
PABE 080753Z 35005KT 10SM FEW080 SCT120 14/07 A3001 RMK AO2 SLPNO
     T01400070 PNO $=
PABT 080753Z 00000KT 10SM FEW040 SCT075 BKN200 14/12 A3005 RMK AO2
     SLP184 T01440122=
PACD 080753Z 15008KT 10SM FEW048 07/03 A2994 RMK AO2 SLP140
     T00670033=
PADQ 080753Z 34004KT 1 1/2SM -RA BR BKN006 OVC010 10/09 A2982 RMK
     AO2 SLP099 P0002 T01000094 $=
PAFA 080753Z 00000KT 10SM FEW070 SCT200 17/09 A3003 RMK AO2 SLP171
     T01720089=
PAHO 080753Z AUTO 08004KT 10SM BKN060 OVC080 12/09 A2990 RMK AO2
     SLP124 T01220094 TSNO=
PAJN 080753Z 00000KT 10SM CLR 12/11 A3019 RMK AO2 SLP223
     T01170106=
PAMC 080753Z 05005KT 10SM SCT040 SCT080 BKN200 15/08 A2998 RMK AO2
     SLP155 T01500078=
PANC 080753Z 00000KT 10SM -RA FEW055 BKN070 BKN120 BKN200 13/11
     A3001 RMK AO2 SLP161 P0000 T01280106=
PANN 080753Z AUTO 00000KT 10SM FEW080 15/10 A3002 RMK AO2 SLP172
     T01500100 TSNO=
PANT 080753Z AUTO 32005KT 10SM CLR 18/12 A3006 RMK AO2 SLP179
     T01780117 TSNO=
PAOM 080753Z 04008KT 10SM FEW045 SCT065 SCT095 17/09 A3008 RMK AO2
     SLP187 T01720089=
PAOR 080753Z 00000KT 10SM FEW070 12/09 A3009 RMK AO2 SLP189
     T01220094=
PAOT 080753Z 28011KT 10SM FEW040 SCT090 BKN210 12/07 A3013 RMK AO2
     SLP201 T01170067=
PAQT 080753Z AUTO 28006KT 10SM OVC026 12/07 A3003 RMK AO2 SLP171
     T01220072 TSNO=
PASN 080753Z AUTO 08010KT 9SM OVC039 06/05 A2994 RMK AO2 SLP139
     T00560050 TSNO=
PATK 080753Z AUTO 14003KT 10SM CLR 17/08 A3002 RMK AO2 SLP167
     T01670083 TSNO=
PAYA 080753Z 00000KT 10SM FEW090 SCT200 11/09 A3020 RMK AO2 SLP225
     BAY TWR WND 160MMKT T01110094=
KAPN 080754Z AUTO 00000KT 7SM CLR 20/19 A3000 RMK AO2 SLP155
     T02000189=
K12N 080754Z AUTO 00000KT 22/21 A3003 RMK AO2 SLP159 T02170206
     PWINO TSNO=
KSBN 080754Z 00000KT 9SM BKN120 24/21 A3004 RMK AO2 SLP164
     T02440211=
KCZZ 080752Z AUTO 00000KT 09/08 A2989 RMK AO2 SLP096 T00940083
     402670039 PWINO TSNO=
KFWA 080754Z 23003KT 10SM CLR 24/21 A3006 RMK AO2 SLP172
     T02390206=
KRNM 080753Z AUTO 00000KT 5SM BR OVC004 14/13 A2991 RMK AO2 SLP119
     T01440128 402280139 TSNO=
K1V4 080754Z AUTO 21/19 A3004 RMK AO2 SLP157 T02110194 PWINO
     TSNO=
KMQE 080754Z AUTO 16009KT 22/19 A3007 RMK AO1 SLP186 T02220189=
KMTP 080754Z AUTO VRB04KT 22/20 A3005 RMK AO2 SLP174 T02220200
     PWINO TSNO=
KACY 080754Z 00000KT 7SM FEW100 24/22 A3001 RMK AO2 SLP162
     T02440222=
KNAK 080754Z AUTO 05003KT 5SM HZ CLR 27/23 A2997 RMK AO2 SLP151
     T02670228 TSNO $=
KGSO 080754Z 00000KT 8SM SCT090 26/18 A3001 RMK AO2 SLP148
     T02560178=
####018000086####
SABZ21 SBPS 080800
METAR SBPS 080800Z 29003KT 8000 VCSH BKN005 BKN100 18/18 Q1018=
####018000089####
SAOS32 LOWM 080750 RRA
METAR LOXZ 080750Z VRB02KT 70KM SKC 16/09 Q1024 NOSIG RMK SKC=
####018003695####
SAUS80 KWBC 080800
METAR
KMFD 080752Z AUTO 00000KT 7SM CLR 22/17 A3010 RMK AO2 SLP180
     T02170172=
KTOL 080752Z 00000KT 10SM CLR 22/18 A3004 RMK AO2 SLP167
     T02170178=
KALS 080752Z AUTO 04005KT 10SM CLR 08/07 A3039 RMK AO2 SLP216
     T00780067=
KBDR 080752Z AUTO 07007KT 3SM BR OVC004 24/22 A3002 RMK AO2 SLP166
     T02390222=
KDAL 080753Z 16006KT 10SM BKN017 BKN230 26/23 A3000 RMK AO2 SLP150
     BKN017 V SCT T02610228=
KREO 080752Z AUTO 09004KT 13/M02 A3009 RMK AO2 SLP153 T01331022
     403110039 PWINO TSNO=
K9V9 080752Z AUTO 25003KT 17/14 A3018 RMK AO2 SLP212 T01670144
     PWINO TSNO=
KSAN 080751Z 30004KT 10SM OVC013 17/13 A2992 RMK AO2 SLP132
     T01720133 401890150=
KUIL 080753Z AUTO 00000KT 10SM CLR 16/12 A2993 RMK AO2 SLP135
     T01610117 403330094 TSNO=
KSAV 080753Z 26004KT 10SM FEW024 22/19 A2999 RMK AO2 SLP155
     T02170194=
KCQC 080753Z AUTO 08005KT 10SM CLR 12/10 A3034 RMK AO2 SLP214
     T01170100 TSNO=
KCHA 080753Z 00000KT 10SM CLR 23/19 A3005 RMK AO2 SLP166
     T02280189=
KLND 080753Z AUTO 00000KT 10SM CLR 11/03 A3031 RMK AO2 SLP217
     T01110033=
KBNO 080753Z AUTO 31003KT 10SM CLR 09/02 A3011 RMK AO2 SLP167
     T00940022 402940039 TSNO=
KFAR 080753Z 21003KT 10SM CLR 16/12 A3006 RMK AO2 SLP178
     T01560122=
K6R6 080753Z AUTO 01006KT 23/20 A3000 RMK AO2 SLP122 T02280200
     PWINO TSNO=
KCTY 080753Z AUTO 00000KT 21/21 A3001 RMK AO2 SLP160 T02110206
     PWINO TSNO $=
KRQE 080753Z AUTO 24003KT 10SM CLR 16/06 A3026 RMK AO2 SLP113
     T01560056 TSNO=
KNUI 080753Z AUTO 00000KT 4SM BR FEW120 26/24 A2996 RMK AO2 SLP145
     T02560239=
KLXV 080753Z AUTO 00000KT 10SM OVC033 07/06 A3053 RMK AO2 SLP180
     T00670056 TSNO=
KSDM 080753Z AUTO 00000KT 10SM OVC012 17/13 A2991 RMK AO2 SLP125
     T01670128 402000144 TSNO=
KTLH 080753Z 00000KT 10SM CLR 22/21 A3000 RMK AO2 SLP158
     T02220206=
KLAX 080753Z 27005KT 10SM OVC014 17/13 A2991 RMK AO2 SLP128
     T01670128 401940156=
KOQT 080753Z AUTO 00000KT 8SM CLR 23/20 A3008 RMK AO2 SLP166
     T02280200 TSNO=
KMWT 080753Z AUTO 00000KT 10SM BKN012 OVC020 23/23 A3004 RMK AO2
     SLP160 T02330228 TSNO=
KABI 080752Z 11005KT 10SM CLR 22/21 A3003 RMK AO2 SLP140 T02220211
     $=
KBFF 080753Z AUTO 00000KT 10SM OVC065 16/14 A3028 RMK AO2 SLP227
     T01610139=
KBIL 080753Z 00000KT 10SM CLR 16/06 A3023 RMK AO2 SLP213
     T01560061=
KCAK 080751Z 00000KT 7SM CLR 22/17 A3009 RMK AO2 SLP177
     T02170172=
KCBE 080752Z AUTO 00000KT 7SM CLR 22/18 A3010 RMK AO1=
KCDR 080753Z AUTO 00000KT 10SM CLR 10/08 A3028 RMK AO2 SLP248
     T01000083=
KCLL 080753Z 08006KT 10SM SCT110 26/23 A2995 RMK AO2 SLP137
     T02560228=
KCNY 080753Z AUTO 05017G23KT 10SM CLR 23/04 A3008 RMK AO2 PK WND
     05027/0717 SLP119 T02280044=
KCRP 080751Z 08006G14KT 9SM RA FEW010 SCT025 BKN080 26/24 A2984
     RMK AO2 RAE0652B43 SLP102 P0013 T02560244=
KCRQ 080753Z AUTO 00000KT 8SM BKN009 OVC012 17/14 A2991 RMK AO2
     CIG 007V012 SLP125 T01670139 401830156=
KHTL 080753Z AUTO 26007KT 2SM -RA BR FEW008 BKN060 OVC120 23/22
     A3004 RMK AO2 RAB44 SLP164 P0011 T02330217=
KMSN 080753Z 00000KT 7SM BKN110 22/21 A2999 RMK AO2 SLP150
     T02170206=
KBTV 080754Z 00000KT 6SM BR SCT055 OVC070 24/22 A3001 RMK AO2
     SLP159 T02390217=
K40J 080753Z AUTO 00000KT 22/21 A3000 RMK AO2 SLP158 T02170206
     PWINO TSNO=
KDBQ 080753Z AUTO 18004KT 10SM BKN120 20/19 A3002 RMK AO2 SLP160
     T02000194=
KDMN 080753Z AUTO 04010KT 10SM BKN100 22/12 A3012 RMK AO2 SLP113
     T02220122=
KDRT 080753Z AUTO 08004KT 10SM CLR 25/22 A2992 RMK AO2 SLP116
     T02500222=
####018002332####
SAXX60 KWBC 080800
METAR
KDTS 080753Z AUTO 00000KT 10SM CLR 26/23 A3001 RMK AO2 SLP160
     T02560233=
KNZY 080752Z 30007KT 10SM OVC015 18/13 A2990 RMK AO2 SLP125
     T01830128 402110167 $=
KNRB 080752Z AUTO 00000KT 10SM CLR 24/21 A3000 RMK AO2 SLP159
     T02390206=
KBLV 080755Z AUTO 00000KT 10SM FEW045 24/24 A3003 RMK AO2 SLP165
     T02410239=
KHMN 080755Z 35006KT 10SM SCT085 BKN130 OVC150 20/15 A3015 RMK
     AO2A SLP125 T02040148 $=
KLRF 080755Z AUTO 00000KT 10SM SCT160 24/22 A3005 RMK AO2 SLP175
     T02350224=
KMGE 080755Z AUTO 00000KT 10SM CLR 23/19 A3005 RMK AO2 SLP163
     T02300190 $=
KPOB 080755Z AUTO 00000KT 10SM CLR 25/20 A2994 RMK AO2 SLP135
     T02470196 $=
KRDR 080755Z AUTO 24007KT 10SM CLR 13/12 A3004 RMK AO2 SLP181
     T01300122 $=
PWAK 080751Z 08013KT 7SM HZ CLR 28/24 A2997 RMK AO2A=
KNIP 080753Z 25004KT 10SM CLR 23/21 A3001 RMK AO2 SLP158
     T02330211=
KDNK 080753Z AUTO 12003KT 9SM CLR 24/22 A3000 RMK AO2 SLP154
     T02440217=
KNQX 080753Z AUTO 05003KT 10SM CLR 28/25 A2992 RMK AO2 SLP131
     T02830250 $=
KIAG 080753Z AUTO 22004KT 6SM BR CLR 23/21 A3004 RMK AO2 SLP163
     T02330211=
KECG 080754Z AUTO 00000KT 4SM BR CLR 26/24 A2994 RMK AO2 SLP139
     T02560244=
PHNL 080753Z 05008KT 10SM FEW032 SCT045 25/18 A3004 RMK AO2 SLP170
     T02500178=
PABI 080753Z AUTO 00000KT 10SM CLR 16/08 A3008 RMK AO2 SLP185
     T01560078 TSNO=
KBKB 080754Z AUTO 00000KT 10SM CLR 24/23 A2997 RMK AO2 SLP175
     T02440228=
KNKT 080754Z AUTO 05006KT 8SM CLR 26/21 A2991 RMK AO2 SLP125
     T02610211 $=
KCEF 080755Z AUTO 16003KT 10SM BKN080 BKN100 24/22 A3003 RMK AO2
     SLP167 T02440218 PWINO $=
KDTS 080753Z AUTO 00000KT 10SM CLR 26/23 A3001 RMK AO2 SLP160
     T02560233=
KGRF 080755Z AUTO 00000KT 10SM CLR 17/11 A2993 RMK AO2
     DZB0722E0731 SLP136 P0000 T01730110 403240096 $=
KGUS 080755Z AUTO 18003KT 10SM CLR 23/20 A3005 RMK AO2 SLP168
     T02270204=
KNFW 080752Z AUTO 14010KT 10SM OVC024 27/22 A3003 RMK AO2 SLP151
     T02670222=
KNHK 080752Z AUTO 10006KT 5SM HZ FEW120 27/23 A2997 RMK AO2 SLP148
     T02720233=
KNZY 080752Z 30007KT 10SM OVC015 18/13 A2990 RMK AO2 SLP125
     T01830128 402110167 $=
KOZR 080755Z AUTO 00000KT 10SM CLR 22/22 A3002 RMK AO2 SLP162
     T02220222=
####018000032####
SAAW41 KWBC 080750 RRC
NIL=
####018000093####
SAAW34 KWBC 080745 RRB
METAR
OPSK 080755Z 05006KT 6000 HZ SCT100 39/25 QNH1003 RH45PC=
####018000549####
SABX31 KWBC 080750
METAR
EBAW 080750Z 19005KT 140V230 CAVOK 24/12 Q1019 NOSIG=
EBBE NIL=
EBBL NIL=
EBBR 080750Z 22005KT 190V280 CAVOK 26/11 Q1019 NOSIG=
EBBT NIL=
EBCI 080750Z 21007KT CAVOK 25/10 Q1020 NOSIG=
EBCV NIL=
EBDT NIL=
EBFN NIL=
EBFS NIL=
EBGB NIL=
EBKH NIL=
EBKT NIL=
EBLB NIL=
EBLG 080750Z 20006KT CAVOK 25/09 Q1020 NOSIG=
EBMT NIL=
EBOS 080750Z 28006KT CAVOK 19/15 Q1019 NOSIG=
EBSH NIL=
EBSP NIL=
EBST NIL=
EBTN NIL=
EBTY NIL=
EBZW NIL=
ELLX 080750Z VRB02KT CAVOK 23/10 Q1021 NOSIG=
####018000123####
SPCN31 KWBC 080756
SPECI
CYYT 080753Z 13004KT 3/4SM R11/2800V6000FT/D R16/3000VP6000FT/N BR
OVC004 08/ RMK FG6SF2=
####018000717####
SADL31 KWBC 080750
METAR
EDBB NIL=
EDBT NIL=
EDCK NIL=
EDDF 080750Z 03004KT CAVOK 24/11 Q1021 NOSIG=
EDDH 080750Z 16005KT CAVOK 24/13 Q1019 NOSIG=
EDDK 080750Z 17006KT CAVOK 25/12 Q1020 NOSIG=
EDDL 080750Z 20006KT 160V220 CAVOK 25/11 Q1019 NOSIG=
EDDM 080750Z 08007KT CAVOK 20/11 Q1023 NOSIG=
EDDN 080750Z 13004KT CAVOK 22/09 Q1023 NOSIG=
EDDS 080750Z 15004KT CAVOK 23/08 Q1022 NOSIG=
EDDW 080750Z 19004KT 170V230 CAVOK 25/11 Q1019 NOSIG=
EDFE 080750Z VRB02KT CAVOK 24/10 Q1021=
EDFM 080750Z 15005KT 090V200 CAVOK 26/09 Q1020=
EDHI 080750Z 14004KT 100V220 CAVOK 24/12 Q1019=
EDHL 080750Z 17006KT 130V190 CAVOK 24/16 Q1020=
EDKB NIL=
EDKS NIL=
EDLE NIL=
EDLG NIL=
EDLI NIL=
####018000519####
SADL32 KWBC 080750
METAR
EDLN 080750Z VRB03KT CAVOK 25/14 Q1019=
EDLP 080750Z 19007KT 140V220 CAVOK 26/11 Q1020=
EDLS NIL=
EDLW 080750Z 20009KT 170V240 CAVOK 26/10 Q1020=
EDMA 080750Z 13005KT 070V190 CAVOK 22/11 Q1023=
EDML NIL=
EDMO 080750Z 07006KT 040V110 CAVOK 21/10 Q1023=
EDMS NIL=
EDQD NIL=
EDQM 080750Z 22008KT CAVOK 21/10 Q1024=
EDRS NIL=
EDRT NIL=
EDTB NIL=
EDTD 080750Z 15003KT 110V210 CAVOK 22/11 Q1023=
EDTF NIL=
EDTK NIL=
EDTO NIL=
EDTY NIL=
EDTZ NIL=
EDVE NIL=
####018000093####
SPAU31 AMMC 080756
SPECI YSNF 080755Z 12009KT 5000 -DZ SCT010 BKN018 BKN100 14/12 Q1017=
####018000159####
SADL33 KWBC 080745 RRB
METAR
EDNY 080750Z VRB01KT CAVOK 23/12 Q1022=
EDVK 080750Z VRB05KT CAVOK 23/11 Q1021=
EDXW 080750Z 20012KT CAVOK 22/13 Q1018=
####018001121####
SADN31 KWBC 080750
METAR
EKAH 080750Z AUTO 18009KT 130V250 9999NDV FEW039/// FEW088///
     21/14 Q1018=
EKBI 080750Z 19005KT 150V220 9999 FEW038 BKN047 20/15 Q1018=
EKCH 080750Z 18011KT CAVOK 21/15 Q1020 NOSIG=
EKEB 080750Z AUTO 21011KT 9999NDV BKN042/// BKN069/// 21/14
     Q1017=
EKHO NIL=
EKKA 080750Z 20008KT 9999 FEW022TCU BKN060 20/14 Q1017 TEMPO 6000
     SHRA SCT020CB=
EKMB NIL=
EKOD NIL=
EKRK 080753Z 17010KT CAVOK 23/13 Q1020=
EKRK 080750Z NIL=
EKRN 080750Z AUTO 22003KT 9999NDV NCD 19/16 Q1022=
EKSB NIL=
EKSN NIL=
EKSP 080750Z 18008KT CAVOK 21/13 Q1018 NOSIG RMK FEW050 BKN090=
EKSV NIL=
EKTS NIL=
EKVA NIL=
EKVD 080750Z 19006KT 160V220 CAVOK 21/13 Q1018=
EKVG 080750Z 16009KT 120V200 9999 SCT004 BKN006 BKN010 11/10 Q0992
     RMK/RWY 13/31 CLOSED DUE WIP/ SEE NOTAM E0050/10 WIND 850FT
     17011G21KT 130V230=
EKVG 080750Z 16009KT 120V200 9999 SCT004 BKN006 BKN010 11/10 Q0992
     RMK/RWY 13/31 CLOSED DUE WIP. SEE NOTAM E0050/10 WIND 850FT
     17011G21KT 130V230=
EKVJ NIL=
EKVL NIL=
EKYT 080750Z 23009KT 9999 BKN032 20/14 Q1017 NOSIG=
####018000371####
SAEM31 KWBC 080730 RRC
METAR
LOWG 080750Z VRB02KT 9999 FEW060 21/11 Q1024 NOSIG=
LOWI 080750Z 26004KT 180V310 CAVOK 19/12 Q1023 NOSIG=
LOWK 080750Z VRB02KT 9999 FEW050 19/11 Q1024 NOSIG=
LOWL 080750Z 09005KT 050V150 CAVOK 19/10 Q1024 NOSIG=
LOWS 080750Z 14004KT 060V220 CAVOK 20/08 Q1023 NOSIG=
LOWW 080750Z 01005KT 300V050 9999 FEW035 20/11 Q1024 NOSIG=
####018000147####
SAUS43 KLSX 080755
MTRCOU
METAR KCOU 080754Z AUTO 00000KT 6SM -RA BR SCT002 BKN019 OVC030 
23/22 A3005 RMK AO2 SLP167 P0002 T02280222 TSNO
####018000107####
SAUS41 KLWX 080755
MTRDMH
METAR KDMH 080754Z AUTO 28/23 A2999 RMK AO2 SLP154 T02830228 PWINO 
TSNO
####018000114####
SAUS41 KLWX 080755
MTRRSP
METAR KRSP 080754Z AUTO 06004KT 8SM CLR 26/15 A3009 RMK AO2 SLP175 
T02610150 $
####018000115####
SAEN31 KWBC 080720 RRB
METAR
ENGM 080740Z 20008KT 9999 FEW009 SCT012 BKN019 16/14 Q1015 TEMPO
     BKN012=
####018001515####
SAEN31 KWBC 080750
METAR
EETN 080750Z 31007KT 9999 FEW010 22/18 Q1014 NOSIG=
EFHF 080750Z 35005KT 270V070 9999 FEW028 25/19 Q1014=
EFHK 080750Z 32007KT 280V350 9999 FEW025 BKN200 26/18 Q1014
     NOSIG=
EFIV NIL=
EFJY 080750Z 36001KT 9999 BKN014 20/17 Q1015=
EFKE NIL=
EFKK 080750Z 10003KT CAVOK 21/12 Q1016=
EFKU 080750Z AUTO VRB03KT 9999NDV BKN014 21/17 Q1015=
EFMA 080750Z 21006KT 150V310 CAVOK 21/13 Q1016=
EFOU 080750Z 31004KT 270V360 9999 FEW018 18/12 Q1016=
EFPN NIL=
EFPO 080750Z 32003KT CAVOK 22/11 Q1016=
EFRO 080750Z AUTO 23004KT 130V320 CAVOK 17/11 Q1017=
EFTN NIL=
EFTP 080750Z 34003KT 9999 FEW040 23/15 Q1015=
EFTU 080750Z AUTO 36005KT 300V050 CAVOK 23/10 Q1016=
EFVA 080750Z 16002KT 9999 FEW020 BKN200 21/12 Q1015=
ENBO 080750Z 03005KT 340V060 9999 FEW050 SCT100 17/09 Q1010
     NOSIG=
ENBR 080750Z 17012KT 9999 FEW015 SCT060 BKN080 16/12 Q1012
     NOSIG=
ENCN 080750Z 19007KT 9999 FEW002 BKN006 16/15 Q1015=
ENEB NIL=
ENFB NIL=
ENGM NIL=
ENHD 080750Z 18011KT 9999 FEW008 16/12 Q1013=
ENKR 080750Z VRB02KT 9999 SCT009 BKN015 12/09 Q1017=
ENSB 080750Z 30004KT 9999 FEW015 SCT035 BKN060 08/05 Q1008
     NOSIG=
ENTC 080750Z 01004KT 9999 SCT070 BKN090 14/08 Q1011 NOSIG=
ENVA 080750Z 32003KT 260V360 CAVOK 18/11 Q1009 NOSIG=
ENZV 080750Z 20009KT 9999 FEW015 18/12 Q1013 NOSIG=
EVRA 080750Z 32010KT 9999 OVC005 17/17 Q1014 BECMG BKN010
     OVC015=
EYVI 080750Z 28007KT 260V320 2600 RA BKN005 OVC017 15/14 Q1014
     NOSIG=
####018000081####
SAEW31 KWBC 080730 RRB
METAR
LXGB 080750Z 10013KT CAVOK 24/24 Q1016 NOSIG=
####018000028####
SAGR41 KWBC 080750
NIL=
####018000028####
SAGR31 KWBC 080750
NIL=
####018000028####
SAIY31 KWBC 080750
NIL=
####018002958####
SAUS20 KNKA 080755
METAR KABY 080753Z 00000KT 10SM CLR 22/20 A3004 RMK AO2 SLP169 
    T02170200=
METAR KAFJ 080755Z AUTO 00000KT 1/4SM BKN003 17/17 A3010 RMK AO1=
METAR KAKR 080754Z AUTO 00000KT 6SM HZ CLR 22/18 A3009 RMK AO2 
    SLP177 T02170183=
METAR KAMG 080753Z AUTO 00000KT 10SM CLR 22/19 A3001 RMK AO2 SLP160 
    T02170194=
METAR KBFL 080754Z AUTO 34004KT 10SM CLR 24/10 A2982 RMK AO2 SLP091 
    T02390100 403440200 $=
METAR KBHB 080755Z AUTO 21003KT 10SM FEW003 BKN023 18/17 A3010 RMK 
    AO1=
METAR KBID 080755Z AUTO 13007KT 10SM SCT003 OVC030 22/22 A3005 RMK 
    AO1=
METAR KBKX 080755Z AUTO 00000KT 10SM CLR 14/12 A3016 RMK AO1=
METAR KBLM 080755Z AUTO 32003KT 4SM SCT110 24/21 A3004 RMK AO1=
METAR KBOS 080754Z 17009KT 6SM BR OVC011 24/21 A3006 RMK AO2 SLP178 
    T02390211=
METAR KBTP 080755Z AUTO 00000KT 2 1/2SM CLR 19/18 A3009 RMK AO1=
METAR KBUF 080754Z 18005KT 9SM CLR 23/20 A3005 RMK AO2 SLP170 
    T02280200=
METAR KBUY 080754Z AUTO 00000KT 8SM CLR 23/20 A2998 RMK AO2 SLP142 
    T02330200 $=
METAR KCEU 080754Z AUTO 00000KT 7SM CLR 24/22 A3004 RMK AO2 SLP157 
    T02440222=
METAR KCGZ 080755Z AUTO 00000KT 10SM CLR 30/01 A2978 RMK AO1=
METAR KCOD 080755Z 10005KT 10SM CLR 10/00 A3033 RMK AO1=
METAR KCOS 080754Z 18006KT 10SM SCT033 BKN050 OVC060 14/12 A3041 RMK 
    AO2 SLP227 T01390117=
METAR KCRW 080754Z 00000KT 4SM BR CLR 22/20 A3008 RMK AO2 SLP173 
    T02170200=
METAR KDDH 080754Z AUTO 00000KT 3SM BR CLR 19/19 A3004 RMK AO2 
    SLP167 T01940189=
METAR KDHN 080753Z AUTO 23003KT 10SM CLR 23/22 A3006 RMK AO2 SLP174 
    T02330217=
METAR KDSM 080754Z 34007KT 10SM SCT250 22/20 A3006 RMK AO2 SLP171 
    T02220200=
METAR KDSV 080754Z AUTO 15005KT 6SM BR CLR 22/19 A3009 RMK AO2 
    SLP190 T02170194=
METAR KDVL 080755Z AUTO 26006KT 10SM CLR 15/11 A3006 RMK AO1=
METAR KDYL 080754Z AUTO 00000KT 8SM CLR 23/21 A3001 RMK AO2 SLP156 
    T02280206 TSNO=
METAR KEEN 080755Z AUTO 00000KT 5SM CLR 22/22 A3005 RMK AO1=
METAR KEGE 080755Z 33003KT 10SM CLR 11/09 A3039 RMK AO1=
METAR KENV 080755Z 02012KT 10SM CLR 23/M02 A3008 RMK AO1=
METAR KEUL 080755Z AUTO 00000KT 10SM CLR 16/08 A3003 RMK AO1=
METAR KEVV 080754Z AUTO 00000KT 10SM BKN075 OVC090 26/22 A3005 RMK 
    AO2 SLP171 T02560217=
METAR KFIG 080754Z AUTO 00000KT 5SM BR CLR 19/17 A3011 RMK AO2 
    SLP184 T01890172=
METAR KFKL 080755Z 00000KT 3SM CLR 19/18 A3013 RMK AO1=
METAR KFNL 080755Z AUTO 05005KT 5SM SCT005 BKN008 OVC031 14/14 A3030 
    RMK AO1=
METAR KFRM 080755Z AUTO 10SM CLR 17/16 A3012 RMK AO1=
METAR KFZY 080754Z AUTO 00000KT 1 1/4SM BR FEW050 21/20 A3004 RMK 
    AO2 SLP167 T02060200=
METAR KGCN 080754Z AUTO 00000KT 10SM CLR 10/M03 A3022 RMK AO2 SLP137 
    T01001033=
METAR KGDV 080755Z AUTO 23006KT 10SM CLR 12/08 A3017 RMK AO1=
METAR KGED 080754Z AUTO 00000KT 3SM BR SCT080 BKN100 24/23 A2999 RMK 
    AO2 SLP155 T02440233=
####018002901####
SAUS20 KNKA 080755
METAR KPLN 080754Z AUTO 13004KT 10SM BKN110 21/21 A2998 RMK AO2 
    SLP147 T02110206=
METAR KPNE 080754Z 11003KT 7SM FEW100 24/22 A3002 RMK AO2 SLP165 
    T02440222=
METAR KPNS 080753Z AUTO 01003KT 10SM CLR 24/24 A3001 RMK AO2 SLP164 
    T02440239=
METAR KPQI 080755Z AUTO 15005KT 10SM CLR 22/19 A2997 RMK AO1=
METAR KPRX 080755Z 13004KT 10SM BKN015 24/22 A3001 RMK AO1=
METAR KPSF 080754Z AUTO 00000KT 3SM BR CLR 19/18 A3006 RMK AO2 
    SLP146 T01940183=
METAR KPTV 080755Z AUTO 17005KT 10SM CLR 22/13 A2984 RMK AO1=
METAR KPTW 080754Z AUTO 00000KT 5SM HZ CLR 25/19 A3002 RMK AO2 
    SLP160 T02500194 $=
METAR KPVC 080755Z 18004KT 3/4SM OVC002 21/20 A3008 RMK AO1=
METAR KPVU 080755Z 06005KT 10SM CLR 19/08 A3011 RMK AO1=
METAR KPWG 080755Z AUTO 13004KT 10SM SCT013 BKN120 25/22 A2999 RMK 
    AO1 LTG DSNT SE=
METAR KRDG 080754Z 00000KT 9SM CLR 24/21 A3000 RMK AO2 SLP160 
    T02440206=
METAR KRKD 080755Z AUTO 21003KT 1/2SM OVC002 18/17 A3009 RMK AO1=
METAR KRKS 080754Z AUTO 09007KT 10SM CLR 10/05 A3033 RMK AO2 SLP210 
    T01000050=
METAR KROC 080754Z 22004KT 7SM FEW140 BKN180 BKN250 23/21 A3005 RMK 
    AO2 SLP171 T02280206=
METAR KRST 080754Z AUTO 31007KT 7SM CLR 19/18 A3007 RMK AO2 SLP176 
    T01940183=
METAR KRUT 080755Z AUTO 14006KT 5SM CLR 21/18 A3004 RMK AO1=
METAR KSBY 080754Z AUTO 00000KT 3SM BR BKN003 OVC110 24/23 A2999 RMK 
    AO2 SLP156 T02440233=
METAR KSDY 080755Z AUTO 20005KT 10SM FEW120 14/09 A3014 RMK AO1=
METAR KSFM 080755Z 00000KT 1/2SM OVC002 21/19 A3006 RMK AO1=
METAR KSFZ 080755Z AUTO 00000KT 10SM OVC010 22/21 A3005 RMK AO1=
METAR KSGU 080755Z AUTO 00000KT 10SM CLR 28/02 A2993 RMK AO1=
METAR KSJN 080754Z AUTO 14006KT 10SM BKN110 24/03 A3015 RMK AO2 
    SLP097 T02390033=
METAR KSMN 080755Z AUTO 00000KT 10SM CLR 10/02 A3021 RMK AO1=
METAR KSYR 080754Z 00000KT 7SM CLR 23/21 A3004 RMK AO2 SLP167 
    T02330206=
METAR KTAD 080754Z AUTO 00000KT 10SM SCT035 SCT075 14/13 A3035 RMK 
    AO2 SLP204 T01440128=
METAR KTPL 080755Z 09004KT 10SM BKN016 OVC022 24/23 A2998 RMK AO1=
METAR KTQE 080754Z AUTO 36005KT 10SM BKN027 20/18 A3012 RMK AO2 
    SLP190 T02000183=
METAR KTVF 080755Z AUTO 26007KT 10SM CLR 14/11 A3003 RMK AO1=
METAR KVAY 080754Z AUTO 00000KT 1SM BR OVC003 23/23 A3001 RMK AO2 
    SLP162 T02330228=
METAR KVIS 080755Z AUTO 33007KT 10SM CLR 24/12 A2981 RMK AO1=
METAR KVLD 080753Z AUTO 00000KT 9SM CLR 20/19 A3001 RMK AO2 SLP169 
    T02000189=
METAR KVSF 080754Z AUTO 00000KT 4SM BR CLR 21/20 A3005 RMK AO2 
    SLP173 T02110200 $=
METAR KVTA 080754Z AUTO 00000KT 2 1/2SM BR BKN065 19/18 A3008 RMK 
    AO2 SLP178 T01890178=
METAR KWVL 080755Z AUTO 19004KT 6SM OVC004 21/19 A3003 RMK AO1=
METAR KWWD 080755Z AUTO 10SM OVC120 24/24 A3001 RMK AO1=
METAR KYKN 080755Z AUTO 28003KT 10SM CLR 17/14 A3016 RMK AO1=
####018002973####
SAUS20 KNKA 080755
METAR KGPZ 080755Z AUTO 19004KT 10SM CLR 13/12 A3006 RMK AO1=
METAR KGTU 080755Z 09003KT 10SM BKN010 OVC037 25/21 A3001 RMK AO1=
METAR KGUC 080755Z AUTO 35008KT 10SM CLR 09/04 A3043 RMK AO1=
METAR KGXY 080755Z AUTO 12005KT 10SM FEW008 OVC120 15/12 A3030 RMK 
    AO1=
METAR KHDN 080755Z 10011KT 10SM CLR 12/06 A3032 RMK AO1=
METAR KHYI 080755Z AUTO 06005KT 10SM BKN018 OVC024 A2994 RMK AO1=
METAR KILE 080755Z 11007KT 10SM BKN016 OVC021 25/22 A2997 RMK AO1=
METAR KILN 080754Z AUTO 00000KT 5SM HZ CLR 22/19 A3008 RMK AO2 
    SLP172 T02220194=
METAR KIMT 080754Z AUTO 00000KT 10SM OVC003 20/19 A2998 RMK AO2 
    SLP146 T02000194=
METAR KIND 080754Z 00000KT 9SM SCT100 26/19 A3003 RMK AO2 SLP160 
    T02560194=
METAR KIPT 080754Z AUTO 00000KT 9SM CLR 21/17 A3005 RMK AO2 SLP170 
    T02060167=
METAR KISW 080754Z AUTO 28005KT 10SM BKN007 OVC015 21/20 A3001 RMK 
    AO2 SLP157 T02110200 TSNO=
METAR KIZG 080754Z AUTO 00000KT 9SM SCT095 21/19 A3006 RMK AO2 
    SLP176 T02110194=
METAR KJAC 080755Z AUTO 02009KT 10SM CLR 11/M01 A3032 RMK AO1=
METAR KJHW 080755Z AUTO 00000KT 8SM CLR 21/19 A3011 RMK AO1=
METAR KJST 080754Z AUTO 24003KT 7SM CLR 22/16 A3014 RMK AO2 SLP187 
    T02170156=
METAR KLCI 080755Z AUTO 00000KT 10SM OVC085 23/19 A3004 RMK AO1=
METAR KLEW 080755Z 15003KT 3SM OVC004 21/20 A3008 RMK AO1=
METAR KLEX 080754Z 00000KT 6SM HZ CLR 22/18 A3008 RMK AO2 SLP176 
    T02170183=
METAR KLNK 080754Z AUTO 36007KT 10SM SCT026 19/18 A3013 RMK AO2 
    SLP194 T01890178=
METAR KLPC 080755Z AUTO 00000KT 10SM OVC012 14/11 A2992 RMK AO1 PNO=
METAR KLWM 080754Z AUTO 00000KT 5SM BR SCT008 23/21 A3006 RMK AO2 
    SLP178 T02330211=
METAR KLWT 080754Z AUTO 15004KT 10SM FEW070 09/06 A3026 RMK AO2 
    SLP228 T00940061=
METAR KMFI 080754Z AUTO 31006KT 4SM BR BKN001 20/19 A3000 RMK AO2 
    SLP153 T02000189=
METAR KMGJ 080754Z AUTO 00000KT 5SM BR CLR 22/20 A3002 RMK AO2 
    SLP161 T02170200=
METAR KMIV 080754Z AUTO 00000KT 2 1/2SM BR OVC002 24/23 A2999 RMK 
    AO2 SLP152 T02440228=
METAR KMJX 080755Z AUTO 31003KT 4SM OVC005 24/22 A3001 RMK AO1=
METAR KMKT 080755Z 32006KT 10SM CLR 18/17 A3009 RMK AO1=
METAR KMML 080755Z AUTO 25004KT 10SM CLR 16/13 A3013 RMK AO1=
METAR KMOT 080754Z AUTO 24005KT 10SM CLR 15/12 A3008 RMK AO2 SLP182 
    T01500117 TSNO=
METAR KMSV 080755Z AUTO 02004KT 7SM CLR 21/18 A3009 RMK AO1=
METAR KMVL 080754Z AUTO 00000KT 3SM BR SCT050 21/20 A3006 RMK AO2 
    SLP175 T02060200=
METAR KOCH 080755Z AUTO 11005KT 10SM CLR 24/19 A3000 RMK AO1=
METAR KOKK 080755Z AUTO 00000KT 10SM CLR 23/17 A3005 RMK AO1=
METAR KORH 080754Z AUTO 21005KT 4SM BR BKN004 BKN047 22/21 A3008 RMK 
    AO2 SLP179 T02170211=
METAR KOTG 080755Z AUTO 26005KT 10SM CLR 14/13 A3015 RMK AO1=
METAR KOXC 080755Z 00000KT 3SM BKN095 22/21 A3007 RMK AO1=
METAR KPHL 080754Z 12003KT 8SM FEW150 26/22 A3001 RMK AO2 SLP162 
    T02560222 $=
####018000028####
SAIY32 KWBC 080750
NIL=
####018000351####
SAHW31 KMSC 080755
METAR PHMK 080754Z AUTO 05010KT 10SM CLR 22/19 A3005 RMK AO2 SLP176 
    T02220189 TSNO=
METAR PHOG 080754Z 04010KT 10SM FEW030 SCT050 24/18 A3004 RMK AO2 
    SLP177 T02440178=
METAR PGSN 080754Z 08013KT 10SM FEW023 28/24 A2987 RMK AO2 SLP111 
    T02780244=
METAR PGRO 080755Z 08011G16KT 7SM FEW025 28/25 A2987
=
####018000028####
SAIY43 KWBC 080750
NIL=
####018000099####
SPAU31 AMMC 080756
SPECI YSNF 080755Z 12009KT 5000 -DZ SCT010 BKN018 BKN100 14/12 Q1017=


####018000028####
SAIY41 KWBC 080750
NIL=
####018000028####
SAIY42 KWBC 080750
NIL=
####018000342####
SANL31 KWBC 080750
METAR
EHAM NIL=
EHBD NIL=
EHBK NIL=
EHDL NIL=
EHEH 080755Z AUTO 26004KT 9999NDV NCD 26/13 Q1019 BLU BLU=
EHGG NIL=
EHGR NIL=
EHHO NIL=
EHHV NIL=
EHKD NIL=
EHLE NIL=
EHLW NIL=
EHMZ NIL=
EHRD NIL=
EHSB NIL=
EHTE NIL=
EHTW NIL=
EHTX NIL=
EHVB NIL=
EHVK NIL=
EHVL NIL=
EHWO NIL=
####018000916####
SANO41 KWBC 080750
METAR
ENAL 080750Z 17005KT 9999 SCT055 SCT085 18/07 Q1008=
ENAN 080750Z 15009KT 9999 FEW045 17/10 Q1010 NOSIG=
ENAT 080750Z 17007KT 140V210 9999 FEW040 SCT088 17/09 Q1014=
ENBL 080750Z 18014KT 9999 FEW030 BKN040 15/09 Q1010=
ENBN 080750Z 34007KT CAVOK 17/09 Q1009=
ENBV 080750Z 09007KT 9999 BKN017 10/08 Q1017=
ENDI 080750Z NIL=
ENDU 080750Z 07003KT 010V130 9999 FEW050 SCT080 17/09 Q1011
     NOSIG=
ENEK 080750Z 23017KT CAVOK 15/13 Q1014 W14/S3=
ENEV 080750Z 21003KT 120V250 9999 FEW070 19/09 Q1011=
ENFG 080750Z 18005KT 9999 VCSH BKN017 13/09 Q1013=
ENFL 080750Z 19017KT 9999 FEW015 SCT050 15/11 Q1010=
ENFR NIL=
ENGC 080750Z 18027KT CAVOK 13/11 Q1007=
ENHF 080750Z 19010KT 160V220 9999 FEW035 SCT085 16/07 Q1013=
ENHV 080750Z 21008KT 190V240 CAVOK 11/08 Q1015=
ENKB 080750Z VRB02KT CAVOK 17/12 Q1009=
ENLI NIL=
ENLK 080750Z NIL=
ENMH 080750Z NIL=
####018001256####
SANO42 KWBC 080750
METAR
ENML 080750Z 03005KT 9999 FEW050 BKN060 16/12 Q1009=
ENMS 080750Z VRB02KT 9999 FEW060 20/10 Q1009=
ENNA 080750Z 17014KT 9999 FEW040 17/09 Q1014=
ENNK 080750Z 03004KT 9999 BKN060 17/10 Q1011=
ENNM 080750Z 24003KT 200V280 CAVOK 18/10 Q1009=
ENNO 080750Z 08007KT 050V110 9000 -RA SCT020 BKN030 16/14
     Q1014=
ENOA 080750Z 19024KT CAVOK1 13/11 Q1008=
ENOL 080750Z 11008KT 9999 FEW025 BKN090 16/12 Q1008 NOSIG=
ENOV 080750Z VRB03KT 9999 SCT055 SCT085 17/07 Q1009=
ENRA 080750Z 00000KT 9999 BKN070 19/12 Q1009=
ENRM 080750Z 01007KT 330V050 CAVOK 17/09 Q1010=
ENRO 080750Z 18005KT 9999 SCT025 BKN100 16/08 Q1011=
ENRS 080750Z NIL=
ENRY 080750Z 20008KT 9000 SCT007 BKN012 16/15 Q1016 TEMPO 4000 RA
     BR BKN006=
ENSD 080750Z NIL=
ENSG 080750Z 20003KT 120V280 9999 -SHRA SCT040 SCT060 13/10
     Q1012=
ENSH 080750Z 18004KT 9999 FEW040 SCT070 15/09 Q1010=
ENSK 080750Z 16002KT CAVOK 17/09 Q1010=
ENSN 080750Z NIL=
ENSO 080750Z 15012KT 9999 FEW015 SCT070 17/12 Q1012=
ENSR 080750Z 15009KT 110V210 CAVOK 18/09 Q1012=
ENST 080750Z 32004KT 260V030 CAVOK 16/11 Q1010=
ENSV NIL=
ENTO 080750Z 21010KT 3500 RA VV006 16/15 Q1016=
ENVD 080750Z 16004KT 130V190 9999 BKN022 11/08 Q1017=
####018000028####
SAOM43 KWBC 080750
NIL=
####018001074####
SASN31 KWBC 080750
METAR
ESDB NIL=
ESDF 080750Z 22004KT 160V250 CAVOK 22/12 Q1021=
ESGG 080750Z 21014KT 9999 BKN036 19/13 Q1018=
ESGJ 080750Z AUTO 22011KT 9999NDV ////// 19/12 Q1019=
ESGP 080750Z 19016KT 9999 OVC039 19/15 Q1018=
ESKN 080750Z 26008KT 200V330 CAVOK 22/11 Q1018=
ESMK 080750Z 22005KT 170V270 CAVOK 23/13 Q1020=
ESMS 080750Z 18010KT CAVOK 22/12 Q1021=
ESMX 080750Z 23006KT 190V290 CAVOK 21/11 Q1020=
ESNN 080750Z AUTO 15007KT 9999NDV NCD 20/12 Q1013=
ESNO 080750Z 13011KT CAVOK 20/11 Q1014=
ESNQ 080750Z 20011KT CAVOK 17/08 Q1013=
ESNS 080750Z 17007KT 130V200 CAVOK 21/11 Q1015=
ESNU 080750Z 14006KT 110V180 CAVOK 20/12 Q1015=
ESOK 080750Z 20009KT 9999 BKN023 18/13 Q1017=
ESOW 080750Z 24008KT CAVOK 20/12 Q1018=
ESPA 080750Z 17012KT CAVOK 19/13 Q1016=
ESPC NIL=
ESSA 080750Z 24009KT 200V280 CAVOK 22/11 Q1017 NOSIG=
ESSB 080750Z 27007KT 240V350 CAVOK 22/11 Q1017=
ESSD 080750Z 18008KT 9999NDV NCD 20/13 Q1016=
ESSN NIL=
ESSP 080750Z 25008KT 220V290 CAVOK 21/12 Q1018=
ESSV 080750Z 31007KT CAVOK 19/12 Q1019=
####018000507####
SASW31 KWBC 080750
METAR
LSGC 080750Z 24007KT 200V290 CAVOK 22/11 Q1024=
LSGG 080750Z VRB01KT CAVOK 24/12 Q1022 NOSIG=
LSGL NIL=
LSGN NIL=
LSGS 080750Z VRB02KT CAVOK 24/12 Q1022=
LSZA 080750Z 18004KT 150V210 9999 BKN050 24/14 Q1023 NOSIG=
LSZB 080750Z VRB01KT CAVOK 22/14 Q1022 NOSIG=
LSZD NIL=
LSZG 080750Z NIL=
LSZH 080750Z 33003KT 250V050 CAVOK 21/12 Q1022 NOSIG=
LSZL NIL=
LSZR 080750Z VRB02KT CAVOK 20/14 Q1022 NOSIG RMK E=
LSZS 080750Z 13004KT 060V170 CAVOK 17/11 Q1027=
####018001089####
SAUK31 KWBC 080750
METAR
EGAA 080750Z 23012KT 9999 SCT014 14/10 Q1014=
EGBB 080750Z 23006KT 200V270 9999 FEW024 15/11 Q1018=
EGCC 080750Z 19006KT 160V220 9999 FEW036 16/12 Q1017=
EGFF 080750Z 22004KT 180V260 9999 SCT018 16/13 Q1018=
EGGD 080750Z 19004KT 160V220 9999 FEW025 15/13 Q1019=
EGGP 080750Z 21010KT 9999 FEW025 16/11 Q1016=
EGGW 080750Z 26007KT 9999 OVC022 16/13 Q1019=
EGHD 080750Z 00000KT 9999 FEW025 17/12 Q1019=
EGHH 080750Z 24005KT 9999 SCT007 BKN012 17/17 Q1019=
EGHI 080750Z 24007KT 210V270 6000 -SHRA BR SCT005 BKN008 16/15
     Q1019=
EGJB 080750Z 23005KT 200V270 9999 2800SE VCFG FEW001 BKN006 17/16
     Q1020=
EGJJ 080750Z 31007KT 240V340 9999 FEW002 BKN010 19/17 Q1020
     NOSIG=
EGKA 080750Z NIL=
EGKB 080750Z 22005KT 190V260 9999 SCT012 18/15 Q1019=
EGKK 080750Z 23005KT 9999 BKN010 18/14 Q1019=
EGLF 080750Z 24005KT 200V260 9999 -DZ SCT006 BKN009 17/16
     Q1019=
EGLL 080750Z 27008KT 9999 FEW009 BKN011 19/15 Q1019=
EGMC 080750Z 24009KT 9999 FEW016 SCT040 19/15 Q1019=
EGMD 080750Z NIL=
EGNH NIL=
EGNJ NIL=
####018000645####
SAUK32 KWBC 080750
METAR
EGNM 080750Z 23007KT 190V270 9999 FEW010 SCT035 15/11 Q1016=
EGNS 080750Z NIL=
EGNT 080750Z 22008KT 190V260 9999 FEW040 15/10 Q1014=
EGNV 080750Z 18009KT 9999 FEW030 16/13 Q1015=
EGNX 080750Z 22009KT CAVOK 16/10 Q1017=
EGPA NIL=
EGPB 080750Z 20015KT CAVOK 14/10 Q1005 NOSIG=
EGPC NIL=
EGPD 080750Z 21011KT 170V240 CAVOK 15/09 Q1010 NOSIG=
EGPF 080750Z 22015KT 9999 FEW030 SCT040 14/10 Q1012=
EGPH 080750Z 22015KT 9999 FEW022 15/09 Q1012=
EGPK 080750Z 23013KT 9999 SCT025 15/10 Q1013=
EGSH NIL=
EGTE 080750Z 08001KT CAVOK 17/14 Q1018=
EGTG 080750Z 26003KT 9999 -SHRA SCT018 16/12 Q1019=
####018000580####
SAUK41 KWBC 080750
METAR
EGAC 080750Z 21011KT 9999 FEW018 SCT024 15/10 Q1013=
EGAE NIL=
EGBE NIL=
EGBJ NIL=
EGDC NIL=
EGDG NIL=
EGDL NIL=
EGDM NIL=
EGDN NIL=
EGDP NIL=
EGDR NIL=
EGDY NIL=
EGFH NIL=
EGGP 080750Z 21010KT 9999 FEW025 16/11 Q1016=
EGGW 080750Z 26007KT 9999 OVC022 16/13 Q1019=
EGHE 080750Z 19003KT CAVOK 17/13 Q1019=
EGJA 080750Z 18003KT 4000 0800SE R26/1000 BCFG FEW000 SCT001
     BKN015 16/16 Q1020=
EGLC 080750Z 24006KT 200V270 9999 BKN016 19/14 Q1019=
EGNC NIL=
EGNT 080750Z 22008KT 190V260 9999 FEW040 15/10 Q1014=
####018000407####
SAUK42 KWBC 080750
METAR
EGOS NIL=
EGOV NIL=
EGPC NIL=
EGPE NIL=
EGPF 080750Z 22015KT 9999 FEW030 SCT040 14/10 Q1012=
EGPL NIL=
EGPM NIL=
EGPN NIL=
EGPO NIL=
EGPT NIL=
EGPU NIL=
EGPW NIL=
EGQJ NIL=
EGQK NIL=
EGQL NIL=
EGQM NIL=
EGQS NIL=
EGSC NIL=
EGSS 080750Z 24007KT 3700 -DZ BKN006 17/16 Q1019=
EGTC 080750Z 29007KT 9999 FEW012 BKN030 16/13 Q1018=
EGTI NIL=
####018000028####
SAUR31 KWBC 080750
NIL=
####018000108####
SAXX99 KWBC 080700 RRX
METAR
K4O4 080748Z AUTO 00000KT 10SM SCT001 BKN013 23/22 A3004 RMK
     AO2=
####018001419####
SAUS17 KAWN 080800
METAR KBAD 080755Z AUTO 00000KT 10SM FEW180 24/24 A3001 RMK AO2 SLP163
      T02430236 $=
METAR KBLV 080755Z AUTO 00000KT 10SM FEW045 24/24 A3003 RMK AO2 SLP165
      T02410239=
METAR KCEF 080755Z AUTO 16003KT 10SM BKN080 BKN100 24/22 A3003 RMK
      AO2 SLP167 T02440218 PWINO $=
METAR KDAA 080755Z AUTO 20003KT 10SM CLR 24/21 A2997 RMK AO2 SLP151
      T02420207=
METAR KEDW 080755Z AUTO 17007KT 10SM CLR 20/05 A2987 RMK AO2 SLP063
      T02030054 403670158=
METAR KEFD 080750Z 11009KT 9SM FEW025 BKN130 28/24 A2993=
METAR KGRF 080755Z AUTO 00000KT 10SM CLR 17/11 A2993 RMK AO2 DZB0722E0731
      SLP136 P0000 T01730110 403240096 $=
METAR KGUS 080755Z AUTO 18003KT 10SM CLR 23/20 A3005 RMK AO2 SLP168
      T02270204=
METAR KHMN 080755Z 35006KT 10SM SCT085 BKN130 OVC150 20/15 A3015 RMK
      AO2A SLP125 T02040148 $=
METAR KIAB 080755Z AUTO 06007KT 10SM CLR 22/20 A3008 RMK AO2 SLP176
      T02210204=
METAR KLRF 080755Z AUTO 00000KT 10SM SCT160 24/22 A3005 RMK AO2 SLP175
      T02350224=
METAR KMGE 080755Z AUTO 00000KT 10SM CLR 23/19 A3005 RMK AO2 SLP163
      T02300190 $=
METAR KMMT 080755Z AUTO 29003KT 10SM CLR 22/19 A2999 RMK AO2 SLP153
      T02230193=
METAR KMTC 080755Z AUTO 00000KT 10SM CLR 23/22 A3002 RMK AO2 SLP169
      T02310223 $=
METAR KNFW 080752Z AUTO 14010KT 10SM OVC024 27/22 A3003 RMK AO2 SLP151
      T02670222=
####018000081####
SACV20 GVBA 080800
METAR GVBA 080800Z 02012KT 9999 BKN015 25/20 Q1012 NOSIG=
####018000112####
SAUS41 KCAR 080755
MTRCAR
METAR KCAR 080754Z AUTO 00000KT 9SM CLR 22/20 A2999 RMK AO2 SLP155 
T02170200
####018000109####
SAUS41 KBGM 080756
MTRAVP
METAR KAVP 080754Z 11005KT 7SM CLR 21/18 A3005 RMK AO2 SLP163 
T02110178 $
####018001649####
SAEU KAWN 080800 RRC
METAR EBAW 080750Z 19005KT 140V230 CAVOK 24/12 Q1019 NOSIG=
METAR EBBR 080750Z 22005KT 190V280 CAVOK 26/11 Q1019 NOSIG=
METAR EBCI 080750Z 21007KT CAVOK 25/10 Q1020 NOSIG=
METAR EBLG 080750Z 20006KT CAVOK 25/09 Q1020 NOSIG=
METAR EBOS 080750Z 28006KT CAVOK 19/15 Q1019 NOSIG=
METAR EDAH 080750Z 15006KT 110V180 CAVOK 21/11 Q1022=
METAR EDHL 080750Z 17006KT 130V190 CAVOK 24/16 Q1020=
METAR EDLN 080750Z VRB03KT CAVOK 25/14 Q1019=
METAR EDLP 080750Z 19007KT 140V220 CAVOK 26/11 Q1020=
METAR EDLW 080750Z 20009KT 170V240 CAVOK 26/10 Q1020=
METAR EDMA 080750Z 13005KT 070V190 CAVOK 22/11 Q1023=
METAR EDNY 080750Z VRB01KT CAVOK 23/12 Q1022=
METAR EDQM 080750Z 22008KT CAVOK 21/10 Q1024=
METAR EDSB 080750Z VRB03KT CAVOK 23/12 Q1021=
METAR EDXW 080750Z 20012KT CAVOK 22/13 Q1018=
METAR EGUL 080755Z AUTO 27008KT 4000 -DZ BR BKN005 OVC013 17/16 A3006
      RMK AO2 RAB0711E0731DZB0708E0711B0731E0734B0751 SLP182 P0000
      T01700162=
METAR ELLX 080750Z VRB02KT CAVOK 23/10 Q1021 NOSIG=
METAR ETEB 080755Z AUTO 15005KT 9999 CLR 22/10 A3021 RMK AO2 SLP215
      T02150096=
METAR ETOU 080755Z AUTO 00000KT 9999 CLR 24/11 A3016 RMK AO2 SLP210
      T02370110=
METAR LOWG 080750Z VRB02KT 9999 FEW060 21/11 Q1024 NOSIG=
METAR LOWI 080750Z 26004KT 180V310 CAVOK 19/12 Q1023 NOSIG=
METAR LOWK 080750Z VRB02KT 9999 FEW050 19/11 Q1024 NOSIG=
METAR LOWL 080750Z 09005KT 050V150 CAVOK 19/10 Q1024 NOSIG=
METAR LOWS 080750Z 14004KT 060V220 CAVOK 20/08 Q1023 NOSIG=
METAR LOWW 080750Z 01005KT 300V050 9999 FEW035 20/11 Q1024 NOSIG=
METAR LXGB 080750Z 10013KT CAVOK 24/24 Q1016 NOSIG=
####018001676####
SAEW KAWN 080800 RRA
METAR EBAW 080750Z 19005KT 140V230 CAVOK 24/12 Q1019 NOSIG=
METAR EBLG 080750Z 20006KT CAVOK 25/09 Q1020 NOSIG=
METAR EDAH 080750Z 15006KT 110V180 CAVOK 21/11 Q1022=
METAR EDFH 080750Z 11007KT CAVOK 23/12 Q1021=
METAR EDHI 080750Z 14004KT 100V220 CAVOK 24/12 Q1019=
METAR EDHL 080750Z 17006KT 130V190 CAVOK 24/16 Q1020=
METAR EDLN 080750Z VRB03KT CAVOK 25/14 Q1019=
METAR EDLP 080750Z 19007KT 140V220 CAVOK 26/11 Q1020=
METAR EDLW 080750Z 20009KT 170V240 CAVOK 26/10 Q1020=
METAR EDMA 080750Z 13005KT 070V190 CAVOK 22/11 Q1023=
METAR EDMO 080750Z 07006KT 040V110 CAVOK 21/10 Q1023=
METAR EDNY 080750Z VRB01KT CAVOK 23/12 Q1022=
METAR EDOP 080750Z 18007KT 140V220 CAVOK 24/11 Q1021=
METAR EDQM 080750Z 22008KT CAVOK 21/10 Q1024=
METAR EDSB 080750Z VRB03KT CAVOK 23/12 Q1021=
METAR EDTL 080750Z VRB03KT CAVOK 23/14 Q1020=
METAR EDVK 080750Z VRB05KT CAVOK 23/11 Q1021=
METAR EDXW 080750Z 20012KT CAVOK 22/13 Q1018=
METAR EGJJ 080750Z 31007KT 240V340 9999 FEW002 BKN010 19/17 Q1020 NOSIG=
METAR EHEH 080755Z AUTO 26004KT 9999NDV NCD 26/13 Q1019 BLU BLU=
METAR EKBI 080750Z 19005KT 150V220 9999 FEW038 BKN047 20/15 Q1018=
METAR EKCH 080750Z 18011KT CAVOK 21/15 Q1020 NOSIG=
METAR EKEB 080750Z AUTO 21011KT 9999NDV BKN042/// BKN069/// 21/14 Q1017=
METAR EKRK 080753Z 17010KT CAVOK 23/13 Q1020=
METAR EKVD 080750Z 19006KT 160V220 CAVOK 21/13 Q1018=
METAR EKYT 080750Z 23009KT 9999 BKN032 20/14 Q1017 NOSIG=
METAR ELLX 080750Z VRB02KT CAVOK 23/10 Q1021 NOSIG=
METAR ETEB 080755Z AUTO 15005KT 9999 CLR 22/10 A3021 RMK AO2 SLP215
      T02150096=
METAR ETUO 080750Z 16004KT CAVOK 25/10 Q1020 BLU NOSIG=
####018001436####
SAZZ40 KAWN 080800 RRC
METAR KBAD 080755Z AUTO 00000KT 10SM FEW180 24/24 A3001 RMK AO2 SLP163
      T02430236 $=
METAR KBUR 080753Z 15005KT 9SM OVC011 16/13 A2991 RMK AO2 SLP118 T01560128
      402330144=
METAR KDAA 080755Z AUTO 20003KT 10SM CLR 24/21 A2997 RMK AO2 SLP151
      T02420207=
METAR KDYS 080755Z AUTO 13003KT 10SM FEW230 21/21 A3002 RMK AO2 SLP141
      T02100207 $=
METAR KEDW 080755Z AUTO 17007KT 10SM CLR 20/05 A2987 RMK AO2 SLP063
      T02030054 403670158=
METAR KIAB 080755Z AUTO 06007KT 10SM CLR 22/20 A3008 RMK AO2 SLP176
      T02210204=
METAR KMMT 080755Z AUTO 29003KT 10SM CLR 22/19 A2999 RMK AO2 SLP153
      T02230193=
METAR KMTC 080755Z AUTO 00000KT 10SM CLR 23/22 A3002 RMK AO2 SLP169
      T02310223 $=
METAR KOFF 080755Z AUTO 34006KT 10SM CLR 21/20 A3010 RMK AO2 SLP180
      T02070200 $=
METAR KRIV 080755Z AUTO 00000KT 10SM CLR 13/11 A2992 RMK AO2 SLP129
      T01290113 402700116=
METAR KSUU 080755Z AUTO 24020G25KT 10SM CLR 13/10 A2982 RMK AO2 PK
      WND 24032/0708 SLP101 T01310101 402720121 RVRNO $=
METAR KTOI 080753Z AUTO 00000KT 8SM CLR 22/22 A3003 RMK AO2 SLP163
      T02220217=
METAR PAEI 080755Z AUTO 00000KT 10SM CLR 15/08 A3004 RMK AO2 SLP173
      T01460083 $=
METAR TIST 080753Z AUTO 08004KT 10SM CLR 28/24 A2997 RMK AO2 SLP150
      T02780244 TSNO=
METAR TISX 080753Z 09007KT 10SM FEW022 27/24 A2997 RMK AO2 SLP148 T02720239=
####018000090####
SALI20 GLRB 080800
METAR GLRB 080800Z 03004KT 9999 BKN013 FEW024CB 25/23 Q1015 CB-SW=
####018000090####
SAOS32 LOWM 080750 RRA
METAR LOXZ 080750Z VRB02KT 70KM SKC 16/09 Q1024 NOSIG RMK SKC=
####018000085####
SAUK33 EGGY 080750 RRA
METAR EGNS 080750Z 25010KT 9999 FEW020 16/11 Q1015 NOSIG=
####018000187####
SAUK31 EGGY 080750 CCA
METAR COR EGCC 080750Z 19006KT 160V220 9999 FEW036 16/12 Q1017
    NOSIG=
METAR COR EGLL 080750Z 27008KT 9999 FEW009 BKN011 19/15 Q1019 BECMG
    SCT040=
####018000085####
SAEU KAWN 080700 RRX
METAR LEGR 080730Z 03003KT 340V070 9999 SCT060 27/12 Q1018=
####018001789####
SAEU KAWN 080800 RRD
METAR ENAT 080750Z 17007KT 140V210 9999 FEW040 SCT088 17/09 Q1014=
METAR ENBL 080750Z 18014KT 9999 FEW030 BKN040 15/09 Q1010=
METAR ENBN 080750Z 34007KT CAVOK 17/09 Q1009=
METAR ENBS 080750Z VRB02KT 9999 FEW002 SCT012 BKN015 10/07 Q1017=
METAR ENBV 080750Z 09007KT 9999 BKN017 10/08 Q1017=
METAR ENCN 080750Z 19007KT 9999 FEW002 BKN006 16/15 Q1015=
METAR ENEK 080750Z 23017KT CAVOK 15/13 Q1014 W14/S3=
METAR ENEV 080750Z 21003KT 120V250 9999 FEW070 19/09 Q1011=
METAR ENFG 080750Z 18005KT 9999 VCSH BKN017 13/09 Q1013=
METAR ENFL 080750Z 19017KT 9999 FEW015 SCT050 15/11 Q1010=
METAR ENGC 080750Z 18027KT CAVOK 13/11 Q1007=
METAR ENHE 080750Z 19017KT 9999 FEW015 15/11 Q1008=
METAR ENHF 080750Z 19010KT 160V220 9999 FEW035 SCT085 16/07 Q1013=
METAR ENKB 080750Z VRB02KT CAVOK 17/12 Q1009=
METAR ENKR 080750Z VRB02KT 9999 SCT009 BKN015 12/09 Q1017=
METAR ENML 080750Z 03005KT 9999 FEW050 BKN060 16/12 Q1009=
METAR ENNA 080750Z 17014KT 9999 FEW040 17/09 Q1014=
METAR ENNO 080750Z 08007KT 050V110 9000 -RA SCT020 BKN030 16/14 Q1014=
METAR ENOA 080750Z 19024KT CAVOK1 13/11 Q1008=
METAR ENOV 080750Z VRB03KT 9999 SCT055 SCT085 17/07 Q1009=
METAR ENRA 080750Z 00000KT 9999 BKN070 19/12 Q1009=
METAR ENRM 080750Z 01007KT 330V050 CAVOK 17/09 Q1010=
METAR ENSG 080750Z 20003KT 120V280 9999 -SHRA SCT040 SCT060 13/10 Q1012=
METAR ENSH 080750Z 18004KT 9999 FEW040 SCT070 15/09 Q1010=
METAR ENSK 080750Z 16002KT CAVOK 17/09 Q1010=
METAR ENSO 080750Z 15012KT 9999 FEW015 SCT070 17/12 Q1012=
METAR ENSR 080750Z 15009KT 110V210 CAVOK 18/09 Q1012=
METAR ENSS 080750Z 34005KT 9999 SCT004 BKN024 10/08 Q1017=
METAR ENST 080750Z 32004KT 260V030 CAVOK 16/11 Q1010=
METAR ENVD 080750Z 16004KT 130V190 9999 BKN022 11/08 Q1017=
####018001079####
SPZZ40 KAWN 080756 RRL
SPECI CWZZ 080754Z AUTO ///// 6SM OVC010 OVC032 10/ A2982=
SPECI CYPH 080752Z AUTO 24016G21KT 1SM VV001 05/05 A2977=
SPECI CYQX 080749Z 15008KT 15SM BKN003 BKN007 OVC029 09/ RMK SF6SF1SC1=
SPECI CYUA 080752Z AUTO 31015KT 9SM OVC004 OVC017 05/ A3007=
SPECI CYUS 080752Z AUTO ///// 9SM CLR 11/ A2980=
SPECI CYYT 080753Z 13004KT 3/4SM R11/2800V6000FT/D R16/3000VP6000FT/N
      BR OVC004 08/ RMK FG6SF2=
SPECI COR DIAP 080741Z 00000KT 6000 FEW005 BKN012 BKN080 26/25 Q1015
      TEMPO 5000 -RA BKN005 BKN012 OVC080=
SPECI KAFF 080753Z AUTO 11005KT 10SM FEW011 BKN021 13/11 A3041 RMK
      AO2 CIG 016V022 SLP209=
SPECI KDOV 080753Z AUTO 00000KT 3SM BR SCT110 24/24 A2998 RMK AO2 VIS
      2V3 SLP155=
SPECI RJCO 080745Z 32007KT 9999 FEW007 SCT009 BKN010 20/18 Q1009 RMK
      1ST007 4ST009 7ST010 A2981=
SPECI RJFZ 080750Z VRB02KT 8000 FEW030 SCT045 BKN230 27/21 Q1007 RMK
      1CU030 3SC045 A2975=
SPECI RJSM 080750Z 09004KT 8000 FEW005 BKN035 BKN080 21/19 Q1008 RMK
      2ST005 5CU035 6AC080 A2979 WIND BY EQPT/10=
####018001519####
SANA14 KAWN 080800
METAR KEGI 080755Z AUTO 00000KT 10SM CLR 23/22 A3002 RMK AO2 SLP166
      T02280223 $=
METAR KNHK 080752Z AUTO 10006KT 5SM HZ FEW120 27/23 A2997 RMK AO2 SLP148
      T02720233=
METAR KNZY 080752Z 30007KT 10SM OVC015 18/13 A2990 RMK AO2 SLP125 T01830128
      402110167 $=
METAR KOFF 080755Z AUTO 34006KT 10SM CLR 21/20 A3010 RMK AO2 SLP180
      T02070200 $=
METAR KOZR 080755Z AUTO 00000KT 10SM CLR 22/22 A3002 RMK AO2 SLP162
      T02220222=
METAR KPOB 080755Z AUTO 00000KT 10SM CLR 25/20 A2994 RMK AO2 SLP135
      T02470196 $=
METAR KRDR 080755Z AUTO 24007KT 10SM CLR 13/12 A3004 RMK AO2 SLP181
      T01300122 $=
METAR KRIV 080755Z AUTO 00000KT 10SM CLR 13/11 A2992 RMK AO2 SLP129
      T01290113 402700116=
METAR KRND 080755Z AUTO 05005KT 10SM OVC012 25/23 A2994 RMK AO2 SLP128
      T02500233=
METAR KSKF 080755Z 07009KT 10SM OVC018 26/ A2993 RMK AO2A CIG 014V023
      SLP123 T0260 $=
METAR KSSC 080755Z AUTO 28009KT 10SM CLR 26/19 A2996 RMK AO2 SLP144
      T02580189 $=
METAR KSUU 080755Z AUTO 24020G25KT 10SM CLR 13/10 A2982 RMK AO2 PK
      WND 24032/0708 SLP101 T01310101 402720121 RVRNO $=
METAR KVAD 080755Z AUTO 20003KT 10SM CLR 22/20 A3002 RMK AO2 SLP164
      T02180198 $=
METAR KWRI 080755Z AUTO 16003KT 3SM R18/5500FT R24/2600V2800FT BR OVC003
      24/24 A2999 RMK AO2 CIG 001V003 SLP156 T02380238 $=
METAR SBBR 080800Z 00000KT CAVOK 15/09 Q1022/5=
METAR SPIM 080800Z 00000KT 7000 OVC022 16/14 Q1013 NOSIG RMK PP000=
####018001458####
SAZZ40 KAWN 080800 RRD
METAR ETOU 080755Z AUTO 00000KT 9999 CLR 24/11 A3016 RMK AO2 SLP210
      T02370110=
METAR KCBM 080755Z AUTO 00000KT 10SM CLR 24/24 A3004 RMK AO2 SLP170
      T02450236 $=
METAR KEND 080755Z AUTO 04008KT 10SM BKN032 BKN085 22/22 A3006 RMK
      AO2 SLP167 T02230217 $=
METAR KFBG 080755Z AUTO 34003KT 10SM CLR 27/18 A2993 RMK AO2 SLP133
      T02690179 $=
METAR KFTK 080755Z AUTO 24003KT 10SM CLR 23/21 A3007 RMK AO2 SLP176
      T02250208=
METAR KHIF 080755Z AUTO VRB05KT 10SM BKN130 19/06 A3011 RMK AO2 SLP090
      T01940063 $=
METAR KHST 080755Z AUTO 02004KT 10SM CLR 27/25 A2992 RMK AO2 DZB0656E0707
      SLP135 P0000 T02670246 $=
METAR KMUI 080755Z AUTO 00000KT 10SM CLR 23/19 A3002 RMK AO2 SLP162
      T02340193 $=
METAR KMUO 080755Z AUTO 09004KT 10SM CLR 16/02 A3005 RMK AO2 SLP151
      T01650023=
METAR KRND 080755Z AUTO 05005KT 10SM OVC012 25/23 A2994 RMK AO2 SLP128
      T02500233=
METAR KSKF 080755Z 07009KT 10SM OVC018 26/ A2993 RMK AO2A CIG 014V023
      SLP123 T0260 $=
METAR PABI 080753Z AUTO 00000KT 10SM CLR 16/08 A3008 RMK AO2 SLP185
      T01560078 TSNO=
METAR PASC 080753Z 20008KT 10SM FEW036 BKN060 10/07 A3000 RMK AO2 SLP161
      T01000072=
METAR PHHI 080755Z AUTO 07004KT 10SM CLR 21/19 A3006 RMK AO2 RAB0716E0729DZB0729E0732
      SLP169 P0000 T02130185=
METAR RODN 080755Z AUTO 19012KT 9999 SCT021 30/26 A2981 RMK AO2 SLP093
      T02960260=
####018001661####
SANA35 KAWN 080800 RRA
METAR KBAD 080755Z AUTO 00000KT 10SM FEW180 24/24 A3001 RMK AO2 SLP163
      T02430236 $=
METAR KBRO 080753Z 33003KT 10SM CLR 27/25 A2979 RMK AO2 SLP085 T02670250=
METAR KDOV 080755Z AUTO 08003KT 3SM BR SCT110 24/24 A2998 RMK AO2 VIS
      2V3 SLP155 T02400240=
METAR KFLL 080753Z 06007KT 10SM SCT023 28/24 A2991 RMK AO2 SLP129 T02780244=
METAR KHST 080755Z AUTO 02004KT 10SM CLR 27/25 A2992 RMK AO2 DZB0656E0707
      SLP135 P0000 T02670246 $=
METAR KJFK 080751Z 12003KT 2SM BR SCT003 BKN010 BKN100 24/23 A3002
      RMK AO2 SLP164 T02440228 $=
METAR KMCO 080753Z 01003KT 10SM FEW120 22/20 A2999 RMK AO2 SLP153 T02220200=
METAR KNHK 080752Z AUTO 10006KT 5SM HZ FEW120 27/23 A2997 RMK AO2 SLP148
      T02720233=
METAR KOFF 080755Z AUTO 34006KT 10SM CLR 21/20 A3010 RMK AO2 SLP180
      T02070200 $=
METAR KPBI 080753Z 05006KT 10SM FEW022 SCT032 SCT250 27/23 A2992 RMK
      AO2 SLP131 T02720233=
METAR KPOB 080755Z AUTO 00000KT 10SM CLR 25/20 A2994 RMK AO2 SLP135
      T02470196 $=
METAR KSSC 080755Z AUTO 28009KT 10SM CLR 26/19 A2996 RMK AO2 SLP144
      T02580189 $=
METAR KVAD 080755Z AUTO 20003KT 10SM CLR 22/20 A3002 RMK AO2 SLP164
      T02180198 $=
METAR KWRI 080755Z AUTO 16003KT 3SM R18/5500FT R24/2600V2800FT BR OVC003
      24/24 A2999 RMK AO2 CIG 001V003 SLP156 T02380238 $=
METAR MDSD 080800Z 00000KT 9999 FEW018 24/23 Q1014=
METAR SPIM 080800Z 00000KT 7000 OVC022 16/14 Q1013 NOSIG RMK PP000=
METAR TIST 080753Z AUTO 08004KT 10SM CLR 28/24 A2997 RMK AO2 SLP150
      T02780244 TSNO=
METAR TISX 080753Z 09007KT 10SM FEW022 27/24 A2997 RMK AO2 SLP148 T02720239=
####018000766####
SAXX70 KAWN 080800 RRC
METAR KQEX 080750Z AUTO 02003KT 7SM SCT060 30/18 A2972 RMK A02=
METAR KQAD 080755Z AUTO VRB06KT 5000 HZ CLR 43/04 A2958 RMK AO2 SLP015
      T04270040 $=
METAR KQBL 080755Z AUTO 00000KT 7SM CLR 24/23 A3005 RMK AO2 SLP173
      T02370228=
METAR KQHT 080755Z VRB02KT 9999 FEW120 34/M11 A2994 RMK SLP103 WND
      DATA ESTMD ALSTG/SLP ESTMD=
METAR KQHY 080755Z AUTO 36002KT 12SM CLR 24/23 A3005 RMK AO2 SLP174
      T02380225=
METAR KQMG 080755Z AUTO 02014KT 12SM CLR 20/15 A3016 RMK AO2 SLP140
      T02030147 $=
METAR KQTI 080755Z AUTO VRB05KT 9999 CLR 40/03 A2970 RMK AO2 SLP032
      T04020030 $=
METAR KQTZ 080755Z 32010G15KT 9000 HZ CLR 42/05 A2963 RMK SLP027 QNH1003MB
      ALSTG/SLP ESTMD WND DATA ESTMD=
####018000118####
SAUS44 KLIX 080756
MTRMSY
METAR KMSY 080753Z 00000KT 10SM FEW025 SCT250 27/23 A2999 RMK AO2 
SLP158 T02670233
####018001434####
SAUS17 KAWN 080800 RRA
METAR KAFF 080755Z AUTO 13003KT 10SM FEW011 BKN021 13/11 A3041 RMK
      AO2 CIG 016V023 BKN V OVC SLP209 T01320108=
METAR KCBM 080755Z AUTO 00000KT 10SM CLR 24/24 A3004 RMK AO2 SLP170
      T02450236 $=
METAR KDOV 080755Z AUTO 08003KT 3SM BR SCT110 24/24 A2998 RMK AO2 VIS
      2V3 SLP155 T02400240=
METAR KDYS 080755Z AUTO 13003KT 10SM FEW230 21/21 A3002 RMK AO2 SLP141
      T02100207 $=
METAR KEND 080755Z AUTO 04008KT 10SM BKN032 BKN085 22/22 A3006 RMK
      AO2 SLP167 T02230217 $=
METAR KFBG 080755Z AUTO 34003KT 10SM CLR 27/18 A2993 RMK AO2 SLP133
      T02690179 $=
METAR KFHU 080755Z VRB04KT 10SM SCT120 25/10 A3006 RMK SLP095=
METAR KFTK 080755Z AUTO 24003KT 10SM CLR 23/21 A3007 RMK AO2 SLP176
      T02250208=
METAR KGSB 080755Z AUTO 00000KT 10SM CLR 26/19 A2991 RMK AO2 SLP127
      T02570186 $=
METAR KHIF 080755Z AUTO VRB05KT 10SM BKN130 19/06 A3011 RMK AO2 SLP090
      T01940063 $=
METAR KHST 080755Z AUTO 02004KT 10SM CLR 27/25 A2992 RMK AO2 DZB0656E0707
      SLP135 P0000 T02670246 $=
METAR KLHW 080755Z AUTO 23003KT 10SM CLR 22/20 A2999 RMK AO2 SLP156
      T02200202=
METAR KLSF 080755Z AUTO 00000KT 10SM CLR 22/21 A3001 RMK AO2 SLP162
      T02170210 $=
METAR KMUI 080755Z AUTO 00000KT 10SM CLR 23/19 A3002 RMK AO2 SLP162
      T02340193 $=
METAR KMUO 080755Z AUTO 09004KT 10SM CLR 16/02 A3005 RMK AO2 SLP151
      T01650023=
####018001500####
SAZZ40 KAWN 080800 RRE
METAR ETAD 080755Z AUTO VRB03KT 9999 CLR 24/11 A3016 RMK AO2 SLP197
      T02370107 $=
METAR KAFF 080755Z AUTO 13003KT 10SM FEW011 BKN021 13/11 A3041 RMK
      AO2 CIG 016V023 BKN V OVC SLP209 T01320108=
METAR KBAB 080755Z AUTO 15009KT 10SM FEW180 20/12 A2981 RMK AO2 SLP094
      T01960122 403470133 $=
METAR KDOV 080755Z AUTO 08003KT 3SM BR SCT110 24/24 A2998 RMK AO2 VIS
      2V3 SLP155 T02400240=
METAR KFHU 080755Z VRB04KT 10SM SCT120 25/10 A3006 RMK SLP095=
METAR KGSB 080755Z AUTO 00000KT 10SM CLR 26/19 A2991 RMK AO2 SLP127
      T02570186 $=
METAR KGTB 080755Z AUTO 21004KT 10SM R33/5500VP6000FT CLR 22/20 A3003
      RMK AO2 SLP168 T02230201=
METAR KLHW 080755Z AUTO 23003KT 10SM CLR 22/20 A2999 RMK AO2 SLP156
      T02200202=
METAR KLSF 080755Z AUTO 00000KT 10SM CLR 22/21 A3001 RMK AO2 SLP162
      T02170210 $=
METAR KLUF 080755Z 10005KT 10SM CLR 29/07 A2975 RMK AO2A SLP042 T02940065
      $=
METAR KSSC 080755Z AUTO 28009KT 10SM CLR 26/19 A2996 RMK AO2 SLP144
      T02580189 $=
METAR KTBN 080755Z AUTO 00000KT 10SM BKN200 23/ A3005 RMK AO2 SLP156
      T0226 $=
METAR KVAD 080755Z AUTO 20003KT 10SM CLR 22/20 A3002 RMK AO2 SLP164
      T02180198 $=
METAR KVOK 080755Z 00000KT 9SM R27/5000VP6000FT BKN012 BKN019 21/21
      A3000 RMK AO2A CIG 010V016 SLP154 T02140214=
METAR KWRI 080755Z AUTO 16003KT 3SM R18/5500FT R24/2600V2800FT BR OVC003
      24/24 A2999 RMK AO2 CIG 001V003 SLP156 T02380238 $=
####018000299####
SAAK41 KNKA 080756
METAR PAHN 080754Z AUTO 00000KT 10SM CLR 11/10 A3021 RMK AO2 SLP231 
    T01110100 TSNO=
METAR PAKN 080754Z 35007KT 10SM OVC045 11/09 A2990 RMK AO2 RAE43 
    SLP126 P0001 T01060094=
METAR PAPO 080755Z 15007KT 10SM CLR 06/03 A3014 RMK AWOS VIA PHONE
     (OTZ FSS)=
####018002925####
SAUS20 KNKA 080756
METAR KLAX 080753Z 27005KT 10SM OVC014 17/13 A2991 RMK AO2 SLP128
     T01670128 401940156=
METAR K04W 080754Z AUTO 29003KT 10SM CLR 18/17 A3006 RMK AO2 
     T01750166=
METAR K0A9 080755Z AUTO 00000KT 7SM SCT080 20/18 A3011 RMK=
METAR K20V 080756Z AUTO 08005KT 10SM CLR 08/05 A3042 RMK AO2=
METAR K4BM 080754Z AUTO 25003KT 10SM 05/03 A3064 RMK AO2=
METAR K5SM 080753Z AUTO 20003KT 10SM TS OVC065 08/05 A3059 RMK AO2=
METAR K7BM 080756Z AUTO 00000KT 10SM OVC026 10/06 A3055 RMK AO2
     LTG DSNT W=
METAR KBBG 080755Z AUTO 00000KT 5SM BR CLR 23/22 A3007 RMK AO2 =
METAR KBBP 080755Z AUTO 00000KT 10SM SCT100 25/20 A2995 RMK AO2=
METAR KBDU 080757Z AUTO 21006KT 10SM CLR 16/12 A3030 RMK AO2=
METAR KBJC 080757Z AUTO 18003KT 5SM BR SCT090 13/12 A3032 RMK AO2=
METAR KBKN 080755Z AUTO 36006KT 10SM BKN045 OVC060 22/22 A3004 RMK 
     AO2 =
METAR KBMI 080756Z AUTO 00000KT 9SM SCT070 23/22 A3005 RMK AO2 PWINO 
    T02270216 SLP160 $=
METAR KBOK 080756Z AUTO 14003KT 1/2SM FG OVC002 09/09 A2997 RMK AO2 
    T00940094 SLP150 $=
METAR KBTV 080754Z 00000KT 6SM BR SCT055 OVC070 24/22 A3001 RMK
     AO2 SLP159 T02390217=
METAR KC29 080755Z AUTO 32003KT 7SM SCT120 21/20 A3000 RMK AO2 
     T02120197=
METAR KCCU 080756Z AUTO 17017KT 10SM CLR 06/03 A3063 RMK AO2 LTG
     DSNT SW=
METAR KCEF 080755Z AUTO 16003KT 10SM BKN080 BKN100 24/22 A3003 RMK
      AO2 SLP167 T02440218 PWINO $=
METAR KCHA 080753Z 00000KT 10SM CLR 23/19 A3005 RMK AO2 SLP166
     T02280189=
METAR KCIC 080755Z AUTO 00000KT 10SM CLR 25/16 A2980 RMK AO1 =
METAR KCMR 080755Z AUTO 17006KT 10SM FEW100 18/01 A3024 RMK AO1 =
METAR KCNK 080755Z AUTO 34007KT 10SM BKN020 20/19 A3014 RMK AO2 
    SLP194 T02000194=
METAR KD39 080754Z AUTO 00000KT 10SM CLR 16/15 A3010 RMK AO2 
     T01600153=
METAR KDLH 080755Z 32005KT 10SM FEW047 16/14 A3004 RMK AO2 SLP170 
    T01610139=
METAR KDLL 080754Z AUTO 25003KT 10SM OVC004 21/19 A2999 RMK AO2=
METAR KEAT 080755Z AUTO 30004KT 10SM CLR 21/04 A3001 RMK AO2 SLP153 
    T02110044 403280139=
METAR KEFD 080750Z 11009KT 9SM FEW025 BKN130 28/24 A2993=
METAR KFWA 080754Z 23003KT 10SM CLR 24/21 A3006 RMK AO2 SLP172
     T02390206=
METAR KGGE 080755Z AUTO 27006KT 10SM CLR 24/22 A2994 RMK AO2=
METAR KGPI 080755Z AUTO 00000KT 10SM CLR 11/08 A3016 RMK AO2 SLP205 
    T01060078=
METAR KGSO 080754Z 00000KT 8SM SCT090 26/18 A3001 RMK AO2 SLP148
     T02560178=
METAR KGUS 080755Z AUTO 18003KT 10SM CLR 23/20 A3005 RMK AO2 SLP168
      T02270204=
METAR KHVS 080755Z AUTO 28003KT 10SM CLR 25/19 A2997 RMK AO2=
METAR KIRK 080755Z AUTO 00000KT 6SM BR CLR 19/19 A3006 RMK AO2 
    SLP173 T01940194=
METAR KLIC 080755Z AUTO 17003KT 8SM -RA OVC005 14/14 A3034 RMK AO2 
    RAB04 CIG 003V007 SLP218 P0000 T01390139=
METAR KLLJ 080755Z AUTO 00000KT 10SM FEW090 10/01 A3022 RMK AO2 
    SLP185 T01000006=
####018002155####
SAUS20 KNKA 080756
METAR KLND 080753Z AUTO 00000KT 10SM CLR 11/03 A3031 RMK AO2
     SLP217 T01110033=
METAR KLRF 080755Z AUTO 00000KT 10SM SCT160 24/22 A3005 RMK AO2 SLP175
      T02350224=
METAR KLXV 080753Z AUTO 00000KT 10SM OVC033 07/06 A3053 RMK AO2
     SLP180 T00670056 TSNO=
METAR KMAO 080755Z AUTO 00000KT 10SM BKN095 BKN120 26/19 A2994 RMK 
     AO2=
METAR KMKG 080755Z 21008KT 7SM FEW013 BKN050 OVC110 23/22 A3005 RMK 
    AO2 RAE14 SLP170 P0000 T02330217 $=
METAR KMMT 080755Z AUTO 29003KT 10SM CLR 22/19 A2999 RMK AO2 SLP153
      T02230193=
METAR KMSN 080753Z 00000KT 7SM BKN110 22/21 A2999 RMK AO2 SLP150
     T02170206=
METAR KMWT 080753Z AUTO 00000KT 10SM BKN012 OVC020 23/23 A3004 RMK
     AO2 SLP160 T02330228 TSNO=
METAR KMYP 080656Z AUTO 07009KT M1/4SM -SN OVC001 03/03 A3075 RMK
     AO2 LTG DSNT NW=
METAR KNQA 080755Z AUTO 00000KT 10SM CLR 24/23 A3006 RMK=
METAR KOWB 080756Z AUTO 00000KT 10SM CLR 26/23 A3005 RMK AO2 
    T02550227 SLP171=
METAR KRCE 080755Z AUTO 01004KT 10SM CLR 22/22 A3006 RMK AO2 =
METAR KRNO 080755Z 28005KT 10SM FEW080 BKN150 24/04 A3004 RMK AO2 
    SLP110 T02390044 403330161=
METAR KSAV 080753Z 26004KT 10SM FEW024 22/19 A2999 RMK AO2 SLP155
     T02170194=
METAR KSBN 080754Z 00000KT 9SM BKN120 24/21 A3004 RMK AO2 SLP164
     T02440211=
METAR KSCK 080755Z AUTO 35005KT 10SM CLR 16/11 A2984 RMK AO2 SLP103 
    T01610111 403170122=
METAR KSGR 080753Z AUTO 09004KT 8SM CLR 26/24 A2991 RMK AO2 SLP135
     T02610239 TSNO=
METAR KSMS 080755Z AUTO 27004KT 10SM CLR 26/19 A2998 RMK AO2 =
METAR KSRR 080755Z AUTO 20005KT 10SM BKN060 BKN080 OVC095 13/12 
     A3036 RMK AO2 =
METAR KTLH 080753Z 00000KT 10SM CLR 22/21 A3000 RMK AO2 SLP158
     T02220206=
METAR KUCP 080756Z AUTO 00000KT 1SM BR CLR 19/18 A3009 RMK AO2 
    T01880183 SLP195 $=
METAR KVQQ 080755Z AUTO 00000KT 10SM CLR 18/18 A3001 RMK AO2 =
METAR KVTP 080800Z AUTO 08010KT 1/4SM OVC001 06/05 A3056 RMK AO2=
METAR KWYS 080750Z AUTO 00000KT 10SM CLR 03/00 A3035 RMK AO2=
METAR KY51 080755Z AUTO 28004KT 10SM SCT007 BKN012 21/21 A3002 
     RMK AO1 T02120205=
####018000139####
SAUS43 KLOT 080756
MTRRFD
METAR KRFD 080754Z 15004KT 9SM -RA BKN008 OVC013 22/21 A3003 RMK AO2 
CIG 004V011 SLP162 P0001 T02220211
####018000129####
SAUS45 KREV 080756
MTRDRA
METAR KDRA 080755Z AUTO 08004KT 10SM CLR 23/M12 A2991 RMK AO2 SLP075 
T02331122 403780189 TSNO
####018000095####
SPCN31 CWAO 080753
SPECI CYHZ 080753Z 18003KT 1/2SM R23/P6000FT/D FG VV001 17/ RMK FG8=

####018000147####
SAUS45 KABQ 080756
MTRCAO
METAR KCAO 080755Z AUTO 02010KT 10SM -RA BKN070 OVC100 16/14 A3027 
RMK AO2 RAE21B40 SLP190 P0001 T01610139 TSNO
####018000118####
SAUS43 KABR 080756
MTRMBG
METAR KMBG 080755Z AUTO 34003KT 10SM CLR 12/09 A3013 RMK AO2 SLP197 
T01220094 TSNO
####018000116####
SAUS43 KDLH 080756
MTRINL
METAR KINL 080755Z AUTO 22003KT 10SM FEW090 13/12 A3000 RMK AO2 
SLP160 T01330122
####018000113####
SAUS44 KSHV 080756
MTRPOE
METAR KPOE 080755Z AUTO 12005KT 10SM CLR 24/23 A3000 RMK AO2 SLP158 
T02440228
####018000120####
SAUS44 KLIX 080756
MTRNBG
METAR KNBG 080755Z AUTO 00000KT 7SM CLR 24/23 A3000 RMK AO2 SLP158 
T02440233 PWINO $
####018000113####
SAUS43 KFSD 080756
MTRHON
METAR KHON 080755Z AUTO 21006KT 10SM CLR 17/14 A3014 RMK AO2 SLP203 
T01720139
####018003722####
SAUS99 KWBC 080757
METAR
KGPZ 080755Z AUTO 19004KT 10SM CLR 13/12 A3006 RMK AO1=
KGTU 080755Z 09003KT 10SM BKN010 OVC037 25/21 A3001 RMK AO1=
KGUC 080755Z AUTO 35008KT 10SM CLR 09/04 A3043 RMK AO1=
KGXY 080755Z AUTO 12005KT 10SM FEW008 OVC120 15/12 A3030 RMK
     AO1=
KHDN 080755Z 10011KT 10SM CLR 12/06 A3032 RMK AO1=
KHYI 080755Z AUTO 06005KT 10SM BKN018 OVC024 A2994 RMK AO1=
KILE 080755Z 11007KT 10SM BKN016 OVC021 25/22 A2997 RMK AO1=
KILN 080754Z AUTO 00000KT 5SM HZ CLR 22/19 A3008 RMK AO2 SLP172
     T02220194=
KIMT 080754Z AUTO 00000KT 10SM OVC003 20/19 A2998 RMK AO2 SLP146
     T02000194=
KIND 080754Z 00000KT 9SM SCT100 26/19 A3003 RMK AO2 SLP160
     T02560194=
KIPT 080754Z AUTO 00000KT 9SM CLR 21/17 A3005 RMK AO2 SLP170
     T02060167=
KISW 080754Z AUTO 28005KT 10SM BKN007 OVC015 21/20 A3001 RMK AO2
     SLP157 T02110200 TSNO=
KIZG 080754Z AUTO 00000KT 9SM SCT095 21/19 A3006 RMK AO2 SLP176
     T02110194=
KJAC 080755Z AUTO 02009KT 10SM CLR 11/M01 A3032 RMK AO1=
KJHW 080755Z AUTO 00000KT 8SM CLR 21/19 A3011 RMK AO1=
KJST 080754Z AUTO 24003KT 7SM CLR 22/16 A3014 RMK AO2 SLP187
     T02170156=
KLCI 080755Z AUTO 00000KT 10SM OVC085 23/19 A3004 RMK AO1=
KLEW 080755Z 15003KT 3SM OVC004 21/20 A3008 RMK AO1=
KLEX 080754Z 00000KT 6SM HZ CLR 22/18 A3008 RMK AO2 SLP176
     T02170183=
KLNK 080754Z AUTO 36007KT 10SM SCT026 19/18 A3013 RMK AO2 SLP194
     T01890178=
KLPC 080755Z AUTO 00000KT 10SM OVC012 14/11 A2992 RMK AO1 PNO=
KLWM 080754Z AUTO 00000KT 5SM BR SCT008 23/21 A3006 RMK AO2 SLP178
     T02330211=
KLWT 080754Z AUTO 15004KT 10SM FEW070 09/06 A3026 RMK AO2 SLP228
     T00940061=
KMFI 080754Z AUTO 31006KT 4SM BR BKN001 20/19 A3000 RMK AO2 SLP153
     T02000189=
KMGJ 080754Z AUTO 00000KT 5SM BR CLR 22/20 A3002 RMK AO2 SLP161
     T02170200=
KMIV 080754Z AUTO 00000KT 2 1/2SM BR OVC002 24/23 A2999 RMK AO2
     SLP152 T02440228=
KMJX 080755Z AUTO 31003KT 4SM OVC005 24/22 A3001 RMK AO1=
KMKT 080755Z 32006KT 10SM CLR 18/17 A3009 RMK AO1=
KMML 080755Z AUTO 25004KT 10SM CLR 16/13 A3013 RMK AO1=
KMOT 080754Z AUTO 24005KT 10SM CLR 15/12 A3008 RMK AO2 SLP182
     T01500117 TSNO=
KMSV 080755Z AUTO 02004KT 7SM CLR 21/18 A3009 RMK AO1=
KMVL 080754Z AUTO 00000KT 3SM BR SCT050 21/20 A3006 RMK AO2 SLP175
     T02060200=
KOCH 080755Z AUTO 11005KT 10SM CLR 24/19 A3000 RMK AO1=
KOKK 080755Z AUTO 00000KT 10SM CLR 23/17 A3005 RMK AO1=
KORH 080754Z AUTO 21005KT 4SM BR BKN004 BKN047 22/21 A3008 RMK AO2
     SLP179 T02170211=
KOTG 080755Z AUTO 26005KT 10SM CLR 14/13 A3015 RMK AO1=
KOXC 080755Z 00000KT 3SM BKN095 22/21 A3007 RMK AO1=
KPHL 080754Z 12003KT 8SM FEW150 26/22 A3001 RMK AO2 SLP162
     T02560222 $=
KABY 080753Z 00000KT 10SM CLR 22/20 A3004 RMK AO2 SLP169
     T02170200=
KAFJ 080755Z AUTO 00000KT 1/4SM BKN003 17/17 A3010 RMK AO1=
KAKR 080754Z AUTO 00000KT 6SM HZ CLR 22/18 A3009 RMK AO2 SLP177
     T02170183=
KAMG 080753Z AUTO 00000KT 10SM CLR 22/19 A3001 RMK AO2 SLP160
     T02170194=
KBFL 080754Z AUTO 34004KT 10SM CLR 24/10 A2982 RMK AO2 SLP091
     T02390100 403440200 $=
KBHB 080755Z AUTO 21003KT 10SM FEW003 BKN023 18/17 A3010 RMK
     AO1=
KBID 080755Z AUTO 13007KT 10SM SCT003 OVC030 22/22 A3005 RMK
     AO1=
KBKX 080755Z AUTO 00000KT 10SM CLR 14/12 A3016 RMK AO1=
KBLM 080755Z AUTO 32003KT 4SM SCT110 24/21 A3004 RMK AO1=
KBOS 080754Z 17009KT 6SM BR OVC011 24/21 A3006 RMK AO2 SLP178
     T02390211=
KBTP 080755Z AUTO 00000KT 2 1/2SM CLR 19/18 A3009 RMK AO1=
KBUF 080754Z 18005KT 9SM CLR 23/20 A3005 RMK AO2 SLP170
     T02280200=
KBUY 080754Z AUTO 00000KT 8SM CLR 23/20 A2998 RMK AO2 SLP142
     T02330200 $=
####018003689####
SAUS99 KWBC 080757 RRB
METAR
KTQE 080754Z AUTO 36005KT 10SM BKN027 20/18 A3012 RMK AO2 SLP190
     T02000183=
KTVF 080755Z AUTO 26007KT 10SM CLR 14/11 A3003 RMK AO1=
KVAY 080754Z AUTO 00000KT 1SM BR OVC003 23/23 A3001 RMK AO2 SLP162
     T02330228=
KVIS 080755Z AUTO 33007KT 10SM CLR 24/12 A2981 RMK AO1=
KVLD 080753Z AUTO 00000KT 9SM CLR 20/19 A3001 RMK AO2 SLP169
     T02000189=
KVSF 080754Z AUTO 00000KT 4SM BR CLR 21/20 A3005 RMK AO2 SLP173
     T02110200 $=
KVTA 080754Z AUTO 00000KT 2 1/2SM BR BKN065 19/18 A3008 RMK AO2
     SLP178 T01890178=
KWVL 080755Z AUTO 19004KT 6SM OVC004 21/19 A3003 RMK AO1=
KWWD 080755Z AUTO 10SM OVC120 24/24 A3001 RMK AO1=
KYKN 080755Z AUTO 28003KT 10SM CLR 17/14 A3016 RMK AO1=
PAHN 080754Z AUTO 00000KT 10SM CLR 11/10 A3021 RMK AO2 SLP231
     T01110100 TSNO=
PAKN 080754Z 35007KT 10SM OVC045 11/09 A2990 RMK AO2 RAE43 SLP126
     P0001 T01060094=
PAPO 080755Z 15007KT 10SM CLR 06/03 A3014 RMK AWOS VIA PHONE (OTZ
     FSS)=
KLAX 080753Z 27005KT 10SM OVC014 17/13 A2991 RMK AO2 SLP128
     T01670128 401940156=
K04W 080754Z AUTO 29003KT 10SM CLR 18/17 A3006 RMK AO2
     T01750166=
K0A9 080755Z AUTO 00000KT 7SM SCT080 20/18 A3011 RMK=
K20V 080756Z AUTO 08005KT 10SM CLR 08/05 A3042 RMK AO2=
K4BM 080754Z AUTO 25003KT 10SM 05/03 A3064 RMK AO2=
K5SM 080753Z AUTO 20003KT 10SM TS OVC065 08/05 A3059 RMK AO2=
K7BM 080756Z AUTO 00000KT 10SM OVC026 10/06 A3055 RMK AO2 LTG DSNT
     W=
KBBG 080755Z AUTO 00000KT 5SM BR CLR 23/22 A3007 RMK AO2=
KBBP 080755Z AUTO 00000KT 10SM SCT100 25/20 A2995 RMK AO2=
KBDU 080757Z AUTO 21006KT 10SM CLR 16/12 A3030 RMK AO2=
KBJC 080757Z AUTO 18003KT 5SM BR SCT090 13/12 A3032 RMK AO2=
KBKN 080755Z AUTO 36006KT 10SM BKN045 OVC060 22/22 A3004 RMK
     AO2=
KBMI 080756Z AUTO 00000KT 9SM SCT070 23/22 A3005 RMK AO2 PWINO
     T02270216 SLP160 $=
KBOK 080756Z AUTO 14003KT 1/2SM FG OVC002 09/09 A2997 RMK AO2
     T00940094 SLP150 $=
KBTV 080754Z 00000KT 6SM BR SCT055 OVC070 24/22 A3001 RMK AO2
     SLP159 T02390217=
KC29 080755Z AUTO 32003KT 7SM SCT120 21/20 A3000 RMK AO2
     T02120197=
KCCU 080756Z AUTO 17017KT 10SM CLR 06/03 A3063 RMK AO2 LTG DSNT
     SW=
KCEF 080755Z AUTO 16003KT 10SM BKN080 BKN100 24/22 A3003 RMK AO2
     SLP167 T02440218 PWINO $=
KCHA 080753Z 00000KT 10SM CLR 23/19 A3005 RMK AO2 SLP166
     T02280189=
KCIC 080755Z AUTO 00000KT 10SM CLR 25/16 A2980 RMK AO1=
KCMR 080755Z AUTO 17006KT 10SM FEW100 18/01 A3024 RMK AO1=
KCNK 080755Z AUTO 34007KT 10SM BKN020 20/19 A3014 RMK AO2 SLP194
     T02000194=
KD39 080754Z AUTO 00000KT 10SM CLR 16/15 A3010 RMK AO2
     T01600153=
KDLH 080755Z 32005KT 10SM FEW047 16/14 A3004 RMK AO2 SLP170
     T01610139=
KDLL 080754Z AUTO 25003KT 10SM OVC004 21/19 A2999 RMK AO2=
KEAT 080755Z AUTO 30004KT 10SM CLR 21/04 A3001 RMK AO2 SLP153
     T02110044 403280139=
KEFD 080750Z 11009KT 9SM FEW025 BKN130 28/24 A2993=
KFWA 080754Z 23003KT 10SM CLR 24/21 A3006 RMK AO2 SLP172
     T02390206=
KGGE 080755Z AUTO 27006KT 10SM CLR 24/22 A2994 RMK AO2=
KGPI 080755Z AUTO 00000KT 10SM CLR 11/08 A3016 RMK AO2 SLP205
     T01060078=
KGSO 080754Z 00000KT 8SM SCT090 26/18 A3001 RMK AO2 SLP148
     T02560178=
KGUS 080755Z AUTO 18003KT 10SM CLR 23/20 A3005 RMK AO2 SLP168
     T02270204=
KHVS 080755Z AUTO 28003KT 10SM CLR 25/19 A2997 RMK AO2=
KIRK 080755Z AUTO 00000KT 6SM BR CLR 19/19 A3006 RMK AO2 SLP173
     T01940194=
KLIC 080755Z AUTO 17003KT 8SM -RA OVC005 14/14 A3034 RMK AO2 RAB04
     CIG 003V007 SLP218 P0000 T01390139=
KLLJ 080755Z AUTO 00000KT 10SM FEW090 10/01 A3022 RMK AO2 SLP185
     T01000006=
####018003720####
SAUS99 KWBC 080757 RRA
METAR
KCEU 080754Z AUTO 00000KT 7SM CLR 24/22 A3004 RMK AO2 SLP157
     T02440222=
KCGZ 080755Z AUTO 00000KT 10SM CLR 30/01 A2978 RMK AO1=
KCOD 080755Z 10005KT 10SM CLR 10/00 A3033 RMK AO1=
KCOS 080754Z 18006KT 10SM SCT033 BKN050 OVC060 14/12 A3041 RMK AO2
     SLP227 T01390117=
KCRW 080754Z 00000KT 4SM BR CLR 22/20 A3008 RMK AO2 SLP173
     T02170200=
KDDH 080754Z AUTO 00000KT 3SM BR CLR 19/19 A3004 RMK AO2 SLP167
     T01940189=
KDHN 080753Z AUTO 23003KT 10SM CLR 23/22 A3006 RMK AO2 SLP174
     T02330217=
KDSM 080754Z 34007KT 10SM SCT250 22/20 A3006 RMK AO2 SLP171
     T02220200=
KDSV 080754Z AUTO 15005KT 6SM BR CLR 22/19 A3009 RMK AO2 SLP190
     T02170194=
KDVL 080755Z AUTO 26006KT 10SM CLR 15/11 A3006 RMK AO1=
KDYL 080754Z AUTO 00000KT 8SM CLR 23/21 A3001 RMK AO2 SLP156
     T02280206 TSNO=
KEEN 080755Z AUTO 00000KT 5SM CLR 22/22 A3005 RMK AO1=
KEGE 080755Z 33003KT 10SM CLR 11/09 A3039 RMK AO1=
KENV 080755Z 02012KT 10SM CLR 23/M02 A3008 RMK AO1=
KEUL 080755Z AUTO 00000KT 10SM CLR 16/08 A3003 RMK AO1=
KEVV 080754Z AUTO 00000KT 10SM BKN075 OVC090 26/22 A3005 RMK AO2
     SLP171 T02560217=
KFIG 080754Z AUTO 00000KT 5SM BR CLR 19/17 A3011 RMK AO2 SLP184
     T01890172=
KFKL 080755Z 00000KT 3SM CLR 19/18 A3013 RMK AO1=
KFNL 080755Z AUTO 05005KT 5SM SCT005 BKN008 OVC031 14/14 A3030 RMK
     AO1=
KFRM 080755Z AUTO 10SM CLR 17/16 A3012 RMK AO1=
KFZY 080754Z AUTO 00000KT 1 1/4SM BR FEW050 21/20 A3004 RMK AO2
     SLP167 T02060200=
KGCN 080754Z AUTO 00000KT 10SM CLR 10/M03 A3022 RMK AO2 SLP137
     T01001033=
KGDV 080755Z AUTO 23006KT 10SM CLR 12/08 A3017 RMK AO1=
KGED 080754Z AUTO 00000KT 3SM BR SCT080 BKN100 24/23 A2999 RMK AO2
     SLP155 T02440233=
KPLN 080754Z AUTO 13004KT 10SM BKN110 21/21 A2998 RMK AO2 SLP147
     T02110206=
KPNE 080754Z 11003KT 7SM FEW100 24/22 A3002 RMK AO2 SLP165
     T02440222=
KPNS 080753Z AUTO 01003KT 10SM CLR 24/24 A3001 RMK AO2 SLP164
     T02440239=
KPQI 080755Z AUTO 15005KT 10SM CLR 22/19 A2997 RMK AO1=
KPRX 080755Z 13004KT 10SM BKN015 24/22 A3001 RMK AO1=
KPSF 080754Z AUTO 00000KT 3SM BR CLR 19/18 A3006 RMK AO2 SLP146
     T01940183=
KPTV 080755Z AUTO 17005KT 10SM CLR 22/13 A2984 RMK AO1=
KPTW 080754Z AUTO 00000KT 5SM HZ CLR 25/19 A3002 RMK AO2 SLP160
     T02500194 $=
KPVC 080755Z 18004KT 3/4SM OVC002 21/20 A3008 RMK AO1=
KPVU 080755Z 06005KT 10SM CLR 19/08 A3011 RMK AO1=
KPWG 080755Z AUTO 13004KT 10SM SCT013 BKN120 25/22 A2999 RMK AO1
     LTG DSNT SE=
KRDG 080754Z 00000KT 9SM CLR 24/21 A3000 RMK AO2 SLP160
     T02440206=
KRKD 080755Z AUTO 21003KT 1/2SM OVC002 18/17 A3009 RMK AO1=
KRKS 080754Z AUTO 09007KT 10SM CLR 10/05 A3033 RMK AO2 SLP210
     T01000050=
KROC 080754Z 22004KT 7SM FEW140 BKN180 BKN250 23/21 A3005 RMK AO2
     SLP171 T02280206=
KRST 080754Z AUTO 31007KT 7SM CLR 19/18 A3007 RMK AO2 SLP176
     T01940183=
KRUT 080755Z AUTO 14006KT 5SM CLR 21/18 A3004 RMK AO1=
KSBY 080754Z AUTO 00000KT 3SM BR BKN003 OVC110 24/23 A2999 RMK AO2
     SLP156 T02440233=
KSDY 080755Z AUTO 20005KT 10SM FEW120 14/09 A3014 RMK AO1=
KSFM 080755Z 00000KT 1/2SM OVC002 21/19 A3006 RMK AO1=
KSFZ 080755Z AUTO 00000KT 10SM OVC010 22/21 A3005 RMK AO1=
KSGU 080755Z AUTO 00000KT 10SM CLR 28/02 A2993 RMK AO1=
KSJN 080754Z AUTO 14006KT 10SM BKN110 24/03 A3015 RMK AO2 SLP097
     T02390033=
KSMN 080755Z AUTO 00000KT 10SM CLR 10/02 A3021 RMK AO1=
KSYR 080754Z 00000KT 7SM CLR 23/21 A3004 RMK AO2 SLP167
     T02330206=
KTAD 080754Z AUTO 00000KT 10SM SCT035 SCT075 14/13 A3035 RMK AO2
     SLP204 T01440128=
KTPL 080755Z 09004KT 10SM BKN016 OVC022 24/23 A2998 RMK AO1=
####018002010####
SAUS99 KWBC 080757 RRC
METAR
KLND 080753Z AUTO 00000KT 10SM CLR 11/03 A3031 RMK AO2 SLP217
     T01110033=
KLRF 080755Z AUTO 00000KT 10SM SCT160 24/22 A3005 RMK AO2 SLP175
     T02350224=
KLXV 080753Z AUTO 00000KT 10SM OVC033 07/06 A3053 RMK AO2 SLP180
     T00670056 TSNO=
KMAO 080755Z AUTO 00000KT 10SM BKN095 BKN120 26/19 A2994 RMK
     AO2=
KMKG 080755Z 21008KT 7SM FEW013 BKN050 OVC110 23/22 A3005 RMK AO2
     RAE14 SLP170 P0000 T02330217 $=
KMMT 080755Z AUTO 29003KT 10SM CLR 22/19 A2999 RMK AO2 SLP153
     T02230193=
KMSN 080753Z 00000KT 7SM BKN110 22/21 A2999 RMK AO2 SLP150
     T02170206=
KMWT 080753Z AUTO 00000KT 10SM BKN012 OVC020 23/23 A3004 RMK AO2
     SLP160 T02330228 TSNO=
KMYP 080656Z AUTO 07009KT M1/4SM -SN OVC001 03/03 A3075 RMK AO2
     LTG DSNT NW=
KNQA 080755Z AUTO 00000KT 10SM CLR 24/23 A3006 RMK=
KOWB 080756Z AUTO 00000KT 10SM CLR 26/23 A3005 RMK AO2 T02550227
     SLP171=
KRCE 080755Z AUTO 01004KT 10SM CLR 22/22 A3006 RMK AO2=
KRNO 080755Z 28005KT 10SM FEW080 BKN150 24/04 A3004 RMK AO2 SLP110
     T02390044 403330161=
KSAV 080753Z 26004KT 10SM FEW024 22/19 A2999 RMK AO2 SLP155
     T02170194=
KSBN 080754Z 00000KT 9SM BKN120 24/21 A3004 RMK AO2 SLP164
     T02440211=
KSCK 080755Z AUTO 35005KT 10SM CLR 16/11 A2984 RMK AO2 SLP103
     T01610111 403170122=
KSGR 080753Z AUTO 09004KT 8SM CLR 26/24 A2991 RMK AO2 SLP135
     T02610239 TSNO=
KSMS 080755Z AUTO 27004KT 10SM CLR 26/19 A2998 RMK AO2=
KSRR 080755Z AUTO 20005KT 10SM BKN060 BKN080 OVC095 13/12 A3036
     RMK AO2=
KTLH 080753Z 00000KT 10SM CLR 22/21 A3000 RMK AO2 SLP158
     T02220206=
KUCP 080756Z AUTO 00000KT 1SM BR CLR 19/18 A3009 RMK AO2 T01880183
     SLP195 $=
KVQQ 080755Z AUTO 00000KT 10SM CLR 18/18 A3001 RMK AO2=
KVTP 080800Z AUTO 08010KT 1/4SM OVC001 06/05 A3056 RMK AO2=
KWYS 080750Z AUTO 00000KT 10SM CLR 03/00 A3035 RMK AO2=
KY51 080755Z AUTO 28004KT 10SM SCT007 BKN012 21/21 A3002 RMK AO1
     T02120205=
####018000531####
SAMX42 MMGL 080755
METAR MMGL 080753Z 00000KT 7SM RA  OVC080 19/17 A3003 
      RMK 6//// 8/07/ RAB45=
METAR MMLO 080745Z 04004KT 6SM -DZ  BKN025 OVC070 18/18 A3012 
      RMK 60095 8/77/=
METAR MMMM 080745Z 00000KT 4SM  BKN015 OVC070 17/16 A3008 RMK 8/46/=
METAR MMPR 080743Z 00000KT 12SM  SCT025 SCT070 25/23 A2981 RMK 8/430=
METAR MMSP 080747Z 00000KT 10SM  SCT010 BKN020 BKN080 17/17 A3014 
      RMK 8/530 MSGTX MMZC=
METAR MMZC 080744Z 11006KT 8SM  BKN020 OVC090 16/12 A3019 
      RMK 8/76/ OCNL DROPS=
####018000818####
SAGL41 BGSF 080750
METAR BGSF 080750Z 07008KT 9999 FEW060 08/02 Q1009=
METAR BGBW 080750Z 08002KT 9999 SCT068 09/05 Q1009 RMK 3AC =
METAR BGGH 080750Z AUTO 01003KT 9999NDV  OVC003/// 05/03 Q1010=
METAR BGJN 080750Z AUTO 35002KT 0350NDV  FG VV001/// 05/05 Q1010=
METAR BGKK 080750Z 09004KT 030V170 9999 FEW100 BKN160 06/03 Q1008=
METAR BGCO 080750Z 01016KT 9999 FEW016 SCT080 BKN140 05/01 Q1008=
METAR BGSS 080750Z AUTO 11002KT 0200NDV  FG ///001/// ///005/// 
04/04 Q1009 RMK /// /// =
METAR BGAA 080755Z NIL=
METAR BGUQ 080755Z NIL=
METAR BGMQ 080750Z AUTO VRB02KT 0550NDV  FG VV002/// 05/05 Q1009=
METAR BGUK 080750Z AUTO 08004KT 9999NDV  NCD 06/03 Q1010=
METAR BGQQ 080750Z AUTO 14004KT 3700NDV  BR ///001/// 05/// Q1011 
RMK /// =
METAR BGPT 080750Z AUTO 27005KT 0250NDV  FG VV003/// 04/// Q1010=
####018000350####
SAMX43 MMMZ 080800
METAR MMCL 080741Z 00000KT 10SM  SCT030 BKN100 27/23 A2980 RMK 8/520=
METAR COR MMHO 080745Z 00000KT 10SM  SCT080 28/07 A2979 RMK 8/030 HZY=
METAR MMML 080746Z 18006KT 10SM  SKC 25/14 A2966=
METAR MMMZ 080751Z 00000KT 10SM  SCT220 26/22 A2977 RMK 8/002=
METAR MMTJ 080749Z 00000KT 6SM  OVC017 16/14 A2994 RMK 8/5// HZY=
####018000522####
SAMX41 MMMX 080755
METAR MMMX 080748Z 00000KT 5SM -RA BKN025 OVC080 15/14 A3020
      NOSIG RMK 60125 8/46/ -RA INTMT=
METAR MMAA 080743Z 36004KT 8SM SCT020TCU SCT090 BKN300 27/23 A2978
      RMK 8/232=
METAR MMPB 080745Z 15005KT 3SM TSRA  SCT020CB OVC080 15/14 A3020 
      RMK 6//// 8/96/ TSRAB39=
METAR MMTO 080745Z 00000KT 3SM RA BKN010CB OVC070 12/11 A3025
      RMK 8/96/=
METAR COR MMVR 080745Z 12006KT 5SM +TSRA  OVC012CB 24/24 A2982 
      RMK 60375 8/9// +RA B37 FQT LTGICCG OVHD VRBL COND=
####018000126####
SAKA31 PTKR 080800
METAR PTKR 080755Z 36005KT 15SM FEW018CB BKN120 OVC300 29/24 A2980
RMK CB DSNT NW-N SLP090 T02930239=
####018000774####
SAIY31 LIIB 080750
METAR LIEA 080750Z 35005KT 250V050 CAVOK 27/20 Q1019=
METAR LIEE 080745Z 26004KT CAVOK 25/19 Q1018 NOSIG=
METAR LIEO 080750Z VRB04KT 9999 FEW030 28/22 Q1019=
METAR LIMC 080750Z 12005KT 060V170 9999 FEW040 SCT060 25/14 Q1022
NOSIG=
METAR LIME 080750Z 14006KT 070V170 9999 BKN055 24/16 Q1023=
METAR LIMF 080750Z VRB02KT 9999 SCT030 SCT050 22/16 Q1022=
METAR LIMJ 080750Z 05008KT CAVOK 28/21 1020=
METAR LIML 080750Z 09007KT 9999 BKN070 25/16 Q1022 NOSIG=
METAR LIRA 080745Z 25004KT 260V320 9999 SCT018 FEW020TCU 27/21
     Q1019=
METAR LIRF 080750Z 19006KT 150V240 9999 SCT020 28/22 Q1019 NOSIG=
METAR LIRN 080750Z 02010KT CAVOK 26/12 Q1019=
METAR LIRP 080745Z 11012KT CAVOK 27/15 Q1019 NOSIG=
METAR LIRQ 080750Z VRB02KT CAVOK 28/15 Q1020=
####018000374####
SAFI34 EFHK 080750
EFET 080750Z AUTO 18011KT 140V220 CAVOK 19/08 Q1014=
EFIV 080750Z AUTO VRB03KT CAVOK 15/11 Q1016=
EFKE 080750Z AUTO 18004KT 140V220 9999 FEW023 SCT028 18/13 Q1016=
EFKI 080750Z AUTO 32006KT 290V010 CAVOK 19/14 Q1016=
EFKS 080750Z VRB02KT 9999 BKN018 16/10 Q1017=
EFKT 080750Z AUTO 16007KT 110V220 9999 FEW035 19/10 Q1016=
METAR EFSO 080756Z NIL=
####018000092####
SPAU32 YBBN 080755
SPECI YSNF 080755Z 12009KT 5000 -DZ SCT010 BKN018 BKN100 14/12 Q1017=
####018000076####
SAGB20 GBYD 080800

METAR GBYD 080800Z 00000KT 9999 SCT012 26/24 Q1012=
####018000658####
SAIY32 LIIB 080750
METAR COR LIBD 080750Z 36012KT 9999 FEW030 24/11 Q1019=
METAR LIBR 080745Z /////KT 9999 FEW020 24/16 Q1017 NOSIG=
METAR LICC 080750Z VRB01KT CAVOK 28/21 Q1018=
METAR LICJ 080750Z 04014KT CAVOK 27/22 Q1018=
METAR LIPB 080750Z 15003KT 9999 SCT070 25/14 Q1022=
METAR LIPE 080750Z 11007KT CAVOK 26/17 Q1021=
METAR LIPH 080745Z 01002KT 9999 SCT040 BKN070 22/18 Q1023=
METAR LIPK 080750Z VRB03KT CAVOK 24/14 Q1021=
METAR LIPQ 080750Z VRB02KT 9999 FEW030 BKN050 23/15 Q1022=
METAR LIPR 080745Z 13006KT CAVOK 26/18 Q1021=
METAR LIPX 080745Z 09008KT 9999 SCT080 26/14 Q1021=
METAR LIPZ 080750Z 12007KT 9999 SCT045 SCT060 25/16 Q1022=
####018000068####
SABZ22 SBCY 080800
METAR SBCY 080800Z 32004KT CAVOK 21/14 Q1014=
####018000081####
SABZ20 SBEG 080800
METAR SBEG 080800Z 00000KT 9999 FEW010 SCT100 25/22 Q1011=
####018000068####
SABZ18 SBKP 080800
METAR SBKP 080800Z 08005KT CAVOK 11/08 Q1020=
####018000095####
SPAU31 KWBC 080757
SPECI
YSNF 080755Z 12009KT 5000 -DZ SCT010 BKN018 BKN100 14/12 Q1017=
####018000094####
SPCN31 KWBC 080757
SPECI
CYHZ 080753Z 18003KT 1/2SM R23/P6000FT/D FG VV001 17/ RMK FG8=
####018001380####
SAUK39 EGRR 080750
METAR EGDL 080750Z 25004KT 9999 FEW012 SCT100 BKN150 16/13 Q1019
 BLU TEMPO SCT020 WHT=
METAR EGDM 080750Z 25002KT 9999 FEW007 SCT014 BKN022 16/14 Q1019 GRN
 BECMG FEW015 BKN022 WHT=
METAR EGDR 080750Z 22003KT 9999 FEW015 SCT220 16/13 Q1019 BLU NOSIG=
METAR EGOS 080750Z 19007KT 9999 FEW015 BKN100 15/10 Q1017 BLU NOSIG=
METAR EGQK 080750Z 22016G28KT 9999 FEW025 SCT045 16/07 Q1008 BLU
 NOSIG=
METAR EGQL 080750Z 25018KT 9999 FEW023 BKN050 15/09 Q1011 BLU NOSIG=
METAR EGQS 080750Z 23018KT 9999 FEW025 SCT050 17/07 Q1008 BLU NOSIG=
METAR EGUB 080750Z 27004KT 9999 FEW010 OVC026 17/13 Q1019 BLU NOSIG=
METAR EGUW 080750Z 22009KT 9999 FEW008 BKN012 BKN090 19/15 Q1018 GRN
 TEMPO 4000 -RADZ SCT005 YLO1=
METAR EGVP 080750Z 31006KT 5000 -DZ SCT011 OVC017 15/14 Q1019 GRN
 BECMG 9999 NSW BKN018 WHT=
METAR EGWU 080750Z 28007KT 4500 RADZ FEW004 BKN007 OVC014 16/16 Q1019
 GRN BECMG 6000 -RADZ GRN=
METAR EGXC 080750Z 24008KT 9999 FEW020 BKN120 17/10 Q1017 BLU NOSIG=
METAR EGXD 080750Z 22007KT 9999 FEW020 BKN100 16/11 Q1016 BLU NOSIG=
METAR EGXE 080750Z 20006KT 9999 FEW020 BKN100 16/12 Q1016 BLU NOSIG=
METAR EGXU 080750Z 22007KT 9999 FEW020 SCT090 OVC120 16/10 Q1016 BLU
 NOSIG=
METAR EGYD 080750Z 24012KT CAVOK 16/10 Q1018 BLU NOSIG=
METAR EGYM 080750Z 26010KT 9999 FEW012 BKN028 OVC130 18/13 Q1018 BLU
 NOSIG=
####018001758####
SAEU KAWN 080800 RRE
METAR COR EGCC 080750Z 19006KT 160V220 9999 FEW036 16/12 Q1017 NOSIG=
METAR COR EGLL 080750Z 27008KT 9999 FEW009 BKN011 19/15 Q1019 BECMG
      SCT040=
METAR EGNS 080750Z 25010KT 9999 FEW020 16/11 Q1015 NOSIG=
METAR ENAL 080750Z 17005KT 9999 SCT055 SCT085 18/07 Q1008=
METAR ENAN 080750Z 15009KT 9999 FEW045 17/10 Q1010 NOSIG=
METAR ENBO 080750Z 03005KT 340V060 9999 FEW050 SCT100 17/09 Q1010 NOSIG=
METAR ENBR 080750Z 17012KT 9999 FEW015 SCT060 BKN080 16/12 Q1012 NOSIG=
METAR ENDU 080750Z 07003KT 010V130 9999 FEW050 SCT080 17/09 Q1011 NOSIG=
METAR ENHD 080750Z 18011KT 9999 FEW008 16/12 Q1013=
METAR ENHV 080750Z 21008KT 190V240 CAVOK 11/08 Q1015=
METAR ENMS 080750Z VRB02KT 9999 FEW060 20/10 Q1009=
METAR ENNK 080750Z 03004KT 9999 BKN060 17/10 Q1011=
METAR ENNM 080750Z 24003KT 200V280 CAVOK 18/10 Q1009=
METAR ENOL 080750Z 11008KT 9999 FEW025 BKN090 16/12 Q1008 NOSIG=
METAR ENRO 080750Z 18005KT 9999 SCT025 BKN100 16/08 Q1011=
METAR ENRY 080750Z 20008KT 9000 SCT007 BKN012 16/15 Q1016 TEMPO 4000
      RA BR BKN006=
METAR ENSB 080750Z 30004KT 9999 FEW015 SCT035 BKN060 08/05 Q1008 NOSIG=
METAR ENTC 080750Z 01004KT 9999 SCT070 BKN090 14/08 Q1011 NOSIG=
METAR ENTO 080750Z 21010KT 3500 RA VV006 16/15 Q1016=
METAR ENVA 080750Z 32003KT 260V360 CAVOK 18/11 Q1009 NOSIG=
METAR ENZV 080750Z 20009KT 9999 FEW015 18/12 Q1013 NOSIG=
METAR ETAD 080755Z AUTO VRB03KT 9999 CLR 24/11 A3016 RMK AO2 SLP197
      T02370107 $=
METAR ETIC 080756Z AUTO 00000KT 9999 CLR 20/09 A3022 RMK AO2 SLP224
      T01980091 $=
METAR LIEE 080745Z 26004KT CAVOK 25/19 Q1018 NOSIG=
METAR LIRF 080750Z 19006KT 150V240 9999 SCT020 28/22 Q1019 NOSIG=
METAR LIRP 080745Z 11012KT CAVOK 27/15 Q1019 NOSIG=
####018000117####
SPJP42 KWBC 080757
SPECI
RJFZ 080750Z VRB02KT 8000 FEW030 SCT045 BKN230 27/21 Q1007 RMK
1CU030 3SC045 A2975=
####018001533####
SAZZ40 KAWN 080800 RRF
METAR EFKI 080750Z AUTO 32006KT 290V010 CAVOK 19/14 Q1016=
METAR KBIX 080755Z AUTO 05004KT 10SM CLR 25/25 A3000 RMK AO2 SLP161
      T02540251=
METAR KFSI 080755Z AUTO 02005KT 10SM CLR 23/22 A3003 RMK AO2 SLP150
      T02290218=
METAR KLFI 080755Z 09005KT 8SM R08/5500FT BKN008 BKN150 26/24 A2996
      RMK AO2A BKN008 V SCT SLP145 T02560235 $=
METAR KMCF 080755Z AUTO 07005KT 10SM CLR 25/23 A2999 RMK AO2 SLP157
      T02470230=
METAR KNIP 080753Z 25004KT 10SM CLR 23/21 A3001 RMK AO2 SLP158 T02330211=
METAR KNKT 080754Z AUTO 05006KT 8SM CLR 26/21 A2991 RMK AO2 SLP125
      T02610211 $=
METAR KNQX 080753Z AUTO 05003KT 10SM CLR 28/25 A2992 RMK AO2 SLP131
      T02830250 $=
METAR KNRB 080752Z AUTO 00000KT 10SM CLR 24/21 A3000 RMK AO2 SLP159
      T02390206=
METAR KSKA 080755Z AUTO 05007KT 10SM CLR 18/08 A3006 RMK AO2 SLP167
      T01830077 402740113=
METAR KSLI 080755Z AUTO 00000KT 10SM OVC017 16/14 A2991 RMK AO2 SLP131
      T01620136 402180147=
METAR KTCM 080755Z AUTO 00000KT 10SM CLR 16/13 A2994 RMK AO2 SLP139
      T01590126 403140090=
METAR KTIK 080755Z AUTO 02005KT 10SM BKN019 OVC024 24/23 A3004 RMK
      AO2 CIG 019V023 BKN V OVC SLP159 T02370226 $=
METAR KTTS 080755Z 33001KT 10SM FEW030 FEW290 21/20 A2998 RMK SLP152
      1CU /0/ 1CI /0/=
METAR PAED 080755Z AUTO 00000KT 10SM BKN090 13/10 A3001 RMK AO2 SLP163
      T01290096 $=
METAR PGUA 080755Z AUTO 08012KT 10SM FEW016 28/ A2987 RMK AO2 SLP096
      T0275 VISNO RWY24L $=
####018000095####
SAAH39 OAHR 080755
METAR OAHR 080755Z 35011KT CAVOK 39/M02 Q1011 RMK SKC VIS MIN 9999 BLU=
####018000124####
SPJP41 KWBC 080757
SPECI
RJCO 080745Z 32007KT 9999 FEW007 SCT009 BKN010 20/18 Q1009 RMK
1ST007 4ST009 7ST010 A2981=
####018000140####
SPJP44 KWBC 080757
SPECI
RJSM 080750Z 09004KT 8000 FEW005 BKN035 BKN080 21/19 Q1008 RMK
2ST005 5CU035 6AC080 A2979 WIND BY EQPT/10=
####018000134####
SAUS46 KLOX 080756
MTRVBG
METAR KVBG 080755Z AUTO 00000KT 10SM CLR 13/11 A2993 RMK AO2 CIG 008 
RWY12 SLP126 T01280111 TSNO $
####018000083####
SPCN48 CWAO 080755
SPECI CYPH 080755Z AUTO 24019KT 5/8SM VV001 05/05 A2977=

####018000140####
SPXX62 KWBC 080757
SPECI
RJSM 080750Z 09004KT 8000 FEW005 BKN035 BKN080 21/19 Q1008 RMK
2ST005 5CU035 6AC080 A2979 WIND BY EQPT/10=
####018000084####
SPUS41 KWBC 080757
SPECI
KDOV 080753Z AUTO 00000KT 3SM BR SCT110 24/24 A2998=
####018000151####
SAUS43 KAPX 080757
MTRANJ
METAR KANJ 080755Z AUTO 17003KT 4SM +RA BR FEW023 BKN049 OVC110 
21/19 A2996 RMK AO2 RAE01B50 SLP140 P0001 T02060189
####018000108####
SAUS42 TJSJ 080757
MTRSJU
METAR TJSJ 080756Z 10003KT 10SM CLR 27/24 A2998 RMK AO2 SLP150 
T02720244
####018000128####
SAUS46 KSEW 080756
MTRAST
METAR KAST 080755Z AUTO 24009KT 4SM BR OVC003 12/11 A2993 RMK AO2 
SLP133 T01220106 403390117
####018000108####
SAUS42 KJAX 080757
MTRJAX
METAR KJAX 080756Z 00000KT 10SM CLR 21/19 A3000 RMK AO2 SLP159 
T02060194
####018000121####
SAUS45 KSLC 080756
MTRNKX
METAR KNKX 080755Z 33004KT 10SM OVC014 16/14 A2991 RMK AO2 SLP123 
T01610139 401890150
####018000517####
SANL40 EHWX 080755
METAR EHDL 080755Z AUTO 21008KT 9999NDV NCD 26/12 Q1019 
BLU=
METAR EHEH 080755Z AUTO 26004KT 9999NDV NCD 26/13 Q1019 
BLU BLU=
METAR EHGR 080755Z AUTO 25005KT 9999NDV NCD 26/13 Q1018 
BLU BLU=
METAR EHLW 080755Z AUTO 23009KT 9999NDV BKN110 21/16 Q1018 
BLU BLU=
METAR EHVK 080755Z AUTO 24006KT 9999NDV NCD 26/12 Q1019 RE// 
BLU=
METAR EHVL 080755Z AUTO 23012KT 9999NDV BKN096 OVC100 19/15 Q1018 
BLU=
METAR EHWO 080755Z AUTO 27004KT 9999NDV NCD 24/13 Q1019 
BLU BLU=
####018000083####
SPCN46 CWAO 080756
SPECI CYBN 080756Z AUTO 00000KT 1 1/2SM CLR 20/19 A3003=

####018000086####
SAUS54 KWBC 080700 RRI
METAR
KIZA 080749Z AUTO 00000KT 10SM OVC009 14/11 A2991=
####018000078####
SAMZ40 FQMA 080800
METAR FQBR 080800Z 18014KT 9999 FEW020 21/17 Q1027=

####018000670####
SAIY32 LIIB 080750
METAR COR LIBD 080750Z 36012KT 9999 FEW030 24/11 Q1019=
METAR LIBR 080745Z /////KT 9999 FEW020 24/16 Q1017 NOSIG=
METAR LICC 080750Z VRB01KT CAVOK 28/21 Q1018=
METAR LICJ 080750Z 04014KT CAVOK 27/22 Q1018=
METAR LIPB 080750Z 15003KT 9999 SCT070 25/14 Q1022=
METAR LIPE 080750Z 11007KT CAVOK 26/17 Q1021=
METAR LIPH 080745Z 01002KT 9999 SCT040 BKN070 22/18 Q1023=
METAR LIPK 080750Z VRB03KT CAVOK 24/14 Q1021=
METAR LIPQ 080750Z VRB02KT 9999 FEW030 BKN050 23/15 Q1022=
METAR LIPR 080745Z 13006KT CAVOK 26/18 Q1021=
METAR LIPX 080745Z 09008KT 9999 SCT080 26/14 Q1021=
METAR LIPZ 080750Z 12007KT 9999 SCT045 SCT060 25/16 Q1022=
####018000789####
SAIY31 LIIB 080750
METAR LIEA 080750Z 35005KT 250V050 CAVOK 27/20 Q1019=
METAR LIEE 080745Z 26004KT CAVOK 25/19 Q1018 NOSIG=
METAR LIEO 080750Z VRB04KT 9999 FEW030 28/22 Q1019=
METAR LIMC 080750Z 12005KT 060V170 9999 FEW040 SCT060 25/14 Q1022
NOSIG=
METAR LIME 080750Z 14006KT 070V170 9999 BKN055 24/16 Q1023=
METAR LIMF 080750Z VRB02KT 9999 SCT030 SCT050 22/16 Q1022=
METAR LIMJ 080750Z 05008KT CAVOK 28/21 1020=
METAR LIML 080750Z 09007KT 9999 BKN070 25/16 Q1022 NOSIG=
METAR LIRA 080745Z 25004KT 260V320 9999 SCT018 FEW020TCU 27/21
     Q1019=
METAR LIRF 080750Z 19006KT 150V240 9999 SCT020 28/22 Q1019 NOSIG=
METAR LIRN 080750Z 02010KT CAVOK 26/12 Q1019=
METAR LIRP 080745Z 11012KT CAVOK 27/15 Q1019 NOSIG=
METAR LIRQ 080750Z VRB02KT CAVOK 28/15 Q1020=
####018000128####
SAUS46 KSGX 080757
MTRNJK
METAR KNJK 080756Z AUTO 34003KT 10SM CLR 27/09 A2967 RMK AO2 SLP063 
T02670094 404110206 TSNO
####018000128####
SAUS46 KMTR 080757
MTRAAT
METAR KAAT 080755Z AUTO 19003KT 10SM CLR 15/08 A3007 RMK AO2 SLP135 
T01500078 403390078 TSNO
####018000107####
SAUS43 KLMK 080757
MTRSDF
METAR KSDF 080756Z 00000KT 8SM CLR 27/21 A3005 RMK AO2 SLP170 
T02720206
####018000101####
SAFJ31 NFFN 080800
METAR NFFN 080800Z 12004KT 40KM SCT028 SCT048 23/19 Q1013 NOSIG RMK
RR NIL=
####018000139####
SAUS45 KABQ 080757
MTRABQ
METAR KABQ 080756Z 10017G23KT 10SM BKN130 OVC200 19/10 A3025 RMK AO2 
PK WND 10028/0722 SLP151 T01890100
####018000120####
SAUS43 KUNR 080757
MTRPHP
METAR KPHP 080755Z AUTO 28005KT 10SM CLR 13/11 A3019 RMK AO2 SLP212 
T01280106 TSNO $
####018000108####
SAUS42 KCHS 080757
MTRCHS
METAR KCHS 080756Z 29009KT 10SM CLR 25/19 A2996 RMK AO2 SLP144 
T02500194
####018000118####
SAUS44 KSHV 080757
MTRSHV
METAR KSHV 080756Z 11003KT 10SM SCT180 BKN280 25/24 A3000 RMK AO2 
SLP155 T02500239
####018000628####
SACN60 CWAO 080700 RRE
PET SA 0700 AUTO8 M M M M/11/09/MMMM/M/ M 50MM=
PFM SA 0700 AUTO8 M M M M/09/08/MMMM/M/ M 29MM=
PHU SA 0700 AUTO8 M M M M/11/10/MMMM/M/ M 13MM=
PIA SA 0700 AUTO8 M M M M/12/11/MMMM/M/ M 99MM=
PKA SA 0700 AUTO8 M M M M/10/09/MMMM/M/ M 94MM=
PLA SA 0700 AUTO8 M M M M/09/07/MMMM/M/ M 63MM=
PMA SA 0700 AUTO8 M M M M/13/11/MMMM/M/ M 24MM=
PMB SA 0700 AUTO8 M M M M/09/07/MMMM/M/ M 19MM=
PML SA 0700 AUTO8 M M M M/10/09/MMMM/M/ M 16MM=
PPL SA 0700 AUTO8 M M M M/12/10/MMMM/M/ M 59MM=
PRH SA 0700 AUTO8 M M M M/13/12/MMMM/M/ M 85MM=
PRS SA 0700 AUTO8 M M M M/12/11/MMMM/M/ M 57MM=

####018000603####
SACN59 CWAO 080700 RRI
PAA SA 0700 AUTO8 M M M M/12/10/2703/M/ M 10MM=
PBA SA 0700 AUTO8 M M M M/12/10/MMMM/M/ M 13MM=
PBE SA 0700 AUTO8 M M M M/11/10/1201/M/ M 37MM=
PBS SA 0700 AUTO8 M M M M/11/10/2803/M/0004 PCPN 0.4MM PAST HR M
34MM=
PBT SA 0700 AUTO8 M M M M/10/09/2504/M/ M 10MM=
PCA SA 0700 AUTO8 M M M M/12/11/2404/M/ M 96MM=
PEH SA 0700 AUTO8 M M M M/13/12/0501/M/ M 57MM=
PIR SA 0700 AUTO8 M M M M/14/12/2406/M/ M 62MM=
PQL SA 0700 AUTO8 M M M M/14/10/1605/M/ M 49MM=
PRA SA 0700 AUTO8 M M M M/12/10/MMMM/M/ M 96MM=
PXL SA 0700 AUTO8 M M M M/12/11/2002/M/ M 81MM=

####018000104####
SACN93 CWAO 080700 RRF
WND SA 0700 AUTO8 M M M 144/04/02/3119/M/M PK WND 3327 0621Z 3021
33MM=

####018000083####
SACN90 CWAO 080700 RRE
WFZ SA 0700 AUTO8 M M M 127/10/07/2401/M/ 2003 54MM=

####018000078####
SACN60 CWAO 080600 RRG
PMA SA 0600 AUTO8 M M M M/14/12/MMMM/M/ M 65MM=

####018000139####
SACN96 CWAO 080700 RRG
WYW SA 0700 AUTO8 M M M 150/15/13/1802/M/ 6008 07MM=
XEL SA 0700 AUTO8 M M M 134/16/13/2810/M/M 6003 86MM=

####018000103####
SACN92 CWAO 080700 RRE
WJN SA 0700 AUTO8 M M M 168/03/02/3115/M/ PK WND 3222 0606Z 3010
05MM=

####018000108####
SACN89 CWAO 080700 RRD
WCI SA 0700 AUTO8 M M M 150/16/15/0203/M/0032 PCPN 3.2MM PAST HR
5010 73MM=

####018001419####
SAUS17 KAWN 080800 RRB
METAR KBAB 080755Z AUTO 15009KT 10SM FEW180 20/12 A2981 RMK AO2 SLP094
      T01960122 403470133 $=
METAR KBIX 080755Z AUTO 05004KT 10SM CLR 25/25 A3000 RMK AO2 SLP161
      T02540251=
METAR KBKF 080755Z 20003KT 7SM FEW004 BKN010 BKN060 14/14 A3034 RMK
      SLP227=
METAR KCOF 080755Z AUTO 04004KT 10SM CLR 25/ A2997 RMK AO2 SLP151 T0252
      $=
METAR KDLF 080755Z AUTO 07005KT 10SM CLR 25/23 A2994 RMK AO2 SLP122
      T02470226 $=
METAR KFSI 080755Z AUTO 02005KT 10SM CLR 23/22 A3003 RMK AO2 SLP150
      T02290218=
METAR KGRK 080755Z 09005KT 7SM BKN012 BKN050 27/23 A2998 RMK SLP128=
METAR KHFF 080755Z AUTO 00000KT 10SM CLR 22/18 A2997 RMK AO2 SLP145
      T02210176 $=
METAR KLFI 080755Z 09005KT 8SM R08/5500FT BKN008 BKN150 26/24 A2996
      RMK AO2A BKN008 V SCT SLP145 T02560235 $=
METAR KLSV 080755Z AUTO 30004KT 10SM CLR 29/M04 A2981 RMK AO2 SLP069
      T02911039 403940214 PWINO=
METAR KLTS 080755Z 00000KT 10SM CLR 23/23 A3005 RMK AO2A DZB0657E0720
      SLP157 P0000 T02310228 $=
METAR KLUF 080755Z 10005KT 10SM CLR 29/07 A2975 RMK AO2A SLP042 T02940065
      $=
METAR KMCF 080755Z AUTO 07005KT 10SM CLR 25/23 A2999 RMK AO2 SLP157
      T02470230=
METAR KMIB 080755Z AUTO 27007KT 10SM CLR 12/11 A3008 RMK AO2 SLP185
      T01210115 $=
METAR KMXF 080755Z AUTO 22003KT 10SM CLR 26/25 A3001 RMK AO2 SLP161
      T02590246=
####018002933####
SAUS20 KNKA 080757
METAR K1A6 080755Z AUTO 00000KT 4SM BR CLR 22/22 A3010 RMK AO2=
METAR K1M4 080756Z AUTO 00000KT 10SM CLR 23/22 A3009 RMK AO2 
    T02330216 SLP186=
METAR K21D 080758Z AUTO 30005KT 10SM CLR 18/17 A3006 RMK AO2=
METAR KAIG 080755Z AUTO 29007KT 1/4SM FG OVC001 19/19 A3000 RMK 
     AO2=
METAR KAND 080756Z AUTO 00000KT 10SM CLR 22/19 A3002 RMK AO2 SLP153 
    T02170194=
METAR KARV 080752Z AUTO 30003KT 10SM CLR 19/18 A3003 RMK AO2 
     T01870177=
METAR KATW 080755Z AUTO 22005KT 10SM SCT075 SCT085 21/20 A2997 
     RMK AO2 P0001=
METAR KBJI 080754Z AUTO 23005KT 10SM CLR 16/14 A3004 RMK AO2=
METAR KBUU 080754Z AUTO 16003KT 7SM -DZ SCT055 BKN090 21/21 A3001 
     RMK AO2=
METAR KBWP 080751Z AUTO 26003KT 10SM CLR 15/14 A3008 RMK AO1 
     T01520136=
METAR KCEC 080756Z AUTO 00000KT 1SM BR VV001 10/09 A2998 RMK AO2 
    SLP152 T01000094 401330094=
METAR KCLI 080755Z AUTO 25005KT 7SM BKN004 22/21 A2997 RMK AO2=
METAR KCMY 080754Z AUTO 00000KT 10SM CLR 21/20 A3002 RMK AO2 
     T02060195=
METAR KDIK 080756Z AUTO 28004KT 10SM CLR 10/09 A3015 RMK AO2 SLP206 
    T01000089=
METAR KDUG 080756Z AUTO 09015G24KT 10SM CLR 27/11 A3000 RMK AO2 
    SLP068 T02720111 $=
METAR KDUJ 080756Z AUTO 08003KT 7SM CLR 21/17 A3011 RMK AO2 SLP180 
    T02060172=
METAR KDVK 080757Z AUTO 00000KT 5SM 21/19 A3008 RMK AO1=
METAR KEAU 080756Z AUTO 21003KT 10SM CLR 19/19 A2999 RMK AO2 SLP152 
    T01940189=
METAR KEKO 080756Z AUTO 07009KT 10SM CLR 19/M06 A3010 RMK AO2 SLP131 
    T01941056 403170072=
METAR KFBG 080755Z AUTO 34003KT 10SM CLR 27/18 A2993 RMK AO2 SLP133
      T02690179 $=
METAR KGRD 080756Z AUTO 29003KT 10SM CLR 23/19 A3002 RMK AO2 SLP156 
    T02330194=
METAR KHND 080756Z AUTO 19004KT 10SM CLR 27/M02 A2987 RMK AO2 
    T02661022 SLP057=
METAR KINW 080756Z AUTO 27006KT 10SM BKN120 24/00 A3008 RMK AO2 
    SLP095 T02440000=
METAR KIWA 080756Z AUTO 35004KT 10SM CLR 31/03 A2979 RMK AO2=
METAR KJMS 080756Z AUTO 00000KT 10SM CLR 14/13 A3009 RMK AO2 SLP186 
    T01440133=
METAR KLCK 080755Z AUTO 00000KT 5SM BR CLR 23/21 A3007 RMK AO2 
     T02290209=
METAR KLNR 080756Z AUTO 28008KT 10SM CLR 21/19 A3001 RMK AO2 SLP153 
    T02060189=
METAR KM19 080756Z AUTO 18005KT 10SM CLR 25/23 A3005 RMK AO2 
    T02500233 SLP174=
METAR KMOB 080756Z 03003KT 10SM CLR 24/23 A3003 RMK AO2 SLP164 
    T02390228=
METAR KMQY 080756Z AUTO 00000KT 10SM CLR 25/22 A3007 RMK AO2 
    T02500216 SLP173=
METAR KMRH 080756Z AUTO 02006KT 9SM CLR 26/20 A2990 RMK AO2 SLP124 
    T02610200 TSNO=
METAR KMWO 080755Z AUTO 00000KT 3SM BR CLR 20/20 A3008 RMK AO2=
METAR KOFK 080756Z AUTO 29003KT 10SM CLR 16/15 A3018 RMK AO2 SLP211 
    T01610150=
METAR KOZR 080755Z AUTO 00000KT 10SM CLR 22/22 A3002 RMK AO2 SLP162
      T02220222=
METAR KPVB 080753Z AUTO 00000KT 10SM BKN120 20/19 A3002 RMK AO1 
     T01980190=
####018001102####
SAUS20 KNKA 080757
METAR KRDM 080756Z AUTO 28003KT 10SM CLR 14/03 A3005 RMK AO2 SLP150 
    T01440033 403280050 $=
METAR KSBP 080756Z AUTO 32005KT 10SM OVC011 13/11 A2992 RMK AO2 
    SLP130 T01330111 402060100 $=
METAR KSFO 080756Z 27012KT 10SM BKN008 13/11 A2994 RMK AO2 SLP137 
    T01330106 402280133=
METAR KSLE 080756Z AUTO 00000KT 10SM CLR 20/11 A2985 RMK AO2 SLP105 
    T02000111 403670133=
METAR KSME 080755Z AUTO 00000KT 5SM BR 21/20 A3008 RMK AO2=
METAR KSRC 080756Z AUTO 00000KT 10SM CLR 23/22 A3006 RMK AO2 TSNO 
    T02270222 SLP180=
METAR KSSC 080755Z AUTO 28009KT 10SM CLR 26/19 A2996 RMK AO2 SLP144
      T02580189 $=
METAR KTPH 080756Z AUTO 36005KT 10SM CLR 16/M12 A3009 RMK AO2 SLP108 
    T01611117 403280139=
METAR KTZR 080757Z AUTO 00000KT 7SM CLR 21/19 A3008 RMK AO2=
METAR KVAD 080755Z AUTO 20003KT 10SM CLR 22/20 A3002 RMK AO2 SLP164
      T02180198 $=
METAR PAAK 080756Z AUTO 08019G24KT 10SM SCT015 BKN025 OVC120 07/04 
    A2964 RMK AO1 PNO=
METAR PAHP 080756Z AUTO 02009KT 10SM BKN060 OVC080 12/09 A3007 RMK 
    AO1 PNO TSNO=
####018000083####
SAPK31 OPKC 080755
METAR OPKC 080800Z 09012KTS 9000 BKN030 35/24 Q.1003 NOSIG=
####018000088####
SAVN22 SVMI 080800
METAR SVMI 080800Z 07001KT 9000 -TSDZ FEW013 BKN016 25/24 Q1013=
####018000381####
SAFI34 EFHK 080750
EFET 080750Z AUTO 18011KT 140V220 CAVOK 19/08 Q1014=
EFIV 080750Z AUTO VRB03KT CAVOK 15/11 Q1016=
EFKE 080750Z AUTO 18004KT 140V220 9999 FEW023 SCT028 18/13 Q1016=
EFKI 080750Z AUTO 32006KT 290V010 CAVOK 19/14 Q1016=
EFKS 080750Z VRB02KT 9999 BKN018 16/10 Q1017=
EFKT 080750Z AUTO 16007KT 110V220 9999 FEW035 19/10 Q1016=
METAR EFSO 080756Z NIL=
####018000093####
SPAU32 YBBN 080755
SPECI YSNF 080755Z 12009KT 5000 -DZ SCT010 BKN018 BKN100 14/12 Q1017=
####018000269####
SAZA42 FAJS 080800
METAR FAVV 080800Z AUTO 06005KT //// // ////// 10/07 Q1034=
METAR FAJB 080800Z AUTO 07005KT //// // ////// 13/06 Q1035=
METAR FASI 080800Z AUTO 09006KT //// // ////// 12/05 Q1035=
METAR FAGC 080800Z AUTO 07011KT //// // ////// 11/06 Q1036=
####018003707####
SAUS90 KWBC 080800
METAR KDMH 080754Z AUTO 28/23 A2999 RMK AO2 SLP154 T02830228 PWINO
     TSNO=
METAR KCOU 080754Z AUTO 00000KT 6SM -RA BR SCT002 BKN019 OVC030
     23/22 A3005 RMK AO2 SLP167 P0002 T02280222 TSNO=
METAR KCAR 080754Z AUTO 00000KT 9SM CLR 22/20 A2999 RMK AO2 SLP155
     T02170200=
METAR KAVP 080754Z 11005KT 7SM CLR 21/18 A3005 RMK AO2 SLP163
     T02110178 $=
METAR KMSY 080753Z 00000KT 10SM FEW025 SCT250 27/23 A2999 RMK AO2
     SLP158 T02670233=
METAR KDRA 080755Z AUTO 08004KT 10SM CLR 23/M12 A2991 RMK AO2
     SLP075 T02331122 403780189 TSNO=
METAR KRFD 080754Z 15004KT 9SM -RA BKN008 OVC013 22/21 A3003 RMK
     AO2 CIG 004V011 SLP162 P0001 T02220211=
METAR KCAO 080755Z AUTO 02010KT 10SM -RA BKN070 OVC100 16/14 A3027
     RMK AO2 RAE21B40 SLP190 P0001 T01610139 TSNO=
METAR KMBG 080755Z AUTO 34003KT 10SM CLR 12/09 A3013 RMK AO2
     SLP197 T01220094 TSNO=
METAR KINL 080755Z AUTO 22003KT 10SM FEW090 13/12 A3000 RMK AO2
     SLP160 T01330122=
METAR KHON 080755Z AUTO 21006KT 10SM CLR 17/14 A3014 RMK AO2
     SLP203 T01720139=
METAR KPOE 080755Z AUTO 12005KT 10SM CLR 24/23 A3000 RMK AO2
     SLP158 T02440228=
METAR KVBG 080755Z AUTO 00000KT 10SM CLR 13/11 A2993 RMK AO2 CIG
     008 RWY12 SLP126 T01280111 TSNO $=
METAR KTEW 080752Z AUTO 00000KT 7SM CLR 21/20 A3004 RMK AO2=
METAR KCVH 080750Z AUTO 00000KT 10SM BKN012 12/11 A2993 RMK
     AO1=
METAR KDYT 080754Z AUTO 30007KT 10SM SCT060 21/16 A3003 RMK
     AO2=
METAR KFSO 080758Z AUTO 00000KT 4SM BR CLR 23/22 A2999 RMK AO2=
METAR KFBL 080754Z AUTO 30006KT 10SM CLR 18/16 A3008 RMK AO2=
METAR KLYV 080758Z AUTO 00000KT 10SM CLR 15/13 A3016 RMK AO2=
METAR KEFK 080756Z AUTO 20003KT 5SM BR CLR 20/19 A3005 RMK AO2=
METAR KRRT 080754Z AUTO 24005KT 10SM CLR 16/13 A3000 RMK AO2=
METAR KTOB 080755Z AUTO 00000KT 10SM CLR 19/17 A3008 RMK AO2=
METAR KLXL 080754Z AUTO 00000KT 5SM BR CLR 12/12 A3008 RMK AO2=
METAR KEVM 080752Z AUTO 27004KT 7SM CLR 13/12 A3002 RMK AO1=
METAR KELO 080753Z AUTO 00000KT 7SM CLR 13/12 A3003 RMK AO2=
METAR KANE 080755Z AUTO 28005KT 10SM 18/17 A3007 RMK AO2=
METAR KROX 080755Z AUTO 26005KT 10SM CLR 17/14 A3000 RMK AO2=
METAR KVVV 080756Z AUTO 00000KT 10SM CLR 17/14 A3011 RMK AO2=
METAR KROS 080755Z AUTO 30003KT 10SM CLR 17/15 A3006 RMK AO2
     T01650151=
METAR KHCD 080752Z AUTO 27003KT 10SM CLR 14/13 A3010 RMK AO2
     T01400129=
METAR KSGS 080753Z AUTO 31004KT 10SM CLR 20/17 A3006 RMK AO2
     T02000167=
METAR KMJQ 080752Z AUTO 30003KT 10SM CLR 15/14 A3013 RMK AO2=
METAR KHCO 080754Z AUTO 00000KT 10SM CLR 13/13 A3004 RMK AO2=
METAR KLVN 080749Z AUTO 30005KT 10SM CLR 18/17 A3007 RMK AO2=
METAR KPEX 080753Z AUTO 25005KT 7SM CLR 13/13 A3011 RMK AO2
     T01290125=
METAR KJMR 080758Z AUTO 31004KT 10SM CLR 15/13 A3007 RMK AO2=
METAR KJKJ 080754Z AUTO 22005KT 10SM CLR 16/15 A3006 RMK AO2=
METAR KMVE 080754Z AUTO 28004KT 10SM CLR 18/16 A3010 RMK AO2=
METAR KTKC 080753Z AUTO 25005KT 10SM CLR 16/14 A3014 RMK AO2
     T01550139=
METAR KGYL 080754Z AUTO 00000KT 10SM CLR 16/15 A3009 RMK AO2
     T01580148=
METAR KDXX 080754Z AUTO 00000KT 10SM CLR 15/15 A3011 RMK AO2=
METAR KHZX 080751Z AUTO 00000KT 4SM CLR 12/12 A3007 RMK AO2=
METAR KSAZ 080754Z AUTO 00000KT 10SM CLR 15/15 A3008 RMK AO2=
METAR KONA 080751Z AUTO 00000KT 7SM CLR 20/18 A3002 RMK AO2=
METAR KOVL 080754Z AUTO 00000KT 7SM CLR 14/13 A3011 RMK AO2
     T01400125=
METAR KLJF 080752Z AUTO 30003KT 10SM CLR 17/16 A3011 RMK AO2=
METAR KAEL 080751Z AUTO 31004KT 10SM BKN029 18/17 A3008 RMK
     AO2=
METAR K29G 080754Z AUTO 00000KT 7SM BKN060 20/18 A3009 RMK AO2
     T02010182 PWINO=
####018003734####
SAUS90 KWBC 080800 RRA
METAR KMRT 080753Z AUTO 00000KT 5SM CLR 21/19 A3011 RMK AO2
     T02080190=
METAR KIKW 080754Z AUTO 00000KT 7SM CLR 22/21 A3001 RMK AO2
     T02180207=
METAR KMDS 080745Z AUTO 29005KT 10SM CLR 14/14 A3016 RMK AO2=
METAR KFPK 080755Z AUTO 00000KT 4SM BR CLR 21/20 A3002 RMK AO2=
METAR KMOP 080754Z AUTO 00000KT 7SM SCT060 BKN120 22/22 A3001 RMK
     AO2=
METAR KCAD 080754Z AUTO 23005KT 10SM SCT090 22/21 A3003 RMK
     AO2=
METAR KMGN 080754Z AUTO 00000KT 7SM SCT110 21/20 A2997 RMK AO2=
METAR KHAI 080755Z AUTO 00000KT 5SM BR CLR 22/21 A3004 RMK AO2=
METAR KLWA 080756Z AUTO 00000KT 10SM SCT055 OVC110 23/21 A3003 RMK
     AO2=
METAR KDRM 080756Z AUTO 13004KT 7SM CLR 20/20 A2997 RMK AO2=
METAR KVLL 080754Z AUTO 00000KT 10SM CLR 26/21 A3006 RMK AO2=
METAR KCFS 080755Z AUTO 00000KT 3SM BR CLR 21/21 A3002 RMK AO2=
METAR KOZW 080755Z AUTO 00000KT 7SM CLR 22/21 A3004 RMK AO2=
METAR KRNP 080755Z AUTO 00000KT 10SM CLR 22/21 A3002 RMK AO2=
METAR KDUH 080754Z AUTO 00000KT 7SM CLR 22/18 A3004 RMK AO2=
METAR KJYM 080755Z AUTO 00000KT 7SM CLR 22/20 A3006 RMK AO2=
METAR KBAX 080755Z AUTO 00000KT 4SM BR CLR 21/21 A3001 RMK AO2=
METAR KIRS 080755Z AUTO 00000KT 10SM CLR 22/19 A3004 RMK AO2=
METAR KACB 080755Z AUTO 00000KT 10SM SCT120 24/21 A2998 RMK
     AO2=
METAR KRQB 080754Z AUTO 25008KT 10SM DZ BKN090 OVC110 23/21 A3004
     RMK AO2=
METAR KOEB 080755Z AUTO 00000KT 10SM CLR 23/20 A3005 RMK AO2=
METAR K4I3 080755Z AUTO 00000KT 10SM CLR 21/19 A3010 RMK AO2=
METAR KAUM 080755Z AUTO 32005KT 10SM CLR 19/17 A3006 RMK AO2=
METAR KFFX 080754Z AUTO 00000KT 7SM BKN060 OVC075 22/22 A3002 RMK
     AO2=
METAR KCNB 080757Z AUTO 24005KT 10SM CLR 16/13 A3013 RMK AO2
     T01600130=
METAR KCKN 080755Z AUTO 25003KT 10SM CLR 15/12 A3004 RMK AO2=
METAR KCFE 080754Z AUTO 00000KT 10SM CLR 18/16 A3009 RMK AO2
     T01800162=
METAR KCQM 080757Z AUTO 00000KT 10SM CLR 14/14 A3004 RMK AO2=
METAR KDTL 080755Z AUTO 26005KT 10SM CLR 18/12 A3009 RMK AO2=
METAR KBDH 080755Z AUTO 00000KT 10SM CLR 16/14 A3012 RMK AO2=
METAR KCBG 080755Z AUTO 00000KT 10SM CLR 16/14 A3007 RMK AO2=
METAR KADC 080757Z AUTO 23004KT 10SM CLR 13/12 A3008 RMK AO2=
METAR KHAF 080750Z AUTO 00000KT 8SM OVC008 12/10 A2995 RMK AO2=
METAR KCKC 080755Z AUTO 29004KT 10SM CLR 16/13 A3003 RMK AO2=
METAR KJYG 080754Z AUTO 00000KT 10SM CLR 17/17 A3012 RMK AO2=
METAR KCOQ 080756Z AUTO 29004KT 10SM CLR 14/14 A3005 RMK AO2=
METAR KACQ 080758Z AUTO 31004KT 10SM CLR 17/16 A3011 RMK AO2=
METAR KRGK 080755Z AUTO 28004KT 10SM CLR 20/18 A3003 RMK AO2=
METAR KFSE 080754Z AUTO 20003KT 10SM CLR 13/12 A3004 RMK AO2=
METAR KY70 080754Z AUTO 00000KT 10SM SCT055 SCT065 BKN110 24/21
     A3002 RMK AO2 T02380210=
METAR KUKT 080750Z AUTO 00000KT 5SM CLR 22/20 A3003 RMK AO1=
METAR KANJ 080755Z AUTO 17003KT 4SM +RA BR FEW023 BKN049 OVC110
     21/19 A2996 RMK AO2 RAE01B50 SLP140 P0001 T02060189=
METAR TJSJ 080756Z 10003KT 10SM CLR 27/24 A2998 RMK AO2 SLP150
     T02720244=
METAR KJAX 080756Z 00000KT 10SM CLR 21/19 A3000 RMK AO2 SLP159
     T02060194=
METAR KAST 080755Z AUTO 24009KT 4SM BR OVC003 12/11 A2993 RMK AO2
     SLP133 T01220106 403390117=
METAR KPQN 080753Z AUTO 32003KT 10SM CLR 17/15 A3015 RMK AO2=
METAR KFGN 080753Z AUTO 26009KT 1/2SM DZ VV005 18/13 A2996 RMK
     AO2=
METAR KPNM 080753Z AUTO 00000KT 10SM CLR 15/14 A3008 RMK AO2=
METAR KPWC 080753Z AUTO 00000KT 1/2SM FG BKN001 11/10 A3008 RMK
     AO2=
METAR KFFM 080753Z AUTO 17003KT 10SM CLR 15/14 A3007 RMK AO2=
METAR KGDB 080752Z AUTO 24005KT 10SM CLR 15/14 A3013 RMK AO2
     T01450142=
METAR KAIT 080753Z AUTO 00000KT 3SM BR CLR 12/11 A3007 RMK AO2=
####018000102####
SAUS90 KWBC 080758
METAR KSYN 080810Z AUTO 00000KT 10SM CLR 19/17 A3005 RMK AO2
     T01860170=
####018000194####
SAUS90 KWBC 080800 CCA
METAR KTRI 080753Z 00000KT 6SM HZ CLR 22/19 A3009 RMK AO2 SLP169
     T02170189 $=
METAR KTYS 080753Z 03003KT 9SM CLR 24/19 A3005 RMK AO2 SLP162
     T02440189=
####018002017####
SAUS90 KWBC 080800 RRB
METAR KGHW 080753Z AUTO 22004KT 10SM CLR 14/13 A3013 RMK AO2=
METAR KMWM 080753Z AUTO 28005KT 10SM CLR 15/14 A3012 RMK AO2=
METAR KULM 080754Z AUTO 27005KT 10SM CLR 14/13 A3011 RMK AO2=
METAR KBBB 080753Z AUTO 00000KT 1/2SM FG VV005 14/14 A3011 RMK
     AO2=
METAR KTWM 080753Z AUTO 00000KT 10SM BKN050 17/14 A3000 RMK
     AO2=
METAR KMGG 080755Z AUTO 28003KT 10SM CLR 15/15 A3009 RMK AO2
     T01500145=
METAR KMOX 080750Z AUTO 23005KT 10SM CLR 17/15 A3007 RMK AO2=
METAR KAAT 080755Z AUTO 19003KT 10SM CLR 15/08 A3007 RMK AO2
     SLP135 T01500078 403390078 TSNO=
METAR KSDF 080756Z 00000KT 8SM CLR 27/21 A3005 RMK AO2 SLP170
     T02720206=
METAR KPHP 080755Z AUTO 28005KT 10SM CLR 13/11 A3019 RMK AO2
     SLP212 T01280106 TSNO $=
METAR KABQ 080756Z 10017G23KT 10SM BKN130 OVC200 19/10 A3025 RMK
     AO2 PK WND 10028/0722 SLP151 T01890100=
METAR KSHV 080756Z 11003KT 10SM SCT180 BKN280 25/24 A3000 RMK AO2
     SLP155 T02500239=
METAR KCHS 080756Z 29009KT 10SM CLR 25/19 A2996 RMK AO2 SLP144
     T02500194=
METAR KCAE 080756Z 26003KT 10SM CLR 24/19 A2998 RMK AO2 SLP149
     T02440189=
METAR KNFE 080756Z AUTO 00000KT 1/2SM HZ CLR 24/22 A2995 RMK AO2
     SLP144 T02440217 $=
METAR KBIH 080756Z AUTO 30006KT 10SM CLR 19/02 A2997 RMK AO2
     SLP092 T01890017 403610144 TSNO=
METAR KNBT 080756Z AUTO 04006KT 3SM BR CLR 29/ A2990 RMK AO2
     SLP130 T0289 TSNO $=
METAR KROC 080754Z 22004KT 7SM FEW140 BKN180 BKN250 23/21 A3005
     RMK AO2 SLP171 T02280206=
METAR KAQV 080756Z AUTO 00000KT 10SM CLR 24/23 A2999 RMK AO2
     SLP153 T02390228 $=
METAR KNGP 080756Z AUTO 09009KT 10SM SCT036 BKN046 29/26 A2981 RMK
     AO2 RAB18E32 SLP095 P0000 T02890261 $=
METAR K8D3 080756Z AUTO 27007KT 18/14 A3009 RMK AO2 SLP177
     T01780144 PWINO TSNO=
METAR KD07 080756Z AUTO 23004KT 14/08 A3020 RMK AO2 SLP217
     T01390083 PWINO TSNO=
METAR K2WX 080756Z AUTO 26006KT 12/08 A3016 RMK AO1 SLP202
     T01220083=
####018000698####
SASA KAWN 080800
METAR SBAR 080800Z 22005KT 9999 FEW015 22/22 Q1016=
METAR SBBR 080800Z 00000KT CAVOK 15/09 Q1022/5=
METAR SBBV 080800Z 32004KT 9999 SCT025 SCT100 25/23 Q1012=
METAR SBFN 080800Z 12004KT 9999 SCT017 25/22 Q1013=
METAR SBFZ 080800Z 17005KT 9999 SCT017 SCT100 24/22 Q1013=
METAR SBRB 080800Z 00000KT CAVOK 23/23 Q1011=
METAR SBSJ 080800Z 00000KT 5000 BR SCT010 12/11 Q1022=
METAR SGAS 080800Z 16006KT 9999 BKN010 OVC017 18/16 Q1015=
METAR SGES 080800Z 00000KT CAVOK 17/15 Q1015=
METAR SPIM 080800Z 00000KT 7000 OVC022 16/14 Q1013 NOSIG RMK PP000=
METAR SVBC 080800Z 00000KT CAVOK 25/23 Q1012=
METAR SVMI 080800Z 07001KT 9000 -TSDZ FEW013 BKN016 25/24 Q1013=
####018000181####
SAAK17 KAWN 080800 RRB
PALU SA 0755 AWOS CLR BLO 120 10 56/34/2123G26/ 009=
PASV SA 0755 AWOS 90 SCT 100 SCT 10 50/49/0000/997=
PATL SA 0755 AWOS 110 SCT 10 62/42/0405/000=
####018000088####
SAXX70 KAWN 080700 RRX
METAR KQFW 080740Z AUTO 25003KT 7SM CLR 28/18 A2987 RMK A02=
####018000788####
SAIY31 LIIB 080750
METAR LIEA 080750Z 35005KT 250V050 CAVOK 27/20 Q1019=
METAR LIEE 080745Z 26004KT CAVOK 25/19 Q1018 NOSIG=
METAR LIEO 080750Z VRB04KT 9999 FEW030 28/22 Q1019=
METAR LIMC 080750Z 12005KT 060V170 9999 FEW040 SCT060 25/14 Q1022
NOSIG=
METAR LIME 080750Z 14006KT 070V170 9999 BKN055 24/16 Q1023=
METAR LIMF 080750Z VRB02KT 9999 SCT030 SCT050 22/16 Q1022=
METAR LIMJ 080750Z 05008KT CAVOK 28/21 1020=
METAR LIML 080750Z 09007KT 9999 BKN070 25/16 Q1022 NOSIG=
METAR LIRA 080745Z 25004KT 260V320 9999 SCT018 FEW020TCU 27/21
     Q1019=
METAR LIRF 080750Z 19006KT 150V240 9999 SCT020 28/22 Q1019 NOSIG=
METAR LIRN 080750Z 02010KT CAVOK 26/12 Q1019=
METAR LIRP 080745Z 11012KT CAVOK 27/15 Q1019 NOSIG=
METAR LIRQ 080750Z VRB02KT CAVOK 28/15 Q1020=
####018000108####
SAUS45 KPSR 080757
MTRNYL
METAR KNYL 080755Z 00000KT 10SM CLR 29/02 A2971 RMK AO2 SLP056 
T02890022
####018001639####
SAEU KAWN 080800 RRF
METAR EGUN 080755Z AUTO 27008KT 9999 BKN005 BKN012 OVC024 17/17 A3007
      RMK AO2 RAB0711E0735 SLP172 P0001 T01700170=
METAR EGVA 080755Z AUTO 25005KT 9999 FEW080 SCT130 16/13 A3008 RMK
      AO2 SLP187 T01640132=
METAR ETAR 080755Z AUTO 00000KT 9999 CLR 23/14 A3015 RMK AO2 SLP203
      T02280135 $=
METAR ETOR 080755Z 14003KT 9999 FEW060 FEW200 28/09 A3014 RMK BLU=
METAR COR LIBD 080750Z 36012KT 9999 FEW030 24/11 Q1019=
METAR LIBR 080745Z /////KT 9999 FEW020 24/16 Q1017 NOSIG=
METAR LICC 080750Z VRB01KT CAVOK 28/21 Q1018=
METAR LICJ 080750Z 04014KT CAVOK 27/22 Q1018=
METAR LIEA 080750Z 35005KT 250V050 CAVOK 27/20 Q1019=
METAR LIEO 080750Z VRB04KT 9999 FEW030 28/22 Q1019=
METAR LIMC 080750Z 12005KT 060V170 9999 FEW040 SCT060 25/14 Q1022 NOSIG=
METAR LIME 080750Z 14006KT 070V170 9999 BKN055 24/16 Q1023=
METAR LIMF 080750Z VRB02KT 9999 SCT030 SCT050 22/16 Q1022=
METAR LIMJ 080750Z 05008KT CAVOK 28/21 1020=
METAR LIML 080750Z 09007KT 9999 BKN070 25/16 Q1022 NOSIG=
METAR LIPB 080750Z 15003KT 9999 SCT070 25/14 Q1022=
METAR LIPE 080750Z 11007KT CAVOK 26/17 Q1021=
METAR LIPH 080745Z 01002KT 9999 SCT040 BKN070 22/18 Q1023=
METAR LIPK 080750Z VRB03KT CAVOK 24/14 Q1021=
METAR LIPQ 080750Z VRB02KT 9999 FEW030 BKN050 23/15 Q1022=
METAR LIPR 080745Z 13006KT CAVOK 26/18 Q1021=
METAR LIPX 080745Z 09008KT 9999 SCT080 26/14 Q1021=
METAR LIPZ 080750Z 12007KT 9999 SCT045 SCT060 25/16 Q1022=
METAR LIRA 080745Z 25004KT 260V320 9999 SCT018 FEW020TCU 27/21 Q1019=
METAR LIRN 080750Z 02010KT CAVOK 26/12 Q1019=
METAR LIRQ 080750Z VRB02KT CAVOK 28/15 Q1020=
####018001714####
SAUK KAWN 080800 RRA
METAR COR EGCC 080750Z 19006KT 160V220 9999 FEW036 16/12 Q1017 NOSIG=
METAR EGDL 080750Z 25004KT 9999 FEW012 SCT100 BKN150 16/13 Q1019 BLU
      TEMPO SCT020 WHT=
METAR EGDM 080750Z 25002KT 9999 FEW007 SCT014 BKN022 16/14 Q1019 GRN
      BECMG FEW015 BKN022 WHT=
METAR EGDR 080750Z 22003KT 9999 FEW015 SCT220 16/13 Q1019 BLU NOSIG=
METAR EGGD 080750Z 19004KT 160V220 9999 FEW025 15/13 Q1019=
METAR EGHI 080750Z 24007KT 210V270 6000 -SHRA BR SCT005 BKN008 16/15
      Q1019=
METAR EGJB 080750Z 23005KT 200V270 9999 2800SE VCFG FEW001 BKN006 17/16
      Q1020=
METAR EGJJ 080750Z 31007KT 240V340 9999 FEW002 BKN010 19/17 Q1020 NOSIG=
METAR COR EGLL 080750Z 27008KT 9999 FEW009 BKN011 19/15 Q1019 BECMG
      SCT040=
METAR EGNS 080750Z 25010KT 9999 FEW020 16/11 Q1015 NOSIG=
METAR EGNT 080750Z 22008KT 190V260 9999 FEW040 15/10 Q1014=
METAR COR EGPB 080750Z 20015KT CAVOK 14/10 Q1005 NOSIG=
METAR EGQK 080750Z 22016G28KT 9999 FEW025 SCT045 16/07 Q1008 BLU NOSIG=
METAR EGQS 080750Z 23018KT 9999 FEW025 SCT050 17/07 Q1008 BLU NOSIG=
METAR EGTG 080750Z 26003KT 9999 -SHRA SCT018 16/12 Q1019=
METAR EGUL 080755Z AUTO 27008KT 4000 -DZ BR BKN005 OVC013 17/16 A3006
      RMK AO2 RAB0711E0731DZB0708E0711B0731E0734B0751 SLP182 P0000
      T01700162=
METAR EGUN 080755Z AUTO 27008KT 9999 BKN005 BKN012 OVC024 17/17 A3007
      RMK AO2 RAB0711E0735 SLP172 P0001 T01700170=
METAR EGUW 080750Z 22009KT 9999 FEW008 BKN012 BKN090 19/15 Q1018 GRN
      TEMPO 4000 -RADZ SCT005 YLO1=
METAR EGVA 080755Z AUTO 25005KT 9999 FEW080 SCT130 16/13 A3008 RMK
      AO2 SLP187 T01640132=
METAR EGXC 080750Z 24008KT 9999 FEW020 BKN120 17/10 Q1017 BLU NOSIG=
####018001442####
SAZZ40 KAWN 080800 RRG
METAR ETAR 080755Z AUTO 00000KT 9999 CLR 23/14 A3015 RMK AO2 SLP203
      T02280135 $=
METAR KADW 080755Z AUTO 08005KT 10SM CLR 26/23 A2998 RMK AO2 SLP152
      T02580230 $=
METAR KBKF 080755Z 20003KT 7SM FEW004 BKN010 BKN060 14/14 A3034 RMK
      SLP227=
METAR KCOF 080755Z AUTO 04004KT 10SM CLR 25/ A2997 RMK AO2 SLP151 T0252
      $=
METAR KDLF 080755Z AUTO 07005KT 10SM CLR 25/23 A2994 RMK AO2 SLP122
      T02470226 $=
METAR KGRK 080755Z 09005KT 7SM BKN012 BKN050 27/23 A2998 RMK SLP128=
METAR KLSV 080755Z AUTO 30004KT 10SM CLR 29/M04 A2981 RMK AO2 SLP069
      T02911039 403940214 PWINO=
METAR KLTS 080755Z 00000KT 10SM CLR 23/23 A3005 RMK AO2A DZB0657E0720
      SLP157 P0000 T02310228 $=
METAR KMIB 080755Z AUTO 27007KT 10SM CLR 12/11 A3008 RMK AO2 SLP185
      T01210115 $=
METAR KMXF 080755Z AUTO 22003KT 10SM CLR 26/25 A3001 RMK AO2 SLP161
      T02590246=
METAR KPAM 080755Z AUTO 35005KT 10SM CLR 24/24 A3000 RMK AO2 SLP161
      T02380237=
METAR KVPS 080755Z 33001KT 10SM SKC 24/24 A3002 RMK SLP166 T02430238=
METAR KWRB 080755Z 00000KT 10SM CLR 21/21 A3002 RMK AO2A SLP162 T02130212=
METAR KXMR 080755Z AUTO 00000KT 10SM CLR 20/19 A2997 RMK AO2 SLP150
      T01970186=
METAR MHSC 080755Z AUTO 12005KT 9999 SCT110 OVC140 23/19 A2994 RMK
      AO2 SLP093 T02250192 $=
METAR OAHR 080755Z 35011KT CAVOK 39/M02 Q1011 RMK SKC VIS MIN 9999
      BLU=
####018001549####
SAXN17 KAWN 080800 RRA
METAR MDSD 080800Z 00000KT 9999 FEW018 24/23 Q1014=
METAR MGGT 080800Z 20006KT 9999 FEW015 OVC100 17/13 Q1022 A3018 NOSIG=
PACZ SA 0755 AWOS MM 10 52/47/0910/007=
METAR PAED 080755Z AUTO 00000KT 10SM BKN090 13/10 A3001 RMK AO2 SLP163
      T01290096 $=
PAEH SA 0755 AWOS M9 BKN 20 OVC 10 49/-19/0000/001=
METAR PAEI 080755Z AUTO 00000KT 10SM CLR 15/08 A3004 RMK AO2 SLP173
      T01460083 $=
PAIM SA 0755 AWOS CLR BLO 120 10 58/46/3103/008=
PALU SA 0755 AWOS CLR BLO 120 10 56/34/2123G26/ 009=
PASV SA 0755 AWOS 90 SCT 100 SCT 10 50/49/0000/997=
PATL SA 0755 AWOS 110 SCT 10 62/42/0405/000=
METAR PGUA 080755Z AUTO 08012KT 10SM FEW016 28/ A2987 RMK AO2 SLP096
      T0275 VISNO RWY24L $=
METAR PHHI 080755Z AUTO 07004KT 10SM CLR 21/19 A3006 RMK AO2 RAB0716E0729DZB0729E0732
      SLP169 P0000 T02130185=
METAR PHJR 080753Z VRB04KT 10SM FEW050 24/18 A3005 RMK AO2 SLP180 T02390183=
METAR PTKK 080752Z 06008KT 15SM FEW012 BKN120 OVC280 25/23 A2981 RMK
      RAE40 SLP098 T02530232=
METAR PTRO 080752Z 00000KT 14SM SCT009 SCT016TCU BKN120 BKN300 29/24
      A2983 RMK TCU VC ALQDS=
METAR PWAK 080751Z 08013KT 7SM HZ CLR 28/24 A2997 RMK AO2A=
METAR RJTY 080755Z AUTO 18005KT 9999 CLR 29/23 A2984 RMK AO2 SLP097
      T02890225 $=
METAR RKSO 080755Z AUTO 00000KT 9999 CLR 27/22 A2975 RMK AO2 SLP076
      T02690218 $=
METAR RODN 080755Z AUTO 19012KT 9999 SCT021 30/26 A2981 RMK AO2 SLP093
      T02960260=
METAR SVMI 080800Z 07001KT 9000 -TSDZ FEW013 BKN016 25/24 Q1013=
####018000069####
SABZ18 SBKP 080800
METAR SBKP 080800Z 08005KT CAVOK 11/08 Q1020=
####018001827####
SAEU KAWN 080800 RRG
METAR EGDL 080750Z 25004KT 9999 FEW012 SCT100 BKN150 16/13 Q1019 BLU
      TEMPO SCT020 WHT=
METAR EGDM 080750Z 25002KT 9999 FEW007 SCT014 BKN022 16/14 Q1019 GRN
      BECMG FEW015 BKN022 WHT=
METAR EGDR 080750Z 22003KT 9999 FEW015 SCT220 16/13 Q1019 BLU NOSIG=
METAR EGOS 080750Z 19007KT 9999 FEW015 BKN100 15/10 Q1017 BLU NOSIG=
METAR EGQK 080750Z 22016G28KT 9999 FEW025 SCT045 16/07 Q1008 BLU NOSIG=
METAR EGQL 080750Z 25018KT 9999 FEW023 BKN050 15/09 Q1011 BLU NOSIG=
METAR EGQS 080750Z 23018KT 9999 FEW025 SCT050 17/07 Q1008 BLU NOSIG=
METAR EGUB 080750Z 27004KT 9999 FEW010 OVC026 17/13 Q1019 BLU NOSIG=
METAR EGUW 080750Z 22009KT 9999 FEW008 BKN012 BKN090 19/15 Q1018 GRN
      TEMPO 4000 -RADZ SCT005 YLO1=
METAR EGVP 080750Z 31006KT 5000 -DZ SCT011 OVC017 15/14 Q1019 GRN BECMG
      9999 NSW BKN018 WHT=
METAR EGWU 080750Z 28007KT 4500 RADZ FEW004 BKN007 OVC014 16/16 Q1019
      GRN BECMG 6000 -RADZ GRN=
METAR EGXC 080750Z 24008KT 9999 FEW020 BKN120 17/10 Q1017 BLU NOSIG=
METAR EGXD 080750Z 22007KT 9999 FEW020 BKN100 16/11 Q1016 BLU NOSIG=
METAR EGXE 080750Z 20006KT 9999 FEW020 BKN100 16/12 Q1016 BLU NOSIG=
METAR EGXU 080750Z 22007KT 9999 FEW020 SCT090 OVC120 16/10 Q1016 BLU
      NOSIG=
METAR EGYD 080750Z 24012KT CAVOK 16/10 Q1018 BLU NOSIG=
METAR EGYM 080750Z 26010KT 9999 FEW012 BKN028 OVC130 18/13 Q1018 BLU
      NOSIG=
METAR EHGR 080755Z AUTO 25005KT 9999NDV NCD 26/13 Q1018 BLU BLU=
METAR EHLW 080755Z AUTO 23009KT 9999NDV BKN110 21/16 Q1018 BLU BLU=
METAR EHVL 080755Z AUTO 23012KT 9999NDV BKN096 OVC100 19/15 Q1018 BLU=
METAR EHWO 080755Z AUTO 27004KT 9999NDV NCD 24/13 Q1019 BLU BLU=
METAR ETIK 080755Z AUTO 00000KT 9999 -DZ CLR 23/10 A3021 RMK AO2 RAE0659B0726E0735DZB0659E0705B0755
      SLP216 P0000 T02350097 $=
####018000160####
SAAK41 KNKA 080757
METAR PAWS 080756Z AUTO 21003KT 10SM SCT090 13/08 A3000 RMK AO1 PNO=
METAR PAZK 080756Z AUTO 04008KT 10SM CLR 09/03 A3010 RMK AO1 PNO=
####018000081####
SAZA42 FAJS 080800
METAR FAJS 080800Z 08012KT 9000 SCT006 10/09 Q1037 NOSIG=
####018002936####
SAAK41 KNKA 080757
METAR PAAK 080756Z AUTO 08019G24KT 10SM SCT015 BKN025 OVC120 07/04 
    A2964 RMK AO1 PNO=
METAR PABL 080756Z AUTO 31006KT 10SM CLR 12/07 A3016 RMK AO1 PNO=
METAR PABV 080756Z AUTO 22004KT 10SM FEW085 13/09 RMK AO1 PNO=
METAR PADK 080756Z 07011KT 10SM BKN016 OVC024 07/06 A2959 RMK AO1 
    PNO=
METAR PADL 080756Z 31006KT 10SM SCT120 11/08 A2998 RMK AO1 PNO TSNO=
METAR PAEM 080756Z AUTO 36007KT 10SM CLR 13/07 A3004 RMK AO1 PNO=
METAR PAFE 080756Z AUTO 07003KT 10SM CLR 12/10 A3018 RMK AO1 PNO=
METAR PAFM 080756Z AUTO 35003KT 10SM CLR 17/11 A3010 RMK AO1 PNO=
METAR PAGL 080756Z AUTO 10SM CLR RMK AO1 PNO=
METAR PAGS 080756Z AUTO 00000KT 10SM CLR 12/11 A3020 RMK AO1 PNO=
METAR PAHP 080756Z AUTO 02009KT 10SM BKN060 OVC080 12/09 A3007 RMK 
    AO1 PNO TSNO=
METAR PAHY 080756Z AUTO 33003KT 7SM CLR 17/10 A3011 RMK AO1 PNO=
METAR PAII 080756Z AUTO 02006KT 10SM OVC055 11/08 A2997 RMK AO1 PNO=
METAR PAIN 080756Z AUTO 25003KT 10SM CLR 12/07 A3008 RMK AO1 PNO=
METAR PAJC 080756Z AUTO 17006KT 10SM OVC017 09/05 A2995 RMK AO1 PNO=
METAR PAKK 080756Z AUTO 01009G14KT 10SM SCT070 OVC085 16/09 A3005 
    RMK AO1 PNO=
METAR PAKP 080756Z AUTO 36004KT 10SM OVC037 11/04 A3010 RMK AO1=
METAR PAMD 080756Z AUTO 10020G26KT 9SM BKN005 BKN014 OVC019 10/08 
    A3002 RMK AO1 PNO=
METAR PAMH 080756Z 00000KT 10SM CLR 16/06 A3000 RMK AO1 PNO=
METAR PAMM 080756Z AUTO 35007KT 10SM CLR 19/11 A3009 RMK AO1 PNO=
METAR PAMY 080756Z 28007KT 1/4SM OVC002 06/05 A3006 RMK AO1=
METAR PANI 080756Z AUTO 00000KT 10SM BKN060 BKN075 OVC110 14/09 
    A3001 RMK AO1 PNO=
METAR PANV 080756Z AUTO 24005KT 10SM BKN075 OVC100 16/07 A3000 RMK 
    AO1 PNO=
METAR PAOU 080756Z AUTO 04005KT 10SM FEW043 OVC055 08/07 A2998 RMK 
    AO2 PWINO TSNO T00770066 SLP154 $=
METAR PAPG 080756Z 02004KT 10SM CLR 13/10 A3014 RMK AO1 
      PNO=
METAR PAPH 080756Z AUTO 02005KT 10SM CLR 06/04 A2997 RMK AO1 PNO=
METAR PAPN 080756Z AUTO 35006KT 10SM FEW050 09/08 A2993 RMK AO2 
    PWINO TSNO T00880077 SLP137 $=
METAR PARC 080756Z AUTO 00000KT 10SM CLR 11/01 A3003 RMK AO1 PNO=
METAR PASA 080756Z AUTO 06004KT 10SM CLR 07/04 A3020 RMK AO1 PNO=
METAR PASD 080756Z AUTO 00000KT 10SM OVC048 09/06 A2996 RMK AO1 PNO=
METAR PASH 080756Z AUTO 00000KT 10SM CLR 07/05 A3019 RMK AO1 PNO=
METAR PASK 080756Z 28007KT 10SM CLR 14/08 A3011 RMK AO1 PNO=
METAR PASL 080756Z AUTO 24005KT 200V260 10SM OVC110 16/06 A3001 RMK 
    AO1 PNO=
METAR PASM 080756Z AUTO 32003KT 10SM FEW075 OVC100 11/08 A3006 RMK 
    AO1 PNO=
METAR PASX 080756Z 00000KT 10SM BKN060 BKN065 OVC075 13/09 A2998 RMK 
    AO1 PNO=
METAR PAUN 080756Z AUTO 02004KT 10SM CLR 16/08 A3002 RMK AO1 PNO=
METAR PAVD 080756Z 22003KT 10SM OVC090 11/08 A3010 RMK AO1 
      PNO=
METAR PAWG 080756Z AUTO 00000KT 10SM CLR 16/11 A3013 RMK AO1 PNO=
METAR PAWN 080756Z AUTO 33003KT 9SM CLR 14/04 A3014 RMK AO1 PNO=
####018000108####
SAUS42 KCAE 080757
MTRCAE
METAR KCAE 080756Z 26003KT 10SM CLR 24/19 A2998 RMK AO2 SLP149 
T02440189
####018000119####
SAUS41 KAKQ 080757
MTRNFE
METAR KNFE 080756Z AUTO 00000KT 1/2SM HZ CLR 24/22 A2995 RMK AO2 
SLP144 T02440217 $
####018000128####
SAUS46 KLOX 080757
MTRBIH
METAR KBIH 080756Z AUTO 30006KT 10SM CLR 19/02 A2997 RMK AO2 SLP092 
T01890017 403610144 TSNO
####018000076####
SAYE20 OYMB 080800
METAR OYMB 080800Z 06010KT 6000 FEW030 39/M03 Q1007=
####018000075####
SAYE20 OYAS 080800
METAR OYAS 080800Z 18004G16KT 7000 NSC 35/25 Q1007=
####018001581####
SANA35 KAWN 080800 RRB
METAR KACY 080754Z 00000KT 7SM FEW100 24/22 A3001 RMK AO2 SLP162 T02440222=
METAR KADW 080755Z AUTO 08005KT 10SM CLR 26/23 A2998 RMK AO2 SLP152
      T02580230 $=
METAR KBIX 080755Z AUTO 05004KT 10SM CLR 25/25 A3000 RMK AO2 SLP161
      T02540251=
METAR KBOS 080754Z 17009KT 6SM BR OVC011 24/21 A3006 RMK AO2 SLP178
      T02390211=
METAR KCOF 080755Z AUTO 04004KT 10SM CLR 25/ A2997 RMK AO2 SLP151 T0252
      $=
METAR KGSB 080755Z AUTO 00000KT 10SM CLR 26/19 A2991 RMK AO2 SLP127
      T02570186 $=
METAR KLFI 080755Z 09005KT 8SM R08/5500FT BKN008 BKN150 26/24 A2996
      RMK AO2A BKN008 V SCT SLP145 T02560235 $=
METAR KMCF 080755Z AUTO 07005KT 10SM CLR 25/23 A2999 RMK AO2 SLP157
      T02470230=
METAR KNIP 080753Z 25004KT 10SM CLR 23/21 A3001 RMK AO2 SLP158 T02330211=
METAR KNKT 080754Z AUTO 05006KT 8SM CLR 26/21 A2991 RMK AO2 SLP125
      T02610211 $=
METAR KNQX 080753Z AUTO 05003KT 10SM CLR 28/25 A2992 RMK AO2 SLP131
      T02830250 $=
METAR KNRB 080752Z AUTO 00000KT 10SM CLR 24/21 A3000 RMK AO2 SLP159
      T02390206=
METAR KPAM 080755Z AUTO 35005KT 10SM CLR 24/24 A3000 RMK AO2 SLP161
      T02380237=
METAR KPHL 080754Z 12003KT 8SM FEW150 26/22 A3001 RMK AO2 SLP162 T02560222
      $=
METAR KSAV 080753Z 26004KT 10SM FEW024 22/19 A2999 RMK AO2 SLP155 T02170194=
METAR KSYR 080754Z 00000KT 7SM CLR 23/21 A3004 RMK AO2 SLP167 T02330206=
METAR KVPS 080755Z 33001KT 10SM SKC 24/24 A3002 RMK SLP166 T02430238=
METAR MUGM 080756Z 35004KT 9999 FEW035 26/23 A2995 RMK SLP141 T02610228=
####018000115####
SAUS44 KMRX 080757
MTRNMM
METAR KNMM 080756Z AUTO 28003KT 10SM CLR 23/21 A3004 RMK AO2 SLP177 
T02280211 $
####018000115####
SAUS44 KBMX 080757
MTRPRN
METAR KPRN 080756Z AUTO 00000KT 10SM CLR 24/22 A3002 RMK AO2 SLP160 
T02440222 $
####018000116####
SAUS42 KMHX 080757
MTRNBT
METAR KNBT 080756Z AUTO 04006KT 3SM BR CLR 29/ A2990 RMK AO2 SLP130 
T0289 TSNO $
####018000117####
SAUS44 KFWD 080757
MTRNQI
METAR KNQI 080756Z AUTO 35004KT 9SM FEW021 27/25 A2983 RMK AO2 
SLP097 T02720250 $
####018000125####
SAUS45 KBOU 080757
MTRABH
METAR KABH 080756Z AUTO 13005KT 10SM SCT035 OVC065 13/12 A3039 RMK 
AO2 SLP230 T01330117 $
####018000116####
SAUS44 KMRX 080757 COR
MTRTRI
METAR KTRI 080753Z 00000KT 6SM HZ CLR 22/19 A3009 RMK AO2 SLP169 
T02170189 $
####018000124####
SAUS41 KBUF 080757
MTRROC
METAR KROC 080754Z 22004KT 7SM FEW140 BKN180 BKN250 23/21 A3005 RMK 
AO2 SLP171 T02280206
####018000115####
SAUS44 KSHV 080757
MTRAQV
METAR KAQV 080756Z AUTO 00000KT 10SM CLR 24/23 A2999 RMK AO2 SLP153 
T02390228 $
####018000115####
SAUS43 KUNR 080757
MTRD07
METAR KD07 080756Z AUTO 23004KT 14/08 A3020 RMK AO2 SLP217 T01390083 
PWINO TSNO
####018000108####
SAUS41 KLWX 080757
MTRNYG
METAR KNYG 080756Z AUTO 30004KT CLR 26/22 A2997 RMK AO2 SLP151 
T02610222
####018000140####
SAUS44 KCRP 080757
MTRNGP
METAR KNGP 080756Z AUTO 09009KT 10SM SCT036 BKN046 29/26 A2981 RMK 
AO2 RAB18E32 SLP095 P0000 T02890261 $
####018000111####
SAUS44 KMRX 080757 COR
MTRTYS
METAR KTYS 080753Z 03003KT 9SM CLR 24/19 A3005 RMK AO2 SLP162 
T02440189
####018000101####
SAUS43 KUNR 080757
MTR2WX
METAR K2WX 080756Z AUTO 26006KT 12/08 A3016 RMK AO1 SLP202 T01220083
####018000115####
SAUS43 KABR 080757
MTR8D3
METAR K8D3 080756Z AUTO 27007KT 18/14 A3009 RMK AO2 SLP177 T01780144 
PWINO TSNO
####018000112####
SAUS44 KFWD 080757
MTRHLR
METAR KHLR 080756Z AUTO 10005KT 10SM BKN017 26/ A2998 RMK AO2 SLP143 
T0256 $
####018000113####
SACN94 KWBC 080758
METAR CWND 080700Z AUTO 31019KT 04/02 RMK AO1 PK WND 33027/0621
SLP144 T00430023 53021=
####018000115####
SACN89 KWBC 080758
METAR CWCI 080700Z AUTO 02003KT 16/15 RMK AO1 2PAST HR 5010 SLP150
P0012 T01570153 50032=
####018003728####
SAUS99 KWBC 080758 RRB
METAR
KINW 080756Z AUTO 27006KT 10SM BKN120 24/00 A3008 RMK AO2 SLP095
     T02440000=
KIWA 080756Z AUTO 35004KT 10SM CLR 31/03 A2979 RMK AO2=
KJMS 080756Z AUTO 00000KT 10SM CLR 14/13 A3009 RMK AO2 SLP186
     T01440133=
KLCK 080755Z AUTO 00000KT 5SM BR CLR 23/21 A3007 RMK AO2
     T02290209=
KLNR 080756Z AUTO 28008KT 10SM CLR 21/19 A3001 RMK AO2 SLP153
     T02060189=
KM19 080756Z AUTO 18005KT 10SM CLR 25/23 A3005 RMK AO2 T02500233
     SLP174=
KMOB 080756Z 03003KT 10SM CLR 24/23 A3003 RMK AO2 SLP164
     T02390228=
KMQY 080756Z AUTO 00000KT 10SM CLR 25/22 A3007 RMK AO2 T02500216
     SLP173=
KMRH 080756Z AUTO 02006KT 9SM CLR 26/20 A2990 RMK AO2 SLP124
     T02610200 TSNO=
KMWO 080755Z AUTO 00000KT 3SM BR CLR 20/20 A3008 RMK AO2=
KOFK 080756Z AUTO 29003KT 10SM CLR 16/15 A3018 RMK AO2 SLP211
     T01610150=
KOZR 080755Z AUTO 00000KT 10SM CLR 22/22 A3002 RMK AO2 SLP162
     T02220222=
KPVB 080753Z AUTO 00000KT 10SM BKN120 20/19 A3002 RMK AO1
     T01980190=
KRDM 080756Z AUTO 28003KT 10SM CLR 14/03 A3005 RMK AO2 SLP150
     T01440033 403280050 $=
KSBP 080756Z AUTO 32005KT 10SM OVC011 13/11 A2992 RMK AO2 SLP130
     T01330111 402060100 $=
KSFO 080756Z 27012KT 10SM BKN008 13/11 A2994 RMK AO2 SLP137
     T01330106 402280133=
KSLE 080756Z AUTO 00000KT 10SM CLR 20/11 A2985 RMK AO2 SLP105
     T02000111 403670133=
KSME 080755Z AUTO 00000KT 5SM BR 21/20 A3008 RMK AO2=
KSRC 080756Z AUTO 00000KT 10SM CLR 23/22 A3006 RMK AO2 TSNO
     T02270222 SLP180=
KSSC 080755Z AUTO 28009KT 10SM CLR 26/19 A2996 RMK AO2 SLP144
     T02580189 $=
KTPH 080756Z AUTO 36005KT 10SM CLR 16/M12 A3009 RMK AO2 SLP108
     T01611117 403280139=
KTZR 080757Z AUTO 00000KT 7SM CLR 21/19 A3008 RMK AO2=
KVAD 080755Z AUTO 20003KT 10SM CLR 22/20 A3002 RMK AO2 SLP164
     T02180198 $=
PAAK 080756Z AUTO 08019G24KT 10SM SCT015 BKN025 OVC120 07/04 A2964
     RMK AO1 PNO=
PAHP 080756Z AUTO 02009KT 10SM BKN060 OVC080 12/09 A3007 RMK AO1
     PNO TSNO=
PAWS 080756Z AUTO 21003KT 10SM SCT090 13/08 A3000 RMK AO1 PNO=
PAZK 080756Z AUTO 04008KT 10SM CLR 09/03 A3010 RMK AO1 PNO=
PAAK 080756Z AUTO 08019G24KT 10SM SCT015 BKN025 OVC120 07/04 A2964
     RMK AO1 PNO=
PABL 080756Z AUTO 31006KT 10SM CLR 12/07 A3016 RMK AO1 PNO=
PABV 080756Z AUTO 22004KT 10SM FEW085 13/09 RMK AO1 PNO=
PADK 080756Z 07011KT 10SM BKN016 OVC024 07/06 A2959 RMK AO1
     PNO=
PADL 080756Z 31006KT 10SM SCT120 11/08 A2998 RMK AO1 PNO TSNO=
PAEM 080756Z AUTO 36007KT 10SM CLR 13/07 A3004 RMK AO1 PNO=
PAFE 080756Z AUTO 07003KT 10SM CLR 12/10 A3018 RMK AO1 PNO=
PAFM 080756Z AUTO 35003KT 10SM CLR 17/11 A3010 RMK AO1 PNO=
PAGL 080756Z AUTO 10SM CLR RMK AO1 PNO=
PAGS 080756Z AUTO 00000KT 10SM CLR 12/11 A3020 RMK AO1 PNO=
PAHP 080756Z AUTO 02009KT 10SM BKN060 OVC080 12/09 A3007 RMK AO1
     PNO TSNO=
PAHY 080756Z AUTO 33003KT 7SM CLR 17/10 A3011 RMK AO1 PNO=
PAII 080756Z AUTO 02006KT 10SM OVC055 11/08 A2997 RMK AO1 PNO=
PAIN 080756Z AUTO 25003KT 10SM CLR 12/07 A3008 RMK AO1 PNO=
PAJC 080756Z AUTO 17006KT 10SM OVC017 09/05 A2995 RMK AO1 PNO=
PAKK 080756Z AUTO 01009G14KT 10SM SCT070 OVC085 16/09 A3005 RMK
     AO1 PNO=
PAKP 080756Z AUTO 36004KT 10SM OVC037 11/04 A3010 RMK AO1=
PAMD 080756Z AUTO 10020G26KT 9SM BKN005 BKN014 OVC019 10/08 A3002
     RMK AO1 PNO=
PAMH 080756Z 00000KT 10SM CLR 16/06 A3000 RMK AO1 PNO=
PAMM 080756Z AUTO 35007KT 10SM CLR 19/11 A3009 RMK AO1 PNO=
PAMY 080756Z 28007KT 1/4SM OVC002 06/05 A3006 RMK AO1=
PANI 080756Z AUTO 00000KT 10SM BKN060 BKN075 OVC110 14/09 A3001
     RMK AO1 PNO=
PANV 080756Z AUTO 24005KT 10SM BKN075 OVC100 16/07 A3000 RMK AO1
     PNO=
####018003704####
SAUS99 KWBC 080758 RRA
METAR
KFFX 080754Z AUTO 00000KT 7SM BKN060 OVC075 22/22 A3002 RMK
     AO2=
KCNB 080757Z AUTO 24005KT 10SM CLR 16/13 A3013 RMK AO2
     T01600130=
KCKN 080755Z AUTO 25003KT 10SM CLR 15/12 A3004 RMK AO2=
KCFE 080754Z AUTO 00000KT 10SM CLR 18/16 A3009 RMK AO2
     T01800162=
KCQM 080757Z AUTO 00000KT 10SM CLR 14/14 A3004 RMK AO2=
KDTL 080755Z AUTO 26005KT 10SM CLR 18/12 A3009 RMK AO2=
KBDH 080755Z AUTO 00000KT 10SM CLR 16/14 A3012 RMK AO2=
KCBG 080755Z AUTO 00000KT 10SM CLR 16/14 A3007 RMK AO2=
KADC 080757Z AUTO 23004KT 10SM CLR 13/12 A3008 RMK AO2=
KHAF 080750Z AUTO 00000KT 8SM OVC008 12/10 A2995 RMK AO2=
KCKC 080755Z AUTO 29004KT 10SM CLR 16/13 A3003 RMK AO2=
KJYG 080754Z AUTO 00000KT 10SM CLR 17/17 A3012 RMK AO2=
KCOQ 080756Z AUTO 29004KT 10SM CLR 14/14 A3005 RMK AO2=
KACQ 080758Z AUTO 31004KT 10SM CLR 17/16 A3011 RMK AO2=
KRGK 080755Z AUTO 28004KT 10SM CLR 20/18 A3003 RMK AO2=
KFSE 080754Z AUTO 20003KT 10SM CLR 13/12 A3004 RMK AO2=
KY70 080754Z AUTO 00000KT 10SM SCT055 SCT065 BKN110 24/21 A3002
     RMK AO2 T02380210=
KUKT 080750Z AUTO 00000KT 5SM CLR 22/20 A3003 RMK AO1=
KPQN 080753Z AUTO 32003KT 10SM CLR 17/15 A3015 RMK AO2=
KFGN 080753Z AUTO 26009KT 1/2SM DZ VV005 18/13 A2996 RMK AO2=
KPNM 080753Z AUTO 00000KT 10SM CLR 15/14 A3008 RMK AO2=
KPWC 080753Z AUTO 00000KT 1/2SM FG BKN001 11/10 A3008 RMK AO2=
KFFM 080753Z AUTO 17003KT 10SM CLR 15/14 A3007 RMK AO2=
KGDB 080752Z AUTO 24005KT 10SM CLR 15/14 A3013 RMK AO2
     T01450142=
KAIT 080753Z AUTO 00000KT 3SM BR CLR 12/11 A3007 RMK AO2=
KGHW 080753Z AUTO 22004KT 10SM CLR 14/13 A3013 RMK AO2=
KMWM 080753Z AUTO 28005KT 10SM CLR 15/14 A3012 RMK AO2=
KULM 080754Z AUTO 27005KT 10SM CLR 14/13 A3011 RMK AO2=
KBBB 080753Z AUTO 00000KT 1/2SM FG VV005 14/14 A3011 RMK AO2=
KTWM 080753Z AUTO 00000KT 10SM BKN050 17/14 A3000 RMK AO2=
KMGG 080755Z AUTO 28003KT 10SM CLR 15/15 A3009 RMK AO2
     T01500145=
KMOX 080750Z AUTO 23005KT 10SM CLR 17/15 A3007 RMK AO2=
K1A6 080755Z AUTO 00000KT 4SM BR CLR 22/22 A3010 RMK AO2=
K1M4 080756Z AUTO 00000KT 10SM CLR 23/22 A3009 RMK AO2 T02330216
     SLP186=
K21D 080758Z AUTO 30005KT 10SM CLR 18/17 A3006 RMK AO2=
KAIG 080755Z AUTO 29007KT 1/4SM FG OVC001 19/19 A3000 RMK AO2=
KAND 080756Z AUTO 00000KT 10SM CLR 22/19 A3002 RMK AO2 SLP153
     T02170194=
KARV 080752Z AUTO 30003KT 10SM CLR 19/18 A3003 RMK AO2
     T01870177=
KATW 080755Z AUTO 22005KT 10SM SCT075 SCT085 21/20 A2997 RMK AO2
     P0001=
KBJI 080754Z AUTO 23005KT 10SM CLR 16/14 A3004 RMK AO2=
KBUU 080754Z AUTO 16003KT 7SM -DZ SCT055 BKN090 21/21 A3001 RMK
     AO2=
KBWP 080751Z AUTO 26003KT 10SM CLR 15/14 A3008 RMK AO1
     T01520136=
KCEC 080756Z AUTO 00000KT 1SM BR VV001 10/09 A2998 RMK AO2 SLP152
     T01000094 401330094=
KCLI 080755Z AUTO 25005KT 7SM BKN004 22/21 A2997 RMK AO2=
KCMY 080754Z AUTO 00000KT 10SM CLR 21/20 A3002 RMK AO2
     T02060195=
KDIK 080756Z AUTO 28004KT 10SM CLR 10/09 A3015 RMK AO2 SLP206
     T01000089=
KDUG 080756Z AUTO 09015G24KT 10SM CLR 27/11 A3000 RMK AO2 SLP068
     T02720111 $=
KDUJ 080756Z AUTO 08003KT 7SM CLR 21/17 A3011 RMK AO2 SLP180
     T02060172=
KDVK 080757Z AUTO 00000KT 5SM 21/19 A3008 RMK AO1=
KEAU 080756Z AUTO 21003KT 10SM CLR 19/19 A2999 RMK AO2 SLP152
     T01940189=
KEKO 080756Z AUTO 07009KT 10SM CLR 19/M06 A3010 RMK AO2 SLP131
     T01941056 403170072=
KFBG 080755Z AUTO 34003KT 10SM CLR 27/18 A2993 RMK AO2 SLP133
     T02690179 $=
KGRD 080756Z AUTO 29003KT 10SM CLR 23/19 A3002 RMK AO2 SLP156
     T02330194=
KHND 080756Z AUTO 19004KT 10SM CLR 27/M02 A2987 RMK AO2 T02661022
     SLP057=
####018003713####
SAUS99 KWBC 080758
METAR
KTEW 080752Z AUTO 00000KT 7SM CLR 21/20 A3004 RMK AO2=
KCVH 080750Z AUTO 00000KT 10SM BKN012 12/11 A2993 RMK AO1=
KDYT 080754Z AUTO 30007KT 10SM SCT060 21/16 A3003 RMK AO2=
KFSO 080758Z AUTO 00000KT 4SM BR CLR 23/22 A2999 RMK AO2=
KFBL 080754Z AUTO 30006KT 10SM CLR 18/16 A3008 RMK AO2=
KLYV 080758Z AUTO 00000KT 10SM CLR 15/13 A3016 RMK AO2=
KEFK 080756Z AUTO 20003KT 5SM BR CLR 20/19 A3005 RMK AO2=
KRRT 080754Z AUTO 24005KT 10SM CLR 16/13 A3000 RMK AO2=
KTOB 080755Z AUTO 00000KT 10SM CLR 19/17 A3008 RMK AO2=
KLXL 080754Z AUTO 00000KT 5SM BR CLR 12/12 A3008 RMK AO2=
KEVM 080752Z AUTO 27004KT 7SM CLR 13/12 A3002 RMK AO1=
KELO 080753Z AUTO 00000KT 7SM CLR 13/12 A3003 RMK AO2=
KANE 080755Z AUTO 28005KT 10SM 18/17 A3007 RMK AO2=
KROX 080755Z AUTO 26005KT 10SM CLR 17/14 A3000 RMK AO2=
KSYN 080810Z AUTO 00000KT 10SM CLR 19/17 A3005 RMK AO2
     T01860170=
KVVV 080756Z AUTO 00000KT 10SM CLR 17/14 A3011 RMK AO2=
KROS 080755Z AUTO 30003KT 10SM CLR 17/15 A3006 RMK AO2
     T01650151=
KHCD 080752Z AUTO 27003KT 10SM CLR 14/13 A3010 RMK AO2
     T01400129=
KSGS 080753Z AUTO 31004KT 10SM CLR 20/17 A3006 RMK AO2
     T02000167=
KMJQ 080752Z AUTO 30003KT 10SM CLR 15/14 A3013 RMK AO2=
KHCO 080754Z AUTO 00000KT 10SM CLR 13/13 A3004 RMK AO2=
KLVN 080749Z AUTO 30005KT 10SM CLR 18/17 A3007 RMK AO2=
KPEX 080753Z AUTO 25005KT 7SM CLR 13/13 A3011 RMK AO2
     T01290125=
KJMR 080758Z AUTO 31004KT 10SM CLR 15/13 A3007 RMK AO2=
KJKJ 080754Z AUTO 22005KT 10SM CLR 16/15 A3006 RMK AO2=
KMVE 080754Z AUTO 28004KT 10SM CLR 18/16 A3010 RMK AO2=
KTKC 080753Z AUTO 25005KT 10SM CLR 16/14 A3014 RMK AO2
     T01550139=
KGYL 080754Z AUTO 00000KT 10SM CLR 16/15 A3009 RMK AO2
     T01580148=
KDXX 080754Z AUTO 00000KT 10SM CLR 15/15 A3011 RMK AO2=
KHZX 080751Z AUTO 00000KT 4SM CLR 12/12 A3007 RMK AO2=
KSAZ 080754Z AUTO 00000KT 10SM CLR 15/15 A3008 RMK AO2=
KONA 080751Z AUTO 00000KT 7SM CLR 20/18 A3002 RMK AO2=
KOVL 080754Z AUTO 00000KT 7SM CLR 14/13 A3011 RMK AO2
     T01400125=
KLJF 080752Z AUTO 30003KT 10SM CLR 17/16 A3011 RMK AO2=
KAEL 080751Z AUTO 31004KT 10SM BKN029 18/17 A3008 RMK AO2=
K29G 080754Z AUTO 00000KT 7SM BKN060 20/18 A3009 RMK AO2 T02010182
     PWINO=
KMRT 080753Z AUTO 00000KT 5SM CLR 21/19 A3011 RMK AO2
     T02080190=
KIKW 080754Z AUTO 00000KT 7SM CLR 22/21 A3001 RMK AO2
     T02180207=
KMDS 080745Z AUTO 29005KT 10SM CLR 14/14 A3016 RMK AO2=
KFPK 080755Z AUTO 00000KT 4SM BR CLR 21/20 A3002 RMK AO2=
KMOP 080754Z AUTO 00000KT 7SM SCT060 BKN120 22/22 A3001 RMK
     AO2=
KCAD 080754Z AUTO 23005KT 10SM SCT090 22/21 A3003 RMK AO2=
KMGN 080754Z AUTO 00000KT 7SM SCT110 21/20 A2997 RMK AO2=
KHAI 080755Z AUTO 00000KT 5SM BR CLR 22/21 A3004 RMK AO2=
KLWA 080756Z AUTO 00000KT 10SM SCT055 OVC110 23/21 A3003 RMK
     AO2=
KDRM 080756Z AUTO 13004KT 7SM CLR 20/20 A2997 RMK AO2=
KVLL 080754Z AUTO 00000KT 10SM CLR 26/21 A3006 RMK AO2=
KCFS 080755Z AUTO 00000KT 3SM BR CLR 21/21 A3002 RMK AO2=
KOZW 080755Z AUTO 00000KT 7SM CLR 22/21 A3004 RMK AO2=
KRNP 080755Z AUTO 00000KT 10SM CLR 22/21 A3002 RMK AO2=
KDUH 080754Z AUTO 00000KT 7SM CLR 22/18 A3004 RMK AO2=
KJYM 080755Z AUTO 00000KT 7SM CLR 22/20 A3006 RMK AO2=
KBAX 080755Z AUTO 00000KT 4SM BR CLR 21/21 A3001 RMK AO2=
KIRS 080755Z AUTO 00000KT 10SM CLR 22/19 A3004 RMK AO2=
KACB 080755Z AUTO 00000KT 10SM SCT120 24/21 A2998 RMK AO2=
KRQB 080754Z AUTO 25008KT 10SM DZ BKN090 OVC110 23/21 A3004 RMK
     AO2=
KOEB 080755Z AUTO 00000KT 10SM CLR 23/20 A3005 RMK AO2=
K4I3 080755Z AUTO 00000KT 10SM CLR 21/19 A3010 RMK AO2=
KAUM 080755Z AUTO 32005KT 10SM CLR 19/17 A3006 RMK AO2=
####018001148####
SAUS99 KWBC 080758 RRC
METAR
PAOU 080756Z AUTO 04005KT 10SM FEW043 OVC055 08/07 A2998 RMK AO2
     PWINO TSNO T00770066 SLP154 $=
PAPG 080756Z 02004KT 10SM CLR 13/10 A3014 RMK AO1 PNO=
PAPH 080756Z AUTO 02005KT 10SM CLR 06/04 A2997 RMK AO1 PNO=
PAPN 080756Z AUTO 35006KT 10SM FEW050 09/08 A2993 RMK AO2 PWINO
     TSNO T00880077 SLP137 $=
PARC 080756Z AUTO 00000KT 10SM CLR 11/01 A3003 RMK AO1 PNO=
PASA 080756Z AUTO 06004KT 10SM CLR 07/04 A3020 RMK AO1 PNO=
PASD 080756Z AUTO 00000KT 10SM OVC048 09/06 A2996 RMK AO1 PNO=
PASH 080756Z AUTO 00000KT 10SM CLR 07/05 A3019 RMK AO1 PNO=
PASK 080756Z 28007KT 10SM CLR 14/08 A3011 RMK AO1 PNO=
PASL 080756Z AUTO 24005KT 200V260 10SM OVC110 16/06 A3001 RMK AO1
     PNO=
PASM 080756Z AUTO 32003KT 10SM FEW075 OVC100 11/08 A3006 RMK AO1
     PNO=
PASX 080756Z 00000KT 10SM BKN060 BKN065 OVC075 13/09 A2998 RMK AO1
     PNO=
PAUN 080756Z AUTO 02004KT 10SM CLR 16/08 A3002 RMK AO1 PNO=
PAVD 080756Z 22003KT 10SM OVC090 11/08 A3010 RMK AO1 PNO=
PAWG 080756Z AUTO 00000KT 10SM CLR 16/11 A3013 RMK AO1 PNO=
PAWN 080756Z AUTO 33003KT 9SM CLR 14/04 A3014 RMK AO1 PNO=
####018000201####
SAEO32 EGGY 080750
METAR EEKA 080750Z 32009KT CAVOK 21/14 Q1016=
METAR EEKE 080750Z NIL=
METAR EEPU 080750Z 30008KT CAVOK 21/18 Q1014=
METAR EETU 080750Z 29004KT 250V020 9999 BKN014 24/20 Q1013=
####018003694####
SAUS70 KWBC 080800
METAR
PHMK 080754Z AUTO 05010KT 10SM CLR 22/19 A3005 RMK AO2 SLP176
     T02220189 TSNO=
KGTU 080755Z 09003KT 10SM BKN010 OVC037 25/21 A3001 RMK AO1=
KGUC 080755Z AUTO 35008KT 10SM CLR 09/04 A3043 RMK AO1=
KGXY 080755Z AUTO 12005KT 10SM FEW008 OVC120 15/12 A3030 RMK
     AO1=
KHDN 080755Z 10011KT 10SM CLR 12/06 A3032 RMK AO1=
KHYI 080755Z AUTO 06005KT 10SM BKN018 OVC024 A2994 RMK AO1=
KILE 080755Z 11007KT 10SM BKN016 OVC021 25/22 A2997 RMK AO1=
KILN 080754Z AUTO 00000KT 5SM HZ CLR 22/19 A3008 RMK AO2 SLP172
     T02220194=
KIMT 080754Z AUTO 00000KT 10SM OVC003 20/19 A2998 RMK AO2 SLP146
     T02000194=
KIND 080754Z 00000KT 9SM SCT100 26/19 A3003 RMK AO2 SLP160
     T02560194=
KIPT 080754Z AUTO 00000KT 9SM CLR 21/17 A3005 RMK AO2 SLP170
     T02060167=
KISW 080754Z AUTO 28005KT 10SM BKN007 OVC015 21/20 A3001 RMK AO2
     SLP157 T02110200 TSNO=
KIZG 080754Z AUTO 00000KT 9SM SCT095 21/19 A3006 RMK AO2 SLP176
     T02110194=
KJAC 080755Z AUTO 02009KT 10SM CLR 11/M01 A3032 RMK AO1=
KJHW 080755Z AUTO 00000KT 8SM CLR 21/19 A3011 RMK AO1=
KJST 080754Z AUTO 24003KT 7SM CLR 22/16 A3014 RMK AO2 SLP187
     T02170156=
KLCI 080755Z AUTO 00000KT 10SM OVC085 23/19 A3004 RMK AO1=
KLEW 080755Z 15003KT 3SM OVC004 21/20 A3008 RMK AO1=
KLNK 080754Z AUTO 36007KT 10SM SCT026 19/18 A3013 RMK AO2 SLP194
     T01890178=
KLPC 080755Z AUTO 00000KT 10SM OVC012 14/11 A2992 RMK AO1 PNO=
KLWM 080754Z AUTO 00000KT 5SM BR SCT008 23/21 A3006 RMK AO2 SLP178
     T02330211=
KLWT 080754Z AUTO 15004KT 10SM FEW070 09/06 A3026 RMK AO2 SLP228
     T00940061=
KMFI 080754Z AUTO 31006KT 4SM BR BKN001 20/19 A3000 RMK AO2 SLP153
     T02000189=
KMGJ 080754Z AUTO 00000KT 5SM BR CLR 22/20 A3002 RMK AO2 SLP161
     T02170200=
KMIV 080754Z AUTO 00000KT 2 1/2SM BR OVC002 24/23 A2999 RMK AO2
     SLP152 T02440228=
KMJX 080755Z AUTO 31003KT 4SM OVC005 24/22 A3001 RMK AO1=
KMKT 080755Z 32006KT 10SM CLR 18/17 A3009 RMK AO1=
KMML 080755Z AUTO 25004KT 10SM CLR 16/13 A3013 RMK AO1=
KMOT 080754Z AUTO 24005KT 10SM CLR 15/12 A3008 RMK AO2 SLP182
     T01500117 TSNO=
KMSV 080755Z AUTO 02004KT 7SM CLR 21/18 A3009 RMK AO1=
KMVL 080754Z AUTO 00000KT 3SM BR SCT050 21/20 A3006 RMK AO2 SLP175
     T02060200=
KOCH 080755Z AUTO 11005KT 10SM CLR 24/19 A3000 RMK AO1=
KOKK 080755Z AUTO 00000KT 10SM CLR 23/17 A3005 RMK AO1=
KOTG 080755Z AUTO 26005KT 10SM CLR 14/13 A3015 RMK AO1=
KOXC 080755Z 00000KT 3SM BKN095 22/21 A3007 RMK AO1=
KPHL 080754Z 12003KT 8SM FEW150 26/22 A3001 RMK AO2 SLP162
     T02560222 $=
KABY 080753Z 00000KT 10SM CLR 22/20 A3004 RMK AO2 SLP169
     T02170200=
KAFJ 080755Z AUTO 00000KT 1/4SM BKN003 17/17 A3010 RMK AO1=
KAKR 080754Z AUTO 00000KT 6SM HZ CLR 22/18 A3009 RMK AO2 SLP177
     T02170183=
KAMG 080753Z AUTO 00000KT 10SM CLR 22/19 A3001 RMK AO2 SLP160
     T02170194=
KBFL 080754Z AUTO 34004KT 10SM CLR 24/10 A2982 RMK AO2 SLP091
     T02390100 403440200 $=
KBHB 080755Z AUTO 21003KT 10SM FEW003 BKN023 18/17 A3010 RMK
     AO1=
KBID 080755Z AUTO 13007KT 10SM SCT003 OVC030 22/22 A3005 RMK
     AO1=
KBKX 080755Z AUTO 00000KT 10SM CLR 14/12 A3016 RMK AO1=
KBLM 080755Z AUTO 32003KT 4SM SCT110 24/21 A3004 RMK AO1=
KBOS 080754Z 17009KT 6SM BR OVC011 24/21 A3006 RMK AO2 SLP178
     T02390211=
KBTP 080755Z AUTO 00000KT 2 1/2SM CLR 19/18 A3009 RMK AO1=
KBUY 080754Z AUTO 00000KT 8SM CLR 23/20 A2998 RMK AO2 SLP142
     T02330200 $=
KCEU 080754Z AUTO 00000KT 7SM CLR 24/22 A3004 RMK AO2 SLP157
     T02440222=
KCGZ 080755Z AUTO 00000KT 10SM CLR 30/01 A2978 RMK AO1=
KCOD 080755Z 10005KT 10SM CLR 10/00 A3033 RMK AO1=
####018003712####
SAXX60 KWBC 080800 RRA
METAR
KEND 080755Z AUTO 04008KT 10SM BKN032 BKN085 22/22 A3006 RMK AO2
     SLP167 T02230217 $=
KFBG 080755Z AUTO 34003KT 10SM CLR 27/18 A2993 RMK AO2 SLP133
     T02690179 $=
KFTK 080755Z AUTO 24003KT 10SM CLR 23/21 A3007 RMK AO2 SLP176
     T02250208=
KHIF 080755Z AUTO VRB05KT 10SM BKN130 19/06 A3011 RMK AO2 SLP090
     T01940063 $=
KHST 080755Z AUTO 02004KT 10SM CLR 27/25 A2992 RMK AO2
     DZB0656E0707 SLP135 P0000 T02670246 $=
KMUI 080755Z AUTO 00000KT 10SM CLR 23/19 A3002 RMK AO2 SLP162
     T02340193 $=
KMUO 080755Z AUTO 09004KT 10SM CLR 16/02 A3005 RMK AO2 SLP151
     T01650023=
KRND 080755Z AUTO 05005KT 10SM OVC012 25/23 A2994 RMK AO2 SLP128
     T02500233=
KSKF 080755Z 07009KT 10SM OVC018 26/ A2993 RMK AO2A CIG 014V023
     SLP123 T0260 $=
PABI 080753Z AUTO 00000KT 10SM CLR 16/08 A3008 RMK AO2 SLP185
     T01560078 TSNO=
PHHI 080755Z AUTO 07004KT 10SM CLR 21/19 A3006 RMK AO2
     RAB0716E0729DZB0729E0732 SLP169 P0000 T02130185=
KBAD 080755Z AUTO 00000KT 10SM FEW180 24/24 A3001 RMK AO2 SLP163
     T02430236 $=
KDOV 080755Z AUTO 08003KT 3SM BR SCT110 24/24 A2998 RMK AO2 VIS
     2V3 SLP155 T02400240=
KHST 080755Z AUTO 02004KT 10SM CLR 27/25 A2992 RMK AO2
     DZB0656E0707 SLP135 P0000 T02670246 $=
KNHK 080752Z AUTO 10006KT 5SM HZ FEW120 27/23 A2997 RMK AO2 SLP148
     T02720233=
KOFF 080755Z AUTO 34006KT 10SM CLR 21/20 A3010 RMK AO2 SLP180
     T02070200 $=
KPOB 080755Z AUTO 00000KT 10SM CLR 25/20 A2994 RMK AO2 SLP135
     T02470196 $=
KSSC 080755Z AUTO 28009KT 10SM CLR 26/19 A2996 RMK AO2 SLP144
     T02580189 $=
KVAD 080755Z AUTO 20003KT 10SM CLR 22/20 A3002 RMK AO2 SLP164
     T02180198 $=
KWRI 080755Z AUTO 16003KT 3SM R18/5500FT R24/2600V2800FT BR OVC003
     24/24 A2999 RMK AO2 CIG 001V003 SLP156 T02380238 $=
KAFF 080755Z AUTO 13003KT 10SM FEW011 BKN021 13/11 A3041 RMK AO2
     CIG 016V023 BKN V OVC SLP209 T01320108=
KCBM 080755Z AUTO 00000KT 10SM CLR 24/24 A3004 RMK AO2 SLP170
     T02450236 $=
KDOV 080755Z AUTO 08003KT 3SM BR SCT110 24/24 A2998 RMK AO2 VIS
     2V3 SLP155 T02400240=
KDYS 080755Z AUTO 13003KT 10SM FEW230 21/21 A3002 RMK AO2 SLP141
     T02100207 $=
KEND 080755Z AUTO 04008KT 10SM BKN032 BKN085 22/22 A3006 RMK AO2
     SLP167 T02230217 $=
KFBG 080755Z AUTO 34003KT 10SM CLR 27/18 A2993 RMK AO2 SLP133
     T02690179 $=
KFHU 080755Z VRB04KT 10SM SCT120 25/10 A3006 RMK SLP095=
KFTK 080755Z AUTO 24003KT 10SM CLR 23/21 A3007 RMK AO2 SLP176
     T02250208=
KGSB 080755Z AUTO 00000KT 10SM CLR 26/19 A2991 RMK AO2 SLP127
     T02570186 $=
KHIF 080755Z AUTO VRB05KT 10SM BKN130 19/06 A3011 RMK AO2 SLP090
     T01940063 $=
KHST 080755Z AUTO 02004KT 10SM CLR 27/25 A2992 RMK AO2
     DZB0656E0707 SLP135 P0000 T02670246 $=
KLHW 080755Z AUTO 23003KT 10SM CLR 22/20 A2999 RMK AO2 SLP156
     T02200202=
KLSF 080755Z AUTO 00000KT 10SM CLR 22/21 A3001 RMK AO2 SLP162
     T02170210 $=
KMUI 080755Z AUTO 00000KT 10SM CLR 23/19 A3002 RMK AO2 SLP162
     T02340193 $=
KMUO 080755Z AUTO 09004KT 10SM CLR 16/02 A3005 RMK AO2 SLP151
     T01650023=
KAFF 080755Z AUTO 13003KT 10SM FEW011 BKN021 13/11 A3041 RMK AO2
     CIG 016V023 BKN V OVC SLP209 T01320108=
KBAB 080755Z AUTO 15009KT 10SM FEW180 20/12 A2981 RMK AO2 SLP094
     T01960122 403470133 $=
KDOV 080755Z AUTO 08003KT 3SM BR SCT110 24/24 A2998 RMK AO2 VIS
     2V3 SLP155 T02400240=
KFHU 080755Z VRB04KT 10SM SCT120 25/10 A3006 RMK SLP095=
KGSB 080755Z AUTO 00000KT 10SM CLR 26/19 A2991 RMK AO2 SLP127
     T02570186 $=
KGTB 080755Z AUTO 21004KT 10SM R33/5500VP6000FT CLR 22/20 A3003
     RMK AO2 SLP168 T02230201=
####018003677####
SAUS80 KWBC 080800
METAR
KDMH 080754Z AUTO 28/23 A2999 RMK AO2 SLP154 T02830228 PWINO
     TSNO=
KCOU 080754Z AUTO 00000KT 6SM -RA BR SCT002 BKN019 OVC030 23/22
     A3005 RMK AO2 SLP167 P0002 T02280222 TSNO=
PHOG 080754Z 04010KT 10SM FEW030 SCT050 24/18 A3004 RMK AO2 SLP177
     T02440178=
KGPZ 080755Z AUTO 19004KT 10SM CLR 13/12 A3006 RMK AO1=
KLEX 080754Z 00000KT 6SM HZ CLR 22/18 A3008 RMK AO2 SLP176
     T02170183=
KORH 080754Z AUTO 21005KT 4SM BR BKN004 BKN047 22/21 A3008 RMK AO2
     SLP179 T02170211=
KBUF 080754Z 18005KT 9SM CLR 23/20 A3005 RMK AO2 SLP170
     T02280200=
KCOS 080754Z 18006KT 10SM SCT033 BKN050 OVC060 14/12 A3041 RMK AO2
     SLP227 T01390117=
KCRW 080754Z 00000KT 4SM BR CLR 22/20 A3008 RMK AO2 SLP173
     T02170200=
KDSM 080754Z 34007KT 10SM SCT250 22/20 A3006 RMK AO2 SLP171
     T02220200=
KDVL 080755Z AUTO 26006KT 10SM CLR 15/11 A3006 RMK AO1=
KROC 080754Z 22004KT 7SM FEW140 BKN180 BKN250 23/21 A3005 RMK AO2
     SLP171 T02280206=
KSYR 080754Z 00000KT 7SM CLR 23/21 A3004 RMK AO2 SLP167
     T02330206=
KCAR 080754Z AUTO 00000KT 9SM CLR 22/20 A2999 RMK AO2 SLP155
     T02170200=
KAVP 080754Z 11005KT 7SM CLR 21/18 A3005 RMK AO2 SLP163 T02110178
     $=
KLAX 080753Z 27005KT 10SM OVC014 17/13 A2991 RMK AO2 SLP128
     T01670128 401940156=
K4BM 080754Z AUTO 25003KT 10SM 05/03 A3064 RMK AO2=
KBTV 080754Z 00000KT 6SM BR SCT055 OVC070 24/22 A3001 RMK AO2
     SLP159 T02390217=
KCHA 080753Z 00000KT 10SM CLR 23/19 A3005 RMK AO2 SLP166
     T02280189=
KCNK 080755Z AUTO 34007KT 10SM BKN020 20/19 A3014 RMK AO2 SLP194
     T02000194=
KDLH 080755Z 32005KT 10SM FEW047 16/14 A3004 RMK AO2 SLP170
     T01610139=
KFWA 080754Z 23003KT 10SM CLR 24/21 A3006 RMK AO2 SLP172
     T02390206=
KGPI 080755Z AUTO 00000KT 10SM CLR 11/08 A3016 RMK AO2 SLP205
     T01060078=
KGSO 080754Z 00000KT 8SM SCT090 26/18 A3001 RMK AO2 SLP148
     T02560178=
KIRK 080755Z AUTO 00000KT 6SM BR CLR 19/19 A3006 RMK AO2 SLP173
     T01940194=
KLIC 080755Z AUTO 17003KT 8SM -RA OVC005 14/14 A3034 RMK AO2 RAB04
     CIG 003V007 SLP218 P0000 T01390139=
KLND 080753Z AUTO 00000KT 10SM CLR 11/03 A3031 RMK AO2 SLP217
     T01110033=
KLXV 080753Z AUTO 00000KT 10SM OVC033 07/06 A3053 RMK AO2 SLP180
     T00670056 TSNO=
KMKG 080755Z 21008KT 7SM FEW013 BKN050 OVC110 23/22 A3005 RMK AO2
     RAE14 SLP170 P0000 T02330217 $=
KMSN 080753Z 00000KT 7SM BKN110 22/21 A2999 RMK AO2 SLP150
     T02170206=
KMWT 080753Z AUTO 00000KT 10SM BKN012 OVC020 23/23 A3004 RMK AO2
     SLP160 T02330228 TSNO=
KRNO 080755Z 28005KT 10SM FEW080 BKN150 24/04 A3004 RMK AO2 SLP110
     T02390044 403330161=
KSAV 080753Z 26004KT 10SM FEW024 22/19 A2999 RMK AO2 SLP155
     T02170194=
KSBN 080754Z 00000KT 9SM BKN120 24/21 A3004 RMK AO2 SLP164
     T02440211=
KSCK 080755Z AUTO 35005KT 10SM CLR 16/11 A2984 RMK AO2 SLP103
     T01610111 403170122=
KSMS 080755Z AUTO 27004KT 10SM CLR 26/19 A2998 RMK AO2=
KTLH 080753Z 00000KT 10SM CLR 22/21 A3000 RMK AO2 SLP158
     T02220206=
KDRA 080755Z AUTO 08004KT 10SM CLR 23/M12 A2991 RMK AO2 SLP075
     T02331122 403780189 TSNO=
KRFD 080754Z 15004KT 9SM -RA BKN008 OVC013 22/21 A3003 RMK AO2 CIG
     004V011 SLP162 P0001 T02220211=
KCAO 080755Z AUTO 02010KT 10SM -RA BKN070 OVC100 16/14 A3027 RMK
     AO2 RAE21B40 SLP190 P0001 T01610139 TSNO=
KMBG 080755Z AUTO 34003KT 10SM CLR 12/09 A3013 RMK AO2 SLP197
     T01220094 TSNO=
KINL 080755Z AUTO 22003KT 10SM FEW090 13/12 A3000 RMK AO2 SLP160
     T01330122=
KHON 080755Z AUTO 21006KT 10SM CLR 17/14 A3014 RMK AO2 SLP203
     T01720139=
####018003700####
SAXX60 KWBC 080800
METAR
KRSP 080754Z AUTO 06004KT 8SM CLR 26/15 A3009 RMK AO2 SLP175
     T02610150 $=
KFZY 080754Z AUTO 00000KT 1 1/4SM BR FEW050 21/20 A3004 RMK AO2
     SLP167 T02060200=
KBAD 080755Z AUTO 00000KT 10SM FEW180 24/24 A3001 RMK AO2 SLP163
     T02430236 $=
KBLV 080755Z AUTO 00000KT 10SM FEW045 24/24 A3003 RMK AO2 SLP165
     T02410239=
KCEF 080755Z AUTO 16003KT 10SM BKN080 BKN100 24/22 A3003 RMK AO2
     SLP167 T02440218 PWINO $=
KDAA 080755Z AUTO 20003KT 10SM CLR 24/21 A2997 RMK AO2 SLP151
     T02420207=
KEDW 080755Z AUTO 17007KT 10SM CLR 20/05 A2987 RMK AO2 SLP063
     T02030054 403670158=
KGRF 080755Z AUTO 00000KT 10SM CLR 17/11 A2993 RMK AO2
     DZB0722E0731 SLP136 P0000 T01730110 403240096 $=
KGUS 080755Z AUTO 18003KT 10SM CLR 23/20 A3005 RMK AO2 SLP168
     T02270204=
KHMN 080755Z 35006KT 10SM SCT085 BKN130 OVC150 20/15 A3015 RMK
     AO2A SLP125 T02040148 $=
KIAB 080755Z AUTO 06007KT 10SM CLR 22/20 A3008 RMK AO2 SLP176
     T02210204=
KLRF 080755Z AUTO 00000KT 10SM SCT160 24/22 A3005 RMK AO2 SLP175
     T02350224=
KMGE 080755Z AUTO 00000KT 10SM CLR 23/19 A3005 RMK AO2 SLP163
     T02300190 $=
KMMT 080755Z AUTO 29003KT 10SM CLR 22/19 A2999 RMK AO2 SLP153
     T02230193=
KMTC 080755Z AUTO 00000KT 10SM CLR 23/22 A3002 RMK AO2 SLP169
     T02310223 $=
KNFW 080752Z AUTO 14010KT 10SM OVC024 27/22 A3003 RMK AO2 SLP151
     T02670222=
KBAD 080755Z AUTO 00000KT 10SM FEW180 24/24 A3001 RMK AO2 SLP163
     T02430236 $=
KDAA 080755Z AUTO 20003KT 10SM CLR 24/21 A2997 RMK AO2 SLP151
     T02420207=
KDYS 080755Z AUTO 13003KT 10SM FEW230 21/21 A3002 RMK AO2 SLP141
     T02100207 $=
KEDW 080755Z AUTO 17007KT 10SM CLR 20/05 A2987 RMK AO2 SLP063
     T02030054 403670158=
KIAB 080755Z AUTO 06007KT 10SM CLR 22/20 A3008 RMK AO2 SLP176
     T02210204=
KMMT 080755Z AUTO 29003KT 10SM CLR 22/19 A2999 RMK AO2 SLP153
     T02230193=
KMTC 080755Z AUTO 00000KT 10SM CLR 23/22 A3002 RMK AO2 SLP169
     T02310223 $=
KOFF 080755Z AUTO 34006KT 10SM CLR 21/20 A3010 RMK AO2 SLP180
     T02070200 $=
KRIV 080755Z AUTO 00000KT 10SM CLR 13/11 A2992 RMK AO2 SLP129
     T01290113 402700116=
KSUU 080755Z AUTO 24020G25KT 10SM CLR 13/10 A2982 RMK AO2 PK WND
     24032/0708 SLP101 T01310101 402720121 RVRNO $=
PAEI 080755Z AUTO 00000KT 10SM CLR 15/08 A3004 RMK AO2 SLP173
     T01460083 $=
KNHK 080752Z AUTO 10006KT 5SM HZ FEW120 27/23 A2997 RMK AO2 SLP148
     T02720233=
KNZY 080752Z 30007KT 10SM OVC015 18/13 A2990 RMK AO2 SLP125
     T01830128 402110167 $=
KOFF 080755Z AUTO 34006KT 10SM CLR 21/20 A3010 RMK AO2 SLP180
     T02070200 $=
KOZR 080755Z AUTO 00000KT 10SM CLR 22/22 A3002 RMK AO2 SLP162
     T02220222=
KPOB 080755Z AUTO 00000KT 10SM CLR 25/20 A2994 RMK AO2 SLP135
     T02470196 $=
KRDR 080755Z AUTO 24007KT 10SM CLR 13/12 A3004 RMK AO2 SLP181
     T01300122 $=
KRIV 080755Z AUTO 00000KT 10SM CLR 13/11 A2992 RMK AO2 SLP129
     T01290113 402700116=
KRND 080755Z AUTO 05005KT 10SM OVC012 25/23 A2994 RMK AO2 SLP128
     T02500233=
KSKF 080755Z 07009KT 10SM OVC018 26/ A2993 RMK AO2A CIG 014V023
     SLP123 T0260 $=
KSSC 080755Z AUTO 28009KT 10SM CLR 26/19 A2996 RMK AO2 SLP144
     T02580189 $=
KSUU 080755Z AUTO 24020G25KT 10SM CLR 13/10 A2982 RMK AO2 PK WND
     24032/0708 SLP101 T01310101 402720121 RVRNO $=
KVAD 080755Z AUTO 20003KT 10SM CLR 22/20 A3002 RMK AO2 SLP164
     T02180198 $=
KWRI 080755Z AUTO 16003KT 3SM R18/5500FT R24/2600V2800FT BR OVC003
     24/24 A2999 RMK AO2 CIG 001V003 SLP156 T02380238 $=
KCBM 080755Z AUTO 00000KT 10SM CLR 24/24 A3004 RMK AO2 SLP170
     T02450236 $=
####018003728####
SAUS70 KWBC 080800 RRA
METAR
KDDH 080754Z AUTO 00000KT 3SM BR CLR 19/19 A3004 RMK AO2 SLP167
     T01940189=
KDHN 080753Z AUTO 23003KT 10SM CLR 23/22 A3006 RMK AO2 SLP174
     T02330217=
KDSV 080754Z AUTO 15005KT 6SM BR CLR 22/19 A3009 RMK AO2 SLP190
     T02170194=
KDYL 080754Z AUTO 00000KT 8SM CLR 23/21 A3001 RMK AO2 SLP156
     T02280206 TSNO=
KEEN 080755Z AUTO 00000KT 5SM CLR 22/22 A3005 RMK AO1=
KEGE 080755Z 33003KT 10SM CLR 11/09 A3039 RMK AO1=
KENV 080755Z 02012KT 10SM CLR 23/M02 A3008 RMK AO1=
KEUL 080755Z AUTO 00000KT 10SM CLR 16/08 A3003 RMK AO1=
KEVV 080754Z AUTO 00000KT 10SM BKN075 OVC090 26/22 A3005 RMK AO2
     SLP171 T02560217=
KFIG 080754Z AUTO 00000KT 5SM BR CLR 19/17 A3011 RMK AO2 SLP184
     T01890172=
KFKL 080755Z 00000KT 3SM CLR 19/18 A3013 RMK AO1=
KFNL 080755Z AUTO 05005KT 5SM SCT005 BKN008 OVC031 14/14 A3030 RMK
     AO1=
KFRM 080755Z AUTO 10SM CLR 17/16 A3012 RMK AO1=
KGCN 080754Z AUTO 00000KT 10SM CLR 10/M03 A3022 RMK AO2 SLP137
     T01001033=
KGDV 080755Z AUTO 23006KT 10SM CLR 12/08 A3017 RMK AO1=
KGED 080754Z AUTO 00000KT 3SM BR SCT080 BKN100 24/23 A2999 RMK AO2
     SLP155 T02440233=
KPLN 080754Z AUTO 13004KT 10SM BKN110 21/21 A2998 RMK AO2 SLP147
     T02110206=
KPNE 080754Z 11003KT 7SM FEW100 24/22 A3002 RMK AO2 SLP165
     T02440222=
KPNS 080753Z AUTO 01003KT 10SM CLR 24/24 A3001 RMK AO2 SLP164
     T02440239=
KPQI 080755Z AUTO 15005KT 10SM CLR 22/19 A2997 RMK AO1=
KPRX 080755Z 13004KT 10SM BKN015 24/22 A3001 RMK AO1=
KPSF 080754Z AUTO 00000KT 3SM BR CLR 19/18 A3006 RMK AO2 SLP146
     T01940183=
KPTV 080755Z AUTO 17005KT 10SM CLR 22/13 A2984 RMK AO1=
KPTW 080754Z AUTO 00000KT 5SM HZ CLR 25/19 A3002 RMK AO2 SLP160
     T02500194 $=
KPVC 080755Z 18004KT 3/4SM OVC002 21/20 A3008 RMK AO1=
KPVU 080755Z 06005KT 10SM CLR 19/08 A3011 RMK AO1=
KPWG 080755Z AUTO 13004KT 10SM SCT013 BKN120 25/22 A2999 RMK AO1
     LTG DSNT SE=
KRDG 080754Z 00000KT 9SM CLR 24/21 A3000 RMK AO2 SLP160
     T02440206=
KRKD 080755Z AUTO 21003KT 1/2SM OVC002 18/17 A3009 RMK AO1=
KRKS 080754Z AUTO 09007KT 10SM CLR 10/05 A3033 RMK AO2 SLP210
     T01000050=
KRST 080754Z AUTO 31007KT 7SM CLR 19/18 A3007 RMK AO2 SLP176
     T01940183=
KRUT 080755Z AUTO 14006KT 5SM CLR 21/18 A3004 RMK AO1=
KSBY 080754Z AUTO 00000KT 3SM BR BKN003 OVC110 24/23 A2999 RMK AO2
     SLP156 T02440233=
KSDY 080755Z AUTO 20005KT 10SM FEW120 14/09 A3014 RMK AO1=
KSFM 080755Z 00000KT 1/2SM OVC002 21/19 A3006 RMK AO1=
KSFZ 080755Z AUTO 00000KT 10SM OVC010 22/21 A3005 RMK AO1=
KSGU 080755Z AUTO 00000KT 10SM CLR 28/02 A2993 RMK AO1=
KSJN 080754Z AUTO 14006KT 10SM BKN110 24/03 A3015 RMK AO2 SLP097
     T02390033=
KSMN 080755Z AUTO 00000KT 10SM CLR 10/02 A3021 RMK AO1=
KTAD 080754Z AUTO 00000KT 10SM SCT035 SCT075 14/13 A3035 RMK AO2
     SLP204 T01440128=
KTPL 080755Z 09004KT 10SM BKN016 OVC022 24/23 A2998 RMK AO1=
KTQE 080754Z AUTO 36005KT 10SM BKN027 20/18 A3012 RMK AO2 SLP190
     T02000183=
KTVF 080755Z AUTO 26007KT 10SM CLR 14/11 A3003 RMK AO1=
KVAY 080754Z AUTO 00000KT 1SM BR OVC003 23/23 A3001 RMK AO2 SLP162
     T02330228=
KVIS 080755Z AUTO 33007KT 10SM CLR 24/12 A2981 RMK AO1=
KVLD 080753Z AUTO 00000KT 9SM CLR 20/19 A3001 RMK AO2 SLP169
     T02000189=
KVSF 080754Z AUTO 00000KT 4SM BR CLR 21/20 A3005 RMK AO2 SLP173
     T02110200 $=
KVTA 080754Z AUTO 00000KT 2 1/2SM BR BKN065 19/18 A3008 RMK AO2
     SLP178 T01890178=
KWVL 080755Z AUTO 19004KT 6SM OVC004 21/19 A3003 RMK AO1=
KWWD 080755Z AUTO 10SM OVC120 24/24 A3001 RMK AO1=
KYKN 080755Z AUTO 28003KT 10SM CLR 17/14 A3016 RMK AO1=
KEFD 080750Z 11009KT 9SM FEW025 BKN130 28/24 A2993=
####018000264####
SAPQ50 KWBC 080800
METAR
PGSN 080754Z 08013KT 10SM FEW023 28/24 A2987 RMK AO2 SLP111
     T02780244=
PGRO 080755Z 08011G16KT 7SM FEW025 28/25 A2987=
PTKR 080755Z 36005KT 15SM FEW018CB BKN120 OVC300 29/24 A2980 RMK
     CB DSNT NW-N SLP090 T02930239=
####018003719####
SAUS70 KWBC 080800 RRC
METAR
KTTS 080755Z 33001KT 10SM FEW030 FEW290 21/20 A2998 RMK SLP152 1CU
     /0/ 1CI /0/=
KSDF 080756Z 00000KT 8SM CLR 27/21 A3005 RMK AO2 SLP170
     T02720206=
KHFF 080755Z AUTO 00000KT 10SM CLR 22/18 A2997 RMK AO2 SLP145
     T02210176 $=
K1A6 080755Z AUTO 00000KT 4SM BR CLR 22/22 A3010 RMK AO2=
K1M4 080756Z AUTO 00000KT 10SM CLR 23/22 A3009 RMK AO2 T02330216
     SLP186=
K21D 080758Z AUTO 30005KT 10SM CLR 18/17 A3006 RMK AO2=
KAIG 080755Z AUTO 29007KT 1/4SM FG OVC001 19/19 A3000 RMK AO2=
KAND 080756Z AUTO 00000KT 10SM CLR 22/19 A3002 RMK AO2 SLP153
     T02170194=
KARV 080752Z AUTO 30003KT 10SM CLR 19/18 A3003 RMK AO2
     T01870177=
KATW 080755Z AUTO 22005KT 10SM SCT075 SCT085 21/20 A2997 RMK AO2
     P0001=
KBJI 080754Z AUTO 23005KT 10SM CLR 16/14 A3004 RMK AO2=
KBUU 080754Z AUTO 16003KT 7SM -DZ SCT055 BKN090 21/21 A3001 RMK
     AO2=
KBWP 080751Z AUTO 26003KT 10SM CLR 15/14 A3008 RMK AO1
     T01520136=
KCEC 080756Z AUTO 00000KT 1SM BR VV001 10/09 A2998 RMK AO2 SLP152
     T01000094 401330094=
KCMY 080754Z AUTO 00000KT 10SM CLR 21/20 A3002 RMK AO2
     T02060195=
KDIK 080756Z AUTO 28004KT 10SM CLR 10/09 A3015 RMK AO2 SLP206
     T01000089=
KDUG 080756Z AUTO 09015G24KT 10SM CLR 27/11 A3000 RMK AO2 SLP068
     T02720111 $=
KDUJ 080756Z AUTO 08003KT 7SM CLR 21/17 A3011 RMK AO2 SLP180
     T02060172=
KEAU 080756Z AUTO 21003KT 10SM CLR 19/19 A2999 RMK AO2 SLP152
     T01940189=
KEKO 080756Z AUTO 07009KT 10SM CLR 19/M06 A3010 RMK AO2 SLP131
     T01941056 403170072=
KGRD 080756Z AUTO 29003KT 10SM CLR 23/19 A3002 RMK AO2 SLP156
     T02330194=
KHND 080756Z AUTO 19004KT 10SM CLR 27/M02 A2987 RMK AO2 T02661022
     SLP057=
KIWA 080756Z AUTO 35004KT 10SM CLR 31/03 A2979 RMK AO2=
KJMS 080756Z AUTO 00000KT 10SM CLR 14/13 A3009 RMK AO2 SLP186
     T01440133=
KLCK 080755Z AUTO 00000KT 5SM BR CLR 23/21 A3007 RMK AO2
     T02290209=
KLNR 080756Z AUTO 28008KT 10SM CLR 21/19 A3001 RMK AO2 SLP153
     T02060189=
KM19 080756Z AUTO 18005KT 10SM CLR 25/23 A3005 RMK AO2 T02500233
     SLP174=
KMQY 080756Z AUTO 00000KT 10SM CLR 25/22 A3007 RMK AO2 T02500216
     SLP173=
KMRH 080756Z AUTO 02006KT 9SM CLR 26/20 A2990 RMK AO2 SLP124
     T02610200 TSNO=
KMWO 080755Z AUTO 00000KT 3SM BR CLR 20/20 A3008 RMK AO2=
KPVB 080753Z AUTO 00000KT 10SM BKN120 20/19 A3002 RMK AO1
     T01980190=
KRDM 080756Z AUTO 28003KT 10SM CLR 14/03 A3005 RMK AO2 SLP150
     T01440033 403280050 $=
KSBP 080756Z AUTO 32005KT 10SM OVC011 13/11 A2992 RMK AO2 SLP130
     T01330111 402060100 $=
KSLE 080756Z AUTO 00000KT 10SM CLR 20/11 A2985 RMK AO2 SLP105
     T02000111 403670133=
KSME 080755Z AUTO 00000KT 5SM BR 21/20 A3008 RMK AO2=
KSRC 080756Z AUTO 00000KT 10SM CLR 23/22 A3006 RMK AO2 TSNO
     T02270222 SLP180=
KTPH 080756Z AUTO 36005KT 10SM CLR 16/M12 A3009 RMK AO2 SLP108
     T01611117 403280139=
KTZR 080757Z AUTO 00000KT 7SM CLR 21/19 A3008 RMK AO2=
PAAK 080756Z AUTO 08019G24KT 10SM SCT015 BKN025 OVC120 07/04 A2964
     RMK AO1 PNO=
PAHP 080756Z AUTO 02009KT 10SM BKN060 OVC080 12/09 A3007 RMK AO1
     PNO TSNO=
PAWS 080756Z AUTO 21003KT 10SM SCT090 13/08 A3000 RMK AO1 PNO=
PAZK 080756Z AUTO 04008KT 10SM CLR 09/03 A3010 RMK AO1 PNO=
PAAK 080756Z AUTO 08019G24KT 10SM SCT015 BKN025 OVC120 07/04 A2964
     RMK AO1 PNO=
PABL 080756Z AUTO 31006KT 10SM CLR 12/07 A3016 RMK AO1 PNO=
PABV 080756Z AUTO 22004KT 10SM FEW085 13/09 RMK AO1 PNO=
PADL 080756Z 31006KT 10SM SCT120 11/08 A2998 RMK AO1 PNO TSNO=
PAEM 080756Z AUTO 36007KT 10SM CLR 13/07 A3004 RMK AO1 PNO=
PAFE 080756Z AUTO 07003KT 10SM CLR 12/10 A3018 RMK AO1 PNO=
####018000190####
SAUS80 KWBC 080800 CCA
METAR
KTRI 080753Z 00000KT 6SM HZ CLR 22/19 A3009 RMK AO2 SLP169
     T02170189 $=
KTYS 080753Z 03003KT 9SM CLR 24/19 A3005 RMK AO2 SLP162
     T02440189=
####018003712####
SAUS70 KWBC 080800 RRB
METAR
KBUR 080753Z 15005KT 9SM OVC011 16/13 A2991 RMK AO2 SLP118
     T01560128 402330144=
KTOI 080753Z AUTO 00000KT 8SM CLR 22/22 A3003 RMK AO2 SLP163
     T02220217=
TIST 080753Z AUTO 08004KT 10SM CLR 28/24 A2997 RMK AO2 SLP150
     T02780244 TSNO=
TISX 080753Z 09007KT 10SM FEW022 27/24 A2997 RMK AO2 SLP148
     T02720239=
PASC 080753Z 20008KT 10SM FEW036 BKN060 10/07 A3000 RMK AO2 SLP161
     T01000072=
KBRO 080753Z 33003KT 10SM CLR 27/25 A2979 RMK AO2 SLP085
     T02670250=
KFLL 080753Z 06007KT 10SM SCT023 28/24 A2991 RMK AO2 SLP129
     T02780244=
KJFK 080751Z 12003KT 2SM BR SCT003 BKN010 BKN100 24/23 A3002 RMK
     AO2 SLP164 T02440228 $=
KMCO 080753Z 01003KT 10SM FEW120 22/20 A2999 RMK AO2 SLP153
     T02220200=
KPBI 080753Z 05006KT 10SM FEW022 SCT032 SCT250 27/23 A2992 RMK AO2
     SLP131 T02720233=
TIST 080753Z AUTO 08004KT 10SM CLR 28/24 A2997 RMK AO2 SLP150
     T02780244 TSNO=
TISX 080753Z 09007KT 10SM FEW022 27/24 A2997 RMK AO2 SLP148
     T02720239=
KMSY 080753Z 00000KT 10SM FEW025 SCT250 27/23 A2999 RMK AO2 SLP158
     T02670233=
PAHN 080754Z AUTO 00000KT 10SM CLR 11/10 A3021 RMK AO2 SLP231
     T01110100 TSNO=
PAKN 080754Z 35007KT 10SM OVC045 11/09 A2990 RMK AO2 RAE43 SLP126
     P0001 T01060094=
PAPO 080755Z 15007KT 10SM CLR 06/03 A3014 RMK AWOS VIA PHONE (OTZ
     FSS)=
K04W 080754Z AUTO 29003KT 10SM CLR 18/17 A3006 RMK AO2
     T01750166=
K0A9 080755Z AUTO 00000KT 7SM SCT080 20/18 A3011 RMK=
K20V 080756Z AUTO 08005KT 10SM CLR 08/05 A3042 RMK AO2=
K5SM 080753Z AUTO 20003KT 10SM TS OVC065 08/05 A3059 RMK AO2=
K7BM 080756Z AUTO 00000KT 10SM OVC026 10/06 A3055 RMK AO2 LTG DSNT
     W=
KBBG 080755Z AUTO 00000KT 5SM BR CLR 23/22 A3007 RMK AO2=
KBBP 080755Z AUTO 00000KT 10SM SCT100 25/20 A2995 RMK AO2=
KBDU 080757Z AUTO 21006KT 10SM CLR 16/12 A3030 RMK AO2=
KBJC 080757Z AUTO 18003KT 5SM BR SCT090 13/12 A3032 RMK AO2=
KBKN 080755Z AUTO 36006KT 10SM BKN045 OVC060 22/22 A3004 RMK
     AO2=
KBMI 080756Z AUTO 00000KT 9SM SCT070 23/22 A3005 RMK AO2 PWINO
     T02270216 SLP160 $=
KBOK 080756Z AUTO 14003KT 1/2SM FG OVC002 09/09 A2997 RMK AO2
     T00940094 SLP150 $=
KC29 080755Z AUTO 32003KT 7SM SCT120 21/20 A3000 RMK AO2
     T02120197=
KCCU 080756Z AUTO 17017KT 10SM CLR 06/03 A3063 RMK AO2 LTG DSNT
     SW=
KCIC 080755Z AUTO 00000KT 10SM CLR 25/16 A2980 RMK AO1=
KCMR 080755Z AUTO 17006KT 10SM FEW100 18/01 A3024 RMK AO1=
KD39 080754Z AUTO 00000KT 10SM CLR 16/15 A3010 RMK AO2
     T01600153=
KDLL 080754Z AUTO 25003KT 10SM OVC004 21/19 A2999 RMK AO2=
KEAT 080755Z AUTO 30004KT 10SM CLR 21/04 A3001 RMK AO2 SLP153
     T02110044 403280139=
KEFD 080750Z 11009KT 9SM FEW025 BKN130 28/24 A2993=
KGGE 080755Z AUTO 27006KT 10SM CLR 24/22 A2994 RMK AO2=
KHVS 080755Z AUTO 28003KT 10SM CLR 25/19 A2997 RMK AO2=
KLLJ 080755Z AUTO 00000KT 10SM FEW090 10/01 A3022 RMK AO2 SLP185
     T01000006=
KMAO 080755Z AUTO 00000KT 10SM BKN095 BKN120 26/19 A2994 RMK
     AO2=
KNQA 080755Z AUTO 00000KT 10SM CLR 24/23 A3006 RMK=
KOWB 080756Z AUTO 00000KT 10SM CLR 26/23 A3005 RMK AO2 T02550227
     SLP171=
KRCE 080755Z AUTO 01004KT 10SM CLR 22/22 A3006 RMK AO2=
KSGR 080753Z AUTO 09004KT 8SM CLR 26/24 A2991 RMK AO2 SLP135
     T02610239 TSNO=
KSRR 080755Z AUTO 20005KT 10SM BKN060 BKN080 OVC095 13/12 A3036
     RMK AO2=
KUCP 080756Z AUTO 00000KT 1SM BR CLR 19/18 A3009 RMK AO2 T01880183
     SLP195 $=
KVQQ 080755Z AUTO 00000KT 10SM CLR 18/18 A3001 RMK AO2=
KWYS 080750Z AUTO 00000KT 10SM CLR 03/00 A3035 RMK AO2=
KY51 080755Z AUTO 28004KT 10SM SCT007 BKN012 21/21 A3002 RMK AO1
     T02120205=
####018003721####
SAXX60 KWBC 080800 RRB
METAR
KLHW 080755Z AUTO 23003KT 10SM CLR 22/20 A2999 RMK AO2 SLP156
     T02200202=
KLSF 080755Z AUTO 00000KT 10SM CLR 22/21 A3001 RMK AO2 SLP162
     T02170210 $=
KLUF 080755Z 10005KT 10SM CLR 29/07 A2975 RMK AO2A SLP042
     T02940065 $=
KSSC 080755Z AUTO 28009KT 10SM CLR 26/19 A2996 RMK AO2 SLP144
     T02580189 $=
KTBN 080755Z AUTO 00000KT 10SM BKN200 23/ A3005 RMK AO2 SLP156
     T0226 $=
KVAD 080755Z AUTO 20003KT 10SM CLR 22/20 A3002 RMK AO2 SLP164
     T02180198 $=
KVOK 080755Z 00000KT 9SM R27/5000VP6000FT BKN012 BKN019 21/21
     A3000 RMK AO2A CIG 010V016 SLP154 T02140214=
KWRI 080755Z AUTO 16003KT 3SM R18/5500FT R24/2600V2800FT BR OVC003
     24/24 A2999 RMK AO2 CIG 001V003 SLP156 T02380238 $=
KCEF 080755Z AUTO 16003KT 10SM BKN080 BKN100 24/22 A3003 RMK AO2
     SLP167 T02440218 PWINO $=
KGUS 080755Z AUTO 18003KT 10SM CLR 23/20 A3005 RMK AO2 SLP168
     T02270204=
KLRF 080755Z AUTO 00000KT 10SM SCT160 24/22 A3005 RMK AO2 SLP175
     T02350224=
KMMT 080755Z AUTO 29003KT 10SM CLR 22/19 A2999 RMK AO2 SLP153
     T02230193=
KNBG 080755Z AUTO 00000KT 7SM CLR 24/23 A3000 RMK AO2 SLP158
     T02440233 PWINO $=
KPOE 080755Z AUTO 12005KT 10SM CLR 24/23 A3000 RMK AO2 SLP158
     T02440228=
KBIX 080755Z AUTO 05004KT 10SM CLR 25/25 A3000 RMK AO2 SLP161
     T02540251=
KFSI 080755Z AUTO 02005KT 10SM CLR 23/22 A3003 RMK AO2 SLP150
     T02290218=
KLFI 080755Z 09005KT 8SM R08/5500FT BKN008 BKN150 26/24 A2996 RMK
     AO2A BKN008 V SCT SLP145 T02560235 $=
KMCF 080755Z AUTO 07005KT 10SM CLR 25/23 A2999 RMK AO2 SLP157
     T02470230=
KNIP 080753Z 25004KT 10SM CLR 23/21 A3001 RMK AO2 SLP158
     T02330211=
KNKT 080754Z AUTO 05006KT 8SM CLR 26/21 A2991 RMK AO2 SLP125
     T02610211 $=
KNQX 080753Z AUTO 05003KT 10SM CLR 28/25 A2992 RMK AO2 SLP131
     T02830250 $=
KNRB 080752Z AUTO 00000KT 10SM CLR 24/21 A3000 RMK AO2 SLP159
     T02390206=
KSKA 080755Z AUTO 05007KT 10SM CLR 18/08 A3006 RMK AO2 SLP167
     T01830077 402740113=
KSLI 080755Z AUTO 00000KT 10SM OVC017 16/14 A2991 RMK AO2 SLP131
     T01620136 402180147=
KTCM 080755Z AUTO 00000KT 10SM CLR 16/13 A2994 RMK AO2 SLP139
     T01590126 403140090=
KTIK 080755Z AUTO 02005KT 10SM BKN019 OVC024 24/23 A3004 RMK AO2
     CIG 019V023 BKN V OVC SLP159 T02370226 $=
PAED 080755Z AUTO 00000KT 10SM BKN090 13/10 A3001 RMK AO2 SLP163
     T01290096 $=
PGUA 080755Z AUTO 08012KT 10SM FEW016 28/ A2987 RMK AO2 SLP096
     T0275 VISNO RWY24L $=
KVBG 080755Z AUTO 00000KT 10SM CLR 13/11 A2993 RMK AO2 CIG 008
     RWY12 SLP126 T01280111 TSNO $=
KNKX 080755Z 33004KT 10SM OVC014 16/14 A2991 RMK AO2 SLP123
     T01610139 401890150=
KNJK 080756Z AUTO 34003KT 10SM CLR 27/09 A2967 RMK AO2 SLP063
     T02670094 404110206 TSNO=
KBAB 080755Z AUTO 15009KT 10SM FEW180 20/12 A2981 RMK AO2 SLP094
     T01960122 403470133 $=
KBIX 080755Z AUTO 05004KT 10SM CLR 25/25 A3000 RMK AO2 SLP161
     T02540251=
KBKF 080755Z 20003KT 7SM FEW004 BKN010 BKN060 14/14 A3034 RMK
     SLP227=
KCOF 080755Z AUTO 04004KT 10SM CLR 25/ A2997 RMK AO2 SLP151 T0252
     $=
KDLF 080755Z AUTO 07005KT 10SM CLR 25/23 A2994 RMK AO2 SLP122
     T02470226 $=
KFSI 080755Z AUTO 02005KT 10SM CLR 23/22 A3003 RMK AO2 SLP150
     T02290218=
KGRK 080755Z 09005KT 7SM BKN012 BKN050 27/23 A2998 RMK SLP128=
KLFI 080755Z 09005KT 8SM R08/5500FT BKN008 BKN150 26/24 A2996 RMK
     AO2A BKN008 V SCT SLP145 T02560235 $=
KLSV 080755Z AUTO 30004KT 10SM CLR 29/M04 A2981 RMK AO2 SLP069
     T02911039 403940214 PWINO=
KLTS 080755Z 00000KT 10SM CLR 23/23 A3005 RMK AO2A DZB0657E0720
     SLP157 P0000 T02310228 $=
####018002376####
SAUS70 KWBC 080800 RRD
METAR
PAFM 080756Z AUTO 35003KT 10SM CLR 17/11 A3010 RMK AO1 PNO=
PAGL 080756Z AUTO 10SM CLR RMK AO1 PNO=
PAGS 080756Z AUTO 00000KT 10SM CLR 12/11 A3020 RMK AO1 PNO=
PAHP 080756Z AUTO 02009KT 10SM BKN060 OVC080 12/09 A3007 RMK AO1
     PNO TSNO=
PAHY 080756Z AUTO 33003KT 7SM CLR 17/10 A3011 RMK AO1 PNO=
PAII 080756Z AUTO 02006KT 10SM OVC055 11/08 A2997 RMK AO1 PNO=
PAIN 080756Z AUTO 25003KT 10SM CLR 12/07 A3008 RMK AO1 PNO=
PAJC 080756Z AUTO 17006KT 10SM OVC017 09/05 A2995 RMK AO1 PNO=
PAKK 080756Z AUTO 01009G14KT 10SM SCT070 OVC085 16/09 A3005 RMK
     AO1 PNO=
PAKP 080756Z AUTO 36004KT 10SM OVC037 11/04 A3010 RMK AO1=
PAMD 080756Z AUTO 10020G26KT 9SM BKN005 BKN014 OVC019 10/08 A3002
     RMK AO1 PNO=
PAMH 080756Z 00000KT 10SM CLR 16/06 A3000 RMK AO1 PNO=
PAMM 080756Z AUTO 35007KT 10SM CLR 19/11 A3009 RMK AO1 PNO=
PAMY 080756Z 28007KT 1/4SM OVC002 06/05 A3006 RMK AO1=
PANI 080756Z AUTO 00000KT 10SM BKN060 BKN075 OVC110 14/09 A3001
     RMK AO1 PNO=
PANV 080756Z AUTO 24005KT 10SM BKN075 OVC100 16/07 A3000 RMK AO1
     PNO=
PAOU 080756Z AUTO 04005KT 10SM FEW043 OVC055 08/07 A2998 RMK AO2
     PWINO TSNO T00770066 SLP154 $=
PAPG 080756Z 02004KT 10SM CLR 13/10 A3014 RMK AO1 PNO=
PAPH 080756Z AUTO 02005KT 10SM CLR 06/04 A2997 RMK AO1 PNO=
PARC 080756Z AUTO 00000KT 10SM CLR 11/01 A3003 RMK AO1 PNO=
PASA 080756Z AUTO 06004KT 10SM CLR 07/04 A3020 RMK AO1 PNO=
PASD 080756Z AUTO 00000KT 10SM OVC048 09/06 A2996 RMK AO1 PNO=
PASH 080756Z AUTO 00000KT 10SM CLR 07/05 A3019 RMK AO1 PNO=
PASK 080756Z 28007KT 10SM CLR 14/08 A3011 RMK AO1 PNO=
PASL 080756Z AUTO 24005KT 200V260 10SM OVC110 16/06 A3001 RMK AO1
     PNO=
PASM 080756Z AUTO 32003KT 10SM FEW075 OVC100 11/08 A3006 RMK AO1
     PNO=
PASX 080756Z 00000KT 10SM BKN060 BKN065 OVC075 13/09 A2998 RMK AO1
     PNO=
PAUN 080756Z AUTO 02004KT 10SM CLR 16/08 A3002 RMK AO1 PNO=
PAVD 080756Z 22003KT 10SM OVC090 11/08 A3010 RMK AO1 PNO=
PAWG 080756Z AUTO 00000KT 10SM CLR 16/11 A3013 RMK AO1 PNO=
PAWN 080756Z AUTO 33003KT 9SM CLR 14/04 A3014 RMK AO1 PNO=
KNFE 080756Z AUTO 00000KT 1/2SM HZ CLR 24/22 A2995 RMK AO2 SLP144
     T02440217 $=
KBOS 080754Z 17009KT 6SM BR OVC011 24/21 A3006 RMK AO2 SLP178
     T02390211=
KPHL 080754Z 12003KT 8SM FEW150 26/22 A3001 RMK AO2 SLP162
     T02560222 $=
####018003709####
SAXX60 KWBC 080800 RRC
METAR
KLUF 080755Z 10005KT 10SM CLR 29/07 A2975 RMK AO2A SLP042
     T02940065 $=
KMCF 080755Z AUTO 07005KT 10SM CLR 25/23 A2999 RMK AO2 SLP157
     T02470230=
KMIB 080755Z AUTO 27007KT 10SM CLR 12/11 A3008 RMK AO2 SLP185
     T01210115 $=
KMXF 080755Z AUTO 22003KT 10SM CLR 26/25 A3001 RMK AO2 SLP161
     T02590246=
KFBG 080755Z AUTO 34003KT 10SM CLR 27/18 A2993 RMK AO2 SLP133
     T02690179 $=
KOZR 080755Z AUTO 00000KT 10SM CLR 22/22 A3002 RMK AO2 SLP162
     T02220222=
KSSC 080755Z AUTO 28009KT 10SM CLR 26/19 A2996 RMK AO2 SLP144
     T02580189 $=
KVAD 080755Z AUTO 20003KT 10SM CLR 22/20 A3002 RMK AO2 SLP164
     T02180198 $=
KNYL 080755Z 00000KT 10SM CLR 29/02 A2971 RMK AO2 SLP056
     T02890022=
KADW 080755Z AUTO 08005KT 10SM CLR 26/23 A2998 RMK AO2 SLP152
     T02580230 $=
KBKF 080755Z 20003KT 7SM FEW004 BKN010 BKN060 14/14 A3034 RMK
     SLP227=
KCOF 080755Z AUTO 04004KT 10SM CLR 25/ A2997 RMK AO2 SLP151 T0252
     $=
KDLF 080755Z AUTO 07005KT 10SM CLR 25/23 A2994 RMK AO2 SLP122
     T02470226 $=
KGRK 080755Z 09005KT 7SM BKN012 BKN050 27/23 A2998 RMK SLP128=
KLSV 080755Z AUTO 30004KT 10SM CLR 29/M04 A2981 RMK AO2 SLP069
     T02911039 403940214 PWINO=
KLTS 080755Z 00000KT 10SM CLR 23/23 A3005 RMK AO2A DZB0657E0720
     SLP157 P0000 T02310228 $=
KMIB 080755Z AUTO 27007KT 10SM CLR 12/11 A3008 RMK AO2 SLP185
     T01210115 $=
KMXF 080755Z AUTO 22003KT 10SM CLR 26/25 A3001 RMK AO2 SLP161
     T02590246=
KPAM 080755Z AUTO 35005KT 10SM CLR 24/24 A3000 RMK AO2 SLP161
     T02380237=
KVPS 080755Z 33001KT 10SM SKC 24/24 A3002 RMK SLP166 T02430238=
KWRB 080755Z 00000KT 10SM CLR 21/21 A3002 RMK AO2A SLP162
     T02130212=
KXMR 080755Z AUTO 00000KT 10SM CLR 20/19 A2997 RMK AO2 SLP150
     T01970186=
MHSC 080755Z AUTO 12005KT 9999 SCT110 OVC140 23/19 A2994 RMK AO2
     SLP093 T02250192 $=
KADW 080755Z AUTO 08005KT 10SM CLR 26/23 A2998 RMK AO2 SLP152
     T02580230 $=
KBIX 080755Z AUTO 05004KT 10SM CLR 25/25 A3000 RMK AO2 SLP161
     T02540251=
KCOF 080755Z AUTO 04004KT 10SM CLR 25/ A2997 RMK AO2 SLP151 T0252
     $=
KGSB 080755Z AUTO 00000KT 10SM CLR 26/19 A2991 RMK AO2 SLP127
     T02570186 $=
KLFI 080755Z 09005KT 8SM R08/5500FT BKN008 BKN150 26/24 A2996 RMK
     AO2A BKN008 V SCT SLP145 T02560235 $=
KMCF 080755Z AUTO 07005KT 10SM CLR 25/23 A2999 RMK AO2 SLP157
     T02470230=
KNIP 080753Z 25004KT 10SM CLR 23/21 A3001 RMK AO2 SLP158
     T02330211=
KNKT 080754Z AUTO 05006KT 8SM CLR 26/21 A2991 RMK AO2 SLP125
     T02610211 $=
KNQX 080753Z AUTO 05003KT 10SM CLR 28/25 A2992 RMK AO2 SLP131
     T02830250 $=
KNRB 080752Z AUTO 00000KT 10SM CLR 24/21 A3000 RMK AO2 SLP159
     T02390206=
KPAM 080755Z AUTO 35005KT 10SM CLR 24/24 A3000 RMK AO2 SLP161
     T02380237=
KVPS 080755Z 33001KT 10SM SKC 24/24 A3002 RMK SLP166 T02430238=
KNYG 080756Z AUTO 30004KT CLR 26/22 A2997 RMK AO2 SLP151
     T02610222=
KABH 080756Z AUTO 13005KT 10SM SCT035 OVC065 13/12 A3039 RMK AO2
     SLP230 T01330117 $=
KPRN 080756Z AUTO 00000KT 10SM CLR 24/22 A3002 RMK AO2 SLP160
     T02440222 $=
KNMM 080756Z AUTO 28003KT 10SM CLR 23/21 A3004 RMK AO2 SLP177
     T02280211 $=
KNBT 080756Z AUTO 04006KT 3SM BR CLR 29/ A2990 RMK AO2 SLP130
     T0289 TSNO $=
KAQV 080756Z AUTO 00000KT 10SM CLR 24/23 A2999 RMK AO2 SLP153
     T02390228 $=
KNGP 080756Z AUTO 09009KT 10SM SCT036 BKN046 29/26 A2981 RMK AO2
     RAB18E32 SLP095 P0000 T02890261 $=
KHLR 080756Z AUTO 10005KT 10SM BKN017 26/ A2998 RMK AO2 SLP143
     T0256 $=
KNQI 080756Z AUTO 35004KT 9SM FEW021 27/25 A2983 RMK AO2 SLP097
     T02720250 $=
####018002119####
SAUS80 KWBC 080800 RRA
METAR
KANJ 080755Z AUTO 17003KT 4SM +RA BR FEW023 BKN049 OVC110 21/19
     A2996 RMK AO2 RAE01B50 SLP140 P0001 T02060189=
TJSJ 080756Z 10003KT 10SM CLR 27/24 A2998 RMK AO2 SLP150
     T02720244=
KJAX 080756Z 00000KT 10SM CLR 21/19 A3000 RMK AO2 SLP159
     T02060194=
KAST 080755Z AUTO 24009KT 4SM BR OVC003 12/11 A2993 RMK AO2 SLP133
     T01220106 403390117=
KAAT 080755Z AUTO 19003KT 10SM CLR 15/08 A3007 RMK AO2 SLP135
     T01500078 403390078 TSNO=
KPHP 080755Z AUTO 28005KT 10SM CLR 13/11 A3019 RMK AO2 SLP212
     T01280106 TSNO $=
KABQ 080756Z 10017G23KT 10SM BKN130 OVC200 19/10 A3025 RMK AO2 PK
     WND 10028/0722 SLP151 T01890100=
KSHV 080756Z 11003KT 10SM SCT180 BKN280 25/24 A3000 RMK AO2 SLP155
     T02500239=
KCHS 080756Z 29009KT 10SM CLR 25/19 A2996 RMK AO2 SLP144
     T02500194=
KCLI 080755Z AUTO 25005KT 7SM BKN004 22/21 A2997 RMK AO2=
KDVK 080757Z AUTO 00000KT 5SM 21/19 A3008 RMK AO1=
KINW 080756Z AUTO 27006KT 10SM BKN120 24/00 A3008 RMK AO2 SLP095
     T02440000=
KMOB 080756Z 03003KT 10SM CLR 24/23 A3003 RMK AO2 SLP164
     T02390228=
KOFK 080756Z AUTO 29003KT 10SM CLR 16/15 A3018 RMK AO2 SLP211
     T01610150=
KSFO 080756Z 27012KT 10SM BKN008 13/11 A2994 RMK AO2 SLP137
     T01330106 402280133=
PADK 080756Z 07011KT 10SM BKN016 OVC024 07/06 A2959 RMK AO1
     PNO=
KCAE 080756Z 26003KT 10SM CLR 24/19 A2998 RMK AO2 SLP149
     T02440189=
KBIH 080756Z AUTO 30006KT 10SM CLR 19/02 A2997 RMK AO2 SLP092
     T01890017 403610144 TSNO=
KACY 080754Z 00000KT 7SM FEW100 24/22 A3001 RMK AO2 SLP162
     T02440222=
KSAV 080753Z 26004KT 10SM FEW024 22/19 A2999 RMK AO2 SLP155
     T02170194=
KSYR 080754Z 00000KT 7SM CLR 23/21 A3004 RMK AO2 SLP167
     T02330206=
KROC 080754Z 22004KT 7SM FEW140 BKN180 BKN250 23/21 A3005 RMK AO2
     SLP171 T02280206=
K8D3 080756Z AUTO 27007KT 18/14 A3009 RMK AO2 SLP177 T01780144
     PWINO TSNO=
KD07 080756Z AUTO 23004KT 14/08 A3020 RMK AO2 SLP217 T01390083
     PWINO TSNO=
K2WX 080756Z AUTO 26006KT 12/08 A3016 RMK AO1 SLP202 T01220083=
####018000119####
SAUS70 KWBC 080700 RRL
METAR
KMYP 080656Z AUTO 07009KT M1/4SM -SN OVC001 03/03 A3075 RMK AO2
     LTG DSNT NW=
####018000208####
SPXX60 KWBC 080758
SPECI
KAFF 080753Z AUTO 11005KT 10SM FEW011 BKN021 13/11 A3041 RMK AO2
     CIG 016V022 SLP209=
KDOV 080753Z AUTO 00000KT 3SM BR SCT110 24/24 A2998 RMK AO2 VIS
     2V3 SLP155=
####018000095####
SAUS70 KWBC 070800 RRM
METAR
KVTP 080800Z AUTO 08010KT 1/4SM OVC001 06/05 A3056 RMK AO2=
####018000089####
SAAW34 KWBC 080745 RRC
METAR
OPKC 080800Z 09012KTS 9000 BKN030 35/24 Q.1003 NOSIG=
####018000155####
SAEN31 KWBC 080750 RRA
METAR
EFIV 080750Z AUTO VRB03KT CAVOK 15/11 Q1016=
EFKE 080750Z AUTO 18004KT 140V220 9999 FEW023 SCT028 18/13
     Q1016=
####018000135####
SAIY31 KWBC 080650 RRD
METAR
LIBR 080745Z /////KT 9999 FEW020 24/16 Q1017 NOSIG=
LIEE 080745Z 26004KT CAVOK 25/19 Q1018 NOSIG=
####018000545####
SAIY31 KWBC 080750 RRA
METAR
LIBD 080750Z 36012KT 9999 FEW030 24/11 Q1019=
LICC 080750Z VRB01KT CAVOK 28/21 Q1018=
LICJ 080750Z 04014KT CAVOK 27/22 Q1018=
LIEA 080750Z 35005KT 250V050 CAVOK 27/20 Q1019=
LIEO 080750Z VRB04KT 9999 FEW030 28/22 Q1019=
LIMC 080750Z 12005KT 060V170 9999 FEW040 SCT060 25/14 Q1022
     NOSIG=
LIME 080750Z 14006KT 070V170 9999 BKN055 24/16 Q1023=
LIMF 080750Z VRB02KT 9999 SCT030 SCT050 22/16 Q1022=
LIMJ 080750Z 05008KT CAVOK 28/21 1020=
LIML 080750Z 09007KT 9999 BKN070 25/16 Q1022 NOSIG=
####018000379####
SAIY32 KWBC 080750 RRA
METAR
LIPB 080750Z 15003KT 9999 SCT070 25/14 Q1022=
LIPE 080750Z 11007KT CAVOK 26/17 Q1021=
LIPK 080750Z VRB03KT CAVOK 24/14 Q1021=
LIPQ 080750Z VRB02KT 9999 FEW030 BKN050 23/15 Q1022=
LIPZ 080750Z 12007KT 9999 SCT045 SCT060 25/16 Q1022=
LIRF 080750Z 19006KT 150V240 9999 SCT020 28/22 Q1019 NOSIG=
LIRQ 080750Z VRB02KT CAVOK 28/15 Q1020=
####018000292####
SAIY32 KWBC 080650 RRC
METAR
LIPH 080745Z 01002KT 9999 SCT040 BKN070 22/18 Q1023=
LIPR 080745Z 13006KT CAVOK 26/18 Q1021=
LIPX 080745Z 09008KT 9999 SCT080 26/14 Q1021=
LIRA 080745Z 25004KT 260V320 9999 SCT018 FEW020TCU 27/21 Q1019=
LIRP 080745Z 11012KT CAVOK 27/15 Q1019 NOSIG=
####018000109####
SAIY41 KWBC 080750 RRA
METAR
LIMC 080750Z 12005KT 060V170 9999 FEW040 SCT060 25/14 Q1022
     NOSIG=
####018000081####
SAIY43 KWBC 080650 RRE
METAR
LIPX 080745Z 09008KT 9999 SCT080 26/14 Q1021=
####018000088####
SAMM31 KWBC 080730 RRB
METAR
LCRA 080750Z 20008KT 9999 FEW020 27/21 Q1008 NO SIG=
####018000269####
SAMX31 KWBC 080745 RRB
METAR
MMAA 080743Z 36004KT 8SM SCT020TCU SCT090 BKN300 27/23 A2978 RMK
     8/232=
MMMX 080748Z 00000KT 5SM -RA BKN025 OVC080 15/14 A3020 NOSIG RMK
     60125 8/46/ -RA INTMT=
MMMZ 080751Z 00000KT 10SM SCT220 26/22 A2977 RMK 8/002=
####018000143####
SAMX41 KWBC 080745 RRA
METAR
MMCL 080741Z 00000KT 10SM SCT030 BKN100 27/23 A2980 RMK 8/520=
MMML 080746Z 18006KT 10SM SKC 25/14 A2966=
####018000170####
SAMX42 KWBC 080745 RRA
METAR
MMTJ 080749Z 00000KT 6SM OVC017 16/14 A2994 RMK 8/5// HZY=
MMTO 080745Z 00000KT 3SM RA BKN010CB OVC070 12/11 A3025 RMK
     8/96/=
####018000412####
SANL31 KWBC 080750 RRA
METAR
EHDL 080755Z AUTO 21008KT 9999NDV NCD 26/12 Q1019 BLU=
EHGR 080755Z AUTO 25005KT 9999NDV NCD 26/13 Q1018 BLU BLU=
EHLW 080755Z AUTO 23009KT 9999NDV BKN110 21/16 Q1018 BLU BLU=
EHVK 080755Z AUTO 24006KT 9999NDV NCD 26/12 Q1019 RE// BLU=
EHVL 080755Z AUTO 23012KT 9999NDV BKN096 OVC100 19/15 Q1018
     BLU=
EHWO 080755Z AUTO 27004KT 9999NDV NCD 24/13 Q1019 BLU BLU=
####018000170####
SAUK31 KWBC 080750 CCA
METAR
EGCC 080750Z 19006KT 160V220 9999 FEW036 16/12 Q1017 NOSIG=
EGLL 080750Z 27008KT 9999 FEW009 BKN011 19/15 Q1019 BECMG
     SCT040=
####018000087####
SAUK32 KWBC 080750 RRA
METAR
EGNS 080750Z 25010KT 9999 FEW020 16/11 Q1015 NOSIG=
####018000303####
SAUK42 KWBC 080750 RRA
METAR
EGOS 080750Z 19007KT 9999 FEW015 BKN100 15/10 Q1017 BLU NOSIG=
EGQK 080750Z 22016G28KT 9999 FEW025 SCT045 16/07 Q1008 BLU
     NOSIG=
EGQL 080750Z 25018KT 9999 FEW023 BKN050 15/09 Q1011 BLU NOSIG=
EGQS 080750Z 23018KT 9999 FEW025 SCT050 17/07 Q1008 BLU NOSIG=
####018000285####
SAUK41 KWBC 080750 RRA
METAR
EGDL 080750Z 25004KT 9999 FEW012 SCT100 BKN150 16/13 Q1019 BLU
     TEMPO SCT020 WHT=
EGDM 080750Z 25002KT 9999 FEW007 SCT014 BKN022 16/14 Q1019 GRN
     BECMG FEW015 BKN022 WHT=
EGDR 080750Z 22003KT 9999 FEW015 SCT220 16/13 Q1019 BLU NOSIG=
####018000130####
SAUS46 KLOX 080757
MTRNLC
METAR KNLC 080756Z AUTO 33007KT 10SM CLR 19/12 A2982 RMK AO2 SLP096 
T01940117 403560150 TSNO $
####018000113####
SAUS42 KCHS 080757
MTRNBC
METAR KNBC 080756Z AUTO 25003KT 10SM CLR 24/18 A2998 RMK AO2 SLP151 
T02390183
####018000115####
SAUS43 KDDC 080757
MTRP28
METAR KP28 080756Z AUTO 03005KT 22/21 A3010 RMK AO2 SLP176 T02170206 
PWINO TSNO
####018000128####
SAUS46 KMTR 080757
MTRMHS
METAR KMHS 080756Z AUTO 00000KT 10SM CLR 17/08 A3000 RMK AO2 SLP140 
T01670078 403330094 TSNO
####018000120####
SAUS46 KPQR 080757
MTRNUW
METAR KNUW 080756Z 00000KT 10SM CLR 15/11 A2996 RMK AO2 SLP150 
T01500111 402280100 $
####018000115####
SAUS43 KEAX 080757
MTRCDJ
METAR KCDJ 080756Z AUTO 00000KT 21/21 A3006 RMK AO2 SLP166 T02110206 
PWINO TSNO
####018000115####
SAUS45 KTFX 080757
MTRGFA
METAR KGFA 080756Z AUTO 00000KT 10SM CLR 12/06 A3022 RMK AO2 SLP246 
T01220056 $
####018000127####
SAUS45 KLKN 080757
MTRWMC
METAR KWMC 080756Z AUTO 05018G25KT 10SM CLR 22/M06 A3004 RMK AO2 
SLP118 T02171056 403280139
####018000120####
SAUS46 KLOX 080757
MTRNXP
METAR KNXP 080756Z AUTO 28008KT CLR 27/00 A2989 RMK AO2 SLP082 
T02670000 403830194 $
####018000101####
SAUS41 KCAR 080757
MTRGNR
METAR KGNR 080756Z AUTO 12005KT 19/19 A3006 RMK AO1 SLP174 T01940189
####018000115####
SAAK48 PANC 080757
MTRASY
METAR PASY 080756Z AUTO 03019KT 10SM BKN006 OVC017 A2973 RMK AO2
 SLPNO TSNO PNO
####018000125####
SAXX99 KWBC 080700 RRX
METAR
MMPB 080745Z 15005KT 3SM TSRA SCT020CB OVC080 15/14 A3020 RMK
     6//// 8/96/ TSRAB39=
####018002977####
SAUS20 KNKA 080757
METAR KSDF 080756Z 00000KT 8SM CLR 27/21 A3005 RMK AO2 SLP170 
    T02720206=
METAR K1P1 080755Z AUTO 00000KT 1 1/2SM BR VV007 22/21 A3005 RMK 
     AO2 T02190208=
METAR KART 080756Z AUTO 17003KT 7SM CLR 23/20 A3002 RMK AO2 SLP159 
    T02280200=
METAR KBED 080756Z AUTO 19006KT 3SM BR OVC009 24/22 A3004 RMK AO2 
    SLP180 T02390217=
METAR KBIX 080755Z AUTO 05004KT 10SM CLR 25/25 A3000 RMK AO2 SLP161
      T02540251=
METAR KBJJ 080756Z AUTO 00000KT 3SM BR CLR 18/18 A3010 RMK AO2 
    SLP182 T01830178=
METAR KBVU 080755Z AUTO 32004KT 10SM CLR 27/00 A2985 RMK AO2 =
METAR KBZN 080756Z AUTO 18005KT 10SM CLR 11/04 A3026 RMK AO2 SLPNO 
    T01110044=
METAR KCTB 080756Z AUTO 26004KT 10SM CLR 12/06 A3024 RMK AO2 SLP219 
    T01220061=
METAR KCXY 080756Z AUTO 00000KT 6SM HZ CLR 23/19 A3001 RMK AO2 
    SLP158 T02330194=
METAR KDAY 080756Z 00000KT 9SM CLR 24/18 A3009 RMK AO2 SLP178 
    T02440183 $=
METAR KE80 080755Z AUTO 29005KT 10SM CLR 19/10 A3023 RMK AO2 
     T01940103=
METAR KEDC 080755Z AUTO 06004KT OVC012 25/24 A2996 RMK AO2 =
METAR KEED 080756Z AUTO 24006KT 10SM CLR 31/M03 A2973 RMK AO2 SLP030 
    T03111033 404220250 TSNO=
METAR KEIK 080755Z AUTO 18005KT 10SM OVC095 14/12 A3028 RMK AO2=
METAR KELZ 080756Z AUTO 00000KT 4SM BR CLR 19/18 A3016 RMK AO2 
    SLP196 T01940183=
METAR KEOE 080755Z AUTO 00000KT 10SM CLR 22/20 A3003 RMK AO2=
METAR KFMH 080755Z AUTO 16005KT 3SM BR OVC003 21/21 A3007 RMK AO2 
     =
METAR KGON 080756Z AUTO 00000KT 10SM BKN011 OVC070 23/21 A3003 RMK 
    AO2 SLP169 T02330211=
METAR KHFF 080755Z AUTO 00000KT 10SM CLR 22/18 A2997 RMK AO2 SLP145
      T02210176 $=
METAR KHPN 080756Z 00000KT 4SM BR BKN100 23/21 A3002 RMK AO2 SLP159 
    T02330211=
METAR KHWV 080756Z AUTO 15004KT 2SM BR OVC002 24/24 A3003 RMK AO2 
    SLP168 T02390239=
METAR KHYA 080756Z AUTO 18004KT 3SM BR OVC001 21/21 A3007 RMK AO2 
    SLP182 T02110206=
METAR KIFP 080755Z AUTO 04003KT 10SM CLR 31/M02 A2972 RMK AO2 =
METAR KIGX 080756Z AUTO 30003KT 7SM CLR 24/18 A2998 RMK AO2 SLP143 
    T02440183 $=
SPECI KIJD 080756Z AUTO 14003KT 1 1/2SM BR OVC003 22/22 A3005 RMK 
    AO2 CIG 001V005=
METAR KISP 080756Z 14005KT 4SM HZ SCT005 BKN060 BKN100 OVC130 26/23 
    A3000 RMK AO2 SLP159 T02560228=
METAR KITH 080756Z AUTO 08004KT 5SM BR CLR 21/19 A3010 RMK AO2 
    T02050188 SLP184=
METAR KJXN 080756Z 00000KT 8SM CLR 22/21 A3005 RMK AO2 SLP167 
    T02220211=
METAR KLAS 080756Z 22009KT 10SM CLR 30/M05 A2980 RMK AO2 SLP059 
    T03001050 403940256=
METAR KLFI 080755Z 09005KT 8SM R08/5500FT BKN008 BKN150 26/24 A2996
      RMK AO2A BKN008 V SCT SLP145 T02560235 $=
METAR KLUF 080755Z 10005KT 10SM CLR 29/07 A2975 RMK AO2A SLP042 T02940065
      $=
METAR KMCF 080755Z AUTO 07005KT 10SM CLR 25/23 A2999 RMK AO2 SLP157
      T02470230=
METAR KMDT 080756Z 00000KT 5SM HZ CLR 24/19 A3000 RMK AO2 SLP154 
    T02440194=
####018000201####
SASW39 LSSW 080750 RRA
METAR LSMA 080750Z 02003KT 340V080 CAVOK 21/14 Q1022 RMK BLU=
METAR LSMD 080750Z VRB01KT CAVOK 21/13 Q1022 RMK BLU=
METAR LSME 080750Z VRB02KT CAVOK 21/13 Q1022 RMK BLU=
####018000295####
SANL31 EHDB 080755
METAR EHAM 080755Z 24007KT 210V300 CAVOK 22/15 Q1019 NOSIG=
METAR EHBK 080755Z AUTO 20006KT 160V250 9999NDV NCD 25/12 Q1019
NOSIG=
METAR EHGG 080755Z AUTO 23007KT 190V270 9999NDV NCD 25/13 Q1018
NOSIG=
METAR EHRD 080755Z 26006KT 210V290 CAVOK 23/15 Q1019 NOSIG=
####018000566####
SAGR31 LGAT 080750
METAR LGAD 080750Z 32012KT 9999 FEW020 27/19 Q1013=
METAR LGAV 080750Z 03017KT 9999 FEW020 SCT030 27/13 Q1012 NOSIG=
METAR LGIR 080750Z 04004KT CAVOK 29/19 Q1010 NOSIG=
METAR LGKL 080750Z 33007KT 9999 FEW030 30/15 Q1011=
METAR LGKO 080750Z 31016KT CAVOK 28/17 Q1009=
METAR LGKR 080750Z 30016KT CAVOK 27/12 Q1012 NOSIG=
METAR LGLM 080750Z NIL=
METAR LGRP 080750Z 24015KT CAVOK 29/20 Q1007 NOSIG=
METAR LGSA 080750Z 29008KT CAVOK 31/16 Q1011=
METAR LGSM 080750Z NIL=
METAR LGTS 080750Z 33021KT 9999 FEW025 22/12 Q1016 NOSIG=
####018000133####
SAUS46 KSGX 080758
MTRNRS
METAR KNRS 080756Z AUTO 30008KT 10SM OVC018 17/13 A2991 RMK AO2 
SLP128 T01720128 401940156 TSNO $
####018000127####
SAUS46 KMFR 080757
MTRSXT
METAR KSXT 080756Z AUTO 34004KT 9SM CLR 20/11 A3003 RMK AO2 SLP103 
T02000106 403110183 TSNO
####018000113####
SAUS41 KAKQ 080758
MTRNCA
METAR KNCA 080756Z AUTO 04003KT 10SM CLR 25/22 A2991 RMK AO2 SLP128 
T02500217
####018000128####
SAUS46 KPDT 080758
MTRMEH
METAR KMEH 080756Z AUTO 00000KT 10SM CLR 08/07 A3011 RMK AO2 SLP176 
T00830072 402780017 TSNO
####018000146####
SAUS46 KPQR 080757
MTRNFL
METAR KNFL 080756Z AUTO 00000KT 10SM CLR 22/01 A2995 RMK AO2 PK WND 
21030/0718 SLP115 T02170006 403560133 TSNO
####018000131####
SAUS46 KMTR 080758
MTRBAN
METAR KBAN 080756Z AUTO 00000KT 10SM OVC110 10/02 A3019 RMK AO2 
SLP123 T01000017 402780039 TSNO
####018000115####
SAUS46 KLOX 080758
MTR9L2
METAR K9L2 080756Z AUTO 18008KT 10SM CLR 21/03 A2987 RMK AO2 SLP091 
T02110033 $
####018000123####
SAUS41 KAKQ 080758
MTRNTU
METAR KNTU 080756Z 11004KT 8SM CLR 25/24 A2994 RMK AO2 SLP142 
T02500239 CHINO RWY 05R $
####018000131####
SAUS46 KSTO 080758
MTRNUQ
METAR KNUQ 080756Z AUTO 03005KT 10SM OVC013 16/12 A2993 RMK AO2 
SLP138 T01560122 402220156 TSNO
####018000130####
SAUS46 KSGX 080758
MTRNXF
METAR KNXF 080756Z AUTO 30005KT 7SM OVC015 17/13 A2991 RMK AO2 
SLP213 T01670128 401890156 TSNO
####018000123####
SAUS45 KBOI 080757
MTRLWS
METAR KLWS 080756Z AUTO 14003KT 10SM CLR 18/05 A3001 RMK AO2 SLP152 
T01830050 403280122
####018000115####
SAUS43 KMQT 080758
MTRP53
METAR KP53 080756Z AUTO 00000KT 19/18 A2995 RMK AO2 SLP140 T01890183 
PWINO TSNO
####018000114####
SAUS42 KMLB 080758 COR
MTRDAB
METAR KDAB 080753Z 00000KT 10SM CLR 21/19 A2999 RMK AO2 SLP154 
T02060194 $
####018000117####
SAUS41 KAKQ 080758
MTRNXX
METAR KNXX 080756Z AUTO 13004KT 6SM HZ CLR 24/19 A3002 RMK AO2 
SLP170 T02390194 $
####018000115####
SAUS43 KDLH 080758
MTRGNA
METAR KGNA 080756Z AUTO 00000KT 18/16 A2997 RMK AO2 SLP142 T01780161 
PWINO TSNO
####018000079####
SPCN46 CWAO 080757
SPECI CYBN 080757Z AUTO 00000KT 1SM CLR 20/18 A3003=

####018000089####
SPCN47 CWAO 080756
SPECI CYTL 080756Z AUTO 21004KT 9SM FEW043 BKN078 17/14 A2982=

####018000114####
SAHW31 KMSC 080757
METAR PMDY 080756Z AUTO 00000KT 10SM CLR 26/20 A3011 RMK AO2 TSNO 
    T02550200 SLP505=
####018000981####
SAUS20 KNKA 080757
METAR KMXF 080755Z AUTO 22003KT 10SM CLR 26/25 A3001 RMK AO2 SLP161
      T02590246=
METAR KPVF 080755Z AUTO 00000KT 10SM CLR 20/11 A2994 RMK AO1 =
METAR KRBW 080755Z AUTO 28005KT 10SM CLR 23/20 A2998 RMK AO2=
METAR KRCM 080755Z AUTO 00000KT 7SM SCT003 BKN060 OVC090 22/22 
     A3004 RMK AO2=
METAR KSGH 080756Z AUTO 00000KT 5SM BR CLR 21/21 A3010 RMK AO2 
    T02050205 SLP181=
METAR KSGJ 080758Z AUTO 28003KT 10SM CLR 22/20 A3001 RMK AO2 SLP161 
    T02170200=
METAR KSNC 080755Z AUTO 00000KT 3/4SM  BR OVC001 22/ A3006 RMK AO2 
     =
METAR KTME 080755Z AUTO 04006KT 5SM 25/25 A2993 RMK AO1 =
METAR KUKI 080756Z AUTO 18004KT 10SM CLR 15/11 A2991 RMK AO2 SLP121 
    T01500111 403220117=
METAR KUOX 080755Z AUTO 00000KT 10SM CLR 22/21 A3007 RMK AO2 =
METAR KWJF 080756Z 28008KT 10SM CLR 19/02 A2989 RMK AO2 SLP100 
    T01940022 403560150=
METAR TJSJ 080756Z 10003KT 10SM CLR 27/24 A2998 RMK AO2 SLP150 
    T02720244=
####018000115####
SAUS45 KPUB 080758
MTRSPD
METAR KSPD 080756Z AUTO 35003KT 16/14 A3028 RMK AO2 SLP201 T01560139 
PWINO TSNO
####018000952####
SAXX70 KAWN 080800 RRD
METAR KQAY 080755Z AUTO 36013G19KT 9999 FEW100 45/M03 A2958 RMK AO2
      SLP012 T04541027 $=
METAR KQDM 080755Z AUTO VRB03KT 9SM FEW230 31/12 A3023 RMK AO2 LTG
      DSNT N SLP100 T03060115 PWINO $=
METAR KQDP 080755Z AUTO VRB04KT 7SM CLR 35/11 A2997 RMK AO2 SLP039
      T03450110 $=
METAR KQGX 080755Z 17010KT 130V200 8000 HZ FEW220 42/20 A2956 RMK AO2A
      SLP008 $=
METAR KQIR 080755Z 07007KT 030V120 8000 HZ 40/25 A2954 RMK AO2A SLP001
      T04040254=
METAR KQIU 080755Z AUTO VRB03KT 9999 FEW050 29/10 A3021 RMK AO2 SLP114=
METAR KQSR 080755Z 04009KT 9999 FEW090 28/05 A3018 RMK AO2A SLP086
      WND 340V060 WND DATA/ALSTG ESTMD=
METAR KQTX 080755Z VRB05KT 9999 CLR 40/03 A2969 RMK SLP024=
METAR KQWM 080755Z 32023G33KT 9000 BLDU CLR 45/M03 A2959 RMK PK WND
      33035/08 SLP006 QNH1002=
METAR KQXR 080755Z AUTO 01007G13KT 340V070 7000 CLR 46/ A2951 RMK AO2
      SLP992 T0457 $=
####018000115####
SAUS44 KBMX 080758 COR
MTRMGM
METAR KMGM 080753Z 00000KT 10SM SCT070 25/23 A3002 RMK AO2 SLP160 
T02500228
####018000123####
SAUS44 KLIX 080758 COR
MTRBTR
METAR KBTR 080753Z 00000KT 9SM FEW013 SCT200 24/23 A3000 RMK AO2 
SLP157 T02390228 $
####018000145####
SAUS46 KLOX 080758
MTRNTD
METAR KNTD 080756Z AUTO 28006KT 10SM OVC013 15/13 A2990 RMK AO2 
SLP127 T01500128 401890144 TSNO PNO VISNO N $
####018000111####
SAUS45 KVEF 080758
MTRINS
METAR KINS 080756Z VRB03KT 10SM CLR 23/M11 A2991 RMK AO2 SLP070 
T02281106 $
####018000073####
SADL34 EDZO 080750 RRA
METAR EDAC 080750Z 20005KT CAVOK 22/13 Q1022=
####018000117####
SAUS44 KMEG 080758 COR
MTRTUP
METAR KTUP 080753Z AUTO 00000KT 10SM CLR 25/22 A3004 RMK AO2 SLP168 
T02500222
####018000124####
SAUS41 KAKQ 080758
MTRAKQ
METAR KAKQ 080754Z AUTO 00000KT 2 1/2SM BR CLR 23/21 A2996 RMK AO2 
SLP145 T02280211 TSNO
####018001286####
SAXX60 KAWN 080800
METAR PGSN 080754Z 08013KT 10SM FEW023 28/24 A2987 RMK AO2 SLP111 T02780244=
METAR PGUA 080755Z AUTO 08012KT 10SM FEW016 28/ A2987 RMK AO2 SLP096
      T0275 VISNO RWY24L $=
METAR PGUM 080754Z 08010KT 10SM SCT020 SCT026 BKN031 29/24 A2986 RMK
      AO2 SLP104 T02940244=
METAR PHHI 080755Z AUTO 07004KT 10SM CLR 21/19 A3006 RMK AO2 RAB0716E0729DZB0729E0732
      SLP169 P0000 T02130185=
METAR PHJR 080753Z VRB04KT 10SM FEW050 24/18 A3005 RMK AO2 SLP180 T02390183=
METAR PHKO 080753Z 17004KT 10SM CLR 24/18 A2999 RMK AO2 SLP155 T02390178=
METAR PHMK 080754Z AUTO 05010KT 10SM CLR 22/19 A3005 RMK AO2 SLP176
      T02220189 TSNO=
METAR PHNL 080753Z 05008KT 10SM FEW032 SCT045 25/18 A3004 RMK AO2 SLP170
      T02500178=
METAR PHOG 080754Z 04010KT 10SM FEW030 SCT050 24/18 A3004 RMK AO2 SLP177
      T02440178=
METAR PHTO 080753Z 09003KT 10SM OVC065 23/17 A3005 RMK AO2 SLP174 T02330172=
METAR PTKK 080752Z 06008KT 15SM FEW012 BKN120 OVC280 25/23 A2981 RMK
      RAE40 SLP098 T02530232=
METAR PWAK 080751Z 08013KT 7SM HZ CLR 28/24 A2997 RMK AO2A=
METAR RJTY 080755Z AUTO 18005KT 9999 CLR 29/23 A2984 RMK AO2 SLP097
      T02890225 $=
METAR RODN 080755Z AUTO 19012KT 9999 SCT021 30/26 A2981 RMK AO2 SLP093
      T02960260=
####018000306####
SPUS17 KAWN 080758 RRH
SPECI KAFF 080753Z AUTO 11005KT 10SM FEW011 BKN021 13/11 A3041 RMK
      AO2 CIG 016V022 SLP209=
SPECI KDOV 080753Z AUTO 00000KT 3SM BR SCT110 24/24 A2998 RMK AO2 VIS
      2V3 SLP155=
SPECI KFAF 080754Z 14005KT 9SM RA BKN080 26/26 A2995 RMK AO2A RAB0754
      SLP142=
####018001618####
SANA14 KAWN 080800 RRA
METAR KGTB 080755Z AUTO 21004KT 10SM R33/5500VP6000FT CLR 22/20 A3003
      RMK AO2 SLP168 T02230201=
METAR KNIP 080753Z 25004KT 10SM CLR 23/21 A3001 RMK AO2 SLP158 T02330211=
METAR KNKT 080754Z AUTO 05006KT 8SM CLR 26/21 A2991 RMK AO2 SLP125
      T02610211 $=
METAR KNQX 080753Z AUTO 05003KT 10SM CLR 28/25 A2992 RMK AO2 SLP131
      T02830250 $=
METAR KNRB 080752Z AUTO 00000KT 10SM CLR 24/21 A3000 RMK AO2 SLP159
      T02390206=
METAR KNYG 080756Z AUTO 30004KT CLR 26/22 A2997 RMK AO2 SLP151 T02610222=
METAR KPAM 080755Z AUTO 35005KT 10SM CLR 24/24 A3000 RMK AO2 SLP161
      T02380237=
METAR KPSM 080755Z 15003KT 2SM BR BKN003 OVC006 21/21 A3004 RMK AO2A
      SLP173 T02120206=
METAR KSKA 080755Z AUTO 05007KT 10SM CLR 18/08 A3006 RMK AO2 SLP167
      T01830077 402740113=
METAR KSLI 080755Z AUTO 00000KT 10SM OVC017 16/14 A2991 RMK AO2 SLP131
      T01620136 402180147=
METAR KTBN 080755Z AUTO 00000KT 10SM BKN200 23/ A3005 RMK AO2 SLP156
      T0226 $=
METAR KTCM 080755Z AUTO 00000KT 10SM CLR 16/13 A2994 RMK AO2 SLP139
      T01590126 403140090=
METAR KTIK 080755Z AUTO 02005KT 10SM BKN019 OVC024 24/23 A3004 RMK
      AO2 CIG 019V023 BKN V OVC SLP159 T02370226 $=
METAR KTTS 080755Z 33001KT 10SM FEW030 FEW290 21/20 A2998 RMK SLP152
      1CU /0/ 1CI /0/=
METAR KVOK 080755Z 00000KT 9SM R27/5000VP6000FT BKN012 BKN019 21/21
      A3000 RMK AO2A CIG 010V016 SLP154 T02140214=
METAR KVPS 080755Z 33001KT 10SM SKC 24/24 A3002 RMK SLP166 T02430238=
METAR KWRB 080755Z 00000KT 10SM CLR 21/21 A3002 RMK AO2A SLP162 T02130212=
####018000117####
SPNA35 KAWN 080758 RRG
SPECI KDOV 080753Z AUTO 00000KT 3SM BR SCT110 24/24 A2998 RMK AO2 VIS
      2V3 SLP155=
####018000120####
SAUS43 KFSD 080758
MTRFSD
METAR KFSD 080756Z 00000KT 10SM CLR 17/14 A3015 RMK AO2 SLP207 BKN 
ABV 120 T01670144
####018000110####
SAUS41 KRNK 080758
MTRROA
METAR KROA 080754Z 25003KT 7SM OVC080 26/19 A3007 RMK AO2 SLP166 
T02560189
####018000125####
SAUS46 KLOX 080758
MTRNID
METAR KNID 080756Z AUTO 19009KT CLR 27/02 A2983 RMK AO2 SLP073 
T02720022 403830178 TSNO $
####018001611####
SAZZ40 KAWN 080800 RRH
METAR BGCO 080750Z 01016KT 9999 FEW016 SCT080 BKN140 05/01 Q1008=
METAR KCVS 080755Z 02007KT 10SM SCT060 BKN200 18/15 A3020 RMK AO2A
      SLP186 T01760150 $=
METAR KFAF 080755Z 14005KT 8SM -RA SCT065 BKN080 26/26 A2994 RMK AO2A
      RAB0754 SLP141 P0000 T02610261=
METAR KFCS 080755Z AUTO 23006KT 10SM OVC055 14/11 A3039 RMK AO2 SLP219
      T01370111=
METAR KFMH 080755Z AUTO 16005KT 3SM BR OVC003 21/21 A3007 RMK AO2=
METAR KFRI 080755Z AUTO 02004KT 10SM SCT100 BKN150 22/21 A3009 RMK
      AO2 SLP177 T02160213=
METAR KHLR 080756Z AUTO 10005KT 10SM BKN017 26/ A2998 RMK AO2 SLP143
      T0256 $=
METAR KNYG 080756Z AUTO 30004KT CLR 26/22 A2997 RMK AO2 SLP151 T02610222=
METAR KNYL 080755Z 00000KT 10SM CLR 29/02 A2971 RMK AO2 SLP056 T02890022=
METAR KPSM 080755Z 15003KT 2SM BR BKN003 OVC006 21/21 A3004 RMK AO2A
      SLP173 T02120206=
METAR KSGH 080756Z AUTO 00000KT 5SM BR CLR 21/21 A3010 RMK AO2 T02050205
      SLP181=
METAR KWJF 080756Z 28008KT 10SM CLR 19/02 A2989 RMK AO2 SLP100 T01940022
      403560150=
METAR MHLC 080800Z 00000KT 9999 FEW026 SCT200 25/24 Q1009 A2980 NOSIG=
METAR MHLM 080800Z 16010KT 9999 FEW028CB BKN080 27/25 Q1009 A2980 NOSIG=
METAR MHTG 080800Z 00000KT 9999 FEW026 BKN080 19/19 Q3006 A3006 RERA
      NOSIG=
METAR MUGM 080756Z 35004KT 9999 FEW035 26/23 A2995 RMK SLP141 T02610228=
METAR NFFN 080800Z 12004KT 40KM SCT028 SCT048 23/19 Q1013 NOSIG RMK
      RR NIL=
METAR OAUZ 080750Z 03003KT 9000 SKC 40/05 Q1009 BLU/=
METAR TJSJ 080756Z 10003KT 10SM CLR 27/24 A2998 RMK AO2 SLP150 T02720244=
####018001733####
SAEW KAWN 080800 RRB
METAR EBBR 080750Z 22005KT 190V280 CAVOK 26/11 Q1019 NOSIG=
METAR EBCI 080750Z 21007KT CAVOK 25/10 Q1020 NOSIG=
METAR EBOS 080750Z 28006KT CAVOK 19/15 Q1019 NOSIG=
METAR EDAC 080750Z 20005KT CAVOK 22/13 Q1022=
METAR EDHL 080750Z 17006KT 130V190 CAVOK 24/16 Q1020 RMK H=
METAR EDLN 080750Z VRB03KT CAVOK 25/14 Q1019 RMK ATIS G=
METAR EDLW 080750Z 20009KT 170V240 CAVOK 26/10 Q1020 RMK ATIS J=
METAR EDNY 080750Z VRB01KT CAVOK 23/12 Q1022 RMK ATIS J=
METAR EHAM 080755Z 24007KT 210V300 CAVOK 22/15 Q1019 NOSIG=
METAR EHBK 080755Z AUTO 20006KT 160V250 9999NDV NCD 25/12 Q1019 NOSIG=
METAR EHDL 080755Z AUTO 21008KT 9999NDV NCD 26/12 Q1019 BLU=
METAR EHGG 080755Z AUTO 23007KT 190V270 9999NDV NCD 25/13 Q1018 NOSIG=
METAR EHGR 080755Z AUTO 25005KT 9999NDV NCD 26/13 Q1018 BLU BLU=
METAR EHLW 080755Z AUTO 23009KT 9999NDV BKN110 21/16 Q1018 BLU BLU=
METAR EHRD 080755Z 26006KT 210V290 CAVOK 23/15 Q1019 NOSIG=
METAR EHVK 080755Z AUTO 24006KT 9999NDV NCD 26/12 Q1019 RE// BLU=
METAR EHVL 080755Z AUTO 23012KT 9999NDV BKN096 OVC100 19/15 Q1018 BLU=
METAR EHWO 080755Z AUTO 27004KT 9999NDV NCD 24/13 Q1019 BLU BLU=
METAR ETAD 080755Z AUTO VRB03KT 9999 CLR 24/11 A3016 RMK AO2 SLP197
      T02370107 $=
METAR ETAR 080755Z AUTO 00000KT 9999 CLR 23/14 A3015 RMK AO2 SLP203
      T02280135 $=
METAR ETIC 080756Z AUTO 00000KT 9999 CLR 20/09 A3022 RMK AO2 SLP224
      T01980091 $=
METAR ETIK 080755Z AUTO 00000KT 9999 -DZ CLR 23/10 A3021 RMK AO2 RAE0659B0726E0735DZB0659E0705B0755
      SLP216 P0000 T02350097 $=
METAR ETOR 080755Z 14003KT 9999 FEW060 FEW200 28/09 A3014 RMK BLU=
METAR ETOU 080755Z AUTO 00000KT 9999 CLR 24/11 A3016 RMK AO2 SLP210
      T02370110=
####018000120####
SAHW40 PHFO 080758
MTRNGF
METAR PHNG 080757Z 06006KT 10SM SCT026 BKN040 24/20 A3005 RMK AO2 
SLP171 T02440200 $
####018000060####
SAUS45 KTFX 080758
MTR8S0
METAR K8S0 080655Z 27007KT 
####018000116####
SAUS45 KPSR 080758
MTRALK
METAR KALK 080756Z AUTO 09008KT 10SM FEW110 24/08 A3007 RMK AO2 
SLP077 T02390078
####018002937####
SAUS20 KNKA 080758
METAR KEGV 080752Z AUTO 28003KT 2 1/2SM BR OVC002 19/19 A3001 RMK 
     AO2 T01900190=
METAR KEKQ 080756Z AUTO 00000KT 2SM BR CLR 19/19 A3010 RMK AO2 
    T01940188 SLP188=
METAR KELO 080753Z AUTO 00000KT 7SM CLR 13/12 A3003 RMK AO2=
METAR KETB 080753Z AUTO 00000KT 10SM -RA SCT120 22/21 A3000 RMK 
     AO2 P0001 T02200206=
METAR KEVM 080752Z AUTO 27004KT 7SM CLR 13/12 A3002 RMK AO1=
METAR KEZS 080755Z AUTO 24003KT 10SM OVC005 22/22 A2997 RMK AO2 
     P0002 T02230215=
METAR KFBL 080754Z AUTO 30006KT 10SM CLR 18/16 A3008 RMK AO2=
METAR KFFM 080753Z AUTO 17003KT 10SM CLR 15/14 A3007 RMK AO2=
METAR KFFX 080754Z AUTO 00000KT 7SM BKN060 OVC075 22/22 A3002 RMK
     AO2=
METAR KFGN 080753Z AUTO 26009KT 1/2SM DZ VV005 18/13 A2996 RMK
     AO2=
METAR KFPK 080755Z AUTO 00000KT 4SM BR CLR 21/20 A3002 RMK AO2=
METAR KFSE 080754Z AUTO 20003KT 10SM CLR 13/12 A3004 RMK AO2=
METAR KFSO 080758Z AUTO 00000KT 4SM BR CLR 23/22 A2999 RMK AO2=
METAR KGDB 080752Z AUTO 24005KT 10SM CLR 15/14 A3013 RMK AO2
     T01450142=
METAR KGHW 080753Z AUTO 22004KT 10SM CLR 14/13 A3013 RMK AO2=
METAR KGLW 080753Z AUTO 00000KT 7SM CLR 21/20 A3007 RMK AO2 
     T02130198=
METAR KGYL 080754Z AUTO 00000KT 10SM CLR 16/15 A3009 RMK AO2
     T01580148=
METAR KHAF 080750Z AUTO 00000KT 8SM OVC008 12/10 A2995 RMK AO2=
METAR KHAI 080755Z AUTO 00000KT 5SM BR CLR 22/21 A3004 RMK AO2=
METAR KHCD 080752Z AUTO 27003KT 10SM CLR 14/13 A3010 RMK AO2
     T01400129=
METAR KHCO 080754Z AUTO 00000KT 10SM CLR 13/13 A3004 RMK AO2=
METAR KHFJ 080755Z AUTO 00000KT 10SM SCT029 23/23 A3003 RMK AO1=
METAR KHZX 080751Z AUTO 00000KT 4SM CLR 12/12 A3007 RMK AO2=
METAR KIKW 080754Z AUTO 00000KT 7SM CLR 22/21 A3001 RMK AO2
     T02180207=
METAR KIRS 080755Z AUTO 00000KT 10SM CLR 22/19 A3004 RMK AO2=
METAR KJKJ 080754Z AUTO 22005KT 10SM CLR 16/15 A3006 RMK AO2=
METAR KJMR 080758Z AUTO 31004KT 10SM CLR 15/13 A3007 RMK AO2=
METAR KJVL 080755Z AUTO 17004KT 10SM OVC060 22/20 A2999 RMK AO2 
     T02230201=
METAR KJYG 080754Z AUTO 00000KT 10SM CLR 17/17 A3012 RMK AO2=
METAR KJYM 080755Z AUTO 00000KT 7SM CLR 22/20 A3006 RMK AO2=
METAR KLJF 080752Z AUTO 30003KT 10SM CLR 17/16 A3011 RMK AO2=
METAR KLNL 080755Z AUTO 00000KT 7SM SCT004 SCT050 19/19 A3002 RMK 
     AO2 T01900185=
METAR KLRD 080756Z AUTO 00000KT 10SM FEW011 26/24 A2990 RMK AO2 
    T02610244 SLP111 $=
METAR KLUM 080755Z AUTO 28005KT 10SM CLR 20/18 A3003 RMK AO2=
METAR KLVN 080749Z AUTO 30005KT 10SM CLR 18/17 A3007 RMK AO2=
METAR KLWA 080756Z AUTO 00000KT 10SM SCT055 OVC110 23/21 A3003 RMK
     AO2=
METAR KLXL 080754Z AUTO 00000KT 5SM BR CLR 12/12 A3008 RMK AO2=
METAR KLYV 080758Z AUTO 00000KT 10SM CLR 15/13 A3016 RMK AO2=
METAR KM89 080756Z AUTO 00000KT 5SM BR OVC004 24/24 A3004 RMK AO2 
    T02440238 SLP185=
METAR KMDS 080745Z AUTO 29005KT 10SM CLR 14/14 A3016 RMK AO2=
####018002942####
SAUS20 KNKA 080758
METAR KMDZ 080755Z AUTO 29005KT 1 1/4SM BR OVC001 20/19 A3002 RMK 
     AO2=
METAR KMGG 080755Z AUTO 28003KT 10SM CLR 15/15 A3009 RMK AO2
     T01500145=
METAR KMGN 080754Z AUTO 00000KT 7SM SCT110 21/20 A2997 RMK AO2=
METAR KMIA 080753Z COR 00000KT 10SM FEW030 SCT250 27/24 A2992 RMK 
    AO2 SLP133 98672 T02720244=
METAR KMJQ 080752Z AUTO 30003KT 10SM CLR 15/14 A3013 RMK AO2=
METAR KMOP 080754Z AUTO 00000KT 7SM SCT060 BKN120 22/22 A3001 RMK
     AO2=
METAR KMOX 080750Z AUTO 23005KT 10SM CLR 17/15 A3007 RMK AO2=
METAR KMRJ 080755Z AUTO 00000KT 10SM SCT120 21/19 A3001 RMK AO2 
     T02050188=
METAR KMRT 080753Z AUTO 00000KT 5SM CLR 21/19 A3011 RMK AO2
     T02080190=
METAR KMVE 080754Z AUTO 28004KT 10SM CLR 18/16 A3010 RMK AO2=
METAR KMWC 080755Z AUTO 22003KT 10SM BKN070 21/20 A3001 RMK AO2 
     P0001=
METAR KMWM 080753Z AUTO 28005KT 10SM CLR 15/14 A3012 RMK AO2=
METAR KOEB 080755Z AUTO 00000KT 10SM CLR 23/20 A3005 RMK AO2=
METAR KOEO 080755Z AUTO 00000KT 10SM CLR 19/17 A3008 RMK AO2=
METAR KONA 080751Z AUTO 00000KT 7SM CLR 20/18 A3002 RMK AO2=
METAR KOVL 080754Z AUTO 00000KT 7SM CLR 14/13 A3011 RMK AO2
     T01400125=
METAR KOZW 080755Z AUTO 00000KT 7SM CLR 22/21 A3004 RMK AO2=
METAR KPEX 080753Z AUTO 25005KT 7SM CLR 13/13 A3011 RMK AO2
     T01290125=
METAR KPNM 080753Z AUTO 00000KT 10SM CLR 15/14 A3008 RMK AO2=
METAR KPQN 080753Z AUTO 32003KT 10SM CLR 17/15 A3015 RMK AO2=
METAR KPWC 080753Z AUTO 00000KT 1/2SM FG BKN001 11/10 A3008 RMK
     AO2=
METAR KRFD 080754Z 15004KT 9SM -RA BKN008 OVC013 22/21 A3003 RMK
     AO2 CIG 004V011 SLP162 P0001 T02220211=
METAR KRGK 080755Z AUTO 28004KT 10SM CLR 20/18 A3003 RMK AO2=
METAR KRNP 080755Z AUTO 00000KT 10SM CLR 22/21 A3002 RMK AO2=
METAR KROG 080757Z AUTO 10SM CLR 23/22 A3007 RMK AO2 SLP167 
    T02330222=
METAR KROS 080755Z AUTO 30003KT 10SM CLR 17/15 A3006 RMK AO2
     T01650151=
METAR KROX 080755Z AUTO 26005KT 10SM CLR 17/14 A3000 RMK AO2=
METAR KRQB 080754Z AUTO 25008KT 10SM DZ BKN090 OVC110 23/21 A3004
     RMK AO2=
METAR KRRT 080754Z AUTO 24005KT 10SM CLR 16/13 A3000 RMK AO2=
METAR KRZN 080754Z AUTO 30005KT 10SM OVC047 19/16 A3005 RMK AO2 
     T01910162=
METAR KSAZ 080754Z AUTO 00000KT 10SM CLR 15/15 A3008 RMK AO2=
METAR KSGS 080753Z AUTO 31004KT 10SM CLR 20/17 A3006 RMK AO2
     T02000167=
METAR KSHV 080756Z 11003KT 10SM SCT180 BKN280 25/24 A3000 RMK AO2
     SLP155 T02500239=
METAR KSYN 080810Z AUTO 00000KT 10SM CLR 19/17 A3005 RMK AO2
     T01860170=
METAR KTEW 080752Z AUTO 00000KT 7SM CLR 21/20 A3004 RMK AO2=
METAR KTKC 080753Z AUTO 25005KT 10SM CLR 16/14 A3014 RMK AO2
     T01550139=
METAR KTOB 080755Z AUTO 00000KT 10SM CLR 19/17 A3008 RMK AO2=
METAR KTRI 080753Z 00000KT 6SM HZ CLR 22/19 A3009 RMK AO2 SLP169
     T02170189 $=
METAR KTWM 080753Z AUTO 00000KT 10SM BKN050 17/14 A3000 RMK
     AO2=
####018000971####
SAAK41 KNKA 080758
METAR PACM 080756Z AUTO 00000KT 2SM RA FEW012 SCT028 BKN044 12/08 
    A3010 RMK AO2 TSNO T01160083 P0016 SLP189 $=
METAR PAGN 080756Z AUTO 00000KT CLR RMK AO2 PWINO TSNO SLPNO $=
METAR PAHC 080756Z AUTO 31008KT 10SM FEW055 SCT080 BKN110 13/09 
    A2998 RMK AO2 TSNO T01330088 RAE0658B22E46 P0000 SLP155 $=
METAR PAIG 080756Z AUTO 00000KT 10SM BKN035 OVC047 09/08 A2994 RMK 
    AO2 PWINO TSNO T00940083 SLP142 $=
METAR PAMO 080756Z AUTO 28006KT 10SM OVC100 11/09 A3007 RMK AO2 TSNO 
    T01050088 RAE0657 SLP180 $=
METAR PAOH 080756Z AUTO 11003KT 10SM CLR 11/11 A3021 RMK AO2 TSNO 
    T01050105 402000105 SLP232=
METAR PAPM 080756Z AUTO 32007KT RA BKN060 10/09 A3000 RMK AO2 TSNO 
    T01000088 401270077 P0000 SLP160 $=
METAR PARS 080756Z AUTO 33006KT 10SM SCT070 SCT085 13/09 A3001 RMK 
    AO2 TSNO T01270094 SLP168 $=
METAR PATQ 080756Z AUTO 27014KT 10SM CLR 11/03 A3003 RMK AO2 TSNO 
    T01050027 SLP174 $=
####018002931####
SAUS20 KNKA 080758
METAR KABQ 080756Z 10017G23KT 10SM BKN130 OVC200 19/10 A3025 RMK
     AO2 PK WND 10028/0722 SLP151 T01890100=
METAR KJAX 080756Z 00000KT 10SM CLR 21/19 A3000 RMK AO2 SLP159
     T02060194=
METAR K14Y 080758Z AUTO 00000KT 7SM CLR 15/15 A3010 RMK AO2 
     T01460145=
METAR K29G 080754Z AUTO 00000KT 7SM BKN060 20/18 A3009 RMK AO2
     T02010182 PWINO=
METAR K4I3 080755Z AUTO 00000KT 10SM CLR 21/19 A3010 RMK AO2=
METAR KACB 080755Z AUTO 00000KT 10SM SCT120 24/21 A2998 RMK
     AO2=
METAR KACQ 080758Z AUTO 31004KT 10SM CLR 17/16 A3011 RMK AO2=
METAR KADC 080757Z AUTO 23004KT 10SM CLR 13/12 A3008 RMK AO2=
METAR KAEL 080751Z AUTO 31004KT 10SM BKN029 18/17 A3008 RMK
     AO2=
METAR KAIT 080753Z AUTO 00000KT 3SM BR CLR 12/11 A3007 RMK AO2=
METAR KAJO 080756Z AUTO 00000KT 6SM BR CLR 13/12 A2992 RMK AO2 
    T01270116 402440127 SLP127 $=
METAR KANE 080755Z AUTO 28005KT 10SM 18/17 A3007 RMK AO2=
METAR KAUM 080755Z AUTO 32005KT 10SM CLR 19/17 A3006 RMK AO2=
METAR KAVP 080754Z 11005KT 7SM CLR 21/18 A3005 RMK AO2 SLP163
     T02110178 $=
METAR KBAX 080755Z AUTO 00000KT 4SM BR CLR 21/21 A3001 RMK AO2=
METAR KBBB 080753Z AUTO 00000KT 1/2SM FG VV005 14/14 A3011 RMK
     AO2=
METAR KBDH 080755Z AUTO 00000KT 10SM CLR 16/14 A3012 RMK AO2=
SPECI KBMQ 080757Z AUTO 08004KT 10SM FEW008 BKN013 OVC033 24/22 
    A3001 RMK AO2 $=
METAR KCAD 080754Z AUTO 23005KT 10SM SCT090 22/21 A3003 RMK
     AO2=
METAR KCAE 080756Z 26003KT 10SM CLR 24/19 A2998 RMK AO2 SLP149
     T02440189=
METAR KCBG 080755Z AUTO 00000KT 10SM CLR 16/14 A3007 RMK AO2=
METAR KCFE 080754Z AUTO 00000KT 10SM CLR 18/16 A3009 RMK AO2
     T01800162=
METAR KCFS 080755Z AUTO 00000KT 3SM BR CLR 21/21 A3002 RMK AO2=
METAR KCHS 080756Z 29009KT 10SM CLR 25/19 A2996 RMK AO2 SLP144
     T02500194=
METAR KCKC 080755Z AUTO 29004KT 10SM CLR 16/13 A3003 RMK AO2=
METAR KCKN 080755Z AUTO 25003KT 10SM CLR 15/12 A3004 RMK AO2=
METAR KCNB 080757Z AUTO 24005KT 10SM CLR 16/13 A3013 RMK AO2
     T01600130=
METAR KCOQ 080756Z AUTO 29004KT 10SM CLR 14/14 A3005 RMK AO2=
METAR KCQM 080757Z AUTO 00000KT 10SM CLR 14/14 A3004 RMK AO2=
METAR KCVH 080750Z AUTO 00000KT 10SM BKN012 12/11 A2993 RMK
     AO1=
METAR KCWA 080755Z AUTO 30004KT 10SM SCT006 20/20 A3001 RMK AO2 
     T01950195=
METAR KDIJ 080756Z AUTO VRB03KT 10SM CLR 08/02 A3028 RMK AO2 
    T00770022 SLP184 $=
METAR KDRM 080756Z AUTO 13004KT 7SM CLR 20/20 A2997 RMK AO2=
METAR KDTL 080755Z AUTO 26005KT 10SM CLR 18/12 A3009 RMK AO2=
METAR KDUH 080754Z AUTO 00000KT 7SM CLR 22/18 A3004 RMK AO2=
METAR KDXX 080754Z AUTO 00000KT 10SM CLR 15/15 A3011 RMK AO2=
METAR KDYT 080754Z AUTO 30007KT 10SM SCT060 21/16 A3003 RMK
     AO2=
METAR KEFK 080756Z AUTO 20003KT 5SM BR CLR 20/19 A3005 RMK AO2=
METAR KEFT 080755Z AUTO 22004KT 10SM SCT080 BKN090 BKN120 21/20 
     A3000 RMK AO2 T02080198=
####018001088####
SAUS20 KNKA 080758
METAR KTYS 080753Z 03003KT 9SM CLR 24/19 A3005 RMK AO2 SLP162
     T02440189=
METAR KUKT 080750Z AUTO 00000KT 5SM CLR 22/20 A3003 RMK AO1=
METAR KULM 080754Z AUTO 27005KT 10SM CLR 14/13 A3011 RMK AO2=
METAR KUNI 080755Z AUTO 00000KT 3SM HZ CLR 22/18 A3007 RMK AO2 
     T02220176=
METAR KVES 080754Z AUTO 00000KT 5SM BR CLR 21/20 A3007 RMK AO2 
     T02050195=
METAR KVLL 080754Z AUTO 00000KT 10SM CLR 26/21 A3006 RMK AO2=
METAR KVVV 080756Z AUTO 00000KT 10SM CLR 17/14 A3011 RMK AO2=
METAR KY63 080800Z AUTO 22005KT 10SM CLR 16/15 A3009 RMK AO2 
     T01550146=
METAR KY70 080754Z AUTO 00000KT 10SM SCT055 SCT065 BKN110 24/21
     A3002 RMK AO2 T02380210=
METAR PACM 080756Z AUTO 00000KT 2SM RA FEW012 SCT028 BKN044 12/08 
    A3010 RMK AO2 TSNO T01160083 P0016 SLP189 $=
METAR PAGN 080756Z AUTO 00000KT CLR RMK AO2 PWINO TSNO SLPNO $=
METAR PATQ 080756Z AUTO 27014KT 10SM CLR 11/03 A3003 RMK AO2 TSNO 
    T01050027 SLP174 $=
METAR PGUA 080755Z AUTO 08012KT 10SM FEW016 28/ A2987 RMK AO2 SLP096
      T0275 VISNO RWY24L $=
####018001768####
SAEU KAWN 080800 RRH
METAR EDAC 080750Z 20005KT CAVOK 22/13 Q1022=
METAR EDHL 080750Z 17006KT 130V190 CAVOK 24/16 Q1020 RMK H=
METAR EDLN 080750Z VRB03KT CAVOK 25/14 Q1019 RMK ATIS G=
METAR EDLP 080750Z 19007KT 140V220 CAVOK 26/11 Q1020 RMK RWY24 TRL60
      JP ATIS L=
METAR EDLW 080750Z 20009KT 170V240 CAVOK 26/10 Q1020 RMK ATIS J=
METAR EDNY 080750Z VRB01KT CAVOK 23/12 Q1022 RMK ATIS J=
METAR EDXW 080750Z 20012KT CAVOK 22/13 Q1018 RMK ATIS INFO O=
METAR EHAM 080755Z 24007KT 210V300 CAVOK 22/15 Q1019 NOSIG=
METAR EHBK 080755Z AUTO 20006KT 160V250 9999NDV NCD 25/12 Q1019 NOSIG=
METAR EHDL 080755Z AUTO 21008KT 9999NDV NCD 26/12 Q1019 BLU=
METAR EHGG 080755Z AUTO 23007KT 190V270 9999NDV NCD 25/13 Q1018 NOSIG=
METAR EHRD 080755Z 26006KT 210V290 CAVOK 23/15 Q1019 NOSIG=
METAR EHVK 080755Z AUTO 24006KT 9999NDV NCD 26/12 Q1019 RE// BLU=
METAR LGAD 080750Z 32012KT 9999 FEW020 27/19 Q1013=
METAR LGBL 080750Z 03008KT 9999 FEW030 SCT080 26/13 Q1015 NOSIG BLU=
METAR LGEL 080750Z 01015G25KT 9999 FEW025 SCT080 26/18 Q1012=
METAR LGIR 080750Z 04004KT CAVOK 29/19 Q1010 NOSIG=
METAR LGKL 080750Z 33007KT 9999 FEW030 30/15 Q1011=
METAR LGKO 080750Z 31016KT CAVOK 28/17 Q1009=
METAR LGKR 080750Z 30016KT CAVOK 27/12 Q1012 NOSIG=
METAR LGKV 080750Z 12008KT 9999 SCT020TCU 19/16 Q1013=
METAR LGMT 080750Z 01011KT 9999 FEW020 SCT130 28/17 Q1010=
METAR LGPZ 080750Z 28015KT 9999 FEW025 28/19 Q1013 NOSIG BLU=
METAR LGRP 080750Z 24015KT CAVOK 29/20 Q1007 NOSIG=
METAR LGSA 080750Z 29008KT CAVOK 31/16 Q1011=
METAR LGTG 080750Z 01010G20KT 9999 FEW030 BKN070 22/13 Q1014 NOSIG
      BLU=
METAR LGTS 080750Z 33021KT 9999 FEW025 22/12 Q1016 NOSIG=
METAR LOXT 080750Z 25004KT 50KM FEW050CU 20/12 Q1024 NOSIG RMK FEW=
####018003743####
SAUS99 KWBC 080759 RRA
METAR
KUNI 080755Z AUTO 00000KT 3SM HZ CLR 22/18 A3007 RMK AO2
     T02220176=
KVES 080754Z AUTO 00000KT 5SM BR CLR 21/20 A3007 RMK AO2
     T02050195=
KVLL 080754Z AUTO 00000KT 10SM CLR 26/21 A3006 RMK AO2=
KVVV 080756Z AUTO 00000KT 10SM CLR 17/14 A3011 RMK AO2=
KY63 080800Z AUTO 22005KT 10SM CLR 16/15 A3009 RMK AO2
     T01550146=
KY70 080754Z AUTO 00000KT 10SM SCT055 SCT065 BKN110 24/21 A3002
     RMK AO2 T02380210=
PACM 080756Z AUTO 00000KT 2SM RA FEW012 SCT028 BKN044 12/08 A3010
     RMK AO2 TSNO T01160083 P0016 SLP189 $=
PAGN 080756Z AUTO 00000KT CLR RMK AO2 PWINO TSNO SLPNO $=
PATQ 080756Z AUTO 27014KT 10SM CLR 11/03 A3003 RMK AO2 TSNO
     T01050027 SLP174 $=
PGUA 080755Z AUTO 08012KT 10SM FEW016 28/ A2987 RMK AO2 SLP096
     T0275 VISNO RWY24L $=
PACM 080756Z AUTO 00000KT 2SM RA FEW012 SCT028 BKN044 12/08 A3010
     RMK AO2 TSNO T01160083 P0016 SLP189 $=
PAGN 080756Z AUTO 00000KT CLR RMK AO2 PWINO TSNO SLPNO $=
PAHC 080756Z AUTO 31008KT 10SM FEW055 SCT080 BKN110 13/09 A2998
     RMK AO2 TSNO T01330088 RAE0658B22E46 P0000 SLP155 $=
PAIG 080756Z AUTO 00000KT 10SM BKN035 OVC047 09/08 A2994 RMK AO2
     PWINO TSNO T00940083 SLP142 $=
PAMO 080756Z AUTO 28006KT 10SM OVC100 11/09 A3007 RMK AO2 TSNO
     T01050088 RAE0657 SLP180 $=
PAOH 080756Z AUTO 11003KT 10SM CLR 11/11 A3021 RMK AO2 TSNO
     T01050105 402000105 SLP232=
PAPM 080756Z AUTO 32007KT RA BKN060 10/09 A3000 RMK AO2 TSNO
     T01000088 401270077 P0000 SLP160 $=
PARS 080756Z AUTO 33006KT 10SM SCT070 SCT085 13/09 A3001 RMK AO2
     TSNO T01270094 SLP168 $=
PATQ 080756Z AUTO 27014KT 10SM CLR 11/03 A3003 RMK AO2 TSNO
     T01050027 SLP174 $=
KABQ 080756Z 10017G23KT 10SM BKN130 OVC200 19/10 A3025 RMK AO2 PK
     WND 10028/0722 SLP151 T01890100=
KJAX 080756Z 00000KT 10SM CLR 21/19 A3000 RMK AO2 SLP159
     T02060194=
K14Y 080758Z AUTO 00000KT 7SM CLR 15/15 A3010 RMK AO2
     T01460145=
K29G 080754Z AUTO 00000KT 7SM BKN060 20/18 A3009 RMK AO2 T02010182
     PWINO=
K4I3 080755Z AUTO 00000KT 10SM CLR 21/19 A3010 RMK AO2=
KACB 080755Z AUTO 00000KT 10SM SCT120 24/21 A2998 RMK AO2=
KACQ 080758Z AUTO 31004KT 10SM CLR 17/16 A3011 RMK AO2=
KADC 080757Z AUTO 23004KT 10SM CLR 13/12 A3008 RMK AO2=
KAEL 080751Z AUTO 31004KT 10SM BKN029 18/17 A3008 RMK AO2=
KAIT 080753Z AUTO 00000KT 3SM BR CLR 12/11 A3007 RMK AO2=
KAJO 080756Z AUTO 00000KT 6SM BR CLR 13/12 A2992 RMK AO2 T01270116
     402440127 SLP127 $=
KANE 080755Z AUTO 28005KT 10SM 18/17 A3007 RMK AO2=
KAUM 080755Z AUTO 32005KT 10SM CLR 19/17 A3006 RMK AO2=
KAVP 080754Z 11005KT 7SM CLR 21/18 A3005 RMK AO2 SLP163 T02110178
     $=
KBAX 080755Z AUTO 00000KT 4SM BR CLR 21/21 A3001 RMK AO2=
KBBB 080753Z AUTO 00000KT 1/2SM FG VV005 14/14 A3011 RMK AO2=
KBDH 080755Z AUTO 00000KT 10SM CLR 16/14 A3012 RMK AO2=
KCAD 080754Z AUTO 23005KT 10SM SCT090 22/21 A3003 RMK AO2=
KCAE 080756Z 26003KT 10SM CLR 24/19 A2998 RMK AO2 SLP149
     T02440189=
KCBG 080755Z AUTO 00000KT 10SM CLR 16/14 A3007 RMK AO2=
KCFE 080754Z AUTO 00000KT 10SM CLR 18/16 A3009 RMK AO2
     T01800162=
KCFS 080755Z AUTO 00000KT 3SM BR CLR 21/21 A3002 RMK AO2=
KCHS 080756Z 29009KT 10SM CLR 25/19 A2996 RMK AO2 SLP144
     T02500194=
KCKC 080755Z AUTO 29004KT 10SM CLR 16/13 A3003 RMK AO2=
KCKN 080755Z AUTO 25003KT 10SM CLR 15/12 A3004 RMK AO2=
KCNB 080757Z AUTO 24005KT 10SM CLR 16/13 A3013 RMK AO2
     T01600130=
KCOQ 080756Z AUTO 29004KT 10SM CLR 14/14 A3005 RMK AO2=
KCQM 080757Z AUTO 00000KT 10SM CLR 14/14 A3004 RMK AO2=
KCVH 080750Z AUTO 00000KT 10SM BKN012 12/11 A2993 RMK AO1=
KCWA 080755Z AUTO 30004KT 10SM SCT006 20/20 A3001 RMK AO2
     T01950195=
####018002184####
SAUS99 KWBC 080759 RRC
METAR
KFFM 080753Z AUTO 17003KT 10SM CLR 15/14 A3007 RMK AO2=
KFFX 080754Z AUTO 00000KT 7SM BKN060 OVC075 22/22 A3002 RMK
     AO2=
KFGN 080753Z AUTO 26009KT 1/2SM DZ VV005 18/13 A2996 RMK AO2=
KFPK 080755Z AUTO 00000KT 4SM BR CLR 21/20 A3002 RMK AO2=
KFSE 080754Z AUTO 20003KT 10SM CLR 13/12 A3004 RMK AO2=
KFSO 080758Z AUTO 00000KT 4SM BR CLR 23/22 A2999 RMK AO2=
KGDB 080752Z AUTO 24005KT 10SM CLR 15/14 A3013 RMK AO2
     T01450142=
KGHW 080753Z AUTO 22004KT 10SM CLR 14/13 A3013 RMK AO2=
KGLW 080753Z AUTO 00000KT 7SM CLR 21/20 A3007 RMK AO2
     T02130198=
KGYL 080754Z AUTO 00000KT 10SM CLR 16/15 A3009 RMK AO2
     T01580148=
KHAF 080750Z AUTO 00000KT 8SM OVC008 12/10 A2995 RMK AO2=
KHAI 080755Z AUTO 00000KT 5SM BR CLR 22/21 A3004 RMK AO2=
KHCD 080752Z AUTO 27003KT 10SM CLR 14/13 A3010 RMK AO2
     T01400129=
KHCO 080754Z AUTO 00000KT 10SM CLR 13/13 A3004 RMK AO2=
KHFJ 080755Z AUTO 00000KT 10SM SCT029 23/23 A3003 RMK AO1=
KHZX 080751Z AUTO 00000KT 4SM CLR 12/12 A3007 RMK AO2=
KIKW 080754Z AUTO 00000KT 7SM CLR 22/21 A3001 RMK AO2
     T02180207=
KIRS 080755Z AUTO 00000KT 10SM CLR 22/19 A3004 RMK AO2=
KJKJ 080754Z AUTO 22005KT 10SM CLR 16/15 A3006 RMK AO2=
KJMR 080758Z AUTO 31004KT 10SM CLR 15/13 A3007 RMK AO2=
KJVL 080755Z AUTO 17004KT 10SM OVC060 22/20 A2999 RMK AO2
     T02230201=
KJYG 080754Z AUTO 00000KT 10SM CLR 17/17 A3012 RMK AO2=
KJYM 080755Z AUTO 00000KT 7SM CLR 22/20 A3006 RMK AO2=
KLJF 080752Z AUTO 30003KT 10SM CLR 17/16 A3011 RMK AO2=
KLNL 080755Z AUTO 00000KT 7SM SCT004 SCT050 19/19 A3002 RMK AO2
     T01900185=
KLRD 080756Z AUTO 00000KT 10SM FEW011 26/24 A2990 RMK AO2
     T02610244 SLP111 $=
KLUM 080755Z AUTO 28005KT 10SM CLR 20/18 A3003 RMK AO2=
KLVN 080749Z AUTO 30005KT 10SM CLR 18/17 A3007 RMK AO2=
KLWA 080756Z AUTO 00000KT 10SM SCT055 OVC110 23/21 A3003 RMK
     AO2=
KLXL 080754Z AUTO 00000KT 5SM BR CLR 12/12 A3008 RMK AO2=
KLYV 080758Z AUTO 00000KT 10SM CLR 15/13 A3016 RMK AO2=
KM89 080756Z AUTO 00000KT 5SM BR OVC004 24/24 A3004 RMK AO2
     T02440238 SLP185=
KMDS 080745Z AUTO 29005KT 10SM CLR 14/14 A3016 RMK AO2=
####018003745####
SAUS99 KWBC 080759
METAR
KSDF 080756Z 00000KT 8SM CLR 27/21 A3005 RMK AO2 SLP170
     T02720206=
K1P1 080755Z AUTO 00000KT 1 1/2SM BR VV007 22/21 A3005 RMK AO2
     T02190208=
KART 080756Z AUTO 17003KT 7SM CLR 23/20 A3002 RMK AO2 SLP159
     T02280200=
KBED 080756Z AUTO 19006KT 3SM BR OVC009 24/22 A3004 RMK AO2 SLP180
     T02390217=
KBIX 080755Z AUTO 05004KT 10SM CLR 25/25 A3000 RMK AO2 SLP161
     T02540251=
KBJJ 080756Z AUTO 00000KT 3SM BR CLR 18/18 A3010 RMK AO2 SLP182
     T01830178=
KBVU 080755Z AUTO 32004KT 10SM CLR 27/00 A2985 RMK AO2=
KBZN 080756Z AUTO 18005KT 10SM CLR 11/04 A3026 RMK AO2 SLPNO
     T01110044=
KCTB 080756Z AUTO 26004KT 10SM CLR 12/06 A3024 RMK AO2 SLP219
     T01220061=
KCXY 080756Z AUTO 00000KT 6SM HZ CLR 23/19 A3001 RMK AO2 SLP158
     T02330194=
KDAY 080756Z 00000KT 9SM CLR 24/18 A3009 RMK AO2 SLP178 T02440183
     $=
KE80 080755Z AUTO 29005KT 10SM CLR 19/10 A3023 RMK AO2
     T01940103=
KEDC 080755Z AUTO 06004KT OVC012 25/24 A2996 RMK AO2=
KEED 080756Z AUTO 24006KT 10SM CLR 31/M03 A2973 RMK AO2 SLP030
     T03111033 404220250 TSNO=
KEIK 080755Z AUTO 18005KT 10SM OVC095 14/12 A3028 RMK AO2=
KELZ 080756Z AUTO 00000KT 4SM BR CLR 19/18 A3016 RMK AO2 SLP196
     T01940183=
KEOE 080755Z AUTO 00000KT 10SM CLR 22/20 A3003 RMK AO2=
KFMH 080755Z AUTO 16005KT 3SM BR OVC003 21/21 A3007 RMK AO2=
KGON 080756Z AUTO 00000KT 10SM BKN011 OVC070 23/21 A3003 RMK AO2
     SLP169 T02330211=
KHFF 080755Z AUTO 00000KT 10SM CLR 22/18 A2997 RMK AO2 SLP145
     T02210176 $=
KHPN 080756Z 00000KT 4SM BR BKN100 23/21 A3002 RMK AO2 SLP159
     T02330211=
KHWV 080756Z AUTO 15004KT 2SM BR OVC002 24/24 A3003 RMK AO2 SLP168
     T02390239=
KHYA 080756Z AUTO 18004KT 3SM BR OVC001 21/21 A3007 RMK AO2 SLP182
     T02110206=
KIFP 080755Z AUTO 04003KT 10SM CLR 31/M02 A2972 RMK AO2=
KIGX 080756Z AUTO 30003KT 7SM CLR 24/18 A2998 RMK AO2 SLP143
     T02440183 $=
KISP 080756Z 14005KT 4SM HZ SCT005 BKN060 BKN100 OVC130 26/23
     A3000 RMK AO2 SLP159 T02560228=
KITH 080756Z AUTO 08004KT 5SM BR CLR 21/19 A3010 RMK AO2 T02050188
     SLP184=
KJXN 080756Z 00000KT 8SM CLR 22/21 A3005 RMK AO2 SLP167
     T02220211=
KLAS 080756Z 22009KT 10SM CLR 30/M05 A2980 RMK AO2 SLP059
     T03001050 403940256=
KLFI 080755Z 09005KT 8SM R08/5500FT BKN008 BKN150 26/24 A2996 RMK
     AO2A BKN008 V SCT SLP145 T02560235 $=
KLUF 080755Z 10005KT 10SM CLR 29/07 A2975 RMK AO2A SLP042
     T02940065 $=
KMCF 080755Z AUTO 07005KT 10SM CLR 25/23 A2999 RMK AO2 SLP157
     T02470230=
KMDT 080756Z 00000KT 5SM HZ CLR 24/19 A3000 RMK AO2 SLP154
     T02440194=
KMXF 080755Z AUTO 22003KT 10SM CLR 26/25 A3001 RMK AO2 SLP161
     T02590246=
KPVF 080755Z AUTO 00000KT 10SM CLR 20/11 A2994 RMK AO1=
KRBW 080755Z AUTO 28005KT 10SM CLR 23/20 A2998 RMK AO2=
KRCM 080755Z AUTO 00000KT 7SM SCT003 BKN060 OVC090 22/22 A3004 RMK
     AO2=
KSGH 080756Z AUTO 00000KT 5SM BR CLR 21/21 A3010 RMK AO2 T02050205
     SLP181=
KSGJ 080758Z AUTO 28003KT 10SM CLR 22/20 A3001 RMK AO2 SLP161
     T02170200=
KSNC 080755Z AUTO 00000KT 3/4SM BR OVC001 22/ A3006 RMK AO2=
KTME 080755Z AUTO 04006KT 5SM 25/25 A2993 RMK AO1=
KUKI 080756Z AUTO 18004KT 10SM CLR 15/11 A2991 RMK AO2 SLP121
     T01500111 403220117=
KUOX 080755Z AUTO 00000KT 10SM CLR 22/21 A3007 RMK AO2=
KWJF 080756Z 28008KT 10SM CLR 19/02 A2989 RMK AO2 SLP100 T01940022
     403560150=
TJSJ 080756Z 10003KT 10SM CLR 27/24 A2998 RMK AO2 SLP150
     T02720244=
KTYS 080753Z 03003KT 9SM CLR 24/19 A3005 RMK AO2 SLP162
     T02440189=
KUKT 080750Z AUTO 00000KT 5SM CLR 22/20 A3003 RMK AO1=
KULM 080754Z AUTO 27005KT 10SM CLR 14/13 A3011 RMK AO2=
####018003741####
SAUS99 KWBC 080759 RRB
METAR
KDIJ 080756Z AUTO VRB03KT 10SM CLR 08/02 A3028 RMK AO2 T00770022
     SLP184 $=
KDRM 080756Z AUTO 13004KT 7SM CLR 20/20 A2997 RMK AO2=
KDTL 080755Z AUTO 26005KT 10SM CLR 18/12 A3009 RMK AO2=
KDUH 080754Z AUTO 00000KT 7SM CLR 22/18 A3004 RMK AO2=
KDXX 080754Z AUTO 00000KT 10SM CLR 15/15 A3011 RMK AO2=
KDYT 080754Z AUTO 30007KT 10SM SCT060 21/16 A3003 RMK AO2=
KEFK 080756Z AUTO 20003KT 5SM BR CLR 20/19 A3005 RMK AO2=
KEFT 080755Z AUTO 22004KT 10SM SCT080 BKN090 BKN120 21/20 A3000
     RMK AO2 T02080198=
KMDZ 080755Z AUTO 29005KT 1 1/4SM BR OVC001 20/19 A3002 RMK
     AO2=
KMGG 080755Z AUTO 28003KT 10SM CLR 15/15 A3009 RMK AO2
     T01500145=
KMGN 080754Z AUTO 00000KT 7SM SCT110 21/20 A2997 RMK AO2=
KMIA 080753Z COR 00000KT 10SM FEW030 SCT250 27/24 A2992 RMK AO2
     SLP133 98672 T02720244=
KMJQ 080752Z AUTO 30003KT 10SM CLR 15/14 A3013 RMK AO2=
KMOP 080754Z AUTO 00000KT 7SM SCT060 BKN120 22/22 A3001 RMK
     AO2=
KMOX 080750Z AUTO 23005KT 10SM CLR 17/15 A3007 RMK AO2=
KMRJ 080755Z AUTO 00000KT 10SM SCT120 21/19 A3001 RMK AO2
     T02050188=
KMRT 080753Z AUTO 00000KT 5SM CLR 21/19 A3011 RMK AO2
     T02080190=
KMVE 080754Z AUTO 28004KT 10SM CLR 18/16 A3010 RMK AO2=
KMWC 080755Z AUTO 22003KT 10SM BKN070 21/20 A3001 RMK AO2
     P0001=
KMWM 080753Z AUTO 28005KT 10SM CLR 15/14 A3012 RMK AO2=
KOEB 080755Z AUTO 00000KT 10SM CLR 23/20 A3005 RMK AO2=
KOEO 080755Z AUTO 00000KT 10SM CLR 19/17 A3008 RMK AO2=
KONA 080751Z AUTO 00000KT 7SM CLR 20/18 A3002 RMK AO2=
KOVL 080754Z AUTO 00000KT 7SM CLR 14/13 A3011 RMK AO2
     T01400125=
KOZW 080755Z AUTO 00000KT 7SM CLR 22/21 A3004 RMK AO2=
KPEX 080753Z AUTO 25005KT 7SM CLR 13/13 A3011 RMK AO2
     T01290125=
KPNM 080753Z AUTO 00000KT 10SM CLR 15/14 A3008 RMK AO2=
KPQN 080753Z AUTO 32003KT 10SM CLR 17/15 A3015 RMK AO2=
KPWC 080753Z AUTO 00000KT 1/2SM FG BKN001 11/10 A3008 RMK AO2=
KRFD 080754Z 15004KT 9SM -RA BKN008 OVC013 22/21 A3003 RMK AO2 CIG
     004V011 SLP162 P0001 T02220211=
KRGK 080755Z AUTO 28004KT 10SM CLR 20/18 A3003 RMK AO2=
KRNP 080755Z AUTO 00000KT 10SM CLR 22/21 A3002 RMK AO2=
KROG 080757Z AUTO 10SM CLR 23/22 A3007 RMK AO2 SLP167
     T02330222=
KROS 080755Z AUTO 30003KT 10SM CLR 17/15 A3006 RMK AO2
     T01650151=
KROX 080755Z AUTO 26005KT 10SM CLR 17/14 A3000 RMK AO2=
KRQB 080754Z AUTO 25008KT 10SM DZ BKN090 OVC110 23/21 A3004 RMK
     AO2=
KRRT 080754Z AUTO 24005KT 10SM CLR 16/13 A3000 RMK AO2=
KRZN 080754Z AUTO 30005KT 10SM OVC047 19/16 A3005 RMK AO2
     T01910162=
KSAZ 080754Z AUTO 00000KT 10SM CLR 15/15 A3008 RMK AO2=
KSGS 080753Z AUTO 31004KT 10SM CLR 20/17 A3006 RMK AO2
     T02000167=
KSHV 080756Z 11003KT 10SM SCT180 BKN280 25/24 A3000 RMK AO2 SLP155
     T02500239=
KSYN 080810Z AUTO 00000KT 10SM CLR 19/17 A3005 RMK AO2
     T01860170=
KTEW 080752Z AUTO 00000KT 7SM CLR 21/20 A3004 RMK AO2=
KTKC 080753Z AUTO 25005KT 10SM CLR 16/14 A3014 RMK AO2
     T01550139=
KTOB 080755Z AUTO 00000KT 10SM CLR 19/17 A3008 RMK AO2=
KTRI 080753Z 00000KT 6SM HZ CLR 22/19 A3009 RMK AO2 SLP169
     T02170189 $=
KTWM 080753Z AUTO 00000KT 10SM BKN050 17/14 A3000 RMK AO2=
KEGV 080752Z AUTO 28003KT 2 1/2SM BR OVC002 19/19 A3001 RMK AO2
     T01900190=
KEKQ 080756Z AUTO 00000KT 2SM BR CLR 19/19 A3010 RMK AO2 T01940188
     SLP188=
KELO 080753Z AUTO 00000KT 7SM CLR 13/12 A3003 RMK AO2=
KETB 080753Z AUTO 00000KT 10SM -RA SCT120 22/21 A3000 RMK AO2
     P0001 T02200206=
KEVM 080752Z AUTO 27004KT 7SM CLR 13/12 A3002 RMK AO1=
KEZS 080755Z AUTO 24003KT 10SM OVC005 22/22 A2997 RMK AO2 P0002
     T02230215=
KFBL 080754Z AUTO 30006KT 10SM CLR 18/16 A3008 RMK AO2=
####018000199####
SPUS99 KWBC 080759
SPECI
KIJD 080756Z AUTO 14003KT 1 1/2SM BR OVC003 22/22 A3005 RMK AO2
     CIG 001V005=
KBMQ 080757Z AUTO 08004KT 10SM FEW008 BKN013 OVC033 24/22 A3001
     RMK AO2 $=
####018000088####
SPCN31 KWBC 080759
SPECI
CYTL 080756Z AUTO 21004KT 9SM FEW043 BKN078 17/14 A2982=
####018000081####
SAMJ41 LWSK 080800
METAR LWSK 080800Z 01002KT 9999 BKN050 17/12 Q1019 NOSIG=
####018000079####
SPCN46 CWAO 080758
SPECI CYBN 080758Z AUTO 00000KT 1SM CLR 20/18 A3003=

####018000106####
SAHW31 KMSC 080758
SPECI PHLI 080757Z 06011KT 10SM FEW023 BKN049 OVC070 24/19 A3007 RMK 
    AO2 $=
####018000082####
SABZ24 SBPA 080800
METAR SBPA 080800Z 19004KT 9999 BKN023 OVC045 17/14 Q1017=
####018000083####
SABZ24 SBFI 080800
METAR SBFI 080800Z 21004KT 9999 FEW020 SCT100 16/13 Q1014 =
####018000069####
SABZ18 SBGR 080800
METAR SBGR 080800Z 07006KT CAVOK 12/11 Q1020=
####018000069####
SABZ23 SBGL 080800
METAR SBGL 080800Z 00000KT CAVOK 15/13 Q1018=
####018000134####
SAUS46 KSEW 080759 COR
MTRSMP
METAR KSMP 080756Z AUTO 00000KT 10SM CLR 17/04 A3016 RMK AO2 SLP180 
T01720039 402440100 TSNO $
####018000087####
SARS18 KAWN 080800 RRA
METAR ESSA 080750Z 24009KT 200V280 CAVOK 22/11 Q1017 NOSIG=
####018000404####
SAGL KAWN 080800
METAR BGBW 080750Z 08002KT 9999 SCT068 09/05 Q1009 RMK 3AC=
METAR BGCO 080750Z 01016KT 9999 FEW016 SCT080 BKN140 05/01 Q1008=
METAR BGGH 080750Z AUTO 01003KT 9999NDV OVC003/// 05/03 Q1010=
METAR BGJN 080750Z AUTO 35002KT 0350NDV FG VV001/// 05/05 Q1010=
METAR BGKK 080750Z 09004KT 030V170 9999 FEW100 BKN160 06/03 Q1008=
METAR BGSF 080750Z 07008KT 9999 FEW060 08/02 Q1009=
####018000135####
SAUS41 KAKQ 080759
MTRWAL
METAR KWAL 080754Z AUTO 10005KT 9SM OVC095 25/23 A2999 RMK AO2 
RAB44E54 SLP151 P0000 T02500228 TSNO
####018000167####
SANL32 EHDB 080755
METAR EHEH 080755Z AUTO 26004KT 9999NDV NCD 26/13 Q1019 
BLU BLU=
METAR EHKD 080755Z AUTO 23010KT 9999NDV OVC100/// 20/15 Q1018 
BLU BLU=
####018000388####
SAUK38 EGGY 080750
METAR EGEC 080750Z 22011KT 9999 FEW025 15/10 Q1012=
METAR EGPA 080750Z 20014KT 9999 SCT030 BKN045 16/11 Q1006=
METAR EGPC 080750Z 19011KT 9999 FEW024 SCT041 14/11 Q1007=
METAR EGPL 080750Z 22021KT 9999 FEW018 14/11 Q1006=
METAR EGPM 080750Z NIL=
METAR EGPO 080750Z 22018G29KT 9999 -SHRA FEW014CB BKN035 12/10
    Q1004 RESHRA=
METAR EGPU 080750Z NIL=
####018000481####
SAGR33 LGAT 080750
METAR LGHI 080750Z 06003KT 9999 FEW020 SCT030 29/18 Q1010=
METAR LGKC 080750Z NIL=
METAR LGKF 080750Z 34015KT 9999 FEW025 27/16 Q1013=
METAR LGKP 080750Z 32019KT CAVOK 28/16 Q1008=
METAR LGKZ 080750Z 33018KT 9999 SCT020 SCT070 18/07 Q1017=
METAR LGMK 080750Z 01027G40KT 9999 FEW012 24/18 Q1012=
METAR LGNX 080750Z 36014G24KT 9999 FEW020 26/20 Q1011=
METAR LGPA 080750Z 01018KT CAVOK 28/20 Q1011=
METAR LGSO 080750Z 01010KT CAVOK 28/17 Q1011=
####018000443####
SAGR32 LGAT 080750
METAR LGAL 080750Z NIL=
METAR LGEL 080750Z 01015G25KT 9999 FEW025 SCT080 26/18 Q1012=
METAR LGKV 080750Z 12008KT 9999 SCT020TCU 19/16 Q1013=
METAR LGMT 080750Z 01011KT 9999 FEW020 SCT130 28/17 Q1010=
METAR LGPZ 080750Z 28015KT 9999 FEW025 28/19 Q1013 NOSIG=
METAR LGRX 080750Z NIL=
METAR LGSK 080750Z NIL=
METAR LGSR 080750Z 35014KT CAVOK 29/15 Q1010 NOSIG=
METAR LGZA 080750Z 35008KT CAVOK 30/15 Q1013=
####018000075####
SASU01 HSSS 080800
METAR HSSS 080800Z 10006KT CAVOK 37/11 Q1010 NOSIG=
####018000115####
SAGR32 LGAT 080750 RRA
METAR LGAL 080750Z 08009KT 6000 -RA SCT006 FEW020TCU BKN025 BKN080
      15/14 Q1015=
####018000550####
SAUK36 EGGY 080750
METAR EGBE 080750Z NIL=
METAR EGBJ 080750Z 23003KT 9999 FEW020 17/11 Q1018=
METAR EGCN 080750Z 23011KT 9999 FEW035 17/11 Q1017=
METAR EGDL 080750Z 25004KT 9999 FEW012 SCT100 BKN150 16/13 Q1019
    TEMPO SCT020=
METAR EGSC 080750Z NIL=
METAR COR EGSD 080750Z 24008KT 9999 FEW012 SCT030 21/17 Q1018 NOSIG=
METAR COR EGSH 080750Z 25008KT 220V290 9999 -RA FEW011 BKN029 20/16
    Q1018 NOSIG=
METAR EGVN 080750Z NIL=
METAR EGWU 080750Z 28007KT 4500 RADZ FEW004 BKN007 OVC014 16/16
    Q1019 BECMG 6000 -RADZ=
####018000085####
SAGR32 LGAT 080750 RRB
METAR LGRX 080750Z 27007KT 9999 FEW025 28/20 Q1012 NOSIG=
####018000462####
SAUK37 EGGY 080750
METAR EGAE 080750Z 21010KT 9999 FEW015 SCT050 14/10 Q1011=
METAR EGNC 080750Z 23011KT 200V260 9999 SCT035 15/11 Q1014=
METAR EGNH 080750Z 22012KT 9999 FEW022 17/11 Q1016=
METAR EGNJ 080750Z 22010KT 9999 -RA SCT025 16/12 Q1017=
METAR EGNR 080750Z 19007KT 150V240 9999 FEW025 16/12 Q1017=
METAR EGPE 080750Z 22014G25KT 9999 FEW022 SCT048 16/10 Q1008=
METAR EGPI 080750Z 21015KT 9999 FEW018 14/10 Q1012=
METAR EGPN 080750Z NIL=
####018000123####
SAUS44 KBMX 080759 COR
MTRLOR
METAR KLOR 080753Z AUTO 00000KT 9SM CLR 22/20 A3001 RMK AO2 SLP159 
T02170200 TSNO $
####018000120####
SAUS45 KPSR 080759 COR
MTRALK
METAR KALK 080756Z AUTO 09008KT 10SM FEW110 24/08 A3007 RMK AO2 
SLP077 T02390078
####018000084####
SABC40 FBSK 080800
METAR FBSK 080800Z 09012KT 9999 SCT020 15/10 Q1033 NOSIG=

####018000556####
SAGR31 LGAT 080750
METAR LGAD 080750Z 32012KT 9999 FEW020 27/19 Q1013=
METAR LGAV 080750Z 03017KT 9999 FEW020 SCT030 27/13 Q1012 NOSIG=
METAR LGIR 080750Z 04004KT CAVOK 29/19 Q1010 NOSIG=
METAR LGKL 080750Z 33007KT 9999 FEW030 30/15 Q1011=
METAR LGKO 080750Z 31016KT CAVOK 28/17 Q1009=
METAR LGKR 080750Z 30016KT CAVOK 27/12 Q1012 NOSIG=
METAR LGLM 080750Z NIL=
METAR LGRP 080750Z 24015KT CAVOK 29/20 Q1007 NOSIG=
METAR LGSA 080750Z 29008KT CAVOK 31/16 Q1011=
METAR LGSM 080750Z NIL=
METAR LGTS 080750Z 33021KT 9999 FEW025 22/12 Q1016 NOSIG=
####018000114####
SAGR32 LGAT 080750 RRA
METAR LGAL 080750Z 08009KT 6000 -RA SCT006 FEW020TCU BKN025 BKN080
      15/14 Q1015=
####018000473####
SAGR33 LGAT 080750
METAR LGHI 080750Z 06003KT 9999 FEW020 SCT030 29/18 Q1010=
METAR LGKC 080750Z NIL=
METAR LGKF 080750Z 34015KT 9999 FEW025 27/16 Q1013=
METAR LGKP 080750Z 32019KT CAVOK 28/16 Q1008=
METAR LGKZ 080750Z 33018KT 9999 SCT020 SCT070 18/07 Q1017=
METAR LGMK 080750Z 01027G40KT 9999 FEW012 24/18 Q1012=
METAR LGNX 080750Z 36014G24KT 9999 FEW020 26/20 Q1011=
METAR LGPA 080750Z 01018KT CAVOK 28/20 Q1011=
METAR LGSO 080750Z 01010KT CAVOK 28/17 Q1011=
####018000435####
SAGR32 LGAT 080750
METAR LGAL 080750Z NIL=
METAR LGEL 080750Z 01015G25KT 9999 FEW025 SCT080 26/18 Q1012=
METAR LGKV 080750Z 12008KT 9999 SCT020TCU 19/16 Q1013=
METAR LGMT 080750Z 01011KT 9999 FEW020 SCT130 28/17 Q1010=
METAR LGPZ 080750Z 28015KT 9999 FEW025 28/19 Q1013 NOSIG=
METAR LGRX 080750Z NIL=
METAR LGSK 080750Z NIL=
METAR LGSR 080750Z 35014KT CAVOK 29/15 Q1010 NOSIG=
METAR LGZA 080750Z 35008KT CAVOK 30/15 Q1013=
####018000107####
SAUS46 KLOX 080759
MTR3A6
METAR K3A6 080850Z AUTO 36003KT 11/10 A2990 RMK AO1 SLP144 T01110098 52009
####018000081####
SABC40 FBSK 080800
METAR FBSK 080800Z 09012KT 9999 SCT020 15/10 Q1033 NOSIG=
####018000448####
SAAK41 KNKA 080759
METAR PAFS 080756Z AUTO 06004KT 10SM CLR 17/06 A3000 RMK AO2 TSNO 
    T01720055 402220033 SLP165 $=
METAR PAMB 080756Z AUTO 36006KT 10SM BKN055 11/08 A2993 RMK AO2 
    PWINO TSNO T01050077 BKN V SCT SLP138 $=
METAR PAVA 080757Z AUTO 03005KT 10SM BKN070 OVC080 12/10 A3011 RMK 
    AO2 RAB00E42 SLP197 P0001 T01170100=
METAR PPIZ 080756Z AUTO 20012KT 10SM CLR 06/02 A3010 RMK AO2 TSNO 
    T00610022 SLP197 $=
####018002933####
SAUS20 KNKA 080759
METAR K4M9 080755Z AUTO 18005KT 8SM CLR 24/24 A3004 RMK AO2 =
METAR KAEJ 080755Z AUTO 00000KT 10SM OVC044 10/08 A3046 RMK AO2=
METAR KBBF 080855Z AUTO VRB07G16KT 8SM SCT023 SCT029 30/27 A2980
     RMK A01=
METAR KBQX 080755Z AUTO 12017G29KT 10SM FEW023 FEW034 OVC047 29/26
     A2984 RMK A01=
METAR KDCM 080755Z AUTO 29003KT 10SM CLR 23/21 A3000 RMK AO2 LTG 
     DSNT SE=
METAR KDLP 080755Z AUTO 13011KT 10SM BKN017 BKN050 29/25 A2998 RMK
     A01=
METAR KEDU 080755Z AUTO 19005KT 10SM CLR 15/10 A2981 RMK AO1=
METAR KEHC 080755Z AUTO 12027KT 7SM FEW018 FEW026 29/25 A2991 RMK
     A01=
METAR KEIR 080755Z AUTO VRB05G14KT 10SM FEW017 28/25 A2996 RMK A01=
METAR KEMK 080755Z AUTO 14025KT 7SM CLR 29/25 A2985 RMK A01=
SPECI KFAF 080754Z 14005KT 9SM RA BKN080 26/26 A2995 RMK AO2A RAB0754
      SLP142=
METAR KGBK 080755Z AUTO 09017G28KT 10SM FEW032 FEW038 FEW045 29/25
     A2989 RMK A01=
SPECI KGRR 080758Z AUTO 25008KT 2SM +RA BR SCT011 BKN029 OVC060 
    24/22 A3006 RMK AO2 P0011=
METAR KGTB 080755Z AUTO 21004KT 10SM R33/5500VP6000FT CLR 22/20 A3003
      RMK AO2 SLP168 T02230201=
METAR KGYH 080755Z AUTO 30004KT 10SM CLR 24/19 A3003 RMK AO2=
METAR KHQI 080755Z AUTO 11029KT 4SM HZ FEW003 BKN055 OVC075 27/24
     A2989 RMK A01=
METAR KHXD 080755Z AUTO 23005KT 10SM CLR 24/21 A2998 RMK AO2 P0000 
     =
METAR KHYW 080755Z AUTO 00000KT 10SM BKN095 BKN120 25/23 A2994 RMK 
     AO2=
METAR KIPN 080755Z AUTO 10011KT 10SM CLR /58 A2998 RMK A01=
METAR KJZI 080755Z AUTO 28009KT 10SM CLR 24/23 A2996 RMK A02 P000 
     =
METAR KMCJ 080755Z AUTO 12008G16KT 10SM CLR 27/24 A2989 RMK AO1 =
METAR KMDJ 080755Z AUTO 13016KT 10SM BKN019 BKN065 29/25 A2998 RMK
     A01=
METAR KMEI 080758Z AUTO 00000KT 10SM CLR 23/22 A3003 RMK AO2 SLP167 
    P0002 T02280222=
METAR KMHR 080755Z AUTO 17006KT 10SM CLR 14/10 A2984 RMK AO1=
METAR KMIU 080755Z AUTO 12017KT 10SM FEW038 SCT046 BKN060 29/25
     A2981 RMK A01=
METAR KMYT 080755Z AUTO 14016KT 10SM FEW020 28/24 A2995 RMK A01=
METAR KMZG 080755Z AUTO 00000KT 8SM FEW019 FEW026 SCT031 29/25
     A2981 RMK A01=
METAR KNQX 080753Z AUTO 05003KT 10SM CLR 28/25 A2992 RMK AO2 SLP131
      T02830250 $=
METAR KNRB 080752Z AUTO 00000KT 10SM CLR 24/21 A3000 RMK AO2 SLP159
      T02390206=
METAR KPAM 080755Z AUTO 35005KT 10SM CLR 24/24 A3000 RMK AO2 SLP161
      T02380237=
METAR KPBH 080755Z AUTO 00000KT 3/4SM BR OVC001 21/20 A3003 RMK 
     AO2=
METAR KPCZ 080755Z AUTO 00000KT 7SM OVC004 22/21 A2997 RMK AO2 
     T02220208=
METAR KPDC 080753Z AUTO 00000KT 7SM OVC006 23/21 A3001 RMK AO2 
     T02250212=
METAR KPSM 080755Z 15003KT 2SM BR BKN003 OVC006 21/21 A3004 RMK AO2A
      SLP173 T02120206=
METAR KRCX 080755Z AUTO 00000KT 10SM CLR 19/18 A3003 RMK AO2 
     T01910182=
METAR KRNH 080756Z AUTO 31004KT 10SM BKN044 18/17 A3006 RMK AO2 
     T01810168=
####018001269####
SAUS20 KNKA 080759
METAR KRPD 080754Z AUTO 29003KT 10SM CLR 19/17 A3005 RMK AO2 
     T01850172=
METAR KRRL 080755Z AUTO 00000KT 7SM CLR 19/18 A3002 RMK AO2 
     T01850180=
METAR KRYV 080755Z AUTO 15003KT 10SM BKN012 BKN060 BKN090 23/20 
     A2999 RMK AO2=
METAR KSCF 080800Z AUTO 15019KT 8SM FEW017 SCT023 SCT029 29/26
     A2990 RMK A01=
METAR KSPF 080755Z AUTO 00000KT 10SM CLR 11/08 A3028 RMK AO2 =
METAR KSTE 080755Z AUTO 22004KT 4SM -RA OVC014 22/21 A3000 RMK 
     AO2 P0001=
METAR KSUW 080755Z AUTO 29005KT 10SM CLR 18/14 A3001 RMK AO2=
METAR KTKV 080755Z AUTO 00000KT 1 1/2SM BR VV007 17/16 A3003 RMK 
     AO2 T01710164=
METAR KTTS 080755Z 33001KT 10SM FEW030 FEW290 21/20 A2998 RMK SLP152
      1CU /0/ 1CI /0/=
METAR KUES 080755Z AUTO 00000KT 7SM BKN055 OVC070 21/20 A3002 RMK 
     AO2 T02110196=
METAR KUNU 080752Z AUTO 14003KT 7SM -RA SCT110 21/20 A3000 RMK 
     AO2 P0001 T02080195=
METAR KVBS 080755Z AUTO 12023G29KT 10SM BKN020 BKN027 BKN048 29/25
     A2992 RMK A01=
METAR KVNP 080755Z AUTO 11010G16KT 7SM 28/26 A2996 RMK A01=
METAR KWRB 080755Z 00000KT 10SM CLR 21/21 A3002 RMK AO2A SLP162 T02130212=
METAR KY50 080756Z AUTO 23005KT 5SM BR OVC002 22/22 A2998 RMK AO2 
    T02220222 SLP144 $=
####018000122####
SAUS42 KFFC 080759 COR
MTRMCN
METAR KMCN 080753Z AUTO 00000KT 10SM CLR 21/19 A3002 RMK AO2 SLP161 
T02110194 TSNO
####018003678####
SAUS99 KWBC 080800
METAR
PAFS 080756Z AUTO 06004KT 10SM CLR 17/06 A3000 RMK AO2 TSNO
     T01720055 402220033 SLP165 $=
PAMB 080756Z AUTO 36006KT 10SM BKN055 11/08 A2993 RMK AO2 PWINO
     TSNO T01050077 BKN V SCT SLP138 $=
PAVA 080757Z AUTO 03005KT 10SM BKN070 OVC080 12/10 A3011 RMK AO2
     RAB00E42 SLP197 P0001 T01170100=
PPIZ 080756Z AUTO 20012KT 10SM CLR 06/02 A3010 RMK AO2 TSNO
     T00610022 SLP197 $=
K4M9 080755Z AUTO 18005KT 8SM CLR 24/24 A3004 RMK AO2=
KAEJ 080755Z AUTO 00000KT 10SM OVC044 10/08 A3046 RMK AO2=
KBBF 080855Z AUTO VRB07G16KT 8SM SCT023 SCT029 30/27 A2980 RMK
     A01=
KBQX 080755Z AUTO 12017G29KT 10SM FEW023 FEW034 OVC047 29/26 A2984
     RMK A01=
KDCM 080755Z AUTO 29003KT 10SM CLR 23/21 A3000 RMK AO2 LTG DSNT
     SE=
KDLP 080755Z AUTO 13011KT 10SM BKN017 BKN050 29/25 A2998 RMK
     A01=
KEDU 080755Z AUTO 19005KT 10SM CLR 15/10 A2981 RMK AO1=
KEHC 080755Z AUTO 12027KT 7SM FEW018 FEW026 29/25 A2991 RMK
     A01=
KEIR 080755Z AUTO VRB05G14KT 10SM FEW017 28/25 A2996 RMK A01=
KEMK 080755Z AUTO 14025KT 7SM CLR 29/25 A2985 RMK A01=
KGBK 080755Z AUTO 09017G28KT 10SM FEW032 FEW038 FEW045 29/25 A2989
     RMK A01=
KGTB 080755Z AUTO 21004KT 10SM R33/5500VP6000FT CLR 22/20 A3003
     RMK AO2 SLP168 T02230201=
KGYH 080755Z AUTO 30004KT 10SM CLR 24/19 A3003 RMK AO2=
KHQI 080755Z AUTO 11029KT 4SM HZ FEW003 BKN055 OVC075 27/24 A2989
     RMK A01=
KHXD 080755Z AUTO 23005KT 10SM CLR 24/21 A2998 RMK AO2 P0000=
KHYW 080755Z AUTO 00000KT 10SM BKN095 BKN120 25/23 A2994 RMK
     AO2=
KIPN 080755Z AUTO 10011KT 10SM CLR /58 A2998 RMK A01=
KJZI 080755Z AUTO 28009KT 10SM CLR 24/23 A2996 RMK A02 P000=
KMCJ 080755Z AUTO 12008G16KT 10SM CLR 27/24 A2989 RMK AO1=
KMDJ 080755Z AUTO 13016KT 10SM BKN019 BKN065 29/25 A2998 RMK
     A01=
KMEI 080758Z AUTO 00000KT 10SM CLR 23/22 A3003 RMK AO2 SLP167
     P0002 T02280222=
KMHR 080755Z AUTO 17006KT 10SM CLR 14/10 A2984 RMK AO1=
KMIU 080755Z AUTO 12017KT 10SM FEW038 SCT046 BKN060 29/25 A2981
     RMK A01=
KMYT 080755Z AUTO 14016KT 10SM FEW020 28/24 A2995 RMK A01=
KMZG 080755Z AUTO 00000KT 8SM FEW019 FEW026 SCT031 29/25 A2981 RMK
     A01=
KNQX 080753Z AUTO 05003KT 10SM CLR 28/25 A2992 RMK AO2 SLP131
     T02830250 $=
KNRB 080752Z AUTO 00000KT 10SM CLR 24/21 A3000 RMK AO2 SLP159
     T02390206=
KPAM 080755Z AUTO 35005KT 10SM CLR 24/24 A3000 RMK AO2 SLP161
     T02380237=
KPBH 080755Z AUTO 00000KT 3/4SM BR OVC001 21/20 A3003 RMK AO2=
KPCZ 080755Z AUTO 00000KT 7SM OVC004 22/21 A2997 RMK AO2
     T02220208=
KPDC 080753Z AUTO 00000KT 7SM OVC006 23/21 A3001 RMK AO2
     T02250212=
KPSM 080755Z 15003KT 2SM BR BKN003 OVC006 21/21 A3004 RMK AO2A
     SLP173 T02120206=
KRCX 080755Z AUTO 00000KT 10SM CLR 19/18 A3003 RMK AO2
     T01910182=
KRNH 080756Z AUTO 31004KT 10SM BKN044 18/17 A3006 RMK AO2
     T01810168=
KRPD 080754Z AUTO 29003KT 10SM CLR 19/17 A3005 RMK AO2
     T01850172=
KRRL 080755Z AUTO 00000KT 7SM CLR 19/18 A3002 RMK AO2
     T01850180=
KRYV 080755Z AUTO 15003KT 10SM BKN012 BKN060 BKN090 23/20 A2999
     RMK AO2=
KSCF 080800Z AUTO 15019KT 8SM FEW017 SCT023 SCT029 29/26 A2990 RMK
     A01=
KSPF 080755Z AUTO 00000KT 10SM CLR 11/08 A3028 RMK AO2=
KSTE 080755Z AUTO 22004KT 4SM -RA OVC014 22/21 A3000 RMK AO2
     P0001=
KSUW 080755Z AUTO 29005KT 10SM CLR 18/14 A3001 RMK AO2=
KTKV 080755Z AUTO 00000KT 1 1/2SM BR VV007 17/16 A3003 RMK AO2
     T01710164=
KTTS 080755Z 33001KT 10SM FEW030 FEW290 21/20 A2998 RMK SLP152 1CU
     /0/ 1CI /0/=
KUES 080755Z AUTO 00000KT 7SM BKN055 OVC070 21/20 A3002 RMK AO2
     T02110196=
####018000498####
SAUS98 KWBC 080800
METAR PACZ 080755Z AUTO 09010KT 10SM 11/08 A3007 RMK AO1 T01110084=
METAR PALU 080755Z AUTO 21023G26KT 10SM CLR 13/01 A3009 RMK AO1
T01330012=
METAR PAIM 080755Z AUTO 31003KT 10SM CLR 14/08 A3008 RMK AO1
T01440078=
METAR PATL 080755Z AUTO 04005KT 10SM SCT110 17/06 A3000 RMK AO1
T01670056=
METAR PAEH 080755Z AUTO 00000KT 10SM BKN009 OVC020 09/M28 A3001
RMK AO1 T00941283=
METAR PASV 080755Z AUTO 00000KT 10SM SCT090 SCT100 10/09 A2997 RMK
AO1 T01000095=
