####018000073####
SAIN31 EGGY 081400
METAR VOBG 081400Z NIL=
METAR VOCI 081400Z NIL=
####018000122####
SACN48 CWAO 081400 CCB
METAR CYLA 081400Z CCB 26012G17KT 12SM -SHRA BKN012 OVC017 13/11
A2970 RMK SC7SC1 SLP061=

####018000095####
SPUS81 KWBC 081410
SPECI
KNYC 081408Z AUTO VRB04KT 5SM -RA BR FEW018 BKN032 25/23 A3008=
####018000073####
SAAL41 DAMM 081400 RRA
METAR DAUK 081400Z 00000KT CAVOK 37/16 Q1017=
####018000113####
SAAK41 KNKA 081410
SPECI PAOU 081409Z AUTO 09004KT M1/4SM FG OVC004 06/06 A2992 RMK AO2 
    PWINO TSNO $=
####018000085####
SAIR33 OIII 081400 RRA
METAR OIBL 081350Z 21008KT 4000 HZ SKC 36/27 Q0999 A2951=
####018000190####
SAUS20 KNKA 081410
SPECI KHOT 081409Z AUTO 00000KT 10SM SCT011 BKN016 OVC034 26/23 
    A3011 RMK AO2=
SPECI KLAR 081409Z AUTO 21003KT 10SM BKN004 OVC017 10/09 A3042 RMK 
    AO2=
####018000086####
SAIR33 OIII 081400 RRB
METAR OIHH 081350Z 15006KT 9999 FEW040 39/M05 Q1013 A2994=
####018000068####
SAUY41 SUSO 081400
METAR SUSO 081400Z 12005KT CAVOK 11/05 Q1020=
####018001227####
SAUS99 KWBC 081411
METAR
KCCA 081415Z AUTO 00000KT 10SM BKN010 BKN016 25/23 A3010 RMK
     AO2=
KCDN 081415Z AUTO 33003KT 10SM CLR 32/22 A2999 RMK A02 P000=
KCKI 081415Z AUTO 32004KT 10SM CLR 31/20 A2996 RMK AO2=
KHQZ 081409Z AUTO 11005KT 10SM SCT013 OVC060 27/23 A3006 RMK
     AO2=
KLRO 081415Z AUTO 33005KT 8SM CLR 29/21 A2995 RMK AO2=
KMKS 081415Z AUTO 34005KT 10SM CLR 30/20 A2996 RMK AO2 TSNO=
KSLO 081405Z AUTO 24008KT 10SM BKN048 BKN110 29/23 A3006 RMK AO2
     LTG DSNT N AND NW T02900225=
KSOA 081400Z AUTO 08005KT 8SM 24/22 A3011 RMK AO2=
KT82 081405Z AUTO 06005KT 24/22 A3005 RMK AO1 T02410219=
KTAZ 081405Z AUTO 23003KT 10SM VCTS SCT015 27/23 A3005 RMK AO2 LTG
     DSNT S=
KTFP 081406Z AUTO 07003KT 10SM TS SCT012 BKN043 OVC055 27/26 A2987
     RMK AO2 LTG DSNT NE AND W P0002 T02700257=
KTIP 081405Z AUTO 24003KT 10SM CLR 28/25 A3005 RMK AO2
     T02750247=
KTYQ 081405Z AUTO 21006KT 10SM CLR 28/22 A3006 RMK AO2=
KUVA 081405Z AUTO 04010KT 10SM CLR 26/23 A2997 RMK AO2
     T02620227=
KVYS 081405Z AUTO 32004KT 10SM BKN009 BKN016 BKN026 25/22 A3004
     RMK AO2 LTG DSNT S T02500217=
KXBP 081405Z AUTO 14005KT 10SM OVC029 26/23 A3006 RMK AO2
     T02590231=
####018000086####
SANL33 EHDB 081355 RRC
METAR EHSA 081355Z AUTO 22007G08KT 9999 17/16 Q1019 W16/S2=
####018000086####
SANL33 EHDB 081355 RRB
METAR EHSC 081355Z AUTO 17004G04KT 9999 18/16 Q1019 W///S2=
####018000086####
SANL33 EHDB 081355 RRA
METAR EHJR 081355Z AUTO 26009G10KT //// 16/15 Q1019 W16/S2=
####018000129####
SAEW40 LEMM 081400
METAR LEBG 081400Z 14010KT 9999 SCT048 31/12 Q1020=
METAR LEHC 081400Z 11008KT 070V150 CAVOK 36/15 Q1020=
####018000465####
SPUS99 KWBC 081411
SPECI
KRKP 081409Z AUTO 10010KT 1 1/2SM +RA SCT009 BKN027 OVC041 A2987
     RMK AO2 LTG DSNT SW TSE07 P0007 FZRANO=
KTKI 081408Z 13005KT 7SM -RA BKN027 BKN049 25/24 A3006 RMK AO2
     P0001=
PAOU 081409Z AUTO 09004KT M1/4SM FG OVC004 06/06 A2992 RMK AO2
     PWINO TSNO $=
KHOT 081409Z AUTO 00000KT 10SM SCT011 BKN016 OVC034 26/23 A3011
     RMK AO2=
KLAR 081409Z AUTO 21003KT 10SM BKN004 OVC017 10/09 A3042 RMK
     AO2=
####018000033####
SAQB31 LQTZ 081400
METAR
NIL
####018000107####
SPAF31 KWBC 081411
SPECI
DXXX 081403Z 20012KT 9999 TS FEW016 FEW025CB 28/24 Q1012 BECMG
4500 TSRA=
####018000325####
SAEQ01 SEQU 081400
METAR
SEQU 081400Z 33001KT 9999 FEW040 SCT300 16/08 Q1028 RMK A3036 
GUSTY 25004G16KT RWY17 NOSIG=
SEGU 081400Z  19005KT 6000S 8000N -DZ FEW010 BKN020 OVC080  
22/20 Q1013 TEMPO 8000N NOSIG=
SEMT 081400Z 21004KT 9999 BKN020 BKN100 24/19 Q1013=
SELT 081400Z VRB01KT 9999 FEW030 SCT300 12/07 Q1032=
####018000082####
SAPK31 OPST 081350
METAR OPST 081400Z 18006KT 4000 HZ FEW040 37/20 Q1003 RH37=
####018000350####
SAPO31 LPMG 081400
METAR LPFR 081400Z 25010KT CAVOK 24/20 Q1016=
METAR LPMA 081400Z VRB08G18KT 9999 FEW016 24/17 Q1020 RS17008KT
0520007KT 2336017KT=
METAR LPPR 081400Z 20007KT 160V230 9999 FEW006 SCT250 24/18 Q1016=
METAR LPPS 081400Z 03012KT 350V060 9999 FEW016 SCT030 22/15 Q1021=
METAR LPPT 081400Z 26010KT 9999 FEW030 29/19 Q1016 NOSIG=
####018000747####
SACI31 ZBBB 081400
METAR ZBAA 081400Z 14003MPS CAVOK 29/18 Q1006 NOSIG=
METAR ZBSJ 081400Z 16002MPS 7000 NSC 26/21 Q1006 NOSIG=
METAR ZBTJ 081400Z 14003MPS CAVOK 26/18 Q1006 NOSIG=
METAR ZBYN 081400Z 08007MPS CAVOK 26/14 Q1009 NOSIG=
METAR ZGGG 081400Z 16003MPS 9999 SCT030 32/26 Q1007 NOSIG=
METAR ZSHC 081400Z VRB01MPS 5000 -RA BR FEW007 SCT026 26/23 Q1005
 NOSIG=
METAR ZSPD 081400Z 11007MPS 9999 SCT009 26/24 Q1005 NOSIG=
METAR ZSSS 081400Z 12004MPS 9999 SCT016 27/23 Q1005 NOSIG=
METAR ZWSH 081400Z 25003MPS 9999 FEW040CB SCT040 32/01 Q1013 NOSIG=
METAR ZWWW 081400Z 20006MPS 9999 FEW033CB 29/08 Q1011 NOSIG=
METAR ZYTL 081400Z 30003MPS 4000 BR NSC 23/20 Q1007 NOSIG=
METAR ZYTX 081400Z VRB01MPS 9999 FEW030 19/18 Q1007 NOSIG=
####018000372####
SAEW37 LEMM 081400
METAR LEBR 081400Z AUTO 10011KT CAVOK 38/14 Q1016=
METAR LEGA 081400Z 18019KT 9999 FEW060TCU 38/13 Q1018=
METAR LEGT 081400Z 00000KT 9999 TSRA SCT025 FEW050CB 28/16 Q1017=
METAR LEMO 081400Z VRB04KT CAVOK 33/18
Q1015 NOSIG=
METAR LERI 081400Z 07012KT 020V110 CAVOK 33/20 Q1018 NOSIG=
METAR LERT 081400Z 29009KT 240V320 CAVOK 26/20 Q1016 NOSIG=
####018000083####
SAGL31 BGSF 081350 RRB
METAR BGJN 081350Z 31004KT 9999 VCFG FEW030 08/05 Q1009=
####018000080####
SPAK32 KWBC 081411
SPECI
PATC SP 1415 AWOS CLR BLO 120 10 46/43/0109/013=
####018000377####
SAAP32 FAPR 081400
METAR FABL 081400Z 01008KT 340V050 9999 FEW050 18/02 Q1030 NOSIG=
METAR FAJS 081400Z 05010KT 9999 SCT045 16/03 Q1032 NOSIG=
METAR FDMS 081400Z 00000KT 9999 SCT035 19/12 Q1029 NOSIG=
METAR FLLS 081400Z 07012KT 9/9 SCT045 FEW100 18/08 Q1027=
METAR FQBR 081400Z 17009KT 9999 FEW020 24/19 Q1024=
METAR FXMM 081400Z 36018KT 9999 FEW035 17/01 Q1032 NOSIG=
####018000097####
SAHK31 VHHH 081400
METAR VHHH 081400Z 19007KT 150V240 9999 FEW020 SCT030 31/25 
Q1008 NOSIG=
####018000083####
SAGL41 BGSF 081350 RRD
METAR BGJN 081350Z 31004KT 9999 VCFG FEW030 08/05 Q1009=
####018000543####
SABY31 UMMN 081400
UMBB NIL=
METAR UMGG 081400Z 28004MPS 9999 SCT050CB BKN100 26/16 Q1014
R28/290550 NOSIG=
METAR UMII 081400Z 22004MPS P6000 BKN015CB 21/18 Q1014 R23/CLRD//
TEMPO 2000 SHRA BKN005 =
METAR UMMG 081400Z 31005G08MPS 9999 BKN023 BKN066 21/12 Q1016
R35/CLRD// NOSIG=
METAR UMMM 081400Z 25005G08MPS 9999 OVC013CB 17/14 Q1015 R30/CLRD//
NOSIG RMK QFE742=
METAR UMMS 081400Z 28002MPS 240V330 9999 OVC014 18/15 Q1015
R31/CLRD// NOSIG=
METAR UMOO 081400Z 31003MPS 9999 -SHRA BKN024CB BKN/// 22/18 Q1013
R31/290056 NOSIG=
####018000109####
SAVN29 SVCS 081400
METAR SVCS 081400Z 06010KT 8000 RA BKN060 SCT030 28/XX Q1017=
METAR SVMP 081400Z NIL=
####018000090####
SPBX31 KWBC 081411
SPECI
EBBE 081405Z 26006KT 9999 SKC 31/09 Q1019 BLU FCST CANCEL=
####018000157####
SPAU31 KWBC 081411
SPECI
YPPH 081400Z 01011KT 9999 -SHRA FEW022 SCT042 13/13 Q0996 RMK WBD
0.3 INTER 1400/1700 29030G50KT 2000 TSGS BKN010 FEW030CB=
####018000416####
SAMG20 FMMI 081400
METAR 081400Z
METAR FMNA 081400Z 12019KT 9999 FEW020 SCT040 25/17 Q1016=
METAR FMNM 081400Z 16006KT CAVOK 30/13 Q1016=
METAR FMMI 081400Z 15007KT 110V180 9999 SCT020 BKN023 16/14 Q1026
 NOSIG=
METAR FMMT 081400Z 22010KT 9999 VCSH SCT017 SCT033 22/20 Q1021=
METAR FMSD 081400Z 06010KT 8000 VCSH SCT017 BKN033 20/17 Q1025=
METAR FMCH 081400Z 22009KT 200V260 9999 FEW025 28/19 Q1018 NOSIG=
####018000078####
SAGR33 LGAT 081350 RRA
METAR LGPA 081350Z 02016KT 9999 FEW025 26/17 Q1012=
####018000143####
SAGY31 SYCJ 081400
METAR SYCJ  081400Z 11012KT 9999 RESH SCT019 SCT039 BKN300 28/26 
Q1009=

SYGO 1400Z 08010KT 9999 BKN020 30/25 Q1012=
####018000077####
SAAG SAVC 081400
METAR SAVC 081400Z  27014KT 9999  FEW040  06/M01
Q1002=
####018000067####
SAAG SAZM 081400
METAR SAZM 081400Z  32018KT CAVOK 12/03 Q1014=
####018000102####
SPUS31 KWBC 081411
SPECI
KIAH 081408Z 09007KT 7SM RA FEW007 SCT022 BKN075 OVC130 24/24
A2999=
####018000112####
SPPR41 KWBC 081411
SPECI
SPECI SLTR 081402Z 15010KT 3000 -RA FEW008 SCT017 FEW020CB OVC070
22/21 Q1015=
####018000074####
SAAG01 SABM 081400 RRC
METAR SADF 081400Z  32003KT CAVOK 13/04 Q1019=
####018000197####
SATD31 TTPP 081400 RRA
METAR
TTPP 081400Z 00000KT 8000 -RA FEW004 FEW010CB SCT014 BKN035 26/25
Q1013 NOSIG=
TTCP 081400Z 09014KT 9999 -TSRA FEW010CB SCT015 BKN080 29/24 Q1014
TEMPO TSRA=
 
####018000401####
SAMG20 FMMI 081400
METAR FMNA 081400Z 12019KT 9999 FEW020 SCT040 25/17 Q1016=
METAR FMNM 081400Z 16006KT CAVOK 30/13 Q1016=
METAR FMMI 081400Z 15007KT 110V180 9999 SCT020 BKN023 16/14 Q1026
 NOSIG=
METAR FMMT 081400Z 22010KT 9999 VCSH SCT017 SCT033 22/20 Q1021=
METAR FMSD 081400Z 06010KT 8000 VCSH SCT017 BKN033 20/17 Q1025=
METAR FMCH 081400Z 22009KT 200V260 9999 FEW025 28/19 Q1018 NOSIG=
####018000093####
SPUS43 KWBC 081411
SPECI
KGRR 081408Z 00000KT 3SM BR BKN008 BKN046 OVC095 24/22 A3003=
####018000309####
SAEE31 LOWM 081400
METAR UACK 081400Z NIL=
METAR UACP 081400Z NIL=
METAR UAII 081400Z NIL=
METAR UADD 081400Z 09002MPS 9999 NSC 31/06 Q1012 NOSIG RMK
QFE702/0937=
METAR UASK 081400Z 03004MPS 9999 FEW033 FE300 21/13 Q1011
                   120/0060 NOSIG RMK QFE733=
METAR UASP 081400Z NIL=
####018000391####
SAID31 WIII 081400
METAR WIMM 081400Z 24010KT 5000 FEW016CB BKN017 28/25 Q1012 NOSIG= 
METAR WARR 081400Z 00000KT 7000 TSRA FEW020CB SCT020 25/21 Q1011= 
METAR WAAA 081400Z 10001KT 9999 FEW020 25/25 Q1011= 
METAR WIII 081400Z 27005KT 7000 SCT020 25/22 Q1012 NOSIG= 
METAR WADD 081400Z 32004KT 9999 FEW020 27/26 Q1011 NOSIG= 
METAR WIHH NIL=
METAR WABB NIL=
METAR WIDD NIL=
####018000229####
SANG31 YBBN 081400
METAR AYPY 081400Z NIL=
METAR AYWK 081400Z NIL=
METAR AYVN 081400Z NIL=
METAR AYNZ 081400Z NIL=
METAR AYMH 081400Z NIL=
METAR AYGN 081400Z NIL=
METAR AYMO 081400Z NIL=
METAR AGGH 081400Z NIL=
####018000047####
SAID31 EGGY 081400
METAR WALL 081400Z NIL=
####018000165####
SAID33 WIII 081400
METAR WABP NIL=
METAR WAJJ NIL=
METAR WAKK NIL=
METAR WAPP NIL=
METAR WARS NIL=
METAR WIAT NIL=
METAR WATT NIL=
METAR WALR NIL=
####018000548####
SAAO33 DRRN 081400
METAR DBBB 081400Z 22011KT 9999 SCT012 SCT120 29/25 Q1012 NOSIG=
METAR DFFD 081400Z 17006KT 140V200 9999 FEW040CB BKN130 31/20 Q1014
TEMPO 4000 TSRA=
METAR DGAA 081400Z 20015KT 9999 SCT016 BKN250 31/23 Q1012 NOSIG=
METAR DNKN 081400Z NIL=
METAR DNMM 081400Z 26013KT 9999 BKN012 FEW020CB 29/26 Q1014 NOSIG=
METAR DRRN 081400Z 18005KT 150V220 CAVOK 34/17 Q1011 NOSIG=
METAR DXXX 081400Z 20011KT 9999 FEW016 FEW025CB 28/23 Q1012 NOSIG=
METAR FTTJ 081400Z 33008KT 9999 FEW040 FEW050CB BKN140 30/19 Q1011
NOSIG=
####018000341####
SAAL31 DAAA 081400
METAR DAAG 081400Z 04017KT CAVOK 34/15 Q1018=
METAR DAAT 081400Z NIL=
METAR DABB 081400Z 02014KT CAVOK 26/21 Q1018=
METAR DABC 081400Z 33006KT CAVOK 34/08 Q1022=
METAR DAON 081400Z 02008KT 9999 FEW026 39/19 Q1015=
METAR DAOO 081400Z 36012KT CAVOK 35/22 Q1015=
METAR DAUH 081400Z 06010KT CAVOK 40/21 Q1016=
####018001481####
SAAU31 YBBN 081400
METAR YPAD 081400Z 03005KT 9999 FEW047 05/03 Q1025=
METAR YBAS 081400Z AUTO 09005KT 9999NDV // NCD 07/06 Q1021=
METAR YBBN 081400Z 21008KT 9999 SCT040 13/10 Q1020
NOSIG=
METAR YBCS 081400Z 15007KT 9999 FEW025 SCT050 22/19 Q1016=
METAR YSCB 081400Z AUTO 00000KT 9999NDV // SCT025 02/01 Q1028=
METAR YPXM 081400Z AUTO 21005KT //// // NCD 22/19 Q1015=
METAR YPCC 081400Z AUTO 14010KT 9999NDV // SCT023 OVC041 26/22 Q1014=
METAR YCFS 081400Z AUTO 23011KT 9999NDV // SCT055 14/09 Q1023=
METAR YPDN 081400Z 18007KT CAVOK 24/21 Q1014=
METAR YBCG 081400Z AUTO 19012KT 9999NDV // BKN100 15/12 Q1021=
METAR YHID 081400Z AUTO 16009KT 9999NDV // NCD 25/22 Q1013=
METAR YPJT 081400Z AUTO 03008KT 9999NDV // SCT025 SCT044 BKN062 13/12
Q0996=
METAR YPKU 081400Z AUTO 16005KT 9999NDV // NCD 22/16 Q1015=
METAR YPLM 081400Z AUTO 23003KT 9999NDV // SCT021 SCT039 OVC046 19/17
Q1010=
METAR YMML 081400Z 36008KT CAVOK 04/03 Q1028
RMK HZ
FM1400 VRB03KT 4000 BR SKC=
METAR YPPH 081400Z 01011KT 9999 -SHRA FEW022 SCT042 13/13 Q0996
RMK WBD 0.3
INTER 1400/1700 29030G50KT 2000 TSGS BKN010 FEW030CB=
METAR YSSY 081400Z 26010KT 9999 VCSH FEW010 SCT019 11/10 Q1027
FM1400 22008KT 9999 -SHRA SCT020 BKN045
INTER 1400/1700 5000 SHRA BKN010=
METAR YSTW 081400Z AUTO 16006KT 9999NDV // NCD 06/04 Q1024=
METAR YPTN 081400Z AUTO 09005KT 9999NDV // NCD 22/15 Q1015=
METAR YBTL 081400Z AUTO 13008KT 9999NDV // SCT010 OVC018 21/19 Q1017=
####018000367####
SAID32 WIII 081400
METAR WAMM 081400Z 03003KT 9999 FEW027 24/22 Q1011 NOSIG= 
METAR WIPT 081400Z 00000KT 7000 R33/M0050N FEW020 26/24 Q1012= 
METAR WIOO 081400Z 03003KT 7000 FEW011CB BKN012 25/24 Q1012 NOSIG = 
METAR WIPP 081400Z 00000KT 7000 HZ FEW015 25/24 Q1011= 
METAR WIBB NIL=
METAR WIKN NIL=
METAR WAOO NIL=
METAR WALL NIL=
METAR WADA NIL=
####018000079####
SAUK33 EGGY 081350 RRB
METAR EGGP 081350Z 24012KT 9999 SCT046 20/09 Q1017=
####018001353####
SAAU32 YBBN 081400
METAR YAMB 081400Z AUTO 22001KT 9999NDV // SCT100 11/09 Q1021=
METAR YMAV 081400Z AUTO 32003KT 9999NDV // BKN046 07/04 Q1028=
METAR YBRM 081400Z AUTO 36004KT 9999NDV // BKN026 OVC031 23/22 Q1012=
METAR YCIN 081400Z AUTO 09007KT //// // ////// 22/18 Q1013=
METAR YSDU 081400Z AUTO 16010KT 9999NDV // NCD 07/05 Q1026=
METAR YFRT 081400Z AUTO 03007KT //// // ////// 11/03 Q1013=
METAR YGEL 081400Z AUTO 29017KT 9999NDV // NCD 17/11 Q1001=
METAR YPGV 081400Z AUTO 16008KT 9999NDV // SCT012 SCT021 BKN033 24/22
Q1014=
METAR YBHM 081400Z AUTO 15014KT //// // ////// 18/15 Q1018=
METAR YMHB 081400Z 31006KT CAVOK 02/01 Q1030=
METAR YPKG 081400Z AUTO 35005KT 9999NDV // NCD 16/05 Q1003=
METAR YMLT 081400Z AUTO 21005KT 0400NDV // ////// 00/M00 Q1030
RMK CLD:SKY MAY BE OBSC=
METAR YBMA 081400Z AUTO 00000KT 6000NDV // NCD 08/07 Q1020=
METAR YSNF 081400Z AUTO 12009KT 9999NDV // OVC041 15/08 Q1018=
METAR YPEA 081400Z AUTO 36009KT 9999NDV // BKN062 BKN071 13/12 Q0996=
METAR YPPD 081400Z AUTO 03003KT 5000NDV // OVC029 22/21 Q1010=
METAR YSRI 081400Z AUTO 21004KT 9999NDV // SCT044 SCT061 OVC071 10/10
Q1027=
METAR YBRK 081400Z AUTO 27003KT 9999NDV // OVC030 13/12 Q1019=
METAR YWLM 081400Z AUTO 29005KT 9999NDV // ////// 09/09 Q1026=
METAR YPWR 081400Z AUTO 10005KT 9999NDV // NCD 06/01 Q1023=
####018001725####
SASD20 OEJD 081400
METAR OEAB 081400Z 05016KT 9999  FEW020 SCT070 31/M03 Q1019 NOSIG=
METAR OEAH 081400Z 02013KT CAVOK 45/02 Q1000 NOSIG=
METAR OEBA 081400Z 08008KT 9999 SCT030 36/03 Q1015 NOSIG=
METAR OEBH 081400Z 02012KT CAVOK 39/03 Q1010 NOSIG=
METAR OEDF 081400Z 05012KT CAVOK 41/09 Q0999 NOSIG=
METAR OEDM 081400Z 10010KT CAVOK 40/03 Q1010=
METAR OEDR 081400Z 03011KT 8000 SKC 39/21 Q0997 NOSIG=
METAR OEGN 081400Z 26009KT CAVOK 36/29 Q0999 NOSIG=
METAR OEGS 081400Z 34009KT CAVOK 44/06 Q1007=
METAR OEGT 081400Z NIL=
METAR OEHL 081400Z 33008KT 9999 SCT040 42/01 Q1011 NOSIG=
METAR OEJN 081400Z 30012KT CAVOK 35/25 Q1001 NOSIG=
METAR OEKB 081400Z NIL=
METAR OEKJ 081400Z NIL=
METAR OEKK 081400Z 02015KT CAVOK 45/13 Q1005=
METAR OEKM 081400Z 06010KT 8000 SCT022 30/04 Q1011 NOSIG=
METAR OEMA 081400Z 09010KT 9999 SCT045 47/M04 Q1003 NOSIG=
METAR OEMH 081400Z NIL=
METAR OEMK 081400Z 27003KT CAVOK 43/25 Q1000=
METAR OENG 081400Z 03010KT 4000 DU SCT030 SCT080 39/M01 Q1009 NOSIG=
METAR OEPA 081400Z 33012KT CAVOK 44/05 Q1003=
METAR OERF 081400Z 36002KT CAVOK 44/12 Q1005=
METAR OERK 081400Z 01016KT 8000 SKC 42/M02 Q1006 NOSIG=
METAR OERR 081400Z 27007KT CAVOK 45/10 Q1005=
METAR OERY 081400Z 05020KT 6000 BLDU SKC 43/00 Q1006 NOSIG=
METAR OESH 081400Z 06005KT 6000 SKC 40/16 Q1001 NOSIG=
METAR OESK 081400Z 27011KT CAVOK 44/01 Q1007=
METAR OETB 081400Z 00000KT CAVOK 42/05 Q1007 NOSIG=
METAR OETF 081400Z 00000KT 9999  SCT030 SCT080 38/01 Q1014 NOSIG=
METAR OETR 081400Z 25006KT CAVOK 40/05 Q1009=
METAR OEWD 081400Z 04014KT 4000 BLDU SKC 44/11 Q1003=
METAR OEWJ 081400Z 30018KT CAVOK 32/25 Q1003=
METAR OEYN 081400Z 28016KT 7000 SKC 45/14 Q0998 NOSIG=
####018000051####
SAID31 EGGY 081400 RRA
METAR WALL 081400Z NIL=
####018000095####
SACZ41 LKPW 081400
METAR LKKU 081400Z NIL=
METAR LKLB 081400Z VRB05KT CAVOK 26/06 Q1022=
####018000138####
SAIY43 LIIB 081400 RRA
METAR LIBN 081355Z 35023G33KT CAVOK 25/11 Q1017 RMK FEW FEW200 VIS
      MIN 9999 WIND THR14 34020G32KT BLU=
####018000102####
SPUS72 KWBC 081411
SPECI
KIAH 081408Z 09007KT 7SM RA FEW007 SCT022 BKN075 OVC130 24/24
A2999=
####018000093####
SPUS73 KWBC 081411
SPECI
KGRR 081408Z 00000KT 3SM BR BKN008 BKN046 OVC095 24/22 A3003=
####018001464####
SARS18 KAWN 081400 RRD
METAR UELL 081400Z VRB01MPS 0800 FG FEW030 BKN200 12/11 Q1012 TEMPO
      0400 VV002 RMK QFE684 08290050=
METAR UHMM 081400Z 24001MPS 9999 OVC009 12/11 Q1016 RMK QFE747 88010070=
METAR UHNN 081400Z 07002MPS 9999 FEW010 BKN024CB OVC070 11/10 Q1013
      RMK QFE755=
METAR UIAA 081400Z VRB02MPS 9999 VCTS SCT033CB OVC100 18/16 Q1008 NOSIG
      RMK QFE698 29CLRD70=
METAR UIBB 081400Z 04003MPS 9999 BKN200 22/13 Q1006 NOSIG RMK QFE712/0949
      30CLRD60=
METAR UIII 081400Z 17004MPS CAVOK 17/10 Q1007 NOSIG RMK QFE713/0951
      12CLRD60=
METAR UIUU 081400Z 00000MPS 9999 SCT033CB OVC100 20/15 Q1008 NOSIG
      RMK QFE712/0949 26CLRD60=
METAR ULLI 081400Z 20002MPS 110V230 9999 SCT046CB BKN066 BKN200 27/18
      Q1013 TEMPO TSRA=
METAR ULWW 081400Z 17004MPS 9999 SCT050TCU OVC/// 31/15 Q1016 NOSIG
      RMK QFE751 15CLRD60=
METAR UUDD 081400Z 15005MPS 130V200 9999 FEW050TCU BKN200 29/15 Q1015
      TEMPO VRB12MPS TSRA=
METAR UUEE 081400Z 16005MPS 9999 SCT050CB BKN200 29/13 Q1015 NOSIG=
METAR UWGG 081400Z 12003MPS 100V170 8000 FEW033 34/08 Q1015 NOSIG RMK
      QFE754 18090070=
METAR UWKD 081400Z 32003G06MPS 280V350 CAVOK 32/12 Q1014 TEMPO VRB15MPS
      3000 TSRA RMK QFE750/1000 79CLRD70=
METAR UWOO 081400Z 06004MPS P5000 FEW220 32/02 Q1012 26/LRD65 NOSIG
      RMK QFE748/0998=
METAR UWPP 081400Z 14004MPS 9999 SCT033CB BKN100 32/09 Q1013 NOSIG
      RMK QFE745 11090060=
####018000093####
SPUS81 KWBC 081411
SPECI
KGRR 081408Z 00000KT 3SM BR BKN008 BKN046 OVC095 24/22 A3003=
####018000081####
SPUS81 KWBC 081411
SPECI
KRSP 081408Z AUTO 08003KT 4SM HZ CLR 29/18 A3011=
####018000208####
SAUS17 KAWN 081400 RRE
METAR K79J 081356Z 00000KT 10SM CLR 31/23 A3004 RMK AO2 SLP166 T03110233
      $=
METAR KNUQ 081356Z AUTO 04003KT 10SM OVC011 15/12 A2994 RMK AO2 SLP141
      T01500122 TSNO=
####018000762####
SANA35 KAWN 081400 RRD
METAR CYAW 081400Z 23010KT 12SM BKN004 OVC013 22/19 A3017 RMK SF6SC2
      DA+950FT VIS LWR SEAWD 6 SM SLP219=
METAR KNGP 081356Z COR 10007KT 7SM -RA FEW009 SCT016CB BKN025 27/26
      A2984 RMK AO2 RAB12 SLP105 CB DSNT NE AND SW TCU DSNT SE-S
      WR// P0007 T02730261 $=
METAR MKJP 081400Z 12012KT 9999 FEW022 BKN260 29/21 Q1013=
METAR MYGF 081400Z 11006KT 9999 SCT018CB 30/24 A2998 RMK CB S/SW /=
METAR SAWH 081400Z 00000KT 9999 FEW030 SCT100 00/M01 Q0982=
METAR TFFR 081405Z 10014KT 9999 BKN030 31/24 Q1015 NOSIG=
METAR TTPP 081400Z 00000KT 8000 -RA FEW004 FEW010CB SCT014 BKN035 26/25
      Q1013 NOSIG=
METAR TXKF 081355Z 12015KT 9999 SCT020CB SCT033 BKN130 BKN300 27/24
      Q1019 RMK CB DSNT SE-SW /=
####018000077####
SAZZ40 KAWN 081200 RRX
METAR COR DABT 081200Z 36010KT CAVOK 35/04 Q1022=
####018000086####
SAAK41 KNKA 081411
SPECI PASN 081409Z 06013KT 1/2SM FG VV001 05/05 A2992 RMK AO2=
####018000761####
SAUS20 KNKA 081411
METAR K5C1 081409Z AUTO 06008KT 10SM BKN008 OVC012 25/23 A3001 
     RMK AO1=
METAR KBNL 081415Z AUTO 34008KT 10SM CLR 32/19 A2999 RMK AO2 =
SPECI KBRO 081410Z 31007KT 10SM FEW005 SCT033 SCT070 27/26 A2978 RMK 
    AO2=
SPECI KCLL 081410Z 09009KT 9SM BKN011 OVC017 27/23 A2999 RMK AO2 LTG 
    DSNT SE=
METAR KCQW 081415Z AUTO 35004KT 4SM  HZ CLR 32/19 A2998 RMK AO2 =
METAR KDUC 081412Z AUTO 04006KT 10SM CLR 26/23 A3007 RMK AO2=
SPECI KEWB 081410Z 13010KT 10SM SCT018 27/21 A3009 RMK AO2=
SPECI KIXD 081410Z 02007KT 9SM BKN010 24/21 A3012 RMK AO2 CIG 
    008V012=
METAR KLKR 081415Z AUTO 01005KT 7SM CLR 31/22 A3000 RMK AO2 =
METAR KONM 081407Z AUTO 35005KT 10SM SCT080 20/15 A3027 RMK AO2 
     T01960146=
####018001570####
SAZZ40 KAWN 081400 RRP
METAR BGJN 081350Z 31004KT 9999 VCFG FEW030 08/05 Q1009=
METAR DAAE 081400Z 09010KT CAVOK 28/21 Q1019=
METAR DAAJ 081400Z 03010KT CAVOK 37/04 Q1018=
METAR DAAV 081400Z 02014KT CAVOK 29/24 Q1019=
METAR DABT 081400Z 34017KT CAVOK 36/03 Q1022=
METAR DAOB 081400Z 01007KT CAVOK 39/07 Q1022=
METAR DAOF 081400Z 18006KT 4500 HZ FEW046 45/// Q1013=
METAR DAUB 081400Z 21010KT CAVOK 38/14 Q1015=
METAR DAUG 081400Z 12008KT CAVOK 39/11 Q1019=
METAR DAUK 081400Z 00000KT CAVOK 37/16 Q1017=
METAR DAUO 081400Z 00000KT CAVOK 39/16 Q1016=
METAR DAUT 081400Z ///18KT 4000 DRSA NSC 44/08 Q1014=
METAR DAUU 081400Z 04010KT CAVOK 40/15 Q1016=
METAR KNEL 081406Z AUTO 16007KT 7SM BKN012 OVC095 27/21 A3004 RMK AO2
      SLP172 T02720211 $=
METAR MKJP 081400Z 12012KT 9999 FEW022 BKN260 29/21 Q1013=
METAR MYGF 081400Z 11006KT 9999 SCT018CB 30/24 A2998 RMK CB S/SW /=
METAR OEGS 081400Z 34009KT CAVOK 44/06 Q1007=
METAR OEHL 081400Z 33008KT 9999 SCT040 42/01 Q1011 NOSIG=
METAR OEKK 081400Z 02015KT CAVOK 45/13 Q1005=
METAR OERF 081400Z 36002KT CAVOK 44/12 Q1005=
METAR OERR 081400Z 27007KT CAVOK 45/10 Q1005=
METAR OETR 081400Z 25006KT CAVOK 40/05 Q1009=
METAR OEWJ 081400Z 30018KT CAVOK 32/25 Q1003=
METAR OEYN 081400Z 28016KT 7000 SKC 45/14 Q0998 NOSIG=
METAR OIII 081400Z 15006KT CAVOK 40/M04 Q1012 A2989 877/5=
METAR TTPP 081400Z 00000KT 8000 -RA FEW004 FEW010CB SCT014 BKN035 26/25
      Q1013 NOSIG=
METAR UUYY 081400Z VRB02MPS 9999 FEW036 OVC200 30/15 Q1015 NOSIG 19CLRD61
      RMK QFE752/1003=
####018000096####
SAUS98 KWBC 081412
METAR KEHA 081408Z AUTO 02013KT 17/16 RMK AO1 PK WND 15 005
T01720156=
####018000415####
SAUS99 KWBC 081412
METAR
K5C1 081409Z AUTO 06008KT 10SM BKN008 OVC012 25/23 A3001 RMK
     AO1=
KBNL 081415Z AUTO 34008KT 10SM CLR 32/19 A2999 RMK AO2=
KCQW 081415Z AUTO 35004KT 4SM HZ CLR 32/19 A2998 RMK AO2=
KDUC 081412Z AUTO 04006KT 10SM CLR 26/23 A3007 RMK AO2=
KLKR 081415Z AUTO 01005KT 7SM CLR 31/22 A3000 RMK AO2=
KONM 081407Z AUTO 35005KT 10SM SCT080 20/15 A3027 RMK AO2
     T01960146=
####018000376####
SPUS99 KWBC 081412
SPECI
PASN 081409Z 06013KT 1/2SM FG VV001 05/05 A2992 RMK AO2=
KBRO 081410Z 31007KT 10SM FEW005 SCT033 SCT070 27/26 A2978 RMK
     AO2=
KCLL 081410Z 09009KT 9SM BKN011 OVC017 27/23 A2999 RMK AO2 LTG
     DSNT SE=
KEWB 081410Z 13010KT 10SM SCT018 27/21 A3009 RMK AO2=
KIXD 081410Z 02007KT 9SM BKN010 24/21 A3012 RMK AO2 CIG
     008V012=
####018000333####
SAPO32 LPMG 081400
METAR LPAZ 081400Z 24006KT 9999 BKN016 BKN030 21/19 Q1025=
METAR LPFL 081400Z 20007KT 170V280 9999 FEW021TCU SCT040 24/17 Q1021=
METAR LPHR 081400Z 22006KT 9999 FEW015 23/19 Q1023=
METAR LPLA 081400Z 00000KT 9999 SCT013 BKN028 21/19 Q1024=
METAR LPPD 081400Z 19005KT 130V230 9999 FEW016 BKN030 21/16 Q1024=
####018001659####
SAIY40 LIIB 081400
METAR LIMG 081350Z 08008KT 9999 SCT040 30/25 Q1020 RMK VIS MIN 9999=
METAR LIMK 081355Z 18002KT CAVOK 23/12 Q1023 RMK SKC VAL NIL VIS MIN
      9999=
METAR LIMN 081355Z /////KT CAVOK 28/16 Q1020 RMK FEW FEW200 VIS MIN
      9999 BLU=
METAR LIMP 081350Z 05006KT 010V100 CAVOK 30/15 Q1021 RMK VIS MIN
9999=
METAR LIMS 081355Z 07006KT 020V130 CAVOK 30/15 Q1020 RMK SKC VIS MIN
      9999 WIND THR30 07005KT BLU=
METAR LIMZ 081350Z 05005KT 8000 FEW035 SCT060 26/18 Q1022 RMK VIS
MIN 8000=
METAR LIPA 081400Z NIL=
METAR LIPB 081350Z 18015KT CAVOK 31/12 Q1018 RMK MON LIB VIS MIN
9999=
METAR LIPC 081400Z NIL=
METAR LIPF 081355Z 11003KT 9999 FEW050 29/19 Q1020 RMK FEW VIS MIN
      9999=
METAR LIPH 081345Z 14005KT 9999 FEW025 28/21 Q1021 RMK FEW VIS MIN
      9999 WIND THR07 /////KT BLU=
METAR LIPI 081355Z 19009KT 9999 FEW040 27/20 Q1021 RMK FEW VIS MIN
     9999 WIND THR06 25005KT BLU=
METAR LIPL 081355Z 16004KT 9999 FEW036 30/17 Q1021 RMK FEW VIS MIN
      9999 BLU=
METAR LIPO 081350Z 14004KT 100V200 CAVOK 29/13 Q1020 RMK VIS MIN
9999=
METAR LIPQ 081350Z 26004KT CAVOK 28/15 Q1021=
METAR LIPR 081345Z 07012KT CAVOK 28/19 Q1021 RMK SKC VIS MIN 9999
      WIND THR31 09011KT BLU=
METAR LIPS 081355Z 12004KT 9999 SCT030 28/18 Q1021 RMK SCT VIS MIN
      9999 BLU=
METAR LIPX 081345Z 23003KT 9999 FEW040 30/14 Q1020 RMK FEW VIS MIN
      9999 BLU=
METAR LIPY 081350Z 05010KT CAVOK 26/14 Q1021 RMK VIS MIN 9999=
METAR LIVC 081355Z 00000KT 9999 SCT001 16/11 Q1031 RMK SCT MON LIB
      VAL NIL VIS MIN 9999=
METAR LIVP 081355Z VRB03KT 9999 FEW003 15/11 Q1029 RMK FEW MON LIB
      VAL NIL VIS MIN 9999=
####018000108####
SAKA31 PTRO 081400
METAR PTRO 081359Z 07005KT 14SM BKN016CB BKN120 OVC300 26/24 A2992 
RMK CB VC ALQDS
####018000096####
SAMG20 FMMI 081400
METAR FMMI 081400Z 15007KT 110V180 9999 SCT020 BKN023 16/14 Q1026
NOSIG=
####018000844####
SARA34 RUMS 081400
METAR UNAA 081400Z VRB01MPS 9999 SCT030CB BKN100 17/13 Q1012 NOSIG
RMK QFE736 022///55=
METAR UNBB 081400Z 14002MPS 9999 SCT040 SCT100 14/11 Q1009 NOSIG RMK
QFE735=
METAR UNEE 081400Z 22004MPS 9999 SCT033CB BKN066 OVC200 16/10 Q1009
NOSIG RMK QFE734 23CLRD60=
METAR UNKL 081400Z VRB02MPS 9999 SCT028CB BKN083 13/12 Q1011 NOSIG
RMK QFE732 29////55=
METAR UNNT 081400Z VRB02MPS 9999 BKN055CB BKN100 18/05 Q1007 NOSIG
RMK QFE745/0994 25090070=
METAR UNOO 081400Z 30004G07MPS 9999 BKN030CB 14/09 Q1008 NOSIG
25CLRD06 RMK QFE747=
METAR UNWW 081400Z 14002MPS 9999 SCT026 OVC130 13/09 Q1011 NOSIG RMK
QFE731 19CLRD70=
METAR USTR 081400Z 33002MPS CAVOK 19/07 Q1012 NOSIG RMK QFE749/0999
30CLRD65=
METAR USHH 081400Z 33003G07MPS 250V010 9999 -SHRA BKN010CB OVC080
10/09 Q1009 TEMPO 3000 BR BKN006 RMK QFE753 SC06=
####018000470####
SARA31 RUMS 081400
METAR UEEE 081400Z 04003MPS 9999 SCT050CB OVC100 16/15 Q1008 NOSIG
RMK QFE748 23290150=
METAR UELL 081400Z VRB01MPS 0800 FG FEW030 BKN200 12/11 Q1012 TEMPO
0400 VV002 RMK QFE684 08290050=
METAR UERP 081400Z 03004MPS 9999 SCT040 12/06 Q1015 NOSIG RMK QFE717
35090065=
METAR UERR 081400Z VRB02MPS CAVOK 14/14 Q1012 NOSIG RMK QFE728
24CLRD60=
METAR UESO 081400Z NIL=
METAR UEST 081400Z 19002MPS 9999 -RA OVC130 05/03 Q1018 NOSIG RMK
QFE762=
####018000554####
SARA32 RUMS 081400
METAR UHHH 081400Z 02003MPS 9999 SCT023CB OVC100 16/15 Q1011 NOSIG
RMK QFE752/1002 55090060=
METAR UHMA 081400Z NIL=
METAR UHMM 081400Z 24001MPS 9999 OVC009 12/11 Q1016 RMK QFE747
88010070=
METAR UHMP 081400Z NIL=
METAR UHNN 081400Z 07002MPS 9999 FEW010 BKN024CB OVC070 11/10 Q1013
RMK QFE755=
METAR UHPP 081400Z NIL=
METAR UHSH 081400Z NIL=
METAR UHSS 081400Z 00000MPS 9999 BKN016 13/13 Q1011 RMK MT OBSC
QFE757/1009=
METAR UHWW 081400Z 12001MPS 9999 SCT013 BKN023CB OVC100 16/15 Q1011
NOSIG RMK QFE757/1010 75CLRD70=
####018000265####
SARS34 RUMS 081400
METAR UUYH 081400Z 18002MPS CAVOK 27/11 Q1015 NOSIG RMK QFE 750
18CLRD60=
METAR UUYS 081400Z 17003MPS CAVOK 21/06 Q1014 NOSIG RMK QFE754
14CLRD60=
METAR UUYY 081400Z VRB02MPS 9999 FEW036 OVC200 30/15 Q1015 NOSIG
19CLRD61 RMK QFE752/1003=
####018000381####
SARA33 RUMS 081400
METAR UIAA 081400Z VRB02MPS 9999 VCTS SCT033CB OVC100 18/16 Q1008
NOSIG RMK     QFE698 29CLRD70=
METAR UIBB 081400Z 04003MPS 9999 BKN200 22/13 Q1006 NOSIG RMK
QFE712/0949 30CLRD60=
METAR UIII 081400Z 17004MPS CAVOK 17/10 Q1007 NOSIG RMK QFE713/0951
12CLRD60=
METAR UIUU 081400Z 00000MPS 9999 SCT033CB OVC100 20/15 Q1008 NOSIG
RMK QFE712/0949 26CLRD60=
####018000120####
SAPQ50 KWBC 081400 RRD
METAR
PTRO 081359Z 07005KT 14SM BKN016CB BKN120 OVC300 26/24 A2992 RMK
     CB VC ALQDS=
####018000371####
SARA35 RUMS 081400
METAR ULDD 081400Z NIL=
METAR UOHH 081400Z 06003MPS 9999 CAVOK 15/04 Q1023 NOSIG RMK QFE761=
METAR UOII 081400Z 00000MPS 9999 BKN026CB BKN100 18/17 Q1008 TEMPO
-TSRA RMK QFE753 12////60=
METAR UOOO 081400Z 03008G10MPS CAVOK 19/10 Q1010 NOSIG RMK QFE743
010///60=
METAR USCM 081400Z VRB02MPS 9999 FEW200 27/01 Q1014 NOSIG 01090065
RMK QFE722=
####018000908####
SARS31 RUMS 081400
METAR ULAA 081400Z 30004MPS 260V340 9999 FEW033 27/17 Q1016 TEMPO
VRB14MPS TSRA RMK QFE760/1014 SC070=
METAR ULKK 081400Z NIL=
METAR ULMM 081400Z 08004MPS 9999 SCT026 BKN080 16/09 Q1017 NOSIG RMK
QFE755 32190060=
METAR ULOL 081400Z NIL=
METAR ULOO 081400Z 32004MPS 5000 -TSRA BKN013CB OVC200 23/18 Q1012
NOSIG RMK QFE755=
METAR ULWW 081400Z 17004MPS 9999 SCT050TCU OVC/// 31/15 Q1016 NOSIG
RMK QFE751 15CLRD60=
METAR UMKK 081400Z 32007MPS P8000 FEW030 SCT200 22/13 Q1020 NOSIG RMK
QFE 764 SC07=
METAR UUBP 081400Z 08002MPS 9999 SCT033TCU SCT/// 26/19 Q1013 NOSIG=
METAR UUOB 081400Z 35003MPS 9999 BKN040CB BKN070 25/17 Q1015 NOSIG
RMK SC065=
METAR UUOK 081400Z 00000MPS 9999 BKN040 28/18 Q1012 NOSIG=
METAR UUOO 081400Z 00000MPS 9999 SCT033 BKN100 28/15 Q1014 NOSIG RMK
13090070=
METAR UWGG 081400Z 12003MPS 100V170 8000 FEW033 34/08 Q1015 NOSIG RMK
QFE754 18090070=
####018000768####
SPXX60 KWBC 081412
SPECI
KRSP 081408Z AUTO 08003KT 4SM HZ CLR 29/18 A3011 RMK AO2 $=
KFSI 081404Z AUTO 02008KT 10SM BKN010 OVC015 26/22 A3006 RMK AO2
     CIG 008V013 SLP164=
KFSI 081405Z AUTO 01007KT 10SM BKN009 BKN014 26/22 A3006 RMK AO2
     CIG 008V012 BKN009 V SCT SLP164=
KFSI 081406Z AUTO 02007KT 10SM SCT009 BKN014 26/22 A3006 RMK AO2
     CIG 013V018 BKN V OVC SLP164=
KLTS 081405Z 35006KT 10SM -RA SCT006 OVC040 23/23 A3009 RMK
     AO2A=
KNLC 081405Z 31006KT 10SM CLR 18/11 A2985 RMK AO2 RH/60 $=
KNQI 081404Z 02006KT 10SM BKN010CB BKN100 BKN280 28/26 A2985 RMK
     AO2 CB DSNT NE AND E-SE AND NW $=
KTIK 081406Z AUTO 01004KT 10SM BKN008 25/22 A3007 RMK AO2 SLP172
     $=
PATC SP 1415 AWOS CLR BLO 120 10 46/43/0109/013=
####018000231####
SAAF31 KWBC 081400 RRA
METAR
DBBB 081400Z 22011KT 9999 SCT012 SCT120 29/25 Q1012 NOSIG=
DGAA 081400Z 20015KT 9999 SCT016 BKN250 31/23 Q1012 NOSIG=
DNKN 081400Z NIL=
DRRN 081400Z 18005KT 150V220 CAVOK 34/17 Q1011 NOSIG=
####018000888####
SARS32 RUMS 081400
METAR URKA 081400Z 06004MPS 9999 SCT026 29/20 Q1011 NOSIG RMK  065=
METAR URKK 081400Z 06006G09MPS CAVOK 30/20 Q1010 NOSIG RMK QFE755
SC070=
METAR URKM 081400Z 08004MPS 9999 SCT040 BKN100 29/17 Q1011 NOSIG RMK
QFE740=
METAR URML 081400Z 10005MPS 9999 FEW100 31/21 Q1012 NOSIG RMK QFE759
/ 07=
METAR URMM 081400Z 13004G07MPS 9999 BKN046 30/19 Q1012 NOSIG RMK 
 0M-200 / SC070=
METAR URMN 081400Z 08002MPS 9999 BKN032CB BKN110 28/18 Q1013 NOSIG
RMK / QFE723 SC07=
METAR URMT 081400Z 06005G08MPS 9999 SCT026CB BKN100 29/17 Q1014 NOSIG
RMK QFE720 SC07=
METAR URRR 081400Z 00000MPS 9999 FEW040 31/14 Q1013 NOSIG RMK SC070=
METAR URSS 081400Z 28003MPS 9999 FEW040 28/21 Q1008 NOSIG RMK /
QFE755 06CLRD70=
METAR URWA 081400Z 00000MPS CAVOK 37/12 Q1010 NOSIG RMK SC07=
METAR URWI 081400Z NIL=
METAR URWW 081400Z 34003MPS CAVOK 31/13 Q1013 NOSIG RMK SC070=
####018001560####
SAUS70 KWBC 081412
METAR
KCCA 081415Z AUTO 00000KT 10SM BKN010 BKN016 25/23 A3010 RMK
     AO2=
KCDN 081415Z AUTO 33003KT 10SM CLR 32/22 A2999 RMK A02 P000=
KCKI 081415Z AUTO 32004KT 10SM CLR 31/20 A2996 RMK AO2=
KHQZ 081409Z AUTO 11005KT 10SM SCT013 OVC060 27/23 A3006 RMK
     AO2=
KLRO 081415Z AUTO 33005KT 8SM CLR 29/21 A2995 RMK AO2=
KMKS 081415Z AUTO 34005KT 10SM CLR 30/20 A2996 RMK AO2 TSNO=
KSLO 081405Z AUTO 24008KT 10SM BKN048 BKN110 29/23 A3006 RMK AO2
     LTG DSNT N AND NW T02900225=
KT82 081405Z AUTO 06005KT 24/22 A3005 RMK AO1 T02410219=
KTAZ 081405Z AUTO 23003KT 10SM VCTS SCT015 27/23 A3005 RMK AO2 LTG
     DSNT S=
KTFP 081406Z AUTO 07003KT 10SM TS SCT012 BKN043 OVC055 27/26 A2987
     RMK AO2 LTG DSNT NE AND W P0002 T02700257=
KTIP 081405Z AUTO 24003KT 10SM CLR 28/25 A3005 RMK AO2
     T02750247=
KTYQ 081405Z AUTO 21006KT 10SM CLR 28/22 A3006 RMK AO2=
KUVA 081405Z AUTO 04010KT 10SM CLR 26/23 A2997 RMK AO2
     T02620227=
KVYS 081405Z AUTO 32004KT 10SM BKN009 BKN016 BKN026 25/22 A3004
     RMK AO2 LTG DSNT S T02500217=
KXBP 081405Z AUTO 14005KT 10SM OVC029 26/23 A3006 RMK AO2
     T02590231=
K5C1 081409Z AUTO 06008KT 10SM BKN008 OVC012 25/23 A3001 RMK
     AO1=
KBNL 081415Z AUTO 34008KT 10SM CLR 32/19 A2999 RMK AO2=
KCQW 081415Z AUTO 35004KT 4SM HZ CLR 32/19 A2998 RMK AO2=
KDUC 081412Z AUTO 04006KT 10SM CLR 26/23 A3007 RMK AO2=
KLKR 081415Z AUTO 01005KT 7SM CLR 31/22 A3000 RMK AO2=
KONM 081407Z AUTO 35005KT 10SM SCT080 20/15 A3027 RMK AO2
     T01960146=
####018000103####
SAUS80 KWBC 081412
METAR
KEHA 081408Z AUTO 02013KT 17/16 RMK AO1 PK WND 15 005
     T01720156=
####018000122####
SAXX60 KWBC 081412
METAR
KNEL 081406Z AUTO 16007KT 7SM BKN012 OVC095 27/21 A3004 RMK AO2
     SLP172 T02720211 $=
####018000672####
SPUS70 KWBC 081412
SPECI
KRKP 081409Z AUTO 10010KT 1 1/2SM +RA SCT009 BKN027 OVC041 A2987
     RMK AO2 LTG DSNT SW TSE07 P0007 FZRANO=
KTKI 081408Z 13005KT 7SM -RA BKN027 BKN049 25/24 A3006 RMK AO2
     P0001=
PAOU 081409Z AUTO 09004KT M1/4SM FG OVC004 06/06 A2992 RMK AO2
     PWINO TSNO $=
KHOT 081409Z AUTO 00000KT 10SM SCT011 BKN016 OVC034 26/23 A3011
     RMK AO2=
KLAR 081409Z AUTO 21003KT 10SM BKN004 OVC017 10/09 A3042 RMK
     AO2=
KBRO 081410Z 31007KT 10SM FEW005 SCT033 SCT070 27/26 A2978 RMK
     AO2=
KEWB 081410Z 13010KT 10SM SCT018 27/21 A3009 RMK AO2=
KIXD 081410Z 02007KT 9SM BKN010 24/21 A3012 RMK AO2 CIG
     008V012=
####018000268####
SAAG31 KWBC 081400 RRA
METAR
SARE 081400Z 14009KT 9999 FEW008 13/09 Q1019=
SARF 081400Z 16012KT 9999 OVC009 15/13 Q1018=
SARP 081400Z 07006KT 9999 SCT005 BKN015 17/14 Q1018=
SASJ 081400Z 00000KT CAVOK 17/09 Q1018=
SAZM 081400Z 32018KT CAVOK 12/03 Q1014=
####018000528####
SANK31 MNMG 081400
METAR
MNPC 081400Z 10008KT 7000 VCRA FEW014CB BKN016TCU 30/25 Q1010
           CBRA/S  TCURA/SE/SW=
MNRS 081400Z 00000KT 9999 FEW015CB SCT016 26/24 Q1013
                   CB/N/NE/SW/NW=
MNJG 081400Z 00000KT 9999 BKN018 21/20 Q1012=
MNJU 081400Z 00000KT 9999 SCT020TCU SCT080 26/24 Q1012
                      TCU SE/SW =
MNCH 081400Z 00000KT 9999 SCT015 SCT022 FEW022CB 24/23 Q1012
                    CB SW=
MNBL 081400Z 00000KT 4000 TSRA SCT016CB SCT070 25/24 Q1012
                 CB 4C =
####018000191####
SAMC32 GMMC 081400 RRA
METAR GMMC 081400Z 02008KT 5000 SCT016 SCT026 25/20 Q1013=
METAR GMMH 081400Z 01022KT 8000 BKN080 24/17 Q1013=
METAR GMML 081400Z 03017KT 8000 SCT020 29/17 Q1016=
####018000692####
SARA36 RUMS 081400
METAR UWUU 081400Z 35005MPS CAVOK 28/10 Q1014 82010060 NOSIG RMK
QFE750/1000=
METAR USCC 081400Z 35005G08MPS CAVOK 24/02 Q1013 NOSIG RMK QFE740
27000070=
METAR USDD 081400Z 05009G12MPS CAVOK 16/00 Q1015 NOSIG RMK
QFE755/1007 SC060=
METAR USMU 081400Z 02005MPS 9999 SCT037CB BKN066 15/13 Q1007 NOSIG
RMK QFE749 09250345=
METAR USNN 081400Z 13002MPS P6000 SCT026 17/11 Q1004 NOSIG RMK QFE748
SC065=
METAR USRK 081400Z 35004MPS 6000 BKN024CB OVC066 14/11 Q1004 NOSIG
RMK QFE747 351///55=
METAR USRR 081400Z 34003MPS 7000 OVC012 13/10 Q1005 TEMPO BKN007 RMK
QFE748 25////60=
METAR USSS 081400Z 36005G08MPS 330V030 CAVOK 25/00 Q1014 NOSIG RMK
QFE740 260///70=
####018000457####
SARS33 RUMS 081400
METAR ULLI 081400Z 20002MPS 110V230 9999 SCT046CB BKN066 BKN200 27/18
Q1013 TEMPO TSRA=
METAR UUDD 081400Z 15005MPS 130V200 9999 FEW050TCU BKN200 29/15 Q1015
TEMPO VRB12MPS TSRA=
METAR UUEE 081400Z 16005MPS 9999 SCT050CB BKN200 29/13 Q1015 NOSIG=
METAR UUEM 081400Z NIL=
METAR UUWW 081400Z 17003MPS 120V210 CAVOK 28/15 Q1014 24000070 NOSIG=
METAR UUMO 081400Z 15003G06MPS 090V180 CAVOK 27/16 Q1015 NOSIG RMK
QFE746/0995 SC060=
####018000539####
SAXX60 KWBC 081400 RRI
METAR
KNGP 081356Z COR 10007KT 7SM -RA FEW009 SCT016CB BKN025 27/26
     A2984 RMK AO2 RAB12 SLP105 CB DSNT NE AND SW TCU DSNT SE-S
     WR// P0007 T02730261 $=
TTPP 081400Z 00000KT 8000 -RA FEW004 FEW010CB SCT014 BKN035 26/25
     Q1013 NOSIG=
K79J 081356Z 00000KT 10SM CLR 31/23 A3004 RMK AO2 SLP166 T03110233
     $=
KNUQ 081356Z AUTO 04003KT 10SM OVC011 15/12 A2994 RMK AO2 SLP141
     T01500122 TSNO=
TTPP 081400Z 00000KT 8000 -RA FEW004 FEW010CB SCT014 BKN035 26/25
     Q1013 NOSIG=
####018000095####
SAAS32 KWBC 081405 RRA
METAR
VMMC 081400Z 19010KT 160V260 9999 FEW020 29/27 Q1008 NOSIG=
####018000087####
SAKN64 HKMO 081400
METAR HKJK 081400Z 16008KT 9999 FEW023 SCT090 19/12 Q1022 NOSIG=
####018000086####
SAUS80 KWBC 081400 RRE
METAR
KSOA 081400Z AUTO 08005KT 8SM 24/22 A3011 RMK AO2=
####018000082####
SAAG41 KWBC 081400 RRA
METAR
SAVC 081400Z 27014KT 9999 FEW040 06/M01 Q1002=
####018000110####
SAAF32 KWBC 081400 RRB
METAR
FTTJ 081400Z 33008KT 9999 FEW040 FEW050CB BKN140 30/19 Q1011
     NOSIG=
####018000169####
SPUS80 KWBC 081412
SPECI
PASN 081409Z 06013KT 1/2SM FG VV001 05/05 A2992 RMK AO2=
KCLL 081410Z 09009KT 9SM BKN011 OVC017 27/23 A2999 RMK AO2 LTG
     DSNT SE=
####018000073####
SAAS31 KWBC 081405 RRA
METAR
VOBG 081400Z NIL=
VOCI 081400Z NIL=
####018000088####
SAAW32 KWBC 081330 RRB
METAR
OIHH 081350Z 15006KT 9999 FEW040 39/M05 Q1013 A2994=
####018001013####
SAAU31 KWBC 081400 RRB
METAR
YBCG 081400Z AUTO 19012KT 9999NDV // BKN100 15/12 Q1021=
YBCS 081400Z 15007KT 9999 FEW025 SCT050 22/19 Q1016=
YBMA 081400Z AUTO 00000KT 6000NDV // NCD 08/07 Q1020=
YBRK 081400Z AUTO 27003KT 9999NDV // OVC030 13/12 Q1019=
YBRM 081400Z AUTO 36004KT 9999NDV // BKN026 OVC031 23/22 Q1012=
YMHB 081400Z 31006KT CAVOK 02/01 Q1030=
YMML 081400Z 36008KT CAVOK 04/03 Q1028 RMK HZ FM1400 VRB03KT 4000
     BR SKC=
YPAD 081400Z 03005KT 9999 FEW047 05/03 Q1025=
YPEA 081400Z AUTO 36009KT 9999NDV // BKN062 BKN071 13/12 Q0996=
YPPD 081400Z AUTO 03003KT 5000NDV // OVC029 22/21 Q1010=
YPPH 081400Z 01011KT 9999 -SHRA FEW022 SCT042 13/13 Q0996 RMK WBD
     0.3 INTER 1400/1700 29030G50KT 2000 TSGS BKN010 FEW030CB=
YSCB 081400Z AUTO 00000KT 9999NDV // SCT025 02/01 Q1028=
YSDU 081400Z AUTO 16010KT 9999NDV // NCD 07/05 Q1026=
YSNF 081400Z AUTO 12009KT 9999NDV // OVC041 15/08 Q1018=
YSRI 081400Z AUTO 21004KT 9999NDV // SCT044 SCT061 OVC071 10/10
     Q1027=
####018000168####
SAAW34 KWBC 081345 RRG
METAR
UACP 081400Z NIL=
UADD 081400Z 09002MPS 9999 NSC 31/06 Q1012 NOSIG RMK
     QFE702/0937=
UAII 081400Z NIL=
UASP 081400Z NIL=
####018000088####
SAAW32 KWBC 081400 RRB
METAR
OIII 081400Z 15006KT CAVOK 40/M04 Q1012 A2989 877/5=
####018000152####
SACA31 KWBC 081400 RRB
METAR
MKJP 081400Z 12012KT 9999 FEW022 BKN260 29/21 Q1013=
MYGF 081400Z 11006KT 9999 SCT018CB 30/24 A2998 RMK CB S/SW /=
####018000121####
SACA33 KWBC 081400 RRC
METAR
TTPP 081400Z 00000KT 8000 -RA FEW004 FEW010CB SCT014 BKN035 26/25
     Q1013 NOSIG=
####018000246####
SACI31 KWBC 081400 RRA
METAR
RCKH 081400Z 27006KT 230V290 9999 FEW013 BKN300 29/26 Q1010
     NOSIG=
RCSS 081400Z 09005KT 9999 FEW030 SCT120 30/24 Q1007 NOSIG=
RCTP 081400Z 19008KT 160V220 9999 FEW025 SCT150 29/25 Q1007
     NOSIG=
####018000198####
SAID31 KWBC 081400 RRA
METAR
WAAA 081400Z 10001KT 9999 FEW020 25/25 Q1011=
WIII 081400Z 27005KT 7000 SCT020 25/22 Q1012 NOSIG=
WIMM 081400Z 24010KT 5000 FEW016CB BKN017 28/25 Q1012 NOSIG=
####018000564####
SANK31 MNMG 081400
METAR
METAR MNPC 081400Z 10008KT 7000 VCRA FEW014CB BKN016TCU 30/25 Q1010
           CBRA/S  TCURA/SE/SW=
METAR MNRS 081400Z 00000KT 9999 FEW015CB SCT016 26/24 Q1013
                   CB/N/NE/SW/NW=
METAR MNJG 081400Z 00000KT 9999 BKN018 21/20 Q1012=
METAR MNJU 081400Z 00000KT 9999 SCT020TCU SCT080 26/24 Q1012
                      TCU SE/SW =
METAR MNCH 081400Z 00000KT 9999 SCT015 SCT022 FEW022CB 24/23 Q1012
                    CB SW=
METAR MNBL 081400Z 00000KT 4000 TSRA SCT016CB SCT070 25/24 Q1012
                 CB 4C =
####018000086####
SANT31 KWBC 081400 RRB
METAR
BGJN 081350Z 31004KT 9999 VCFG FEW030 08/05 Q1009=
####018000073####
SAPH31 KWBC 081400 RRA
METAR
RPMD 081400Z NIL=
RPMZ 081400Z NIL=
####018000143####
SARA31 KWBC 081400 RRC
METAR
UIAA 081400Z VRB02MPS 9999 VCTS SCT033CB OVC100 18/16 Q1008 NOSIG
     RMK çú àú óíåý ó÷ QFE698 29CLRD70=
####018000114####
SARS33 KWBC 081400 RRB
METAR
USPP 081400Z 36003MPS CAVOK 27/11 Q1015 NOSIG RMK QFE750/1000
     21090060=
####018000770####
SARS41 KWBC 081400 RRB
METAR
UWKD 081400Z 32003G06MPS 280V350 CAVOK 32/12 Q1014 TEMPO VRB15MPS
     3000 TSRA RMK QFE750/1000 79CLRD70=
UWKE 081400Z 05004MPS 9999 FEW040 31/10 Q1015 NOSIG RMK
     QFE744/0992 04090070=
UWLW 081400Z 33007G10MPS 8000 SCT040CB 30/15 Q1014 TEMPO VRB14MPS
     3000 -TSRA BKN015CB RMK QFE754=
UWOO 081400Z 06004MPS P5000 FEW220 32/02 Q1012 26óLRD65 NOSIG RMK
     QFE748/0998=
UWOO 081400Z 06004MPS P5000 FEW220 32/02 Q1012 26LRD65 NOSIG RMK
     QFE748/0998=
UWPP 081400Z 14004MPS 9999 SCT033CB BKN100 32/09 Q1013 NOSIG RMK
     QFE745 11090060=
UWSS 081400Z 07004MPS CAVOK 31/09 Q1014 NOSIG RMK QFE748
     120///60=
UWWW 081400Z 06005MPS CAVOK 32/08 Q1014 NOSIG RMK QFE748/0997
     05CLRD60 15//99//=
####018000372####
SARS32 KWBC 081400 RRB
METAR
URKA 081400Z 06004MPS 9999 SCT026 29/20 Q1011 NOSIG RMK óã 065=
URMM 081400Z 13004G07MPS 9999 BKN046 30/19 Q1012 NOSIG RMK õíòî
     ôõòâ 0M-200 ç/ï SC070=
URMN 081400Z 08002MPS 9999 BKN032CB BKN110 28/18 Q1013 NOSIG RMK
     ç/ï QFE723 SC07=
URSS 081400Z 28003MPS 9999 FEW040 28/21 Q1008 NOSIG RMK ç/ï QFE755
     06CLRD70=
####018000107####
SASA31 KWBC 081400 RRB
METAR
SYCJ 081400Z 11012KT 9999 RESH SCT019 SCT039 BKN300 28/26
     Q1009=
####018000359####
SASD43 KWBC 081400 RRA
METAR
OEMK 081400Z 27003KT CAVOK 43/25 Q1000=
OENG 081400Z 03010KT 4000 DU SCT030 SCT080 39/M01 Q1009 NOSIG=
OEPA 081400Z 33012KT CAVOK 44/05 Q1003=
OERF 081400Z 36002KT CAVOK 44/12 Q1005=
OERR 081400Z 27007KT CAVOK 45/10 Q1005=
OESH 081400Z 06005KT 6000 SKC 40/16 Q1001 NOSIG=
OESK 081400Z 27011KT CAVOK 44/01 Q1007=
####018000285####
SASD42 KWBC 081400 RRA
METAR
OEGS 081400Z 34009KT CAVOK 44/06 Q1007=
OEGT 081400Z NIL=
OEHL 081400Z 33008KT 9999 SCT040 42/01 Q1011 NOSIG=
OEKB 081400Z NIL=
OEKK 081400Z 02015KT CAVOK 45/13 Q1005=
OEKM 081400Z 06010KT 8000 SCT022 30/04 Q1011 NOSIG=
OEMH 081400Z NIL=
####018000327####
SASD44 KWBC 081400 RRA
METAR
OETB 081400Z 00000KT CAVOK 42/05 Q1007 NOSIG=
OETF 081400Z 00000KT 9999 SCT030 SCT080 38/01 Q1014 NOSIG=
OETR 081400Z 25006KT CAVOK 40/05 Q1009=
OEWD 081400Z 04014KT 4000 BLDU SKC 44/11 Q1003=
OEWJ 081400Z 30018KT CAVOK 32/25 Q1003=
OEYN 081400Z 28016KT 7000 SKC 45/14 Q0998 NOSIG=
####018000293####
SASD41 KWBC 081400 RRA
METAR
OEAB 081400Z 05016KT 9999 FEW020 SCT070 31/M03 Q1019 NOSIG=
OEAH 081400Z 02013KT CAVOK 45/02 Q1000 NOSIG=
OEBA 081400Z 08008KT 9999 SCT030 36/03 Q1015 NOSIG=
OEBH 081400Z 02012KT CAVOK 39/03 Q1010 NOSIG=
OEGN 081400Z 26009KT CAVOK 36/29 Q0999 NOSIG=
####018000081####
SAUK31 KWBC 081350 RRB
METAR
EGGP 081350Z 24012KT 9999 SCT046 20/09 Q1017=
####018000081####
SAUK41 KWBC 081350 RRG
METAR
EGGP 081350Z 24012KT 9999 SCT046 20/09 Q1017=
####018001327####
SAXX99 KWBC 081400 RRL
METAR
DAUK 081400Z 00000KT CAVOK 37/16 Q1017=
DFFD 081400Z 17006KT 140V200 9999 FEW040CB BKN130 31/20 Q1014
     TEMPO 4000 TSRA=
LKKU 081400Z NIL=
LKLB 081400Z VRB05KT CAVOK 26/06 Q1022=
OEDM 081400Z 10010KT CAVOK 40/03 Q1010=
OEKJ 081400Z NIL=
RPLI 081400Z NIL=
SAWH 081400Z 00000KT 9999 FEW030 SCT100 00/M01 Q0982=
SYGO 1400Z 08010KT 9999 BKN020 30/25 Q1012=
UACK 081400Z NIL=
URML 081400Z 10005MPS 9999 FEW100 31/21 Q1012 NOSIG RMK QFE759 ç/ï
     óã07=
UWLL 081400Z 06005MPS 9999 SCT050CB 32/10 Q1014 NOSIG RMK
     QFE748/0998 SC065=
UWOR 081400Z 06005MPS CAVOK 28/00 Q1014 07CLRD65 NOSIG RMK
     QFE735/0980=
WADD 081400Z 32004KT 9999 FEW020 27/26 Q1011 NOSIG=
WALL 081400Z NIL=
WARR 081400Z 00000KT 7000 TSRA FEW020CB SCT020 25/21 Q1011=
YAMB 081400Z AUTO 22001KT 9999NDV // SCT100 11/09 Q1021=
YBHM 081400Z AUTO 15014KT //// // ////// 18/15 Q1018=
YCIN 081400Z AUTO 09007KT //// // ////// 22/18 Q1013=
YFRT 081400Z AUTO 03007KT //// // ////// 11/03 Q1013=
YMAV 081400Z AUTO 32003KT 9999NDV // BKN046 07/04 Q1028=
YMLT 081400Z AUTO 21005KT 0400NDV // ////// 00/M00 Q1030 RMK
     CLD:SKY MAY BE OBSC=
YPGV 081400Z AUTO 16008KT 9999NDV // SCT012 SCT021 BKN033 24/22
     Q1014=
YPKG 081400Z AUTO 35005KT 9999NDV // NCD 16/05 Q1003=
####018001248####
SAUS43 KWBC 081400 RRC
METAR
KC75 081407Z AUTO 00000KT 10SM SCT006 SCT010 OVC019 24/23
     A3005=
KDKB 081405Z AUTO 29008KT 10SM SCT009 BKN015 23/22 A3004=
KDNV 081405Z AUTO 24006KT 10SM CLR 28/22 A3002=
KENL 081404Z AUTO 23008KT 10SM SCT050 SCT090 28/19 A3006=
KFEP 081405Z AUTO 31005KT 10SM OVC004 24/21 A3006=
KFOA 081405Z AUTO 21007KT 10SM CLR 31/27 A3005=
KFWC 081405Z AUTO 22004KT 10SM CLR 29/25 A3006=
KGBG 081405Z AUTO 00000KT 3SM BR OVC008 23/22 A3006=
KHSB 081405Z AUTO 21006KT 10SM CLR 29/22 A3006=
KIGQ 081405Z AUTO 00000KT 2 1/2SM RA SCT003 SCT013 BKN023 24/23
     A3003=
KIJX 081405Z AUTO 27003KT 10SM BKN005 BKN009 BKN017 24/23
     A3007=
KJOT 081407Z AUTO 00000KT 5SM BR CLR 24/23 A3003=
KMQB 081405Z AUTO 31006KT 10SM OVC008 24/22 A3009=
KOLY 081405Z AUTO 23003KT 10SM BKN043 29/24 A3005=
KPNT 081405Z AUTO 23004KT 10SM SCT009 OVC017 25/23 A3004=
KPRG 081405Z AUTO 26006KT 10SM CLR 28/23 A3005=
KSAR 081405Z AUTO 22005KT 7SM CLR 28/24 A3006=
KSLO 081405Z AUTO 24008KT 10SM BKN048 BKN110 29/23 A3006=
KTAZ 081405Z AUTO 23003KT 10SM VCTS SCT015 27/23 A3005=
KTIP 081405Z AUTO 24003KT 10SM CLR 28/25 A3005=
KVYS 081405Z AUTO 32004KT 10SM BKN009 BKN016 BKN026 25/22
     A3004=
####018000096####
SPUS52 KWBC 081412
SPECI
KHOT 081409Z AUTO 00000KT 10SM SCT011 BKN016 OVC034 26/23 A3011=
####018000113####
SAUS45 KCYS 081412
MTRW43
SAUS70 KW43 081405
METAR KW43 081355Z AUTO 26004KT 10SM CLR 15/11 A3031 RMK

####018000113####
SAUS45 KCYS 081412
MTRECS
SAUS70 KECS 081307
METAR KECS 081259Z AUTO 00000KT 10SM CLR 13/11 A3032 RMK

####018000101####
SAUS45 KABQ 081412
MTRCAO
SPECI KCAO 081410Z AUTO 01011KT 10SM BKN014 17/13 A3032 RMK AO2 TSNO
####018000152####
SAUS44 KWBC 081400 RRC
METAR
KBPG 081405Z AUTO 03008KT 7SM BKN006 OVC014 22/20 A3014=
KBYY 081406Z AUTO 07008KT 10SM SCT085 SCT100 28/27 A2993=
####018000099####
SAUS52 KWBC 081400 RRB
METAR
KSEP 081405Z AUTO 09006KT 7SM SCT006 SCT014 BKN034 24/22 A3006=
####018000089####
SASD32 OEJD 081400
METAR OETF 081400Z 00000KT 9999  SCT030 SCT080 38/01 Q1014 NOSIG=
####018000107####
SAUS53 KWBC 081400 RRC
METAR
KLNC 081405Z AUTO 11004KT 10SM SCT008 BKN013 OVC080 26/24
     A3005=
####018000073####
SAEG31 HECA 081300 RRA
METAR HESN 081300Z 36010KT CAVOK 40/07 Q1007=
####018000096####
SPUS72 KWBC 081412
SPECI
KHOT 081409Z AUTO 00000KT 10SM SCT011 BKN016 OVC034 26/23 A3011=
####018000083####
SACN70 CWAO 081400 RRA
WSZ SA 1400 AUTO8 M M M 166/17/13/2809/M/ 1009 66MM=

####018000192####
SACN50 CWAO 081400 RRA
VQZ SA 1400 AUTO8 M M M 203/13/10/0000/M/ 1009 63MM=
VSL SA 1400 AUTO8 M M M 195/12/09/0502/M/ 1001 83MM=
ZKA SA 1400 AUTO8 M M M 196/17/M/0101/M/ 1010 8MMM=

####018000083####
SACN60 CWAO 081400 RRA
PCI SA 1400 AUTO8 M M M 211/14/08/MMMM/M/ 8006 41MM=

####018000083####
SACN63 CWAO 081400 RRA
XAR SA 1400 AUTO8 M M M 022/08/07/1502/M/ 8001 64MM=

####018000083####
SACN50 CWAO 081200 RRC
VSL SA 1200 AUTO8 M M M 196/10/08/0601/M/ 2003 65MM=

####018000878####
SACN95 CWAO 081400 RRA
WTS SA 1400 AUTO8 M M M 178/16/13/2405/M/ 0001 50MM=
WTT SA 1400 AUTO8 M M M M/27/24/2302/M/M M 35MM=
WUK SA 1400 AUTO8 M M M M/27/19/1904/M/ M 86MM=
WUT SA 1400 AUTO8 M M M 197/14/11/2704/M/M 2011 48MM=
WUY SA 1400 AUTO7 M M M 121/25/20/2008/M/ 8018 64MM=
WVC SA 1400 AUTO8 M M M 220/14/12/2606/M/ 1005 27MM=
WVO SA 1400 AUTO8 M M M M/15/12/2003/M/0002 PCPN 0.2MM PAST HR M
83MM=
WVP SA 1400 AUTO8 M M M 223/16/10/3303/M/ 2005 69MM=
WVQ SA 1400 AUTO8 M M M M/29/23/2406/M/ M 61MM=
WVU SA 1400 AUTO8 M M M 217/17/17/1710/M/ 0006 85MM=
WWC SA 1400 AUTO8 M M M 107/13/08/MM08/M/ 6004 89MM=
WWF SA 1400 AUTO8 M M M 212/17/12/3505/M/ 2013 15MM=
WXA SA 1400 AUTO8 M M M 217/12/05/2207+16/M/ PK WND 2617 1335Z 8002
39MM=
WXB SA 1400 AUTO8 M M M M/14/11/2905/M/ M 78MM=
WXG SA 1400 AUTO8 M M M 201/16/13/2506/M/ 3004 80MM=

####018000449####
SACN97 CWAO 081400 RRA
XBO SA 1400 AUTO8 M M M M/22/18/0908/M/ M 54MM=
XCH SA 1400 AUTO7 M M M M/26/17/MMMM/M/ M 33MM=
XGH SA 1400 AUTO8 M M M M/17/15/3108/M/M M 39MM=
XHA SA 1400 AUTO8 M M M 151/31/21/2604/M/ 7004 52MM=
XHI SA 1400 AUTO8 M M M 115/06/03/3402/M/ 6005 87MM=
XLU SA 1400 AUTO8 M M M 134/14/09/2803/M/ 2002 19MM=
XMY SA 1400 AUTO8 M M M M/23/20/MMMM/M/ M 26MM=
XTP SA 1400 AUTO8 M M M 215/19/14/2207/M/ 6010 59MM=

####018000248####
SACN92 CWAO 081400 RRA
WJI SA 1400 AUTO8 M M M 220/15/12/0000/M/ 2009 58MM=
WJX SA 1400 AUTO8 M M M 216/14/12/2403/M/ 3001 14MM=
WLE SA 1400 AUTO8 M M M 216/16/14/0000/M/ 3004 57MM=
WLV SA 1400 AUTO8 M M M 171/15/10/2803/M/ 8002 64MM=

####018000138####
SACN59 CWAO 081400 RRA
WCT SA 1400 AUTO8 M M M 205/16/11/2308/M/ 6007 54MM=
WLB SA 1400 AUTO8 M M M 173/17/13/2804/M/ 5008 08MM=

####018000370####
SACN88 CWAO 081400 RRA
ABR SA 1400 AUTO7 M M M 213/23/20/2007/M/ 0001 41MM=
AHK SA 1400 AUTO7 M M M 203/20/19/2512/M/M PK WND 2617 1344Z 0003
47MM=
AKC SA 1400 AUTO7 M M M M/27/21/MMMM/M/ M 15MM=
ARP SA 1400 AUTO8 M M M 163/24/22/2903/M/ 8001 30MM=
ERM SA 1400 AUTO8 M M M 151/28/23/1402/M/ 8005 77MM=
WZF SA 1400 AUTO8 M M M M/27/21/1904/M/M M 04MM=

####018000350####
SACN90 CWAO 081400 RRA
WER SA 1400 AUTO8 M M M M/M/M/0613/M/M M MMMM=
WFO SA 1400 AUTO8 M M M 143/18/09/3008/M/M 4000 78MM=
WGD SA 1400 AUTO8 M M M 154/29/22/1405/M/ 8006 50MM=
WGH SA 1400 AUTO8 M M M 157/28/24/1903/M/M 8002 20MM=
WGM SA 1400 AUTO8 M M M M/14/07/1904/M/ M 73MM=
WGN SA 1400 AUTO8 M M M 180/18/12/3308/M/M 2015 86MM=

####018000676####
SACN89 CWAO 081400 RRA
WAG SA 1400 AUTO8 M M M 186/15/13/1904/M/M 8015 31MM=
WAV SA 1400 AUTO8 M M M 203/14/09/0000/M/ 7003 36MM=
WBA SA 1400 AUTO8 M M M M/27/22/1707/M/ M 38MM=
WBL SA 1400 AUTO8 M M M 167/16/11/3011/M/M 3007 35MM=
WBM SA 1400 AUTO8 M M M 186/16/09/3304/M/ 1010 40MM=
WBY SA 1400 AUTO8 M M M 160/16/15/0503/M/ 8003 18MM=
WBZ SA 1400 AUTO8 M M M 155/30/25/2604/M/ 8001 86MM=
WCO SA 1400 AUTO8 M M M 143/28/21/1904/M/ 8006 80MM=
WDI SA 1400 AUTO8 M M M M/21/16/2104/M/ M 78MM=
WDK SA 1400 AUTO8 M M M 216/15/10/1303/M/ 5002 09MM=
WDU SA 1400 AUTO8 M M M M/15/08/3005/M/M M 67MM=
WDW SA 1400 AUTO8 M M M 168/15/11/MMMM/M/ 6018 31MM=

####018000109####
SACN46 CWAO 081400 RRA
METAR CYRB 081400Z 14007KT 15SM FEW120 SCT230 09/05 A2976 RMK AC1CI0
SLP081=

####018000083####
SACN82 CWAO 081400 RRA
MTH SA 1400 AUTO8 M M M 165/27/23/2208/M/ 8002 89MM=

####018000078####
SACN95 CWAO 081300 RRG
WUK SA 1300 AUTO8 M M M M/26/19/1503/M/ M 01MM=

####018000138####
SACN98 CWAO 081400 RRA
XPC SA 1400 AUTO8 M M M 139/27/22/1706/M/ 8005 40MM=
XVN SA 1400 AUTO8 M M M 149/30/19/2404/M/ 8007 27MM=

####018000138####
SACN66 CWAO 081400 RRA
WBU SA 1400 AUTO8 M M M 174/15/11/2510/M/ 8001 06MM=
WIK SA 1400 AUTO8 M M M 208/14/11/3206/M/ 1012 07MM=

####018000083####
SACN82 CWAO 081300 RRC
MTH SA 1300 AUTO8 M M M 168/26/22/2207/M/ 1003 59MM=

####018000442####
SACN93 CWAO 081400 RRA
WMX SA 1400 AUTO8 M M M M/15/12/MMMM/M/ M 27MM=
WNC SA 1400 AUTO8 M M M 161/23/21/1602/M/ 6001 60MM=
WNE SA 1400 AUTO8 M M M 165/22/18/2314/M/ PK WND 2320 1313Z 8003
61MM=
WNK SA 1400 AUTO8 M M M M/18/11/3106/M/ M 50MM=
WOD SA 1400 AUTO8 M M M 127/27/M/0402/M/ 8006 1MMM=
WOJ SA 1400 AUTO8 M M M 171/17/12/3213/M/ PK WND 3217 1305Z 1011
42MM=
WPD SA 1400 AUTO8 M M M 125/24/21/2104/M/ 8007 26MM=

####018000413####
SACN96 CWAO 081400 RRA
WXS SA 1400 AUTO8 M M M 160/20/18/3404/M/ 4000 27MM=
WZE SA 1400 AUTO8 M M M M/15/12/2905/M/ M 95MM=
WZL SA 1400 AUTO8 M M M 188/17/11/3504/M/ 3005 47MM=
WZT SA 1400 AUTO8 M M M M/15/M/MMMM/M/ M 2MMM=
XHM SA 1400 AUTO8 M M M M/30/22/2302/M/ M 58MM=
XPT SA 1400 AUTO8 M M M M/28/21/MMMM/M/M M 00MM=
ZPK SA 1400 AUTO8 M M M 130/06/03/3118/M/ PK WND 3122 1339Z 1015
69MM=

####018000119####
SACN52 CWAO 081400 RRA
METAR CWEU 081400Z 18007KT 40SM FEW030 BKN150 OVC200 14/03 A2964 RMK
CF0AC1CI0 SLP039=

####018000443####
SACN94 CWAO 081400 RRA
WQF SA 1400 AUTO8 M M M M/15/09/3101/M/ M 39MM=
WQQ SA 1400 AUTO8 M M M M/15/11/1904/M/ M 44MM=
WQY SA 1400 AUTO8 M M M 119/10/10/3509/M/0008 PCPN 0.4MM PAST HR
3005 27MM=
WRJ SA 1400 AUTO8 M M M 200/14/14/2704/M/ 3004 21MM=
WRT SA 1400 AUTO8 M M M M/11/09/0000/M/M M 53MM=
WRZ SA 1400 AUTO8 M M M 154/17/M/1002/M/0010 PCPN 1.0MM PAST HR
8001 6MMM=
WST SA 1400 AUTO8 M M M M/20/17/0404/M/ M 89MM=

####018000352####
SACN91 CWAO 081400 RRA
WGX SA 1400 AUTO8 M M M 073/17/10/2609/M/ 8012 10MM=
WHV SA 1400 AUTO8 M M M 161/28/23/1903/M/ 8001 68MM=
WIG SA 1400 AUTO8 M M M M/M/M/0307/M/M M MMMM=
WIS SA 1400 AUTO8 M M M 167/24/21/2005/M/ 8003 49MM=
WIW SA 1400 AUTO8 M M M 203/16/12/2606/M/ 3004 71MM=
WJH SA 1400 AUTO8 M M M 123/15/09/2603/M/ 8008 30MM=

####018000119####
SACN44 CWAO 081400 RRA
METAR CYUX 081400Z 00000KT 15SM FEW043 BKN081 BKN210 10/06 A2980 RMK
CU1AC4CI0 SLP094=

####018000122####
SACN49 CWAO 081400 RRA
METAR CYYG 081400Z 22012G20KT 15SM FEW011 SCT110 BKN280 24/20 A3008
RMK SF1AC2CI1 SLP185=

####018000374####
SACN45 CWAO 081400 RRA
METAR CYHI 081400Z 00000KT 15SM BKN013 06/03 A2988 RMK SC6 7.2/3.5/0
SLP121=
METAR CYHK 081400Z 04008KT 15SM BKN089 BKN097 11/07 A2980 RMK AC5AC1
VIRGA NE SLP093=
METAR CYUT 081400Z 00000KT 25SM FEW070 BKN090 12/04 A2978 RMK AC2AS2
SLP088=
METAR CYZS 081400Z 08012G20KT 15SM FEW020 FEW070 OVC210 15/04 A2967
RMK SC1AC2CI2 SLP049=

####018000083####
SACN50 CWAO 081300 RRC
VSL SA 1300 AUTO8 M M M 197/09/07/0503/M/ 1002 94MM=

####018000359####
SACN78 CWAO 081400 RRA
TAG SA 1400 AUTO8 M M M 165/20/14/2306/M/ 1004 13MM=
TBO SA 1400 AUTO8 M M M 157/28/23/2004/M/ 8003 32MM=
TPQ SA 1400 AUTO8 M M M 162/29/21/1903/M/ 8005 01MM=
TTR SA 1400 AUTO8 M M M 160/22/20/1805/M/ 8002 47MM=
WAJ SA 1400 AUTO8 M M M 161/27/22/MMMM/M/M 8003 74MM=
WBE SA 1400 AUTO8 M M M 160/18/18/0902/M/ 8002 26MM=

####018000113####
SAUS20 KNKA 081412
SPECI KCSM 081411Z 02003KT 9SM -RA FEW008 BKN016 BKN110 23/21 A3014 
    RMK AO2 P0000=
####018000089####
SPUS73 KWBC 081412
SPECI
KLAR 081409Z AUTO 21003KT 10SM BKN004 OVC017 10/09 A3042=
####018000073####
SAAL41 DAMM 081400 RRB
METAR DAAP 081400Z 36010KT CAVOK 40/10 Q1014=
####018000124####
SANA35 KAWN 081300 RRI
METAR KNPA 081256Z 00000KT 8SM FEW050 FEW250 28/25 A3003 RMK FU FEW050
      SLP170 T02830250=
####018000124####
SAZZ40 KAWN 081300 RRX
METAR KNPA 081256Z 00000KT 8SM FEW050 FEW250 28/25 A3003 RMK FU FEW050
      SLP170 T02830250=
####018000124####
SANA14 KAWN 081300 RRG
METAR KNPA 081256Z 00000KT 8SM FEW050 FEW250 28/25 A3003 RMK FU FEW050
      SLP170 T02830250=
####018000709####
SAXX70 KAWN 081400 RRJ
METAR KQFU 081350Z AUTO 08001KT 7SM CLR 23/18 A2992 RMK A02=
METAR KQIR 081355Z COR 04011G17KT 7000 HZ CLR 40/26 A2949 RMK AO2 SLP986
      T03960257 COR 1411=
METAR KQEI 081410Z AUTO 08001KT 4SM -RA BR OVC043 21/19 A2998 RMK A02=
METAR KQEN 081410Z AUTO 25005KT 6SM BR BKN070 19/16 A3042 RMK A02=
METAR KQEP 081410Z AUTO 18001KT 2SM -SHRA BKN055 21/18 A2990 RMK A02=
METAR KQER 081410Z AUTO 00000KT 2SM BR BKN003 21/19 A2991 RMK A02=
METAR KQES 081410Z AUTO 17005KT 4SM BR BKN110 21/19 A2987 RMK A02=
METAR KQEY 081410Z AUTO 09004KT 7SM -SHRA FEW031 BKN050 BKN075 24/20
      A2963 RMK A02=
METAR KQEV 081420Z AUTO 23002KT 5SM -SHRA OVC055 21/18 A2981 RMK A02=
####018000083####
SASD31 OEJD 081400 RRA
METAR OYSN 081400Z 03013KT 4000 DU SCT030 29/M02 Q1020=
####018000725####
SAEG31 HECA 081400
METAR HEMM 081400Z 32012KT CAVOK 28/21 Q1012=
HEAX 081400Z 32013KT 9999 FEW020 29/22 Q1010=
HECA 081400Z 30012KT CAVOK 33/18 Q1010=
HELX 081400Z 31010KT CAVOK 40/10 Q1006=
HESN 081400Z 35010KT CAVOK 40/08 Q1007=
HEAR 081400Z 34010KT CAVOK 30/20 Q1008=
HEGN 081400Z 36022KT CAVOK 38/09 Q1005=
HEPS 081400Z 34013KT CAVOK 29/23 Q1010=
HEIS 081400Z 33008KT CAVOK 33/17 Q1009=
HESH 081400Z 02012KT CAVOK 38/11 Q1004=
HEAT 081400Z 36018KT CAVOK 35/13 Q1010=
HEBA 081400Z 32015KT CAVOK 28/20 Q1011=
HEBL 081400Z 02011KT CAVOK 40/08 Q1008=
HESC 081400Z 07009KT CAVOK 34/09 Q1017=
HEDF 081400Z NIL=
HETR 081400Z 32018KT CAVOK 32/20 Q1005=
HEMA 081400Z 01021KT CAVOK 35/16 Q1005=
####018000657####
SAUZ31 UTTW 081400
METAR UTFN 081400Z 00000MPS 9999 FEW050CB FEW250 35/13 Q1010
R28/CLRD70 NOSIG=
METAR UTNN 081400Z 19001MPS CAVOK 43/07 Q1005 R33/CLRD70 NOSIG=
METAR UTNU 081400Z 06002MPS CAVOK 37/22 Q1006 R31/CLRD60 NOSIG=
METAR UTSA 081400Z 02005MPS 9999 NSC 37/05 Q1008 R88/CLRD70 NOSIG=
METAR UTSB 081400Z 01004MPS CAVOK 37/10 Q1007 R01/CLRD70 NOSIG=
UTSH NIL=
METAR UTSK 081400Z 33004MPS CAVOK 38/09 Q1006 R16/CLRD70=
METAR UTSS 081400Z 08004MPS 9999 NSC 32/13 Q1010 R88/CLRD70 NOSIG=
UTST NIL=
METAR UTTT 081400Z 35002MPS CAVOK 37/08 Q1009 R08R/CLRD70 NOSIG=
METAR UTTP 081400Z 34002MPS CAVOK 36/12 Q1009 R88/CLRD70 NOSIG=
####018002330####
SAUS20 KNKA 081412
METAR K1F0 081407Z AUTO 00000KT OVC006 25/25 A3005 RMK AO2 PWINO=
METAR K36U 081415Z AUTO 00000KT 10SM CLR 14/07 A3025 RMK AO2=
METAR K4O4 081408Z AUTO 14005KT 10SM SCT001 SCT008 SCT013 26/23 
     A3008 RMK AO2=
METAR KALM 081410Z AUTO 18005KT 10SM CLR 22/14 A3018 RMK AO2=
METAR KAXS 081410Z AUTO 32005KT 5SM RA SCT004 BKN024 OVC043 23/22 
     A3011 RMK AO2 P0002 T02310220=
METAR KAXX 081410Z AUTO 00000KT 10SM CLR 09/06 A3050 RMK AO2=
METAR KBVS 081410Z AUTO 03005KT 9SM CLR 20/13 A2999 RMK A01 P000=
METAR KCHK 081411Z AUTO 03008KT 3SM BR OVC002 23/23 A3007 RMK AO2=
METAR KCLK 081413Z AUTO 02007KT 10SM BKN009 BKN060 BKN110 23/20 
     A3011 RMK AO2=
METAR KCUH 081410Z AUTO 00000KT 10SM OVC003 25/23 A3007 RMK AO2=
METAR KFET 081410Z AUTO 01004KT 10SM CLR 21/17 A3018 RMK AO2=
METAR KGCD 081410Z AUTO 11005KT 10SM CLR 17/03 A3014 RMK AO2 
     T01660026=
METAR KGMJ 081414Z AUTO 00000KT OVC010 26/25 A3007 RMK AO2 P0001 
     PWINO=
METAR KIDP 081410Z AUTO 06003KT 10SM SCT008 24/22 A3007 RMK AO2=
METAR KIZA 081409Z AUTO 00000KT 7SM OVC007 13/11 A2993 RMK AO2=
METAR KJSV 081411Z AUTO 00000KT 10SM SCT034 OVC043 25/23 A3007 
     RMK AO2=
METAR KJWG 081411Z AUTO 03007KT 10SM BKN008 23/23 A3013 RMK AO2=
METAR KL35 081411Z AUTO 00000KT 10SM CLR 09/M03 A3019 RMK AO2=
METAR KLAM 081410Z AUTO 00000KT 10SM CLR 15/08 A3042 RMK AO2=
METAR KLRU 081411Z AUTO 02009KT 10SM CLR 23/13 A3020 RMK AO2=
SPECI KM89 081410Z AUTO 00000KT 5SM BR OVC006 26/24 A3010 RMK AO2 =
SPECI KMLI 081411Z 32003KT 10SM SCT011 SCT100 24/22 A3005 RMK AO2=
METAR KOJA 081410Z AUTO 05006KT 7SM BKN007 23/22 A3011 RMK AO2=
METAR KOKM 081411Z AUTO 00000KT 7SM OVC007 25/25 A3006 RMK AO1=
METAR KONP 081410Z AUTO 27003KT 1/4SM FG OVC002 11/10 A3000 RMK 
     AO1=
METAR KPTS 081410Z AUTO 17004KT 7SM -RA SCT010 BKN016 BKN022 
     23/23 A3008 RMK AO2 P0001 T02270228=
METAR KPVJ 081407Z AUTO 00000KT 10SM BKN009 OVC031 25/23 A3006 
     RMK AO2=
SPECI KSUS 081411Z 00000KT 10SM -RA BKN006 BKN012 25/23 A3005 RMK 
    AO2 P0000=
METAR KSVC 081410Z AUTO 09004KT 10SM OVC100 20/14 A3025 RMK AO2=
METAR KTMK 081413Z AUTO 00000KT 5SM BR OVC004 12/12 A2998 RMK AO2=
METAR KWWR 081409Z AUTO 01009KT 10SM RA BKN005 OVC017 22/20 A3018 
     RMK AO2 T02160204=
####018000321####
SPUS99 KWBC 081413
SPECI
KCSM 081411Z 02003KT 9SM -RA FEW008 BKN016 BKN110 23/21 A3014 RMK
     AO2 P0000=
KM89 081410Z AUTO 00000KT 5SM BR OVC006 26/24 A3010 RMK AO2=
KMLI 081411Z 32003KT 10SM SCT011 SCT100 24/22 A3005 RMK AO2=
KSUS 081411Z 00000KT 10SM -RA BKN006 BKN012 25/23 A3005 RMK AO2
     P0000=
####018001928####
SAUS99 KWBC 081413
METAR
K1F0 081407Z AUTO 00000KT OVC006 25/25 A3005 RMK AO2 PWINO=
K36U 081415Z AUTO 00000KT 10SM CLR 14/07 A3025 RMK AO2=
K4O4 081408Z AUTO 14005KT 10SM SCT001 SCT008 SCT013 26/23 A3008
     RMK AO2=
KALM 081410Z AUTO 18005KT 10SM CLR 22/14 A3018 RMK AO2=
KAXS 081410Z AUTO 32005KT 5SM RA SCT004 BKN024 OVC043 23/22 A3011
     RMK AO2 P0002 T02310220=
KAXX 081410Z AUTO 00000KT 10SM CLR 09/06 A3050 RMK AO2=
KBVS 081410Z AUTO 03005KT 9SM CLR 20/13 A2999 RMK A01 P000=
KCHK 081411Z AUTO 03008KT 3SM BR OVC002 23/23 A3007 RMK AO2=
KCLK 081413Z AUTO 02007KT 10SM BKN009 BKN060 BKN110 23/20 A3011
     RMK AO2=
KCUH 081410Z AUTO 00000KT 10SM OVC003 25/23 A3007 RMK AO2=
KFET 081410Z AUTO 01004KT 10SM CLR 21/17 A3018 RMK AO2=
KGCD 081410Z AUTO 11005KT 10SM CLR 17/03 A3014 RMK AO2
     T01660026=
KGMJ 081414Z AUTO 00000KT OVC010 26/25 A3007 RMK AO2 P0001
     PWINO=
KIDP 081410Z AUTO 06003KT 10SM SCT008 24/22 A3007 RMK AO2=
KIZA 081409Z AUTO 00000KT 7SM OVC007 13/11 A2993 RMK AO2=
KJSV 081411Z AUTO 00000KT 10SM SCT034 OVC043 25/23 A3007 RMK
     AO2=
KJWG 081411Z AUTO 03007KT 10SM BKN008 23/23 A3013 RMK AO2=
KL35 081411Z AUTO 00000KT 10SM CLR 09/M03 A3019 RMK AO2=
KLAM 081410Z AUTO 00000KT 10SM CLR 15/08 A3042 RMK AO2=
KLRU 081411Z AUTO 02009KT 10SM CLR 23/13 A3020 RMK AO2=
KOJA 081410Z AUTO 05006KT 7SM BKN007 23/22 A3011 RMK AO2=
KOKM 081411Z AUTO 00000KT 7SM OVC007 25/25 A3006 RMK AO1=
KONP 081410Z AUTO 27003KT 1/4SM FG OVC002 11/10 A3000 RMK AO1=
KPTS 081410Z AUTO 17004KT 7SM -RA SCT010 BKN016 BKN022 23/23 A3008
     RMK AO2 P0001 T02270228=
KPVJ 081407Z AUTO 00000KT 10SM BKN009 OVC031 25/23 A3006 RMK
     AO2=
KSVC 081410Z AUTO 09004KT 10SM OVC100 20/14 A3025 RMK AO2=
KTMK 081413Z AUTO 00000KT 5SM BR OVC004 12/12 A2998 RMK AO2=
KWWR 081409Z AUTO 01009KT 10SM RA BKN005 OVC017 22/20 A3018 RMK
     AO2 T02160204=
####018001696####
SAIY42 LIIB 081400
METAR LIBF 081350Z 33018KT CAVOK 28/07 Q1019 RMK VIS MIN 9999=
METAR LIEA 081350Z 28004KT 210V320 9999 FEW025 33/22 Q1019 RMK VIS
MIN 9999=
METAR LIED 081355Z 15020KT 9999 SCT018 32/16 Q1017 RMK SCT VIS MIN
9999 BLU=
METAR LIEO 081350Z 05010KT CAVOK 31/21 Q1019 RMK VIS MIN 9999=
METAR LIMA 081350Z 00000KT 9999 FEW035 28/16 Q1021 RMK VIS MIN 9999=
METAR LIQN 081350Z 32005KT 9999 SCT045 30/17 Q1020 RMK VIS MIN 9999=
METAR LIQO 081355Z 19004KT 9999 SCT003 28/21 Q1022 RMK SCT VAL NIL NC
VIS MIN 9999=
METAR LIQW 081355Z 20003KT 9999 FEW025 30/21 Q1020 RMK FEW VIS MIN
9999 BLU=
METAR LIRE 081355Z 24008KT 9999 FEW020 28/20 Q1019 RMK FEW VIS MIN
9999 WIND THR31 23009KT BLU=
METAR LIRG 081355Z 23010KT 9999 FEW030CB SCT033TCU 32/19 Q1019 RMK
SCT MON NE LIB NC VIS MIN 9999 BLU=
METAR LIRH 081355Z 35006KT 9999 FEW035CB SCT040 30/20 Q1019 RMK BKN
MON LIB NC VIS MIN 9999 WIND THR16 30010KT BLU=
METAR LIRI 081350Z 04004KT CAVOK 30/11 Q1018 RMK VIS MIN 9999=
METAR LIRK 081355Z 13008KT CAVOK 16/14 Q1027 RMK SCT SCT060 MON NE
LIB NC VAL NIL NC VIS MIN 9999=
METAR LIRL 081355Z 24009KT 9999 FEW020 30/17 Q1019 RMK FEW MON LIB NC
VIS MIN 9999 BLU=
METAR LIRM 081355Z 13005KT 9999 FEW020 30/15 Q1019 RMK FEW VIS MIN
9999 WIND THR06 07004KT BLU=
METAR LIRS 081355Z 22012KT 9999 FEW040 30/19 Q1019 RMK FEW VIS MIN
9999 WIND THR21 /////KT BLU=
METAR LIRT 081355Z 35010KT CAVOK 18/05 Q1023 RMK SKC MON LIB VAL NIL
VIS MIN 9999=
METAR LIRU 081350Z 26010KT 9999 FEW040 30/17 Q1020 RMK VIS MIN 9999=
METAR LIRV 081355Z 26011KT 9999 SCT032 28/22 Q1020 RMK SCT MON E SE
LIB NC VIS MIN 9999 BLU=
METAR LIRX 081400Z NIL=
METAR LIRZ 081350Z 01009KT 330V050=
####018000316####
SANK31 MNMG 081400
METAR
METAR MNPC 081400Z 10008KT 7000 VCRA FEW014CB BKN016TCU 30/25 Q1010
           CBRA/S  TCURA/SE/SW=
METAR MNRS 081400Z 00000KT 9999 FEW015CB SCT016 26/24 Q1013
                   CB/N/NE/SW/NW=
METAR MNJG 081400Z 00000KT 9999 BA SCT016CB SCT070 25/24 Q1012
                 CB 4C =
####018001234####
SAAL41 DAMM 081400
METAR DAAD 081400Z NIL=
METAR DAAE 081400Z 09010KT CAVOK 28/21 Q1019=
METAR DAAJ 081400Z 03010KT CAVOK 37/04 Q1018=
METAR DAAP 081400Z NIL=
METAR DAAS 081400Z 34008KT CAVOK 35/03 Q1024=
METAR DAAV 081400Z 02014KT CAVOK 29/24 Q1019=
METAR DAAY 081400Z 33010KT 9999 FEW033 38/10 Q1024=
METAR DABT 081400Z 34017KT CAVOK 36/03 Q1022=
METAR DAFH 081400Z 09008KT CAVOK 38/15 Q1021=
METAR DAMH 081400Z 04010KT CAVOK 41/13 Q1014=
METAR DAOB 081400Z 01007KT CAVOK 39/07 Q1022=
METAR DAOF 081400Z 18006KT 4500 HZ FEW046 45/// Q1013=
METAR DAOI 081400Z 08008KT CAVOK 44/06 Q1015=
METAR DAOL 081400Z NIL=
METAR DAOR 081400Z 29005KT CAVOK 40/05 Q1022=
METAR DAOV 081400Z 01010KT CAVOK 43/06 Q1018=
METAR DATF 081400Z 33012KT CAVOK 40/06 Q1015=
METAR DATG 081400Z NIL=
METAR DATM 081400Z NIL=
METAR DAUA 081400Z NIL=
METAR DAUB 081400Z 21010KT CAVOK 38/14 Q1015=
METAR DAUE 081400Z NIL=
METAR DAUG 081400Z 12008KT CAVOK 39/11 Q1019=
METAR DAUI 081400Z 07016KT 8000 NSC 46/08 Q1012=
METAR DAUK 081400Z NIL=
METAR DAUL 081400Z 00000KT CAVOK 39/12 Q1021=
METAR DAUO 081400Z 00000KT CAVOK 39/16 Q1016=
METAR DAUT 081400Z ///18KT 4000 DRSA NSC 44/08 Q1014=
METAR DAUU 081400Z 04010KT CAVOK 40/15 Q1016=
####018001076####
SAIY41 LIIB 081400
METAR LIMH 081355Z 10001KT 9999 FEW000TCU 08/00 Q1040 RMK SCT MON CLD
      SCT VAL S CLD SCT VIS MIN 9999=
METAR LIMT 081400Z NIL=
METAR LIMU 081355Z 13003KT 9999 FEW030 29/25 Q1020 RMK SCT QUK 2 QUL
      1 E VIS MAR 20 KM VIS MIN 9999=
METAR LIMV 081355Z 34008KT 7000 SCT012 25/18 Q1022 RMK SCT MON LIB NC
      VAL FOSCHIA VIS MIN 7000=
METAR LIMY 081355Z /////KT 9000 SCT026 SCT046 24/16 Q1023 RMK BKN VAL
      FOSCHIA VIS MIN 9000=
METAR LIVD 081355Z 00000KT CAVOK 25/07 Q1023 RMK SKC VIS MIN 9999=
METAR LIVE 081355Z 19006KT CAVOK 22/11 Q1024 RMK SKC VIS MIN 9999=
METAR LIVF 081355Z 05004KT CAVOK 27/07 Q1022 RMK SKC MON LIB VAL NIL
      VIS MIN 9999=
METAR LIVM 081355Z 13010KT CAVOK 28/22 Q1021 RMK SKC QUK 2 QUL 1 SE
      VIS MAR 30 KM VIS MIN 9999=
METAR LIVO 081355Z 15003KT 9999 FEW040 26/12 Q1021 RMK FEW VIS MIN
      9999=
METAR LIVR 081355Z /////KT 9999 FEW030 18/15 Q1028 RMK FEW MON CLD
      CIME VIS MIN 9999=
METAR LIVT 081355Z 25001KT CAVOK 26/16 Q1021 RMK SKC QUK 1 QUL 0 VIS
      MAR 20 KM VIS MIN 9999=
####018000073####
SAAT31 TQPF 081400
METAR TQPF 081400Z 08014KT 9999 SCT021 30/// Q1016
####018001428####
SAIY43 LIIB 081400
METAR LIBA 081355Z /////KT CAVOK 29/09 Q1019 RMK FEW FEW200 VIS MIN
      9999 WIND THR29 30012KT 260V010 BLU=
METAR LIBC 081350Z 04018KT CAVOK 27/10 Q1017 RMK VIS MIN 9999=
METAR LIBD 081350Z 01016KT CAVOK 25/11 Q1020 RMK VIS MIN 9999=
METAR LIBG 081350Z 36016KT 320V040 CAVOK 27/09 Q1017 RMK VIS MIN
9999=
METAR LIBN 081400Z NIL=
METAR LIBP 081350Z 05005KT 350V110 CAVOK 26/08 Q1021 RMK VIS MIN
9999=
METAR LIBQ 081355Z 30006KT 9999 FEW008TCU SCT009 17/12 Q1024 RMK SCT
      MON LIB VAL NIL VIS MIN 9999=
METAR LIBR 081345Z /////KT CAVOK 26/14 Q1018 NOSIG RMK SKC VIS MIN
      9999 WIND THR13 WIND THR31 33020KT=
METAR LIBV 081355Z 01018KT CAVOK 25/12 Q1017 RMK SKC VIS MIN 9999
      WIND THR14 35016KT BLU=
METAR LICA 081350Z 29014KT 9999 FEW030 29/17 Q1017 RMK VIS MIN 9999=
METAR LICC 081350Z 11014KT CAVOK 28/20 Q1017 RMK VIS MIN 9999=
METAR LICD 081350Z 02009KT CAVOK 26/19 Q1018 RMK VIS MIN 9999=
METAR LICG 081355Z 01005KT 9999 FEW010 24/22 Q1019 RMK FEW VIS MIN
      9999 WIND THR08 36007KT WIND THR21 02006KT BLU=
METAR LICJ 081350Z 04014KT 9999 FEW018 28/23 Q1018 RMK VIS MIN 9999=
METAR LICR 081350Z 22006KT 200V270 9999 SCT025 27/20 Q1018 RMK VIS
MIN 9999=
METAR LICT 081355Z 33012KT 9999 FEW022 30/26 Q1017 RMK FEW VIS MIN
      9999 WIND THR13 33010KT BLU=
METAR LICZ 081355Z 08019KT 9999 FEW020 30/19 Q1017 RMK FEW VIS MIN
      9999 WIND THR28 //////KT BLU=
####018000428####
SAAL40 DAMM 081400
METAR DAAG 081400Z 04017KT CAVOK 34/15 Q1018=
METAR DAAT 081400Z NIL=
METAR DABB 081400Z 02014KT CAVOK 26/21 Q1018=
METAR DABC 081400Z 33006KT CAVOK 34/08 Q1022=
METAR DABS 081400Z 02008KT CAVOK 35/06 Q1022=
METAR DAON 081400Z 02008KT 9999 FEW026 39/19 Q1015=
METAR DAOO 081400Z 36012KT CAVOK 35/22 Q1015=
METAR DAUH 081400Z 06010KT CAVOK 40/21 Q1016=
METAR DAUZ 081400Z 07010KT CAVOK 39/07 Q1015=
####018000100####
SAAG01 SABM 081400 RRD
METAR SAZS 081400Z  29020KT 9000 VCRA SCT015
SCT025  04/02 Q1007 REDZ=
####018000077####
SPUS41 KWBC 081413
SPECI
KEWB 081410Z 13010KT 10SM SCT018 27/21 A3009=
####018000989####
SARS35 RUMS 081400
METAR USPP 081400Z 36003MPS CAVOK 27/11 Q1015 NOSIG RMK QFE750/1000
21090060=
METAR UWKD 081400Z 32003G06MPS 280V350 CAVOK 32/12 Q1014 TEMPO
VRB15MPS 3000 TSRA RMK QFE750/1000 79CLRD70=
METAR UWKE 081400Z 05004MPS 9999 FEW040 31/10 Q1015 NOSIG RMK
QFE744/0992 04090070=
METAR UWKS 081400Z 00000MPS 9999 BKN033CB 27/18 Q1016 NOSIG RMK
QFE746 SC0.60=
METAR UWLL 081400Z 06005MPS 9999 SCT050CB 32/10 Q1014 NOSIG RMK
QFE748/0998 SC065=
METAR UWLW 081400Z 33007G10MPS 8000 SCT040CB 30/15 Q1014 TEMPO
VRB14MPS 3000 -TSRA BKN015CB RMK QFE754=
METAR UWOR 081400Z 06005MPS CAVOK 28/00 Q1014 07CLRD65 NOSIG RMK
QFE735/0980=
METAR UWOO 081400Z 06004MPS P5000 FEW220 32/02 Q1012 26LRD65 NOSIG
RMK QFE748/0998=
METAR UWPP 081400Z 14004MPS 9999 SCT033CB BKN100 32/09 Q1013 NOSIG
RMK QFE745 11090060=
METAR UWSS 081400Z 07004MPS CAVOK 31/09 Q1014 NOSIG RMK QFE748
120///60=
METAR UWWW 081400Z 06005MPS CAVOK 32/08 Q1014 NOSIG RMK QFE748/0997
05CLRD60 15//99//=
####018001534####
SAIY42 LIIB 081400
METAR LIBF 081350Z 33018KT CAVOK 28/07 Q1019 RMK VIS MIN 9999=
METAR LIEA 081350Z 28004KT 210V320 9999 FEW025 33/22 Q1019 RMK VIS
MIN 9999=
METAR LIED 081355Z 15020KT 9999 SCT018 32/16 Q1017 RMK SCT VIS MIN
      9999 BLU=
METAR LIEO 081350Z 05010KT CAVOK 31/21 Q1019 RMK VIS MIN 9999=
METAR LIMA 081350Z 00000KT 9999 FEW035 28/16 Q1021 RMK VIS MIN 9999=
METAR LIQN 081350Z 32005KT 9999 SCT045 30/17 Q1020 RMK VIS MIN 9999=
METAR LIQO 081355Z 19004KT 9999 SCT003 28/21 Q1022 RMK SCT VAL NIL NC
      VIS MIN 9999=
METAR LIQW 081355Z 20003KT 9999 FEW025 30/21 Q1020 RMK FEW VIS MIN
      9999 BLU=
METAR LIRE 081355Z 24008KT 9999 FEW020 28/20 Q1019 RMK FEW VIS MIN
      9999 WIND THR31 23009KT BLU=
METAR LIRG 081355Z 23010KT 9999 FEW030CB SCT033TCU 32/19 Q1019 RMK
     SCT MON NE LIB NC VIS MIN 9999 BLU=
METAR LIRH 081355Z 35006KT 9999 FEW035CB SCT040 30/20 Q1019 RMK BKN
      MON LIB NC VIS MIN 9999 WIND THR16 30010KT BLU=
METAR LIRI 081350Z 04004KT CAVOK 30/11 Q1018 RMK VIS MIN 9999=
METAR LIRK 081355Z 13008KT CAVOK 16/14 Q1027 RMK SCT SCT060 MON NE
      LIB NC VAL NIL NC VIS MIN 9999=
METAR LIRL 081355Z 24009KT 9999 FEW020 30/17 Q1019 RMK FEW MON LIB NC
      VIS MIN 9999 BLU=
METAR LIRM 081355Z 13005KT 9999 FEW020 30/15 Q1019 RMK FEW VIS MIN
      9999 WIND THR06 07004KT BLU=
METAR LIRS 081355Z 22012KT 9999 FEW040 30/19 Q1019 RMK FEW VIS MIN
      9999 WIND THR21 /////KT BLU=
METAR LIRT 081355Z 35010KT CAVOK 18/05 Q1023 RMK SKC MON LIB VAL NIL
      VIS MIN 9999=
####018001562####
SAIY40 LIIB 081400
METAR LIMG 081350Z 08008KT 9999 SCT040 30/25 Q1020 RMK VIS MIN 9999=
METAR LIMK 081355Z 18002KT CAVOK 23/12 Q1023 RMK SKC VAL NIL VIS MIN
      9999=
METAR LIMN 081355Z /////KT CAVOK 28/16 Q1020 RMK FEW FEW200 VIS MIN
      9999 BLU=
METAR LIMP 081350Z 05006KT 010V100 CAVOK 30/15 Q1021 RMK VIS MIN
9999=
METAR LIMS 081355Z 07006KT 020V130 CAVOK 30/15 Q1020 RMK SKC VIS MIN
      9999 WIND THR30 07005KT BLU=
METAR LIMZ 081350Z 05005KT 8000 FEW035 SCT060 26/18 Q1022 RMK VIS
MIN 8000=
METAR LIPA 081400Z NIL=
METAR LIPB 081350Z 18015KT CAVOK 31/12 Q1018 RMK MON LIB VIS MIN
9999=
METAR LIPC 081400Z NIL=
METAR LIPF 081355Z 11003KT 9999 FEW050 29/19 Q1020 RMK FEW VIS MIN
      9999=
METAR LIPH 081345Z 14005KT 9999 FEW025 28/21 Q1021 RMK FEW VIS MIN
      9999 WIND THR07 /////KT BLU=
METAR LIPI 081355Z 19009KT 9999 FEW040 27/20 Q1021 RMK FEW VIS MIN
     9999 WIND THR06 25005KT BLU=
METAR LIPL 081355Z 16004KT 9999 FEW036 30/17 Q1021 RMK FEW VIS MIN
      9999 BLU=
METAR LIPO 081350Z 14004KT 100V200 CAVOK 29/13 Q1020 RMK VIS MIN
9999=
METAR LIPQ 081350Z 26004KT CAVOK 28/15 Q1021=
METAR LIPR 081345Z 07012KT CAVOK 28/19 Q1021 RMK SKC VIS MIN 9999
      WIND THR31 09011KT BLU=
METAR LIPS 081355Z 12004KT 9999 SCT030 28/18 Q1021 RMK SCT VIS MIN
      9999 BLU=
METAR LIPX 081345Z 23003KT 9999 FEW040 30/14 Q1020 RMK FEW VIS MIN
      9999 BLU=
METAR LIPY 081350Z 05010KT CAVOK 26/14 Q1021 RMK VIS MIN 9999=
METAR LIVC 081355Z 00000KT 9999 SCT001 16/11 Q1031 RMK SCT MON LIB
      VAL NIL VIS MIN 9999=
####018000091####
SPUS42 KWBC 081413
SPECI
KBRO 081410Z 31007KT 10SM FEW005 SCT033 SCT070 27/26 A2978=
####018000082####
SPUS52 KWBC 081413
SPECI
KCAO 081410Z AUTO 01011KT 10SM BKN014 17/13 A3032=
####018000083####
SPUS52 KWBC 081413
SPECI
KCLL 081410Z 09009KT 9SM BKN011 OVC017 27/23 A2999=
####018000083####
SPUS72 KWBC 081413
SPECI
KCLL 081410Z 09009KT 9SM BKN011 OVC017 27/23 A2999=
####018000091####
SPUS72 KWBC 081413
SPECI
KBRO 081410Z 31007KT 10SM FEW005 SCT033 SCT070 27/26 A2978=
####018000094####
SPUS31 KKCI 081408
SPECI
K7R3 081408Z 08006KT 7SM BKN011 OVC018 28/25 A3003 RMK DA1500=
####018000306####
SAPS31 NZKL 081400
METAR NCRG 081400Z 05008KT 9999 FEW012 SCT015 25/24 Q1017=
METAR NFTF 081400Z 00000KT 9999 FEW015 18/17 Q1015=
METAR NGFU 081400Z 08007KT 50KM SCT020TCU 28/24 Q1009=
METAR NIUE 081400Z AUTO 14004KT //// ////// 23/21 Q1014=
METAR NSFA 081400Z 00000KT 50KM FEW024 24/23 Q1011=
####018000129####
SAUS46 KLOX 081413
MTRNFG
METAR KNFG 081356Z COR 00000KT 5SM BR FEW011 OVC018 16/13 A2991 RMK 
AO2 SLP129 T01560133 TSNO
####018001279####
SACO20 SKBO 081400
METAR
SKAR 081400Z NIL=
SKBG 081400Z VRB02KT 4000S BCFG SCT015 22/20 A3006=
SKBO 081400Z 03004KT 9999 SCT017 BKN070 15/11 A3035 RERA=
SKBQ 081400Z 20004KT 8000 HZ SCT010 BKN070 28/26 A2992=
SKCC 081400Z NIL=
SKCG 081400Z 07003KT 9999 SCT015 BKN070 28/25 A2990=
SKCL 081400Z 00000KT 8000 FEW005 SCT020 BKN090 23/20 A3005=
SKEJ 081400Z 19004KT 9999 SCT010 SCT100 26/25 A2993=
SKIB 081400Z NIL=
SKIP 081400Z 06003KT 9999 BKN018 12/10 A3042=
SKLC 081400Z 21004KT 9999 SCT015 27/24 A2991=
SKLT 081400Z 00000KT 9999 FEW015 SCT070 28/25 A2993=
SKMD 081400Z 00000KT 6000 SCT030 OVC080 20/15 A3014=
SKMR 081400Z 00000KT 9999 SCT015 BKN090 27/25 A2989=
SKMZ 081400Z NIL=
SKNV 081400Z 01003KT 9999 FEW007 BKN100 24/21 A2998=
SKPC 081400Z NIL=
SKPE 081400Z 00000KT 9999 FEW015 BKN080 21/18 A3014=
SKPS 081400Z NIL=
SKPV 081400Z NIL=
SKRG 081400Z VRB02KT 4000 -DZ BR BKN004 SCT080 15/14 A3033=
SKRH 081400Z 14005KT 9999 FEW020 OVC090 25/23 A2990 RETSRA=
SKSM 081400Z NIL=
SKSP 081400Z 09005KT 9999 FEW015 30/26 A2987=
SKUC 081400Z 00000KT 1500 -DZ OVC008 22/22 A2997 REDZ=
SKUI 081400Z NIL=
SKVP 081400Z 06005KT 8000 -DZ FEW005 BKN070 23/23 A2996 REDZ=
SKVV 081400Z 00000KT 9999 FEW023 OVC080 26/22 A2997=
NNNN
####018000176####
SPNA14 KAWN 081413 RRA
SPECI KNLC 081405Z 31006KT 10SM CLR 18/11 A2985 RMK AO2 RH/60 $=
SPECI KTIK 081406Z AUTO 01004KT 10SM BKN008 25/22 A3007 RMK AO2 SLP172
      $=
####018000569####
SANA14 KAWN 081400 RRE
METAR KNEL 081406Z AUTO 16007KT 7SM BKN012 OVC095 27/21 A3004 RMK AO2
      SLP172 T02720211 $=
METAR KNID 081356Z 00000KT 10SM CLR 22/04 A2989 RMK AO2 SLP100 T02170039
      $=
METAR KNPA 081356Z 00000KT 10SM FEW250 30/24 A3003 RMK SLP171 T03000244=
METAR KNXP 081356Z AUTO 29009KT CLR 25/00 A2994 RMK AO2 SLP100 T02500000
      $=
METAR KRDR 081355Z COR 32007KT 10SM FEW090 20/15 A3008 RMK AO2A SLP196
      T02040145 $=
METAR KVBG 081355Z 32004KT 4SM BR OVC004 12/11 A2995 RMK AO2 CIG 002V006
      SLP132 T01170111 $=
####018000082####
SPUS81 KWBC 081413
SPECI
KCAO 081410Z AUTO 01011KT 10SM BKN014 17/13 A3032=
####018000083####
SPUS81 KWBC 081413
SPECI
KCLL 081410Z 09009KT 9SM BKN011 OVC017 27/23 A2999=
####018000090####
SANM40 FYWW 081400 RRA
METAR FYOT 081400Z AUTO 05005KT //// // ////// 24/03 Q////=

####018000080####
SPUS81 KWBC 081413
SPECI
PASN 081409Z 06013KT 1/2SM FG VV001 05/05 A2992=
####018000178####
SPUS90 KWBC 081414
SPECI KCAO 081410Z AUTO 01011KT 10SM BKN014 17/13 A3032 RMK AO2
     TSNO=
SPECI K7R3 081408Z 08006KT 7SM BKN011 OVC018 28/25 A3003 RMK
     DA1500=
####018000101####
SAUS90 KWBC 081414
METAR KEHA 081408Z AUTO 02013KT 17/16 RMK AO1 PK WND 15 005
     T01720156=
####018000109####
SAAK41 KNKA 081413
SPECI PAKF 081411Z AUTO 10006KT 10SM SCT010 BKN018 OVC040 08/07 
    A2987 RMK AO2=
####018002709####
SAUS20 KNKA 081413
METAR KADH 081411Z AUTO 00000KT 10SM BKN006 BKN033 23/22 A3006 
     RMK AO2=
METAR KAFK 081410Z AUTO 03007KT 10SM CLR 23/19 A3015 RMK AO2 
     T02250194=
METAR KAIK 081415Z AUTO 30007KT 10SM CLR 31/25 A3004 RMK AO2 LTG 
     DSNT NW PNO=
METAR KANW 081410Z AUTO 29004KT 10SM CLR 20/14 A3026 RMK AO2 
     T01970139=
SPECI KARA 081412Z 09006KT 9SM SCT011 BKN017 28/25 A3004 RMK AO2=
METAR KARW 081415Z AUTO 31006KT 10SM CLR 30/19 A2997 RMK AO2=
METAR KATS 081410Z AUTO 36008KT 10SM BKN027 OVC035 19/18 A3021 
     RMK AO2=
METAR KAUH 081410Z AUTO 36005KT 10SM CLR 20/15 A3021 RMK AO2 
     T01950147=
METAR KAUN 081410Z AUTO 00000KT 10SM CLR 21/15 A2988 RMK AO1=
SPECI KBAZ 081412Z AUTO 05007KT 4SM RA BR SCT007 BKN014 OVC020 25/24 
    A2996 RMK AO2 P0004=
METAR KBIE 081410Z AUTO 03006KT 10SM CLR 21/18 A3016 RMK AO2 
     T02120183=
METAR KBTA 081410Z AUTO 35006KT 10SM CLR 21/17 A3016 RMK AO2 
     T02100168=
METAR KBVN 081410Z AUTO 30003KT 10SM CLR 21/16 A3022 RMK AO2 
     T02080159=
METAR KCQB 081411Z AUTO 00000KT 7SM 24/24 A3007 RMK AO2 PWINO TSNO=
METAR KDUA 081417Z AUTO 16008KT 10SM OVC008 26/24 A3007 RMK AO2=
METAR KDVO 081410Z AUTO 02003KT 10SM OVC010 12/12 A2994 RMK AO2=
METAR KFDW 081415Z AUTO 00000KT 10SM CLR 31/18 A3000 RMK AO1=
METAR KGCM 081417Z AUTO 06005KT 10SM OVC005 24/23 A3009 RMK AO2=
METAR KGLY 081415Z AUTO 00000KT 9SM SCT008 BKN017 OVC039 24/23 
     A3009 RMK AO2 =
METAR KHDE 081410Z AUTO 36004KT 10SM SCT095 19/16 A3024 RMK AO2 
     T01890156=
METAR KHJH 081410Z AUTO 00000KT 10SM SCT035 20/18 A3019 RMK AO2 
     T02030175=
METAR KIBM 081410Z AUTO 00000KT 10SM -DZ SCT040 OVC065 14/11 
     A3033 RMK AO2 T01350110=
SPECI KJFK 081412Z 15008KT 10SM BKN013 BKN130 BKN250 27/22 A3006 RMK 
    AO2=
METAR KJYR 081410Z AUTO 04006KT 10SM CLR 20/17 A3019 RMK AO2=
METAR KLCG 081410Z AUTO 00000KT 10SM CLR 21/16 A3019 RMK AO2 
     T02130164=
METAR KLHM 081411Z AUTO 15006KT 10SM CLR 16/11 A2985 RMK AO1 
     T01640111=
METAR KMEZ 081415Z AUTO 00000KT 7SM SCT013 SCT018 OVC035 27/23 
     A3011 RMK AO2=
METAR KORS 081410Z AUTO 00000KT 10SM CLR 18/16 A2997 RMK AO2=
METAR KOUN 081413Z AUTO 34005KT 10SM SCT011 BKN030 OVC080 27/23 
     A3008 RMK AO2=
METAR KPLU 081410Z AUTO 00000KT 10SM FEW026 FEW050 16/13 A2995 
     RMK AO2=
METAR KPSO 081415Z AUTO 00000KT 10SM CLR 16/05 A3042 RMK AO2=
METAR KSNL 081412Z AUTO 35004KT 10SM OVC005 25/24 A3008 RMK AO2=
METAR KSRE 081410Z AUTO 00000KT 10SM CLR 25/24 A3006 RMK AO2=
METAR KTEX 081412Z AUTO 00000KT 10SM CLR 16/05 A3047 RMK AO2=
METAR KTQH 081414Z AUTO 00000KT 5SM BR OVC008 23/23 A3008 RMK AO2=
####018000316####
SABN31 OBBI 081400
METAR OBBI 081400Z 05008KT 4500 HZ SKC 35/26 Q0999 NOSIG=
METAR OEDF 081400Z 05012KT CAVOK 41/09 Q0999 NOSIG=
METAR OEDR 081400Z 03011KT 8000 SKC 39/21 Q0997 NOSIG=
METAR OTBD 081400Z 06007KT 4000 HZ NSC 36/29 Q0999 NOSIG=
METAR OKBK 081400Z 34017KT 6000 -BLDU SKC 47/M03 Q0998 NOSIG=
####018000343####
SPUS99 KWBC 081414
SPECI
KARA 081412Z 09006KT 9SM SCT011 BKN017 28/25 A3004 RMK AO2=
KBAZ 081412Z AUTO 05007KT 4SM RA BR SCT007 BKN014 OVC020 25/24
     A2996 RMK AO2 P0004=
KJFK 081412Z 15008KT 10SM BKN013 BKN130 BKN250 27/22 A3006 RMK
     AO2=
PAKF 081411Z AUTO 10006KT 10SM SCT010 BKN018 OVC040 08/07 A2987
     RMK AO2=
####018002259####
SAUS99 KWBC 081414
METAR
KADH 081411Z AUTO 00000KT 10SM BKN006 BKN033 23/22 A3006 RMK
     AO2=
KAFK 081410Z AUTO 03007KT 10SM CLR 23/19 A3015 RMK AO2
     T02250194=
KAIK 081415Z AUTO 30007KT 10SM CLR 31/25 A3004 RMK AO2 LTG DSNT NW
     PNO=
KANW 081410Z AUTO 29004KT 10SM CLR 20/14 A3026 RMK AO2
     T01970139=
KARW 081415Z AUTO 31006KT 10SM CLR 30/19 A2997 RMK AO2=
KATS 081410Z AUTO 36008KT 10SM BKN027 OVC035 19/18 A3021 RMK
     AO2=
KAUH 081410Z AUTO 36005KT 10SM CLR 20/15 A3021 RMK AO2
     T01950147=
KAUN 081410Z AUTO 00000KT 10SM CLR 21/15 A2988 RMK AO1=
KBIE 081410Z AUTO 03006KT 10SM CLR 21/18 A3016 RMK AO2
     T02120183=
KBTA 081410Z AUTO 35006KT 10SM CLR 21/17 A3016 RMK AO2
     T02100168=
KBVN 081410Z AUTO 30003KT 10SM CLR 21/16 A3022 RMK AO2
     T02080159=
KCQB 081411Z AUTO 00000KT 7SM 24/24 A3007 RMK AO2 PWINO TSNO=
KDUA 081417Z AUTO 16008KT 10SM OVC008 26/24 A3007 RMK AO2=
KDVO 081410Z AUTO 02003KT 10SM OVC010 12/12 A2994 RMK AO2=
KFDW 081415Z AUTO 00000KT 10SM CLR 31/18 A3000 RMK AO1=
KGCM 081417Z AUTO 06005KT 10SM OVC005 24/23 A3009 RMK AO2=
KGLY 081415Z AUTO 00000KT 9SM SCT008 BKN017 OVC039 24/23 A3009 RMK
     AO2=
KHDE 081410Z AUTO 36004KT 10SM SCT095 19/16 A3024 RMK AO2
     T01890156=
KHJH 081410Z AUTO 00000KT 10SM SCT035 20/18 A3019 RMK AO2
     T02030175=
KIBM 081410Z AUTO 00000KT 10SM -DZ SCT040 OVC065 14/11 A3033 RMK
     AO2 T01350110=
KJYR 081410Z AUTO 04006KT 10SM CLR 20/17 A3019 RMK AO2=
KLCG 081410Z AUTO 00000KT 10SM CLR 21/16 A3019 RMK AO2
     T02130164=
KLHM 081411Z AUTO 15006KT 10SM CLR 16/11 A2985 RMK AO1
     T01640111=
KMEZ 081415Z AUTO 00000KT 7SM SCT013 SCT018 OVC035 27/23 A3011 RMK
     AO2=
KORS 081410Z AUTO 00000KT 10SM CLR 18/16 A2997 RMK AO2=
KOUN 081413Z AUTO 34005KT 10SM SCT011 BKN030 OVC080 27/23 A3008
     RMK AO2=
KPLU 081410Z AUTO 00000KT 10SM FEW026 FEW050 16/13 A2995 RMK
     AO2=
KPSO 081415Z AUTO 00000KT 10SM CLR 16/05 A3042 RMK AO2=
KSNL 081412Z AUTO 35004KT 10SM OVC005 25/24 A3008 RMK AO2=
KSRE 081410Z AUTO 00000KT 10SM CLR 25/24 A3006 RMK AO2=
KTEX 081412Z AUTO 00000KT 10SM CLR 16/05 A3047 RMK AO2=
KTQH 081414Z AUTO 00000KT 5SM BR OVC008 23/23 A3008 RMK AO2=
####018000122####
SAMX53 MMMZ 081400
METAR MMGM 081404Z RTD 00000KT 10SM  BKN075 28/17 A2977 
      RMK 8/070 HZY RTS=





TX_OPMET
####018000445####
SACN86 KWBC 081414
METAR CWAJ 081400Z AUTO 27/22 RMK AO1 SLP161 T02670224 58003=
METAR CWBE 081400Z AUTO 09002KT 18/18 RMK AO1 SLP160 T01820176
58002=
METAR CWAJ 081400Z AUTO 27/22 RMK AO1 SLP161 T02670224 58003=
METAR CWBE 081400Z AUTO 09002KT 18/18 RMK AO1 SLP160 T01820176
58002=
METAR CWBE 081400Z AUTO 09002KT 18/18 RMK AO1 SLP160 T01820176
58002=
METAR CWNC 081400Z AUTO 16002KT 23/21 RMK AO1 SLP161 T02260210
56001=
####018000139####
SACN85 KWBC 081414
METAR CWER 081400Z AUTO 06013KT RMK AO1 =
METAR CWBY 081400Z AUTO 05003KT 16/15 RMK AO1 SLP160 T01610148
58003=
####018000095####
SACN88 KWBC 081414
METAR CERM 081400Z AUTO 14002KT 28/23 RMK AO1 SLP151 T02770227
58005=
####018000301####
SACN94 KWBC 081414
METAR CWRJ 081400Z AUTO 27004KT 14/14 RMK AO1 SLP200 T01420141
53004=
METAR CWRT 081400Z AUTO 00000KT 11/09 RMK AO1 T01050093=
METAR CWRZ 081400Z AUTO 10002KT 17/ RMK AO1 0PAST HR 8001 SLP154
P0004 T0166 50010=
METAR CWST 081400Z AUTO 04004KT 20/17 RMK AO1 T01980169=
####018000228####
SACN90 KWBC 081414
METAR CWGD 081400Z AUTO 14005KT 29/22 RMK AO1 SLP154 T02850220
58006=
METAR CWGH 081400Z AUTO 19003KT 28/24 RMK AO1 SLP157 T02820240
58002=
METAR CWGM 081400Z AUTO 19004KT 14/07 RMK AO1 T01370073=
####018001486####
SACN89 KWBC 081414
METAR CWAV 081400Z AUTO 00000KT 14/09 RMK AO1 SLP203 T01430086
57003=
METAR CWBA 081400Z AUTO 17007KT 27/22 RMK AO1 T02730218=
METAR CWBZ 081400Z AUTO 26004KT 30/25 RMK AO1 SLP155 T02980246
58001=
METAR CWCO 081400Z AUTO 19004KT 28/21 RMK AO1 SLP143 T02780210
58006=
METAR CWDK 081400Z AUTO 13003KT 15/10 RMK AO1 SLP216 T01500099
55002=
METAR CWCO 081400Z AUTO 19004KT 28/21 RMK AO1 SLP143 T02780210
58006=
METAR CWDK 081400Z AUTO 13003KT 15/10 RMK AO1 SLP216 T01500099
55002=
METAR CWCO 081400Z AUTO 19004KT 28/21 RMK AO1 SLP143 T02780210
58006=
METAR CWDK 081400Z AUTO 13003KT 15/10 RMK AO1 SLP216 T01500099
55002=
METAR CWCO 081400Z AUTO 19004KT 28/21 RMK AO1 SLP143 T02780210
58006=
METAR CWDK 081400Z AUTO 13003KT 15/10 RMK AO1 SLP216 T01500099
55002=
METAR CWCO 081400Z AUTO 19004KT 28/21 RMK AO1 SLP143 T02780210
58006=
METAR CWDK 081400Z AUTO 13003KT 15/10 RMK AO1 SLP216 T01500099
55002=
METAR CWCO 081400Z AUTO 19004KT 28/21 RMK AO1 SLP143 T02780210
58006=
METAR CWDK 081400Z AUTO 13003KT 15/10 RMK AO1 SLP216 T01500099
55002=
METAR CWCO 081400Z AUTO 19004KT 28/21 RMK AO1 SLP143 T02780210
58006=
METAR CWDK 081400Z AUTO 13003KT 15/10 RMK AO1 SLP216 T01500099
55002=
METAR CWDK 081400Z AUTO 13003KT 15/10 RMK AO1 SLP216 T01500099
55002=
METAR CWDK 081400Z AUTO 13003KT 15/10 RMK AO1 SLP216 T01500099
55002=
METAR CWDK 081400Z AUTO 13003KT 15/10 RMK AO1 SLP216 T01500099
55002=
####018000657####
SACN91 KWBC 081414
METAR CWGX 081400Z AUTO 26009KT 17/10 RMK AO1 SLP073 T01710100
58012=
METAR CWHV 081400Z AUTO 19003KT 28/23 RMK AO1 SLP161 T02760228
58001=
METAR CWIG 081400Z AUTO 03007KT RMK AO1 =
METAR CWIS 081400Z AUTO 20005KT 24/21 RMK AO1 SLP167 T02440209
58003=
METAR CWIW 081400Z AUTO 26006KT 16/12 RMK AO1 SLP203 T01570121
53004=
METAR CWJH 081400Z AUTO 26003KT 15/09 RMK AO1 SLP123 T01530090
58008=
METAR CWIS 081400Z AUTO 20005KT 24/21 RMK AO1 SLP167 T02440209
58003=
METAR CWIW 081400Z AUTO 26006KT 16/12 RMK AO1 SLP203 T01570121
53004=
METAR CWJH 081400Z AUTO 26003KT 15/09 RMK AO1 SLP123 T01530090
58008=
####018000143####
SAAF13 LFPW 081400 RRA
METAR GOSS 081400Z 26006KT 170V040 9999 SCT016 33/25 Q1012=
METAR GOTT 081400Z 22006KT 9999 BKN013 TCU 33/26 Q1013=
####018000169####
SACN87 KWBC 081414
METAR CWCT 081400Z AUTO 23008KT 16/11 RMK AO1 SLP205 T01550114
56007=
METAR CWLB 081400Z AUTO 28004KT 17/13 RMK AO1 SLP173 T01700128
55008=
####018000647####
SACN97 KWBC 081414
METAR CXBO 081400Z AUTO 09008KT 22/18 RMK AO1 T02150184=
METAR CXCH 081400Z AUTO 26/17 RMK AO1 T02630173=
METAR CXGH 081400Z AUTO 31008KT 17/15 RMK AO1 T01730149=
METAR CXHA 081400Z AUTO 26004KT 31/21 RMK AO1 SLP151 T03050212
57004=
METAR CXMY 081400Z AUTO 23/20 RMK AO1 T02320196=
METAR CXTP 081400Z AUTO 22007KT 19/14 RMK AO1 SLP215 T01850139
56010=
METAR CXGH 081400Z AUTO 31008KT 17/15 RMK AO1 T01730149=
METAR CXHA 081400Z AUTO 26004KT 31/21 RMK AO1 SLP151 T03050212
57004=
METAR CXMY 081400Z AUTO 23/20 RMK AO1 T02320196=
METAR CXTP 081400Z AUTO 22007KT 19/14 RMK AO1 SLP215 T01850139
56010=
####018000312####
SACN93 KWBC 081414
METAR CWNE 081400Z AUTO 23014KT 22/18 RMK AO1 PK WND 23020/1313
SLP165 T02160181 58003=
METAR CWNK 081400Z AUTO 31006KT 18/11 RMK AO1 T01750110=
METAR CWOD 081400Z AUTO 04002KT 27/ RMK AO1 SLP127 T0271 58006=
METAR CWPD 081400Z AUTO 21004KT 24/21 RMK AO1 SLP125 T02420206
58007=
####018000073####
SPAG SAME 081407
SPECI SAME 081407Z 09007KT 6000 FU NSC 09/M05 Q1015=
####018000228####
SANG31 YBBN 081400
METAR AYPY 081400Z NIL=
METAR AYWK 081400Z NIL=
METAR AYVN 081400Z NIL=
METAR AYNZ 081400Z NIL=
METAR AYMH 081400Z NIL=
METAR AYGN 081400Z NIL=
METAR AYMO 081400Z NIL=
METAR AGGH 081400Z NIL=
####018000279####
SAAF18 LFPW 081400 RRA
METAR FMEE 081400Z 12017KT 9999 FEW023 SCT060 21/15 Q1021 NOSIG=
METAR FMMI 081400Z 15007KT 110V180 9999 SCT020 BKN023 16/14 Q1026
 NOSIG=
METAR FMMT 081400Z 22010KT 9999 VCSH SCT017 SCT033 22/20 Q1021=
METAR FMNM 081400Z 16006KT CAVOK 30/13 Q1016=
####018001111####
SAAG05 SABM 081400
METAR SAAR 081400Z  34004KT 9000  NSC  13/05 Q1018=
METAR SABE 081400Z  27008KT CAVOK 14/01 Q1019=
METAR SACO 081400Z  02018KT CAVOK 16/M16 Q1019=
METAR SADF 081400Z NIL=
METAR SAEZ 081400Z 33004KT 280V020 CAVOK 12/03 Q1018=
METAR SAME 081400Z 36003KT CAVOK 09/M05 Q1015=
METAR SANT 081400Z  18003KT 8000  13/06 Q1018=
METAR SAOC 081400Z 36016KT CAVOK 14/M10 Q1015=
METAR SARC 081400Z  11011KT 9999  FEW016  13/09
Q1019=
METAR SARE 081400Z 14009KT 9999 FEW008 13/09 Q1019=
METAR SARF 081400Z  16012KT 9999  OVC009  15/13
Q1018=
METAR SARI 081400Z  00000KT CAVOK 19/17 Q1019=
METAR SARL 081400Z  14018KT 9999  13/06 Q1021=
METAR SARP 081400Z  07006KT 9999  SCT005 BKN015
17/14 Q1018=
METAR SASA 081400Z 14004KT CAVOK 13/07 Q1020=
METAR SASJ 081400Z  00000KT CAVOK 17/09 Q1018=
METAR SAVC 081400Z  27014KT 9999  FEW040  06/M01
Q1002=
METAR SAWE 081400Z NIL=
METAR SAWG 081400Z  29012KT CAVOK M03/M07 Q0991=
METAR SAWH 081400Z  00000KT 9999  FEW030 SCT100
00/M01 Q0982=
METAR SAZM 081400Z  32018KT CAVOK 12/03 Q1014=
METAR SAZN 081400Z NIL=
METAR SAZS 081400Z NIL=
####018000243####
SACN92 KWBC 081414
METAR CWJI 081400Z AUTO 00000KT 15/12 RMK AO1 SLP220 T01450118
52009=
METAR CWJX 081400Z AUTO 24003KT 14/12 RMK AO1 SLP216 T01410124
53001=
METAR CWLE 081400Z AUTO 00000KT 16/14 RMK AO1 SLP216 T01550137
53004=
####018000154####
SACN96 KWBC 081414
METAR CWZL 081400Z AUTO 35004KT 17/11 RMK AO1 SLP188 T01740107
53005=
METAR CXHM 081400Z AUTO 23002KT 30/22 RMK AO1 T02950218=
####018001480####
SAAU31 YBBN 081400
METAR YPAD 081400Z 03005KT 9999 FEW047 05/03 Q1025=
METAR YBAS 081400Z AUTO 09005KT 9999NDV // NCD 07/06 Q1021=
METAR YBBN 081400Z 21008KT 9999 SCT040 13/10 Q1020
NOSIG=
METAR YBCS 081400Z 15007KT 9999 FEW025 SCT050 22/19 Q1016=
METAR YSCB 081400Z AUTO 00000KT 9999NDV // SCT025 02/01 Q1028=
METAR YPXM 081400Z AUTO 21005KT //// // NCD 22/19 Q1015=
METAR YPCC 081400Z AUTO 14010KT 9999NDV // SCT023 OVC041 26/22 Q1014=
METAR YCFS 081400Z AUTO 23011KT 9999NDV // SCT055 14/09 Q1023=
METAR YPDN 081400Z 18007KT CAVOK 24/21 Q1014=
METAR YBCG 081400Z AUTO 19012KT 9999NDV // BKN100 15/12 Q1021=
METAR YHID 081400Z AUTO 16009KT 9999NDV // NCD 25/22 Q1013=
METAR YPJT 081400Z AUTO 03008KT 9999NDV // SCT025 SCT044 BKN062 13/12
Q0996=
METAR YPKU 081400Z AUTO 16005KT 9999NDV // NCD 22/16 Q1015=
METAR YPLM 081400Z AUTO 23003KT 9999NDV // SCT021 SCT039 OVC046 19/17
Q1010=
METAR YMML 081400Z 36008KT CAVOK 04/03 Q1028
RMK HZ
FM1400 VRB03KT 4000 BR SKC=
METAR YPPH 081400Z 01011KT 9999 -SHRA FEW022 SCT042 13/13 Q0996
RMK WBD 0.3
INTER 1400/1700 29030G50KT 2000 TSGS BKN010 FEW030CB=
METAR YSSY 081400Z 26010KT 9999 VCSH FEW010 SCT019 11/10 Q1027
FM1400 22008KT 9999 -SHRA SCT020 BKN045
INTER 1400/1700 5000 SHRA BKN010=
METAR YSTW 081400Z AUTO 16006KT 9999NDV // NCD 06/04 Q1024=
METAR YPTN 081400Z AUTO 09005KT 9999NDV // NCD 22/15 Q1015=
METAR YBTL 081400Z AUTO 13008KT 9999NDV // SCT010 OVC018 21/19 Q1017=
####018001352####
SAAU32 YBBN 081400
METAR YAMB 081400Z AUTO 22001KT 9999NDV // SCT100 11/09 Q1021=
METAR YMAV 081400Z AUTO 32003KT 9999NDV // BKN046 07/04 Q1028=
METAR YBRM 081400Z AUTO 36004KT 9999NDV // BKN026 OVC031 23/22 Q1012=
METAR YCIN 081400Z AUTO 09007KT //// // ////// 22/18 Q1013=
METAR YSDU 081400Z AUTO 16010KT 9999NDV // NCD 07/05 Q1026=
METAR YFRT 081400Z AUTO 03007KT //// // ////// 11/03 Q1013=
METAR YGEL 081400Z AUTO 29017KT 9999NDV // NCD 17/11 Q1001=
METAR YPGV 081400Z AUTO 16008KT 9999NDV // SCT012 SCT021 BKN033 24/22
Q1014=
METAR YBHM 081400Z AUTO 15014KT //// // ////// 18/15 Q1018=
METAR YMHB 081400Z 31006KT CAVOK 02/01 Q1030=
METAR YPKG 081400Z AUTO 35005KT 9999NDV // NCD 16/05 Q1003=
METAR YMLT 081400Z AUTO 21005KT 0400NDV // ////// 00/M00 Q1030
RMK CLD:SKY MAY BE OBSC=
METAR YBMA 081400Z AUTO 00000KT 6000NDV // NCD 08/07 Q1020=
METAR YSNF 081400Z AUTO 12009KT 9999NDV // OVC041 15/08 Q1018=
METAR YPEA 081400Z AUTO 36009KT 9999NDV // BKN062 BKN071 13/12 Q0996=
METAR YPPD 081400Z AUTO 03003KT 5000NDV // OVC029 22/21 Q1010=
METAR YSRI 081400Z AUTO 21004KT 9999NDV // SCT044 SCT061 OVC071 10/10
Q1027=
METAR YBRK 081400Z AUTO 27003KT 9999NDV // OVC030 13/12 Q1019=
METAR YWLM 081400Z AUTO 29005KT 9999NDV // ////// 09/09 Q1026=
METAR YPWR 081400Z AUTO 10005KT 9999NDV // NCD 06/01 Q1023=
####018000087####
SAKN61 HKJK 081400
METAR HKJK 081400Z 16008KT 9999 FEW023 SCT090 19/12 Q1022 NOSIG=
####018000334####
SAAL31 DAAA 081400
METAR DAAG 081400Z 04017KT CAVOK 34/15 Q1018=
METAR DAAT 081400Z NIL=
METAR DABB 081400Z 02014KT CAVOK 26/21 Q1018=
METAR DABC 081400Z 33006KT CAVOK 34/08 Q1022=
METAR DAON 081400Z 02008KT 9999 FEW026 39/19 Q1015=
METAR DAOO 081400Z 36012KT CAVOK 35/22 Q1015=
METAR DAUH 081400Z 06010KT CAVOK 40/21 Q1016=
####018000316####
SAAF21 LFPW 081400 RRA
METAR FAJS 081400Z 05010KT 9999 SCT045 16/03 Q1032 NOSIG=
METAR FALA 081400Z 36007KT 320V050 9999 FEW049 18/03 Q1031 NOSIG=
METAR FAMM 081400Z 02011KT 9999 SCT040 19/02 Q1029 NOSIG=
METAR FAPE 081400Z 05012KT CAVOK 18/12 Q1021 NOSIG=
METAR FAUP 081400Z 36014KT CAVOK 25/01 Q1024 NOSIG=
####018000175####
SPUS80 KWBC 081414
SPECI
KCAO 081410Z AUTO 01011KT 10SM BKN014 17/13 A3032 RMK AO2 TSNO=
KSUS 081411Z 00000KT 10SM -RA BKN006 BKN012 25/23 A3005 RMK AO2
     P0000=
####018000123####
SAGW20 GGOV 081400
METAR GGOV 081400Z 18006KT 130V240 9999 SCT015TCU FEW020CB 31/24
                   Q1013 TEMPO TS=
####018000122####
SAXX60 KWBC 081414
METAR
KNEL 081406Z AUTO 16007KT 7SM BKN012 OVC095 27/21 A3004 RMK AO2
     SLP172 T02720211 $=
####018000309####
SAXX60 KWBC 081300 RRM
METAR
KNPA 081256Z 00000KT 8SM FEW050 FEW250 28/25 A3003 RMK FU FEW050
     SLP170 T02830250=
KNPA 081256Z 00000KT 8SM FEW050 FEW250 28/25 A3003 RMK FU FEW050
     SLP170 T02830250=
KNPA 081256Z 00000KT 8SM FEW050 FEW250 28/25 A3003 RMK FU FEW050
     SLP170 T02830250=
####018000093####
SACZ41 LKPW 081400
METAR LKKU 081400Z NIL=
METAR LKLB 081400Z VRB05KT CAVOK 26/06 Q1022=
####018003699####
SAUS70 KWBC 081414
METAR
K1F0 081407Z AUTO 00000KT OVC006 25/25 A3005 RMK AO2 PWINO=
K36U 081415Z AUTO 00000KT 10SM CLR 14/07 A3025 RMK AO2=
K4O4 081408Z AUTO 14005KT 10SM SCT001 SCT008 SCT013 26/23 A3008
     RMK AO2=
KALM 081410Z AUTO 18005KT 10SM CLR 22/14 A3018 RMK AO2=
KAXS 081410Z AUTO 32005KT 5SM RA SCT004 BKN024 OVC043 23/22 A3011
     RMK AO2 P0002 T02310220=
KAXX 081410Z AUTO 00000KT 10SM CLR 09/06 A3050 RMK AO2=
KBVS 081410Z AUTO 03005KT 9SM CLR 20/13 A2999 RMK A01 P000=
KCHK 081411Z AUTO 03008KT 3SM BR OVC002 23/23 A3007 RMK AO2=
KCLK 081413Z AUTO 02007KT 10SM BKN009 BKN060 BKN110 23/20 A3011
     RMK AO2=
KCUH 081410Z AUTO 00000KT 10SM OVC003 25/23 A3007 RMK AO2=
KFET 081410Z AUTO 01004KT 10SM CLR 21/17 A3018 RMK AO2=
KGCD 081410Z AUTO 11005KT 10SM CLR 17/03 A3014 RMK AO2
     T01660026=
KGMJ 081414Z AUTO 00000KT OVC010 26/25 A3007 RMK AO2 P0001
     PWINO=
KIDP 081410Z AUTO 06003KT 10SM SCT008 24/22 A3007 RMK AO2=
KJSV 081411Z AUTO 00000KT 10SM SCT034 OVC043 25/23 A3007 RMK
     AO2=
KJWG 081411Z AUTO 03007KT 10SM BKN008 23/23 A3013 RMK AO2=
KL35 081411Z AUTO 00000KT 10SM CLR 09/M03 A3019 RMK AO2=
KLAM 081410Z AUTO 00000KT 10SM CLR 15/08 A3042 RMK AO2=
KLRU 081411Z AUTO 02009KT 10SM CLR 23/13 A3020 RMK AO2=
KOJA 081410Z AUTO 05006KT 7SM BKN007 23/22 A3011 RMK AO2=
KOKM 081411Z AUTO 00000KT 7SM OVC007 25/25 A3006 RMK AO1=
KONP 081410Z AUTO 27003KT 1/4SM FG OVC002 11/10 A3000 RMK AO1=
KPVJ 081407Z AUTO 00000KT 10SM BKN009 OVC031 25/23 A3006 RMK
     AO2=
KSVC 081410Z AUTO 09004KT 10SM OVC100 20/14 A3025 RMK AO2=
KTMK 081413Z AUTO 00000KT 5SM BR OVC004 12/12 A2998 RMK AO2=
KWWR 081409Z AUTO 01009KT 10SM RA BKN005 OVC017 22/20 A3018 RMK
     AO2 T02160204=
KADH 081411Z AUTO 00000KT 10SM BKN006 BKN033 23/22 A3006 RMK
     AO2=
KAFK 081410Z AUTO 03007KT 10SM CLR 23/19 A3015 RMK AO2
     T02250194=
KAIK 081415Z AUTO 30007KT 10SM CLR 31/25 A3004 RMK AO2 LTG DSNT NW
     PNO=
KANW 081410Z AUTO 29004KT 10SM CLR 20/14 A3026 RMK AO2
     T01970139=
KARW 081415Z AUTO 31006KT 10SM CLR 30/19 A2997 RMK AO2=
KATS 081410Z AUTO 36008KT 10SM BKN027 OVC035 19/18 A3021 RMK
     AO2=
KAUH 081410Z AUTO 36005KT 10SM CLR 20/15 A3021 RMK AO2
     T01950147=
KAUN 081410Z AUTO 00000KT 10SM CLR 21/15 A2988 RMK AO1=
KBIE 081410Z AUTO 03006KT 10SM CLR 21/18 A3016 RMK AO2
     T02120183=
KBTA 081410Z AUTO 35006KT 10SM CLR 21/17 A3016 RMK AO2
     T02100168=
KBVN 081410Z AUTO 30003KT 10SM CLR 21/16 A3022 RMK AO2
     T02080159=
KCQB 081411Z AUTO 00000KT 7SM 24/24 A3007 RMK AO2 PWINO TSNO=
KDUA 081417Z AUTO 16008KT 10SM OVC008 26/24 A3007 RMK AO2=
KDVO 081410Z AUTO 02003KT 10SM OVC010 12/12 A2994 RMK AO2=
KFDW 081415Z AUTO 00000KT 10SM CLR 31/18 A3000 RMK AO1=
KGCM 081417Z AUTO 06005KT 10SM OVC005 24/23 A3009 RMK AO2=
KGLY 081415Z AUTO 00000KT 9SM SCT008 BKN017 OVC039 24/23 A3009 RMK
     AO2=
KHDE 081410Z AUTO 36004KT 10SM SCT095 19/16 A3024 RMK AO2
     T01890156=
KHJH 081410Z AUTO 00000KT 10SM SCT035 20/18 A3019 RMK AO2
     T02030175=
KIBM 081410Z AUTO 00000KT 10SM -DZ SCT040 OVC065 14/11 A3033 RMK
     AO2 T01350110=
KJYR 081410Z AUTO 04006KT 10SM CLR 20/17 A3019 RMK AO2=
KLCG 081410Z AUTO 00000KT 10SM CLR 21/16 A3019 RMK AO2
     T02130164=
KLHM 081411Z AUTO 15006KT 10SM CLR 16/11 A2985 RMK AO1
     T01640111=
KMEZ 081415Z AUTO 00000KT 7SM SCT013 SCT018 OVC035 27/23 A3011 RMK
     AO2=
KORS 081410Z AUTO 00000KT 10SM CLR 18/16 A2997 RMK AO2=
KOUN 081413Z AUTO 34005KT 10SM SCT011 BKN030 OVC080 27/23 A3008
     RMK AO2=
KPLU 081410Z AUTO 00000KT 10SM FEW026 FEW050 16/13 A2995 RMK
     AO2=
####018002386####
SACN95 KWBC 081414
METAR CWTT 081400Z AUTO 23002KT 27/24 RMK AO1 T02730235=
METAR CWVP 081400Z AUTO 33003KT 16/10 RMK AO1 SLP223 T01560099
52005=
METAR CWVQ 081400Z AUTO 24006KT 29/23 RMK AO1 T02860231=
METAR CWVU 081400Z AUTO 17010KT 17/17 RMK AO1 SLP217 T01680165
50006=
METAR CWWF 081400Z AUTO 35005KT 17/12 RMK AO1 SLP212 T01710115
52013=
METAR CWXA 081400Z AUTO 22007G16KT 12/05 RMK AO1 PK WND 26017/1335
SLP217 T01230049 58002=
METAR CWVP 081400Z AUTO 33003KT 16/10 RMK AO1 SLP223 T01560099
52005=
METAR CWVQ 081400Z AUTO 24006KT 29/23 RMK AO1 T02860231=
METAR CWVU 081400Z AUTO 17010KT 17/17 RMK AO1 SLP217 T01680165
50006=
METAR CWWF 081400Z AUTO 35005KT 17/12 RMK AO1 SLP212 T01710115
52013=
METAR CWXA 081400Z AUTO 22007G16KT 12/05 RMK AO1 PK WND 26017/1335
SLP217 T01230049 58002=
METAR CWVQ 081400Z AUTO 24006KT 29/23 RMK AO1 T02860231=
METAR CWVU 081400Z AUTO 17010KT 17/17 RMK AO1 SLP217 T01680165
50006=
METAR CWWF 081400Z AUTO 35005KT 17/12 RMK AO1 SLP212 T01710115
52013=
METAR CWXA 081400Z AUTO 22007G16KT 12/05 RMK AO1 PK WND 26017/1335
SLP217 T01230049 58002=
METAR CWVQ 081400Z AUTO 24006KT 29/23 RMK AO1 T02860231=
METAR CWVU 081400Z AUTO 17010KT 17/17 RMK AO1 SLP217 T01680165
50006=
METAR CWWF 081400Z AUTO 35005KT 17/12 RMK AO1 SLP212 T01710115
52013=
METAR CWXA 081400Z AUTO 22007G16KT 12/05 RMK AO1 PK WND 26017/1335
SLP217 T01230049 58002=
METAR CWXA 081400Z AUTO 22007G16KT 12/05 RMK AO1 PK WND 26017/1335
SLP217 T01230049 58002=
METAR CWXA 081400Z AUTO 22007G16KT 12/05 RMK AO1 PK WND 26017/1335
SLP217 T01230049 58002=
METAR CWXA 081400Z AUTO 22007G16KT 12/05 RMK AO1 PK WND 26017/1335
SLP217 T01230049 58002=
METAR CWXA 081400Z AUTO 22007G16KT 12/05 RMK AO1 PK WND 26017/1335
SLP217 T01230049 58002=
METAR CWXA 081400Z AUTO 22007G16KT 12/05 RMK AO1 PK WND 26017/1335
SLP217 T01230049 58002=
METAR CWXA 081400Z AUTO 22007G16KT 12/05 RMK AO1 PK WND 26017/1335
SLP217 T01230049 58002=
METAR CWXA 081400Z AUTO 22007G16KT 12/05 RMK AO1 PK WND 26017/1335
SLP217 T01230049 58002=
METAR CWXA 081400Z AUTO 22007G16KT 12/05 RMK AO1 PK WND 26017/1335
SLP217 T01230049 58002=
METAR CWXA 081400Z AUTO 22007G16KT 12/05 RMK AO1 PK WND 26017/1335
SLP217 T01230049 58002=
METAR CWXA 081400Z AUTO 22007G16KT 12/05 RMK AO1 PK WND 26017/1335
SLP217 T01230049 58002=
####018000331####
SAUS70 KWBC 081414 RRA
METAR
KPSO 081415Z AUTO 00000KT 10SM CLR 16/05 A3042 RMK AO2=
KSNL 081412Z AUTO 35004KT 10SM OVC005 25/24 A3008 RMK AO2=
KSRE 081410Z AUTO 00000KT 10SM CLR 25/24 A3006 RMK AO2=
KTEX 081412Z AUTO 00000KT 10SM CLR 16/05 A3047 RMK AO2=
KTQH 081414Z AUTO 00000KT 5SM BR OVC008 23/23 A3008 RMK AO2=
####018000190####
SAUS80 KWBC 081414
METAR
KIZA 081409Z AUTO 00000KT 7SM OVC007 13/11 A2993 RMK AO2=
KPTS 081410Z AUTO 17004KT 7SM -RA SCT010 BKN016 BKN022 23/23 A3008
     RMK AO2 P0001 T02270228=
####018000459####
SAAF35 KWBC 081400 RRB
METAR
HEAX 081400Z 32013KT 9999 FEW020 29/22 Q1010=
HEBA 081400Z 32015KT CAVOK 28/20 Q1011=
HEBL 081400Z 02011KT CAVOK 40/08 Q1008=
HECA 081400Z 30012KT CAVOK 33/18 Q1010=
HEGN 081400Z 36022KT CAVOK 38/09 Q1005=
HELX 081400Z 31010KT CAVOK 40/10 Q1006=
HEMM 081400Z 32012KT CAVOK 28/21 Q1012=
HEPS 081400Z 34013KT CAVOK 29/23 Q1010=
HESC 081400Z 07009KT CAVOK 34/09 Q1017=
HESN 081400Z 35010KT CAVOK 40/08 Q1007=
####018000087####
SAAW32 KWBC 081400 RRC
METAR
OTBD 081400Z 06007KT 4000 HZ NSC 36/29 Q0999 NOSIG=
####018000096####
SAAW34 KWBC 081345 RRH
METAR
UTSS 081400Z 08004MPS 9999 NSC 32/13 Q1010 R88/CLRD70 NOSIG=
####018000383####
SAID31 WIII 081400
METAR WIMM 081400Z 24010KT 5000 FEW016CB BKN017 28/25 Q1012 NOSIG= 
METAR WARR 081400Z 00000KT 7000 TSRA FEW020CB SCT020 25/21 Q1011= 
METAR WAAA 081400Z 10001KT 9999 FEW020 25/25 Q1011= 
METAR WIII 081400Z 27005KT 7000 SCT020 25/22 Q1012 NOSIG= 
METAR WADD 081400Z 32004KT 9999 FEW020 27/26 Q1011 NOSIG= 
METAR WIHH NIL=
METAR WABB NIL=
METAR WIDD NIL=
####018000538####
SAAO33 DRRN 081400
METAR DBBB 081400Z 22011KT 9999 SCT012 SCT120 29/25 Q1012 NOSIG=
METAR DFFD 081400Z 17006KT 140V200 9999 FEW040CB BKN130 31/20 Q1014
TEMPO 4000 TSRA=
METAR DGAA 081400Z 20015KT 9999 SCT016 BKN250 31/23 Q1012 NOSIG=
METAR DNKN 081400Z NIL=
METAR DNMM 081400Z 26013KT 9999 BKN012 FEW020CB 29/26 Q1014 NOSIG=
METAR DRRN 081400Z 18005KT 150V220 CAVOK 34/17 Q1011 NOSIG=
METAR DXXX 081400Z 20011KT 9999 FEW016 FEW025CB 28/23 Q1012 NOSIG=
METAR FTTJ 081400Z 33008KT 9999 FEW040 FEW050CB BKN140 30/19 Q1011
NOSIG=
####018000081####
SACA32 KWBC 081400 RRA
METAR
TQPF 081400Z 08014KT 9999 SCT021 30/// Q1016=
####018000136####
SAAF36 KWBC 081400 RRA
METAR
HEMA 081400Z 01021KT CAVOK 35/16 Q1005=
HKJK 081400Z 16008KT 9999 FEW023 SCT090 19/12 Q1022 NOSIG=
####018000087####
SAAW33 KWBC 081400 RRB
METAR
OBBI 081400Z 05008KT 4500 HZ SKC 35/26 Q0999 NOSIG=
####018000186####
SAAF20 LFPW 081400 RRA
METAR FABL 081400Z 01008KT 340V050 9999 FEW050 18/02 Q1030 NOSIG=
METAR FAEL 081400Z 05011KT CAVOK 20/13 Q1023=
METAR FAGG 081400Z 14005KT CAVOK 20/07 Q1018=
####018001692####
SASD20 OEJD 081400
METAR OEAB 081400Z 05016KT 9999  FEW020 SCT070 31/M03 Q1019 NOSIG=
METAR OEAH 081400Z 02013KT CAVOK 45/02 Q1000 NOSIG=
METAR OEBA 081400Z 08008KT 9999 SCT030 36/03 Q1015 NOSIG=
METAR OEBH 081400Z 02012KT CAVOK 39/03 Q1010 NOSIG=
METAR OEDF 081400Z 05012KT CAVOK 41/09 Q0999 NOSIG=
METAR OEDM 081400Z 10010KT CAVOK 40/03 Q1010=
METAR OEDR 081400Z 03011KT 8000 SKC 39/21 Q0997 NOSIG=
METAR OEGN 081400Z 26009KT CAVOK 36/29 Q0999 NOSIG=
METAR OEGS 081400Z 34009KT CAVOK 44/06 Q1007=
METAR OEGT 081400Z NIL=
METAR OEHL 081400Z 33008KT 9999 SCT040 42/01 Q1011 NOSIG=
METAR OEJN 081400Z 30012KT CAVOK 35/25 Q1001 NOSIG=
METAR OEKB 081400Z NIL=
METAR OEKJ 081400Z NIL=
METAR OEKK 081400Z 02015KT CAVOK 45/13 Q1005=
METAR OEKM 081400Z 06010KT 8000 SCT022 30/04 Q1011 NOSIG=
METAR OEMA 081400Z 09010KT 9999 SCT045 47/M04 Q1003 NOSIG=
METAR OEMH 081400Z NIL=
METAR OEMK 081400Z 27003KT CAVOK 43/25 Q1000=
METAR OENG 081400Z 03010KT 4000 DU SCT030 SCT080 39/M01 Q1009 NOSIG=
METAR OEPA 081400Z 33012KT CAVOK 44/05 Q1003=
METAR OERF 081400Z 36002KT CAVOK 44/12 Q1005=
METAR OERK 081400Z 01016KT 8000 SKC 42/M02 Q1006 NOSIG=
METAR OERR 081400Z 27007KT CAVOK 45/10 Q1005=
METAR OERY 081400Z 05020KT 6000 BLDU SKC 43/00 Q1006 NOSIG=
METAR OESH 081400Z 06005KT 6000 SKC 40/16 Q1001 NOSIG=
METAR OESK 081400Z 27011KT CAVOK 44/01 Q1007=
METAR OETB 081400Z 00000KT CAVOK 42/05 Q1007 NOSIG=
METAR OETF 081400Z 00000KT 9999  SCT030 SCT080 38/01 Q1014 NOSIG=
METAR OETR 081400Z 25006KT CAVOK 40/05 Q1009=
METAR OEWD 081400Z 04014KT 4000 BLDU SKC 44/11 Q1003=
METAR OEWJ 081400Z 30018KT CAVOK 32/25 Q1003=
METAR OEYN 081400Z 28016KT 7000 SKC 45/14 Q0998 NOSIG=
####018000548####
SAXX60 KWBC 081400 RRJ
METAR
KNFG 081356Z COR 00000KT 5SM BR FEW011 OVC018 16/13 A2991 RMK AO2
     SLP129 T01560133 TSNO=
KNID 081356Z 00000KT 10SM CLR 22/04 A2989 RMK AO2 SLP100 T02170039
     $=
KNPA 081356Z 00000KT 10SM FEW250 30/24 A3003 RMK SLP171
     T03000244=
KNXP 081356Z AUTO 29009KT CLR 25/00 A2994 RMK AO2 SLP100 T02500000
     $=
KRDR 081355Z COR 32007KT 10SM FEW090 20/15 A3008 RMK AO2A SLP196
     T02040145 $=
KVBG 081355Z 32004KT 4SM BR OVC004 12/11 A2995 RMK AO2 CIG 002V006
     SLP132 T01170111 $=
####018000087####
SAAW42 KWBC 081400 RRA
METAR
OBBI 081400Z 05008KT 4500 HZ SKC 35/26 Q0999 NOSIG=
####018000663####
SAHK31 VHHH 081400
METAR VHHH 081400Z 19007KT 150V240 9999 FEW020 SCT030 31/25 
Q1008 NOSIG=
METAR RCTP 081400Z 19008KT 160V220 9999 FEW025 SCT150 29/25
Q1007 NOSIG=
METAR RCKH 081400Z 27006KT 230V290 9999 FEW013 BKN300 29/26
Q1010 NOSIG=
METAR RCSS 081400Z 09005KT 9999 FEW030 SCT120 30/24 Q1007
NOSIG=
METAR VMMC 081400Z 19010KT 160V260 9999 FEW020 29/27 Q1008
     NOSIG=
METAR RPLL 081400Z 22003KT 9000 FEW025 30/26 Q1011 NOSIG RMK A2986=
METAR RPVM 081400Z 00000KT 9999 FEW020 BKN090 29/26 Q1011 A2986=
METAR RPMD 081400Z NIL=
METAR RPLB 081400Z 01006KT 9999 FEW020 SCT080 29/24 Q1011 NOSIG=
METAR RPLI 081400Z NIL=
METAR RPMZ 081400Z NIL=
####018000301####
SAEE31 LOWM 081400
METAR UACK 081400Z NIL=
METAR UACP 081400Z NIL=
METAR UAII 081400Z NIL=
METAR UADD 081400Z 09002MPS 9999 NSC 31/06 Q1012 NOSIG RMK
QFE702/0937=
METAR UASK 081400Z 03004MPS 9999 FEW033 FE300 21/13 Q1011
                   120/0060 NOSIG RMK QFE733=
METAR UASP 081400Z NIL=
####018000063####
SANK31 MNMG 081400
ME
CHECK
TEXT
NEW ENDING ADDED KATLYTAA
####018000080####
SAEW34 LEMM 081400 RRA
METAR LEDA 081400Z 17007KT 120V210 CAVOK 38/14 Q1018=
####018000075####
SAAF35 KWBC 081300 RRF
METAR
HESN 081300Z 36010KT CAVOK 40/07 Q1007=
####018000136####
SAIY43 LIIB 081400 RRA
METAR LIBN 081355Z 35023G33KT CAVOK 25/11 Q1017 RMK FEW FEW200 VIS
      MIN 9999 WIND THR14 34020G32KT BLU=
####018000124####
SACA45 KWBC 081400 RRB
METAR
MNPC 081400Z 10008KT 7000 VCRA FEW014CB BKN016TCU 30/25 Q1010
     CBRA/S TCURA/SE/SW=
####018000538####
SPUS70 KWBC 081414
SPECI
KCSM 081411Z 02003KT 9SM -RA FEW008 BKN016 BKN110 23/21 A3014 RMK
     AO2 P0000=
KM89 081410Z AUTO 00000KT 5SM BR OVC006 26/24 A3010 RMK AO2=
KMLI 081411Z 32003KT 10SM SCT011 SCT100 24/22 A3005 RMK AO2=
K7R3 081408Z 08006KT 7SM BKN011 OVC018 28/25 A3003 RMK DA1500=
KARA 081412Z 09006KT 9SM SCT011 BKN017 28/25 A3004 RMK AO2=
KBAZ 081412Z AUTO 05007KT 4SM RA BR SCT007 BKN014 OVC020 25/24
     A2996 RMK AO2 P0004=
KJFK 081412Z 15008KT 10SM BKN013 BKN130 BKN250 27/22 A3006 RMK
     AO2=
####018000124####
SACA35 KWBC 081400 RRC
METAR
MNPC 081400Z 10008KT 7000 VCRA FEW014CB BKN016TCU 30/25 Q1010
     CBRA/S TCURA/SE/SW=
####018000113####
SACN31 KWBC 081400 RRB
METAR
CYRB 081400Z 14007KT 15SM FEW120 SCT230 09/05 A2976 RMK AC1CI0
     SLP081=
####018000120####
SAPA31 KWBC 081400 RRA
METAR
PTRO 081359Z 07005KT 14SM BKN016CB BKN120 OVC300 26/24 A2992 RMK
     CB VC ALQDS=
####018000393####
SARA31 KWBC 081400 RRD
METAR
UTNN 081400Z 19001MPS CAVOK 43/07 Q1005 R33/CLRD70 NOSIG=
UTNU 081400Z 06002MPS CAVOK 37/22 Q1006 R31/CLRD60 NOSIG=
UTSA 081400Z 02005MPS 9999 NSC 37/05 Q1008 R88/CLRD70 NOSIG=
UTSB 081400Z 01004MPS CAVOK 37/10 Q1007 R01/CLRD70 NOSIG=
UTSK 081400Z 33004MPS CAVOK 38/09 Q1006 R16/CLRD70=
UTSS 081400Z 08004MPS 9999 NSC 32/13 Q1010 R88/CLRD70 NOSIG=
####018000371####
SASA31 KWBC 081400 RRC
METAR
SKBO 081400Z 03004KT 9999 SCT017 BKN070 15/11 A3035 RERA=
SKBQ 081400Z 20004KT 8000 HZ SCT010 BKN070 28/26 A2992=
SKCG 081400Z 07003KT 9999 SCT015 BKN070 28/25 A2990=
SKCL 081400Z 00000KT 8000 FEW005 SCT020 BKN090 23/20 A3005=
SKLT 081400Z 00000KT 9999 FEW015 SCT070 28/25 A2993=
SKSP 081400Z 09005KT 9999 FEW015 30/26 A2987=
####018000197####
SASA41 KWBC 081400 RRB
METAR
SKBG 081400Z VRB02KT 4000S BCFG SCT015 22/20 A3006=
SKMD 081400Z 00000KT 6000 SCT030 OVC080 20/15 A3014=
SKPE 081400Z 00000KT 9999 FEW015 BKN080 21/18 A3014=
####018000129####
SAXX61 KWBC 081400 RRC
METAR
KQIR 081355Z COR 04011G17KT 7000 HZ CLR 40/26 A2949 RMK AO2 SLP986
     T03960257 COR 1411=
####018000067####
SAAG SADF 081400
METAR SADF 081400Z  32003KT CAVOK 13/04 Q1019=
####018000080####
SAAL33 DAAA 081400 RRA
METAR DAUT 081400Z ///18KT 4000 DRSA NSC 44/08 Q1014=
####018000072####
SAAL41 DAMM 081400 RRA
METAR DAUK 081400Z 00000KT CAVOK 37/16 Q1017=
####018000528####
SAAL33 DAAA 081400
METAR DAAD 081400Z NIL=
METAR DAAE 081400Z 09010KT CAVOK 28/21 Q1019=
METAR DAAJ 081400Z 03010KT CAVOK 37/04 Q1018=
METAR DAAP 081400Z NIL=
METAR DAAV 081400Z 02014KT CAVOK 29/24 Q1019=
METAR DABT 081400Z 34017KT CAVOK 36/03 Q1022=
METAR DAFH 081400Z 09008KT CAVOK 38/15 Q1021=
METAR DATG 081400Z NIL=
METAR DATM 081400Z NIL=
METAR DAUE 081400Z NIL=
METAR DAUI 081400Z 07016KT 8000 NSC 46/08 Q1012=
METAR DAUK 081400Z NIL=
METAR DAUO 081400Z 00000KT CAVOK 39/16 Q1016=
METAR DAUT 081400Z NIL=
####018000478####
SAAL32 DAAA 081400
METAR DAAS 081400Z 34008KT CAVOK 35/03 Q1024=
METAR DABS 081400Z 02008KT CAVOK 35/06 Q1022=
METAR DAOB 081400Z 01007KT CAVOK 39/07 Q1022=
METAR DAOF 081400Z 18006KT 4500 HZ FEW046 45/// Q1013=
METAR DAOR 081400Z 29005KT CAVOK 40/05 Q1022=
METAR DAUA 081400Z NIL=
METAR DAUB 081400Z 21010KT CAVOK 38/14 Q1015=
METAR DAUG 081400Z 12008KT CAVOK 39/11 Q1019=
METAR DAUU 081400Z 04010KT CAVOK 40/15 Q1016=
METAR DAUZ 081400Z 07010KT CAVOK 39/07 Q1015=
####018001918####
SAXX99 KWBC 081400 RRM
METAR
CWEU 081400Z 18007KT 40SM FEW030 BKN150 OVC200 14/03 A2964 RMK
     CF0AC1CI0 SLP039=
CYHI 081400Z 00000KT 15SM BKN013 06/03 A2988 RMK SC6 7.2/3.5/0
     SLP121=
CYHK 081400Z 04008KT 15SM BKN089 BKN097 11/07 A2980 RMK AC5AC1
     VIRGA NE SLP093=
CYUT 081400Z 00000KT 25SM FEW070 BKN090 12/04 A2978 RMK AC2AS2
     SLP088=
CYUX 081400Z 00000KT 15SM FEW043 BKN081 BKN210 10/06 A2980 RMK
     CU1AC4CI0 SLP094=
CYYG 081400Z 22012G20KT 15SM FEW011 SCT110 BKN280 24/20 A3008 RMK
     SF1AC2CI1 SLP185=
CYZS 081400Z 08012G20KT 15SM FEW020 FEW070 OVC210 15/04 A2967 RMK
     SC1AC2CI2 SLP049=
DAAP 081400Z 36010KT CAVOK 40/10 Q1014=
HEAR 081400Z 34010KT CAVOK 30/20 Q1008=
HEAT 081400Z 36018KT CAVOK 35/13 Q1010=
HEIS 081400Z 33008KT CAVOK 33/17 Q1009=
HESH 081400Z 02012KT CAVOK 38/11 Q1004=
K4O4 081408Z AUTO 14005KT 10SM SCT001 SCT008 SCT013 26/23 A3008
     RMK AO2=
MNBL 081400Z 00000KT 4000 TSRA SCT016CB SCT070 25/24 Q1012 CB
     4C=
MNCH 081400Z 00000KT 9999 SCT015 SCT022 FEW022CB 24/23 Q1012 CB
     SW=
MNJG 081400Z 00000KT 9999 BA SCT016CB SCT070 25/24 Q1012 CB 4C=
MNJG 081400Z 00000KT 9999 BKN018 21/20 Q1012=
MNJU 081400Z 00000KT 9999 SCT020TCU SCT080 26/24 Q1012 TCU
     SE/SW=
MNRS 081400Z 00000KT 9999 FEW015CB SCT016 26/24 Q1013
     CB/N/NE/SW/NW=
SKEJ 081400Z 19004KT 9999 SCT010 SCT100 26/25 A2993=
SKIP 081400Z 06003KT 9999 BKN018 12/10 A3042=
SKLC 081400Z 21004KT 9999 SCT015 27/24 A2991=
SKMR 081400Z 00000KT 9999 SCT015 BKN090 27/25 A2989=
SKNV 081400Z 01003KT 9999 FEW007 BKN100 24/21 A2998=
SKRH 081400Z 14005KT 9999 FEW020 OVC090 25/23 A2990 RETSRA=
SKUC 081400Z 00000KT 1500 -DZ OVC008 22/22 A2997 REDZ=
SKVP 081400Z 06005KT 8000 -DZ FEW005 BKN070 23/23 A2996 REDZ=
SKVV 081400Z 00000KT 9999 FEW023 OVC080 26/22 A2997=
UTTP 081400Z 34002MPS CAVOK 36/12 Q1009 R88/CLRD70 NOSIG=
####018000084####
SPUS43 KWBC 081414
SPECI
KMLI 081411Z 32003KT 10SM SCT011 SCT100 24/22 A3005=
####018000088####
SPUS43 KWBC 081414
SPECI
KSUS 081411Z 00000KT 10SM -RA BKN006 BKN012 25/23 A3005=
####018000124####
SAUS43 KAPX 081414
MTRHTL
SPECI KHTL 081412Z AUTO 26006KT 2SM RA BR FEW009 BKN025 OVC038 22/21 
A3005 RMK AO2 P0002
####018000084####
SPUS73 KWBC 081414
SPECI
KMLI 081411Z 32003KT 10SM SCT011 SCT100 24/22 A3005=
####018000088####
SPUS73 KWBC 081414
SPECI
KSUS 081411Z 00000KT 10SM -RA BKN006 BKN012 25/23 A3005=
####018000088####
SPUS81 KWBC 081414
SPECI
KSUS 081411Z 00000KT 10SM -RA BKN006 BKN012 25/23 A3005=
####018000358####
SAUS20 KNKA 081414
SPECI KGKY 081413Z 14006KT 10SM FEW008 BKN015 OVC065 26/24 A3005 RMK 
    AO2=
METAR KOAJ 081415Z AUTO 03008KT 8SM CLR 29/24 A2996 RMK AO1=
SPECI KOKC 081412Z 32005KT 10SM BKN011 BKN200 26/23 A3007 RMK AO2=
METAR KSOP 081415Z AUTO 04004KT 9SM CLR 32/21 A2999 RMK AO1=
METAR KUDG 081415Z 02004KT 10SM CLR 32/21 A2998 RMK AO1=
####018000801####
SAEU KAWN 081400 RRV
METAR EGGP 081350Z 24012KT 9999 SCT046 20/09 Q1017=
METAR LIBN 081355Z 35023G33KT CAVOK 25/11 Q1017 RMK FEW FEW200 VIS
      MIN 9999 WIND THR14 34020G32KT BLU=
METAR LICL 081355Z 24007KT CAVOK 27/22 Q1018 RMK SKC QUK 2 QUL 1 SW
      VIS MAR 13 KM VIS MIN 9999=
METAR LIEB 081355Z 12004KT 9999 FEW030TCU 33/25 Q1018 RMK FEW QUK 2
      QUL 0 VIS MAR 20 KM MON INVIS VIS MIN 8000W=
METAR LIEC 081355Z 04015KT 9999 FEW020 29/26 Q1019 RMK FEW QUK 2 QUL
      0 VIS MAR 15 KM VIS MIN 9999=
METAR LIEE 081355Z 15013KT 9999 FEW020 28/20 Q1018 RMK FEW VIS MIN
      9999 WIND THR14 17014KT BLU=
METAR LIQC 081355Z 00000KT CAVOK 28/10 Q1021 RMK SKC QUK 1 QUL 0 VIS
      MAR 15 KM VIS MIN 9999=
METAR LOWZ 081400Z 01005KT 50KM FEW060SC 28/05 Q1022 RMK FEW=
####018000082####
SAGL KAWN 081400 RRB
METAR BGJN 081350Z 31004KT 9999 VCFG FEW030 08/05 Q1009=
####018000305####
SPNA35 KAWN 081414
SPECI KBRO 081410Z 31007KT 10SM FEW005 SCT033 SCT070 27/26 A2978 RMK
      AO2=
SPECI KJFK 081412Z 15008KT 10SM BKN013 BKN130 BKN250 27/22 A3006 RMK
      AO2=
SPECI KPBI 081407Z 07008KT 10SM SCT024CB BKN042 BKN050 32/28 A2997
      RMK AO2 SCT V BKN CB OHD-SW-NE MOV SW=
####018000576####
SAXX70 KAWN 081400 RRK
METAR KQD2 081355Z AUTO VRB06KT 9999 CLR 31/M05 A3001 RMK AO2 SLP041
      T03091046 $=
METAR KQSD 081355Z 24007G13KT 9999 SKC 33/00 A2999 RMK AO2A SLP012
      $=
METAR KQEJ 081400Z AUTO 09001KT 2SM -RA BR BKN004 BKN046 21/20 A2996
      RMK A02=
METAR KQEL 081410Z AUTO 15001KT 5SM DZ BKN032 21/20 A2976 RMK A02=
METAR KQEQ 081410Z AUTO 13001KT 4SM BR BKN085 22/20 A2983 RMK A02=
METAR KQEW 081410Z AUTO 25006KT 7SM DZ SCT036 BKN042 24/21 A2985 RMK
      A02=
METAR KQFB 081410Z AUTO 20006KT 3SM BR BKN010 23/19 A2996 RMK A02=
####018000081####
SAAL41 DAMM 081400 RRC
METAR DAUA 081400Z 02023KT 7000 DRSA NSC 45/06 Q1012=
####018000627####
SAKO51 RJTD 081400
METAR RKPC 081400Z 02002KT 4000 BR SCT030 OVC120 23/20 Q1009 NOSIG=
METAR RKPC 081400Z 02002KT 4000 BR SCT030 OVC120 23/20 Q1009 NOSIG=
METAR RKPK 081400Z 26002KT 9999 SCT040 BKN200 23/19 Q1010 NOSIG=
METAR RKPK 081400Z 26002KT 9999 SCT040 BKN200 23/19 Q1010 NOSIG=
METAR RKSI 081400Z 32003KT 270V350 8000 FEW030 OVC110 22/19 Q1009
           NOSIG=
METAR RKSM 081400Z 22005KT 9000 -RA BR BKN050 OVC100 22/21 A2983=
METAR RKSS 081400Z 34005KT 8000 SCT030 OVC100 23/19 Q1009 BECMG 4500
           BR=
METAR RKSS 081400Z 34005KT 8000 SCT030 OVC100 23/19 Q1009 BECMG 4500
           BR=
####018000169####
SPUS99 KWBC 081415
SPECI
KGKY 081413Z 14006KT 10SM FEW008 BKN015 OVC065 26/24 A3005 RMK
     AO2=
KOKC 081412Z 32005KT 10SM BKN011 BKN200 26/23 A3007 RMK AO2=
####018000196####
SAUS99 KWBC 081415
METAR
KOAJ 081415Z AUTO 03008KT 8SM CLR 29/24 A2996 RMK AO1=
KSOP 081415Z AUTO 04004KT 9SM CLR 32/21 A2999 RMK AO1=
KUDG 081415Z 02004KT 10SM CLR 32/21 A2998 RMK AO1=
####018000091####
SAAF27 LFPW 081400 RRA
METAR DGAA 081400Z 20015KT 9999 SCT016 BKN250 31/23 Q1012 NOSIG=
####018000088####
SASD32 OEJD 081400
METAR OETF 081400Z 00000KT 9999  SCT030 SCT080 38/01 Q1014 NOSIG=
####018000078####
SPAG31 KWBC 081415
SPECI
SAME 081407Z 09007KT 6000 FU NSC 09/M05 Q1015=
####018000162####
SAAF14 LFPW 081400 RRA
METAR DRRN 081400Z 18005KT 150V220 CAVOK 34/17 Q1011 NOSIG=
METAR FTTJ 081400Z 33008KT 9999 FEW040 FEW050CB BKN140 30/19 Q1011
NOSIG=
####018000645####
SAUZ31 UTTW 081400
METAR UTFN 081400Z 00000MPS 9999 FEW050CB FEW250 35/13 Q1010
R28/CLRD70 NOSIG=
METAR UTNN 081400Z 19001MPS CAVOK 43/07 Q1005 R33/CLRD70 NOSIG=
METAR UTNU 081400Z 06002MPS CAVOK 37/22 Q1006 R31/CLRD60 NOSIG=
METAR UTSA 081400Z 02005MPS 9999 NSC 37/05 Q1008 R88/CLRD70 NOSIG=
METAR UTSB 081400Z 01004MPS CAVOK 37/10 Q1007 R01/CLRD70 NOSIG=
UTSH NIL=
METAR UTSK 081400Z 33004MPS CAVOK 38/09 Q1006 R16/CLRD70=
METAR UTSS 081400Z 08004MPS 9999 NSC 32/13 Q1010 R88/CLRD70 NOSIG=
UTST NIL=
METAR UTTT 081400Z 35002MPS CAVOK 37/08 Q1009 R08R/CLRD70 NOSIG=
METAR UTTP 081400Z 34002MPS CAVOK 36/12 Q1009 R88/CLRD70 NOSIG=
####018000072####
SAAL33 DAAA 081400 RRB
METAR DAUK 081400Z 00000KT CAVOK 37/16 Q1017=
####018000112####
SAAF08 LFPW 081400 RRA
METAR DFFD 081400Z 17006KT 140V200 9999 FEW040CB BKN130 31/20 Q1014
TEMPO 4000 TSRA=
####018000086####
SAAG01 SABM 081400 RRE
METAR SAZN 081400Z 29007KT 9999 FEW035 FEW060 11/05 Q1011=
####018000072####
SAAF17 LFPW 081300 RRD
METAR HESN 081300Z 36010KT CAVOK 40/07 Q1007=
####018000091####
SAAF05 LFPW 081400 RRA
METAR DBBB 081400Z 22011KT 9999 SCT012 SCT120 29/25 Q1012 NOSIG=
####018000082####
SASD31 OEJD 081400 RRA
METAR OYSN 081400Z 03013KT 4000 DU SCT030 29/M02 Q1020=
####018000072####
SAAL41 DAMM 081400 RRB
METAR DAAP 081400Z 36010KT CAVOK 40/10 Q1014=
####018000089####
SAZA31 FAPR 081400 RRA
METAR FAKN 081400Z 09007KT 9999 FEW030 BKN080 18/11 Q1031=

####018000072####
SAAL33 DAAA 081400 RRC
METAR DAAP 081400Z 36010KT CAVOK 40/10 Q1014=
####018000104####
SPBO SLTR 081402 CCA
SPECI SLTR 081402Z 15010KT 3000 -RA FEW008 SCT017 FEW020CB OVC070
22/21 Q1015=
####018000146####
SAAG05 SABM 081400 RRA
METAR SADF 081400Z  32003KT CAVOK 13/04 Q1019=
METAR SAZS 081400Z  29020KT 9000 VCRA SCT015
SCT025  04/02 Q1007 REDZ=
####018000086####
SANM40 FYWW 081400 RRA
METAR FYOT 081400Z AUTO 05005KT //// // ////// 24/03 Q////=
####018000080####
SAAL41 DAMM 081400 RRC
METAR DAUA 081400Z 02023KT 7000 DRSA NSC 45/06 Q1012=
####018000080####
SAAL32 DAAA 081400 RRA
METAR DAUA 081400Z 02023KT 7000 DRSA NSC 45/06 Q1012=
####018000092####
SAAG SAZS 081400
METAR SAZS 081400Z  29020KT 9000 VCRA SCT015
SCT025  04/02 Q1007 REDZ=
####018000102####
SAAG SAZS 081400
METAR SAZS 081400Z  29020KT 9000 VCRA SCT015
SCT025  04/02 Q1007 REDZ R29210094=
####018000313####
SAAF17 LFPW 081400 RRA
METAR HEAX 081400Z 32013KT 9999 FEW020 29/22 Q1010=
METAR HEBL 081400Z 02011KT CAVOK 40/08 Q1008=
METAR HEGN 081400Z 36022KT CAVOK 38/09 Q1005=
METAR HELX 081400Z 31010KT CAVOK 40/10 Q1006=
METAR HEMM 081400Z 32012KT CAVOK 28/21 Q1012=
METAR HESN 081400Z 35010KT CAVOK 40/08 Q1007=
####018000771####
SAAM31 FCBB 081400
METAR FCBB 081400Z 22005KT 260V180 7000 NSC 28/20 Q1012 NOSIG=
METAR FCPP 081400Z 20008KT 7000 FEW013 OVC033 24/21 Q1012 NOSIG=
METAR FEFF 081400Z NIL=
METAR FGSL 081400Z 26005KT 8000 TS BKN013 FEW020CB BKN130 26/26 Q1012
NOSIG=
METAR FKKD 081400Z VRB03KT 9999 TS BKN013 SCT016CB BKN120 27/25 Q1012
TEMPO 4000 TSRA=
METAR FKYS 081400Z 26003KT 210V320 9999 SCT012 BKN020 FEW026CB 27/20
Q1015 TEMPO TS=
METAR FNLU 081400Z 26010KT 9999 FEW021 24/19 Q1011 NOSIG=
METAR FOOG 081400Z /////KT 9999 FEW010 27/22 Q1013=
METAR FOOL 081400Z 22006KT 190V250 9000 SCT010 OVC033 27/23 Q1012
NOSIG=
METAR FOON 081400Z 32010KT 9000 SCT030 29/22 Q1013=
METAR FPST 081400Z NIL=
METAR FZAA 081400Z 32010KT 4000 BR SKC 27/19 Q1011 NOSIG=
####018000030####
SANG31 AMMC 081400
NIL

####018000074####
SABZ20 SBTT 081400
METAR SBTT 081400Z 27002KT 9999 FEW012 29/25 Q1013=
####018000755####
SAAM31 FCBB 081400
METAR FCBB 081400Z 22005KT 260V180 7000 NSC 28/20 Q1012 NOSIG=
METAR FCPP 081400Z 20008KT 7000 FEW013 OVC033 24/21 Q1012 NOSIG=
METAR FEFF 081400Z NIL=
METAR FGSL 081400Z 26005KT 8000 TS BKN013 FEW020CB BKN130 26/26 Q1012
NOSIG=
METAR FKKD 081400Z VRB03KT 9999 TS BKN013 SCT016CB BKN120 27/25 Q1012
TEMPO 4000 TSRA=
METAR FKYS 081400Z 26003KT 210V320 9999 SCT012 BKN020 FEW026CB 27/20
Q1015 TEMPO TS=
METAR FNLU 081400Z 26010KT 9999 FEW021 24/19 Q1011 NOSIG=
METAR FOOG 081400Z /////KT 9999 FEW010 27/22 Q1013=
METAR FOOL 081400Z 22006KT 190V250 9000 SCT010 OVC033 27/23 Q1012
NOSIG=
METAR FOON 081400Z 32010KT 9000 SCT030 29/22 Q1013=
METAR FPST 081400Z NIL=
METAR FZAA 081400Z 32010KT 4000 BR SKC 27/19 Q1011 NOSIG=
####018000091####
SPUS31 KWBC 081415
SPECI
KJFK 081412Z 15008KT 10SM BKN013 BKN130 BKN250 27/22 A3006=
