####018001061####
SAAU31 AMMC 080700
METAR YBAS 080700Z 12009KT 9999 FEW034 16/06 Q1019=
METAR YBBN 080700Z 17010KT 9999 FEW030 SCT040 BKN105 18/10 Q1018
     NOSIG=
METAR YBCS 080700Z 13008KT 9999 FEW026 BKN040 25/19 Q1014=
METAR YBTL 080700Z 06008KT 9999 FEW030 SCT045 BKN080 23/19 Q1015=
METAR YMML 080700Z 18005KT 9999 FEW031 BKN042 11/04 Q1027
     NOSIG=
METAR YPAD 080700Z 19003KT 9999 FEW045 SCT060 13/09 Q1025
     NOSIG=
METAR YPCC 080700Z 13009KT 9999 FEW021 28/22 Q1012=
METAR YPDN 080700Z 36011KT 9999 SCT049 BKN400 30/20 Q1011
     NOSIG=
METAR YPKU 080700Z 15006KT CAVOK 27/14 Q1012=
METAR YPLM 080700Z 07006KT 9999 FEW010 BKN080 BKN200 21/16 Q1008=
METAR YPPH 080700Z 36013KT 1800 SHRA SCT018 OVC050 FEW022CB 15/14 Q1000
     FM0700 33018G28KT 9999 -SHRA BKN020
     INTER 0700/1000 27025G35KT 3000 +SHRA BKN010=
METAR YPTN 080700Z 12009KT CAVOK 29/14 Q1012=
METAR YPXM 080700Z AUTO 16007KT 9999NDV // SCT018 26/22 Q1012=
METAR YSSY 080700Z 21015KT 9999 SCT035 BKN080 12/12 Q1025
     INTER 0715/1000 5000 SHRA BKN015=
####018000082####
SAGD31 TGPY 080700
METAR TGPY 080700Z 08009KT 9999 FEW020 SCT280 28/26 Q1012,HZ=####018000089####
SAMG20 FMMI 080700
METAR FMMI 080700Z 13008KT 080V180 9999 SCT016 18/12 Q1028 NOSIG=
####018000077####
SAUK39 EGRR 080650 RRE
METAR EGXZ 080650Z 18004KT CAVOK 15/11 Q1016 BLU=
####018002638####
SAUS99 KWBC 080705
METAR
K3A1 080700Z AUTO 00000KT 10SM CLR 22/22 A3009 RMK AO2
     T02170217=
K3J7 080701Z AUTO 00000KT 10SM CLR 23/21 A3000 RMK AO2=
K4A9 080700Z AUTO 00000KT 10SM CLR 21/19 A3006 RMK AO2
     T02110187=
K4R4 080700Z AUTO 00000KT M1/4SM FG OVC010 24/23 A3002 RMK AO2
     T02390231=
K8A0 080659Z AUTO 00000KT 10SM CLR 25/21 A3006 RMK AO2=
KAFP 080700Z AUTO 00000KT 10SM CLR 23/17 A2997 RMK AO2
     T02280172=
KALX 080700Z AUTO 00000KT 7SM CLR 24/22 A3004 RMK AO1=
KBIJ 080701Z AUTO 00000KT 10SM CLR 20/ A3003 RMK AO2=
KCPC 080700Z AUTO 25004KT 10SM CLR 28/19 A2993 RMK AO2
     T02760190=
KCWF 080700Z AUTO 08005KT 7SM CLR 24/24 A2999 RMK AO2=
KDBN 080700Z AUTO 00000KT 10SM CLR 23/21 A3001 RMK AO1=
KDNN 080658Z AUTO 00000KT 10SM CLR 21/21 A3005 RMK AO2=
KDQH 080700Z AUTO 00000KT 10SM CLR 23/20 A3003 RMK AO1=
KDRI 080700Z AUTO 10003KT 10SM SCT013 SCT019 SCT027 23/23 A3001
     RMK AO2=
KEHO 080700Z AUTO 00000KT 10SM CLR 21/19 A3002 RMK AO2
     T02100185=
KEYF 080700Z AUTO 28004KT 10SM SCT100 27/19 A2993 RMK AO2
     T02730190=
KFFA 080658Z AUTO 09004KT 10SM CLR 25/24 A2994 RMK AO2
     T02500236=
KFKN 080700Z AUTO 00000KT 7SM 24/21 A2995 RMK AO1=
KGHG 080700Z AUTO 00000KT 10SM FEW015 OVC027 22/20 A3007 RMK
     AO2=
KGWW 080700Z AUTO 00000KT 10SM CLR 25/21 A2993 RMK AO2
     T02450205=
KHNZ 080700Z AUTO 00000KT 7SM CLR 24/18 A2998 RMK AO2
     T02400183=
KHOE 080659Z AUTO 00000KT 10SM CLR 22/ A3003 RMK AO2 T0223=
KHSP 080700Z AUTO 08005KT 10SM CLR 23/15 A3027 RMK AO2=
KHUM 080700Z AUTO 3SM BR SCT016 25/25 A2999 RMK AO2=
KHWY 080700Z AUTO 00000KT 7SM CLR 23/20 A2999 RMK AO2=
KIDI 080700Z AUTO 00000KT 5SM CLR 19/19 A3011 RMK AO2=
KIPJ 080700Z AUTO 00000KT 10SM CLR 20/18 A3002 RMK AO2
     T02000175=
KISO 080700Z AUTO 00000KT 10SM CLR 24/20 A2993 RMK AO2
     T02390196=
KIXA 080700Z AUTO 00000KT 7SM CLR 23/19 A2994 RMK AO2
     T02280189=
KJES 080700Z AUTO 28003KT 10SM CLR 22/22 A3001 RMK AO2
     T02150216=
KJGG 080700Z AUTO 00000KT 7SM BKN120 27/24 A2997 RMK AO1=
KJKA 080700Z AUTO 00000KT 1 1/4SM BR VV007 27/26 A3002 RMK AO2
     T02650255=
KJQF 080700Z AUTO 36005KT 10SM CLR 24/17 A3000 RMK AO2
     T02370165=
KJYO 080700Z AUTO 33005KT 7SM SCT110 28/19 A3000 RMK AO2=
KLGC 080655Z AUTO 00000KT 10SM CLR 22/ A3003 RMK AO1=
KLKU 080700Z AUTO 00000KT 5SM HZ SCT075 24/21 A2999 RMK AO2=
KLNP 080658Z AUTO 00000KT 7SM CLR 22/18 A3019 RMK AO1=
KLOM 080700Z AUTO 00000KT 5SM CLR 23/21 A3000 RMK AO1
     T02250208=
KLWB 080701Z AUTO 00000KT 5SM HZ SCT065 21/18 A3016 RMK AO2=
####018000108####
SPUS99 KWBC 080705
SPECI
KFOK 080703Z AUTO 12003KT 1 1/4SM BR OVC001 24/22 A3005 RMK AO2
     TSNO=
####018000197####
SABO SLLP 080700
METAR SLLP 080700Z 10003KT 2000E VCFG FEW003 M04/M04 Q1036=
METAR SLVR 080700Z 15007KT 9999 SCT010 BKN017 OVC070 21/20 Q1014=
METAR SLCB 080700Z 00000KT 9999 NSC 08/01 Q1025=
####018000098####
SASR31 WSSS 080700
METAR WSSS 080700Z 20005KT 9999 FEW016 FEW018TCU BKN150 30/25 Q1009
NOSIG=
####018000090####
SAAJ31 UBBB 080700
METAR UBBL 080700Z 11006KT 9999 NSC 34/15 Q1012 NOSIG RMK G/O SC07=
####018000106####
SAMR20 TFFF 080700
METAR TFFF 080700Z AUTO 06009KT 9999NDV SCT011/// BKN023///
BKN034/// 28/24 Q1013=
####018000767####
SAUR30 UKMS 080700
METAR UKBB 080700Z 31003MPS 270V340 9999 SCT014 23/19
         Q1013 88CLRD95    NOSIG=
METAR UKHH 080700Z VRB01MPS 9999 FEW046 SCT200 26/18
         Q1014 080///65 NOSIG=
METAR UKOO 080700Z 35005MPS CAVOK 22/17 Q1014
         34090070 NOSIG=
METAR UKDE 080700Z 25003MPS 210V290 9999 BKN050TCU
         26/21 Q1014 20CLRD70 NOSIG=
METAR UKDD 080700Z VRB02MPS CAVOK 26/19 Q1014
         08090070 NOSIG=
METAR UKFF 080700Z VRB02MPS 9999 FEW033 26/18 Q1013
         19010070 NOSIG=
METAR UKLL 080700Z 32003MPS 260V030 9999 SCT024CB
         BKN024 16/12 Q1020 31210365 NOSIG=
METAR UKCC 080700Z 00000MPS CAVOK 26/18 Q1015
         08090070 NOSIG=
METAR UKDR 080700Z 25004MPS 9999 SCT033 OVC200 26/20
         Q1013 1809//70 NOSIG=
####018000068####
SAAG SACO 080700
METAR SACO 080700Z  36011KT CAVOK 07/M01 Q1020=
####018000067####
SAAG SARI 080700
METAR SARI 080700Z  00000KT CAVOK 16/15 Q1018=
####018000100####
SAAJ31 UBBB 080700
METAR UBBY 080700Z 15006KT 9999 FEW100 29/17 Q1016 NOSIG
RMK R33/CLRD70 G/O=
####018000076####
SAAG SARF 080700
METAR SARF 080700Z  20011KT 9999  OVC007  14/13
Q1017=
####018000691####
SAFR36 LFPW 080700
METAR LFBA 080700Z 10006KT CAVOK 20/16 Q1018 NOSIG=
METAR LFBE 080700Z 07004KT 040V100 3000 NSC 20/16 Q1018 NOSIG=
METAR LFGJ 080700Z AUTO VRB02KT 9999NDV NSC 20/15 Q1020=
METAR LFJR 080700Z AUTO VRB02KT 9999NDV NCD 22/14 Q1019=
METAR LFMD 080700Z AUTO 36003KT 320V050 9999NDV FEW080 26/21 Q1019=
METAR LFMH 080700Z 14003KT 090V180 CAVOK 21/12 Q1021 NOSIG=
METAR LFOT 080700Z AUTO VRB02KT 9999NDV NSC 22/14 Q1019=
METAR LFPN 080700Z 17004KT 130V200 CAVOK 23/12 Q1020 NOSIG=
METAR LFRC 080700Z AUTO 32004KT 290V010 9999NDV BKN007 17/17 Q1020=
METAR LFRG 080700Z AUTO VRB03KT 9999NDV NSC 21/10 Q1020=
METAR LFRK 080700Z 01004KT 330V050 CAVOK 19/13 Q1019 NOSIG=
####018000080####
SAMF20 TFFR 080700
METAR TFFR 080700Z VRB01KT 9999 FEW021 26/24 Q1014 NOSIG=
####018000345####
SAIE31 EIDB 080700
METAR EIDW 080700Z 23012KT 190V250 9999 FEW023 SCT110 BKN180 14/10
     Q1015 NOSIG=
METAR EINN 080700Z 18008KT 9999 FEW030 SCT050 BKN170 14/10 Q1015
     NOSIG=
METAR EICK 080700Z 21006KT 9999 FEW018 SCT050 BKN080 13/12 Q1016
     NOSIG=
METAR EIKN 080700Z 18004KT 9999 FEW015 SCT045 BKN200 11/10 Q1013
     NOSIG=
####018000733####
SACH10 SCSC 080700
METAR
SCAR 080700Z 26002KT 9999 OVC023 15/09 Q1017=
SCDA 080700Z 01009KT 9999 OVC026 15/08 Q1017=
SCFA 080700Z 00000KT 9999 OVC015 13/09 Q1016=
SCAT 080700Z AUTO 06003KT 9999 // NCD 06/04 Q1017=
SCIP 080700Z 06005KT 8000 -SHRA SCT012 BKN020 18/17 Q1025 TEMPO
 5000 -SHRA=
SCSE 080700Z 14003KT CAVOK 07/06 Q1017 NEFO PLAYA SKC=
SCEL 080700Z 01002KT 5000 BR BKN130 04/02 Q1022 NOSIG=
SCIE 080700Z 30012KT 4000 -SHRA BKN005 OVC006 12/11 Q1019=
SCTC 080700Z VRB01KT 7000 BKN015 OVC025 09/09 Q1015 RMK BR=
SCTE 080700Z 34012KT 5000 SHRA SCT030 BKN050 07/07 Q1008 NOSIG=
SCBA 080700Z AUTO 31014KT 9999 -SHSN FEW083 BKN088 BKN100 
    00/M02 Q0998=
SCCI 080700Z 32013KT 9999 FEW025 M02/M04 Q0988  NOSIG=
####018000087####
SPPA41 KWBC 080705
SPECI
PGUA 080701Z AUTO 08013KT 10SM SCT018 SCT025 28/ A2986=
####018000398####
SAMC31 GMMC 080700
METAR GMAD 080700Z 06005KT 8000 SCT020 20/17 Q1013 NOSIG=
METAR GMFF 080700Z 31002KT 8000 FEW033 21/19 Q1017 NOSIG=
METAR GMME 080700Z 00000KT 5000 BKN010 22/19 Q1015 NOSIG=
METAR GMMN 080700Z 05005KT 010V080 7000 SCT002 SCT005 21/19 Q1015
NOSIG=
METAR GMMX 080700Z 25007KT 6000 FEW100 22/18 Q1016 NOSIG=
METAR GMTT 080700Z 00000KT 8000 FEW010 SCT016 22/20 Q1015 NOSIG=
####018000174####
SABC40 FBSK 080700
METAR FBFT 080700Z 10014KT 9999 FEW015 16/11 Q1032=
METAR FBKE 080700Z 11013KT CAVOK 15/06 Q1028=
METAR FBMN 080700Z 09020KT CAVOK 15/05 Q1029=

####018000092####
SAUK38 EGGY 080650 RRA
METAR EGPU 080650Z AUTO 23018KT 9999NDV // FEW021/// 13/11 Q1008=
####018000453####
SAIR32 OIII 080700
METAR OIAA 080700Z 33012KT CAVOK 41/07 Q1000=
METAR OIBK 080700Z 09014KT 5000 SA SKC 37/26 Q1001 A2956=
METAR OICC 080700Z 15008KT CAVOK 34/M01 Q1014 A2996
865.8=
METAR OIGG 080700Z 33004KT 9999 FEW025 31/24 Q1012 A2989=
METAR OIIE 080700Z 12012KT CAVOK 36/M06 Q1012 A2991 
899.7 07:=
METAR OITR 080700Z NIL=
METAR OIYY 080700Z 34004KT CAVOK 38/M04 Q1015 A2998=
METAR OAKN 080700Z NIL=
METAR OAKB 080700Z NIL=
####018000827####
SAAG01 SABM 080700
METAR SAAR 080700Z  00000KT CAVOK 02/M01 Q1020=
METAR SABE 080700Z NIL=
METAR SACO 080700Z  36011KT CAVOK 07/M01 Q1020=
METAR SADD 080700Z NIL=
METAR SADF 080700Z NIL=
METAR SAEZ 080700Z NIL=
METAR SAME 080700Z NIL=
METAR SANT 080700Z NIL=
METAR SARE 080700Z  16004KT 9999 09/09 Q1019=
METAR SARF 080700Z  20011KT 9999  OVC007  14/13
Q1017=
METAR SARI 080700Z  00000KT CAVOK 16/15 Q1018=
METAR SARP 080700Z NIL=
METAR SASA 080700Z 36006KT 9999 SCT025 OVC100 12/08 Q 1022=
METAR SASJ 080700Z NIL=
METAR SAVC 080700Z NIL=
METAR SAWE 080700Z NIL=
METAR SAWG 080700Z  29008KT 9999  SCT020 OVC070
M02/M03 Q0990=
METAR SAWH 080700Z NIL=
METAR SAZM 080700Z NIL=
METAR SAZN 080700Z 25003KT CAVOK 05/01 Q1011=
METAR SAZS 080700Z  32017KT 8000 DZ BKN012  03/02
Q1006=
####018000030####
SAZW40 FVHA 080700
NIL

####018000110####
SANK31 MNMG 080700
METAR
METAR MNMG 080700Z 16004KT 9999 FEW020CB SCT022 25/24 Q1011 A2986
CBSW/W/NW/FL=
####018000182####
SPAU31 YBBN 080703
SPECI YPPH 080700Z 36013KT 1800 SHRA SCT018 OVC050 FEW022CB 15/14
Q1000
FM0700 33018G28KT 9999 -SHRA BKN020
INTER 0700/1000 27025G35KT 3000 +SHRA BKN010=
####018000412####
SAFR31 LFPW 080700
METAR LFLL 080700Z VRB03KT CAVOK 22/13 Q1021 NOSIG=
METAR LFMN 080700Z 11003KT 9999 BKN060 28/19 Q1020 NOSIG=
METAR LFPG 080700Z 20004KT 170V230 CAVOK 23/10 Q1019 NOSIG=
METAR LFPO 080700Z VRB02KT CAVOK 23/13 Q1019 NOSIG=
METAR LFQQ 080700Z VRB03KT CAVOK 21/14 Q1019 NOSIG=
METAR LFRB 080700Z 00000KT 9999 OVC008 17/15 Q1019 NOSIG=
METAR LFRS 080700Z VRB03KT CAVOK 21/13 Q1018 NOSIG=
####018000768####
SAZA31 FAPR 080700
METAR FABL 080700Z 04010KT CAVOK 10/06 Q1034 NOSIG=
METAR FACT 080700Z 07005KT CAVOK 07/04 Q1021 NOSIG=
METAR FAEL 080700Z 02011KT CAVOK 15/10 Q1029=
METAR FAGG 080700Z 32004KT 290V350 CAVOK 09/05 Q1024=
METAR FAJS 080700Z 09009KT 2700 BR BKN002 07/07 Q1037 BECMG 3000
     BKN008=
METAR FAKN 080700Z 25003KT 9000 BKN015 14/12 Q1035 REDZ NOSIG=
METAR FALA 080700Z 11006KT 8000 NSC 11/08 Q1036 NOSIG=
METAR FALE 080700Z 24004KT CAVOK 17/12 Q1031 NOSIG=
METAR FAMM 080700Z 03013KT CAVOK 13/06 Q1033 NOSIG=
METAR FAPE 080700Z 02005KT CAVOK 11/10 Q1027 NOSIG=
METAR FAPN 080700Z 00000KT CAVOK 12/07 Q1034=
METAR FAPP 080700Z 09008KT 8000 SCT020 13/08 Q1033 BECMG NSW=
METAR FAUP 080700Z 01014KT CAVOK 18/02 Q1028 NOSIG=

####018000098####
SAAJ31 UBBB 080700
METAR UBBG 080700Z 33008KT 9999 FEW100 32/18 Q1012 NOSIG RMK
R30R/CLRD70 =
####018000137####
SAIY42 LIIB 080600 RRC
METAR LIRM 080555Z 06012KT 020V100 9999 FEW035 25/20 Q1018 RMK SCT
      VIS MIN 9999 WIND THR06 05012KT BLU=
####018000104####
SANK31 MNMG 080700
METAR
MNMG 080700Z 16004KT 9999 FEW020CB SCT022 25/24 Q1011 A2986
CBSW/W/NW/FL=
####018000810####
SAUR31 UKMS 080700
METAR UKLR 080700Z 31004MPS 250V340 9999 BKN017
         OVC100  18/14 Q1017 30090070 NOSIG=
METAR UKLI 080700Z 26005MPS 3000 -SHRA BKN008
         BKN017CB  14/13 Q1019 28290565 NOSIG=
METAR UKON 080700Z 33003MPS 280V020 CAVOK 24/19 Q1013
          05090075 NOSIG=
METAR UKCM 080700Z 12003MPS 080V160 9999 SCT040 28/18
          Q1014 02010065 NOSIG=
METAR UKCW 080700Z VRB01MPS 9999 BKN040 28/15 Q1015
         2709//70 NOSIG=
METAR UKLU 080700Z 36007MPS 9999 FEW040 SCT200 19/10
         Q1020 10290060  NOSIG=
METAR UKKK 080700Z 30002MPS 9999 BKN012 21/18 Q1014
         08CLRD70  NOSIG=
METAR UKKM 080700Z 30002MPS 8000 SCT010 OVC016 21/18
         Q1014  33CLRD70 NOSIG=
METAR UKLN 080700Z 29005MPS 260V330 9999 BKN010
         BKN033CB 16/15 Q1018 3309//70 NOSIG=
####018001764####
SAUS20 KNKA 080704
METAR KMDQ 080700Z AUTO 00000KT 10SM CLR 23/22 A3006 RMK AO2 
     T02300217=
METAR KMFV 080702Z AUTO 00000KT 2 1/2SM BR OVC006 24/24 A2998 RMK 
     AO2=
METAR KMGR 080700Z AUTO 00000KT 10SM CLR 22/21 A3003 RMK AO2=
SPECI KMKO 080703Z AUTO 07004KT 10SM BKN011 BKN021 OVC055 23/23 
    A3003 RMK AO2 LTG DSNT N AND W CIG 008V016=
METAR KMMU 080700Z AUTO 00000KT 4SM BR CLR 21/21 RMK AO2 T02120209=
METAR KMQS 080700Z AUTO 00000KT 9SM CLR 24/21 A3005 RMK AO2 PWINO 
     PNO=
METAR KOBE 080701Z AUTO 00000KT 10SM SCT048 23/23 A2999 RMK AO2=
METAR KONX 080700Z AUTO 00000KT 5SM BR CLR 26/24 A2995 RMK AO2 
     T02610241=
METAR KOPN 080700Z AUTO 00000KT 10SM CLR 25/22 A3005 RMK AO1=
SPECI KORH 080703Z AUTO 23007KT 4SM BR BKN004 22/21 A3008 RMK AO2=
METAR KPCM 080700Z AUTO 00000KT 10SM CLR 24/23 A3002 RMK AO2=
METAR KPSK 080702Z AUTO 00000KT 7SM CLR 24/17 A3014 RMK AO2=
METAR KPTB 080702Z AUTO 00000KT 5SM BR CLR 22/21 A2996 RMK AO2=
METAR KRUQ 080701Z AUTO 00000KT 10SM CLR 21/20 A3001 RMK AO2=
METAR KSVH 080700Z AUTO 00000KT 10SM CLR 21/15 A3004 RMK AO2 
     T02110150=
SPECI KSWO 080703Z AUTO 01008KT 10SM SCT029 OVC039 23/21 A3004 RMK 
    AO2=
METAR KTNB 080702Z AUTO 00000KT 10SM CLR 16/13 A3020 RMK AO2=
METAR KTPF 080700Z AUTO 08003KT 10SM CLR 24/23 A3000 RMK AO2=
METAR KTVI 080700Z AUTO 00000KT 10SM CLR 22/22 A3003 RMK AO2 
     T02210215=
METAR KVDI 080702Z AUTO 26003KT 10SM CLR 24/21 A3002 RMK AO1=
METAR KVJI 080702Z AUTO 00000KT 5SM BR SCT075 22/19 RMK AO2=
METAR KVUJ 080659Z AUTO 00000KT 10SM BKN095 22/19 A2998 RMK AO2=
METAR KVVG 080655Z AUTO 00000KT 22/21 A3001 RMK AO2=
METAR KW45 080700Z AUTO 00000KT 10SM SCT095 24/19 A3004 RMK AO2 
     T02430192=
####018000068####
SAVN23 SVBC 080700
METAR SVBC 080700Z 00000KT CAVOK 25/22 Q1012=
####018000432####
SAHU41 LHBM 080700
METAR LHDC 080645Z 02010KT CAVOK 19/12 Q1020 NOSIG=
METAR LHKE 080645Z 07005MPS CAVOK 22/10 Q1020 NOSIG RMK BLU=
METAR LHPA 080645Z 32003MPS CAVOK 19/12 Q1023 NOSIG RMK BLU=
METAR LHPP 080645Z 33005KT CAVOK 19/11 Q1023 NOSIG=
METAR LHPR 080645Z 33009KT CAVOK 20/11 Q1023=
METAR LHSM 080700Z NIL=
METAR LHSN 080645Z 04002MPS CAVOK 21/12 Q1021 NOSIG RMK BLU=
METAR LHUD 080645Z 32005KT CAVOK 17/15 Q1022=
####018000247####
SACZ31 LKPW 080700
METAR LKKV 080700Z 00000KT CAVOK 16/10 Q1024=
METAR LKMT 080700Z VRB02KT 9999 FEW030 17/12 Q1023 NOSIG=
METAR LKPR 080700Z 14004KT 090V190 CAVOK 19/10 Q1023 NOSIG=
METAR LKTB 080700Z VRB02KT 9999 FEW031 19/11 Q1023 NOSIG=
####018000481####
SAMC32 GMMC 080700
METAR GMFF 080700Z 31002KT 8000 FEW033 21/19 Q1017 NOSIG=
METAR GMFM 080700Z 00000KT 1500 BR SKC 21/19 Q1017=
METAR GMFO 080700Z 23002KT 9999 FEW030 SCT100 29/15 Q1018 NOSIG=
METAR GMMW 080700Z 06008KT CAVOK 23/20 Q1016=
METAR GMMZ 080700Z 00000KT 6000 NSC 29/00 Q1023=
METAR GMTA 080700Z 04002KT 9999 FEW016 SCT026 23/20 Q1016=
METAR GMFK 080700Z NIL=
METAR GMMC 080700Z NIL=
METAR GMMH 080700Z NIL=
METAR GMML 080700Z NIL=
METAR GMTN 080700Z NIL=
####018000093####
SPEE31 KWBC 080705
SPECI
UMII 080700Z 17003MPS P6000 BKN007CB 18/16 Q1012 R23/D NOSIG=
####018000085####
SABU31 LBSM 080700 RRA
METAR LBSF 080700Z 28006MPS 9999 BKN033 14/10 Q1018 NOSIG=
####018000072####
SAEO32 EGGY 080650 RRA
METAR EEKA 080650Z 31009KT CAVOK 20/14 Q1016=
####018000111####
SPJP31 KWBC 080705
SPECI
RODN 080701Z AUTO 18013KT 9999 BKN022 30/26 A2982 RMK AO2 CIG
020V026 SLP097=
####018000109####
SPJP31 KWBC 080705
SPECI
RODN 080700Z AUTO 19012KT 9999 SCT022 30/26 A2982 RMK AO2 SCT V
BKN SLP096=
####018000072####
SAEO32 EGGY 080650 RRB
METAR EEKE 080650Z 35008KT CAVOK 20/12 Q1016=
####018000109####
SPJP31 KWBC 080705
SPECI
RODN 080703Z AUTO 19014KT 9999 SCT021 30/26 A2982 RMK AO2 SCT V
BKN SLP097=
####018000075####
SAGY31 SYCJ 080700
METAR  SYCJ 080700Z 00000KT 9000 FEW016 24/24 Q1011=
####018000080####
SAAG SASA 080700
METAR SASA 080700Z 36006KT 9999 SCT025 OVC100 12/08 Q 1022=
####018000376####
SARO31 LROM 080700
METAR LRBS 080700Z 13003KT 110V170 9999 FEW018 OVC038 19/16 Q1016
NOSIG=
METAR LRCK 080700Z 36009KT 340V040 9999 SCT033 22/15 Q1014 NOSIG=
METAR LROP 080700Z 11003KT 060V170 9999 FEW017 OVC040 19/15 Q1015
880///95 NOSIG=
METAR LRSB 080700Z 36004KT 320V030 9999 SCT030 BKN090 15/12 Q1020=
METAR LRTR 080700Z 32007KT 290V010 9999 BKN049 18/14 Q1020=
####018000166####
SACY31 LCLK 080700
METAR LCLK 080700Z 19012KT 9999 FEW010 28/22 Q1008 NOSIG=
METAR LCPH 080700Z 18006KT 140V240 9999 FEW020 27/22 Q1009=
METAR LCNC 080700Z NIL=
####018000102####
SPNT31 KWBC 080705
SPECI
BGTL 080700Z AUTO 00000KT 2800 BR OVC002 05/05 A2985 RMK AO2
SLP112=
####018000102####
SPNT31 KWBC 080705
SPECI
BGTL 080659Z AUTO 00000KT 4000 BR OVC002 05/05 A2985 RMK AO2
SLP112=
####018000619####
SAKO31 RKSI 080700
METAR RKSI 080700Z 26005KT 220V290 9999 FEW040 OVC140 24/19 Q1008
           NOSIG=
METAR RKSS 080700Z 28005KT 9999 FEW030 OVC120 27/15 Q1008 NOSIG =
METAR RKPC 080700Z 07009KT 4700 BR FEW010 SCT030 BKN190 25/21 
           Q1009 NOSIG =
METAR RKPK 080700Z 12008KT 9999 SCT030 BKN200 25/17 Q1008 NOSIG =
METAR RKTU 080700Z 25005KT 9000 SCT030 BKN200 29/19 Q1008 NOSIG =
METAR RKTN 080700Z 14006KT 9999 SCT030 BKN200 29/20 Q1007 NOSIG=
METAR RKJB 080700Z 33007KT 280V010 7000 FEW025 BKN130 27/19 Q1008 
           NOSIG =
METAR RKNY 080700Z 13005KT 9999 SCT012 OVC020 21/17 Q1009 NOSIG =
####018000093####
SPRA31 KWBC 080705
SPECI
UMII 080700Z 17003MPS P6000 BKN007CB 18/16 Q1012 R23/D NOSIG=
####018000102####
SPNT31 KWBC 080705
SPECI
BGTL 080702Z AUTO 00000KT 1600 BR OVC002 05/05 A2985 RMK AO2
SLP112=
####018000119####
SPPA31 KWBC 080705
SPECI
PGUA 080701Z AUTO 08013KT 10SM SCT018 SCT025 28/ A2986 RMK AO2
SLP092 VISNO RWY24L $=
####018000568####
SAFR37 LFPW 080700
METAR LFAQ 080700Z AUTO VRB01KT 9999NDV NSC 21/14 Q1019=
METAR LFBU 080700Z AUTO 13003KT 090V180 9999NDV NSC 23/14 Q1019=
METAR LFLN 080700Z AUTO 00000KT 9999NDV NSC 20/14 Q1021=
METAR LFPM 080700Z VRB02KT CAVOK 22/14 Q1019=
METAR LFRH 080700Z 03007KT 5000 BKN003 14/14 Q1019=
METAR LFRQ 080700Z 05005KT 010V090 4000 BR FEW001 16/15 Q1019
BECMG 6000 NSW=
METAR LFRT 080700Z VRB02KT 9999 OVC004 16/15 Q1020=
METAR LFSD 080700Z AUTO 05004KT 010V080 9999NDV NSC 22/12 Q1020=
METAR LFTW 080700Z AUTO 10003KT 070V150 9999NDV NSC 25/15 Q1020=
####018000636####
SAEW31 LEMM 080700
METAR LEMD 080700Z 34005KT 310V010 CAVOK 25/14 Q1019 NOSIG=
METAR LEBL 080700Z 30004KT 250V360 CAVOK 26/19 Q1019 NOSIG=
METAR LEPA 080700Z 00000KT CAVOK 26/18 Q1020 BECMG 22010KT=
METAR LEZL 080700Z 28007KT 9999 FEW040 25/19 Q1015 NOSIG=
METAR LEMG 080700Z 17005KT 140V210 9999 FEW040 27/16 Q1016 NOSIG=
METAR LEVC 080700Z 28003KT 240V320 CAVOK 25/20 Q1019 NOSIG=
METAR LEAL 080700Z 05005KT 020V080 CAVOK 27/16 Q1018 NOSIG=
METAR LEIB 080700Z 07003KT CAVOK 26/21 Q1019 NOSIG=
METAR LELC 080700Z 00000KT CAVOK 23/15 Q1018 NOSIG=
METAR LEVX 080700Z VRB02KT 9999 0800N R20/0500VP2000U PRFG NSC
19/18 Q1014=
####018000121####
SAAF17 LFPW 080700
METAR HLLS 080650Z 09018KT CAVOK 29/09 Q1017=
METAR HLLT 080650Z VRB02KT 7000 BKN016 25/19 Q1019=
####018000087####
SAHK31 VHHH 080700
METAR VHHH 080700Z 24014KT 9999 FEW020 SCT030 34/24 Q1007 NOSIG=
####018000074####
SAAF18 LFPW 080700
METAR FIMP 080700Z 12015KT 9999 BKN016 24/17 Q1024=
####018000111####
SPXX62 KWBC 080705
SPECI
RODN 080701Z AUTO 18013KT 9999 BKN022 30/26 A2982 RMK AO2 CIG
020V026 SLP097=
####018000109####
SPXX62 KWBC 080705
SPECI
RODN 080703Z AUTO 19014KT 9999 SCT021 30/26 A2982 RMK AO2 SCT V
BKN SLP097=
####018000402####
SAEW35 LEMM 080700
METAR LEAB 080700Z 17004KT 140V200 CAVOK 24/10 Q1021 NOSIG=
METAR LEBZ 080700Z 10002KT CAVOK 23/18 Q1015=
METAR LELN 080700Z 02004KT 350V050 CAVOK 24/13 Q1019=
METAR LESA 080700Z 00000KT CAVOK 24/16 Q1018=
METAR LETO 080700Z 05004KT 020V080 CAVOK 25/13 Q1019 NOSIG=
METAR LEVD 080700Z 09006KT 060V120 CAVOK 23/13 Q1019=
METAR LEVS 080700Z 36004KT 300V050 CAVOK 25/12 Q1020=
####018000358####
SANM40 FYWW 080700
METAR FYKT 080700Z 03008KT CAVOK 17/02 Q1026=
METAR FYOA 080700Z 06008KT CAVOK 14/03 Q1024=
METAR FYWB 080700Z 09019KT 9999 R09/M0050VP1500D R27/M0050VP1500D
     VV/// 23/04 Q1017 =
METAR FYWB 080700Z 09019KT 9999 R09/M0050VP1500D R27/M0050VP1500D
     VV/// 23/04 Q1017 =
METAR FYWH 080700Z 36002KT CAVOK 10/00 Q1030=

####018000109####
SPXX62 KWBC 080705
SPECI
RODN 080700Z AUTO 19012KT 9999 SCT022 30/26 A2982 RMK AO2 SCT V
BKN SLP096=
####018000155####
SAJP51 RJTD 080700 RRC
METAR RORS 080700Z 21013KT 9999 FEW017 BKN/// 31/26 Q1008=
METAR RJAH 080700Z 17007KT 140V200 9999 FEW025 BKN270 29/24 Q1008=
####018000118####
SPXX61 KWBC 080705
SPECI
EGUL 080702Z AUTO 21011KT 9999 BKN027 OVC033 18/16 A3005 RMK AO2
CIG 021V030 SLP177=
####018001431####
SAJP51 RJTD 080700
METAR RJAA 080700Z 22004KT 180V280 9999 FEW025 BKN/// 28/22 Q1009
           NOSIG=
METAR RJAF 080700Z 17008KT 9999 FEW060 SCT120 BKN/// 27/16 Q1011=
METAR RJBB 080700Z 24008KT 9999 FEW025 BKN/// 29/22 Q1007 NOSIG=
METAR RJBD 080700Z 18009KT 9999 FEW015 SCT025 BKN/// 28/23 Q1008=
METAR RJBE 080700Z 23006KT 9999 FEW025 BKN/// 28/22 Q1007=
METAR RJBH 080700Z 21012KT 9999 FEW030 BKN/// 28/21 Q1007=
METAR RJBT 080700Z 36008KT 8000 FEW030 BKN/// 26/20 Q1009=
METAR RJCB 080700Z 15004KT 9999 FEW007 BKN009 BKN012 19/17 Q1009=
METAR RJCC 080700Z 16007KT 6000 -DZ FEW003 BKN004 19/17 Q1008=
METAR RJCH 080700Z 15005KT 100V180 9999 FEW005 BKN050 20/19 Q1008
           RETS RERA=
METAR RJCK 080700Z VRB01KT 5000 BR SCT003 BKN004 18/16 Q1009=
METAR RJCM 080700Z 31003KT 200V360 4900 TSRA BR FEW002 BKN005 BKN008
           17/16 Q1009=
METAR RJCN 080700Z 07004KT 4500 BR BKN002 OVC003 15/14 Q1009=
METAR RJCW 080700Z 10012KT 9999 FEW004 BKN007 15/13 Q1009=
METAR RJDC 080700Z 12005KT 9999 FEW020 BKN/// 27/21 Q1007=
METAR RJDT 080700Z 04007KT 350V070 9999 FEW008 SCT025 BKN/// 23/21
           Q1009=
METAR RJEB 080700Z 35006KT 7000 FEW004 SCT005 BKN007 15/14 Q1009=
METAR RJEC 080700Z 19005KT 160V250 9999 FEW020 BKN035 23/19 Q1008=
METAR RJFS 080700Z 21004KT 170V240 9999 FEW035 BKN/// 30/21 Q1007=
METAR RJFF 080700Z 29006KT 250V340 9999 FEW025 BKN/// 29/20 Q1007=
####018001407####
SAJP51 RJTD 080700 RRA
METAR RJFG 080700Z 25005KT 210V290 9999 FEW007 SCT015 BKN025 26/23
           Q1010=
METAR RJFK 080700Z 18010KT 9999 FEW030 BKN/// 28/20 Q1009=
METAR RJFM 080700Z 13007KT 6000 FEW020 BKN/// 27/23 Q1008=
METAR RJFO 080700Z 10004KT 8000 FEW030 BKN/// 27/23 Q1007=
METAR RJFR 080700Z 13002KT 9000 FEW030 BKN/// 28/20 Q1007=
METAR RJFT 080700Z 25005KT 220V310 9999 FEW030 SCT040 BKN/// 29/22
           Q1008=
METAR RJFU 080700Z 27009KT 9999 FEW020 SCT040 BKN/// 28/23 Q1007=
METAR RJGG 080700Z 12011KT 9999 FEW020 BKN/// 29/23 Q1008 NOSIG=
METAR RJKA 080700Z VRB01KT 9999 -RA FEW015 BKN140 28/24 Q1009=
METAR RJNT 080700Z 01007KT 9999 FEW020 SCT040 BKN/// 28/21 Q1009=
METAR RJNW 080700Z 27006KT 230V310 9999 FEW020 BKN/// 26/20 Q1010=
METAR RJNS 080700Z 19007KT 150V230 9999 FEW020 SCT/// 28/21 Q1009=
METAR RJOA 080700Z 16004KT 120V200 9999 FEW025 SCT150 OVC/// 26/20
           Q1009=
METAR RJOB 080700Z 15005KT 110V180 9999 FEW035 BKN/// 28/21 Q1009=
METAR RJOC 080700Z 36009KT 9000 FEW015 SCT180 BKN/// 27/21 Q1008=
METAR RJOH 080700Z 06009KT 8000 FEW020 SCT170 BKN240 27/21 Q1008=
METAR RJOK 080700Z 18005KT 150V220 9999 FEW030 BKN/// 28/22 Q1008=
METAR RJOM 080700Z 24004KT 9999 FEW030 BKN/// 26/23 Q1008=
METAR RJOO 080700Z 23008KT 200V260 9999 FEW030 BKN/// 31/19 Q1007=
METAR RJOR 080700Z 35006KT 8000 FEW025 BKN/// 26/23 Q1008=
####018001433####
SAJP51 RJTD 080700 RRB
METAR RJOT 080700Z 04004KT 360V090 9999 FEW025 BKN/// 28/21 Q1009=
METAR RJOW 080700Z 36003KT 280V070 4500 BR FEW010 SCT015 OVC///
           24/21 Q1009=
METAR RJOY 080700Z 26009KT 9999 FEW030 BKN/// 31/19 Q1007=
METAR RJSA 080700Z 30004KT 270V340 9999 FEW010 SCT020 BKN100 23/21
           Q1009=
METAR RJSC 080700Z 36012KT 9999 FEW025 BKN/// 28/21 Q1008=
METAR RJSF 080700Z 10005KT 9999 -SHRA FEW020 FEW025CB BKN030 24/21
           Q1010 RETS=
METAR RJSI 080700Z 14005KT 090V170 9999 FEW030 28/19 Q1008=
METAR RJSK 080700Z 25009KT 9999 FEW030 27/20 Q1009=
METAR RJSR 080700Z 29006KT 240V320 9999 FEW030 26/21 Q1008=
METAR RJSN 080700Z 29008KT 9999 FEW030 BKN/// 27/22 Q1008=
METAR RJSS 080700Z 15012KT 9999 FEW030 FEW040CB SCT070 BKN/// 26/21
           Q1008 WS R27=
METAR RJSY 080700Z 30007KT 260V330 9999 FEW025 BKN/// 27/21 Q1008=
METAR RJTF 080700Z 19006KT 150V220 9999 FEW035 BKN/// 30/21 Q1008=
METAR RJTH 080700Z 21010KT 180V250 9999 -SHRA FEW008 BKN015 BKN025
           24/23 Q1011=
METAR RJTI 080700Z 18011KT 9999 FEW020 BKN/// 26/22 Q1009=
METAR RJTO 080700Z 20013KT 9999 FEW015 BKN/// 26/21 Q1009=
METAR RJTT 080700Z 19013KT 9999 FEW030 BKN/// 28/22 Q1008=
METAR ROAH 080700Z 20014KT 9999 FEW010 SCT015 BKN/// 30/27 Q1009=
METAR ROIG 080700Z 20013KT 9999 FEW015 BKN/// 31/26 Q1008=
METAR ROMY 080700Z 21017KT 9999 FEW016 BKN/// 31/26 Q1008=
####018000091####
SPUS43 KWBC 080705
SPECI
KICT 080702Z 04005KT 10SM SCT025 SCT070 BKN200 23/21 A3009=
####018001826####
SAEU KAWN 080700 RRM
METAR EGDX 080650Z AUTO 27001KT //// // OVC100/// 16/12 Q1018=
METAR EICK 080700Z 21006KT 9999 FEW018 SCT050 BKN080 13/12 Q1016 NOSIG=
METAR EIDW 080700Z 23012KT 190V250 9999 FEW023 SCT110 BKN180 14/10
      Q1015 NOSIG=
METAR EIKN 080700Z 18004KT 9999 FEW015 SCT045 BKN200 11/10 Q1013 NOSIG=
METAR EINN 080700Z 18008KT 9999 FEW030 SCT050 BKN170 14/10 Q1015 NOSIG=
METAR LATI 080700Z 07006KT CAVOK 25/11 Q1015 NOSIG=
METAR LBSF 080700Z 28006MPS 9999 BKN033 14/10 Q1018 NOSIG=
METAR LFBC 080700Z AUTO 10003KT 050V150 9999NDV NSC 23/14 Q1017=
METAR LFBF 080700Z AUTO VRB02KT 9999NDV // NSC 21/16 Q1019=
METAR LFBG 080700Z AUTO 08005KT 9999NDV NSC 22/15 Q1018=
METAR LFBM 080700Z AUTO 10005KT 9999NDV NSC 23/15 Q1017=
METAR LFKS 080700Z AUTO 02005KT 350V070 9999NDV NSC 29/22 Q1019=
METAR LFMI 080700Z AUTO VRB02KT 9999NDV NSC 27/13 Q1019=
METAR LFMO 080700Z VRB01KT CAVOK 25/16 Q1020=
METAR LFOC 080700Z AUTO 00000KT 9999NDV NCD 23/13 Q1019=
METAR LFOJ 080700Z VRB02KT CAVOK 24/16 Q1019=
METAR LFPC 080700Z 00000KT CAVOK 22/14 Q1019=
METAR LFPV 080700Z AUTO /////KT 9999NDV NSC 23/11 Q1020=
METAR LFSD 080700Z AUTO 05004KT 010V080 9999NDV NSC 22/12 Q1020=
METAR LFSF 080700Z AUTO VRB02KT 9999NDV NSC 22/12 Q1020=
METAR LFSI 080700Z AUTO VRB03KT 9999NDV NSC 22/14 Q1020=
METAR LFSO 080700Z AUTO VRB02KT 9999NDV NCD 21/12 Q1021=
METAR LFSR 080700Z AUTO 00000KT 9999NDV NSC 21/13 Q1019=
METAR LFSX 080700Z AUTO 12003KT 090V170 9999NDV NSC 21/14 Q1021=
METAR LFYR 080700Z 00000KT CAVOK 22/15 Q1019=
METAR LKCV 080700Z VRB01KT CAVOK 18/11 Q1024 NOSIG RMK BLU+ BLU+=
METAR LKPO 080700Z VRB01KT CAVOK 17/10 Q1023 NOSIG RMK BLU+ BLU+=
METAR LYBE 080700Z 28006KT 9999 SCT043 16/14 Q1021 NOSIG=
METAR LYTV 080700Z 33008KT 280V030 CAVOK 25/07 Q1017 NOSIG=
####018001688####
SAEU KAWN 080700 RRN
METAR LEAL 080700Z 05005KT 020V080 CAVOK 27/16 Q1018 NOSIG=
METAR LEAM 080700Z VRB02KT CAVOK 30/10 Q1017=
METAR LEAS 080700Z 06006KT 010V110 9999 4000S SCT010 SCT025TCU 19/18
      Q1017 TEMPO 4000 TSRA SCT025CB=
METAR LEBA 080700Z VRB01KT 9999 FEW050 24/14 Q1015=
METAR LEBB 080700Z VRB02KT 7000 FEW015 22/19 Q1016 NOSIG=
METAR LEBL 080700Z 30004KT 250V360 CAVOK 26/19 Q1019 NOSIG=
METAR LECO 080700Z 34009KT 300V010 8000 TS -RA FEW010 SCT012CB BKN016
      20/19 Q1016=
METAR LEGE 080700Z 00000KT 9000 NSC 25/20 Q1019=
METAR LEGR 080700Z VRB02KT 9999 SCT060 25/12 Q1018=
METAR LEIB 080700Z 07003KT CAVOK 26/21 Q1019 NOSIG=
METAR LELC 080700Z 00000KT CAVOK 23/15 Q1018 NOSIG=
METAR LEMD 080700Z 34005KT 310V010 CAVOK 25/14 Q1019 NOSIG=
METAR LEMG 080700Z 17005KT 140V210 9999 FEW040 27/16 Q1016 NOSIG=
METAR LEMH 080700Z 00000KT CAVOK 27/20 Q1020=
METAR LEPA 080700Z 00000KT CAVOK 26/18 Q1020 BECMG 22010KT=
METAR LERS 080700Z 05003KT 360V080 9999 FEW045 24/20 Q1019=
METAR LESO 080700Z 00000KT CAVOK 22/18 Q1016=
METAR LEST 080700Z VRB06KT 6000 VCTS SCT005 SCT024CB 16/16 Q1014 NOSIG=
METAR LEVC 080700Z 28003KT 240V320 CAVOK 25/20 Q1019 NOSIG=
METAR LEVD 080700Z 09006KT 060V120 CAVOK 23/13 Q1019=
METAR LEVS 080700Z 36004KT 300V050 CAVOK 25/12 Q1020=
METAR LEVT 080700Z 00000KT 9999 FEW035 21/18 Q1019=
METAR LEVX 080700Z VRB02KT 9999 0800N R20/0500VP2000U PRFG NSC 19/18
      Q1014=
METAR LEXJ 080700Z VRB01KT 8000 FEW012 BKN017 21/19 Q1016=
METAR LEZG 080700Z 09008KT CAVOK 26/17 Q1019=
METAR LFOA 080700Z AUTO 13003KT 100V170 9999NDV NSC 22/14 Q1020=
METAR LFQI 080700Z VRB01KT CAVOK 20/14 Q1019=
####018000081####
SPUS53 KWBC 080705
SPECI
KSTC 080701Z AUTO 00000KT 2SM BR CLR 14/13 A3008=
####018000578####
SAFR37 LFPW 080700
METAR LFAQ 080700Z AUTO VRB01KT 9999NDV NSC 21/14 Q1019=
METAR LFBU 080700Z AUTO 13003KT 090V180 9999NDV NSC 23/14 Q1019=
METAR LFLN 080700Z AUTO 00000KT 9999NDV NSC 20/14 Q1021=
METAR LFPM 080700Z VRB02KT CAVOK 22/14 Q1019=
METAR LFRH 080700Z 03007KT 5000 BKN003 14/14 Q1019=
METAR LFRQ 080700Z 05005KT 010V090 4000 BR FEW001 16/15 Q1019
BECMG 6000 NSW=
METAR LFRT 080700Z VRB02KT 9999 OVC004 16/15 Q1020=
METAR LFSD 080700Z AUTO 05004KT 010V080 9999NDV NSC 22/12 Q1020=
METAR LFTW 080700Z AUTO 10003KT 070V150 9999NDV NSC 25/15 Q1020=
####018000383####
SARO31 LROM 080700
METAR LRBS 080700Z 13003KT 110V170 9999 FEW018 OVC038 19/16 Q1016
NOSIG=
METAR LRCK 080700Z 36009KT 340V040 9999 SCT033 22/15 Q1014 NOSIG=
METAR LROP 080700Z 11003KT 060V170 9999 FEW017 OVC040 19/15 Q1015
880///95 NOSIG=
METAR LRSB 080700Z 36004KT 320V030 9999 SCT030 BKN090 15/12 Q1020=
METAR LRTR 080700Z 32007KT 290V010 9999 BKN049 18/14 Q1020=
####018000577####
SAFR35 LFPW 080700
METAR LFMI 080700Z AUTO VRB02KT 9999NDV NSC 27/13 Q1019=
METAR LFMK 080700Z 08006KT CAVOK 23/13 Q1019 NOSIG=
METAR LFRD 080700Z AUTO 35004KT 310V020 9999NDV OVC006 17/15 Q1019=
METAR LFRN 080700Z AUTO 34007KT 9999NDV BKN004/// 16/15 Q1019=
METAR LFRO 080700Z AUTO 29004KT 270V330 9999NDV BKN009 OVC014
17/16 Q1020=
METAR LFRZ 080700Z AUTO 02004KT 340V050 9999NDV NSC 19/13 Q1018=
METAR LFSB 080700Z VRB02KT CAVOK 21/12 Q1021 NOSIG=
METAR LFST 080700Z VRB01KT CAVOK 21/12 Q1020 NOSIG=
METAR LFTH 080700Z VRB01KT CAVOK 27/21 Q1019 NOSIG=
####018000336####
SATS41 DTTA 080700
METAR DTTB 080700Z 32008KT 9999 SCT020 26/19 Q1020=
METAR DTTD 080700Z 09004KT 040V150 8000 SCT020 23/17 Q1021=
METAR DTTG 080700Z 10010KT 9999 FEW020 25/20 Q1019 NOSIG=
METAR DTTK 080700Z 00000KT CAVOK 27/19 Q1019=
METAR DTTL 080700Z 29006KT CAVOK 25/20 Q1018=
METAR DTTN 080700Z 23006KT CAVOK 24/15 Q1019=
####018000419####
SAFR31 LFPW 080700
METAR LFLL 080700Z VRB03KT CAVOK 22/13 Q1021 NOSIG=
METAR LFMN 080700Z 11003KT 9999 BKN060 28/19 Q1020 NOSIG=
METAR LFPG 080700Z 20004KT 170V230 CAVOK 23/10 Q1019 NOSIG=
METAR LFPO 080700Z VRB02KT CAVOK 23/13 Q1019 NOSIG=
METAR LFQQ 080700Z VRB03KT CAVOK 21/14 Q1019 NOSIG=
METAR LFRB 080700Z 00000KT 9999 OVC008 17/15 Q1019 NOSIG=
METAR LFRS 080700Z VRB03KT CAVOK 21/13 Q1018 NOSIG=
####018000075####
SAEG31 HECA 080700
METAR HECA 080700Z 01008KT CAVOK 28/19 Q1011 NOSIG=
####018000329####
SATS42 DTTA 080700
METAR DTTB 080700Z 32008KT 9999 SCT020 26/19 Q1020=
METAR DTTD 080700Z 09004KT 040V150 8000 SCT020 23/17 Q1021=
METAR DTTK 080700Z 00000KT CAVOK 27/19 Q1019=
METAR DTTL 080700Z 29006KT CAVOK 25/20 Q1018=
METAR DTTN 080700Z 23006KT CAVOK 24/15 Q1019=
METAR DTTR 080700Z 06006KT CAVOK 24/15 Q1020=
####018000702####
SAFR36 LFPW 080700
METAR LFBA 080700Z 10006KT CAVOK 20/16 Q1018 NOSIG=
METAR LFBE 080700Z 07004KT 040V100 3000 NSC 20/16 Q1018 NOSIG=
METAR LFGJ 080700Z AUTO VRB02KT 9999NDV NSC 20/15 Q1020=
METAR LFJR 080700Z AUTO VRB02KT 9999NDV NCD 22/14 Q1019=
METAR LFMD 080700Z AUTO 36003KT 320V050 9999NDV FEW080 26/21 Q1019=
METAR LFMH 080700Z 14003KT 090V180 CAVOK 21/12 Q1021 NOSIG=
METAR LFOT 080700Z AUTO VRB02KT 9999NDV NSC 22/14 Q1019=
METAR LFPN 080700Z 17004KT 130V200 CAVOK 23/12 Q1020 NOSIG=
METAR LFRC 080700Z AUTO 32004KT 290V010 9999NDV BKN007 17/17 Q1020=
METAR LFRG 080700Z AUTO VRB03KT 9999NDV NSC 21/10 Q1020=
METAR LFRK 080700Z 01004KT 330V050 CAVOK 19/13 Q1019 NOSIG=
####018000530####
SATS40 DTTA 080700
METAR DTKA 080700Z 26008KT 9999 FEW023 26/16 Q1019 NOSIG=
METAR DTMB 080700Z 28006KT CAVOK 26/20 Q1019 NOSIG=
METAR DTNZ 080700Z 36004KT 310V030 CAVOK 26/12 Q1019=
METAR DTTA 080700Z 27008KT 240V300 9999 FEW026 25/18 Q1019  NOSIG=
METAR DTTF 080700Z 03006KT CAVOK 26/16 Q1019 NOSIG=
METAR DTTJ 080700Z 07002KT 8000 FEW020 27/23 Q1019 NOSIG=
METAR DTTR 080700Z 06006KT CAVOK 24/15 Q1020=
METAR DTTX 080700Z 06004KT CAVOK 27/19 Q1019 NOSIG=
METAR DTTZ 080700Z 09012KT CAVOK 28/24 Q1019 NOSIG=
####018000522####
SATS40 DTTA 080700
METAR DTKA 080700Z 26008KT 9999 FEW023 26/16 Q1019 NOSIG=
METAR DTMB 080700Z 28006KT CAVOK 26/20 Q1019 NOSIG=
METAR DTNZ 080700Z 36004KT 310V030 CAVOK 26/12 Q1019=
METAR DTTA 080700Z 27008KT 240V300 9999 FEW026 25/18 Q1019  NOSIG=
METAR DTTF 080700Z 03006KT CAVOK 26/16 Q1019 NOSIG=
METAR DTTJ 080700Z 07002KT 8000 FEW020 27/23 Q1019 NOSIG=
METAR DTTR 080700Z 06006KT CAVOK 24/15 Q1020=
METAR DTTX 080700Z 06004KT CAVOK 27/19 Q1019 NOSIG=
METAR DTTZ 080700Z 09012KT CAVOK 28/24 Q1019 NOSIG=
####018000511####
SAFR33 LFPW 080700
METAR LFKB 080654Z 00000KT 9000 SCT016 28/22 Q1019 NOSIG=
METAR LFKC 080700Z 34005KT 300V020 9999 FEW016 26/21 Q1019 NOSIG=
METAR LFKF 080700Z 08004KT 360V140 9999 SCT016 28/22 Q1019 NOSIG=
METAR LFKJ 080700Z VRB02KT 9999 FEW023 26/20 Q1019 NOSIG=
METAR LFLC 080700Z 17003KT 120V240 CAVOK 20/14 Q1020 NOSIG=
METAR LFMP 080700Z VRB02KT CAVOK 25/13 Q1019 NOSIG=
METAR LFMV 080700Z AUTO VRB03KT 9999NDV NSC 25/17 Q1020=
METAR LFSL 080700Z AUTO 11004KT 9999NDV NSC 22/14 Q1020=
####018000788####
SAEW32 LEMM 080700
METAR LEAS 080700Z 06006KT 010V110 9999 4000S SCT010 SCT025TCU
19/18 Q1017 TEMPO 4000 TSRA SCT025CB=
METAR LEBB 080700Z VRB02KT 7000 FEW015 22/19 Q1016 NOSIG=
METAR LECO 080700Z 34009KT 300V010 8000 TS -RA FEW010 SCT012CB
BKN016 20/19 Q1016=
METAR LEGE 080700Z 00000KT 9000 NSC 25/20 Q1019=
METAR LEST 080700Z VRB06KT 6000 VCTS SCT005 SCT024CB 16/16 Q1014
NOSIG=
METAR LEZG 080700Z 09008KT CAVOK 26/17 Q1019=
METAR LESO 080700Z 00000KT CAVOK 22/18 Q1016=
METAR LEVT 080700Z 00000KT 9999 FEW035 21/18 Q1019=
METAR LERS 080700Z 05003KT 360V080 9999 FEW045 24/20 Q1019=
METAR LEMH 080700Z 00000KT CAVOK 27/20 Q1020=
METAR LEAM 080700Z VRB02KT CAVOK 30/10 Q1017=
METAR LEGR 080700Z VRB02KT 9999 SCT060 25/12 Q1018=
METAR LERL 080700Z NIL=
####018000542####
SATS32 DTTA 080700
METAR DTKA 080700Z 26008KT 9999 FEW023 26/16 Q1019 NOSIG=
METAR DTMB 080700Z 28006KT CAVOK 26/20 Q1019 NOSIG=
METAR DTNZ 080700Z 36004KT 310V030 CAVOK 26/12 Q1019=
METAR DTTA 080700Z 27008KT 240V300 9999 FEW026 25/18 Q1019  NOSIG=
METAR DTTF 080700Z 03006KT CAVOK 26/16 Q1019 NOSIG=
METAR DTTG 080700Z 10010KT 9999 FEW020 25/20 Q1019 NOSIG=
METAR DTTJ 080700Z 07002KT 8000 FEW020 27/23 Q1019 NOSIG=
METAR DTTX 080700Z 06004KT CAVOK 27/19 Q1019 NOSIG=
METAR DTTZ 080700Z 09012KT CAVOK 28/24 Q1019 NOSIG=
####018000169####
SACY31 LCLK 080700
METAR LCLK 080700Z 19012KT 9999 FEW010 28/22 Q1008 NOSIG=
METAR LCPH 080700Z 18006KT 140V240 9999 FEW020 27/22 Q1009=
METAR LCNC 080700Z NIL=
####018000630####
SAKO31 RKSI 080700
METAR RKSI 080700Z 26005KT 220V290 9999 FEW040 OVC140 24/19 Q1008
           NOSIG=
METAR RKSS 080700Z 28005KT 9999 FEW030 OVC120 27/15 Q1008 NOSIG =
METAR RKPC 080700Z 07009KT 4700 BR FEW010 SCT030 BKN190 25/21 
           Q1009 NOSIG =
METAR RKPK 080700Z 12008KT 9999 SCT030 BKN200 25/17 Q1008 NOSIG =
METAR RKTU 080700Z 25005KT 9000 SCT030 BKN200 29/19 Q1008 NOSIG =
METAR RKTN 080700Z 14006KT 9999 SCT030 BKN200 29/20 Q1007 NOSIG=
METAR RKJB 080700Z 33007KT 280V010 7000 FEW025 BKN130 27/19 Q1008 
           NOSIG =
METAR RKNY 080700Z 13005KT 9999 SCT012 OVC020 21/17 Q1009 NOSIG =
####018000647####
SAEW31 LEMM 080700
METAR LEMD 080700Z 34005KT 310V010 CAVOK 25/14 Q1019 NOSIG=
METAR LEBL 080700Z 30004KT 250V360 CAVOK 26/19 Q1019 NOSIG=
METAR LEPA 080700Z 00000KT CAVOK 26/18 Q1020 BECMG 22010KT=
METAR LEZL 080700Z 28007KT 9999 FEW040 25/19 Q1015 NOSIG=
METAR LEMG 080700Z 17005KT 140V210 9999 FEW040 27/16 Q1016 NOSIG=
METAR LEVC 080700Z 28003KT 240V320 CAVOK 25/20 Q1019 NOSIG=
METAR LEAL 080700Z 05005KT 020V080 CAVOK 27/16 Q1018 NOSIG=
METAR LEIB 080700Z 07003KT CAVOK 26/21 Q1019 NOSIG=
METAR LELC 080700Z 00000KT CAVOK 23/15 Q1018 NOSIG=
METAR LEVX 080700Z VRB02KT 9999 0800N R20/0500VP2000U PRFG NSC
19/18 Q1014=
####018000745####
SAFR34 LFPW 080700
METAR LFCR 080700Z AUTO 11004KT 9999NDV NSC 22/12 Q1021=
METAR LFJL 080700Z AUTO VRB01KT 9999NDV NSC 21/11 Q1021=
METAR LFLP 080700Z AUTO VRB02KT 9999NDV FEW049 22/12 Q1022=
METAR LFLS 080700Z 11004KT CAVOK 23/16 Q1021 NOSIG=
METAR LFLY 080700Z 20004KT  CAVOK 22/12 Q1021 NOSIG=
METAR LFMU 080700Z AUTO 04005KT 010V080 9999NDV NSC 25/14 Q1019=
METAR LFOB 080700Z 00000KT CAVOK 19/13 Q1019 NOSIG=
METAR LFOH 080700Z AUTO 01007KT 340V040 9999NDV NSC 19/12 Q1019=
METAR LFOK 080700Z AUTO 16005KT 9999NDV NSC 21/13 Q1020=
METAR LFOP 080700Z 00000KT CAVOK 20/10 Q1019 NOSIG=
METAR LFPB 080700Z VRB01KT CAVOK 24/12 Q1019 NOSIG=
METAR LFSN 080700Z VRB01KT CAVOK 22/13 Q1021 NOSIG=
METAR LFMT 080700Z NIL=
####018000616####
SAFR32 LFPW 080700
METAR LFBD 080700Z 08007KT 020V100 CAVOK 24/15 Q1017 NOSIG=
METAR LFBH 080700Z AUTO 11005KT 9999NDV NSC 24/13 Q1018=
METAR LFBI 080700Z VRB02KT CAVOK 22/13 Q1019 NOSIG=
METAR LFBL 080700Z 08003KT CAVOK 20/14 Q1020 NOSIG=
METAR LFBO 080700Z 09004KT 060V130 CAVOK 23/13 Q1019 BECMG 13012KT=
METAR LFBP 080700Z VRB02KT CAVOK 24/18 Q1017 NOSIG=
METAR LFBT 080700Z 00000KT CAVOK 25/16 Q1018 NOSIG=
METAR LFBZ 080700Z 00000KT CAVOK 23/20 Q1016 NOSIG=
METAR LFLX 080700Z 00000KT CAVOK 23/16 Q1019 NOSIG=
METAR LFML 080700Z VRB02KT CAVOK 26/17 Q1019 NOSIG=
METAR LFLB 080700Z NIL=
####018000138####
SAIY42 LIIB 080600 RRC
METAR LIRM 080555Z 06012KT 020V100 9999 FEW035 25/20 Q1018 RMK SCT
      VIS MIN 9999 WIND THR06 05012KT BLU=
####018000452####
SAIR32 OIII 080700
METAR OIAA 080700Z 33012KT CAVOK 41/07 Q1000=
METAR OIBK 080700Z 09014KT 5000 SA SKC 37/26 Q1001 A2956=
METAR OICC 080700Z 15008KT CAVOK 34/M01 Q1014 A2996
865.8=
METAR OIGG 080700Z 33004KT 9999 FEW025 31/24 Q1012 A2989=
METAR OIIE 080700Z 12012KT CAVOK 36/M06 Q1012 A2991
899.7 07:=
METAR OITR 080700Z NIL=
METAR OIYY 080700Z 34004KT CAVOK 38/M04 Q1015 A2998=
METAR OAKN 080700Z NIL=
METAR OAKB 080700Z NIL=
####018000389####
SAIR33 OIII 080700
METAR OIBB 080700Z 18010KT 6000 HZ SKC 36/27 Q1000 A2954=
METAR OIBL 080700Z NIL=
METAR OIBP 080700Z NIL=
METAR OICK 080700Z NIL=
METAR OICS 080700Z 01002KT 9000 SKC 34/03 Q1014 A2995=
METAR OIHH 080700Z NIL=
METAR OINZ 080700Z 26008KT 9999 FEW030 SCT110 34/22 Q1011 A2986=
METAR OITL 080700Z 08022KT CAVOK 23/11 Q1019 A3011=
METAR OIZC 080700Z NIL=
####018000258####
SAGG31 UGTB 080700
METAR UGTB 080700Z 30011KT 9999 SCT050 BKN100 29/17 Q1015 NOSIG RMK
      31CLRD80=
METAR UGKO 080700Z 00000KT 9999 SCT033CB BKN100 28/22 Q1013
           NOSIG=
METAR UGSB 080700Z 29008KT 9999 FEW023 SCT070 27/23 Q1011 NOSIG=
####018000077####
SAQB31 LQTZ 080700
METAR
LQTZ 080700Z VRB01KT 9999 FEW030 14/// Q1023=
####018000091####
SPUS73 KWBC 080705
SPECI
KICT 080702Z 04005KT 10SM SCT025 SCT070 BKN200 23/21 A3009=
####018000081####
SPUS73 KWBC 080705
SPECI
KSTC 080701Z AUTO 00000KT 2SM BR CLR 14/13 A3008=
####018000516####
SAMS32 WMKK 080700
METAR 080700Z
METAR WBGG 080700Z 05010KT 9999 FEW015CB BKN020 BKN300 28/23 Q1008 
NOSIG=
METAR WBKK 080700Z 27002KT 9999 TS FEW014 FEW017CB SCT140 BKN270 
30/25
     Q1008
     TEMPO 5000 TSRA=
METAR WMKJ 080700Z 01002KT 9999 FEW018 BKN280 29/25 Q1009=
METAR WMKK 080700Z 23006KT 160V280 9999 SCT018 SCT140 BKN280 31/26 
Q1009
     NOSIG=
METAR WMKP 080700Z 21009KT 9999 FEW020 BKN300 31/25 Q1009 NOSIG=
METAR WMSA 080700Z 21004KT 9999 FEW020 BKN140 33/25 Q1009 NOSIG=
####018000081####
SPUS81 KWBC 080705
SPECI
KSTC 080701Z AUTO 00000KT 2SM BR CLR 14/13 A3008=
####018000292####
SAIN33 VECC 080650
METAR VECC 080650Z 20013KT 4000 -RA SCT018 SCT025 FEW030CB BKN090
     34/25
    Q1007 TEMPO FM0720 1500 TSRA=
METAR VEPT 080650Z 08009KT 5000 HZ SCT020 SCT025 36/23
    Q1004 NOSIG=
METAR VGEG 080650Z NIL=
METAR VGZR 080650Z NIL=
METAR VNKT 080650Z NIL=
####018000815####
SAUS17 KAWN 080700 RRD
METAR K79J 080656Z AUTO 00000KT 10SM CLR 25/22 A3003 RMK AO2 SLP163
      T02500222 TSNO $=
METAR K79J 080656Z AUTO 00000KT 10SM CLR 25/22 A3003 RMK AO2 SLP163
      T02500222 TSNO $=
METAR KLTS 080655Z AUTO 32004KT 10SM CLR 24/22 A3004 RMK AO2 SLP155
      T02360222 $=
METAR KLUF 080655Z AUTO 01003KT 10SM CLR 30/08 A2974 RMK AO2 SLP038
      T03030076 404130241 $=
METAR KNBC 080656Z AUTO 26005KT 10SM CLR 24/19 A2998 RMK AO2 SLP151
      T02440189=
METAR KNJK 080656Z AUTO 26008KT 10SM CLR 28/09 A2967 RMK AO2 SLP06LJ
      T02830089 TSNO=
METAR KNJM 080657Z AUTO 35004KT 10SM CLR 26/19 A2990 RMK AO2 SLP130
      T02610194 $=
METAR PABA 080701Z AUTO 29006KT 10SM UP BKN005 OVC012 02/02 A3005 RMK
      AO2 RAB0650E00UPB00 SLP177 P0000 T00220017 FZRANO=
####018001729####
SAEU KAWN 080700 RRO
METAR LEAB 080700Z 17004KT 140V200 CAVOK 24/10 Q1021 NOSIG=
METAR LEBZ 080700Z 10002KT CAVOK 23/18 Q1015=
METAR LELN 080700Z 02004KT 350V050 CAVOK 24/13 Q1019=
METAR LEPP 080700Z 00000KT CAVOK 23/16 Q1020=
METAR LESA 080700Z 00000KT CAVOK 24/16 Q1018=
METAR LETO 080700Z 05004KT 020V080 CAVOK 25/13 Q1019 NOSIG=
METAR LEZL 080700Z 28007KT 9999 FEW040 25/19 Q1015 NOSIG=
METAR LFBD 080700Z 08007KT 020V100 CAVOK 24/15 Q1017 NOSIG=
METAR LFBO 080700Z 09004KT 060V130 CAVOK 23/13 Q1019 BECMG 13012KT=
METAR LFBP 080700Z VRB02KT CAVOK 24/18 Q1017 NOSIG=
METAR LFBT 080700Z 00000KT CAVOK 25/16 Q1018 NOSIG=
METAR LFBZ 080700Z 00000KT CAVOK 23/20 Q1016 NOSIG=
METAR LFCR 080700Z AUTO 11004KT 9999NDV NSC 22/12 Q1021=
METAR LFJL 080700Z AUTO VRB01KT 9999NDV NSC 21/11 Q1021=
METAR LFLL 080700Z VRB03KT CAVOK 22/13 Q1021 NOSIG=
METAR LFLS 080700Z 11004KT CAVOK 23/16 Q1021 NOSIG=
METAR LFLY 080700Z 20004KT CAVOK 22/12 Q1021 NOSIG=
METAR LFML 080700Z VRB02KT CAVOK 26/17 Q1019 NOSIG=
METAR LFMN 080700Z 11003KT 9999 BKN060 28/19 Q1020 NOSIG=
METAR LFMU 080700Z AUTO 04005KT 010V080 9999NDV NSC 25/14 Q1019=
METAR LFOB 080700Z 00000KT CAVOK 19/13 Q1019 NOSIG=
METAR LFOH 080700Z AUTO 01007KT 340V040 9999NDV NSC 19/12 Q1019=
METAR LFOP 080700Z 00000KT CAVOK 20/10 Q1019 NOSIG=
METAR LFPB 080700Z VRB01KT CAVOK 24/12 Q1019 NOSIG=
METAR LFPG 080700Z 20004KT 170V230 CAVOK 23/10 Q1019 NOSIG=
METAR LFPO 080700Z VRB02KT CAVOK 23/13 Q1019 NOSIG=
METAR LFQQ 080700Z VRB03KT CAVOK 21/14 Q1019 NOSIG=
METAR LFRB 080700Z 00000KT 9999 OVC008 17/15 Q1019 NOSIG=
METAR LFRS 080700Z VRB03KT CAVOK 21/13 Q1018 NOSIG=
METAR LFSN 080700Z VRB01KT CAVOK 22/13 Q1021 NOSIG=
####018001769####
SAEW KAWN 080700 RRD
METAR LFBC 080700Z AUTO 10003KT 050V150 9999NDV NSC 23/14 Q1017=
METAR LFBF 080700Z AUTO VRB02KT 9999NDV // NSC 21/16 Q1019=
METAR LFBG 080700Z AUTO 08005KT 9999NDV NSC 22/15 Q1018=
METAR LFBM 080700Z AUTO 10005KT 9999NDV NSC 23/15 Q1017=
METAR LFCR 080700Z AUTO 11004KT 9999NDV NSC 22/12 Q1021=
METAR LFKS 080700Z AUTO 02005KT 350V070 9999NDV NSC 29/22 Q1019=
METAR LFLL 080700Z VRB03KT CAVOK 22/13 Q1021 NOSIG=
METAR LFLS 080700Z 11004KT CAVOK 23/16 Q1021 NOSIG=
METAR LFMI 080700Z AUTO VRB02KT 9999NDV NSC 27/13 Q1019=
METAR LFMN 080700Z 11003KT 9999 BKN060 28/19 Q1020 NOSIG=
METAR LFMO 080700Z VRB01KT CAVOK 25/16 Q1020=
METAR LFMU 080700Z AUTO 04005KT 010V080 9999NDV NSC 25/14 Q1019=
METAR LFOA 080700Z AUTO 13003KT 100V170 9999NDV NSC 22/14 Q1020=
METAR LFOC 080700Z AUTO 00000KT 9999NDV NCD 23/13 Q1019=
METAR LFOJ 080700Z VRB02KT CAVOK 24/16 Q1019=
METAR LFPC 080700Z 00000KT CAVOK 22/14 Q1019=
METAR LFPG 080700Z 20004KT 170V230 CAVOK 23/10 Q1019 NOSIG=
METAR LFPO 080700Z VRB02KT CAVOK 23/13 Q1019 NOSIG=
METAR LFPV 080700Z AUTO /////KT 9999NDV NSC 23/11 Q1020=
METAR LFQI 080700Z VRB01KT CAVOK 20/14 Q1019=
METAR LFQQ 080700Z VRB03KT CAVOK 21/14 Q1019 NOSIG=
METAR LFRB 080700Z 00000KT 9999 OVC008 17/15 Q1019 NOSIG=
METAR LFRS 080700Z VRB03KT CAVOK 21/13 Q1018 NOSIG=
METAR LFSD 080700Z AUTO 05004KT 010V080 9999NDV NSC 22/12 Q1020=
METAR LFSF 080700Z AUTO VRB02KT 9999NDV NSC 22/12 Q1020=
METAR LFSI 080700Z AUTO VRB03KT 9999NDV NSC 22/14 Q1020=
METAR LFSO 080700Z AUTO VRB02KT 9999NDV NCD 21/12 Q1021=
METAR LFSR 080700Z AUTO 00000KT 9999NDV NSC 21/13 Q1019=
METAR LFSX 080700Z AUTO 12003KT 090V170 9999NDV NSC 21/14 Q1021=
METAR LFYR 080700Z 00000KT CAVOK 22/15 Q1019=
####018000843####
SANA14 KAWN 080700 RRD
METAR KNEL 080700Z AUTO 00000KT 3SM BR OVC110 23/21 A3001 RMK AO2 SLP160
      T02330211 $=
METAR KNGU 080659Z 00000KT 5SM BR FEW085 26/23 A2996 RMK AO2 SLP147
      T02560233=
METAR KNID 080656Z AUTO 19007KT FEW090 27/03 A2982 RMK AO2 SLP071 T02720033
      TSNO $=
METAR KNSE 080656Z AUTO 00000KT 1 1/2SM BR CLR 24/22 A3003 RMK AO2
      SLP153 T02390217 $=
METAR KNSE 080656Z AUTO 00000KT 1 1/2SM BR CLR 24/22 A3003 RMK AO2
      SLP153 T02390217 $=
METAR KOSC 080654Z AUTO 00000KT 10SM CLR 20/18 A3002 RMK AO2=
METAR KRCA 080655Z 00000KT 9SM CLR 12/09 A3024 RMK AO2A SLP229 T01240091
      402230084 $=
METAR KSZL 080655Z 18003KT 3SM -RA BKN021 BKN030 23/22 A3004 RMK AO2A
      DZB0559E0609 SLP165 P0013 T02290224 $=
METAR SKRG 080700Z 00000KT 5000 BCFG BKN006 BKN080 14/14 A3028=
####018000504####
SAIR34 OIII 080700
METAR OIAG 080700Z 13014KT CAVOK 41/14 Q1000 A2956=
METAR OIAM 080700Z 21004KT 8000 SKC 38/13 Q0999 A2951=
METAR OICI 080700Z 28004KT CAVOK 35/M01 Q1013 A2992 864.0=
METAR OIKQ 080700Z 09010KT 6000 SKC 36/26 Q1001 A2957=
METAR OINN 080700Z 33014KT 9999 FEW030 30/23 Q1010 A2983=
METAR OINR 080700Z 34018KT CAVOK 31/22 Q1010 A2984=
METAR OISL 080700Z 00000KT 5000 DU SKC 38/21 Q1006 A2972=
METAR OISY 080700Z 24004KT CAVOK 32/10 Q1020 A3014=
METAR OITZ 080700Z NIL=
####018000075####
SACA01 KMSC 080705
METAR MYNN 080700Z 00000KT 9999 FEW015 27/27 A2994=
####018000079####
SPCN47 CWAO 080703
SPECI CYPQ 080703Z AUTO ///// 1/8SM CLR 20/20 A3003=

####018000080####
SANO38 ENMI 080650 RRA
METAR ENEK 080650Z 22016KT CAVOK 15/13 Q1014 W14/S3=
####018000601####
SAMS34 WMKK 080700
METAR 080700Z
METAR WBGB 080700Z 27007KT 9999 FEW015CB BKN300 29/25 Q1007=
METAR WBGR 080700Z 23002KT 9999 -TSRA SCT014 FEW015CB BKN150 27/25 Q1008=
METAR WBGS 080700Z 05005KT 9999 -SHRA FEW015CB SCT016 BKN150 26/25 Q1009=
METAR WBGY 080700Z 14003KT 9999 -SHRA FEW015CB SCT024 BKN150 27/25 Q1007=
METAR WBKL 080700Z 27007KT 9999 FEW012 FEW015CB BKN300 31/26 Q1007=
METAR WBKS 080700Z 01002KT 9999 -TSRA FEW015 FEW016CB BKN140 25/24 Q1008=
METAR WBKT 080700Z 04007KT 9999 FEW016 BKN280 31/25 Q1007=
METAR WBKW 080700Z 17005KT 9999 TS FEW016CB BKN300 31/24 Q1008=
####018000112####
SAUS41 KAKQ 080705
MTRNTU
SPECI KNTU 080703Z 11003KT 4SM BR FEW005 26/24 A2994 RMK AO2 CHINO 
RWY 05R $
####018001616####
SAZZ40 KAWN 080700 RRM
METAR BIAR 080700Z 35019KT 9999 -RA BKN026 09/06 Q0993=
METAR BIEG 080700Z 36013KT 1500 VCSH BR VV002 08/08 Q0989=
METAR BIKF 080700Z 02018KT 9999 FEW014 SCT019 BKN026 09/05 Q0992=
METAR BIRK 080700Z 01023G34KT 250V110 9999 FEW015 SCT035 BKN060 09/06
      Q0991=
METAR K79J 080656Z AUTO 00000KT 10SM CLR 25/22 A3003 RMK AO2 SLP163
      T02500222 TSNO $=
METAR KHUA 080655Z AUTO RMK AO2 SLPNO $=
METAR KNEL 080700Z AUTO 00000KT 3SM BR OVC110 23/21 A3001 RMK AO2 SLP160
      T02330211 $=
METAR KNGU 080659Z 00000KT 5SM BR FEW085 26/23 A2996 RMK AO2 SLP147
      T02560233=
METAR KNSE 080656Z AUTO 00000KT 1 1/2SM BR CLR 24/22 A3003 RMK AO2
      SLP153 T02390217 $=
METAR LEMO 080700Z VRB02KT CAVOK 23/19 Q1015 NOSIG=
METAR LKKV 080700Z 00000KT CAVOK 16/10 Q1024=
METAR MYNN 080700Z 00000KT 9999 FEW015 27/27 A2994=
METAR NSTU 080659Z 34003KT 10SM SCT014 BKN040 BKN130 27/26 A2986 RMK
      SHRAB20E45 SLP113 T02710261=
METAR OIFM 080700Z 00000KT CAVOK 35/07 Q1017 A3006=
METAR PABA 080701Z AUTO 29006KT 10SM UP BKN005 OVC012 02/02 A3005 RMK
      AO2 RAB0650E00UPB00 SLP177 P0000 T00220017 FZRANO=
METAR RJAW 080700Z 09011KT 9999 FEW015 BKN250 28/25 Q1014 RMK 2CU015
      A2996=
METAR RJSM 080700Z 12010KT 9999 SCT003 BKN006 BKN080 20/18 Q1008 RMK
      3ST003 5ST006 6AC080 A2979 WIND BY EQPT/10 VIS NE-E 3500M
      FCST 0713 TEMPO 0709 3000 -SHRA BR SCT001ST BKN003ST TEMPO
      0912 1500 BR SCT000ST BKN001ST BECMG 1213 3000 BR SCT000ST
      BKN001ST/ ST AFT 09Z=
METAR TFFR 080700Z VRB01KT 9999 FEW021 26/24 Q1014 NOSIG=
####018001776####
SAEU KAWN 080700 RRP
METAR EGXZ 080650Z 18004KT CAVOK 15/11 Q1016 BLU=
METAR ETIH 080655Z AUTO 08003KT 9999 CLR 18/12 A3024 RMK AO2 SLP229
      T01760115=
METAR LFBE 080700Z 07004KT 040V100 3000 NSC 20/16 Q1018 NOSIG=
METAR LFBI 080700Z VRB02KT CAVOK 22/13 Q1019 NOSIG=
METAR LFBL 080700Z 08003KT CAVOK 20/14 Q1020 NOSIG=
METAR LFGJ 080700Z AUTO VRB02KT 9999NDV NSC 20/15 Q1020=
METAR LFKB 080654Z 00000KT 9000 SCT016 28/22 Q1019 NOSIG=
METAR LFKC 080700Z 34005KT 300V020 9999 FEW016 26/21 Q1019 NOSIG=
METAR LFKF 080700Z 08004KT 360V140 9999 SCT016 28/22 Q1019 NOSIG=
METAR LFKJ 080700Z VRB02KT 9999 FEW023 26/20 Q1019 NOSIG=
METAR LFLC 080700Z 17003KT 120V240 CAVOK 20/14 Q1020 NOSIG=
METAR LFLX 080700Z 00000KT CAVOK 23/16 Q1019 NOSIG=
METAR LFMD 080700Z AUTO 36003KT 320V050 9999NDV FEW080 26/21 Q1019=
METAR LFMH 080700Z 14003KT 090V180 CAVOK 21/12 Q1021 NOSIG=
METAR LFMP 080700Z VRB02KT CAVOK 25/13 Q1019 NOSIG=
METAR LFOT 080700Z AUTO VRB02KT 9999NDV NSC 22/14 Q1019=
METAR LFRD 080700Z AUTO 35004KT 310V020 9999NDV OVC006 17/15 Q1019=
METAR LFRK 080700Z 01004KT 330V050 CAVOK 19/13 Q1019 NOSIG=
METAR LFRO 080700Z AUTO 29004KT 270V330 9999NDV BKN009 OVC014 17/16
      Q1020=
METAR LFRZ 080700Z AUTO 02004KT 340V050 9999NDV NSC 19/13 Q1018=
METAR LFSL 080700Z AUTO 11004KT 9999NDV NSC 22/14 Q1020=
METAR LFST 080700Z VRB01KT CAVOK 21/12 Q1020 NOSIG=
METAR LRBS 080700Z 13003KT 110V170 9999 FEW018 OVC038 19/16 Q1016 NOSIG=
METAR LRCK 080700Z 36009KT 340V040 9999 SCT033 22/15 Q1014 NOSIG=
METAR LROP 080700Z 11003KT 060V170 9999 FEW017 OVC040 19/15 Q1015 880///95
      NOSIG=
METAR LRSB 080700Z 36004KT 320V030 9999 SCT030 BKN090 15/12 Q1020=
METAR LRTR 080700Z 32007KT 290V010 9999 BKN049 18/14 Q1020=
####018001689####
SAEW KAWN 080700 RRE
METAR ETIH 080655Z AUTO 08003KT 9999 CLR 18/12 A3024 RMK AO2 SLP229
      T01760115=
METAR LFBD 080700Z 08007KT 020V100 CAVOK 24/15 Q1017 NOSIG=
METAR LFBE 080700Z 07004KT 040V100 3000 NSC 20/16 Q1018 NOSIG=
METAR LFBI 080700Z VRB02KT CAVOK 22/13 Q1019 NOSIG=
METAR LFBL 080700Z 08003KT CAVOK 20/14 Q1020 NOSIG=
METAR LFBO 080700Z 09004KT 060V130 CAVOK 23/13 Q1019 BECMG 13012KT=
METAR LFBP 080700Z VRB02KT CAVOK 24/18 Q1017 NOSIG=
METAR LFBT 080700Z 00000KT CAVOK 25/16 Q1018 NOSIG=
METAR LFBZ 080700Z 00000KT CAVOK 23/20 Q1016 NOSIG=
METAR LFJL 080700Z AUTO VRB01KT 9999NDV NSC 21/11 Q1021=
METAR LFKB 080654Z 00000KT 9000 SCT016 28/22 Q1019 NOSIG=
METAR LFKC 080700Z 34005KT 300V020 9999 FEW016 26/21 Q1019 NOSIG=
METAR LFKF 080700Z 08004KT 360V140 9999 SCT016 28/22 Q1019 NOSIG=
METAR LFKJ 080700Z VRB02KT 9999 FEW023 26/20 Q1019 NOSIG=
METAR LFLX 080700Z 00000KT CAVOK 23/16 Q1019 NOSIG=
METAR LFLY 080700Z 20004KT CAVOK 22/12 Q1021 NOSIG=
METAR LFMH 080700Z 14003KT 090V180 CAVOK 21/12 Q1021 NOSIG=
METAR LFML 080700Z VRB02KT CAVOK 26/17 Q1019 NOSIG=
METAR LFMP 080700Z VRB02KT CAVOK 25/13 Q1019 NOSIG=
METAR LFOB 080700Z 00000KT CAVOK 19/13 Q1019 NOSIG=
METAR LFOH 080700Z AUTO 01007KT 340V040 9999NDV NSC 19/12 Q1019=
METAR LFOP 080700Z 00000KT CAVOK 20/10 Q1019 NOSIG=
METAR LFOT 080700Z AUTO VRB02KT 9999NDV NSC 22/14 Q1019=
METAR LFPB 080700Z VRB01KT CAVOK 24/12 Q1019 NOSIG=
METAR LFRK 080700Z 01004KT 330V050 CAVOK 19/13 Q1019 NOSIG=
METAR LFSL 080700Z AUTO 11004KT 9999NDV NSC 22/14 Q1020=
METAR LFSN 080700Z VRB01KT CAVOK 22/13 Q1021 NOSIG=
METAR LFST 080700Z VRB01KT CAVOK 21/12 Q1020 NOSIG=
####018000088####
SAZW40 FVHA 080700 RRA
METAR FVHA 080700Z 13015KT 9999 BKN020 11/06 Q1031 NOSIG=

####018002738####
SAUS20 KNKA 080705
METAR KUXL 080700Z AUTO 08006KT 10SM CLR 26/24 A2998 RMK AO2=
SPECI KAQW 080704Z AUTO 00000KT 2 1/2SM BR CLR 19/18 A3005 RMK AO2=
METAR KCDH 080700Z AUTO 00000KT 2SM BR OVC001 23/23 A3003 RMK AO2=
SPECI KCEC 080704Z AUTO 00000KT 1 1/2SM BR OVC001 10/09 A2998 RMK 
    AO2=
METAR KCLS 080655Z AUTO 00000KT 10SM CLR 18/14 A2992 RMK AO2 =
SPECI KDVN 080704Z AUTO 14003KT 5SM BR SCT026 22/21 A3001 RMK AO2=
SPECI KEKQ 080703Z AUTO 00000KT 2 1/2SM BR CLR 19/19 A3010 RMK AO2 =
SPECI KEWB 080704Z AUTO 15007KT 10SM BKN008 OVC029 23/21 A3006 RMK 
    AO2 CIG 006V011=
METAR KGAO 080700Z AUTO 08004KT 10SM SCT017 SCT022 27/25 A3000 
     RMK AO2=
METAR KGZL 080655Z AUTO 14005KT 10SM BKN065 OVC080 24/23 A3003 RMK 
     AO2 =
METAR KHBI 080703Z AUTO 00000KT 10SM CLR 23/17 A3002 RMK AO2=
METAR KHLX 080703Z AUTO 29003KT 10SM CLR 25/21 A3016 RMK AO2=
METAR KIER 080700Z AUTO 12003KT 10SM CLR 25/25 A3000 RMK AO2 PWINO=
SPECI KIWI 080704Z AUTO 00000KT 8SM BKN005 OVC012 21/19 A3008 RMK 
    AO2 CIG 003V007=
METAR KJFZ 080700Z AUTO 00000KT 8SM FEW070 22/21 A3017 RMK=
METAR KLDJ 080700Z AUTO 13003KT 2 1/2SM BR OVC002 24/23 A3001 RMK 
     AO2 T02440230=
METAR KLHZ 080700Z AUTO 00000KT 7SM CLR 23/19 A2997 RMK AO2 
     T02280189=
METAR KMKJ 080700Z AUTO 00000KT 3SM CLR 19/08 A3021 RMK AO1=
METAR KMTV 080700Z AUTO 00000KT 5SM BR CLR 22/22 A3004 RMK AO2=
METAR KOKV 080700Z AUTO 00000KT 7SM CLR 24/19 A3003 RMK AO2 
     T02430185=
METAR KOMH 080700Z AUTO 00000KT 10SM CLR 26/21 A3002 RMK AO2 
     T02590212=
SPECI KORD 080704Z 33004KT 10SM -RA SCT033 OVC110 23/22 A3003 RMK 
    AO2 TSE0658 P0003=
METAR KRCZ 080700Z AUTO 00000KT 10SM SCT095 26/18 A2996 RMK AO2 
     T02570181=
SPECI KRKP 080704Z AUTO 09012KT 10SM SCT021 BKN031 28/26 A2984 RMK 
    AO2 LTG DSNT N AND NE TSE0658=
METAR KRMN 080700Z AUTO 07004KT 5SM BR SCT110 23/23 A3002 RMK AO2=
METAR KSFQ 080700Z AUTO 00000KT 5SM BR CLR 24/22 A2996 RMK AO2=
METAR KSHD 080700Z AUTO 00000KT 7SM CLR 24/18 A3007 RMK AO2=
METAR KTBR 080700Z AUTO 00000KT 10SM CLR 24/20 A3000 RMK AO2 
     T02430201=
METAR KTDF 080703Z AUTO 00000KT 3SM CLR 21/21 A3000 RMK AO1=
SPECI KUGN 080704Z AUTO 22005KT 7SM VCTS -RA SCT047 BKN090 OVC110 
    23/21 A3004 RMK AO2 TSB0658 P0001=
SPECI KVAY 080704Z AUTO 10003KT 4SM BR SCT003 24/22 A3001 RMK AO2=
METAR KVDF 080656Z AUTO 00000KT 10SM CLR 23/22 A3001 RMK AO2=
METAR KW22 080700Z AUTO 00000KT 5SM  BR FEW070 21/20 A3013 RMK AO2=
METAR KWDR 080700Z AUTO 00000KT 10SM CLR 24/21 A3008 RMK AO1=
METAR KXLL 080700Z AUTO 00000KT 7SM CLR 25/22 A3003 RMK AO2 
     T02480220=
METAR KXSA 080700Z AUTO 00000KT 5SM CLR 24/23 A2997 RMK AO2 PWINO=
####018000105####
SAAU31 AMMC 080700 CCA
METAR YBCS 080700Z 13008KT 9999 FEW026 BKN040 25/19 Q1014
     NOSIG=


####018000105####
SAAU31 AMMC 080700 CCB
METAR YBCS 080700Z 13008KT 9999 FEW026 BKN040 25/19 Q1014
     NOSIG=


####018000099####
SAAU31 AMMC 080700 CCB
METAR YBCS 080700Z 13008KT 9999 FEW026 BKN040 25/19 Q1014
     NOSIG=
####018000099####
SAAU31 AMMC 080700 CCA
METAR YBCS 080700Z 13008KT 9999 FEW026 BKN040 25/19 Q1014
     NOSIG=
####018001641####
SAEU KAWN 080700 RRQ
METAR EGWU 080702Z 24007KT 3000 RADZ SCT008 OVC010 17/16 Q1019 YLO1
      TEMPO 4000 GRN=
METAR LFBA 080700Z 10006KT CAVOK 20/16 Q1018 NOSIG=
METAR LFBY 080700Z 11001KT CAVOK 23/18 Q1016=
METAR LFCG 080700Z 13005KT 060V180 CAVOK 23/15 Q1019=
METAR LFDB 080700Z VRB03KT CAVOK 22/15 Q1019=
METAR LFDH 080700Z 00000KT CAVOK 21/16 Q1018=
METAR LFHP 080700Z 00000KT CAVOK 18/13 Q1023=
METAR LFLD 080700Z 11004KT 070V160 CAVOK 22/14 Q1020=
METAR LFLM 080700Z 00000KT CAVOK 23/12 Q1021=
METAR LFLN 080700Z AUTO 00000KT 9999NDV NSC 20/14 Q1021=
METAR LFLQ 080700Z 33004KT CAVOK 22/13 Q1020=
METAR LFMC 080700Z 00000KT 8000 FEW073 24/20 Q1020=
METAR LFMK 080700Z 08006KT CAVOK 23/13 Q1019 NOSIG=
METAR LFPM 080700Z VRB02KT CAVOK 22/14 Q1019=
METAR LFPN 080700Z 17004KT 130V200 CAVOK 23/12 Q1020 NOSIG=
METAR LFQB 080700Z 14004KT 120V180 CAVOK 22/12 Q1019=
METAR LFQG 080700Z 12005KT 080V150 CAVOK 21/14 Q1020=
METAR LFRC 080700Z AUTO 32004KT 290V010 9999NDV BKN007 17/17 Q1020=
METAR LFRH 080700Z 03007KT 5000 BKN003 14/14 Q1019=
METAR LFRI 080700Z 11005KT 080V150 CAVOK 23/13 Q1018 NOSIG=
METAR LFRJ 080700Z AUTO 00000KT 9999NDV OVC009/// 17/15 Q1020=
METAR LFRM 080700Z VRB02KT CAVOK 21/14 Q1019=
METAR LFRN 080700Z AUTO 34007KT 9999NDV BKN004/// 16/15 Q1019=
METAR LFRQ 080700Z 05005KT 010V090 4000 BR FEW001 16/15 Q1019 BECMG
      6000 NSW=
METAR LFRT 080700Z VRB02KT 9999 OVC004 16/15 Q1020=
METAR LFSB 080700Z VRB02KT CAVOK 21/12 Q1021 NOSIG=
METAR LFTH 080700Z VRB01KT CAVOK 27/21 Q1019 NOSIG=
METAR LFTW 080700Z AUTO 10003KT 070V150 9999NDV NSC 25/15 Q1020=
####018001695####
SAEW KAWN 080700 RRF
METAR LFBA 080700Z 10006KT CAVOK 20/16 Q1018 NOSIG=
METAR LFCG 080700Z 13005KT 060V180 CAVOK 23/15 Q1019=
METAR LFDB 080700Z VRB03KT CAVOK 22/15 Q1019=
METAR LFDH 080700Z 00000KT CAVOK 21/16 Q1018=
METAR LFGJ 080700Z AUTO VRB02KT 9999NDV NSC 20/15 Q1020=
METAR LFHP 080700Z 00000KT CAVOK 18/13 Q1023=
METAR LFLC 080700Z 17003KT 120V240 CAVOK 20/14 Q1020 NOSIG=
METAR LFLN 080700Z AUTO 00000KT 9999NDV NSC 20/14 Q1021=
METAR LFMC 080700Z 00000KT 8000 FEW073 24/20 Q1020=
METAR LFMD 080700Z AUTO 36003KT 320V050 9999NDV FEW080 26/21 Q1019=
METAR LFMK 080700Z 08006KT CAVOK 23/13 Q1019 NOSIG=
METAR LFPM 080700Z VRB02KT CAVOK 22/14 Q1019=
METAR LFPN 080700Z 17004KT 130V200 CAVOK 23/12 Q1020 NOSIG=
METAR LFQB 080700Z 14004KT 120V180 CAVOK 22/12 Q1019=
METAR LFQG 080700Z 12005KT 080V150 CAVOK 21/14 Q1020=
METAR LFRC 080700Z AUTO 32004KT 290V010 9999NDV BKN007 17/17 Q1020=
METAR LFRD 080700Z AUTO 35004KT 310V020 9999NDV OVC006 17/15 Q1019=
METAR LFRH 080700Z 03007KT 5000 BKN003 14/14 Q1019=
METAR LFRI 080700Z 11005KT 080V150 CAVOK 23/13 Q1018 NOSIG=
METAR LFRM 080700Z VRB02KT CAVOK 21/14 Q1019=
METAR LFRN 080700Z AUTO 34007KT 9999NDV BKN004/// 16/15 Q1019=
METAR LFRO 080700Z AUTO 29004KT 270V330 9999NDV BKN009 OVC014 17/16
      Q1020=
METAR LFRQ 080700Z 05005KT 010V090 4000 BR FEW001 16/15 Q1019 BECMG
      6000 NSW=
METAR LFRT 080700Z VRB02KT 9999 OVC004 16/15 Q1020=
METAR LFRZ 080700Z AUTO 02004KT 340V050 9999NDV NSC 19/13 Q1018=
METAR LFSB 080700Z VRB02KT CAVOK 21/12 Q1021 NOSIG=
METAR LFTH 080700Z VRB01KT CAVOK 27/21 Q1019 NOSIG=
METAR LFTW 080700Z AUTO 10003KT 070V150 9999NDV NSC 25/15 Q1020=
####018001376####
SAAU32 AMMC 080700
METAR YAMB 080700Z 18010KT 9999 BKN040 BKN050 18/10 Q1020=
METAR YBCG 080700Z AUTO 19012KT 9999NDV // SCT055 OVC094 16/12 Q1019=
METAR YBHM 080700Z AUTO 14013KT //// // ////// 19/16 Q1016=
METAR YBMA 080700Z AUTO 18012KT 9999NDV // NCD 17/11 Q1018=
METAR YBRK 080700Z 24004KT 9999 VCSH FEW004 BKN030 13/12 Q1018=
METAR YBRM 080700Z 06009KT 9999 SCT034 29/20 Q1010=
METAR YCIN 080700Z AUTO 12006KT //// // ////// 25/19 Q1011=
METAR YFRT 080700Z AUTO 02014KT //// // ////// 18/02 Q1014=
METAR YMAV 080700Z AUTO 12005KT 9999NDV // OVC052 11/08 Q1027=
METAR YMHB 080700Z 00000KT 9999 FEW035 08/05 Q1029=
METAR YMLT 080700Z AUTO 15003KT 9999NDV // SCT037 07/04 Q1029=
METAR YPEA 080700Z 35018KT 9999 -SHRA BKN018 BKN025 16/12 Q1000
     INTER 0700/1000 34020G30KT 3000 +SHRA BKN010=
METAR YPGV 080700Z 14014KT 9999 SCT018 BKN050 25/21 Q1012=
METAR YPKG 080700Z 35009G19KT CAVOK 20/04 Q1006=
METAR YPPD 080700Z 04013KT 9999 BKN016 25/20 Q1009=
METAR YSCB 080700Z 06005KT 9999 FEW050 09/02 Q1026
     NOSIG=
METAR YSDU 080700Z AUTO 12007KT 9999NDV // NCD 12/05 Q1023=
METAR YSNF 080700Z 11010KT 9999 SCT020 BKN025 BKN100 14/10 Q1016=
METAR YSRI 080700Z AUTO 00000KT 9999NDV // SCT028 BKN037 OVC052 12/11 Q1026=
METAR YWLM 080700Z 26006KT 9999 VCSH SCT020 BKN040 13/12 Q1024
     INTER 0700/1000 4000 SHRA BKN010=

####018000627####
SAMS31 WMKK 080700
METAR 080700Z
METAR WBGG 080700Z 05010KT 9999 FEW015CB BKN020 BKN300 28/23 Q1008 
NOSIG=
METAR WBKK 080700Z 27002KT 9999 TS FEW014 FEW017CB SCT140 BKN270 
30/25
     Q1008
     TEMPO 5000 TSRA=
METAR WBSB 080700Z 27013KT 9999 SCT015 FEW016CB SCT140 BKN300 31/25 
Q1008
     RESH NOSIG=
METAR WMKK 080700Z 23006KT 160V280 9999 SCT018 SCT140 BKN280 31/26 
Q1009
     NOSIG=
METAR WMKP 080700Z 21009KT 9999 FEW020 BKN300 31/25 Q1009 NOSIG=
METAR WSSL 080700Z 26005KT 9999 FEW020 BKN250 30/24 Q1009=
METAR WSSS 080700Z 20005KT 9999 FEW016 FEW018TCU BKN150 30/25 Q1009 
NOSIG=
####018000108####
SPUS90 KWBC 080706
SPECI KNTU 080703Z 11003KT 4SM BR FEW005 26/24 A2994 RMK AO2 CHINO
     RWY 05R $=
####018000118####
SAUS90 KWBC 080700 RRD
METAR KHMS 080650Z 27004KT 15SM SKC 21/06 A2994 RMK SLP135
     T02080063 RSNK 21/04024=
####018001373####
SAAU32 AMMC 080700
METAR YAMB 080700Z 18010KT 9999 BKN040 BKN050 18/10 Q1020=
METAR YBCG 080700Z AUTO 19012KT 9999NDV // SCT055 OVC094 16/12 Q1019=
METAR YBHM 080700Z AUTO 14013KT //// // ////// 19/16 Q1016=
METAR YBMA 080700Z AUTO 18012KT 9999NDV // NCD 17/11 Q1018=
METAR YBRK 080700Z 24004KT 9999 VCSH FEW004 BKN030 13/12 Q1018=
METAR YBRM 080700Z 06009KT 9999 SCT034 29/20 Q1010=
METAR YCIN 080700Z AUTO 12006KT //// // ////// 25/19 Q1011=
METAR YFRT 080700Z AUTO 02014KT //// // ////// 18/02 Q1014=
METAR YMAV 080700Z AUTO 12005KT 9999NDV // OVC052 11/08 Q1027=
METAR YMHB 080700Z 00000KT 9999 FEW035 08/05 Q1029=
METAR YMLT 080700Z AUTO 15003KT 9999NDV // SCT037 07/04 Q1029=
METAR YPEA 080700Z 35018KT 9999 -SHRA BKN018 BKN025 16/12 Q1000
     INTER 0700/1000 34020G30KT 3000 +SHRA BKN010=
METAR YPGV 080700Z 14014KT 9999 SCT018 BKN050 25/21 Q1012=
METAR YPKG 080700Z 35009G19KT CAVOK 20/04 Q1006=
METAR YPPD 080700Z 04013KT 9999 BKN016 25/20 Q1009=
METAR YSCB 080700Z 06005KT 9999 FEW050 09/02 Q1026
     NOSIG=
METAR YSDU 080700Z AUTO 12007KT 9999NDV // NCD 12/05 Q1023=
METAR YSNF 080700Z 11010KT 9999 SCT020 BKN025 BKN100 14/10 Q1016=
METAR YSRI 080700Z AUTO 00000KT 9999NDV // SCT028 BKN037 OVC052 12/11 Q1026=
METAR YWLM 080700Z 26006KT 9999 VCSH SCT020 BKN040 13/12 Q1024
     INTER 0700/1000 4000 SHRA BKN010=
####018000113####
SAUS46 KLOX 080705
MTRNFG
METAR KNFG 080656Z 00000KT 5SM BR OVC015 16/13 A2991 RMK AO2 SLP127 
T01610133
####018001072####
SPUS99 KWBC 080706
SPECI
KMKO 080703Z AUTO 07004KT 10SM BKN011 BKN021 OVC055 23/23 A3003
     RMK AO2 LTG DSNT N AND W CIG 008V016=
KORH 080703Z AUTO 23007KT 4SM BR BKN004 22/21 A3008 RMK AO2=
KSWO 080703Z AUTO 01008KT 10SM SCT029 OVC039 23/21 A3004 RMK
     AO2=
KAQW 080704Z AUTO 00000KT 2 1/2SM BR CLR 19/18 A3005 RMK AO2=
KCEC 080704Z AUTO 00000KT 1 1/2SM BR OVC001 10/09 A2998 RMK
     AO2=
KDVN 080704Z AUTO 14003KT 5SM BR SCT026 22/21 A3001 RMK AO2=
KEKQ 080703Z AUTO 00000KT 2 1/2SM BR CLR 19/19 A3010 RMK AO2=
KEWB 080704Z AUTO 15007KT 10SM BKN008 OVC029 23/21 A3006 RMK AO2
     CIG 006V011=
KIWI 080704Z AUTO 00000KT 8SM BKN005 OVC012 21/19 A3008 RMK AO2
     CIG 003V007=
KORD 080704Z 33004KT 10SM -RA SCT033 OVC110 23/22 A3003 RMK AO2
     TSE0658 P0003=
KRKP 080704Z AUTO 09012KT 10SM SCT021 BKN031 28/26 A2984 RMK AO2
     LTG DSNT N AND NE TSE0658=
KUGN 080704Z AUTO 22005KT 7SM VCTS -RA SCT047 BKN090 OVC110 23/21
     A3004 RMK AO2 TSB0658 P0001=
KVAY 080704Z AUTO 10003KT 4SM BR SCT003 24/22 A3001 RMK AO2=
####018003067####
SAUS99 KWBC 080706
METAR
KMDQ 080700Z AUTO 00000KT 10SM CLR 23/22 A3006 RMK AO2
     T02300217=
KMFV 080702Z AUTO 00000KT 2 1/2SM BR OVC006 24/24 A2998 RMK
     AO2=
KMGR 080700Z AUTO 00000KT 10SM CLR 22/21 A3003 RMK AO2=
KMMU 080700Z AUTO 00000KT 4SM BR CLR 21/21 RMK AO2 T02120209=
KMQS 080700Z AUTO 00000KT 9SM CLR 24/21 A3005 RMK AO2 PWINO
     PNO=
KOBE 080701Z AUTO 00000KT 10SM SCT048 23/23 A2999 RMK AO2=
KONX 080700Z AUTO 00000KT 5SM BR CLR 26/24 A2995 RMK AO2
     T02610241=
KOPN 080700Z AUTO 00000KT 10SM CLR 25/22 A3005 RMK AO1=
KPCM 080700Z AUTO 00000KT 10SM CLR 24/23 A3002 RMK AO2=
KPSK 080702Z AUTO 00000KT 7SM CLR 24/17 A3014 RMK AO2=
KPTB 080702Z AUTO 00000KT 5SM BR CLR 22/21 A2996 RMK AO2=
KRUQ 080701Z AUTO 00000KT 10SM CLR 21/20 A3001 RMK AO2=
KSVH 080700Z AUTO 00000KT 10SM CLR 21/15 A3004 RMK AO2
     T02110150=
KTNB 080702Z AUTO 00000KT 10SM CLR 16/13 A3020 RMK AO2=
KTPF 080700Z AUTO 08003KT 10SM CLR 24/23 A3000 RMK AO2=
KTVI 080700Z AUTO 00000KT 10SM CLR 22/22 A3003 RMK AO2
     T02210215=
KVDI 080702Z AUTO 26003KT 10SM CLR 24/21 A3002 RMK AO1=
KVJI 080702Z AUTO 00000KT 5SM BR SCT075 22/19 RMK AO2=
KVUJ 080659Z AUTO 00000KT 10SM BKN095 22/19 A2998 RMK AO2=
KVVG 080655Z AUTO 00000KT 22/21 A3001 RMK AO2=
KW45 080700Z AUTO 00000KT 10SM SCT095 24/19 A3004 RMK AO2
     T02430192=
KUXL 080700Z AUTO 08006KT 10SM CLR 26/24 A2998 RMK AO2=
KCDH 080700Z AUTO 00000KT 2SM BR OVC001 23/23 A3003 RMK AO2=
KCLS 080655Z AUTO 00000KT 10SM CLR 18/14 A2992 RMK AO2=
KGAO 080700Z AUTO 08004KT 10SM SCT017 SCT022 27/25 A3000 RMK
     AO2=
KGZL 080655Z AUTO 14005KT 10SM BKN065 OVC080 24/23 A3003 RMK
     AO2=
KHBI 080703Z AUTO 00000KT 10SM CLR 23/17 A3002 RMK AO2=
KHLX 080703Z AUTO 29003KT 10SM CLR 25/21 A3016 RMK AO2=
KIER 080700Z AUTO 12003KT 10SM CLR 25/25 A3000 RMK AO2 PWINO=
KJFZ 080700Z AUTO 00000KT 8SM FEW070 22/21 A3017 RMK=
KLDJ 080700Z AUTO 13003KT 2 1/2SM BR OVC002 24/23 A3001 RMK AO2
     T02440230=
KLHZ 080700Z AUTO 00000KT 7SM CLR 23/19 A2997 RMK AO2
     T02280189=
KMKJ 080700Z AUTO 00000KT 3SM CLR 19/08 A3021 RMK AO1=
KMTV 080700Z AUTO 00000KT 5SM BR CLR 22/22 A3004 RMK AO2=
KOKV 080700Z AUTO 00000KT 7SM CLR 24/19 A3003 RMK AO2
     T02430185=
KOMH 080700Z AUTO 00000KT 10SM CLR 26/21 A3002 RMK AO2
     T02590212=
KRCZ 080700Z AUTO 00000KT 10SM SCT095 26/18 A2996 RMK AO2
     T02570181=
KRMN 080700Z AUTO 07004KT 5SM BR SCT110 23/23 A3002 RMK AO2=
KSFQ 080700Z AUTO 00000KT 5SM BR CLR 24/22 A2996 RMK AO2=
KSHD 080700Z AUTO 00000KT 7SM CLR 24/18 A3007 RMK AO2=
KTBR 080700Z AUTO 00000KT 10SM CLR 24/20 A3000 RMK AO2
     T02430201=
KTDF 080703Z AUTO 00000KT 3SM CLR 21/21 A3000 RMK AO1=
KVDF 080656Z AUTO 00000KT 10SM CLR 23/22 A3001 RMK AO2=
KW22 080700Z AUTO 00000KT 5SM BR FEW070 21/20 A3013 RMK AO2=
KWDR 080700Z AUTO 00000KT 10SM CLR 24/21 A3008 RMK AO1=
KXLL 080700Z AUTO 00000KT 7SM CLR 25/22 A3003 RMK AO2
     T02480220=
KXSA 080700Z AUTO 00000KT 5SM CLR 24/23 A2997 RMK AO2 PWINO=
####018000189####
SAEW36 LEMM 080700
METAR GCHI 080700Z 35019KT 9999 BKN014 OVC022 21/18 Q1017=
METAR GCLA 080700Z 01013KT 9999 BKN020 21/18 Q1018=
METAR GEML 080700Z 08003KT 050V120 CAVOK 24/20 Q1016=
####018000322####
SAEW34 LEMM 080700
METAR LEBA 080700Z VRB01KT 9999 FEW050 24/14 Q1015=
METAR LEDA 080700Z 08010KT CAVOK 26/18 Q1020=
METAR LEJR 080700Z VRB02KT CAVOK 22/19 Q1015=
METAR LELL 080700Z 27007KT CAVOK 24/16 Q1019=
METAR LEPP 080700Z 00000KT CAVOK 23/16 Q1020=
METAR LEXJ 080700Z VRB01KT 8000 FEW012 BKN017 21/19 Q1016=
####018000072####
SAGR33 LGAT 080650 RRA
METAR LGPA 080650Z 01014KT CAVOK 28/20 Q1011=
####018000253####
SAGG31 UGTB 080700
METAR UGTB 080700Z 30011KT 9999 SCT050 BKN100 29/17 Q1015 NOSIG RMK
      31CLRD80=
METAR UGKO 080700Z 00000KT 9999 SCT033CB BKN100 28/22 Q1013
           NOSIG=
METAR UGSB 080700Z 29008KT 9999 FEW023 SCT070 27/23 Q1011 NOSIG=
####018000348####
SANM40 FYWW 080700
METAR FYKT 080700Z 03008KT CAVOK 17/02 Q1026=
METAR FYOA 080700Z 06008KT CAVOK 14/03 Q1024=
METAR FYWB 080700Z 09019KT 9999 R09/M0050VP1500D R27/M0050VP1500D
     VV/// 23/04 Q1017 =
METAR FYWB 080700Z 09019KT 9999 R09/M0050VP1500D R27/M0050VP1500D
     VV/// 23/04 Q1017 =
METAR FYWH 080700Z 36002KT CAVOK 10/00 Q1030=
####018000364####
SACZ43 LKPW 080700
METAR LKCV 080700Z VRB01KT CAVOK 18/11 Q1024 NOSIG=
METAR LKKB 080700Z VRB02KT CAVOK 18/10 Q1023 NOSIG=
METAR LKLN 080700Z AUTO VRB01KT CAVOK 15/12 Q1024=
METAR LKNA 080700Z 36005KT 320V100 9999 FEW032 17/09 Q1024
           NOSIG=
METAR LKPD 080700Z VRB02KT CAVOK 17/10 Q1024 NOSIG=
METAR LKPO 080700Z VRB01KT CAVOK 17/10 Q1023 NOSIG=
####018000353####
SARO33 LROM 080700
METAR LRBC 080700Z 36010KT 320V020 CAVOK 22/14 Q1016=
METAR LRCV 080700Z 02006KT 320V060 9999 FEW040 19/12 Q1016=
METAR LRIA 080700Z 28008KT 230V310 9999 FEW015 BKN028 19/16 Q1016=
METAR LRSV 080700Z AUTO 30010KT 270V350 9999 BKN008 BKN012 OVC017
16/15 Q1017 RERA=
METAR LRTC 080700Z 35014KT 9999 SCT030CB BKN040 19/16 Q1014=
####018000028####
SAAA31 KWBC 080700
NIL=
####018003699####
SAUS70 KWBC 080700 RRH
METAR
K3A1 080700Z AUTO 00000KT 10SM CLR 22/22 A3009 RMK AO2
     T02170217=
K4A9 080700Z AUTO 00000KT 10SM CLR 21/19 A3006 RMK AO2
     T02110187=
K4R4 080700Z AUTO 00000KT M1/4SM FG OVC010 24/23 A3002 RMK AO2
     T02390231=
K8A0 080659Z AUTO 00000KT 10SM CLR 25/21 A3006 RMK AO2=
KAFP 080700Z AUTO 00000KT 10SM CLR 23/17 A2997 RMK AO2
     T02280172=
KALX 080700Z AUTO 00000KT 7SM CLR 24/22 A3004 RMK AO1=
KCPC 080700Z AUTO 25004KT 10SM CLR 28/19 A2993 RMK AO2
     T02760190=
KCWF 080700Z AUTO 08005KT 7SM CLR 24/24 A2999 RMK AO2=
KDNN 080658Z AUTO 00000KT 10SM CLR 21/21 A3005 RMK AO2=
KDQH 080700Z AUTO 00000KT 10SM CLR 23/20 A3003 RMK AO1=
KDRI 080700Z AUTO 10003KT 10SM SCT013 SCT019 SCT027 23/23 A3001
     RMK AO2=
KEHO 080700Z AUTO 00000KT 10SM CLR 21/19 A3002 RMK AO2
     T02100185=
KEYF 080700Z AUTO 28004KT 10SM SCT100 27/19 A2993 RMK AO2
     T02730190=
KFFA 080658Z AUTO 09004KT 10SM CLR 25/24 A2994 RMK AO2
     T02500236=
KFKN 080700Z AUTO 00000KT 7SM 24/21 A2995 RMK AO1=
KGHG 080700Z AUTO 00000KT 10SM FEW015 OVC027 22/20 A3007 RMK
     AO2=
KGWW 080700Z AUTO 00000KT 10SM CLR 25/21 A2993 RMK AO2
     T02450205=
KHNZ 080700Z AUTO 00000KT 7SM CLR 24/18 A2998 RMK AO2
     T02400183=
KHOE 080659Z AUTO 00000KT 10SM CLR 22/ A3003 RMK AO2 T0223=
KHSP 080700Z AUTO 08005KT 10SM CLR 23/15 A3027 RMK AO2=
KHUM 080700Z AUTO 3SM BR SCT016 25/25 A2999 RMK AO2=
KHWY 080700Z AUTO 00000KT 7SM CLR 23/20 A2999 RMK AO2=
KIDI 080700Z AUTO 00000KT 5SM CLR 19/19 A3011 RMK AO2=
KIPJ 080700Z AUTO 00000KT 10SM CLR 20/18 A3002 RMK AO2
     T02000175=
KISO 080700Z AUTO 00000KT 10SM CLR 24/20 A2993 RMK AO2
     T02390196=
KIXA 080700Z AUTO 00000KT 7SM CLR 23/19 A2994 RMK AO2
     T02280189=
KJES 080700Z AUTO 28003KT 10SM CLR 22/22 A3001 RMK AO2
     T02150216=
KJGG 080700Z AUTO 00000KT 7SM BKN120 27/24 A2997 RMK AO1=
KJKA 080700Z AUTO 00000KT 1 1/4SM BR VV007 27/26 A3002 RMK AO2
     T02650255=
KJYO 080700Z AUTO 33005KT 7SM SCT110 28/19 A3000 RMK AO2=
KLGC 080655Z AUTO 00000KT 10SM CLR 22/ A3003 RMK AO1=
KLKU 080700Z AUTO 00000KT 5SM HZ SCT075 24/21 A2999 RMK AO2=
KLNP 080658Z AUTO 00000KT 7SM CLR 22/18 A3019 RMK AO1=
KLOM 080700Z AUTO 00000KT 5SM CLR 23/21 A3000 RMK AO1
     T02250208=
KMDQ 080700Z AUTO 00000KT 10SM CLR 23/22 A3006 RMK AO2
     T02300217=
KMGR 080700Z AUTO 00000KT 10SM CLR 22/21 A3003 RMK AO2=
KMMU 080700Z AUTO 00000KT 4SM BR CLR 21/21 RMK AO2 T02120209=
KMQS 080700Z AUTO 00000KT 9SM CLR 24/21 A3005 RMK AO2 PWINO
     PNO=
KONX 080700Z AUTO 00000KT 5SM BR CLR 26/24 A2995 RMK AO2
     T02610241=
KOPN 080700Z AUTO 00000KT 10SM CLR 25/22 A3005 RMK AO1=
KPCM 080700Z AUTO 00000KT 10SM CLR 24/23 A3002 RMK AO2=
KSVH 080700Z AUTO 00000KT 10SM CLR 21/15 A3004 RMK AO2
     T02110150=
KTPF 080700Z AUTO 08003KT 10SM CLR 24/23 A3000 RMK AO2=
KTVI 080700Z AUTO 00000KT 10SM CLR 22/22 A3003 RMK AO2
     T02210215=
KVUJ 080659Z AUTO 00000KT 10SM BKN095 22/19 A2998 RMK AO2=
KVVG 080655Z AUTO 00000KT 22/21 A3001 RMK AO2=
KW45 080700Z AUTO 00000KT 10SM SCT095 24/19 A3004 RMK AO2
     T02430192=
KNSE 080656Z AUTO 00000KT 1 1/2SM BR CLR 24/22 A3003 RMK AO2
     SLP153 T02390217 $=
KNSE 080656Z AUTO 00000KT 1 1/2SM BR CLR 24/22 A3003 RMK AO2
     SLP153 T02390217 $=
KOSC 080654Z AUTO 00000KT 10SM CLR 20/18 A3002 RMK AO2=
KNSE 080656Z AUTO 00000KT 1 1/2SM BR CLR 24/22 A3003 RMK AO2
     SLP153 T02390217 $=
KUXL 080700Z AUTO 08006KT 10SM CLR 26/24 A2998 RMK AO2=
KCDH 080700Z AUTO 00000KT 2SM BR OVC001 23/23 A3003 RMK AO2=
KCLS 080655Z AUTO 00000KT 10SM CLR 18/14 A2992 RMK AO2=
####018001376####
SAUS70 KWBC 080700 RRI
METAR
KGAO 080700Z AUTO 08004KT 10SM SCT017 SCT022 27/25 A3000 RMK
     AO2=
KGZL 080655Z AUTO 14005KT 10SM BKN065 OVC080 24/23 A3003 RMK
     AO2=
KIER 080700Z AUTO 12003KT 10SM CLR 25/25 A3000 RMK AO2 PWINO=
KJFZ 080700Z AUTO 00000KT 8SM FEW070 22/21 A3017 RMK=
KLDJ 080700Z AUTO 13003KT 2 1/2SM BR OVC002 24/23 A3001 RMK AO2
     T02440230=
KLHZ 080700Z AUTO 00000KT 7SM CLR 23/19 A2997 RMK AO2
     T02280189=
KMKJ 080700Z AUTO 00000KT 3SM CLR 19/08 A3021 RMK AO1=
KMTV 080700Z AUTO 00000KT 5SM BR CLR 22/22 A3004 RMK AO2=
KOKV 080700Z AUTO 00000KT 7SM CLR 24/19 A3003 RMK AO2
     T02430185=
KOMH 080700Z AUTO 00000KT 10SM CLR 26/21 A3002 RMK AO2
     T02590212=
KRCZ 080700Z AUTO 00000KT 10SM SCT095 26/18 A2996 RMK AO2
     T02570181=
KRMN 080700Z AUTO 07004KT 5SM BR SCT110 23/23 A3002 RMK AO2=
KSFQ 080700Z AUTO 00000KT 5SM BR CLR 24/22 A2996 RMK AO2=
KSHD 080700Z AUTO 00000KT 7SM CLR 24/18 A3007 RMK AO2=
KTBR 080700Z AUTO 00000KT 10SM CLR 24/20 A3000 RMK AO2
     T02430201=
KVDF 080656Z AUTO 00000KT 10SM CLR 23/22 A3001 RMK AO2=
KW22 080700Z AUTO 00000KT 5SM BR FEW070 21/20 A3013 RMK AO2=
KWDR 080700Z AUTO 00000KT 10SM CLR 24/21 A3008 RMK AO1=
KXLL 080700Z AUTO 00000KT 7SM CLR 25/22 A3003 RMK AO2
     T02480220=
KXSA 080700Z AUTO 00000KT 5SM CLR 24/23 A2997 RMK AO2 PWINO=
####018000424####
SAAF31 KWBC 080700
METAR
DBBB NIL=
DGAA NIL=
DGSI NIL=
DIAP 080700Z 00000KT 6000 SCT012 SCT080 BKN260 25/24 Q1014
     NOSIG=
DIAV NIL=
DIBK NIL=
DIST NIL=
DNAA NIL=
DNCA NIL=
DNIL NIL=
DNKA NIL=
DNKN NIL=
DNMA NIL=
DNMM 080700Z 00000KT 5000 BR FEW007 24/24 Q1015 TEMPO 3000=
DNPO NIL=
DNSO NIL=
DRRN NIL=
DRZA NIL=
DXNG NIL=
DXXX 080700Z VRB03KT 7000 SCT010 25/24 Q1014 NOSIG=
####018000751####
SAZA31 FAPR 080700
METAR FABL 080700Z 04010KT CAVOK 10/06 Q1034 NOSIG=
METAR FACT 080700Z 07005KT CAVOK 07/04 Q1021 NOSIG=
METAR FAEL 080700Z 02011KT CAVOK 15/10 Q1029=
METAR FAGG 080700Z 32004KT 290V350 CAVOK 09/05 Q1024=
METAR FAJS 080700Z 09009KT 2700 BR BKN002 07/07 Q1037 BECMG 3000
     BKN008=
METAR FAKN 080700Z 25003KT 9000 BKN015 14/12 Q1035 REDZ NOSIG=
METAR FALA 080700Z 11006KT 8000 NSC 11/08 Q1036 NOSIG=
METAR FALE 080700Z 24004KT CAVOK 17/12 Q1031 NOSIG=
METAR FAMM 080700Z 03013KT CAVOK 13/06 Q1033 NOSIG=
METAR FAPE 080700Z 02005KT CAVOK 11/10 Q1027 NOSIG=
METAR FAPN 080700Z 00000KT CAVOK 12/07 Q1034=
METAR FAPP 080700Z 09008KT 8000 SCT020 13/08 Q1033 BECMG NSW=
METAR FAUP 080700Z 01014KT CAVOK 18/02 Q1028 NOSIG=
####018000100####
SAKY31 RUMS 080700
METAR UAFM 080700Z 31004MPS CAVOK 33/07 Q1013 NOSIG=
METAR UAFO 080700Z NIL=
####018000162####
SAAY31 RUMS 080700
METAR UDYZ 080700Z 16003MPS 120V190 9999 SKC 31/13 Q1012 09010070
NOSIG=
METAR UDSG 080700Z VRB02MPS 9999 NSC 28/13 Q1017 02CLRD70 NOSIG=
####018000667####
SAKZ31 RUMS 080700
METAR UAAA 080700Z 25002MPS 9999 SCT050CB BKN100 30/09 Q1014 88CLRD65
TEMPO TS=
METAR UACC 080700Z 28004MPS 240V310 CAVOK 23/03 Q1011 220/0070 NOSIG
RMK QFE727/0969=
METAR UAKK 080700Z 28004MPS 210V320 CAVOK 22/02 Q1012 230///70 NOSIG
RMK QFE712/0950=
METAR UAOO 080700Z NIL=
METAR UARR 080700Z NIL=
METAR UATE 080700Z 29006MPS CAVOK 32/23 Q1011 300///70 NOSIG RMK
QFE756/1009=
METAR UATG 080700Z 33008G13MPS CAVOK 38/09 Q1009 32CLRD70 NOSIG RMK
QFE758/1011 =
METAR UATT 080700Z 06009MPS 9999 NSC 30/04 Q1010 13CLRD70 NOSIG RMK
QFE738/0984=
METAR UAUU 080700Z 36005G10MPS 290V360 CAVOK 24/00 Q1014 33CLRD70
NOSIG RMK QFE745/0993=
####018000112####
SAUK51 EGGY 080650 RRB
METAR EGDM 080650Z AUTO 30006KT 8000NDV BR FEW003/// OVC013///
    15/14 Q1019 RERA=
####018000075####
SAQB31 LQTZ 080700
METAR
LQTZ 080700Z VRB01KT 9999 FEW030 14/// Q1023=
####018000088####
SAMG20 FMMI 080700
METAR FMMI 080700Z 13008KT 080V180 9999 SCT016 18/12 Q1028 NOSIG=
####018000082####
SAJM31 MKJS 080700
METAR MKJS 080700Z  00000KT 9999 SCT022 SCT200 26/22 Q1012=
####018000425####
SARO32 LROM 080700
METAR LRAR 080700Z 35010KT 320V050 9999 FEW019 18/15 Q1020=
METAR LRBM 080700Z VRB02KT 9999 FEW005 BKN008 BKN010 15/14 Q1018
1019//95=
METAR LRCL 080700Z 00000KT 9999 FEW008 BKN013 OVC020 14/12 Q1020
0821//95=
METAR LROD 080700Z 03008KT CAVOK 18/13 Q1020=
METAR LRSM 080700Z 35008KT 330V030 9999 FEW012 18/14 Q1019=
METAR LRTM 080700Z 24006KT 8000 -RA SCT006 SCT010 BKN023 14/13
Q1020 0729//95=
####018000205####
SPXX60 KWBC 080706
SPECI
PGUA 080701Z AUTO 08013KT 10SM SCT018 SCT025 28/ A2986 RMK AO2
     SLP092 VISNO RWY24L $=
KNTU 080703Z 11003KT 4SM BR FEW005 26/24 A2994 RMK AO2 CHINO RWY
     05R $=
####018000028####
SAAF32 KWBC 080700
NIL=
####018000068####
SABZ20 SBEG 080700
METAR SBMA 080700Z 27004KT CAVOK ///// Q1012=
####018000401####
SAAF33 KWBC 080700
METAR
FLLI NIL=
FLLS 080700Z 08012KT 9999 BKN015 14/10 Q1029=
FLMF NIL=
FLND NIL=
FNHU NIL=
FNLU 080700Z VRB03KT 5000 BKN020 21/19 Q1015 NOSIG=
FQBR 080700Z 18010KT 9999 FEW018 20/17 Q1026=
FQMA NIL=
FVBU NIL=
FVCZ NIL=
FVFA NIL=
FVHA 080700Z 13015KT 9999 BKN020 11/06 Q1031 NOSIG=
FVMV NIL=
FVTL NIL=
FWCL NIL=
FWGL NIL=
FWKI NIL=
FWUU NIL=
####018001186####
SPUS70 KWBC 080706
SPECI
PABA 080657Z AUTO 27006KT 10SM -RA BKN005 OVC012 02/02 A3005 RMK
     AO2 RAB50 P0000 FZRANO=
KFOK 080703Z AUTO 12003KT 1 1/4SM BR OVC001 24/22 A3005 RMK AO2
     TSNO=
KMKO 080703Z AUTO 07004KT 10SM BKN011 BKN021 OVC055 23/23 A3003
     RMK AO2 LTG DSNT N AND W CIG 008V016=
KSWO 080703Z AUTO 01008KT 10SM SCT029 OVC039 23/21 A3004 RMK
     AO2=
KAQW 080704Z AUTO 00000KT 2 1/2SM BR CLR 19/18 A3005 RMK AO2=
KCEC 080704Z AUTO 00000KT 1 1/2SM BR OVC001 10/09 A2998 RMK
     AO2=
KDVN 080704Z AUTO 14003KT 5SM BR SCT026 22/21 A3001 RMK AO2=
KEKQ 080703Z AUTO 00000KT 2 1/2SM BR CLR 19/19 A3010 RMK AO2=
KEWB 080704Z AUTO 15007KT 10SM BKN008 OVC029 23/21 A3006 RMK AO2
     CIG 006V011=
KIWI 080704Z AUTO 00000KT 8SM BKN005 OVC012 21/19 A3008 RMK AO2
     CIG 003V007=
KORD 080704Z 33004KT 10SM -RA SCT033 OVC110 23/22 A3003 RMK AO2
     TSE0658 P0003=
KRKP 080704Z AUTO 09012KT 10SM SCT021 BKN031 28/26 A2984 RMK AO2
     LTG DSNT N AND NE TSE0658=
KUGN 080704Z AUTO 22005KT 7SM VCTS -RA SCT047 BKN090 OVC110 23/21
     A3004 RMK AO2 TSB0658 P0001=
KVAY 080704Z AUTO 10003KT 4SM BR SCT003 24/22 A3001 RMK AO2=
####018000079####
SANO38 ENMI 080650 RRA
METAR ENEK 080650Z 22016KT CAVOK 15/13 Q1014 W14/S3=
####018000360####
SAUS80 KWBC 080700 RRD
METAR
PHNY 080656Z AUTO 06017KT 10SM CLR 22/17 A3006 RMK AO2 TSNO
     T02160166 PK WND 05029/0642 SLP160 $=
KHMS 080650Z 27004KT 15SM SKC 21/06 A2994 RMK SLP135 T02080063
     RSNK 21/04024=
KDBN 080700Z AUTO 00000KT 10SM CLR 23/21 A3001 RMK AO1=
KJQF 080700Z AUTO 36005KT 10SM CLR 24/17 A3000 RMK AO2
     T02370165=
####018000081####
SASD31 OEJD 080700 RRA
METAR OEDR 080700Z 35009KT 6000 SKC 42/13 Q0999 NOSIG=
####018000288####
SATR31 RUMS 080700
METAR UTAA 080700Z 32006MPS 9999 SKC 42/07 Q1009 NOSIG=
METAR UTAK 080700Z 29002MPS CAVOK 34/19 Q1009 NOSIG=
METAR UTAM 080700Z 01002MPS CAVOK 38/13 Q1008 NOSIG=
METAR UTAT 080700Z 16007MPS CAVOK 42/21 Q1008 NOSIG=
METAR UTAV 080700Z 03004MPS CAVOK 38/12 Q1007=
####018001110####
SAUS70 KWBC 080706
METAR
K3J7 080701Z AUTO 00000KT 10SM CLR 23/21 A3000 RMK AO2=
KBIJ 080701Z AUTO 00000KT 10SM CLR 20/ A3003 RMK AO2=
KLWB 080701Z AUTO 00000KT 5SM HZ SCT065 21/18 A3016 RMK AO2=
KMFV 080702Z AUTO 00000KT 2 1/2SM BR OVC006 24/24 A2998 RMK
     AO2=
KOBE 080701Z AUTO 00000KT 10SM SCT048 23/23 A2999 RMK AO2=
KPSK 080702Z AUTO 00000KT 7SM CLR 24/17 A3014 RMK AO2=
KPTB 080702Z AUTO 00000KT 5SM BR CLR 22/21 A2996 RMK AO2=
KRUQ 080701Z AUTO 00000KT 10SM CLR 21/20 A3001 RMK AO2=
KTNB 080702Z AUTO 00000KT 10SM CLR 16/13 A3020 RMK AO2=
KVDI 080702Z AUTO 26003KT 10SM CLR 24/21 A3002 RMK AO1=
KVJI 080702Z AUTO 00000KT 5SM BR SCT075 22/19 RMK AO2=
PABA 080701Z AUTO 29006KT 10SM UP BKN005 OVC012 02/02 A3005 RMK
     AO2 RAB0650E00UPB00 SLP177 P0000 T00220017 FZRANO=
PABA 080701Z AUTO 29006KT 10SM UP BKN005 OVC012 02/02 A3005 RMK
     AO2 RAB0650E00UPB00 SLP177 P0000 T00220017 FZRANO=
KHBI 080703Z AUTO 00000KT 10SM CLR 23/17 A3002 RMK AO2=
KHLX 080703Z AUTO 29003KT 10SM CLR 25/21 A3016 RMK AO2=
KTDF 080703Z AUTO 00000KT 3SM CLR 21/21 A3000 RMK AO1=
####018000092####
SPUS80 KWBC 080706
SPECI
KORH 080703Z AUTO 23007KT 4SM BR BKN004 22/21 A3008 RMK AO2=
####018001573####
SAXX60 KWBC 080700 RRF
METAR
PHBK 080656Z AUTO 27005KT 10SM SCT080 27/19 A3001 RMK AO2 SLP164
     T02720194 TSNO $=
K79J 080656Z AUTO 00000KT 10SM CLR 25/22 A3003 RMK AO2 SLP163
     T02500222 TSNO $=
K79J 080656Z AUTO 00000KT 10SM CLR 25/22 A3003 RMK AO2 SLP163
     T02500222 TSNO $=
KLTS 080655Z AUTO 32004KT 10SM CLR 24/22 A3004 RMK AO2 SLP155
     T02360222 $=
KLUF 080655Z AUTO 01003KT 10SM CLR 30/08 A2974 RMK AO2 SLP038
     T03030076 404130241 $=
KNBC 080656Z AUTO 26005KT 10SM CLR 24/19 A2998 RMK AO2 SLP151
     T02440189=
KNJK 080656Z AUTO 26008KT 10SM CLR 28/09 A2967 RMK AO2 SLP06LJ
     T02830089 TSNO=
KNJM 080657Z AUTO 35004KT 10SM CLR 26/19 A2990 RMK AO2 SLP130
     T02610194 $=
KNEL 080700Z AUTO 00000KT 3SM BR OVC110 23/21 A3001 RMK AO2 SLP160
     T02330211 $=
KNGU 080659Z 00000KT 5SM BR FEW085 26/23 A2996 RMK AO2 SLP147
     T02560233=
KNID 080656Z AUTO 19007KT FEW090 27/03 A2982 RMK AO2 SLP071
     T02720033 TSNO $=
KRCA 080655Z 00000KT 9SM CLR 12/09 A3024 RMK AO2A SLP229 T01240091
     402230084 $=
KSZL 080655Z 18003KT 3SM -RA BKN021 BKN030 23/22 A3004 RMK AO2A
     DZB0559E0609 SLP165 P0013 T02290224 $=
K79J 080656Z AUTO 00000KT 10SM CLR 25/22 A3003 RMK AO2 SLP163
     T02500222 TSNO $=
KHUA 080655Z AUTO RMK AO2 SLPNO $=
KNEL 080700Z AUTO 00000KT 3SM BR OVC110 23/21 A3001 RMK AO2 SLP160
     T02330211 $=
KNGU 080659Z 00000KT 5SM BR FEW085 26/23 A2996 RMK AO2 SLP147
     T02560233=
KNFG 080656Z 00000KT 5SM BR OVC015 16/13 A2991 RMK AO2 SLP127
     T01610133=
####018000588####
SAAF34 KWBC 080700
METAR
FALA 080700Z 11006KT 8000 NSC 11/08 Q1036 NOSIG=
FBDR NIL=
FBFT 080700Z 10014KT 9999 FEW015 16/11 Q1032=
FBGR NIL=
FBGZ NIL=
FBJW NIL=
FBKE 080700Z 11013KT CAVOK 15/06 Q1028=
FBMN 080700Z 09020KT CAVOK 15/05 Q1029=
FBMP NIL=
FBSK 080700Z 10012KT CAVOK 13/09 Q1033 NOSIG=
FBSP NIL=
FBSW NIL=
FBTE NIL=
FBTS NIL=
FDMS 080700Z 00000KT 9999 BKN030 15/13 Q1030 NOSIG=
FEFF NIL=
FXMM NIL=
FXMU NIL=
FYWB 080700Z 09019KT 9999 R09/M0050VP1500D R27/M0050VP1500D VV///
     23/04 Q1017=
FYWH 080700Z 36002KT CAVOK 10/00 Q1030=
####018000421####
SAIR35 OIII 080700
METAR OIAD 080700Z NIL=
METAR OIBJ 080700Z NIL=
METAR OIBS 080700Z 08010KT 5000 HZ SKC 34/29 Q1001 A2957=
METAR OIHR 080700Z NIL=
METAR OIKM 080700Z NIL=
METAR OIKR 080700Z 34008KT CAVOK 33/M02 Q1017 A3005=
METAR OING 080700Z 27010KT 9999 FEW030 SCT130 34/20 Q1011 A2988=
METAR OIZB 080700Z 33020KT 8000 SKC 41/03 Q1005 A2970=
METAR OIZI 080700Z 00000KT 6000 SKC 39/18 Q1005 A2970=
####018000385####
SAAF36 KWBC 080700
METAR
HAAB 080700Z 21004KT 9999 FEW005 SCT025 FEW080 17/13 Q1027=
HAAY NIL=
HADR NIL=
HBBA NIL=
HCMH NIL=
HCMI NIL=
HCMK NIL=
HCMM NIL=
HCMV NIL=
HEMA NIL=
HFFF NIL=
HKJK NIL=
HKMO NIL=
HKNA NIL=
HRYR 080700Z 16009KT 9999 FEW026 21/13 Q1024 NOSIG=
HTDA NIL=
HTKJ NIL=
HTZA NIL=
HUEN NIL=
HUKS NIL=
HUMA NIL=
HUSO NIL=
####018000341####
SAAF35 KWBC 080700
METAR
HDAM NIL=
HEAX NIL=
HEBA NIL=
HEBL NIL=
HECA 080700Z 01008KT CAVOK 28/19 Q1011 NOSIG=
HEGN NIL=
HELX NIL=
HEMM NIL=
HEPS NIL=
HERN NIL=
HESC NIL=
HESN NIL=
HLLB NIL=
HLLS NIL=
HLLT 080650Z VRB02KT 7000 BKN016 25/19 Q1019=
HSKA NIL=
HSPN NIL=
HSSJ NIL=
HSSP NIL=
HSSS NIL=
####018001155####
SAAK31 KWBC 080700
METAR
PABR 080653Z 26013KT 10SM BKN200 05/03 A2998=
PACD 080653Z 15008KT 10SM CLR 08/03 A2994=
PAED 080655Z AUTO 00000KT 10SM OVC080 14/09 A3002=
PAEI 080655Z AUTO 00000KT 10SM CLR 18/08 A3003=
PAEN 080653Z AUTO 36010KT 10SM -RA BKN065 BKN090 OVC110 14/12
     A2998=
PAFA 080653Z 00000KT 10SM FEW070 SCT250 20/09 A3002=
PAFS 080656Z AUTO VRB06KT 10SM CLR 18/05 A2999=
PAFY NIL=
PAJN 080653Z 00000KT 10SM CLR 14/11 A3020=
PAKN 080654Z 02008KT 10SM -RA BKN049 BKN060 BKN075 11/10 A2990=
PAKT 080653Z AUTO VRB06KT 10SM CLR 20/12 A3008=
PANC 080653Z 00000KT 10SM -RA FEW055 BKN070 BKN120 BKN200 13/11
     A3002=
PAOM 080653Z 06009KT 10SM FEW070 SCT200 19/09 A3008=
PAOR 080653Z 00000KT 10SM FEW070 SCT140 15/08 A3008=
PAOT 080653Z 28011KT 10SM FEW040 SCT090 SCT210 12/07 A3012=
PARY 080656Z AUTO 00000KT 10SM CLR 18/06 A3006=
PASC 080653Z 20007KT 10SM FEW028 OVC060 10/08 A3001=
PASG NIL=
PASI 080653Z 00000KT 10SM CLR 14/12 A3018=
PATQ 080656Z AUTO 27015KT 10SM CLR 11/03 A3003=
PAVD 080656Z 10004KT 10SM BKN090 10/07 A3011=
PAWG 080656Z AUTO 25003KT 10SM CLR 15/11 A3013=
PFYU NIL=
####018000028####
SAAL31 KWBC 080700
NIL=
####018000961####
SAAO31 KWBC 080700
METAR
GCFV 080700Z 02009KT 350V050 9999 BKN018 21/18 Q1016=
GCHI 080700Z 35019KT 9999 BKN014 OVC022 21/18 Q1017=
GCLA 080700Z 01013KT 9999 BKN020 21/18 Q1018=
GCLP 080700Z 01021KT 9999 BKN016 22/18 Q1016 NOSIG=
GCRR 080700Z 02012KT 9000 SCT015 21/18 Q1016=
GCTS 080700Z 08009KT 9999 BKN018 21/18 Q1016 NOSIG=
GCXO 080700Z 30017KT 0100 R30/0300N R12/0175N FG OVC000 16/16
     Q1019 NOSIG=
GEML 080700Z 08003KT 050V120 CAVOK 24/20 Q1016=
GMAA NIL=
GMAT NIL=
GMFF 080700Z 31002KT 8000 FEW033 21/19 Q1017 NOSIG=
GMFO 080700Z 23002KT 9999 FEW030 SCT100 29/15 Q1018 NOSIG=
GMME 080700Z 00000KT 5000 BKN010 22/19 Q1015 NOSIG=
GMMN 080700Z 05005KT 010V080 7000 SCT002 SCT005 21/19 Q1015
     NOSIG=
GMMX 080700Z 25007KT 6000 FEW100 22/18 Q1016 NOSIG=
GMOY NIL=
GMTA 080700Z 04002KT 9999 FEW016 SCT026 23/20 Q1016=
GMTN 080700Z NIL=
GMTT 080700Z 00000KT 8000 FEW010 SCT016 22/20 Q1015 NOSIG=
GSAI NIL=
####018000224####
SAAO32 KWBC 080700
METAR
GABS NIL=
GAGO NIL=
GAKY NIL=
GAMB NIL=
GANR NIL=
GATB NIL=
GQNI NIL=
GQNK NIL=
GQNN 080700Z 19005KT 6000 NSC 26/23 Q1011 NOSIG=
GQNP NIL=
GQPH NIL=
GQPP NIL=
GQPV NIL=
####018001114####
SAAU31 KWBC 080700
METAR
YAYE NIL=
YBAS 080700Z 12009KT 9999 FEW034 16/06 Q1019=
YBBN 080700Z 17010KT 9999 FEW030 SCT040 BKN105 18/10 Q1018
     NOSIG=
YBCG NIL=
YBCS 080700Z 13008KT 9999 FEW026 BKN040 25/19 Q1014=
YBMA NIL=
YBRK NIL=
YBRM NIL=
YBTL 080700Z 06008KT 9999 FEW030 SCT045 BKN080 23/19 Q1015=
YDDN NIL=
YDTN NIL=
YMHB NIL=
YMML 080700Z 18005KT 9999 FEW031 BKN042 11/04 Q1027 NOSIG=
YPAD 080700Z 19003KT 9999 FEW045 SCT060 13/09 Q1025 NOSIG=
YPBR NIL=
YPCC 080700Z 13009KT 9999 FEW021 28/22 Q1012=
YPDN 080700Z 36011KT 9999 SCT049 BKN400 30/20 Q1011 NOSIG=
YPEA NIL=
YPLM 080700Z 07006KT 9999 FEW010 BKN080 BKN200 21/16 Q1008=
YPPD NIL=
YPPH 080700Z 36013KT 1800 SHRA SCT018 OVC050 FEW022CB 15/14 Q1000
     FM0700 33018G28KT 9999 -SHRA BKN020 INTER 0700/1000
     27025G35KT 3000 +SHRA BKN010=
YPTN 080700Z 12009KT CAVOK 29/14 Q1012=
YPXM 080700Z AUTO 16007KT 9999NDV // SCT018 26/22 Q1012=
YSCB NIL=
YSDU NIL=
YSNF NIL=
YSRI NIL=
YSSY 080700Z 21015KT 9999 SCT035 BKN080 12/12 Q1025 INTER
     0715/1000 5000 SHRA BKN015=
YYPY NIL=
####018000094####
SAAU31 KWBC 080700 CCA
METAR
YBCS 080700Z 13008KT 9999 FEW026 BKN040 25/19 Q1014 NOSIG=
####018000292####
SAEW37 LEMM 080700
METAR LEBR 080700Z NIL=
METAR LEGA 080700Z NIL=
METAR LEGT 080700Z 03007KT CAVOK 26/12 Q1019=
METAR LEMO 080700Z VRB02KT CAVOK 23/19 
Q1015 NOSIG=
METAR LERI 080700Z 00000KT CAVOK 25/17 Q1019 NOSIG=
METAR LERT 080700Z 29006KT 7000 SCT005 22/21 Q1015 NOSIG=
####018000334####
SAAO33 KWBC 080700
METAR
GBYD 080700Z 18007KT 9999 -RA BKN011 FEW016CB 25/25 Q1012=
GFLL NIL=
GGOV NIL=
GLRB NIL=
GOGG NIL=
GOGS NIL=
GOOY 080700Z 16005KT 130V190 9999 FEW013 SCT230 27/24 Q1011
     NOSIG=
GOSS NIL=
GOTT NIL=
GOTY NIL=
GUCY NIL=
GUFH NIL=
GULB NIL=
GUNZ NIL=
GUOK NIL=
GUXD NIL=
####018000373####
SAAW31 KWBC 080700
METAR
LLBG NIL=
LLBS NIL=
LLET NIL=
LLJR NIL=
LLOV NIL=
LTAC NIL=
LTAF NIL=
LTAI NIL=
LTBA NIL=
LTBJ NIL=
LTBS NIL=
OEPS NIL=
OJAI 080700Z 32005KT CAVOK 27/09 Q1012 NOSIG=
OJAM 080700Z 27008KT 5000 HZ NSC 28/09 Q1013 NOSIG=
OJJR NIL=
OLBA 080700Z 24007KT 210V270 8000 FEW080 27/18 Q1011 NOSIG=
UGEE NIL=
UGGG NIL=
####018001480####
SAAW32 KWBC 080700
METAR
OEDF 080700Z 01008KT 8000 NSC 41/09 Q1001 NOSIG=
OEDR 080700Z NIL=
OEJN 080700Z 32012KT CAVOK 35/26 Q1002 NOSIG=
OEMA 080700Z 22003KT CAVOK 42/01 Q1007 NOSIG=
OERK 080700Z 04013KT CAVOK 40/02 Q1009 NOSIG=
OIAA 080700Z 33012KT CAVOK 41/07 Q1000=
OIAW 080700Z 19006KT 7000 SKC 41/08 Q0999 A2950=
OIBB 080700Z 18010KT 6000 HZ SKC 36/27 Q1000 A2954=
OIBK 080700Z 09014KT 5000 SA SKC 37/26 Q1001 A2956=
OICC 080700Z 15008KT CAVOK 34/M01 Q1014 A2996 865.8=
OICK 080700Z NIL=
OICS 080700Z 01002KT 9000 SKC 34/03 Q1014 A2995=
OIFM 080700Z 00000KT CAVOK 35/07 Q1017 A3006=
OIFP NIL=
OIGG 080700Z 33004KT 9999 FEW025 31/24 Q1012 A2989=
OIHH 080700Z NIL=
OIII 080700Z NIL=
OIIM NIL=
OIIP NIL=
OIIX NIL=
OIKB 080700Z NIL=
OIKK 080700Z 36004KT CAVOK 32/03 Q1019 A3011=
OIMM 080700Z 07006KT CAVOK 37/M01 Q1015 A2998=
OINN NIL=
OINR NIL=
OINZ 080700Z 26008KT 9999 FEW030 SCT110 34/22 Q1011 A2986=
OISM NIL=
OISS 080700Z 07004KT CAVOK 37/07 Q1014 A2997=
OITL 080700Z 08022KT CAVOK 23/11 Q1019 A3011=
OITR 080700Z NIL=
OITT 080700Z 09012KT CAVOK 32/04 Q1016 A3001=
OIYY 080700Z 34004KT CAVOK 38/M04 Q1015 A2998=
OIZH 080700Z NIL=
OKBK 080700Z 34016KT CAVOK 44/M02 Q1002 NOSIG=
ORBI NIL=
ORBS NIL=
ORMM NIL=
OSAP 080700Z 28014KT CAVOK 29/19 Q1007=
OSDI 080700Z 22015KT CAVOK 28/07 Q1011=
OSLK 080700Z 20006KT 9999 FEW026 SCT030 27/19 Q1009=
OTBD NIL=
OTBH NIL=
OTMA NIL=
OTMS NIL=
####018000617####
SAAW33 KWBC 080700
METAR
OBBI NIL=
OMAA 080700Z 17010KT 130V250 CAVOK 40/17 Q1000 A2954 NOSIG=
OMAL 080700Z 21007KT 160V250 7000 NSC 38/26 Q1003 A2963=
OMDB 080700Z VRB04KT CAVOK 41/22 Q1000 NOSIG=
OMFJ 080700Z 08009KT 040V120 6000 FEW020 34/26 Q1002 A2960=
OMRK 080700Z 34004KT CAVOK 41/28 Q0999 A2952=
OMSJ 080700Z 36003KT 260V070 6000 NSC 41/20 Q1001=
OOMA NIL=
OOMS NIL=
OOSA NIL=
OOTH NIL=
OPMT NIL=
OYAA 080700Z 21010KT 7000 FEW018 BKN100 33/24 Q1004=
OYAR NIL=
OYHD NIL=
OYJA NIL=
OYMB 080700Z 06010KT 6000 FEW030 37/M03 Q1007=
OYSM NIL=
OYSN 080700Z NIL=
OYTZ NIL=
####018000073####
SAAW34 KWBC 080645 RRC
METAR
OAKB 080700Z NIL=
OAKN 080700Z NIL=
####018000089####
SAAW33 KWBC 080700 CCA
METAR
OMDB 080700Z VRB04KT CAVOK 41/22 Q1001 BECMG 34010KT=
####018000285####
SAAW42 KWBC 080700
METAR
OBAH NIL=
OBBI NIL=
OBBQ NIL=
OBSC NIL=
OBZI NIL=
OJAQ 080700Z NIL=
OKBC NIL=
OKTK NIL=
OKZK NIL=
OMAD 080700Z NIL=
OMAU NIL=
OMDZ NIL=
OMGK NIL=
OMMA NIL=
OMMS NIL=
OMSA NIL=
OMSQ NIL=
OMSR NIL=
OSAS NIL=
OSGN NIL=
####018000028####
SABO41 KWBC 080700
NIL=
####018000926####
SABZ31 KWBC 080700
METAR
SBBE 080700Z 11006KT 9999 FEW017 26/22 Q1012=
SBBR 080700Z 12005KT CAVOK 17/08 Q1022=
SBBV 080700Z 00000KT 9999 SCT025 SCT100 25/23 Q1011=
SBCF 080700Z 00000KT CAVOK 10/07 Q1022=
SBCG 080700Z 18004KT CAVOK 17/09 Q1016=
SBEG 080700Z 00000KT 9999 FEW010 SCT100 25/22 Q1012=
SBFI 080700Z 18002KT 9999 FEW020 SCT100 16/14 Q1015=
SBFZ 080700Z 12006KT 9999 SCT017 SCT100 25/22 Q1013=
SBGL 080700Z 00000KT CAVOK 15/13 Q1019=
SBGR 080700Z 07006KT CAVOK 11/10 Q1021=
SBKP 080700Z 10008KT CAVOK 12/09 Q1020=
SBNT 080700Z 19004KT 9999 SCT018 SCT070 22/21 Q1014=
SBPA 080700Z 21004KT 9999 BKN023 OVC045 18/14 Q1016=
SBPS 080700Z 27002KT 4000 -RA BR BKN005 BKN100 18/18 Q1018=
SBRF 080700Z 24004KT 9999 SCT016 BKN070 22/21 Q1014=
SBSL 080700Z 08002KT 9999 SCT017 26/24 Q1012=
SBSN 080700Z 16003KT CAVOK 24/22 Q1011=
SBSV 080700Z 05003KT 9999 SCT017 22/21 Q1016=
SBTT NIL=
####018000492####
SABZ41 KWBC 080700
METAR
SBAA NIL=
SBAF NIL=
SBAR 080700Z 25003KT 9999 SCT015 22/22 Q1015=
SBBG NIL=
SBBH NIL=
SBBI NIL=
SBBU NIL=
SBCJ NIL=
SBCO NIL=
SBCR NIL=
SBCT 080700Z 05001KT CAVOK 12/11 Q1020=
SBCV NIL=
SBCY 080700Z 03004KT CAVOK 20/14 Q1013=
SBCZ 080700Z 00000KT 8000 FEW003 SCT020 24/24 Q1011=
SBDN NIL=
SBFL 080700Z 31009KT CAVOK 20/18 Q1013=
SBFN NIL=
SBGO 080700Z 34002KT CAVOK 14/11 Q1019=
SBGW NIL=
SBHT NIL=
SBIH NIL=
SBIL NIL=
####018001197####
SAAK32 KWBC 080700
METAR
PABA 080701Z AUTO 29006KT 10SM UP BKN005 OVC012 02/02 A3005=
PABI 080653Z AUTO 00000KT 10SM CLR 18/07 A3008=
PACZ 080655Z AUTO 03008KT 10SM 12/12 A3006=
PACZ SA 0655 AWOS MM 10 54/53/0308/006=
PADK 080656Z 08009KT 10SM BKN016 OVC024 07/06 A2959=
PADL 080656Z 30008KT 10SM OVC050 11/08 A2997=
PADQ 080653Z 34004KT 3SM -RA BR BKN008 OVC012 10/09 A2981=
PAEH 080655Z AUTO 01003KT 10SM SCT008 BKN018 OVC049 09/M28
     A3000=
PAEH SA 0655 AWOS 8 SCT M18 BKN 49 OVC 10 49/-19/0103/000=
PAFB NIL=
PAGA 080658Z AUTO 02004KT 10SM CLR 21/06 A3006=
PAIM 080655Z AUTO 30004KT 10SM CLR 17/07 A3008=
PAIM SA 0655 AWOS CLR BLO 120 10 62/44/3004/008=
PALU 080655Z AUTO 22023G28KT 10SM CLR 13/01 A3009=
PALU SA 0655 AWOS CLR BLO 120 10 55/34/2223G28/ 009=
PASV 080655Z AUTO 00000KT 10SM SCT041 SCT055 BKN070 10/09
     A2997=
PASV SA 0655 AWOS 41 SCT 55 SCT M70 BKN 10 50/49/0000/997=
PASY 080656Z AUTO 02017KT 10SM OVC006 A2973=
PATC 080655Z AUTO 00000KT 10SM CLR 12/07 A3015=
PATC SA 0655 AWOS CLR BLO 120 10 54/44/0000/015=
PATL 080655Z AUTO 05005KT 10SM CLR 18/05 A2999=
PATL SA 0655 AWOS CLR BLO 120 10 64/41/0505/999=
PBTI NIL=
####018000725####
SABZ42 KWBC 080700
METAR
SBJR NIL=
SBLO 080700Z 24001KT CAVOK 17/13 Q1018=
SBMA 080700Z 27004KT CAVOK ///// Q1012=
SBME NIL=
SBMN 080700Z 02005KT 9999 FEW010 BKN100 26/24 Q1011=
SBMO 080700Z 00000KT 9999 FEW020 BKN100 21/20 Q1015=
SBMQ 080700Z 36002KT CAVOK 25/25 Q1012=
SBMT NIL=
SBPC NIL=
SBPK NIL=
SBPP NIL=
SBPV 080700Z 00000KT CAVOK 24/23 Q1011=
SBRB 080700Z 00000KT CAVOK 23/23 Q1012=
SBRJ NIL=
SBSC NIL=
SBSJ 080700Z 00000KT 5000 BR SCT010 12/11 Q1022=
SBSM NIL=
SBSP 080700Z 06005KT CAVOK 17/10 Q1020=
SBST NIL=
SBTE 080700Z 22001KT 9999 FEW020 BKN100 25/23 Q1012=
SBTU NIL=
SBUG NIL=
SBUR NIL=
SBVH NIL=
SBVT 080700Z 30002KT 9999 FEW020 17/16 Q1020=
SBYS NIL=
####018000522####
SACA31 KWBC 080700
METAR
MBJT NIL=
MBPV NIL=
MBSC NIL=
MKJP NIL=
MKJS NIL=
MUCM NIL=
MUCU 080652Z 05004KT 9000 FEW020 26/24 Q1015=
MUHA 080655Z 07002KT 8000 BKN020 25/24 Q1014=
MUVR 080652Z 00000KT 8000 FEW018CB FEW020 BKN200 25/23 Q1015=
MWCB NIL=
MWCR NIL=
MYAM NIL=
MYAT NIL=
MYBS NIL=
MYEC NIL=
MYEG 080659Z AUTO 09004KT 10SM SCT024 SCT029 SCT037 25/23 A2993
     RMK AO2 LTG DSNT W=
MYEH NIL=
MYEM NIL=
MYGF NIL=
MYGW NIL=
MYNN 080700Z 00000KT 9999 FEW015 27/27 A2994=
####018000450####
SABZ43 KWBC 080700
METAR
SBAN NIL=
SBAT NIL=
SBBA NIL=
SBBQ NIL=
SBBW NIL=
SBCC NIL=
SBER NIL=
SBES NIL=
SBGA NIL=
SBIZ NIL=
SBJF NIL=
SBJP 080700Z 23004KT 9999 FEW020 BKN070 22/21 Q1014=
SBKG NIL=
SBLB NIL=
SBLP NIL=
SBMK NIL=
SBMS NIL=
SBMZ NIL=
SBPB NIL=
SBPJ NIL=
SBPL NIL=
SBPN NIL=
SBQV NIL=
SBRP 080700Z 13005KT CAVOK 13/09 Q1019=
SBTF NIL=
SBTK NIL=
SBUF NIL=
SBUI NIL=
SBUL NIL=
####018000778####
SACA32 KWBC 080700
METAR
MDLR NIL=
MDPC 080700Z 00000KT 9999 -RS FEW018CB FEW018 25/22 Q1013
     CB/SW=
MDPC 080700Z 00000KT 9999 -RS FEW018CB FEW018 25/22 Q1013 CB/SW
     MDSD 080700Z 05004KT 9999 FEW018 24/23 Q1014=
MDPP NIL=
MDSD 080700Z 05004KT 9999 FEW018 24/23 Q1014=
MDST 080700Z 09004KT 9999 SCT016 22/21 Q1014=
MTCH NIL=
MTPP NIL=
TAPA 080700Z 07010KT 9999 FEW020 28/24 Q1014=
TIST 080653Z AUTO 10006KT 10SM CLR 28/24 A2997 RMK AO2 SLP148
     T02780244 TSNO=
TISX 080653Z 11010KT 10SM FEW021 28/24 A2997 RMK AO2 SLP148
     T02780239=
TJBQ NIL=
TJMZ NIL=
TJNR NIL=
TJPS NIL=
TJSJ 080656Z 00000KT 10SM CLR 27/24 A2997 RMK AO2 SLP149
     T02720244=
TKPK NIL=
TKPN NIL=
TQPF NIL=
TRPM NIL=
TUPJ NIL=
TUPW NIL=
####018000537####
SACA33 KWBC 080700
METAR
TBPB 080700Z 08015KT 9999 SCT018 28/24 Q1012 NOSIG=
TDPD NIL=
TDPR NIL=
TFFF 080700Z AUTO 06009KT 9999NDV SCT011/// BKN023/// BKN034///
     28/24 Q1013=
TFFG NIL=
TFFJ NIL=
TFFR 080700Z VRB01KT 9999 FEW021 26/24 Q1014 NOSIG=
TGPY NIL=
TGPZ NIL=
TLPC NIL=
TLPL NIL=
TNCA NIL=
TNCB NIL=
TNCC NIL=
TNCE NIL=
TNCM NIL=
TTCP 080700Z 07006KT 9999 FEW016 SCT280 25/23 Q1012 NOSIG=
TTPP 080700Z 11007KT 9999 FEW016 BKN280 26/25 Q1011 NOSIG=
TVSM NIL=
TVSU NIL=
TVSV NIL=
####018000220####
SACA42 KWBC 080700
METAR
TIST 080653Z AUTO 10006KT 10SM CLR 28/24 A2997=
TISX 080653Z 11010KT 10SM FEW021 28/24 A2997=
TJBQ NIL=
TJMZ NIL=
TJNR NIL=
TJPS NIL=
TJSJ 080656Z 00000KT 10SM CLR 27/24 A2997=
####018000778####
SACA35 KWBC 080700
METAR
MGGI NIL=
MGPB 080700Z 278004KT 9999 -TSRA SCT016 FEW025CB OVC080 24/24
     Q1009 A2980 CB/TS/LTNG E/ESE=
MGSJ 080700Z 07004KT 9999 -DZ SCT018 OVC090 2423 Q1012 A2988=
MHLC 080700Z 00000KT 9999 FEW026 SCT200 26/24 Q1009 A2980
     NOSIG=
MHLM 080700Z 21005KT 9999 FEW020CB BKN080 27/25 Q1010 A2983
     NOSIG=
MHTG 080700Z 10003KT 7000 -DZ BKN025 BKN080 19/19 Q1017 A3003
     NOSIG=
MNPC NIL=
MPBO NIL=
MPCH NIL=
MPDA NIL=
MPMG NIL=
MPSA NIL=
MPTO 080700Z 05005KT 9999 SCT018CB 26/24 Q1011=
MRLB NIL=
MRLM NIL=
MROC 080700Z 00000KT 9999 BR FEW003 SCT008 SCT100 20/20 A3004 RMK
     VIS 5000SSW 8000SW NOSIG=
MRPV NIL=
MSLP 080650Z 02003KT 9999 FEW023 SCT050 25/23 Q1011 A2987=
MSSS NIL=
MZBZ NIL=
####018000088####
SAJM31 MKJS 080700
METAR MKJS 080700Z  00000KT 9999 SCT022 SCT200 26/22 Q1012=
DUPE
####018000476####
SACA41 KWBC 080700
METAR
MKBK NIL=
MUBA NIL=
MUBY NIL=
MUCA NIL=
MUCL NIL=
MUCM NIL=
MUCU 080652Z 05004KT 9000 FEW020 26/24 Q1015=
MUGM 080656Z 34003KT 9999 FEW035 SCT095 26/22 A2996 RMK SLP143
     T02560222=
MUGT NIL=
MUHA 080655Z 07002KT 8000 BKN020 25/24 Q1014=
MUMO NIL=
MUMZ NIL=
MUNG NIL=
MUVR 080652Z 00000KT 8000 FEW018CB FEW020 BKN200 25/23 Q1015=
MUVT NIL=
MYEF NIL=
MYSM NIL=
TABS NIL=
TAOA NIL=
TBBI NIL=
TDCF NIL=
####018000028####
SACI31 KWBC 080700
NIL=
####018000559####
SACA45 KWBC 080700
METAR
MGFL NIL=
MGGT 080700Z 18006KT CAVOK 17/13 Q1023 A3021 SCT080 OVC100 NOSI
     G=
MGGT 080700Z 18006KT CAVOK 17/13 Q1023 A3021 SCT080 OVC100
     NOSIG=
MGHT 080700Z 00000KT 9999 OVC012 17/16 QFE 816/8=
MGHT 080700Z 00000KT 9999 OVC012 17/16 QFE 816.8=
MHAM NIL=
MHCA NIL=
MHCH NIL=
MHLE NIL=
MHNJ NIL=
MHNO NIL=
MHPL NIL=
MHRO NIL=
MHSR NIL=
MHTE NIL=
MHYR NIL=
MNMG 080700Z 16004KT 9999 FEW020CB SCT022 25/24 Q1011 A2986
     CBSW/W/NW/FL=
MNPC NIL=
MPSA NIL=
MRCH NIL=
MSAC NIL=
####018000686####
SACI32 KWBC 080700
METAR
ZBAA NIL=
ZBTJ NIL=
ZBYN NIL=
ZGGG NIL=
ZGNN NIL=
ZGSZ NIL=
ZHHH NIL=
ZKPY NIL=
ZLLL NIL=
ZMUB 080700Z 20009MPS 9999 -SHRA SCT030CB SCT033 19/11 Q1009 NOSIG
     RMK QFE650.1 62=
ZPPP NIL=
ZSAM NIL=
ZSHC NIL=
ZSNJ NIL=
ZSOF NIL=
ZSPD NIL=
ZSSS NIL=
ZUBD NIL=
ZUCD NIL=
ZUCK NIL=
ZUDF NIL=
ZUDS NIL=
ZUDX NIL=
ZUDZ NIL=
ZUFJ NIL=
ZUFL NIL=
ZUGH NIL=
ZUGY NIL=
ZULP NIL=
ZULS NIL=
ZULZ NIL=
ZUMY NIL=
ZUNC NIL=
ZUSN NIL=
ZUTR NIL=
ZUUU NIL=
ZUWF NIL=
ZUWX NIL=
ZUXC NIL=
ZUXJ NIL=
ZUXY NIL=
ZUYB NIL=
ZUZY NIL=
ZWTN NIL=
ZWWW NIL=
ZYHB NIL=
ZYTL NIL=
ZYYY NIL=
####018000028####
SACI41 KWBC 080700
NIL=
####018000028####
SACN31 KWBC 080700
NIL=
####018000373####
SAHW31 KWBC 080700
METAR
PBKH NIL=
PHJR 080653Z VRB03KT 10SM FEW060 24/18 A3003=
PHKO 080653Z 09006KT 10SM CLR 25/16 A2999=
PHLI 080653Z 03009KT 10SM SCT023 BKN036 24/21 A3006=
PHNL 080653Z 02007KT 10SM FEW029 SCT047 24/18 A3003=
PHOG 080654Z 03013KT 10SM FEW030 SCT050 25/18 A3003=
PHTO 080653Z 06003KT 10SM SCT029 SCT050 OVC065 24/18 A3003=
PNGF NIL=
####018000670####
SAEE31 KWBC 080700
METAR
EPGD 080700Z 30011KT CAVOK 20/11 Q1021=
EPKK 080700Z 22005KT CAVOK 17/12 Q1022=
EPKT 080700Z 33005KT CAVOK 18/08 Q1023=
EPPO 080700Z 25004KT 180V290 CAVOK 19/07 Q1023=
EPQT NIL=
EPRZ 080700Z 33006KT 9999 FEW026 18/11 Q1021=
EPSC NIL=
EPWA 080700Z 29009KT 260V330 CAVOK 15/12 Q1021 NOSIG=
EYSA NIL=
UKBB 080700Z 31003MPS 270V340 9999 SCT014 23/19 Q1013 88CLRD95
     NOSIG=
UKKK 080700Z 30002MPS 9999 BKN012 21/18 Q1014 08CLRD70 NOSIG=
UKLL 080700Z 32003MPS 260V030 9999 SCT024CB BKN024 16/12 Q1020
     31210365 NOSIG=
UKOO 080700Z 35005MPS CAVOK 22/17 Q1014 34090070 NOSIG=
UMII NIL=
UMMM NIL=
UMMS NIL=
####018000726####
SAEE32 KWBC 080700
METAR
LBBG 080700Z 25005MPS 9999 FEW048 BKN066 BKN120 18/14 Q1014
     NOSIG=
LBPD 080700Z 26005MPS 230V290 9999 -RA SCT050 OVC070 16/13 Q1016
     NOSIG=
LBSF 080700Z 28006MPS 9999 BKN033 14/10 Q1018 NOSIG=
LBWN 080700Z 26004MPS 230V290 9999 SCT028 19/13 Q1014 BECMG RA=
LHBP 080700Z 23004KT 180V270 CAVOK 20/11 Q1021 NOSIG=
LHTA NIL=
LRAR NIL=
LRBS 080700Z 13003KT 110V170 9999 FEW018 OVC038 19/16 Q1016
     NOSIG=
LRCK 080700Z 36009KT 340V040 9999 SCT033 22/15 Q1014 NOSIG=
LROP 080700Z 11003KT 060V170 9999 FEW017 OVC040 19/15 Q1015
     880///95 NOSIG=
LRTC NIL=
LRTM NIL=
LRTR 080700Z 32007KT 290V010 9999 BKN049 18/14 Q1020=
LUCC NIL=
LUKK NIL=
LURN NIL=
####018001598####
SAEM31 KWBC 080700
METAR
KQLA NIL=
KQLH NIL=
KQLX NIL=
LATI 080700Z 07006KT CAVOK 25/11 Q1015 NOSIG=
LDDU 080700Z VRB07KT CAVOK 23/05 Q1018 NOSIG=
LDDV NIL=
LDKT NIL=
LDOS 080700Z 34004KT CAVOK 19/10 Q1022 NOSIG=
LDPL 080700Z 08010KT 030V110 CAVOK 22/10 Q1022 NOSIG=
LDRI 080700Z VRB02KT CAVOK 23/09 Q1022 NOSIG=
LDSP 080700Z 03006KT 320V100 CAVOK 24/05 Q1020 NOSIG=
LDZA 080700Z VRB01KT CAVOK 20/11 Q1023 NOSIG=
LDZD 080700Z VRB03KT CAVOK 25/05 Q1021 NOSIG=
LJLJ NIL=
LJMB NIL=
LJPZ NIL=
LKIB NIL=
LKMT 080700Z VRB02KT 9999 FEW030 17/12 Q1023 NOSIG=
LKPR 080700Z 14004KT 090V190 CAVOK 19/10 Q1023 NOSIG=
LKTB 080700Z VRB02KT 9999 FEW031 19/11 Q1023 NOSIG=
LKTT NIL=
LOAV NIL=
LOIH NIL=
LOIJ NIL=
LOLW NIL=
LOWG NIL=
LOWH NIL=
LOWI NIL=
LOWK NIL=
LOWL NIL=
LOWS NIL=
LOWW NIL=
LOWZ NIL=
LQSA 080700Z VRB01KT 9999 SCT050 15/10 Q1024 NOSIG=
LWOH 080700Z 01006KT 320V080 9999 FEW033 18/07 Q1019=
LWSK 080700Z 00000KT 9999 BKN050 16/12 Q1019 NOSIG=
LYBE 080700Z 28006KT 9999 SCT043 16/14 Q1021 NOSIG=
LYDU NIL=
LYLJ NIL=
LYMB NIL=
LYNI 080700Z 34010KT 9999 -RA FEW013 OVC033 14/12 Q1020 NOSIG=
LYOH NIL=
LYOS NIL=
LYPG 080700Z 02016KT 350V060 9999 FEW040 24/07 Q1017 NOSIG=
LYPL NIL=
LYPR 080700Z NIL=
LYPZ NIL=
LYRI NIL=
LYSA NIL=
LYSK NIL=
LYSP NIL=
LYTI NIL=
LYTV 080700Z 33008KT 280V030 CAVOK 25/07 Q1017 NOSIG=
LYZA NIL=
LYZD NIL=
LZIB 080700Z 01008KT CAVOK 22/06 Q1022=
LZKZ 080700Z 02010KT 330V070 CAVOK 19/11 Q1021 NOSIG=
LZTT 080700Z VRB03KT 9999 FEW043 17/09 Q1022 NOSIG=
####018000360####
SAPA41 KWBC 080700
METAR
PGSN 080654Z 08010KT 10SM SCT023 SCT080 29/23 A2985=
PGUA 080655Z AUTO 08014KT 10SM BKN018 BKN025 28/ A2985=
PGUM 080654Z 09012G19KT 10SM FEW024 SCT031 30/24 A2985=
PJON NIL=
PKMJ NIL=
PKWA 080700Z AUTO 08015KT 3SM RA BKN007 BKN021 OVC044 26/23
     A2983=
PWAK 080652Z 08015G18KT 8SM HZ FEW020 FEW030 28/24 A2996=
####018000028####
SAEW31 KWBC 080700
NIL=
####018000939####
SAFR31 KWBC 080700
METAR
LFAC NIL=
LFAT NIL=
LFBD 080700Z 08007KT 020V100 CAVOK 24/15 Q1017 NOSIG=
LFBH 080700Z AUTO 11005KT 9999NDV NSC 24/13 Q1018=
LFBI 080700Z VRB02KT CAVOK 22/13 Q1019 NOSIG=
LFBO 080700Z 09004KT 060V130 CAVOK 23/13 Q1019 BECMG 13012KT=
LFBP 080700Z VRB02KT CAVOK 24/18 Q1017 NOSIG=
LFBT 080700Z 00000KT CAVOK 25/16 Q1018 NOSIG=
LFBZ 080700Z 00000KT CAVOK 23/20 Q1016 NOSIG=
LFGJ 080700Z AUTO VRB02KT 9999NDV NSC 20/15 Q1020=
LFKB NIL=
LFKC 080700Z 34005KT 300V020 9999 FEW016 26/21 Q1019 NOSIG=
LFKJ 080700Z VRB02KT 9999 FEW023 26/20 Q1019 NOSIG=
LFLB 080700Z NIL=
LFLC 080700Z 17003KT 120V240 CAVOK 20/14 Q1020 NOSIG=
LFLL 080700Z VRB03KT CAVOK 22/13 Q1021 NOSIG=
LFLS 080700Z 11004KT CAVOK 23/16 Q1021 NOSIG=
LFLY 080700Z 20004KT CAVOK 22/12 Q1021 NOSIG=
LFMD 080700Z AUTO 36003KT 320V050 9999NDV FEW080 26/21 Q1019=
LFMH 080700Z 14003KT 090V180 CAVOK 21/12 Q1021 NOSIG=
####018000087####
SAFR31 KWBC 080630 RRC
METAR
LFKB 080654Z 00000KT 9000 SCT016 28/22 Q1019 NOSIG=
####018001565####
SAFR32 KWBC 080700
METAR
LFML 080700Z VRB02KT CAVOK 26/17 Q1019 NOSIG=
LFMN 080700Z 11003KT 9999 BKN060 28/19 Q1020 NOSIG=
LFMP 080700Z VRB02KT CAVOK 25/13 Q1019 NOSIG=
LFMT 080700Z NIL=
LFOB 080700Z 00000KT CAVOK 19/13 Q1019 NOSIG=
LFOH 080700Z AUTO 01007KT 340V040 9999NDV NSC 19/12 Q1019=
LFOT 080700Z AUTO VRB02KT 9999NDV NSC 22/14 Q1019=
LFPB 080700Z VRB01KT CAVOK 24/12 Q1019 NOSIG=
LFPG 080700Z 20004KT 170V230 CAVOK 23/10 Q1019 NOSIG=
LFPN 080700Z 17004KT 130V200 CAVOK 23/12 Q1020 NOSIG=
LFPO 080700Z VRB02KT CAVOK 23/13 Q1019 NOSIG=
LFQQ 080700Z VRB03KT CAVOK 21/14 Q1019 NOSIG=
LFRB 080700Z 00000KT 9999 OVC008 17/15 Q1019 NOSIG=
LFRC 080700Z AUTO 32004KT 290V010 9999NDV BKN007 17/17 Q1020=
LFRD 080700Z AUTO 35004KT 310V020 9999NDV OVC006 17/15 Q1019=
LFRG NIL=
LFRK 080700Z 01004KT 330V050 CAVOK 19/13 Q1019 NOSIG=
LFRN 080700Z AUTO 34007KT 9999NDV BKN004/// 16/15 Q1019=
LFRO 080700Z AUTO 29004KT 270V330 9999NDV BKN009 OVC014 17/16
     Q1020=
LFRQ 080700Z 05005KT 010V090 4000 BR FEW001 16/15 Q1019 BECMG 6000
     NSW=
LFRS 080700Z VRB03KT CAVOK 21/13 Q1018 NOSIG=
LFRT 080700Z VRB02KT 9999 OVC004 16/15 Q1020=
LFRZ 080700Z AUTO 02004KT 340V050 9999NDV NSC 19/13 Q1018=
LFSB 080700Z VRB02KT CAVOK 21/12 Q1021 NOSIG=
LFSF 080700Z AUTO VRB02KT 9999NDV NSC 22/12 Q1020=
LFSN 080700Z VRB01KT CAVOK 22/13 Q1021 NOSIG=
LFSR 080700Z AUTO 00000KT 9999NDV NSC 21/13 Q1019=
LFST 080700Z VRB01KT CAVOK 21/12 Q1020 NOSIG=
LFTW 080700Z AUTO 10003KT 070V150 9999NDV NSC 25/15 Q1020=
LFVP NIL=
####018001121####
SAFR41 KWBC 080700
METAR
LFAF NIL=
LFBA 080700Z 10006KT CAVOK 20/16 Q1018 NOSIG=
LFBC 080700Z AUTO 10003KT 050V150 9999NDV NSC 23/14 Q1017=
LFBL 080700Z 08003KT CAVOK 20/14 Q1020 NOSIG=
LFBM 080700Z AUTO 10005KT 9999NDV NSC 23/15 Q1017=
LFKF 080700Z 08004KT 360V140 9999 SCT016 28/22 Q1019 NOSIG=
LFLD 080700Z 11004KT 070V160 CAVOK 22/14 Q1020=
LFLV NIL=
LFOE NIL=
LFOP 080700Z 00000KT CAVOK 20/10 Q1019 NOSIG=
LFPB 080700Z VRB01KT CAVOK 24/12 Q1019 NOSIG=
LFPG 080700Z 20004KT 170V230 CAVOK 23/10 Q1019 NOSIG=
LFPV 080700Z AUTO /////KT 9999NDV NSC 23/11 Q1020=
LFQB 080700Z 14004KT 120V180 CAVOK 22/12 Q1019=
LFQQ 080700Z VRB03KT CAVOK 21/14 Q1019 NOSIG=
LFRH 080700Z 03007KT 5000 BKN003 14/14 Q1019=
LFRM 080700Z VRB02KT CAVOK 21/14 Q1019=
LFSC NIL=
LFSD 080700Z AUTO 05004KT 010V080 9999NDV NSC 22/12 Q1020=
LFSI 080700Z AUTO VRB03KT 9999NDV NSC 22/14 Q1020=
LFSL 080700Z AUTO 11004KT 9999NDV NSC 22/14 Q1020=
LFSO 080700Z AUTO VRB02KT 9999NDV NCD 21/12 Q1021=
LFSX 080700Z AUTO 12003KT 090V170 9999NDV NSC 21/14 Q1021=
LFTH 080700Z VRB01KT CAVOK 27/21 Q1019 NOSIG=
####018000028####
SAHA31 KWBC 080700
NIL=
####018000028####
SAID31 KWBC 080700
NIL=
####018000558####
SAIO31 KWBC 080700
METAR
FIMP 080700Z 12015KT 9999 BKN016 24/17 Q1024=
FIMR NIL=
FJDG NIL=
FMCH NIL=
FMCV NIL=
FMCZ NIL=
FMEE NIL=
FMMI 080700Z 13008KT 080V180 9999 SCT016 18/12 Q1028 NOSIG=
FMMT NIL=
FMNN NIL=
FSIA NIL=
FSSS NIL=
VRMM NIL=
VYMD NIL=
VYYY NIL=
WBGG 080700Z 05010KT 9999 FEW015CB BKN020 BKN300 28/23 Q1008
     NOSIG=
WBKK 080700Z 27002KT 9999 TS FEW014 FEW017CB SCT140 BKN270 30/25
     Q1008 TEMPO 5000 TSRA=
WBSB 080700Z 27013KT 9999 SCT015 FEW016CB SCT140 BKN300 31/25
     Q1008 RESH NOSIG=
####018000349####
SAIE31 KWBC 080700
METAR
EICK 080700Z 21006KT 9999 FEW018 SCT050 BKN080 13/12 Q1016
     NOSIG=
EIDB NIL=
EIDW 080700Z 23012KT 190V250 9999 FEW023 SCT110 BKN180 14/10 Q1015
     NOSIG=
EIKN 080700Z 18004KT 9999 FEW015 SCT045 BKN200 11/10 Q1013
     NOSIG=
EINN 080700Z 18008KT 9999 FEW030 SCT050 BKN170 14/10 Q1015
     NOSIG=
####018000831####
SAPQ31 KWBC 080700
METAR
PGRO 080655Z 09016G21KT 7SM FEW040 29/25 A2986=
PGSN 080654Z 08010KT 10SM SCT023 SCT080 29/23 A2985=
PGUM 080654Z 09012G19KT 10SM FEW024 SCT031 30/24 A2985=
PGWT 080651Z 08017KT 7SM FEW015 SCT100 30/25 A2984=
PKMJ NIL=
PKMR 080653Z 07012KT 15SM SCT014 BKN050 BKN120 OVC300 27/25
     A2978=
PKRO NIL=
PKWA 080700Z AUTO 08015KT 3SM RA BKN007 BKN021 OVC044 26/23
     A2983=
PTKK 080657Z VRB03KT 14SM -RA FEW012 BKN120 OVC280 25/23 A2981=
PTKR 080654Z 03005KT 15SM FEW018CB BKN120 OVC300 29/24 A2979=
PTPN NIL=
PTRO 080650Z 30003KT 15SM SCT009 SCT016CB BKN120 BKN300 28/25
     A2982=
PTSA NIL=
PTTP 080655Z 12003KT 15SM SCT018 BKN300 28/24 A2982=
PTYA 080650Z 10010KT 12SM SCT017 SCT040 BKN300 31/24 A2981=
PWAK 080652Z 08015G18KT 8SM HZ FEW020 FEW030 28/24 A2996=
####018000686####
SAIQ31 KWBC 080700
METAR
KQAD 080655Z AUTO VRB05KT 6000 CLR 41/04 A2958 RMK AO2 SLP015
     T04110043 $=
KQAE 080655Z 32007KT 9000 HZ CLR 40/07 A2965 RMK SLP038=
KQEZ NIL=
KQMG 080655Z AUTO 34014KT 12SM BKN100 20/15 A3015 RMK AO2 WSHFT
     0553 LTG DSNT W SLP138 T02040151=
KQMH NIL=
KQTO 080655Z 30011KT 9999 CLR 39/08 A2963 RMK SLP032=
KQTU 080655Z 33009KT 9999 CLR 37/06 A2968 RMK SLP031=
KQTW NIL=
KQTX 080655Z VRB06KT 9999 CLR 38/03 A2969 RMK SLP026=
KQTZ 080655Z 01009G15KT 9000 HZ CLR 40/07 A2963 RMK SLP027
     QNH1003MB ALSTG/SLP ESTMD WND DATA ESTMD=
KQVO NIL=
KQXJ NIL=
KQXN NIL=
ORBI NIL=
ORER 080700Z VRB03KT 6000 SKC 38/03 Q1005=
####018000490####
SAIQ32 KWBC 080700
METAR
KQAJ 080655Z 32012G18KT 9999 CLR 36/00 A2973 RMK SLP056 WND DATA
     ESTMD ALSTG/SLP ESTMD=
KQAQ 080655Z 36009G16KT 8000 HZ CLR 40/08 A2966 RMK SLP040 PA +363
     DA +3258=
KQAV NIL=
KQAX NIL=
KQAZ NIL=
KQCO NIL=
KQCT NIL=
KQMA NIL=
KQPA NIL=
KQPB NIL=
KQPC NIL=
KQPD NIL=
KQSE NIL=
KQSL 080655Z 33010KT 9999 CLR 39/05 A2968 RMK SLP039 Q1005MB=
KQTI 080655Z AUTO 16004KT 9999 CLR 38/04 A2971 RMK AO2 SLP037
     T03760037=
####018000737####
SAJP41 KWBC 080700
METAR
RJAF 080700Z 17008KT 9999 FEW060 SCT120 BKN/// 27/16 Q1011=
RJAI NIL=
RJAK NIL=
RJAM NIL=
RJAO NIL=
RJAT NIL=
RJAW 080700Z 09011KT 9999 FEW015 BKN250 28/25 Q1014 RMK 2CU015
     A2996=
RJBD 080700Z 18009KT 9999 FEW015 SCT025 BKN/// 28/23 Q1008=
RJCA NIL=
RJCB 080700Z 15004KT 9999 FEW007 BKN009 BKN012 19/17 Q1009=
RJCJ NIL=
RJCK 080700Z VRB01KT 5000 BR SCT003 BKN004 18/16 Q1009=
RJCM 080700Z 31003KT 200V360 4900 TSRA BR FEW002 BKN005 BKN008
     17/16 Q1009=
RJCN 080700Z 07004KT 4500 BR BKN002 OVC003 15/14 Q1009=
RJCO NIL=
RJCR NIL=
RJCT NIL=
RJCW 080700Z 10012KT 9999 FEW004 BKN007 15/13 Q1009=
RJDB NIL=
RJDC 080700Z 12005KT 9999 FEW020 BKN/// 27/21 Q1007=
####018000820####
SAJP31 KWBC 080700
METAR
RJAA 080700Z 22004KT 180V280 9999 FEW025 BKN/// 28/22 Q1009
     NOSIG=
RJAH 080700Z 17007KT 140V200 9999 FEW025 BKN270 29/24 Q1008=
RJCC 080700Z 16007KT 6000 -DZ FEW003 BKN004 19/17 Q1008=
RJCH 080700Z 15005KT 100V180 9999 FEW005 BKN050 20/19 Q1008 RETS
     RERA=
RJFK 080700Z 18010KT 9999 FEW030 BKN/// 28/20 Q1009=
RJFT 080700Z 25005KT 220V310 9999 FEW030 SCT040 BKN/// 29/22
     Q1008=
RJFU 080700Z 27009KT 9999 FEW020 SCT040 BKN/// 28/23 Q1007=
RJNN NIL=
RJOO 080700Z 23008KT 200V260 9999 FEW030 BKN/// 31/19 Q1007=
RJSS 080700Z 15012KT 9999 FEW030 FEW040CB SCT070 BKN/// 26/21
     Q1008 WS R27=
RJTT 080700Z 19013KT 9999 FEW030 BKN/// 28/22 Q1008=
RODN 080655Z AUTO 19011KT 9999 BKN022 BKN029 30/26 A2982 RMK AO2
     CIG 020V026 SLP096 T03000259=
####018000676####
SAJP42 KWBC 080700
METAR
RJDK NIL=
RJDM NIL=
RJDO NIL=
RJDT 080700Z 04007KT 350V070 9999 FEW008 SCT025 BKN/// 23/21
     Q1009=
RJEB 080700Z 35006KT 7000 FEW004 SCT005 BKN007 15/14 Q1009=
RJEC 080700Z 19005KT 160V250 9999 FEW020 BKN035 23/19 Q1008=
RJEO NIL=
RJER NIL=
RJFA NIL=
RJFC NIL=
RJFE NIL=
RJFG 080700Z 25005KT 210V290 9999 FEW007 SCT015 BKN025 26/23
     Q1010=
RJFM 080700Z 13007KT 6000 FEW020 BKN/// 27/23 Q1008=
RJFN NIL=
RJFO 080700Z 10004KT 8000 FEW030 BKN/// 27/23 Q1007=
RJFR 080700Z 13002KT 9000 FEW030 BKN/// 28/20 Q1007=
RJFY NIL=
RJFZ NIL=
RJKA 080700Z VRB01KT 9999 -RA FEW015 BKN140 28/24 Q1009=
RJKB NIL=
####018000656####
SAJP44 KWBC 080700
METAR
RJOS NIL=
RJOT 080700Z 04004KT 360V090 9999 FEW025 BKN/// 28/21 Q1009=
RJOY 080700Z 26009KT 9999 FEW030 BKN/// 31/19 Q1007=
RJOZ NIL=
RJSA 080700Z 30004KT 270V340 9999 FEW010 SCT020 BKN100 23/21
     Q1009=
RJSC 080700Z 36012KT 9999 FEW025 BKN/// 28/21 Q1008=
RJSD NIL=
RJSH NIL=
RJSI 080700Z 14005KT 090V170 9999 FEW030 28/19 Q1008=
RJSO NIL=
RJST NIL=
RJSU NIL=
RJTA NIL=
RJTC NIL=
RJTE NIL=
RJTF 080700Z 19006KT 150V220 9999 FEW035 BKN/// 30/21 Q1008=
RJTH 080700Z 21010KT 180V250 9999 -SHRA FEW008 BKN015 BKN025 24/23
     Q1011=
RJTI 080700Z 18011KT 9999 FEW020 BKN/// 26/22 Q1009=
####018000679####
SAJP43 KWBC 080700
METAR
RJKI NIL=
RJKN NIL=
RJNF NIL=
RJNG NIL=
RJNH NIL=
RJNO NIL=
RJNT 080700Z 01007KT 9999 FEW020 SCT040 BKN/// 28/21 Q1009=
RJNY NIL=
RJOA 080700Z 16004KT 120V200 9999 FEW025 SCT150 OVC/// 26/20
     Q1009=
RJOB 080700Z 15005KT 110V180 9999 FEW035 BKN/// 28/21 Q1009=
RJOC 080700Z 36009KT 9000 FEW015 SCT180 BKN/// 27/21 Q1008=
RJOE NIL=
RJOF NIL=
RJOI 080700Z 16006KT 9000 HZ FEW030 SCT150 BKN200 28/22 A2977 RMK
     SLP082 T02780222=
RJOK 080700Z 18005KT 150V220 9999 FEW030 BKN/// 28/22 Q1008=
RJOM 080700Z 24004KT 9999 FEW030 BKN/// 26/23 Q1008=
RJOP NIL=
RJOR 080700Z 35006KT 8000 FEW025 BKN/// 26/23 Q1008=
####018000252####
SAJP45 KWBC 080700
METAR
RJTJ NIL=
RJTK NIL=
RJTL NIL=
RJTO 080700Z 20013KT 9999 FEW015 BKN/// 26/21 Q1009=
RJTQ NIL=
RJTR NIL=
RJTU NIL=
RJTX NIL=
RJTY 080655Z AUTO 18009KT 9999 CLR 29/22 A2984 RMK AO2 SLP098
     T02890224 $=
####018000028####
SAKN41 KWBC 080700
NIL=
####018000488####
SAKO31 KWBC 080700
METAR
RKNY 080700Z 13005KT 9999 SCT012 OVC020 21/17 Q1009 NOSIG=
RKPC 080700Z 07009KT 4700 BR FEW010 SCT030 BKN190 25/21 Q1009
     NOSIG=
RKPK 080700Z 12008KT 9999 SCT030 BKN200 25/17 Q1008 NOSIG=
RKSI 080700Z 26005KT 220V290 9999 FEW040 OVC140 24/19 Q1008
     NOSIG=
RKSS 080700Z 28005KT 9999 FEW030 OVC120 27/15 Q1008 NOSIG=
RKTN 080700Z 14006KT 9999 SCT030 BKN200 29/20 Q1007 NOSIG=
RKTU 080700Z 25005KT 9000 SCT030 BKN200 29/19 Q1008 NOSIG=
####018000028####
SAKO41 KWBC 080700
NIL=
####018000082####
SANO41 KWBC 080650 RRB
METAR
ENEK 080650Z 22016KT CAVOK 15/13 Q1014 W14/S3=
####018000112####
SAMX31 KWBC 080745
METAR
MNMG 080700Z 16004KT 9999 FEW020CB SCT022 25/24 Q1011 A2986
     CBSW/W/NW/FL=
####018000195####
SAMM31 KWBC 080700
METAR
LCEN NIL=
LCLK 080700Z 19012KT 9999 FEW010 28/22 Q1008 NOSIG=
LCNC 080700Z NIL=
LCPH 080700Z 18006KT 140V240 9999 FEW020 27/22 Q1009=
LCRA NIL=
LMML NIL=
####018000822####
SANT31 KWBC 080700
METAR
BGBW 080650Z 08002KT 9999 FEW068 09/04 Q1009 RMK 1AC=
BGCO 080650Z 02016KT 9999 FEW080 BKN110 04/00 Q1008=
BGGH 080650Z AUTO 26003KT 9999NDV OVC003/// 05/03 Q1010=
BGJN 080650Z AUTO 26002KT 0350NDV FG VV001/// 05/05 Q1010=
BGKK 080655Z NIL=
BGSF 080650Z 07006KT 9999 FEW070 07/02 Q1009=
BGTL 080655Z AUTO 00000KT 9999 OVC002 05/05 A2985 RMK AO2 VIS 4000
     RWY26 SLP112 T00480046=
BIAR 080700Z 35019KT 9999 -RA BKN026 09/06 Q0993=
BIEG 080700Z 36013KT 1500 VCSH BR VV002 08/08 Q0989=
BIKF 080700Z 02018KT 9999 FEW014 SCT019 BKN026 09/05 Q0992=
BIRK 080700Z 01023G34KT 250V110 9999 FEW015 SCT035 BKN060 09/06
     Q0991=
GVAC 080700Z 05012KT 9999 BKN017 23/19 Q1012 NOSIG=
GVPR NIL=
LPBJ NIL=
LPLA 080700Z 17003KT 9999 FEW018 BKN028 19/18 Q1024=
TXKF NIL=
####018001610####
SAPA31 KWBC 080700
METAR
AGGG NIL=
AGGH NIL=
ANAU NIL=
AYPY NIL=
PGNT NIL=
PGRO 080655Z 09016G21KT 7SM FEW040 29/25 A2986=
PGSN 080654Z 08010KT 10SM SCT023 SCT080 29/23 A2985 RMK AO2
     RAB41E50 SLP107 P0000 T02890228=
PGUA 080655Z AUTO 08014KT 10SM BKN018 BKN025 28/ A2985 RMK AO2 CIG
     016V021 SLP091 T0278 VISNO RWY24L $=
PGUM 080654Z 09012G19KT 10SM FEW024 SCT031 30/24 A2985 RMK AO2
     SLP098 T03000239=
PGWT 080651Z 08017KT 7SM FEW015 SCT100 30/25 A2984=
PHJH NIL=
PHJR 080653Z VRB03KT 10SM FEW060 24/18 A3003 RMK AO2 SLP176
     T02390183=
PHMK 080654Z AUTO 04006KT 10SM CLR 23/19 A3004 RMK AO2 SLP174
     T02280194 TSNO=
PJON NIL=
PKMJ NIL=
PKMR 080653Z 07012KT 15SM SCT014 BKN050 BKN120 OVC300 27/25 A2978
     RMK SHRAB09E34 SLP085 T02680248=
PKWA 080700Z AUTO 08015KT 3SM RA BKN007 BKN021 OVC044 26/23 A2983
     RMK AO2 P0028 T02550234=
PLCH 080700Z 11018KT 20KM FEW030 26/24 Q1010=
PMDY 080656Z AUTO 00000KT 10SM CLR 27/20 A3011 RMK AO2 TSNO
     T02660200 SLP501=
PTKK 080657Z VRB03KT 14SM -RA FEW012 BKN120 OVC280 25/23 A2981 RMK
     SLP098 T02520230=
PTKR 080654Z 03005KT 15SM FEW018CB BKN120 OVC300 29/24 A2979 RMK
     CB DNST N-NE SLP087 T02940242=
PTPN NIL=
PTRO 080650Z 30003KT 15SM SCT009 SCT016CB BKN120 BKN300 28/25
     A2982 RMK CB VC ALQDS=
PTSA NIL=
PTTP 080655Z 12003KT 15SM SCT018 BKN300 28/24 A2982 RMK SLP098
     T02830237=
PTYA 080650Z 10010KT 12SM SCT017 SCT040 BKN300 31/24 A2981 RMK
     SLP095 T03130244=
PWAK 080652Z 08015G18KT 8SM HZ FEW020 FEW030 28/24 A2996 RMK
     AO2A=
####018000264####
SAPO31 KWBC 080700
METAR
LPAZ NIL=
LPBJ NIL=
LPFL NIL=
LPFR NIL=
LPHR NIL=
LPLA 080700Z 17003KT 9999 FEW018 BKN028 19/18 Q1024=
LPMA NIL=
LPMR NIL=
LPMT NIL=
LPOV NIL=
LPPD NIL=
LPPR NIL=
LPPS NIL=
LPPT NIL=
LPST NIL=
LPTN NIL=
####018001036####
SARA31 KWBC 080700
METAR
UAAA NIL=
UACC NIL=
UAFM NIL=
UAFO NIL=
UAFP NIL=
UAOO NIL=
UARR NIL=
UATE NIL=
UATG NIL=
UATT NIL=
UBBB 080700Z 34024KT CAVOK 32/24 Q1011 NOSIG RMK R88CLRD70=
UBBG 080700Z 33008KT 9999 FEW100 32/18 Q1012 NOSIG RMK
     R30R/CLRD70=
UBEE NIL=
UEEE NIL=
UGEE NIL=
UGEL NIL=
UGGG NIL=
UGGN NIL=
UGMM NIL=
UGSS NIL=
UHHH NIL=
UHMA NIL=
UHMD NIL=
UHME NIL=
UHML NIL=
UHMM NIL=
UHMO NIL=
UHMP NIL=
UHPP NIL=
UHSS NIL=
UHWW NIL=
UIAA NIL=
UIBB NIL=
UIII NIL=
UIUU NIL=
ULAA NIL=
UMBB NIL=
UMGG NIL=
UMII NIL=
UMMG NIL=
UMMM NIL=
UMMS NIL=
UNAA NIL=
UNNN NIL=
UNNT NIL=
USNN NIL=
UTAA NIL=
UTAK NIL=
UTAT NIL=
UTAV NIL=
UTDD NIL=
UTDL NIL=
UTEE NIL=
UTKA NIL=
UTKF NIL=
UTKK NIL=
UTNK NIL=
UTNN NIL=
UTNR NIL=
UTNU NIL=
UTSA NIL=
UTSB NIL=
UTSD NIL=
UTSK NIL=
UTSS NIL=
UTTA NIL=
UTTR NIL=
UTTT 080700Z 23002MPS 7000 NSC 37/11 Q1011 R08R/CLRD70 NOSIG=
UTTW NIL=
UUEE NIL=
####018000480####
SAPH31 KWBC 080700
METAR
RPLB NIL=
RPLC 080700Z VRB02KT 9999 FEW020 SCT036 BKN270 31/22 Q1009 A2979
     RMK NOSIG=
RPLL 080700Z 11007KT 9999 FEW023CB FEW025 BKN300 33/25 Q1008 NOSIG
     RMK CB NNE, SE A2977=
RPMC NIL=
RPMD NIL=
RPMK NIL=
RPML NIL=
RPMM NIL=
RPMT NIL=
RPMZ 080700Z 09004KT 9999 SCT018CB SCT120 BKN350 34/27 Q1010 CB
     NW, TSTM S=
RPUW NIL=
RPVM 080700Z 06006KT 9999 FEW020 SCT100 BKN250 32/28 Q1008
     A2977=
RPWD NIL=
####018000093####
SARA31 KWBC 080700 CCA
METAR
UTST 080700Z VRB01MPS CAVOK 38/08 Q1008 R88/CLRD70 NOSIG=
####018000028####
SARS31 KWBC 080700
NIL=
####018000028####
SARS32 KWBC 080700
NIL=
####018000123####
SAIQ01 ORBI 080710
METAR ORBI 080700Z 01014KT CAVOK 40/09 Q1004 NOSIG=
METAR ORMM 080700Z 27016KT CAVOK 43/03 Q1000=
####018000028####
SARS33 KWBC 080700
NIL=
####018000028####
SARS41 KWBC 080700
NIL=
####018001033####
SASA31 KWBC 080700
METAR
SEGU NIL=
SEQU NIL=
SKBO 080700Z 00000KT 9999 BKN012 12/11 A3030 NOSIG=
SKBQ 080700Z 00000KT 9999 SCT006 25/25 A2989=
SKCG 080700Z 11004KT 9999 FEW012 SCT070 28/26 A2988=
SKCL NIL=
SKLT NIL=
SKRG 080700Z 00000KT 5000 BCFG BKN006 BKN080 14/14 A3028=
SKSP NIL=
SMNI NIL=
SMZO NIL=
SMZY NIL=
SOCA 080700Z 00000KT 9999 VCTS BKN020 BKN026 BKN033 25/24 Q1012
     NOSIG=
SPIM 080700Z 00000KT 7000 SCT010 OVC022 16/14 Q1014 NOSIG RMK
     PP000=
SPQT 080700Z ///// CAVOK 24/23 Q1011 NOSIG RMK PP000=
SPQU 080700Z 32005KT CAVOK 09/M07 Q1025 RMK PP000=
SPSO 080700Z VRB02KT 8000 SKC 13/11 Q1014 RMK PP000=
SPTN 080700Z 20004KT 9999 SCT007 OVC012 11/09 Q1014 RMK PP000=
SPYL NIL=
SPZO 080700Z 00000KT 9999 SKC 05/02 Q1032 RMK PP000=
SVBC 080700Z 00000KT CAVOK 25/22 Q1012=
SVMC 080700Z NIL=
SVMG 080700Z 09007KT 9999 FEW010 26/25 Q1013 NOSIG=
SVMI 080700Z 11001KT 9999 FEW016 SCT100 25/24 Q1013 NOSIG=
SYCJ 080700Z 00000KT 9000 FEW016 24/24 Q1011=
SYTM NIL=
####018001031####
SASA32 KWBC 080700
METAR
SCAR 080700Z 26002KT 9999 OVC023 15/09 Q1017=
SCBA 080700Z AUTO 31014KT 9999 -SHSN FEW083 BKN088 BKN100 00/M02
     Q0998=
SCCF NIL=
SCCH NIL=
SCCI 080700Z 32013KT 9999 FEW025 M02/M04 Q0988 NOSIG=
SCDA 080700Z 01009KT 9999 OVC026 15/08 Q1017=
SCEL 080700Z 01002KT 5000 BR BKN130 04/02 Q1022 NOSIG=
SCFA 080700Z 00000KT 9999 OVC015 13/09 Q1016=
SCGE NIL=
SCIE 080700Z 30012KT 4000 -SHRA BKN005 OVC006 12/11 Q1019=
SCIP 080700Z 06005KT 8000 -SHRA SCT012 BKN020 18/17 Q1025 TEMPO
     5000 -SHRA=
SCTE 080700Z 34012KT 5000 SHRA SCT030 BKN050 07/07 Q1008 NOSIG=
SGAS 080700Z 16012KT 9999 BKN010 OVC017 18/16 Q1015=
SGES 080700Z 00000KT CAVOK 17/14 Q1015=
SLCB 080700Z 00000KT 9999 NSC 08/01 Q1025=
SLCZ NIL=
SLLP 080700Z 10003KT 2000E VCFG FEW003 M04/M04 Q1036=
SLTJ NIL=
SLTR NIL=
SLVR 080700Z 15007KT 9999 SCT010 BKN017 OVC070 21/20 Q1014=
SUAA NIL=
SUCA NIL=
SULS NIL=
SUMU 080700Z 34005KT CAVOK 04/03 Q1017 NOSIG=
SUPE NIL=
SURV NIL=
SUSO NIL=
####018001693####
SAUS31 KWBC 080700
METAR
KABQ 080656Z 10018G27KT 10SM OVC130 19/10 A3025=
KATL 080652Z 23004KT 10SM CLR 26/20 A3005=
KBGR 080653Z 19007KT 5SM BR OVC003 20/19 A3006=
KBHM 080653Z 02003KT 8SM CLR 25/22 A3006=
KBNA 080653Z 00000KT 10SM FEW095 27/21 A3007=
KBOS 080654Z 19009KT 4SM BR BKN011 24/22 A3005=
KBWI 080654Z 10004KT 7SM FEW110 SCT200 28/22 A2998=
KCHS 080656Z 29007KT 10SM CLR 25/20 A2997=
KCLE 080651Z 00000KT 8SM CLR 23/18 A3008=
KCLT 080652Z 34004KT 10SM CLR 23/18 A3001=
KCVG 080652Z 00000KT 8SM CLR 24/19 A3008=
KDEN 080653Z 00000KT 4SM BR OVC080 15/14 A3033=
KDFW 080653Z 15006KT 10SM BKN016 OVC070 26/23 A2999=
KDTW 080653Z 00000KT 6SM HZ SCT150 25/21 A3004=
KEWR 080651Z 00000KT 5SM BR SCT006 BKN090 BKN250 25/24 A3001=
KFLL 080653Z 07009KT 10SM FEW021 SCT029 SCT049 28/24 A2993=
KIAD 080652Z 31004KT 7SM FEW110 28/19 A2999=
KIAH 080653Z 08006KT 10SM FEW020 BKN130 BKN250 26/24 A2994=
KIND 080654Z 19003KT 9SM CLR 25/20 A3004=
KJAX 080656Z 27004KT 10SM CLR 20/19 A3001=
KJFK 080651Z 00000KT 1/2SM R04R/P6000FT FG OVC003 24/23 A3002=
KLAS 080656Z 21009KT 10SM CLR 30/M04 A2979=
KLAX 080653Z 27008KT 10SM BKN012 OVC015 17/13 A2992=
KLGA 080651Z 13005KT 6SM HZ FEW110 BKN250 27/23 A3001=
KLGC 080655Z AUTO 00000KT 10SM CLR 22/ A3003=
KLIT 080653Z 00000KT 7SM SCT150 24/23 A3005=
KLOU 080653Z AUTO 00000KT 7SM CLR 27/21 A3006=
KMCI 080653Z 32005KT 8SM SCT110 OVC130 22/22 A3007=
KMCO 080653Z 00000KT 10SM CLR 22/20 A3000=
KMEM 080653Z 00000KT 10SM SCT250 26/22 A3005=
KMIA 080653Z 04004KT 10SM FEW030 SCT250 28/24 A2994=
KMSP 080653Z 31006KT 10SM FEW090 21/17 A3006=
KMSY 080653Z 08003KT 10SM FEW250 27/23 A3000=
####018000576####
SAUS20 KNKA 080706
SPECI KACT 080704Z 15004KT 10SM SCT018 BKN038 26/23 A2998 RMK AO2=
METAR KLUF 080655Z AUTO 01003KT 10SM CLR 30/08 A2974 RMK AO2 SLP038
      T03030076 404130241 $=
METAR KNSE 080656Z AUTO 00000KT 1 1/2SM BR CLR 24/22 A3003 RMK AO2
      SLP153 T02390217 $=
SPECI KODO 080704Z AUTO 12009KT 8SM -RA BKN033 OVC110 22/20 A3009 
    RMK AO2 LTG DSNT W AND NW P0001=
SPECI KTYR 080705Z AUTO 14003KT 10SM BKN006 25/24 A3002 RMK AO2=
SPECI PACM 080704Z AUTO 18008KT 3SM RA FEW007 SCT024 BKN048 12/08 
    A3008 RMK AO2 TSNO BKN V SCT P0001 $=
####018000028####
SASA41 KWBC 080700
NIL=
####018000256####
SASA42 KWBC 080700
METAR
SCAC NIL=
SCHA NIL=
SCSE 080700Z 14003KT CAVOK 07/06 Q1017 NEFO PLAYA SKC=
SCTC 080700Z VRB01KT 7000 BKN015 OVC025 09/09 Q1015 RMK BR=
SCTI NIL=
SCVD NIL=
SELT NIL=
SUAG NIL=
SUDU NIL=
SUPU NIL=
SUTB NIL=
####018000028####
SASD41 KWBC 080700
NIL=
####018000028####
SASD42 KWBC 080700
NIL=
####018000311####
SASD43 KWBC 080700
METAR
OEMK NIL=
OEML NIL=
OEMU NIL=
OENG NIL=
OEOA NIL=
OEOF NIL=
OEOH NIL=
OEOS NIL=
OEOT NIL=
OEPA NIL=
OERC NIL=
OERF NIL=
OERG NIL=
OERL NIL=
OERR NIL=
OERX NIL=
OERY 080700Z 07012KT 4000 DU SKC 41/02 Q1009 NOSIG=
OESH NIL=
OESK NIL=
OESM NIL=
####018000028####
SASD44 KWBC 080700
NIL=
####018001621####
SASP31 KWBC 080700
METAR
LEAL 080700Z 05005KT 020V080 CAVOK 27/16 Q1018 NOSIG=
LEAM 080700Z VRB02KT CAVOK 30/10 Q1017=
LEAS 080700Z 06006KT 010V110 9999 4000S SCT010 SCT025TCU 19/18
     Q1017 TEMPO 4000 TSRA SCT025CB=
LEBB 080700Z VRB02KT 7000 FEW015 22/19 Q1016 NOSIG=
LEBL 080700Z 30004KT 250V360 CAVOK 26/19 Q1019 NOSIG=
LECO 080700Z 34009KT 300V010 8000 TS -RA FEW010 SCT012CB BKN016
     20/19 Q1016=
LEGE 080700Z 00000KT 9000 NSC 25/20 Q1019=
LEGR 080700Z VRB02KT 9999 SCT060 25/12 Q1018=
LEIB 080700Z 07003KT CAVOK 26/21 Q1019 NOSIG=
LEJR 080700Z VRB02KT CAVOK 22/19 Q1015=
LELC 080700Z 00000KT CAVOK 23/15 Q1018 NOSIG=
LELL 080700Z 27007KT CAVOK 24/16 Q1019=
LEMD 080700Z 34005KT 310V010 CAVOK 25/14 Q1019 NOSIG=
LEMG 080700Z 17005KT 140V210 9999 FEW040 27/16 Q1016 NOSIG=
LEMH 080700Z 00000KT CAVOK 27/20 Q1020=
LEPA 080700Z 00000KT CAVOK 26/18 Q1020 BECMG 22010KT=
LEPP 080700Z 00000KT CAVOK 23/16 Q1020=
LERS 080700Z 05003KT 360V080 9999 FEW045 24/20 Q1019=
LESO 080700Z 00000KT CAVOK 22/18 Q1016=
LEST 080700Z VRB06KT 6000 VCTS SCT005 SCT024CB 16/16 Q1014
     NOSIG=
LETO 080700Z 05004KT 020V080 CAVOK 25/13 Q1019 NOSIG=
LEVC 080700Z 28003KT 240V320 CAVOK 25/20 Q1019 NOSIG=
LEVD 080700Z 09006KT 060V120 CAVOK 23/13 Q1019=
LEVS 080700Z 36004KT 300V050 CAVOK 25/12 Q1020=
LEVT 080700Z 00000KT 9999 FEW035 21/18 Q1019=
LEVX 080700Z VRB02KT 9999 0800N R20/0500VP2000U PRFG NSC 19/18
     Q1014=
LEXJ 080700Z VRB01KT 8000 FEW012 BKN017 21/19 Q1016=
LEZG 080700Z 09008KT CAVOK 26/17 Q1019=
LEZL 080700Z 28007KT 9999 FEW040 25/19 Q1015 NOSIG=
####018000028####
SATN41 KWBC 080700
NIL=
####018000918####
SAUS31 KWBC 080700 RRA
METAR
KOAK 080653Z 29010KT 10SM BKN011 14/11 A2993=
KOKC 080652Z 06003KT 10SM FEW023 SCT150 24/22 A3004=
KONT 080653Z 25006KT 7SM SCT015 15/12 A2991=
KORD 080651Z 30004KT 10SM -TSRA BKN033CB OVC100 23/22 A3004=
KORF 080651Z 10004KT 4SM BR CLR 26/24 A2995=
KPBI 080653Z 05007KT 10SM SCT032 SCT250 28/23 A2994=
KPHF 080654Z 09004KT 3SM BR FEW090 24/23 A2996=
KPHL 080654Z 11003KT 8SM FEW150 26/22 A3001=
KPHX 080651Z 00000KT 10SM FEW120 35/01 A2974=
KPIT 080651Z 00000KT 7SM CLR 23/18 A3008=
KRDU 080651Z 00000KT 7SM FEW090 26/19 A2997=
KSAN 080651Z 31004KT 10SM OVC016 17/13 A2993=
KSEA 080653Z 35007KT 10SM CLR 23/12 A2994=
KSFO 080656Z 29009KT 10SM FEW008 14/10 A2992=
KSTL 080651Z 23004KT 10SM FEW027 SCT050TCU BKN075 BKN150 BKN250
     27/23 A3004=
KSWF NIL=
KTEB 080651Z 20004KT 5SM HZ CLR 26/22 A3000=
KTPA 080653Z 00000KT 10SM SCT250 26/21 A3001=
####018000615####
SATS31 KWBC 080700
METAR
DTMB 080700Z 28006KT CAVOK 26/20 Q1019 NOSIG=
DTTA 080700Z 27008KT 240V300 9999 FEW026 25/18 Q1019 NOSIG=
DTTB 080700Z 32008KT 9999 SCT020 26/19 Q1020=
DTTD 080700Z 09004KT 040V150 8000 SCT020 23/17 Q1021=
DTTG 080700Z 10010KT 9999 FEW020 25/20 Q1019 NOSIG=
DTTJ 080700Z 07002KT 8000 FEW020 27/23 Q1019 NOSIG=
DTTK 080700Z 00000KT CAVOK 27/19 Q1019=
DTTL 080700Z 29006KT CAVOK 25/20 Q1018=
DTTN 080700Z 23006KT CAVOK 24/15 Q1019=
DTTR 080700Z 06006KT CAVOK 24/15 Q1020=
DTTX 080700Z 06004KT CAVOK 27/19 Q1019 NOSIG=
DTTZ 080700Z 09012KT CAVOK 28/24 Q1019 NOSIG=
####018001306####
SAUR31 KWBC 080700
METAR
UKBB 080700Z 31003MPS 270V340 9999 SCT014 23/19 Q1013 88CLRD95
     NOSIG=
UKCC 080700Z 00000MPS CAVOK 26/18 Q1015 08090070 NOSIG=
UKCW 080700Z VRB01MPS 9999 BKN040 28/15 Q1015 2709//70 NOSIG=
UKDD 080700Z VRB02MPS CAVOK 26/19 Q1014 08090070 NOSIG=
UKDE 080700Z 25003MPS 210V290 9999 BKN050TCU 26/21 Q1014 20CLRD70
     NOSIG=
UKDR 080700Z 25004MPS 9999 SCT033 OVC200 26/20 Q1013 1809//70
     NOSIG=
UKFF 080700Z VRB02MPS 9999 FEW033 26/18 Q1013 19010070 NOSIG=
UKHH 080700Z VRB01MPS 9999 FEW046 SCT200 26/18 Q1014 080///65
     NOSIG=
UKKE NIL=
UKKK 080700Z 30002MPS 9999 BKN012 21/18 Q1014 08CLRD70 NOSIG=
UKKM 080700Z 30002MPS 8000 SCT010 OVC016 21/18 Q1014 33CLRD70
     NOSIG=
UKLI 080700Z 26005MPS 3000 -SHRA BKN008 BKN017CB 14/13 Q1019
     28290565 NOSIG=
UKLL 080700Z 32003MPS 260V030 9999 SCT024CB BKN024 16/12 Q1020
     31210365 NOSIG=
UKLN 080700Z 29005MPS 260V330 9999 BKN010 BKN033CB 16/15 Q1018
     3309//70 NOSIG=
UKLR 080700Z 31004MPS 250V340 9999 BKN017 OVC100 18/14 Q1017
     30090070 NOSIG=
UKLT NIL=
UKLU 080700Z 36007MPS 9999 FEW040 SCT200 19/10 Q1020 10290060
     NOSIG=
UKON 080700Z 33003MPS 280V020 CAVOK 24/19 Q1013 05090075 NOSIG=
UKOO 080700Z 35005MPS CAVOK 22/17 Q1014 34090070 NOSIG=
####018000028####
SAVN42 KWBC 080700
NIL=
####018001480####
SAXX61 KWBC 080700
METAR
EDAD NIL=
EDAH 080650Z 14004KT 110V170 CAVOK 19/11 Q1022=
EDAR NIL=
EDAS NIL=
EDDS 080650Z VRB02KT CAVOK 20/10 Q1022 NOSIG=
EDEB NIL=
EDEH NIL=
EDEU NIL=
EDIC NIL=
EDID NIL=
EDIE NIL=
EDIH NIL=
EDIK NIL=
EDMA 080650Z 13004KT 080V200 CAVOK 19/11 Q1022=
EGPK 080650Z 21013KT 9999 FEW020 SCT048 14/10 Q1013=
EGUA NIL=
EGUL 080655Z AUTO 22009KT 9999 FEW023 BKN031 18/16 A3005 RMK AO2
     DZB0600E0620 SLP176 P0000 T01790159=
EGUN 080655Z AUTO 23009KT 9999 FEW006 BKN022 OVC028 17/17 A3006
     RMK AO2 RAE0607B0624E0647 SLP167 P0000 T01690169=
EGVA 080655Z AUTO 26007KT 9999 FEW038 16/14 A3008 RMK AO2 SLP187
     T01600137=
EGVJ NIL=
EGWZ NIL=
ETAD 080655Z AUTO 07003KT 9999 CLR 22/12 A3016 RMK AO2 SLP199
     T02180121 $=
ETAR 080655Z AUTO 11003KT 9999 CLR 20/13 A3015 RMK AO2 SLP202
     T01980130 $=
KQHT 080655Z 32005KT 9999 FEW120 SCT250 33/M09 A2995 RMK SLP102
     WND DATA ESTMD ALSTG/SLP ESTMD=
KQIR 080655Z 05004KT 8000 HZ CLR 39/25 A2956 RMK AO2A SLP008
     T03900255=
KQJL NIL=
KQUZ NIL=
LEMO 080700Z VRB02KT CAVOK 23/19 Q1015 NOSIG=
LERT NIL=
LICZ NIL=
LIRN 080650Z 05010KT CAVOK 24/13 Q1019=
LIYW 080655Z AUTO 00000KT 9999 SCT050 BKN065 23/13 A3020 RMK AO2
     CIG 050 RWY23 SLP226 T02260125=
LPLA 080700Z 17003KT 9999 FEW018 BKN028 19/18 Q1024=
LTAC 080650Z 04014KT 9999 SCT040 23/15 Q1014 NOSIG=
LTAG 080650Z 21007KT 9999 BKN035 28/22 Q1008 NOSIG=
####018001222####
SAXX62 KWBC 080700
METAR
FJDG NIL=
FUDG NIL=
PHBK 080656Z AUTO 27005KT 10SM SCT080 27/19 A3001 RMK AO2 SLP164
     T02720194 TSNO $=
PHHI 080655Z AUTO 05005KT 10SM FEW035 SCT055 22/18 A3005 RMK AO2
     SLP167 T02180180=
PHNG 080657Z 06006KT 10SM SCT026 BKN040 25/20 A3004 RMK AO2 SLP168
     T02500200 $=
PHSF NIL=
PJON NIL=
PKMJ NIL=
PKWA 080700Z AUTO 08015KT 3SM RA BKN007 BKN021 OVC044 26/23 A2983
     RMK AO2 P0028 T02550234=
PMDY 080656Z AUTO 00000KT 10SM CLR 27/20 A3011 RMK AO2 TSNO
     T02660200 SLP501=
PTSA NIL=
PWAK 080652Z 08015G18KT 8SM HZ FEW020 FEW030 28/24 A2996 RMK
     AO2A=
RJOI 080700Z 16006KT 9000 HZ FEW030 SCT150 BKN200 28/22 A2977 RMK
     SLP082 T02780222=
RJTA NIL=
RJTX NIL=
RJTY 080655Z AUTO 18009KT 9999 CLR 29/22 A2984 RMK AO2 SLP098
     T02890224 $=
RKJJ NIL=
RKJK NIL=
RKNC NIL=
RKPK 080700Z 12008KT 9999 SCT030 BKN200 25/17 Q1008 NOSIG=
RKSB NIL=
RKSG NIL=
RKSK NIL=
RKSM NIL=
RKSO 080655Z AUTO 26007KT 9999 FEW100 27/23 A2977 RMK AO2 SLP084
     T02720227 $=
RKST NIL=
RKSY NIL=
RKTG NIL=
RKTH NIL=
RODN 080655Z AUTO 19011KT 9999 BKN022 BKN029 30/26 A2982 RMK AO2
     CIG 020V026 SLP096 T03000259=
####018003717####
SAXX99 KWBC 080700 RRA
METAR
CYYN NIL=
CYYU NIL=
CYYY NIL=
CYZE NIL=
CYZG NIL=
CYZH NIL=
CYZP NIL=
CYZR NIL=
CYZS NIL=
CYZT NIL=
CYZU NIL=
CYZW NIL=
CZCP NIL=
CZEM NIL=
CZEV NIL=
CZFA NIL=
CZFM NIL=
CZFN NIL=
CZFS NIL=
CZHY NIL=
CZMU NIL=
CZOL NIL=
CZPC NIL=
CZPS NIL=
CZSM NIL=
CZST NIL=
CZUM NIL=
DAAD NIL=
DAAE NIL=
DAAJ NIL=
DAAP NIL=
DAAS NIL=
DAAV NIL=
DAAY NIL=
DABO NIL=
DABT NIL=
DAFH NIL=
DAMR NIL=
DAOB NIL=
DAOF NIL=
DAOL NIL=
DAOR NIL=
DAOV NIL=
DATG NIL=
DATM NIL=
DAUB NIL=
DAUE NIL=
DAUI NIL=
DAUK NIL=
DAUL NIL=
DAUO NIL=
DAUS NIL=
DAUT NIL=
DAUU NIL=
DFFD NIL=
DFOO NIL=
DJ21 NIL=
DNEN NIL=
DNIB NIL=
DRZR NIL=
DTKA 080700Z 26008KT 9999 FEW023 26/16 Q1019 NOSIG=
DTTF 080700Z 03006KT CAVOK 26/16 Q1019 NOSIG=
DTTH NIL=
DUPE NIL=
EATR NIL=
EATZ NIL=
EDAC 080650Z 18005KT CAVOK 20/13 Q1022=
EDDE 080650Z 18003KT CAVOK 19/11 Q1022 NOSIG=
EDFH 080650Z 12006KT CAVOK 21/10 Q1022=
EDGS 080650Z 18007KT CAVOK 21/10 Q1022=
EDHK NIL=
EDLV 080650Z VRB03KT CAVOK 23/12 Q1019=
EDOP 080650Z 16005KT 130V190 CAVOK 22/12 Q1021=
EDRZ 080650Z VRB02KT CAVOK 21/14 Q1021=
EDSB 080650Z VRB02KT CAVOK 21/14 Q1021=
EDTL 080650Z VRB01KT CAVOK 21/14 Q1020=
EEKA 080650Z 31009KT CAVOK 20/14 Q1016=
EEKA 080650Z NIL=
EEKE 080650Z 35008KT CAVOK 20/12 Q1016=
EEKE 080650Z NIL=
EEPU 080650Z 32004KT 290V350 9999 FEW008 21/18 Q1014=
EETU 080650Z VRB02KT 9999 BKN012 23/20 Q1013=
EFCA NIL=
EFET 080650Z AUTO 16006KT 110V220 CAVOK 17/10 Q1015=
EFHA 080650Z 07004KT 020V110 9999 BKN007 BKN070 19/17 Q1015=
EFJO 080650Z 00000KT CAVOK 24/19 Q1015=
EFKA 080650Z 00000KT 9999 FEW007 SCT015 20/16 Q1016=
EFKI 080650Z AUTO 34005KT 280V030 CAVOK 18/14 Q1016=
EFKS 080650Z 03003KT 9999 BKN018 15/10 Q1017=
EFKT 080650Z AUTO 17008KT 120V200 CAVOK 18/09 Q1016=
EFLP 080650Z 36006KT 320V040 CAVOK 26/19 Q1013=
EFMI 080650Z AUTO VRB02KT CAVOK 25/19 Q1014=
EFSA 080650Z 36004KT 320V050 CAVOK 22/20 Q1014=
EFSI 080650Z AUTO VRB02KT CAVOK 21/15 Q1016=
EFUT 080650Z VRB04KT CAVOK 27/17 Q1014=
EFVR 080655Z NIL=
EGCN 080650Z 23008KT CAVOK 16/11 Q1017=
EGDX 080650Z AUTO 27001KT //// // OVC100/// 16/12 Q1018=
EGEC 080650Z NIL=
EGHK 080650Z 00000KT 9999 FEW028 15/14 Q1018=
EGMH 080650Z NIL=
EGNO NIL=
EGNR 080650Z 21007KT 9999 FEW025 15/11 Q1017=
EGOM 080650Z AUTO 23011KT 9999NDV // BKN011/// BKN016/// 12/10
     Q1014=
EGOP 080650Z AUTO 23004KT 9999NDV // FEW018/// SCT090/// 16/13
     Q1018=
EGPI 080650Z AUTO 21014KT 9999NDV // NSC 14/10 Q1011=
EGPI 080650Z NIL=
EGQA NIL=
EGTG 080650Z 26004KT 9999 BKN014 16/13 Q1019=
EGUB 080650Z 23003KT 9999 FEW008 SCT015 OVC025 16/15 Q1019 BECMG
     BKN025=
EGUB 080650Z NIL=
EGUB 080650Z 23003KT 9999 FEW008 SCT015 OVC025 16/15 Q1019 WHT
     BECMG BKN025 BLU=
EGUW 080650Z 21008KT 9999 FEW008 OVC014 18/15 Q1018 GRN TEMPO 4000
     -RADZ GRN=
EGUY NIL=
EGVN 080650Z 26005KT 9999 SCT030 SCT140 BKN200 16/11 Q1019
     NOSIG=
EGVN 080650Z 26005KT 9999 SCT030 SCT140 BKN200 16/11 Q1019 BLU
     NOSIG=
EGVO 080650Z 22007KT 4000 -RADZ OVC003 16/16 Q1019 YLO2=
EGVP 080650Z 31005KT 3500 -RADZ SCT005 OVC009 16/15 Q1019 YLO1
     BECMG 9999 NSW BKN008 GRN=
EGWC 080650Z 23008KT 9999 SCT018 BKN090 14/10 Q1018=
EGWU 080702Z 24007KT 3000 RADZ SCT008 OVC010 17/16 Q1019 YLO1
     TEMPO 4000 GRN=
EGWU 080657Z 24007KT 7000 -RADZ FEW008 OVC010 17/16 Q1019 GRN
     TEMPO 4000 GRN=
EGWU 080650Z 23007KT 9999 -RADZ FEW008 OVC010 18/15 Q1019 TEMPO
     6000=
EGWU 080650Z 23007KT 9999 -RADZ FEW008 OVC010 18/15 Q1019 GRN
     TEMPO 6000 GRN=
####018003747####
SAXX99 KWBC 080700
METAR
A29E NIL=
ANYN NIL=
APCL NIL=
ARND NIL=
ASSW NIL=
AT20 NIL=
ATAR NIL=
AVOK NIL=
AYMO NIL=
AZNZ NIL=
BAJO NIL=
BGAA 080655Z NIL=
BGMQ 080650Z AUTO 29005KT 260V320 9999NDV OVC002/// 05/05
     Q1009=
BGQQ 080650Z AUTO 17004KT 0450NDV FG ///000/// 05/// Q1011 RMK
     ///=
BGSS 080650Z AUTO 27003KT 0200NDV FG ///001/// ///004/// 04/04
     Q1009 RMK /// ///=
BGUK 080650Z AUTO 00000KT 9999NDV NCD 05/02 Q1010=
BGUQ 080655Z NIL=
BH31 NIL=
BKPR 080700Z VRB03KT 9999 SCT035 BKN070 15/10 Q1020 NOSIG RMK
     BLU=
BOVE NIL=
CHEC NIL=
CI41 NIL=
CMBB NIL=
CMBR NIL=
CMCT NIL=
CMCW NIL=
CMFM NIL=
CMGB NIL=
CMHN NIL=
CMHW NIL=
CMLA NIL=
CMPD NIL=
CMPL NIL=
CMRI NIL=
CMRU NIL=
CMRY NIL=
CMSB NIL=
CMSC NIL=
CMSX NIL=
CMYT NIL=
CPBT NIL=
CPEH NIL=
CPFI NIL=
CPIR NIL=
CPRO NIL=
CPRY NIL=
CPST NIL=
CPSV NIL=
CPXL NIL=
CQCM 080700Z 27005KT 8SM SKC 42/19 A2957 RMK WND/ALTM ESTD
     T04190189=
CTAE NIL=
CTAL NIL=
CTCK NIL=
CTCW NIL=
CTWN NIL=
CWAE NIL=
CWBU NIL=
CWCA NIL=
CWCL NIL=
CWDL NIL=
CWEU NIL=
CWFD NIL=
CWGZ NIL=
CWHN NIL=
CWIK NIL=
CWIL NIL=
CWKM NIL=
CWKW NIL=
CWLI NIL=
CWLX NIL=
CWLY NIL=
CWMT NIL=
CWOB NIL=
CWRH NIL=
CWRX NIL=
CWSA NIL=
CWSW NIL=
CWTU NIL=
CWUP NIL=
CWUW NIL=
CWVD NIL=
CWVH NIL=
CWWU NIL=
CWXR NIL=
CWYK NIL=
CWYM NIL=
CWZZ NIL=
CXAK NIL=
CXDB NIL=
CXFM NIL=
CXHD NIL=
CXHP NIL=
CXMG NIL=
CXMO NIL=
CXOL NIL=
CXPL NIL=
CXSC NIL=
CXSL NIL=
CXSP NIL=
CXTH NIL=
CXVM NIL=
CXVW NIL=
CYAH NIL=
CYAM NIL=
CYAS NIL=
CYAY NIL=
CYAZ NIL=
CYBB NIL=
CYBC NIL=
CYBD NIL=
CYBK NIL=
CYBL NIL=
CYBN NIL=
CYBR NIL=
CYBU NIL=
CYBV NIL=
CYBW NIL=
CYBX NIL=
CYCB NIL=
CYCD NIL=
CYCG NIL=
CYCO NIL=
CYCP NIL=
CYCQ NIL=
CYCS NIL=
CYCX NIL=
CYCY NIL=
CYDA NIL=
CYDB NIL=
CYDC NIL=
CYDF NIL=
CYDN NIL=
CYDP NIL=
CYED NIL=
CYEK NIL=
CYEL NIL=
CYEN NIL=
CYET NIL=
CYEV NIL=
CYFO NIL=
CYFR NIL=
CYFS NIL=
CYGE NIL=
CYGH NIL=
CYGK NIL=
CYGP NIL=
CYGQ NIL=
CYGR NIL=
CYGT NIL=
CYGV NIL=
CYGW NIL=
CYGX NIL=
CYHA NIL=
CYHD NIL=
CYHE NIL=
CYHH NIL=
CYHI NIL=
CYHK NIL=
CYHM NIL=
CYHU NIL=
CYHY NIL=
CYIK NIL=
CYIO NIL=
CYIV NIL=
CYJF NIL=
CYKA NIL=
CYKD NIL=
CYKF NIL=
CYKG NIL=
CYKJ NIL=
CYKO NIL=
CYKQ NIL=
CYKY NIL=
CYKZ NIL=
CYLD NIL=
CYLJ NIL=
CYLK NIL=
CYLL NIL=
CYLT NIL=
CYLU NIL=
CYLW NIL=
CYMA NIL=
CYMJ NIL=
CYMM NIL=
CYMO NIL=
CYMT NIL=
CYMU NIL=
CYNA NIL=
CYNC NIL=
CYND NIL=
CYNE NIL=
CYNM NIL=
CYOA NIL=
CYOC NIL=
CYOD NIL=
CYOJ NIL=
CYOY NIL=
CYPA NIL=
CYPC NIL=
CYPE NIL=
CYPG NIL=
CYPH NIL=
CYPQ NIL=
CYPR NIL=
CYPW NIL=
CYPX NIL=
CYPY NIL=
CYQA NIL=
CYQD NIL=
CYQF NIL=
CYQH NIL=
CYQI NIL=
CYQK NIL=
CYQL NIL=
CYQR NIL=
CYQT NIL=
CYQU NIL=
CYQV NIL=
CYQW NIL=
CYQZ NIL=
CYRA NIL=
CYRJ NIL=
CYRL NIL=
CYRT NIL=
CYRV NIL=
CYSB NIL=
CYSC NIL=
CYSD NIL=
CYSF NIL=
CYSK NIL=
CYSL NIL=
CYSM NIL=
CYSN NIL=
CYSR NIL=
CYSY NIL=
CYTH NIL=
CYTJ NIL=
CYTQ NIL=
CYTS NIL=
CYTZ NIL=
CYUA NIL=
CYUB NIL=
CYUS NIL=
CYUT NIL=
CYUX NIL=
CYVC NIL=
CYVM NIL=
CYVO NIL=
CYVQ NIL=
CYVT NIL=
CYVV NIL=
CYWA NIL=
CYWH NIL=
CYWJ NIL=
CYWL NIL=
CYWO NIL=
CYWY NIL=
CYXC NIL=
CYXD NIL=
CYXE NIL=
CYXH NIL=
CYXJ NIL=
CYXL NIL=
CYXN NIL=
CYXP NIL=
CYXQ NIL=
CYXR NIL=
CYXS NIL=
CYXT NIL=
CYXZ NIL=
CYYB NIL=
CYYD NIL=
CYYE NIL=
CYYF NIL=
CYYG NIL=
CYYH NIL=
CYYL NIL=
####018003748####
SAXX99 KWBC 080700 RRB
METAR
EGXC 080650Z 25007KT 9999 FEW030 SCT090 OVC110 16/11 Q1017
     NOSIG=
EGXC 080650Z NIL=
EGXC 080650Z 25007KT 9999 FEW030 SCT090 OVC110 16/11 Q1017 BLU
     NOSIG=
EGXD 080650Z 20003KT 9999 FEW020 BKN110 OVC200 15/11 Q1016 BLU
     NOSIG=
EGXE 080650Z 20007KT 9999 FEW020 BKN100 15/12 Q1015 BLU NOSIG=
EGXG 080650Z 26007KT CAVOK 15/10 Q1016 BLU=
EGXJ 080650Z AUTO 24009KT 9999NDV // BKN110/// SCT170/// 16/10
     Q1017=
EGXT 080650Z 23007KT 9999 FEW020 BKN120 BKN150 16/10 Q1017=
EGXT 080650Z NIL=
EGXT 080650Z 23007KT 9999 FEW020 BKN120 BKN150 16/10 Q1017 BLU=
EGXU 080650Z 20007KT 9999 FEW020 SCT090 OVC120 15/11 Q1016 BLU
     NOSIG=
EGXW 080650Z 24008KT CAVOK 15/10 Q1017 BLU NOSIG=
EGXX 080650Z AUTO 22007KT 9999NDV // NCD ///// Q////=
EGXZ 080650Z 18004KT CAVOK 15/11 Q1016 BLU=
EGYC NIL=
EGYD 080650Z 24009KT CAVOK 16/10 Q1017 NOSIG=
EGYD 080650Z NIL=
EGYD 080650Z 24009KT CAVOK 16/10 Q1017 BLU NOSIG=
EGYE NIL=
EGYH NIL=
EGYM 080650Z 25008KT 9999 -RA SCT012 BKN020 BKN045 18/16 Q1017 GRN
     BECMG SCT025 BLU=
EGYP NIL=
EGYW NIL=
EKGF 080650Z 21014KT CAVOK 16/16 Q////=
ENBS 080650Z 15003KT 120V190 9999 FEW002 BKN005 09/08 Q1016=
ENDR 080650Z NIL=
ENHE 080650Z 19019KT 9999 FEW015 SCT030 14/11 Q1008=
ENHK 080650Z 10014KT CAVOK 15/08 Q1012=
ENSS 080650Z 31009KT 9999 BKN003 09/08 Q1017=
EPLL NIL=
EPWR 080700Z 18004KT 140V230 CAVOK 20/11 Q1024=
EQAC NIL=
EQAV NIL=
EQBA NIL=
EQBC NIL=
EQBF NIL=
ERAR NIL=
ESGR 080650Z AUTO 20010KT 9999NDV BKN044/// 19/13 Q1018=
ESGT 080650Z 18009KT 9999 OVC040 18/13 Q1017=
ESKM 080650Z NIL=
ESMQ 080650Z VRB01KT CAVOK 21/13 Q1020=
ESMT 080650Z 17010KT CAVOK 19/14 Q1020=
ESNG 080650Z NIL=
ESNK 080650Z AUTO 15011KT 9999NDV NCD 18/13 Q1013=
ESNL 080650Z AUTO 14014KT 9999NDV SCT082/// 20/11 Q1013=
ESNX 080650Z AUTO 14009KT 9999NDV BKN082/// 17/11 Q1014=
ESNY 080650Z AUTO 23005KT 180V280 9999 SKC 20/14 Q1014=
ESOE 080650Z 22011KT 9999 FEW042 18/12 Q1018=
ESSF 080650Z NIL=
ESSK 080650Z NIL=
ESSL 080650Z 25007KT 220V290 CAVOK 20/11 Q1019=
ESTA 080650Z 17007KT CAVOK 19/14 Q1020=
ESTL 080650Z AUTO 21010KT 9999NDV FEW073/// 21/14 Q1020=
ESUD 080650Z NIL=
ESUT 080650Z AUTO 17009KT 130V210 9999NDV BKN084/// 16/09
     Q1010=
ETER NIL=
ETGG NIL=
ETGY NIL=
ETGZ NIL=
ETHA NIL=
ETHB NIL=
ETHC NIL=
ETHE NIL=
ETHF NIL=
ETHL NIL=
ETHM NIL=
ETHN NIL=
ETHR NIL=
ETHS NIL=
ETME NIL=
ETMN NIL=
ETND NIL=
ETNH NIL=
ETNJ NIL=
ETNL NIL=
ETNN NIL=
ETNP NIL=
ETNS NIL=
ETNT NIL=
ETNU NIL=
ETNW NIL=
ETOU 080655Z AUTO 00000KT 9999 CLR 22/12 A3016 RMK AO2 SLP208
     T02230121=
ETSA NIL=
ETSB NIL=
ETSE NIL=
ETSH NIL=
ETSI NIL=
ETSL NIL=
ETSN NIL=
ETUO 080650Z 00000KT CAVOK 23/12 Q1020 BLU NOSIG=
ETWM NIL=
EVLA 080650Z 32005KT 250V050 CAVOK 22/15 Q1017=
EVVA 080650Z AUTO 33011KT 300V360 9999 FEW012 21/18 Q1017=
EW09 NIL=
EW20 NIL=
EYAR NIL=
EYKA 080650Z 28007KT 250V330 9999 -RA NSC 17/15 Q1015=
EYPA 080650Z 33006KT 260V020 CAVOK 19/15 Q1017 NOSIG=
EYZR NIL=
FAAB NIL=
FAGC 080700Z AUTO 09013KT //// // ////// 09/06 Q1035=
FAJB 080700Z AUTO 09005KT //// // ////// 11/06 Q1035=
FAKD NIL=
FAKM NIL=
FAMM 080700Z 03013KT CAVOK 13/06 Q1033 NOSIG=
FANS NIL=
FAPP 080700Z 09008KT 8000 SCT020 13/08 Q1033 BECMG NSW=
FAPS NIL=
FARG NIL=
FASI 080700Z AUTO 08003KT //// // ////// 09/05 Q1035=
FASR NIL=
FAVE NIL=
FAVV 080700Z AUTO 07007KT //// // ////// 08/06 Q1034=
FBFG NIL=
FBGH NIL=
FBLT NIL=
FBPA NIL=
FBSN NIL=
FBWD NIL=
FDGZ NIL=
FDWD NIL=
FEFG NIL=
FKYS NIL=
FMEP 080700Z 11024KT 9999 FEW025 24/15 Q1023=
FMMS NIL=
####018003749####
SAXX99 KWBC 080700 RRC
METAR
FMNA NIL=
FMSD NIL=
FMST NIL=
FNBG NIL=
FNCA NIL=
FNCE NIL=
FNCZ NIL=
FNDU NIL=
FNGI NIL=
FNLB NIL=
FNMA NIL=
FNME NIL=
FNMI NIL=
FNMO NIL=
FNMQ NIL=
FNNG NIL=
FNSA NIL=
FNSP NIL=
FNSR NIL=
FNSU NIL=
FNTO NIL=
FNUB NIL=
FNUE NIL=
FNUG NIL=
FNZE NIL=
FOGM NIL=
FOGR NIL=
FOOB NIL=
FOOC NIL=
FOOD NIL=
FOOE NIL=
FOOK NIL=
FOOM NIL=
FOOR NIL=
FOOT NIL=
FOOY NIL=
FQCH 080700Z /////KT 9999 FEW009 BKN015 17/14 Q1031=
FQIN NIL=
FQLC NIL=
FQNP NIL=
FQPB NIL=
FQQL 080700Z 20004KT 9999 FEW020 23/21 Q1026=
FQTE NIL=
FQTT NIL=
FQVL NIL=
FQXX NIL=
FTTA NIL=
FTTC NIL=
FTTD NIL=
FVKB NIL=
FVWN NIL=
FYGO NIL=
FYML NIL=
FYOA 080700Z 06008KT CAVOK 14/03 Q1024=
FYOJ NIL=
FYOW NIL=
FYWE NIL=
FYWW NIL=
FZAB NIL=
FZOA NIL=
FZOS NIL=
FZRF NIL=
FZSA NIL=
GDAB NIL=
GMAD 080700Z 06005KT 8000 SCT020 20/17 Q1013 NOSIG=
GMFM 080700Z 00000KT 1500 BR SKC 21/19 Q1017=
GMMC 080700Z NIL=
GMML 080700Z NIL=
GMMW 080700Z 06008KT CAVOK 23/20 Q1016=
GMMZ 080700Z 00000KT 6000 NSC 29/00 Q1023=
GOIT NIL=
HCMF NIL=
HEAR NIL=
HEAT NIL=
HEIS NIL=
HESH NIL=
HETB NIL=
HKMV NIL=
HLLM NIL=
HTMT NIL=
HTSU NIL=
HUAR NIL=
HUGU NIL=
HUJI NIL=
HUKA NIL=
HUKB NIL=
HULI NIL=
HUMI NIL=
HUS0 NIL=
HUTO NIL=
HWRS NIL=
IKVG NIL=
JP30 NIL=
K4O4 NIL=
K5T6 NIL=
K8S0 NIL=
KARL NIL=
KAUD NIL=
KBFU NIL=
KBIT NIL=
KBRX NIL=
KBVR NIL=
KCBE NIL=
KCHJ NIL=
KCMS NIL=
KCTD NIL=
KDHS NIL=
KDRC NIL=
KEGI 080655Z AUTO 00000KT 10SM CLR 23/22 A3003 RMK AO2 SLP169
     T02300223 $=
KESN 080651Z AUTO 00000KT 5SM BR CLR 23/23 A3002 RMK AO2=
KFIR NIL=
KFME NIL=
KGYH 080655Z AUTO 29003KT 10SM CLR 25/19 A3003 RMK AO2=
KHLD NIL=
KIDV NIL=
KIKA NIL=
KPAT NIL=
KPIN NIL=
KPUM NIL=
KRIM NIL=
KSGE NIL=
KSHC NIL=
KSIB NIL=
KSKL NIL=
KTMH NIL=
KVDW NIL=
LBGO 080700Z VRB01MPS 9999 SCT033 OVC070 16/14 Q1016 NOSIG=
LDLO 080700Z 03011KT 9999 SCT050 24/09 Q1022=
LDSB 080700Z 01020KT CAVOK 19/07 Q1020=
LEAB 080700Z 17004KT 140V200 CAVOK 24/10 Q1021 NOSIG=
LEBA 080700Z VRB01KT 9999 FEW050 24/14 Q1015=
LEBR NIL=
LEBZ 080700Z 10002KT CAVOK 23/18 Q1015=
LEGA NIL=
LEGT NIL=
LELN 080700Z 02004KT 350V050 CAVOK 24/13 Q1019=
LERI NIL=
LESA 080700Z 00000KT CAVOK 24/16 Q1018=
LETO 080700Z 05004KT 020V080 CAVOK 25/13 Q1019 NOSIG=
LFBE 080700Z 07004KT 040V100 3000 NSC 20/16 Q1018 NOSIG=
LFBG 080700Z AUTO 08005KT 9999NDV NSC 22/15 Q1018=
LFCR 080700Z AUTO 11004KT 9999NDV NSC 22/12 Q1021=
LFJL 080700Z AUTO VRB01KT 9999NDV NSC 21/11 Q1021=
LFLX 080700Z 00000KT CAVOK 23/16 Q1019 NOSIG=
LFMI 080700Z AUTO VRB02KT 9999NDV NSC 27/13 Q1019=
LFMK 080700Z 08006KT CAVOK 23/13 Q1019 NOSIG=
LFMO 080700Z VRB01KT CAVOK 25/16 Q1020=
LFMU 080700Z AUTO 04005KT 010V080 9999NDV NSC 25/14 Q1019=
LFMV 080700Z AUTO VRB03KT 9999NDV NSC 25/17 Q1020=
LFOA 080700Z AUTO 13003KT 100V170 9999NDV NSC 22/14 Q1020=
LFOJ 080700Z VRB02KT CAVOK 24/16 Q1019=
LFOK 080700Z AUTO 16005KT 9999NDV NSC 21/13 Q1020=
LFQI 080700Z VRB01KT CAVOK 20/14 Q1019=
LGHI 080650Z 03007KT 9999 FEW020 27/17 Q1010=
LGKC 080650Z NIL=
LGNX 080650Z 35006KT 9999 FEW020 26/20 Q1011=
LGPA 080650Z NIL=
LGSO 080650Z 02009KT CAVOK 27/17 Q1011=
LHDC NIL=
LHKE NIL=
LHPP NIL=
LHSA NIL=
LHSN NIL=
LHUD NIL=
LICP NIL=
LIMP NIL=
LIMZ NIL=
LIRM NIL=
LKCS NIL=
LKCV 080700Z VRB01KT CAVOK 18/11 Q1024 NOSIG RMK BLU+ BLU+=
LKHO NIL=
LKKB NIL=
LKKU NIL=
LKKV 080700Z 00000KT CAVOK 16/10 Q1024=
LKLB NIL=
LKLN NIL=
LKNA 080700Z 36005KT 320V100 9999 FEW032 17/09 Q1024 NOSIG RMK
     BLU+ BLU+=
####018003741####
SAXX99 KWBC 080700 RRD
METAR
LKPD 080700Z VRB02KT CAVOK 17/10 Q1024 NOSIG RMK BLU+ BLU+=
LKPO 080700Z VRB01KT CAVOK 17/10 Q1023 NOSIG RMK BLU+ BLU+=
LLIB 080650Z 20005KT 9000 27/16 Q1011=
LLSD 080650Z 23009KT 9999 SCT026 28/21 Q1009=
LOAG NIL=
LOAN NIL=
LOGG NIL=
LOLF NIL=
LOXA NIL=
LOXN NIL=
LOXT 080650Z VRB03KT 50KM FEW300CI 18/12 Q1024 NOSIG RMK FEW=
LOXZ 080650Z VRB02KT 70KM SKC 13/09 Q1025 NOSIG RMK SKC=
LPAR NIL=
LQBK 080700Z 28003KT CAVOK 20/12 Q1022 NOSIG=
LQMO 080700Z 33006KT 9999 FEW045 23/08 Q1018=
LQTZ 080700Z VRB01KT 9999 FEW030 14/// Q1023=
LTAB 080650Z 04010KT 360V080 9999 FEW040 25/15 Q1013 NOSIG RMK
     RWY06 04009KT 360V090=
LTAE 080650Z 26004KT CAVOK 26/16 Q1013 NOSIG RMK RWY21 36006KT=
LTAZ 080650Z VRB02KT 9999 FEW040 SCT100 26/14 Q1013=
LTBR 080650Z 26004KT CAVOK 25/15 Q1011 NOSIG RMK RWY07 31002KT=
LTBR 080650Z 26004KT CAVOK 25/15 Q1011 NOSIG=
LTBR 080650Z NIL=
LTBU 080650Z 36015KT 9999 SCT030 BKN100 22/10 Q1013 RMK RWY23
     35017KT=
LTBU 080650Z 36015KT 9999 SCT030 BKN100 22/10 Q1013=
LTCD NIL=
LTCF 080650Z 03009KT 360V070 CAVOK 24/13 Q1020=
LTFC NIL=
LTFH 080650Z 28009KT 9999 SCT036 BKN100 25/22 Q1012 NOSIG=
LTFJ 080650Z 02015KT 9999 SCT035 24/17 Q1011 NOSIG=
LWIS NIL=
LZKC 080700Z 01006KT 330V070 9999 FEW033 19/11 Q1020=
LZLU 080700Z 27002KT 9999 FEW033 19/13 Q1021=
LZNI 080700Z 34011KT 300V020 CAVOK 20/09 Q1022=
LZPE 080700Z 35002KT 9999 FEW033 20/11 Q1022=
LZPP 080700Z 01007KT 330V050 CAVOK 19/11 Q1023=
LZSL 080700Z 23004KT 160V260 CAVOK 19/12 Q1021=
LZZI 080700Z 19001KT 9999 FEW040 18/10 Q1023=
MBCH NIL=
MDHE NIL=
METAR UHHH 080700Z 03007MPS 9999 BKN029CB OVC100 18/13 Q1010
     NOSIG=
METR NIL=
MGBP NIL=
MGGG NIL=
MGTK 080700Z 00000KT 9999 BKN014 BKN090 23/23 Q1012 A2989=
MH31 NIL=
MH40 NIL=
MHTR NIL=
MMAN NIL=
MMCB NIL=
MMCP NIL=
MMCT NIL=
MMEP NIL=
MMIA NIL=
MMIO NIL=
MMIT NIL=
MMLM NIL=
MMLO NIL=
MMLT NIL=
MMMV NIL=
MMOX NIL=
MMPA NIL=
MMPB NIL=
MMPG NIL=
MMPN NIL=
MMPS NIL=
MMQT NIL=
MMTB NIL=
MMTG NIL=
MMVA NIL=
MNBL NIL=
MNCH NIL=
MNJG NIL=
MNJU NIL=
MNRS NIL=
MO31 NIL=
MP31 NIL=
MPB0 NIL=
MSLU NIL=
MSSA NIL=
MSSM NIL=
MTAR NIL=
MUCC NIL=
MUCF NIL=
MUHG 080650Z 18004KT 140V210 CAVOK 24/22 Q1015=
MZ40 NIL=
N025 NIL=
N100 NIL=
N240 NIL=
N270 NIL=
NFLB NIL=
NFTL NIL=
NGTT NIL=
NVSC NIL=
NVSL NIL=
NVSS NIL=
NVVA NIL=
NVVW NIL=
OAHR NIL=
OBBC NIL=
OBBD NIL=
OBBF NIL=
OBBH NIL=
OBBJ NIL=
OBBR NIL=
OEDM NIL=
OEKJ NIL=
OIIE 080700Z 12012KT CAVOK 36/M06 Q1012 A2991 899.7 07:=
OSDZ 080700Z 02008KT CAVOK 32/15 Q1007=
OSIG NIL=
OSKL 080700Z 28007KT CAVOK 36/05 Q1006=
OYAG NIL=
OYAM NIL=
OYAT NIL=
OYDM NIL=
OYHJ NIL=
OYIB NIL=
OYRN NIL=
OYSH NIL=
OYSQ 080700Z 20045G55KT 8000 FEW018 SCT200 31/24 Q1007=
OYSY NIL=
P040 NIL=
P103 NIL=
P154 NIL=
PART NIL=
PCPN NIL=
PESI NIL=
PICE NIL=
PORT NIL=
PRXZ NIL=
RJBB 080700Z 24008KT 9999 FEW025 BKN/// 29/22 Q1007 NOSIG=
RJBH 080700Z 21012KT 9999 FEW030 BKN/// 28/21 Q1007=
RJBT 080700Z 36008KT 8000 FEW030 BKN/// 26/20 Q1009=
RJFS 080700Z 21004KT 170V240 9999 FEW035 BKN/// 30/21 Q1007=
RJGG 080700Z 12011KT 9999 FEW020 BKN/// 29/23 Q1008 NOSIG=
RJNW 080700Z 27006KT 230V310 9999 FEW020 BKN/// 26/20 Q1010=
RJOW 080700Z 36003KT 280V070 4500 BR FEW010 SCT015 OVC/// 24/21
     Q1009=
RJSF 080700Z 10005KT 9999 -SHRA FEW020 FEW025CB BKN030 24/21 Q1010
     RETS=
RJSR 080700Z 29006KT 240V320 9999 FEW030 26/21 Q1008=
RJSY 080700Z 30007KT 260V330 9999 FEW025 BKN/// 27/21 Q1008=
RKJY NIL=
RKNN NIL=
RKNR NIL=
RKPM NIL=
RKPS NIL=
####018000132####
SAXX99 KWBC 080700 CCA
METAR
EGHK 080650Z 00000KT 9999 FEW028 15/14 Q1018 NOSIG=
LLIB 080650Z 20005KT 9000 SKC 27/16 Q1011=
####018000093####
SAXX99 KWBC 080700 RRF
METAR
ZSTX NIL=
ZWSH NIL=
ZYCC NIL=
ZYMY NIL=
ZYTX NIL=
####018003748####
SAXX99 KWBC 080700 RRE
METAR
RKSC NIL=
RKTI NIL=
RKTL NIL=
RKTS NIL=
ROIG 080700Z 20013KT 9999 FEW015 BKN/// 31/26 Q1008=
ROKJ NIL=
ROMY 080700Z 21017KT 9999 FEW016 BKN/// 31/26 Q1008=
RORS 080700Z 21013KT 9999 FEW017 BKN/// 31/26 Q1008=
ROTM 080658Z 21014G22KT 9999 BKN020 BKN100 BKN180 27/26 A2983 RMK
     SLP086 T02670261=
ROYN NIL=
RPLI NIL=
RTAR NIL=
RTIR NIL=
RUMS NIL=
SAAJ NIL=
SABO NIL=
SADF NIL=
SADP NIL=
SAMM NIL=
SAMR NIL=
SANC NIL=
SANL NIL=
SAOC NIL=
SAOS NIL=
SAOU NIL=
SAPR NIL=
SAST NIL=
SATR NIL=
SAVE NIL=
SAVV NIL=
SAVY NIL=
SAWH NIL=
SAZR NIL=
SAZY NIL=
SCJO NIL=
SKAR NIL=
SKCC NIL=
SKEJ NIL=
SKIB NIL=
SKIP NIL=
SKLC NIL=
SKMR NIL=
SKMZ NIL=
SKNV NIL=
SKPC NIL=
SKPS NIL=
SKPV NIL=
SKRH NIL=
SKUC NIL=
SKUI NIL=
SKVP NIL=
SKVV NIL=
SLAS NIL=
SLET NIL=
SLGY NIL=
SLJV NIL=
SLSB NIL=
SLSM NIL=
SLTI NIL=
SSSA NIL=
STAC NIL=
SUME NIL=
SVCP NIL=
SVCZ NIL=
SVGD NIL=
SVJM NIL=
SVLO NIL=
SVVG NIL=
SYGO NIL=
T016 NIL=
T020 NIL=
T100 NIL=
TAAR NIL=
TEST NIL=
THIS NIL=
TNNC NIL=
TRPG NIL=
TSRA NIL=
TURE NIL=
TYAR NIL=
TZAR NIL=
UACK NIL=
UBBN 080700Z 08002KT 9999 NSC 33/11 Q1011 R14R/CLRD60 NOSIG RMK
     G/O QFE684=
UDYZ NIL=
UERP NIL=
UERR NIL=
UESO NIL=
UGKO NIL=
UGSB NIL=
UGSP NIL=
UHMG NIL=
UHNN NIL=
UHSH NIL=
ULDD NIL=
ULKK NIL=
ULOL NIL=
ULOO NIL=
ULWW NIL=
UMED NIL=
UMKK NIL=
UMOO NIL=
UNBB NIL=
UNEE NIL=
UNKL NIL=
UNOO NIL=
UNWW NIL=
UOII NIL=
URML NIL=
UTAN NIL=
UTKN NIL=
UTNC NIL=
UTO2 NIL=
UTO4 NIL=
UTO7 NIL=
UTO8 NIL=
UTTP NIL=
UWLL NIL=
UWOR NIL=
V130 NIL=
V150 NIL=
V290 NIL=
VCSH NIL=
VIBR NIL=
VIJP NIL=
VILK NIL=
VTBO NIL=
VTCH NIL=
VTCL NIL=
VTCN NIL=
VTCP NIL=
VTCT NIL=
VTPB NIL=
VTPH NIL=
VTPM NIL=
VTPO NIL=
VTPP NIL=
VTPT NIL=
VTSB NIL=
VTSC NIL=
VTSE NIL=
VTSF NIL=
VTSG NIL=
VTSK NIL=
VTSM NIL=
VTSR NIL=
VTST NIL=
VTUD NIL=
VTUI NIL=
VTUJ NIL=
VTUK NIL=
VTUL NIL=
VTUO NIL=
VTUQ NIL=
VTUU NIL=
VTUV NIL=
VTUW NIL=
W016 NIL=
W020 NIL=
W090 NIL=
W250 NIL=
WADD NIL=
WALL NIL=
WARR NIL=
WBGB 080700Z 27007KT 9999 FEW015CB BKN300 29/25 Q1007=
WBGR 080700Z 23002KT 9999 -TSRA SCT014 FEW015CB BKN150 27/25
     Q1008=
WBGS 080700Z 05005KT 9999 -SHRA FEW015CB SCT016 BKN150 26/25
     Q1009=
WBGY 080700Z 14003KT 9999 -SHRA FEW015CB SCT024 BKN150 27/25
     Q1007=
WBGZ NIL=
WBKL 080700Z 27007KT 9999 FEW012 FEW015CB BKN300 31/26 Q1007=
WBKS 080700Z 01002KT 9999 -TSRA FEW015 FEW016CB BKN140 25/24
     Q1008=
WBKT 080700Z 04007KT 9999 FEW016 BKN280 31/25 Q1007=
WBKW 080700Z 17005KT 9999 TS FEW016CB BKN300 31/24 Q1008=
WIHH NIL=
WMAU NIL=
WMBA NIL=
WMKA NIL=
WMKB NIL=
WMKC NIL=
WMKD NIL=
WMKI NIL=
WMKL NIL=
WMKM NIL=
WMKN NIL=
WTAR NIL=
XX39 NIL=
XX99 NIL=
YAMB NIL=
YBHM NIL=
YCIN NIL=
YFRT NIL=
YMAV NIL=
YMLT NIL=
YPGV NIL=
YPKG NIL=
YPKU 080700Z 15006KT CAVOK 27/14 Q1012=
YSTW 080700Z AUTO 13012KT 9999NDV // SCT049 BKN058 15/05 Q1022=
YSWG 080700Z 00000KT 9999 FEW035 12/04 Q1026=
YTEF 080700Z AUTO 05007KT //// // ////// 21/15 Q1012=
YTNK 080700Z AUTO 10007KT 9999NDV // NCD 19/12 Q1017=
YTRE 080700Z AUTO 22003KT //// // ////// 13/12 Q1023=
YWGT 080700Z AUTO 00000KT //// // ////// 12/07 Q1026=
YWHA 080700Z AUTO 11008KT 9999NDV // NCD 14/03 Q1023=
YWLM 080700Z 26006KT 9999 VCSH SCT020 BKN040 13/12 Q1024 INTER
     0700/1000 4000 SHRA BKN010=
ZBHH NIL=
ZBLA NIL=
ZBSJ NIL=
ZBYC NIL=
ZGHA NIL=
ZGKL NIL=
ZGOW NIL=
ZJHK NIL=
ZLXY NIL=
ZSQD NIL=
####018000392####
SAXX99 KWBC 080600 RRX
METAR
LHDC 080645Z 02010KT CAVOK 19/12 Q1020 NOSIG=
LHKE 080645Z 07005MPS CAVOK 22/10 Q1020 NOSIG RMK BLU=
LHPP 080645Z 33005KT CAVOK 19/11 Q1023 NOSIG=
LHSN 080645Z 04002MPS CAVOK 21/12 Q1021 NOSIG RMK BLU=
LHUD 080645Z 32005KT CAVOK 17/15 Q1022=
LIRM 080555Z 06012KT 020V100 9999 FEW035 25/20 Q1018 RMK SCT VIS
     MIN 9999 WIND THR06 05012KT BLU=
####018001689####
SAUS41 KWBC 080700
METAR
K40B NIL=
KABE 080651Z 33003KT 8SM CLR 23/20 A3002=
KAGC 080653Z 00000KT 6SM HZ CLR 24/18 A3008=
KAKR 080654Z AUTO 00000KT 6SM HZ CLR 22/19 A3009=
KALB 080651Z 00000KT 6SM HZ CLR 24/21 A3002=
KART 080656Z AUTO 00000KT 7SM CLR 22/20 A3002=
KAVP 080654Z 11005KT 7SM CLR 22/18 A3005=
KBAF 080653Z 00000KT 9SM CLR 24/21 A3003=
KBDL 080651Z 17007KT 7SM BKN110 25/21 A3003=
KBDR 080652Z AUTO 05005KT 4SM BR FEW090 SCT110 24/22 A3003=
KBED 080656Z AUTO 21003KT 2 1/2SM BR OVC009 23/22 A3003=
KBTV 080654Z 00000KT 5SM BR OVC055 24/22 A3001=
KBUF 080654Z 19004KT 9SM CLR 23/20 A3006=
KBVY 080653Z 16006KT 6SM BR OVC009 23/21 A3004=
KCAE 080656Z 26004KT 10SM CLR 26/18 A2999=
KCAK 080651Z 00000KT 7SM CLR 22/18 A3009=
KCEF 080655Z AUTO 00000KT 10SM BKN090 25/22 A3003=
KCMH 080651Z 00000KT 9SM CLR 24/19 A3007=
KCRQ 080653Z AUTO 27003KT 10SM OVC012 17/13 A2991=
KCRW 080654Z 00000KT 4SM BR CLR 22/20 A3008=
KCTZ 080700Z AUTO 00000KT 7SM CLR 24/22 A2993=
KDAY 080656Z 23004KT 9SM CLR 24/18 A3009=
KDOV 080655Z AUTO 00000KT 4SM BR FEW003 SCT110 24/24 A2998=
KERI 080651Z 00000KT 9SM CLR 22/18 A3006=
KEWB 080653Z AUTO 14004KT 10SM SCT008 OVC029 23/21 A3006=
KFDK NIL=
KFVE 080653Z AUTO 03003KT 9SM CLR 23/22 A3000=
KGON 080656Z AUTO 11008KT 7SM OVC009 23/21 A3004=
KGSO 080654Z 00000KT 8SM SCT090 26/18 A3001=
KGSP 080653Z AUTO 00000KT 10SM CLR 24/19 A3002=
KHPN 080656Z 12003KT 4SM BR CLR 23/21 A3003=
KHTS 080651Z 00000KT 2 1/2SM BR CLR 22/21 A3007=
KHUL 080653Z AUTO 21005KT 7SM CLR 22/18 A3000=
KHVN 080653Z AUTO 00000KT 4SM HZ OVC008 24/22 A3003=
KIAG 080653Z AUTO 21005KT 5SM BR CLR 24/22 A3005=
####018000085####
SALJ32 LJLJ 080700
METAR LJCE 080700Z 28004KT 220V330 CAVOK 19/14 Q1023 RMK BLU=
####018000371####
SACZ43 LKPW 080700
METAR LKCV 080700Z VRB01KT CAVOK 18/11 Q1024 NOSIG=
METAR LKKB 080700Z VRB02KT CAVOK 18/10 Q1023 NOSIG=
METAR LKLN 080700Z AUTO VRB01KT CAVOK 15/12 Q1024=
METAR LKNA 080700Z 36005KT 320V100 9999 FEW032 17/09 Q1024
           NOSIG=
METAR LKPD 080700Z VRB02KT CAVOK 17/10 Q1024 NOSIG=
METAR LKPO 080700Z VRB01KT CAVOK 17/10 Q1023 NOSIG=
####018000192####
SATA31 RUMS 080700
METAR UTDD 080700Z VRB01MPS 9999 FEW066 35/05 Q1011 09CLRD70 NOSIG
RMK QFE691/0921=
METAR UTDL 080700Z 06005MPS 9999 FEW046 34/10 Q1009 NOSIG RMK QFE719
8809//70=
####018000434####
SARO32 LROM 080700
METAR LRAR 080700Z 35010KT 320V050 9999 FEW019 18/15 Q1020=
METAR LRBM 080700Z VRB02KT 9999 FEW005 BKN008 BKN010 15/14 Q1018
1019//95=
METAR LRCL 080700Z 00000KT 9999 FEW008 BKN013 OVC020 14/12 Q1020
0821//95=
METAR LROD 080700Z 03008KT CAVOK 18/13 Q1020=
METAR LRSM 080700Z 35008KT 330V030 9999 FEW012 18/14 Q1019=
METAR LRTM 080700Z 24006KT 8000 -RA SCT006 SCT010 BKN023 14/13
Q1020 0729//95=
####018000073####
SAGR33 LGAT 080650 RRA
METAR LGPA 080650Z 01014KT CAVOK 28/20 Q1011=
####018000085####
SAIR31 OIII 080700 RRA
METAR OIKB 080650Z 27004KT 5000 HZ SKC 36/27 Q1002 A2959=
####018001063####
SAAU31 AMMC 080700
METAR YBAS 080700Z 12009KT 9999 FEW034 16/06 Q1019=
METAR YBBN 080700Z 17010KT 9999 FEW030 SCT040 BKN105 18/10 Q1018
     NOSIG=
METAR YBCS 080700Z 13008KT 9999 FEW026 BKN040 25/19 Q1014=
METAR YBTL 080700Z 06008KT 9999 FEW030 SCT045 BKN080 23/19 Q1015=
METAR YMML 080700Z 18005KT 9999 FEW031 BKN042 11/04 Q1027
     NOSIG=
METAR YPAD 080700Z 19003KT 9999 FEW045 SCT060 13/09 Q1025
     NOSIG=
METAR YPCC 080700Z 13009KT 9999 FEW021 28/22 Q1012=
METAR YPDN 080700Z 36011KT 9999 SCT049 BKN400 30/20 Q1011
     NOSIG=
METAR YPKU 080700Z 15006KT CAVOK 27/14 Q1012=
METAR YPLM 080700Z 07006KT 9999 FEW010 BKN080 BKN200 21/16 Q1008=
METAR YPPH 080700Z 36013KT 1800 SHRA SCT018 OVC050 FEW022CB 15/14
Q1000
     FM0700 33018G28KT 9999 -SHRA BKN020
     INTER 0700/1000 27025G35KT 3000 +SHRA BKN010=
METAR YPTN 080700Z 12009KT CAVOK 29/14 Q1012=
METAR YPXM 080700Z AUTO 16007KT 9999NDV // SCT018 26/22 Q1012=
METAR YSSY 080700Z 21015KT 9999 SCT035 BKN080 12/12 Q1025
     INTER 0715/1000 5000 SHRA BKN015=
####018000359####
SARO33 LROM 080700
METAR LRBC 080700Z 36010KT 320V020 CAVOK 22/14 Q1016=
METAR LRCV 080700Z 02006KT 320V060 9999 FEW040 19/12 Q1016=
METAR LRIA 080700Z 28008KT 230V310 9999 FEW015 BKN028 19/16 Q1016=
METAR LRSV 080700Z AUTO 30010KT 270V350 9999 BKN008 BKN012 OVC017
16/15 Q1017 RERA=
METAR LRTC 080700Z 35014KT 9999 SCT030CB BKN040 19/16 Q1014=
####018000131####
SAOM20 OOMS 080700
METAR OOMS 080700Z(01006KT 330V050 6000 BKN025 SCT120
BKN250 33/29 Q1002 NOSIG=
METAR OOSA 080700Z NIL=
####018000342####
SAEW33 LEMM 080700
METAR GCLP 080700Z 01021KT 9999 BKN016 22/18 Q1016 NOSIG=
METAR GCXO 080700Z 30017KT 0100 R30/0300N R12/0175N FG OVC000
16/16 Q1019 NOSIG=
METAR GCTS 080700Z 08009KT 9999 BKN018 21/18 Q1016 NOSIG=
METAR GCRR 080700Z 02012KT 9000 SCT015 21/18 Q1016=
METAR GCFV 080700Z 02009KT 350V050 9999 BKN018 21/18 Q1016=
####018000293####
SATR31 RUMS 080700
METAR UTAA 080700Z 32006MPS 9999 SKC 42/07 Q1009 NOSIG=
METAR UTAK 080700Z 29002MPS CAVOK 34/19 Q1009 NOSIG=
METAR UTAM 080700Z 01002MPS CAVOK 38/13 Q1008 NOSIG=
METAR UTAT 080700Z 16007MPS CAVOK 42/21 Q1008 NOSIG=
METAR UTAV 080700Z 03004MPS CAVOK 38/12 Q1007=
####018000102####
SAKY31 RUMS 080700
METAR UAFM 080700Z 31004MPS CAVOK 33/07 Q1013 NOSIG=
METAR UAFO 080700Z NIL=
####018000165####
SAAY31 RUMS 080700
METAR UDYZ 080700Z 16003MPS 120V190 9999 SKC 31/13 Q1012 09010070
NOSIG=
METAR UDSG 080700Z VRB02MPS 9999 NSC 28/13 Q1017 02CLRD70 NOSIG=
####018000683####
SAKZ31 RUMS 080700
METAR UAAA 080700Z 25002MPS 9999 SCT050CB BKN100 30/09 Q1014 88CLRD65
TEMPO TS=
METAR UACC 080700Z 28004MPS 240V310 CAVOK 23/03 Q1011 220/0070 NOSIG
RMK QFE727/0969=
METAR UAKK 080700Z 28004MPS 210V320 CAVOK 22/02 Q1012 230///70 NOSIG
RMK QFE712/0950=
METAR UAOO 080700Z NIL=
METAR UARR 080700Z NIL=
METAR UATE 080700Z 29006MPS CAVOK 32/23 Q1011 300///70 NOSIG RMK
QFE756/1009=
METAR UATG 080700Z 33008G13MPS CAVOK 38/09 Q1009 32CLRD70 NOSIG RMK
QFE758/1011 =
METAR UATT 080700Z 06009MPS 9999 NSC 30/04 Q1010 13CLRD70 NOSIG RMK
QFE738/0984=
METAR UAUU 080700Z 36005G10MPS 290V360 CAVOK 24/00 Q1014 33CLRD70
NOSIG RMK QFE745/0993=
####018000710####
SAMS33 WMKK 080700
METAR 080700Z
METAR WMAU 080700Z 25003KT 9999 FEW020 BKN140 BKN270 31/24 Q////
QFF1009=
METAR WMBA 080700Z 21005KT 9999 SCT022 BKN280 32/24 Q1009=
METAR WMKA 080700Z 25005KT 9999 FEW020 SCT300 32/26 Q1009=
METAR WMKB 080700Z 30007KT 250V340 9999 FEW020 BKN280 31/25 Q1009
NOSIG=
METAR WMKC 080700Z 35006KT 9999 FEW018 BKN250 32/22 Q1009=
METAR WMKD 080700Z 18004KT 9999 FEW019 SCT160 BKN280 32/25 Q1009
NOSIG=
METAR WMKI 080700Z 19004KT 9999 FEW020 SCT150 32/24 Q1009=
METAR WMKL 080700Z 23006KT 160V300 9999 FEW020 BKN300 31/26 Q1010=
METAR WMKM 080700Z 25005KT 9999 FEW020 BKN140 BKN280 30/25 Q1010=
METAR WMKN 080700Z 02005KT 9999 FEW018 BKN240 31/27 Q1008=
####018000513####
SAMS32 WMKK 080700
METAR 080700Z
METAR WBGG 080700Z 05010KT 9999 FEW015CB BKN020 BKN300 28/23 Q1008
NOSIG=
METAR WBKK 080700Z 27002KT 9999 TS FEW014 FEW017CB SCT140 BKN270
30/25
     Q1008
     TEMPO 5000 TSRA=
METAR WMKJ 080700Z 01002KT 9999 FEW018 BKN280 29/25 Q1009=
METAR WMKK 080700Z 23006KT 160V280 9999 SCT018 SCT140 BKN280 31/26
Q1009
     NOSIG=
METAR WMKP 080700Z 21009KT 9999 FEW020 BKN300 31/25 Q1009 NOSIG=
METAR WMSA 080700Z 21004KT 9999 FEW020 BKN140 33/25 Q1009 NOSIG=
####018000183####
SALJ31 LJLJ 080700
METAR LJLJ 080700Z 00000KT 9999 FEW060 18/12 Q1024 NOSIG=
METAR LJMB 080700Z 03001KT 9999 FEW040 19/12 Q1024=
METAR LJPZ 080700Z 13002KT CAVOK 21/13 Q1022=
####018000967####
SAUS41 KWBC 080700 RRA
METAR
KILG 080651Z AUTO 12005KT 6SM HZ CLR 26/22 A3000=
KILM 080653Z AUTO 00000KT 10SM CLR 25/22 A2991=
KINT 080654Z AUTO 36003KT 10SM CLR 25/17 A3002=
KLSV 080655Z AUTO 01005KT 10SM CLR 29/M04 A2981=
KLUK 080653Z AUTO 00000KT 2 1/2SM BR CLR 23/22 A3008=
KLWM 080654Z AUTO 00000KT 6SM BR CLR 23/21 A3006=
KMDT 080656Z 00000KT 6SM HZ CLR 27/20 A3000=
KMMU NIL=
KMSS 080653Z AUTO 22004KT 7SM CLR 24/21 A3000=
KOGS NIL=
KOLD NIL=
KOQU NIL=
KORH 080654Z AUTO 22005KT 4SM BR BKN006 22/21 A3008=
KPQI 080655Z AUTO 13003KT 10SM CLR 22/19 A2997=
KPSM 080655Z 11003KT 2SM BR BKN003 OVC006 21/21 A3004=
KPVD NIL=
KPWM 080651Z AUTO 00000KT 9SM OVC008 21/19 A3006=
KRIC 080654Z 08003KT 8SM SCT120 27/20 A2997=
KROC 080654Z 23004KT 8SM CLR 23/20 A3005=
KSCH NIL=
KSYR 080654Z 00000KT 7SM CLR 23/21 A3004=
KWDR NIL=
KWRI 080655Z AUTO 00000KT 2SM R18/4500V5000FT R24/2600V2800FT BR
     BKN003 24/24 A2999=
####018000082####
SASD31 OEJD 080700 RRA
METAR OEDR 080700Z 35009KT 6000 SKC 42/13 Q0999 NOSIG=
####018001698####
SAUS42 KWBC 080700
METAR
KAMA 080653Z 04009KT 1SM RA BR SCT016 BKN025 OVC060 17/16
     A3019=
KAUS 080653Z 05005KT 10SM BKN014 OVC029 26/23 A2996=
KBPP NIL=
KBPT 080653Z 09010KT 10SM SCT026 27/24 A2995=
KBQK 080657Z AUTO 00000KT 5SM CLR 22/22 A3002=
KBRO 080653Z 29003KT 10SM FEW050 27/25 A2981=
KCHA 080653Z 00000KT 10SM CLR 24/18 A3006=
KCRP 080651Z 09005KT 9SM -RA FEW010 SCT070 BKN080 27/26 A2985=
KDAL 080653Z 16008KT 10SM BKN017 27/23 A2999=
KDRT 080653Z AUTO 07006KT 10SM CLR 26/22 A2993=
KELP 080651Z 05009KT 10SM FEW060 SCT080 BKN110 26/14 A3010=
KEYW 080653Z AUTO 08003KT 10SM CLR 28/25 A2993=
KFPR 080653Z AUTO 08003KT 10SM CLR 26/22 A2997=
KFTW 080653Z 16008KT 10SM BKN018 BKN060 26/23 A2999=
KFTY 080653Z 00000KT 10SM CLR 23/18 A3005=
KFXE NIL=
KGLE NIL=
KGLS 080652Z AUTO 11016KT 10SM FEW027 28/24 A2992=
KGPT 080653Z 05004KT 10SM CLR 27/25 A3001=
KHOU 080653Z 11009KT 10SM FEW034 BKN130 BKN250 28/23 A2992=
KHRL 080652Z AUTO 35003KT 10SM SCT024 26/26 A2981=
KHSV 080653Z 00000KT 10SM CLR 26/23 A3006=
KLCH 080653Z AUTO 08006KT 10SM CLR 26/23 A2997=
KLGC 080655Z AUTO 00000KT 10SM CLR 22/ A3003=
KLRD 080656Z AUTO 00000KT 10SM CLR 27/24 A2991=
KMAF 080653Z AUTO 09003KT 10SM FEW047 BKN110 22/20 A3008=
KMFE 080653Z AUTO 36008KT 10SM FEW022 SCT028 BKN035 27/24
     A2983=
KMOB 080656Z 00000KT 10SM CLR 24/23 A3004=
KNEW 080653Z AUTO 10005KT 10SM CLR 27/24 A3001=
KOPF 080653Z AUTO 05006KT 10SM FEW022 27/24 A2994=
KOPN NIL=
KPDK 080653Z AUTO 00000KT 10SM CLR 24/19 A3005=
KPFN NIL=
KPGL NIL=
KPIE 080653Z AUTO 11007KT 10SM BKN055 26/21 A3000=
KPNS 080653Z AUTO 00000KT 10SM CLR 25/24 A3002=
KQAO NIL=
####018000170####
SAUS42 KWBC 080700 CCA
METAR
KBTR 080653Z 06005KT 10SM SCT200 24/23 A2999=
KMGM 080653Z 00000KT 10SM CLR 26/23 A3002=
KTYS 080653Z 00000KT 8SM CLR 24/20 A3006=
####018000392####
SAUS42 KWBC 080700 RRA
METAR
KRSW 080653Z 05005KT 10SM CLR 24/22 A2997=
KSAT 080653Z 07006KT 10SM BKN016 BKN250 26/23 A2995=
KSAV 080653Z 28003KT 10SM CLR 22/19 A3000=
KSHV 080656Z 13003KT 10SM SCT180 BKN280 25/24 A3000=
KSSI 080653Z AUTO 22005KT 10SM CLR 24/22 A3001=
KTMB 080653Z AUTO 04004KT 10SM CLR 28/25 A2994=
KTUL 080653Z 11009KT 10SM -RA BKN040 OVC055 23/22 A3001=
####018000320####
SABN31 OBBI 080700
METAR OBBI 080700Z 28009KT 6000 NSC 36/25 Q1000 BECMG 8000=
METAR OEDF 080700Z 01008KT 8000 NSC 41/09 Q1001 NOSIG=
METAR OEDR 080700Z 35009KT 6000 SKC 42/13 Q0999 NOSIG=
METAR OTBD 080700Z 01010KT 340V040 5000 HZ NSC 36/29 Q1001 NOSIG=
METAR OKBK 080700Z 34016KT CAVOK 44/M02 Q1002 NOSIG=
####018001698####
SAUS43 KWBC 080700
METAR
K12C NIL=
K1H2 NIL=
KAAA NIL=
KAPN 080654Z AUTO 00000KT 5SM BR CLR 19/19 A3001=
KAZO 080653Z AUTO 00000KT 5SM HZ CLR 23/20 A3005=
KBDE 080653Z AUTO 23005KT 10SM CLR 16/13 A2999=
KBTL 080653Z AUTO 00000KT 10SM CLR 24/21 A3006=
KBTM 080653Z AUTO 00000KT 10SM CLR 11/01 A3030=
KC09 NIL=
KC75 NIL=
KCGX NIL=
KCIU 080655Z AUTO 16005KT 10SM SCT080 BKN100 OVC120 19/17
     A2999=
KCMX 080653Z AUTO 00000KT 9SM OVC002 18/17 A2998=
KCOS 080654Z 10008KT 10SM BKN050 OVC065 14/12 A3039=
KCPR 080653Z AUTO 00000KT 10SM CLR 06/05 A3032=
KDET 080653Z 00000KT 10SM CLR 26/21 A3004=
KDKB NIL=
KDLH 080655Z 32006KT 10SM SCT050 17/14 A3005=
KDNV NIL=
KDSM 080654Z 33007KT 10SM BKN140 OVC200 23/21 A3005=
KELO 080653Z AUTO 00000KT 10SM CLR 14/14 A3004=
KENL NIL=
KFAR 080653Z 24006KT 10SM CLR 17/13 A3005=
KFEP NIL=
KFNT 080653Z AUTO 00000KT 9SM CLR 24/22 A3004=
KFOA NIL=
KFWC NIL=
KGBG NIL=
KGFK 080653Z 26006KT 10SM CLR 16/12 A3003=
KGRB 080653Z AUTO 18007KT 9SM -RA BKN055 21/20 A2998=
KGRM NIL=
KGRR 080653Z AUTO 16003KT 7SM SCT050 SCT080 BKN120 25/22 A3004=
KHSB NIL=
KICT 080653Z 01005KT 10SM BKN025 BKN070 BKN200 23/21 A3009=
KIGQ NIL=
KIJX NIL=
KIKK NIL=
KINL 080655Z AUTO 00000KT 10SM FEW060 SCT090 15/13 A3001=
KISN 080652Z 00000KT 10SM FEW080 OVC110 16/11 A3012=
KJOT NIL=
KLEX 080654Z 00000KT 7SM CLR 23/18 A3009=
KLOT NIL=
KMBS 080653Z 18004KT 10SM CLR 25/22 A3002=
KMDW 080651Z 26006KT 9SM FEW050 BKN095 OVC200 24/22 A3004=
KMKC 080654Z 32003KT 10SM FEW100 23/21 A3005=
KMKE 080652Z 28009KT 10SM -RA SCT065 BKN085 OVC200 24/22 A3001=
KMLI 080652Z 00000KT 9SM CLR 23/22 A3001=
####018000491####
SAIR36 OIII 080700
METAR OIBA 080700Z 09010KT 6000 SKC 35/28 Q1000 A2955=
METAR OIBV 080700Z 12014KT 6000 SKC 36/27 Q1000 A2955=
METAR OIFS 080700Z 00000KT CAVOK 31/03 Q1022 A3020 798.1=
METAR OIIP 080700Z 5010KT 6000 SKC 36/04 Q1015=
METAR OIMB 080700Z 07006KT CAVOK 33/07 Q1016 A3001=
METAR OIMN 080700Z 00000KT CAVOK 34/09 Q1016 A3003=
METAR OIMS 080700Z NIL=
METAR OIMT 080700Z 05010KT CAVOK 39/M02 Q1008 A2979=
METAR OIZJ 080700Z 10016KT 6000 NSC 33/28 Q1002 A2959=
####018000810####
SAUS43 KWBC 080700 RRA
METAR
KMOT 080654Z AUTO 30004KT 10SM CLR 16/12 A3008=
KMQB NIL=
KMQT NIL=
KMWA NIL=
KOLY NIL=
KOMA 080652Z 34004KT 10SM SCT130 20/19 A3011=
KPHN 080655Z AUTO 00000KT 2 1/2SM BR CLR 20/19 A3003=
KPIA 080654Z 13003KT 4SM BR FEW060 BKN080 OVC110 23/22 A3003=
KPNT NIL=
KPPQ NIL=
KPRG NIL=
KPTK 080653Z 00000KT 10SM SCT250 26/22 A3004=
KPUB 080653Z AUTO 00000KT 10SM BKN012 BKN065 15/14 A3032=
KRAD NIL=
KSAR NIL=
KSAW 080659Z AUTO 00000KT 10SM OVC003 18/17 A2997=
KSDF 080656Z 00000KT 8SM CLR 27/21 A3005=
KSGF 080652Z 00000KT 10SM SCT120 23/22 A3005=
KSLO NIL=
KSTP 080653Z 33005KT 10SM CLR 21/18 A3006=
KSUS 080654Z AUTO 00000KT 10SM BKN048 BKN060 24/23 A3002=
KTAZ NIL=
KTIP NIL=
KTOL 080652Z 00000KT 10SM CLR 22/18 A3004=
KVYS NIL=
####018000535####
SAUS44 KWBC 080700 RRA
METAR
KRNT 080653Z AUTO 30006KT 10SM CLR 23/13 A2992=
KSAC 080653Z 19004KT 10SM CLR 16/11 A2983=
KSCK 080655Z AUTO 01003KT 10SM CLR 17/11 A2983=
KSDM 080653Z AUTO 00000KT 10SM OVC014 17/13 A2991=
KSFF 080653Z AUTO 00000KT 10SM CLR 16/11 A3005=
KSJC 080653Z 32005KT 8SM FEW019 SCT140 15/11 A2992=
KSLC 080653Z 15005KT 10SM CLR 19/08 A3006=
KSMF 080653Z 16008KT 10SM CLR 17/11 A2981=
KTIW 080653Z AUTO 35004KT 10SM FEW090 22/12 A2993=
KTUS 080653Z 08003KT 10SM CLR 32/08 A2988=
KYUM NIL=
####018001657####
SAUS44 KWBC 080700
METAR
K11R NIL=
KBFI 080653Z 31003KT 10SM CLR 24/12 A2992=
KBIL 080653Z 19005KT 10SM CLR 18/05 A3023=
KBKE 080653Z AUTO 00000KT 10SM CLR 11/07 A3009=
KBLI 080653Z AUTO 00000KT 10SM CLR 18/14 A2993=
KBOI 080653Z 12005KT 10SM CLR 21/07 A3002=
KBPG NIL=
KBYY NIL=
KCLM 080653Z AUTO A2996=
KCTB 080656Z AUTO 21004KT 10SM CLR 13/06 A3024=
KCXL NIL=
KDUG 080656Z AUTO 06015G23KT 10SM CLR 28/10 A3000=
KEKA NIL=
KFAT 080653Z 31009KT 10SM CLR 25/10 A2982=
KGDV 080655Z AUTO 19005KT 10SM CLR 12/08 A3017=
KGEG 080653Z 07005KT 10SM CLR 21/08 A3006=
KGGW 080653Z AUTO 00000KT 10SM CLR 14/09 A3014=
KGLH 080653Z AUTO 00000KT 7SM CLR 23/23 A3004=
KGPI 080655Z 32004KT 10SM CLR 11/08 A3015=
KGTF 080653Z 24006KT 10SM CLR 10/06 A3022=
KGWO 080653Z AUTO 00000KT 10SM CLR 23/23 A3005=
KHLN 080653Z AUTO 00000KT 10SM CLR 14/05 A3023=
KHQM 080653Z AUTO 07005KT 10SM 19/13 A2990=
KHVR 080653Z AUTO 20003KT 10SM SCT100 SCT110 13/09 A3018=
KIPL 080653Z AUTO 21005KT 10SM CLR 29/09 A2967=
KLBB 080653Z 13004KT 10SM FEW013 SCT030 OVC130 21/19 A3013=
KMSO 080653Z AUTO 35004KT 10SM CLR 14/06 A3017=
KMWH 080652Z AUTO 36004KT 10SM CLR 18/07 A3000=
KNOW NIL=
KNUW 080656Z 00000KT 10SM CLR 15/11 A2995=
KOLF 080653Z AUTO 20003KT 10SM CLR 13/09 A3014=
KOLM 080654Z AUTO 00000KT 10SM CLR 19/12 A2992=
KOLS 080654Z AUTO 04010KT 10SM CLR 28/08 A2995=
KOLV 080655Z AUTO 00000KT 9SM CLR 24/24 A3006=
KPAE 080653Z AUTO 36003KT 10SM CLR 21/12 A2996=
KPDX 080653Z 30003KT 10SM CLR 22/16 A2987=
KPMD 080653Z AUTO 18008KT 10SM CLR 21/07 A2990=
KRNO 080655Z 34009KT 10SM SCT080 SCT120 26/03 A3004=
####018000239####
SAAK41 KNKA 080706
SPECI PACM 080704Z AUTO 18008KT 3SM RA FEW007 SCT024 BKN048 12/08 
    A3008 RMK AO2 TSNO BKN V SCT P0001 $=
SPECI PAWD 080704Z AUTO 00000KT 2SM -RA BR SCT003 BKN048 OVC060 
    10/09 A2998 RMK AO2 P0000 TSNO=
####018000750####
SACI31 ZBBB 080700
METAR ZBAA 080700Z VRB03MPS CAVOK 36/11 Q1003 NOSIG=
METAR ZBSJ 080700Z 10002MPS CAVOK 34/18 Q1004 NOSIG=
METAR ZBTJ 080700Z 13005MPS 090V160 9999 SCT033 33/19 Q1004 NOSIG=
METAR ZBYN 080700Z 06003MPS 020V140 CAVOK 31/11 Q1008 NOSIG=
METAR ZGGG 080700Z 16004MPS 9999 FEW050TCU BKN050 36/24 Q1005 NOSIG=
METAR ZSHC 080700Z 08003MPS 4000 HZ NSC 30/23 Q1004 TEMPO TSRA
 SCT033CB=
METAR ZSPD 080700Z 13005MPS 9999 BKN016 28/23 Q1005 NOSIG=
METAR ZSSS 080700Z 11004MPS 080V150 9999 SCT026 30/22 Q1005 NOSIG=
ZWSH NIL=
METAR ZWWW 080700Z 36004MPS 310V060 9999 FEW050CB 32/09 Q1011 NOSIG=
METAR ZYTL 080700Z 30005MPS 9999 SCT033 28/18 Q1006 NOSIG=
METAR ZYTX 080700Z 31003MPS 9999 FEW030TCU 26/19 Q1006 NOSIG=
####018000275####
SAXX70 KAWN 080700 RRG
METAR KQA7 080655Z AUTO VRB03KT 6000 DU HZ FEW050 37/03 A2998 RMK AO2
      SLP031 T03680031=
METAR KQOX 080655Z AUTO VRB06KT 9999 CLR 28/06 A3025 RMK AO2 SLP103
      T02750064 $=
METAR KQSD 080655Z VRB02KT 9000 HZ 32/06 A3009 RMK SLP043=
####018001271####
SAUS51 KWBC 080700
METAR
K40B NIL=
KACY 080654Z 00000KT 8SM CLR 25/23 A3001=
KAUG 080653Z AUTO 16005KT 5SM BR OVC005 21/20 A3007=
KAVL 080654Z AUTO 00000KT 10SM CLR 19/18 A3014=
KBGM 080653Z AUTO 00000KT 6SM HZ CLR 24/18 A3011=
KBKW 080651Z AUTO 00000KT 4SM BR CLR 21/18 A3017=
KCBE NIL=
KCHH NIL=
KCON 080651Z AUTO 00000KT 6SM BR BKN085 23/21 A3005=
KDCA 080652Z 11004KT 8SM FEW080 BKN250 29/21 A2998=
KEKN 080651Z AUTO 00000KT 3SM BR BKN080 18/17 A3016=
KESN 080651Z AUTO 00000KT 5SM BR CLR 23/23 A3002=
KGFL 080653Z AUTO 00000KT 1 1/2SM BR CLR 22/21 A3001=
KGSP 080653Z AUTO 00000KT 10SM CLR 24/19 A3002=
KHAT NIL=
KHSS NIL=
KIPJ 080700Z AUTO 00000KT 10SM CLR 20/18 A3002=
KIPT 080654Z AUTO 00000KT 9SM CLR 22/17 A3004=
KLYH 080654Z AUTO 32003KT 5SM HZ CLR 24/20 A3003=
KMHT 080653Z 14004KT 7SM -RA BKN060 24/22 A3003=
KMPV 080651Z AUTO 00000KT 5SM BR CLR 21/19 A3010=
KMWN 080656Z 31009KT 15SM FEW/// FEW/// FEW025 15/14=
KMYR 080655Z AUTO 28010KT 10SM CLR 26/21 A2997=
KNYC 080651Z AUTO 00000KT 6SM HZ CLR 26/22 A3004=
KPNE 080654Z 00000KT 9SM CLR 26/22 A3002=
KROA 080654Z 32003KT 7SM BKN090 26/19 A3007=
KSMQ 080653Z AUTO 00000KT 4SM BR CLR 22/21 A3000=
KWAL 080654Z AUTO 15003KT 7SM BKN100 25/23 A2998=
####018000401####
SAIR37 OIII 080700
METAR OIBQ 080700Z NIL=
METAR OIIK 080700Z 17010KT CAVOK 35/02 Q1016 A3000=
METAR OIMC 080700Z 00000KT CAVOK 39/08 Q1010 A2983=
METAR OIMD 080700Z 12010KT CAVOK 34/M01 Q1011 A2986=
METAR OIMQ 080700Z 23006KT CAVOK 35/02 Q1014 A2997=
METAR OISR 080700Z 00000KT 6000 SKC 40/20 Q1004 A2966=
METAR OITK 080700Z NIL=
METAR OITM 080700Z 11016KT CAVOK 33/09 Q1014 A2997=
####018001688####
SAUS52 KWBC 080700
METAR
K3R1 NIL=
KAAF 080653Z AUTO 02004KT 10SM CLR 23/22 A3001=
KABR 080653Z AUTO 23005KT 10SM CLR 16/14 A3012=
KACT 080651Z 15005KT 10SM SCT020 BKN025 BKN032 27/23 A2998=
KAGS 080653Z AUTO 00000KT 10SM CLR 23/20 A3000=
KAHN 080651Z AUTO 29003KT 9SM CLR 22/19 A3004=
KALI 080653Z AUTO 05006KT 10SM BKN080 26/25 A2986=
KAUS 080653Z 05005KT 10SM BKN014 OVC029 26/23 A2996=
KAYS 080700Z AUTO 00000KT 10SM CLR 23/21 A3002=
KBVE NIL=
KCAO 080655Z AUTO 01015KT 10SM -RA BKN070 OVC100 16/14 A3028=
KCDS 080653Z AUTO 35003KT 10SM CLR 23/21 A3008=
KCKL NIL=
KCLL 080653Z 09005KT 10SM CLR 26/23 A2996=
KCNM 080653Z AUTO 06005KT 10SM BKN060 BKN090 OVC120 22/19
     A3012=
KCOT 080653Z AUTO 05004KT 10SM BKN021 25/22 A2991=
KCSG 080651Z 00000KT 10SM CLR 27/19 A3003=
KCTY 080653Z AUTO 00000KT 22/21 A3002=
KDHT 080653Z AUTO 17008KT 10SM FEW011 OVC050 19/16 A3024=
KECP 080653Z AUTO 32003KT 6SM BR CLR 23/23 A3002=
KELD 080653Z AUTO 00000KT 5SM BR CLR 23/23 A3002=
KELP 080651Z 05009KT 10SM FEW060 SCT080 BKN110 26/14 A3010=
KESF 080653Z AUTO 00000KT 10SM CLR 23/22 A3001=
KFCL NIL=
KFSM 080653Z AUTO 10003KT 10SM CLR 24/22 A3003=
KFYV 080653Z AUTO 00000KT 10SM CLR 23/22 A3006=
KGAG 080653Z AUTO 04008KT 10SM SCT028 BKN034 23/19 A3012=
KGDP NIL=
KHBR 080653Z AUTO 04004KT 10SM CLR 23/21 A3007=
KHDO 080651Z AUTO 07004KT 10SM CLR 25/23 A2996=
KHOT 080653Z AUTO 00000KT 10SM BKN006 24/23 A3006=
KHRO 080653Z AUTO 00000KT 7SM FEW034 23/22 A3007=
KINK 080653Z AUTO 10007KT 10SM FEW036 SCT050 BKN060 23/19
     A3006=
KIPT 080654Z AUTO 00000KT 9SM CLR 22/17 A3004=
KJAN 080654Z 00000KT 9SM CLR 24/23 A3005=
####018000122####
SPCN46 CWAO 080706
SPECI CYSC 080706Z AUTO 11002KT 2 1/2SM BR SCT140 21/20 A3002 RMK
 SLP165 DENSITY ALT 1500FT=

####018000211####
SAPO32 LPMG 080700
METAR LPAZ 080700Z 00000KT 9999 FEW016 BKN032 20/18 Q1024=
METAR LPHR 080700Z 35002KT 9999 FEW009 SCT012 BKN030 19/17 Q1023=
METAR LPLA 080700Z 17003KT 9999 FEW018 BKN028 19/18 Q1024=
####018000228####
SAUS52 KWBC 080700 CCA
METAR
KDAB 080653Z 00000KT 10SM FEW026 21/20 A3000=
KMCN 080653Z AUTO 12003KT 10SM CLR 22/20 A3003=
KTRI 080653Z 00000KT 5SM HZ CLR 23/19 A3010=
KTUP 080653Z AUTO 04003KT 10SM CLR 24/23 A3005=
####018001151####
SAUS52 KWBC 080700 RRA
METAR
KJBR 080653Z AUTO 23006KT 10SM CLR 26/23 A3004=
KJCT 080651Z AUTO 00000KT 10SM CLR 23/22 A3001=
KJQF 080700Z AUTO 36005KT 10SM CLR 24/17 A3000=
KLFK 080653Z AUTO 11003KT 10SM CLR 24/23 A2999=
KLFT 080653Z AUTO 00000KT 10SM CLR 25/23 A3000=
KMEI 080658Z AUTO 00000KT 10SM CLR 23/23 A3004=
KMLC 080653Z AUTO 00000KT 10SM CLR 24/23 A3002=
KMLU 080653Z AUTO 10003KT 9SM CLR 26/24 A3003=
KMWL 080653Z AUTO 14005KT 10SM SCT031 SCT055 23/22 A2999=
KPBF 080653Z AUTO 12003KT 9SM CLR 23/22 A3005=
KPNC 080653Z AUTO 02005KT 10SM FEW065 22/21 A3006=
KPSX 080653Z AUTO 05007KT 10SM CLR 27/25 A2987=
KPWA 080653Z 04003KT 10SM CLR 24/22 A3004=
KQAO NIL=
KRMG 080653Z AUTO 00000KT 10SM CLR 22/19 A3004=
KRSL 080653Z AUTO 34005KT 9SM BKN012 19/18 A3015=
KSEP NIL=
KSHV 080656Z 13003KT 10SM SCT180 BKN280 25/24 A3000=
KSPS 080652Z 07004KT 10SM CLR 24/22 A3001=
KTLH 080653Z 00000KT 10SM FEW095 24/22 A3002=
KTOP 080653Z AUTO 09008KT 2 1/2SM +RA BR OVC013 22/21 A3009=
KVCT 080651Z AUTO 04007KT 10SM CLR 26/25 A2989=
KVGT 080653Z AUTO 33004KT 10SM CLR 29/M06 A2982=
KVUJ NIL=
KWRB NIL=
####018001678####
SAUS53 KWBC 080700
METAR
KAIA 080653Z AUTO 21003KT 10SM OVC085 16/14 A3028=
KAID NIL=
KALO 080654Z AUTO 29006KT 10SM CLR 20/19 A3005=
KALS 080652Z AUTO 00000KT 10SM CLR 08/07 A3040=
KANW 080650Z AUTO 00000KT 10SM OVC110 17/15 A3023=
KBBW 080653Z AUTO 32004KT 10SM OVC075 16/15 A3023=
KBFF 080653Z AUTO 00000KT 10SM FEW049 OVC075 16/13 A3029=
KBIE 080650Z AUTO 35004KT 4SM BR CLR 20/19 A3011=
KBIS 080652Z AUTO 27003KT 10SM CLR 15/11 A3013=
KBPI 080653Z AUTO 00000KT 10SM CLR 11/01 A3037=
KBRL 080653Z AUTO 1 3/4SM BR CLR 23/22 A3002=
KCAG 080653Z AUTO 08004KT 10SM CLR 12/07 A3030=
KCGI 080653Z AUTO 00000KT 8SM CLR 24/24 A3003=
KCID 080652Z AUTO 33005KT 8SM FEW120 21/20 A3003=
KCNK 080655Z AUTO 35004KT 8SM CLR 20/19 A3013=
KCNU 080652Z AUTO 00000KT 10SM FEW031 21/20 A3006=
KCOU 080654Z AUTO 13003KT 10SM -RA SCT001 BKN030 23/22 A3005=
KCYS 080653Z AUTO 12005KT 1SM BR OVC002 12/12 A3036=
KCZD NIL=
KDBQ 080653Z AUTO 28003KT 10SM OVC110 21/20 A3003=
KDDC 080652Z AUTO 03006KT 7SM CLR 18/17 A3017=
KDVL 080655Z AUTO 27006KT 10SM CLR 16/12 A3006=
KEAR 080655Z AUTO 34004KT 10SM CLR 16/14 A3022=
KEHA NIL=
KEVV 080654Z AUTO 00000KT 10SM CLR 26/22 A3005=
KF55 NIL=
KFNB 080653Z AUTO 31003KT 9SM FEW037 22/21 A3007=
KFSD 080656Z 28003KT 10SM CLR 16/14 A3016=
KFWA 080654Z 21004KT 10SM CLR 24/20 A3006=
KGCC 080653Z AUTO 00000KT 10SM CLR 09/07 A3029=
KGCK 080654Z AUTO 04010KT 10SM FEW049 BKN060 18/17 A3019=
KGJT 080653Z AUTO 07017G30KT 10SM CLR 22/06 A3014=
KGLD 080653Z AUTO 00000KT 10SM OVC035 17/16 A3029=
KGPZ 080655Z AUTO 00000KT 10SM CLR 13/11 A3007=
KGRI 080653Z AUTO 34006KT 10SM CLR 17/14 A3019=
####018000890####
SACI32 ZBBB 080700
METAR ZGKL 080700Z 18007MPS 9999 SCT066 36/23 Q1004 NOSIG=
METAR ZGNN 080700Z 14006MPS 120V190 9999 SCT030 36/25 Q1003 NOSIG=
METAR ZGOW 080700Z 19006MPS 9999 SCT030 34/26 Q1006 NOSIG=
METAR ZGSZ 080700Z 17009MPS 9999 FEW020 33/25 Q1006 NOSIG=
METAR ZLXY 080700Z VRB01MPS 1800 BR FEW010 OVC060 24/21 Q1007 NOSIG=
METAR ZMUB 080700Z 20009MPS 9999 -SHRA SCT030CB SCT033 19/11 Q1009
 NOSIG RMK
 QFE650.1 62=
METAR ZPPP 080700Z 20003MPS 170V240 9999 FEW026TCU FEW026 SCT036
 OVC050 23/16
 Q1016 NOSIG=
METAR ZSAM 080700Z 18007MPS 9999 FEW023 34/24 Q1005 NOSIG=
METAR ZSFZ 080700Z 19009MPS CAVOK 30/25 Q1005 NOSIG=
METAR ZSNB 080700Z 12005MPS 9999 FEW040 31/25 Q1003 BECMG SHRA
 SCT020 FEW033CB
 OVC050=
METAR ZSQD 080700Z 17004MPS 140V200 CAVOK 27/16 Q1006 NOSIG=
METAR ZUUU 080700Z 23004MPS 200V260 6000 FEW026TCU 30/26 Q1003
 NOSIG=
####018000709####
SAJP35 RJTD 080700
METAR RJAA 080700Z 22004KT 180V280 9999 FEW025 BKN/// 28/22 Q1009
           NOSIG=
METAR RJBB 080700Z 24008KT 9999 FEW025 BKN/// 29/22 Q1007 NOSIG=
METAR RJTT 080700Z 19013KT 9999 FEW030 BKN/// 28/22 Q1008=
METAR RJOO 080700Z 23008KT 200V260 9999 FEW030 BKN/// 31/19 Q1007=
METAR RJGG 080700Z 12011KT 9999 FEW020 BKN/// 29/23 Q1008 NOSIG=
METAR RJSN 080700Z 29008KT 9999 FEW030 BKN/// 27/22 Q1008=
METAR RJCH 080700Z 15005KT 100V180 9999 FEW005 BKN050 20/19 Q1008
           RETS RERA=
METAR RJSA 080700Z 30004KT 270V340 9999 FEW010 SCT020 BKN100 23/21
           Q1009=
METAR RJSF 080700Z 10005KT 9999 -SHRA FEW020 FEW025CB BKN030 24/21
           Q1010 RETS=
####018000697####
SAJP36 RJTD 080700
METAR RJAA 080700Z 22004KT 180V280 9999 FEW025 BKN/// 28/22 Q1009
           NOSIG=
METAR RJBB 080700Z 24008KT 9999 FEW025 BKN/// 29/22 Q1007 NOSIG=
METAR RJTT 080700Z 19013KT 9999 FEW030 BKN/// 28/22 Q1008=
METAR RJOO 080700Z 23008KT 200V260 9999 FEW030 BKN/// 31/19 Q1007=
METAR ROAH 080700Z 20014KT 9999 FEW010 SCT015 BKN/// 30/27 Q1009=
METAR RJFF 080700Z 29006KT 250V340 9999 FEW025 BKN/// 29/20 Q1007=
METAR RJGG 080700Z 12011KT 9999 FEW020 BKN/// 29/23 Q1008 NOSIG=
METAR RJCC 080700Z 16007KT 6000 -DZ FEW003 BKN004 19/17 Q1008=
METAR RJFK 080700Z 18010KT 9999 FEW030 BKN/// 28/20 Q1009=
METAR RJSN 080700Z 29008KT 9999 FEW030 BKN/// 27/22 Q1008=
####018001679####
SAUS53 KWBC 080700 RRA
METAR
KHON 080655Z AUTO 22006KT 10SM CLR 18/14 A3015=
KHSI 080653Z AUTO 36005KT 10SM CLR 17/15 A3018=
KHTL 080653Z AUTO 00000KT 9SM BKN120 22/21 A3005=
KIML 080653Z AUTO 34003KT 10SM BKN025 OVC032 17/15 A3027=
KIRK 080655Z AUTO 18003KT 6SM BR CLR 19/19 A3006=
KJAC 080655Z AUTO 01012G15KT 10SM CLR 13/M01 A3031=
KJKL 080653Z AUTO 00000KT 6SM HZ CLR 24/19 A3011=
KJLN 080653Z 35003KT 10SM SCT034 BKN041 OVC110 23/22 A3005=
KJNX 080659Z AUTO 00000KT 4SM CLR 22/22 A2994=
KLAN 080653Z 00000KT 6SM BR CLR 24/22 A3004=
KLBF 080653Z AUTO 00000KT 10SM OVC048 16/16 A3025=
KLIH NIL=
KLNC NIL=
KLND 080653Z AUTO 00000KT 10SM CLR 12/04 A3031=
KLNK 080654Z AUTO 35008KT 10SM CLR 19/18 A3012=
KLXV 080653Z AUTO 19003KT 10SM FEW030 OVC035 07/06 A3053=
KMCK 080653Z AUTO 32005KT 10SM FEW120 16/16 A3023=
KMCW 080653Z AUTO 32004KT 10SM CLR 19/18 A3009=
KMFD 080652Z AUTO 00000KT 7SM CLR 22/18 A3010=
KMHK 080652Z AUTO 03004KT 10SM BKN100 BKN120 22/21 A3008=
KMHN NIL=
KMKG 080655Z 26003KT 9SM -RA SCT070 BKN080 OVC100 23/22 A3003=
KMMO NIL=
KMSN 080653Z 00000KT 7SM OVC120 22/21 A3000=
KODX 080653Z AUTO 33003KT 10SM SCT080 16/14 A3020=
KONL 080650Z AUTO 26003KT 10SM OVC110 16/14 A3021=
KOTM 080653Z AUTO 32004KT 4SM BR CLR 21/21 A3003=
KOVN NIL=
KPAH 080653Z AUTO 00000KT 10SM CLR 23/22 A3004=
KPKD 080653Z AUTO 23003KT 10SM CLR 15/13 A3007=
KRAP 080652Z AUTO 00000KT 10SM CLR 11/09 A3024=
KRFD 080654Z 00000KT 10SM -RA FEW040 BKN047 OVC070 22/21 A3004=
KRIW 080653Z AUTO 00000KT 10SM CLR 14/04 A3032=
KRST 080654Z AUTO 33005KT 7SM CLR 20/19 A3007=
KSBN 080654Z 11004KT 10SM OVC110 25/21 A3004=
####018000676####
SAUS53 KWBC 080700 RRB
METAR
KSHR 080653Z AUTO 00000KT 10SM CLR 10/07 A3026=
KSLN 080653Z AUTO 34007KT 8SM FEW013 22/21 A3010=
KSPI 080652Z AUTO 00000KT 10SM -RA FEW060 BKN070 OVC090 24/23
     A3004=
KSSM NIL=
KSTC 080653Z AUTO 00000KT 4SM BR CLR 14/13 A3008=
KSUX 080652Z 31004KT 10SM CLR 18/17 A3014=
KSVM NIL=
KTCS 080653Z AUTO 13007KT 10SM FEW110 19/14 A3019=
KTDF NIL=
KUDG 080655Z 27006KT 10SM BKN100 27/18 A2998=
KUIN 080654Z AUTO 00000KT 10SM OVC018 23/22 A3005=
KVIH 080653Z AUTO 00000KT 7SM FEW036 BKN049 OVC060 23/22 A3006=
KVTN 080652Z AUTO 00000KT 10SM BKN100 BKN120 17/14 A3023=
KYNG 080651Z 00000KT 6SM BR HZ CLR 19/18 A3009=
####018000732####
SAJP37 RJTD 080700
METAR RJAA 080700Z 22004KT 180V280 9999 FEW025 BKN/// 28/22 Q1009
           NOSIG=
METAR RJBB 080700Z 24008KT 9999 FEW025 BKN/// 29/22 Q1007 NOSIG=
METAR RJTT 080700Z 19013KT 9999 FEW030 BKN/// 28/22 Q1008=
METAR RJOO 080700Z 23008KT 200V260 9999 FEW030 BKN/// 31/19 Q1007=
METAR RJFF 080700Z 29006KT 250V340 9999 FEW025 BKN/// 29/20 Q1007=
METAR RJGG 080700Z 12011KT 9999 FEW020 BKN/// 29/23 Q1008 NOSIG=
METAR RJFK 080700Z 18010KT 9999 FEW030 BKN/// 28/20 Q1009=
METAR RJFU 080700Z 27009KT 9999 FEW020 SCT040 BKN/// 28/23 Q1007=
METAR RJCH 080700Z 15005KT 100V180 9999 FEW005 BKN050 20/19 Q1008
           RETS RERA=
METAR RJNS 080700Z 19007KT 150V230 9999 FEW020 SCT/// 28/21 Q1009=
####018000304####
SAJP36 RJTD 080700 RRB
METAR RJOM 080700Z 24004KT 9999 FEW030 BKN/// 26/23 Q1008=
METAR RJEC 080700Z 19005KT 160V250 9999 FEW020 BKN035 23/19 Q1008=
METAR RJSK 080700Z 25009KT 9999 FEW030 27/20 Q1009=
METAR RJAH 080700Z 17007KT 140V200 9999 FEW025 BKN270 29/24 Q1008=
METAR RJNK 080700Z NIL=
####018000441####
SAJP31 RJTD 080700
METAR RJAA 080700Z 22004KT 180V280 9999 FEW025 BKN/// 28/22 Q1009
           NOSIG=
METAR RJBB 080700Z 24008KT 9999 FEW025 BKN/// 29/22 Q1007 NOSIG=
METAR RJTT 080700Z 19013KT 9999 FEW030 BKN/// 28/22 Q1008=
METAR RJOO 080700Z 23008KT 200V260 9999 FEW030 BKN/// 31/19 Q1007=
METAR ROAH 080700Z 20014KT 9999 FEW010 SCT015 BKN/// 30/27 Q1009=
METAR RJGG 080700Z 12011KT 9999 FEW020 BKN/// 29/23 Q1008 NOSIG=
####018000819####
SAJP36 RJTD 080700 RRA
METAR RJFT 080700Z 25005KT 220V310 9999 FEW030 SCT040 BKN/// 29/22
           Q1008=
METAR RJNS 080700Z 19007KT 150V230 9999 FEW020 SCT/// 28/21 Q1009=
METAR RJSS 080700Z 15012KT 9999 FEW030 FEW040CB SCT070 BKN/// 26/21
           Q1008 WS R27=
METAR RJOA 080700Z 16004KT 120V200 9999 FEW025 SCT150 OVC/// 26/20
           Q1009=
METAR RJOB 080700Z 15005KT 110V180 9999 FEW035 BKN/// 28/21 Q1009=
METAR RJOT 080700Z 04004KT 360V090 9999 FEW025 BKN/// 28/21 Q1009=
METAR RJFO 080700Z 10004KT 8000 FEW030 BKN/// 27/23 Q1007=
METAR RJNT 080700Z 01007KT 9999 FEW020 SCT040 BKN/// 28/21 Q1009=
METAR RJSA 080700Z 30004KT 270V340 9999 FEW010 SCT020 BKN100 23/21
           Q1009=
METAR RJSF 080700Z 10005KT 9999 -SHRA FEW020 FEW025CB BKN030 24/21
           Q1010 RETS=
####018000781####
SAJP32 RJTD 080700
METAR RJFF 080700Z 29006KT 250V340 9999 FEW025 BKN/// 29/20 Q1007=
METAR RJCC 080700Z 16007KT 6000 -DZ FEW003 BKN004 19/17 Q1008=
METAR RJFK 080700Z 18010KT 9999 FEW030 BKN/// 28/20 Q1009=
METAR RJSN 080700Z 29008KT 9999 FEW030 BKN/// 27/22 Q1008=
METAR RJFT 080700Z 25005KT 220V310 9999 FEW030 SCT040 BKN/// 29/22
           Q1008=
METAR RJFU 080700Z 27009KT 9999 FEW020 SCT040 BKN/// 28/23 Q1007=
METAR RJCH 080700Z 15005KT 100V180 9999 FEW005 BKN050 20/19 Q1008
           RETS RERA=
METAR RJSS 080700Z 15012KT 9999 FEW030 FEW040CB SCT070 BKN/// 26/21
           Q1008 WS R27=
METAR RJOA 080700Z 16004KT 120V200 9999 FEW025 SCT150 OVC/// 26/20
           Q1009=
METAR RJOB 080700Z 15005KT 110V180 9999 FEW035 BKN/// 28/21 Q1009=
####018000086####
SAJP37 RJTD 080700 RRA
METAR RJFR 080700Z 13002KT 9000 FEW030 BKN/// 28/20 Q1007=
####018000155####
SAJP32 RJTD 080700 RRA
METAR RJOT 080700Z 04004KT 360V090 9999 FEW025 BKN/// 28/21 Q1009=
METAR RJFO 080700Z 10004KT 8000 FEW030 BKN/// 27/23 Q1007=
####018001682####
SAUS54 KWBC 080700
METAR
KAST 080655Z AUTO 23007KT 4SM BR OVC003 12/11 A2991=
KAWH NIL=
KBFL 080654Z AUTO 33004KT 10SM CLR 26/09 A2982=
KBIH 080656Z AUTO 00000KT 10SM CLR 19/01 A2995=
KBLU 080652Z AUTO 00000KT 10SM CLR 19/08 A3009=
KBNY NIL=
KBUO NIL=
KBZN 080656Z AUTO 19004KT 10SM CLR 12/05 A3026=
KCNY 080653Z AUTO 07011KT 10SM CLR 24/04 A3006=
KCQV NIL=
KCZK NIL=
KCZZ 080652Z AUTO 00000KT 11/09 A2990=
KDRA 080655Z AUTO 04004KT 10SM CLR 23/M12 A2990=
KELY 080653Z AUTO 08005KT 10SM CLR 16/M04 A3019=
KEUG 080654Z 21011KT 10SM CLR 17/11 A2988=
KFLG 080656Z AUTO 00000KT 10SM FEW085 SCT110 16/01 A3024=
KGNG NIL=
KHMM NIL=
KHMS 080650Z 27004KT 15SM SKC 21/06 A2994=
KHTH NIL=
KIGM NIL=
KINW 080656Z AUTO 23007KT 10SM CLR 25/01 A3008=
KIZA NIL=
KJDN NIL=
KJNW NIL=
KJNX 080659Z AUTO 00000KT 4SM CLR 22/22 A2994=
KLGB 080653Z 29004KT 10SM OVC017 17/13 A2991=
KLWS 080656Z AUTO 18003KT 10SM CLR 19/05 A2999=
KMEH 080656Z AUTO 00000KT 10SM CLR 10/08 A3011=
KMFR 080653Z AUTO 09003KT 10SM CLR 27/12 A2987=
KMHS 080656Z AUTO 00000KT 10SM CLR 17/09 A3000=
KMLD NIL=
KMLF 080652Z AUTO 02003KT 10SM CLR 14/01 A3008=
KMQM NIL=
KMWS NIL=
KNUQ 080656Z AUTO 02007KT 10SM OVC015 16/12 A2992=
KOLM 080654Z AUTO 00000KT 10SM CLR 19/12 A2992=
KOWY NIL=
KPDT 080653Z AUTO 10006KT 10SM CLR 19/07 A2995=
KPFC NIL=
KPGA 080653Z AUTO 05005KT 10SM CLR 30/M03 A3000=
KPIH 080653Z AUTO 05004KT 10SM CLR 13/01 A3014=
KPUC 080653Z AUTO 30005KT 10SM CLR 17/01 A3018=
KRBL 080654Z AUTO 00000KT 10SM CLR 27/18 A2981=
KRDD 080653Z AUTO 00000KT 10SM CLR 26/15 A2981=
KSDB 080652Z AUTO 33008KT 10SM CLR 19/03 A3004=
####018000083####
SAUS54 KWBC 080700 CCA
METAR
KSMP 080656Z AUTO 00000KT 10SM CLR 18/03 A3015=
####018000537####
SAUS54 KWBC 080700 RRA
METAR
KSHN 080653Z AUTO 00000KT 10SM CLR 17/12 A2991=
KSJN 080654Z AUTO 14004KT 10SM BKN090 OVC110 24/03 A3015=
KSLC 080653Z 15005KT 10SM CLR 19/08 A3006=
KSMX 080651Z AUTO 33005KT 10SM OVC011 13/11 A2992=
KSOW 080650Z AUTO 17009KT 10SM SCT110 22/04 A3022=
KSVE NIL=
KTRK 080650Z AUTO 00000KT 10SM SCT120 14/08 A3015=
KUIL 080653Z AUTO 04004KT 10SM CLR 19/11 A2992=
KWEY NIL=
KWMC 080656Z AUTO 05017G23KT 10SM CLR 22/M06 A3003=
KXCN NIL=
KYKM 080653Z AUTO 25008KT 10SM CLR 19/06 A2999=
####018001587####
SAEU KAWN 080700 RRR
METAR ENEK 080650Z 22016KT CAVOK 15/13 Q1014 W14/S3=
METAR LEGT 080700Z 03007KT CAVOK 26/12 Q1019=
METAR LERI 080700Z 00000KT CAVOK 25/17 Q1019 NOSIG=
METAR LERT 080700Z 29006KT 7000 SCT005 22/21 Q1015 NOSIG=
METAR LFLW 080700Z 09005KT CAVOK 21/13 Q1022=
METAR LFOF 080700Z VRB03KT CAVOK 20/11 Q1019 NOSIG=
METAR LFOI 080700Z 30003KT 270V340 CAVOK 18/11 Q1019=
METAR LFOR 080700Z 00000KT CAVOK 23/12 Q1019=
METAR LFXA 080700Z VRB01KT CAVOK 22/15 Q1021=
METAR LJLJ 080700Z 00000KT 9999 FEW060 18/12 Q1024 NOSIG=
METAR LJMB 080700Z 03001KT 9999 FEW040 19/12 Q1024=
METAR LJPZ 080700Z 13002KT CAVOK 21/13 Q1022=
METAR LKMT 080700Z VRB02KT 9999 FEW030 17/12 Q1023 NOSIG RMK REG QNH
      1021=
METAR LKPR 080700Z 14004KT 090V190 CAVOK 19/10 Q1023 NOSIG RMK REG
      QNH 1021=
METAR LRAR 080700Z 35010KT 320V050 9999 FEW019 18/15 Q1020=
METAR LRBC 080700Z 36010KT 320V020 CAVOK 22/14 Q1016=
METAR LRBM 080700Z VRB02KT 9999 FEW005 BKN008 BKN010 15/14 Q1018 1019//95=
METAR LRCL 080700Z 00000KT 9999 FEW008 BKN013 OVC020 14/12 Q1020 0821//95=
METAR LRCV 080700Z 02006KT 320V060 9999 FEW040 19/12 Q1016=
METAR LRIA 080700Z 28008KT 230V310 9999 FEW015 BKN028 19/16 Q1016=
METAR LROD 080700Z 03008KT CAVOK 18/13 Q1020=
METAR LRSM 080700Z 35008KT 330V030 9999 FEW012 18/14 Q1019=
METAR LRSV 080700Z AUTO 30010KT 270V350 9999 BKN008 BKN012 OVC017 16/15
      Q1017 RERA=
METAR LRTC 080700Z 35014KT 9999 SCT030CB BKN040 19/16 Q1014=
METAR LRTM 080700Z 24006KT 8000 -RA SCT006 SCT010 BKN023 14/13 Q1020
      0729//95=
####018000082####
SAIR33 OIII 080400 RRD
METAR OICS 080400Z 24002KT 8000 SKC 22/07 Q1014 A2997=
####018000213####
SAUS99 KWBC 080707
METAR
KLUF 080655Z AUTO 01003KT 10SM CLR 30/08 A2974 RMK AO2 SLP038
     T03030076 404130241 $=
KNSE 080656Z AUTO 00000KT 1 1/2SM BR CLR 24/22 A3003 RMK AO2
     SLP153 T02390217 $=
####018000568####
SPUS99 KWBC 080707
SPECI
KACT 080704Z 15004KT 10SM SCT018 BKN038 26/23 A2998 RMK AO2=
KODO 080704Z AUTO 12009KT 8SM -RA BKN033 OVC110 22/20 A3009 RMK
     AO2 LTG DSNT W AND NW P0001=
KTYR 080705Z AUTO 14003KT 10SM BKN006 25/24 A3002 RMK AO2=
PACM 080704Z AUTO 18008KT 3SM RA FEW007 SCT024 BKN048 12/08 A3008
     RMK AO2 TSNO BKN V SCT P0001 $=
PACM 080704Z AUTO 18008KT 3SM RA FEW007 SCT024 BKN048 12/08 A3008
     RMK AO2 TSNO BKN V SCT P0001 $=
PAWD 080704Z AUTO 00000KT 2SM -RA BR SCT003 BKN048 OVC060 10/09
     A2998 RMK AO2 P0000 TSNO=
####018000086####
SANL33 EHDB 080655 RRB
METAR EHSC 080655Z AUTO 23010G12KT 9999 17/14 Q1019 W///S2=
####018000737####
SACI31 ZBBB 080700
METAR ZBAA 080700Z VRB03MPS CAVOK 36/11 Q1003 NOSIG=
METAR ZBSJ 080700Z 10002MPS CAVOK 34/18 Q1004 NOSIG=
METAR ZBTJ 080700Z 13005MPS 090V160 9999 SCT033 33/19 Q1004 NOSIG=
METAR ZBYN 080700Z 06003MPS 020V140 CAVOK 31/11 Q1008 NOSIG=
METAR ZGGG 080700Z 16004MPS 9999 FEW050TCU BKN050 36/24 Q1005 NOSIG=
METAR ZSHC 080700Z 08003MPS 4000 HZ NSC 30/23 Q1004 TEMPO TSRA
 SCT033CB=
METAR ZSPD 080700Z 13005MPS 9999 BKN016 28/23 Q1005 NOSIG=
METAR ZSSS 080700Z 11004MPS 080V150 9999 SCT026 30/22 Q1005 NOSIG=
ZWSH NIL=
METAR ZWWW 080700Z 36004MPS 310V060 9999 FEW050CB 32/09 Q1011 NOSIG=
METAR ZYTL 080700Z 30005MPS 9999 SCT033 28/18 Q1006 NOSIG=
METAR ZYTX 080700Z 31003MPS 9999 FEW030TCU 26/19 Q1006 NOSIG=
####018000086####
SANL33 EHDB 080655 RRC
METAR EHSA 080655Z AUTO 23011G12KT 9999 16/14 Q1019 W16/S2=
####018000319####
SAAP32 FAPR 080700
METAR FABL 080700Z 04010KT CAVOK 10/06 Q1034 NOSIG=
METAR FAJS 080700Z 09009KT 2700 BR BKN002 07/07 Q1037 BECMG 3000
     BKN008=
METAR FDMS 080700Z 00000KT 9999 BKN030 15/13 Q1030 NOSIG=
METAR FLLS 080700Z 08012KT 9999 BKN015 14/10 Q1029=
METAR FQBR 080700Z 18010KT 9999 FEW018 20/17 Q1026=
####018000086####
SANL33 EHDB 080655 RRA
METAR EHJR 080655Z AUTO 25018G19KT //// 16/15 Q1017 W15/S3=
####018000356####
SAPO31 LPMG 080700
METAR LPFR 080700Z 22005KT 180V240 7000 SCT008 BKN010 22/20 Q1015=
METAR LPMA 080700Z VRB03KT 9999 FEW015 19/16 Q1019 RS35001KT
0503002KT 2301010G20KT=
METAR LPPR 080700Z 00000KT 6000 BKN250 20/18 Q1014=
METAR LPPS 080700Z 02010KT 350V060 9999 SCT015 SCT030 19/15 Q1020=
METAR LPPT 080700Z VRB02KT 8000 FEW120 21/19 Q1014 NOSIG=
####018000199####
SAEQ01 SEQU 080700
METAR
SEQU 080700Z 00000KT 9999 FEW020 SCT100 10/08 Q1027 RMK A3034
NOSIG=
SEGU 080700Z 21005KT 9999 BKN030 23/18 Q1011 NOSIG=
SEMT 080700Z 22004KT 9999 BKN016 23/20 Q1012=
####018000088####
SPUS31 KWBC 080707
SPECI
KORD 080704Z 33004KT 10SM -RA SCT033 OVC110 23/22 A3003=
####018001695####
SAUS72 KWBC 080700
METAR
KABI 080652Z 17004KT 9SM CLR 22/21 A3003=
KABQ 080656Z 10018G27KT 10SM OVC130 19/10 A3025=
KABY 080653Z 00000KT 10SM CLR 22/20 A3005=
KACT 080651Z 15005KT 10SM SCT020 BKN025 BKN032 27/23 A2998=
KAEX 080653Z 09004KT 10SM CLR 25/23 A2999=
KAFW 080653Z 16004KT 10SM FEW019 BKN050 OVC080 27/23 A2999=
KAHN 080651Z AUTO 29003KT 9SM CLR 22/19 A3004=
KALI 080653Z AUTO 05006KT 10SM BKN080 26/25 A2986=
KAMA 080653Z 04009KT 1SM RA BR SCT016 BKN025 OVC060 17/16
     A3019=
KANB 080653Z AUTO 00000KT 10SM CLR 23/21 A3005=
KAPF 080653Z AUTO 06005KT 10SM CLR 25/22 A2997=
KATL 080652Z 23004KT 10SM CLR 26/20 A3005=
KAUS 080653Z 05005KT 10SM BKN014 OVC029 26/23 A2996=
KBFM 080653Z AUTO 00000KT 10SM CLR 24/23 A3004=
KBHM 080653Z 02003KT 8SM CLR 25/22 A3006=
KBNA 080653Z 00000KT 10SM FEW095 27/21 A3007=
KBPT 080653Z 09010KT 10SM SCT026 27/24 A2995=
KBQK 080657Z AUTO 00000KT 5SM CLR 22/22 A3002=
KBRO 080653Z 29003KT 10SM FEW050 27/25 A2981=
KCEW 080653Z AUTO 00000KT 5SM BR CLR 22/22 A3004=
KCHA 080653Z 00000KT 10SM CLR 24/18 A3006=
KCLL 080653Z 09005KT 10SM CLR 26/23 A2996=
KCNM 080653Z AUTO 06005KT 10SM BKN060 BKN090 OVC120 22/19
     A3012=
KCRP 080651Z 09005KT 9SM -RA FEW010 SCT070 BKN080 27/26 A2985=
KCSG 080651Z 00000KT 10SM CLR 27/19 A3003=
KCSV 080653Z AUTO 00000KT 10SM CLR 22/17 A3014=
KDAL 080653Z 16008KT 10SM BKN017 27/23 A2999=
KDFW 080653Z 15006KT 10SM BKN016 OVC070 26/23 A2999=
KDHN 080653Z AUTO 00000KT 10SM CLR 23/21 A3007=
KDLF 080655Z AUTO 06004KT 10SM CLR 25/23 A2994=
KDMN 080653Z AUTO 06011G20KT 10SM CLR 22/13 A3011=
KELP 080651Z 05009KT 10SM FEW060 SCT080 BKN110 26/14 A3010=
####018000073####
SAAG01 SABM 080700 RRA
METAR SAEZ 080700Z 29005KT CAVOK 04/00 Q1019=
####018000730####
SAUS20 KNKA 080706
SPECI KBML 080705Z AUTO 00000KT 1SM BR FEW001 BKN005 OVC050 19/19 
    A3008 RMK AO2 $=
METAR KBXK 080655Z AUTO 03006KT 10SM CLR 29/M02 A2975 RMK AO1 =
SPECI KHWV 080705Z AUTO 12003KT 2SM BR BKN002 BKN007 OVC012 24/24 
    A3003 RMK AO2 CIG 002V006=
SPECI KLWC 080705Z AUTO 31008KT 10SM SCT008 OVC019 22/21 A3008 RMK 
    AO2=
SPECI KMEM 080705Z 00000KT 10SM FEW005 SCT250 26/22 A3005 RMK AO2 FU 
    FEW005=
SPECI KNTU 080703Z 11003KT 4SM BR FEW005 26/24 A2994 RMK AO2 CHINO
     RWY 05R $=
METAR KPAN 080715Z AUTO 00000KT 10SM CLR 23/06 A3011 RMK AO1 =
METAR KRQO 080715Z AUTO 00000KT 7SM CLR 23/23 A3005 RMK AO2=
SPECI KSJC 080705Z AUTO 33004KT 10SM BKN019 15/11 A2992 RMK AO2=
####018000089####
SPUS41 KWBC 080707
SPECI
KEWB 080704Z AUTO 15007KT 10SM BKN008 OVC029 23/21 A3006=
####018000084####
SPUS41 KWBC 080707
SPECI
KORH 080703Z AUTO 23007KT 4SM BR BKN004 22/21 A3008=
####018001695####
SAUS72 KWBC 080700 RRA
METAR
KESF 080653Z AUTO 00000KT 10SM CLR 23/22 A3001=
KEYW 080653Z AUTO 08003KT 10SM CLR 28/25 A2993=
KFLL 080653Z 07009KT 10SM FEW021 SCT029 SCT049 28/24 A2993=
KFSM 080653Z AUTO 10003KT 10SM CLR 24/22 A3003=
KFTW 080653Z 16008KT 10SM BKN018 BKN060 26/23 A2999=
KFTY 080653Z 00000KT 10SM CLR 23/18 A3005=
KGGG 080653Z AUTO 11003KT 10SM CLR 25/24 A3000=
KGLS 080652Z AUTO 11016KT 10SM FEW027 28/24 A2992=
KGNV 080653Z AUTO 00000KT 10SM CLR 21/19 A3002=
KGPT 080653Z 05004KT 10SM CLR 27/25 A3001=
KGUP 080653Z AUTO 15008KT 10SM CLR 21/06 A3023=
KGWO 080653Z AUTO 00000KT 10SM CLR 23/23 A3005=
KHOT 080653Z AUTO 00000KT 10SM BKN006 24/23 A3006=
KHOU 080653Z 11009KT 10SM FEW034 BKN130 BKN250 28/23 A2992=
KHRL 080652Z AUTO 35003KT 10SM SCT024 26/26 A2981=
KHRO 080653Z AUTO 00000KT 7SM FEW034 23/22 A3007=
KHSV 080653Z 00000KT 10SM CLR 26/23 A3006=
KIAH 080653Z 08006KT 10SM FEW020 BKN130 BKN250 26/24 A2994=
KINK 080653Z AUTO 10007KT 10SM FEW036 SCT050 BKN060 23/19
     A3006=
KJAN 080654Z 00000KT 9SM CLR 24/23 A3005=
KJAX 080656Z 27004KT 10SM CLR 20/19 A3001=
KJBR 080653Z AUTO 23006KT 10SM CLR 26/23 A3004=
KLBB 080653Z 13004KT 10SM FEW013 SCT030 OVC130 21/19 A3013=
KLCH 080653Z AUTO 08006KT 10SM CLR 26/23 A2997=
KLFT 080653Z AUTO 00000KT 10SM CLR 25/23 A3000=
KLIT 080653Z 00000KT 7SM SCT150 24/23 A3005=
KLRD 080656Z AUTO 00000KT 10SM CLR 27/24 A2991=
KLRU 080651Z AUTO 04008KT 10SM CLR 21/14 A3015=
KMAF 080653Z AUTO 09003KT 10SM FEW047 BKN110 22/20 A3008=
KMCO 080653Z 00000KT 10SM CLR 22/20 A3000=
KMEI 080658Z AUTO 00000KT 10SM CLR 23/23 A3004=
KMEM 080653Z 00000KT 10SM SCT250 26/22 A3005=
####018001691####
SAUS72 KWBC 080700 RRB
METAR
KMFE 080653Z AUTO 36008KT 10SM FEW022 SCT028 BKN035 27/24
     A2983=
KMIA 080653Z 04004KT 10SM FEW030 SCT250 28/24 A2994=
KMKL 080653Z AUTO 00000KT 10SM CLR 23/21 A3006=
KMLB 080653Z AUTO 08003KT 10SM CLR 26/22 A2998=
KMLC 080653Z AUTO 00000KT 10SM CLR 24/23 A3002=
KMLU 080653Z AUTO 10003KT 9SM CLR 26/24 A3003=
KMOB 080656Z 00000KT 10SM CLR 24/23 A3004=
KMSL 080653Z AUTO 00000KT 10SM CLR 24/22 A3007=
KMSY 080653Z 08003KT 10SM FEW250 27/23 A3000=
KNEW 080653Z AUTO 10005KT 10SM CLR 27/24 A3001=
KNGP 080656Z AUTO 08005KT 10SM FEW055 28/26 A2983=
KOKC 080652Z 06003KT 10SM FEW023 SCT150 24/22 A3004=
KPBI 080653Z 05007KT 10SM SCT032 SCT250 28/23 A2994=
KPDK 080653Z AUTO 00000KT 10SM CLR 24/19 A3005=
KPFN NIL=
KPIE 080653Z AUTO 11007KT 10SM BKN055 26/21 A3000=
KPNS 080653Z AUTO 00000KT 10SM CLR 25/24 A3002=
KROW 080651Z AUTO 35007KT 10SM FEW038 BKN045 OVC100 20/15
     A3018=
KRSW 080653Z 05005KT 10SM CLR 24/22 A2997=
KSAT 080653Z 07006KT 10SM BKN016 BKN250 26/23 A2995=
KSFB NIL=
KSHV 080656Z 13003KT 10SM SCT180 BKN280 25/24 A3000=
KSJT 080651Z AUTO 05005KT 10SM -RA BKN035 22/19 A3003=
KSRQ 080653Z 07005KT 10SM CLR 24/22 A2998=
KSSI 080653Z AUTO 22005KT 10SM CLR 24/22 A3001=
KTCC 080653Z AUTO 08005KT 10SM BKN100 18/16 A3021=
KTCL 080653Z AUTO 00000KT 7SM CLR 24/23 A3003=
KTCS 080653Z AUTO 13007KT 10SM FEW110 19/14 A3019=
KTLH 080653Z 00000KT 10SM FEW095 24/22 A3002=
KTPA 080653Z 00000KT 10SM SCT250 26/21 A3001=
KTUL 080653Z 11009KT 10SM -RA BKN040 OVC055 23/22 A3001=
KTXK 080653Z AUTO 00000KT 10SM SCT007 23/23 A3003=
KTYR 080653Z AUTO 00000KT 10SM FEW006 24/24 A3002=
####018000365####
SAUS72 KWBC 080700 CCA
METAR
KBTR 080653Z 06005KT 10SM SCT200 24/23 A2999=
KDAB 080653Z 00000KT 10SM FEW026 21/20 A3000=
KMCN 080653Z AUTO 12003KT 10SM CLR 22/20 A3003=
KMGM 080653Z 00000KT 10SM CLR 26/23 A3002=
KTRI 080653Z 00000KT 5SM HZ CLR 23/19 A3010=
KTUP 080653Z AUTO 04003KT 10SM CLR 24/23 A3005=
KTYS 080653Z 00000KT 8SM CLR 24/20 A3006=
####018000386####
SAUS72 KWBC 080700 RRC
METAR
KVCT 080651Z AUTO 04007KT 10SM CLR 26/25 A2989=
KVLD 080653Z AUTO 00000KT 10SM CLR 21/19 A3003=
KVRB 080653Z AUTO 07003KT 10SM CLR 25/22 A2997=
TIST 080653Z AUTO 10006KT 10SM CLR 28/24 A2997=
TISX 080653Z 11010KT 10SM FEW021 28/24 A2997=
TJBQ NIL=
TJMZ NIL=
TJPS NIL=
TJSJ 080656Z 00000KT 10SM CLR 27/24 A2997=
TKPK NIL=
TNCM NIL=
####018000282####
SABC40 FBSK 080700
METAR FBSK 080700Z 10012KT CAVOK 13/09 Q1033 NOSIG=
METAR FBFT 080700Z 10014KT 9999 FEW015 16/11 Q1032=
METAR FBMN 080700Z 09020KT CAVOK 15/05 Q1029=
METAR FBKE 080700Z 11015KT CAVOK 15/06 Q1028=
METAR FBSP 080700Z /////KT 9999 FEW015 14/11 Q1032=

####018000084####
SPCN52 CWAO 080702
SPECI CWSA 080702Z AUTO 23007KT 1/8SM OVC005 17/17 A3016=

####018000087####
SANL33 EHDB 080655 RRB
METAR EHSC 080655Z AUTO 23010G12KT 9999 17/14 Q1019 W///S2=
####018000087####
SANL33 EHDB 080655 RRC
METAR EHSA 080655Z AUTO 23011G12KT 9999 16/14 Q1019 W16/S2=
####018000085####
SAGD31 TGPY 080700
METAR TGPY 080700Z 08009KT 9999 FEW020 SCT280 28/26 Q1012,HZ=
####018000323####
SAPL32 EPWA 080700
METAR EPKT 080700Z 33005KT CAVOK 18/08 Q1023=
METAR EPLL 080700Z 01006KT 9999 FEW040 18/09 Q1022=
METAR EPSC 080700Z 19003KT CAVOK 19/12 Q1022=
METAR EPWR 080700Z 18004KT 140V230 CAVOK 20/11 Q1024=
METAR EPBY 080700Z 29005KT CAVOK 18/12 Q1022=
METAR EPZG 080700Z VRB03KT CAVOK 20/11 Q1023=
####018000087####
SANL33 EHDB 080655 RRA
METAR EHJR 080655Z AUTO 25018G19KT //// 16/15 Q1017 W15/S3=
####018000362####
SAPO31 LPMG 080700
METAR LPFR 080700Z 22005KT 180V240 7000 SCT008 BKN010 22/20 Q1015=
METAR LPMA 080700Z VRB03KT 9999 FEW015 19/16 Q1019 RS35001KT
0503002KT 2301010G20KT=
METAR LPPR 080700Z 00000KT 6000 BKN250 20/18 Q1014=
METAR LPPS 080700Z 02010KT 350V060 9999 SCT015 SCT030 19/15 Q1020=
METAR LPPT 080700Z VRB02KT 8000 FEW120 21/19 Q1014 NOSIG=
####018000086####
SAIR31 OIII 080700 RRB
METAR OIII 080700Z 17006KT CAVOK 36/M01 Q1015 A2997 880.0=
####018000385####
SAPL31 EPWA 080700
METAR EPWA 080700Z 29009KT 260V330 CAVOK 15/12 Q1021 NOSIG=
METAR EPGD 080700Z 30011KT CAVOK 20/11 Q1021=
METAR EPKK 080700Z 22005KT CAVOK 17/12 Q1022=
METAR EPPO 080700Z 25004KT 180V290 CAVOK 19/07 Q1023=
METAR EPRZ 080700Z 33006KT 9999 FEW026 18/11 Q1021=
METAR EPBY 080700Z 29005KT CAVOK 18/12 Q1022=
METAR EPZG 080700Z VRB03KT CAVOK 20/11 Q1023=
####018001655####
SAUS73 KWBC 080700
METAR
KABR 080653Z AUTO 23005KT 10SM CLR 16/14 A3012=
KALN NIL=
KALO 080654Z AUTO 29006KT 10SM CLR 20/19 A3005=
KAPN 080654Z AUTO 00000KT 5SM BR CLR 19/19 A3001=
KASE 080653Z 20006KT 10SM SCT100 BKN120 08/06 A3040=
KATY 080653Z AUTO 23004KT 10SM CLR 16/14 A3014=
KAXN 080653Z AUTO 24005KT 10SM CLR 15/14 A3011=
KAZO 080653Z AUTO 00000KT 5SM HZ CLR 23/20 A3005=
KBDE 080653Z AUTO 23005KT 10SM CLR 16/13 A2999=
KBFF 080653Z AUTO 00000KT 10SM FEW049 OVC075 16/13 A3029=
KBIS 080652Z AUTO 27003KT 10SM CLR 15/11 A3013=
KBJC 080657Z AUTO 27004KT 5SM BR SCT055 SCT085 OVC100 14/13
     A3035=
KBKF 080655Z 34003KT 7SM SCT004 OVC010 14/14 A3035=
KBRL 080653Z AUTO 1 3/4SM BR CLR 23/22 A3002=
KBTL 080653Z AUTO 00000KT 10SM CLR 24/21 A3006=
KCGI 080653Z AUTO 00000KT 8SM CLR 24/24 A3003=
KCID 080652Z AUTO 33005KT 8SM FEW120 21/20 A3003=
KCIU 080655Z AUTO 16005KT 10SM SCT080 BKN100 OVC120 19/17
     A2999=
KCMI 080653Z AUTO 00000KT 8SM FEW055 BKN070 OVC090 24/23 A3005=
KCMX 080653Z AUTO 00000KT 9SM OVC002 18/17 A2998=
KCOS 080654Z 10008KT 10SM BKN050 OVC065 14/12 A3039=
KCOU 080654Z AUTO 13003KT 10SM -RA SCT001 BKN030 23/22 A3005=
KCPR 080653Z AUTO 00000KT 10SM CLR 06/05 A3032=
KCYS 080653Z AUTO 12005KT 1SM BR OVC002 12/12 A3036=
KDDC 080652Z AUTO 03006KT 7SM CLR 18/17 A3017=
KDEC 080654Z AUTO 00000KT 10SM FEW120 26/22 A3004=
KDEN 080653Z 00000KT 4SM BR OVC080 15/14 A3033=
KDET 080653Z 00000KT 10SM CLR 26/21 A3004=
KDLH 080655Z 32006KT 10SM SCT050 17/14 A3005=
KDSM 080654Z 33007KT 10SM BKN140 OVC200 23/21 A3005=
KDTW 080653Z 00000KT 6SM HZ SCT150 25/21 A3004=
####018001651####
SAUS73 KWBC 080700 RRA
METAR
KEAU 080656Z AUTO 23005KT 9SM SCT060 20/19 A3001=
KEGE 080655Z 26005KT 10SM CLR 12/10 A3037=
KELO 080653Z AUTO 00000KT 10SM CLR 14/14 A3004=
KEVV 080654Z AUTO 00000KT 10SM CLR 26/22 A3005=
KFAR 080653Z 24006KT 10SM CLR 17/13 A3005=
KFNT 080653Z AUTO 00000KT 9SM CLR 24/22 A3004=
KFSD 080656Z 28003KT 10SM CLR 16/14 A3016=
KFWA 080654Z 21004KT 10SM CLR 24/20 A3006=
KGCK 080654Z AUTO 04010KT 10SM FEW049 BKN060 18/17 A3019=
KGFK 080653Z 26006KT 10SM CLR 16/12 A3003=
KGJT 080653Z AUTO 07017G30KT 10SM CLR 22/06 A3014=
KGRB 080653Z AUTO 18007KT 9SM -RA BKN055 21/20 A2998=
KGRI 080653Z AUTO 34006KT 10SM CLR 17/14 A3019=
KGRR 080653Z AUTO 16003KT 7SM SCT050 SCT080 BKN120 25/22 A3004=
KGYY NIL=
KHIB 080653Z AUTO 00000KT 1SM BR CLR 11/10 A3006=
KHON 080655Z AUTO 22006KT 10SM CLR 18/14 A3015=
KHUF 080653Z 00000KT 6SM BR FEW090 23/21 A3005=
KHUT 080652Z AUTO 36003KT 10SM SCT110 22/20 A3011=
KICT 080653Z 01005KT 10SM BKN025 BKN070 BKN200 23/21 A3009=
KIKK NIL=
KIND 080654Z 19003KT 9SM CLR 25/20 A3004=
KINL 080655Z AUTO 00000KT 10SM FEW060 SCT090 15/13 A3001=
KIRK 080655Z AUTO 18003KT 6SM BR CLR 19/19 A3006=
KJAC 080655Z AUTO 01012G15KT 10SM CLR 13/M01 A3031=
KJLN 080653Z 35003KT 10SM SCT034 BKN041 OVC110 23/22 A3005=
KJMS 080656Z AUTO 00000KT 10SM CLR 13/13 A3008=
KJXN 080656Z 00000KT 10SM CLR 23/22 A3005=
KLAN 080653Z 00000KT 6SM BR CLR 24/22 A3004=
KLAR 080653Z AUTO 18006KT 10SM CLR 09/09 A3037=
KLBF 080653Z AUTO 00000KT 10SM OVC048 16/16 A3025=
KLBL 080655Z 06011KT 10SM FEW031 BKN039 21/17 A3019=
KLEX 080654Z 00000KT 7SM CLR 23/18 A3009=
####018001181####
SACN41 CWAO 080700
METAR CBBC 080700Z AUTO 16003KT 9SM CLR 17/14 A3000 RMK SLP157=
METAR CYBD NIL=
METAR CYCD NIL=
METAR CYCG NIL=
METAR CYDA NIL=
METAR CYGE NIL=
METAR CYKA 080700Z 11003KT 40SM SKC 21/08 A3003 RMK SLP168=
METAR CYLW 080700Z AUTO 05003KT 9SM CLR 15/08 A3004 RMK SLP173
 DENSITY ALT 1500FT=
METAR CYMA 080700Z 27005KT 20SM FEW050 14/07 A3006 RMK SC1 SLP188=
METAR CYOC NIL=
METAR CYPW NIL=
METAR CYQH 080700Z 00000KT 30SM FEW030 SCT090 15/08 A3010 RMK SC1AC3
SLP198=
METAR CYQU 080700Z 02005KT 25SM TS FEW060CB SCT090 BKN250 15/12 A3006
RMK CB2AC1CI0 LTGIC N SLP181=
METAR CYSD NIL=
METAR CYWL 080700Z 03004KT 15SM SKC 17/08 A3012 RMK SLP191=
METAR CYXJ NIL=
METAR CYXT 080700Z 00000KT 20SM SKC 22/10 A3005 RMK SLP175=
METAR CYXY 080700Z 00000KT 40SM FEW120 15/05 A3013 RMK AC1 SLP212=
METAR CYYD 080700Z AUTO VRB02KT 9SM CLR 16/12 A3006 RMK DENSITY ALT
 2000FT=
METAR CYYE 080700Z 36005KT 20SM FEW210 15/07 A3002 RMK CI0 SLP169=
METAR CYYF 080700Z 00000KT 15SM SKC 18/09 A3004 RMK SLP167=
METAR CYZW NIL=
METAR CYZY 080700Z AUTO 00000KT 9SM CLR 17/10 A3005 RMK SLP178=
METAR CZFA NIL=
METAR CZMT NIL=

####018000042####
SACN40 CWAO 080700
METAR CYWH NIL=

####018002206####
SACN31 CWAO 080700
METAR CYAW NIL=
METAR CYBG 080700Z 07003KT 3SM BR FEW048 SCT078 20/18 A2998 RMK
SC1AC2 SLP152=
METAR CYCH NIL=
METAR CYEG 080700Z 20006KT 15SM FEW100 SCT260 12/11 A3012 RMK AC1CI1
SLP204=
METAR CYFB 080700Z 34004KT 30SM FEW110 FEW250 06/04 A2983 RMK AC1CI1
SLP102=
METAR CYFC 080700Z AUTO 21007KT 8SM SCT010 20/19 A3004 RMK SLP173
 DENSITY ALT 500FT RVR MISG=
METAR CYGL 080700Z 12004KT 15SM BKN100 18/14 A2992 RMK AC6 SLP135=
METAR CYHZ 080700Z 22003KT 2SM BR OVC001 17/17 A3013 RMK ST8 SLP200=
METAR CYJT 080700Z 07005KT 15SM SCT025 BKN070 17/16 A3007 RMK SC3AC3
SLP184=
METAR CYMX 080700Z 00000KT 10SM FEW060 24/20 A2999 RMK SC1 SLP156=
METAR CYOW 080700Z 32005KT 15SM SKC 24/20 A3000 RMK SLP158=
METAR CYQB 080700Z 07005KT 12SM SCT070 SCT180 19/17 A2999 RMK AC3AC1
HAZY SLP154=
METAR CYQG 080700Z 23004KT 15SM FEW090 26/22 A3003 RMK AC1 SLP165=
METAR CYQM 080700Z 18006KT 15SM FEW120 SCT260 17/15 A3005 RMK AC1CI2
SLP177=
METAR CYQQ 080700Z 34003KT 20SM SKC 20/14 A2995 RMK SLP144=
METAR CYQX 080700Z 15010KT 15SM BKN006 OVC029 09/09 A3016 RMK SF6SC2
SLP217=
METAR CYQY 080700Z 22005KT 15SM FEW090 16/16 A3009 RMK AC2 SLP191=
METAR CYTR 080700Z 00000KT 4SM HZ SKC 23/19 A3001 RMK SLP162=
METAR CYUL NIL=
METAR CYVR 080700Z 08003KT 30SM SKC 21/14 A2993 RMK SLP136=
METAR CYWG 080700Z 26006KT 15SM FEW078 15/13 A2996 RMK AC2 SLP148=
METAR CYXX NIL=
METAR CYYC 080700Z 22004KT 15SM FEW090 FEW110 15/09 A3021 RMK AC1AC2
SLP226=
METAR CYYJ 080700Z 27002KT 30SM SKC 19/13 A2994 RMK SLP140=
METAR CYYQ 080700Z 26007KT 15SM FEW050 12/11 A2967 RMK SC2 SLP049=
METAR CYYR 080700Z 18007KT 15SM FEW020 FEW045 FEW270 14/12 A2999 RMK
SC1SC1CI1 SLP156=
METAR CYYT 080700Z 12004KT 8SM PRFG BKN004 OVC020 08/08 A3021 RMK
SF7SC1 FG BNK E-SE VIS 3 SLP235=
METAR CYYZ 080700Z 00000KT 15SM BKN095 25/23 A3003 RMK AC6 SLP167=
METAR CYZF 080700Z 34005KT 15SM BKN110 BKN210 17/09 A2994 RMK AC5CI0
SLP142=
METAR CYZV 080700Z 07002KT 5/8SM R09/4500FT/N -DZ BR OVC002 13/13
A3003 RMK FG2ST6 CIG VRB 1-5 VIS VRB 1/2-3/4 SLP170=
METAR CYZX 080700Z 21003KT 1/2SM FG VV002 16/16 A3010 RMK FG8 WNDY
HILL 23006KT SLP194=

####018000254####
SAGG31 UGTB 080700
METAR UGTB 080700Z 30011KT 9999 SCT050 BKN100 29/17 Q1015 NOSIG RMK
      31CLRD80=
METAR UGKO 080700Z 00000KT 9999 SCT033CB BKN100 28/22 Q1013
           NOSIG=
METAR UGSB 080700Z 29008KT 9999 FEW023 SCT070 27/23 Q1011 NOSIG=
####018001642####
SAIY42 LIIB 080700
METAR LIBF 080650Z 33009KT CAVOK 24/12 Q1020 RMK VIS MIN 9999=
METAR LIEA 080650Z 36006KT 330V050 CAVOK 25/22 Q1019 RMK VIS MIN
9999=
METAR LIED 080655Z 32006KT CAVOK 24/21 Q1017 RMK SKC VIS MIN 9999
      BLU=
METAR LIEO 080650Z VRB02KT CAVOK 26/22 Q1019 RMK VIS MIN 9999=
METAR LIMA 080650Z 04003KT 9999 SCT040 23/16 Q1022 RMK VIS MIN 9999=
METAR LIQN 080700Z NIL=
METAR LIQO 080655Z 36015KT CAVOK 22/13 Q1020 RMK SKC VAL NIL NC VIS
      MIN 9999=
METAR LIQW 080700Z NIL=
METAR COR LIRE 080655Z 18006KT 9999 FEW015TCU SCT018 26/23 Q1018 RERA
      RMK BKN VIS MIN 9999 WIND THR31 17006KT BLU=
METAR LIRG 080655Z 28002KT 9999 FEW040 26/18 Q1019 RMK SCT MON NE
     LIB NC VIS MIN 9999 BLU=
METAR LIRH 080655Z 23001KT 9999 FEW035 24/16 Q1019 RMK SCT MON LIB NC
      VIS MIN 9999 WIND THR16 17001KT BLU=
METAR LIRI 080650Z 05006KT CAVOK 26/11 Q1019 RMK VIS MIN 9999=
METAR LIRK 080655Z 12004KT CAVOK 15/10 Q1025 RMK SKC MON NE LIB NC
      VAL NIL NC VIS MIN 9999=
METAR LIRL 080655Z 29005KT 9999 FEW015 SCT030 26/21 Q1018 RMK SCT MON
      LIB NC VIS MIN 9999 BLU=
METAR LIRM 080655Z 06011KT CAVOK 25/17 Q1019 RMK SKC VIS MIN 9999
      WIND THR06 05012KT BLU=
METAR LIRS 080655Z 06007KT CAVOK 27/10 Q1019 RMK FEW FEW200 VIS MIN
      9999 WIND THR21 /////KT BLU=
METAR LIRT 080655Z 04004KT CAVOK 16/08 Q1022 RMK SKC MON LIB VAL NIL
      VIS MIN 9999=
METAR LIRU 080700Z NIL=
METAR LIRV 080655Z 05009KT CAVOK 23/14 Q1020 RMK FEW FEW200 MON E SE
      LIB NC VIS MIN 9999 BLU=
METAR LIRX 080700Z NIL=
METAR LIRZ 080650Z 36003KT CAVOK 24/13 Q1021 RMK VIS MIN 9999=
####018000171####
SABC40 FBSK 080700
METAR FBFT 080700Z 10014KT 9999 FEW015 16/11 Q1032=
METAR FBKE 080700Z 11013KT CAVOK 15/06 Q1028=
METAR FBMN 080700Z 09020KT CAVOK 15/05 Q1029=
####018001857####
SAIY40 LIIB 080700
METAR LIMG 080650Z 00000KT 9999 BKN080 25/20 Q1020 RMK VIS MIN 9999=
METAR LIMK 080655Z 02007KT 9999 FEW020 SCT030 18/14 Q1022 RMK BKN VAL
      NIL VIS MIN 9999=
METAR LIMN 080655Z /////KT 9999 SCT050 24/16 Q1021 RMK SCT VIS MIN
      9999 BLU=
METAR LIMP 080650Z 06005KT 6000 NSC 22/17 Q1022 RMK VIS MIN 6000=
METAR LIMS 080655Z 11006KT 050V130 CAVOK 23/19 Q1021 RMK FEW FEW200
      VIS MIN 9999 WIND THR30 10005KT BLU=
METAR LIMZ 080700Z NIL=
METAR LIPA 080655Z 21002KT 9999 BKN045 SCT070 21/16 Q1022 RMK BKN VIS
      MIN 9999 A3019 BLU=
METAR LIPB 080650Z 25002KT 9999 BKN070 24/11 Q1022 RMK MON LIB VIS
MIN 9999=
METAR LIPC 080655Z 16009KT CAVOK 24/14 Q1021 RMK FEW FEW200 VIS MIN
      9999 WIND THR12 13008KT BLU=
METAR LIPF 080655Z 36002KT CAVOK 23/19 Q1021 RMK FEW FEW250 VIS MIN
      9999=
METAR LIPH 080645Z 03002KT 9999 SCT020 BKN045 22/18 Q1023 RMK OVC VIS
      MIN 9999 WIND THR07 /////KT BLU=
METAR LIPI 080655Z 07004KT 9999 FEW030 BKN060 23/19 Q1022 RMK BKN
     VIS MIN 9999 WIND THR06 08004KT BLU=
METAR LIPL 080655Z 09007KT 050V130 9999 FEW045 SCT063 23/19 Q1022 RMK
      BKN VIS MIN 9999 BLU=
METAR LIPO 080650Z 09008KT 9999 FEW045 BKN065 24/15 Q1021 RMK VIS
MIN 9999=
METAR LIPQ 080650Z VRB01KT 9999 BKN050 21/15 Q1022=
METAR LIPR 080645Z 12006KT CAVOK 25/18 Q1021 RMK SKC VIS MIN 9999
      WIND THR31 14007KT BLU=
METAR LIPS 080655Z 05004KT 9999 BKN040 21/15 Q1022 RMK BKN VIS MIN
      9999 BLU=
METAR LIPX 080645Z 06009KT 9999 SCT060 BKN080 25/15 Q1021 RMK BKN VIS
      MIN 9999 BLU=
METAR LIPY 080650Z 14006KT 100V200 CAVOK 25/12 Q1021 RMK VIS MIN
9999=
METAR LIVC 080655Z 36012KT CAVOK 12/10 Q1029 RMK SCT SCT110 MON LIB
      VAL NIL VIS MIN 9999=
METAR LIVP 080655Z VRB02KT 0500 VV/// 10/09 Q1028 RMK MON INVIS VAL
      INVIS VIS MIN 0500=
####018001688####
SAUS73 KWBC 080700 RRB
METAR
KLNK 080654Z AUTO 35008KT 10SM CLR 19/18 A3012=
KLOU 080653Z AUTO 00000KT 7SM CLR 27/21 A3006=
KLOZ 080653Z AUTO 02003KT 4SM BR CLR 22/20 A3010=
KLSE 080653Z AUTO 32005KT 10SM CLR 22/19 A3001=
KMBS 080653Z 18004KT 10SM CLR 25/22 A3002=
KMCI 080653Z 32005KT 8SM SCT110 OVC130 22/22 A3007=
KMDW 080651Z 26006KT 9SM FEW050 BKN095 OVC200 24/22 A3004=
KMHK 080652Z AUTO 03004KT 10SM BKN100 BKN120 22/21 A3008=
KMKC 080654Z 32003KT 10SM FEW100 23/21 A3005=
KMKE 080652Z 28009KT 10SM -RA SCT065 BKN085 OVC200 24/22 A3001=
KMKG 080655Z 26003KT 9SM -RA SCT070 BKN080 OVC100 23/22 A3003=
KMLI 080652Z 00000KT 9SM CLR 23/22 A3001=
KMOT 080654Z AUTO 30004KT 10SM CLR 16/12 A3008=
KMSN 080653Z 00000KT 7SM OVC120 22/21 A3000=
KMSP 080653Z 31006KT 10SM FEW090 21/17 A3006=
KOFF 080655Z AUTO 34005KT 10SM CLR 21/21 A3010=
KOMA 080652Z 34004KT 10SM SCT130 20/19 A3011=
KORD 080651Z 30004KT 10SM -TSRA BKN033CB OVC100 23/22 A3004=
KOSH 080653Z AUTO 18005KT 7SM -RA SCT070 OVC110 22/20 A3000=
KOTM 080653Z AUTO 32004KT 4SM BR CLR 21/21 A3003=
KOWB 080656Z AUTO 00000KT 10SM CLR 26/23 A3006=
KPAH 080653Z AUTO 00000KT 10SM CLR 23/22 A3004=
KPIA 080654Z 13003KT 4SM BR FEW060 BKN080 OVC110 23/22 A3003=
KPIR 080653Z AUTO 24009KT 10SM CLR 16/13 A3015=
KPLN 080654Z AUTO 00000KT 10SM OVC100 22/21 A2999=
KPTK 080653Z 00000KT 10SM SCT250 26/22 A3004=
KPUB 080653Z AUTO 00000KT 10SM BKN012 BKN065 15/14 A3032=
KRAP 080652Z AUTO 00000KT 10SM CLR 11/09 A3024=
KRFD 080654Z 00000KT 10SM -RA FEW040 BKN047 OVC070 22/21 A3004=
KRKS 080654Z AUTO 08012KT 10SM CLR 11/04 A3032=
KRST 080654Z AUTO 33005KT 7SM CLR 20/19 A3007=
####018000078####
SAMT20 GQPP 080700
METAR GQPP 080700Z 35014KT 8000 NSC 21/19 Q1010 NOSIG=
####018001507####
SAIY43 LIIB 080700
METAR LIBA 080655Z /////KT 9999 FEW040 24/14 Q1019 RMK FEW VIS MIN
      9999 WIND THR29 00000KT BLU=
METAR LIBC 080650Z 01017KT 9999 FEW030 25/14 Q1018 RMK VIS MIN 9999=
METAR LIBD 080650Z 01012KT CAVOK 24/11 Q1019 RMK VIS MIN 9999=
METAR LIBG 080650Z 35015KT 320V030 CAVOK 25/10 Q1017 RMK VIS MIN
9999=
METAR LIBN 080655Z 35017KT 9999 FEW030 24/14 Q1016 RMK FEW VIS MIN
      9999 WIND THR14 35016KT BLU=
METAR LIBP 080650Z VRB01KT CAVOK 23/15 Q1021 RMK VIS MIN 9999=
METAR LIBQ 080655Z 08008KT CAVOK 13/13 Q1023 RMK SKC MON LIB VAL NIL
      VIS MIN 9999=
METAR LIBR 080645Z /////KT 9999 FEW020 24/17 Q1016 NOSIG RMK FEW VIS
      MIN 9999 WIND THR13 WIND THR31 34014KT BLU=
METAR LIBV 080655Z 36017G27KT CAVOK 23/14 Q1017 RMK SKC VIS MIN 9999
      WIND THR14 35020KT BLU=
METAR LICA 080650Z 22004KT 9999 FEW020 25/22 Q1017 RMK VIS MIN 9999=
METAR LICC 080650Z 25004KT CAVOK 26/20 Q1018 RMK VIS MIN 9999=
METAR LICD 080650Z 35008KT 270V350 9000 SCT010 24/21 Q1018 RMK VIS
MIN 8000NW=
METAR LICG 080655Z 33006KT 9999 BKN010 22/19 Q1018 RMK BKN VIS MIN
      9999 WIND THR08 30005KT WIND THR21 31007KT GRN=
METAR LICJ 080650Z 07013KT CAVOK 28/20 Q1018 RMK VIS MIN 9999=
METAR LICR 080650Z 01008KT 330V060 CAVOK 28/20 Q1017 RMK VIS MIN
9999=
METAR LICT 080655Z 01001KT 9999 FEW030 29/24 Q1017 RMK FEW VIS MIN
      9999 WIND THR13 33006KT BLU=
METAR LICZ 080655Z 27002KT CAVOK 25/20 Q1018 RMK SKC VIS MIN 9999
      WIND THR28 /////KT BLU=
####018001064####
SAIY41 LIIB 080700
METAR LIMH 080655Z 06010KT CAVOK 06/M14 Q1037 RMK FEW FEW100 MON LIB
      VAL S MAR CLD VIS MIN 9999=
METAR LIMT 080700Z NIL=
METAR LIMU 080655Z 02005KT CAVOK 26/24 Q1019 RMK BKN SCT070 SCT080
      QUK 1 QUL 1 S VIS MAR 20 KM VIS MIN 9999=
METAR LIMV 080655Z 03012KT 8000 3000N NSC 19/18 Q1021 RMK BKN BKN200
      MON N INVIS S LIB VAL FOSCHIA VIS MIN 3000N=
METAR LIMY 080655Z /////KT 4000 BR OVC026 21/19 Q1022 RMK OVC VAL
      FOSCHIA VIS MIN 4000=
METAR LIVD 080655Z 00000KT 9999 FEW030 14/09 Q1026 RMK FEW VIS MIN
      9999=
METAR LIVE 080700Z NIL=
METAR LIVF 080655Z 15006KT CAVOK 23/08 Q1021 RMK SKC MON LIB VAL NIL
      VIS MIN 9999=
METAR LIVM 080655Z 14007KT CAVOK 25/21 Q1021 RMK SKC QUK 2 QUL 1 SE
      VIS MAR 25 KM VIS MIN 9999=
METAR LIVO 080655Z 15001KT CAVOK 15/13 Q1023 RMK SKC VIS MIN 9999=
METAR LIVR 080655Z /////KT 0200 FG VV001 11/10 Q1028 RMK MON INVIS
      VIS MIN 0200=
METAR LIVT 080655Z 08002KT CAVOK 23/12 Q1021 RMK BKN BKN100 QUK 0 QUL
      0 VIS MAR 20 KM VIS MIN 9999=
####018000128####
SAIY42 LIIB 080700 CCA
METAR LIRV 080655Z 05009KT CAVOK 23/14 Q1020 RMK FEW FEW200 MON E SE
      LIB NC VIS MIN 9999 BLU=
####018000959####
SAUS73 KWBC 080700 RRC
METAR
KSAW 080659Z AUTO 00000KT 10SM OVC003 18/17 A2997=
KSBN 080654Z 11004KT 10SM OVC110 25/21 A3004=
KSDF 080656Z 00000KT 8SM CLR 27/21 A3005=
KSDM 080653Z AUTO 00000KT 10SM OVC014 17/13 A2991=
KSGF 080652Z 00000KT 10SM SCT120 23/22 A3005=
KSLN 080653Z AUTO 34007KT 8SM FEW013 22/21 A3010=
KSPI 080652Z AUTO 00000KT 10SM -RA FEW060 BKN070 OVC090 24/23
     A3004=
KSTC 080653Z AUTO 00000KT 4SM BR CLR 14/13 A3008=
KSTJ 080653Z AUTO 19005KT 6SM BR FEW016 OVC110 23/22 A3006=
KSTL 080651Z 23004KT 10SM FEW027 SCT050TCU BKN075 BKN150 BKN250
     27/23 A3004=
KSTP 080653Z 33005KT 10SM CLR 21/18 A3006=
KSUS 080654Z AUTO 00000KT 10SM BKN048 BKN060 24/23 A3002=
KSUX 080652Z 31004KT 10SM CLR 18/17 A3014=
KTVC 080653Z AUTO 00000KT 10SM FEW110 23/21 A2999=
KUIN 080654Z AUTO 00000KT 10SM OVC018 23/22 A3005=
KWRL 080653Z AUTO 19005KT 10SM CLR 13/05 A3025=
KYIP 080653Z 00000KT 8SM CLR 24/21 A3005=
####018000088####
SPUS73 KWBC 080707
SPECI
KORD 080704Z 33004KT 10SM -RA SCT033 OVC110 23/22 A3003=
####018000088####
SPUS74 KWBC 080707
SPECI
KCEC 080704Z AUTO 00000KT 1 1/2SM BR OVC001 10/09 A2998=
####018000087####
SAMZ40 FQMA 080700
METAR
FQLC 080700Z 16010KT 9999 FEW008 SCT014 14/11 Q1029=

####018000596####
SACN60 CWAO 080700
PAC NIL=
PAF NIL=
PAT NIL=
PAZ NIL=
PBB NIL=
PBD NIL=
PBN NIL=
PCC NIL=
PCI NIL=
PDA NIL=
PDB NIL=
PDU NIL=
PEB NIL=
PEL NIL=
PET NIL=
PFA NIL=
PFB NIL=
PFM NIL=
PGC NIL=
PGI NIL=
PHA NIL=
PHE NIL=
PHR NIL=
PHU NIL=
PHW NIL=
PIA NIL=
PJT NIL=
PKA NIL=
PKI NIL=
PLA NIL=
PLC NIL=
PLF NIL=
PLG NIL=
PMA NIL=
PMB NIL=
PML NIL=
PMN NIL=
PNS NIL=
PPL NIL=
PRD NIL=
PRF NIL=
PRH NIL=
PRS NIL=
PRW NIL=
PSA NIL=
PSH NIL=
PSL NIL=
PSW NIL=
PTA NIL=
PTC NIL=
PVI NIL=
PWT NIL=

####018000431####
SACN70 CWAO 080700
PGF SA 0700 AUTO8 M M M 146/14/13/2603/M/ 1002 45MM=
PGH NIL=
PLE NIL=
POY SA 0700 AUTO8 M M M 146/15/13/2604/M/ 3001 16MM=
PQD SA 0700 AUTO8 M M M 142/13/09/2606/M/ 3002 94MM=
PSU SA 0700 AUTO8 M M M 194/15/14/3004/M/ 3004 58MM=
PYQ SA 0700 AUTO8 M M M 040/12/10/2506/M/ 8008 08MM=
WEX SA 0700 AUTO8 M M M 137/14/12/2205/M/ 0001 58MM=
WJD NIL=
WOO NIL=
WSZ NIL=
XMN NIL=
XWG NIL=

####018001307####
SACN50 CWAO 080700
VAS SA 0700 AUTO8 M M M M/23/04/2101/M/M M 54MM=
VLY SA 0700 AUTO8 M M M 159/20/08/1503/M/ 1025 23MM=
VMO NIL=
VOA NIL=
VOB SA 0700 AUTO8 M M M 175/18/07/0000/M/ 1010 87MM=
VOC NIL=
VOD SA 0700 AUTO8 M M M 175/12/04/0702/M/ M009 03MM=
VOE NIL=
VOF SA 0700 AUTO8 M M M M/15/06/3503/M/M M 14MM=
VOG NIL=
VOH NIL=
VOI NIL=
VOJ SA 0700 AUTO8 M M M M/18/M/0507/M/ M 6MMM=
VOK SA 0700 AUTO8 M M M M/16/06/0602/M/M M 63MM=
VOL NIL=
VOM SA 0700 AUTO8 M M M 137/23/10/3203/M/ 1007 80MM=
VOO SA 0700 AUTO8 M M M 150/17/11/3101/M/ 3008 68MM=
VOP SA 0700 AUTO8 M M M 149/18/12/0702/M/ 2006 69MM=
VOQ SA 0700 AUTO8 M M M 135/20/12/2901/M/ 2001 53MM=
VOU SA 0700 AUTO8 M M M 134/25/07/3508/M/ M005 01MM=
VOV SA 0700 AUTO8 M M M M/13/07/0202/M/M M 05MM=
VOW NIL=
VOX NIL=
VOY SA 0700 AUTO8 M M M M/14/07/3301/M/M M 07MM=
VOZ NIL=
VQZ SA 0700 AUTO8 M M M 184/14/10/0201/M/ 3010 12MM=
VSL NIL=
VTS NIL=
VWB NIL=
VXS SA 0700 AUTO8 M M M 183/13/09/1901/M/ 3004 21MM=
WFG NIL=
WGP SA 0700 AUTO8 M M M 155/15/13/MMMM/M/ 1027 97MM=
WHC SA 0700 AUTO8 M M M M/21/13/MMMM/M/ M 98MM=
WPN SA 0700 AUTO8 M M M M/16/M/1001/M/M M 4MMM=
WPU SA 0700 AUTO8 M M M 188/14/06/2201/M/ 1009 39MM=
ZKA SA 0700 AUTO8 M M M 166/21/M/1004/M/ 1010 7MMM=

####018000112####
SACN86 CWAO 080700
WBE NIL=
WCU NIL=
WNL NIL=
WPO NIL=
WPS NIL=
WSI NIL=
WWX NIL=
WWZ NIL=

####018000228####
SACN62 CWAO 080700
LWIS CYDL 080700Z AUTO 00000KT 12/06 A3018=
LWIS CYER 080700Z AUTO 18007KT 11/11 A2980=
CYLH NIL=
LWIS CZMD 080700Z AUTO 23003KT 210V270 14/14 A2984=
LWIS CZSJ 080700Z AUTO 23003KT 15/13 A2984=

####018000104####
SACN98 CWAO 080600 RRH
XWB SA 0600 AUTO8 M M M 090/11/03/0812/M/M PK WND 0817 0535Z 5001
03MM=

####018001110####
SACN97 CWAO 080700
XAT NIL=
XBK NIL=
XBO NIL=
XCA NIL=
XCH NIL=
XCK SA 0700 AUTO7 M M M M/17/M/2902/M/M M 2MMM=
XDE NIL=
XDI NIL=
XDW NIL=
XEA SA 0700 AUTO8 M M M 135/14/12/2001/M/ 6009 44MM=
XEC NIL=
XEG NIL=
XET NIL=
XFA SA 0700 AUTO8 M M M 158/20/11/3508/M/ 3018 40MM=
XGH NIL=
XHA NIL=
XHF SA 0700 AUTO8 M M M M/20/19/MMMM/M/ M 78MM=
XHI NIL=
XIB SA 0700 AUTO7 M M M 176/15/15/0202/M/ 6008 27MM=
XLC NIL=
XLL NIL=
XLT SA 0700 AUTO8 M M M 144/20/19/0000/M/M 0003 78MM=
XLU NIL=
XMD NIL=
XMI SA 0700 AUTO8 M M M 200/17/16/1402/M/M 5004 99MM=
XMM NIL=
XMP SA 0700 AUTO8 M M M M/M/M/1807/M/ M MMMM=
XMW NIL=
XMY SA 0700 AUTO8 M M M M/17/16/MMMM/M/ M 22MM=
XNM NIL=
XOX SA 0700 AUTO8 M M M 161/11/09/2403/M/ 8001 31MM=
XPV NIL=
XQA NIL=
XQT NIL=
XRH SA 0700 AUTO7 M M M M/13/12/1205/M/ M 20MM=
XSH NIL=
XSR SA 0700 AUTO8 M M M 172/16/08/MMMM/M/ 8003 06MM=
XSW NIL=
XTL NIL=
XTN NIL=
XTP SA 0700 AUTO8 M M M 229/08/08/1503/M/ 5002 28MM=
XTV NIL=
XVG NIL=
XWN NIL=
XZU SA 0700 AUTO8 M M M 188/15/11/0000/M/ 2001 17MM=

####018001199####
SACN94 CWAO 080700
WQC NIL=
WQD NIL=
WQE NIL=
WQF NIL=
WQH NIL=
WQK SA 0700 AUTO8 M M M M/M/M/MM06/M/M M MMMM=
WQL NIL=
WQM NIL=
WQO NIL=
WQP SA 0700 AUTO8 M M M 162/22/21/2905/M/ 8003 47MM=
WQQ NIL=
WQR NIL=
WQS NIL=
WQU NIL=
WQV NIL=
WQW NIL=
WQY NIL=
WQZ NIL=
WRA NIL=
WRD NIL=
WRE NIL=
WRJ NIL=
WRK NIL=
WRM SA 0700 AUTO8 M M M 213/10/08/1302/M/ 0001 53MM=
WRR NIL=
WRT SA 0700 AUTO8 M M M M/07/07/2101/M/ M 22MM=
WRU NIL=
WRV SA 0700 AUTO8 M M M 189/15/13/2306/M/ 1002 15MM=
WRY SA 0700 AUTO8 M M M 223/08/07/3303/M/ 0002 48MM=
WRZ SA 0700 AUTO8 M M M 140/14/M/0402/M/ 5009 2MMM=
WSB SA 0700 AUTO8 M M M M/24/M/3402/M/ M 4MMM=
WSD SA 0700 AUTO8 M M M 167/18/17/1912/M/ 6011 05MM=
WSF SA 0700 AUTO8 M M M 159/12/12/2805/M/ 3006 98MM=
WSG SA 0700 AUTO7 M M M 163/12/12/2802/M/ 3002 96MM=
WSK SA 0700 AUTO8 M M M 149/17/12/0302/M/ 1018 42MM=
WSL SA 0700 AUTO8 M M M 174/15/10/2002/M/ 3013 12MM=
WSN NIL=
WSP SA 0700 AUTO8 M M M 145/17/M/MM02/M/ 1008 8MMM=
WSQ NIL=
WSR NIL=
WST SA 0700 AUTO8 M M M M/16/15/0803/M/ M 70MM=
WSU NIL=
WSV SA 0700 AUTO8 M M M 204/10/08/MMMM/M/ 1019 29MM=
WSX NIL=
WSY NIL=

####018001164####
SACN96 CWAO 080700
WXL NIL=
WXN NIL=
WXP SA 0700 AUTO8 M M M 092/10/02/0000/M/ 6006 72MM=
WXS NIL=
WXW NIL=
WXZ SA 0700 AUTO8 M M M 146/18/17/1401/M/ 7014 85MM=
WYA NIL=
WYE NIL=
WYF NIL=
WYH NIL=
WYI SA 0700 AUTO8 M M M 210/09/08/1609/M/ 7004 02MM=
WYJ SA 0700 AUTO8 M M M M/19/12/2503/M/ M 18MM=
WYL SA 0700 AUTO8 M M M M/07/04/0703/M/ M 86MM=
WYQ NIL=
WYW NIL=
WYY SA 0700 AUTO8 M M M 164/17/13/0000/M/ 3016 38MM=
WZA NIL=
WZE NIL=
WZL NIL=
WZO SA 0700 AUTO8 M M M M/M/M/1605/M/M M MMMM=
WZQ NIL=
WZR NIL=
WZS SA 0700 AUTO8 M M M 147/21/21/1602/M/ 6003 45MM=
WZT NIL=
WZV NIL=
WZY NIL=
XBD SA 0700 AUTO8 M M M 167/15/11/1803/M/ 7003 58MM=
XBQ NIL=
XEL NIL=
XFV NIL=
XGM NIL=
XHM SA 0700 AUTO8 M M M M/23/21/2803/M/ M 72MM=
XKA NIL=
XKE NIL=
XND NIL=
XOA SA 0700 AUTO8 M M M 145/24/20/3103/M/ 4000 31MM=
XPS SA 0700 AUTO8 M M M M/16/13/2403/M/ M 87MM=
XPT NIL=
XWF SA 0700 AUTO8 M M M 182/18/06/2605/M/ 1016 69MM=
ZGH NIL=
ZOC SA 0700 AUTO8 M M M 167/09/08/0507/M/ 3012 40MM=
ZPK NIL=
ZQT NIL=
ZUB NIL=
ZUG NIL=
ZWN SA 0700 AUTO8 M M M 204/13/12/2206/M/ 1001 18MM=

####018000651####
SACN66 CWAO 080700
PIF SA 0700 AUTO8 M M M 133/14/10/2706/M/ 8002 97MM=
PIL SA 0700 AUTO8 M M M 181/11/10/2402/M/ 3001 32MM=
POX SA 0700 AUTO8 M M M 194/12/10/2203/M/ 1002 03MM=
PQW SA 0700 AUTO8 M M M 203/09/08/1503/M/ 1005 28MM=
WBD SA 0700 AUTO8 M M M 187/11/10/2803/M/ 1003 43MM=
WBU SA 0700 AUTO8 M M M 177/10/08/2705/M/ 1003 94MM=
WDC SA 0700 AUTO8 M M M 135/12/08/1501/M/ 7003 58MM=
WEH SA 0700 AUTO8 M M M 215/11/07/3607/M/ 3002 10MM=
WIK NIL=
WKO SA 0700 AUTO8 M M M 211/11/09/2304/M/ 6001 97MM=
WOY SA 0700 AUTO8 M M M 196/09/06/2501/M/ 2004 94MM=
XBK SA 0700 AUTO8 M M M 173/13/11/3106/M/ 6002 73MM=
ZHB NIL=

####018000083####
SACN50 CWAO 080600 RRD
VQZ SA 0600 AUTO8 M M M 179/17/11/3202/M/ 3007 77MM=

####018001189####
SACN51 CWAO 080700
METAR CWAE NIL=
METAR CWCA 080700Z 21011KT 15SM BKN020 BKN200 11/08 A3004 RMK SC6CS2
SLP174=
METAR CWCL 080700Z AUTO 00000KT 9SM CLR 13/05 A3014 RMK SLP199=
METAR CWDL NIL=
METAR CWIL 080700Z AUTO 33008KT 08/ A2983 RMK SLP110=
METAR CWKM 080700Z AUTO 25008KT 03/ A3007 RMK SLP189=
METAR CWKW 080700Z AUTO 18006KT 13/ A2982 RMK SLP111=
METAR CWLI 080700Z AUTO ///// 04/ A2992 RMK SLP143=
METAR CWLX 080700Z AUTO 00000KT 14/ A2983 RMK SLP110=
METAR CWLY 080700Z AUTO 16003KT 9SM CLR 20/09 A3000 RMK SLP158=
METAR CWOB 080700Z AUTO ///// 9SM CLR 12/ A2983 RMK SLP129=
METAR CWPX 080700Z AUTO 34013KT 09/ A2985 RMK SLP122=
METAR CWRX 080700Z AUTO 34004KT 07/ A2982=
METAR CWSW NIL=
METAR CWUP 080700Z AUTO 07004KT 13/ A2984 RMK SLP117=
METAR CWUW 080700Z AUTO ///// 9SM CLR 11/ A2987 RMK SLP139=
METAR CWVH 080700Z AUTO 29021KT 04/ A2999 RMK SLP172=
METAR CWYK 080700Z AUTO ///// 09/ A2986 RMK SLP135=
METAR CWZZ 080700Z AUTO ///// 9SM BKN027 10/ A2984 RMK SLP123=
METAR CZBF 080700Z 00000KT 1/2SM FG SKC 18/18 A2997 RMK FG5 SLP150=
METAR CZCP 080700Z AUTO 14010KT 9SM BKN019 OVC038 05/ A2987 RMK
SLP124=
METAR CZST NIL=

####018000516####
SACN49 CWAO 080700
METAR CYAY 080700Z AUTO 14008KT 9SM OVC003 07/06 A3014 RMK SLP207=
METAR CYCX 080700Z AUTO 22004KT 6SM 19/18 A3004 RMK SLP173=
METAR CYDF 080700Z 00000KT 15SM BKN007 OVC068 10/08 A3014 RMK SF6AC2
SLP206=
METAR CYDP NIL=
METAR CYGW NIL=
METAR CYHH NIL=
METAR CYLU NIL=
METAR CYNC NIL=
METAR CYSJ 080700Z 22007KT 1/2SM R23/P6000FT/U FG VV002 15/14 A3010
RMK FG8 SLP192=
METAR CYTQ NIL=
METAR CYYG 080700Z 21010G16KT 15SM FEW170 BKN240 19/16 A3006 RMK
AC2CI2 SLP180=

####018001666####
SACN43 CWAO 080700
METAR CWHN 080700Z AUTO 28004KT 9SM CLR 11/09 A3005 RMK SLP187=
METAR CWLO NIL=
METAR CYBK 080700Z 36007KT 15SM SCT015 OVC035 09/09 A2970 RMK SC4SC4
SLP059=
METAR CYBR 080700Z 29007KT 15SM FEW058 BKN200 12/12 A3003 RMK SC2CI0
SLP174=
METAR CYBU NIL=
METAR CYDN 080700Z AUTO 26005KT 9SM CLR 11/10 A3001 RMK SLP165=
METAR CYEN 080700Z 23003KT 15SM FEW040 SCT250 12/11 A3010 RMK SC2CI0
SLP197=
METAR CYET 080700Z AUTO 31004KT 9SM FEW090 13/07 A3012 RMK SLP198=
METAR CYGX 080700Z 24005KT 15SM FEW025 13/10 A2978 RMK SC2 SLP089=
METAR CYKJ 080700Z AUTO 25005KT 9SM CLR 09/06 A2992 RMK SLP154=
METAR CYLL 080700Z AUTO 24008KT 9SM CLR 11/10 A3010 RMK SLP200=
METAR CYMM 080700Z AUTO 27006KT 9SM OVC080 15/11 A2999 RMK SLP162=
METAR CYNE 080700Z AUTO 30005KT 9SM FEW086 FEW098 15/13 A2987 RMK
SLP121=
METAR CYOJ 080700Z 00000KT 15SM SCT050 SCT100 16/14 A2999 RMK SC3AC0
SLP162=
METAR CYPA 080700Z 28003KT 15SM FEW250 12/10 A3007 RMK CI1 SLP191=
METAR CYPG NIL=
METAR CYPY 080700Z AUTO 27002KT 9SM CLR 12/11 A2993 RMK SLP143=
METAR CYQF 080700Z 17003KT 15SM FEW090 13/09 A3017 RMK AC1 SLP222=
METAR CYQL 080700Z AUTO 00000KT 9SM CLR 10/08 A3018 RMK SLP223=
METAR CYQR 080700Z 34003KT 15SM FEW054 12/11 A3008 RMK SC1 SLP194=
METAR CYQW NIL=
METAR CYVC 080700Z 00000KT 15SM FEW040 12/09 A3000 RMK SC1 SLP167=
METAR CYXD 080700Z AUTO 21006KT 9SM CLR 17/12 A3010 RMK SLP192=
METAR CYYL 080700Z AUTO 25006KT 9SM SCT076 OVC110 13/09 A2983 RMK
 DENSITY ALT 1300FT=
METAR CYYN 080700Z AUTO 25007KT 9SM CLR 13/12 A3013 RMK SLP201=
METAR CYZH 080700Z AUTO 13002KT 9SM CLR 16/13 A3004 RMK SLP176=

####018000255####
SACN87 CWAO 080700
WEK NIL=
WEQ SA 0700 AUTO8 M M M 167/10/09/2104/M/ 3002 85MM=
WJD NIL=
WLP SA 0700 AUTO8 M M M 162/13/12/3111/M/ 3004 37MM=
WPU NIL=
WRO NIL=
WWL NIL=
WWS NIL=
WZG SA 0700 AUTO8 M M M 221/13/04/0405/M/ 1010 61MM=

####018001567####
SACN47 CWAO 080700
METAR CYAM 080700Z 11004KT 12SM -RA SCT063 OVC081 21/19 A2998 RMK
SC3AC5 SLP150=
METAR CYFT NIL=
METAR CYGP NIL=
METAR CYGR NIL=
METAR CYHD 080700Z AUTO 21006KT 9SM CLR 16/14 A2996 RMK SLP149=
METAR CYHU 080700Z AUTO 24007KT 9SM BKN086 26/22 A2997 RMK SLP150
 DENSITY ALT 1300FT RVR MISG=
METAR CYKO NIL=
METAR CYMO 080700Z AUTO 14002KT 9SM CLR 22/16 A2988 RMK SLP120=
METAR CYNA 080700Z AUTO 09009KT 9SM OVC005 OVC011 13/11 A3004 RMK
SLP173=
METAR CYND NIL=
METAR CYPQ 080700Z AUTO ///// 3/8SM CLR 20/20 A3003 RMK SLP168=
METAR CYQT 080700Z 24004KT 15SM -SHRA BKN069 OVC150 18/16 A2999 RMK
AC6AC2 CVCTV CLD EMBD SLP155=
METAR CYRJ 080700Z 25006KT 12SM SCT040 23/20 A2997 RMK SC3 SLP149=
METAR CYRL NIL=
METAR CYTL 080700Z AUTO 22005KT 9SM SCT074 17/14 A2984 RMK SLP110=
METAR CYTS 080700Z 00000KT 15SM FEW060 BKN180 OVC230 20/17 A2995 RMK
SC2AS4CI2 SLP143=
METAR CYTZ 080700Z AUTO 19003KT 6SM BR OVC100 22/20 A3001 RMK SLP163
 DENSITY ALT 1000FT RVR MISG=
METAR CYVP 080700Z 08003KT 15SM SCT040 BKN090 13/12 A2974 RMK SC4AC3
SLP073=
METAR CYVV 080700Z 00000KT 15SM SKC 21/20 A3003 RMK SLP165=
METAR CYWA 080700Z AUTO 00000KT 9SM CLR 20/19 A3000 RMK SLP159=
METAR CYXR 080700Z AUTO 14002KT 9SM CLR 21/20 A2996 RMK SLP134=
METAR CYYY 080700Z 27005KT 3SM BR BKN005 OVC012 12/12 A3000 RMK
SF6SC2 SLP161=
METAR CYZE 080700Z AUTO 17006KT 2SM BR BKN002 20/20 A3000 RMK SLP159
 DENSITY ALT 1200FT=
METAR CYZR 080700Z AUTO 16005KT 9SM CLR 23/19 A3002 RMK SLP165
 DENSITY ALT 1500FT=

####018000079####
SACN85 CWAO 080700
WBK NIL=
WHO NIL=
WPK NIL=
WWE NIL=
YGS NIL=

####018000882####
SACN92 CWAO 080700
WJI NIL=
WJK NIL=
WJL SA 0700 AUTO8 M M M 152/15/11/2904/M/ 3011 84MM=
WJM NIL=
WJN NIL=
WJO NIL=
WJP NIL=
WJR NIL=
WJT SA 0700 AUTO8 M M M 158/19/18/0601/M/ 1003 55MM=
WJU NIL=
WJV SA 0700 AUTO8 M M M 164/19/08/1106/M/ 2012 81MM=
WJW NIL=
WJX NIL=
WKA SA 0700 AUTO8 M M M M/M/M/0000/M/M M MMMM=
WKB SA 0700 AUTO8 M M M 197/12/10/0803/M/ 8004 56MM=
WKD NIL=
WKF SA 0700 AUTO8 M M M M/20/M/MMMM/M/ M 4MMM=
WKG NIL=
WKH SA 0700 AUTO8 M M M M/24/M/MMMM/M/M M 2MMM=
WKX SA 0700 AUTO8 M M M 230/12/06/3001/M/ 3010 99MM=
WLC NIL=
WLE NIL=
WLF NIL=
WLG NIL=
WLJ NIL=
WLK NIL=
WLM SA 0700 AUTO8 M M M M/22/10/2606/M/ M 90MM=
WLQ NIL=
WLU NIL=
WLV NIL=
WME NIL=
WMF NIL=
WMI NIL=
WMJ SA 0700 AUTO8 M M M 162/19/19/0000/M/ 0002 47MM=
WMM SA 0700 AUTO8 M M M 141/18/13/0801/M/ 2014 56MM=
WMQ NIL=

####018000785####
SACN78 CWAO 080700
TAE NIL=
TAG SA 0700 AUTO8 M M M 165/16/14/2203/M/ 6007 07MM=
TAL NIL=
TBO SA 0700 AUTO8 M M M 156/22/20/2203/M/ 6002 62MM=
TBT SA 0700 AUTO8 M M M 183/19/18/0501/M/ 8008 64MM=
TCK NIL=
TCW NIL=
TGT NIL=
TKG SA 0700 AUTO8 M M M 162/21/20/1901/M/ 8001 02MM=
TKR NIL=
TMS NIL=
TNK NIL=
TPQ NIL=
TRA SA 0700 AUTO8 M M M 146/16/14/2203/M/ 6006 50MM=
TTR SA 0700 AUTO8 M M M 168/20/19/1602/M/ 7009 88MM=
TWL SA 0700 AUTO8 M M M 172/23/22/1902/M/M 8003 97MM=
TWN NIL=
TXR NIL=
TZR NIL=
WAJ SA 0700 AUTO8 M M M 166/24/21/MMMM/M/M 6005 92MM=
WBE NIL=
WKK NIL=
WLS NIL=
WNB NIL=
WNL NIL=
WPC NIL=
WPS NIL=
WWX NIL=
XBI NIL=
XRG NIL=
XZC NIL=
YLH NIL=
ZEL SA 0700 AUTO8 M M M 181/21/20/0901/M/ 8004 70MM=

####018001632####
SACN46 CWAO 080700
METAR CYBC 080700Z AUTO 19002KT 1/8SM OVC000 14/13 A3001 RMK SLP161=
METAR CYBN 080700Z AUTO 00000KT 3SM CLR 21/19 A3003 RMK SLP166=
METAR CYEL NIL=
METAR CYFR NIL=
METAR CYGK NIL=
METAR CYGQ 080700Z 27002KT 10SM -RA OVC050 18/16 A2998 RMK SC8
SLP153=
METAR CYHM 080700Z 25003KT 12SM BKN079 22/21 A3006 RMK AC5 SLP174=
METAR CYKF 080700Z AUTO 00000KT 3SM BR CLR 20/19 A3006 RMK SLP177
 DENSITY ALT 1700FT=
METAR CYKL 080700Z AUTO 15002KT 9SM BKN071 13/13 A2989 RMK SLP133=
METAR CYKZ 080700Z 00000KT 10SM BKN090 24/22 A3004 RMK AC6 SLP167=
METAR CYLD NIL=
METAR CYOO 080700Z AUTO VRB02KT 6SM HZ OVC100 23/21 A3002 RMK DENSITY
 ALT 1300FT=
METAR CYPL NIL=
METAR CYQA 080700Z AUTO 00000KT 3SM BR CLR 20/20 A3003 RMK SLP171
 DENSITY ALT 1500FT=
METAR CYQK NIL=
METAR CYRB 080700Z 12007KT 15SM FEW240 10/M03 A2979 RMK CI1 SLP094=
METAR CYSB 080700Z 21002KT 12SM FEW120 22/21 A3003 RMK AC2 BR SLP164=
METAR CYSC 080700Z AUTO 00000KT 3SM BR FEW056 BKN140 21/21 A3002 RMK
 SLP164 DENSITY ALT 1500FT=
METAR CYSN NIL=
METAR CYSP NIL=
METAR CYVO 080700Z AUTO 00000KT 9SM CLR 19/19 A2999 RMK SLP157=
METAR CYVQ 080700Z 00000KT 15SM -SHRA BKN040 BKN080 BKN270 15/14
A2997 RMK SC6AC1CI1 VIS E 30 SLP153=
METAR CYXL 080700Z 00000KT 15SM SKC 18/14 A2996 RMK SLP147=
METAR CYXU 080700Z 12002KT 15SM SKC 21/20 A3007 RMK SLP176=
METAR CYXZ NIL=
METAR CYYB 080700Z 20002KT 15SM FEW250 22/20 A3004 RMK CI1 SLP170=
METAR CYYH 080700Z 01003KT 15SM FEW025 BKN035 12/08 A2983 RMK SC1SC5
SLP103=
METAR CYYU 080700Z 20002KT 15SM BKN100 20/17 A2994 RMK AS7 SLP140=

####018000101####
SACN63 CWAO 080700
NVQ NIL=
WMT NIL=
XAR NIL=
ZEV NIL=
ZFS NIL=
ZHY NIL=
ZSM NIL=

####018001389####
SACN42 CWAO 080700
METAR CYAZ NIL=
METAR CYBL NIL=
METAR CYBV NIL=
METAR CYCP NIL=
METAR CYCQ NIL=
METAR CYDB 080700Z AUTO 18002KT 9SM CLR 15/03 A3008 RMK SLP203=
METAR CYDC NIL=
METAR CYDQ 080700Z AUTO VRB04KT 9SM CLR 15/11 A3002 RMK SLP174
 DENSITY ALT 2500FT=
METAR CYEV 080700Z 31017G22KT 15SM SCT018 BKN060 08/05 A3003 RMK
SC3SC4 SLP172=
METAR CYFO NIL=
METAR CYHE 080700Z AUTO 09005KT 020V110 9SM CLR 20/14 A2998 RMK
SLP151=
METAR CYIV 080700Z 26005KT 15SM SCT050 OVC100 15/15 A2983 RMK SC2AC3
SLP105=
METAR CYKY 080700Z 31003KT 15SM FEW150 13/12 A3014 RMK AC1 SLP207=
METAR CYMD NIL=
METAR CYPR 080700Z AUTO VRB02KT 9SM CLR 15/13 A3004 RMK SLP175=
METAR CYPS NIL=
METAR CYQD 080700Z 28007KT 15SM FEW070 13/10 A2995 RMK AC1 SLP149=
METAR CYQZ 080700Z AUTO 00000KT 9SM CLR 14/11 A3007 RMK SLP189
 DENSITY ALT 1900FT=
METAR CYRV 080700Z AUTO 27002KT 6SM CLR 15/10 A3009 RMK SLP189=
METAR CYSE NIL=
METAR CYUA 080700Z AUTO 31017KT 9SM OVC004 05/ A3006 RMK SLP184=
METAR CYXC 080700Z 19004KT 25SM SKC 16/06 A3016 RMK SLP201=
METAR CYXE 080700Z 22003KT 15SM FEW250 12/10 A3010 RMK CI1 SLP201=
METAR CYXQ NIL=
METAR CYXS 080700Z AUTO 20002KT 9SM CLR 13/09 A3007 RMK SLP193
 DENSITY ALT 2300FT=
METAR CYZP 080700Z AUTO 26010KT 9SM CLR 17/13 A3008 RMK SLP186=
METAR CYZT 080700Z 00000KT 15SM SKC 17/11 A3001 RMK SLP161=

####018000969####
SACN48 CWAO 080700
METAR CYAD NIL=
METAR CYAH 080700Z AUTO 00000KT 9SM CLR 15/12 A2995 RMK SLP147=
METAR CYAS NIL=
METAR CYBX NIL=
METAR CYCL NIL=
METAR CYGV 080700Z AUTO 08010KT 9SM OVC005 13/11 A3002 RMK SLP168=
METAR CYHA NIL=
METAR CYIK NIL=
METAR CYKG NIL=
METAR CYKQ NIL=
METAR CYLA NIL=
METAR CYMH 080700Z AUTO 20007KT 9SM OVC004 06/06 A3012 RMK SLP200=
METAR CYML NIL=
METAR CYMT NIL=
METAR CYMU NIL=
METAR CYNM 080700Z AUTO 31002KT 9SM CLR 19/16 A2996 RMK SLP146=
METAR CYOY 080700Z AUTO 13004KT 090V190 9SM FEW064 FEW072 21/17 A2998
RMK SLP150=
METAR CYPH 080700Z AUTO 23020KT 3/8SM VV001 06/05 A2976 RMK SLP079=
METAR CYPX NIL=
METAR CYQI 080700Z 16007KT 1/4SM FG VV001 17/17 A3012 RMK FG8 RVR RWY
24 1400 FT SLP201=
METAR CYSK NIL=
METAR CYSL NIL=
METAR CYUY 080700Z 00000KT 15SM BKN240 20/17 A2999 RMK CI7 SLP154=
METAR CYWK 080700Z 19005KT 15SM SCT300 17/15 A2996 RMK CI1 SLP146=
METAR CYZG NIL=

####018000846####
SACN52 CWAO 080700
METAR CWEU 080700Z 14009KT 40SM FEW150 BKN200 BKN240 12/01 A2969 RMK
AC1CI1CS0 SLP055=
METAR CWFD 080700Z AUTO 35002KT 9SM 11/ RMK ALTM MISG=
METAR CWGZ NIL=
METAR CWKP 080700Z AUTO 28005KT 06/ A2987 RMK SLP139=
METAR CWRH 080700Z AUTO ///// 09/ A2983 RMK SLP121=
METAR CWSA 080700Z AUTO 23007KT 1/8SM BKN001 OVC005 17/17 A3016 RMK
SLP215=
METAR CWTU 080700Z AUTO 17019KT 10/ A2999 RMK SLP170=
METAR CWWU NIL=
METAR CWXR 080700Z AUTO 20005KT 05/ A2992 RMK SLP139=
METAR CWYM 080700Z AUTO 13005KT 11/ RMK ALTM MISG SLP137=
METAR CYPD 080700Z AUTO 21006KT 9SM BKN220 17/16 A3011 RMK SLP196
 DENSITY ALT 400FT=
METAR CZEM NIL=
METAR CZFM NIL=
METAR CZFN NIL=
METAR CZPC 080700Z AUTO 26007KT 9SM CLR 09/08 A3024 RMK SLP238=
METAR CZUM 080700Z AUTO 00000KT 9SM CLR 13/12 A2993 RMK SLP144=

####018000800####
SACN59 CWAO 080700
NLB NIL=
NLD NIL=
NNR NIL=
NPK NIL=
NTK NIL=
PAA NIL=
PAH NIL=
PBA NIL=
PBE NIL=
PBH NIL=
PBL NIL=
PBR NIL=
PBS NIL=
PBT NIL=
PBV NIL=
PCA NIL=
PCM NIL=
PCR NIL=
PEA NIL=
PEH NIL=
PFI NIL=
PFO NIL=
PGE NIL=
PGL NIL=
PIR NIL=
PMR NIL=
PQL NIL=
PQU NIL=
PRA NIL=
PRL SA 0700 AUTO8 M M M M/11/10/MMMM/M/ M 39MM=
PRO NIL=
PRR NIL=
PRY NIL=
PSD NIL=
PSP NIL=
PST NIL=
PSV NIL=
PTH NIL=
PTR NIL=
PTU NIL=
PVA NIL=
PWB NIL=
PXL NIL=
WCT NIL=
WLB SA 0700 AUTO8 M M M 181/16/13/2603/M/ 5002 38MM=
XAK NIL=
XDB NIL=
XFM NIL=
XHD NIL=
XHP NIL=
XMG NIL=
XMO NIL=
XOL NIL=
XPL NIL=
XSC NIL=
XSL NIL=
XSP NIL=
XTH NIL=
XVM NIL=
XVW NIL=
ZMU NIL=
ZOL NIL=
ZPS NIL=

####018001236####
SACN44 CWAO 080700
METAR CWIQ NIL=
METAR CWRF 080700Z AUTO ///// 11/ A2971=
METAR CWVD 080700Z AUTO ///// 11/ A2985 RMK SLP131=
METAR CYBW NIL=
METAR CYCY 080700Z AUTO 07002KT 9SM CLR 08/06 A2983 RMK SLP105=
METAR CYED 080700Z AUTO 22004KT 9SM CLR 12/11 A3010 RMK SLP196=
METAR CYEK 080700Z AUTO 06004KT 9SM FEW029 OVC044 OVC097 09/09 A2959
RMK SLP022=
METAR CYIO 080700Z AUTO 14002KT 9SM FEW091 10/07 A2981 RMK SLP098=
METAR CYLJ NIL=
METAR CYLT NIL=
METAR CYMJ NIL=
METAR CYOD 080700Z 21003KT 15SM SKC 14/11 A3006 RMK SLP188=
METAR CYPE 080700Z 32002KT 15SM FEW040CB FEW250 14/11 A3003 RMK
CB1CI0 OCNL LTGCG W SLP173=
METAR CYQV 080700Z AUTO 25006KT 9SM CLR 11/10 A3005 RMK SLP184=
METAR CYSF 080700Z AUTO 24005KT 9SM BKN081 BKN130 11/07 A2986 RMK
 SLP120=
METAR CYSM 080700Z 00000KT 15SM FEW080 SCT140 BKN220 13/09 A2992 RMK
AC1AC1CI1 SLP139=
LWIS CYSR 080700Z AUTO 27005KT 10/06 A2983=
METAR CYTH 080700Z 26008KT 15SM FEW065 FEW085 11/09 A2984 RMK SC1AC1
SLP110=
METAR CYUB NIL=
METAR CYUJ NIL=
METAR CYUS 080700Z AUTO ///// 9SM CLR 11/ A2981 RMK SLP097=
METAR CYUX NIL=
METAR CYVT NIL=
METAR CYXH 080700Z AUTO 22004KT 9SM CLR 12/12 A3015 RMK SLP211=
METAR CYZU NIL=

####018000957####
SACN91 CWAO 080700
WGR SA 0700 AUTO8 M M M 163/19/17/2007/M/ 5004 72MM=
WGT SA 0700 AUTO8 M M M 135/23/13/3601/M/M 1005 52MM=
WGW SA 0700 AUTO8 M M M 222/13/08/0403/M/M 2017 04MM=
WGX SA 0700 AUTO8 M M M 090/13/10/2505/M/ 6008 92MM=
WGY NIL=
WHA NIL=
WHD NIL=
WHI NIL=
WHL SA 0700 AUTO8 M M M 167/15/M/2803/M/ 5002 2MMM=
WHM SA 0700 AUTO8 M M M M/24/22/2303/M/M M 02MM=
WHQ SA 0700 AUTO7 M M M M/23/22/1103/M/M M 13MM=
WHT SA 0700 AUTO8 M M M 211/15/05/2705/M/ 3011 35MM=
WHV SA 0700 AUTO8 M M M 154/22/21/1902/M/ 8004 41MM=
WID NIL=
WIG NIL=
WII NIL=
WIJ NIL=
WIN NIL=
WIO NIL=
WIP SA 0700 AUTO7 M M M M/13/M/1303/M/ M 6MMM=
WIS SA 0700 AUTO8 M M M 168/18/18/1502/M/ 6003 15MM=
WIT SA 0700 AUTO8 M M M M/25/20/2903/M/M M 31MM=
WIW NIL=
WIX NIL=
WIY NIL=
WIZ NIL=
WJB SA 0700 AUTO8 M M M M/19/18/0807/M/ M 15MM=
WJC SA 0700 AUTO8 M M M 057/09/08/MM15/M/ PK WND MM18 0647Z 7008
61MM=
WJH NIL=

####018001008####
SACN89 CWAO 080700
WAF NIL=
WAG SA 0700 AUTO8 M M M 200/09/09/1505/M/M 8009 29MM=
WAQ SA 0700 AUTO8 M M M M/12/11/2605/M/ M 36MM=
WAS SA 0700 AUTO8 M M M 134/24/11/3613/M/ 1009 19MM=
WAV SA 0700 AUTO8 M M M 222/08/05/0000/M/ 8001 04MM=
WAY NIL=
WBA SA 0700 AUTO8 M M M M/20/19/1602/M/ M 72MM=
WBG NIL=
WBJ NIL=
WBL NIL=
WBM SA 0700 AUTO8 M M M 171/18/08/1101/M/ 4000 41MM=
WBO SA 0700 AUTO8 M M M 218/11/11/2502/M/ 1005 19MM=
WBS SA 0700 AUTO8 M M M M/26/22/2607/M/M M 79MM=
WBT SA 0700 AUTO8 M M M 169/13/13/0806/M/ 6005 66MM=
WBY NIL=
WBZ NIL=
WCF NIL=
WCG NIL=
WCH NIL=
WCI NIL=
WCJ NIL=
WCO NIL=
WCQ NIL=
WDB NIL=
WDD NIL=
WDE NIL=
WDF NIL=
WDI NIL=
WDJ SA 0700 AUTO8 M M M 191/12/11/3403/M/ 0002 08MM=
WDK NIL=
WDN NIL=
WDP NIL=
WDQ SA 0700 AUTO8 M M M 154/22/20/0000/M/M 1002 55MM=
WDR SA 0700 AUTO8 M M M M/24/M/2508/M/M M 7MMM=
WDT NIL=
WDU NIL=
WDV SA 0700 AUTO8 M M M 162/14/13/2203/M/ 6008 50MM=
WDW NIL=
WDZ NIL=

####018001149####
SACN95 CWAO 080700
WTA SA 0700 AUTO8 M M M 156/26/22/2904/M/ 8001 25MM=
WTD NIL=
WTE NIL=
WTF NIL=
WTG NIL=
WTM NIL=
WTN NIL=
WTR NIL=
WTS NIL=
WTT NIL=
WTX NIL=
WTY NIL=
WUI NIL=
WUK SA 0700 AUTO8 M M M M/17/17/0000/M/ M 26MM=
WUS SA 0700 AUTO8 M M M 171/21/06/2805/M/ 1014 09MM=
WUT NIL=
WUX SA 0700 AUTO7 M M M 150/19/18/2802/M/ 1004 52MM=
WUY NIL=
WVC NIL=
WVF SA 0700 AUTO8 M M M M/23/M/3510/M/M M 6MMM=
WVI NIL=
WVN NIL=
WVO NIL=
WVP NIL=
WVQ SA 0700 AUTO8 M M M M/25/22/2204/M/ M 90MM=
WVT SA 0700 AUTO8 M M M 171/16/10/2503/M/ 5002 41MM=
WVU SA 0700 AUTO8 M M M 194/16/15/1712/M/ 6013 63MM=
WVV SA 0700 AUTO8 M M M 145/21/06/0000/M/ 1005 04MM=
WVW NIL=
WVZ NIL=
WWA SA 0700 AUTO8 M M M 138/21/10/0601/M/ 1013 97MM=
WWB SA 0700 AUTO8 M M M 163/25/22/2305/M/M 7003 78MM=
WWC NIL=
WWE NIL=
WWF NIL=
WWK SA 0700 AUTO8 M M M 144/20/15/0501/M/ 1010 23MM=
WWN NIL=
WWO SA 0700 AUTO8 M M M M/09/07/3401/M/ M 40MM=
WWP NIL=
WXA SA 0700 AUTO8 M M M 232/06/04/0000/M/ 1001 32MM=
WXB NIL=
WXC NIL=
WXG NIL=
WZW SA 0700 AUTO8 M M M 212/17/05/2605/M/ 0003 56MM=

####018000530####
SACN82 CWAO 080700
MAN NIL=
MBR NIL=
MCT NIL=
MCW NIL=
MFM NIL=
MGB NIL=
MHB NIL=
MHN NIL=
MHW NIL=
MIN NIL=
MLA NIL=
MLI NIL=
MLT NIL=
MLU SA 0700 AUTO8 M M M 150/24/22/2103/M/ 5000 53MM=
MMY NIL=
MPD NIL=
MPL NIL=
MQK NIL=
MQP NIL=
MRF NIL=
MRI NIL=
MRU NIL=
MRY NIL=
MSB NIL=
MSC NIL=
MSI NIL=
MSR NIL=
MSX NIL=
MTH SA 0700 AUTO8 M M M 159/22/21/2003/M/ 8003 56MM=
MWD NIL=
MYT NIL=
WDM SA 0700 AUTO8 M M M 189/08/08/0407/M/ 6005 26MM=
WHP NIL=
WQB NIL=

####018000746####
SACN93 CWAO 080700
WMU NIL=
WMX NIL=
WMY NIL=
WMZ NIL=
WNC NIL=
WND NIL=
WNE NIL=
WNH NIL=
WNK NIL=
WNM SA 0700 AUTO8 M M M 189/15/13/MMMM/M/ 1017 77MM=
WNP SA 0700 AUTO8 M M M 177/15/10/0702/M/ 1017 33MM=
WNQ NIL=
WNR SA 0700 AUTO8 M M M M/08/04/2103/M/M M 16MM=
WNT NIL=
WNV NIL=
WNX NIL=
WNZ SA 0700 AUTO8 M M M 141/17/14/2303/M/ 6013 83MM=
WOC NIL=
WOD NIL=
WOE NIL=
WOG NIL=
WOI NIL=
WOJ NIL=
WOK NIL=
WON SA 0700 AUTO8 M M M 183/13/08/2101/M/ 3003 60MM=
WOQ NIL=
WOV NIL=
WOW NIL=
WPA NIL=
WPB NIL=
WPD NIL=
WPE NIL=
WPF NIL=
WPG NIL=
WPL SA 0700 AUTO8 M M M 129/17/13/2310/M/ 8007 31MM=
WPR NIL=
WPZ SA 0700 AUTO8 M M M 188/10/07/0000/M/ 2009 75MM=
WQA NIL=

####018000104####
SACN98 CWAO 080500 RRH
XWB SA 0500 AUTO8 M M M 088/11/04/0614/M/M PK WND 0519 0420Z 6006
35MM=

####018001149####
SACN88 CWAO 080700
AAW NIL=
ABB SA 0700 AUTO7 M M M M/18/18/2405/M/M M 17MM=
ABF SA 0700 AUTO8 M M M 209/12/12/1007/M/ 0000 87MM=
ABR NIL=
ABT NIL=
ACP NIL=
ACQ NIL=
ADS NIL=
AFC NIL=
AFY SA 0700 AUTO7 M M M M/19/18/MMMM/M/ M 69MM=
AHD NIL=
AHK NIL=
AHR NIL=
AHW NIL=
AJT NIL=
AKC SA 0700 AUTO7 M M M M/22/17/MMMM/M/ M 61MM=
AMS NIL=
AOH NIL=
AOS SA 0700 AUTO7 M M M M/15/15/2204/M/M M 44MM=
APR SA 0700 AUTO8 M M M 195/15/15/1402/M/ 3002 26MM=
AQY NIL=
ARP SA 0700 AUTO8 M M M 151/20/20/1802/M/ 5004 85MM=
AVA NIL=
AWR NIL=
ERM SA 0700 AUTO8 M M M 149/23/22/2801/M/0003 PCPN 0.3MM PAST HR
0003 65MM=
WAR NIL=
WBK SA 0700 AUTO8 M M M 187/19/17/2206/M/ 3003 84MM=
WBV SA 0700 AUTO8 M M M 209/15/15/2409/M/M 6004 19MM=
WDA NIL=
WDO NIL=
WHO SA 0700 AUTO8 M M M 144/09/08/1903/M/M 6018 65MM=
WNS NIL=
WRN SA 0700 AUTO8 M M M 197/17/16/2212/M/M PK WND 2221 0604Z 5005
74MM=
WSS NIL=
WXI NIL=
WZF NIL=
WZN NIL=
WZU SA 0700 AUTO7 M M M M/17/16/0902/M/ M 93MM=
XGD NIL=
XKT NIL=
XNP NIL=
ZCR NIL=
ZDB NIL=
ZSP SA 0700 AUTO8 M M M 170/20/16/2008/M/ 1001 72MM=

####018000674####
SACN98 CWAO 080700
XAF NIL=
XAG NIL=
XAJ NIL=
XBA NIL=
XBR NIL=
XBW NIL=
XCD NIL=
XCP NIL=
XCS NIL=
XDK NIL=
XDP NIL=
XFR NIL=
XHR NIL=
XKI SA 0700 AUTO8 M M M 146/21/19/MMMM/M/ 7011 94MM=
XKM NIL=
XLB SA 0700 AUTO8 M M M 199/18/17/2102/M/ 7007 56MM=
XOY NIL=
XPA NIL=
XPC NIL=
XRB NIL=
XRL NIL=
XSE NIL=
XTD SA 0700 AUTO8 M M M 198/18/17/1901/M/ 3002 85MM=
XTO NIL=
XVN NIL=
XWB SA 0700 AUTO8 M M M 091/10/04/0605/M/M 3003 75MM=
XWM NIL=
XYH NIL=
XZV SA 0700 AUTO8 M M M 168/13/13/0402/M/ 1003 99MM=
ZKD NIL=
ZLW NIL=
ZMJ NIL=
ZPR NIL=
ZQH NIL=
ZQZ NIL=
ZRP NIL=
ZTB NIL=
ZZJ NIL=
ZZP NIL=

####018000834####
SACN90 CWAO 080700
WEA SA 0700 AUTO8 M M M 143/15/13/2502/M/ 1002 51MM=
WEB SA 0700 AUTO8 M M M 146/16/12/3007/M/ 0001 77MM=
WEC NIL=
WEE NIL=
WEF NIL=
WEI SA 0700 AUTO8 M M M 176/13/12/2405/M/ 1003 34MM=
WEL SA 0700 AUTO8 M M M M/21/15/3206/M/ M 21MM=
WEO NIL=
WEP SA 0700 AUTO8 M M M 175/19/18/2211/M/ PK WND 2218 0624Z 0000
27MM=
WER SA 0700 AUTO8 M M M M/M/M/0518/M/M PK WND 0520 0652Z M MMMM=
WEW SA 0700 AUTO8 M M M 154/24/23/2402/M/ 0001 76MM=
WEZ NIL=
WFE SA 0700 AUTO8 M M M M/13/11/2302/M/ M 14MM=
WFF NIL=
WFJ NIL=
WFO NIL=
WFP NIL=
WFQ SA 0700 AUTO7 M M M M/23/22/1301/M/ M 75MM=
WFW NIL=
WFX NIL=
WFZ NIL=
WGB SA 0700 AUTO8 M M M 135/22/13/2806/M/ 1004 05MM=
WGD NIL=
WGF NIL=
WGH NIL=
WGL SA 0700 AUTO8 M M M 172/23/23/1101/M/M 8007 88MM=
WGM NIL=
WGN NIL=

####018000103####
SACN45 CWAO 080700 CCA
METAR CYFS 080700Z CCA 27002KT 15SM BKN045 16/14 A2998 RMK SC3
SLP157=

####018000926####
SACN45 CWAO 080700
METAR CYBB NIL=
METAR CYCB 080700Z 24007KT 15SM FEW040 SCT120 SCT220 07/04 A2985 RMK
SC1AC1CI0 SLP110=
METAR CYCO 080700Z 10004KT 15SM BKN035 11/09 A2989 RMK SC7 SLP124=
METAR CYCS NIL=
METAR CYFS NIL=
METAR CYGH NIL=
METAR CYGT NIL=
METAR CYHI NIL=
METAR CYHK 080700Z AUTO 02009KT 9SM CLR 09/07 A2980 RMK SLP097=
METAR CYHY 080700Z 29003KT 15SM FEW035 BKN045 BKN230 17/12 A2995 RMK
SC2SC2CI1 SLP146=
METAR CYJF NIL=
METAR CYKD NIL=
METAR CYLC NIL=
METAR CYLK NIL=
METAR CYOA NIL=
METAR CYPC NIL=
METAR CYRA NIL=
METAR CYRT NIL=
METAR CYSY NIL=
METAR CYTE 080700Z AUTO 09009KT 9SM CLR 06/03 A2976 RMK SLP082=
METAR CYUT NIL=
METAR CYVM 080700Z AUTO 00000KT CLR 10/07 A2984 RMK SLP104=
METAR CYWJ NIL=
METAR CYWY NIL=
METAR CYXN NIL=
LWIS CYXP 080700Z AUTO 00000KT 10/03 A2984=
METAR CYZS 080700Z 06009KT 15SM BKN070 11/05 A2971 RMK AC7 SLP066=

####018000094####
SAEW37 LEMM 080700 RRA
METAR LEGA 080700Z 14006KT 090V180 9999 FEW060 BKN100 27/13 Q1018=
####018001656####
SAUS74 KWBC 080700
METAR
KACV 080653Z AUTO 00000KT 6SM BR OVC003 11/10 A2996=
KALW 080653Z AUTO 10006KT 10SM CLR 20/09 A2996=
KBFI 080653Z 31003KT 10SM CLR 24/12 A2992=
KBFL 080654Z AUTO 33004KT 10SM CLR 26/09 A2982=
KBIL 080653Z 19005KT 10SM CLR 18/05 A3023=
KBKE 080653Z AUTO 00000KT 10SM CLR 11/07 A3009=
KBLI 080653Z AUTO 00000KT 10SM CLR 18/14 A2993=
KBOI 080653Z 12005KT 10SM CLR 21/07 A3002=
KBTM 080653Z AUTO 00000KT 10SM CLR 11/01 A3030=
KBUR 080653Z AUTO 15004KT 10SM OVC011 16/13 A2991=
KBYI 080653Z AUTO 00000KT 10SM CLR 11/05 A3010=
KBZN 080656Z AUTO 19004KT 10SM CLR 12/05 A3026=
KCDC 080653Z AUTO 14003KT 10SM CLR 17/01 A3012=
KCEC 080656Z AUTO 00000KT 2SM BR OVC001 11/09 A2997=
KCLM 080653Z AUTO A2996=
KCTB 080656Z AUTO 21004KT 10SM CLR 13/06 A3024=
KCXL NIL=
KEKO 080656Z AUTO 07007KT 10SM CLR 21/M05 A3009=
KEUG 080654Z 21011KT 10SM CLR 17/11 A2988=
KFAT 080653Z 31009KT 10SM CLR 25/10 A2982=
KFLG 080656Z AUTO 00000KT 10SM FEW085 SCT110 16/01 A3024=
KGCN 080654Z AUTO 00000KT 10SM CLR 11/M03 A3022=
KGEG 080653Z 07005KT 10SM CLR 21/08 A3006=
KGGW 080653Z AUTO 00000KT 10SM CLR 14/09 A3014=
KGTF 080653Z 24006KT 10SM CLR 10/06 A3022=
KHLN 080653Z AUTO 00000KT 10SM CLR 14/05 A3023=
KHQM 080653Z AUTO 07005KT 10SM 19/13 A2990=
KIDA 080653Z AUTO 02006KT 10SM CLR 12/06 A3017=
KIWA 080656Z AUTO 10003KT 10SM CLR 34/04 A2979=
KLAS 080656Z 21009KT 10SM CLR 30/M04 A2979=
KLAX 080653Z 27008KT 10SM BKN012 OVC015 17/13 A2992=
KLGB 080653Z 29004KT 10SM OVC017 17/13 A2991=
KLMT 080653Z AUTO 23008KT 10SM FEW090 21/09 A3005=
KLVM 080653Z AUTO 00000KT 10SM CLR 09/04 A3027=
####018001672####
SAUS74 KWBC 080700 RRA
METAR
KMFR 080653Z AUTO 09003KT 10SM CLR 27/12 A2987=
KMLS 080653Z AUTO 00000KT 10SM FEW090 16/09 A3019=
KMRY 080654Z AUTO 27003KT 10SM OVC010 13/10 A2994=
KMSO 080653Z AUTO 35004KT 10SM CLR 14/06 A3017=
KMYV 080653Z AUTO 15007KT 10SM CLR 21/12 A2980=
KNTD 080656Z AUTO 30005KT 10SM OVC017 16/13 A2990=
KOAK 080653Z 29010KT 10SM BKN011 14/11 A2993=
KOGD 080653Z 18008KT 10SM CLR 21/07 A3007=
KOLM 080654Z AUTO 00000KT 10SM CLR 19/12 A2992=
KONT 080653Z 25006KT 7SM SCT015 15/12 A2991=
KOTH 080655Z 19005KT 10SM OVC008 11/08 A3000=
KPAE 080653Z AUTO 36003KT 10SM CLR 21/12 A2996=
KPDX 080653Z 30003KT 10SM CLR 22/16 A2987=
KPHX 080651Z 00000KT 10SM FEW120 35/01 A2974=
KPIH 080653Z AUTO 05004KT 10SM CLR 13/01 A3014=
KPMD 080653Z AUTO 18008KT 10SM CLR 21/07 A2990=
KPRB 080653Z AUTO 28003KT 10SM CLR 14/11 A2990=
KPRC 080653Z AUTO 20005KT 10SM CLR 20/03 A3008=
KPSP 080653Z 00000KT 10SM FEW095 28/10 A2971=
KRBL 080654Z AUTO 00000KT 10SM CLR 27/18 A2981=
KRDD 080653Z AUTO 00000KT 10SM CLR 26/15 A2981=
KRDM 080656Z AUTO 30006KT 10SM CLR 21/03 A3003=
KRNO 080655Z 34009KT 10SM SCT080 SCT120 26/03 A3004=
KRNT 080653Z AUTO 30006KT 10SM CLR 23/13 A2992=
KSAC 080653Z 19004KT 10SM CLR 16/11 A2983=
KSAN 080651Z 31004KT 10SM OVC016 17/13 A2993=
KSBA 080653Z 05003KT 10SM CLR 13/11 A2990=
KSBD NIL=
KSBP 080656Z AUTO 31006KT 10SM OVC011 14/11 A2991=
KSCK 080655Z AUTO 01003KT 10SM CLR 17/11 A2983=
KSEA 080653Z 35007KT 10SM CLR 23/12 A2994=
KSFF 080653Z AUTO 00000KT 10SM CLR 16/11 A3005=
KSFO 080656Z 29009KT 10SM FEW008 14/10 A2992=
KSHR 080653Z AUTO 00000KT 10SM CLR 10/07 A3026=
####018000084####
SPUS81 KWBC 080707
SPECI
KORH 080703Z AUTO 23007KT 4SM BR BKN004 22/21 A3008=
####018000642####
SAUS74 KWBC 080700 RRB
METAR
KSJC 080653Z 32005KT 8SM FEW019 SCT140 15/11 A2992=
KSLC 080653Z 15005KT 10SM CLR 19/08 A3006=
KSMF 080653Z 16008KT 10SM CLR 17/11 A2981=
KSMX 080651Z AUTO 33005KT 10SM OVC011 13/11 A2992=
KSNA 080653Z 27003KT 10SM OVC019 18/12 A2991=
KSNS 080653Z AUTO 32005KT 10SM OVC013 13/11 A2993=
KTIW 080653Z AUTO 35004KT 10SM FEW090 22/12 A2993=
KTUS 080653Z 08003KT 10SM CLR 32/08 A2988=
KTVL 080653Z AUTO 19003KT 10SM CLR 14/07 A3016=
KTWF 080653Z AUTO 14007KT 10SM CLR 15/M01 A3010=
KUKI 080656Z AUTO 16005KT 10SM CLR 16/11 A2990=
KYKM 080653Z AUTO 25008KT 10SM CLR 19/06 A2999=
KYUM NIL=
####018001074####
SAUS75 KWBC 080700
METAR
PABR 080653Z 26013KT 10SM BKN200 05/03 A2998=
PABT 080653Z 32003KT 10SM SCT040 BKN075 BKN200 18/10 A3004=
PACV 080653Z 06008KT 030V100 10SM SCT035 BKN045 OVC065 14/10
     A3010=
PADL 080656Z 30008KT 10SM OVC050 11/08 A2997=
PADU 080658Z AUTO 11013KT 10SM OVC021 09/06 A2985=
PAEN 080653Z AUTO 36010KT 10SM -RA BKN065 BKN090 OVC110 14/12
     A2998=
PAGA 080658Z AUTO 02004KT 10SM CLR 21/06 A3006=
PAGK 080653Z AUTO 06003KT 10SM CLR 12/08 A3007=
PAGY 080653Z AUTO 00000KT 10SM CLR 13/11 A3022=
PAIL 080653Z AUTO 36008KT 10SM OVC055 11/09 A2993=
PAKN 080654Z 02008KT 10SM -RA BKN049 BKN060 BKN075 11/10 A2990=
PAKT 080653Z AUTO VRB06KT 10SM CLR 20/12 A3008=
PASC 080653Z 20007KT 10SM FEW028 OVC060 10/08 A3001=
PASI 080653Z 00000KT 10SM CLR 14/12 A3018=
PATA 080652Z AUTO 00000KT 10SM CLR 21/07 A3004=
PAUN 080656Z AUTO 34008KT 10SM CLR 16/11 A3002=
PAVD 080656Z 10004KT 10SM BKN090 10/07 A3011=
PHJH NIL=
PHMK 080654Z AUTO 04006KT 10SM CLR 23/19 A3004=
PMDY 080656Z AUTO 00000KT 10SM CLR 27/20 A3011=
####018000351####
SAXN17 KAWN 080600 RRM
METAR MMAA 080644Z 34005KT 8SM SCT020TCU BKN300 27/23 A2979 RMK 8/202=
METAR MMMX 080644Z 00000KT 5SM -RA BKN025 OVC080 15/14 A3022 NOSIG
      RMK 8/46/ -RA B37 LWR SC=
METAR MMPB 080642Z 20005KT 6SM SCT025 SCT120 BKN220 15/14 A3022 RMK
      8/472 HZY=
METAR SKCL 080600Z 35003KT 9999 FEW025 BKN100 20/18 A3001=
####018000839####
SANA35 KAWN 080700 RRC
METAR KNGU 080659Z 00000KT 5SM BR FEW085 26/23 A2996 RMK AO2 SLP147
      T02560233=
METAR MKJS 080700Z 00000KT 9999 SCT022 SCT200 26/22 Q1012=
METAR SAZS 080700Z 32017KT 8000 DZ BKN012 03/02 Q1006=
METAR SCBA 080700Z AUTO 31014KT 9999 -SHSN FEW083 BKN088 BKN100 00/M02
      Q0998=
METAR SCTE 080700Z 34012KT 5000 SHRA SCT030 BKN050 07/07 Q1008 NOSIG=
METAR SKBQ 080700Z 00000KT 9999 SCT006 25/25 A2989=
METAR SKCG 080700Z 11004KT 9999 FEW012 SCT070 28/26 A2988=
METAR SPHI 080700Z 17009KT CAVOK 15/14 Q1014 RMK PP000=
METAR SPQU 080700Z 32005KT CAVOK 09/M07 Q1025 RMK PP000=
METAR SPRU 080700Z 16009KT 6000 OVC016 16/13 Q1013 RMK BIRD HAZARD
      RWY20 PP000=
METAR COR SPSO 080700Z VRB02KT 8000 SKC 13/11 Q1014 RMK PP000=
METAR TFFR 080700Z VRB01KT 9999 FEW021 26/24 Q1014 NOSIG=
####018000204####
SAEQ01 SEQU 080700
METAR
SEQU 080700Z 00000KT 9999 FEW020 SCT100 10/08 Q1027 RMK A3034
NOSIG=
SEGU 080700Z 21005KT 9999 BKN030 23/18 Q1011 NOSIG=
SEMT 080700Z 22004KT 9999 BKN016 23/20 Q1012=
####018000293####
SAEQ01 SEQU 080700
METAR
SEQU 080700Z 00000KT 9999 FEW020 SCT100 10/08 Q1027 RMK A3034
NOSIG=
SEGU 080700Z 21005KT 9999 BKN030 23/18 Q1011 NOSIG=
SEMT 080700Z 22004KT 9999 BKN016 23/20 Q1012=
SAEQ01 SEQU 080500
METAR
SELT 080500Z VRB01KT 8000 VCFG FEW008 BKN030 11/10 Q1033=
####018000199####
SARE20 FMEE 080700
METAR
FMCZ 080700Z 14014KT 9999 BKN025 26/18 Q1019=
FMEE 080700Z 12016KT 9999 FEW023 SCT053 21/18 Q1024 TEMPO
13028G38KT=
FMEP 080700Z 11024KT 9999 FEW025 24/15 Q1023=
####018000901####
SAAE31 VTBB 080700
METAR VTBS 080700Z 29004KT 260V350 9999 FEW020CB SCT035 BKN300
           34/22  Q1007 CB NE  NOSIG=
METAR VTBD 080700Z 30008KT 9999 SCT020 BKN300 34/22 Q1007 NOSIG=
METAR VTCC 080700Z 04006KT 9999 FEW025CB BKN035 32/23 Q1009 A2980
           CB NNE=
METAR VTBU 080700Z NIL=
METAR VTSS 080700Z 23004KT 9999 SCT020 34/19 Q1009 A2979 NOSIG=
METAR VTSP 080700Z 28011KT 9000 FEW020 SCT120 BKN300 31/25 Q1010
           A2984=
METAR VLVT 080700Z 06004KT 9999 SCT016 35/23 Q1006=
METAR VYYY 080700Z NIL=
METAR VVTS 080700Z VRB03KT 9999 FEW015TCU SCT017 34/23 Q1007 NOSIG=
METAR VVNB 080700Z NIL=
METAR VDPP 080700Z 02003KT 9999 SCT015 FEW017CB 34/22 Q1006 CB:SE
           E=
METAR VVDN 080700Z 10010KT 9999 FEW017 SCT300 35/19 Q1006 NOSIG=
METAR VYMD 080700Z NIL=
METAR VDSR 080700Z 33003KT 9999 SCT017 SCT040 33/23 Q1006=
METAR VVPB 080700Z NIL=
####018000295####
SANZ31 NZKL 080700

METAR NZAA 080700Z 20007KT 9999 FEW023 10/08 Q1008 NOSIG=
METAR NZWN 080700Z 19032G44KT 9999 -RADZ FEW015 SCT023 BKN033 10/05
         Q1010 WS R16 NOSIG =
METAR NZCH 080700Z 22014KT 190V250 9999 SHRA FEW014 SCT035 BKN060
         06/04 Q1015 TEMPO 6000 SHRA =
####018000435####
SAMG20 FMMI 080700
METAR 080700Z
METAR FMMT 080700Z 22016KT 9999 VCSH FEW007 SCT017 BKN033 22/19
Q1023=
METAR FMNM 080700Z ///10KT CAVOK 27/15 Q1019=
METAR FMCH 080700Z 23008KT 190V270 9999 FEW023TCU BKN030 27/18 Q1021
NOSIG=
METAR FMNA 080700Z 14023KT 9999 FEW020 SCT040 26/13 Q1017=
METAR FMSD 080700Z VRB02KT 8000 VCSH SCT017 BKN033 20/18 Q1027=
METAR FMMI 080700Z 13008KT 080V180 9999 SCT016 18/12 Q1028 NOSIG=
####018000101####
SAUS44 KMOB 080707 COR
MTRNSE
SPECI KNSE 080702Z AUTO 31003KT 3SM BR CLR 23/21 A3003 RMK AO2 $
####018000105####
SAAU32 AMMC 080700 CCB
METAR YAMB 080700Z 18010KT 9999 BKN040 BKN050 18/10 Q1020
     NOSIG=


####018000105####
SAAU32 AMMC 080700 CCA
METAR YAMB 080700Z 18010KT 9999 BKN040 BKN050 18/10 Q1020
     NOSIG=


####018000099####
SAAU32 AMMC 080700 CCA
METAR YAMB 080700Z 18010KT 9999 BKN040 BKN050 18/10 Q1020
     NOSIG=
####018000099####
SAAU32 AMMC 080700 CCB
METAR YAMB 080700Z 18010KT 9999 BKN040 BKN050 18/10 Q1020
     NOSIG=
####018000954####
SACI41 ZBBB 080700
METAR ZBHH 080700Z 22003MPS 160V260 9999 SCT040 30/09 Q1010 NOSIG=
METAR ZGHA 080700Z 22005MPS 180V250 9999 SCT040 36/27 Q1001 NOSIG=
METAR ZHCC 080700Z VRB01MPS 3000 HZ NSC 29/23 Q1005 NOSIG=
METAR ZHHH 080700Z 08007MPS 1500 R04/1000VP2000D SHRA SCT010
 SCT030CB OVC040
 24/24 Q1002 RETS TEMPO RA=
METAR ZJHK 080700Z 20002MPS 9999 SCT020 37/18 Q1004 NOSIG=
METAR ZJSY 080700Z 18003MPS 140V220 9999 FEW013 SCT016 32/27 Q1007
 NOSIG=
METAR ZLLL 080700Z VRB01MPS 9999 FEW043CB 26/06 Q1016 NOSIG=
METAR ZSNJ 080700Z 10003MPS 070V130 4000 HZ NSC 30/22 Q1003 NOSIG=
METAR ZSOF 080700Z 18003MPS 140V220 6000 -RA SCT026 29/27 Q1003
 BECMG 2500 SHRA
 BKN015 OVC050 FEW030TCU=
METAR ZUCK 080700Z 22002MPS 3000 BR SCT020 31/25 Q1003 NOSIG=
METAR ZYCC 080700Z 35004MPS 5000 -SHRA BR BKN005 FEW023TCU BKN023
 19/18 Q1006
 NOSIG=
METAR ZYHB 080700Z 03004MPS 5000 -RA BR BKN033 FEW033CB 19/18 Q1008
 NOSIG=
####018000079####
SAIR34 OIII 080700 RRA
METAR OITZ 080700Z 09012KT CAVOK 34/01 Q1017 A3004=
####018001550####
SAUS90 KWBC 080700 RRE
METAR KABE 080651Z 33003KT 8SM CLR 23/20 A3002=
METAR KALB 080651Z 00000KT 6SM HZ CLR 24/21 A3002=
METAR KART 080656Z AUTO 00000KT 7SM CLR 22/20 A3002=
METAR KAVP 080654Z 11005KT 7SM CLR 22/18 A3005=
METAR KBDL 080651Z 17007KT 7SM BKN110 25/21 A3003=
METAR KBDR 080652Z AUTO 05005KT 4SM BR FEW090 SCT110 24/22
     A3003=
METAR KBTV 080654Z 00000KT 5SM BR OVC055 24/22 A3001=
METAR KBUF 080654Z 19004KT 9SM CLR 23/20 A3006=
METAR KCAE 080656Z 26004KT 10SM CLR 26/18 A2999=
METAR KCAK 080651Z 00000KT 7SM CLR 22/18 A3009=
METAR KCMH 080651Z 00000KT 9SM CLR 24/19 A3007=
METAR KCRQ 080653Z AUTO 27003KT 10SM OVC012 17/13 A2991=
METAR KCRW 080654Z 00000KT 4SM BR CLR 22/20 A3008=
METAR KDAY 080656Z 23004KT 9SM CLR 24/18 A3009=
METAR KERI 080651Z 00000KT 9SM CLR 22/18 A3006=
METAR KGSO 080654Z 00000KT 8SM SCT090 26/18 A3001=
METAR KGSP 080653Z AUTO 00000KT 10SM CLR 24/19 A3002=
METAR KHTS 080651Z 00000KT 2 1/2SM BR CLR 22/21 A3007=
METAR KHUL 080653Z AUTO 21005KT 7SM CLR 22/18 A3000=
METAR KIAG 080653Z AUTO 21005KT 5SM BR CLR 24/22 A3005=
METAR KILG 080651Z AUTO 12005KT 6SM HZ CLR 26/22 A3000=
METAR KILM 080653Z AUTO 00000KT 10SM CLR 25/22 A2991=
METAR KMSS 080653Z AUTO 22004KT 7SM CLR 24/21 A3000=
METAR KORH 080654Z AUTO 22005KT 4SM BR BKN006 22/21 A3008=
METAR KPWM 080651Z AUTO 00000KT 9SM OVC008 21/19 A3006=
METAR KRIC 080654Z 08003KT 8SM SCT120 27/20 A2997=
METAR KROC 080654Z 23004KT 8SM CLR 23/20 A3005=
METAR KSYR 080654Z 00000KT 7SM CLR 23/21 A3004=
####018000419####
SAMG20 FMMI 080700
METAR FMMT 080700Z 22016KT 9999 VCSH FEW007 SCT017 BKN033 22/19
Q1023=
METAR FMNM 080700Z ///10KT CAVOK 27/15 Q1019=
METAR FMCH 080700Z 23008KT 190V270 9999 FEW023TCU BKN030 27/18 Q1021
NOSIG=
METAR FMNA 080700Z 14023KT 9999 FEW020 SCT040 26/13 Q1017=
METAR FMSD 080700Z VRB02KT 8000 VCSH SCT017 BKN033 20/18 Q1027=
METAR FMMI 080700Z 13008KT 080V180 9999 SCT016 18/12 Q1028 NOSIG=
####018000131####
SAOM32 OOMS 080700
METAR OOMS 080700Z 01006KT 330V050 6000 BKN025 SCT120
BKN250 33/29 Q1002 NOSIG=
METAR OOSA 080700Z NIL=
####018000100####
SAKY31 RUMS 080700 RRA
METAR UAFO 080700Z 28003MPS 9999 FEW050 33/19 Q1019 NOSIG RMK
QFEM685=
####018000129####
SAIY42 LIIB 080700 CCA
METAR LIRV 080655Z 05009KT CAVOK 23/14 Q1020 RMK FEW FEW200 MON E SE
      LIB NC VIS MIN 9999 BLU=
####018001653####
SAIY42 LIIB 080700
METAR LIBF 080650Z 33009KT CAVOK 24/12 Q1020 RMK VIS MIN 9999=
METAR LIEA 080650Z 36006KT 330V050 CAVOK 25/22 Q1019 RMK VIS MIN
9999=
METAR LIED 080655Z 32006KT CAVOK 24/21 Q1017 RMK SKC VIS MIN 9999
      BLU=
METAR LIEO 080650Z VRB02KT CAVOK 26/22 Q1019 RMK VIS MIN 9999=
METAR LIMA 080650Z 04003KT 9999 SCT040 23/16 Q1022 RMK VIS MIN 9999=
METAR LIQN 080700Z NIL=
METAR LIQO 080655Z 36015KT CAVOK 22/13 Q1020 RMK SKC VAL NIL NC VIS
      MIN 9999=
METAR LIQW 080700Z NIL=
METAR COR LIRE 080655Z 18006KT 9999 FEW015TCU SCT018 26/23 Q1018 RERA
      RMK BKN VIS MIN 9999 WIND THR31 17006KT BLU=
METAR LIRG 080655Z 28002KT 9999 FEW040 26/18 Q1019 RMK SCT MON NE
     LIB NC VIS MIN 9999 BLU=
METAR LIRH 080655Z 23001KT 9999 FEW035 24/16 Q1019 RMK SCT MON LIB NC
      VIS MIN 9999 WIND THR16 17001KT BLU=
METAR LIRI 080650Z 05006KT CAVOK 26/11 Q1019 RMK VIS MIN 9999=
METAR LIRK 080655Z 12004KT CAVOK 15/10 Q1025 RMK SKC MON NE LIB NC
      VAL NIL NC VIS MIN 9999=
METAR LIRL 080655Z 29005KT 9999 FEW015 SCT030 26/21 Q1018 RMK SCT MON
      LIB NC VIS MIN 9999 BLU=
METAR LIRM 080655Z 06011KT CAVOK 25/17 Q1019 RMK SKC VIS MIN 9999
      WIND THR06 05012KT BLU=
METAR LIRS 080655Z 06007KT CAVOK 27/10 Q1019 RMK FEW FEW200 VIS MIN
      9999 WIND THR21 /////KT BLU=
METAR LIRT 080655Z 04004KT CAVOK 16/08 Q1022 RMK SKC MON LIB VAL NIL
      VIS MIN 9999=
METAR LIRU 080700Z NIL=
METAR LIRV 080655Z 05009KT CAVOK 23/14 Q1020 RMK FEW FEW200 MON E SE
      LIB NC VIS MIN 9999 BLU=
METAR LIRX 080700Z NIL=
METAR LIRZ 080650Z 36003KT CAVOK 24/13 Q1021 RMK VIS MIN 9999=
####018000131####
SAOM20 OOMS 080700
METAR OOMS 080700Z 01006KT 330V050 6000 BKN025 SCT120
BKN250 33/29 Q1002 NOSIG=
METAR OOSA 080700Z NIL=
####018001873####
SAIY40 LIIB 080700
METAR LIMG 080650Z 00000KT 9999 BKN080 25/20 Q1020 RMK VIS MIN 9999=
METAR LIMK 080655Z 02007KT 9999 FEW020 SCT030 18/14 Q1022 RMK BKN VAL
      NIL VIS MIN 9999=
METAR LIMN 080655Z /////KT 9999 SCT050 24/16 Q1021 RMK SCT VIS MIN
      9999 BLU=
METAR LIMP 080650Z 06005KT 6000 NSC 22/17 Q1022 RMK VIS MIN 6000=
METAR LIMS 080655Z 11006KT 050V130 CAVOK 23/19 Q1021 RMK FEW FEW200
      VIS MIN 9999 WIND THR30 10005KT BLU=
METAR LIMZ 080700Z NIL=
METAR LIPA 080655Z 21002KT 9999 BKN045 SCT070 21/16 Q1022 RMK BKN VIS
      MIN 9999 A3019 BLU=
METAR LIPB 080650Z 25002KT 9999 BKN070 24/11 Q1022 RMK MON LIB VIS
MIN 9999=
METAR LIPC 080655Z 16009KT CAVOK 24/14 Q1021 RMK FEW FEW200 VIS MIN
      9999 WIND THR12 13008KT BLU=
METAR LIPF 080655Z 36002KT CAVOK 23/19 Q1021 RMK FEW FEW250 VIS MIN
      9999=
METAR LIPH 080645Z 03002KT 9999 SCT020 BKN045 22/18 Q1023 RMK OVC VIS
      MIN 9999 WIND THR07 /////KT BLU=
METAR LIPI 080655Z 07004KT 9999 FEW030 BKN060 23/19 Q1022 RMK BKN
     VIS MIN 9999 WIND THR06 08004KT BLU=
METAR LIPL 080655Z 09007KT 050V130 9999 FEW045 SCT063 23/19 Q1022 RMK
      BKN VIS MIN 9999 BLU=
METAR LIPO 080650Z 09008KT 9999 FEW045 BKN065 24/15 Q1021 RMK VIS
MIN 9999=
METAR LIPQ 080650Z VRB01KT 9999 BKN050 21/15 Q1022=
METAR LIPR 080645Z 12006KT CAVOK 25/18 Q1021 RMK SKC VIS MIN 9999
      WIND THR31 14007KT BLU=
METAR LIPS 080655Z 05004KT 9999 BKN040 21/15 Q1022 RMK BKN VIS MIN
      9999 BLU=
METAR LIPX 080645Z 06009KT 9999 SCT060 BKN080 25/15 Q1021 RMK BKN VIS
      MIN 9999 BLU=
METAR LIPY 080650Z 14006KT 100V200 CAVOK 25/12 Q1021 RMK VIS MIN
9999=
METAR LIVC 080655Z 36012KT CAVOK 12/10 Q1029 RMK SCT SCT110 MON LIB
      VAL NIL VIS MIN 9999=
METAR LIVP 080655Z VRB02KT 0500 VV/// 10/09 Q1028 RMK MON INVIS VAL
      INVIS VIS MIN 0500=
####018001073####
SAIY41 LIIB 080700
METAR LIMH 080655Z 06010KT CAVOK 06/M14 Q1037 RMK FEW FEW100 MON LIB
      VAL S MAR CLD VIS MIN 9999=
METAR LIMT 080700Z NIL=
METAR LIMU 080655Z 02005KT CAVOK 26/24 Q1019 RMK BKN SCT070 SCT080
      QUK 1 QUL 1 S VIS MAR 20 KM VIS MIN 9999=
METAR LIMV 080655Z 03012KT 8000 3000N NSC 19/18 Q1021 RMK BKN BKN200
      MON N INVIS S LIB VAL FOSCHIA VIS MIN 3000N=
METAR LIMY 080655Z /////KT 4000 BR OVC026 21/19 Q1022 RMK OVC VAL
      FOSCHIA VIS MIN 4000=
METAR LIVD 080655Z 00000KT 9999 FEW030 14/09 Q1026 RMK FEW VIS MIN
      9999=
METAR LIVE 080700Z NIL=
METAR LIVF 080655Z 15006KT CAVOK 23/08 Q1021 RMK SKC MON LIB VAL NIL
      VIS MIN 9999=
METAR LIVM 080655Z 14007KT CAVOK 25/21 Q1021 RMK SKC QUK 2 QUL 1 SE
      VIS MAR 25 KM VIS MIN 9999=
METAR LIVO 080655Z 15001KT CAVOK 15/13 Q1023 RMK SKC VIS MIN 9999=
METAR LIVR 080655Z /////KT 0200 FG VV001 11/10 Q1028 RMK MON INVIS
      VIS MIN 0200=
METAR LIVT 080655Z 08002KT CAVOK 23/12 Q1021 RMK BKN BKN100 QUK 0 QUL
      0 VIS MAR 20 KM VIS MIN 9999=
####018001615####
SAEU KAWN 080700 RRS
METAR ETOR 080655Z 00000KT 9999 FEW060 FEW120 FEW200 25/11 A3015 RMK
      BLU=
METAR LIMS 080655Z 11006KT 050V130 CAVOK 23/19 Q1021 RMK FEW FEW200
      VIS MIN 9999 WIND THR30 10005KT BLU=
METAR LIPA 080655Z 21002KT 9999 BKN045 SCT070 21/16 Q1022 RMK BKN VIS
      MIN 9999 A3019 BLU=
METAR LIPC 080655Z 16009KT CAVOK 24/14 Q1021 RMK FEW FEW200 VIS MIN
      9999 WIND THR12 13008KT BLU=
METAR LIPF 080655Z 36002KT CAVOK 23/19 Q1021 RMK FEW FEW250 VIS MIN
      9999=
METAR LIPI 080655Z 07004KT 9999 FEW030 BKN060 23/19 Q1022 RMK BKN VIS
      MIN 9999 WIND THR06 08004KT BLU=
METAR LIPR 080645Z 12006KT CAVOK 25/18 Q1021 RMK SKC VIS MIN 9999 WIND
      THR31 14007KT BLU=
METAR LIPS 080655Z 05004KT 9999 BKN040 21/15 Q1022 RMK BKN VIS MIN
      9999 BLU=
METAR LIPY 080650Z 14006KT 100V200 CAVOK 25/12 Q1021 RMK VIS MIN 9999=
METAR LIVC 080655Z 36012KT CAVOK 12/10 Q1029 RMK SCT SCT110 MON LIB
      VAL NIL VIS MIN 9999=
METAR LIVP 080655Z VRB02KT 0500 VV/// 10/09 Q1028 RMK MON INVIS VAL
      INVIS VIS MIN 0500=
METAR LKKV 080700Z 00000KT CAVOK 16/10 Q1024 RMK REG QNH 1021=
METAR LKTB 080700Z VRB02KT 9999 FEW031 19/11 Q1023 NOSIG RMK REG QNH
      1021=
METAR LPAZ 080700Z 00000KT 9999 FEW016 BKN032 20/18 Q1024=
METAR LPFR 080700Z 22005KT 180V240 7000 SCT008 BKN010 22/20 Q1015=
METAR LPHR 080700Z 35002KT 9999 FEW009 SCT012 BKN030 19/17 Q1023=
METAR LPPR 080700Z 00000KT 6000 BKN250 20/18 Q1014=
METAR LPPS 080700Z 02010KT 350V060 9999 SCT015 SCT030 19/15 Q1020=
METAR LPPT 080700Z VRB02KT 8000 FEW120 21/19 Q1014 NOSIG=
####018001588####
SAEU KAWN 080700 RRT
METAR LIBC 080650Z 01017KT 9999 FEW030 25/14 Q1018 RMK VIS MIN 9999=
METAR LIBP 080650Z VRB01KT CAVOK 23/15 Q1021 RMK VIS MIN 9999=
METAR LICA 080650Z 22004KT 9999 FEW020 25/22 Q1017 RMK VIS MIN 9999=
METAR LICD 080650Z 35008KT 270V350 9000 SCT010 24/21 Q1018 RMK VIS
      MIN 8000NW=
METAR LICZ 080655Z 27002KT CAVOK 25/20 Q1018 RMK SKC VIS MIN 9999 WIND
      THR28 /////KT BLU=
METAR LIMG 080650Z 00000KT 9999 BKN080 25/20 Q1020 RMK VIS MIN 9999=
METAR LIMK 080655Z 02007KT 9999 FEW020 SCT030 18/14 Q1022 RMK BKN VAL
      NIL VIS MIN 9999=
METAR LIMN 080655Z /////KT 9999 SCT050 24/16 Q1021 RMK SCT VIS MIN
      9999 BLU=
METAR LIMU 080655Z 02005KT CAVOK 26/24 Q1019 RMK BKN SCT070 SCT080
      QUK 1 QUL 1 S VIS MAR 20 KM VIS MIN 9999=
METAR LIPB 080650Z 25002KT 9999 BKN070 24/11 Q1022 RMK MON LIB VIS
      MIN 9999=
METAR LIPH 080645Z 03002KT 9999 SCT020 BKN045 22/18 Q1023 RMK OVC VIS
      MIN 9999 WIND THR07 /////KT BLU=
METAR LIPL 080655Z 09007KT 050V130 9999 FEW045 SCT063 23/19 Q1022 RMK
      BKN VIS MIN 9999 BLU=
METAR LIPX 080645Z 06009KT 9999 SCT060 BKN080 25/15 Q1021 RMK BKN VIS
      MIN 9999 BLU=
METAR LIRG 080655Z 28002KT 9999 FEW040 26/18 Q1019 RMK SCT MON NE LIB
      NC VIS MIN 9999 BLU=
METAR LIRM 080655Z 06011KT CAVOK 25/17 Q1019 RMK SKC VIS MIN 9999 WIND
      THR06 05012KT BLU=
METAR LIRT 080655Z 04004KT CAVOK 16/08 Q1022 RMK SKC MON LIB VAL NIL
      VIS MIN 9999=
METAR LIRV 080655Z 05009KT CAVOK 23/14 Q1020 RMK FEW FEW200 MON E SE
      LIB NC VIS MIN 9999 BLU=
####018001587####
SAEU KAWN 080700 RRU
METAR LIBG 080650Z 35015KT 320V030 CAVOK 25/10 Q1017 RMK VIS MIN 9999=
METAR LIBQ 080655Z 08008KT CAVOK 13/13 Q1023 RMK SKC MON LIB VAL NIL
      VIS MIN 9999=
METAR LIBV 080655Z 36017G27KT CAVOK 23/14 Q1017 RMK SKC VIS MIN 9999
      WIND THR14 35020KT BLU=
METAR LICG 080655Z 33006KT 9999 BKN010 22/19 Q1018 RMK BKN VIS MIN
      9999 WIND THR08 30005KT WIND THR21 31007KT GRN=
METAR LICT 080655Z 01001KT 9999 FEW030 29/24 Q1017 RMK FEW VIS MIN
      9999 WIND THR13 33006KT BLU=
METAR LIED 080655Z 32006KT CAVOK 24/21 Q1017 RMK SKC VIS MIN 9999 BLU=
METAR LIEO 080650Z VRB02KT CAVOK 26/22 Q1019 RMK VIS MIN 9999=
METAR LIMH 080655Z 06010KT CAVOK 06/M14 Q1037 RMK FEW FEW100 MON LIB
      VAL S MAR CLD VIS MIN 9999=
METAR LIQO 080655Z 36015KT CAVOK 22/13 Q1020 RMK SKC VAL NIL NC VIS
      MIN 9999=
METAR COR LIRE 080655Z 18006KT 9999 FEW015TCU SCT018 26/23 Q1018 RERA
      RMK BKN VIS MIN 9999 WIND THR31 17006KT BLU=
METAR LIRH 080655Z 23001KT 9999 FEW035 24/16 Q1019 RMK SCT MON LIB
      NC VIS MIN 9999 WIND THR16 17001KT BLU=
METAR LIRK 080655Z 12004KT CAVOK 15/10 Q1025 RMK SKC MON NE LIB NC
      VAL NIL NC VIS MIN 9999=
METAR LIRS 080655Z 06007KT CAVOK 27/10 Q1019 RMK FEW FEW200 VIS MIN
      9999 WIND THR21 /////KT BLU=
METAR LIRV 080655Z 05009KT CAVOK 23/14 Q1020 RMK FEW FEW200 MON E SE
      LIB NC VIS MIN 9999 BLU=
METAR LIVD 080655Z 00000KT 9999 FEW030 14/09 Q1026 RMK FEW VIS MIN
      9999=
METAR LIVF 080655Z 15006KT CAVOK 23/08 Q1021 RMK SKC MON LIB VAL NIL
      VIS MIN 9999=
####018001663####
SAZZ40 KAWN 080700 RRN
METAR KNFG 080656Z 00000KT 5SM BR OVC015 16/13 A2991 RMK AO2 SLP127
      T01610133=
METAR LKKV 080700Z 00000KT CAVOK 16/10 Q1024 RMK REG QNH 1021=
METAR MKJS 080700Z 00000KT 9999 SCT022 SCT200 26/22 Q1012=
METAR MNMG 080700Z 16004KT 9999 FEW020CB SCT022 25/24 Q1011 A2986 CBSW/W/NW/FL=
METAR MYEG 080659Z AUTO 09004KT 10SM SCT024 SCT029 SCT037 25/23 A2993
      RMK AO2 LTG DSNT W=
METAR OEDR 080700Z 35009KT 6000 SKC 42/13 Q0999 NOSIG=
METAR OIAW 080700Z 19006KT 7000 SKC 41/08 Q0999 A2950=
METAR OIII 080700Z 17006KT CAVOK 36/M01 Q1015 A2997 880/0=
METAR OIKB 080650Z 27004KT 5000 HZ SKC 36/27 Q1002 A2959=
METAR OIKK 080700Z 36004KT CAVOK 32/03 Q1019 A3011=
METAR OIMM 080700Z 07006KT CAVOK 37/M01 Q1015 A2998=
METAR OISS 080700Z 07004KT CAVOK 37/07 Q1014 A2997=
METAR OITT 080700Z 09012KT CAVOK 32/04 Q1016 A3001=
METAR ORBI 080700Z 01014KT CAVOK 40/09 Q1004 NOSIG=
METAR ORMM 080700Z 27016KT CAVOK 43/03 Q1000=
METAR PHNG 080657Z 06006KT 10SM SCT026 BKN040 25/20 A3004 RMK AO2 SLP168
      T02500200 $=
METAR TGPY 080700Z 08009KT 9999 FEW020 SCT280 28/26 Q1012/HZ=
METAR UACC 080700Z 28004MPS 240V310 CAVOK 23/03 Q1011 220/0070 NOSIG
      RMK QFE727/0969=
METAR UAFM 080700Z 31004MPS CAVOK 33/07 Q1013 NOSIG=
METAR UATT 080700Z 06009MPS 9999 NSC 30/04 Q1010 13CLRD70 NOSIG RMK
      QFE738/0984=
METAR WMKJ 080700Z 01002KT 9999 FEW018 BKN280 29/25 Q1009=
METAR WMKK 080700Z 23006KT 160V280 9999 SCT018 SCT140 BKN280 31/26
      Q1009 NOSIG=
METAR WMKP 080700Z 21009KT 9999 FEW020 BKN300 31/25 Q1009 NOSIG=
METAR WMSA 080700Z 21004KT 9999 FEW020 BKN140 33/25 Q1009 NOSIG=
####018003722####
SACN97 KWBC 080708
CXAT RMK NIL=
CXBK RMK NIL=
CXBO RMK NIL=
CXCA RMK NIL=
CXCH RMK NIL=
METAR CXCK 080700Z AUTO 29002KT 17/ RMK AO1 T0172=
CXDE RMK NIL=
CXDI RMK NIL=
CXDW RMK NIL=
METAR CXEA 080700Z AUTO 20001KT 14/12 RMK AO1 SLP135 T01440124
56009=
CXEC RMK NIL=
CXEG RMK NIL=
CXET RMK NIL=
CXGH RMK NIL=
CXHA RMK NIL=
METAR CXHF 080700Z AUTO 20/19 RMK AO1 T01970188=
METAR CXIB 080700Z AUTO 02002KT 15/15 RMK AO1 SLP176 T01520147
56008=
CXLC RMK NIL=
CXLL RMK NIL=
CXMD RMK NIL=
METAR CXMI 080700Z AUTO 14002KT 17/16 RMK AO1 SLP200 T01690159
55004=
CXMM RMK NIL=
METAR CXMY 080700Z AUTO 17/16 RMK AO1 T01720162=
CXNM RMK NIL=
METAR CXOX 080700Z AUTO 24003KT 11/09 RMK AO1 SLP161 T01130091
58001=
CXPV RMK NIL=
CXQA RMK NIL=
CXQT RMK NIL=
METAR CXRH 080700Z AUTO 12005KT 13/12 RMK AO1 T01320120=
CXSH RMK NIL=
METAR CXSR 080700Z AUTO 16/08 RMK AO1 SLP172 T01600076 58003=
CXSW RMK NIL=
CXTN RMK NIL=
METAR CXTP 080700Z AUTO 15003KT 08/08 RMK AO1 SLP229 T00820078
55002=
CXTV RMK NIL=
CXWN RMK NIL=
METAR CXZU 080700Z AUTO 00000KT 15/11 RMK AO1 SLP188 T01510107
52001=
METAR CXBK 080700Z AUTO 31006KT 13/11 RMK AO1 SLP173 T01270113
56002=
METAR CXMY 080700Z AUTO 17/16 RMK AO1 T01720162=
CXNM RMK NIL=
METAR CXOX 080700Z AUTO 24003KT 11/09 RMK AO1 SLP161 T01130091
58001=
CXPV RMK NIL=
CXQA RMK NIL=
CXQT RMK NIL=
METAR CXRH 080700Z AUTO 12005KT 13/12 RMK AO1 T01320120=
CXSH RMK NIL=
METAR CXSR 080700Z AUTO 16/08 RMK AO1 SLP172 T01600076 58003=
CXSW RMK NIL=
CXTN RMK NIL=
METAR CXTP 080700Z AUTO 15003KT 08/08 RMK AO1 SLP229 T00820078
55002=
CXTV RMK NIL=
CXWN RMK NIL=
METAR CXZU 080700Z AUTO 00000KT 15/11 RMK AO1 SLP188 T01510107
52001=
METAR CXBK 080700Z AUTO 31006KT 13/11 RMK AO1 SLP173 T01270113
56002=
METAR CXMY 080700Z AUTO 17/16 RMK AO1 T01720162=
CXNM RMK NIL=
METAR CXOX 080700Z AUTO 24003KT 11/09 RMK AO1 SLP161 T01130091
58001=
CXPV RMK NIL=
CXQA RMK NIL=
CXQT RMK NIL=
METAR CXRH 080700Z AUTO 12005KT 13/12 RMK AO1 T01320120=
CXSH RMK NIL=
METAR CXSR 080700Z AUTO 16/08 RMK AO1 SLP172 T01600076 58003=
CXSW RMK NIL=
CXTN RMK NIL=
METAR CXTP 080700Z AUTO 15003KT 08/08 RMK AO1 SLP229 T00820078
55002=
CXTV RMK NIL=
CXWN RMK NIL=
METAR CXZU 080700Z AUTO 00000KT 15/11 RMK AO1 SLP188 T01510107
52001=
CXNM RMK NIL=
METAR CXOX 080700Z AUTO 24003KT 11/09 RMK AO1 SLP161 T01130091
58001=
CXPV RMK NIL=
CXQA RMK NIL=
CXQT RMK NIL=
METAR CXRH 080700Z AUTO 12005KT 13/12 RMK AO1 T01320120=
CXSH RMK NIL=
METAR CXSR 080700Z AUTO 16/08 RMK AO1 SLP172 T01600076 58003=
CXSW RMK NIL=
CXTN RMK NIL=
METAR CXTP 080700Z AUTO 15003KT 08/08 RMK AO1 SLP229 T00820078
55002=
CXTV RMK NIL=
CXWN RMK NIL=
METAR CXZU 080700Z AUTO 00000KT 15/11 RMK AO1 SLP188 T01510107
52001=
CXQT RMK NIL=
METAR CXRH 080700Z AUTO 12005KT 13/12 RMK AO1 T01320120=
CXSH RMK NIL=
METAR CXSR 080700Z AUTO 16/08 RMK AO1 SLP172 T01600076 58003=
CXSW RMK NIL=
CXTN RMK NIL=
METAR CXTP 080700Z AUTO 15003KT 08/08 RMK AO1 SLP229 T00820078
55002=
CXTV RMK NIL=
CXWN RMK NIL=
METAR CXZU 080700Z AUTO 00000KT 15/11 RMK AO1 SLP188 T01510107
52001=
CXQT RMK NIL=
METAR CXRH 080700Z AUTO 12005KT 13/12 RMK AO1 T01320120=
CXSH RMK NIL=
METAR CXSR 080700Z AUTO 16/08 RMK AO1 SLP172 T01600076 58003=
CXSW RMK NIL=
CXTN RMK NIL=
METAR CXTP 080700Z AUTO 15003KT 08/08 RMK AO1 SLP229 T00820078
55002=
CXTV RMK NIL=
CXWN RMK NIL=
METAR CXZU 080700Z AUTO 00000KT 15/11 RMK AO1 SLP188 T01510107
52001=
CXSH RMK NIL=
METAR CXSR 080700Z AUTO 16/08 RMK AO1 SLP172 T01600076 58003=
CXSW RMK NIL=
CXTN RMK NIL=
####018000203####
SAUS99 KWBC 080708
METAR
KBXK 080655Z AUTO 03006KT 10SM CLR 29/M02 A2975 RMK AO1=
KPAN 080715Z AUTO 00000KT 10SM CLR 23/06 A3011 RMK AO1=
KRQO 080715Z AUTO 00000KT 7SM CLR 23/23 A3005 RMK AO2=
####018001413####
SACN87 KWBC 080708
CWEK RMK NIL=
METAR CWEQ 080700Z AUTO 21004KT 10/09 RMK AO1 SLP167 T00980085
53002=
CWJD RMK NIL=
METAR CWLP 080700Z AUTO 31011KT 13/12 RMK AO1 SLP162 T01330117
53004=
CWPU RMK NIL=
CWRO RMK NIL=
CWWL RMK NIL=
CWWS RMK NIL=
METAR CWZG 080700Z AUTO 04005KT 13/04 RMK AO1 SLP221 T01260041
51010=
CWME RMK NIL=
CWME RMK NIL=
CWQS RMK NIL=
METAR CWRM 080700Z AUTO 13002KT 10/08 RMK AO1 SLP213 T00950083
50001=
CWRU RMK NIL=
CWQS RMK NIL=
METAR CWRM 080700Z AUTO 13002KT 10/08 RMK AO1 SLP213 T00950083
50001=
CWRU RMK NIL=
METAR CWDC 080700Z AUTO 15001KT 12/08 RMK AO1 SLP135 T01150078
57003=
METAR CWEH 080700Z AUTO 36007KT 11/07 RMK AO1 SLP215 T01110070
53002=
METAR CWKO 080700Z AUTO 23004KT 11/09 RMK AO1 SLP211 T01090087
56001=
METAR CWOY 080700Z AUTO 25001KT 09/06 RMK AO1 SLP196 T00890064
52004=
METAR CWDC 080700Z AUTO 15001KT 12/08 RMK AO1 SLP135 T01150078
57003=
METAR CWEH 080700Z AUTO 36007KT 11/07 RMK AO1 SLP215 T01110070
53002=
METAR CWKO 080700Z AUTO 23004KT 11/09 RMK AO1 SLP211 T01090087
56001=
METAR CWOY 080700Z AUTO 25001KT 09/06 RMK AO1 SLP196 T00890064
52004=
CWCT RMK NIL=
METAR CWLB 080700Z AUTO 26003KT 16/13 RMK AO1 SLP181 T01630128
55002=
METAR CWVT 080700Z AUTO 25003KT 16/10 RMK AO1 SLP171 T01640101
55002=
METAR CWZW 080700Z AUTO 26005KT 17/05 RMK AO1 SLP212 T01650046
50003=
####018000253####
SACN97 KWBC 080708 RRA
METAR CXTP 080700Z AUTO 15003KT 08/08 RMK AO1 SLP229 T00820078
55002=
CXTV RMK NIL=
CXWN RMK NIL=
METAR CXZU 080700Z AUTO 00000KT 15/11 RMK AO1 SLP188 T01510107
52001=
CXKT RMK NIL=
CXKT RMK NIL=
CXKT RMK NIL=
####018001100####
SACN85 KWBC 080708
METAR CWDM 080700Z AUTO 04007KT 08/08 RMK AO1 SLP189 T00820076
56005=
METAR CWDM 080700Z AUTO 04007KT 08/08 RMK AO1 SLP189 T00820076
56005=
CWBY RMK NIL=
CWRA RMK NIL=
METAR CWSF 080700Z AUTO 28005KT 12/12 RMK AO1 SLP159 T01190118
53006=
CWRA RMK NIL=
METAR CWSF 080700Z AUTO 28005KT 12/12 RMK AO1 SLP159 T01190118
53006=
CWHO RMK NIL=
CWPK RMK NIL=
CWWE RMK NIL=
CYGS RMK NIL=
CWEF RMK NIL=
METAR CWEP 080700Z AUTO 22011KT 19/18 RMK AO1 PK WND 22018/0624
SLP175 T01920177 50000=
METAR CWER 080700Z AUTO 05018KT RMK AO1 PK WND 05020/0652=
METAR CWBV 080700Z AUTO 24009KT 15/15 RMK AO1 SLP209 T01510149
56004=
CWDO RMK NIL=
METAR CWHO 080700Z AUTO 19003KT 09/08 RMK AO1 SLP144 T00860075
56018=
METAR CWRN 080700Z AUTO 22012KT 17/16 RMK AO1 PK WND 22021/0604
SLP197 T01670164 55005=
CWSS RMK NIL=
CWNH RMK NIL=
CWDO RMK NIL=
METAR CWHO 080700Z AUTO 19003KT 09/08 RMK AO1 SLP144 T00860075
56018=
METAR CWRN 080700Z AUTO 22012KT 17/16 RMK AO1 PK WND 22021/0604
SLP197 T01670164 55005=
CWSS RMK NIL=
CWWE RMK NIL=
####018000473####
SACN93 KWBC 080708
CWMZ RMK NIL=
CWNE RMK NIL=
CWNK RMK NIL=
METAR CWNM 080700Z AUTO 15/13 RMK AO1 SLP189 T01470127 51017=
METAR CWNP 080700Z AUTO 07002KT 15/10 RMK AO1 SLP177 T01530103
51017=
CWNQ RMK NIL=
CWNX RMK NIL=
CWOC RMK NIL=
CWOD RMK NIL=
CWOE RMK NIL=
CWOQ RMK NIL=
CWPB RMK NIL=
CWPD RMK NIL=
CWPE RMK NIL=
CWPF RMK NIL=
CWPR RMK NIL=
METAR CWPZ 080700Z AUTO 00000KT 10/07 RMK AO1 SLP188 T00970065
52009=
CWQA RMK NIL=
####018000718####
SACN89 KWBC 080708
CWAF RMK NIL=
METAR CWAQ 080700Z AUTO 26005KT 12/11 RMK AO1 T01230106=
METAR CWAV 080700Z AUTO 00000KT 08/05 RMK AO1 SLP222 T00800054
58001=
METAR CWBA 080700Z AUTO 16002KT 20/19 RMK AO1 T01970192=
CWBG RMK NIL=
METAR CWBO 080700Z AUTO 25002KT 11/11 RMK AO1 SLP218 T01110109
51005=
METAR CWBS 080700Z AUTO 26007KT 26/22 RMK AO1 T02570219=
METAR CWBT 080700Z AUTO 08006KT 13/13 RMK AO1 SLP169 T01260126
56005=
CWBZ RMK NIL=
CWCF RMK NIL=
CWCG RMK NIL=
CWCI RMK NIL=
CWCJ RMK NIL=
CWCO RMK NIL=
CWCQ RMK NIL=
CWDD RMK NIL=
CWDF RMK NIL=
METAR CWDJ 080700Z AUTO 34003KT 12/11 RMK AO1 SLP191 T01200108
50002=
CWDK RMK NIL=
CWDT RMK NIL=
CWDZ RMK NIL=
####018000508####
SPUS99 KWBC 080708
SPECI
KBML 080705Z AUTO 00000KT 1SM BR FEW001 BKN005 OVC050 19/19 A3008
     RMK AO2 $=
KHWV 080705Z AUTO 12003KT 2SM BR BKN002 BKN007 OVC012 24/24 A3003
     RMK AO2 CIG 002V006=
KLWC 080705Z AUTO 31008KT 10SM SCT008 OVC019 22/21 A3008 RMK
     AO2=
KMEM 080705Z 00000KT 10SM FEW005 SCT250 26/22 A3005 RMK AO2 FU
     FEW005=
KNTU 080703Z 11003KT 4SM BR FEW005 26/24 A2994 RMK AO2 CHINO RWY
     05R $=
KSJC 080705Z AUTO 33004KT 10SM BKN019 15/11 A2992 RMK AO2=
####018001208####
SACN91 KWBC 080708
METAR CWGR 080700Z AUTO 20007KT 19/17 RMK AO1 SLP163 T01870172
55004=
METAR CWGT 080700Z AUTO 36001KT 23/13 RMK AO1 SLP135 T02250132
51005=
METAR CWGW 080700Z AUTO 04003KT 13/08 RMK AO1 SLP222 T01300084
52017=
METAR CWGX 080700Z AUTO 25005KT 13/10 RMK AO1 SLP090 T01290102
56008=
CWGY RMK NIL=
CWHA RMK NIL=
CWHD RMK NIL=
CWHI RMK NIL=
METAR CWHL 080700Z AUTO 28003KT 15/ RMK AO1 SLP167 T0152 55002=
METAR CWHM 080700Z AUTO 23003KT 24/22 RMK AO1 T02400222=
METAR CWHQ 080700Z AUTO 11003KT 23/22 RMK AO1 T02310223=
METAR CWHT 080700Z AUTO 27005KT 15/05 RMK AO1 SLP211 T01530045
53011=
METAR CWHV 080700Z AUTO 19002KT 22/21 RMK AO1 SLP154 T02240211
58004=
CWID RMK NIL=
CWIG RMK NIL=
CWII RMK NIL=
CWIJ RMK NIL=
CWIN RMK NIL=
CWIO RMK NIL=
METAR CWIP 080700Z AUTO 13003KT 13/ RMK AO1 T0126=
METAR CWIS 080700Z AUTO 15002KT 18/18 RMK AO1 SLP168 T01810175
56003=
METAR CWIT 080700Z AUTO 29003KT 25/20 RMK AO1 T02530201=
CWIW RMK NIL=
CWIX RMK NIL=
CWIY RMK NIL=
CWIZ RMK NIL=
METAR CWJB 080700Z AUTO 08007KT 19/18 RMK AO1 T01910175=
METAR CWJC 080700Z AUTO 09/08 RMK AO1 18 0647Z 7008 SLP057
T00860081=
CWJH RMK NIL=
####018000885####
SACN95 KWBC 080708
METAR CWTA 080700Z AUTO 29004KT 26/22 RMK AO1 SLP156 T02620215
58001=
CWTG RMK NIL=
CWTN RMK NIL=
CWTT RMK NIL=
CWTY RMK NIL=
METAR CWUS 080700Z AUTO 28005KT 21/06 RMK AO1 SLP171 T02100059
51014=
METAR CWUX 080700Z AUTO 28002KT 19/18 RMK AO1 SLP150 T01850182
51004=
METAR CWVF 080700Z AUTO 35010KT 23/ RMK AO1 T0226=
CWVI RMK NIL=
CWVN RMK NIL=
CWVP RMK NIL=
METAR CWVQ 080700Z AUTO 22004KT 25/22 RMK AO1 T02490220=
METAR CWVU 080700Z AUTO 17012KT 16/15 RMK AO1 SLP194 T01560153
56013=
METAR CWVV 080700Z AUTO 00000KT 21/06 RMK AO1 SLP145 T02100064
51005=
CWVZ RMK NIL=
METAR CWWA 080700Z AUTO 06001KT 21/10 RMK AO1 SLP138 T02090097
51013=
CWWF RMK NIL=
METAR CWWK 080700Z AUTO 05001KT 20/15 RMK AO1 SLP144 T02020153
51010=
METAR CWXA 080700Z AUTO 00000KT 06/04 RMK AO1 SLP232 T00630042
51001=
CWXC RMK NIL=
####018000294####
SANZ31 NZKL 080700

METAR NZAA 080700Z 20007KT 9999 FEW023 10/08 Q1008 NOSIG=
METAR NZWN 080700Z 19032G44KT 9999 -RADZ FEW015 SCT023 BKN033 10/05
         Q1010 WS R16 NOSIG =
METAR NZCH 080700Z 22014KT 190V250 9999 SHRA FEW014 SCT035 BKN060
         06/04 Q1015 TEMPO 6000 SHRA =
####018001353####
SACN92 KWBC 080708
CWJI RMK NIL=
CWJM RMK NIL=
CWJO RMK NIL=
CWJR RMK NIL=
METAR CWJT 080700Z AUTO 06001KT 19/18 RMK AO1 SLP158 T01850175
51003=
CWJU RMK NIL=
METAR CWJV 080700Z AUTO 11006KT 19/08 RMK AO1 SLP164 T01880081
52012=
CWJW RMK NIL=
CWJX RMK NIL=
CWKD RMK NIL=
CWKG RMK NIL=
METAR CWKH 080700Z AUTO 24/ RMK AO1 T0242=
METAR CWKX 080700Z AUTO 30001KT 12/06 RMK AO1 SLP230 T01190059
53010=
CWLC RMK NIL=
CWLE RMK NIL=
METAR CWLM 080700Z AUTO 26006KT 22/10 RMK AO1 T02190100=
CWLU RMK NIL=
METAR CWMJ 080700Z AUTO 00000KT 19/19 RMK AO1 SLP162 T01940187
50002=
METAR CWMM 080700Z AUTO 08001KT 18/13 RMK AO1 SLP141 T01750126
52014=
CWMQ RMK NIL=
CWJO RMK NIL=
CWJR RMK NIL=
METAR CWJT 080700Z AUTO 06001KT 19/18 RMK AO1 SLP158 T01850175
51003=
CWJU RMK NIL=
METAR CWJV 080700Z AUTO 11006KT 19/08 RMK AO1 SLP164 T01880081
52012=
CWJW RMK NIL=
CWJX RMK NIL=
CWKD RMK NIL=
CWKG RMK NIL=
METAR CWKH 080700Z AUTO 24/ RMK AO1 T0242=
METAR CWKX 080700Z AUTO 30001KT 12/06 RMK AO1 SLP230 T01190059
53010=
CWLC RMK NIL=
CWLE RMK NIL=
METAR CWLM 080700Z AUTO 26006KT 22/10 RMK AO1 T02190100=
CWLU RMK NIL=
METAR CWMJ 080700Z AUTO 00000KT 19/19 RMK AO1 SLP162 T01940187
50002=
METAR CWMM 080700Z AUTO 08001KT 18/13 RMK AO1 SLP141 T01750126
52014=
CWMQ RMK NIL=
####018000547####
SACN90 KWBC 080708
METAR CWEB 080700Z AUTO 30007KT 16/12 RMK AO1 SLP146 T01570117
50001=
CWEE RMK NIL=
METAR CWEL 080700Z AUTO 32006KT 21/15 RMK AO1 T02120151=
METAR CWEW 080700Z AUTO 24002KT 24/23 RMK AO1 SLP154 T02370226
50001=
CWEZ RMK NIL=
CWFF RMK NIL=
CWFJ RMK NIL=
METAR CWFQ 080700Z AUTO 13001KT 23/22 RMK AO1 T02270215=
METAR CWGB 080700Z AUTO 28006KT 22/13 RMK AO1 SLP135 T02200125
51004=
CWGD RMK NIL=
CWGH RMK NIL=
METAR CWGL 080700Z AUTO 11001KT 23/23 RMK AO1 SLP172 T02280228
58007=
CWGM RMK NIL=
####018001653####
SACN94 KWBC 080708
CWQH RMK NIL=
METAR CWQK 080700Z AUTO RMK AO1 =
CWQO RMK NIL=
METAR CWQP 080700Z AUTO 29005KT 22/21 RMK AO1 SLP162 T02240207
58003=
CWQR RMK NIL=
CWQV RMK NIL=
CWRJ RMK NIL=
CWRK RMK NIL=
METAR CWRT 080700Z AUTO 21001KT 07/07 RMK AO1 T00720072=
METAR CWRY 080700Z AUTO 33003KT 08/07 RMK AO1 SLP223 T00840068
50002=
METAR CWRZ 080700Z AUTO 04002KT 14/ RMK AO1 SLP140 T0142 55009=
METAR CWSD 080700Z AUTO 19012KT 18/17 RMK AO1 SLP167 T01800165
56011=
METAR CWSG 080700Z AUTO 28002KT 12/12 RMK AO1 SLP163 T01190116
53002=
METAR CWSK 080700Z AUTO 03002KT 17/12 RMK AO1 SLP149 T01740122
51018=
METAR CWSL 080700Z AUTO 20002KT 15/10 RMK AO1 SLP174 T01510102
53013=
METAR CWSP 080700Z AUTO 17/ RMK AO1 SLP145 T0168 51008=
CWSR RMK NIL=
METAR CWST 080700Z AUTO 08003KT 16/15 RMK AO1 T01570150=
CWQO RMK NIL=
METAR CWQP 080700Z AUTO 29005KT 22/21 RMK AO1 SLP162 T02240207
58003=
CWQR RMK NIL=
CWQV RMK NIL=
CWRJ RMK NIL=
CWRK RMK NIL=
METAR CWRT 080700Z AUTO 21001KT 07/07 RMK AO1 T00720072=
METAR CWRY 080700Z AUTO 33003KT 08/07 RMK AO1 SLP223 T00840068
50002=
METAR CWRZ 080700Z AUTO 04002KT 14/ RMK AO1 SLP140 T0142 55009=
METAR CWSD 080700Z AUTO 19012KT 18/17 RMK AO1 SLP167 T01800165
56011=
METAR CWSG 080700Z AUTO 28002KT 12/12 RMK AO1 SLP163 T01190116
53002=
METAR CWSK 080700Z AUTO 03002KT 17/12 RMK AO1 SLP149 T01740122
51018=
METAR CWSL 080700Z AUTO 20002KT 15/10 RMK AO1 SLP174 T01510102
53013=
METAR CWSP 080700Z AUTO 17/ RMK AO1 SLP145 T0168 51008=
CWSR RMK NIL=
METAR CWST 080700Z AUTO 08003KT 16/15 RMK AO1 T01570150=
CWND RMK NIL=
####018000233####
SACN78 KWBC 080708
CTNK RMK NIL=
METAR CTRA 080700Z AUTO 22003KT 16/14 RMK AO1 SLP146 T01550140
56006=
CWKK RMK NIL=
CXBI RMK NIL=
CXZC RMK NIL=
METAR CZEL 080700Z AUTO 09001KT 21/20 RMK AO1 SLP181 T02070200
58004=
####018000966####
SPUS70 KWBC 080708
SPECI
KACT 080704Z 15004KT 10SM SCT018 BKN038 26/23 A2998 RMK AO2=
KODO 080704Z AUTO 12009KT 8SM -RA BKN033 OVC110 22/20 A3009 RMK
     AO2 LTG DSNT W AND NW P0001=
KTYR 080705Z AUTO 14003KT 10SM BKN006 25/24 A3002 RMK AO2=
PACM 080704Z AUTO 18008KT 3SM RA FEW007 SCT024 BKN048 12/08 A3008
     RMK AO2 TSNO BKN V SCT P0001 $=
PACM 080704Z AUTO 18008KT 3SM RA FEW007 SCT024 BKN048 12/08 A3008
     RMK AO2 TSNO BKN V SCT P0001 $=
PAWD 080704Z AUTO 00000KT 2SM -RA BR SCT003 BKN048 OVC060 10/09
     A2998 RMK AO2 P0000 TSNO=
KBML 080705Z AUTO 00000KT 1SM BR FEW001 BKN005 OVC050 19/19 A3008
     RMK AO2 $=
KHWV 080705Z AUTO 12003KT 2SM BR BKN002 BKN007 OVC012 24/24 A3003
     RMK AO2 CIG 002V006=
KLWC 080705Z AUTO 31008KT 10SM SCT008 OVC019 22/21 A3008 RMK
     AO2=
KMEM 080705Z 00000KT 10SM FEW005 SCT250 26/22 A3005 RMK AO2 FU
     FEW005=
KSJC 080705Z AUTO 33004KT 10SM BKN019 15/11 A2992 RMK AO2=
####018001688####
SAIY40 LIIB 080700
METAR LIMG 080650Z 00000KT 9999 BKN080 25/20 Q1020 RMK VIS MIN 9999=
METAR LIMK 080655Z 02007KT 9999 FEW020 SCT030 18/14 Q1022 RMK BKN VAL
NIL VIS MIN 9999=
METAR LIMN 080655Z /////KT 9999 SCT050 24/16 Q1021 RMK SCT VIS MIN
9999 BLU=
METAR LIMP 080650Z 06005KT 6000 NSC 22/17 Q1022 RMK VIS MIN 6000=
METAR LIMS 080655Z 11006KT 050V130 CAVOK 23/19 Q1021 RMK FEW FEW200
VIS MIN 9999 WIND THR30 10005KT BLU=
METAR LIMZ 080700Z NIL=
METAR LIPA 080655Z 21002KT 9999 BKN045 SCT070 21/16 Q1022 RMK BKN VIS
MIN 9999 A3019 BLU=
METAR LIPB 080650Z 25002KT 9999 BKN070 24/11 Q1022 RMK MON LIB VIS
MIN 9999=
METAR LIPC 080655Z 16009KT CAVOK 24/14 Q1021 RMK FEW FEW200 VIS MIN
9999 WIND THR12 13008KT BLU=
METAR LIPF 080655Z 36002KT CAVOK 23/19 Q1021 RMK FEW FEW250 VIS MIN
9999=
METAR LIPH 080645Z 03002KT 9999 SCT020 BKN045 22/18 Q1023 RMK OVC VIS
MIN 9999 WIND THR07 /////KT BLU=
METAR LIPI 080655Z 07004KT 9999 FEW030 BKN060 23/19 Q1022 RMK BKN
VIS MIN 9999 WIND THR06 08004KT BLU=
METAR LIPL 080655Z 09007KT 050V130 9999 FEW045 SCT063 23/19 Q1022 RMK
BKN VIS MIN 9999 BLU=
METAR LIPO 080650Z 09008KT 9999 FEW045 BKN065 24/15 Q1021 RMK VIS
MIN 9999=
METAR LIPQ 080650Z VRB01KT 9999 BKN050 21/15 Q1022=
METAR LIPR 080645Z 12006KT CAVOK 25/18 Q1021 RMK SKC VIS MIN 9999
WIND THR31 14007KT BLU=
METAR LIPS 080655Z 05004KT 9999 BKN040 21/15 Q1022 RMK BKN VIS MIN
9999 BLU=
METAR LIPX 080645Z 06009KT 9999 SCT060 BKN080 25/15 Q1021 RMK BKN VIS
MIN 9999 BLU=
METAR LIPY 080650Z 14006KT 100V200 CAVOK 25/12 Q1021 RMK VIS MIN
9999=
METAR LIVC 080655Z 36012KT CAVOK 12/10 Q1029 RMK SCT SCT110 MON LIB
VAL NIL VIS MIN 9999=
METAR LIVP 080655Z VRB0=
####018000127####
SAIY42 LIIB 080700 CCA
METAR LIRV 080655Z 05009KT CAVOK 23/14 Q1020 RMK FEW FEW200 MON E SE
      LIB NC VIS MIN 9999 BLU=
####018000284####
SAEW37 LEMM 080700
METAR LEBR 080700Z NIL=
METAR LEGA 080700Z NIL=
METAR LEGT 080700Z 03007KT CAVOK 26/12 Q1019=
METAR LEMO 080700Z VRB02KT CAVOK 23/19
Q1015 NOSIG=
METAR LERI 080700Z 00000KT CAVOK 25/17 Q1019 NOSIG=
METAR LERT 080700Z 29006KT 7000 SCT005 22/21 Q1015 NOSIG=
####018000749####
SACN86 KWBC 080708
CWHP RMK NIL=
CWHP RMK NIL=
CWBE RMK NIL=
CWCU RMK NIL=
CWNL RMK NIL=
CWPO RMK NIL=
CWPS RMK NIL=
CWSI RMK NIL=
CWWX RMK NIL=
CWWZ RMK NIL=
METAR CWDQ 080700Z AUTO 00000KT 22/20 RMK AO1 SLP154 T02150195
51002=
METAR CWDV 080700Z AUTO 22003KT 14/13 RMK AO1 SLP162 T01350130
56008=
CTAE RMK NIL=
CTAL RMK NIL=
CTCK RMK NIL=
CTCW RMK NIL=
CTWN RMK NIL=
METAR CWAJ 080700Z AUTO 24/21 RMK AO1 SLP166 T02390212 56005=
CWBE RMK NIL=
CWLS RMK NIL=
CWNB RMK NIL=
CWNL RMK NIL=
CWPC RMK NIL=
CWPS RMK NIL=
CWWX RMK NIL=
CWNC RMK NIL=
METAR CWNZ 080700Z AUTO 23003KT 17/14 RMK AO1 SLP141 T01680143
56013=
METAR CWWB 080700Z AUTO 23005KT 25/22 RMK AO1 SLP163 T02470218
57003=
####018000144####
SAUS70 KWBC 080708
METAR
KPAN 080715Z AUTO 00000KT 10SM CLR 23/06 A3011 RMK AO1=
KRQO 080715Z AUTO 00000KT 7SM CLR 23/23 A3005 RMK AO2=
####018000110####
SPXX60 KWBC 080708
SPECI
KNTU 080703Z 11003KT 4SM BR FEW005 26/24 A2994 RMK AO2 CHINO RWY
     05R $=
####018000715####
SACN88 KWBC 080708
CWBK RMK NIL=
CAHR RMK NIL=
METAR CERM 080700Z AUTO 28001KT 23/22 RMK AO1 3PAST HR 0003 SLP149
P0001 T02260215 50003=
CWAR RMK NIL=
METAR CWBK 080700Z AUTO 22006KT 19/17 RMK AO1 SLP187 T01880174
53003=
CWDA RMK NIL=
CWXI RMK NIL=
CWZN RMK NIL=
CXNP RMK NIL=
CZCR RMK NIL=
CZDB RMK NIL=
METAR CZSP 080700Z AUTO 20008KT 20/16 RMK AO1 SLP170 T01970162
51001=
CWDA RMK NIL=
CWXI RMK NIL=
CWZN RMK NIL=
CXNP RMK NIL=
CZCR RMK NIL=
CZDB RMK NIL=
METAR CZSP 080700Z AUTO 20008KT 20/16 RMK AO1 SLP170 T01970162
51001=
CWZN RMK NIL=
CXNP RMK NIL=
CZCR RMK NIL=
CZDB RMK NIL=
METAR CZSP 080700Z AUTO 20008KT 20/16 RMK AO1 SLP170 T01970162
51001=
####018000317####
SAPL32 EPWA 080700
METAR EPKT 080700Z 33005KT CAVOK 18/08 Q1023=
METAR EPLL 080700Z 01006KT 9999 FEW040 18/09 Q1022=
METAR EPSC 080700Z 19003KT CAVOK 19/12 Q1022=
METAR EPWR 080700Z 18004KT 140V230 CAVOK 20/11 Q1024=
METAR EPBY 080700Z 29005KT CAVOK 18/12 Q1022=
METAR EPZG 080700Z VRB03KT CAVOK 20/11 Q1023=
####018000967####
SACN96 KWBC 080708
CWXL RMK NIL=
METAR CWYJ 080700Z AUTO 25003KT 19/12 RMK AO1 T01910118=
METAR CWYL 080700Z AUTO 07003KT 07/04 RMK AO1 T00680036=
METAR CWYY 080700Z AUTO 00000KT 17/13 RMK AO1 SLP164 T01730128
53016=
CWZA RMK NIL=
CWZL RMK NIL=
METAR CWZO 080700Z AUTO 16005KT RMK AO1 =
CWZQ RMK NIL=
METAR CWZS 080700Z AUTO 16002KT 21/21 RMK AO1 SLP147 T02140205
56003=
CWZV RMK NIL=
METAR CXHM 080700Z AUTO 28003KT 23/21 RMK AO1 T02270212=
CXKA RMK NIL=
CXKE RMK NIL=
METAR CWYJ 080700Z AUTO 25003KT 19/12 RMK AO1 T01910118=
METAR CWYL 080700Z AUTO 07003KT 07/04 RMK AO1 T00680036=
METAR CWYY 080700Z AUTO 00000KT 17/13 RMK AO1 SLP164 T01730128
53016=
CWZA RMK NIL=
CWZL RMK NIL=
METAR CWZO 080700Z AUTO 16005KT RMK AO1 =
CWZQ RMK NIL=
METAR CWZS 080700Z AUTO 16002KT 21/21 RMK AO1 SLP147 T02140205
56003=
CWZV RMK NIL=
METAR CXHM 080700Z AUTO 28003KT 23/21 RMK AO1 T02270212=
CXKA RMK NIL=
CXKE RMK NIL=
####018000378####
SAPL31 EPWA 080700
METAR EPWA 080700Z 29009KT 260V330 CAVOK 15/12 Q1021 NOSIG=
METAR EPGD 080700Z 30011KT CAVOK 20/11 Q1021=
METAR EPKK 080700Z 22005KT CAVOK 17/12 Q1022=
METAR EPPO 080700Z 25004KT 180V290 CAVOK 19/07 Q1023=
METAR EPRZ 080700Z 33006KT 9999 FEW026 18/11 Q1021=
METAR EPBY 080700Z 29005KT CAVOK 18/12 Q1022=
METAR EPZG 080700Z VRB03KT CAVOK 20/11 Q1023=
####018000066####
SAAG SAEZ 080700
METAR SAEZ 080700Z 29005KT CAVOK 04/00 Q1019=
####018000182####
SAUS70 KWBC 080700 RRJ
METAR
KNSE 080656Z AUTO 00000KT 1 1/2SM BR CLR 24/22 A3003 RMK AO2
     SLP153 T02390217 $=
KBXK 080655Z AUTO 03006KT 10SM CLR 29/M02 A2975 RMK AO1=
####018000123####
SAAF34 KWBC 080700 RRA
METAR
FBKE 080700Z 11015KT CAVOK 15/06 Q1028=
FBSP 080700Z /////KT 9999 FEW015 14/11 Q1032=
####018001620####
SAIY42 LIIB 080700
METAR LIBF 080650Z 33009KT CAVOK 24/12 Q1020 RMK VIS MIN 9999=
METAR LIEA 080650Z 36006KT 330V050 CAVOK 25/22 Q1019 RMK VIS MIN
9999=
METAR LIED 080655Z 32006KT CAVOK 24/21 Q1017 RMK SKC VIS MIN 9999
      BLU=
METAR LIEO 080650Z VRB02KT CAVOK 26/22 Q1019 RMK VIS MIN 9999=
METAR LIMA 080650Z 04003KT 9999 SCT040 23/16 Q1022 RMK VIS MIN 9999=
METAR LIQN 080700Z NIL=
METAR LIQO 080655Z 36015KT CAVOK 22/13 Q1020 RMK SKC VAL NIL NC VIS
      MIN 9999=
METAR LIQW 080700Z NIL=
METAR COR LIRE 080655Z 18006KT 9999 FEW015TCU SCT018 26/23 Q1018 RERA
      RMK BKN VIS MIN 9999 WIND THR31 17006KT BLU=
METAR LIRG 080655Z 28002KT 9999 FEW040 26/18 Q1019 RMK SCT MON NE
     LIB NC VIS MIN 9999 BLU=
METAR LIRH 080655Z 23001KT 9999 FEW035 24/16 Q1019 RMK SCT MON LIB NC
      VIS MIN 9999 WIND THR16 17001KT BLU=
METAR LIRI 080650Z 05006KT CAVOK 26/11 Q1019 RMK VIS MIN 9999=
METAR LIRK 080655Z 12004KT CAVOK 15/10 Q1025 RMK SKC MON NE LIB NC
      VAL NIL NC VIS MIN 9999=
METAR LIRL 080655Z 29005KT 9999 FEW015 SCT030 26/21 Q1018 RMK SCT MON
      LIB NC VIS MIN 9999 BLU=
METAR LIRM 080655Z 06011KT CAVOK 25/17 Q1019 RMK SKC VIS MIN 9999
      WIND THR06 05012KT BLU=
METAR LIRS 080655Z 06007KT CAVOK 27/10 Q1019 RMK FEW FEW200 VIS MIN
      9999 WIND THR21 /////KT BLU=
METAR LIRT 080655Z 04004KT CAVOK 16/08 Q1022 RMK SKC MON LIB VAL NIL
      VIS MIN 9999=
METAR LIRU 080700Z NIL=
METAR LIRV 080655Z 05009KT CAVOK 23/14 Q1020 RMK FEW FEW200 MON E SE
      LIB NC VIS MIN 9999 BLU=
METAR LIRX 080700Z NIL=
METAR LIRZ 080650Z 36003KT CAVOK 24/13 Q1021 RMK VIS MIN 9999=
####018000208####
SAPO32 LPMG 080700
METAR LPAZ 080700Z 00000KT 9999 FEW016 BKN032 20/18 Q1024=
METAR LPHR 080700Z 35002KT 9999 FEW009 SCT012 BKN030 19/17 Q1023=
METAR LPLA 080700Z 17003KT 9999 FEW018 BKN028 19/18 Q1024=
####018000095####
SPUS70 KWBC 080708 CCA
SPECI
KNSE 080702Z AUTO 31003KT 3SM BR CLR 23/21 A3003 RMK AO2 $=
####018000380####
SAXX60 KWBC 080700 RRG
METAR
KLUF 080655Z AUTO 01003KT 10SM CLR 30/08 A2974 RMK AO2 SLP038
     T03030076 404130241 $=
KNGU 080659Z 00000KT 5SM BR FEW085 26/23 A2996 RMK AO2 SLP147
     T02560233=
KNFG 080656Z 00000KT 5SM BR OVC015 16/13 A2991 RMK AO2 SLP127
     T01610133=
PHNG 080657Z 06006KT 10SM SCT026 BKN040 25/20 A3004 RMK AO2 SLP168
     T02500200 $=
####018000075####
SAAF32 KWBC 080700 RRA
METAR
FMNM 080700Z ///10KT CAVOK 27/15 Q1019=
####018001052####
SAIY41 LIIB 080700
METAR LIMH 080655Z 06010KT CAVOK 06/M14 Q1037 RMK FEW FEW100 MON LIB
      VAL S MAR CLD VIS MIN 9999=
METAR LIMT 080700Z NIL=
METAR LIMU 080655Z 02005KT CAVOK 26/24 Q1019 RMK BKN SCT070 SCT080
      QUK 1 QUL 1 S VIS MAR 20 KM VIS MIN 9999=
METAR LIMV 080655Z 03012KT 8000 3000N NSC 19/18 Q1021 RMK BKN BKN200
      MON N INVIS S LIB VAL FOSCHIA VIS MIN 3000N=
METAR LIMY 080655Z /////KT 4000 BR OVC026 21/19 Q1022 RMK OVC VAL
      FOSCHIA VIS MIN 4000=
METAR LIVD 080655Z 00000KT 9999 FEW030 14/09 Q1026 RMK FEW VIS MIN
      9999=
METAR LIVE 080700Z NIL=
METAR LIVF 080655Z 15006KT CAVOK 23/08 Q1021 RMK SKC MON LIB VAL NIL
      VIS MIN 9999=
METAR LIVM 080655Z 14007KT CAVOK 25/21 Q1021 RMK SKC QUK 2 QUL 1 SE
      VIS MAR 25 KM VIS MIN 9999=
METAR LIVO 080655Z 15001KT CAVOK 15/13 Q1023 RMK SKC VIS MIN 9999=
METAR LIVR 080655Z /////KT 0200 FG VV001 11/10 Q1028 RMK MON INVIS
      VIS MIN 0200=
METAR LIVT 080655Z 08002KT CAVOK 23/12 Q1021 RMK BKN BKN100 QUK 0 QUL
      0 VIS MAR 20 KM VIS MIN 9999=
####018000426####
SAMG20 FMMI 080700
METAR 080700Z
METAR FMMT 080700Z 22016KT 9999 VCSH FEW007 SCT017 BKN033 22/19
Q1023=
METAR FMNM 080700Z ///10KT CAVOK 27/15 Q1019=
METAR FMCH 080700Z 23008KT 190V270 9999 FEW023TCU BKN030 27/18 Q1021
NOSIG=
METAR FMNA 080700Z 14023KT 9999 FEW020 SCT040 26/13 Q1017=
METAR FMSD 080700Z VRB02KT 8000 VCSH SCT017 BKN033 20/18 Q1027=
METAR FMMI 080700Z 13008KT 080V180 9999 SCT016 18/12 Q1028 NOSIG=
####018001490####
SAIY43 LIIB 080700
METAR LIBA 080655Z /////KT 9999 FEW040 24/14 Q1019 RMK FEW VIS MIN
      9999 WIND THR29 00000KT BLU=
METAR LIBC 080650Z 01017KT 9999 FEW030 25/14 Q1018 RMK VIS MIN 9999=
METAR LIBD 080650Z 01012KT CAVOK 24/11 Q1019 RMK VIS MIN 9999=
METAR LIBG 080650Z 35015KT 320V030 CAVOK 25/10 Q1017 RMK VIS MIN
9999=
METAR LIBN 080655Z 35017KT 9999 FEW030 24/14 Q1016 RMK FEW VIS MIN
      9999 WIND THR14 35016KT BLU=
METAR LIBP 080650Z VRB01KT CAVOK 23/15 Q1021 RMK VIS MIN 9999=
METAR LIBQ 080655Z 08008KT CAVOK 13/13 Q1023 RMK SKC MON LIB VAL NIL
      VIS MIN 9999=
METAR LIBR 080645Z /////KT 9999 FEW020 24/17 Q1016 NOSIG RMK FEW VIS
      MIN 9999 WIND THR13 WIND THR31 34014KT BLU=
METAR LIBV 080655Z 36017G27KT CAVOK 23/14 Q1017 RMK SKC VIS MIN 9999
      WIND THR14 35020KT BLU=
METAR LICA 080650Z 22004KT 9999 FEW020 25/22 Q1017 RMK VIS MIN 9999=
METAR LICC 080650Z 25004KT CAVOK 26/20 Q1018 RMK VIS MIN 9999=
METAR LICD 080650Z 35008KT 270V350 9000 SCT010 24/21 Q1018 RMK VIS
MIN 8000NW=
METAR LICG 080655Z 33006KT 9999 BKN010 22/19 Q1018 RMK BKN VIS MIN
      9999 WIND THR08 30005KT WIND THR21 31007KT GRN=
METAR LICJ 080650Z 07013KT CAVOK 28/20 Q1018 RMK VIS MIN 9999=
METAR LICR 080650Z 01008KT 330V060 CAVOK 28/20 Q1017 RMK VIS MIN
9999=
METAR LICT 080655Z 01001KT 9999 FEW030 29/24 Q1017 RMK FEW VIS MIN
      9999 WIND THR13 33006KT BLU=
METAR LICZ 080655Z 27002KT CAVOK 25/20 Q1018 RMK SKC VIS MIN 9999
      WIND THR28 /////KT BLU=
####018000084####
SAAO32 KWBC 080700 RRA
METAR
GQPP 080700Z 35014KT 8000 NSC 21/19 Q1010 NOSIG=
####018000346####
SAAW32 KWBC 080700 RRA
METAR
OEDR 080700Z 35009KT 6000 SKC 42/13 Q0999 NOSIG=
OIII 080700Z 17006KT CAVOK 36/M01 Q1015 A2997 880/0=
OIII 080700Z 17006KT CAVOK 36/M01 Q1015 A2997 880.0=
ORBI 080700Z 01014KT CAVOK 40/09 Q1004 NOSIG=
ORMM 080700Z 27016KT CAVOK 43/03 Q1000=
OTBD 080700Z 01010KT 340V040 5000 HZ NSC 36/29 Q1001 NOSIG=
####018000087####
SAAW32 KWBC 080630 RRC
METAR
OIKB 080650Z 27004KT 5000 HZ SKC 36/27 Q1002 A2959=
####018000275####
SAAW33 KWBC 080700 RRA
METAR
OBBI 080700Z 28009KT 6000 NSC 36/25 Q1000 BECMG 8000=
OOMS 080700Z 01006KT 330V050 6000 BKN025 SCT120 BKN250 33/29 Q1002
     NOSIG=
OOMS 080700Z(01006KT 330V050 6000 BKN025 SCT120 BKN250 33/29 Q1002
     NOSIG=
OOSA 080700Z NIL=
####018000084####
SAAW32 KWBC 080400 RRD
METAR
OICS 080400Z 24002KT 8000 SKC 22/07 Q1014 A2997=
####018000762####
SAAW34 KWBC 080645 RRD
METAR
UAAA 080700Z 25002MPS 9999 SCT050CB BKN100 30/09 Q1014 88CLRD65
     TEMPO TS=
UACC 080700Z 28004MPS 240V310 CAVOK 23/03 Q1011 220/0070 NOSIG RMK
     QFE727/0969=
UAKK 080700Z 28004MPS 210V320 CAVOK 22/02 Q1012 230///70 NOSIG RMK
     QFE712/0950=
UAOO 080700Z NIL=
UARR 080700Z NIL=
UATE 080700Z 29006MPS CAVOK 32/23 Q1011 300///70 NOSIG RMK
     QFE756/1009=
UATG 080700Z 33008G13MPS CAVOK 38/09 Q1009 32CLRD70 NOSIG RMK
     QFE758/1011=
UATT 080700Z 06009MPS 9999 NSC 30/04 Q1010 13CLRD70 NOSIG RMK
     QFE738/0984=
UAUU 080700Z 36005G10MPS 290V360 CAVOK 24/00 Q1014 33CLRD70 NOSIG
     RMK QFE745/0993=
UTDD 080700Z VRB01MPS 9999 FEW066 35/05 Q1011 09CLRD70 NOSIG RMK
     QFE691/0921=
####018000089####
SAAW42 KWBC 080700 RRA
METAR
OBBI 080700Z 28009KT 6000 NSC 36/25 Q1000 BECMG 8000=
####018000088####
SACA31 KWBC 080700 RRA
METAR
MKJS 080700Z 00000KT 9999 SCT022 SCT200 26/22 Q1012=
####018000091####
SACA33 KWBC 080700 RRA
METAR
TGPY 080700Z 08009KT 9999 FEW020 SCT280 28/26 Q1012/HZ=
####018001385####
SACI32 KWBC 080700 RRA
METAR
ZBAA 080700Z VRB03MPS CAVOK 36/11 Q1003 NOSIG=
ZBTJ 080700Z 13005MPS 090V160 9999 SCT033 33/19 Q1004 NOSIG=
ZBYN 080700Z 06003MPS 020V140 CAVOK 31/11 Q1008 NOSIG=
ZGGG 080700Z 16004MPS 9999 FEW050TCU BKN050 36/24 Q1005 NOSIG=
ZGNN 080700Z 14006MPS 120V190 9999 SCT030 36/25 Q1003 NOSIG=
ZGSZ 080700Z 17009MPS 9999 FEW020 33/25 Q1006 NOSIG=
ZHHH 080700Z 08007MPS 1500 R04/1000VP2000D SHRA SCT010 SCT030CB
     OVC040 24/24 Q1002 RETS TEMPO RA=
ZLLL 080700Z VRB01MPS 9999 FEW043CB 26/06 Q1016 NOSIG=
ZPPP 080700Z 20003MPS 170V240 9999 FEW026TCU FEW026 SCT036 OVC050
     23/16 Q1016 NOSIG=
ZSAM 080700Z 18007MPS 9999 FEW023 34/24 Q1005 NOSIG=
ZSHC 080700Z 08003MPS 4000 HZ NSC 30/23 Q1004 TEMPO TSRA
     SCT033CB=
ZSNJ 080700Z 10003MPS 070V130 4000 HZ NSC 30/22 Q1003 NOSIG=
ZSOF 080700Z 18003MPS 140V220 6000 -RA SCT026 29/27 Q1003 BECMG
     2500 SHRA BKN015 OVC050 FEW030TCU=
ZSPD 080700Z 13005MPS 9999 BKN016 28/23 Q1005 NOSIG=
ZSSS 080700Z 11004MPS 080V150 9999 SCT026 30/22 Q1005 NOSIG=
ZUCK 080700Z 22002MPS 3000 BR SCT020 31/25 Q1003 NOSIG=
ZUUU 080700Z 23004MPS 200V260 6000 FEW026TCU 30/26 Q1003 NOSIG=
ZWWW 080700Z 36004MPS 310V060 9999 FEW050CB 32/09 Q1011 NOSIG=
ZYHB 080700Z 03004MPS 5000 -RA BR BKN033 FEW033CB 19/18 Q1008
     NOSIG=
ZYTL 080700Z 30005MPS 9999 SCT033 28/18 Q1006 NOSIG=
####018002985####
SACN31 KWBC 080700 RRA
METAR
CYBG 080700Z 07003KT 3SM BR FEW048 SCT078 20/18 A2998 RMK SC1AC2
     SLP152=
CYDQ 080700Z AUTO VRB04KT 9SM CLR 15/11 A3002 RMK SLP174 DENSITY
     ALT 2500FT=
CYEG 080700Z 20006KT 15SM FEW100 SCT260 12/11 A3012 RMK AC1CI1
     SLP204=
CYFB 080700Z 34004KT 30SM FEW110 FEW250 06/04 A2983 RMK AC1CI1
     SLP102=
CYFC 080700Z AUTO 21007KT 8SM SCT010 20/19 A3004 RMK SLP173
     DENSITY ALT 500FT RVR MISG=
CYGL 080700Z 12004KT 15SM BKN100 18/14 A2992 RMK AC6 SLP135=
CYHZ 080700Z 22003KT 2SM BR OVC001 17/17 A3013 RMK ST8 SLP200=
CYJT 080700Z 07005KT 15SM SCT025 BKN070 17/16 A3007 RMK SC3AC3
     SLP184=
CYKL 080700Z AUTO 15002KT 9SM BKN071 13/13 A2989 RMK SLP133=
CYMH 080700Z AUTO 20007KT 9SM OVC004 06/06 A3012 RMK SLP200=
CYMX 080700Z 00000KT 10SM FEW060 24/20 A2999 RMK SC1 SLP156=
CYOW 080700Z 32005KT 15SM SKC 24/20 A3000 RMK SLP158=
CYQB 080700Z 07005KT 12SM SCT070 SCT180 19/17 A2999 RMK AC3AC1
     HAZY SLP154=
CYQG 080700Z 23004KT 15SM FEW090 26/22 A3003 RMK AC1 SLP165=
CYQM 080700Z 18006KT 15SM FEW120 SCT260 17/15 A3005 RMK AC1CI2
     SLP177=
CYQQ 080700Z 34003KT 20SM SKC 20/14 A2995 RMK SLP144=
CYQX 080700Z 15010KT 15SM BKN006 OVC029 09/09 A3016 RMK SF6SC2
     SLP217=
CYQY 080700Z 22005KT 15SM FEW090 16/16 A3009 RMK AC2 SLP191=
CYRB 080700Z 12007KT 15SM FEW240 10/M03 A2979 RMK CI1 SLP094=
CYSJ 080700Z 22007KT 1/2SM R23/P6000FT/U FG VV002 15/14 A3010 RMK
     FG8 SLP192=
CYTE 080700Z AUTO 09009KT 9SM CLR 06/03 A2976 RMK SLP082=
CYTL 080700Z AUTO 22005KT 9SM SCT074 17/14 A2984 RMK SLP110=
CYTR 080700Z 00000KT 4SM HZ SKC 23/19 A3001 RMK SLP162=
CYUY 080700Z 00000KT 15SM BKN240 20/17 A2999 RMK CI7 SLP154=
CYVP 080700Z 08003KT 15SM SCT040 BKN090 13/12 A2974 RMK SC4AC3
     SLP073=
CYVR 080700Z 08003KT 30SM SKC 21/14 A2993 RMK SLP136=
CYWG 080700Z 26006KT 15SM FEW078 15/13 A2996 RMK AC2 SLP148=
CYWK 080700Z 19005KT 15SM SCT300 17/15 A2996 RMK CI1 SLP146=
CYXU 080700Z 12002KT 15SM SKC 21/20 A3007 RMK SLP176=
CYXY 080700Z 00000KT 40SM FEW120 15/05 A3013 RMK AC1 SLP212=
CYYC 080700Z 22004KT 15SM FEW090 FEW110 15/09 A3021 RMK AC1AC2
     SLP226=
CYYJ 080700Z 27002KT 30SM SKC 19/13 A2994 RMK SLP140=
CYYQ 080700Z 26007KT 15SM FEW050 12/11 A2967 RMK SC2 SLP049=
CYYR 080700Z 18007KT 15SM FEW020 FEW045 FEW270 14/12 A2999 RMK
     SC1SC1CI1 SLP156=
CYYT 080700Z 12004KT 8SM PRFG BKN004 OVC020 08/08 A3021 RMK SF7SC1
     FG BNK E-SE VIS 3 SLP235=
CYYZ 080700Z 00000KT 15SM BKN095 25/23 A3003 RMK AC6 SLP167=
CYZF 080700Z 34005KT 15SM BKN110 BKN210 17/09 A2994 RMK AC5CI0
     SLP142=
CYZV 080700Z 07002KT 5/8SM R09/4500FT/N -DZ BR OVC002 13/13 A3003
     RMK FG2ST6 CIG VRB 1-5 VIS VRB 1/2-3/4 SLP170=
CYZX 080700Z 21003KT 1/2SM FG VV002 16/16 A3010 RMK FG8 WNDY HILL
     23006KT SLP194=
CYZY 080700Z AUTO 00000KT 9SM CLR 17/10 A3005 RMK SLP178=
CZBF 080700Z 00000KT 1/2SM FG SKC 18/18 A2997 RMK FG5 SLP150=
####018000075####
SAEE31 KWBC 080700 RRA
METAR
EPSC 080700Z 19003KT CAVOK 19/12 Q1022=
####018000228####
SAEE32 KWBC 080700 RRA
METAR
LRAR 080700Z 35010KT 320V050 9999 FEW019 18/15 Q1020=
LRTC 080700Z 35014KT 9999 SCT030CB BKN040 19/16 Q1014=
LRTM 080700Z 24006KT 8000 -RA SCT006 SCT010 BKN023 14/13 Q1020
     0729//95=
####018000316####
SAEW31 KWBC 080700 RRA
METAR
LPAZ 080700Z 00000KT 9999 FEW016 BKN032 20/18 Q1024=
LPFR 080700Z 22005KT 180V240 7000 SCT008 BKN010 22/20 Q1015=
LPPR 080700Z 00000KT 6000 BKN250 20/18 Q1014=
LPPS 080700Z 02010KT 350V060 9999 SCT015 SCT030 19/15 Q1020=
LPPT 080700Z VRB02KT 8000 FEW120 21/19 Q1014 NOSIG=
####018000413####
SAEM31 KWBC 080700 RRA
METAR
LJLJ 080700Z 00000KT 9999 FEW060 18/12 Q1024 NOSIG=
LJMB 080700Z 03001KT 9999 FEW040 19/12 Q1024=
LJPZ 080700Z 13002KT CAVOK 21/13 Q1022=
LKMT 080700Z VRB02KT 9999 FEW030 17/12 Q1023 NOSIG RMK REG QNH
     1021=
LKPR 080700Z 14004KT 090V190 CAVOK 19/10 Q1023 NOSIG RMK REG QNH
     1021=
LKTB 080700Z VRB02KT 9999 FEW031 19/11 Q1023 NOSIG RMK REG QNH
     1021=
####018000353####
SAIO31 KWBC 080700 RRA
METAR
FMCH 080700Z 23008KT 190V270 9999 FEW023TCU BKN030 27/18 Q1021
     NOSIG=
FMCZ 080700Z 14014KT 9999 BKN025 26/18 Q1019=
FMEE 080700Z 12016KT 9999 FEW023 SCT053 21/18 Q1024 TEMPO
     13028G38KT=
FMMT 080700Z 22016KT 9999 VCSH FEW007 SCT017 BKN033 22/19
     Q1023=
VYMD 080700Z NIL=
VYYY 080700Z NIL=
####018000081####
SAIQ31 KWBC 080700 RRA
METAR
ORBI 080700Z 01014KT CAVOK 40/09 Q1004 NOSIG=
####018000888####
SAIY31 KWBC 080650 RRB
METAR
LIBC 080650Z 01017KT 9999 FEW030 25/14 Q1018 RMK VIS MIN 9999=
LIBD 080650Z 01012KT CAVOK 24/11 Q1019 RMK VIS MIN 9999=
LIBP 080650Z VRB01KT CAVOK 23/15 Q1021 RMK VIS MIN 9999=
LICA 080650Z 22004KT 9999 FEW020 25/22 Q1017 RMK VIS MIN 9999=
LICC 080650Z 25004KT CAVOK 26/20 Q1018 RMK VIS MIN 9999=
LICG 080655Z 33006KT 9999 BKN010 22/19 Q1018 RMK BKN VIS MIN 9999
     WIND THR08 30005KT WIND THR21 31007KT GRN=
LICJ 080650Z 07013KT CAVOK 28/20 Q1018 RMK VIS MIN 9999=
LICR 080650Z 01008KT 330V060 CAVOK 28/20 Q1017 RMK VIS MIN
     9999=
LICT 080655Z 01001KT 9999 FEW030 29/24 Q1017 RMK FEW VIS MIN 9999
     WIND THR13 33006KT BLU=
LIEA 080650Z 36006KT 330V050 CAVOK 25/22 Q1019 RMK VIS MIN
     9999=
LIEO 080650Z VRB02KT CAVOK 26/22 Q1019 RMK VIS MIN 9999=
LIMG 080650Z 00000KT 9999 BKN080 25/20 Q1020 RMK VIS MIN 9999=
####018000149####
SAIY31 KWBC 080550 RRE
METAR
LIBR 080645Z /////KT 9999 FEW020 24/17 Q1016 NOSIG RMK FEW VIS MIN
     9999 WIND THR13 WIND THR31 34014KT BLU=
####018000319####
SAIY32 KWBC 080550 RRD
METAR
LIPH 080645Z 03002KT 9999 SCT020 BKN045 22/18 Q1023 RMK OVC VIS
     MIN 9999 WIND THR07 /////KT BLU=
LIPR 080645Z 12006KT CAVOK 25/18 Q1021 RMK SKC VIS MIN 9999 WIND
     THR31 14007KT BLU=
LIPX 080645Z 06009KT 9999 SCT060 BKN080 25/15 Q1021 RMK BKN VIS
     MIN 9999 BLU=
####018000736####
SAIY41 KWBC 080650 RRB
METAR
LIBA 080655Z /////KT 9999 FEW040 24/14 Q1019 RMK FEW VIS MIN 9999
     WIND THR29 00000KT BLU=
LIBG 080650Z 35015KT 320V030 CAVOK 25/10 Q1017 RMK VIS MIN
     9999=
LIBN 080655Z 35017KT 9999 FEW030 24/14 Q1016 RMK FEW VIS MIN 9999
     WIND THR14 35016KT BLU=
LIBQ 080655Z 08008KT CAVOK 13/13 Q1023 RMK SKC MON LIB VAL NIL VIS
     MIN 9999=
LIBV 080655Z 36017G27KT CAVOK 23/14 Q1017 RMK SKC VIS MIN 9999
     WIND THR14 35020KT BLU=
LICD 080650Z 35008KT 270V350 9000 SCT010 24/21 Q1018 RMK VIS MIN
     8000NW=
LICZ 080655Z 27002KT CAVOK 25/20 Q1018 RMK SKC VIS MIN 9999 WIND
     THR28 /////KT BLU=
LIED 080655Z 32006KT CAVOK 24/21 Q1017 RMK SKC VIS MIN 9999
     BLU=
####018001303####
SAIY42 KWBC 080650 RRA
METAR
LIMH 080655Z 06010KT CAVOK 06/M14 Q1037 RMK FEW FEW100 MON LIB VAL
     S MAR CLD VIS MIN 9999=
LIMK 080655Z 02007KT 9999 FEW020 SCT030 18/14 Q1022 RMK BKN VAL
     NIL VIS MIN 9999=
LIMN 080655Z /////KT 9999 SCT050 24/16 Q1021 RMK SCT VIS MIN 9999
     BLU=
LIMS 080655Z 11006KT 050V130 CAVOK 23/19 Q1021 RMK FEW FEW200 VIS
     MIN 9999 WIND THR30 10005KT BLU=
LIMT 080700Z NIL=
LIMU 080655Z 02005KT CAVOK 26/24 Q1019 RMK BKN SCT070 SCT080 QUK 1
     QUL 1 S VIS MAR 20 KM VIS MIN 9999=
LIMV 080655Z 03012KT 8000 3000N NSC 19/18 Q1021 RMK BKN BKN200 MON
     N INVIS S LIB VAL FOSCHIA VIS MIN 3000N=
LIMY 080655Z /////KT 4000 BR OVC026 21/19 Q1022 RMK OVC VAL
     FOSCHIA VIS MIN 4000=
LIPA 080655Z 21002KT 9999 BKN045 SCT070 21/16 Q1022 RMK BKN VIS
     MIN 9999 A3019 BLU=
LIPC 080655Z 16009KT CAVOK 24/14 Q1021 RMK FEW FEW200 VIS MIN 9999
     WIND THR12 13008KT BLU=
LIPF 080655Z 36002KT CAVOK 23/19 Q1021 RMK FEW FEW250 VIS MIN
     9999=
LIPI 080655Z 07004KT 9999 FEW030 BKN060 23/19 Q1022 RMK BKN VIS
     MIN 9999 WIND THR06 08004KT BLU=
LIPL 080655Z 09007KT 050V130 9999 FEW045 SCT063 23/19 Q1022 RMK
     BKN VIS MIN 9999 BLU=
LIPS 080655Z 05004KT 9999 BKN040 21/15 Q1022 RMK BKN VIS MIN 9999
     BLU=
####018000325####
SAIY32 KWBC 080650 RRB
METAR
LIPB 080650Z 25002KT 9999 BKN070 24/11 Q1022 RMK MON LIB VIS MIN
     9999=
LIPO 080650Z 09008KT 9999 FEW045 BKN065 24/15 Q1021 RMK VIS MIN
     9999=
LIPY 080650Z 14006KT 100V200 CAVOK 25/12 Q1021 RMK VIS MIN
     9999=
LIRZ 080650Z 36003KT CAVOK 24/13 Q1021 RMK VIS MIN 9999=
####018001762####
SAIY43 KWBC 080650 RRA
METAR
LIQN 080700Z NIL=
LIQO 080655Z 36015KT CAVOK 22/13 Q1020 RMK SKC VAL NIL NC VIS MIN
     9999=
LIQW 080700Z NIL=
LIRE 080655Z 18006KT 9999 FEW015TCU SCT018 26/23 Q1018 RERA RMK
     BKN VIS MIN 9999 WIND THR31 17006KT BLU=
LIRG 080655Z 28002KT 9999 FEW040 26/18 Q1019 RMK SCT MON NE LIB NC
     VIS MIN 9999 BLU=
LIRH 080655Z 23001KT 9999 FEW035 24/16 Q1019 RMK SCT MON LIB NC
     VIS MIN 9999 WIND THR16 17001KT BLU=
LIRK 080655Z 12004KT CAVOK 15/10 Q1025 RMK SKC MON NE LIB NC VAL
     NIL NC VIS MIN 9999=
LIRL 080655Z 29005KT 9999 FEW015 SCT030 26/21 Q1018 RMK SCT MON
     LIB NC VIS MIN 9999 BLU=
LIRS 080655Z 06007KT CAVOK 27/10 Q1019 RMK FEW FEW200 VIS MIN 9999
     WIND THR21 /////KT BLU=
LIRT 080655Z 04004KT CAVOK 16/08 Q1022 RMK SKC MON LIB VAL NIL VIS
     MIN 9999=
LIRU 080700Z NIL=
LIRV 080655Z 05009KT CAVOK 23/14 Q1020 RMK FEW FEW200 MON E SE LIB
     NC VIS MIN 9999 BLU=
LIRX 080700Z NIL=
LIRZ 080650Z 36003KT CAVOK 24/13 Q1021 RMK VIS MIN 9999=
LIVC 080655Z 36012KT CAVOK 12/10 Q1029 RMK SCT SCT110 MON LIB VAL
     NIL VIS MIN 9999=
LIVD 080655Z 00000KT 9999 FEW030 14/09 Q1026 RMK FEW VIS MIN
     9999=
LIVE 080700Z NIL=
LIVF 080655Z 15006KT CAVOK 23/08 Q1021 RMK SKC MON LIB VAL NIL VIS
     MIN 9999=
LIVM 080655Z 14007KT CAVOK 25/21 Q1021 RMK SKC QUK 2 QUL 1 SE VIS
     MAR 25 KM VIS MIN 9999=
LIVO 080655Z 15001KT CAVOK 15/13 Q1023 RMK SKC VIS MIN 9999=
LIVP 080655Z VRB02KT 0500 VV/// 10/09 Q1028 RMK MON INVIS VAL
     INVIS VIS MIN 0500=
LIVR 080655Z /////KT 0200 FG VV001 11/10 Q1028 RMK MON INVIS VIS
     MIN 0200=
LIVT 080655Z 08002KT CAVOK 23/12 Q1021 RMK BKN BKN100 QUK 0 QUL 0
     VIS MAR 20 KM VIS MIN 9999=
####018000120####
SAIY43 KWBC 080550 RRD
METAR
LIPX 080645Z 06009KT 9999 SCT060 BKN080 25/15 Q1021 RMK BKN VIS
     MIN 9999 BLU=
####018000452####
SAUS20 KNKA 080707
SPECI KGAG 080706Z AUTO 02008KT 10SM BKN028 22/19 A3013 RMK AO2=
SPECI KMFI 080706Z AUTO 30007KT 8SM BKN003 20/19 A3001 RMK AO2=
METAR KORG 080705Z AUTO 09008KT 10SM SCT028 SCT034 19/16 A2997 
     RMK AO2=
METAR KPEQ 080702Z AUTO 07006KT 10SM OVC120 24/21 A3005 RMK AO2=
METAR KRCR 080705Z AUTO 00000KT 2SM HZ CLR 24/21 A3005 RMK AO2=
SPECI KSTJ 080706Z AUTO 18005KT 5SM BR SCT006 OVC120 23/22 A3006 RMK 
    AO2=
####018000466####
SAPO31 KWBC 080700 RRA
METAR
LPAZ 080700Z 00000KT 9999 FEW016 BKN032 20/18 Q1024=
LPFR 080700Z 22005KT 180V240 7000 SCT008 BKN010 22/20 Q1015=
LPHR 080700Z 35002KT 9999 FEW009 SCT012 BKN030 19/17 Q1023=
LPMA 080700Z VRB03KT 9999 FEW015 19/16 Q1019 RS35001KT 0503002KT
     2301010G20KT=
LPPR 080700Z 00000KT 6000 BKN250 20/18 Q1014=
LPPS 080700Z 02010KT 350V060 9999 SCT015 SCT030 19/15 Q1020=
LPPT 080700Z VRB02KT 8000 FEW120 21/19 Q1014 NOSIG=
####018000999####
SARA31 KWBC 080700 RRA
METAR
UAAA 080700Z 25002MPS 9999 SCT050CB BKN100 30/09 Q1014 88CLRD65
     TEMPO TS=
UACC 080700Z 28004MPS 240V310 CAVOK 23/03 Q1011 220/0070 NOSIG RMK
     QFE727/0969=
UAFM 080700Z 31004MPS CAVOK 33/07 Q1013 NOSIG=
UAFO 080700Z 28003MPS 9999 FEW050 33/19 Q1019 NOSIG RMK
     QFEM685=
UAFO 080700Z NIL=
UAOO 080700Z NIL=
UARR 080700Z NIL=
UATE 080700Z 29006MPS CAVOK 32/23 Q1011 300///70 NOSIG RMK
     QFE756/1009=
UATG 080700Z 33008G13MPS CAVOK 38/09 Q1009 32CLRD70 NOSIG RMK
     QFE758/1011=
UATT 080700Z 06009MPS 9999 NSC 30/04 Q1010 13CLRD70 NOSIG RMK
     QFE738/0984=
UTAA 080700Z 32006MPS 9999 SKC 42/07 Q1009 NOSIG=
UTAK 080700Z 29002MPS CAVOK 34/19 Q1009 NOSIG=
UTAT 080700Z 16007MPS CAVOK 42/21 Q1008 NOSIG=
UTAV 080700Z 03004MPS CAVOK 38/12 Q1007=
UTDD 080700Z VRB01MPS 9999 FEW066 35/05 Q1011 09CLRD70 NOSIG RMK
     QFE691/0921=
UTDL 080700Z 06005MPS 9999 FEW046 34/10 Q1009 NOSIG RMK QFE719
     8809//70=
####018000082####
SARS31 KWBC 080700 RRA
METAR
UTAM 080700Z 01002MPS CAVOK 38/13 Q1008 NOSIG=
####018000165####
SASA31 KWBC 080700 RRA
METAR
SEGU 080700Z 21005KT 9999 BKN030 23/18 Q1011 NOSIG=
SEQU 080700Z 00000KT 9999 FEW020 SCT100 10/08 Q1027 RMK A3034
     NOSIG=
####018000081####
SASA41 KWBC 080700 RRA
METAR
SEMT 080700Z 22004KT 9999 BKN016 23/20 Q1012=
####018000180####
SAXX61 KWBC 080700 RRA
METAR
LERT 080700Z 29006KT 7000 SCT005 22/21 Q1015 NOSIG=
LICZ 080655Z 27002KT CAVOK 25/20 Q1018 RMK SKC VIS MIN 9999 WIND
     THR28 /////KT BLU=
####018003694####
SAXX99 KWBC 080700 RRG
METAR
CWCA 080700Z 21011KT 15SM BKN020 BKN200 11/08 A3004 RMK SC6CS2
     SLP174=
CWCL 080700Z AUTO 00000KT 9SM CLR 13/05 A3014 RMK SLP199=
CWEU 080700Z 14009KT 40SM FEW150 BKN200 BKN240 12/01 A2969 RMK
     AC1CI1CS0 SLP055=
CWFD 080700Z AUTO 35002KT 9SM 11/ RMK ALTM MISG=
CWHN 080700Z AUTO 28004KT 9SM CLR 11/09 A3005 RMK SLP187=
CWIL 080700Z AUTO 33008KT 08/ A2983 RMK SLP110=
CWKM 080700Z AUTO 25008KT 03/ A3007 RMK SLP189=
CWKW 080700Z AUTO 18006KT 13/ A2982 RMK SLP111=
CWLI 080700Z AUTO ///// 04/ A2992 RMK SLP143=
CWLX 080700Z AUTO 00000KT 14/ A2983 RMK SLP110=
CWLY 080700Z AUTO 16003KT 9SM CLR 20/09 A3000 RMK SLP158=
CWOB 080700Z AUTO ///// 9SM CLR 12/ A2983 RMK SLP129=
CWRH 080700Z AUTO ///// 09/ A2983 RMK SLP121=
CWRX 080700Z AUTO 34004KT 07/ A2982=
CWSA 080700Z AUTO 23007KT 1/8SM BKN001 OVC005 17/17 A3016 RMK
     SLP215=
CWTU 080700Z AUTO 17019KT 10/ A2999 RMK SLP170=
CWUP 080700Z AUTO 07004KT 13/ A2984 RMK SLP117=
CWUW 080700Z AUTO ///// 9SM CLR 11/ A2987 RMK SLP139=
CWVD 080700Z AUTO ///// 11/ A2985 RMK SLP131=
CWVH 080700Z AUTO 29021KT 04/ A2999 RMK SLP172=
CWXR 080700Z AUTO 20005KT 05/ A2992 RMK SLP139=
CWYK 080700Z AUTO ///// 09/ A2986 RMK SLP135=
CWYM 080700Z AUTO 13005KT 11/ RMK ALTM MISG SLP137=
CWZZ 080700Z AUTO ///// 9SM BKN027 10/ A2984 RMK SLP123=
CYAH 080700Z AUTO 00000KT 9SM CLR 15/12 A2995 RMK SLP147=
CYAM 080700Z 11004KT 12SM -RA SCT063 OVC081 21/19 A2998 RMK SC3AC5
     SLP150=
CYAY 080700Z AUTO 14008KT 9SM OVC003 07/06 A3014 RMK SLP207=
CYBC 080700Z AUTO 19002KT 1/8SM OVC000 14/13 A3001 RMK SLP161=
CYBK 080700Z 36007KT 15SM SCT015 OVC035 09/09 A2970 RMK SC4SC4
     SLP059=
CYBN 080700Z AUTO 00000KT 3SM CLR 21/19 A3003 RMK SLP166=
CYBR 080700Z 29007KT 15SM FEW058 BKN200 12/12 A3003 RMK SC2CI0
     SLP174=
CYCB 080700Z 24007KT 15SM FEW040 SCT120 SCT220 07/04 A2985 RMK
     SC1AC1CI0 SLP110=
CYCO 080700Z 10004KT 15SM BKN035 11/09 A2989 RMK SC7 SLP124=
CYCX 080700Z AUTO 22004KT 6SM 19/18 A3004 RMK SLP173=
CYCY 080700Z AUTO 07002KT 9SM CLR 08/06 A2983 RMK SLP105=
CYDB 080700Z AUTO 18002KT 9SM CLR 15/03 A3008 RMK SLP203=
CYDF 080700Z 00000KT 15SM BKN007 OVC068 10/08 A3014 RMK SF6AC2
     SLP206=
CYDN 080700Z AUTO 26005KT 9SM CLR 11/10 A3001 RMK SLP165=
CYED 080700Z AUTO 22004KT 9SM CLR 12/11 A3010 RMK SLP196=
CYEK 080700Z AUTO 06004KT 9SM FEW029 OVC044 OVC097 09/09 A2959 RMK
     SLP022=
CYEN 080700Z 23003KT 15SM FEW040 SCT250 12/11 A3010 RMK SC2CI0
     SLP197=
CYET 080700Z AUTO 31004KT 9SM FEW090 13/07 A3012 RMK SLP198=
CYEV 080700Z 31017G22KT 15SM SCT018 BKN060 08/05 A3003 RMK SC3SC4
     SLP172=
CYGQ 080700Z 27002KT 10SM -RA OVC050 18/16 A2998 RMK SC8
     SLP153=
CYGV 080700Z AUTO 08010KT 9SM OVC005 13/11 A3002 RMK SLP168=
CYGX 080700Z 24005KT 15SM FEW025 13/10 A2978 RMK SC2 SLP089=
CYHD 080700Z AUTO 21006KT 9SM CLR 16/14 A2996 RMK SLP149=
CYHE 080700Z AUTO 09005KT 020V110 9SM CLR 20/14 A2998 RMK
     SLP151=
CYHK 080700Z AUTO 02009KT 9SM CLR 09/07 A2980 RMK SLP097=
CYHM 080700Z 25003KT 12SM BKN079 22/21 A3006 RMK AC5 SLP174=
CYHU 080700Z AUTO 24007KT 9SM BKN086 26/22 A2997 RMK SLP150
     DENSITY ALT 1300FT RVR MISG=
CYHY 080700Z 29003KT 15SM FEW035 BKN045 BKN230 17/12 A2995 RMK
     SC2SC2CI1 SLP146=
CYIO 080700Z AUTO 14002KT 9SM FEW091 10/07 A2981 RMK SLP098=
CYIV 080700Z 26005KT 15SM SCT050 OVC100 15/15 A2983 RMK SC2AC3
     SLP105=
CYKA 080700Z 11003KT 40SM SKC 21/08 A3003 RMK SLP168=
CYKF 080700Z AUTO 00000KT 3SM BR CLR 20/19 A3006 RMK SLP177
     DENSITY ALT 1700FT=
CYKJ 080700Z AUTO 25005KT 9SM CLR 09/06 A2992 RMK SLP154=
####018003726####
SAXX99 KWBC 080700 RRH
METAR
CYKY 080700Z 31003KT 15SM FEW150 13/12 A3014 RMK AC1 SLP207=
CYKZ 080700Z 00000KT 10SM BKN090 24/22 A3004 RMK AC6 SLP167=
CYLL 080700Z AUTO 24008KT 9SM CLR 11/10 A3010 RMK SLP200=
CYLW 080700Z AUTO 05003KT 9SM CLR 15/08 A3004 RMK SLP173 DENSITY
     ALT 1500FT=
CYMA 080700Z 27005KT 20SM FEW050 14/07 A3006 RMK SC1 SLP188=
CYMM 080700Z AUTO 27006KT 9SM OVC080 15/11 A2999 RMK SLP162=
CYMO 080700Z AUTO 14002KT 9SM CLR 22/16 A2988 RMK SLP120=
CYNA 080700Z AUTO 09009KT 9SM OVC005 OVC011 13/11 A3004 RMK
     SLP173=
CYNE 080700Z AUTO 30005KT 9SM FEW086 FEW098 15/13 A2987 RMK
     SLP121=
CYNM 080700Z AUTO 31002KT 9SM CLR 19/16 A2996 RMK SLP146=
CYOD 080700Z 21003KT 15SM SKC 14/11 A3006 RMK SLP188=
CYOJ 080700Z 00000KT 15SM SCT050 SCT100 16/14 A2999 RMK SC3AC0
     SLP162=
CYOY 080700Z AUTO 13004KT 090V190 9SM FEW064 FEW072 21/17 A2998
     RMK SLP150=
CYPA 080700Z 28003KT 15SM FEW250 12/10 A3007 RMK CI1 SLP191=
CYPE 080700Z 32002KT 15SM FEW040CB FEW250 14/11 A3003 RMK CB1CI0
     OCNL LTGCG W SLP173=
CYPH 080700Z AUTO 23020KT 3/8SM VV001 06/05 A2976 RMK SLP079=
CYPQ 080700Z AUTO ///// 3/8SM CLR 20/20 A3003 RMK SLP168=
CYPR 080700Z AUTO VRB02KT 9SM CLR 15/13 A3004 RMK SLP175=
CYPY 080700Z AUTO 27002KT 9SM CLR 12/11 A2993 RMK SLP143=
CYQA 080700Z AUTO 00000KT 3SM BR CLR 20/20 A3003 RMK SLP171
     DENSITY ALT 1500FT=
CYQD 080700Z 28007KT 15SM FEW070 13/10 A2995 RMK AC1 SLP149=
CYQF 080700Z 17003KT 15SM FEW090 13/09 A3017 RMK AC1 SLP222=
CYQH 080700Z 00000KT 30SM FEW030 SCT090 15/08 A3010 RMK SC1AC3
     SLP198=
CYQI 080700Z 16007KT 1/4SM FG VV001 17/17 A3012 RMK FG8 RVR RWY 24
     1400 FT SLP201=
CYQL 080700Z AUTO 00000KT 9SM CLR 10/08 A3018 RMK SLP223=
CYQR 080700Z 34003KT 15SM FEW054 12/11 A3008 RMK SC1 SLP194=
CYQT 080700Z 24004KT 15SM -SHRA BKN069 OVC150 18/16 A2999 RMK
     AC6AC2 CVCTV CLD EMBD SLP155=
CYQU 080700Z 02005KT 25SM TS FEW060CB SCT090 BKN250 15/12 A3006
     RMK CB2AC1CI0 LTGIC N SLP181=
CYQV 080700Z AUTO 25006KT 9SM CLR 11/10 A3005 RMK SLP184=
CYQZ 080700Z AUTO 00000KT 9SM CLR 14/11 A3007 RMK SLP189 DENSITY
     ALT 1900FT=
CYRJ 080700Z 25006KT 12SM SCT040 23/20 A2997 RMK SC3 SLP149=
CYRV 080700Z AUTO 27002KT 6SM CLR 15/10 A3009 RMK SLP189=
CYSB 080700Z 21002KT 12SM FEW120 22/21 A3003 RMK AC2 BR SLP164=
CYSC 080700Z AUTO 00000KT 3SM BR FEW056 BKN140 21/21 A3002 RMK
     SLP164 DENSITY ALT 1500FT=
CYSF 080700Z AUTO 24005KT 9SM BKN081 BKN130 11/07 A2986 RMK
     SLP120=
CYSM 080700Z 00000KT 15SM FEW080 SCT140 BKN220 13/09 A2992 RMK
     AC1AC1CI1 SLP139=
CYTH 080700Z 26008KT 15SM FEW065 FEW085 11/09 A2984 RMK SC1AC1
     SLP110=
CYTS 080700Z 00000KT 15SM FEW060 BKN180 OVC230 20/17 A2995 RMK
     SC2AS4CI2 SLP143=
CYTZ 080700Z AUTO 19003KT 6SM BR OVC100 22/20 A3001 RMK SLP163
     DENSITY ALT 1000FT RVR MISG=
CYUA 080700Z AUTO 31017KT 9SM OVC004 05/ A3006 RMK SLP184=
CYUS 080700Z AUTO ///// 9SM CLR 11/ A2981 RMK SLP097=
CYVC 080700Z 00000KT 15SM FEW040 12/09 A3000 RMK SC1 SLP167=
CYVM 080700Z AUTO 00000KT CLR 10/07 A2984 RMK SLP104=
CYVO 080700Z AUTO 00000KT 9SM CLR 19/19 A2999 RMK SLP157=
CYVQ 080700Z 00000KT 15SM -SHRA BKN040 BKN080 BKN270 15/14 A2997
     RMK SC6AC1CI1 VIS E 30 SLP153=
CYVV 080700Z 00000KT 15SM SKC 21/20 A3003 RMK SLP165=
CYWA 080700Z AUTO 00000KT 9SM CLR 20/19 A3000 RMK SLP159=
CYWL 080700Z 03004KT 15SM SKC 17/08 A3012 RMK SLP191=
CYXC 080700Z 19004KT 25SM SKC 16/06 A3016 RMK SLP201=
CYXD 080700Z AUTO 21006KT 9SM CLR 17/12 A3010 RMK SLP192=
CYXE 080700Z 22003KT 15SM FEW250 12/10 A3010 RMK CI1 SLP201=
CYXH 080700Z AUTO 22004KT 9SM CLR 12/12 A3015 RMK SLP211=
####018000107####
SAXX99 KWBC 080700 CCB
METAR
CYFS 080700Z CCA 27002KT 15SM BKN045 16/14 A2998 RMK SC3
     SLP157=
####018003707####
SAXX99 KWBC 080700 RRI
METAR
CYXL 080700Z 00000KT 15SM SKC 18/14 A2996 RMK SLP147=
CYXR 080700Z AUTO 14002KT 9SM CLR 21/20 A2996 RMK SLP134=
CYXS 080700Z AUTO 20002KT 9SM CLR 13/09 A3007 RMK SLP193 DENSITY
     ALT 2300FT=
CYXT 080700Z 00000KT 20SM SKC 22/10 A3005 RMK SLP175=
CYYB 080700Z 20002KT 15SM FEW250 22/20 A3004 RMK CI1 SLP170=
CYYD 080700Z AUTO VRB02KT 9SM CLR 16/12 A3006 RMK DENSITY ALT
     2000FT=
CYYE 080700Z 36005KT 20SM FEW210 15/07 A3002 RMK CI0 SLP169=
CYYF 080700Z 00000KT 15SM SKC 18/09 A3004 RMK SLP167=
CYYG 080700Z 21010G16KT 15SM FEW170 BKN240 19/16 A3006 RMK AC2CI2
     SLP180=
CYYH 080700Z 01003KT 15SM FEW025 BKN035 12/08 A2983 RMK SC1SC5
     SLP103=
CYYL 080700Z AUTO 25006KT 9SM SCT076 OVC110 13/09 A2983 RMK
     DENSITY ALT 1300FT=
CYYN 080700Z AUTO 25007KT 9SM CLR 13/12 A3013 RMK SLP201=
CYYU 080700Z 20002KT 15SM BKN100 20/17 A2994 RMK AS7 SLP140=
CYYY 080700Z 27005KT 3SM BR BKN005 OVC012 12/12 A3000 RMK SF6SC2
     SLP161=
CYZE 080700Z AUTO 17006KT 2SM BR BKN002 20/20 A3000 RMK SLP159
     DENSITY ALT 1200FT=
CYZH 080700Z AUTO 13002KT 9SM CLR 16/13 A3004 RMK SLP176=
CYZP 080700Z AUTO 26010KT 9SM CLR 17/13 A3008 RMK SLP186=
CYZR 080700Z AUTO 16005KT 9SM CLR 23/19 A3002 RMK SLP165 DENSITY
     ALT 1500FT=
CYZS 080700Z 06009KT 15SM BKN070 11/05 A2971 RMK AC7 SLP066=
CYZT 080700Z 00000KT 15SM SKC 17/11 A3001 RMK SLP161=
CZCP 080700Z AUTO 14010KT 9SM BKN019 OVC038 05/ A2987 RMK
     SLP124=
CZPC 080700Z AUTO 26007KT 9SM CLR 09/08 A3024 RMK SLP238=
CZUM 080700Z AUTO 00000KT 9SM CLR 13/12 A2993 RMK SLP144=
EPLL 080700Z 01006KT 9999 FEW040 18/09 Q1022=
FMNA 080700Z 14023KT 9999 FEW020 SCT040 26/13 Q1017=
FMSD 080700Z VRB02KT 8000 VCSH SCT017 BKN033 20/18 Q1027=
FQLC 080700Z 16010KT 9999 FEW008 SCT014 14/11 Q1029=
LEGT 080700Z 03007KT CAVOK 26/12 Q1019=
LERI 080700Z 00000KT CAVOK 25/17 Q1019 NOSIG=
LGPA 080650Z 01014KT CAVOK 28/20 Q1011=
LIMP 080650Z 06005KT 6000 NSC 22/17 Q1022 RMK VIS MIN 6000=
LIMZ 080700Z NIL=
LIRM 080655Z 06011KT CAVOK 25/17 Q1019 RMK SKC VIS MIN 9999 WIND
     THR06 05012KT BLU=
LKCV 080700Z VRB01KT CAVOK 18/11 Q1024 NOSIG=
LKKB 080700Z VRB02KT CAVOK 18/10 Q1023 NOSIG=
LKKV 080700Z 00000KT CAVOK 16/10 Q1024 RMK REG QNH 1021=
LKLN 080700Z AUTO VRB01KT CAVOK 15/12 Q1024=
LKNA 080700Z 36005KT 320V100 9999 FEW032 17/09 Q1024 NOSIG=
LKPD 080700Z VRB02KT CAVOK 17/10 Q1024 NOSIG=
LKPO 080700Z VRB01KT CAVOK 17/10 Q1023 NOSIG=
LWIS CYXP 080700Z AUTO 00000KT 10/03 A2984=
LWIS CYSR 080700Z AUTO 27005KT 10/06 A2983=
UDYZ 080700Z 16003MPS 120V190 9999 SKC 31/13 Q1012 09010070
     NOSIG=
WMAU 080700Z 25003KT 9999 FEW020 BKN140 BKN270 31/24 Q////
     QFF1009=
WMBA 080700Z 21005KT 9999 SCT022 BKN280 32/24 Q1009=
WMKA 080700Z 25005KT 9999 FEW020 SCT300 32/26 Q1009=
WMKB 080700Z 30007KT 250V340 9999 FEW020 BKN280 31/25 Q1009
     NOSIG=
WMKC 080700Z 35006KT 9999 FEW018 BKN250 32/22 Q1009=
WMKD 080700Z 18004KT 9999 FEW019 SCT160 BKN280 32/25 Q1009
     NOSIG=
WMKI 080700Z 19004KT 9999 FEW020 SCT150 32/24 Q1009=
WMKL 080700Z 23006KT 160V300 9999 FEW020 BKN300 31/26 Q1010=
WMKM 080700Z 25005KT 9999 FEW020 BKN140 BKN280 30/25 Q1010=
WMKN 080700Z 02005KT 9999 FEW018 BKN240 31/27 Q1008=
ZBHH 080700Z 22003MPS 160V260 9999 SCT040 30/09 Q1010 NOSIG=
ZBSJ 080700Z 10002MPS CAVOK 34/18 Q1004 NOSIG=
ZGHA 080700Z 22005MPS 180V250 9999 SCT040 36/27 Q1001 NOSIG=
ZGKL 080700Z 18007MPS 9999 SCT066 36/23 Q1004 NOSIG=
ZGOW 080700Z 19006MPS 9999 SCT030 34/26 Q1006 NOSIG=
ZJHK 080700Z 20002MPS 9999 SCT020 37/18 Q1004 NOSIG=
ZLXY 080700Z VRB01MPS 1800 BR FEW010 OVC060 24/21 Q1007 NOSIG=
####018000236####
SAXX99 KWBC 080700 RRJ
METAR
ZSQD 080700Z 17004MPS 140V200 CAVOK 27/16 Q1006 NOSIG=
ZYCC 080700Z 35004MPS 5000 -SHRA BR BKN005 FEW023TCU BKN023 19/18
     Q1006 NOSIG=
ZYTX 080700Z 31003MPS 9999 FEW030TCU 26/19 Q1006 NOSIG=
####018000084####
SPUS52 KWBC 080708
SPECI
KACT 080704Z 15004KT 10SM SCT018 BKN038 26/23 A2998=
####018000576####
SABY31 UMMN 080700
METAR UMBB 080700Z 29004MPS 8000 NSC 18/13 Q1018 R29/CLRD// NOSIG=
METAR UMGG 080700Z VRB01MPS 9999 SCT013 BKN100 22/19 Q1013 R10/190055
NOSIG=
METAR UMII 080700Z 17003MPS P6000 BKN007CB 18/16 Q1012 R23/CLRD//
NOSIG =
METAR UMMG 080700Z 30004G07MPS CAVOK 19/13 Q1015 R17/CLRD// NOSIG=
METAR UMMM 080700Z 29005MPS 9999 OVC012 17/15 Q1013 R30290050 NOSIG
RMK QFE741=
METAR UMMS 080700Z 30003MPS 270V330 9999 OVC009 18/16 Q1013
R31/CLRD// NOSIG=
METAR UMOO 080700Z 30002MPS 8000 BKN006 OVC/// 19/18 Q1012 R31/290056
NOSIG RMK QBB180=
####018000084####
SPUS72 KWBC 080708
SPECI
KACT 080704Z 15004KT 10SM SCT018 BKN038 26/23 A2998=
####018001282####
SAAL41 DAMM 080700
METAR DAAD 080700Z 00000KT CAVOK 29/12 Q1022=
METAR DAAE 080700Z 24008KT CAVOK 24/17 Q1018=
METAR DAAJ 080700Z NIL=
METAR DAAP 080700Z NIL=
METAR DAAS 080700Z 14002KT CAVOK 23/14 Q1025=
METAR DAAV 080700Z 00000KT CAVOK 23/17 Q1018=
METAR DAAY 080700Z 00000KT 9999 FEW033 26/13 Q1025=
METAR DABT 080700Z 04004KT CAVOK 20/10 Q1023=
METAR DAFH 080700Z 13008KT CAVOK 29/17 Q1022=
METAR DAMH 080700Z NIL=
METAR DAOB 080700Z 00000KT CAVOK 25/11 Q1022=
METAR DAOF 080700Z 10008KT 3500 HZ NSC 32/07 Q1011=
METAR DAOI 080700Z 00000KT CAVOK 25/18 Q1018=
METAR DAOL 080700Z NIL=
METAR DAOR 080700Z 09006KT CAVOK 30/05 Q1022=
METAR DAOV 080700Z 11006KT CAVOK 28/14 Q1019=
METAR DATF 080700Z 03014KT CAVOK 30/10 Q1016=
METAR DATG 080700Z NIL=
METAR DATM 080700Z NIL=
METAR DAUA 080700Z 01022KT 7000 DRSA NSC 33/05 Q1013=
METAR DAUB 080700Z 12012KT CAVOK 30/16 Q1017=
METAR DAUE 080700Z 06008KT CAVOK 30/12 Q1019=
METAR DAUG 080700Z 00000KT CAVOK 30/12 Q1021=
METAR DAUI 080700Z NIL=
METAR DAUK 080700Z 14006KT CAVOK 28/18 Q1017=
METAR DAUL 080700Z 00000KT CAVOK 28/14 Q1023=
METAR DAUO 080700Z 10011KT CAVOK 28/16 Q1018=
METAR DAUT 080700Z ///10KT 8000 NSC 29/09 Q1015=
METAR DAUU 080700Z 12012KT CAVOK 31/17 Q1017=
####018001518####
SAIY43 LIIB 080700
METAR LIBA 080655Z /////KT 9999 FEW040 24/14 Q1019 RMK FEW VIS MIN
      9999 WIND THR29 00000KT BLU=
METAR LIBC 080650Z 01017KT 9999 FEW030 25/14 Q1018 RMK VIS MIN 9999=
METAR LIBD 080650Z 01012KT CAVOK 24/11 Q1019 RMK VIS MIN 9999=
METAR LIBG 080650Z 35015KT 320V030 CAVOK 25/10 Q1017 RMK VIS MIN
9999=
METAR LIBN 080655Z 35017KT 9999 FEW030 24/14 Q1016 RMK FEW VIS MIN
      9999 WIND THR14 35016KT BLU=
METAR LIBP 080650Z VRB01KT CAVOK 23/15 Q1021 RMK VIS MIN 9999=
METAR LIBQ 080655Z 08008KT CAVOK 13/13 Q1023 RMK SKC MON LIB VAL NIL
      VIS MIN 9999=
METAR LIBR 080645Z /////KT 9999 FEW020 24/17 Q1016 NOSIG RMK FEW VIS
      MIN 9999 WIND THR13 WIND THR31 34014KT BLU=
METAR LIBV 080655Z 36017G27KT CAVOK 23/14 Q1017 RMK SKC VIS MIN 9999
      WIND THR14 35020KT BLU=
METAR LICA 080650Z 22004KT 9999 FEW020 25/22 Q1017 RMK VIS MIN 9999=
METAR LICC 080650Z 25004KT CAVOK 26/20 Q1018 RMK VIS MIN 9999=
METAR LICD 080650Z 35008KT 270V350 9000 SCT010 24/21 Q1018 RMK VIS
MIN 8000NW=
METAR LICG 080655Z 33006KT 9999 BKN010 22/19 Q1018 RMK BKN VIS MIN
      9999 WIND THR08 30005KT WIND THR21 31007KT GRN=
METAR LICJ 080650Z 07013KT CAVOK 28/20 Q1018 RMK VIS MIN 9999=
METAR LICR 080650Z 01008KT 330V060 CAVOK 28/20 Q1017 RMK VIS MIN
9999=
METAR LICT 080655Z 01001KT 9999 FEW030 29/24 Q1017 RMK FEW VIS MIN
      9999 WIND THR13 33006KT BLU=
METAR LICZ 080655Z 27002KT CAVOK 25/20 Q1018 RMK SKC VIS MIN 9999
      WIND THR28 /////KT BLU=
####018000431####
SAAL40 DAMM 080700
METAR DAAG 080700Z 00000KT CAVOK 25/19 Q1018=
METAR DAAT 080700Z 10012KT CAVOK 29/02 Q1022=
METAR DABB 080700Z 21005KT CAVOK 24/17 Q1020=
METAR DABC 080700Z 00000KT CAVOK 21/13 Q1023=
METAR DABS 080700Z 00000KT CAVOK 21/12 Q1023=
METAR DAON 080700Z 00000KT CAVOK 27/19 Q1016=
METAR DAOO 080700Z 03004KT CAVOK 24/20 Q1016=
METAR DAUH 080700Z 12014KT CAVOK 30/21 Q1018=
METAR DAUZ 080700Z NIL=
####018000510####
SATH32 VTBB 080700
METAR VTSB 080700Z NIL=
METAR VTSM 080700Z 32013KT 9999 FEW020 SCT300 33/25 Q1010 A2983=
METAR VTSF 080700Z 07008KT 080V120 9999 FEW018 33/23 Q1009 A2979=
METAR VTSC 080700Z NIL=
METAR VTSK 080700Z NIL=
METAR VTST 080700Z 21006KT 9999 SCT018 33/24 Q1008 RWY08 INFO E=
METAR VTSR 080700Z NIL=
METAR VTSG 080700Z 20009KT 170V230 9999 SCT020 SCT300 32/25 Q1009
A2981 RWY32 INFO H=
METAR VTSE 080700Z NIL=
METAR VTSH 080700Z 33010KT 9999 FEW020 SCT300 35/21 Q1008 A2978=
####018000413####
SATH31 VTBB 080700
METAR VTCT 080700Z NIL=
METAR VTCN 080700Z 36009KT 9999 VCTS SCT020CB SCT025 28/23 Q1006 CB
           W RMK/RWY 02 INFO C=
METAR VTCP 080700Z NIL=
METAR VTCH 080700Z NIL=
METAR VTPH 080700Z NIL=
METAR VTPM 080700Z NIL=
METAR VTPP 080700Z NIL=
METAR VTPO 080700Z 24004KT 9999 SCT022 35/25 Q1006=
METAR VTCL 080700Z NIL=
METAR VTPB 080700Z NIL=
METAR VTPT 080700Z NIL=
####018001725####
SAIY40 LIIB 080700
METAR LIMG 080650Z 00000KT 9999 BKN080 25/20 Q1020 RMK VIS MIN 9999=
METAR LIMK 080655Z 02007KT 9999 FEW020 SCT030 18/14 Q1022 RMK BKN VAL
NIL VIS MIN 9999=
METAR LIMN 080655Z /////KT 9999 SCT050 24/16 Q1021 RMK SCT VIS MIN
9999 BLU=
METAR LIMP 080650Z 06005KT 6000 NSC 22/17 Q1022 RMK VIS MIN 6000=
METAR LIMS 080655Z 11006KT 050V130 CAVOK 23/19 Q1021 RMK FEW FEW200
VIS MIN 9999 WIND THR30 10005KT BLU=
METAR LIMZ 080700Z NIL=
METAR LIPA 080655Z 21002KT 9999 BKN045 SCT070 21/16 Q1022 RMK BKN VIS
MIN 9999 A3019 BLU=
METAR LIPB 080650Z 25002KT 9999 BKN070 24/11 Q1022 RMK MON LIB VIS
MIN 9999=
METAR LIPC 080655Z 16009KT CAVOK 24/14 Q1021 RMK FEW FEW200 VIS MIN
9999 WIND THR12 13008KT BLU=
METAR LIPF 080655Z 36002KT CAVOK 23/19 Q1021 RMK FEW FEW250 VIS MIN
9999=
METAR LIPH 080645Z 03002KT 9999 SCT020 BKN045 22/18 Q1023 RMK OVC VIS
MIN 9999 WIND THR07 /////KT BLU=
METAR LIPI 080655Z 07004KT 9999 FEW030 BKN060 23/19 Q1022 RMK BKN
VIS MIN 9999 WIND THR06 08004KT BLU=
METAR LIPL 080655Z 09007KT 050V130 9999 FEW045 SCT063 23/19 Q1022 RMK
BKN VIS MIN 9999 BLU=
METAR LIPO 080650Z 09008KT 9999 FEW045 BKN065 24/15 Q1021 RMK VIS
MIN 9999=
METAR LIPQ 080650Z VRB01KT 9999 BKN050 21/15 Q1022=
METAR LIPR 080645Z 12006KT CAVOK 25/18 Q1021 RMK SKC VIS MIN 9999
WIND THR31 14007KT BLU=
METAR LIPS 080655Z 05004KT 9999 BKN040 21/15 Q1022 RMK BKN VIS MIN
9999 BLU=
METAR LIPX 080645Z 06009KT 9999 SCT060 BKN080 25/15 Q1021 RMK BKN VIS
MIN 9999 BLU=
METAR LIPY 080650Z 14006KT 100V200 CAVOK 25/12 Q1021 RMK VIS MIN
9999=
METAR LIVC 080655Z 36012KT CAVOK 12/10 Q1029 RMK SCT SCT110 MON LIB
VAL NIL VIS MIN 9999=
METAR LIVP 080655Z VRB0=
####018000090####
SARO33 LROM 080700 CCA
METAR COR LRSV 080700Z 29010KT 9999 SCT010 BKN020 15/14 Q1017=
####018000082####
SPUS72 KWBC 080708
SPECI
KTYR 080705Z AUTO 14003KT 10SM BKN006 25/24 A3002=
####018000097####
SAUK39 EGRR 080650 CCA
METAR COR EGDM 080650Z 30006KT 6000 BR FEW005 BKN012 15/14 Q1019 GRN=
####018000137####
SAEU KAWN 080600 RRX
METAR LIRM 080555Z 06012KT 020V100 9999 FEW035 25/20 Q1018 RMK SCT
      VIS MIN 9999 WIND THR06 05012KT BLU=
####018000084####
SASA KAWN 080600 RRH
METAR SKCL 080600Z 35003KT 9999 FEW025 BKN100 20/18 A3001=
####018000297####
SAGL KAWN 080700 RRA
METAR BIAR 080700Z 35019KT 9999 -RA BKN026 09/06 Q0993=
METAR BIEG 080700Z 36013KT 1500 VCSH BR VV002 08/08 Q0989=
METAR BIKF 080700Z 02018KT 9999 FEW014 SCT019 BKN026 09/05 Q0992=
METAR BIRK 080700Z 01023G34KT 250V110 9999 FEW015 SCT035 BKN060 09/06
      Q0991=
####018000227####
SAXX70 KAWN 080700 RRH
METAR KQVE 080655Z AUTO 20508G15KT 9999 36/14 A2992 RMK AO2 SLP045=
METAR KQEX 080700Z AUTO 06002KT 7SM CLR 29/18 A2972 RMK A02=
METAR KQFT 080700Z AUTO 20002KT 6SM BR OVC035 29/18 A2982 RMK A02=
####018000363####
SAPO31 LPMG 080700
METAR LPFR 080700Z 22005KT 180V240 7000 SCT008 BKN010 22/20 Q1015=
METAR LPMA 080700Z VRB03KT 9999 FEW015 19/16 Q1019 RS35001KT 
0503002KT 2301010G20KT=
METAR LPPR 080700Z 00000KT 6000 BKN250 20/18 Q1014=
METAR LPPS 080700Z 02010KT 350V060 9999 SCT015 SCT030 19/15 Q1020=
METAR LPPT 080700Z VRB02KT 8000 FEW120 21/19 Q1014 NOSIG=
####018001731####
SAEU KAWN 080700 RRV
METAR LECV 080700Z 07007KT CAVOK 25/08 Q1022=
METAR LELO 080700Z 08006KT 030V120 CAVOK 25/18 Q1018=
METAR LFOE 080700Z VRB01KT CAVOK 21/11 Q1019=
METAR LIBA 080655Z /////KT 9999 FEW040 24/14 Q1019 RMK FEW VIS MIN
      9999 WIND THR29 00000KT BLU=
METAR LIBD 080650Z 01012KT CAVOK 24/11 Q1019 RMK VIS MIN 9999=
METAR LIBN 080655Z 35017KT 9999 FEW030 24/14 Q1016 RMK FEW VIS MIN
      9999 WIND THR14 35016KT BLU=
METAR LIBR 080645Z /////KT 9999 FEW020 24/17 Q1016 NOSIG RMK FEW VIS
      MIN 9999 WIND THR13 WIND THR31 34014KT BLU=
METAR LICC 080650Z 25004KT CAVOK 26/20 Q1018 RMK VIS MIN 9999=
METAR LICJ 080650Z 07013KT CAVOK 28/20 Q1018 RMK VIS MIN 9999=
METAR LICR 080650Z 01008KT 330V060 CAVOK 28/20 Q1017 RMK VIS MIN 9999=
METAR LIEA 080650Z 36006KT 330V050 CAVOK 25/22 Q1019 RMK VIS MIN 9999=
METAR LIMV 080655Z 03012KT 8000 3000N NSC 19/18 Q1021 RMK BKN BKN200
      MON N INVIS S LIB VAL FOSCHIA VIS MIN 3000N=
METAR LIMY 080655Z /////KT 4000 BR OVC026 21/19 Q1022 RMK OVC VAL FOSCHIA
      VIS MIN 4000=
METAR LIQC 080655Z 23003KT 9999 SCT030 25/16 Q1019 RMK SCT QUK 2 QUL
      1 NW VIS MAR 12 KM VIS MIN 9999=
METAR LIRL 080655Z 29005KT 9999 FEW015 SCT030 26/21 Q1018 RMK SCT MON
      LIB NC VIS MIN 9999 BLU=
METAR LIRZ 080650Z 36003KT CAVOK 24/13 Q1021 RMK VIS MIN 9999=
METAR LIVM 080655Z 14007KT CAVOK 25/21 Q1021 RMK SKC QUK 2 QUL 1 SE
      VIS MAR 25 KM VIS MIN 9999=
METAR LIVO 080655Z 15001KT CAVOK 15/13 Q1023 RMK SKC VIS MIN 9999=
METAR LIVR 080655Z /////KT 0200 FG VV001 11/10 Q1028 RMK MON INVIS
      VIS MIN 0200=
METAR LIVT 080655Z 08002KT CAVOK 23/12 Q1021 RMK BKN BKN100 QUK 0 QUL
      0 VIS MAR 20 KM VIS MIN 9999=
####018000073####
SAAL41 DAMM 080700 RRA
METAR DAMH 080700Z 03012KT CAVOK 32/13 Q1016=
####018000993####
SAYE20 OYSC 080700
METAR OYAA 080700Z NIL=
METAR OYAG 080700Z 12010KT 9999 SCT020 BKN070 29/25 Q1004=
METAR OYAM 080700Z NIL=
METAR OYAR 080700Z 00000KT 8000 NSC 26/06 Q////=
METAR OYAS 080700Z 18008G20KT 7000 FEW030 33/24 Q1007=
METAR OYAT 080700Z 14010KT 9000 NSC 33/15 Q1002=
METAR OYDM 080700Z 02012KT CAVOK 28/03 Q////=
METAR OYHD 080700Z 28008KT 6000 NSC 35/23 Q1003=
METAR OYIB 080700Z 00000KT 5000 DU NSC 28/15 Q1017=
METAR OYKD 080700Z 20008KT 9999 SCT025 34/27 Q////=
METAR OYMB 080700Z 06010KT 6000 FEW030 37/M03 Q1007=
METAR OYMK 080700Z 00000KT 6000 NSC 34/25 Q////=
METAR OYMT 080700Z VRB02KT 7000 NSC 27/09 Q////=
METAR OYRN 080700Z 11006KT 7000 NSC 30/23 Q1003=
METAR OYSD 080700Z 09004KT CAVOK 26/M01 Q////=
METAR OYSH 080700Z 36010KT 4000 DU NSC 31/00 Q////=
METAR OYSN 080700Z 05011KT 4000 DU NSC 29/03 Q1023=
METAR OYSQ 080700Z NIL=
METAR OYSY 080700Z VRB04KT 8000 NSC 38/11 Q1005=
METAR OYTZ 080700Z 30012KT 7000 NSC 28/13 Q1011=
####018000225####
SAUS99 KWBC 080709
METAR
KORG 080705Z AUTO 09008KT 10SM SCT028 SCT034 19/16 A2997 RMK
     AO2=
KPEQ 080702Z AUTO 07006KT 10SM OVC120 24/21 A3005 RMK AO2=
KRCR 080705Z AUTO 00000KT 2SM HZ CLR 24/21 A3005 RMK AO2=
####018000227####
SPUS99 KWBC 080709
SPECI
KGAG 080706Z AUTO 02008KT 10SM BKN028 22/19 A3013 RMK AO2=
KMFI 080706Z AUTO 30007KT 8SM BKN003 20/19 A3001 RMK AO2=
KSTJ 080706Z AUTO 18005KT 5SM BR SCT006 OVC120 23/22 A3006 RMK
     AO2=
####018000121####
SAIY40 LIIB 080700 RRB
METAR LIVP 080655Z VRB02KT 0500 VV/// 10/09 Q1028 RMK MON INVIS VAL
      INVIS VIS MIN 0500=
####018000098####
SAKY31 RUMS 080700 RRA
METAR UAFO 080700Z 28003MPS 9999 FEW050 33/19 Q1019 NOSIG RMK
QFEM685=
####018000564####
SABY31 UMMN 080700
METAR UMBB 080700Z 29004MPS 8000 NSC 18/13 Q1018 R29/CLRD// NOSIG=
METAR UMGG 080700Z VRB01MPS 9999 SCT013 BKN100 22/19 Q1013 R10/190055
NOSIG=
METAR UMII 080700Z 17003MPS P6000 BKN007CB 18/16 Q1012 R23/CLRD//
NOSIG =
METAR UMMG 080700Z 30004G07MPS CAVOK 19/13 Q1015 R17/CLRD// NOSIG=
METAR UMMM 080700Z 29005MPS 9999 OVC012 17/15 Q1013 R30290050 NOSIG
RMK QFE741=
METAR UMMS 080700Z 30003MPS 270V330 9999 OVC009 18/16 Q1013
R31/CLRD// NOSIG=
METAR UMOO 080700Z 30002MPS 8000 BKN006 OVC/// 19/18 Q1012 R31/290056
NOSIG RMK QBB180=
####018000083####
SAAG SAWH 080700
METAR SAWH 080700Z  25003KT 9999  SCT035 BKN100
02/M01 Q0986=
####018000422####
SAAL40 DAMM 080700
METAR DAAG 080700Z 00000KT CAVOK 25/19 Q1018=
METAR DAAT 080700Z 10012KT CAVOK 29/02 Q1022=
METAR DABB 080700Z 21005KT CAVOK 24/17 Q1020=
METAR DABC 080700Z 00000KT CAVOK 21/13 Q1023=
METAR DABS 080700Z 00000KT CAVOK 21/12 Q1023=
METAR DAON 080700Z 00000KT CAVOK 27/19 Q1016=
METAR DAOO 080700Z 03004KT CAVOK 24/20 Q1016=
METAR DAUH 080700Z 12014KT CAVOK 30/21 Q1018=
METAR DAUZ 080700Z NIL=
####018000411####
SAMG20 FMMI 080700
METAR FMMT 080700Z 22016KT 9999 VCSH FEW007 SCT017 BKN033 22/19
Q1023=
METAR FMNM 080700Z ///10KT CAVOK 27/15 Q1019=
METAR FMCH 080700Z 23008KT 190V270 9999 FEW023TCU BKN030 27/18 Q1021
NOSIG=
METAR FMNA 080700Z 14023KT 9999 FEW020 SCT040 26/13 Q1017=
METAR FMSD 080700Z VRB02KT 8000 VCSH SCT017 BKN033 20/18 Q1027=
METAR FMMI 080700Z 13008KT 080V180 9999 SCT016 18/12 Q1028 NOSIG=
####018000089####
SARO33 LROM 080700 CCA
METAR COR LRSV 080700Z 29010KT 9999 SCT010 BKN020 15/14 Q1017=
####018000123####
SAEW40 LEMM 080700
METAR LEBG 080700Z 04005KT 360V120 CAVOK 22/15 Q1020=
METAR LEHC 080700Z VRB01KT CAVOK 25/18 Q1021=
####018001488####
SAIY40 LIIB 080700
METAR LIMG 080650Z 00000KT 9999 BKN080 25/20 Q1020 RMK VIS MIN 9999=
METAR LIMK 080655Z 02007KT 9999 FEW020 SCT030 18/14 Q1022 RMK BKN VAL
NIL VIS MIN 9999=
METAR LIMN 080655Z /////KT 9999 SCT050 24/16 Q1021 RMK SCT VIS MIN
9999 BLU=
METAR LIMP 080650Z 06005KT 6000 NSC 22/17 Q1022 RMK VIS MIN 6000=
METAR LIMS 080655Z 11006KT 050V130 CAVOK 23/19 Q1021 RMK FEW FEW200
VIS MIN 9999 WIND THR30 10005KT BLU=
METAR LIMZ 080700Z NIL=
METAR LIPA 080655Z 21002KT 9999 BKN045 SCT070 21/16 Q1022 RMK BKN VIS
MIN 9999 A3019 BLU=
METAR LIPB 080650Z 25002KT 9999 BKN070 24/11 Q1022 RMK MON LIB VIS
MIN 9999=
METAR LIPC 080655Z 16009KT CAVOK 24/14 Q1021 RMK FEW FEW200 VIS MIN
9999 WIND THR12 13008KT BLU=
METAR LIPF 080655Z 36002KT CAVOK 23/19 Q1021 RMK FEW FEW250 VIS MIN
9999=
METAR LIPH 080645Z 03002KT 9999 SCT020 BKN045 22/18 Q1023 RMK OVC VIS
MIN 9999 WIND THR07 /////KT BLU=
METAR LIPI 080655Z 07004KT 9999 FEW030 BKN060 23/19 Q1022 RMK BKN
VIS MIN 9999 WIND THR06 08004KT BLU=
METAR LIPL 080655Z 09007KT 050V130 9999 FEW045 SCT063 23/19 Q1022 RMK
BKN VIS MIN 9999 BLU=
METAR LIPO 080650Z 09008KT 9999 FEW045 BKN065 24/15 Q1021 RMK VIS
MIN 9999=
METAR LIPQ 080650Z VRB01KT 9999 BKN050 21/15 Q1022=
METAR LIPR 080645Z 12006KT CAVOK 25/18 Q1021 RMK SKC VIS MIN 9999
WIND THR31 14007KT BLU=
METAR LIPS 080655Z 05004KT 9999 BKN040 21/15 Q1022 RMK BKN VIS MIN
9999 BLU=
METAR LIPX 080645Z 06009KT 9999 SCT060 BKN080 25/15 Q1021 RMK BKN
    VIS=
####018001253####
SAAL41 DAMM 080700
METAR DAAD 080700Z 00000KT CAVOK 29/12 Q1022=
METAR DAAE 080700Z 24008KT CAVOK 24/17 Q1018=
METAR DAAJ 080700Z NIL=
METAR DAAP 080700Z NIL=
METAR DAAS 080700Z 14002KT CAVOK 23/14 Q1025=
METAR DAAV 080700Z 00000KT CAVOK 23/17 Q1018=
METAR DAAY 080700Z 00000KT 9999 FEW033 26/13 Q1025=
METAR DABT 080700Z 04004KT CAVOK 20/10 Q1023=
METAR DAFH 080700Z 13008KT CAVOK 29/17 Q1022=
METAR DAMH 080700Z NIL=
METAR DAOB 080700Z 00000KT CAVOK 25/11 Q1022=
METAR DAOF 080700Z 10008KT 3500 HZ NSC 32/07 Q1011=
METAR DAOI 080700Z 00000KT CAVOK 25/18 Q1018=
METAR DAOL 080700Z NIL=
METAR DAOR 080700Z 09006KT CAVOK 30/05 Q1022=
METAR DAOV 080700Z 11006KT CAVOK 28/14 Q1019=
METAR DATF 080700Z 03014KT CAVOK 30/10 Q1016=
METAR DATG 080700Z NIL=
METAR DATM 080700Z NIL=
METAR DAUA 080700Z 01022KT 7000 DRSA NSC 33/05 Q1013=
METAR DAUB 080700Z 12012KT CAVOK 30/16 Q1017=
METAR DAUE 080700Z 06008KT CAVOK 30/12 Q1019=
METAR DAUG 080700Z 00000KT CAVOK 30/12 Q1021=
METAR DAUI 080700Z NIL=
METAR DAUK 080700Z 14006KT CAVOK 28/18 Q1017=
METAR DAUL 080700Z 00000KT CAVOK 28/14 Q1023=
METAR DAUO 080700Z 10011KT CAVOK 28/16 Q1018=
METAR DAUT 080700Z ///10KT 8000 NSC 29/09 Q1015=
METAR DAUU 080700Z 12012KT CAVOK 31/17 Q1017=
####018001743####
SAIY40 LIIB 080700 RRA
METAR LIMG 080650Z 00000KT 9999 BKN080 25/20 Q1020 RMK VIS MIN 9999=
METAR LIMK 080655Z 02007KT 9999 FEW020 SCT030 18/14 Q1022 RMK BKN VAL
      NIL VIS MIN 9999=
METAR LIMN 080655Z /////KT 9999 SCT050 24/16 Q1021 RMK SCT VIS MIN
      9999 BLU=
METAR LIMP 080650Z 06005KT 6000 NSC 22/17 Q1022 RMK VIS MIN 6000=
METAR LIMS 080655Z 11006KT 050V130 CAVOK 23/19 Q1021 RMK FEW FEW200
      VIS MIN 9999 WIND THR30 10005KT BLU=
METAR LIMZ 080700Z NIL=
METAR LIPA 080655Z 21002KT 9999 BKN045 SCT070 21/16 Q1022 RMK BKN VIS
      MIN 9999 A3019 BLU=
METAR LIPB 080650Z 25002KT 9999 BKN070 24/11 Q1022 RMK MON LIB VIS
MIN 9999=
METAR LIPC 080655Z 16009KT CAVOK 24/14 Q1021 RMK FEW FEW200 VIS MIN
      9999 WIND THR12 13008KT BLU=
METAR LIPF 080655Z 36002KT CAVOK 23/19 Q1021 RMK FEW FEW250 VIS MIN
      9999=
METAR LIPH 080645Z 03002KT 9999 SCT020 BKN045 22/18 Q1023 RMK OVC VIS
      MIN 9999 WIND THR07 /////KT BLU=
METAR LIPI 080655Z 07004KT 9999 FEW030 BKN060 23/19 Q1022 RMK BKN
     VIS MIN 9999 WIND THR06 08004KT BLU=
METAR LIPL 080655Z 09007KT 050V130 9999 FEW045 SCT063 23/19 Q1022 RMK
      BKN VIS MIN 9999 BLU=
METAR LIPO 080650Z 09008KT 9999 FEW045 BKN065 24/15 Q1021 RMK VIS
MIN 9999=
METAR LIPQ 080650Z VRB01KT 9999 BKN050 21/15 Q1022=
METAR LIPR 080645Z 12006KT CAVOK 25/18 Q1021 RMK SKC VIS MIN 9999
      WIND THR31 14007KT BLU=
METAR LIPS 080655Z 05004KT 9999 BKN040 21/15 Q1022 RMK BKN VIS MIN
      9999 BLU=
METAR LIPX 080645Z 06009KT 9999 SCT060 BKN080 25/15 Q1021 RMK BKN VIS
      MIN 9999 BLU=
METAR LIPY 080650Z 14006KT 100V200 CAVOK 25/12 Q1021 RMK VIS MIN
9999=
METAR LIVC 080655Z 36012KT CAVOK 12/10 Q1029 RMK SCT SCT110 MON LIB
      VAL NIL VIS MIN 9999=
####018000093####
SAEW37 LEMM 080700 RRA
METAR LEGA 080700Z 14006KT 090V180 9999 FEW060 BKN100 27/13 Q1018=
####018000085####
SPBZ21 SBSV 080708
SPECI SBSV 080705Z 35004KT 4000 -RA SCT017 SCT070 21/20 Q1017=
####018000140####
SAAG01 SABM 080700 RRB
METAR SANT 080700Z  36010KT 9999  10/05 Q1020=
METAR SAWH 080700Z  25003KT 9999  SCT035 BKN100
02/M01 Q0986=
####018000706####
SAUS20 KNKA 080708
METAR KLOT 080701Z AUTO 00000KT 7SM SCT027 SCT120 23/22 A3004 RMK 
     AO2 LTG DSNT NE=
METAR KOLY 080703Z AUTO 00000KT 5SM BR SCT090 24/23 A3004 RMK AO2=
METAR KOXI 080705Z AUTO 00000KT 10SM CLR 22/21 A3003 RMK AO1 
     T02200205=
SPECI KOXR 080707Z AUTO 29008KT 10SM OVC013 16/12 A2991 RMK AO2 $=
METAR KOZA 080701Z AUTO 02006KT 7SM -RA BKN047 BKN060 OVC095 
     23/22 A3007 RMK AO2 LTG DSNT SE T02260216=
METAR KPPQ 080705Z AUTO 00000KT 3SM -RA BKN001 BKN030 OVC049 
     23/23 A3005 RMK AO2 LTG DSNT SW P0001=
METAR KPVW 080701Z AUTO 30006KT 10SM CLR 21/20 A3015 RMK AO2=
METAR KSFY 080705Z AUTO 13003KT 4SM BR SCT005 SCT014 22/21 A3001 
     RMK AO2=
####018002958####
SAUS20 KNKA 080708
METAR K0F2 080704Z AUTO 00000KT 10SM CLR 24/22 A3000 RMK AO2 
     T02370218=
METAR K11R 080704Z AUTO 07004KT 7SM CLR 25/24 A2995 RMK AO2=
METAR K1H2 080705Z AUTO 00000KT 10SM SCT120 25/24 A3004 RMK AO2 
     T02510239=
METAR K3LF 080703Z AUTO 00000KT 10SM CLR 24/22 A3004 RMK AO2 LTG 
     DSNT SW=
METAR K3T5 080704Z AUTO 00000KT 10SM SCT008 BKN022 25/24 A2993 
     RMK AO2 T02530237=
METAR K5C1 080705Z AUTO 09003KT 10SM BKN013 BKN018 24/22 A2998 
     RMK AO1=
METAR K6R3 080701Z AUTO 00000KT 7SM CLR 24/24 A2996 RMK AO2 
     T02420242=
METAR KAAA 080703Z AUTO 00000KT 5SM BR BKN070 OVC095 23/22 A3004 
     RMK AO2 T02260215=
SPECI KACK 080707Z AUTO 12006KT 2 1/2SM R24/6000VP6000FT BR OVC001 
    19/18 A3006 RMK AO2 TSNO=
METAR KADS 080703Z AUTO 17005KT 10SM OVC020 26/22 A3000 RMK AO2 
     T02550220=
METAR KAJG 080705Z AUTO 00000KT 10SM SCT080 24/23 A3004 RMK AO2 
     T02440225=
METAR KALN 080703Z AUTO 00000KT 10SM SCT046 SCT100 25/24 A3003 
     RMK AO2 LTG DSNT W T02520242=
METAR KAPY 080703Z AUTO 00000KT 10SM SCT013 BKN020 25/24 A2987 
     RMK AO2 T02520242=
METAR KAQO 080705Z AUTO 11005KT FEW040 OVC047 26/23 A3002 RMK AO2=
METAR KARM 080705Z AUTO 07006KT 7SM SCT048 SCT050 BKN080 26/25 
     A2991 RMK AO2 LTG DSNT SW T02620247=
METAR KAXH 080705Z AUTO 10003KT 7SM BKN037 26/24 A2992 RMK AO2 
     T02620240=
METAR KBBD 080705Z AUTO 01003KT 10SM FEW017 22/21 A3002 RMK=
METAR KBEA 080703Z AUTO 06005KT 10SM SCT020 SCT025 BKN075 25/25 
     A2988 RMK AO2 LTG DSNT E T02520253=
METAR KBKD 080701Z AUTO 00000KT 7SM CLR 24/23 A3000 RMK AO2 
     T02400231=
METAR KBKS 080706Z AUTO 01004KT 10SM CLR 26/25 A2984 RMK AO1 
     T02620247=
METAR KBPC 080707Z AUTO 05015G19KT 10SM -RA SCT009 BKN017 OVC029 
     20/18 A3017 RMK AO2=
METAR KC09 080704Z AUTO 00000KT 4SM BR OVC110 21/21 A3003 RMK AO2=
METAR KCIR 080702Z AUTO 00000KT 10SM CLR 24/22 A3004 RMK AO2=
METAR KCUL 080705Z AUTO 17003KT 10SM CLR 24/21 A3004 RMK AO2 
     T02350211=
METAR KDKB 080701Z AUTO 00000KT 7SM -DZ BKN015 BKN022 BKN090 
     22/21 A3004 RMK AO2 T02150210=
METAR KDKR 080705Z AUTO 00000KT 5SM  BR CLR 24/24 A3001 RMK AO2=
METAR KDNV 080705Z AUTO 00000KT 10SM CLR 23/21 A3002 RMK AO2 
     T02340205=
METAR KDZB 080705Z AUTO 12003KT 7SM CLR 24/24 A2997 RMK AO2 
     T02370236=
METAR KECU 080705Z AUTO 00000KT 10SM CLR 22/20 A3008 RMK AO2=
METAR KENL 080704Z AUTO 20003KT 10SM CLR 24/16 A3004 RMK AO2 
     T02400160=
SPECI KGFL 080707Z AUTO 00000KT 1 3/4SM BR CLR 21/21 A3002 RMK AO2=
METAR KGLE 080704Z AUTO 00000KT 10SM CLR 25/23 A3002 RMK AO2=
METAR KGPM 080711Z AUTO 14003KT 10SM SCT013 SCT020 26/23 A3000 
     RMK AO2=
SPECI KHAO 080707Z AUTO 00000KT 2 1/2SM BR CLR 21/21 A3008 RMK AO2=
METAR KHQZ 080706Z AUTO 15003KT 10SM BKN015 25/23 A3001 RMK AO2=
METAR KJOT 080706Z AUTO 00000KT 7SM SCT023 23/22 A3003 RMK AO2=
####018000084####
SPUS31 KWBC 080709
SPECI
KMEM 080705Z 00000KT 10SM FEW005 SCT250 26/22 A3005=
####018000129####
SAUS41 KWBC 080700 RRB
METAR
KMMU 080700Z AUTO 00000KT 4SM BR CLR 21/21=
KWDR 080700Z AUTO 00000KT 10SM CLR 24/21 A3008=
####018000083####
SAUS42 KWBC 080700 RRB
METAR
KOPN 080700Z AUTO 00000KT 10SM CLR 25/22 A3005=
####018000082####
SPUS44 KWBC 080709
SPECI
KSJC 080705Z AUTO 33004KT 10SM BKN019 15/11 A2992=
####018000581####
SATH33 VTBB 080700
METAR VTUD 080700Z 24005KT 160V300 9999 FEW030 SCT045 36/21 Q1006
           A2973 INFO I RWY30=
METAR VTUI 080700Z NIL=
METAR VTUK 080700Z VRB02KT 9999 SCT022 35/22 Q1006 A2972 RWY21 INFO
           I=
METAR VTUU 080700Z NIL=
METAR VTUL 080700Z NIL=
METAR VTUO 080700Z 17004KT 9999 FEW014 35/24 Q1006 A2973 INFO H RWY
           22=
METAR VTUW 080700Z 32008KT 9999 FEW022CB SCT025 BKN300 32/23 Q1007
           A2974 CB SW W  RWY33=
METAR VTUQ 080700Z NIL=
METAR VTUV 080700Z NIL=
METAR VTUJ 080700Z NIL=
METAR VTBO 080700Z NIL=
####018000385####
SAME31 OLBA 080700
METAR OLBA 080700Z 24007KT 210V270 8000 FEW080 27/18 Q1011
     NOSIG=
METAR OSDI 080700Z 22015KT CAVOK 28/07 Q1011=
METAR OSAP 080700Z 28014KT CAVOK 29/19 Q1007=
METAR OSLK 080700Z 20006KT 9999 FEW026 SCT030 27/19 Q1009=
METAR OJAI 080700Z 32005KT CAVOK 27/09 Q1012 NOSIG=
METAR OJAM 080700Z 27008KT 5000 HZ NSC 28/09 Q1013 NOSIG=
METAR OJAQ NIL=
####018001520####
SAIY40 LIIB 080700
METAR LIMG 080650Z 00000KT 9999 BKN080 25/20 Q1020 RMK VIS MIN 9999=
METAR LIMK 080655Z 02007KT 9999 FEW020 SCT030 18/14 Q1022 RMK BKN VAL
NIL VIS MIN 9999=
METAR LIMN 080655Z /////KT 9999 SCT050 24/16 Q1021 RMK SCT VIS MIN
9999 BLU=
METAR LIMP 080650Z 06005KT 6000 NSC 22/17 Q1022 RMK VIS MIN 6000=
METAR LIMS 080655Z 11006KT 050V130 CAVOK 23/19 Q1021 RMK FEW FEW200
VIS MIN 9999 WIND THR30 10005KT BLU=
METAR LIMZ 080700Z NIL=
METAR LIPA 080655Z 21002KT 9999 BKN045 SCT070 21/16 Q1022 RMK BKN VIS
MIN 9999 A3019 BLU=
METAR LIPB 080650Z 25002KT 9999 BKN070 24/11 Q1022 RMK MON LIB VIS
MIN 9999=
METAR LIPC 080655Z 16009KT CAVOK 24/14 Q1021 RMK FEW FEW200 VIS MIN
9999 WIND THR12 13008KT BLU=
METAR LIPF 080655Z 36002KT CAVOK 23/19 Q1021 RMK FEW FEW250 VIS MIN
9999=
METAR LIPH 080645Z 03002KT 9999 SCT020 BKN045 22/18 Q1023 RMK OVC VIS
MIN 9999 WIND THR07 /////KT BLU=
METAR LIPI 080655Z 07004KT 9999 FEW030 BKN060 23/19 Q1022 RMK BKN
VIS MIN 9999 WIND THR06 08004KT BLU=
METAR LIPL 080655Z 09007KT 050V130 9999 FEW045 SCT063 23/19 Q1022 RMK
BKN VIS MIN 9999 BLU=
METAR LIPO 080650Z 09008KT 9999 FEW045 BKN065 24/15 Q1021 RMK VIS
MIN 9999=
METAR LIPQ 080650Z VRB01KT 9999 BKN050 21/15 Q1022=
METAR LIPR 080645Z 12006KT CAVOK 25/18 Q1021 RMK SKC VIS MIN 9999
WIND THR31 14007KT BLU=
METAR LIPS 080655Z 05004KT 9999 BKN040 21/15 Q1022 RMK BKN VIS MIN
9999 BLU=
METAR LIPX 080645Z 06009KT 9999 SCT060 BKN080 25/15 Q1021 RMK BKN
    VIS=
####018000123####
SAIY40 LIIB 080700 RRB
METAR LIVP 080655Z VRB02KT 0500 VV/// 10/09 Q1028 RMK MON INVIS VAL
      INVIS VIS MIN 0500=
####018000279####
SABC40 FBSK 080700
METAR FBSK 080700Z 10012KT CAVOK 13/09 Q1033 NOSIG=
METAR FBFT 080700Z 10014KT 9999 FEW015 16/11 Q1032=
METAR FBMN 080700Z 09020KT CAVOK 15/05 Q1029=
METAR FBKE 080700Z 11015KT CAVOK 15/06 Q1028=
METAR FBSP 080700Z /////KT 9999 FEW015 14/11 Q1032=
####018000125####
SAEW40 LEMM 080700
METAR LEBG 080700Z 04005KT 360V120 CAVOK 22/15 Q1020=
METAR LEHC 080700Z VRB01KT CAVOK 25/18 Q1021=
####018000086####
SAUS52 KWBC 080700 RRB
METAR
KVUJ 080659Z AUTO 00000KT 10SM BKN095 22/19 A2998=
####018000082####
SAUS53 KWBC 080700 RRC
METAR
KTDF 080703Z AUTO 00000KT 3SM CLR 21/21 A3000=
####018001779####
SAIY40 LIIB 080700 RRA
METAR LIMG 080650Z 00000KT 9999 BKN080 25/20 Q1020 RMK VIS MIN 9999=
METAR LIMK 080655Z 02007KT 9999 FEW020 SCT030 18/14 Q1022 RMK BKN VAL
      NIL VIS MIN 9999=
METAR LIMN 080655Z /////KT 9999 SCT050 24/16 Q1021 RMK SCT VIS MIN
      9999 BLU=
METAR LIMP 080650Z 06005KT 6000 NSC 22/17 Q1022 RMK VIS MIN 6000=
METAR LIMS 080655Z 11006KT 050V130 CAVOK 23/19 Q1021 RMK FEW FEW200
      VIS MIN 9999 WIND THR30 10005KT BLU=
METAR LIMZ 080700Z NIL=
METAR LIPA 080655Z 21002KT 9999 BKN045 SCT070 21/16 Q1022 RMK BKN VIS
      MIN 9999 A3019 BLU=
METAR LIPB 080650Z 25002KT 9999 BKN070 24/11 Q1022 RMK MON LIB VIS
MIN 9999=
METAR LIPC 080655Z 16009KT CAVOK 24/14 Q1021 RMK FEW FEW200 VIS MIN
      9999 WIND THR12 13008KT BLU=
METAR LIPF 080655Z 36002KT CAVOK 23/19 Q1021 RMK FEW FEW250 VIS MIN
      9999=
METAR LIPH 080645Z 03002KT 9999 SCT020 BKN045 22/18 Q1023 RMK OVC VIS
      MIN 9999 WIND THR07 /////KT BLU=
METAR LIPI 080655Z 07004KT 9999 FEW030 BKN060 23/19 Q1022 RMK BKN
     VIS MIN 9999 WIND THR06 08004KT BLU=
METAR LIPL 080655Z 09007KT 050V130 9999 FEW045 SCT063 23/19 Q1022 RMK
      BKN VIS MIN 9999 BLU=
METAR LIPO 080650Z 09008KT 9999 FEW045 BKN065 24/15 Q1021 RMK VIS
MIN 9999=
METAR LIPQ 080650Z VRB01KT 9999 BKN050 21/15 Q1022=
METAR LIPR 080645Z 12006KT CAVOK 25/18 Q1021 RMK SKC VIS MIN 9999
      WIND THR31 14007KT BLU=
METAR LIPS 080655Z 05004KT 9999 BKN040 21/15 Q1022 RMK BKN VIS MIN
      9999 BLU=
METAR LIPX 080645Z 06009KT 9999 SCT060 BKN080 25/15 Q1021 RMK BKN VIS
      MIN 9999 BLU=
METAR LIPY 080650Z 14006KT 100V200 CAVOK 25/12 Q1021 RMK VIS MIN
9999=
METAR LIVC 080655Z 36012KT CAVOK 12/10 Q1029 RMK SCT SCT110 MON LIB
      VAL NIL VIS MIN 9999=
####018000084####
SPUS72 KWBC 080709
SPECI
KMEM 080705Z 00000KT 10SM FEW005 SCT250 26/22 A3005=
####018001636####
SPZZ40 KAWN 080709 RRA
SPECI BGTL 080703Z AUTO 00000KT 1200 BR OVC002 05/05 A2985 RMK AO2
      SLP112=
SPECI BGTL 080705Z AUTO 00000KT 0800 FG OVC002 05/05 A2985 RMK AO2
      SLP111=
SPECI CWSA 080702Z AUTO 23007KT 1/8SM OVC005 17/17 A3016=
SPECI CYPQ 080703Z AUTO ///// 1/8SM CLR 20/20 A3003=
SPECI CYSC 080706Z AUTO 11002KT 2 1/2SM BR SCT140 21/20 A3002 RMK SLP165
      DENSITY ALT 1500FT=
SPECI CYZE 080703Z AUTO 17004KT 1 1/4SM BR OVC002 20/20 A3000 RMK SLP159
      DENSITY ALT 1200FT=
SPECI EGUL 080708Z AUTO 22009KT 9999 -DZ BKN027 OVC033 17/16 A3005
      RMK AO2 DZB0708 CIG 021V030 SLP178=
SPECI EGUN 080705Z AUTO 24007KT 9999 FEW007 BKN016 OVC023 17/17 A3006
      RMK AO2 SLP169=
SPECI ETIK 080705Z AUTO 07003KT 9999 CLR 21/12 A3021 RMK AO2 RAE0659DZB0659E0705
      SLP214 $=
SPECI KHST 080707Z AUTO 03007KT 10SM FEW021 SCT029 SCT038 SCT047 27/25
      A2993 RMK AO2 DZB0656E0707 FEW V SCT SLP137 $=
SPECI KLTS 080657Z AUTO 36003KT 10SM -DZ CLR 24/22 A3004 RMK AO2 DZB0657
      SLP155 $=
SPECI KNSE 080702Z AUTO 31003KT 3SM BR CLR 23/21 A3003 RMK AO2 $=
SPECI KNTU 080703Z 11003KT 4SM BR FEW005 26/24 A2994 RMK AO2 CHINO
      RWY 05R $=
SPECI KWRI 080705Z AUTO 13003KT 2 1/2SM R18/5000V5500FT R24/2800FT
      BR OVC002 24/24 A2999 RMK AO2 SLP157 $=
SPECI RJSM 080701Z 11009KT 8000 FEW002 SCT003 BKN005 20/18 Q1008 RMK
      2ST002 3ST003 5ST005 A2979 WIND BY EQPT/10 VIS NE-E 3500M=
SPECI RODN 080704Z AUTO 19016KT 9999 BKN021 30/26 A2982 RMK AO2 CIG
      020V026 BKN V SCT SLP096=
SPECI RODN 080707Z AUTO 19015KT 9999 SCT021 30/26 A2982 RMK AO2 SLP096=
####018000668####
SAAO32 GOOY 080700
METAR GABS 080700Z 21003KT CAVOK 25/24 Q1015 NOSIG=
METAR GGOV 080700Z NIL=
METAR GOOY 080700Z 16005KT 130V190 9999 FEW013 SCT230 27/24 Q1011
NOSIG=
METAR DIAP 080700Z 00000KT 6000 SCT012 SCT080 BKN260 25/24 Q1014
NOSIG=
METAR GQNN 080700Z 19005KT 6000 NSC 26/23 Q1011 NOSIG=
METAR GQPP 080700Z 35014KT 8000 NSC 21/19 Q1010 NOSIG=
METAR GUCY 080700Z NIL=
METAR GVAC 080700Z 05012KT 9999 BKN017 23/19 Q1012 NOSIG=
METAR GFLL 080700Z 09010KT 9999 SCT012 FEW027CB 23/22 Q1012 CB-NE=
METAR GBYD 080700Z 18007KT 9999 -RA BKN011 FEW016CB 25/25 Q1012=
METAR COR GLRB 080700Z 00000KT 9999 BKN012 FEW024CB 24/23 Q1014
CB-SW=

####018000079####
SAIR32 OIII 080700 RRA
METAR OITR 080650Z 02006KT CAVOK 30/12 Q1015 A2998=
####018000082####
SPUS74 KWBC 080709
SPECI
KSJC 080705Z AUTO 33004KT 10SM BKN019 15/11 A2992=
####018000819####
SASA KAWN 080700 RRC
METAR SACO 080700Z 36011KT CAVOK 07/M01 Q1020=
METAR SAEZ 080700Z 29005KT CAVOK 04/00 Q1019=
METAR SARE 080700Z 16004KT 9999 09/09 Q1019=
METAR SARF 080700Z 20011KT 9999 OVC007 14/13 Q1017=
METAR SARI 080700Z 00000KT CAVOK 16/15 Q1018=
METAR SASA 080700Z 36006KT 9999 SCT025 OVC100 12/08 Q 1022=
METAR SAWG 080700Z 29008KT 9999 SCT020 OVC070 M02/M03 Q0990=
METAR SEGU 080700Z 21005KT 9999 BKN030 23/18 Q1011 NOSIG=
METAR SEMT 080700Z 22004KT 9999 BKN016 23/20 Q1012=
METAR SEQU 080700Z 00000KT 9999 FEW020 SCT100 10/08 Q1027 RMK A3034
      NOSIG=
METAR SPQU 080700Z 32005KT CAVOK 09/M07 Q1025 RMK PP000=
METAR COR SPSO 080700Z VRB02KT 8000 SKC 13/11 Q1014 RMK PP000=
METAR SVBC 080700Z 00000KT CAVOK 25/22 Q1012=
METAR SYCJ 080700Z 00000KT 9000 FEW016 24/24 Q1011=
####018000352####
SAXX60 KAWN 080700 RRB
METAR PHNG 080657Z 06006KT 10SM SCT026 BKN040 25/20 A3004 RMK AO2 SLP168
      T02500200 $=
METAR PTKK 080657Z VRB03KT 14SM -RA FEW012 BKN120 OVC280 25/23 A2981
      RMK SLP098 T02520230=
METAR RJOO 080700Z 23008KT 200V260 9999 FEW030 BKN/// 31/19 Q1007=
METAR RJTT 080700Z 19013KT 9999 FEW030 BKN/// 28/22 Q1008=
####018001109####
SAXN17 KAWN 080700 RRE
METAR MKJS 080700Z 00000KT 9999 SCT022 SCT200 26/22 Q1012=
METAR MNMG 080700Z 16004KT 9999 FEW020CB SCT022 25/24 Q1011 A2986 CBSW/W/NW/FL=
METAR PHNG 080657Z 06006KT 10SM SCT026 BKN040 25/20 A3004 RMK AO2 SLP168
      T02500200 $=
METAR PTKK 080657Z VRB03KT 14SM -RA FEW012 BKN120 OVC280 25/23 A2981
      RMK SLP098 T02520230=
METAR RJAA 080700Z 22004KT 180V280 9999 FEW025 BKN/// 28/22 Q1009 NOSIG=
METAR RJCC 080700Z 16007KT 6000 -DZ FEW003 BKN004 19/17 Q1008=
METAR RJFF 080700Z 29006KT 250V340 9999 FEW025 BKN/// 29/20 Q1007=
METAR RJFK 080700Z 18010KT 9999 FEW030 BKN/// 28/20 Q1009=
METAR RJOO 080700Z 23008KT 200V260 9999 FEW030 BKN/// 31/19 Q1007=
METAR RJTT 080700Z 19013KT 9999 FEW030 BKN/// 28/22 Q1008=
METAR RKSS 080700Z 28005KT 9999 FEW030 OVC120 27/15 Q1008 NOSIG=
METAR ROAH 080700Z 20014KT 9999 FEW010 SCT015 BKN/// 30/27 Q1009=
METAR TGPY 080700Z 08009KT 9999 FEW020 SCT280 28/26 Q1012/HZ=
METAR YBBN 080700Z 17010KT 9999 FEW030 SCT040 BKN105 18/10 Q1018 NOSIG=
METAR ZGGG 080700Z 16004MPS 9999 FEW050TCU BKN050 36/24 Q1005 NOSIG=
####018000618####
SAUK KAWN 080700 RRD
METAR COR EGDM 080650Z 30006KT 6000 BR FEW005 BKN012 15/14 Q1019 GRN=
METAR EGDX 080650Z AUTO 27001KT //// // OVC100/// 16/12 Q1018=
METAR EGWU 080702Z 24007KT 3000 RADZ SCT008 OVC010 17/16 Q1019 YLO1
      TEMPO 4000 GRN=
METAR EGXZ 080650Z 18004KT CAVOK 15/11 Q1016 BLU=
METAR EICK 080700Z 21006KT 9999 FEW018 SCT050 BKN080 13/12 Q1016 NOSIG=
METAR EIDW 080700Z 23012KT 190V250 9999 FEW023 SCT110 BKN180 14/10
      Q1015 NOSIG=
METAR EIKN 080700Z 18004KT 9999 FEW015 SCT045 BKN200 11/10 Q1013 NOSIG=
METAR EINN 080700Z 18008KT 9999 FEW030 SCT050 BKN170 14/10 Q1015 NOSIG=
####018001048####
SARS18 KAWN 080700 RRC
METAR UAAA 080700Z 25002MPS 9999 SCT050CB BKN100 30/09 Q1014 88CLRD65
      TEMPO TS=
METAR UACC 080700Z 28004MPS 240V310 CAVOK 23/03 Q1011 220/0070 NOSIG
      RMK QFE727/0969=
METAR UAFM 080700Z 31004MPS CAVOK 33/07 Q1013 NOSIG=
METAR UATE 080700Z 29006MPS CAVOK 32/23 Q1011 300///70 NOSIG RMK QFE756/1009=
METAR UATT 080700Z 06009MPS 9999 NSC 30/04 Q1010 13CLRD70 NOSIG RMK
      QFE738/0984=
METAR UKKK 080700Z 30002MPS 9999 BKN012 21/18 Q1014 08CLRD70 NOSIG=
METAR UMGG 080700Z VRB01MPS 9999 SCT013 BKN100 22/19 Q1013 R10/190055
      NOSIG=
METAR UMII 080700Z 17003MPS P6000 BKN007CB 18/16 Q1012 R23/D NOSIG=
METAR UMMM 080700Z 29005MPS 9999 OVC012 17/15 Q1013 R30290050 NOSIG
      RMK QFE741=
METAR UMMS 080700Z 30003MPS 270V330 9999 OVC009 18/16 Q1013 R31/D NOSIG=
METAR UTAA 080700Z 32006MPS 9999 SKC 42/07 Q1009 NOSIG=
METAR UTDD 080700Z VRB01MPS 9999 FEW066 35/05 Q1011 09CLRD70 NOSIG
      RMK QFE691/0921=
METAR VTBD 080700Z 30008KT 9999 SCT020 BKN300 34/22 Q1007 NOSIG=
####018000075####
SPCN44 CWAO 080704
SPECI CYUS 080704Z AUTO ///// 9SM CLR 11/ A2981=

####018000665####
SAAO32 GOOY 080700
METAR GABS 080700Z 21003KT CAVOK 25/24 Q1015 NOSIG=
METAR GGOV 080700Z NIL=
METAR GOOY 080700Z 16005KT 130V190 9999 FEW013 SCT230 27/24 Q1011
NOSIG=
METAR DIAP 080700Z 00000KT 6000 SCT012 SCT080 BKN260 25/24 Q1014
NOSIG=
METAR GQNN 080700Z 19005KT 6000 NSC 26/23 Q1011 NOSIG=
METAR GQPP 080700Z 35014KT 8000 NSC 21/19 Q1010 NOSIG=
METAR GUCY 080700Z NIL=
METAR GVAC 080700Z 05012KT 9999 BKN017 23/19 Q1012 NOSIG=
METAR GFLL 080700Z 09010KT 9999 SCT012 FEW027CB 23/22 Q1012 CB-NE=
METAR GBYD 080700Z 18007KT 9999 -RA BKN011 FEW016CB 25/25 Q1012=
METAR COR GLRB 080700Z 00000KT 9999 BKN012 FEW024CB 24/23 Q1014
CB-SW=
####018000075####
SALY31 HLLB 080700
METAR HLLB 080650Z 01010KT 8000 FEW020 28/19 Q1016=
####018000088####
SAUS90 KWBC 080700 RRF
METAR KMZZ 080655Z AUTO 00000KT 7SM CLR 21/19 A3007 RMK AO2=
####018000316####
SPUS99 KWBC 080710
SPECI
KOXR 080707Z AUTO 29008KT 10SM OVC013 16/12 A2991 RMK AO2 $=
KACK 080707Z AUTO 12006KT 2 1/2SM R24/6000VP6000FT BR OVC001 19/18
     A3006 RMK AO2 TSNO=
KGFL 080707Z AUTO 00000KT 1 3/4SM BR CLR 21/21 A3002 RMK AO2=
KHAO 080707Z AUTO 00000KT 2 1/2SM BR CLR 21/21 A3008 RMK AO2=
####018003128####
SAUS99 KWBC 080710
METAR
KLOT 080701Z AUTO 00000KT 7SM SCT027 SCT120 23/22 A3004 RMK AO2
     LTG DSNT NE=
KOLY 080703Z AUTO 00000KT 5SM BR SCT090 24/23 A3004 RMK AO2=
KOXI 080705Z AUTO 00000KT 10SM CLR 22/21 A3003 RMK AO1
     T02200205=
KOZA 080701Z AUTO 02006KT 7SM -RA BKN047 BKN060 OVC095 23/22 A3007
     RMK AO2 LTG DSNT SE T02260216=
KPPQ 080705Z AUTO 00000KT 3SM -RA BKN001 BKN030 OVC049 23/23 A3005
     RMK AO2 LTG DSNT SW P0001=
KPVW 080701Z AUTO 30006KT 10SM CLR 21/20 A3015 RMK AO2=
KSFY 080705Z AUTO 13003KT 4SM BR SCT005 SCT014 22/21 A3001 RMK
     AO2=
K0F2 080704Z AUTO 00000KT 10SM CLR 24/22 A3000 RMK AO2
     T02370218=
K11R 080704Z AUTO 07004KT 7SM CLR 25/24 A2995 RMK AO2=
K1H2 080705Z AUTO 00000KT 10SM SCT120 25/24 A3004 RMK AO2
     T02510239=
K3LF 080703Z AUTO 00000KT 10SM CLR 24/22 A3004 RMK AO2 LTG DSNT
     SW=
K3T5 080704Z AUTO 00000KT 10SM SCT008 BKN022 25/24 A2993 RMK AO2
     T02530237=
K5C1 080705Z AUTO 09003KT 10SM BKN013 BKN018 24/22 A2998 RMK
     AO1=
K6R3 080701Z AUTO 00000KT 7SM CLR 24/24 A2996 RMK AO2
     T02420242=
KAAA 080703Z AUTO 00000KT 5SM BR BKN070 OVC095 23/22 A3004 RMK AO2
     T02260215=
KADS 080703Z AUTO 17005KT 10SM OVC020 26/22 A3000 RMK AO2
     T02550220=
KAJG 080705Z AUTO 00000KT 10SM SCT080 24/23 A3004 RMK AO2
     T02440225=
KALN 080703Z AUTO 00000KT 10SM SCT046 SCT100 25/24 A3003 RMK AO2
     LTG DSNT W T02520242=
KAPY 080703Z AUTO 00000KT 10SM SCT013 BKN020 25/24 A2987 RMK AO2
     T02520242=
KAQO 080705Z AUTO 11005KT FEW040 OVC047 26/23 A3002 RMK AO2=
KARM 080705Z AUTO 07006KT 7SM SCT048 SCT050 BKN080 26/25 A2991 RMK
     AO2 LTG DSNT SW T02620247=
KAXH 080705Z AUTO 10003KT 7SM BKN037 26/24 A2992 RMK AO2
     T02620240=
KBBD 080705Z AUTO 01003KT 10SM FEW017 22/21 A3002 RMK=
KBEA 080703Z AUTO 06005KT 10SM SCT020 SCT025 BKN075 25/25 A2988
     RMK AO2 LTG DSNT E T02520253=
KBKD 080701Z AUTO 00000KT 7SM CLR 24/23 A3000 RMK AO2
     T02400231=
KBKS 080706Z AUTO 01004KT 10SM CLR 26/25 A2984 RMK AO1
     T02620247=
KBPC 080707Z AUTO 05015G19KT 10SM -RA SCT009 BKN017 OVC029 20/18
     A3017 RMK AO2=
KC09 080704Z AUTO 00000KT 4SM BR OVC110 21/21 A3003 RMK AO2=
KCIR 080702Z AUTO 00000KT 10SM CLR 24/22 A3004 RMK AO2=
KCUL 080705Z AUTO 17003KT 10SM CLR 24/21 A3004 RMK AO2
     T02350211=
KDKB 080701Z AUTO 00000KT 7SM -DZ BKN015 BKN022 BKN090 22/21 A3004
     RMK AO2 T02150210=
KDKR 080705Z AUTO 00000KT 5SM BR CLR 24/24 A3001 RMK AO2=
KDNV 080705Z AUTO 00000KT 10SM CLR 23/21 A3002 RMK AO2
     T02340205=
KDZB 080705Z AUTO 12003KT 7SM CLR 24/24 A2997 RMK AO2
     T02370236=
KECU 080705Z AUTO 00000KT 10SM CLR 22/20 A3008 RMK AO2=
KENL 080704Z AUTO 20003KT 10SM CLR 24/16 A3004 RMK AO2
     T02400160=
KGLE 080704Z AUTO 00000KT 10SM CLR 25/23 A3002 RMK AO2=
KGPM 080711Z AUTO 14003KT 10SM SCT013 SCT020 26/23 A3000 RMK
     AO2=
KHQZ 080706Z AUTO 15003KT 10SM BKN015 25/23 A3001 RMK AO2=
KJOT 080706Z AUTO 00000KT 7SM SCT023 23/22 A3003 RMK AO2=
KMZZ 080655Z AUTO 00000KT 7SM CLR 21/19 A3007 RMK AO2=
####018000350####
SAAL31 DAAA 080700
METAR DAAG 080700Z 00000KT CAVOK 25/19 Q1018=
METAR DAAT 080700Z 10012KT CAVOK 29/02 Q1022=
METAR DABB 080700Z 21005KT CAVOK 24/17 Q1020=
METAR DABC 080700Z 00000KT CAVOK 21/13 Q1023=
METAR DAON 080700Z 00000KT CAVOK 27/19 Q1016=
METAR DAOO 080700Z 03004KT CAVOK 24/20 Q1016=
METAR DAUH 080700Z 12014KT CAVOK 30/21 Q1018=
####018001556####
SAIY42 LIIB 080700
METAR LIBF 080650Z 33009KT CAVOK 24/12 Q1020 RMK VIS MIN 9999=
METAR LIEA 080650Z 36006KT 330V050 CAVOK 25/22 Q1019 RMK VIS MIN
9999=
METAR LIED 080655Z 32006KT CAVOK 24/21 Q1017 RMK SKC VIS MIN 9999
      BLU=
METAR LIEO 080650Z VRB02KT CAVOK 26/22 Q1019 RMK VIS MIN 9999=
METAR LIMA 080650Z 04003KT 9999 SCT040 23/16 Q1022 RMK VIS MIN 9999=
METAR LIQN 080700Z NIL=
METAR LIQO 080655Z 36015KT CAVOK 22/13 Q1020 RMK SKC VAL NIL NC VIS
      MIN 9999=
METAR LIQW 080700Z NIL=
METAR COR LIRE 080655Z 18006KT 9999 FEW015TCU SCT018 26/23 Q1018 RERA
      RMK BKN VIS MIN 9999 WIND THR31 17006KT BLU=
METAR LIRG 080655Z 28002KT 9999 FEW040 26/18 Q1019 RMK SCT MON NE
     LIB NC VIS MIN 9999 BLU=
METAR LIRH 080655Z 23001KT 9999 FEW035 24/16 Q1019 RMK SCT MON LIB NC
      VIS MIN 9999 WIND THR16 17001KT BLU=
METAR LIRI 080650Z 05006KT CAVOK 26/11 Q1019 RMK VIS MIN 9999=
METAR LIRK 080655Z 12004KT CAVOK 15/10 Q1025 RMK SKC MON NE LIB NC
      VAL NIL NC VIS MIN 9999=
METAR LIRL 080655Z 29005KT 9999 FEW015 SCT030 26/21 Q1018 RMK SCT MON
      LIB NC VIS MIN 9999 BLU=
METAR LIRM 080655Z 06011KT CAVOK 25/17 Q1019 RMK SKC VIS MIN 9999
      WIND THR06 05012KT BLU=
METAR LIRS 080655Z 06007KT CAVOK 27/10 Q1019 RMK FEW FEW200 VIS MIN
      9999 WIND THR21 /////KT BLU=
METAR LIRT 080655Z 04004KT CAVOK 16/08 Q1022 RMK SKC MON LIB VAL NIL
      VIS MIN 9999=
METAR LIRU 080700Z NIL=
METAR LIRV 080655Z 05009KT CAVOK 23/14 Q1020 RMK FEW FEW200 MON E SE
      LIB NC VIS MIN 9999 BLU=
METAR LIRX 080700Z NIL=
####018000067####
SAAG SANT 080700
METAR SANT 080700Z  36010KT 9999  10/05 Q1020=
####018000290####
SAAF18 LFPW 080700 RRA
METAR FMEE 080700Z 12016KT 9999 FEW023 SCT053 21/18 Q1024 TEMPO
13028G38KT=
METAR FMMI 080700Z 13008KT 080V180 9999 SCT016 18/12 Q1028 NOSIG=
METAR FMMT 080700Z 22016KT 9999 VCSH FEW007 SCT017 BKN033 22/19
Q1023=
METAR FMNM 080700Z ///10KT CAVOK 27/15 Q1019=
####018000092####
SAAF05 LFPW 080700 RRA
METAR DNMM 080700Z 00000KT 5000 BR FEW007 24/24 Q1015 TEMPO 3000=
####018000297####
SAPO61 LPAM 080700
METAR LPBJ 080700Z 15004KT CAVOK 22/19 Q1015=
METAR LPMT 080700Z 02005KT CAVOK 20/18 Q1014 CLD5 FEW220 BLU=
METAR LPOV 080700Z 17008KT 6000 FEW005 19/17 Q1013=
METAR LPST 080700Z VRB02KT 9999 FEW003 17/17 Q1014=
METAR LPLA 080700Z 17003KT 9999 FEW018 BKN028 19/18 Q1024=
####018000180####
SAAF20 LFPW 080700 RRA
METAR FABL 080700Z 04010KT CAVOK 10/06 Q1034 NOSIG=
METAR FAEL 080700Z 02011KT CAVOK 15/10 Q1029=
METAR FAGG 080700Z 32004KT 290V350 CAVOK 09/05 Q1024=
####018000127####
SAPQ50 KWBC 080700 RRC
METAR
PTKK 080657Z VRB03KT 14SM -RA FEW012 BKN120 OVC280 25/23 A2981 RMK
     SLP098 T02520230=
####018000320####
SAAF21 LFPW 080700 RRA
METAR FAJS 080700Z 09009KT 2700 BR BKN002 07/07 Q1037 BECMG 3000
     BKN008=
METAR FALA 080700Z 11006KT 8000 NSC 11/08 Q1036 NOSIG=
METAR FAMM 080700Z 03013KT CAVOK 13/06 Q1033 NOSIG=
METAR FAPE 080700Z 02005KT CAVOK 11/10 Q1027 NOSIG=
METAR FAUP 080700Z 01014KT CAVOK 18/02 Q1028 NOSIG=
####018000419####
SARA35 RUMS 080700
METAR ULDD 080700Z 08009MPS CAVOK 07/03 Q1019 NOSIG RMK QFE764=
METAR UOHH 080700Z 00000MPS 9999 FEW030 11/04 Q1023 NOSIG RMK QFE761
06090060=
METAR UOII 080700Z 10005MPS 9999 FEW040 BKN200 28/16 Q1005 NOSIG RMK
QFE751 30////60=
METAR UOOO 080700Z 03007G09MPS CAVOK 21/09 Q1010 NOSIG RMK QFE743
010///60=
METAR USCM 080700Z 05003MPS 010V120 9999 SKC 23/02 Q1016 NOSIG
01090065 RMK QFE723=
####018000863####
SARA34 RUMS 080700
METAR UNAA 080700Z 19003MPS 150V220 9999 SCT030CB BKN100 22/13 Q1008
NOSIG RMK QFE734 201///65=
METAR UNBB 080700Z 21008MPS 9999 VCTS SCT033CB SCT100 20/04 Q1008
NOSIG RMK QFE734=
METAR UNEE 080700Z 26006G11MPS 9999 SCT026 BKN200 18/15 Q1008 NOSIG
RMK QFE733 23CLRD60=
METAR UNKL 080700Z VRB01MPS 9999 BKN017CB OVC083 17/15 Q1009 NOSIG
RMK QFE731 29////55=
METAR UNNT 080700Z 25006G13MPS 200V280 9999 -SHRA BKN050CB OVC100
17/06 Q1007 NOSIG RMK QFE745/0994 25090070=
METAR UNOO 080700Z 29006G09MPS 9999 BKN023CB 13/09 Q1007 NOSIG
25CLRD06 RMK QFE747=
METAR UNWW 080700Z 31004MPS 9999 BKN026CB OVC130 18/09 Q1009 NOSIG
RMK QFE730 19CLRD70=
METAR USTR 080700Z 32009G12MPS 9999 NSC 19/05 Q1011 NOSIG RMK
QFE749/0998 30CLRD65=
METAR USHH 080700Z 32002G07MPS 250V060 9000 -SHRA BKN021CB OVC080
11/09 Q1008 NOSIG RMK QFE752 SC06=
####018000427####
SPXX60 KWBC 080710
SPECI
KHST 080707Z AUTO 03007KT 10SM FEW021 SCT029 SCT038 SCT047 27/25
     A2993 RMK AO2 DZB0656E0707 FEW V SCT SLP137 $=
KLTS 080657Z AUTO 36003KT 10SM -DZ CLR 24/22 A3004 RMK AO2 DZB0657
     SLP155 $=
KNTU 080703Z 11003KT 4SM BR FEW005 26/24 A2994 RMK AO2 CHINO RWY
     05R $=
KWRI 080705Z AUTO 13003KT 2 1/2SM R18/5000V5500FT R24/2800FT BR
     OVC002 24/24 A2999 RMK AO2 SLP157 $=
####018000075####
SPMC32 GMMC 080600 RRA
GMFM 080640Z 00000KT 3000 BR SKC 21/19 Q1017 M2=
####018000258####
SARS34 RUMS 080700
METAR UUYH 080700Z 22002MPS CAVOK 23/07 Q1018 NOSIG RMK QFE 751
18CLRD60=
METAR UUYS 080700Z 16002MPS CAVOK 19/07 Q1017 NOSIG RMK QFE756
14CLRD60=
METAR UUYY 080700Z VRB02MPS 9999 FEW023 29/17 Q1016 NOSIG 19CLRD61
RMK QFE753/1004=
####018000079####
SAIR37 OIII 080700 RRA
METAR OITK 080700Z 36004KT CAVOK 30/13 Q1014 A2996=
####018000553####
SARA31 RUMS 080700
METAR UEEE 080700Z 34002MPS 9999 SCT050CB BKN200 25/08 Q1008 TEMPO
VRB14MPS -TSRA RMK QFE747 2309//60=
METAR UELL 080700Z 18002MPS 9999 SCT026CB BKN200 19/14 Q1010 TEMPO TS
RMK QFE683 08CLRD70=
METAR UERP 080700Z 03005MPS 9999 SCT038 BKN046 15/08 Q1014 NOSIG RMK
QFE716 35090065=
METAR UERR 080700Z 31005MPS 9999 SCT013 OVC023CB 14/14 Q1011 NOSIG
RMK QFE727 24290255=
METAR UESO 080700Z 26009G13MPS 9999 OVC008 07/05 Q1003 NOSIG RMK
QFE750 SC060=
METAR UEST 080700Z 11004MPS CAVOK 10/01 Q1016 NOSIG RMK QFE761
21000060=
####018000667####
SARA32 RUMS 080700
METAR UHHH 080700Z 03007MPS 9999 BKN029CB OVC100 18/13 Q1010 NOSIG
RMK QFE751/1001 55090060=
METAR UHMA 080700Z NIL=
METAR UHMM 080700Z 25002MPS 9999 OVC026 14/12 Q1016 NOSIG RMK QFE747
88010070 MT OBSC=
METAR UHMP 080700Z NIL=
METAR UHNN 080700Z 08001MPS 9999 -SHRA BKN010CB OVC070 13/12 Q1012
NOSIG RMK QBB310 QFE754 110///60=
METAR UHPP 080700Z 18007MPS 9999 NSC 11/07 Q1017 NOSIG RMK
QFE759/1012 MT OBS SC070=
METAR UHSH 080700Z NIL=
METAR UHSS 080700Z 16003MPS 9999 BKN023CB 15/12 Q1010 NOSIG RMK MT
OBSC QFE756/1008 19CLRD70=
METAR UHWW 080700Z 24006MPS 210V270 9999 BKN021 OVC070 21/16 Q1009
NOSIG RMK QFE756/1008 75CLRD70=
####018000378####
SARS33 RUMS 080700
METAR ULLI 080700Z 13003MPS 090V170 CAVOK 27/19 Q1013 NOSIG=
METAR UUDD 080700Z 13003MPS 100V160 CAVOK 23/18 Q1015 NOSIG=
METAR UUEE 080700Z 12005MPS CAVOK 26/17 Q1014 NOSIG=
METAR UUEM 080700Z NIL=
METAR UUWW 080700Z 13003MPS 8000 SCT100 BKN200 22/18 Q1014 06000070
NOSIG=
METAR UUMO 080700Z VRB02MPS CAVOK 22/17 Q1015 NOSIG RMK QFE746/0995
SC060=
####018000122####
SAXX60 KWBC 080700 RRH
METAR
PHNG 080657Z 06006KT 10SM SCT026 BKN040 25/20 A3004 RMK AO2 SLP168
     T02500200 $=
####018000904####
SARS32 RUMS 080700
METAR URKA 080700Z 09002MPS 9999 SCT030 27/20 Q1013 NOSIG RMK  065=
METAR URKK 080700Z 08005MPS 9999 FEW030 SCT100 27/19 Q1013 NOSIG RMK
QFE757 SC070=
METAR URKM 080700Z 10002MPS CAVOK 27/18 Q1013 NOSIG RMK QFE741=
METAR URML 080700Z 01005G10MPS 9999 SKC 30/20 Q1013 NOSIG RMK QFE759
/ 07=
METAR URMM 080700Z 09004G07MPS 060V130 9999 SCT040 27/20 Q1014 NOSIG
RMK / SC070=
METAR URMN 080700Z 01001MPS 9999 SCT026 25/19 Q1015 NOSIG RMK /
QFE724 SC07=
METAR URMT 080700Z 07005G09MPS 9999 FEW020 26/17 Q1015 NOSIG RMK
QFE721 SC07=
METAR URRR 080700Z VRB01MPS 9999 FEW023 28/17 Q1014 NOSIG RMK SC070=
METAR URSS 080700Z 26002MPS 9999 SKC 27/21 Q1011 NOSIG RMK / QFE757
06CLRD70=
METAR URWA 080700Z 36004MPS CAVOK 33/13 Q1011 NOSIG RMK SC07=
METAR URWI 080700Z 01003MPS CAVOK 27/18 Q1014 NOSIG RMK SC065=
METAR URWW 080700Z 33004G07MPS CAVOK 27/18 Q1014 NOSIG RMK SC070=
####018000401####
SARA33 RUMS 080700
METAR UIAA 080700Z VRB02MPS 9999 BKN050CB OVC200 31/10 Q1005 TEMPO
-TSRA RMK QFE695 29CLRD70=
METAR UIBB 080700Z 06004MPS 9999 FEW033 BKN200 28/13 Q1006 NOSIG RMK
QFE712/0949 30CLRD60=
METAR UIII 080700Z 16005MPS 9999 FEW050CB SCT100 OVC200 21/12 Q1006
NOSIG RMK QFE712/0950 12CLRD60=
METAR UIUU 080700Z 21006G11MPS 9999 SCT040CB OVC100 25/12 Q1007 NOSIG
RMK QFE711/0948=
####018000760####
SARA36 RUMS 080700
METAR UWUU 080700Z 06004MPS 020V110 CAVOK 26/08 Q1016 82010060 NOSIG
RMK QFE751/1001 MOD TURB 500-1600=
METAR USCC 080700Z 35007G10MPS 310V020 9999 FEW040 24/03 Q1014 NOSIG
RMK QFE741 27000070=
METAR USDD 080700Z 04009G12MPS CAVOK 15/00 Q1016 NOSIG RMK
QFE756/1008 SC060=
METAR USMU 080700Z 01007MPS 9000 -SHRA SCT019CB OVC066 10/09 Q1005
NOSIG RMK QFE748 09250345=
METAR USNN 080700Z 16005MPS P6000 SCT026CB BKN200 18/12 Q1002 NOSIG
RMK QFE746 SC065=
METAR USRK 080700Z 36004MPS 5000 BR OVC012 12/11 Q1002 TEMPO 2000 BR
BKN004 RMK QFE745 351///55=
METAR USRR 080700Z 36004G07MPS 6000 OVC009 12/10 Q1003 TEMPO BKN005
RMK QFE747  25////60=
METAR USSS 080700Z 36006G09MPS 320V020 CAVOK 23/02 Q1015 NOSIG RMK
QFE741 260///70=
####018000876####
SARS31 RUMS 080700
METAR ULAA 080700Z 29004MPS 250V330 CAVOK 26/19 Q1014 NOSIG RMK
QFE759/1012 SC070=
METAR ULKK 080700Z VRB01MPS 6000 FEW099 30/19 Q1015 NOSIG RMK QFE757=
METAR ULMM 080700Z 32003MPS 9999 BKN012CB 12/09 Q1016 NOSIG RMK
QFE755 32190060=
METAR ULOL 080700Z NIL=
METAR ULOO 080700Z VRB01MPS P6000 FEW033 SCT200 26/19 Q1012 NOSIG RMK
QFE755=
METAR ULWW 080700Z 12004MPS CAVOK 29/19 Q1016 NOSIG RMK QFE751
15CLRD60=
METAR UMKK 080700Z 30006MPS P8000 BKN200 21/17 Q1019 NOSIG RMK QFE
763 SC07=
METAR UUBP 080700Z 00000MPS 9999 FEW033 SCT/// 23/19 Q1012 NOSIG=
METAR UUOB 080700Z VRB02MPS 9999 SCT040 BKN200 25/17 Q1014 NOSIG RMK
SC065=
METAR UUOK 080700Z 20003MPS 9999 BKN026 25/18 Q1012 NOSIG=
METAR UUOO 080700Z VRB02MPS 9999 FEW033 25/16 Q1014 NOSIG RMK
13090070=
METAR UWGG 080700Z 12004MPS 8000 SKC 31/10 Q1016 NOSIG RMK QFE755
18090070=
####018000481####
SAAL31 KWBC 080700 RRA
METAR
DAAG 080700Z 00000KT CAVOK 25/19 Q1018=
DAAT 080700Z 10012KT CAVOK 29/02 Q1022=
DABB 080700Z 21005KT CAVOK 24/17 Q1020=
DABC 080700Z 00000KT CAVOK 21/13 Q1023=
DABS 080700Z 00000KT CAVOK 21/12 Q1023=
DAON 080700Z 00000KT CAVOK 27/19 Q1016=
DAOO 080700Z 03004KT CAVOK 24/20 Q1016=
DAUA 080700Z 01022KT 7000 DRSA NSC 33/05 Q1013=
DAUG 080700Z 00000KT CAVOK 30/12 Q1021=
DAUH 080700Z 12014KT CAVOK 30/21 Q1018=
DAUZ 080700Z NIL=
####018000081####
SAAF35 KWBC 080700 RRA
METAR
HLLB 080650Z 01010KT 8000 FEW020 28/19 Q1016=
####018000940####
SARS35 RUMS 080700
METAR USPP 080700Z 35002MPS 280V360 CAVOK 26/09 Q1016 NOSIG RMK
QFE751/1002 21090060=
METAR UWKD 080700Z 36003G06MPS CAVOK 31/13 Q1015 NOSIG RMK
QFE752/1002 11CLRD70=
METAR UWKE 080700Z 00000MPS CAVOK 28/10 Q1016 NOSIG RMK QFE745/0994
22090070=
METAR UWKS 080700Z 01002MPS 300V080 CAVOK 31/12 Q1016 NOSIG RMK
QFE748 SC0.60=
METAR UWLL 080700Z 10002MPS CAVOK 29/09 Q1016 NOSIG RMK QFE749/0999
SC065=
METAR COR UWLW 080700Z 11002MPS 8000 SKC 31/13 Q1015 NOSIG 02CLRD60
RMK QFE755=
METAR UWOR 080700Z 05008MPS CAVOK 26/05 Q1015 07CLRD65 NOSIG RMK
QFE736/0981=
METAR UWOO 080700Z 06006MPS 030V090 P5000 SCT070 30/04 Q1013 08LRD65
NOSIG RMK QFE749/0999=
METAR UWPP 080700Z 12004MPS 9999 SCT033CB BKN100 26/11 Q1014 NOSIG
RMK QFE746 11090069=
METAR UWSS 080700Z 06003MPS CAVOK 26/12 Q1015 NOSIG RMK QFE749
120///60=
METAR UWWW 080700Z 06006MPS CAVOK 29/08 Q1016 NOSIG RMK QFE749/0998
05CLRD60 15//99//=
####018000072####
SAAL41 DAMM 080700 RRA
METAR DAMH 080700Z 03012KT CAVOK 32/13 Q1016=
####018001393####
SAUS20 KNKA 080709
METAR KJSO 080710Z AUTO 00000KT 7SM CLR 24/24 A3003 RMK AO2 
     T02360235=
METAR KJWY 080705Z AUTO 15006KT 10SM 25/22 A3000 RMK AO2 T02450224=
METAR KJXI 080705Z AUTO 00000KT OVC008 26/25 A3002 RMK AO2=
METAR KLBR 080705Z AUTO 00000KT 7SM SCT004 BKN019 24/23 A3003 RMK 
     AO2 T02400230=
METAR KLHB 080703Z AUTO 09004KT 7SM BKN110 25/24 A2997 RMK AO2 
     T02520235=
METAR KLNC 080705Z AUTO 00000KT 10SM CLR 24/24 A3000 RMK AO2 
     T02410238=
METAR KLUD 080705Z AUTO 13005KT 10SM SCT040 25/22 A3001 RMK AO2 
     T02500218=
METAR KM30 080706Z AUTO 00000KT 5SM BR CLR 22/21 A3004 RMK AO2=
METAR KMDD 080700Z AUTO 12006KT 10SM OVC120 23/20 A3009 RMK AO2 
     T02300201=
METAR KMKN 080700Z AUTO 00000KT 10SM 24/22 A3002 RMK AO2=
METAR KMNZ 080709Z AUTO 14006KT 10SM BKN023 25/23 A3001 RMK AO2 
     T02500233=
METAR KMQB 080705Z AUTO 22004KT 10SM BKN008 BKN036 OVC045 23/23 
     A3005 RMK AO2 LTG DSNT SW T02310230=
SPECI KOWD 080708Z AUTO 15003KT 6SM HZ OVC011 24/21 A3005 RMK AO2=
METAR KPNT 080705Z AUTO 00000KT 5SM BR SCT040 OVC110 23/22 A3004 
     RMK AO2=
METAR KPRG 080705Z AUTO 00000KT 5SM BR BKN110 21/21 A3005 RMK AO2 
     T02190212=
METAR KRPJ 080705Z AUTO 00000KT 4SM -DZ CLR 21/20 A3004 RMK AO2 
     T02070197=
METAR KRSV 080702Z AUTO 00000KT 10SM SCT085 26/23 A3005 RMK AO2 
     T02550231=
####018000028####
SAAG41 KWBC 080700
NIL=
####018000199####
SAAO33 KWBC 080700 RRA
METAR
GFLL 080700Z 09010KT 9999 SCT012 FEW027CB 23/22 Q1012 CB-NE=
GGOV 080700Z NIL=
GLRB 080700Z 00000KT 9999 BKN012 FEW024CB 24/23 Q1014 CB-SW=
GUCY 080700Z NIL=
####018000541####
SAAG31 KWBC 080700
METAR
SAAG NIL=
SAAP NIL=
SAAR NIL=
SABE NIL=
SACO 080700Z 36011KT CAVOK 07/M01 Q1020=
SADD NIL=
SAEZ 080700Z 29005KT CAVOK 04/00 Q1019=
SAME NIL=
SARC NIL=
SARE 080700Z 16004KT 9999 09/09 Q1019=
SARF 080700Z 20011KT 9999 OVC007 14/13 Q1017=
SARI 080700Z 00000KT CAVOK 16/15 Q1018=
SARP NIL=
SASA 080700Z 36006KT 9999 SCT025 OVC100 12/08 Q 1022=
SASJ NIL=
SAWE NIL=
SAWG 080700Z 29008KT 9999 SCT020 OVC070 M02/M03 Q0990=
SAZM NIL=
SAZS 080700Z 32017KT 8000 DZ BKN012 03/02 Q1006=
####018002912####
SAUS70 KWBC 080710
METAR
KORG 080705Z AUTO 09008KT 10SM SCT028 SCT034 19/16 A2997 RMK
     AO2=
KPEQ 080702Z AUTO 07006KT 10SM OVC120 24/21 A3005 RMK AO2=
KLOT 080701Z AUTO 00000KT 7SM SCT027 SCT120 23/22 A3004 RMK AO2
     LTG DSNT NE=
KOLY 080703Z AUTO 00000KT 5SM BR SCT090 24/23 A3004 RMK AO2=
KOXI 080705Z AUTO 00000KT 10SM CLR 22/21 A3003 RMK AO1
     T02200205=
KOZA 080701Z AUTO 02006KT 7SM -RA BKN047 BKN060 OVC095 23/22 A3007
     RMK AO2 LTG DSNT SE T02260216=
KPPQ 080705Z AUTO 00000KT 3SM -RA BKN001 BKN030 OVC049 23/23 A3005
     RMK AO2 LTG DSNT SW P0001=
KPVW 080701Z AUTO 30006KT 10SM CLR 21/20 A3015 RMK AO2=
K0F2 080704Z AUTO 00000KT 10SM CLR 24/22 A3000 RMK AO2
     T02370218=
K11R 080704Z AUTO 07004KT 7SM CLR 25/24 A2995 RMK AO2=
K1H2 080705Z AUTO 00000KT 10SM SCT120 25/24 A3004 RMK AO2
     T02510239=
K3LF 080703Z AUTO 00000KT 10SM CLR 24/22 A3004 RMK AO2 LTG DSNT
     SW=
K3T5 080704Z AUTO 00000KT 10SM SCT008 BKN022 25/24 A2993 RMK AO2
     T02530237=
K5C1 080705Z AUTO 09003KT 10SM BKN013 BKN018 24/22 A2998 RMK
     AO1=
K6R3 080701Z AUTO 00000KT 7SM CLR 24/24 A2996 RMK AO2
     T02420242=
KAAA 080703Z AUTO 00000KT 5SM BR BKN070 OVC095 23/22 A3004 RMK AO2
     T02260215=
KADS 080703Z AUTO 17005KT 10SM OVC020 26/22 A3000 RMK AO2
     T02550220=
KAJG 080705Z AUTO 00000KT 10SM SCT080 24/23 A3004 RMK AO2
     T02440225=
KALN 080703Z AUTO 00000KT 10SM SCT046 SCT100 25/24 A3003 RMK AO2
     LTG DSNT W T02520242=
KAQO 080705Z AUTO 11005KT FEW040 OVC047 26/23 A3002 RMK AO2=
KARM 080705Z AUTO 07006KT 7SM SCT048 SCT050 BKN080 26/25 A2991 RMK
     AO2 LTG DSNT SW T02620247=
KAXH 080705Z AUTO 10003KT 7SM BKN037 26/24 A2992 RMK AO2
     T02620240=
KBBD 080705Z AUTO 01003KT 10SM FEW017 22/21 A3002 RMK=
KBEA 080703Z AUTO 06005KT 10SM SCT020 SCT025 BKN075 25/25 A2988
     RMK AO2 LTG DSNT E T02520253=
KBKD 080701Z AUTO 00000KT 7SM CLR 24/23 A3000 RMK AO2
     T02400231=
KBKS 080706Z AUTO 01004KT 10SM CLR 26/25 A2984 RMK AO1
     T02620247=
KBPC 080707Z AUTO 05015G19KT 10SM -RA SCT009 BKN017 OVC029 20/18
     A3017 RMK AO2=
KC09 080704Z AUTO 00000KT 4SM BR OVC110 21/21 A3003 RMK AO2=
KDKB 080701Z AUTO 00000KT 7SM -DZ BKN015 BKN022 BKN090 22/21 A3004
     RMK AO2 T02150210=
KDKR 080705Z AUTO 00000KT 5SM BR CLR 24/24 A3001 RMK AO2=
KDNV 080705Z AUTO 00000KT 10SM CLR 23/21 A3002 RMK AO2
     T02340205=
KDZB 080705Z AUTO 12003KT 7SM CLR 24/24 A2997 RMK AO2
     T02370236=
KECU 080705Z AUTO 00000KT 10SM CLR 22/20 A3008 RMK AO2=
KENL 080704Z AUTO 20003KT 10SM CLR 24/16 A3004 RMK AO2
     T02400160=
KGLE 080704Z AUTO 00000KT 10SM CLR 25/23 A3002 RMK AO2=
KGPM 080711Z AUTO 14003KT 10SM SCT013 SCT020 26/23 A3000 RMK
     AO2=
KHQZ 080706Z AUTO 15003KT 10SM BKN015 25/23 A3001 RMK AO2=
KJOT 080706Z AUTO 00000KT 7SM SCT023 23/22 A3003 RMK AO2=
####018000420####
SAAS31 KWBC 080705
METAR
VAAH NIL=
VABB NIL=
VABG NIL=
VAGO NIL=
VANP NIL=
VANY NIL=
VCBI NIL=
VECC NIL=
VEPT NIL=
VGEG NIL=
VGZR NIL=
VIAR NIL=
VIBN NIL=
VIDP NIL=
VNKT NIL=
VOBG NIL=
VOCI NIL=
VOHY NIL=
VOMM NIL=
VONY NIL=
VOTR NIL=
VOTV NIL=
VQPR NIL=
VQTU NIL=
VRMM NIL=
VTBS 080700Z 29004KT 260V350 9999 FEW020CB SCT035 BKN300 34/22
     Q1007 CB NE NOSIG=
####018000239####
SAUS80 KWBC 080710
METAR
KSFY 080705Z AUTO 13003KT 4SM BR SCT005 SCT014 22/21 A3001 RMK
     AO2=
KCIR 080702Z AUTO 00000KT 10SM CLR 24/22 A3004 RMK AO2=
KCUL 080705Z AUTO 17003KT 10SM CLR 24/21 A3004 RMK AO2
     T02350211=
####018000092####
SAUK51 EGGY 080650 CCA
METAR COR EGDM 080650Z 30006KT 6000 BR FEW005 BKN012 15/14 Q1019=
####018000092####
SPUS80 KWBC 080710
SPECI
KOXR 080707Z AUTO 29008KT 10SM OVC013 16/12 A2991 RMK AO2 $=
####018000086####
SADN31 EKCH 080650 RRA
METAR EKBI 080650Z 18005KT 150V230 9999 BKN040 19/15 Q1018=
####018000513####
SPUS70 KWBC 080710
SPECI
KGAG 080706Z AUTO 02008KT 10SM BKN028 22/19 A3013 RMK AO2=
KMFI 080706Z AUTO 30007KT 8SM BKN003 20/19 A3001 RMK AO2=
KSTJ 080706Z AUTO 18005KT 5SM BR SCT006 OVC120 23/22 A3006 RMK
     AO2=
KACK 080707Z AUTO 12006KT 2 1/2SM R24/6000VP6000FT BR OVC001 19/18
     A3006 RMK AO2 TSNO=
KGFL 080707Z AUTO 00000KT 1 3/4SM BR CLR 21/21 A3002 RMK AO2=
KHAO 080707Z AUTO 00000KT 2 1/2SM BR CLR 21/21 A3008 RMK AO2=
KNSE 080702Z AUTO 31003KT 3SM BR CLR 23/21 A3003 RMK AO2 $=
####018000442####
SAAO33 DRRN 080700
METAR DBBB 080700Z VRB02KT 3200 BR FEW010 BKN110 25/25 Q1013 BECMG
6000 NSW=
METAR DFFD 080700Z NIL=
METAR DGAA 080700Z NIL=
METAR DNKN 080700Z 24010KT 9999 FEW020  24/21 Q1014 NOSIG=
METAR DNMM 080700Z 00000KT 5000 BR FEW007 24/24 Q1015 TEMPO 3000=
METAR DRRN 080700Z 00000KT CAVOK 25/22 Q1012 NOSIG=
METAR DXXX 080700Z VRB03KT 7000 SCT010 25/24 Q1014 NOSIG=
METAR FTTJ 080700Z 21008KT CAVOK 25/23 Q1014 NOSIG=
####018000391####
SAAS32 KWBC 080705
METAR
RKPC 080700Z 07009KT 4700 BR FEW010 SCT030 BKN190 25/21 Q1009
     NOSIG=
RKPK 080700Z 12008KT 9999 SCT030 BKN200 25/17 Q1008 NOSIG=
RKSS 080700Z 28005KT 9999 FEW030 OVC120 27/15 Q1008 NOSIG=
VHHH 080700Z 24014KT 9999 FEW020 SCT030 34/24 Q1007 NOSIG=
VMMC NIL=
ZJSY 080700Z 18003MPS 140V220 9999 FEW013 SCT016 32/27 Q1007
     NOSIG=
ZKPY NIL=
####018000086####
SADN31 EKCH 080650 RRB
METAR EKBI 080650Z 18005KT 150V230 9999 BKN040 19/15 Q1018=
####018000483####
SAAL32 DAAA 080700
METAR DAAS 080700Z 14002KT CAVOK 23/14 Q1025=
METAR DABS 080700Z 00000KT CAVOK 21/12 Q1023=
METAR DAOB 080700Z 00000KT CAVOK 25/11 Q1022=
METAR DAOF 080700Z 10008KT 3500 HZ NSC 32/07 Q1011=
METAR DAOR 080700Z 09006KT CAVOK 30/05 Q1022=
METAR DAUA 080700Z 01022KT 7000 DRSA NSC 33/05 Q1013=
METAR DAUB 080700Z 12012KT CAVOK 30/16 Q1017=
METAR DAUG 080700Z 00000KT CAVOK 30/12 Q1021=
METAR DAUU 080700Z 12012KT CAVOK 31/17 Q1017=
METAR DAUZ 080700Z NIL=
####018002930####
SAUS20 KNKA 080709
METAR KASW 080705Z AUTO 00000KT 10SM CLR 23/21 A3006 RMK AO2 
     T02300207=
SPECI KBML 080708Z AUTO 00000KT 1 1/2SM BR BKN003 BKN007 OVC050 
    19/19 A3008 RMK AO2 CIG 001V005 $=
METAR KBPG 080705Z AUTO 09003KT 10SM CLR 22/20 A3009 RMK AO1 
     T02200198=
METAR KBYY 080706Z AUTO 08007KT 7SM -DZ SCT025 SCT035 BKN085 
     27/26 A2989 RMK AO2 T02680260=
METAR KCPT 080705Z AUTO 12007KT 10SM SCT018 25/24 A3001 RMK AO2=
METAR KCVB 080704Z AUTO 09004KT 10SM CLR 25/24 A2995 RMK AO2 
     T02510235=
METAR KCWC 080705Z AUTO 12007KT 10SM CLR 25/22 A3002 RMK AO2 
     T02460220=
METAR KDUX 080707Z AUTO 00000KT 7SM RA SCT020 BKN025 BKN038 17/16 
     A3021 RMK AO2 P0001 T01720162=
METAR KEBG 080706Z AUTO 00000KT 10SM -DZ SCT012 SCT025 BKN060 
     27/25 A2983 RMK AO2 T02670250=
METAR KERV 080705Z AUTO 09004KT 10SM SCT013 SCT120 23/22 A2999 
     RMK AO2 T02330216=
METAR KF05 080704Z AUTO 36003KT 10SM CLR 24/22 A3003 RMK AO2 
     T02370220=
METAR KFEP 080705Z AUTO 00000KT 7SM DZ SCT029 BKN050 OVC060 24/22 
     A3002 RMK AO2 T02360215=
METAR KFOA 080705Z AUTO 00000KT 7SM SCT110 26/25 A3004 RMK AO2 
     T02560251=
METAR KFWC 080705Z AUTO 00000KT 7SM SCT110 24/23 A3004 RMK AO2=
METAR KFWS 080705Z AUTO 00000KT 10SM SCT014 OVC019 25/23 A3002 
     RMK AO2 T02530230=
METAR KGBG 080705Z AUTO 20005KT 10SM -RA OVC008 23/22 A3002 RMK 
     AO2=
METAR KGDJ 080704Z AUTO 00000KT 10SM OVC021 25/23 A3001 RMK AO2 
     T02520233=
METAR KGNC 080705Z AUTO 00000KT 10SM OVC100 21/19 A3012 RMK AO2 
     T02050192=
METAR KGOP 080700Z AUTO 00000KT 10SM FEW049 26/23 A3001 RMK AO2=
METAR KGVT 080705Z AUTO 17006KT 10SM CLR 25/23 A3001 RMK AO2=
METAR KGWB 080705Z AUTO 00000KT 10SM CLR 24/17 A3006 RMK AO2=
METAR KGYB 080705Z AUTO 09005KT 10SM SCT008 BKN012 OVC021 25/24 
     A2999 RMK AO2 T02500237=
METAR KGYI 080704Z AUTO 15007KT 10SM BKN070 BKN080 26/23 A3001 
     RMK AO2 T02610233=
METAR KHBV 080700Z AUTO 02003KT 10SM BKN006 OVC011 25/24 A2989 
     RMK AO2 T02520240=
METAR KHHF 080705Z AUTO 00000KT 10SM SCT047 OVC100 23/22 A3012 
     RMK AO2 LTG DSNT SW THRU N T02310217=
METAR KHRX 080705Z AUTO 06005KT 10SM SCT004 SCT014 OVC018 18/17 
     A3021 RMK AO2 T01750165=
METAR KHSB 080705Z AUTO 00000KT 5SM BR CLR 22/21 A3005 RMK AO2=
METAR KIJX 080705Z AUTO 00000KT 4SM BR SCT022 SCT037 SCT075 24/23 
     A3005 RMK AO2 LTG DSNT N AND NE T02360227=
METAR KIKK 080705Z AUTO 00000KT 4SM HZ CLR 26/23 A3004 RMK AO2 
     LTG DSNT SW=
METAR KINJ 080705Z AUTO 12004KT 10SM CLR 25/23 A2999 RMK AO2 
     T02480227=
METAR KJAS 080706Z AUTO 08003KT 10SM CLR 25/24 A3001 RMK AO2 
     T02500237=
METAR KJDD 080705Z AUTO 00000KT 7SM BKN006 BKN010 24/24 A3001 RMK 
     AO2=
SPECI KJEF 080708Z AUTO 11003KT 10SM -RA FEW021 BKN029 OVC085 24/23 
    A3004 RMK AO2 LTG DSNT E AND SE RAB0654 P0000=
####018000088####
SPBZ31 KWBC 080710
SPECI
SBSV 080705Z 35004KT 4000 -RA SCT017 SCT070 21/20 Q1017=
####018000081####
SAAO32 KWBC 080700 RRB
METAR
GABS 080700Z 21003KT CAVOK 25/24 Q1015 NOSIG=
####018000114####
SAXX60 KWBC 080710
METAR
KAPY 080703Z AUTO 00000KT 10SM SCT013 BKN020 25/24 A2987 RMK AO2
     T02520242=
####018001407####
SAAS33 KWBC 080705
METAR
VBRR NIL=
VDPP 080700Z 02003KT 9999 SCT015 FEW017CB 34/22 Q1006 CB:SE E=
VDSR 080700Z 33003KT 9999 SCT017 SCT040 33/23 Q1006=
VLVT 080700Z 06004KT 9999 SCT016 35/23 Q1006=
VTBA NIL=
VTBD 080700Z 30008KT 9999 SCT020 BKN300 34/22 Q1007 NOSIG=
VTBU 080700Z NIL=
VTCC 080700Z 04006KT 9999 FEW025CB BKN035 32/23 Q1009 A2980 CB
     NNE=
VTSP 080700Z 28011KT 9000 FEW020 SCT120 BKN300 31/25 Q1010
     A2984=
VTSS 080700Z 23004KT 9999 SCT020 34/19 Q1009 A2979 NOSIG=
VVDN 080700Z 10010KT 9999 FEW017 SCT300 35/19 Q1006 NOSIG=
VVGL NIL=
VVNB 080700Z NIL=
VVTS 080700Z VRB03KT 9999 FEW015TCU SCT017 34/23 Q1007 NOSIG=
WBGG 080700Z 05010KT 9999 FEW015CB BKN020 BKN300 28/23 Q1008
     NOSIG=
WBKK 080700Z 27002KT 9999 TS FEW014 FEW017CB SCT140 BKN270 30/25
     Q1008 TEMPO 5000 TSRA=
WMAM NIL=
WMKJ 080700Z 01002KT 9999 FEW018 BKN280 29/25 Q1009=
WMKK 080700Z 23006KT 160V280 9999 SCT018 SCT140 BKN280 31/26 Q1009
     NOSIG=
WMKP 080700Z 21009KT 9999 FEW020 BKN300 31/25 Q1009 NOSIG=
WMSA 080700Z 21004KT 9999 FEW020 BKN140 33/25 Q1009 NOSIG=
WPDL NIL=
WPEC NIL=
WSAP 080700Z 00000KT 9999 FEW018 BKN270 31/24 Q1009=
WSSL 080700Z 26005KT 9999 FEW020 BKN250 30/24 Q1009=
WSSL 080700Z 26005KT 9999 FEW020 BKN250 30/24 Q1009 RMK 0630Z
     Q1009=
WSSS 080700Z 20005KT 9999 FEW016 FEW018TCU BKN150 30/25 Q1009
     NOSIG=
####018000081####
SAAW32 KWBC 080630 RRD
METAR
OITR 080650Z 02006KT CAVOK 30/12 Q1015 A2998=
####018000236####
SAAW33 KWBC 080700 RRB
METAR
OYAA 080700Z NIL=
OYAR 080700Z 00000KT 8000 NSC 26/06 Q////=
OYHD 080700Z 28008KT 6000 NSC 35/23 Q1003=
OYSN 080700Z 05011KT 4000 DU NSC 29/03 Q1023=
OYTZ 080700Z 30012KT 7000 NSC 28/13 Q1011=
####018000922####
SARS32 RUMS 080700
METAR URKA 080700Z 09002MPS 9999 SCT030 27/20 Q1013 NOSIG RMK  065=
METAR URKK 080700Z 08005MPS 9999 FEW030 SCT100 27/19 Q1013 NOSIG RMK
QFE757 SC070=
METAR URKM 080700Z 10002MPS CAVOK 27/18 Q1013 NOSIG RMK QFE741=
METAR URML 080700Z 01005G10MPS 9999 SKC 30/20 Q1013 NOSIG RMK QFE759
/ 07=
METAR URMM 080700Z 09004G07MPS 060V130 9999 SCT040 27/20 Q1014 NOSIG
RMK / SC070=
METAR URMN 080700Z 01001MPS 9999 SCT026 25/19 Q1015 NOSIG RMK /
QFE724 SC07=
METAR URMT 080700Z 07005G09MPS 9999 FEW020 26/17 Q1015 NOSIG RMK
QFE721 SC07=
METAR URRR 080700Z VRB01MPS 9999 FEW023 28/17 Q1014 NOSIG RMK SC070=
METAR URSS 080700Z 26002MPS 9999 SKC 27/21 Q1011 NOSIG RMK / QFE757
06CLRD70=
METAR URWA 080700Z 36004MPS CAVOK 33/13 Q1011 NOSIG RMK SC07=
METAR URWI 080700Z 01003MPS CAVOK 27/18 Q1014 NOSIG RMK SC065=
METAR URWW 080700Z 33004G07MPS CAVOK 27/18 Q1014 NOSIG RMK SC070=
####018000776####
SARA36 RUMS 080700
METAR UWUU 080700Z 06004MPS 020V110 CAVOK 26/08 Q1016 82010060 NOSIG
RMK QFE751/1001 MOD TURB 500-1600=
METAR USCC 080700Z 35007G10MPS 310V020 9999 FEW040 24/03 Q1014 NOSIG
RMK QFE741 27000070=
METAR USDD 080700Z 04009G12MPS CAVOK 15/00 Q1016 NOSIG RMK
QFE756/1008 SC060=
METAR USMU 080700Z 01007MPS 9000 -SHRA SCT019CB OVC066 10/09 Q1005
NOSIG RMK QFE748 09250345=
METAR USNN 080700Z 16005MPS P6000 SCT026CB BKN200 18/12 Q1002 NOSIG
RMK QFE746 SC065=
METAR USRK 080700Z 36004MPS 5000 BR OVC012 12/11 Q1002 TEMPO 2000 BR
BKN004 RMK QFE745 351///55=
METAR USRR 080700Z 36004G07MPS 6000 OVC009 12/10 Q1003 TEMPO BKN005
RMK QFE747  25////60=
METAR USSS 080700Z 36006G09MPS 320V020 CAVOK 23/02 Q1015 NOSIG RMK
QFE741 260///70=
####018000962####
SARS35 RUMS 080700
METAR USPP 080700Z 35002MPS 280V360 CAVOK 26/09 Q1016 NOSIG RMK
QFE751/1002 21090060=
METAR UWKD 080700Z 36003G06MPS CAVOK 31/13 Q1015 NOSIG RMK
QFE752/1002 11CLRD70=
METAR UWKE 080700Z 00000MPS CAVOK 28/10 Q1016 NOSIG RMK QFE745/0994
22090070=
METAR UWKS 080700Z 01002MPS 300V080 CAVOK 31/12 Q1016 NOSIG RMK
QFE748 SC0.60=
METAR UWLL 080700Z 10002MPS CAVOK 29/09 Q1016 NOSIG RMK QFE749/0999
SC065=
METAR COR UWLW 080700Z 11002MPS 8000 SKC 31/13 Q1015 NOSIG 02CLRD60
RMK QFE755=
METAR UWOR 080700Z 05008MPS CAVOK 26/05 Q1015 07CLRD65 NOSIG RMK
QFE736/0981=
METAR UWOO 080700Z 06006MPS 030V090 P5000 SCT070 30/04 Q1013 08LRD65
NOSIG RMK QFE749/0999=
METAR UWPP 080700Z 12004MPS 9999 SCT033CB BKN100 26/11 Q1014 NOSIG
RMK QFE746 11090069=
METAR UWSS 080700Z 06003MPS CAVOK 26/12 Q1015 NOSIG RMK QFE749
120///60=
METAR UWWW 080700Z 06006MPS CAVOK 29/08 Q1016 NOSIG RMK QFE749/0998
05CLRD60 15//99//=
####018000386####
SARS33 RUMS 080700
METAR ULLI 080700Z 13003MPS 090V170 CAVOK 27/19 Q1013 NOSIG=
METAR UUDD 080700Z 13003MPS 100V160 CAVOK 23/18 Q1015 NOSIG=
METAR UUEE 080700Z 12005MPS CAVOK 26/17 Q1014 NOSIG=
METAR UUEM 080700Z NIL=
METAR UUWW 080700Z 13003MPS 8000 SCT100 BKN200 22/18 Q1014 06000070
NOSIG=
METAR UUMO 080700Z VRB02MPS CAVOK 22/17 Q1015 NOSIG RMK QFE746/0995
SC060=
####018000896####
SARS31 RUMS 080700
METAR ULAA 080700Z 29004MPS 250V330 CAVOK 26/19 Q1014 NOSIG RMK
QFE759/1012 SC070=
METAR ULKK 080700Z VRB01MPS 6000 FEW099 30/19 Q1015 NOSIG RMK QFE757=
METAR ULMM 080700Z 32003MPS 9999 BKN012CB 12/09 Q1016 NOSIG RMK
QFE755 32190060=
METAR ULOL 080700Z NIL=
METAR ULOO 080700Z VRB01MPS P6000 FEW033 SCT200 26/19 Q1012 NOSIG RMK
QFE755=
METAR ULWW 080700Z 12004MPS CAVOK 29/19 Q1016 NOSIG RMK QFE751
15CLRD60=
METAR UMKK 080700Z 30006MPS P8000 BKN200 21/17 Q1019 NOSIG RMK QFE
763 SC07=
METAR UUBP 080700Z 00000MPS 9999 FEW033 SCT/// 23/19 Q1012 NOSIG=
METAR UUOB 080700Z VRB02MPS 9999 SCT040 BKN200 25/17 Q1014 NOSIG RMK
SC065=
METAR UUOK 080700Z 20003MPS 9999 BKN026 25/18 Q1012 NOSIG=
METAR UUOO 080700Z VRB02MPS 9999 FEW033 25/16 Q1014 NOSIG RMK
13090070=
METAR UWGG 080700Z 12004MPS 8000 SKC 31/10 Q1016 NOSIG RMK QFE755
18090070=
####018000409####
SARA33 RUMS 080700
METAR UIAA 080700Z VRB02MPS 9999 BKN050CB OVC200 31/10 Q1005 TEMPO
-TSRA RMK QFE695 29CLRD70=
METAR UIBB 080700Z 06004MPS 9999 FEW033 BKN200 28/13 Q1006 NOSIG RMK
QFE712/0949 30CLRD60=
METAR UIII 080700Z 16005MPS 9999 FEW050CB SCT100 OVC200 21/12 Q1006
NOSIG RMK QFE712/0950 12CLRD60=
METAR UIUU 080700Z 21006G11MPS 9999 SCT040CB OVC100 25/12 Q1007 NOSIG
RMK QFE711/0948=
####018000682####
SARA32 RUMS 080700
METAR UHHH 080700Z 03007MPS 9999 BKN029CB OVC100 18/13 Q1010 NOSIG
RMK QFE751/1001 55090060=
METAR UHMA 080700Z NIL=
METAR UHMM 080700Z 25002MPS 9999 OVC026 14/12 Q1016 NOSIG RMK QFE747
88010070 MT OBSC=
METAR UHMP 080700Z NIL=
METAR UHNN 080700Z 08001MPS 9999 -SHRA BKN010CB OVC070 13/12 Q1012
NOSIG RMK QBB310 QFE754 110///60=
METAR UHPP 080700Z 18007MPS 9999 NSC 11/07 Q1017 NOSIG RMK
QFE759/1012 MT OBS SC070=
METAR UHSH 080700Z NIL=
METAR UHSS 080700Z 16003MPS 9999 BKN023CB 15/12 Q1010 NOSIG RMK MT
OBSC QFE756/1008 19CLRD70=
METAR UHWW 080700Z 24006MPS 210V270 9999 BKN021 OVC070 21/16 Q1009
NOSIG RMK QFE756/1008 75CLRD70=
####018001588####
SAIY42 LIIB 080700
METAR LIBF 080650Z 33009KT CAVOK 24/12 Q1020 RMK VIS MIN 9999=
METAR LIEA 080650Z 36006KT 330V050 CAVOK 25/22 Q1019 RMK VIS MIN
9999=
METAR LIED 080655Z 32006KT CAVOK 24/21 Q1017 RMK SKC VIS MIN 9999
      BLU=
METAR LIEO 080650Z VRB02KT CAVOK 26/22 Q1019 RMK VIS MIN 9999=
METAR LIMA 080650Z 04003KT 9999 SCT040 23/16 Q1022 RMK VIS MIN 9999=
METAR LIQN 080700Z NIL=
METAR LIQO 080655Z 36015KT CAVOK 22/13 Q1020 RMK SKC VAL NIL NC VIS
      MIN 9999=
METAR LIQW 080700Z NIL=
METAR COR LIRE 080655Z 18006KT 9999 FEW015TCU SCT018 26/23 Q1018 RERA
      RMK BKN VIS MIN 9999 WIND THR31 17006KT BLU=
METAR LIRG 080655Z 28002KT 9999 FEW040 26/18 Q1019 RMK SCT MON NE
     LIB NC VIS MIN 9999 BLU=
METAR LIRH 080655Z 23001KT 9999 FEW035 24/16 Q1019 RMK SCT MON LIB NC
      VIS MIN 9999 WIND THR16 17001KT BLU=
METAR LIRI 080650Z 05006KT CAVOK 26/11 Q1019 RMK VIS MIN 9999=
METAR LIRK 080655Z 12004KT CAVOK 15/10 Q1025 RMK SKC MON NE LIB NC
      VAL NIL NC VIS MIN 9999=
METAR LIRL 080655Z 29005KT 9999 FEW015 SCT030 26/21 Q1018 RMK SCT MON
      LIB NC VIS MIN 9999 BLU=
METAR LIRM 080655Z 06011KT CAVOK 25/17 Q1019 RMK SKC VIS MIN 9999
      WIND THR06 05012KT BLU=
METAR LIRS 080655Z 06007KT CAVOK 27/10 Q1019 RMK FEW FEW200 VIS MIN
      9999 WIND THR21 /////KT BLU=
METAR LIRT 080655Z 04004KT CAVOK 16/08 Q1022 RMK SKC MON LIB VAL NIL
      VIS MIN 9999=
METAR LIRU 080700Z NIL=
METAR LIRV 080655Z 05009KT CAVOK 23/14 Q1020 RMK FEW FEW200 MON E SE
      LIB NC VIS MIN 9999 BLU=
METAR LIRX 080700Z NIL=
####018000881####
SARA34 RUMS 080700
METAR UNAA 080700Z 19003MPS 150V220 9999 SCT030CB BKN100 22/13 Q1008
NOSIG RMK QFE734 201///65=
METAR UNBB 080700Z 21008MPS 9999 VCTS SCT033CB SCT100 20/04 Q1008
NOSIG RMK QFE734=
METAR UNEE 080700Z 26006G11MPS 9999 SCT026 BKN200 18/15 Q1008 NOSIG
RMK QFE733 23CLRD60=
METAR UNKL 080700Z VRB01MPS 9999 BKN017CB OVC083 17/15 Q1009 NOSIG
RMK QFE731 29////55=
METAR UNNT 080700Z 25006G13MPS 200V280 9999 -SHRA BKN050CB OVC100
17/06 Q1007 NOSIG RMK QFE745/0994 25090070=
METAR UNOO 080700Z 29006G09MPS 9999 BKN023CB 13/09 Q1007 NOSIG
25CLRD06 RMK QFE747=
METAR UNWW 080700Z 31004MPS 9999 BKN026CB OVC130 18/09 Q1009 NOSIG
RMK QFE730 19CLRD70=
METAR USTR 080700Z 32009G12MPS 9999 NSC 19/05 Q1011 NOSIG RMK
QFE749/0998 30CLRD65=
METAR USHH 080700Z 32002G07MPS 250V060 9000 -SHRA BKN021CB OVC080
11/09 Q1008 NOSIG RMK QFE752 SC06=
####018001514####
SAIY40 LIIB 080700
METAR LIMG 080650Z 00000KT 9999 BKN080 25/20 Q1020 RMK VIS MIN 9999=
METAR LIMK 080655Z 02007KT 9999 FEW020 SCT030 18/14 Q1022 RMK BKN VAL
NIL VIS MIN 9999=
METAR LIMN 080655Z /////KT 9999 SCT050 24/16 Q1021 RMK SCT VIS MIN
9999 BLU=
METAR LIMP 080650Z 06005KT 6000 NSC 22/17 Q1022 RMK VIS MIN 6000=
METAR LIMS 080655Z 11006KT 050V130 CAVOK 23/19 Q1021 RMK FEW FEW200
VIS MIN 9999 WIND THR30 10005KT BLU=
METAR LIMZ 080700Z NIL=
METAR LIPA 080655Z 21002KT 9999 BKN045 SCT070 21/16 Q1022 RMK BKN VIS
MIN 9999 A3019 BLU=
METAR LIPB 080650Z 25002KT 9999 BKN070 24/11 Q1022 RMK MON LIB VIS
MIN 9999=
METAR LIPC 080655Z 16009KT CAVOK 24/14 Q1021 RMK FEW FEW200 VIS MIN
9999 WIND THR12 13008KT BLU=
METAR LIPF 080655Z 36002KT CAVOK 23/19 Q1021 RMK FEW FEW250 VIS MIN
9999=
METAR LIPH 080645Z 03002KT 9999 SCT020 BKN045 22/18 Q1023 RMK OVC VIS
MIN 9999 WIND THR07 /////KT BLU=
METAR LIPI 080655Z 07004KT 9999 FEW030 BKN060 23/19 Q1022 RMK BKN
VIS MIN 9999 WIND THR06 08004KT BLU=
METAR LIPL 080655Z 09007KT 050V130 9999 FEW045 SCT063 23/19 Q1022 RMK
BKN VIS MIN 9999 BLU=
METAR LIPO 080650Z 09008KT 9999 FEW045 BKN065 24/15 Q1021 RMK VIS
MIN 9999=
METAR LIPQ 080650Z VRB01KT 9999 BKN050 21/15 Q1022=
METAR LIPR 080645Z 12006KT CAVOK 25/18 Q1021 RMK SKC VIS MIN 9999
WIND THR31 14007KT BLU=
METAR LIPS 080655Z 05004KT 9999 BKN040 21/15 Q1022 RMK BKN VIS MIN
9999 BLU=
METAR LIPX 080645Z 06009KT 9999 SCT060 BKN080 25/15 Q1021 RMK BKN VIS=
####018000963####
SARS35 RUMS 080700
METAR USPP 080700Z 35002MPS 280V360 CAVOK 26/09 Q1016 NOSIG RMK
QFE751/1002 21090060=
METAR UWKD 080700Z 36003G06MPS CAVOK 31/13 Q1015 NOSIG RMK
QFE752/1002 11CLRD70=
METAR UWKE 080700Z 00000MPS CAVOK 28/10 Q1016 NOSIG RMK QFE745/0994
22090070=
METAR UWKS 080700Z 01002MPS 300V080 CAVOK 31/12 Q1016 NOSIG RMK
QFE748 SC0.60=
METAR UWLL 080700Z 10002MPS CAVOK 29/09 Q1016 NOSIG RMK QFE749/0999
SC065=
METAR COR UWLW 080700Z 11002MPS 8000 SKC 31/13 Q1015 NOSIG 02CLRD60
RMK QFE755=
METAR UWOR 080700Z 05008MPS CAVOK 26/05 Q1015 07CLRD65 NOSIG RMK
QFE736/0981=
METAR UWOO 080700Z 06006MPS 030V090 P5000 SCT070 30/04 Q1013 08LRD65
NOSIG RMK QFE749/0999=
METAR UWPP 080700Z 12004MPS 9999 SCT033CB BKN100 26/11 Q1014 NOSIG
RMK QFE746 11090069=
METAR UWSS 080700Z 06003MPS CAVOK 26/12 Q1015 NOSIG RMK QFE749
120///60=
METAR UWWW 080700Z 06006MPS CAVOK 29/08 Q1016 NOSIG RMK QFE749/0998
05CLRD60 15//99//=
####018001597####
SAIY40 LIIB 080700
METAR LIMG 080650Z 00000KT 9999 BKN080 25/20 Q1020 RMK VIS MIN 9999=
METAR LIMK 080655Z 02007KT 9999 FEW020 SCT030 18/14 Q1022 RMK BKN VAL
      NIL VIS MIN 9999=
METAR LIMN 080655Z /////KT 9999 SCT050 24/16 Q1021 RMK SCT VIS MIN
      9999 BLU=
METAR LIMP 080650Z 06005KT 6000 NSC 22/17 Q1022 RMK VIS MIN 6000=
METAR LIMS 080655Z 11006KT 050V130 CAVOK 23/19 Q1021 RMK FEW FEW200
      VIS MIN 9999 WIND THR30 10005KT BLU=
METAR LIMZ 080700Z NIL=
METAR LIPA 080655Z 21002KT 9999 BKN045 SCT070 21/16 Q1022 RMK BKN VIS
      MIN 9999 A3019 BLU=
METAR LIPB 080650Z 25002KT 9999 BKN070 24/11 Q1022 RMK MON LIB VIS
MIN 9999=
METAR LIPC 080655Z 16009KT CAVOK 24/14 Q1021 RMK FEW FEW200 VIS MIN
      9999 WIND THR12 13008KT BLU=
METAR LIPF 080655Z 36002KT CAVOK 23/19 Q1021 RMK FEW FEW250 VIS MIN
      9999=
METAR LIPH 080645Z 03002KT 9999 SCT020 BKN045 22/18 Q1023 RMK OVC VIS
      MIN 9999 WIND THR07 /////KT BLU=
METAR LIPI 080655Z 07004KT 9999 FEW030 BKN060 23/19 Q1022 RMK BKN
     VIS MIN 9999 WIND THR06 08004KT BLU=
METAR LIPL 080655Z 09007KT 050V130 9999 FEW045 SCT063 23/19 Q1022 RMK
      BKN VIS MIN 9999 BLU=
METAR LIPO 080650Z 09008KT 9999 FEW045 BKN065 24/15 Q1021 RMK VIS
MIN 9999=
METAR LIPQ 080650Z VRB01KT 9999 BKN050 21/15 Q1022=
METAR LIPR 080645Z 12006KT CAVOK 25/18 Q1021 RMK SKC VIS MIN 9999
      WIND THR31 14007KT BLU=
METAR LIPS 080655Z 05004KT 9999 BKN040 21/15 Q1022 RMK BKN VIS MIN
      9999 BLU=
METAR LIPX 080645Z 06009KT 9999 SCT060 BKN080 25/15 Q1021 RMK BKN VIS
//END PART 01//=
####018000428####
SARA35 RUMS 080700
METAR ULDD 080700Z 08009MPS CAVOK 07/03 Q1019 NOSIG RMK QFE764=
METAR UOHH 080700Z 00000MPS 9999 FEW030 11/04 Q1023 NOSIG RMK QFE761
06090060=
METAR UOII 080700Z 10005MPS 9999 FEW040 BKN200 28/16 Q1005 NOSIG RMK
QFE751 30////60=
METAR UOOO 080700Z 03007G09MPS CAVOK 21/09 Q1010 NOSIG RMK QFE743
010///60=
METAR USCM 080700Z 05003MPS 010V120 9999 SKC 23/02 Q1016 NOSIG
01090065 RMK QFE723=
####018000565####
SARA31 RUMS 080700
METAR UEEE 080700Z 34002MPS 9999 SCT050CB BKN200 25/08 Q1008 TEMPO
VRB14MPS -TSRA RMK QFE747 2309//60=
METAR UELL 080700Z 18002MPS 9999 SCT026CB BKN200 19/14 Q1010 TEMPO TS
RMK QFE683 08CLRD70=
METAR UERP 080700Z 03005MPS 9999 SCT038 BKN046 15/08 Q1014 NOSIG RMK
QFE716 35090065=
METAR UERR 080700Z 31005MPS 9999 SCT013 OVC023CB 14/14 Q1011 NOSIG
RMK QFE727 24290255=
METAR UESO 080700Z 26009G13MPS 9999 OVC008 07/05 Q1003 NOSIG RMK
QFE750 SC060=
METAR UEST 080700Z 11004MPS CAVOK 10/01 Q1016 NOSIG RMK QFE761
21000060=
####018000264####
SARS34 RUMS 080700
METAR UUYH 080700Z 22002MPS CAVOK 23/07 Q1018 NOSIG RMK QFE 751
18CLRD60=
METAR UUYS 080700Z 16002MPS CAVOK 19/07 Q1017 NOSIG RMK QFE756
14CLRD60=
METAR UUYY 080700Z VRB02MPS 9999 FEW023 29/17 Q1016 NOSIG 19CLRD61
RMK QFE753/1004=
####018000121####
SPJP31 KWBC 080710
SPECI
RODN 080704Z AUTO 19016KT 9999 BKN021 30/26 A2982 RMK AO2 CIG
020V026 BKN V SCT SLP096=
####018000097####
SPJP31 KWBC 080710
SPECI
RODN 080707Z AUTO 19015KT 9999 SCT021 30/26 A2982 RMK AO2 SLP096=
####018000155####
SPJP44 KWBC 080710
SPECI
RJSM 080701Z 11009KT 8000 FEW002 SCT003 BKN005 20/18 Q1008 RMK
2ST002 3ST003 5ST005 A2979 WIND BY EQPT/10 VIS NE-E 3500M=
####018000102####
SPNT31 KWBC 080710
SPECI
BGTL 080705Z AUTO 00000KT 0800 FG OVC002 05/05 A2985 RMK AO2
SLP111=
####018000273####
SAEE31 KWBC 080700 RRB
METAR
UMII 080700Z 17003MPS P6000 BKN007CB 18/16 Q1012 R23/CLRD//
     NOSIG=
UMMM 080700Z 29005MPS 9999 OVC012 17/15 Q1013 R30290050 NOSIG RMK
     QFE741=
UMMS 080700Z 30003MPS 270V330 9999 OVC009 18/16 Q1013 R31/CLRD//
     NOSIG=
####018000102####
SPNT31 KWBC 080710
SPECI
BGTL 080703Z AUTO 00000KT 1200 BR OVC002 05/05 A2985 RMK AO2
SLP112=
####018000075####
SAFR41 KWBC 080700 RRA
METAR
LFOE 080700Z VRB01KT CAVOK 21/11 Q1019=
####018000107####
SAIY43 KWBC 080550 RRE
METAR
LIPX 080645Z 06009KT 9999 SCT060 BKN080 25/15 Q1021 RMK BKN
     VIS=
####018000107####
SAIY32 KWBC 080550 RRE
METAR
LIPX 080645Z 06009KT 9999 SCT060 BKN080 25/15 Q1021 RMK BKN
     VIS=
####018000159####
SAIY43 KWBC 080650 RRB
METAR
LIQC 080655Z 23003KT 9999 SCT030 25/16 Q1019 RMK SCT QUK 2 QUL 1
     NW VIS MAR 12 KM VIS MIN 9999=
LIVP 080655Z VRB0=
####018000130####
SPXX61 KWBC 080710
SPECI
EGUL 080708Z AUTO 22009KT 9999 -DZ BKN027 OVC033 17/16 A3005 RMK
AO2 DZB0708 CIG 021V030 SLP178=
####018000113####
SPXX61 KWBC 080710
SPECI
EGUN 080705Z AUTO 24007KT 9999 FEW007 BKN016 OVC023 17/17 A3006
RMK AO2 SLP169=
####018000155####
SPXX62 KWBC 080710
SPECI
RJSM 080701Z 11009KT 8000 FEW002 SCT003 BKN005 20/18 Q1008 RMK
2ST002 3ST003 5ST005 A2979 WIND BY EQPT/10 VIS NE-E 3500M=
####018000097####
SPXX62 KWBC 080710
SPECI
RODN 080707Z AUTO 19015KT 9999 SCT021 30/26 A2982 RMK AO2 SLP096=
####018000121####
SPXX62 KWBC 080710
SPECI
RODN 080704Z AUTO 19016KT 9999 BKN021 30/26 A2982 RMK AO2 CIG
020V026 BKN V SCT SLP096=
####018000296####
SANZ31 KWBC 080700
METAR
NZAA 080700Z 20007KT 9999 FEW023 10/08 Q1008 NOSIG=
NZCH 080700Z 22014KT 190V250 9999 SHRA FEW014 SCT035 BKN060 06/04
     Q1015 TEMPO 6000 SHRA=
NZOH NIL=
NZWN 080700Z 19032G44KT 9999 -RADZ FEW015 SCT023 BKN033 10/05
     Q1010 WS R16 NOSIG=
NZWP NIL=
####018000479####
SARA31 KWBC 080700 RRB
METAR
UMBB 080700Z 29004MPS 8000 NSC 18/13 Q1018 R29/CLRD// NOSIG=
UMGG 080700Z VRB01MPS 9999 SCT013 BKN100 22/19 Q1013 R10/190055
     NOSIG=
UMII 080700Z 17003MPS P6000 BKN007CB 18/16 Q1012 R23/CLRD//
     NOSIG=
UMMG 080700Z 30004G07MPS CAVOK 19/13 Q1015 R17/CLRD// NOSIG=
UMMM 080700Z 29005MPS 9999 OVC012 17/15 Q1013 R30290050 NOSIG RMK
     QFE741=
UMMS 080700Z 30003MPS 270V330 9999 OVC009 18/16 Q1013 R31/CLRD//
     NOSIG=
####018000392####
SAPR41 KWBC 080700
METAR
SPCL NIL=
SPEC NIL=
SPEI NIL=
SPEO NIL=
SPGM NIL=
SPHI 080700Z 17009KT CAVOK 15/14 Q1014 RMK PP000=
SPHO NIL=
SPHY NIL=
SPJA NIL=
SPJI NIL=
SPJL NIL=
SPJN NIL=
SPJR NIL=
SPME NIL=
SPMS NIL=
SPNC NIL=
SPPY NIL=
SPRU 080700Z 16009KT 6000 OVC016 16/13 Q1013 RMK BIRD HAZARD RWY20
     PP000=
SPST NIL=
SPTU NIL=
SPUR NIL=
####018000067####
SAAG SAME 080700
METAR SAME 080700Z 00000KT CAVOK 03/M03 Q1015=
####018000984####
SAAG05 SABM 080700
METAR SAAR 080700Z  00000KT CAVOK 02/M01 Q1020=
METAR SABE 080700Z NIL=
METAR SACO 080700Z  36011KT CAVOK 07/M01 Q1020=
METAR SADF 080700Z NIL=
METAR SAEZ 080700Z 29005KT CAVOK 04/00 Q1019=
METAR SAME 080700Z NIL=
METAR SANT 080700Z  36010KT 9999  10/05 Q1020=
METAR SAOC 080700Z  36014KT 9999  04/M06 Q1017=
METAR SARC 080700Z  18006KT 9999  10/09 Q1019=
METAR SARE 080700Z  16004KT 9999 09/09 Q1019=
METAR SARF 080700Z  20011KT 9999  OVC007  14/13
Q1017=
METAR SARI 080700Z  00000KT CAVOK 16/15 Q1018=
METAR SARL 080700Z NIL=
METAR SARP 080700Z NIL=
METAR SASA 080700Z 36006KT 9999 SCT025 OVC100 12/08 Q 1022=
METAR SASJ 080700Z NIL=
METAR SAVC 080700Z NIL=
METAR SAWE 080700Z NIL=
METAR SAWG 080700Z  29008KT 9999  SCT020 OVC070
M02/M03 Q0990=
METAR SAWH 080700Z  25003KT 9999  SCT035 BKN100
02/M01 Q0986=
METAR SAZM 080700Z NIL=
METAR SAZN 080700Z 25003KT CAVOK 05/01 Q1011=
METAR SAZS 080700Z  32017KT 8000 DZ BKN012  03/02
Q1006=
####018000095####
SAUK41 KWBC 080650 CCA
METAR
EGDM 080650Z 30006KT 6000 BR FEW005 BKN012 15/14 Q1019 GRN=
####018002667####
SAXX99 KWBC 080700 RRK
METAR
CWBU 080700Z AUTO 27005KT 10/08 RMK AO1 SLP177 T00990084 51003=
DAAD 080700Z 00000KT CAVOK 29/12 Q1022=
DAAE 080700Z 24008KT CAVOK 24/17 Q1018=
DAAJ 080700Z NIL=
DAAP 080700Z NIL=
DAAS 080700Z 14002KT CAVOK 23/14 Q1025=
DAAV 080700Z 00000KT CAVOK 23/17 Q1018=
DAAY 080700Z 00000KT 9999 FEW033 26/13 Q1025=
DABT 080700Z 04004KT CAVOK 20/10 Q1023=
DAFH 080700Z 13008KT CAVOK 29/17 Q1022=
DAOB 080700Z 00000KT CAVOK 25/11 Q1022=
DAOF 080700Z 10008KT 3500 HZ NSC 32/07 Q1011=
DAOL 080700Z NIL=
DAOR 080700Z 09006KT CAVOK 30/05 Q1022=
DAOV 080700Z 11006KT CAVOK 28/14 Q1019=
DATG 080700Z NIL=
DATM 080700Z NIL=
DAUB 080700Z 12012KT CAVOK 30/16 Q1017=
DAUE 080700Z 06008KT CAVOK 30/12 Q1019=
DAUI 080700Z NIL=
DAUK 080700Z 14006KT CAVOK 28/18 Q1017=
DAUL 080700Z 00000KT CAVOK 28/14 Q1023=
DAUO 080700Z 10011KT CAVOK 28/16 Q1018=
DAUT 080700Z ///10KT 8000 NSC 29/09 Q1015=
DAUU 080700Z 12012KT CAVOK 31/17 Q1017=
OYAG 080700Z 12010KT 9999 SCT020 BKN070 29/25 Q1004=
OYAM 080700Z NIL=
OYAT 080700Z 14010KT 9000 NSC 33/15 Q1002=
OYDM 080700Z 02012KT CAVOK 28/03 Q////=
OYIB 080700Z 00000KT 5000 DU NSC 28/15 Q1017=
OYRN 080700Z 11006KT 7000 NSC 30/23 Q1003=
OYSH 080700Z 36010KT 4000 DU NSC 31/00 Q////=
OYSQ 080700Z NIL=
OYSY 080700Z VRB04KT 8000 NSC 38/11 Q1005=
SAWH 080700Z 25003KT 9999 SCT035 BKN100 02/M01 Q0986=
UMOO 080700Z 30002MPS 8000 BKN006 OVC/// 19/18 Q1012 R31/290056
     NOSIG RMK QBB180=
VTBO 080700Z NIL=
VTCH 080700Z NIL=
VTCL 080700Z NIL=
VTCN 080700Z 36009KT 9999 VCTS SCT020CB SCT025 28/23 Q1006 CB W
     RMK/RWY 02 INFO C=
VTCP 080700Z NIL=
VTCT 080700Z NIL=
VTPB 080700Z NIL=
VTPH 080700Z NIL=
VTPM 080700Z NIL=
VTPO 080700Z 24004KT 9999 SCT022 35/25 Q1006=
VTPP 080700Z NIL=
VTPT 080700Z NIL=
VTSB 080700Z NIL=
VTSC 080700Z NIL=
VTSE 080700Z NIL=
VTSF 080700Z 07008KT 080V120 9999 FEW018 33/23 Q1009 A2979=
VTSG 080700Z 20009KT 170V230 9999 SCT020 SCT300 32/25 Q1009 A2981
     RWY32 INFO H=
VTSK 080700Z NIL=
VTSM 080700Z 32013KT 9999 FEW020 SCT300 33/25 Q1010 A2983=
VTSR 080700Z NIL=
VTST 080700Z 21006KT 9999 SCT018 33/24 Q1008 RWY08 INFO E=
VTUD 080700Z 24005KT 160V300 9999 FEW030 SCT045 36/21 Q1006 A2973
     INFO I RWY30=
VTUI 080700Z NIL=
VTUJ 080700Z NIL=
VTUK 080700Z VRB02KT 9999 SCT022 35/22 Q1006 A2972 RWY21 INFO
     I=
VTUL 080700Z NIL=
VTUO 080700Z 17004KT 9999 FEW014 35/24 Q1006 A2973 INFO H RWY
     22=
VTUQ 080700Z NIL=
VTUU 080700Z NIL=
VTUV 080700Z NIL=
VTUW 080700Z 32008KT 9999 FEW022CB SCT025 BKN300 32/23 Q1007 A2974
     CB SW W RWY33=
####018000581####
SAZA31 KWBC 080700
METAR
FABB NIL=
FABE NIL=
FABL 080700Z 04010KT CAVOK 10/06 Q1034 NOSIG=
FABM NIL=
FACT 080700Z 07005KT CAVOK 07/04 Q1021 NOSIG=
FADN NIL=
FAEL 080700Z 02011KT CAVOK 15/10 Q1029=
FAGG 080700Z 32004KT 290V350 CAVOK 09/05 Q1024=
FAGM NIL=
FAJS 080700Z 09009KT 2700 BR BKN002 07/07 Q1037 BECMG 3000
     BKN008=
FAKT NIL=
FALW NIL=
FALZ NIL=
FAPB NIL=
FAPE 080700Z 02005KT CAVOK 11/10 Q1027 NOSIG=
FAPR NIL=
FASB NIL=
FAUP 080700Z 01014KT CAVOK 18/02 Q1028 NOSIG=
FAWH NIL=
FAWK 080700Z 14010KT 4000 BR NSC 10/// Q1038=
####018000117####
SPUS41 KWBC 080710
SPECI
KWRI 080705Z AUTO 13003KT 2 1/2SM R18/5000V5500FT R24/2800FT BR
OVC002 24/24 A2999=
####018000085####
SAIR33 OIII 080700 RRA
METAR OIBL 080650Z 11019KT 4000 SA SKC 36/27 Q1000 A2955=
####018000082####
SPUS52 KWBC 080710
SPECI
KGAG 080706Z AUTO 02008KT 10SM BKN028 22/19 A3013=
####018000073####
SAUS81 KWBC 080708
&EHA SA 0708  AMOS 62/59/2906/M PK WND 12 008

####018000905####
SAHK31 VHHH 080700
METAR VHHH 080700Z 24014KT 9999 FEW020 SCT030 34/24 Q1007 NOSIG=
METAR RCTP 080700Z 24019KT 9999 FEW025 SCT150 33/25 Q1006
NOSIG=
METAR RCKH 080700Z 25012KT 210V290 9999 FEW013 BKN200 32/26
Q1008 NOSIG RMK 28013KT/RWY09=
METAR RCSS 080700Z 31010KT 280V350 9999 FEW020 SCT030 BKN080 34/24
Q1006 NOSIG RMK 32009KT/R10=
METAR VMMC 080700Z 19013KT 180V260 9999 FEW015 SCT025 BKN090
     31/27 Q1006 NOSIG=
METAR RPLL 080700Z 11007KT 9999 FEW023CB FEW025 BKN300 33/25 Q1008
           NOSIG RMK CB NNE, SE A2977=
METAR RPVM 080700Z 06006KT 9999 FEW020 SCT100 BKN250 32/28 Q1008
           A2977=
METAR RPMD 080700Z
18006 9999 FEW015CB SCT290 31/27 1008 CB NE SW=
METAR RPLB 080700Z NIL=
METAR RPLI 080700Z
27010KT 9999 OCCSNL TS SCT019CB 34/29 Q1008 RETS=
METAR RPMZ 080700Z 09004KT 9999 SCT018CB SCT120 BKN350 34/27 Q1010
           CB NW, TSTM S=
