####018000057####
SAXX99 KWBC 080800 RRX
METAR
K8S0 080755Z 27007KT=
####018000097####
SPUS52 KWBC 080900
SPECI
KGDP 080858Z AUTO 05018KT 1/4SM -RA FG SCT002 OVC006 17/17 A3022=
####018000095####
SAAH39 OAHR 080855
METAR OAHR 080855Z 35014KT CAVOK 39/M03 Q1011 RMK SKC VIS MIN 9999 BLU=
####018001513####
SANA14 KAWN 080900 RRB
METAR KNFL 080856Z AUTO 36004KT 10SM CLR 19/M01 A2997 RMK AO2 SLP121
      T01891006 53006 TSNO=
METAR KNGP 080856Z AUTO 11011KT 10SM FEW018 BKN050 28/26 A2980 RMK
      AO2 TSB18E34RAB37E49 SLP092 P0001 60001 T02830261 56016 $=
METAR KNID 080856Z AUTO 13005KT FEW090 25/06 A2983 RMK AO2 SLP077 T02500056
      53004 TSNO $=
METAR KNKX 080855Z 34006KT 10SM OVC014 16/13 A2990 RMK AO2 SLP119 T01610133
      58007=
METAR KNMM 080856Z AUTO 00000KT 10SM CLR 23/21 A3004 RMK AO2 SLP177
      T02280211 56005 $=
METAR KNQI 080856Z AUTO 01006KT 9SM FEW110 27/25 A2982 RMK AO2 TSB16E38
      SLP094 T02720250 56014 $=
METAR KNYG 080856Z AUTO 31003KT CLR 26/22 A2998 RMK AO2 SLP153 T02560222
      55001=
METAR KNYL 080855Z 16004KT 10SM CLR 28/02 A2971 RMK AO2 SLP056 T02830022
      53000=
METAR KPOE 080855Z AUTO 11006KT 10SM CLR 24/22 A3000 RMK AO2 SLP158
      T02440222 55000=
METAR KPSM 080855Z 14006KT 2 1/2SM BR OVC005 22/21 A3005 RMK AO2A SLP179
      T02150207 53003=
METAR KSGH 080856Z AUTO 00000KT 4SM BR CLR 21/21 A3010 RMK AO2 56005
      T02050205 SLP181=
METAR KSZL 080855Z COR 33003KT 10SM SCT040 BKN049 23/23 A3004 RMK A02A
      SLP164 P0000 6//// T02340226 56004 COR 0859=
METAR KVBG 080855Z AUTO 00000KT 10SM CLR 12/11 A2993 RMK AO2 CIG 006
      RWY12 SLP125 T01220111 57003 TSNO $=
METAR KVPS 080855Z 32001KT 10SM SKC 24/23 A3002 RMK AO2A SLP165 T02380233
      56008=
METAR SBBR 080900Z 26002KT CAVOK 14/09 Q1022=
####018001582####
SAZZ40 KAWN 080900 RRJ
METAR KDMA 080855Z AUTO 05008KT 10SM BKN150 31/09 A2986 RMK AO2 SLP034
      T03050091 55001 $=
METAR KFAF 080855Z VRB03KT 9SM SCT080 BKN110 26/26 A2995 RMK AO2A RAE0805
      SLP145 P0000 60000 T02590259 55000=
METAR KFFO 080855Z 00000KT 8SM CLR 21/20 A3007 RMK AO2A SLP177 55004=
METAR KHOP 080855Z AUTO 00000KT 10SM FEW075 23/22 A3006 RMK AO2 SLP176
      T02310223 55004=
METAR KNFL 080856Z AUTO 36004KT 10SM CLR 19/M01 A2997 RMK AO2 SLP121
      T01891006 53006 TSNO=
METAR KNID 080856Z AUTO 13005KT FEW090 25/06 A2983 RMK AO2 SLP077 T02500056
      53004 TSNO $=
METAR KNJK 080856Z AUTO 09003KT 10SM CLR 23/11 A2968 RMK AO2 SLP066
      T02330106 53004 TSNO=
METAR KNMM 080856Z AUTO 00000KT 10SM CLR 23/21 A3004 RMK AO2 SLP177
      T02280211 56005 $=
METAR KNRS 080856Z AUTO 30007KT 10SM OVC014 17/13 A2990 RMK AO2 SLP125
      T01720133 58007 TSNO $=
METAR KNUW 080856Z 30003KT 10SM CLR 16/11 A2996 RMK AO2 SLP150 T01560111
      51007 $=
METAR KSZL 080855Z COR 33003KT 10SM SCT040 BKN049 23/23 A3004 RMK A02A
      SLP164 P0000 6//// T02340226 56004 COR 0859=
METAR NFFN 080900Z 12006KT 40KM FEW030 SCT050 22/20 Q1014 NOSIG RMK
      RR NIL=
METAR OAUZ 080850Z 34007KT 9999 SKC 41/05 Q1008 BLU/=
METAR ORER 080900Z 17004KT 8000 SKC 41/01 Q1005=
METAR ORSU 080900Z VRB03KT 8000 SKC 40/M02 Q1010=
METAR PASY 080856Z AUTO 02016KT 10SM OVC006 A2974 RMK AO2 SLPNO 6////
      52007 TSNO PNO=
METAR PHBK 080856Z AUTO 00000KT 10SM OVC075 26/18 A3003 RMK AO2 SLP172
      T02560178 51012 TSNO $=
####018000096####
SPUS72 KWBC 080900
SPECI
KTCC 080857Z AUTO 01007KT 10SM BKN011 BKN016 OVC120 18/16 A3022=
####018000461####
SAUK37 EGGY 080850
METAR EGAE 080850Z 22013KT 9999 FEW018 SCT040 15/10 Q1012=
METAR EGNC 080850Z NIL=
METAR EGNH 080850Z 23013KT 9999 SCT018 17/12 Q1016=
METAR EGNJ 080850Z 22009KT 9999 -RA FEW025 17/12 Q1017=
METAR EGNR 080850Z 24011KT 9999 FEW020 18/11 Q1017=
METAR COR EGPE 080850Z 21014KT 9999 FEW006 SCT036 16/10 Q1008=
METAR EGPI 080850Z 21017KT 9999 FEW020 SCT040 15/11 Q1012=
METAR EGPN 080850Z 24017KT 9999 FEW022 SCT045 15/11 Q1012=
####018000795####
SANL33 EHDB 080855
METAR EHAK 080855Z AUTO 23012KT 9999NDV FEW030/// SCT035/// BKN041///
16/14 Q1016=
METAR EHDV 080855Z NIL=
METAR EHFD 080855Z AUTO 22012KT 9999NDV -DZ SCT023/// BKN026///
BKN030/// 16/15 Q1018=
METAR EHFZ 080855Z AUTO 24013KT 9999NDV FEW025/// 17/15 Q1018=
METAR EHJA 080855Z AUTO 24016KT 9999NDV -DZ FEW024/// BKN028///
OVC032/// 16/15 Q1017 REDZDZ=
METAR EHJR 080855Z NIL=
METAR EHKV 080855Z AUTO 26017KT 9999NDV SCT033/// SCT037/// 16/15
Q1018=
METAR EHMA 080855Z AUTO 23012KT 9999NDV 21/16 Q1018=
METAR EHMG 080855Z AUTO 24015KT 9999NDV FEW037/// BKN049/// 17/15
Q1018=
METAR EHPG 080855Z AUTO 25015KT 9999NDV ///////// 16/15 Q1019=
METAR EHQE 080855Z AUTO 24014KT 9999NDV 16/15 Q1018=
METAR EHSA 080855Z NIL=
METAR EHSC 080855Z NIL=
####018000677####
SAUK36 EGGY 080850
METAR EGBE 080850Z NIL=
METAR EGBJ 080850Z 22003KT 9999 FEW024 18/10 Q1018=
METAR EGCN 080850Z 23010KT 9999 FEW044 17/11 Q1017=
METAR EGDL 080850Z 22004KT 9999 FEW014 BKN100 BKN150 16/13 Q1019
    NOSIG=
METAR EGSC 080850Z 23004KT 240V300 8000 VCSH FEW020 BKN034 18/14
    Q1019=
METAR COR EGSD 080850Z 25009KT 9999 SCT015 BKN030 21/17 Q1019 TEMPO
     BKN014=
METAR COR EGSH 080850Z 25007KT 210V280 9999 -RA BKN012 20/15 Q1018
    BECMG SCT030=
METAR EGVN 080850Z 24003KT 9999 -RA FEW023 BKN070 BKN100 17/12
    Q1018 NOSIG=
METAR EGWU 080850Z 31005KT 9999 FEW006 SCT012 OVC016 17/15 Q1019
    RERA REDZ BECMG FEW010 BKN016=
####018000387####
SAPK31 OPKC 080900
METAR OPGD 080900Z NIL=
METAR OPKC 080900Z 12012KTS 9000 SCT020 SCT030 TCU 35/24 Q.1003
TEMPO NE 25KTS OR MORE TSRA FEW025 CB=
METAR OPLA 080855Z 11005KT 6000 SCT040 38/23 Q1005 NOSIG=
METAR OPNH 080900Z NIL=
METAR OPPS 080900Z 05012KT 6000 HZ FEW040 FEW100 38/24 Q1005.2=
METAR OPRN 080900Z 23016KT 9999 FEW040 38/20 1006.7=
METAR OPSK 080900Z NIL=
####018000400####
SAUK38 EGGY 080850
METAR EGEC 080850Z 21012KT 9999 FEW025 16/10 Q1012=
METAR EGPA 080850Z 20014KT 9999 VCSH FEW027 SCT044 15/11 Q1006=
METAR EGPC 080850Z 19015G25KT 9999 FEW026 15/11 Q1007=
METAR EGPL 080850Z 22020KT 9999 FEW018 14/10 Q1006=
METAR EGPM 080850Z 21023KT 9999 FEW012 SCT035 15/10 Q1004=
METAR EGPO 080850Z 22020KT 9999 VCSH FEW014CB 14/11 Q1005=
METAR EGPU 080850Z NIL=
####018000097####
SPUS81 KWBC 080900
SPECI
KGDP 080858Z AUTO 05018KT 1/4SM -RA FG SCT002 OVC006 17/17 A3022=
####018000084####
SPCN42 CWAO 080859
SPECI CYUA 080859Z AUTO 28007KT 3SM -UP OVC004 05/ A3009=

####018000083####
SASA KAWN 080700 RRI
METAR SYCJ 080700Z 00000KT 9000 FEW016 24/24 Q1011 NOSIG=
####018000328####
SPUS17 KAWN 080900 RRH
SPECI KAFF 080857Z AUTO 17007KT 10SM FEW002 BKN016 OVC023 13/12 A3040
      RMK AO2 CIG 012V018 SLP206=
SPECI KDOV 080858Z AUTO 00000KT 2 1/2SM BR CLR 24/24 A2999 RMK AO2
      VIS 1/2 RWY19 SLP157=
SPECI KHST 080856Z AUTO 03003KT 10SM -DZ FEW014 26/25 A2992 RMK AO2
      DZB0856 SLP134 $=
####018000220####
SPNA35 KAWN 080900 RRH
SPECI KDOV 080858Z AUTO 00000KT 2 1/2SM BR CLR 24/24 A2999 RMK AO2
      VIS 1/2 RWY19 SLP157=
SPECI KHST 080856Z AUTO 03003KT 10SM -DZ FEW014 26/25 A2992 RMK AO2
      DZB0856 SLP134 $=
####018001161####
SPZZ40 KAWN 080900 RRP
SPECI CWZZ 080857Z AUTO ///// 1/8SM BKN023 OVC038 OVC069 11/ A2980=
SPECI CYGV 080856Z AUTO 07008KT 9SM OVC004 14/12 A3004=
SPECI CYKF 080858Z AUTO 00000KT 2 1/4SM BR CLR 19/19 A3005 RMK SLP173
      DENSITY ALT 1600FT=
SPECI CYMH 080855Z AUTO 16003KT 9SM BKN004 OVC032 07/06 A3010=
SPECI CYSC 080857Z AUTO VRB02KT 3SM BR BKN071 OVC091 21/20 A3003 RMK
      SLP167 DENSITY ALT 1500FT=
SPECI EGUN 080856Z AUTO 28006KT 9999 FEW010 SCT016 SCT020 OVC027 18/18
      A3008 RMK AO2 FEW V SCT SLP174=
SPECI KAFF 080857Z AUTO 17007KT 10SM FEW002 BKN016 OVC023 13/12 A3040
      RMK AO2 CIG 012V018 SLP206=
SPECI KDOV 080858Z AUTO 00000KT 2 1/2SM BR CLR 24/24 A2999 RMK AO2
      VIS 1/2 RWY19 SLP157=
SPECI KEGI 080856Z AUTO 00000KT 2 1/2SM R18/2400VP6000FT BR CLR 23/22
      A3002 RMK AO2 SLP165 $=
SPECI KEGI 080858Z AUTO 00000KT 3SM R18/2400VP6000FT BR CLR 23/23 A3002
      RMK AO2 SLP165 $=
SPECI KHST 080856Z AUTO 03003KT 10SM -DZ FEW014 26/25 A2992 RMK AO2
      DZB0856 SLP134 $=
SPECI PGUA 080856Z AUTO 09012KT 10SM BKN018 27/ A2989 RMK AO2 CIG 017V022
      BKN V SCT SLP102 VISNO RWY24L $=
####018000126####
SAUS41 KLWX 080900
MTRRYT
METAR KRYT 080853Z AUTO 00000KT 6SM HZ SCT090 22/17 A3003 RMK AO2 
SLP150 T02220172 55003 $
####018000060####
SAUS45 KTFX 080900
MTR8S0
METAR K8S0 080755Z 27007KT 
####018000083####
SASA KAWN 080800 RRG
METAR SYCJ 080800Z 00000KT 9000 FEW016 24/23 Q1011 NOSIG=
####018000344####
SPNA14 KAWN 080900 RRH
SPECI KEGI 080854Z AUTO 00000KT 2 1/2SM R18/2400V5000FT BR CLR 23/22
      A3002 RMK AO2 VIS 1 1/4V5 SLP165 $=
SPECI KEGI 080856Z AUTO 00000KT 2 1/2SM R18/2400VP6000FT BR CLR 23/22
      A3002 RMK AO2 SLP165 $=
SPECI KEGI 080858Z AUTO 00000KT 3SM R18/2400VP6000FT BR CLR 23/23 A3002
      RMK AO2 SLP165 $=
####018000089####
SASG20 GOOY 080900
METAR GOOY 080900Z 16006KT 140V200 9999 SCT013 29/24 Q1012 NOSIG=
####018000134####
SAUS45 KGJT 080900 COR
MTRRIL
METAR KRIL 080853Z AUTO 07008KT 10SM CLR 16/08 A3025 RMK AO2 SLP165 
60000 T01610078 58006 TSNO
####018000138####
SAUS44 KCRP 080900
MTRVCT
SPECI KVCT 080859Z AUTO 07012G18KT 2 1/2SM +RA BR FEW009 BKN029 
OVC080 26/25 A2988 RMK AO2 RAB53 P0003
####018002980####
SAUS20 KNKA 080900
METAR KELO 080853Z AUTO 00000KT 10SM CLR 13/13 A3002 RMK AO2=
METAR KEOK 080855Z AUTO 00000KT 5SM HZ SCT001 22/19 A3002 RMK AO2=
METAR KEVM 080852Z AUTO 26004KT 10SM CLR 15/13 A3002 RMK AO1=
METAR KFBL 080854Z AUTO 30004KT 10SM CLR 18/16 A3009 RMK AO2=
METAR KFFL 080855Z AUTO 28004KT 3 1/2SM BKN002 22/20 A3004 RMK AO2=
METAR KFFX 080855Z AUTO 22004KT 5SM BR SCT065 BKN095 OVC120 22/22
     A3002 RMK AO2=
METAR KFPK 080856Z AUTO 26005KT 7SM SCT050 SCT060 21/20 A3003 RMK
     AO2=
METAR KFSD 080856Z 00000KT 10SM CLR 16/14 A3015 RMK AO2 SLP207 BKN
     ABV 120 T01560139 50003=
METAR KFSE 080854Z AUTO 19003KT 10SM CLR 13/12 A3004 RMK AO2=
METAR KFSO 080858Z AUTO 15003KT 5SM BR CLR 23/22 A3000 RMK AO2=
METAR KFSW 080855Z AUTO 27003KT 7SM CLR 22/21 A3002 RMK AO2=
METAR KFXY 080855Z AUTO 32005KT 10SM CLR 18/16 A3009 RMK AO2=
METAR KGGI 080855Z AUTO 29003KT 10SM CLR 21/20 A3006 RMK AO2=
METAR KGYL 080854Z AUTO 00000KT 10SM CLR 16/15 A3009 RMK AO2
     T01560147=
METAR KHAF 080850Z AUTO 00000KT 9SM OVC008 12/10 A2995 RMK AO2=
METAR KHAI 080855Z AUTO 33003KT 5SM BR SCT065 SCT070 22/21 A3004
     RMK AO2=
METAR KHCD 080852Z AUTO 00000KT 7SM CLR 14/13 A3010 RMK AO2
     T01380130=
METAR KHCO 080854Z AUTO 00000KT 10SM CLR 12/12 A3004 RMK AO2=
METAR KHNR 080855Z AUTO 35005KT 5SM CLR 18/18 A3014 RMK AO2=
METAR KHXD 080855Z AUTO 23007KT 10SM CLR 24/21 A2998 RMK AO2 P0000 
     =
METAR KHZX 080851Z AUTO 00000KT 10SM CLR 12/11 A3007 RMK AO2=
METAR KI75 080855Z AUTO 32003KT 5SM SCT006 BKN032 20/19 A3007 RMK 
     AO2=
METAR KICL 080855Z AUTO 02003KT 10SM CLR 22/19 A3008 RMK AO2=
METAR KIFA 080855Z AUTO 32005KT 10SM SCT090 SCT110 20/19 A3009 
     RMK AO2=
METAR KIIB 080855Z AUTO 32003KT 10SM CLR 20/19 A3004 RMK AO1=
METAR KIKV 080855Z AUTO 34005KT 10SM CLR 21/19 A3007 RMK AO2=
METAR KIKW 080853Z AUTO 7SM SCT120 22/21 A2999 RMK AO2
     T02160205=
METAR KIRS 080855Z AUTO 00000KT 7SM CLR 22/19 A3004 RMK AO2=
METAR KJKJ 080854Z AUTO 24004KT 10SM CLR 16/14 A3006 RMK AO2=
METAR KJMR 080858Z AUTO 30004KT 10SM CLR 15/13 A3008 RMK AO2=
METAR KJYG 080854Z AUTO 00000KT 10SM CLR 17/17 A3012 RMK AO2=
METAR KJYM 080855Z AUTO 00000KT 10SM CLR 21/19 A3006 RMK AO2=
METAR KLJF 080852Z AUTO 27003KT 10SM CLR 16/16 A3010 RMK AO2=
METAR KLRJ 080855Z AUTO 00000KT 10SM CLR 16/15 A3015 RMK AO2=
METAR KLVN 080848Z AUTO 30004KT 10SM CLR 17/17 A3007 RMK AO2=
METAR KLWA 080856Z AUTO 00000KT 10SM SCT050 SCT075 SCT090 23/21
     A3004 RMK AO2=
METAR KLXL 080854Z AUTO 00000KT 1SM BR VV007 12/12 A3007 RMK AO2
     VIS 1/2V4=
METAR KLYV 080858Z AUTO 00000KT 10SM CLR 14/13 A3016 RMK AO2=
METAR KMDS 080845Z AUTO 26005KT 10SM CLR 14/14 A3016 RMK AO2=
METAR KMGN 080855Z AUTO 00000KT 10SM CLR 21/20 A2996 RMK AO2=
METAR KMJQ 080852Z AUTO 27004KT 7SM CLR 15/14 A3014 RMK AO2=
METAR KMOP 080854Z AUTO 25003KT 10SM BKN060 BKN070 OVC085 23/23
     A3002 RMK AO2=
####018002996####
SAUS20 KNKA 080900
METAR KRIC 080854Z 00000KT 7SM CLR 25/21 A2998 RMK AO2 SLP153
     T02500206 53002=
METAR K29G 080854Z AUTO 00000KT 7SM SCT060 21/19 A3009 RMK AO2
     T02050185 PWINO=
METAR K4I3 080856Z AUTO 00000KT 10SM SCT060 21/18 A3009 RMK
     AO2=
METAR KACB 080855Z AUTO 00000KT 10SM CLR 24/21 A2997 RMK AO2=
METAR KACQ 080859Z AUTO 00000KT 10SM CLR 17/16 A3011 RMK AO2=
METAR KADC 080857Z AUTO 24005KT 10SM CLR 14/12 A3008 RMK AO2=
METAR KAEL 080851Z AUTO 31003KT 10SM CLR 18/17 A3008 RMK AO2=
METAR KANE 080855Z AUTO 28004KT 10SM 17/16 A3007 RMK AO2=
METAR KAUM 080855Z AUTO 32006KT 10SM CLR 18/17 A3006 RMK AO2=
METAR KAWG 080855Z AUTO 00000KT 7SM SCT003 BKN009 22/20 A3003 RMK 
     AO2 P0001=
METAR KAXA 080855Z AUTO 32005KT 10SM CLR 17/17 A3010 RMK AO2=
METAR KBAX 080855Z AUTO 00000KT 4SM BR CLR 21/21 A3000 RMK AO2=
METAR KBDH 080855Z AUTO 00000KT 10SM CLR 16/15 A3012 RMK AO2=
METAR KBNW 080855Z AUTO 34005KT 10SM CLR 21/18 A3009 RMK AO2=
METAR KBTR 080853Z 07003KT 7SM FEW013 SCT200 24/23 A2999 RMK AO2
     SLP155 T02390228 56004 $=
METAR KBWD 080855Z AUTO 36003KT 10SM CLR 23/22 A3000 RMK AO2 =
METAR KCAD 080854Z AUTO 22005KT 10SM -RA OVC100 22/20 A3003 RMK
     AO2=
METAR KCAE 080856Z 25003KT 10SM CLR 23/19 A2998 RMK AO2 SLP147
     T02330189 57006=
METAR KCAV 080855Z AUTO 00000KT 7SM BKN027 20/18 A3010 RMK AO2=
METAR KCBF 080855Z AUTO 36005KT 10SM CLR 20/16 A3012 RMK AO2=
METAR KCBG 080855Z AUTO 00000KT 10SM CLR 16/14 A3007 RMK AO2=
METAR KCCY 080855Z AUTO 31004KT 10SM SCT037 20/17 A3006 RMK AO2=
METAR KCFE 080855Z AUTO 00000KT 10SM CLR 18/16 A3009 RMK AO2
     T01750162=
METAR KCFS 080855Z AUTO 00000KT 1 1/4SM BR VV007 20/20 A3000 RMK
     AO2=
METAR KCIN 080855Z AUTO 33007KT 10SM CLR 18/16 A3012 RMK AO2=
METAR KCKC 080855Z AUTO 29003KT 10SM SCT060 16/13 A3003 RMK
     AO2=
METAR KCKN 080855Z AUTO 27003KT 10SM CLR 14/12 A3005 RMK AO2=
METAR KCNB 080858Z AUTO 25005KT 10SM CLR 16/13 A3013 RMK AO2
     T01550127=
METAR KCNC 080855Z AUTO 00000KT 10SM SCT012 SCT033 SCT039 20/18 
     A3006 RMK AO2=
METAR KCOQ 080856Z AUTO 28006KT 10SM CLR 14/14 A3005 RMK AO2=
METAR KCQM 080857Z AUTO 23003KT 10SM CLR 14/14 A3004 RMK AO2=
METAR KCSQ 080855Z AUTO 02007KT 10SM CLR 20/19 A3009 RMK AO2=
METAR KCVH 080850Z AUTO 00000KT 10SM OVC010 13/11 A2993 RMK
     AO1=
METAR KDAB 080853Z 00000KT 10SM CLR 21/19 A2999 RMK AO2 SLP154
     T02060194 56008 $=
METAR KDEH 080855Z AUTO 31003KT 7SM CLR 21/18 A3006 RMK AO2=
METAR KDNS 080855Z AUTO 02003KT 10SM BKN029 20/17 A3015 RMK AO2=
METAR KDRM 080856Z AUTO 15003KT 7SM BKN110 20/20 A2995 RMK AO2=
METAR KDTL 080855Z AUTO 27004KT 10SM CLR 16/11 A3009 RMK AO2=
METAR KDUH 080855Z AUTO 00000KT 7SM CLR 22/18 A3004 RMK AO2=
METAR KDXX 080854Z AUTO 00000KT 10SM CLR 14/14 A3011 RMK AO2=
METAR KDYT 080854Z AUTO 25005KT 10SM CLR 20/16 A3003 RMK AO2=
METAR KEFK 080855Z AUTO 00000KT 4SM BR CLR 20/18 A3006 RMK AO2=
####018002837####
SAUS20 KNKA 080900
METAR KMPZ 080855Z AUTO 27003KT 7SM CLR 22/21 A3003 RMK AO2=
METAR KMRT 080853Z AUTO 00000KT 4SM CLR 20/19 A3011 RMK AO2
     T02030187=
METAR KMUT 080855Z AUTO 00000KT 5SM OVC006 24/22 A3001 RMK AO2=
METAR KMVE 080854Z AUTO 30004KT 10SM CLR 16/15 A3010 RMK AO2=
METAR KMXO 080855Z AUTO 00000KT 4SM SCT011 21/19 A3001 RMK AO2=
METAR KNMM 080856Z AUTO 00000KT 10SM CLR 23/21 A3004 RMK AO2 SLP177
      T02280211 56005 $=
METAR KNTU 080856Z 09003KT 10SM CLR 26/23 A2995 RMK AO2 SLP143
     T02560233 55000 CHINO RWY 05R $=
METAR KO22 080855Z AUTO 00000KT 10SM CLR 16/12 A2991 RMK AO1 =
METAR KOEB 080855Z AUTO 00000KT 7SM CLR 22/20 A3005 RMK AO2=
METAR KONA 080850Z AUTO 31005KT 7SM CLR 20/18 A3001 RMK AO2=
METAR KORC 080855Z AUTO 34004KT 10SM CLR 18/18 A3014 RMK AO2=
METAR KOVL 080853Z AUTO 00000KT 10SM CLR 13/12 A3010 RMK AO2
     T01310117=
METAR KOXV 080855Z AUTO 32003KT 7SM CLR 21/20 A3006 RMK AO2=
METAR KOZW 080855Z AUTO 00000KT 7SM CLR 22/21 A3003 RMK AO2=
METAR KPEA 080855Z AUTO 34004KT 10SM CLR 20/20 A3006 RMK AO2=
METAR KPEX 080853Z AUTO 25004KT 7SM CLR 13/13 A3010 RMK AO2
     T01290128=
METAR KPSM 080855Z 14006KT 2 1/2SM BR OVC005 22/21 A3005 RMK AO2A SLP179
      T02150207 53003=
METAR KRDK 080855Z AUTO 36004KT 10SM SCT090 21/18 A3009 RMK AO2=
METAR KRGK 080855Z AUTO 29003KT 10SM CLR 19/18 A3004 RMK AO2=
METAR KRNP 080855Z AUTO 00000KT 10SM CLR 21/21 A3001 RMK AO2=
METAR KROA 080854Z 28003KT 7SM CLR 24/18 A3007 RMK AO2 SLP167
     T02440183 53001=
METAR KROS 080855Z AUTO 27003KT 10SM CLR 16/15 A3007 RMK AO2
     T01550146=
METAR KROX 080854Z AUTO 23003KT 10SM CLR 16/13 A3000 RMK AO2=
METAR KRQB 080854Z AUTO 27004KT 10SM SCT070 OVC080 22/21 A3002 RMK
     AO2=
METAR KRRT 080854Z AUTO 24004KT 10SM CLR 14/12 A3000 RMK AO2=
METAR KSAZ 080854Z AUTO 00000KT 10SM CLR 14/14 A3008 RMK AO2=
METAR KSDA 080855Z AUTO 00000KT 7SM CLR 21/19 A3009 RMK AO2=
METAR KSGS 080853Z AUTO 31004KT 10SM CLR 20/16 A3006 RMK AO2
     T01950162=
METAR KSHL 080855Z AUTO 30003KT 3 1/2SM CLR 15/15 A3016 RMK AO2=
METAR KSYN 080910Z AUTO 00000KT 10SM CLR 18/16 A3006 RMK AO2
     T01780162=
METAR KTEW 080853Z AUTO 00000KT 7SM CLR 21/20 A3003 RMK AO2=
METAR KTKC 080853Z AUTO 25005KT 10SM CLR 16/14 A3014 RMK AO2
     T01550138=
METAR KTNU 080855Z AUTO 34003KT 10SM CLR 21/19 A3006 RMK AO2=
METAR KTOB 080854Z AUTO 00000KT 10SM CLR 18/17 A3008 RMK AO2=
METAR KUKT 080850Z AUTO 00000KT 5SM CLR 21/20 A3004 RMK AO1=
METAR KVLL 080854Z AUTO 00000KT 10SM CLR 25/21 A3005 RMK AO2=
METAR KVTI 080855Z AUTO 00000KT 10SM CLR 21/21 A3004 RMK AO2=
METAR KVVV 080856Z AUTO 27004KT 10SM CLR 16/14 A3011 RMK AO2=
METAR KY70 080855Z AUTO 32003KT 5SM -RA SCT033 BKN050 OVC080 23/22
     A3003 RMK AO2 P0011 60011 T02300218=
####018000882####
SAAK41 KNKA 080900
METAR PADM 080901Z AUTO 34004KT 10SM SCT100 11/09 A3007 RMK AO2 TSNO 
    56001 60003 T01050088 401050094 RAB0849E00 P0000 SLP170 $=
METAR PADU 080858Z AUTO 10012KT 10SM -RA BKN023 OVC029 09/06 A2985 
    RMK AO2 RAE24B53 SLP112 P0000 60000 T00890056 401110078 58004=
METAR PAGA 080858Z AUTO 01004KT 10SM CLR 16/07 A3006 RMK AO2 SLP225 
    T01610072 402220083 51005=
METAR PAJZ 080856Z AUTO 00000KT 10SM BKN050 11/09 A3001 RMK AO2 
    PWINO TSNO 53002 T01050094 401330072 SLP154 $=
METAR PAKI 080856Z AUTO 36005KT 10SM CLR 09/09 A3002 RMK AO2 PWINO 
    TSNO 53003 T00880088 401270055 SLP168 $=
METAR PALG 080856Z AUTO 00000KT 10SM BKN060 OVC110 11/11 A3001 RMK 
    AO2 TSNO 53002 T01110105 401830083 BKN V OVC SLP165=
METAR PARY 080856Z AUTO VRB03KT 10SM CLR 17/07 A3006 RMK AO2 PWINO 
    TSNO 51005 T01660066 402220088 SLP182=
####018000120####
SAMH31 PKWA 080900
METAR PKWA 080900Z AUTO 11012KT 3SM RA SCT006 BKN017 OVC046 25/23 A2986 RMK AO2 P0021 T02520234=
####018001682####
SAXN17 KAWN 080900 RRB
METAR MDSD 080900Z 04004KT 9999 SCT018 24/23 Q1014=
METAR MGSJ 080900Z 00000KT 9999 FEW018 OVC090 23/23 Q1011 A2985=
METAR MMHO 080847Z 00000KT 10SM BKN080 27/13 A2979 RMK SLP079 54000
      916 8/050 HZY=
METAR MMMZ 080847Z 00000KT 10SM SCT070 OVC200 26/22 A2976 RMK SLP078
      57007 900 8/077=
METAR MUGM 080856Z 33004KT 9999 CLR 25/22 A2995 RMK SLP140 T02500222
      56004=
METAR NFFN 080900Z 12006KT 40KM FEW030 SCT050 22/20 Q1014 NOSIG RMK
      RR NIL=
METAR PACZ 080855Z AUTO 00000KT 10SM 11/08 A3007 RMK AO1 T01060084=
METAR PAED 080855Z AUTO 00000KT 10SM BKN080 12/10 A3001 RMK AO2 DZB0827E0841
      SLP162 P0000 60000 T01220100 401720112 58002 $=
METAR PALU 080855Z AUTO 22012G24KT 10SM CLR 13/02 A3011 RMK AO1 T01280017=
METAR PASV 080855Z AUTO 00000KT 10SM SCT090 10/08 A2997 RMK AO1 T01000084=
METAR PASY 080856Z AUTO 02016KT 10SM OVC006 A2974 RMK AO2 SLPNO 6////
      52007 TSNO PNO=
METAR PGUA 080855Z AUTO 09013KT 10SM SCT017 27/ A2989 RMK AO2 SCT V
      BKN SLP102 T0273 53009 VISNO RWY24L $=
METAR PTYA 080853Z 05008KT 12SM FEW016CB SCT030 BKN130 OVC300 27/23
      A2983 RMK CB VC SE AND W SLP103 60001 8/377 T02670232 53008=
METAR RJOI 080900Z 15005KT 9000 HZ FEW120 BKN230 27/22 A2978 RMK SLP083
      T02720222 53001=
METAR RJTY 080855Z AUTO 17008KT 9999 CLR 28/22 A2985 RMK AO2 SLP100
      T02800217 53004 $=
METAR RKSO 080855Z AUTO 00000KT 9999 CLR 26/24 A2975 RMK AO2 SLP075
      T02610242 58005 $=
METAR SVMI 080900Z 02002KT 9999 FEW016 SCT100 25/23 Q1013 NOSIG=
METAR TXKF 080855Z 16013KT 9999 VCSH SCT013TCU BKN042 BKN170 BKN300
      25/22 Q1018 RMK TCU W-NW=
####018000118####
SABE31 TXKF 080855
METAR TXKF 080855Z 16013KT 9999 VCSH SCT013TCU BKN042
BKN170 BKN300 25/22 Q1018 RMK TCU W-NW
####018000107####
SATU33 LTAA 080850
METAR LCEN 080850Z 13007KT 9999 FEW025 32/19 Q1008 NOSIG=
METAR LCGK 080850Z NIL=
####018000239####
SASQ51 LZIB 080900
METAR LZKC 080900Z 01009KT 330V080 9999 SCT038 21/11
Q1020=
METAR LZLU 080900Z 21005KT 150V280 9999 FEW045 22/10
Q1021=
METAR LZNI 080900Z 34013KT 300V030 9999 FEW050 23/07
Q1021=
METAR LZPE 080900Z NIL=
####018003737####
SAUS99 KWBC 080901 RRA
METAR
KPEX 080853Z AUTO 25004KT 7SM CLR 13/13 A3010 RMK AO2
     T01290128=
KPSM 080855Z 14006KT 2 1/2SM BR OVC005 22/21 A3005 RMK AO2A SLP179
     T02150207 53003=
KRDK 080855Z AUTO 36004KT 10SM SCT090 21/18 A3009 RMK AO2=
KRGK 080855Z AUTO 29003KT 10SM CLR 19/18 A3004 RMK AO2=
KRNP 080855Z AUTO 00000KT 10SM CLR 21/21 A3001 RMK AO2=
KROA 080854Z 28003KT 7SM CLR 24/18 A3007 RMK AO2 SLP167 T02440183
     53001=
KROS 080855Z AUTO 27003KT 10SM CLR 16/15 A3007 RMK AO2
     T01550146=
KROX 080854Z AUTO 23003KT 10SM CLR 16/13 A3000 RMK AO2=
KRQB 080854Z AUTO 27004KT 10SM SCT070 OVC080 22/21 A3002 RMK
     AO2=
KRRT 080854Z AUTO 24004KT 10SM CLR 14/12 A3000 RMK AO2=
KSAZ 080854Z AUTO 00000KT 10SM CLR 14/14 A3008 RMK AO2=
KSDA 080855Z AUTO 00000KT 7SM CLR 21/19 A3009 RMK AO2=
KSGS 080853Z AUTO 31004KT 10SM CLR 20/16 A3006 RMK AO2
     T01950162=
KSHL 080855Z AUTO 30003KT 3 1/2SM CLR 15/15 A3016 RMK AO2=
KSYN 080910Z AUTO 00000KT 10SM CLR 18/16 A3006 RMK AO2
     T01780162=
KTEW 080853Z AUTO 00000KT 7SM CLR 21/20 A3003 RMK AO2=
KTKC 080853Z AUTO 25005KT 10SM CLR 16/14 A3014 RMK AO2
     T01550138=
KTNU 080855Z AUTO 34003KT 10SM CLR 21/19 A3006 RMK AO2=
KTOB 080854Z AUTO 00000KT 10SM CLR 18/17 A3008 RMK AO2=
KUKT 080850Z AUTO 00000KT 5SM CLR 21/20 A3004 RMK AO1=
KVLL 080854Z AUTO 00000KT 10SM CLR 25/21 A3005 RMK AO2=
KVTI 080855Z AUTO 00000KT 10SM CLR 21/21 A3004 RMK AO2=
KVVV 080856Z AUTO 27004KT 10SM CLR 16/14 A3011 RMK AO2=
KY70 080855Z AUTO 32003KT 5SM -RA SCT033 BKN050 OVC080 23/22 A3003
     RMK AO2 P0011 60011 T02300218=
KELO 080853Z AUTO 00000KT 10SM CLR 13/13 A3002 RMK AO2=
KEOK 080855Z AUTO 00000KT 5SM HZ SCT001 22/19 A3002 RMK AO2=
KEVM 080852Z AUTO 26004KT 10SM CLR 15/13 A3002 RMK AO1=
KFBL 080854Z AUTO 30004KT 10SM CLR 18/16 A3009 RMK AO2=
KFFL 080855Z AUTO 28004KT 3 1/2SM BKN002 22/20 A3004 RMK AO2=
KFFX 080855Z AUTO 22004KT 5SM BR SCT065 BKN095 OVC120 22/22 A3002
     RMK AO2=
KFPK 080856Z AUTO 26005KT 7SM SCT050 SCT060 21/20 A3003 RMK
     AO2=
KFSD 080856Z 00000KT 10SM CLR 16/14 A3015 RMK AO2 SLP207 BKN ABV
     120 T01560139 50003=
KFSE 080854Z AUTO 19003KT 10SM CLR 13/12 A3004 RMK AO2=
KFSO 080858Z AUTO 15003KT 5SM BR CLR 23/22 A3000 RMK AO2=
KFSW 080855Z AUTO 27003KT 7SM CLR 22/21 A3002 RMK AO2=
KFXY 080855Z AUTO 32005KT 10SM CLR 18/16 A3009 RMK AO2=
KGGI 080855Z AUTO 29003KT 10SM CLR 21/20 A3006 RMK AO2=
KGYL 080854Z AUTO 00000KT 10SM CLR 16/15 A3009 RMK AO2
     T01560147=
KHAF 080850Z AUTO 00000KT 9SM OVC008 12/10 A2995 RMK AO2=
KHAI 080855Z AUTO 33003KT 5SM BR SCT065 SCT070 22/21 A3004 RMK
     AO2=
KHCD 080852Z AUTO 00000KT 7SM CLR 14/13 A3010 RMK AO2
     T01380130=
KHCO 080854Z AUTO 00000KT 10SM CLR 12/12 A3004 RMK AO2=
KHNR 080855Z AUTO 35005KT 5SM CLR 18/18 A3014 RMK AO2=
KHXD 080855Z AUTO 23007KT 10SM CLR 24/21 A2998 RMK AO2 P0000=
KHZX 080851Z AUTO 00000KT 10SM CLR 12/11 A3007 RMK AO2=
KI75 080855Z AUTO 32003KT 5SM SCT006 BKN032 20/19 A3007 RMK
     AO2=
KICL 080855Z AUTO 02003KT 10SM CLR 22/19 A3008 RMK AO2=
KIFA 080855Z AUTO 32005KT 10SM SCT090 SCT110 20/19 A3009 RMK
     AO2=
KIIB 080855Z AUTO 32003KT 10SM CLR 20/19 A3004 RMK AO1=
KIKV 080855Z AUTO 34005KT 10SM CLR 21/19 A3007 RMK AO2=
KIKW 080853Z AUTO 7SM SCT120 22/21 A2999 RMK AO2 T02160205=
KIRS 080855Z AUTO 00000KT 7SM CLR 22/19 A3004 RMK AO2=
KJKJ 080854Z AUTO 24004KT 10SM CLR 16/14 A3006 RMK AO2=
KJMR 080858Z AUTO 30004KT 10SM CLR 15/13 A3008 RMK AO2=
KJYG 080854Z AUTO 00000KT 10SM CLR 17/17 A3012 RMK AO2=
KJYM 080855Z AUTO 00000KT 10SM CLR 21/19 A3006 RMK AO2=
KLJF 080852Z AUTO 27003KT 10SM CLR 16/16 A3010 RMK AO2=
####018003689####
SAUS99 KWBC 080901
METAR
KRIC 080854Z 00000KT 7SM CLR 25/21 A2998 RMK AO2 SLP153 T02500206
     53002=
K29G 080854Z AUTO 00000KT 7SM SCT060 21/19 A3009 RMK AO2 T02050185
     PWINO=
K4I3 080856Z AUTO 00000KT 10SM SCT060 21/18 A3009 RMK AO2=
KACB 080855Z AUTO 00000KT 10SM CLR 24/21 A2997 RMK AO2=
KACQ 080859Z AUTO 00000KT 10SM CLR 17/16 A3011 RMK AO2=
KADC 080857Z AUTO 24005KT 10SM CLR 14/12 A3008 RMK AO2=
KAEL 080851Z AUTO 31003KT 10SM CLR 18/17 A3008 RMK AO2=
KANE 080855Z AUTO 28004KT 10SM 17/16 A3007 RMK AO2=
KAUM 080855Z AUTO 32006KT 10SM CLR 18/17 A3006 RMK AO2=
KAWG 080855Z AUTO 00000KT 7SM SCT003 BKN009 22/20 A3003 RMK AO2
     P0001=
KAXA 080855Z AUTO 32005KT 10SM CLR 17/17 A3010 RMK AO2=
KBAX 080855Z AUTO 00000KT 4SM BR CLR 21/21 A3000 RMK AO2=
KBDH 080855Z AUTO 00000KT 10SM CLR 16/15 A3012 RMK AO2=
KBNW 080855Z AUTO 34005KT 10SM CLR 21/18 A3009 RMK AO2=
KBTR 080853Z 07003KT 7SM FEW013 SCT200 24/23 A2999 RMK AO2 SLP155
     T02390228 56004 $=
KBWD 080855Z AUTO 36003KT 10SM CLR 23/22 A3000 RMK AO2=
KCAD 080854Z AUTO 22005KT 10SM -RA OVC100 22/20 A3003 RMK AO2=
KCAE 080856Z 25003KT 10SM CLR 23/19 A2998 RMK AO2 SLP147 T02330189
     57006=
KCAV 080855Z AUTO 00000KT 7SM BKN027 20/18 A3010 RMK AO2=
KCBF 080855Z AUTO 36005KT 10SM CLR 20/16 A3012 RMK AO2=
KCBG 080855Z AUTO 00000KT 10SM CLR 16/14 A3007 RMK AO2=
KCCY 080855Z AUTO 31004KT 10SM SCT037 20/17 A3006 RMK AO2=
KCFE 080855Z AUTO 00000KT 10SM CLR 18/16 A3009 RMK AO2
     T01750162=
KCFS 080855Z AUTO 00000KT 1 1/4SM BR VV007 20/20 A3000 RMK AO2=
KCIN 080855Z AUTO 33007KT 10SM CLR 18/16 A3012 RMK AO2=
KCKC 080855Z AUTO 29003KT 10SM SCT060 16/13 A3003 RMK AO2=
KCKN 080855Z AUTO 27003KT 10SM CLR 14/12 A3005 RMK AO2=
KCNB 080858Z AUTO 25005KT 10SM CLR 16/13 A3013 RMK AO2
     T01550127=
KCNC 080855Z AUTO 00000KT 10SM SCT012 SCT033 SCT039 20/18 A3006
     RMK AO2=
KCOQ 080856Z AUTO 28006KT 10SM CLR 14/14 A3005 RMK AO2=
KCQM 080857Z AUTO 23003KT 10SM CLR 14/14 A3004 RMK AO2=
KCSQ 080855Z AUTO 02007KT 10SM CLR 20/19 A3009 RMK AO2=
KCVH 080850Z AUTO 00000KT 10SM OVC010 13/11 A2993 RMK AO1=
KDAB 080853Z 00000KT 10SM CLR 21/19 A2999 RMK AO2 SLP154 T02060194
     56008 $=
KDEH 080855Z AUTO 31003KT 7SM CLR 21/18 A3006 RMK AO2=
KDNS 080855Z AUTO 02003KT 10SM BKN029 20/17 A3015 RMK AO2=
KDRM 080856Z AUTO 15003KT 7SM BKN110 20/20 A2995 RMK AO2=
KDTL 080855Z AUTO 27004KT 10SM CLR 16/11 A3009 RMK AO2=
KDUH 080855Z AUTO 00000KT 7SM CLR 22/18 A3004 RMK AO2=
KDXX 080854Z AUTO 00000KT 10SM CLR 14/14 A3011 RMK AO2=
KDYT 080854Z AUTO 25005KT 10SM CLR 20/16 A3003 RMK AO2=
KEFK 080855Z AUTO 00000KT 4SM BR CLR 20/18 A3006 RMK AO2=
KMPZ 080855Z AUTO 27003KT 7SM CLR 22/21 A3003 RMK AO2=
KMRT 080853Z AUTO 00000KT 4SM CLR 20/19 A3011 RMK AO2
     T02030187=
KMUT 080855Z AUTO 00000KT 5SM OVC006 24/22 A3001 RMK AO2=
KMVE 080854Z AUTO 30004KT 10SM CLR 16/15 A3010 RMK AO2=
KMXO 080855Z AUTO 00000KT 4SM SCT011 21/19 A3001 RMK AO2=
KNMM 080856Z AUTO 00000KT 10SM CLR 23/21 A3004 RMK AO2 SLP177
     T02280211 56005 $=
KNTU 080856Z 09003KT 10SM CLR 26/23 A2995 RMK AO2 SLP143 T02560233
     55000 CHINO RWY 05R $=
KO22 080855Z AUTO 00000KT 10SM CLR 16/12 A2991 RMK AO1=
KOEB 080855Z AUTO 00000KT 7SM CLR 22/20 A3005 RMK AO2=
KONA 080850Z AUTO 31005KT 7SM CLR 20/18 A3001 RMK AO2=
KORC 080855Z AUTO 34004KT 10SM CLR 18/18 A3014 RMK AO2=
KOVL 080853Z AUTO 00000KT 10SM CLR 13/12 A3010 RMK AO2
     T01310117=
KOXV 080855Z AUTO 32003KT 7SM CLR 21/20 A3006 RMK AO2=
KOZW 080855Z AUTO 00000KT 7SM CLR 22/21 A3003 RMK AO2=
KPEA 080855Z AUTO 34004KT 10SM CLR 20/20 A3006 RMK AO2=
####018001442####
SAUS99 KWBC 080901 RRB
METAR
KLRJ 080855Z AUTO 00000KT 10SM CLR 16/15 A3015 RMK AO2=
KLVN 080848Z AUTO 30004KT 10SM CLR 17/17 A3007 RMK AO2=
KLWA 080856Z AUTO 00000KT 10SM SCT050 SCT075 SCT090 23/21 A3004
     RMK AO2=
KLXL 080854Z AUTO 00000KT 1SM BR VV007 12/12 A3007 RMK AO2 VIS
     1/2V4=
KLYV 080858Z AUTO 00000KT 10SM CLR 14/13 A3016 RMK AO2=
KMDS 080845Z AUTO 26005KT 10SM CLR 14/14 A3016 RMK AO2=
KMGN 080855Z AUTO 00000KT 10SM CLR 21/20 A2996 RMK AO2=
KMJQ 080852Z AUTO 27004KT 7SM CLR 15/14 A3014 RMK AO2=
KMOP 080854Z AUTO 25003KT 10SM BKN060 BKN070 OVC085 23/23 A3002
     RMK AO2=
PADM 080901Z AUTO 34004KT 10SM SCT100 11/09 A3007 RMK AO2 TSNO
     56001 60003 T01050088 401050094 RAB0849E00 P0000 SLP170 $=
PADU 080858Z AUTO 10012KT 10SM -RA BKN023 OVC029 09/06 A2985 RMK
     AO2 RAE24B53 SLP112 P0000 60000 T00890056 401110078 58004=
PAGA 080858Z AUTO 01004KT 10SM CLR 16/07 A3006 RMK AO2 SLP225
     T01610072 402220083 51005=
PAJZ 080856Z AUTO 00000KT 10SM BKN050 11/09 A3001 RMK AO2 PWINO
     TSNO 53002 T01050094 401330072 SLP154 $=
PAKI 080856Z AUTO 36005KT 10SM CLR 09/09 A3002 RMK AO2 PWINO TSNO
     53003 T00880088 401270055 SLP168 $=
PALG 080856Z AUTO 00000KT 10SM BKN060 OVC110 11/11 A3001 RMK AO2
     TSNO 53002 T01110105 401830083 BKN V OVC SLP165=
PARY 080856Z AUTO VRB03KT 10SM CLR 17/07 A3006 RMK AO2 PWINO TSNO
     51005 T01660066 402220088 SLP182=
####018000081####
SABZ21 SBMO 080900
METAR SBMO 080900Z 30002KT 9999 SCT020 BKN100 21/21 Q1016=
####018000068####
SABZ23 SBRJ 080900
METAR SBRJ 080900Z 01004KT CAVOK 19/16 Q1018=
####018000081####
SABZ24 SBPA 080900
METAR SBPA 080900Z 18003KT 9999 BKN025 OVC045 17/14 Q1018=
####018000068####
SABZ24 SBCT 080900
METAR SBCT 080900Z 09002KT CAVOK 10/10 Q1020=
####018000068####
SABZ19 SBMQ 080900
METAR SBMQ 080900Z 34002KT CAVOK 25/25 Q1012=
####018000068####
SABZ23 SBGL 080900
METAR SBGL 080900Z 00000KT CAVOK 15/13 Q1018=
####018000069####
SABZ22 SBBR 080900
METAR SBBR 080900Z 26002KT CAVOK 14/09 Q1022 =
####018000068####
SABZ18 SBKP 080900
METAR SBKP 080900Z 08003KT CAVOK 10/08 Q1020=
####018000068####
SABZ22 SBGO 080900
METAR SBGO 080900Z 01002KT CAVOK 14/10 Q1020=
####018000068####
SABZ19 SBSN 080900
METAR SBSN 080900Z 14002KT CAVOK 23/22 Q1011=
####018000068####
SABZ24 SBLO 080900
METAR SBLO 080900Z 12001KT CAVOK 16/13 Q1018=
####018000069####
SABZ18 SBKP 080900
METAR SBKP 080900Z 08003KT CAVOK 10/08 Q1020=
####018000080####
SPPA41 KWBC 080901
SPECI
PGUA 080856Z AUTO 09012KT 10SM BKN018 27/ A2989=
####018000074####
SABZ24 SBNF 080900
METAR SBNF 080900Z 27006KT 5000 BR NSC 18/17 Q1014=
####018000068####
SABZ20 SBPV 080900
METAR SBPV 080900Z 00000KT CAVOK 23/22 Q1012=
####018000068####
SABZ19 SBCJ 080900
METAR SBCJ 080900Z 00000KT CAVOK 19/16 Q1016=
####018000068####
SABZ18 SBSP 080900
METAR SBSP 080900Z 00000KT CAVOK 16/09 Q1020=
####018000068####
SABZ24 SBFL 080900
METAR SBFL 080900Z 13013KT CAVOK 22/16 Q1015=
####018000081####
SABZ21 SBTE 080900
METAR SBTE 080900Z 19002KT 9999 FEW020 BKN090 25/24 Q1013=
####018000081####
SABZ21 SBRF 080900
METAR SBRF 080900Z 24003KT 9999 SCT020 BKN070 22/21 Q1015=
####018000134####
SPPA31 KWBC 080901
SPECI
PGUA 080856Z AUTO 09012KT 10SM BKN018 27/ A2989 RMK AO2 CIG
017V022 BKN V SCT SLP102 VISNO RWY24L $=
####018000130####
SPXX61 KWBC 080901
SPECI
EGUN 080856Z AUTO 28006KT 9999 FEW010 SCT016 SCT020 OVC027 18/18
A3008 RMK AO2 FEW V SCT SLP174=
####018000075####
SAMY20 FMCZ 080900
METAR FMCZ 080900Z 14014KT 9999 BKN025 26/19 Q1018=
####018000117####
SARH32 LDZM 080900
METAR LDLO 080900Z 02009KT CAVOK 26/09 Q1022=
METAR LDSB 080900Z 02012KT CAVOK 20/07 Q1020=
####018000085####
SPUS41 KWBC 080901
SPECI
KDOV 080858Z AUTO 00000KT 2 1/2SM BR CLR 24/24 A2999=
####018000119####
SAUS41 KAKQ 080901
MTRNGU
METAR KNGU 080859Z 12003KT 5SM BR BKN130 26/24 A2996 RMK AO2 SLP146 
T02560239 55003
####018000152####
SAUS44 KBMX 080900 COR
MTREUF
METAR KEUF 080858Z AUTO 00000KT 10SM CLR 21/19 A3001 RMK AO2 
RAB0759E09B35E46 SLP157 6//// T02110189 56008 PNO $
####018000092####
SASG20 GOOY 080900
METAR GOOY 080900Z 16006KT 140V200 9999 SCT013 29/24 Q1012 NOSIG=

####018001576####
SAUS17 KAWN 080900 RRC
METAR KCVS 080855Z 04006KT 10SM FEW200 17/14 A3020 RMK AO2A SLP184
      T01700140 56003 $=
METAR KDMA 080855Z AUTO 05008KT 10SM BKN150 31/09 A2986 RMK AO2 SLP034
      T03050091 55001 $=
METAR KFAF 080855Z VRB03KT 9SM SCT080 BKN110 26/26 A2995 RMK AO2A RAE0805
      SLP145 P0000 60000 T02590259 55000=
METAR KFFO 080855Z 00000KT 8SM CLR 21/20 A3007 RMK AO2A SLP177 55004=
METAR KFMH 080855Z AUTO 17007KT 7SM OVC003 21/20 A3008 RMK AO2=
METAR KFRI 080855Z AUTO 33004KT 10SM BKN110 OVC140 22/21 A3009 RMK
      AO2 SLP180 T02160206 53001=
METAR KHLR 080856Z AUTO 09004KT 10SM FEW027 26/ A2998 RMK AO2 RAB29E38
      SLP143 P0000 60000 T0256 56006 $=
METAR KHOP 080855Z AUTO 00000KT 10SM FEW075 23/22 A3006 RMK AO2 SLP176
      T02310223 55004=
METAR KIWA 080856Z AUTO 05005KT 10SM CLR 31/04 A2979 RMK AO2=
METAR KNBC 080856Z AUTO 24003KT 10SM CLR 23/19 A2997 RMK AO2 SLP149
      T02330189 56008=
METAR KNBG 080855Z AUTO 00000KT 6SM BR CLR 25/24 A3000 RMK AO2 SLP158
      T02500239 58003 PWINO $=
METAR KNCA 080856Z AUTO 00000KT 10SM CLR 23/21 A2991 RMK AO2 SLP129
      T02330211 55003=
METAR KNJK 080856Z AUTO 09003KT 10SM CLR 23/11 A2968 RMK AO2 SLP066
      T02330106 53004 TSNO=
METAR KNRS 080856Z AUTO 30007KT 10SM OVC014 17/13 A2990 RMK AO2 SLP125
      T01720133 58007 TSNO $=
METAR KNUQ 080856Z AUTO 03007KT 10SM OVC013 16/12 A2993 RMK AO2 SLP137
      T01560122 50002 TSNO=
METAR PPIZ 080856Z AUTO 20010KT 10SM CLR 07/02 A3011 RMK AO2 TSNO 56002
      T00660022 400830044 SLP198 $=
####018000111####
SPUS52 KWBC 080901
SPECI
KVCT 080859Z AUTO 07012G18KT 2 1/2SM +RA BR FEW009 BKN029 OVC080
26/25 A2988=
####018000089####
SASQ51 LZIB 080900 RRA
METAR LZPE 080900Z 34005KT 260V100 9999 FEW040 23/09
Q1021=
####018000088####
SAGL31 BGSF 080850 CCA
METAR COR BGJN 080850Z 36003KT 9999 VCFG FEW200 06/05 Q1010=
####018000079####
SAUK38 EGGY 080850 RRA
METAR EGPU 080850Z 23018KT 9999 SCT022 14/11 Q1009=
####018000085####
SAGR32 LGAT 080850 RRA
METAR LGPZ 080850Z 27016KT 9999 FEW025 29/19 Q1013 NOSIG=
####018000446####
SAGR32 LGAT 080850
METAR LGAL 080850Z NIL=
METAR LGEL 080850Z 36014G24KT 9999 FEW025 26/13 Q1012=
METAR LGKV 080850Z 11007KT 9999 SCT020TCU 20/15 Q1013=
METAR LGMT 080850Z 32020G33KT 9999 FEW020 SCT025 BKN080 24/16 Q1012=
METAR LGPZ 080850Z NIL=
METAR LGRX 080850Z 27008KT 9999 FEW025 28/20 Q1012 NOSIG=
METAR LGSK 080850Z NIL=
METAR LGSR 080850Z 34017KT CAVOK 29/18 Q1010 NOSIG=
METAR LGZA 080850Z 33015KT CAVOK 31/10 Q1013=
####018000458####
SAGR33 LGAT 080850
METAR LGHI 080850Z 01015KT 9999 FEW020 26/18 Q1011=
METAR LGKC 080850Z NIL=
METAR LGKF 080850Z 33016KT 9999 FEW030 26/17 Q1013=
METAR LGKP 080850Z 32020KT CAVOK 29/16 Q1009=
METAR LGKZ 080850Z 33014KT 9999 SCT020 SCT070 19/07 Q1018=
METAR LGMK 080850Z 01024G35KT 9999 SCT012 24/19 Q1012=
METAR LGNX 080850Z 36020G30KT 9999 FEW020 26/19 Q1011=
METAR LGPA 080850Z NIL=
METAR LGSO 080850Z 36020KT 9999 FEW018 26/19 Q1012=
####018000388####
SABU31 LBSM 080900
METAR LBSF 080900Z 27006MPS 9999 BKN038 16/11 Q1018 NOSIG=
METAR LBWN 080900Z 27005G10MPS 240V300 9999 SCT024 19/15 Q1014
 NOSIG=
METAR LBBG 080900Z 27007MPS 9999 FEW038 BKN072 BKN110 18/15
 Q1015 NOSIG=
METAR LBPD 080900Z 26005MPS 230V290 9999 SCT050 BKN060 16/12
 Q1016 NOSIG=
METAR LBGO 080900Z VRB01MPS 9000 RA BKN033 OVC040 15/14 Q1017
 NOSIG=
####018000588####
SAGR31 LGAT 080850
METAR LGAD 080850Z 34015KT 9999 FEW020 28/17 Q1013=
METAR LGAV 080850Z 02017KT 9999 FEW020 BKN030 26/13 Q1013 NOSIG=
METAR LGIR 080850Z 02004KT CAVOK 29/21 Q1011 NOSIG=
METAR LGKL 080850Z 34004KT 9999 FEW030 32/17 Q1011=
METAR LGKO 080850Z 30018KT CAVOK 28/18 Q1010=
METAR LGKR 080850Z 31014KT CAVOK 27/12 Q1013 NOSIG=
METAR LGLM 080850Z NIL=
METAR LGRP 080850Z 24016KT CAVOK 30/19 Q1008 NOSIG=
METAR LGSA 080850Z 30008KT CAVOK 32/15 Q1011=
METAR LGSM 080850Z 34011KT CAVOK 29/14 Q1010=
METAR LGTS 080850Z 32022KT 9999 FEW025 23/12 Q1016 NOSIG=
####018000128####
SAIY42 LIIB 080800 RRB
METAR LIRV 080755Z 05008KT 9999 FEW024 24/15 Q1020 RMK FEW MON E SE
      LIB NC VIS MIN 9999 BLU=
####018000869####
SATU31 LTAA 080850
METAR LTAC 080850Z 03012KT 360V080 9999 SCT040 26/15 Q1013 NOSIG=
METAR LTAF 080850Z /////KT 9999 SCT035 BKN100 29/21 Q1008 NOSIG=
METAR LTAI 080850Z 16007KT 110V210 9999 SCT030 29/22 Q1008 NOSIG=
METAR LTAJ 080850Z 22006KT 170V270 CAVOK 35/15 Q1008 NOSIG=
METAR LTAZ 080850Z 07006KT 350V130 CAVOK 30/14 Q1012=
METAR LTBA 080850Z NIL=
METAR LTBJ 080850Z 35018KT CAVOK 30/10 Q1010 NOSIG=
METAR LTBS 080850Z 22010KT 9999 FEW030 29/22 Q1008 NOSIG=
METAR LTCF 080850Z 06008KT 020V090 CAVOK 28/12 Q1019=
METAR LTCG 080850Z 07008KT 9999 SCT035 27/21 Q1011 NOSIG=
METAR LTCI 080850Z 28007KT CAVOK 25/15 Q1016 NOSIG=
METAR LTCS 080850Z VRB08KT 010V190 CAVOK 36/04 Q1010=
METAR LTFE 080850Z 26008KT 200V330 9999 FEW035 33/13 Q1008 NOSIG=
METAR LTFH 080850Z 30008KT 9999 SCT036 BKN100 26/23 Q1011 NOSIG=
METAR LTFJ 080850Z NIL=
####018000073####
SAGR33 LGAT 080850 RRA
METAR LGPA 080850Z 02020KT CAVOK 28/19 Q1011=
####018000400####
SATU32 LTAA 080850
METAR LTAN 080850Z 03006KT 9999 FEW040 29/14 Q1012 NOSIG=
METAR LTAU 080850Z 10003KT 050V160 9999 FEW040 29/14 Q1012 NOSIG=
METAR LTBR 080850Z 36009KT 9999 FEW035 SCT100 27/15 Q1011 NOSIG=
METAR LTBU 080850Z 34013KT 9999 SCT030 BKN100 21/10 Q1014=
METAR LTCC 080850Z VRB06KT CAVOK 39/M01 Q1007 NOSIG=
METAR LTCE 080850Z 07009KT 040V110 9999 SCT025 28/13 Q1018 NOSIG=
####018000100####
SARM31 LUKK 080900
METAR LUKK 080900Z 33007KT 300V360 9999 SCT020 22/15 Q1015
26CLRD65 NOSIG=
####018000115####
SAGR32 LGAT 080850 RRB
METAR LGAL 080850Z 02005KT 9999 -RA FEW008 FEW020TCU SCT025 BKN080
      15/15 Q1015=
####018000090####
SAIY42 LIIB 080800 RRC
METAR LIRZ 080750Z VRB02KT CAVOK 26/13 Q1021 RMK VIS MIN 9999=
####018000111####
SAIV20 DIAP 080900
METAR DIAP 080900Z VRB02KT 6000 SCT005 BKN012 BKN080 26/25 Q1015
TEMPO BKN012 BKN070=
####018000111####
SPUS72 KWBC 080901
SPECI
KVCT 080859Z AUTO 07012G18KT 2 1/2SM +RA BR FEW009 BKN029 OVC080
26/25 A2988=
####018000066####
SAOR01 ORSU 080900
ORSU 080900Z VRB03KT 8000 SKC 40/M02 Q1010
####018000081####
SACV20 GVBA 080900
METAR GVBA 080900Z 01010KT 9999 BKN015 25/20 Q1013 NOSIG=
####018000088####
SAHK31 VHHH 080900
METAR VHHH 080900Z 22013KT 9999 FEW020 SCT030 33/24 Q1006 NOSIG=
####018000111####
SPUS81 KWBC 080901
SPECI
KVCT 080859Z AUTO 07012G18KT 2 1/2SM +RA BR FEW009 BKN029 OVC080
26/25 A2988=
####018000092####
SAPF20 NTAA 080900
METAR NTAA 080900Z 14004KT 9999 FEW023 26/22 Q1015 WS ALL RWY NOSIG=
####018000091####
SAAJ31 UBBB 080900
METAR UBBL 080900Z 13006KT 9999 NSC 35/16 Q1011 NOSIG RMK G/O SC07=
####018000392####
SASD31 OEJD 080900
METAR OEDF 080900Z 36014KT 8000 NSC 45/03 Q1000 NOSIG=
METAR OEDR 080900Z 01012KT 8000 SKC 44/09 Q0999 NOSIG=
METAR OEJN 080900Z 31012KT CAVOK 37/25 Q1001 NOSIG=
METAR OEMA 080900Z 10008KT CAVOK 45/00 Q1006 NOSIG=
METAR OERK 080900Z 02017KT 5000 BLDU SKC 42/M01 Q1008 NOSIG=
METAR OERY 080900Z 04018KT 5000 SA NSC 43/01 Q1008 NOSIG=
METAR OYSN 080900Z NIL=
####018001613####
SAZZ40 KAWN 080900 RRK
METAR KADW 080855Z 00000KT 10SM BKN075 25/23 A2999 RMK AO2A SLP155
      T02520231 55001 $=
METAR KHRT 080855Z AUTO 00000KT 10SM CLR 23/23 A3000 RMK AO2 SLP162
      T02330232 56008 $=
METAR KNBC 080856Z AUTO 24003KT 10SM CLR 23/19 A2997 RMK AO2 SLP149
      T02330189 56008=
METAR KNFG 080856Z AUTO 00000KT 10SM OVC015 16/13 A2990 RMK AO2 SLP124
      T01610133 58005 TSNO=
METAR KNLC 080856Z AUTO 29007KT 10SM CLR 19/12 A2982 RMK AO2 SLP096
      T01890117 50005 TSNO $=
METAR KNTD 080856Z AUTO 28008KT 10SM OVC013 15/13 A2990 RMK AO2 SLP125
      6//// T01500128 58002 TSNO PNO VISNO N $=
METAR KNTU 080856Z 09003KT 10SM CLR 26/23 A2995 RMK AO2 SLP143 T02560233
      55000 CHINO RWY 05R $=
METAR KNUQ 080856Z AUTO 03007KT 10SM OVC013 16/12 A2993 RMK AO2 SLP137
      T01560122 50002 TSNO=
METAR KNXP 080856Z AUTO 30008KT CLR 26/M01 A2990 RMK AO2 SLP085 T02561006
      53007 $=
METAR KNXX 080856Z AUTO 00000KT 5SM HZ CLR 24/20 A3003 RMK AO2 SLP172
      T02390200 53001 $=
METAR MHLC 080900Z 00000KT 9999 FEW026 SCT200 25/24 Q1009 A2980 NOSIG=
METAR MHLM 080900Z 00000KT 9999 FEW028CB BKN080 26/24 Q1009 A2980 NOSIG=
METAR MHTG 080900Z 00000KT 9999 BKN025 SCT080 19/18 Q1016 A3000 NOSIG=
METAR MUCM 080849Z 00000KT 9000 FEW020 23/21 Q1014=
METAR MUCU 080857Z 04004KT 9000 FEW020 25/23 Q1015=
METAR MUHG 080851Z 18004KT 130V220 CAVOK 25/22 Q1015=
METAR OAHR 080855Z 35014KT CAVOK 39/M03 Q1011 RMK SKC VIS MIN 9999
      BLU=
METAR TXKF 080855Z 16013KT 9999 VCSH SCT013TCU BKN042 BKN170 BKN300
      25/22 Q1018 RMK TCU W-NW=
####018000112####
SAEU KAWN 080800 RRX
METAR ENGM 080842Z 22007KT 9999 FEW011 SCT014 BKN018 16/14 Q1015 TEMPO
      BKN012=
####018001349####
SAXX70 KAWN 080900 RRE
METAR KQFT 080850Z AUTO 16001KT 5SM BR OVC040 27/20 A2981 RMK A02=
METAR KQBR 080855Z AUTO VRB03KT 12SM FEW210 28/08 A3002 RMK AO2 SLP053
      T02790083 57011=
METAR KQD9 080855Z VRB05KT 9999 FEW060 SCT170 34/15 A2993 RMK SLP052
      WND DATA ESTMD ALSTG/SLP ESTMD 57024=
METAR KQGV 080855Z 31025G36KT 8000 BLDU CLR 46/M08 A2959 RMK SLP007
      58007=
METAR KQHT 080855Z 32007G13KT 9999 SCT150 34/M10 A2993 RMK SLP096 WND
      DATA ESTMD ALSTG/SLP ESTMD 58010=
METAR KQPV 080855Z AUTO 28007G14KT 250V320 9999 FEW230 41/08 A2969
      RMK AO2 SLP046 T04140075 57004=
METAR KQRY 080855Z AUTO VRB01KT 9999 CLR 32/04 A3014 RMK AO2 SLP063
      T03200039 57017 PWINO $=
METAR KQSL 080855Z 32010G16KT 9999 CLR 43/02 A2968 RMK SLP037 Q1005MB
      57003=
METAR KQSR 080855Z 35009G15KT 9999 FEW095 30/M06 A3015 RMK AO2A SLP070
      WND 280V020 WND DATA/ALSTG ESTMD 57016=
METAR KQW3 080855Z AUTO 06009G14KT 9999 CLR 37/14 A2981 RMK AO2 SLP009=
METAR KQXF 080855Z AUTO 31009G20KT 9000 CLR 44/M04 A2962 RMK AO2 SLP018
      T04401038 57003 $=
METAR KQAJ 080858Z COR 32008KT 9999 CLR 39/07 A2973 RMK SLP052 WND
      DATA ESTMD ALSTG/SLP ESTMD 58003 COR 0900=
METAR KQEN 080900Z AUTO 26004KT 7SM CLR 21/16 A3039 RMK A02=
METAR KQEP 080900Z AUTO 21001KT 7SM CLR 27/18 A2984 RMK A02=
####018000118####
SAUS41 KGYX 080901
MTRMWN
METAR KMWN 080853Z 34002KT 7SM FEW000 FEW003 FEW020 FEW050 15/14
RMK HZ VC ALQDS

####018000080####
SANC01 NWWW 080900
METAR NWWW 080900Z AUTO 00000KT 9999NDV NCD 18/16 Q1016=
####018000121####
SAUY SUMU 080900
METAR SUMU 080900Z 33006KT CAVOK 04/03 Q1017 NOSIG=
METAR SULS 080900Z 29009KT CAVOK 08/04 Q1016=
####018000123####
SAUY59 SUMU 080900
METAR SUMU 080900Z 33006KT CAVOK 04/03 Q1017 NOSIG=
METAR SULS 080900Z 29009KT CAVOK 08/04 Q1016=
####018000152####
SAUS44 KBMX 080901 COR
MTREUF
METAR KEUF 080858Z AUTO 00000KT 10SM CLR 21/19 A3001 RMK AO2 
RAB0759E09B35E46 SLP157 6//// T02110189 56008 PNO $
####018000055####
SAUS90 KWBC 080800 RRH
METAR K8S0 080755Z 27007KT=
####018000134####
SPUS90 KWBC 080902
SPECI KVCT 080859Z AUTO 07012G18KT 2 1/2SM +RA BR FEW009 BKN029
     OVC080 26/25 A2988 RMK AO2 RAB53 P0003=
####018000376####
SAUS90 KWBC 080900 CCB
METAR KRIL 080853Z AUTO 07008KT 10SM CLR 16/08 A3025 RMK AO2
     SLP165 60000 T01610078 58006 TSNO=
METAR KEUF 080858Z AUTO 00000KT 10SM CLR 21/19 A3001 RMK AO2
     RAB0759E09B35E46 SLP157 6//// T02110189 56008 PNO $=
METAR KEUF 080858Z AUTO 00000KT 10SM CLR 21/19 A3001 RMK AO2
     RAB0759E09B35E46 SLP157 6//// T02110189 56008 PNO $=
####018000107####
SAUS90 KWBC 080902
METAR KFKA 080903Z AUTO 31006KT 5SM BR BKN033 19/19 A3006 RMK AO2
     T01920187=
####018002538####
SAUS90 KWBC 080900 RRC
METAR KEUF 080858Z AUTO 00000KT 10SM CLR 21/19 A3001 RMK AO2
     RAB0759E09B35E46 SLP157 6//// T02110189 56008 PNO $=
METAR KFDK 080847Z AUTO 00000KT 5SM BR SCT100 24/22 A3003=
METAR KCVX 080855Z AUTO 19003KT 10SM BKN120 21/20 A2998 RMK
     AO2=
METAR KFKS 080855Z AUTO 22005KT 10SM OVC100 22/19 A2998 RMK
     AO2=
METAR KSLH 080855Z AUTO 00000KT 10SM BKN120 21/21 A2996 RMK
     AO2=
METAR KSJX 080855Z AUTO 22009KT 5SM -RA SCT060 BKN120 21/20 A2996
     RMK AO2=
METAR KLDM 080855Z AUTO 20004KT 10SM SCT065 OVC110 22/21 A3000 RMK
     AO2=
METAR KSAW 080859Z AUTO 29003KT 5SM BR OVC001 18/17 A2997 RMK
     AO2=
METAR KGOV 080855Z AUTO 00000KT 3SM BR SCT055 SCT110 20/20 A3003
     RMK AO2=
METAR KPZQ 080855Z AUTO 22003KT 7SM SCT120 22/22 A2997 RMK AO2=
METAR KHYX 080855Z AUTO 00000KT 10SM CLR 22/20 A3000 RMK AO2=
METAR KPHN 080855Z AUTO 00000KT 1/4SM FG VV002 20/18 A3002 RMK
     AO2=
METAR KONZ 080857Z AUTO 00000KT 10SM SCT075 25/20 A3002 RMK
     AO2=
METAR KISQ 080856Z AUTO 20005KT 1/2SM -RA OVC002 19/18 A2995 RMK
     AO2=
METAR KRMY 080855Z AUTO 00000KT 10SM CLR 22/19 A3003 RMK AO2=
METAR KOSC 080854Z AUTO 00000KT 7SM CLR 19/18 A2999 RMK AO2=
METAR KTTF 080854Z AUTO 00000KT 10SM CLR 23/21 A3002 RMK AO2=
METAR KAMN 080855Z AUTO 29003KT 5SM BR SCT055 BKN110 23/22 A3001
     RMK AO2=
METAR KMCD 080855Z AUTO 17003KT 7SM OVC110 21/18 A2996 RMK AO2=
METAR KERY 080855Z AUTO 23003KT 10SM BKN015 OVC026 19/19 A2996 RMK
     AO2=
METAR KDVP 080856Z AUTO 27003KT 10SM CLR 15/13 A3016 RMK AO2
     T01510133=
METAR KCDD 080851Z AUTO 18003KT 10SM CLR 16/16 A3003 RMK AO2=
METAR KFOZ 080853Z AUTO 00000KT 1/4SM FG OVC001 12/12 A3005 RMK
     AO2=
METAR KAQP 080854Z AUTO 22003KT 10SM CLR 14/14 A3011 RMK AO2=
METAR KETH 080854Z AUTO 24004KT 10SM CLR 16/14 A3010 RMK AO2=
METAR KXVG 080856Z AUTO 24004KT 7SM CLR 12/12 A3004 RMK AO2=
METAR KORB 080854Z AUTO 20003KT 10SM CLR 15/13 A3001 RMK AO2=
METAR KMZH 080851Z AUTO 30003KT 10SM CLR 15/15 A3004 RMK AO2=
METAR KBFW 080853Z AUTO 32003KT 10SM SCT055 17/14 A3000 RMK
     AO2=
METAR KVWU 080851Z AUTO 20003KT 10SM CLR 14/14 A3002 RMK AO2=
METAR KOWA 080854Z AUTO 30003KT 10SM CLR 17/17 A3007 RMK AO2=
METAR KCDA 080855Z AUTO 00000KT 4SM BR CLR 20/18 A3009 RMK AO2=
METAR KMWN 080853Z 34002KT 7SM FEW000 FEW003 FEW020 FEW050 15/14
     RMK HZ VC ALQDS=
METAR KNEL 080900Z AUTO 00000KT 3SM BR BKN080 22/20 A3001 RMK AO2
     SLP161 T02220200 58002 $=
####018000081####
SAMT20 GQNN 080900
METAR GQNN 080900Z 20009KT 6000 SCT010 28/23 Q1012 NOSIG=
####018001170####
SAUS20 KNKA 080901
SPECI KARB 080900Z AUTO 00000KT 1 1/2SM BR CLR 20/19 A3003 RMK AO2=
SPECI KCKB 080900Z AUTO 00000KT 2 1/2SM BR CLR 19/18 A3009 RMK AO2=
SPECI KCQX 080900Z AUTO VRB03KT 1SM BR VV001 19/19 A3009 RMK AO2=
METAR KCTZ 080900Z AUTO 00000KT 7SM CLR 24/22 A2992 RMK AO2=
SPECI KDAW 080900Z AUTO 00000KT 1 3/4SM BR OVC003 22/21 A3006 RMK 
    AO2 $=
METAR KDMA 080855Z AUTO 05008KT 10SM BKN150 31/09 A2986 RMK AO2 SLP034
      T03050091 55001 $=
METAR KEBS 080855Z AUTO 33005KT 2SM BKN026 18/17 A3009 RMK AO2=
METAR KFAF 080855Z VRB03KT 9SM SCT080 BKN110 26/26 A2995 RMK AO2A RAE0805
      SLP145 P0000 60000 T02590259 55000=
METAR KFQD 080859Z AUTO 31004KT 10SM CLR 22/17 A3003 RMK AO2=
METAR KNBG 080855Z AUTO 00000KT 6SM BR CLR 25/24 A3000 RMK AO2 SLP158
      T02500239 58003 PWINO $=
METAR KNCA 080856Z AUTO 00000KT 10SM CLR 23/21 A2991 RMK AO2 SLP129
      T02330211 55003=
METAR KRHP 080902Z AUTO 00000KT 5SM BR CLR 18/17 A3012 RMK AO2=
METAR KTVK 080855Z AUTO 29004KT 7SM CLR 20/20 A3007 RMK AO2=
METAR PGUA 080855Z AUTO 09013KT 10SM SCT017 27/ A2989 RMK AO2 SCT V
      BKN SLP102 T0273 53009 VISNO RWY24L $=
####018000094####
SASR31 WSAP 080900
METAR WSAP 080900Z 08004KT 9999 -SHRA 
FEW018TCU BKN150 31/25 Q1008=
####018001698####
SAEU KAWN 080900 RRJ
METAR EDLN 080850Z VRB04KT CAVOK 28/14 Q1019 RMK ATIS I=
METAR EDXW 080850Z 21011KT CAVOK 22/13 Q1018 RMK ATIS INFO Q=
METAR EGAE 080850Z 22013KT 9999 FEW018 SCT040 15/10 Q1012=
METAR EGBJ 080850Z 22003KT 9999 FEW024 18/10 Q1018=
METAR EGEC 080850Z 21012KT 9999 FEW025 16/10 Q1012=
METAR EGNH 080850Z 23013KT 9999 SCT018 17/12 Q1016=
METAR EGNJ 080850Z 22009KT 9999 -RA FEW025 17/12 Q1017=
METAR EGPA 080850Z 20014KT 9999 VCSH FEW027 SCT044 15/11 Q1006=
METAR EGPC 080850Z 19015G25KT 9999 FEW026 15/11 Q1007=
METAR COR EGPE 080850Z 21014KT 9999 FEW006 SCT036 16/10 Q1008=
METAR EGPL 080850Z 22020KT 9999 FEW018 14/10 Q1006=
METAR EGPM 080850Z 21023KT 9999 FEW012 SCT035 15/10 Q1004=
METAR EGPN 080850Z 24017KT 9999 FEW022 SCT045 15/11 Q1012=
METAR EGPO 080850Z 22020KT 9999 VCSH FEW014CB 14/11 Q1005=
METAR EGSC 080850Z 23004KT 240V300 8000 VCSH FEW020 BKN034 18/14 Q1019=
METAR COR EGSH 080850Z 25007KT 210V280 9999 -RA BKN012 20/15 Q1018
      BECMG SCT030=
METAR LBSF 080900Z 27006MPS 9999 BKN038 16/11 Q1018 NOSIG=
METAR LEJR 080900Z VRB02KT CAVOK 25/19 Q1016=
METAR LGAD 080850Z 34015KT 9999 FEW020 28/17 Q1013=
METAR LGIR 080850Z 02004KT CAVOK 29/21 Q1011 NOSIG=
METAR LGKL 080850Z 34004KT 9999 FEW030 32/17 Q1011=
METAR LGKO 080850Z 30018KT CAVOK 28/18 Q1010=
METAR LGKR 080850Z 31014KT CAVOK 27/12 Q1013 NOSIG=
METAR LGRP 080850Z 24016KT CAVOK 30/19 Q1008 NOSIG=
METAR LGSA 080850Z 30008KT CAVOK 32/15 Q1011=
METAR LGSM 080850Z 34011KT CAVOK 29/14 Q1010=
METAR LGTS 080850Z 32022KT 9999 FEW025 23/12 Q1016 NOSIG=
METAR LIYW 080855Z AUTO 21007KT 9999 OVC060 24/13 A3021 RMK AO2 SLP228
      T02420131 51005=
####018000115####
SARA31 UHHH 080900
METAR 080900Z
METAR METAR UHHH 080900Z 03003MPS 9999 BKN030CB OVC100 18/15 Q1010
NOSIG=
####018000085####
SAMC31 GMMC 080800 RRA
METAR GMAD 080800Z 30002KT 8000 SCT020 22/16 Q1014 NOSIG=
####018000106####
SAIN90 VECC 080800
METAR VEBS 080800Z 19016KT 5000 HZ FEW020 FEW030CB SCT100 32/26 Q1006
    NOSIG=
####018000105####
SASR31 WSSS 080900
METAR WSSS 080900Z 22003KT 100V260 9999 FEW017 SCT160 BKN270 30/25
Q1008 NOSIG=
####018000126####
SAUS41 KPHI 080901
MTRNEL
METAR KNEL 080900Z AUTO 00000KT 3SM BR BKN080 22/20 A3001 RMK AO2 
SLP161 T02220200 58002 $
####018000080####
SANC01 NWWM 080900
METAR NWWM 080900Z AUTO 32002KT 9999NDV NCD 19/16 Q1016=
####018000098####
SANC01 NWWU 080900
METAR NWWU 080900Z AUTO VRB03KT 9999NDV BKN036/// OVC045/// 22/18
Q1015=
####018000080####
SANC01 NWWL 080900
METAR NWWL 080900Z AUTO 00000KT 9999NDV NCD 17/16 Q1016=
####018002797####
SAUS99 KWBC 080902
METAR
KFKA 080903Z AUTO 31006KT 5SM BR BKN033 19/19 A3006 RMK AO2
     T01920187=
KCVX 080855Z AUTO 19003KT 10SM BKN120 21/20 A2998 RMK AO2=
KFKS 080855Z AUTO 22005KT 10SM OVC100 22/19 A2998 RMK AO2=
KSLH 080855Z AUTO 00000KT 10SM BKN120 21/21 A2996 RMK AO2=
KSJX 080855Z AUTO 22009KT 5SM -RA SCT060 BKN120 21/20 A2996 RMK
     AO2=
KLDM 080855Z AUTO 20004KT 10SM SCT065 OVC110 22/21 A3000 RMK
     AO2=
KSAW 080859Z AUTO 29003KT 5SM BR OVC001 18/17 A2997 RMK AO2=
KGOV 080855Z AUTO 00000KT 3SM BR SCT055 SCT110 20/20 A3003 RMK
     AO2=
KPZQ 080855Z AUTO 22003KT 7SM SCT120 22/22 A2997 RMK AO2=
KHYX 080855Z AUTO 00000KT 10SM CLR 22/20 A3000 RMK AO2=
KPHN 080855Z AUTO 00000KT 1/4SM FG VV002 20/18 A3002 RMK AO2=
KONZ 080857Z AUTO 00000KT 10SM SCT075 25/20 A3002 RMK AO2=
KISQ 080856Z AUTO 20005KT 1/2SM -RA OVC002 19/18 A2995 RMK AO2=
KRMY 080855Z AUTO 00000KT 10SM CLR 22/19 A3003 RMK AO2=
KOSC 080854Z AUTO 00000KT 7SM CLR 19/18 A2999 RMK AO2=
KTTF 080854Z AUTO 00000KT 10SM CLR 23/21 A3002 RMK AO2=
KAMN 080855Z AUTO 29003KT 5SM BR SCT055 BKN110 23/22 A3001 RMK
     AO2=
KMCD 080855Z AUTO 17003KT 7SM OVC110 21/18 A2996 RMK AO2=
KERY 080855Z AUTO 23003KT 10SM BKN015 OVC026 19/19 A2996 RMK
     AO2=
KDVP 080856Z AUTO 27003KT 10SM CLR 15/13 A3016 RMK AO2
     T01510133=
KCDD 080851Z AUTO 18003KT 10SM CLR 16/16 A3003 RMK AO2=
KFOZ 080853Z AUTO 00000KT 1/4SM FG OVC001 12/12 A3005 RMK AO2=
KAQP 080854Z AUTO 22003KT 10SM CLR 14/14 A3011 RMK AO2=
KETH 080854Z AUTO 24004KT 10SM CLR 16/14 A3010 RMK AO2=
KXVG 080856Z AUTO 24004KT 7SM CLR 12/12 A3004 RMK AO2=
KORB 080854Z AUTO 20003KT 10SM CLR 15/13 A3001 RMK AO2=
KMZH 080851Z AUTO 30003KT 10SM CLR 15/15 A3004 RMK AO2=
KBFW 080853Z AUTO 32003KT 10SM SCT055 17/14 A3000 RMK AO2=
KVWU 080851Z AUTO 20003KT 10SM CLR 14/14 A3002 RMK AO2=
KOWA 080854Z AUTO 30003KT 10SM CLR 17/17 A3007 RMK AO2=
KCDA 080855Z AUTO 00000KT 4SM BR CLR 20/18 A3009 RMK AO2=
KCTZ 080900Z AUTO 00000KT 7SM CLR 24/22 A2992 RMK AO2=
KDMA 080855Z AUTO 05008KT 10SM BKN150 31/09 A2986 RMK AO2 SLP034
     T03050091 55001 $=
KEBS 080855Z AUTO 33005KT 2SM BKN026 18/17 A3009 RMK AO2=
KFAF 080855Z VRB03KT 9SM SCT080 BKN110 26/26 A2995 RMK AO2A
     RAE0805 SLP145 P0000 60000 T02590259 55000=
KFQD 080859Z AUTO 31004KT 10SM CLR 22/17 A3003 RMK AO2=
KNBG 080855Z AUTO 00000KT 6SM BR CLR 25/24 A3000 RMK AO2 SLP158
     T02500239 58003 PWINO $=
KNCA 080856Z AUTO 00000KT 10SM CLR 23/21 A2991 RMK AO2 SLP129
     T02330211 55003=
KRHP 080902Z AUTO 00000KT 5SM BR CLR 18/17 A3012 RMK AO2=
KTVK 080855Z AUTO 29004KT 7SM CLR 20/20 A3007 RMK AO2=
PGUA 080855Z AUTO 09013KT 10SM SCT017 27/ A2989 RMK AO2 SCT V BKN
     SLP102 T0273 53009 VISNO RWY24L $=
####018000295####
SPUS99 KWBC 080902
SPECI
KARB 080900Z AUTO 00000KT 1 1/2SM BR CLR 20/19 A3003 RMK AO2=
KCKB 080900Z AUTO 00000KT 2 1/2SM BR CLR 19/18 A3009 RMK AO2=
KCQX 080900Z AUTO VRB03KT 1SM BR VV001 19/19 A3009 RMK AO2=
KDAW 080900Z AUTO 00000KT 1 3/4SM BR OVC003 22/21 A3006 RMK AO2
     $=
####018000080####
SAQB31 LQBK 080900
METAR LQBK 080900Z 02003KT 9999 FEW036 22/10 Q1022 NOSIG=
####018000087####
SAGH20 DGAA 080800
METAR DGAA 080800Z 24005KT 8000 FEW014 BKN100 26/23 Q1015 NOSIG=
####018000083####
SAKN74 HKMO 080800
METAR HKMO 080830Z 18014KT 9999 SCT024TCU 28/21 Q1019 NOSIG=
####018001262####
SAAM20 FCBB 080800
METAR FCBB 080800Z 25004KT 6000  FEW012 BKN140 23/20 Q1016 NOSIG=
METAR FCPP 080800Z 14004KT 4000 BR FEW010 BKN023 23/21 Q1015 BECMG
6000 NSW=
METAR FKKD 080800Z 14003KT 070V160 7000 TS BKN013 FEW016CB OVC120
26/24 Q1015 TEMPO 4000 TS BR=
METAR FKYS 080800Z 26003KT 230V300 8000 FEW003 BKN006 22/20 Q1019
NOSIG=
METAR FKKR 080800Z 00000KT 9999 TSRA SCT003 SCT016 FEW020 OVC120
22/21 Q1014 TEMPO BKN006=
METAR FKKN NIL=
METAR FKKL NIL=
METAR FEFT 080800Z 32004KT 9999 FEW005 BKN150 24/21 Q1017=
METAR FEFG 080800Z /////KT 9999 TSRA FEW033CB OVC140 20/20 Q////=
METAR FEFF 080800Z 31004KT 9999 FEW016 BKN150 23/23 Q1015 NOSIG=
METAR FOOL 080800Z 16007KT 120V200 8000 SCT010 BKN040 BKN100 25/21
Q1015 NOSIG=
METAR FOON 080800Z 18004KT 6000 SCT010 BKN150 23/21 Q1018=
METAR FOOG NIL=
METAR FGBT 080800Z 18004KT 8000 BKN013 OVC130 26/24 Q1015 NOSIG=
METAR FGSL 080800Z 00000KT 9999 SCT013 FEW020CB BKN130 26/26
Q1015 NOSIG=
METAR FZRF NIL=
METAR FZOS NIL=
METAR FZAA 080800Z 26006KT 3000 BR FEW016 23/19 Q1016 BECMG 6000=
METAR FZIC NIL=
METAR FZFK NIL=
METAR FZQA NIL=
METAR FNHU NIL=
METAR FNLU 080800Z VRB03KT 6000 SCT017 BKN020 23/19 Q1015 NOSIG=
METAR FPST 080800Z 17008KT 9999 FEW025 SCT250 26/20 Q1015 NOSIG=
####018000104####
SAAM31 FCBB 080800 RRB
METAR FCPP 080800Z 14004KT 4000 BR FEW010 BKN023 23/21 Q1015 BECMG
6000 NSW=
####018000069####
SABZ21 SBJP 080900
METAR SBJP 080900Z 21004KT CAVOK 22/21 Q1015 =
####018000068####
SABZ23 SBVT 080900
METAR SBVT 080900Z 30004KT CAVOK 17/15 Q1020=
####018000068####
SABZ18 SBRP 080900
METAR SBRP 080900Z 12001KT CAVOK 11/09 Q1019=
####018000068####
SABZ24 SBCG 080900
METAR SBCG 080900Z 12004KT CAVOK 15/09 Q1016=
####018000068####
SABZ19 SBMA 080900
METAR SBMA 080900Z 26004KT CAVOK ///// Q1012=
####018000074####
SABZ21 SBFN 080900
METAR SBFN 080900Z 15004KT 9999 SCT017 26/23 Q1014=
####018000143####
SAMH31 PKMR 080900
METAR PKMR 080854Z 08011KT 15SM SCT014 BKN045 BKN120 OVC300 27/24
A2981 RMK SHRAE34 SLP098 60027 8/878 T02660240 52019
####018000591####
SAMX41 MMMX 080857
METAR MMMX 080846Z 00000KT 4SM -RA SCT008 BKN020 OVC070 15/14 A3018
      NOSIG RMK SLP043 57008 905 60105 8/47/=
METAR MMAA 080847Z 00000KT 8SM SCT020TCU SCT090 BKN300 27/23 A2977
      RMK SLP087 54000 906 8/232=
METAR MMQT 080845Z 08005KT 6SM SCT020BKN120 OVC250 16/14 A3012
      RMK 6/0185 8/463-RAE35=
METAR MMTO 080845Z 00000KT 3SM -RA BKN015CB OVC070 13/11 A3024
      RMK SLP054 57006 959 8/36/ RA E40=
METAR MMVR 080846Z 24005KT 7SM  BKN012CB OVC080 23/23 A2980 
      RMK SLP079 57005 917 61575 8/96/ INTMT +RA OCNL LTGICCG ALQDS VRB COND=
####018000166####
SANL32 EHDB 080855
METAR EHEH 080855Z AUTO 22006KT 9999NDV FEW270 28/12 Q1019 
BLU BLU=
METAR EHKD 080855Z AUTO 24011KT 9999NDV OVC056/// 19/15 Q1019 
BLU BLU=
####018000082####
SABZ24 SBFI 080900
METAR SBFI 080900Z 19002KT 8000 FEW020 SCT100 16/13 Q1014 =
####018000116####
SAPQ50 KWBC 080800 RRB
METAR
PTTP 080755Z 18003KT 15SM FEW018 BKN300 27/24 A2985 RMK SLP106
     T02720244=
####018000068####
SABZ22 SBCY 080900
METAR SBCY 080900Z 02005KT CAVOK 20/14 Q1014=
####018000128####
SAPQ50 KWBC 080900 RRA
METAR
PTTP 080855Z 19003KT 15SM FEW018 SCT300 26/24 A2986 RMK SLP111
     8/101 T02580242 52017=
####018000421####
SPXX60 KWBC 080902
SPECI
KAFF 080857Z AUTO 17007KT 10SM FEW002 BKN016 OVC023 13/12 A3040
     RMK AO2 CIG 012V018 SLP206=
KDOV 080858Z AUTO 00000KT 2 1/2SM BR CLR 24/24 A2999 RMK AO2 VIS
     1/2 RWY19 SLP157=
KHST 080856Z AUTO 03003KT 10SM -DZ FEW014 26/25 A2992 RMK AO2
     DZB0856 SLP134 $=
PGUA 080856Z AUTO 09012KT 10SM BKN018 27/ A2989 RMK AO2 CIG
     017V022 BKN V SCT SLP102 VISNO RWY24L $=
####018003704####
SAXX60 KWBC 080900 RRB
METAR
KNFL 080856Z AUTO 36004KT 10SM CLR 19/M01 A2997 RMK AO2 SLP121
     T01891006 53006 TSNO=
KNGP 080856Z AUTO 11011KT 10SM FEW018 BKN050 28/26 A2980 RMK AO2
     TSB18E34RAB37E49 SLP092 P0001 60001 T02830261 56016 $=
KNID 080856Z AUTO 13005KT FEW090 25/06 A2983 RMK AO2 SLP077
     T02500056 53004 TSNO $=
KNKX 080855Z 34006KT 10SM OVC014 16/13 A2990 RMK AO2 SLP119
     T01610133 58007=
KNMM 080856Z AUTO 00000KT 10SM CLR 23/21 A3004 RMK AO2 SLP177
     T02280211 56005 $=
KNQI 080856Z AUTO 01006KT 9SM FEW110 27/25 A2982 RMK AO2 TSB16E38
     SLP094 T02720250 56014 $=
KNYG 080856Z AUTO 31003KT CLR 26/22 A2998 RMK AO2 SLP153 T02560222
     55001=
KNYL 080855Z 16004KT 10SM CLR 28/02 A2971 RMK AO2 SLP056 T02830022
     53000=
KPOE 080855Z AUTO 11006KT 10SM CLR 24/22 A3000 RMK AO2 SLP158
     T02440222 55000=
KPSM 080855Z 14006KT 2 1/2SM BR OVC005 22/21 A3005 RMK AO2A SLP179
     T02150207 53003=
KSZL 080855Z COR 33003KT 10SM SCT040 BKN049 23/23 A3004 RMK A02A
     SLP164 P0000 6//// T02340226 56004 COR 0859=
KVBG 080855Z AUTO 00000KT 10SM CLR 12/11 A2993 RMK AO2 CIG 006
     RWY12 SLP125 T01220111 57003 TSNO $=
KVPS 080855Z 32001KT 10SM SKC 24/23 A3002 RMK AO2A SLP165
     T02380233 56008=
KDMA 080855Z AUTO 05008KT 10SM BKN150 31/09 A2986 RMK AO2 SLP034
     T03050091 55001 $=
KFAF 080855Z VRB03KT 9SM SCT080 BKN110 26/26 A2995 RMK AO2A
     RAE0805 SLP145 P0000 60000 T02590259 55000=
KFFO 080855Z 00000KT 8SM CLR 21/20 A3007 RMK AO2A SLP177 55004=
KHOP 080855Z AUTO 00000KT 10SM FEW075 23/22 A3006 RMK AO2 SLP176
     T02310223 55004=
KNFL 080856Z AUTO 36004KT 10SM CLR 19/M01 A2997 RMK AO2 SLP121
     T01891006 53006 TSNO=
KNID 080856Z AUTO 13005KT FEW090 25/06 A2983 RMK AO2 SLP077
     T02500056 53004 TSNO $=
KNJK 080856Z AUTO 09003KT 10SM CLR 23/11 A2968 RMK AO2 SLP066
     T02330106 53004 TSNO=
KNMM 080856Z AUTO 00000KT 10SM CLR 23/21 A3004 RMK AO2 SLP177
     T02280211 56005 $=
KNRS 080856Z AUTO 30007KT 10SM OVC014 17/13 A2990 RMK AO2 SLP125
     T01720133 58007 TSNO $=
KNUW 080856Z 30003KT 10SM CLR 16/11 A2996 RMK AO2 SLP150 T01560111
     51007 $=
KSZL 080855Z COR 33003KT 10SM SCT040 BKN049 23/23 A3004 RMK A02A
     SLP164 P0000 6//// T02340226 56004 COR 0859=
PASY 080856Z AUTO 02016KT 10SM OVC006 A2974 RMK AO2 SLPNO 6////
     52007 TSNO PNO=
PHBK 080856Z AUTO 00000KT 10SM OVC075 26/18 A3003 RMK AO2 SLP172
     T02560178 51012 TSNO $=
KRYT 080853Z AUTO 00000KT 6SM HZ SCT090 22/17 A3003 RMK AO2 SLP150
     T02220172 55003 $=
KMRT 080853Z AUTO 00000KT 4SM CLR 20/19 A3011 RMK AO2
     T02030187=
KNMM 080856Z AUTO 00000KT 10SM CLR 23/21 A3004 RMK AO2 SLP177
     T02280211 56005 $=
KNTU 080856Z 09003KT 10SM CLR 26/23 A2995 RMK AO2 SLP143 T02560233
     55000 CHINO RWY 05R $=
KPSM 080855Z 14006KT 2 1/2SM BR OVC005 22/21 A3005 RMK AO2A SLP179
     T02150207 53003=
KNGU 080859Z 12003KT 5SM BR BKN130 26/24 A2996 RMK AO2 SLP146
     T02560239 55003=
KCVS 080855Z 04006KT 10SM FEW200 17/14 A3020 RMK AO2A SLP184
     T01700140 56003 $=
KDMA 080855Z AUTO 05008KT 10SM BKN150 31/09 A2986 RMK AO2 SLP034
     T03050091 55001 $=
KFAF 080855Z VRB03KT 9SM SCT080 BKN110 26/26 A2995 RMK AO2A
     RAE0805 SLP145 P0000 60000 T02590259 55000=
KFFO 080855Z 00000KT 8SM CLR 21/20 A3007 RMK AO2A SLP177 55004=
KFRI 080855Z AUTO 33004KT 10SM BKN110 OVC140 22/21 A3009 RMK AO2
     SLP180 T02160206 53001=
KHLR 080856Z AUTO 09004KT 10SM FEW027 26/ A2998 RMK AO2 RAB29E38
     SLP143 P0000 60000 T0256 56006 $=
KHOP 080855Z AUTO 00000KT 10SM FEW075 23/22 A3006 RMK AO2 SLP176
     T02310223 55004=
####018000081####
SABZ20 SBBE 080900
METAR SBBE 080900Z 11004KT 9999 FEW017 BKN080 25/22 Q1012=
####018000132####
SAUS70 KWBC 080900 CCA
METAR
KRIL 080853Z AUTO 07008KT 10SM CLR 16/08 A3025 RMK AO2 SLP165
     60000 T01610078 58006 TSNO=
####018000089####
SAAJ31 UBBB 080900
METAR UBBB 080900Z 34022KT CAVOK 31/28 Q1011 NOSIG RMK
R88CLRD70=
####018003725####
SAUS70 KWBC 080900 RRC
METAR
KSGH 080856Z AUTO 00000KT 4SM BR CLR 21/21 A3010 RMK AO2 56005
     T02050205 SLP181=
K4I3 080856Z AUTO 00000KT 10SM SCT060 21/18 A3009 RMK AO2=
KACB 080855Z AUTO 00000KT 10SM CLR 24/21 A2997 RMK AO2=
KACQ 080859Z AUTO 00000KT 10SM CLR 17/16 A3011 RMK AO2=
KADC 080857Z AUTO 24005KT 10SM CLR 14/12 A3008 RMK AO2=
KAEL 080851Z AUTO 31003KT 10SM CLR 18/17 A3008 RMK AO2=
KANE 080855Z AUTO 28004KT 10SM 17/16 A3007 RMK AO2=
KAUM 080855Z AUTO 32006KT 10SM CLR 18/17 A3006 RMK AO2=
KAWG 080855Z AUTO 00000KT 7SM SCT003 BKN009 22/20 A3003 RMK AO2
     P0001=
KAXA 080855Z AUTO 32005KT 10SM CLR 17/17 A3010 RMK AO2=
KBAX 080855Z AUTO 00000KT 4SM BR CLR 21/21 A3000 RMK AO2=
KBDH 080855Z AUTO 00000KT 10SM CLR 16/15 A3012 RMK AO2=
KBNW 080855Z AUTO 34005KT 10SM CLR 21/18 A3009 RMK AO2=
KBWD 080855Z AUTO 36003KT 10SM CLR 23/22 A3000 RMK AO2=
KCAD 080854Z AUTO 22005KT 10SM -RA OVC100 22/20 A3003 RMK AO2=
KCAV 080855Z AUTO 00000KT 7SM BKN027 20/18 A3010 RMK AO2=
KCBF 080855Z AUTO 36005KT 10SM CLR 20/16 A3012 RMK AO2=
KCBG 080855Z AUTO 00000KT 10SM CLR 16/14 A3007 RMK AO2=
KCCY 080855Z AUTO 31004KT 10SM SCT037 20/17 A3006 RMK AO2=
KCFE 080855Z AUTO 00000KT 10SM CLR 18/16 A3009 RMK AO2
     T01750162=
KCFS 080855Z AUTO 00000KT 1 1/4SM BR VV007 20/20 A3000 RMK AO2=
KCIN 080855Z AUTO 33007KT 10SM CLR 18/16 A3012 RMK AO2=
KCKC 080855Z AUTO 29003KT 10SM SCT060 16/13 A3003 RMK AO2=
KCKN 080855Z AUTO 27003KT 10SM CLR 14/12 A3005 RMK AO2=
KCNB 080858Z AUTO 25005KT 10SM CLR 16/13 A3013 RMK AO2
     T01550127=
KCNC 080855Z AUTO 00000KT 10SM SCT012 SCT033 SCT039 20/18 A3006
     RMK AO2=
KCOQ 080856Z AUTO 28006KT 10SM CLR 14/14 A3005 RMK AO2=
KCQM 080857Z AUTO 23003KT 10SM CLR 14/14 A3004 RMK AO2=
KCSQ 080855Z AUTO 02007KT 10SM CLR 20/19 A3009 RMK AO2=
KCVH 080850Z AUTO 00000KT 10SM OVC010 13/11 A2993 RMK AO1=
KDEH 080855Z AUTO 31003KT 7SM CLR 21/18 A3006 RMK AO2=
KDNS 080855Z AUTO 02003KT 10SM BKN029 20/17 A3015 RMK AO2=
KDRM 080856Z AUTO 15003KT 7SM BKN110 20/20 A2995 RMK AO2=
KDTL 080855Z AUTO 27004KT 10SM CLR 16/11 A3009 RMK AO2=
KDUH 080855Z AUTO 00000KT 7SM CLR 22/18 A3004 RMK AO2=
KDXX 080854Z AUTO 00000KT 10SM CLR 14/14 A3011 RMK AO2=
KDYT 080854Z AUTO 25005KT 10SM CLR 20/16 A3003 RMK AO2=
KEFK 080855Z AUTO 00000KT 4SM BR CLR 20/18 A3006 RMK AO2=
KMPZ 080855Z AUTO 27003KT 7SM CLR 22/21 A3003 RMK AO2=
KMUT 080855Z AUTO 00000KT 5SM OVC006 24/22 A3001 RMK AO2=
KMVE 080854Z AUTO 30004KT 10SM CLR 16/15 A3010 RMK AO2=
KMXO 080855Z AUTO 00000KT 4SM SCT011 21/19 A3001 RMK AO2=
KO22 080855Z AUTO 00000KT 10SM CLR 16/12 A2991 RMK AO1=
KOEB 080855Z AUTO 00000KT 7SM CLR 22/20 A3005 RMK AO2=
KONA 080850Z AUTO 31005KT 7SM CLR 20/18 A3001 RMK AO2=
KORC 080855Z AUTO 34004KT 10SM CLR 18/18 A3014 RMK AO2=
KOVL 080853Z AUTO 00000KT 10SM CLR 13/12 A3010 RMK AO2
     T01310117=
KOXV 080855Z AUTO 32003KT 7SM CLR 21/20 A3006 RMK AO2=
KOZW 080855Z AUTO 00000KT 7SM CLR 22/21 A3003 RMK AO2=
KPEA 080855Z AUTO 34004KT 10SM CLR 20/20 A3006 RMK AO2=
KPEX 080853Z AUTO 25004KT 7SM CLR 13/13 A3010 RMK AO2
     T01290128=
KRDK 080855Z AUTO 36004KT 10SM SCT090 21/18 A3009 RMK AO2=
KRGK 080855Z AUTO 29003KT 10SM CLR 19/18 A3004 RMK AO2=
KRNP 080855Z AUTO 00000KT 10SM CLR 21/21 A3001 RMK AO2=
KROX 080854Z AUTO 23003KT 10SM CLR 16/13 A3000 RMK AO2=
KRQB 080854Z AUTO 27004KT 10SM SCT070 OVC080 22/21 A3002 RMK
     AO2=
KRRT 080854Z AUTO 24004KT 10SM CLR 14/12 A3000 RMK AO2=
KSAZ 080854Z AUTO 00000KT 10SM CLR 14/14 A3008 RMK AO2=
KSDA 080855Z AUTO 00000KT 7SM CLR 21/19 A3009 RMK AO2=
KSGS 080853Z AUTO 31004KT 10SM CLR 20/16 A3006 RMK AO2
     T01950162=
####018000295####
SPUS70 KWBC 080902
SPECI
KARB 080900Z AUTO 00000KT 1 1/2SM BR CLR 20/19 A3003 RMK AO2=
KCKB 080900Z AUTO 00000KT 2 1/2SM BR CLR 19/18 A3009 RMK AO2=
KCQX 080900Z AUTO VRB03KT 1SM BR VV001 19/19 A3009 RMK AO2=
KDAW 080900Z AUTO 00000KT 1 3/4SM BR OVC003 22/21 A3006 RMK AO2
     $=
####018001050####
SAUS80 KWBC 080900 RRA
METAR
KRIC 080854Z 00000KT 7SM CLR 25/21 A2998 RMK AO2 SLP153 T02500206
     53002=
K29G 080854Z AUTO 00000KT 7SM SCT060 21/19 A3009 RMK AO2 T02050185
     PWINO=
KBTR 080853Z 07003KT 7SM FEW013 SCT200 24/23 A2999 RMK AO2 SLP155
     T02390228 56004 $=
KCAE 080856Z 25003KT 10SM CLR 23/19 A2998 RMK AO2 SLP147 T02330189
     57006=
KDAB 080853Z 00000KT 10SM CLR 21/19 A2999 RMK AO2 SLP154 T02060194
     56008 $=
KROA 080854Z 28003KT 7SM CLR 24/18 A3007 RMK AO2 SLP167 T02440183
     53001=
KROS 080855Z AUTO 27003KT 10SM CLR 16/15 A3007 RMK AO2
     T01550146=
KTKC 080853Z AUTO 25005KT 10SM CLR 16/14 A3014 RMK AO2
     T01550138=
KVTI 080855Z AUTO 00000KT 10SM CLR 21/21 A3004 RMK AO2=
KFSD 080856Z 00000KT 10SM CLR 16/14 A3015 RMK AO2 SLP207 BKN ABV
     120 T01560139 50003=
KIKW 080853Z AUTO 7SM SCT120 22/21 A2999 RMK AO2 T02160205=
KLYV 080858Z AUTO 00000KT 10SM CLR 14/13 A3016 RMK AO2=
KMWN 080853Z 34002KT 7SM FEW000 FEW003 FEW020 FEW050 15/14 RMK HZ
     VC ALQDS=
####018000272####
SAAW34 KWBC 080845 RRB
METAR
OPGD 080900Z NIL=
OPLA 080855Z 11005KT 6000 SCT040 38/23 Q1005 NOSIG=
OPNH 080900Z NIL=
OPRN 080900Z 23016KT 9999 FEW040 38/20 1006.7=
OPSK 080900Z NIL=
UTTT 080900Z 29003MPS 230V360 CAVOK 38/08 Q1010 R08R/CLRD70
     NOSIG=
####018000081####
SACA31 KWBC 080800 RRD
METAR
MUCM 080849Z 00000KT 9000 FEW020 23/21 Q1014=
####018000082####
SAVN24 SVMG 080900

METAR SVMG 080900Z 09009KT 9999 FEW010 26/25 Q1012 NOSIG=
####018002138####
SAXX60 KWBC 080900 RRC
METAR
KNBC 080856Z AUTO 24003KT 10SM CLR 23/19 A2997 RMK AO2 SLP149
     T02330189 56008=
KNBG 080855Z AUTO 00000KT 6SM BR CLR 25/24 A3000 RMK AO2 SLP158
     T02500239 58003 PWINO $=
KNCA 080856Z AUTO 00000KT 10SM CLR 23/21 A2991 RMK AO2 SLP129
     T02330211 55003=
KNJK 080856Z AUTO 09003KT 10SM CLR 23/11 A2968 RMK AO2 SLP066
     T02330106 53004 TSNO=
KNRS 080856Z AUTO 30007KT 10SM OVC014 17/13 A2990 RMK AO2 SLP125
     T01720133 58007 TSNO $=
KNUQ 080856Z AUTO 03007KT 10SM OVC013 16/12 A2993 RMK AO2 SLP137
     T01560122 50002 TSNO=
KADW 080855Z 00000KT 10SM BKN075 25/23 A2999 RMK AO2A SLP155
     T02520231 55001 $=
KHRT 080855Z AUTO 00000KT 10SM CLR 23/23 A3000 RMK AO2 SLP162
     T02330232 56008 $=
KNBC 080856Z AUTO 24003KT 10SM CLR 23/19 A2997 RMK AO2 SLP149
     T02330189 56008=
KNFG 080856Z AUTO 00000KT 10SM OVC015 16/13 A2990 RMK AO2 SLP124
     T01610133 58005 TSNO=
KNLC 080856Z AUTO 29007KT 10SM CLR 19/12 A2982 RMK AO2 SLP096
     T01890117 50005 TSNO $=
KNTD 080856Z AUTO 28008KT 10SM OVC013 15/13 A2990 RMK AO2 SLP125
     6//// T01500128 58002 TSNO PNO VISNO N $=
KNTU 080856Z 09003KT 10SM CLR 26/23 A2995 RMK AO2 SLP143 T02560233
     55000 CHINO RWY 05R $=
KNUQ 080856Z AUTO 03007KT 10SM OVC013 16/12 A2993 RMK AO2 SLP137
     T01560122 50002 TSNO=
KNXP 080856Z AUTO 30008KT CLR 26/M01 A2990 RMK AO2 SLP085
     T02561006 53007 $=
KNXX 080856Z AUTO 00000KT 5SM HZ CLR 24/20 A3003 RMK AO2 SLP172
     T02390200 53001 $=
KDMA 080855Z AUTO 05008KT 10SM BKN150 31/09 A2986 RMK AO2 SLP034
     T03050091 55001 $=
KFAF 080855Z VRB03KT 9SM SCT080 BKN110 26/26 A2995 RMK AO2A
     RAE0805 SLP145 P0000 60000 T02590259 55000=
KNBG 080855Z AUTO 00000KT 6SM BR CLR 25/24 A3000 RMK AO2 SLP158
     T02500239 58003 PWINO $=
KNCA 080856Z AUTO 00000KT 10SM CLR 23/21 A2991 RMK AO2 SLP129
     T02330211 55003=
PGUA 080855Z AUTO 09013KT 10SM SCT017 27/ A2989 RMK AO2 SCT V BKN
     SLP102 T0273 53009 VISNO RWY24L $=
KNEL 080900Z AUTO 00000KT 3SM BR BKN080 22/20 A3001 RMK AO2 SLP161
     T02220200 58002 $=
####018000340####
SAAW31 KWBC 080830 RRC
METAR
LTAC 080850Z 03012KT 360V080 9999 SCT040 26/15 Q1013 NOSIG=
LTAF 080850Z /////KT 9999 SCT035 BKN100 29/21 Q1008 NOSIG=
LTAI 080850Z 16007KT 110V210 9999 SCT030 29/22 Q1008 NOSIG=
LTBA 080850Z NIL=
LTBJ 080850Z 35018KT CAVOK 30/10 Q1010 NOSIG=
LTBS 080850Z 22010KT 9999 FEW030 29/22 Q1008 NOSIG=
####018000480####
SAAW41 KWBC 080850 RRD
METAR
LTAJ 080850Z 22006KT 170V270 CAVOK 35/15 Q1008 NOSIG=
LTAN 080850Z 03006KT 9999 FEW040 29/14 Q1012 NOSIG=
LTAU 080850Z 10003KT 050V160 9999 FEW040 29/14 Q1012 NOSIG=
LTCC 080850Z VRB06KT CAVOK 39/M01 Q1007 NOSIG=
LTCE 080850Z 07009KT 040V110 9999 SCT025 28/13 Q1018 NOSIG=
LTCG 080850Z 07008KT 9999 SCT035 27/21 Q1011 NOSIG=
LTCI 080850Z 28007KT CAVOK 25/15 Q1016 NOSIG=
LTFE 080850Z 26008KT 200V330 9999 FEW035 33/13 Q1008 NOSIG=
####018003696####
SAUS70 KWBC 080900 RRD
METAR
KSHL 080855Z AUTO 30003KT 3 1/2SM CLR 15/15 A3016 RMK AO2=
KTEW 080853Z AUTO 00000KT 7SM CLR 21/20 A3003 RMK AO2=
KTNU 080855Z AUTO 34003KT 10SM CLR 21/19 A3006 RMK AO2=
KTOB 080854Z AUTO 00000KT 10SM CLR 18/17 A3008 RMK AO2=
KUKT 080850Z AUTO 00000KT 5SM CLR 21/20 A3004 RMK AO1=
KVLL 080854Z AUTO 00000KT 10SM CLR 25/21 A3005 RMK AO2=
KVVV 080856Z AUTO 27004KT 10SM CLR 16/14 A3011 RMK AO2=
KY70 080855Z AUTO 32003KT 5SM -RA SCT033 BKN050 OVC080 23/22 A3003
     RMK AO2 P0011 60011 T02300218=
KELO 080853Z AUTO 00000KT 10SM CLR 13/13 A3002 RMK AO2=
KEOK 080855Z AUTO 00000KT 5SM HZ SCT001 22/19 A3002 RMK AO2=
KEVM 080852Z AUTO 26004KT 10SM CLR 15/13 A3002 RMK AO1=
KFBL 080854Z AUTO 30004KT 10SM CLR 18/16 A3009 RMK AO2=
KFFL 080855Z AUTO 28004KT 3 1/2SM BKN002 22/20 A3004 RMK AO2=
KFFX 080855Z AUTO 22004KT 5SM BR SCT065 BKN095 OVC120 22/22 A3002
     RMK AO2=
KFPK 080856Z AUTO 26005KT 7SM SCT050 SCT060 21/20 A3003 RMK
     AO2=
KFSE 080854Z AUTO 19003KT 10SM CLR 13/12 A3004 RMK AO2=
KFSO 080858Z AUTO 15003KT 5SM BR CLR 23/22 A3000 RMK AO2=
KFSW 080855Z AUTO 27003KT 7SM CLR 22/21 A3002 RMK AO2=
KFXY 080855Z AUTO 32005KT 10SM CLR 18/16 A3009 RMK AO2=
KGGI 080855Z AUTO 29003KT 10SM CLR 21/20 A3006 RMK AO2=
KGYL 080854Z AUTO 00000KT 10SM CLR 16/15 A3009 RMK AO2
     T01560147=
KHAF 080850Z AUTO 00000KT 9SM OVC008 12/10 A2995 RMK AO2=
KHAI 080855Z AUTO 33003KT 5SM BR SCT065 SCT070 22/21 A3004 RMK
     AO2=
KHCD 080852Z AUTO 00000KT 7SM CLR 14/13 A3010 RMK AO2
     T01380130=
KHCO 080854Z AUTO 00000KT 10SM CLR 12/12 A3004 RMK AO2=
KHNR 080855Z AUTO 35005KT 5SM CLR 18/18 A3014 RMK AO2=
KHXD 080855Z AUTO 23007KT 10SM CLR 24/21 A2998 RMK AO2 P0000=
KHZX 080851Z AUTO 00000KT 10SM CLR 12/11 A3007 RMK AO2=
KICL 080855Z AUTO 02003KT 10SM CLR 22/19 A3008 RMK AO2=
KIFA 080855Z AUTO 32005KT 10SM SCT090 SCT110 20/19 A3009 RMK
     AO2=
KIIB 080855Z AUTO 32003KT 10SM CLR 20/19 A3004 RMK AO1=
KIKV 080855Z AUTO 34005KT 10SM CLR 21/19 A3007 RMK AO2=
KIRS 080855Z AUTO 00000KT 7SM CLR 22/19 A3004 RMK AO2=
KJKJ 080854Z AUTO 24004KT 10SM CLR 16/14 A3006 RMK AO2=
KJMR 080858Z AUTO 30004KT 10SM CLR 15/13 A3008 RMK AO2=
KJYG 080854Z AUTO 00000KT 10SM CLR 17/17 A3012 RMK AO2=
KJYM 080855Z AUTO 00000KT 10SM CLR 21/19 A3006 RMK AO2=
KLJF 080852Z AUTO 27003KT 10SM CLR 16/16 A3010 RMK AO2=
KLRJ 080855Z AUTO 00000KT 10SM CLR 16/15 A3015 RMK AO2=
KLVN 080848Z AUTO 30004KT 10SM CLR 17/17 A3007 RMK AO2=
KLWA 080856Z AUTO 00000KT 10SM SCT050 SCT075 SCT090 23/21 A3004
     RMK AO2=
KLXL 080854Z AUTO 00000KT 1SM BR VV007 12/12 A3007 RMK AO2 VIS
     1/2V4=
KMDS 080845Z AUTO 26005KT 10SM CLR 14/14 A3016 RMK AO2=
KMGN 080855Z AUTO 00000KT 10SM CLR 21/20 A2996 RMK AO2=
KMJQ 080852Z AUTO 27004KT 7SM CLR 15/14 A3014 RMK AO2=
KMOP 080854Z AUTO 25003KT 10SM BKN060 BKN070 OVC085 23/23 A3002
     RMK AO2=
PADU 080858Z AUTO 10012KT 10SM -RA BKN023 OVC029 09/06 A2985 RMK
     AO2 RAE24B53 SLP112 P0000 60000 T00890056 401110078 58004=
PAGA 080858Z AUTO 01004KT 10SM CLR 16/07 A3006 RMK AO2 SLP225
     T01610072 402220083 51005=
PAJZ 080856Z AUTO 00000KT 10SM BKN050 11/09 A3001 RMK AO2 PWINO
     TSNO 53002 T01050094 401330072 SLP154 $=
PAKI 080856Z AUTO 36005KT 10SM CLR 09/09 A3002 RMK AO2 PWINO TSNO
     53003 T00880088 401270055 SLP168 $=
PALG 080856Z AUTO 00000KT 10SM BKN060 OVC110 11/11 A3001 RMK AO2
     TSNO 53002 T01110105 401830083 BKN V OVC SLP165=
PARY 080856Z AUTO VRB03KT 10SM CLR 17/07 A3006 RMK AO2 PWINO TSNO
     51005 T01660066 402220088 SLP182=
KFMH 080855Z AUTO 17007KT 7SM OVC003 21/20 A3008 RMK AO2=
####018000267####
SAXX60 KWBC 080900 CCB
METAR
KEUF 080858Z AUTO 00000KT 10SM CLR 21/19 A3001 RMK AO2
     RAB0759E09B35E46 SLP157 6//// T02110189 56008 PNO $=
KEUF 080858Z AUTO 00000KT 10SM CLR 21/19 A3001 RMK AO2
     RAB0759E09B35E46 SLP157 6//// T02110189 56008 PNO $=
####018000453####
SAUK37 EGGY 080850
METAR EGAE 080850Z 22013KT 9999 FEW018 SCT040 15/10 Q1012=
METAR EGNC 080850Z NIL=
METAR EGNH 080850Z 23013KT 9999 SCT018 17/12 Q1016=
METAR EGNJ 080850Z 22009KT 9999 -RA FEW025 17/12 Q1017=
METAR EGNR 080850Z 24011KT 9999 FEW020 18/11 Q1017=
METAR COR EGPE 080850Z 21014KT 9999 FEW006 SCT036 16/10 Q1008=
METAR EGPI 080850Z 21017KT 9999 FEW020 SCT040 15/11 Q1012=
METAR EGPN 080850Z 24017KT 9999 FEW022 SCT045 15/11 Q1012=
####018000104####
SAUS80 KWBC 080902
METAR
KSYN 080910Z AUTO 00000KT 10SM CLR 18/16 A3006 RMK AO2
     T01780162=
####018000428####
SAUS70 KWBC 080900 RRE
METAR
KIWA 080856Z AUTO 05005KT 10SM CLR 31/04 A2979 RMK AO2=
PPIZ 080856Z AUTO 20010KT 10SM CLR 07/02 A3011 RMK AO2 TSNO 56002
     T00660022 400830044 SLP198 $=
KCTZ 080900Z AUTO 00000KT 7SM CLR 24/22 A2992 RMK AO2=
KEBS 080855Z AUTO 33005KT 2SM BKN026 18/17 A3009 RMK AO2=
KFQD 080859Z AUTO 31004KT 10SM CLR 22/17 A3003 RMK AO2=
KTVK 080855Z AUTO 29004KT 7SM CLR 20/20 A3007 RMK AO2=
####018000081####
SABZ20 SBEG 080900
METAR SBEG 080900Z 08001KT 9999 FEW010 SCT100 25/22 Q1011=
####018000220####
SAUS70 KWBC 080902
METAR
PADM 080901Z AUTO 34004KT 10SM SCT100 11/09 A3007 RMK AO2 TSNO
     56001 60003 T01050088 401050094 RAB0849E00 P0000 SLP170 $=
KRHP 080902Z AUTO 00000KT 5SM BR CLR 18/17 A3012 RMK AO2=
####018000662####
SAUK36 EGGY 080850
METAR EGBE 080850Z NIL=
METAR EGBJ 080850Z 22003KT 9999 FEW024 18/10 Q1018=
METAR EGCN 080850Z 23010KT 9999 FEW044 17/11 Q1017=
METAR EGDL 080850Z 22004KT 9999 FEW014 BKN100 BKN150 16/13 Q1019
    NOSIG=
METAR EGSC 080850Z 23004KT 240V300 8000 VCSH FEW020 BKN034 18/14
    Q1019=
METAR COR EGSD 080850Z 25009KT 9999 SCT015 BKN030 21/17 Q1019 TEMPO
     BKN014=
METAR COR EGSH 080850Z 25007KT 210V280 9999 -RA BKN012 20/15 Q1018
    BECMG SCT030=
METAR EGVN 080850Z 24003KT 9999 -RA FEW023 BKN070 BKN100 17/12
    Q1018 NOSIG=
METAR EGWU 080850Z 31005KT 9999 FEW006 SCT012 OVC016 17/15 Q1019
    RERA REDZ BECMG FEW010 BKN016=
####018000074####
SAZB40 FLLS 080900
METAR FLLS 080900Z 07026KT 9999 BKN025 18/08 Q1029=
####018000081####
SACA41 KWBC 080800 RRB
METAR
MUCM 080849Z 00000KT 9000 FEW020 23/21 Q1014=
####018000086####
SADL32 KWBC 080850 RRB
METAR
EDLN 080850Z VRB04KT CAVOK 28/14 Q1019 RMK ATIS I=
####018000136####
SPUS80 KWBC 080902
SPECI
KVCT 080859Z AUTO 07012G18KT 2 1/2SM +RA BR FEW009 BKN029 OVC080
     26/25 A2988 RMK AO2 RAB53 P0003=
####018000091####
SADL33 KWBC 080845 RRD
METAR
EDXW 080850Z 21011KT CAVOK 22/13 Q1018 RMK ATIS INFO Q=
####018000134####
SAUS44 KMOB 080901 COR
MTRNSE
METAR KNSE 080856Z AUTO 00000KT 2 1/2SM BR FEW004 23/21 A3002 RMK 
AO2 SLP150 T02280211 55005 $
####018000900####
SAGR31 KWBC 080850 RRA
METAR
LGAD 080850Z 34015KT 9999 FEW020 28/17 Q1013=
LGAL 080850Z 02005KT 9999 -RA FEW008 FEW020TCU SCT025 BKN080 15/15
     Q1015=
LGAL 080850Z NIL=
LGAV 080850Z 02017KT 9999 FEW020 BKN030 26/13 Q1013 NOSIG=
LGEL 080850Z 36014G24KT 9999 FEW025 26/13 Q1012=
LGIR 080850Z 02004KT CAVOK 29/21 Q1011 NOSIG=
LGKF 080850Z 33016KT 9999 FEW030 26/17 Q1013=
LGKL 080850Z 34004KT 9999 FEW030 32/17 Q1011=
LGKO 080850Z 30018KT CAVOK 28/18 Q1010=
LGKR 080850Z 31014KT CAVOK 27/12 Q1013 NOSIG=
LGKV 080850Z 11007KT 9999 SCT020TCU 20/15 Q1013=
LGLM 080850Z NIL=
LGMT 080850Z 32020G33KT 9999 FEW020 SCT025 BKN080 24/16 Q1012=
LGRP 080850Z 24016KT CAVOK 30/19 Q1008 NOSIG=
LGSA 080850Z 30008KT CAVOK 32/15 Q1011=
LGSM 080850Z 34011KT CAVOK 29/14 Q1010=
LGSR 080850Z 34017KT CAVOK 29/18 Q1010 NOSIG=
LGTS 080850Z 32022KT 9999 FEW025 23/12 Q1016 NOSIG=
####018000371####
SAGR41 KWBC 080850 RRA
METAR
LGKP 080850Z 32020KT CAVOK 29/16 Q1009=
LGKZ 080850Z 33014KT 9999 SCT020 SCT070 19/07 Q1018=
LGMK 080850Z 01024G35KT 9999 SCT012 24/19 Q1012=
LGPZ 080850Z NIL=
LGPZ 080850Z 27016KT 9999 FEW025 29/19 Q1013 NOSIG=
LGRX 080850Z 27008KT 9999 FEW025 28/20 Q1012 NOSIG=
LGSK 080850Z NIL=
LGZA 080850Z 33015KT CAVOK 31/10 Q1013=
####018000393####
SAUK38 EGGY 080850
METAR EGEC 080850Z 21012KT 9999 FEW025 16/10 Q1012=
METAR EGPA 080850Z 20014KT 9999 VCSH FEW027 SCT044 15/11 Q1006=
METAR EGPC 080850Z 19015G25KT 9999 FEW026 15/11 Q1007=
METAR EGPL 080850Z 22020KT 9999 FEW018 14/10 Q1006=
METAR EGPM 080850Z 21023KT 9999 FEW012 SCT035 15/10 Q1004=
METAR EGPO 080850Z 22020KT 9999 VCSH FEW014CB 14/11 Q1005=
METAR EGPU 080850Z NIL=
####018000074####
SABZ20 SBCZ 080900
METAR SBCZ 080900Z 00000KT 8000 SCT020 23/23 Q1011=
####018000777####
SANL33 EHDB 080855
METAR EHAK 080855Z AUTO 23012KT 9999NDV FEW030/// SCT035/// BKN041///
16/14 Q1016=
METAR EHDV 080855Z NIL=
METAR EHFD 080855Z AUTO 22012KT 9999NDV -DZ SCT023/// BKN026///
BKN030/// 16/15 Q1018=
METAR EHFZ 080855Z AUTO 24013KT 9999NDV FEW025/// 17/15 Q1018=
METAR EHJA 080855Z AUTO 24016KT 9999NDV -DZ FEW024/// BKN028///
OVC032/// 16/15 Q1017 REDZDZ=
METAR EHJR 080855Z NIL=
METAR EHKV 080855Z AUTO 26017KT 9999NDV SCT033/// SCT037/// 16/15
Q1018=
METAR EHMA 080855Z AUTO 23012KT 9999NDV 21/16 Q1018=
METAR EHMG 080855Z AUTO 24015KT 9999NDV FEW037/// BKN049/// 17/15
Q1018=
METAR EHPG 080855Z AUTO 25015KT 9999NDV ///////// 16/15 Q1019=
METAR EHQE 080855Z AUTO 24014KT 9999NDV 16/15 Q1018=
METAR EHSA 080855Z NIL=
METAR EHSC 080855Z NIL=
####018000458####
SAUK51 EGGY 080850
METAR EGDL 080850Z 22004KT 9999 FEW014 BKN100 BKN150 16/13 Q1019
    NOSIG=
METAR EGDM 080850Z NIL=
METAR EGDY 080850Z NIL=
METAR EGOV 080850Z NIL=
METAR EGUB 080850Z NIL=
METAR EGVN 080850Z 24003KT 9999 -RA FEW023 BKN070 BKN100 17/12
    Q1018 NOSIG=
METAR EGWU 080850Z 31005KT 9999 FEW006 SCT012 OVC016 17/15 Q1019
    RERA REDZ BECMG FEW010 BKN016=
METAR EGXC 080850Z NIL=
METAR EGXT 080850Z NIL=
METAR EGYD 080850Z NIL=
####018000110####
SAIY40 LIIB 080800 RRA
METAR LIPX 080745Z 09008KT 9999 SCT080 26/14 Q1021 RMK SCT VIS MIN
      9999 BLU=
####018000129####
SAIY40 LIIB 080800 RRC
METAR LIVC 080755Z 36007KT 9999 FEW000 12/10 Q1030 RMK SCT SCT100 MON
      LIB VAL NIL VIS MIN 9999=
####018000098####
SAIY40 LIIB 080800 RRB
METAR LIPY 080750Z 13006KT 060V170 CAVOK 25/12 Q1021 RMK VIS MIN
9999=
####018000087####
SAMM31 KWBC 080830 RRC
METAR
LCEN 080850Z 13007KT 9999 FEW025 32/19 Q1008 NOSIG=
####018000116####
SAPA31 KWBC 080800 RRG
METAR
PTTP 080755Z 18003KT 15SM FEW018 BKN300 27/24 A2985 RMK SLP106
     T02720244=
####018000085####
SAUK31 KWBC 080850 RRB
METAR
EGNJ 080850Z 22009KT 9999 -RA FEW025 17/12 Q1017=
####018000224####
SAUK32 KWBC 080850 RRC
METAR
EGPA 080850Z 20014KT 9999 VCSH FEW027 SCT044 15/11 Q1006=
EGPC 080850Z 19015G25KT 9999 FEW026 15/11 Q1007=
EGSH 080850Z 25007KT 210V280 9999 -RA BKN012 20/15 Q1018 BECMG
     SCT030=
####018000203####
SAUK41 KWBC 080850 RRC
METAR
EGAE 080850Z 22013KT 9999 FEW018 SCT040 15/10 Q1012=
EGBE 080850Z NIL=
EGDL 080850Z 22004KT 9999 FEW014 BKN100 BKN150 16/13 Q1019
     NOSIG=
EGNC 080850Z NIL=
####018000420####
SAUK42 KWBC 080850 RRC
METAR
EGPC 080850Z 19015G25KT 9999 FEW026 15/11 Q1007=
EGPE 080850Z 21014KT 9999 FEW006 SCT036 16/10 Q1008=
EGPL 080850Z 22020KT 9999 FEW018 14/10 Q1006=
EGPM 080850Z 21023KT 9999 FEW012 SCT035 15/10 Q1004=
EGPN 080850Z 24017KT 9999 FEW022 SCT045 15/11 Q1012=
EGPO 080850Z 22020KT 9999 VCSH FEW014CB 14/11 Q1005=
EGPU 080850Z 23018KT 9999 SCT022 14/11 Q1009=
EGPU 080850Z NIL=
####018000641####
SAUK39 EGRR 080850 RRA
METAR EGDX 080850Z 22006KT 9999 FEW017 BKN090 18/12 Q1019 BLU=
METAR EGDY 080850Z 27003KT 9999 FEW010 BKN140 19/14 Q1018 BLU NOSIG=
METAR EGQA 080850Z 20015KT 9999 -SHRA FEW018 SCT050 14/// Q1008 BLU=
METAR EGUY 080850Z 24009KT 9999 FEW032 SCT120 BKN150 18/10 Q1019
BLU=
METAR EGVP 080850Z 16002KT 9999 FEW007 BKN027 17/15 Q1018 BLU TEMPO
 SCT012 GRN=
METAR EGXW 080850Z 26009KT CAVOK 17/10 Q1017 BLU NOSIG=
METAR EGXX 080850Z AUTO 22010KT 9999NDV // NCD ///// Q////=
METAR EGXZ 080850Z 21007KT 9999 SCT020 OVC250 17/12 Q1016 WHT=
METAR EGYH 080850Z 24015KT 9999 FEW030 BKN120 18/// Q1018 BLU=
####018000087####
SAXX99 KWBC 080800 RRX
METAR
GMAD 080800Z 30002KT 8000 SCT020 22/16 Q1014 NOSIG=
####018000115####
SPCN46 CWAO 080901
SPECI CYQA 080901Z AUTO 00000KT 3SM BR CLR 19/19 A3003 RMK SLP170
 DENSITY ALT 1400FT=

####018000121####
SAUS42 KRAH 080901
MTRNJM
METAR KNJM 080857Z AUTO 01005KT 10SM CLR 26/20 A2990 RMK AO2 SLP130 
T02610200 56005 $
####018000145####
SATU31 LTAA 080850 RRA
METAR LTBA 080850Z 35024KT 9999 SCT035 24/14 Q1012 NOSIG=
METAR LTFJ 080850Z 01018KT 9999 BKN030 23/16 Q1012 NOSIG=
####018000454####
SARH31 LDZM 080900
METAR LDSP 080900Z 16005KT 120V210 CAVOK 26/05 Q1020 NOSIG =
METAR LDPL 080900Z 08007KT 050V130 CAVOK 24/10 Q1022 NOSIG =
METAR LDDU 080900Z VRB10KT 9999 FEW043 25/05 Q1019 NOSIG =
METAR LDZA 080900Z VRB02KT 9999 FEW045 24/10 Q1023 NOSIG =
METAR LDZD 080900Z 28005KT 200V350 CAVOK 26/05 Q1021 NOSIG =
METAR LDRI 080900Z 26006KT 210V330 CAVOK 24/10 Q1022 NOSIG=
METAR LDOS 080900Z VRB04KT 9999 FEW033 22/10 Q1022 NOSIG=
####018000090####
SADN32 EKCH 080850 RRB
METAR EKVJ 080850Z 18006KT 8000 -RA SCT020 BKN040 20/17 Q1017=
####018000075####
SAMA20 FIMP 080900
METAR FIMP 080900Z 13016KT 9999 SCT016 25/16 Q1022=
####018000081####
SASW32 LSSW 080850 RRA
METAR LSZS 080850Z 21008KT 190V250 CAVOK 20/11 Q1027=
####018000069####
SABZ24 SBFL 080900
METAR SBFL 080900Z 13013KT CAVOK 22/16 Q1015=
####018000069####
SABZ24 SBCG 080900
METAR SBCG 080900Z 12004KT CAVOK 15/09 Q1016=
####018000106####
SPAU31 AMMC 080902
SPECI YPPD 080902Z AUTO 04015KT 9999NDV // BKN012 BKN025 OVC120 23/20 Q1008=


####018000205####
SASQ31 LZIB 080900
METAR LZIB 080900Z 01009KT 340V050 CAVOK 23/06 Q1022=
METAR LZKZ 080900Z 02010KT 330V060 9999 FEW045 21/11 Q1021 NOSIG=
METAR LZTT 080900Z VRB03KT 9999 FEW040 19/07 Q1022 NOSIG=
####018000152####
SAJD20 OJAM 080900
METAR OJAI 080900Z NIL=
METAR OJAM 080900Z 19004KT 6000 NSC 31/05 Q1012 NOSIG=
METAR OJAQ 080900Z 36018KT CAVOK 35/24 Q1008=
####018000578####
SAGR31 LGAT 080850
METAR LGAD 080850Z 34015KT 9999 FEW020 28/17 Q1013=
METAR LGAV 080850Z 02017KT 9999 FEW020 BKN030 26/13 Q1013 NOSIG=
METAR LGIR 080850Z 02004KT CAVOK 29/21 Q1011 NOSIG=
METAR LGKL 080850Z 34004KT 9999 FEW030 32/17 Q1011=
METAR LGKO 080850Z 30018KT CAVOK 28/18 Q1010=
METAR LGKR 080850Z 31014KT CAVOK 27/12 Q1013 NOSIG=
METAR LGLM 080850Z NIL=
METAR LGRP 080850Z 24016KT CAVOK 30/19 Q1008 NOSIG=
METAR LGSA 080850Z 30008KT CAVOK 32/15 Q1011=
METAR LGSM 080850Z 34011KT CAVOK 29/14 Q1010=
METAR LGTS 080850Z 32022KT 9999 FEW025 23/12 Q1016 NOSIG=
####018000107####
SPBY31 UMMN 080900
SPECI  UMII  080900Z  16003MPS  P6000  BKN015  21/18  Q1013
R23/CLRD//  NOSIG   =
####018000098####
SAMR20 TFFF 080900
METAR TFFF 080900Z AUTO 08010KT 9999NDV FEW012/// SCT025/// 28/24
Q1013=
####018000097####
SAFG20 SOCA 080900
METAR SOCA 080900Z 00000KT 9999 FEW011 SCT026 BKN040 25/24 Q1012
NOSIG=
####018000120####
SASR31 WSSL 080900
METAR WSSL 080900Z 26005KT 220V290 9999 -RA FEW018 SCT180 BKN250
30/24 Q1008 RMK 0830Z Q1008 =
####018000089####
SAHU31 LHBM 080900
METAR LHBP 080900Z 21006KT 130V290 9999 FEW046 22/11 Q1022 NOSIG=
####018000197####
SASQ41 LZIB 080900
METAR LZPP 080900Z 36009KT 310V050 9999 FEW040 22/11
Q1022=
METAR LZSL 080900Z 12002KT CAVOK 23/09 Q1021=
METAR LZZI 080900Z 06008KT 010V120 9999 FEW050 21/07
Q1023=
####018000152####
SAJD31 OJAI 080900
METAR OJAI 080900Z NIL=
METAR OJAM 080900Z 19004KT 6000 NSC 31/05 Q1012 NOSIG=
METAR OJAQ 080900Z 36018KT CAVOK 35/24 Q1008=
####018000100####
SPAU31 AMMC 080902
SPECI YPPD 080902Z AUTO 04015KT 9999NDV // BKN012 BKN025 OVC120 23/20 Q1008=
####018000080####
SAMZ40 FQMA 080900
METAR
FQLC 080900Z 16008KT 9999 SCT014 16/09 Q1028=

####018001688####
SAEU KAWN 080900 RRK
METAR EGPU 080850Z 23018KT 9999 SCT022 14/11 Q1009=
METAR LBBG 080900Z 27007MPS 9999 FEW038 BKN072 BKN110 18/15 Q1015 NOSIG=
METAR LBGO 080900Z VRB01MPS 9000 RA BKN033 OVC040 15/14 Q1017 NOSIG=
METAR LBPD 080900Z 26005MPS 230V290 9999 SCT050 BKN060 16/12 Q1016
      NOSIG=
METAR LBWN 080900Z 27005G10MPS 240V300 9999 SCT024 19/15 Q1014 NOSIG=
METAR LDDU 080900Z VRB10KT 9999 FEW043 25/05 Q1019 NOSIG=
METAR LDPL 080900Z 08007KT 050V130 CAVOK 24/10 Q1022 NOSIG=
METAR LDRI 080900Z 26006KT 210V330 CAVOK 24/10 Q1022 NOSIG=
METAR LDSP 080900Z 16005KT 120V210 CAVOK 26/05 Q1020 NOSIG=
METAR LDZA 080900Z VRB02KT 9999 FEW045 24/10 Q1023 NOSIG=
METAR LDZD 080900Z 28005KT 200V350 CAVOK 26/05 Q1021 NOSIG=
METAR LGAL 080850Z 02005KT 9999 -RA FEW008 FEW020TCU SCT025 BKN080
      15/15 Q1015=
METAR LGEL 080850Z 36014G24KT 9999 FEW025 26/13 Q1012=
METAR LGHI 080850Z 01015KT 9999 FEW020 26/18 Q1011=
METAR LGKF 080850Z 33016KT 9999 FEW030 26/17 Q1013=
METAR LGKP 080850Z 32020KT CAVOK 29/16 Q1009=
METAR LGKV 080850Z 11007KT 9999 SCT020TCU 20/15 Q1013=
METAR LGKZ 080850Z 33014KT 9999 SCT020 SCT070 19/07 Q1018=
METAR LGMK 080850Z 01024G35KT 9999 SCT012 24/19 Q1012=
METAR LGMT 080850Z 32020G33KT 9999 FEW020 SCT025 BKN080 24/16 Q1012=
METAR LGPZ 080850Z 27016KT 9999 FEW025 29/19 Q1013 NOSIG=
METAR LGRX 080850Z 27008KT 9999 FEW025 28/20 Q1012 NOSIG=
METAR LGSO 080850Z 36020KT 9999 FEW018 26/19 Q1012=
METAR LGSR 080850Z 34017KT CAVOK 29/18 Q1010 NOSIG=
METAR LGZA 080850Z 33015KT CAVOK 31/10 Q1013=
METAR LZIB 080900Z 01009KT 340V050 CAVOK 23/06 Q1022=
METAR LZTT 080900Z VRB03KT 9999 FEW040 19/07 Q1022 NOSIG=
####018000094####
SABA31 MYNN 080901
METAR MYNN 080900Z 00000KT 9999 SCT015 26/26 A2993=


NNNN


####018000477####
SACH72 SCSC 080900
METAR
SCEL 080900Z 00000KT 4000 BR BKN130 03/01 Q1021 NOSIG=
SCIE 080900Z 31011KT 5000 -SHRA BKN005 OVC020 13/11 Q1019=
SCTC 080900Z 34007KT 280V020 9999 SCT015 OVC025 11/10 Q1013
    RERA=
SCTE 080900Z 30008KT 6000 VCSH BKN030 09/07 Q1007 NOSIG=
SCMK NIL=
SCON NIL=
SCFT 080900Z AUTO 00000KT 9999 RA ///015 02/01 Q1003=
SCBA 080900Z AUTO 27009KT CAVOK M01/M03 Q0999=
SCCI 080900Z 35010KT 9999 SCT025 M03/M05 Q0987 NOSIG=
SCRM NIL=
####018000445####
SACH71 SCSC 080900
METAR
SCAR 080900Z 26001KT 9999 OVC023 15/09 Q1016=
SCDA 080900Z 01009KT 9999 OVC026 15/08 Q1017=
SCFA 080900Z 08005KT 9999 OVC015 12/08 Q1015=
SCIP 080900Z 03002KT 7000 -SHRA SCT012 OVC020 18/17 Q1024 TEMPO
 5000 -SHRA=
SCAT 080900Z AUTO 32005KT 9999 // 05/04 Q1016=
SCER NIL=
SCEL 080900Z 00000KT 4000 BR BKN130 03/01 Q1021 NOSIG=
SCRG NIL=
SCIE 080900Z 31011KT 5000 -SHRA BKN005 OVC020 13/11 Q1019=
####018000528####
SACN60 CWAO 080800 RRG
PCC SA 0800 AUTO8 M M M M/13/10/1502/M/ M 44MM=
PDA SA 0800 AUTO8 M M M M/12/09/MMMM/M/ M 24MM=
PDU SA 0800 AUTO8 M M M M/14/11/MMMM/M/ M 53MM=
PEB SA 0800 AUTO8 M M M M/12/10/MMMM/M/ M 98MM=
PGI SA 0800 AUTO8 M M M M/13/11/1703/M/ M 60MM=
PHR SA 0800 AUTO8 M M M M/09/08/1104/M/ M 08MM=
PKI SA 0800 AUTO8 M M M M/12/10/MMMM/M/ M 24MM=
PLF SA 0800 AUTO8 M M M M/16/11/MMMM/M/ M 61MM=
PMN SA 0800 AUTO8 M M M M/11/10/MMMM/M/ M 33MM=
PSL SA 0800 AUTO8 M M M M/16/12/MMMM/M/ M 10MM=

####018000078####
SACN60 CWAO 080700 RRH
PDA SA 0700 AUTO8 M M M M/12/09/MMMM/M/ M 12MM=

####018000078####
SACN91 CWAO 080800 RRE
WHI SA 0800 AUTO8 M M M M/13/09/2109/M/ M 63MM=

####018000084####
SACN90 CWAO 080800 RRG
WFX SA 0800 AUTO8 M M M 130/11/09/2206/M/M 5002 85MM=

####018000078####
SACN93 CWAO 080800 RRH
WOV SA 0800 AUTO8 M M M M/14/10/1503/M/ M 30MM=

####018000108####
SACN95 CWAO 080800 RRF
WTD SA 0800 AUTO8 M M M 117/08/08/3610/M/0004 PCPN 0.4MM PAST HR
2004 00MM=

####018000278####
SACN59 CWAO 080800 RRK
PEA SA 0800 AUTO8 M M M M/13/13/MMMM/M/ M 09MM=
PSD SA 0800 AUTO8 M M M M/13/10/MMMM/M/ M 79MM=
PSP SA 0800 AUTO8 M M M M/10/09/MMMM/M/ M 36MM=
PTU SA 0800 AUTO8 M M M M/10/08/MMMM/M/ M 52MM=
PWB SA 0800 AUTO8 M M M M/11/09/MMMM/M/ M 59MM=

####018000078####
SACN98 CWAO 080800 RRG
XBW SA 0800 AUTO8 M M M M/11/10/3203/M/ M 06MM=

####018000084####
SACN92 CWAO 080800 RRF
WLG SA 0800 AUTO8 M M M 176/10/08/3309/M/M 1017 42MM=

####018000516####
SAER32 OMAE 080900
METAR OMAA 080900Z 21004KT CAVOK 43/17 Q0999 A2952 NOSIG=
METAR OMAD 080900Z 21004KT 120V260 CAVOK 42/18 Q0999 A2953=
METAR OMAL 080900Z 27007KT 180V360 8000 NSC 41/26 Q1002 A2960=
METAR OMDB 080900Z 33010KT 8000 NSC 43/22 Q1000 NOSIG=
METAR OMDW 080900Z 02004KT 270V080 CAVOK 43/19 Q1001 BECMG 34010KT=
METAR OMFJ 080900Z 09008KT 040V130 7000 FEW020 34/27 Q1002 A2959=
METAR OMRK 080900Z 16009KT CAVOK 42/30 Q0999 A2950=
METAR OMSJ 080900Z 31010KT 280V010 6000 NSC 42/24 Q1000=
####018000104####
SPBY31 UMMN 080900
SPECI UMII 080900Z 16003MPS  P6000  BKN015  21/18  Q1013
R23/CLRD//  NOSIG   =
####018000188####
SAXN17 KAWN 080800 RRK
METAR MMCL 080841Z 00000KT 10SM SCT030 BKN100 27/21 A2979 RMK 8/570=
METAR MMTJ 080841Z 00000KT 5SM OVC014 16/14 A2994 RMK SLP142 57002
      910 8/5// HZY=
####018001358####
SANA35 KAWN 080900 RRB
METAR KACY 080854Z 00000KT 4SM BR CLR 23/22 A3002 RMK AO2 SLP164 T02330217
      53001=
METAR KADW 080855Z 00000KT 10SM BKN075 25/23 A2999 RMK AO2A SLP155
      T02520231 55001 $=
METAR KCHS 080856Z 29007KT 9SM CLR 24/19 A2996 RMK AO2 SLP143 T02440194
      56008=
METAR KDAB 080853Z 00000KT 10SM CLR 21/19 A2999 RMK AO2 SLP154 T02060194
      56008 $=
METAR KDAB 080853Z 00000KT 10SM CLR 21/19 A2999 RMK AO2 SLP154 T02060194
      56008 $=
METAR KNBC 080856Z AUTO 24003KT 10SM CLR 23/19 A2997 RMK AO2 SLP149
      T02330189 56008=
METAR KNBG 080855Z AUTO 00000KT 6SM BR CLR 25/24 A3000 RMK AO2 SLP158
      T02500239 58003 PWINO $=
METAR KNCA 080856Z AUTO 00000KT 10SM CLR 23/21 A2991 RMK AO2 SLP129
      T02330211 55003=
METAR KNGP 080856Z AUTO 11011KT 10SM FEW018 BKN050 28/26 A2980 RMK
      AO2 TSB18E34RAB37E49 SLP092 P0001 60001 T02830261 56016 $=
METAR KNTU 080856Z 09003KT 10SM CLR 26/23 A2995 RMK AO2 SLP143 T02560233
      55000 CHINO RWY 05R $=
METAR KVPS 080855Z 32001KT 10SM SKC 24/23 A3002 RMK AO2A SLP165 T02380233
      56008=
METAR MDSD 080900Z 04004KT 9999 SCT018 24/23 Q1014=
METAR MUGM 080856Z 33004KT 9999 CLR 25/22 A2995 RMK SLP140 T02500222
      56004=
METAR TXKF 080855Z 16013KT 9999 VCSH SCT013TCU BKN042 BKN170 BKN300
      25/22 Q1018 RMK TCU W-NW=
####018000073####
SAZZ40 KAWN 080800 RRV
METAR DAUG 080800Z 00000KT CAVOK 32/17 Q1018=
####018002066####
SAUS20 KNKA 080902
METAR K0R3 080859Z AUTO 08003KT 7SM CLR 25/25 A2998 RMK AO2=
METAR K1A5 080900Z AUTO 00000KT 4SM BR CLR 17/16 A3015 RMK AO2 
     T01710159=
METAR K3I2 080900Z AUTO 00000KT 1 3/4SM BR OVC001 18/18 A3008 RMK 
     AO2=
METAR K3J7 080859Z AUTO 00000KT 10SM CLR 22/21 A2999 RMK AO2=
METAR K47A 080900Z AUTO 00000KT 7SM CLR 20/18 A3006 RMK AO2 
     T02040180=
METAR KACP 080859Z AUTO 00000KT 7SM BKN018 24/23 A3000 RMK AO2=
METAR KASJ 080858Z AUTO 00000KT 4SM HZ CLR 24/21 A2996 RMK AO2=
METAR KAVC 080900Z AUTO 00000KT 7SM BKN110 26/19 A3002 RMK AO2=
METAR KAYS 080900Z AUTO 00000KT 2SM CLR 22/21 A3000 RMK AO1 VIS 1 
     1/4V5=
METAR KBCB 080900Z AUTO 00000KT 5SM BR OVC085 22/21 A3014 RMK AO2=
METAR KBGE 080900Z AUTO 00000KT 10SM CLR 21/20 A3001 RMK AO2=
METAR KBIJ 080900Z AUTO 00000KT 10SM CLR 19/ A3002 RMK AO2=
METAR KBQK 080857Z AUTO 26004KT 10SM CLR 22/22 A3000 RMK AO1 
     T02230216 PNO=
METAR KCPK 080901Z AUTO 00000KT 3SM HZ CLR 23/20 RMK AO2=
METAR KCPK 080900Z AUTO 00000KT 3SM BR CLR 23/21 A2996 RMK AO2=
METAR KCTJ 080900Z AUTO 00000KT 10SM CLR 21/19 A3006 RMK AO2 
     T02080190=
METAR KEDE 080856Z AUTO 04003KT 2 1/2SM BR CLR 23/22 A2994 RMK AO2=
METAR KEMV 080857Z AUTO 00000KT 5SM BR CLR 23/21 A2997 RMK AO2=
METAR KEXX 080859Z AUTO 00000KT 10SM CLR 22/18 A3000 RMK AO2=
METAR KHRJ 080901Z AUTO 00000KT 7SM CLR 25/21 A2994 RMK AO2=
METAR KJYL 080901Z AUTO 00000KT 10SM CLR 23/21 A2999 RMK AO2=
METAR KLWB 080900Z AUTO 00000KT 5SM HZ SCT060 BKN075 OVC090 21/18 
     A3015 RMK AO2=
METAR KMQI 080856Z AUTO 06007KT 10SM SCT120 26/24 A2994 RMK AO2=
METAR KMWK 080902Z AUTO 00000KT 7SM SCT090 23/18 A3004 RMK AO2=
METAR KPGV 080900Z AUTO 02003KT 5SM HZ CLR 23/21 A2995 RMK AO2=
SPECI KTXK 080901Z AUTO 00000KT 6SM BR OVC001 23/23 A3003 RMK AO2=
METAR KUKF 080901Z AUTO 00000KT 7SM BKN090 21/18 A3006 RMK AO1=
METAR KUNV 080900Z AUTO 00000KT 7SM CLR 20/18 A3009 RMK AO2 
     T01990180=
METAR KW99 080859Z AUTO 00000KT 5SM HZ BKN085 21/17 A3009 RMK AO2=
####018000119####
SPCN46 CWAO 080902
SPECI CYKF 080902Z AUTO 00000KT 1 3/4SM BR CLR 19/19 A3006 RMK SLP174
 DENSITY ALT 1600FT=

####018000130####
SAUS44 KMOB 080902 COR
MTR79J
METAR K79J 080856Z AUTO 00000KT 10SM CLR 24/22 A3002 RMK AO2 SLP159 
T02440217 56005 TSNO $
####018001573####
SASA KAWN 080900 RRA
METAR SBBE 080900Z 11004KT 9999 FEW017 BKN080 25/22 Q1012=
METAR SBBR 080900Z 26002KT CAVOK 14/09 Q1022=
METAR SBBV 080900Z 27002KT 9999 SCT025 SCT090 25/23 Q1012=
METAR SBCG 080900Z 12004KT CAVOK 15/09 Q1016=
METAR SBCT 080900Z 09002KT CAVOK 10/10 Q1020=
METAR SBCY 080900Z 02005KT CAVOK 20/14 Q1014=
METAR SBFI 080900Z 19002KT 8000 FEW020 SCT100 16/13 Q1014=
METAR SBFL 080900Z 13013KT CAVOK 22/16 Q1015=
METAR SBGL 080900Z 00000KT CAVOK 15/13 Q1018=
METAR SBGO 080900Z 01002KT CAVOK 14/10 Q1020=
METAR SBGR 080900Z 08003KT CAVOK 11/10 Q1020=
METAR SBJP 080900Z 21004KT CAVOK 22/21 Q1015=
METAR SBKP 080900Z 08003KT CAVOK 10/08 Q1020=
METAR SBLO 080900Z 12001KT CAVOK 16/13 Q1018=
METAR SBMA 080900Z 26004KT CAVOK ///// Q1012=
METAR SBMO 080900Z 30002KT 9999 SCT020 BKN100 21/21 Q1016=
METAR SBMQ 080900Z 34002KT CAVOK 25/25 Q1012=
METAR SBNT 080900Z 20005KT 9999 FEW020 SCT070 22/21 Q1014=
METAR SBPA 080900Z 18003KT 9999 BKN025 OVC045 17/14 Q1018=
METAR SBPV 080900Z 00000KT CAVOK 23/22 Q1012=
METAR SBRF 080900Z 24003KT 9999 SCT020 BKN070 22/21 Q1015=
METAR SBRJ 080900Z 01004KT CAVOK 19/16 Q1018=
METAR SBRP 080900Z 12001KT CAVOK 11/09 Q1019=
METAR SBSN 080900Z 14002KT CAVOK 23/22 Q1011=
METAR SBSP 080900Z 00000KT CAVOK 16/09 Q1020=
METAR SBTE 080900Z 19002KT 9999 FEW020 BKN090 25/24 Q1013=
METAR SBUG 080900Z 14002KT CAVOK 06/05 Q1020=
METAR SBVT 080900Z 30004KT CAVOK 17/15 Q1020=
METAR SULS 080900Z 29009KT CAVOK 08/04 Q1016=
METAR SUMU 080900Z 33006KT CAVOK 04/03 Q1017 NOSIG=
####018000458####
SAMC32 GMMC 080900
METAR GMFF 080900Z 34005KT 8000 FEW033 26/20 Q1017 NOSIG=
METAR GMFK 080900Z 08010KT CAVOK 34/08 Q1025=
METAR GMFO 080900Z 23004KT 170V300 9999 FEW030 SCT100 37/11 Q1018
NOSIG=
METAR GMMW 080900Z 06008KT CAVOK 27/20 Q1017=
METAR GMTA 080900Z 36004KT CAVOK 23/19 Q1016=
METAR GMFM 080900Z NIL=
METAR GMMC 080900Z NIL=
METAR GMMH 080900Z NIL=
METAR GMML 080900Z NIL=
METAR GMMZ 080900Z NIL=
METAR GMTN 080900Z NIL=
####018000425####
SAMC31 GMMC 080900
METAR GMAD 080900Z VRB02KT 8000 SCT020 24/18 Q1014=
METAR GMFF 080900Z 34005KT 8000 FEW033 26/20 Q1017 NOSIG=
METAR GMME 080900Z 34004KT 300V020 6000 OVC010 23/19 Q1016 NOSIG=
METAR GMMN 080900Z 01007KT 340V080 9000 SCT010 BKN023 24/19 Q1016
NOSIG=
METAR GMMX 080900Z 26004KT 210V320 6000 FEW026 26/19 Q1016 NOSIG=
METAR GMTT 080900Z 30006KT 260V340 8000 FEW010 SCT016 24/20 Q1016
NOSIG=
####018000084####
SANI20 DNMM 080900
METAR DNMM 080900Z 24010KT 9999 BKN011 27/25 Q1016 NOSIG=

####018000134####
SAAK41 KNKA 080902
METAR PAVC 080856Z AUTO 03003KT 10SM 07/07 A2996 RMK AO2 PWINO TSNO 
    58001 T00720072 401160061 SLP146 $=
####018002508####
SAUS20 KNKA 080902
METAR KAMN 080855Z AUTO 29003KT 5SM BR SCT055 BKN110 23/22 A3001
     RMK AO2=
METAR KAQP 080854Z AUTO 22003KT 10SM CLR 14/14 A3011 RMK AO2=
METAR KBFW 080853Z AUTO 32003KT 10SM SCT055 17/14 A3000 RMK
     AO2=
METAR KCDA 080855Z AUTO 00000KT 4SM BR CLR 20/18 A3009 RMK AO2=
METAR KCDD 080851Z AUTO 18003KT 10SM CLR 16/16 A3003 RMK AO2=
METAR KCVX 080855Z AUTO 19003KT 10SM BKN120 21/20 A2998 RMK
     AO2=
METAR KDVP 080856Z AUTO 27003KT 10SM CLR 15/13 A3016 RMK AO2
     T01510133=
METAR KERY 080855Z AUTO 23003KT 10SM BKN015 OVC026 19/19 A2996 RMK
     AO2=
METAR KETH 080854Z AUTO 24004KT 10SM CLR 16/14 A3010 RMK AO2=
METAR KFKA 080903Z AUTO 31006KT 5SM BR BKN033 19/19 A3006 RMK AO2
     T01920187=
METAR KFKS 080855Z AUTO 22005KT 10SM OVC100 22/19 A2998 RMK
     AO2=
METAR KFOZ 080853Z AUTO 00000KT 1/4SM FG OVC001 12/12 A3005 RMK
     AO2=
METAR KGOV 080855Z AUTO 00000KT 3SM BR SCT055 SCT110 20/20 A3003
     RMK AO2=
METAR KHYX 080855Z AUTO 00000KT 10SM CLR 22/20 A3000 RMK AO2=
METAR KISQ 080856Z AUTO 20005KT 1/2SM -RA OVC002 19/18 A2995 RMK
     AO2=
METAR KLDM 080855Z AUTO 20004KT 10SM SCT065 OVC110 22/21 A3000 RMK
     AO2=
METAR KMCD 080855Z AUTO 17003KT 7SM OVC110 21/18 A2996 RMK AO2=
METAR KMZH 080851Z AUTO 30003KT 10SM CLR 15/15 A3004 RMK AO2=
METAR KONZ 080857Z AUTO 00000KT 10SM SCT075 25/20 A3002 RMK
     AO2=
METAR KORB 080854Z AUTO 20003KT 10SM CLR 15/13 A3001 RMK AO2=
METAR KOSC 080854Z AUTO 00000KT 7SM CLR 19/18 A2999 RMK AO2=
METAR KOWA 080854Z AUTO 30003KT 10SM CLR 17/17 A3007 RMK AO2=
METAR KPHN 080855Z AUTO 00000KT 1/4SM FG VV002 20/18 A3002 RMK
     AO2=
METAR KPZQ 080855Z AUTO 22003KT 7SM SCT120 22/22 A2997 RMK AO2=
METAR KRIL 080853Z AUTO 07008KT 10SM CLR 16/08 A3025 RMK AO2
     SLP165 60000 T01610078 58006 TSNO=
METAR KRMY 080855Z AUTO 00000KT 10SM CLR 22/19 A3003 RMK AO2=
METAR KSAW 080859Z AUTO 29003KT 5SM BR OVC001 18/17 A2997 RMK
     AO2=
METAR KSJX 080855Z AUTO 22009KT 5SM -RA SCT060 BKN120 21/20 A2996
     RMK AO2=
METAR KSLH 080855Z AUTO 00000KT 10SM BKN120 21/21 A2996 RMK
     AO2=
METAR KTTF 080854Z AUTO 00000KT 10SM CLR 23/21 A3002 RMK AO2=
SPECI KUIN 080901Z AUTO 00000KT 10SM SCT001 BKN034 BKN055 23/22 
    A3003 RMK AO2=
SPECI KVSF 080901Z AUTO 00000KT 4SM BR SCT002 21/20 A3006 RMK AO2 $=
METAR KVWU 080851Z AUTO 20003KT 10SM CLR 14/14 A3002 RMK AO2=
METAR KXVG 080856Z AUTO 24004KT 7SM CLR 12/12 A3004 RMK AO2=
####018000099####
SAUK39 EGRR 080850 RRB
METAR EGUO 080850Z 00000KT 9999 FEW010 SCT025 BKN085 16/12 Q1020
BLU=
####018000109####
SAUK39 EGRR 080850 CCA
METAR EGXT 080850Z 23011KT 9999 -RA FEW020 BKN090 BKN120 17/10 Q1018
BLU NOSIG=
####018000090####
SAUK39 EGRR 080850 RRC
METAR EGYE 080850Z 24008KT 9999 FEW030 BKN080 ///// Q1017 BLU=
####018000345####
SAUS99 KWBC 080903 RRA
METAR
KSJX 080855Z AUTO 22009KT 5SM -RA SCT060 BKN120 21/20 A2996 RMK
     AO2=
KSLH 080855Z AUTO 00000KT 10SM BKN120 21/21 A2996 RMK AO2=
KTTF 080854Z AUTO 00000KT 10SM CLR 23/21 A3002 RMK AO2=
KVWU 080851Z AUTO 20003KT 10SM CLR 14/14 A3002 RMK AO2=
KXVG 080856Z AUTO 24004KT 7SM CLR 12/12 A3004 RMK AO2=
####018003697####
SAUS99 KWBC 080903
METAR
K0R3 080859Z AUTO 08003KT 7SM CLR 25/25 A2998 RMK AO2=
K1A5 080900Z AUTO 00000KT 4SM BR CLR 17/16 A3015 RMK AO2
     T01710159=
K3I2 080900Z AUTO 00000KT 1 3/4SM BR OVC001 18/18 A3008 RMK
     AO2=
K3J7 080859Z AUTO 00000KT 10SM CLR 22/21 A2999 RMK AO2=
K47A 080900Z AUTO 00000KT 7SM CLR 20/18 A3006 RMK AO2
     T02040180=
KACP 080859Z AUTO 00000KT 7SM BKN018 24/23 A3000 RMK AO2=
KASJ 080858Z AUTO 00000KT 4SM HZ CLR 24/21 A2996 RMK AO2=
KAVC 080900Z AUTO 00000KT 7SM BKN110 26/19 A3002 RMK AO2=
KAYS 080900Z AUTO 00000KT 2SM CLR 22/21 A3000 RMK AO1 VIS 1
     1/4V5=
KBCB 080900Z AUTO 00000KT 5SM BR OVC085 22/21 A3014 RMK AO2=
KBGE 080900Z AUTO 00000KT 10SM CLR 21/20 A3001 RMK AO2=
KBIJ 080900Z AUTO 00000KT 10SM CLR 19/ A3002 RMK AO2=
KBQK 080857Z AUTO 26004KT 10SM CLR 22/22 A3000 RMK AO1 T02230216
     PNO=
KCPK 080901Z AUTO 00000KT 3SM HZ CLR 23/20 RMK AO2=
KCPK 080900Z AUTO 00000KT 3SM BR CLR 23/21 A2996 RMK AO2=
KCTJ 080900Z AUTO 00000KT 10SM CLR 21/19 A3006 RMK AO2
     T02080190=
KEDE 080856Z AUTO 04003KT 2 1/2SM BR CLR 23/22 A2994 RMK AO2=
KEMV 080857Z AUTO 00000KT 5SM BR CLR 23/21 A2997 RMK AO2=
KEXX 080859Z AUTO 00000KT 10SM CLR 22/18 A3000 RMK AO2=
KHRJ 080901Z AUTO 00000KT 7SM CLR 25/21 A2994 RMK AO2=
KJYL 080901Z AUTO 00000KT 10SM CLR 23/21 A2999 RMK AO2=
KLWB 080900Z AUTO 00000KT 5SM HZ SCT060 BKN075 OVC090 21/18 A3015
     RMK AO2=
KMQI 080856Z AUTO 06007KT 10SM SCT120 26/24 A2994 RMK AO2=
KMWK 080902Z AUTO 00000KT 7SM SCT090 23/18 A3004 RMK AO2=
KPGV 080900Z AUTO 02003KT 5SM HZ CLR 23/21 A2995 RMK AO2=
KUKF 080901Z AUTO 00000KT 7SM BKN090 21/18 A3006 RMK AO1=
KUNV 080900Z AUTO 00000KT 7SM CLR 20/18 A3009 RMK AO2
     T01990180=
KW99 080859Z AUTO 00000KT 5SM HZ BKN085 21/17 A3009 RMK AO2=
PAVC 080856Z AUTO 03003KT 10SM 07/07 A2996 RMK AO2 PWINO TSNO
     58001 T00720072 401160061 SLP146 $=
KAMN 080855Z AUTO 29003KT 5SM BR SCT055 BKN110 23/22 A3001 RMK
     AO2=
KAQP 080854Z AUTO 22003KT 10SM CLR 14/14 A3011 RMK AO2=
KBFW 080853Z AUTO 32003KT 10SM SCT055 17/14 A3000 RMK AO2=
KCDA 080855Z AUTO 00000KT 4SM BR CLR 20/18 A3009 RMK AO2=
KCDD 080851Z AUTO 18003KT 10SM CLR 16/16 A3003 RMK AO2=
KCVX 080855Z AUTO 19003KT 10SM BKN120 21/20 A2998 RMK AO2=
KDVP 080856Z AUTO 27003KT 10SM CLR 15/13 A3016 RMK AO2
     T01510133=
KERY 080855Z AUTO 23003KT 10SM BKN015 OVC026 19/19 A2996 RMK
     AO2=
KETH 080854Z AUTO 24004KT 10SM CLR 16/14 A3010 RMK AO2=
KFKA 080903Z AUTO 31006KT 5SM BR BKN033 19/19 A3006 RMK AO2
     T01920187=
KFKS 080855Z AUTO 22005KT 10SM OVC100 22/19 A2998 RMK AO2=
KFOZ 080853Z AUTO 00000KT 1/4SM FG OVC001 12/12 A3005 RMK AO2=
KGOV 080855Z AUTO 00000KT 3SM BR SCT055 SCT110 20/20 A3003 RMK
     AO2=
KHYX 080855Z AUTO 00000KT 10SM CLR 22/20 A3000 RMK AO2=
KISQ 080856Z AUTO 20005KT 1/2SM -RA OVC002 19/18 A2995 RMK AO2=
KLDM 080855Z AUTO 20004KT 10SM SCT065 OVC110 22/21 A3000 RMK
     AO2=
KMCD 080855Z AUTO 17003KT 7SM OVC110 21/18 A2996 RMK AO2=
KMZH 080851Z AUTO 30003KT 10SM CLR 15/15 A3004 RMK AO2=
KONZ 080857Z AUTO 00000KT 10SM SCT075 25/20 A3002 RMK AO2=
KORB 080854Z AUTO 20003KT 10SM CLR 15/13 A3001 RMK AO2=
KOSC 080854Z AUTO 00000KT 7SM CLR 19/18 A2999 RMK AO2=
KOWA 080854Z AUTO 30003KT 10SM CLR 17/17 A3007 RMK AO2=
KPHN 080855Z AUTO 00000KT 1/4SM FG VV002 20/18 A3002 RMK AO2=
KPZQ 080855Z AUTO 22003KT 7SM SCT120 22/22 A2997 RMK AO2=
KRIL 080853Z AUTO 07008KT 10SM CLR 16/08 A3025 RMK AO2 SLP165
     60000 T01610078 58006 TSNO=
KRMY 080855Z AUTO 00000KT 10SM CLR 22/19 A3003 RMK AO2=
KSAW 080859Z AUTO 29003KT 5SM BR OVC001 18/17 A2997 RMK AO2=
####018000239####
SPUS99 KWBC 080903
SPECI
KTXK 080901Z AUTO 00000KT 6SM BR OVC001 23/23 A3003 RMK AO2=
KUIN 080901Z AUTO 00000KT 10SM SCT001 BKN034 BKN055 23/22 A3003
     RMK AO2=
KVSF 080901Z AUTO 00000KT 4SM BR SCT002 21/20 A3006 RMK AO2 $=
####018000102####
SPBY31 UMMN 080900
SPECI UMII 080900Z 16003MPS  P6000  BKN015  21/18  Q1013
R23/CLRD//  NOSIG   =
####018000132####
SAZA42 FAJS 080900 RRB
METAR FAWK 080900Z 09010KT  9999 FEW060  13/// Q1038=
METAR FASK 080900Z NIL=
METAR FALM 080900Z NIL=
####018000124####
SAIY40 LIIB 080800 RRD
METAR LIVP 080755Z VRB01KT 0900 FG VV/// 11/09 Q1028 RMK MON INVIS
      VAL INVIS VIS MIN 0900=
####018000068####
SABZ23 SBCF 080900
METAR SBCF 080900Z 17003KT CAVOK 10/08 Q1023=
####018000152####
SAAF14 LFPW 080800 RRC
METAR FEFG 080800Z /////KT 9999 TSRA FEW033CB OVC140 20/20 Q////=
METAR FEFT 080800Z 32004KT 9999 FEW005 BKN150 24/21 Q1017=
####018000379####
SAPK31 OPKC 080900
METAR OPGD 080900Z NIL=
METAR OPKC 080900Z 12012KTS 9000 SCT020 SCT030 TCU 35/24 Q.1003
TEMPO NE 25KTS OR MORE TSRA FEW025 CB=
METAR OPLA 080855Z 11005KT 6000 SCT040 38/23 Q1005 NOSIG=
METAR OPNH 080900Z NIL=
METAR OPPS 080900Z 05012KT 6000 HZ FEW040 FEW100 38/24 Q1005.2=
METAR OPRN 080900Z 23016KT 9999 FEW040 38/20 1006.7=
METAR OPSK 080900Z NIL=
####018000233####
SAAF27 LFPW 080800 RRB
METAR DGAA 080800Z 24005KT 8000 FEW014 BKN100 26/23 Q1015 NOSIG=
METAR FGBT 080800Z 18004KT 8000 BKN013 OVC130 26/24 Q1015 NOSIG=
METAR FGSL 080800Z 00000KT 9999 SCT013 FEW020CB BKN130 26/26
Q1015 NOSIG=
####018000130####
SAKA31 PTKK 080900
METAR PTKK 080858Z VRB03KT 15SM FEW012 BKN120 OVC280 25/23 A2983 RMK
 SLP101 60002 8/121 T02500229 53005=
####018000430####
SAAF11 LFPW 080800 RRB
METAR FCPP 080800Z 14004KT 4000 BR FEW010 BKN023 23/21 Q1015 BECMG
6000 NSW=
METAR FKKD 080800Z 14003KT 070V160 7000 TS BKN013 FEW016CB OVC120
26/24 Q1015 TEMPO 4000 TS BR=
METAR FKKR 080800Z 00000KT 9999 TSRA SCT003 SCT016 FEW020 OVC120
22/21 Q1014 TEMPO BKN006=
METAR FKYS 080800Z 26003KT 230V300 8000 FEW003 BKN006 22/20 Q1019
NOSIG=
METAR FOON 080800Z 18004KT 6000 SCT010 BKN150 23/21 Q1018=
####018000471####
SAUK51 EGGY 080850 RRA
METAR EGDM 080850Z 22002KT 9999 FEW012 SCT025 BKN130 17/13 Q1019
    TEMPO SCT014=
METAR EGOV 080850Z 20014KT 9999 FEW013 SCT160 BKN220 16/13 Q1016
    NOSIG=
METAR EGUB 080850Z 31004KT 9999 FEW010 OVC030 18/13 Q1018 NOSIG=
METAR EGXC 080850Z 24009KT 9999 -RA FEW025 SCT090 OVC120 17/11
    Q1017 NOSIG=
METAR EGXT 080850Z 23011KT 9999 -RA FEW020 BKN090 BKN120 17/10
    Q1018 NOSIG=
METAR EGYD 080850Z 24012KT CAVOK 17/10 Q1017 NOSIG=
####018000099####
SAAJ31 UBBB 080900
UBBN 080900Z 14006KT 9999 NSC 36/11 Q1010 R14R/CLRD60 NOSIG
RMK G/O QFE683=
####018000126####
SAIY42 LIIB 080800 RRB
METAR LIRV 080755Z 05008KT 9999 FEW024 24/15 Q1020 RMK FEW MON E SE
      LIB NC VIS MIN 9999 BLU=
####018000046####
SAVN26 SVMC 080900
METAR SVMC 080900Z NIL=
####018000096####
SAUZ31 UTTT 080900
METAR UTTT 080900Z 29003MPS 230V360 CAVOK 38/08 Q1010
R08R/CLRD70 NOSIG=
####018000088####
SAEW LEMO 080900
METAR LEMO 080900Z 27004KT 240V340 9999 FEW050 26/19 
Q1016 NOSIG=
####018000577####
SAGR31 LGAT 080850
METAR LGAD 080850Z 34015KT 9999 FEW020 28/17 Q1013=
METAR LGAV 080850Z 02017KT 9999 FEW020 BKN030 26/13 Q1013 NOSIG=
METAR LGIR 080850Z 02004KT CAVOK 29/21 Q1011 NOSIG=
METAR LGKL 080850Z 34004KT 9999 FEW030 32/17 Q1011=
METAR LGKO 080850Z 30018KT CAVOK 28/18 Q1010=
METAR LGKR 080850Z 31014KT CAVOK 27/12 Q1013 NOSIG=
METAR LGLM 080850Z NIL=
METAR LGRP 080850Z 24016KT CAVOK 30/19 Q1008 NOSIG=
METAR LGSA 080850Z 30008KT CAVOK 32/15 Q1011=
METAR LGSM 080850Z 34011KT CAVOK 29/14 Q1010=
METAR LGTS 080850Z 32022KT 9999 FEW025 23/12 Q1016 NOSIG=
####018000098####
SARM31 LUKK 080900
METAR LUKK 080900Z 33007KT 300V360 9999 SCT020 22/15 Q1015
26CLRD65 NOSIG=
####018000086####
SAAI41 FHAW 080850
METAR
FHAW 080850Z 13014KT 9999 FEW027 BKN035 27/19 Q1016 BLU=
####018000104####
SPAU31 KWBC 080903
SPECI
YPPD 080902Z AUTO 04015KT 9999NDV // BKN012 BKN025 OVC120 23/20
Q1008=
####018000089####
SAIY42 LIIB 080800 RRC
METAR LIRZ 080750Z VRB02KT CAVOK 26/13 Q1021 RMK VIS MIN 9999=
####018000578####
SAPR82 SPIM 080900
METAR
SPHI 080900Z 17008KT CAVOK 15/13 Q1014 RMK PP000=
METAR
SPIM 080900Z VRB02KT 6000 OVC022 16/14 Q1013 NOSIG RMK PP000=
METAR COR
SPQT 080900Z ///// 9999 VCFG SKC 24/23 Q1010 TEMPO BR
             RMK PP000=
METAR
SPQU 080900Z 00000KT CAVOK 06/M09 Q1024 RMK PP000=
METAR
SPRU 080900Z 16006KT 6000 OVC016 16/13 Q1013 RMK BIRD HAZARD RWY20
PP000=
METAR
SPSO 080900Z 00000KT 8000 SCT014 12/10 Q1013 RMK PP000=
METAR
SPTN 080900Z 00000KT 8000 SCT007 OVC012 11/09 Q1014 RMK PP000=
METAR
SPZO 080900Z 00000KT 9999 SKC 05/01 Q1031 RMK PP000=
####018000081####
SABZ20 SBSL 080900
METAR SBSL 080900Z 10003KT 9999 FEW017 SCT100 26/23 Q1013=
####018000367####
SACU31 MUHA 080900
METAR
MUHA 080855Z 00000KT 8000 FEW018 24/23 Q1013=
MUVR 080853Z 00000KT 8000 SCT020 BKN200 25/23 Q1014=
MUCL  NIL=
MUCF  NIL=
MUSC  NIL=
MUCC 080854Z 00000KT 9000 FEW020 26/22 Q1013=
MUCM 080849Z 00000KT 9000 FEW020 23/21 Q1014=
MUMZ  NIL=
MUHG 080851Z 18004KT 130V220 CAVOK 25/22 Q1015=
MUCU 080857Z 04004KT 9000 FEW020 25/23 Q1015=
####018000109####
SAIV20 DIAP 080900
METAR DIAP 080900Z VRB02KT 6000 SCT005 BKN012 BKN080 26/25 Q1015
TEMPO BKN012 BKN070=
####018000080####
SAMF20 TFFR 080900
METAR TFFR 080900Z 00000KT 9999 FEW021 25/24 Q1014 NOSIG=
####018000071####
SAPR94 SPIM 080900
METAR SPJL 080900Z NIL=
METAR SPME 080900Z NIL=
####018000385####
SASD31 OEJD 080900
METAR OEDF 080900Z 36014KT 8000 NSC 45/03 Q1000 NOSIG=
METAR OEDR 080900Z 01012KT 8000 SKC 44/09 Q0999 NOSIG=
METAR OEJN 080900Z 31012KT CAVOK 37/25 Q1001 NOSIG=
METAR OEMA 080900Z 10008KT CAVOK 45/00 Q1006 NOSIG=
METAR OERK 080900Z 02017KT 5000 BLDU SKC 42/M01 Q1008 NOSIG=
METAR OERY 080900Z 04018KT 5000 SA NSC 43/01 Q1008 NOSIG=
METAR OYSN 080900Z NIL=
####018000087####
SACO20 SKBO 080858
METAR SKBQ 080900Z 15004KT 3000 BR SCT002 25/25 A2987 RMK APRSM=
####018000088####
SAPQ31 KWBC 080800 RRD
METAR
PTTP 080755Z 18003KT 15SM FEW018 BKN300 27/24 A2985=
####018000096####
SPEE31 KWBC 080903
SPECI
UMII 080900Z 16003MPS P6000 BKN015 21/18 Q1013 R23/CLRD// NOSIG=
####018000087####
SAGL31 BGSF 080850 CCA
METAR COR BGJN 080850Z 36003KT 9999 VCFG FEW200 06/05 Q1010=
####018000420####
SACO20 SKBO 080858
METAR SKBO 080900Z 0000KT 6000 HZ BKN012 12/11 A3028 NOSIG=
METAR SKBQ 080900Z 15004KT 3000 BR SCT002 25/25 A2987 RMK APRSM=
METAR SKCL 080800Z 00000KT 9999 FEW025 BKN100 20/18 A2999=
METAR SKCG 080800Z 11004KT 9999 FEW012 SCT070 28/26 A2988=
METAR SKCC NIL=
METAR SKLT NIL=
METAR SKRG 080900Z 00000KT 6000 BKN007 BKN080 14/14 A3025 RMK HZ=
METAR SKSP NIL=
METAR SKBG NIL=
METAR SKPE NIL=
####018000078####
SAUK38 EGGY 080850 RRA
METAR EGPU 080850Z 23018KT 9999 SCT022 14/11 Q1009=
####018000087####
SAGL41 BGSF 080850 CCB
METAR COR BGJN 080850Z 36003KT 9999 VCFG FEW200 06/05 Q1010=
####018000096####
SPRA31 KWBC 080903
SPECI
UMII 080900Z 16003MPS P6000 BKN015 21/18 Q1013 R23/CLRD// NOSIG=
####018000659####
SACH10 SCSC 080900
METAR
SCAR 080900Z 26001KT 9999 OVC023 15/09 Q1016=
SCDA 080900Z 01009KT 9999 OVC026 15/08 Q1017=
SCFA 080900Z 08005KT 9999 OVC015 12/08 Q1015=
SCAT 080900Z AUTO 32005KT 9999 // 05/04 Q1016=
SCIP 080900Z 03002KT 7000 -SHRA SCT012 OVC020 18/17 Q1024 TEMPO
 5000 -SHRA=
SCEL 080900Z 00000KT 4000 BR BKN130 03/01 Q1021 NOSIG=
SCIE 080900Z 31011KT 5000 -SHRA BKN005 OVC020 13/11 Q1019=
SCTC 080900Z 34007KT 280V020 9999 SCT015 OVC025 11/10 Q1013
    RERA=
SCTE 080900Z 30008KT 6000 VCSH BKN030 09/07 Q1007 NOSIG=
SCBA 080900Z AUTO 27009KT CAVOK M01/M03 Q0999=
SCCI 080900Z 35010KT 9999 SCT025 M03/M05 Q0987 NOSIG=
####018000079####
SAJD31 OJAI 080900 RRA
METAR OJAI 080900Z 29009KT CAVOK 31/04 Q1012 NOSIG=
####018000843####
SAUR30 UKMS 080900
METAR UKBB 080900Z 31003MPS 250V350 9999 BKN023 24/18
         Q1014 88CLRD95    NOSIG=
METAR UKHH 080900Z 21003MPS 150V260 9999 BKN040
         BKN200  28/16 Q1014 080///65 NOSIG=
METAR UKOO 080900Z 36004MPS CAVOK 25/16 Q1014
         34090070 NOSIG=
METAR UKDE 080900Z 24003MPS 170V320 9999 SCT050 28/17
          Q1014 20CLRD70 NOSIG=
METAR UKDD 080900Z VRB01MPS 9999 BKN033CB 28/19 Q1014
          08090070 TEMPO VRB10G15MPS -TSRA SQ
         BKN020CB=
METAR UKFF 080900Z 09002MPS 340V140 9999 FEW040 27/17
          Q1013 19010070 NOSIG=
METAR UKLL 080900Z 31004MPS 260V020 9999 OVC040 17/12
          Q1020 31210365 NOSIG=
METAR UKCC 080900Z VRB01MPS CAVOK 28/17 Q1015
         08090070 NOSIG=
METAR UKDR 080900Z VRB02MPS 9999 BKN033 OVC200 27/19
         Q1013 1809//70 NOSIG=
####018000083####
SAAB31 LATI 080900
METAR LATI 080900Z 34008KT 330V130 CAVOK 26/12 Q1016 NOSIG=
####018000079####
SAJD20 OJAM 080900 RRA
METAR OJAI 080900Z 29009KT CAVOK 31/04 Q1012 NOSIG=
####018000103####
SAPK31 OPSK 080853
METAR OPSK 080855Z 050008KTS 6000 HZ SCT040 SCT100 39/25 QNH 1002
R.H. 46 PC=
####018000107####
SAPK31 OPKC 080900 RRA
METAR OPSK 080855Z 050008KTS 6000 HZ SCT040 SCT100 39/25 QNH 1002
R.H. 46 PC=
####018000102####
SPAU32 YBBN 080902
SPECI YPPD 080902Z AUTO 04015KT 9999NDV // BKN012 BKN025 OVC120 23/20
Q1008=
####018000412####
SAME31 OLBA 080900
METAR OLBA 080900Z 24008KT 210V270 8000 FEW080 29/19 Q1011
     NOSIG=
METAR OSDI 080900Z 20018KT CAVOK 34/07 Q1010=
METAR OSAP 080900Z 28016KT CAVOK 32/18 Q1007=
METAR OSLK 080900Z 21004KT 9999 FEW026 SCT030 28/21 Q1009=
METAR OJAI 080900Z 29009KT CAVOK 31/04 Q1012 NOSIG=
METAR OJAM 080900Z 19004KT 6000 NSC 31/05 Q1012 NOSIG=
METAR OJAQ 080900Z 36018KT CAVOK 35/24 Q1008=
####018000107####
SPCN43 CWAO 080901
SPECI CYPY 080901Z AUTO 27003KT 1 3/8SM CLR 11/11 A2992 RMK VSBY VRBL
0.5V9.0=

####018000089####
SAGY31 SYCJ 080900
METAR SYCJ 080900Z 00000KT 9000 SCT016 23/23  Q1016 TEMPO 4000 VCFG=####018000075####
SACN50 CWAO 080815
WGP SA 0815 AUTO8 M M M M/14/12/MMMM/M/M M 89MM=

####018000075####
SACN50 CWAO 080830
WGP SA 0830 AUTO8 M M M M/13/12/MMMM/M/M M 37MM=

####018000075####
SACN50 CWAO 080845
WGP SA 0845 AUTO8 M M M M/13/12/MMMM/M/M M 38MM=

####018000688####
SAEW KAWN 080900 RRC
METAR EBBL 080855Z 20007KT 9999 FEW220 30/11 Q1019 BLU BLU=
METAR EBFN 080855Z 30007KT 9999 FEW042 BKN190 22/16 Q1020 BLU BLU=
METAR EBFS 080855Z 20006KT 9999 FEW250 25/12 Q1021 BLU BLU=
METAR EDHL 080850Z 14007KT CAVOK 25/15 Q1020 RMK J=
METAR EDLN 080850Z VRB04KT CAVOK 28/14 Q1019 RMK ATIS I=
METAR EDLP 080850Z 22006KT 190V260 CAVOK 27/10 Q1020 RMK RWY24 TRL60
      JP ATIS N=
METAR EDLW 080850Z 21009KT 170V240 CAVOK 28/10 Q1020 RMK ATIS L=
METAR EDXW 080850Z 21011KT CAVOK 22/13 Q1018 RMK ATIS INFO Q=
METAR EHKD 080855Z AUTO 24011KT 9999NDV OVC056/// 19/15 Q1019 BLU BLU=
METAR EKVJ 080850Z 18006KT 8000 -RA SCT020 BKN040 20/17 Q1017=
####018000347####
SAXX60 KAWN 080900 RRA
METAR KHLR 080856Z AUTO 09004KT 10SM FEW027 26/ A2998 RMK AO2 RAB29E38
      SLP143 P0000 60000 T0256 56006 $=
METAR PHBK 080856Z AUTO 00000KT 10SM OVC075 26/18 A3003 RMK AO2 SLP172
      T02560178 51012 TSNO $=
METAR PHNY 080856Z AUTO 11007KT 10SM CLR 21/17 A3009 RMK AO2 TSNO 51012
      T02050166 SLP169 $=
####018000769####
SAXX70 KAWN 080900 RRF
METAR KQA7 080855Z AUTO VRB01KT 8000 DU HZ FEW180 40/01 A2995 RMK AO2
      SLP016 T03980009 57015=
METAR KQIR 080855Z AUTO 06010KT 9999 FEW070 SCT100 BKN120 BKN140 OVC170
      41/26 A2953 RMK AO2 CIG 090 RWY16 SLP997 T04090258 58011=
METAR KQLT 080855Z AUTO VRB04KT 9000 37/03 A2992 RMK AO2 SLP002 T03680033
      57019 $=
METAR KQQS 080855Z AUTO VRB04KT 9999 CLR 30/06 A3016 RMK AO2 SLP078
      T02960061 57016 $=
METAR KQQY 080855Z AUTO 30001KT 9999 FEW130 SCT150 22/21 A2996 RMK
      AO2 SLP127 T02220211 56012 $=
METAR KQSD 080855Z VRB03KT 9000 FEW080 34/00 A3005 RMK SLP025 57015=
METAR KQFB 080900Z AUTO 35008KT 5SM BR FEW042 25/22 A2991 RMK A02=
METAR KQEV 080910Z AUTO 16001KT 7SM CLR 28/18 A2976 RMK A02=
####018000648####
SAAK41 KNKA 080903
METAR PABA 080901Z AUTO 22005KT 10SM SCT005 OVC055 04/04 A3005 RMK 
    AO2 RAE0824 SLP175 P0000 60000 T00440039 400440044 50004=
METAR PAIK 080901Z AUTO 24006KT 10SM CLR 14/08 A3013 RMK AO2 SLP244 
    T01390083 401390139 53003=
METAR PAKF 080901Z AUTO 18007KT 10SM BKN019 OVC031 08/07 A2994 RMK 
    AO2 SLP231 60000 T00830067 400830083 55000=
METAR PANW 080856Z AUTO 35006KT SCT050 SCT060 OVC075 10/09 A2998 RMK 
    AO2 PWINO TSNO 53001 T01000094 SLP131 $=
SPECI PATO 080901Z AUTO 15009G36KT 110V180 4SM RA BR FEW024 BKN029 
    OVC037 13/11 A3001 RMK AO2 PK WND 11036/0855 P0002 T01280111 
    TSNO=
####018000465####
SAUS20 KNKA 080903
SPECI KBDR 080902Z AUTO 10006KT 1SM BR OVC002 24/23 A3003 RMK AO2=
SPECI KELZ 080902Z AUTO 00000KT 1 3/4SM BR CLR 19/18 A3016 RMK AO2=
SPECI KLWM 080902Z AUTO 19003KT 5SM BR OVC010 24/22 A3008 RMK AO2=
SPECI KMMK 080902Z AUTO 00000KT 2 1/2SM BR OVC008 24/22 A3003 RMK 
    AO2=
SPECI KSTC 080902Z AUTO 00000KT 1 3/4SM BR CLR 14/12 A3008 RMK AO2 
    VIS 3/4V2 1/2=
METAR KTSP 080855Z AUTO 00000KT 10SM CLR 13/07 A3002 RMK AO2 =
####018000075####
SACN50 CWAO 080845
VOP SA 0845 AUTO8 M M M M/17/12/3001/M/M M 76MM=

####018000075####
SACN50 CWAO 080830
VOM SA 0830 AUTO8 M M M M/23/09/3203/M/M M 09MM=

####018000075####
SACN50 CWAO 080815
VOP SA 0815 AUTO8 M M M M/17/12/0701/M/M M 67MM=

####018000075####
SACN50 CWAO 080815
VOM SA 0815 AUTO8 M M M M/23/10/3401/M/M M 85MM=

####018000078####
SACN92 CWAO 060700 RRZ
WKH SA 0700 AUTO8 M M M M/14/M/MMMM/M/M M 6MMM=

####018000078####
SACN92 CWAO 060800 RRZ
WKH SA 0800 AUTO8 M M M M/13/M/MMMM/M/M M 4MMM=

####018001749####
SAEU KAWN 080900 RRL
METAR EBBL 080855Z 20007KT 9999 FEW220 30/11 Q1019 BLU BLU=
METAR EBFN 080855Z 30007KT 9999 FEW042 BKN190 22/16 Q1020 BLU BLU=
METAR EBFS 080855Z 20006KT 9999 FEW250 25/12 Q1021 BLU BLU=
METAR EGDX 080850Z 22006KT 9999 FEW017 BKN090 18/12 Q1019 BLU=
METAR EGDY 080850Z 27003KT 9999 FEW010 BKN140 19/14 Q1018 BLU NOSIG=
METAR EGQA 080850Z 20015KT 9999 -SHRA FEW018 SCT050 14/// Q1008 BLU=
METAR EGVP 080850Z 16002KT 9999 FEW007 BKN027 17/15 Q1018 BLU TEMPO
      SCT012 GRN=
METAR EGXT 080850Z 23011KT 9999 -RA FEW020 BKN090 BKN120 17/10 Q1018
      BLU NOSIG=
METAR EGXW 080850Z 26009KT CAVOK 17/10 Q1017 BLU NOSIG=
METAR EGXX 080850Z AUTO 22010KT 9999NDV // NCD ///// Q////=
METAR EGXZ 080850Z 21007KT 9999 SCT020 OVC250 17/12 Q1016 WHT=
METAR EGYH 080850Z 24015KT 9999 FEW030 BKN120 18/// Q1018 BLU=
METAR EKVJ 080850Z 18006KT 8000 -RA SCT020 BKN040 20/17 Q1017=
METAR EPGD 080900Z 30008KT CAVOK 21/11 Q1021=
METAR EPKK 080900Z 33006KT 290V020 9999 FEW046 21/09 Q1022=
METAR EPKT 080900Z 34008KT CAVOK 20/08 Q1023=
METAR EPPO 080900Z 32006KT 250V020 CAVOK 21/09 Q1023=
METAR EPRZ 080900Z 32011KT 280V350 9999 FEW033 20/10 Q1021=
METAR EPWA 080900Z 29010KT 250V350 9999 FEW033 20/12 Q1021 NOSIG=
METAR EPWR 080900Z VRB04KT CAVOK 23/10 Q1023=
METAR LGPZ 080850Z 27016KT 9999 FEW025 29/19 Q1013 NOSIG BLU=
METAR LGRX 080850Z 27008KT 9999 FEW025 28/20 Q1012 NOSIG BLU=
METAR LGSR 080850Z 34017KT CAVOK 29/18 Q1010 NOSIG BLU=
METAR LGSY 080850Z 04007KT 8000 RA SCT008 SCT015TCU BKN018 21/16 Q1013
      NOSIG RMK BKN080 BLU=
METAR LGTG 080850Z 01010G20KT 9999 FEW030 BKN070 22/12 Q1015 NOSIG
      BLU=
METAR LHBP 080900Z 21006KT 130V290 9999 FEW046 22/11 Q1022 NOSIG=
####018000081####
SACH10 SCSC 080900 CCA
METAR
SCDA 080900Z 01009KT 9999 OVC026 14/08 Q1017=
####018000509####
SAHU41 LHBM 080900
METAR LHDC 080845Z 02011KT 9999 FEW033 21/12 Q1021 NOSIG=
METAR LHKE 080845Z 05003MPS 9999 FEW048 23/10 Q1021 BECMG NSC RMK
     BLU=
METAR LHPA 080845Z 34005MPS CAVOK 22/09 Q1023 NOSIG RMK BLU=
METAR LHPP 080845Z 03004KT 9999 FEW033 21/14 Q1023 NOSIG=
METAR LHPR 080845Z 33014KT 9999 FEW043 23/09 Q1022=
METAR LHSM 080845Z 35009KT CAVOK 22/10 Q1023 NOSIG=
METAR LHSN 080845Z 02004MPS CAVOK 23/12 Q1021 NOSIG RMK BLU=
METAR LHUD 080845Z 36009KT 9999 FEW033 22/13 Q1022=
####018000872####
SAUR31 UKMS 080900
METAR UKLR 080900Z 29004MPS 270V340 9999 BKN023
         BKN100  20/15 Q1018 30090070 NOSIG=
METAR UKLI 080900Z 29002MPS 250V320 9999 -SHRA
         BKN012CB BKN021 15/14 Q1020 28290565 NOSIG=
METAR UKON 080900Z 33003MPS 260V010 9999 FEW033
         OVC200  26/19 Q1013 05090075 NOSIG=
METAR UKCM 080900Z 12005MPS 080V170 CAVOK 28/18 Q1014
          02010065 NOSIG=
METAR UKCW 080900Z VRB01MPS 9999 BKN040 29/15 Q1014
         2709//70 NOSIG=
METAR UKLU 080900Z 36006MPS 9999 SCT040 21/10 Q1020
         10290060 NOSIG=
METAR UKKK 080900Z 26002MPS 210V350 9999 BKN019 22/18
         Q1015  26CLRD70 NOSIG=
METAR UKKM 080900Z 30002MPS 9000 BKN030 23/18 Q1014
         33CLRD70  NOSIG=
METAR UKLN 080900Z 29005MPS 250V350 9999 BKN012
         BKN033CB 15/14 Q1019 3309//70 TEMPO 1000 TSRA
         BKN003 BKN020CB=
####018000099####
SAAJ31 UBBB 080900
METAR UBBY 080900Z 15007KT 9999 NSC 32/17 Q1015 NOSIG
RMK R33/CLRD70 G/O=
####018000096####
SAAU31 AMMC 080800 RRA
METAR YPXM 080800Z AUTO 17007KT 9999NDV // SCT017 26/21 Q1011=


####018000090####
SAAU31 AMMC 080800 RRA
METAR YPXM 080800Z AUTO 17007KT 9999NDV // SCT017 26/21 Q1011=
####018000554####
SAAU69 AMMC 080900
METAR YSTW 080900Z AUTO 15008KT 9999NDV // NCD 10/06 Q1024=
METAR YSWG 080900Z AUTO 15005KT 9999NDV // NCD 06/04 Q1026=
METAR YTEF 080900Z AUTO 03010KT //// // ////// 22/15 Q1011=
METAR YTNK 080900Z AUTO 11004KT 9999NDV // NCD 17/12 Q1018=
METAR YTRE 080900Z AUTO 24006KT //// // ////// 13/12 Q1025=
METAR YWGT 080900Z AUTO 00000KT //// // ////// 06/05 Q1027=
METAR YWHA 080900Z AUTO 14001KT 9999NDV // NCD 08/03 Q1024=
METAR YWLM 080900Z 23007KT 9999 SCT020 BKN045 12/12 Q1025
     INTER 0900/1000 SHRA BKN010=

####018000540####
SAUS99 KWBC 080904
METAR
KTSP 080855Z AUTO 00000KT 10SM CLR 13/07 A3002 RMK AO2=
PABA 080901Z AUTO 22005KT 10SM SCT005 OVC055 04/04 A3005 RMK AO2
     RAE0824 SLP175 P0000 60000 T00440039 400440044 50004=
PAIK 080901Z AUTO 24006KT 10SM CLR 14/08 A3013 RMK AO2 SLP244
     T01390083 401390139 53003=
PAKF 080901Z AUTO 18007KT 10SM BKN019 OVC031 08/07 A2994 RMK AO2
     SLP231 60000 T00830067 400830083 55000=
PANW 080856Z AUTO 35006KT SCT050 SCT060 OVC075 10/09 A2998 RMK AO2
     PWINO TSNO 53001 T01000094 SLP131 $=
####018000080####
SACN91 KWBC 080904
METAR CWHI 080800Z AUTO 21009KT 13/09 RMK AO1 T01260093=
####018000522####
SPUS99 KWBC 080904
SPECI
KBDR 080902Z AUTO 10006KT 1SM BR OVC002 24/23 A3003 RMK AO2=
KELZ 080902Z AUTO 00000KT 1 3/4SM BR CLR 19/18 A3016 RMK AO2=
KLWM 080902Z AUTO 19003KT 5SM BR OVC010 24/22 A3008 RMK AO2=
KMMK 080902Z AUTO 00000KT 2 1/2SM BR OVC008 24/22 A3003 RMK
     AO2=
KSTC 080902Z AUTO 00000KT 1 3/4SM BR CLR 14/12 A3008 RMK AO2 VIS
     3/4V2 1/2=
PATO 080901Z AUTO 15009G36KT 110V180 4SM RA BR FEW024 BKN029
     OVC037 13/11 A3001 RMK AO2 PK WND 11036/0855 P0002 T01280111
     TSNO=
####018000111####
SACN92 KWBC 080904
METAR CWKH 080800Z AUTO 13/ RMK AO1 T0134=
METAR CWKH 080700Z AUTO 14/ RMK AO1 T0136=
####018000264####
SAPQ50 KWBC 080900 RRB
METAR
PKMR 080854Z 08011KT 15SM SCT014 BKN045 BKN120 OVC300 27/24 A2981
     RMK SHRAE34 SLP098 60027 8/878 T02660240 52019=
PTKK 080858Z VRB03KT 15SM FEW012 BKN120 OVC280 25/23 A2983 RMK
     SLP101 60002 8/121 T02500229 53005=
####018000379####
SABU31 LBSM 080900
METAR LBSF 080900Z 27006MPS 9999 BKN038 16/11 Q1018 NOSIG=
METAR LBWN 080900Z 27005G10MPS 240V300 9999 SCT024 19/15 Q1014
 NOSIG=
METAR LBBG 080900Z 27007MPS 9999 FEW038 BKN072 BKN110 18/15
 Q1015 NOSIG=
METAR LBPD 080900Z 26005MPS 230V290 9999 SCT050 BKN060 16/12
 Q1016 NOSIG=
METAR LBGO 080900Z VRB01MPS 9000 RA BKN033 OVC040 15/14 Q1017
 NOSIG=
####018000089####
SADN32 EKCH 080850 RRB
METAR EKVJ 080850Z 18006KT 8000 -RA SCT020 BKN040 20/17 Q1017=
####018000084####
SAGR32 LGAT 080850 RRA
METAR LGPZ 080850Z 27016KT 9999 FEW025 29/19 Q1013 NOSIG=
####018000132####
SAUS70 KWBC 080900 CCB
METAR
KNSE 080856Z AUTO 00000KT 2 1/2SM BR FEW004 23/21 A3002 RMK AO2
     SLP150 T02280211 55005 $=
####018000177####
SPUS80 KWBC 080904
SPECI
KBDR 080902Z AUTO 10006KT 1SM BR OVC002 24/23 A3003 RMK AO2=
KSTC 080902Z AUTO 00000KT 1 3/4SM BR CLR 14/12 A3008 RMK AO2 VIS
     3/4V2 1/2=
####018000601####
SAUS80 KWBC 080900 RRB
METAR
KACY 080854Z 00000KT 4SM BR CLR 23/22 A3002 RMK AO2 SLP164
     T02330217 53001=
KCHS 080856Z 29007KT 9SM CLR 24/19 A2996 RMK AO2 SLP143 T02440194
     56008=
KDAB 080853Z 00000KT 10SM CLR 21/19 A2999 RMK AO2 SLP154 T02060194
     56008 $=
KDAB 080853Z 00000KT 10SM CLR 21/19 A2999 RMK AO2 SLP154 T02060194
     56008 $=
KAYS 080900Z AUTO 00000KT 2SM CLR 22/21 A3000 RMK AO1 VIS 1
     1/4V5=
KPZQ 080855Z AUTO 22003KT 7SM SCT120 22/22 A2997 RMK AO2=
PHNY 080856Z AUTO 11007KT 10SM CLR 21/17 A3009 RMK AO2 TSNO 51012
     T02050166 SLP169 $=
####018000437####
SAGR32 LGAT 080850
METAR LGAL 080850Z NIL=
METAR LGEL 080850Z 36014G24KT 9999 FEW025 26/13 Q1012=
METAR LGKV 080850Z 11007KT 9999 SCT020TCU 20/15 Q1013=
METAR LGMT 080850Z 32020G33KT 9999 FEW020 SCT025 BKN080 24/16 Q1012=
METAR LGPZ 080850Z NIL=
METAR LGRX 080850Z 27008KT 9999 FEW025 28/20 Q1012 NOSIG=
METAR LGSK 080850Z NIL=
METAR LGSR 080850Z 34017KT CAVOK 29/18 Q1010 NOSIG=
METAR LGZA 080850Z 33015KT CAVOK 31/10 Q1013=
####018000128####
SAXX60 KWBC 080900 CCC
METAR
K79J 080856Z AUTO 00000KT 10SM CLR 24/22 A3002 RMK AO2 SLP159
     T02440217 56005 TSNO $=
####018000090####
SAAJ31 UBBB 080900
METAR UBBL 080900Z 13006KT 9999 NSC 35/16 Q1011 NOSIG RMK G/O SC07=
####018000449####
SAGR33 LGAT 080850
METAR LGHI 080850Z 01015KT 9999 FEW020 26/18 Q1011=
METAR LGKC 080850Z NIL=
METAR LGKF 080850Z 33016KT 9999 FEW030 26/17 Q1013=
METAR LGKP 080850Z 32020KT CAVOK 29/16 Q1009=
METAR LGKZ 080850Z 33014KT 9999 SCT020 SCT070 19/07 Q1018=
METAR LGMK 080850Z 01024G35KT 9999 SCT012 24/19 Q1012=
METAR LGNX 080850Z 36020G30KT 9999 FEW020 26/19 Q1011=
METAR LGPA 080850Z NIL=
METAR LGSO 080850Z 36020KT 9999 FEW018 26/19 Q1012=
####018000113####
SAGR32 LGAT 080850 RRB
METAR LGAL 080850Z 02005KT 9999 -RA FEW008 FEW020TCU SCT025 BKN080
      15/15 Q1015=
####018003572####
SAUS70 KWBC 080900 RRF
METAR
K0R3 080859Z AUTO 08003KT 7SM CLR 25/25 A2998 RMK AO2=
K1A5 080900Z AUTO 00000KT 4SM BR CLR 17/16 A3015 RMK AO2
     T01710159=
K3I2 080900Z AUTO 00000KT 1 3/4SM BR OVC001 18/18 A3008 RMK
     AO2=
K3J7 080859Z AUTO 00000KT 10SM CLR 22/21 A2999 RMK AO2=
K47A 080900Z AUTO 00000KT 7SM CLR 20/18 A3006 RMK AO2
     T02040180=
KACP 080859Z AUTO 00000KT 7SM BKN018 24/23 A3000 RMK AO2=
KASJ 080858Z AUTO 00000KT 4SM HZ CLR 24/21 A2996 RMK AO2=
KAVC 080900Z AUTO 00000KT 7SM BKN110 26/19 A3002 RMK AO2=
KBCB 080900Z AUTO 00000KT 5SM BR OVC085 22/21 A3014 RMK AO2=
KBGE 080900Z AUTO 00000KT 10SM CLR 21/20 A3001 RMK AO2=
KBIJ 080900Z AUTO 00000KT 10SM CLR 19/ A3002 RMK AO2=
KBQK 080857Z AUTO 26004KT 10SM CLR 22/22 A3000 RMK AO1 T02230216
     PNO=
KCPK 080900Z AUTO 00000KT 3SM BR CLR 23/21 A2996 RMK AO2=
KCTJ 080900Z AUTO 00000KT 10SM CLR 21/19 A3006 RMK AO2
     T02080190=
KEDE 080856Z AUTO 04003KT 2 1/2SM BR CLR 23/22 A2994 RMK AO2=
KEMV 080857Z AUTO 00000KT 5SM BR CLR 23/21 A2997 RMK AO2=
KEXX 080859Z AUTO 00000KT 10SM CLR 22/18 A3000 RMK AO2=
KLWB 080900Z AUTO 00000KT 5SM HZ SCT060 BKN075 OVC090 21/18 A3015
     RMK AO2=
KMQI 080856Z AUTO 06007KT 10SM SCT120 26/24 A2994 RMK AO2=
KPGV 080900Z AUTO 02003KT 5SM HZ CLR 23/21 A2995 RMK AO2=
KUNV 080900Z AUTO 00000KT 7SM CLR 20/18 A3009 RMK AO2
     T01990180=
KW99 080859Z AUTO 00000KT 5SM HZ BKN085 21/17 A3009 RMK AO2=
KAMN 080855Z AUTO 29003KT 5SM BR SCT055 BKN110 23/22 A3001 RMK
     AO2=
KAQP 080854Z AUTO 22003KT 10SM CLR 14/14 A3011 RMK AO2=
KBFW 080853Z AUTO 32003KT 10SM SCT055 17/14 A3000 RMK AO2=
KCDA 080855Z AUTO 00000KT 4SM BR CLR 20/18 A3009 RMK AO2=
KCDD 080851Z AUTO 18003KT 10SM CLR 16/16 A3003 RMK AO2=
KCVX 080855Z AUTO 19003KT 10SM BKN120 21/20 A2998 RMK AO2=
KDVP 080856Z AUTO 27003KT 10SM CLR 15/13 A3016 RMK AO2
     T01510133=
KERY 080855Z AUTO 23003KT 10SM BKN015 OVC026 19/19 A2996 RMK
     AO2=
KETH 080854Z AUTO 24004KT 10SM CLR 16/14 A3010 RMK AO2=
KFKS 080855Z AUTO 22005KT 10SM OVC100 22/19 A2998 RMK AO2=
KFOZ 080853Z AUTO 00000KT 1/4SM FG OVC001 12/12 A3005 RMK AO2=
KGOV 080855Z AUTO 00000KT 3SM BR SCT055 SCT110 20/20 A3003 RMK
     AO2=
KHYX 080855Z AUTO 00000KT 10SM CLR 22/20 A3000 RMK AO2=
KISQ 080856Z AUTO 20005KT 1/2SM -RA OVC002 19/18 A2995 RMK AO2=
KLDM 080855Z AUTO 20004KT 10SM SCT065 OVC110 22/21 A3000 RMK
     AO2=
KMCD 080855Z AUTO 17003KT 7SM OVC110 21/18 A2996 RMK AO2=
KMZH 080851Z AUTO 30003KT 10SM CLR 15/15 A3004 RMK AO2=
KONZ 080857Z AUTO 00000KT 10SM SCT075 25/20 A3002 RMK AO2=
KORB 080854Z AUTO 20003KT 10SM CLR 15/13 A3001 RMK AO2=
KOSC 080854Z AUTO 00000KT 7SM CLR 19/18 A2999 RMK AO2=
KOWA 080854Z AUTO 30003KT 10SM CLR 17/17 A3007 RMK AO2=
KPHN 080855Z AUTO 00000KT 1/4SM FG VV002 20/18 A3002 RMK AO2=
KRIL 080853Z AUTO 07008KT 10SM CLR 16/08 A3025 RMK AO2 SLP165
     60000 T01610078 58006 TSNO=
KRMY 080855Z AUTO 00000KT 10SM CLR 22/19 A3003 RMK AO2=
KSAW 080859Z AUTO 29003KT 5SM BR OVC001 18/17 A2997 RMK AO2=
KSJX 080855Z AUTO 22009KT 5SM -RA SCT060 BKN120 21/20 A2996 RMK
     AO2=
KSLH 080855Z AUTO 00000KT 10SM BKN120 21/21 A2996 RMK AO2=
KTTF 080854Z AUTO 00000KT 10SM CLR 23/21 A3002 RMK AO2=
KVWU 080851Z AUTO 20003KT 10SM CLR 14/14 A3002 RMK AO2=
KXVG 080856Z AUTO 24004KT 7SM CLR 12/12 A3004 RMK AO2=
KTSP 080855Z AUTO 00000KT 10SM CLR 13/07 A3002 RMK AO2=
PANW 080856Z AUTO 35006KT SCT050 SCT060 OVC075 10/09 A2998 RMK AO2
     PWINO TSNO 53001 T01000094 SLP131 $=
####018001004####
SAXX60 KWBC 080900 RRD
METAR
KNJM 080857Z AUTO 01005KT 10SM CLR 26/20 A2990 RMK AO2 SLP130
     T02610200 56005 $=
KADW 080855Z 00000KT 10SM BKN075 25/23 A2999 RMK AO2A SLP155
     T02520231 55001 $=
KNBC 080856Z AUTO 24003KT 10SM CLR 23/19 A2997 RMK AO2 SLP149
     T02330189 56008=
KNBG 080855Z AUTO 00000KT 6SM BR CLR 25/24 A3000 RMK AO2 SLP158
     T02500239 58003 PWINO $=
KNCA 080856Z AUTO 00000KT 10SM CLR 23/21 A2991 RMK AO2 SLP129
     T02330211 55003=
KNGP 080856Z AUTO 11011KT 10SM FEW018 BKN050 28/26 A2980 RMK AO2
     TSB18E34RAB37E49 SLP092 P0001 60001 T02830261 56016 $=
KNTU 080856Z 09003KT 10SM CLR 26/23 A2995 RMK AO2 SLP143 T02560233
     55000 CHINO RWY 05R $=
KVPS 080855Z 32001KT 10SM SKC 24/23 A3002 RMK AO2A SLP165
     T02380233 56008=
KHLR 080856Z AUTO 09004KT 10SM FEW027 26/ A2998 RMK AO2 RAB29E38
     SLP143 P0000 60000 T0256 56006 $=
PHBK 080856Z AUTO 00000KT 10SM OVC075 26/18 A3003 RMK AO2 SLP172
     T02560178 51012 TSNO $=
####018000584####
SPUS70 KWBC 080904
SPECI
KTXK 080901Z AUTO 00000KT 6SM BR OVC001 23/23 A3003 RMK AO2=
KUIN 080901Z AUTO 00000KT 10SM SCT001 BKN034 BKN055 23/22 A3003
     RMK AO2=
KVSF 080901Z AUTO 00000KT 4SM BR SCT002 21/20 A3006 RMK AO2 $=
KELZ 080902Z AUTO 00000KT 1 3/4SM BR CLR 19/18 A3016 RMK AO2=
KLWM 080902Z AUTO 19003KT 5SM BR OVC010 24/22 A3008 RMK AO2=
KMMK 080902Z AUTO 00000KT 2 1/2SM BR OVC008 24/22 A3003 RMK
     AO2=
PATO 080901Z AUTO 15009G36KT 110V180 4SM RA BR FEW024 BKN029
     OVC037 13/11 A3001 RMK AO2 PK WND 11036/0855 P0002 T01280111
     TSNO=
####018000072####
SAGR33 LGAT 080850 RRA
METAR LGPA 080850Z 02020KT CAVOK 28/19 Q1011=
####018000094####
SAAF31 KWBC 080800 RRF
METAR
DGAA 080800Z 24005KT 8000 FEW014 BKN100 26/23 Q1015 NOSIG=
####018000624####
SAUS70 KWBC 080904
METAR
KCPK 080901Z AUTO 00000KT 3SM HZ CLR 23/20 RMK AO2=
KHRJ 080901Z AUTO 00000KT 7SM CLR 25/21 A2994 RMK AO2=
KJYL 080901Z AUTO 00000KT 10SM CLR 23/21 A2999 RMK AO2=
KMWK 080902Z AUTO 00000KT 7SM SCT090 23/18 A3004 RMK AO2=
KUKF 080901Z AUTO 00000KT 7SM BKN090 21/18 A3006 RMK AO1=
KFKA 080903Z AUTO 31006KT 5SM BR BKN033 19/19 A3006 RMK AO2
     T01920187=
PABA 080901Z AUTO 22005KT 10SM SCT005 OVC055 04/04 A3005 RMK AO2
     RAE0824 SLP175 P0000 60000 T00440039 400440044 50004=
PAIK 080901Z AUTO 24006KT 10SM CLR 14/08 A3013 RMK AO2 SLP244
     T01390083 401390139 53003=
####018000087####
SAAW31 KWBC 080830 RRD
METAR
LTBA 080850Z 35024KT 9999 SCT035 24/14 Q1012 NOSIG=
####018000092####
SAAU31 KWBC 080800 RRD
METAR
YPXM 080800Z AUTO 17007KT 9999NDV // SCT017 26/21 Q1011=
####018000114####
SAAW34 KWBC 080845 RRC
METAR
OPSK 080855Z 050008KTS 6000 HZ SCT040 SCT100 39/25 QNH 1002 R.H.
     46 PC=
####018000208####
SABX31 KWBC 080850 RRB
METAR
EBBL 080855Z 20007KT 9999 FEW220 30/11 Q1019 BLU BLU=
EBFN 080855Z 30007KT 9999 FEW042 BKN190 22/16 Q1020 BLU BLU=
EBFS 080855Z 20006KT 9999 FEW250 25/12 Q1021 BLU BLU=
####018000092####
SADN31 KWBC 080850 RRA
METAR
EKVJ 080850Z 18006KT 8000 -RA SCT020 BKN040 20/17 Q1017=
####018000085####
SAGR31 KWBC 080850 RRB
METAR
LGSR 080850Z 34017KT CAVOK 29/18 Q1010 NOSIG BLU=
####018000149####
SAGR41 KWBC 080850 RRB
METAR
LGPZ 080850Z 27016KT 9999 FEW025 29/19 Q1013 NOSIG BLU=
LGRX 080850Z 27008KT 9999 FEW025 28/20 Q1012 NOSIG BLU=
####018000091####
SAPF20 NTAA 080900
METAR NTAA 080900Z 14004KT 9999 FEW023 26/22 Q1015 WS ALL RWY NOSIG=
####018000067####
SAAG SANT 080900
METAR SANT 080900Z  32006KT 9999  08/05 Q1019=
####018000083####
SAAG SAWH 080900
METAR SAWH 080900Z  25004KT 9999  FEW040 BKN100
01/M01 Q0985=
####018000119####
SAUY SUMU 080900
METAR SUMU 080900Z 33006KT CAVOK 04/03 Q1017 NOSIG=
METAR SULS 080900Z 29009KT CAVOK 08/04 Q1016=
####018000088####
SAHU31 LHBM 080900
METAR LHBP 080900Z 21006KT 130V290 9999 FEW046 22/11 Q1022 NOSIG=
####018000095####
SAFG20 SOCA 080900
METAR SOCA 080900Z 00000KT 9999 FEW011 SCT026 BKN040 25/24 Q1012
NOSIG=
####018000145####
SACO20 SKBO 080859 CCS
METAR SKCL 080900Z 00000KT 9999 FEW025 BKN090 20/19 A2999=
METAR SKCG 080900Z VRB02KT 9999 FEW012 BKN070 26/25 A2987=
####018000096####
SAMR20 TFFF 080900
METAR TFFF 080900Z AUTO 08010KT 9999NDV FEW012/// SCT025/// 28/24
Q1013=
####018000383####
SAMX31 KWBC 080845 RRC
METAR
MMAA 080847Z 00000KT 8SM SCT020TCU SCT090 BKN300 27/23 A2977 RMK
     SLP087 54000 906 8/232=
MMMX 080846Z 00000KT 4SM -RA SCT008 BKN020 OVC070 15/14 A3018
     NOSIG RMK SLP043 57008 905 60105 8/47/=
MMVR 080846Z 24005KT 7SM BKN012CB OVC080 23/23 A2980 RMK SLP079
     57005 917 61575 8/96/ INTMT +RA OCNL LTGICCG ALQDS VRB
     COND=
####018000134####
SAMX42 KWBC 080845 RRB
METAR
MMTO 080845Z 00000KT 3SM -RA BKN015CB OVC070 13/11 A3024 RMK
     SLP054 57006 959 8/36/ RA E40=
####018000088####
SASA31 KWBC 080800 RRF
METAR
SKCG 080800Z 11004KT 9999 FEW012 SCT070 28/26 A2988=
####018000083####
SASW31 KWBC 080850 RRA
METAR
LSZS 080850Z 21008KT 190V250 CAVOK 20/11 Q1027=
####018000220####
SAUK41 KWBC 080850 RRD
METAR
EGDM 080850Z 22002KT 9999 FEW012 SCT025 BKN130 17/13 Q1019 TEMPO
     SCT014=
EGDM 080850Z NIL=
EGDY 080850Z 27003KT 9999 FEW010 BKN140 19/14 Q1018 BLU NOSIG=
EGDY 080850Z NIL=
####018000128####
SAUK42 KWBC 080850 RRD
METAR
EGOV 080850Z 20014KT 9999 FEW013 SCT160 BKN220 16/13 Q1016
     NOSIG=
EGOV 080850Z NIL=
####018000770####
SAEW32 LEMM 080900
METAR LEAS 080900Z VRB02KT 9999 4000S SCT002 SCT008 BKN013 20/19 
Q1017 TEMPO 4000 TSRA SCT025CB=
METAR LEBB 080900Z VRB01KT 8000 NSC 27/21 Q1015 NOSIG=
METAR LECO 080900Z VRB01KT 8000 FEW002 SCT010 20/20 Q1015 RERA=
METAR LEGE 080900Z VRB02KT CAVOK 30/20 Q1019=
METAR LEST 080900Z 10008KT 070V130 9999 FEW018 18/17 Q1016 NOSIG=
METAR LEZG 080900Z 09008KT CAVOK 29/17 Q1019=
METAR LESO 080900Z 02005KT 340V070 CAVOK 24/19 Q1015=
METAR LEVT 080900Z NIL=
METAR LERS 080900Z 18005KT 110V220 CAVOK 27/19 Q1019=
METAR LEMH 080900Z 20006KT 170V250 CAVOK 28/21 Q1020=
METAR LEAM 080900Z 10015KT CAVOK 34/07 Q1017=
METAR LEGR 080900Z 10003KT 060V120 9999 FEW060 30/15 Q1018=
METAR LERL 080900Z 05006KT 020V130 CAVOK 31/11 Q1019=
####018000410####
SAXX99 KWBC 080800 RRX
METAR
LHDC 080845Z 02011KT 9999 FEW033 21/12 Q1021 NOSIG=
LHKE 080845Z 05003MPS 9999 FEW048 23/10 Q1021 BECMG NSC RMK
     BLU=
LHPP 080845Z 03004KT 9999 FEW033 21/14 Q1023 NOSIG=
LHSN 080845Z 02004MPS CAVOK 23/12 Q1021 NOSIG RMK BLU=
LHUD 080845Z 36009KT 9999 FEW033 22/13 Q1022=
MMQT 080845Z 08005KT 6SM SCT020BKN120 OVC250 16/14 A3012 RMK
     6/0185 8/463-RAE35=
####018000187####
SPAU31 AMMC 080904
SPECI YSSY 080900Z 23012KT 7000 SHRA FEW006 SCT020 BKN035 12/12 Q1027
     FM0900 19015KT 9999 -SHRA SCT025 BKN040
     INTER 0900/1200 5000 SHRA BKN010=


####018000367####
SAEW33 LEMM 080900
METAR GCLP 080900Z 01021KT 350V050 9999 SCT018 23/17 Q1017 NOSIG=
METAR GCXO 080900Z 29015KT 0100 R30/0200V0500U R12/0150N FG 
OVC000 17/17 Q1020 NOSIG=
METAR GCTS 080900Z 06014KT 020V080 9999 BKN014 22/18 Q1017 NOSIG=
METAR GCRR 080900Z 01016G26KT 330V040 9999 SCT018 23/18 Q1017=
METAR GCFV 080900Z 04012KT 9999 SCT018 22/19 Q1017=
####018000573####
SAEW31 LEMM 080900
METAR LEMD 080900Z 07006KT 020V120 CAVOK 28/13 Q1019 NOSIG=
METAR LEBL 080900Z 20014KT CAVOK 27/21 Q1019 NOSIG=
METAR LEPA 080900Z VRB02KT CAVOK 30/10 Q1020 NOSIG=
METAR LEZL 080900Z NIL=
METAR LEMG 080900Z 18001KT 9999 FEW030 30/15 Q1016 NOSIG=
METAR LEVC 080900Z 07003KT 330V130 CAVOK 29/19 Q1019 NOSIG=
METAR LEAL 080900Z 08003KT 050V130 CAVOK 30/15 Q1019 NOSIG=
METAR LEIB 080900Z 07009KT 030V110 CAVOK 28/22 Q1019 NOSIG=
METAR LELC 080900Z 04010KT 010V100 CAVOK 29/12 Q1019 NOSIG=
METAR LEVX 080900Z VRB02KT CAVOK 24/21 Q1014=
####018000181####
SPAU31 AMMC 080904
SPECI YSSY 080900Z 23012KT 7000 SHRA FEW006 SCT020 BKN035 12/12 Q1027
     FM0900 19015KT 9999 -SHRA SCT025 BKN040
     INTER 0900/1200 5000 SHRA BKN010=
####018000096####
SPUS53 KWBC 080904
SPECI
KUIN 080901Z AUTO 00000KT 10SM SCT001 BKN034 BKN055 23/22 A3003=
####018000081####
SAMF20 TFFR 080900
METAR TFFR 080900Z 00000KT 9999 FEW021 25/24 Q1014 NOSIG=
####018000255####
SAGG31 UGTB 080900
METAR UGSB 080900Z 28006KT 9999 FEW023CB SCT070 28/24 Q1010 NOSIG=
METAR UGKO 080900Z VRB04KT 9999 SCT033CB BKN100 31/23 Q1012
           BECMG 27006KT=
METAR UGTB 080900Z VRB04KT 9999 SCT066 33/18 Q1014 NOSIG RMK
31CLRD80=
####018000208####
SAEW36 LEMM 080900
METAR GCHI 080900Z 03012KT 340V080 9999 SCT013 OVC020 21/19 Q1018=
METAR GCLA 080900Z 02012KT 350V050 9999 BKN020 22/17 Q1019=
METAR GEML 080900Z 07006KT 010V110 CAVOK 25/20 Q1017=
####018000270####
SAIL31 BICC 080900
METAR BIAR 080900Z 35018KT 9999 BKN020 09/06 Q0994=
METAR BIEG 080900Z 01014KT 2000 VCSH VV003 08/08 Q0990=
METAR BIKF 080900Z 02024KT 9999 FEW017 SCT030 BKN080 11/04 Q0993=
METAR BIRK 080900Z 01023KT 350V180 9999 FEW020 SCT050 10/06 Q0991=
####018000100####
SAAJ31 UBBB 080900
METAR UBBG 080900Z 07006KT 9999 SCT083 34/17 Q1011 NOSIG RMK
R30R/CLRD70 =
####018000549####
SAYG31 LYBM 080900
METAR LYBE 080900Z 31008KT CAVOK 19/14 Q1022 NOSIG=
METAR LYBT 080900Z 34011KT CAVOK 20/14 Q1021 NOSIG=
METAR LYKV 080900Z 32008KT 9999 SCT035 17/16 Q1022 NOSIG=
METAR LYNI 080900Z 33007KT 300V360 9999 SCT020 OVC033 16/13 Q1020
NOSIG=
METAR LYPG 080900Z 01016KT 9999 FEW040 26/07 Q1017 NOSIG=
METAR LYPR 080900Z NIL=
METAR LYTV 080900Z 29005KT 240V340 9999 FEW053 26/08 Q1018 NOSIG=
METAR LYUZ 080900Z 33004KT 290V030 9999 BKN020 12/10 Q1023 NOSIG=
METAR LYVR 080900Z VRB06KT 9999 FEW020 BKN040 19/13 Q1021=
####018000253####
SACZ31 LKPW 080900
METAR LKKV 080900Z VRB02KT CAVOK 21/10 Q1024=
METAR LKMT 080900Z VRB03KT 9999 FEW046 19/10 Q1023 NOSIG=
METAR LKPR 080900Z 23004KT 150V270 CAVOK 21/10 Q1024 NOSIG=
METAR LKTB 080900Z 29005KT 240V350 CAVOK 21/08 Q1023 NOSIG=
####018000169####
SACY31 LCLK 080900
METAR LCLK 080900Z 20014KT 9999 FEW025 30/22 Q1008 NOSIG=
METAR LCPH 080900Z 20006KT 150V260 9999 FEW030 28/22 Q1009=
METAR LCNC 080900Z NIL=
####018000321####
SATS41 DTTA 080900
METAR DTTB 080900Z 31010KT 9999 FEW020 28/18 Q1020=
METAR DTTD 080900Z 12004KT CAVOK 26/17 Q1021=
METAR DTTG 080900Z 09012KT CAVOK 29/15 Q1019 NOSIG=
METAR DTTK 080900Z 36004KT CAVOK 30/16 Q1019=
METAR DTTL 080900Z 28006KT CAVOK 28/19 Q1019=
METAR DTTN 080900Z 17004KT CAVOK 30/16 Q1019=
####018000077####
SAEO32 EETN 080850
METAR EEKE 080850Z 35008KT 310V010 CAVOK 21/14 Q1016=
####018000207####
SATD31 TTPP 080900
METAR
TTPP 080900Z 00000KT 8000 -SHRA VCSH FEW016 SCT036 BKN280 26/25 Q1011
TEMPO SHRA=
TTCP 080900Z 10011KT 3000 SHRA VCSH FEW010CB SCT014 BKN038 24/23
Q1012 RETS TEMPO SHRA=
####018000366####
SAEW34 LEMM 080900
METAR LEBA 080900Z 30003KT 240V350 9999 FEW050 29/14 Q1015=
METAR LEDA 080900Z 10005KT 040V180 CAVOK 30/15 Q1020=
METAR LEJR 080900Z VRB02KT CAVOK 25/19 Q1016=
METAR LELL 080900Z 25003KT 160V330 CAVOK 29/13 Q1019=
METAR LEPP 080900Z 27001KT 9999 FEW060 29/15 Q1019=
METAR LEXJ 080900Z 26004KT 220V340 6000 SCT015 SCT020 24/20 Q1016=
####018000366####
SAIE31 EIDB 080900
METAR EIDW 080900Z 23012KT 9999 FEW023 SCT130 BKN180 16/11 Q1015
     NOSIG=
METAR EINN 080900Z 17010KT 9999 -RA FEW014 BKN050 BKN090 15/12 Q1015
     NOSIG=
METAR EICK 080900Z 21011KT 9999 FEW008 SCT014 BKN050 14/12 Q1016
     NOSIG=
METAR EIKN 080900Z 22008KT 180V250 9999 FEW015 FEW018CB SCT050 BKN200
     13/10 Q1013 NOSIG=
####018000707####
SAMS33 WMKK 080900
METAR 080900Z
METAR WMAU 080900Z 07004KT 9999 FEW020 SCT140 BKN270 30/25 Q////
QFF1008=
METAR WMBA 080900Z 20006KT 9999 FEW022 BKN280 31/24 Q1008=
METAR WMKA 080900Z 25006KT 9999 FEW020 SCT300 31/26 Q1008=
METAR WMKB 080900Z 29009KT 250V340 9999 FEW020 BKN280 31/25 Q1008
NOSIG=
METAR WMKC 080900Z 01005KT 9999 FEW017CB BKN250 32/23 Q1007=
METAR WMKD 080900Z 17003KT 9999 FEW017CB BKN280 32/25 Q1007 NOSIG=
METAR WMKI 080900Z 18003KT 9999 FEW020 SCT280 32/26 Q1008=
METAR WMKL 080900Z 25006KT 190V330 9999 FEW020 BKN300 31/26 Q1008=
METAR WMKM 080900Z 23004KT 9999 FEW022 BKN140 31/24 Q1008=
METAR WMKN 080900Z 05005KT 9999 FEW017CB SCT018 BKN250 31/26 Q1007=
####018000415####
SAEW35 LEMM 080900
METAR LEAB 080900Z 15012KT CAVOK 30/06 Q1022 NOSIG=
METAR LEBZ 080900Z 12009KT 080V150 CAVOK 30/15 Q1015=
METAR LELN 080900Z 11004KT 050V140 CAVOK 27/12 Q1020=
METAR LESA 080900Z 00000KT CAVOK 31/16 Q1019=
METAR LETO 080900Z 05008KT 020V080 9999 FEW040 29/11 Q1019 NOSIG=
METAR LEVD 080900Z 16006KT 100V210 CAVOK 29/11 Q1019=
METAR LEVS 080900Z 01004KT 300V080 CAVOK 28/13 Q1019=
####018000084####
SPUS72 KWBC 080904
SPECI
KTXK 080901Z AUTO 00000KT 6SM BR OVC001 23/23 A3003=
####018000104####
SAUS20 KNKA 080903
SPECI KELM 080902Z AUTO 00000KT 1/4SM FG VV002 17/17 A3008 RMK AO2 
    RVRNO=
####018000096####
SPUS73 KWBC 080904
SPECI
KUIN 080901Z AUTO 00000KT 10SM SCT001 BKN034 BKN055 23/22 A3003=
####018000078####
SAET20 HAAB 080900
METAR HAAB 080900Z 21004KT 9999 BKN025 20/13 Q1025=

####018000844####
SAUR30 UKMS 080900
METAR UKBB 080900Z 31003MPS 250V350 9999 BKN023 24/18
         Q1014 88CLRD95    NOSIG=
METAR UKHH 080900Z 21003MPS 150V260 9999 BKN040
         BKN200  28/16 Q1014 080///65 NOSIG=
METAR UKOO 080900Z 36004MPS CAVOK 25/16 Q1014
         34090070 NOSIG=
METAR UKDE 080900Z 24003MPS 170V320 9999 SCT050 28/17
          Q1014 20CLRD70 NOSIG=
METAR UKDD 080900Z VRB01MPS 9999 BKN033CB 28/19 Q1014
          08090070 TEMPO VRB10G15MPS -TSRA SQ
         BKN020CB=
METAR UKFF 080900Z 09002MPS 340V140 9999 FEW040 27/17
          Q1013 19010070 NOSIG=
METAR UKLL 080900Z 31004MPS 260V020 9999 OVC040 17/12
          Q1020 31210365 NOSIG=
METAR UKCC 080900Z VRB01MPS CAVOK 28/17 Q1015
         08090070 NOSIG=
METAR UKDR 080900Z VRB02MPS 9999 BKN033 OVC200 27/19 
         Q1013 1809//70 NOSIG=
####018001726####
SAZZ40 KAWN 080900 RRL
METAR COR BGJN 080850Z 36003KT 9999 VCFG FEW200 06/05 Q1010=
METAR KHUA 080855Z AUTO RMK AO2 SLPNO $=
METAR KNEL 080900Z AUTO 00000KT 3SM BR BKN080 22/20 A3001 RMK AO2 SLP161
      T02220200 58002 $=
METAR KNGU 080859Z 12003KT 5SM BR BKN130 26/24 A2996 RMK AO2 SLP146
      T02560239 55003=
METAR KRCA 080855Z 00000KT 6SM HZ CLR 12/09 A3024 RMK AO2A SLP229 T01230088
      53001 $=
METAR LEMO 080900Z 27004KT 240V340 9999 FEW050 26/19 Q1016 NOSIG=
METAR MSLP 080850Z 03003KT 9999 SCT023 BKN060 25/23 Q1010 A2985=
METAR MUHA 080855Z 00000KT 8000 FEW018 24/23 Q1013=
METAR MUVR 080853Z 00000KT 8000 SCT020 BKN200 25/23 Q1014=
METAR MYNN 080900Z 00000KT 9999 SCT015 26/26 A2993=
METAR NTAA 080900Z 14004KT 9999 FEW023 26/22 Q1015 WS ALL RWY NOSIG=
METAR OEDR 080900Z 01012KT 8000 SKC 44/09 Q0999 NOSIG=
METAR OEMA 080900Z 10008KT CAVOK 45/00 Q1006 NOSIG=
METAR OERK 080900Z 02017KT 5000 BLDU SKC 42/M01 Q1008 NOSIG=
METAR OERY 080900Z 04018KT 5000 SA NSC 43/01 Q1008 NOSIG=
METAR OJAI 080900Z 29009KT CAVOK 31/04 Q1012 NOSIG=
METAR OJAM 080900Z 19004KT 6000 NSC 31/05 Q1012 NOSIG=
METAR OJAQ 080900Z 36018KT CAVOK 35/24 Q1008=
METAR PABA 080901Z AUTO 22005KT 10SM SCT005 OVC055 04/04 A3005 RMK
      AO2 RAE0824 SLP175 P0000 60000 T00440039 400440044 50004=
METAR PAGA 080858Z AUTO 01004KT 10SM CLR 16/07 A3006 RMK AO2 SLP225
      T01610072 402220083 51005=
METAR TFFF 080900Z AUTO 08010KT 9999NDV FEW012/// SCT025/// 28/24 Q1013=
METAR TFFR 080900Z 00000KT 9999 FEW021 25/24 Q1014 NOSIG=
METAR WSAP 080900Z 08004KT 9999 -SHRA FEW018TCU BKN150 31/25 Q1008=
METAR WSSS 080900Z 22003KT 100V260 9999 FEW017 SCT160 BKN270 30/25
      Q1008 NOSIG=
####018000090####
SAUK39 EGRR 080850 RRD
METAR EGOW 080850Z 22013KT 9999 FEW025 BKN180 17/11 Q1017 BLU=
####018000075####
SAET20 HAAB 080900
METAR HAAB 080900Z 21004KT 9999 BKN025 20/13 Q1025=
####018000128####
SAUS46 KPDT 080904
MTRHMS
METAR KHMS 080850Z 28009KT 15SM SKC 22/06 A2995 RMK SLP140 T02210063
     52010 RSNK 21/04019
####018000659####
SARS18 KAWN 080900 RRB
METAR LUKK 080900Z 33007KT 300V360 9999 SCT020 22/15 Q1015 26CLRD65
      NOSIG=
METAR UBBB 080900Z 34022KT CAVOK 31/28 Q1011 NOSIG RMK R88CLRD70=
METAR UHHH 080900Z METAR 03003MPS 9999 BKN030CB OVC100 18/15 Q1010
      NOSIG=
METAR UKBB 080900Z 31003MPS 250V350 9999 BKN023 24/18 Q1014 88CLRD95
      NOSIG=
METAR UKFF 080900Z 09002MPS 340V140 9999 FEW040 27/17 Q1013 19010070
      NOSIG=
METAR UKLL 080900Z 31004MPS 260V020 9999 OVC040 17/12 Q1020 31210365
      NOSIG=
METAR UKOO 080900Z 36004MPS CAVOK 25/16 Q1014 34090070 NOSIG=
METAR UTTT 080900Z 29003MPS 230V360 CAVOK 38/08 Q1010 R08R/CLRD70 NOSIG=
####018001540####
SAUK KAWN 080900 RRC
METAR EGAE 080850Z 22013KT 9999 FEW018 SCT040 15/10 Q1012=
METAR EGDX 080850Z 22006KT 9999 FEW017 BKN090 18/12 Q1019 BLU=
METAR EGDY 080850Z 27003KT 9999 FEW010 BKN140 19/14 Q1018 BLU NOSIG=
METAR EGEC 080850Z 21012KT 9999 FEW025 16/10 Q1012=
METAR EGNJ 080850Z 22009KT 9999 -RA FEW025 17/12 Q1017=
METAR EGPA 080850Z 20014KT 9999 VCSH FEW027 SCT044 15/11 Q1006=
METAR EGPC 080850Z 19015G25KT 9999 FEW026 15/11 Q1007=
METAR COR EGPE 080850Z 21014KT 9999 FEW006 SCT036 16/10 Q1008=
METAR EGPL 080850Z 22020KT 9999 FEW018 14/10 Q1006=
METAR EGPM 080850Z 21023KT 9999 FEW012 SCT035 15/10 Q1004=
METAR EGPN 080850Z 24017KT 9999 FEW022 SCT045 15/11 Q1012=
METAR EGPO 080850Z 22020KT 9999 VCSH FEW014CB 14/11 Q1005=
METAR EGPU 080850Z 23018KT 9999 SCT022 14/11 Q1009=
METAR EGQA 080850Z 20015KT 9999 -SHRA FEW018 SCT050 14/// Q1008 BLU=
METAR COR EGSH 080850Z 25007KT 210V280 9999 -RA BKN012 20/15 Q1018
      BECMG SCT030=
METAR EGUO 080850Z 00000KT 9999 FEW010 SCT025 BKN085 16/12 Q1020 BLU=
METAR EGVP 080850Z 16002KT 9999 FEW007 BKN027 17/15 Q1018 BLU TEMPO
      SCT012 GRN=
METAR EGXT 080850Z 23011KT 9999 -RA FEW020 BKN090 BKN120 17/10 Q1018
      BLU NOSIG=
METAR EGXW 080850Z 26009KT CAVOK 17/10 Q1017 BLU NOSIG=
METAR EGXX 080850Z AUTO 22010KT 9999NDV // NCD ///// Q////=
METAR EGXZ 080850Z 21007KT 9999 SCT020 OVC250 17/12 Q1016 WHT=
METAR EGYE 080850Z 24008KT 9999 FEW030 BKN080 ///// Q1017 BLU=
METAR EGYH 080850Z 24015KT 9999 FEW030 BKN120 18/// Q1018 BLU=
####018000931####
SPZZ40 KAWN 080904
SPECI BGTL 080902Z AUTO 00000KT 0800 FG VV001 04/04 A2984 RMK AO2 SLP111=
SPECI CYKF 080902Z AUTO 00000KT 1 3/4SM BR CLR 19/19 A3006 RMK SLP174
      DENSITY ALT 1600FT=
SPECI CYPY 080901Z AUTO 27003KT 1 3/8SM CLR 11/11 A2992 RMK VSBY VRBL
      0.5V9.0=
SPECI CYQA 080901Z AUTO 00000KT 3SM BR CLR 19/19 A3003 RMK SLP170 DENSITY
      ALT 1400FT=
SPECI CYUA 080859Z AUTO 28007KT 3SM -UP OVC004 05/ A3009=
SPECI CYZH 080858Z AUTO 05002KT 9SM -RA FEW083 16/13 A3005=
SPECI ETNU 080902Z 12005KT 9999 BKN160 23/11 Q1022 BLU BLU TEMPO BLU/=
SPECI KDOV 080900Z AUTO 00000KT 2SM BR CLR 24/24 A2999 RMK AO2 VIS
      1/2 RWY19 SLP157=
SPECI PHHI 080901Z AUTO 02006KT 10SM FEW037 SCT047 SCT060 22/18 A3007
      RMK AO2 RAE0901 SLP171=
SPECI UMII 080900Z 16003MPS P6000 BKN015 21/18 Q1013 R23/D NOSIG=
SPECI YPPD 080902Z AUTO 04015KT 9999NDV // BKN012 BKN025 OVC120 23/20
      Q1008=
####018001233####
SANA14 KAWN 080900 RRC
METAR KNEL 080900Z AUTO 00000KT 3SM BR BKN080 22/20 A3001 RMK AO2 SLP161
      T02220200 58002 $=
METAR KNFG 080856Z AUTO 00000KT 10SM OVC015 16/13 A2990 RMK AO2 SLP124
      T01610133 58005 TSNO=
METAR KNGU 080859Z 12003KT 5SM BR BKN130 26/24 A2996 RMK AO2 SLP146
      T02560239 55003=
METAR KNLC 080856Z AUTO 29007KT 10SM CLR 19/12 A2982 RMK AO2 SLP096
      T01890117 50005 TSNO $=
METAR KNTD 080856Z AUTO 28008KT 10SM OVC013 15/13 A2990 RMK AO2 SLP125
      6//// T01500128 58002 TSNO PNO VISNO N $=
METAR KNTU 080856Z 09003KT 10SM CLR 26/23 A2995 RMK AO2 SLP143 T02560233
      55000 CHINO RWY 05R $=
METAR KNUW 080856Z 30003KT 10SM CLR 16/11 A2996 RMK AO2 SLP150 T01560111
      51007 $=
METAR KNXP 080856Z AUTO 30008KT CLR 26/M01 A2990 RMK AO2 SLP085 T02561006
      53007 $=
METAR KNXX 080856Z AUTO 00000KT 5SM HZ CLR 24/20 A3003 RMK AO2 SLP172
      T02390200 53001 $=
METAR KOSC 080854Z AUTO 00000KT 7SM CLR 19/18 A2999 RMK AO2=
METAR KRCA 080855Z 00000KT 6SM HZ CLR 12/09 A3024 RMK AO2A SLP229 T01230088
      53001 $=
METAR MSLP 080850Z 03003KT 9999 SCT023 BKN060 25/23 Q1010 A2985=
METAR SKRG 080900Z 00000KT 6000 BKN007 BKN080 14/14 A3025 RMK HZ=
####018001769####
SAEU KAWN 080900 RRM
METAR EGUO 080850Z 00000KT 9999 FEW010 SCT025 BKN085 16/12 Q1020 BLU=
METAR EGYE 080850Z 24008KT 9999 FEW030 BKN080 ///// Q1017 BLU=
METAR LATI 080900Z 34008KT 330V130 CAVOK 26/12 Q1016 NOSIG=
METAR LEAM 080900Z 10015KT CAVOK 34/07 Q1017=
METAR LEAS 080900Z VRB02KT 9999 4000S SCT002 SCT008 BKN013 20/19 Q1017
      TEMPO 4000 TSRA SCT025CB=
METAR LEBB 080900Z VRB01KT 8000 NSC 27/21 Q1015 NOSIG=
METAR LECO 080900Z VRB01KT 8000 FEW002 SCT010 20/20 Q1015 RERA=
METAR LEMH 080900Z 20006KT 170V250 CAVOK 28/21 Q1020=
METAR LEMO 080900Z 27004KT 240V340 9999 FEW050 26/19 Q1016 NOSIG=
METAR LESO 080900Z 02005KT 340V070 CAVOK 24/19 Q1015=
METAR LEST 080900Z 10008KT 070V130 9999 FEW018 18/17 Q1016 NOSIG=
METAR LEZG 080900Z 09008KT CAVOK 29/17 Q1019=
METAR LHDC 080845Z 02011KT 9999 FEW033 21/12 Q1021 NOSIG=
METAR LHKE 080845Z 05003MPS 9999 FEW048 23/10 Q1021 BECMG NSC RMK BLU=
METAR LHPA 080845Z 34005MPS CAVOK 22/09 Q1023 NOSIG RMK BLU=
METAR LHPP 080845Z 03004KT 9999 FEW033 21/14 Q1023 NOSIG=
METAR LHSN 080845Z 02004MPS CAVOK 23/12 Q1021 NOSIG RMK BLU=
METAR LHUD 080845Z 36009KT 9999 FEW033 22/13 Q1022=
METAR LKCV 080900Z VRB03KT 9999 FEW045 SCT220 21/08 Q1024 NOSIG RMK
      BLU+ BLU+=
METAR LKNA 080900Z 36004KT 360V160 9999 FEW046 19/06 Q1024 NOSIG RMK
      BLU+ BLU+=
METAR LKPD 080900Z 02004KT 300V110 9999 FEW035 22/07 Q1023 NOSIG RMK
      BLU+ BLU+=
METAR LKPO 080900Z VRB02KT 9999 FEW045 20/10 Q1023 NOSIG RMK BLU+ BLU+=
METAR LYBE 080900Z 31008KT CAVOK 19/14 Q1022 NOSIG=
METAR LYNI 080900Z 33007KT 300V360 9999 SCT020 OVC033 16/13 Q1020 NOSIG=
METAR LYPG 080900Z 01016KT 9999 FEW040 26/07 Q1017 NOSIG=
METAR LYTV 080900Z 29005KT 240V340 9999 FEW053 26/08 Q1018 NOSIG=
####018001780####
SASA KAWN 080900 RRB
METAR SAWH 080900Z 25004KT 9999 FEW040 BKN100 01/M01 Q0985=
METAR SBCF 080900Z 17003KT CAVOK 10/08 Q1023=
METAR SBCZ 080900Z 00000KT 8000 SCT020 23/23 Q1011=
METAR SBEG 080900Z 08001KT 9999 FEW010 SCT100 25/22 Q1011=
METAR SBFN 080900Z 15004KT 9999 SCT017 26/23 Q1014=
METAR SBSL 080900Z 10003KT 9999 FEW017 SCT100 26/23 Q1013=
METAR SCAR 080900Z 26001KT 9999 OVC023 15/09 Q1016=
METAR SCBA 080900Z AUTO 27009KT CAVOK M01/M03 Q0999=
METAR SCCI 080900Z 35010KT 9999 SCT025 M03/M05 Q0987 NOSIG=
METAR SCDA 080900Z 01009KT 9999 OVC026 14/08 Q1017=
METAR SCDA 080900Z 01009KT 9999 OVC026 15/08 Q1017=
METAR SCEL 080900Z 00000KT 4000 BR BKN130 03/01 Q1021 NOSIG=
METAR SCFA 080900Z 08005KT 9999 OVC015 12/08 Q1015=
METAR SCIE 080900Z 31011KT 5000 -SHRA BKN005 OVC020 13/11 Q1019=
METAR SCTE 080900Z 30008KT 6000 VCSH BKN030 09/07 Q1007 NOSIG=
METAR SKBO 080900Z 0000KT 6000 HZ BKN012 12/11 A3028 NOSIG=
METAR SKBQ 080900Z 15004KT 3000 BR SCT002 25/25 A2987 RMK APRSM=
METAR SKRG 080900Z 00000KT 6000 BKN007 BKN080 14/14 A3025 RMK HZ=
METAR SOCA 080900Z 00000KT 9999 FEW011 SCT026 BKN040 25/24 Q1012 NOSIG=
METAR SPHI 080900Z 17008KT CAVOK 15/13 Q1014 RMK PP000=
METAR COR SPQT 080900Z ///// 9999 VCFG SKC 24/23 Q1010 TEMPO BR RMK
      PP000=
METAR SPQU 080900Z 00000KT CAVOK 06/M09 Q1024 RMK PP000=
METAR SPRU 080900Z 16006KT 6000 OVC016 16/13 Q1013 RMK BIRD HAZARD
      RWY20 PP000=
METAR SPSO 080900Z 00000KT 8000 SCT014 12/10 Q1013 RMK PP000=
METAR SPTN 080900Z 00000KT 8000 SCT007 OVC012 11/09 Q1014 RMK PP000=
METAR SPZO 080900Z 00000KT 9999 SKC 05/01 Q1031 RMK PP000=
METAR SVMG 080900Z 09009KT 9999 FEW010 26/25 Q1012 NOSIG=
METAR SYCJ 080900Z 00000KT 9000 SCT016 23/23 Q1016 TEMPO 4000 VCFG=
####018000642####
SAMS31 WMKK 080900
METAR 080900Z
METAR WBGG 080900Z 25006KT 9999 SCT020 BKN150 27/24 Q1008 RESH NOSIG=
METAR WBKK 080900Z 09008KT 9999 -TSRA FEW013 FEW016CB SCT035 OVC260 
25/23
     Q1008 NOSIG=
METAR WBSB 080900Z 25005KT 9999 FEW015 FEW016CB BKN140 29/24 Q1007
     TEMPO 6000 SHRA=
METAR WMKK 080900Z 20005KT 160V250 9999 FEW018 SCT140 BKN280 30/26 
Q1008
     NOSIG=
METAR WMKP 080900Z 24008KT 9999 FEW020 BKN280 31/25 Q1008 NOSIG=
METAR WSSL 080900Z 26005KT 220V290 9999 -RA FEW018 SCT180 BKN250 
30/24
     Q1008=
METAR WSSS 080900Z 22003KT 100V260 9999 FEW017 SCT160 BKN270 30/25 
Q1008
     NOSIG=
####018000458####
SAIR31 OIII 080900
METAR OIAW 080900Z 24008KT CAVOK 45/09 Q0998 A2949=
METAR OIFM 080900Z 12006KT CAVOK 38/05 Q1017 A3004=
METAR OIII 080900Z NIL=
METAR OIKB 080900Z 20012KT 5000 HZ NSC 38/25 Q1001 A2956=
METAR OIKK 080900Z 09006KT CAVOK 35/00 Q1017 A3004=
METAR OIMM 080900Z 06012KT CAVOK 38/M02 Q1015 A2997=
METAR OISS 080900Z 36012KT CAVOK 38/08 Q1014 A2995=
METAR OITT 080900Z 09014KT CAVOK 35/04 Q1015 A2998=
METAR OIZH 080900Z NIL=
####018000079####
SALC31 TLPL 080900
METAR TLPL 080900Z 10022KT 9999 SCT024 BKN300 29/24 Q1013=####018001759####
SAEU KAWN 080900 RRN
METAR EICK 080900Z 21011KT 9999 FEW008 SCT014 BKN050 14/12 Q1016 NOSIG=
METAR EIKN 080900Z 22008KT 180V250 9999 FEW015 FEW018CB SCT050 BKN200
      13/10 Q1013 NOSIG=
METAR EINN 080900Z 17010KT 9999 -RA FEW014 BKN050 BKN090 15/12 Q1015
      NOSIG=
METAR LEAL 080900Z 08003KT 050V130 CAVOK 30/15 Q1019 NOSIG=
METAR LEBA 080900Z 30003KT 240V350 9999 FEW050 29/14 Q1015=
METAR LEBL 080900Z 20014KT CAVOK 27/21 Q1019 NOSIG=
METAR LEGE 080900Z VRB02KT CAVOK 30/20 Q1019=
METAR LEGR 080900Z 10003KT 060V120 9999 FEW060 30/15 Q1018=
METAR LEIB 080900Z 07009KT 030V110 CAVOK 28/22 Q1019 NOSIG=
METAR LELC 080900Z 04010KT 010V100 CAVOK 29/12 Q1019 NOSIG=
METAR LEMD 080900Z 07006KT 020V120 CAVOK 28/13 Q1019 NOSIG=
METAR LEMG 080900Z 18001KT 9999 FEW030 30/15 Q1016 NOSIG=
METAR LEPA 080900Z VRB02KT CAVOK 30/10 Q1020 NOSIG=
METAR LEPP 080900Z 27001KT 9999 FEW060 29/15 Q1019=
METAR LERS 080900Z 18005KT 110V220 CAVOK 27/19 Q1019=
METAR LESA 080900Z 00000KT CAVOK 31/16 Q1019=
METAR LETO 080900Z 05008KT 020V080 9999 FEW040 29/11 Q1019 NOSIG=
METAR LEVC 080900Z 07003KT 330V130 CAVOK 29/19 Q1019 NOSIG=
METAR LEVD 080900Z 16006KT 100V210 CAVOK 29/11 Q1019=
METAR LEVS 080900Z 01004KT 300V080 CAVOK 28/13 Q1019=
METAR LEVX 080900Z VRB02KT CAVOK 24/21 Q1014=
METAR LFBC 080900Z AUTO 09010KT 9999NDV NSC 31/12 Q1016=
METAR LFBG 080900Z AUTO 10004KT 060V150 9999NDV NSC 28/16 Q1018=
METAR LFBM 080900Z AUTO 11009KT 080V140 9999NDV NSC 30/16 Q1016=
METAR LFSD 080900Z AUTO 09003KT 030V170 9999NDV NSC 26/14 Q1020=
METAR LFSF 080900Z AUTO 00000KT 9999NDV NSC 26/10 Q1020=
METAR LKMT 080900Z VRB03KT 9999 FEW046 19/10 Q1023 NOSIG=
METAR LKTB 080900Z 29005KT 240V350 CAVOK 21/08 Q1023 NOSIG=
####018001819####
SAXN17 KAWN 080900 RRC
METAR MHLC 080900Z 00000KT 9999 FEW026 SCT200 25/24 Q1009 A2980 NOSIG=
METAR MMAA 080847Z 00000KT 8SM SCT020TCU SCT090 BKN300 27/23 A2977
      RMK SLP087 54000 906 8/232=
METAR MMMX 080846Z 00000KT 4SM -RA SCT008 BKN020 OVC070 15/14 A3018
      NOSIG RMK SLP043 57008 905 60105 8/47/=
METAR MMQT 080845Z 08005KT 6SM SCT020BKN120 OVC250 16/14 A3012 RMK
      6/0185 8/463-RAE35=
METAR MMTO 080845Z 00000KT 3SM -RA BKN015CB OVC070 13/11 A3024 RMK
      SLP054 57006 959 8/36/ RA E40=
METAR MMVR 080846Z 24005KT 7SM BKN012CB OVC080 23/23 A2980 RMK SLP079
      57005 917 61575 8/96/ INTMT +RA OCNL LTGICCG ALQDS VRB COND=
METAR MUHA 080855Z 00000KT 8000 FEW018 24/23 Q1013=
METAR MYNN 080900Z 00000KT 9999 SCT015 26/26 A2993=
METAR NTAA 080900Z 14004KT 9999 FEW023 26/22 Q1015 WS ALL RWY NOSIG=
METAR NWWW 080900Z AUTO 00000KT 9999NDV NCD 18/16 Q1016=
METAR PAGA 080858Z AUTO 01004KT 10SM CLR 16/07 A3006 RMK AO2 SLP225
      T01610072 402220083 51005=
METAR PKWA 080900Z AUTO 11012KT 3SM RA SCT006 BKN017 OVC046 25/23 A2986
      RMK AO2 P0021 T02520234=
METAR PTKK 080858Z VRB03KT 15SM FEW012 BKN120 OVC280 25/23 A2983 RMK
      SLP101 60002 8/121 T02500229 53005=
METAR SKBO 080900Z 0000KT 6000 HZ BKN012 12/11 A3028 NOSIG=
METAR SKBQ 080900Z 15004KT 3000 BR SCT002 25/25 A2987 RMK APRSM=
METAR SKCG 080900Z VRB02KT 9999 FEW012 BKN070 26/25 A2987=
METAR SKCL 080900Z 00000KT 9999 FEW025 BKN090 20/19 A2999=
METAR SOCA 080900Z 00000KT 9999 FEW011 SCT026 BKN040 25/24 Q1012 NOSIG=
METAR SVMG 080900Z 09009KT 9999 FEW010 26/25 Q1012 NOSIG=
METAR TFFF 080900Z AUTO 08010KT 9999NDV FEW012/// SCT025/// 28/24 Q1013=
METAR TFFR 080900Z 00000KT 9999 FEW021 25/24 Q1014 NOSIG=
METAR VHHH 080900Z 22013KT 9999 FEW020 SCT030 33/24 Q1006 NOSIG=
####018000505####
SAMS32 WMKK 080900
METAR 080900Z
METAR WBGG 080900Z 25006KT 9999 SCT020 BKN150 27/24 Q1008 RESH NOSIG=
METAR WBKK 080900Z 09008KT 9999 -TSRA FEW013 FEW016CB SCT035 OVC260 
25/23
     Q1008 NOSIG=
METAR WMKJ 080900Z 26002KT 9999 FEW018 BKN280 29/25 Q1008=
METAR WMKK 080900Z 20005KT 160V250 9999 FEW018 SCT140 BKN280 30/26 
Q1008
     NOSIG=
METAR WMKP 080900Z 24008KT 9999 FEW020 BKN280 31/25 Q1008 NOSIG=
METAR WMSA 080900Z 28004KT 9999 FEW020 SCT140 BKN280 33/25 Q1008 
NOSIG=
####018002965####
SAUS20 KNKA 080904
METAR K3A1 080900Z AUTO 00000KT 10SM CLR 22/22 A3009 RMK AO2 
     T02170218=
METAR K4A9 080900Z AUTO 00000KT 10SM CLR 20/18 A3006 RMK AO2 
     T02030184=
METAR K4R4 080900Z AUTO 00000KT 4SM BR SCT010 24/24 A3002 RMK AO2 
     T02440236=
METAR K8A0 080859Z AUTO 01004KT 10SM CLR 24/22 A3006 RMK AO2=
SPECI KACT 080903Z 09004KT 10SM SCT014 BKN019 26/23 A2998 RMK AO2=
METAR KAFP 080900Z AUTO 22003KT 10SM CLR 20/18 A2997 RMK AO2 
     T02000180=
METAR KALX 080900Z AUTO 00000KT 10SM CLR 23/21 A3003 RMK AO1=
SPECI KAMA 080903Z 04006KT 1SM -RA BKN020 BKN070 OVC100 17/16 A3018 
    RMK AO2 SFC VIS 9 P0001 $=
METAR KBQP 080909Z AUTO 00000KT 3SM BR CLR 24/24 A3003 RMK AO2=
METAR KCCO 080900Z AUTO 00000KT 4SM CLR 21/20 A3004 RMK AO1=
METAR KCDH 080900Z AUTO 00000KT 1/2SM FG OVC001 22/22 A3004 RMK 
     AO2=
METAR KCPC 080900Z AUTO 28003KT 10SM CLR 27/20 A2991 RMK AO2 
     T02650195=
METAR KCWF 080900Z AUTO 08006KT 7SM CLR 24/24 A2998 RMK AO2=
METAR KDBN 080900Z AUTO 30003KT 10SM CLR 24/18 A3000 RMK AO1=
METAR KDNN 080858Z AUTO 00000KT 10SM CLR 20/20 A3004 RMK AO2=
METAR KDPL 080901Z AUTO 00000KT 7SM CLR 23/22 A2993 RMK AO2=
METAR KDQH 080900Z AUTO 00000KT 10SM CLR 22/19 A3001 RMK AO1=
METAR KDRI 080900Z AUTO 00000KT 10SM BKN014 23/23 A3001 RMK AO2=
METAR KEHO 080900Z AUTO 00000KT 7SM CLR 20/18 A3001 RMK AO2 
     T01950176=
METAR KEYF 080900Z AUTO 31004KT 10SM CLR 26/18 A2992 RMK AO2 
     T02580183=
METAR KEZF 080858Z AUTO 00000KT 7SM BKN120 27/25 A2997 RMK AO2 
     T02650245=
METAR KF24 080859Z AUTO 10SM CLR 25/23 A3006 RMK AO2 T02450232=
METAR KFFA 080858Z AUTO 08006KT 10SM SCT008 25/23 A2994 RMK AO2 
     T02490232=
METAR KFKN 080900Z AUTO 00000KT 5SM 24/22 A2997 RMK AO1=
SPECI KFWN 080903Z AUTO 00000KT 3SM BR CLR 21/20 A3004 RMK AO2=
METAR KGEV 080901Z AUTO 36003KT 10SM CLR 23/17 A3019 RMK AO2=
METAR KGHG 080900Z AUTO 15004KT 10SM BKN005 BKN028 21/20 A3009 
     RMK AO2=
SPECI KGUY 080903Z AUTO 10006KT 5SM RA BR SCT010 OVC016 19/18 A3021 
    RMK AO2 LTG DSNT E P0002=
METAR KGWW 080900Z AUTO 00000KT 7SM CLR 24/21 A2993 RMK AO2 
     T02390207=
METAR KHBI 080902Z AUTO 00000KT CLR 22/17 A3001 RMK AO2 PWINO=
METAR KHLX 080901Z AUTO 00000KT 10SM CLR 24/21 A3016 RMK AO2=
METAR KHNZ 080900Z AUTO 00000KT 5SM HZ SCT095 SCT120 23/19 A2998 
     RMK AO2 T02310191=
METAR KHOE 080859Z AUTO 00000KT 10SM CLR 21/ A3001 RMK AO2 T0210=
METAR KHSP 080900Z AUTO 07006KT 10SM SCT060 23/15 A3026 RMK AO2=
METAR KHUM 080900Z AUTO 1 1/4SM BR VV007 25/25 A2998 RMK AO2=
METAR KHWY 080900Z AUTO 12004KT 7SM CLR 22/19 A2999 RMK AO2=
METAR KIDI 080900Z AUTO 00000KT 5SM CLR 19/19 A3010 RMK AO2=
METAR KIPJ 080900Z AUTO 00000KT 10SM CLR 20/17 A3001 RMK AO2 
     T01960173=
METAR KISO 080900Z AUTO 03003KT 7SM CLR 24/20 A2993 RMK AO2 
     T02380204=
SPECI KISP 080903Z 15005KT 3SM BR BKN003 OVC060 24/22 A3001 RMK AO2=
####018002210####
SAUS20 KNKA 080904
METAR KJES 080900Z AUTO 00000KT 10SM CLR 19/19 A3000 RMK AO2 
     T01860187=
METAR KJGG 080900Z AUTO 00000KT 5SM SCT120 27/25 A2998 RMK AO1=
METAR KJKA 080900Z AUTO 00000KT 7SM CLR 26/25 A3002 RMK AO2 
     T02620254=
METAR KJNX 080901Z AUTO 00000KT 5SM CLR 21/21 A2993 RMK AO2=
METAR KJQF 080900Z AUTO 00000KT 10SM SCT100 23/18 A2999 RMK AO2 
     T02260180=
METAR KJYO 080900Z AUTO 00000KT 7SM SCT100 27/19 A3000 RMK AO2=
METAR KLGC 080855Z AUTO 9SM CLR 21/ A3002 RMK AO1=
METAR KLKU 080900Z AUTO 34004KT 7SM CLR 26/19 A2999 RMK AO2=
METAR KLNP 080858Z AUTO 00000KT 7SM CLR 21/19 A3017 RMK AO1=
METAR KLOM 080900Z AUTO 00000KT 5SM CLR 22/21 A3001 RMK AO1 
     T02180205=
SPECI KLUK 080903Z AUTO 00000KT 2SM R21L/2400VP6000FT BR CLR 22/21 
    A3007 RMK AO2=
METAR KMDQ 080900Z AUTO 00000KT 7SM CLR 22/21 A3006 RMK AO2 
     T02170211=
METAR KMFV 080902Z AUTO 00000KT 4SM BR SCT006 OVC110 25/24 A2998 
     RMK AO2=
METAR KMGR 080900Z AUTO 00000KT 10SM CLR 22/20 A3002 RMK AO2=
SPECI KMIV 080903Z AUTO 09004KT 1SM BR BKN003 24/23 A3000 RMK AO2=
METAR KMLJ 080903Z AUTO 00000KT 5SM BR CLR 22/22 A3001 RMK AO2=
METAR KMMU 080900Z AUTO 00000KT 3SM BR SCT110 20/19 RMK AO2 
     T01980194=
METAR KMQS 080900Z AUTO 00000KT 7SM CLR 23/21 A3005 RMK AO2 PWINO 
     PNO=
METAR KONX 080900Z AUTO 07005KT 10SM SCT009 SCT090 BKN110 26/24 
     A2995 RMK AO2 T02560235=
METAR KOPN 080900Z AUTO 00000KT 10SM CLR 24/22 A3004 RMK AO1=
METAR KPSK 080902Z AUTO 00000KT 7SM CLR 25/17 A3014 RMK AO2=
METAR KPTB 080902Z AUTO 00000KT 4SM BR CLR 22/21 A2997 RMK AO2=
METAR KSIF 080900Z AUTO 00000KT 7SM BKN090 22/21 A3001 RMK AO2=
METAR KSVH 080900Z AUTO 00000KT 10SM CLR 21/16 A3003 RMK AO2 
     T02090157=
METAR KTDF 080902Z AUTO 00000KT 5SM CLR 22/19 A3000 RMK AO1=
METAR KTPF 080900Z AUTO 07003KT 10SM CLR 24/23 A2998 RMK AO2=
METAR KTVI 080900Z AUTO 00000KT 10SM CLR 22/21 A3002 RMK AO2 
     T02200211=
METAR KVJI 080903Z AUTO 00000KT 5SM BR SCT075 22/19 A3013 RMK AO2=
METAR KVUJ 080858Z AUTO 00000KT 10SM BKN090 21/18 A2997 RMK AO2=
METAR KW45 080900Z AUTO 00000KT 7SM SCT100 23/19 A3004 RMK AO2 
     T02310191=
####018000487####
SAIR32 OIII 080900
METAR OIAA 080900Z 30012KT 4000 DU SKC 46/07 Q0999=
METAR OIBK 080900Z 13010KT 5000 HZ SKC 38/24 Q1000 A2955=
METAR OICC 080900Z 34004KT CAVOK 38/M02 Q1013 A2994
865.3=
METAR OIGG 080900Z 35008KT 9999 FEW025 32/21 Q1011 A2988=
METAR OIIE 080900Z 12014KT CAVOK 39/M08 Q1011 A2988 
898.8 05:=
METAR OITR 080900Z 35006KT CAVOK 32/12 Q1014 A2996=
METAR OIYY 080900Z 36008KT CAVOK 40/M06 Q1014 A2995=
METAR OAKN 080900Z NIL=
METAR OAKB 080900Z NIL=
####018000317####
SABN31 OBBI 080900
METAR OBBI 080900Z 01008KT 7000 NSC 39/20 Q1000 BECMG 8000=
METAR OEDF 080900Z 36014KT 8000 NSC 45/03 Q1000 NOSIG=
METAR OEDR 080900Z 01012KT 8000 SKC 44/09 Q0999 NOSIG=
METAR OTBD 080900Z 03010KT 360V070 6000 NSC 36/29 Q1000 NOSIG=
METAR OKBK 080900Z 35017KT CAVOK 47/M10 Q1001 NOSIG=
####018003711####
SAUS99 KWBC 080905
METAR
K3A1 080900Z AUTO 00000KT 10SM CLR 22/22 A3009 RMK AO2
     T02170218=
K4A9 080900Z AUTO 00000KT 10SM CLR 20/18 A3006 RMK AO2
     T02030184=
K4R4 080900Z AUTO 00000KT 4SM BR SCT010 24/24 A3002 RMK AO2
     T02440236=
K8A0 080859Z AUTO 01004KT 10SM CLR 24/22 A3006 RMK AO2=
KAFP 080900Z AUTO 22003KT 10SM CLR 20/18 A2997 RMK AO2
     T02000180=
KALX 080900Z AUTO 00000KT 10SM CLR 23/21 A3003 RMK AO1=
KBQP 080909Z AUTO 00000KT 3SM BR CLR 24/24 A3003 RMK AO2=
KCCO 080900Z AUTO 00000KT 4SM CLR 21/20 A3004 RMK AO1=
KCDH 080900Z AUTO 00000KT 1/2SM FG OVC001 22/22 A3004 RMK AO2=
KCPC 080900Z AUTO 28003KT 10SM CLR 27/20 A2991 RMK AO2
     T02650195=
KCWF 080900Z AUTO 08006KT 7SM CLR 24/24 A2998 RMK AO2=
KDBN 080900Z AUTO 30003KT 10SM CLR 24/18 A3000 RMK AO1=
KDNN 080858Z AUTO 00000KT 10SM CLR 20/20 A3004 RMK AO2=
KDPL 080901Z AUTO 00000KT 7SM CLR 23/22 A2993 RMK AO2=
KDQH 080900Z AUTO 00000KT 10SM CLR 22/19 A3001 RMK AO1=
KDRI 080900Z AUTO 00000KT 10SM BKN014 23/23 A3001 RMK AO2=
KEHO 080900Z AUTO 00000KT 7SM CLR 20/18 A3001 RMK AO2
     T01950176=
KEYF 080900Z AUTO 31004KT 10SM CLR 26/18 A2992 RMK AO2
     T02580183=
KEZF 080858Z AUTO 00000KT 7SM BKN120 27/25 A2997 RMK AO2
     T02650245=
KF24 080859Z AUTO 10SM CLR 25/23 A3006 RMK AO2 T02450232=
KFFA 080858Z AUTO 08006KT 10SM SCT008 25/23 A2994 RMK AO2
     T02490232=
KFKN 080900Z AUTO 00000KT 5SM 24/22 A2997 RMK AO1=
KGEV 080901Z AUTO 36003KT 10SM CLR 23/17 A3019 RMK AO2=
KGHG 080900Z AUTO 15004KT 10SM BKN005 BKN028 21/20 A3009 RMK
     AO2=
KGWW 080900Z AUTO 00000KT 7SM CLR 24/21 A2993 RMK AO2
     T02390207=
KHBI 080902Z AUTO 00000KT CLR 22/17 A3001 RMK AO2 PWINO=
KHLX 080901Z AUTO 00000KT 10SM CLR 24/21 A3016 RMK AO2=
KHNZ 080900Z AUTO 00000KT 5SM HZ SCT095 SCT120 23/19 A2998 RMK AO2
     T02310191=
KHOE 080859Z AUTO 00000KT 10SM CLR 21/ A3001 RMK AO2 T0210=
KHSP 080900Z AUTO 07006KT 10SM SCT060 23/15 A3026 RMK AO2=
KHUM 080900Z AUTO 1 1/4SM BR VV007 25/25 A2998 RMK AO2=
KHWY 080900Z AUTO 12004KT 7SM CLR 22/19 A2999 RMK AO2=
KIDI 080900Z AUTO 00000KT 5SM CLR 19/19 A3010 RMK AO2=
KIPJ 080900Z AUTO 00000KT 10SM CLR 20/17 A3001 RMK AO2
     T01960173=
KISO 080900Z AUTO 03003KT 7SM CLR 24/20 A2993 RMK AO2
     T02380204=
KJES 080900Z AUTO 00000KT 10SM CLR 19/19 A3000 RMK AO2
     T01860187=
KJGG 080900Z AUTO 00000KT 5SM SCT120 27/25 A2998 RMK AO1=
KJKA 080900Z AUTO 00000KT 7SM CLR 26/25 A3002 RMK AO2
     T02620254=
KJNX 080901Z AUTO 00000KT 5SM CLR 21/21 A2993 RMK AO2=
KJQF 080900Z AUTO 00000KT 10SM SCT100 23/18 A2999 RMK AO2
     T02260180=
KJYO 080900Z AUTO 00000KT 7SM SCT100 27/19 A3000 RMK AO2=
KLGC 080855Z AUTO 9SM CLR 21/ A3002 RMK AO1=
KLKU 080900Z AUTO 34004KT 7SM CLR 26/19 A2999 RMK AO2=
KLNP 080858Z AUTO 00000KT 7SM CLR 21/19 A3017 RMK AO1=
KLOM 080900Z AUTO 00000KT 5SM CLR 22/21 A3001 RMK AO1
     T02180205=
KMDQ 080900Z AUTO 00000KT 7SM CLR 22/21 A3006 RMK AO2
     T02170211=
KMFV 080902Z AUTO 00000KT 4SM BR SCT006 OVC110 25/24 A2998 RMK
     AO2=
KMGR 080900Z AUTO 00000KT 10SM CLR 22/20 A3002 RMK AO2=
KMLJ 080903Z AUTO 00000KT 5SM BR CLR 22/22 A3001 RMK AO2=
KMMU 080900Z AUTO 00000KT 3SM BR SCT110 20/19 RMK AO2
     T01980194=
KMQS 080900Z AUTO 00000KT 7SM CLR 23/21 A3005 RMK AO2 PWINO
     PNO=
KONX 080900Z AUTO 07005KT 10SM SCT009 SCT090 BKN110 26/24 A2995
     RMK AO2 T02560235=
KOPN 080900Z AUTO 00000KT 10SM CLR 24/22 A3004 RMK AO1=
KPSK 080902Z AUTO 00000KT 7SM CLR 25/17 A3014 RMK AO2=
KPTB 080902Z AUTO 00000KT 4SM BR CLR 22/21 A2997 RMK AO2=
KSIF 080900Z AUTO 00000KT 7SM BKN090 22/21 A3001 RMK AO2=
####018000637####
SPUS99 KWBC 080905
SPECI
KELM 080902Z AUTO 00000KT 1/4SM FG VV002 17/17 A3008 RMK AO2
     RVRNO=
KACT 080903Z 09004KT 10SM SCT014 BKN019 26/23 A2998 RMK AO2=
KAMA 080903Z 04006KT 1SM -RA BKN020 BKN070 OVC100 17/16 A3018 RMK
     AO2 SFC VIS 9 P0001 $=
KFWN 080903Z AUTO 00000KT 3SM BR CLR 21/20 A3004 RMK AO2=
KGUY 080903Z AUTO 10006KT 5SM RA BR SCT010 OVC016 19/18 A3021 RMK
     AO2 LTG DSNT E P0002=
KISP 080903Z 15005KT 3SM BR BKN003 OVC060 24/22 A3001 RMK AO2=
KLUK 080903Z AUTO 00000KT 2SM R21L/2400VP6000FT BR CLR 22/21 A3007
     RMK AO2=
KMIV 080903Z AUTO 09004KT 1SM BR BKN003 24/23 A3000 RMK AO2=
####018000079####
SACH10 SCSC 080900 CCA
METAR
SCDA 080900Z 01009KT 9999 OVC026 14/08 Q1017=
####018000499####
SAUS99 KWBC 080905 RRA
METAR
KSVH 080900Z AUTO 00000KT 10SM CLR 21/16 A3003 RMK AO2
     T02090157=
KTDF 080902Z AUTO 00000KT 5SM CLR 22/19 A3000 RMK AO1=
KTPF 080900Z AUTO 07003KT 10SM CLR 24/23 A2998 RMK AO2=
KTVI 080900Z AUTO 00000KT 10SM CLR 22/21 A3002 RMK AO2
     T02200211=
KVJI 080903Z AUTO 00000KT 5SM BR SCT075 22/19 A3013 RMK AO2=
KVUJ 080858Z AUTO 00000KT 10SM BKN090 21/18 A2997 RMK AO2=
KW45 080900Z AUTO 00000KT 7SM SCT100 23/19 A3004 RMK AO2
     T02310191=
####018000075####
SAJM31 MKJS 080900
METAR MKJS 080900Z  00000KT 9999 FEW022 25/22 Q1012=
####018000079####
SANC01 NWWW 080900
METAR NWWW 080900Z AUTO 00000KT 9999NDV NCD 18/16 Q1016=
####018000075####
SAGY31 SYCJ 080900
METAR  SYCJ 080900Z 00000KT 9000 SCT016 23/23 Q1011=
####018000645####
SACH10 SCSC 080900
METAR
SCAR 080900Z 26001KT 9999 OVC023 15/09 Q1016=
SCDA 080900Z 01009KT 9999 OVC026 15/08 Q1017=
SCFA 080900Z 08005KT 9999 OVC015 12/08 Q1015=
SCAT 080900Z AUTO 32005KT 9999 // 05/04 Q1016=
SCIP 080900Z 03002KT 7000 -SHRA SCT012 OVC020 18/17 Q1024 TEMPO
 5000 -SHRA=
SCEL 080900Z 00000KT 4000 BR BKN130 03/01 Q1021 NOSIG=
SCIE 080900Z 31011KT 5000 -SHRA BKN005 OVC020 13/11 Q1019=
SCTC 080900Z 34007KT 280V020 9999 SCT015 OVC025 11/10 Q1013
    RERA=
SCTE 080900Z 30008KT 6000 VCSH BKN030 09/07 Q1007 NOSIG=
SCBA 080900Z AUTO 27009KT CAVOK M01/M03 Q0999=
SCCI 080900Z 35010KT 9999 SCT025 M03/M05 Q0987 NOSIG=
####018000080####
SASW32 LSSW 080850 RRA
METAR LSZS 080850Z 21008KT 190V250 CAVOK 20/11 Q1027=
####018000092####
SAES20 MSLP 080900
METAR MSLP 080850Z 03003KT 9999 SCT023 BKN060 25/23 Q1010 A2985=

 
####018000068####
SAAG SACO 080900
METAR SACO 080900Z  36009KT CAVOK 09/M01 Q1019=
####018000832####
SAAG01 SABM 080900
METAR SAAR 080900Z  00000KT CAVOK 01/M00 Q1019=
METAR SABE 080900Z NIL=
METAR SACO 080900Z  36009KT CAVOK 09/M01 Q1019=
METAR SADD 080900Z NIL=
METAR SADF 080900Z NIL=
METAR SAEZ 080900Z NIL=
METAR SAME 080900Z NIL=
METAR SANT 080900Z  32006KT 9999  08/05 Q1019=
METAR SARE 080900Z  16005KT CAVOK 09/08 Q1018=
METAR SARF 080900Z  18009KT 9999  OVC007  14/13
Q1017=
METAR SARI 080900Z NIL=
METAR SARP 080900Z  11002KT 9999  BKN005 OVC015
14/13 Q1017=
METAR SASA 080900Z NIL=
METAR SASJ 080900Z NIL=
METAR SAVC 080900Z  27011KT CAVOK 05/M02 Q0998=
METAR SAWE 080900Z NIL=
METAR SAWG 080900Z NIL=
METAR SAWH 080900Z  25004KT 9999  FEW040 BKN100
01/M01 Q0985=
METAR SAZM 080900Z NIL=
METAR SAZN 080900Z 16002KT 9999 SCT050 SCT100 04/02 Q1011=
METAR SAZS 080900Z NIL=
####018000087####
SACO20 SKBO 080900 RRE
METAR SKBO 080900Z 00000KT 6000 HZ BKN012 12/11 A3028 NOSIG=
####018000076####
SAAG SAST 080900
METAR SAST 080900Z  27002KT 9999  BKN030  13/11
Q1018=
####018000173####
SPAU31 KWBC 080905
SPECI
YSSY 080900Z 23012KT 7000 SHRA FEW006 SCT020 BKN035 12/12 Q1027
FM0900 19015KT 9999 -SHRA SCT025 BKN040 INTER 0900/1200 5000 SHRA
BKN010=
####018000076####
SAAG SARF 080900
METAR SARF 080900Z  18009KT 9999  OVC007  14/13
Q1017=
####018000824####
SAUR30 UKMS 080900
METAR UKBB 080900Z 31003MPS 250V350 9999 BKN023 24/18
         Q1014 88CLRD95    NOSIG=
METAR UKHH 080900Z 21003MPS 150V260 9999 BKN040
         BKN200  28/16 Q1014 080///65 NOSIG=
METAR UKOO 080900Z 36004MPS CAVOK 25/16 Q1014
         34090070 NOSIG=
METAR UKDE 080900Z 24003MPS 170V320 9999 SCT050 28/17
          Q1014 20CLRD70 NOSIG=
METAR UKDD 080900Z VRB01MPS 9999 BKN033CB 28/19 Q1014
          08090070 TEMPO VRB10G15MPS -TSRA SQ
         BKN020CB=
METAR UKFF 080900Z 09002MPS 340V140 9999 FEW040 27/17
          Q1013 19010070 NOSIG=
METAR UKLL 080900Z 31004MPS 260V020 9999 OVC040 17/12
          Q1020 31210365 NOSIG=
METAR UKCC 080900Z VRB01MPS CAVOK 28/17 Q1015
         08090070 NOSIG=
METAR UKDR 080900Z VRB02MPS 9999 BKN033 OVC200 27/19
         Q1013 1809//70 NOSIG=
####018000101####
SPAU32 YBBN 080902
SPECI YPPD 080902Z AUTO 04015KT 9999NDV // BKN012 BKN025 OVC120 23/20
Q1008=
####018000277####
SAPH RPLL 080900
METAR RPLL 080900Z 13004KT 9999 FEW023CB FEW025 BKN300 33/25 Q1008
           NOSIG RMK CB SSW A2977=
METAR RPVM 080900Z 06004KT 9999 FEW018CB OVC250 31/26 Q1008 A2978
           CB SSE=
METAR RPMZ 080900Z 16004KT 9999 FEW018CB SCT350 32/26 Q1009 CB N=
####018000446####
SAMC32 GMMC 080900
METAR GMFF 080900Z 34005KT 8000 FEW033 26/20 Q1017 NOSIG=
METAR GMFK 080900Z 08010KT CAVOK 34/08 Q1025=
METAR GMFO 080900Z 23004KT 170V300 9999 FEW030 SCT100 37/11 Q1018
NOSIG=
METAR GMMW 080900Z 06008KT CAVOK 27/20 Q1017=
METAR GMTA 080900Z 36004KT CAVOK 23/19 Q1016=
METAR GMFM 080900Z NIL=
METAR GMMC 080900Z NIL=
METAR GMMH 080900Z NIL=
METAR GMML 080900Z NIL=
METAR GMMZ 080900Z NIL=
METAR GMTN 080900Z NIL=
####018000082####
SAAG SARP 080900
METAR SARP 080900Z  11002KT 9999  BKN005 OVC015
14/13 Q1017=
####018000068####
SABZ20 SBRB 080900
METAR SBRB 080900Z 00000KT CAVOK 22/22 Q1011=
####018000105####
SAPK31 OPKC 080900 RRA
METAR OPSK 080855Z 050008KTS 6000 HZ SCT040 SCT100 39/25 QNH 1002
R.H. 46 PC=
####018000082####
SASM20 SMJP 080900
METAR SMJP 080900Z 00000KT 9999 FEW018CB 23/23 Q1012 NOSIG=
####018000417####
SAMC31 GMMC 080900
METAR GMAD 080900Z VRB02KT 8000 SCT020 24/18 Q1014=
METAR GMFF 080900Z 34005KT 8000 FEW033 26/20 Q1017 NOSIG=
METAR GMME 080900Z 34004KT 300V020 6000 OVC010 23/19 Q1016 NOSIG=
METAR GMMN 080900Z 01007KT 340V080 9000 SCT010 BKN023 24/19 Q1016
NOSIG=
METAR GMMX 080900Z 26004KT 210V320 6000 FEW026 26/19 Q1016 NOSIG=
METAR GMTT 080900Z 30006KT 260V340 8000 FEW010 SCT016 24/20 Q1016
NOSIG=
####018000084####
SAMC31 GMMC 080800 RRA
METAR GMAD 080800Z 30002KT 8000 SCT020 22/16 Q1014 NOSIG=
####018000500####
SAHU41 LHBM 080900
METAR LHDC 080845Z 02011KT 9999 FEW033 21/12 Q1021 NOSIG=
METAR LHKE 080845Z 05003MPS 9999 FEW048 23/10 Q1021 BECMG NSC RMK
     BLU=
METAR LHPA 080845Z 34005MPS CAVOK 22/09 Q1023 NOSIG RMK BLU=
METAR LHPP 080845Z 03004KT 9999 FEW033 21/14 Q1023 NOSIG=
METAR LHPR 080845Z 33014KT 9999 FEW043 23/09 Q1022=
METAR LHSM 080845Z 35009KT CAVOK 22/10 Q1023 NOSIG=
METAR LHSN 080845Z 02004MPS CAVOK 23/12 Q1021 NOSIG RMK BLU=
METAR LHUD 080845Z 36009KT 9999 FEW033 22/13 Q1022=
####018000103####
SASR31 WSSS 080900
METAR WSSS 080900Z 22003KT 100V260 9999 FEW017 SCT160 BKN270 30/25
Q1008 NOSIG=
####018000266####
SAZW40 FVHA 080900
METAR FVBU 080900Z NIL=
METAR FVCZ 080900Z NIL=
METAR FVFA 080900Z NIL=
METAR FVHA 080900Z 14012KT 9999 SCT035 15/05 Q1031 NOSIG=
METAR FVKB 080900Z NIL=
METAR FVMV 080900Z NIL=
METAR FVTL 080900Z NIL=
METAR FVWN 080900Z NIL=

####018000091####
SPEE31 KWBC 080905
SPECI
UMII 080900Z 16003MPS P6000 BKN015 21/18 Q1013 R23/D NOSIG=
####018000722####
SAZA31 FAPR 080900
METAR FABL 080900Z 34012KT CAVOK 15/05 Q1034 NOSIG=
METAR FACT 080900Z VRB02KT CAVOK 16/05 Q1021 NOSIG=
METAR FAEL 080900Z 04008KT 010V080 CAVOK 19/09 Q1028=
METAR FAGG 080900Z VRB01KT 9999 FEW040 15/05 Q1023=
METAR FAJS 080900Z 07011KT 040V110 9999 SCT012 13/07 Q1037 NOSIG=
METAR FALA 080900Z 07006KT 040V120 9999 SCT030 15/07 Q1035 NOSIG=
METAR FALE 080900Z 04006KT CAVOK 21/12 Q1031 NOSIG=
METAR FAMM 080900Z 02014KT 9999 FEW040 17/05 Q1033 NOSIG=
METAR FAPE 080900Z 02009KT CAVOK 14/11 Q1026 NOSIG=
METAR FAPN 080900Z AUTO 07002KT //// // ////// 17/07 Q1033=
METAR FAPP 080900Z 10008KT 9999 BKN025 14/08 Q1033 NOSIG=
METAR FAUP 080900Z 01020KT CAVOK 21/03 Q1028 NOSIG=

####018000174####
SABC40 FBSK 080900
METAR FBFT 080900Z 10015KT 9999 BKN015 19/11 Q1032=
METAR FBKE 080900Z 09017KT CAVOK 20/07 Q1028=
METAR FBMN 080900Z 09015KT CAVOK 21/06 Q1029=

####018000476####
SANM40 FYWW 080900
METAR FYGF 080900Z 06008KT CAVOK 20/16 Q////=
METAR FYKM 080900Z 10004KT 9999 FEW050 20/09 Q1027=
METAR FYKT 080900Z 02014KT CAVOK 22/02 Q1027=
METAR FYOA 080900Z 08018KT CAVOK 22/03 Q1024=
METAR FYRU 080900Z 09007KT CAVOK 20/05 Q1026=
METAR FYWB 080900Z 07025KT 9999 VV/// 30/04 Q1017 =
METAR FYWB 080900Z 07025KT 9999 VV/// 30/04 Q1017 =
METAR FYWH 080900Z 01013KT CAVOK 17/M00 Q1030=
METAR FYWW 080900Z 04009KT CAVOK 17/M01 Q1028=

####018000249####
SACZ31 LKPW 080900
METAR LKKV 080900Z VRB02KT CAVOK 21/10 Q1024=
METAR LKMT 080900Z VRB03KT 9999 FEW046 19/10 Q1023 NOSIG=
METAR LKPR 080900Z 23004KT 150V270 CAVOK 21/10 Q1024 NOSIG=
METAR LKTB 080900Z 29005KT 240V350 CAVOK 21/08 Q1023 NOSIG=
####018000097####
SAAJ31 UBBB 080900
METAR UBBY 080900Z 15007KT 9999 NSC 32/17 Q1015 NOSIG
RMK R33/CLRD70 G/O=
####018000853####
SAUR31 UKMS 080900
METAR UKLR 080900Z 29004MPS 270V340 9999 BKN023
         BKN100  20/15 Q1018 30090070 NOSIG=
METAR UKLI 080900Z 29002MPS 250V320 9999 -SHRA
         BKN012CB BKN021 15/14 Q1020 28290565 NOSIG=
METAR UKON 080900Z 33003MPS 260V010 9999 FEW033
         OVC200  26/19 Q1013 05090075 NOSIG=
METAR UKCM 080900Z 12005MPS 080V170 CAVOK 28/18 Q1014
          02010065 NOSIG=
METAR UKCW 080900Z VRB01MPS 9999 BKN040 29/15 Q1014
         2709//70 NOSIG=
METAR UKLU 080900Z 36006MPS 9999 SCT040 21/10 Q1020
         10290060 NOSIG=
METAR UKKK 080900Z 26002MPS 210V350 9999 BKN019 22/18
         Q1015  26CLRD70 NOSIG=
METAR UKKM 080900Z 30002MPS 9000 BKN030 23/18 Q1014
         33CLRD70  NOSIG=
METAR UKLN 080900Z 29005MPS 250V350 9999 BKN012
         BKN033CB 15/14 Q1019 3309//70 TEMPO 1000 TSRA
         BKN003 BKN020CB=
####018000205####
SATD31 TTPP 080900
METAR
TTPP 080900Z 00000KT 8000 -SHRA VCSH FEW016 SCT036 BKN280 26/25 Q1011
TEMPO SHRA=
TTCP 080900Z 10011KT 3000 SHRA VCSH FEW010CB SCT014 BKN038 24/23
Q1012 RETS TEMPO SHRA=
 
####018000067####
SAAG SARE 080900
METAR SARE 080900Z  16005KT CAVOK 09/08 Q1018=
####018000099####
SPNT31 KWBC 080905
SPECI
BGTL 080902Z AUTO 00000KT 0800 FG VV001 04/04 A2984 RMK AO2 SLP111=
####018000091####
SPRA31 KWBC 080905
SPECI
UMII 080900Z 16003MPS P6000 BKN015 21/18 Q1013 R23/D NOSIG=
####018000121####
SPXX62 KWBC 080905
SPECI
PHHI 080901Z AUTO 02006KT 10SM FEW037 SCT047 SCT060 22/18 A3007
RMK AO2 RAE0901 SLP171=
####018000132####
SAAK27 PADN 080903
METAR PACD 080253Z 16009KT 10SM OVC047 12/04 A2993 RMK AO2 SLP136
T01170044 58010 =

$$





####018001425####
SAJP51 RJTD 080900 RRA
METAR RJFM 080900Z 15006KT 120V180 6000 FEW020 SCT040 BKN/// 26/23
           Q1008=
METAR RJFO 080900Z VRB02KT 8000 FEW030 SCT100 BKN/// 26/23 Q1008=
METAR RJFR 080900Z 12003KT 9999 FEW030 BKN/// 27/21 Q1008=
METAR RJFT 080900Z 24005KT 9999 FEW030 BKN040 BKN/// 26/21 Q1009=
METAR RJFU 080900Z 25007KT 9999 FEW025 SCT150 BKN/// 26/23 Q1008=
METAR RJGG 080900Z 14010KT 9999 FEW015 BKN/// 26/22 Q1008 NOSIG=
METAR RJKA 080900Z 22008KT 8000 -SHRA FEW008 SCT013 OVC180 27/26
           Q1009=
METAR RJNT 080900Z 36006KT 9999 FEW020 BKN030 BKN/// 28/21 Q1009=
METAR RJNW 080900Z 30003KT 260V010 9999 FEW030 SCT/// 25/20 Q1010=
METAR RJNS 080900Z 16005KT 120V200 9999 FEW020 SCT/// 25/22 Q1010=
METAR RJOA 080900Z VRB02KT 9999 FEW030CB BKN/// 26/21 Q1010=
METAR RJOB 080900Z 13004KT 9999 FEW035 BKN/// 26/21 Q1009=
METAR RJOC 080900Z 34006KT 9000 FEW010 SCT020 BKN030 25/20 Q1008=
METAR RJOH 080900Z 03007KT 8000 FEW025 BKN030 26/21 Q1008=
METAR RJOK 080900Z 17004KT 130V200 9999 FEW030 BKN/// 27/23 Q1008=
METAR RJOM 080900Z 26004KT 230V300 9999 FEW025 BKN/// 25/23 Q1008=
METAR RJOO 080900Z 22007KT 170V260 9999 FEW030 BKN/// 29/19 Q1007=
METAR RJOR 080900Z 01005KT 8000 FEW025 BKN/// 25/23 Q1008=
METAR RJOT 080900Z VRB01KT 9999 FEW025 SCT080 BKN/// 27/22 Q1008=
METAR RJOW 080900Z 01003KT 340V050 5000 BR FEW010 SCT015 BKN035
           24/21 Q1009 RETS=
####018001435####
SAJP51 RJTD 080900
METAR RJAA 080900Z 20006KT 160V230 9999 FEW025 BKN/// 27/22 Q1009
           NOSIG=
METAR RJBB 080900Z 25010KT 9999 FEW030 BKN/// 27/22 Q1007 NOSIG=
METAR RJBD 080900Z 17006KT 140V200 9999 FEW010 SCT030 BKN/// 26/23
           Q1008=
METAR RJBE 080900Z 25007KT 9999 FEW030 BKN/// 26/22 Q1008=
METAR RJBH 080900Z 21007KT 9999 FEW030 BKN/// 27/20 Q1007=
METAR RJBT 080900Z 02006KT 9999 SCT020 BKN/// 25/20 Q1009=
METAR RJCB 080900Z 14006KT 9999 SCT007 BKN010 19/17 Q1009=
METAR RJCC 080900Z 15006KT 2200 -DZ BR BKN002 18/17 Q1009=
METAR RJCH 080900Z VRB01KT 9999 FEW002 SCT050 21/19 Q1009=
METAR RJCK 080900Z VRB01KT 0600 R17/P1800N DZ VV001 16/15 Q1009=
METAR RJCM 080900Z 03007KT 9999 FEW003 SCT010 BKN080 17/15 Q1009=
METAR RJCN 080900Z 12004KT 6000 -TSRA FEW001 BKN005 SCT030CB 14/14
           Q1009=
METAR RJCW 080900Z 09009KT 9999 FEW004 BKN006 14/12 Q1009=
METAR RJDC 080900Z 08005KT 8000 FEW030 SCT160 BKN/// 26/22 Q1008=
METAR RJDT 080900Z 03004KT 340V080 9999 FEW008 SCT020 BKN/// 23/21
           Q1009=
METAR RJEC 080900Z 31006KT 280V340 9999 FEW015 BKN035 BKN070 21/18
           Q1009=
METAR RJFS 080900Z 23008KT 9999 FEW035 BKN/// 28/23 Q1007=
METAR RJFF 080900Z 32009KT 5000 BR NSC 26/21 Q1008=
METAR RJFG 080900Z 22003KT 150V270 9999 FEW060 SCT100 BKN120 24/23
           Q1009=
METAR RJFK 080900Z 19008KT 150V220 9999 FEW030 BKN/// 27/18 Q1010=
####018001222####
SAJP51 RJTD 080900 RRB
METAR RJOY 080900Z 26007KT 230V300 9999 FEW030 BKN/// 30/20 Q1007=
METAR RJSA 080900Z 28003KT 9999 FEW010 SCT020 FEW035TCU BKN070 23/20
           Q1010=
METAR RJSC 080900Z 36008KT 9999 FEW025 BKN/// 27/20 Q1009=
METAR RJSF 080900Z 12004KT 9999 FEW020 SCT030 BKN120 24/20 Q1011=
METAR RJSI 080900Z 25003KT 190V360 9999 FEW020CB BKN/// 28/19 Q1009=
METAR RJSK 080900Z 30006KT 9999 FEW030 BKN/// 25/21 Q1010=
METAR RJSR 080900Z 30004KT 270V330 9999 FEW025 SCT/// 24/21 Q1009=
METAR RJSN 080900Z 30009KT 9999 FEW020 BKN/// 26/23 Q1009=
METAR RJSS 080900Z 10007KT 9999 FEW015 SCT050 BKN/// 25/21 Q1010=
METAR RJSY 080900Z 31004KT 270V350 9999 FEW070 BKN/// 26/21 Q1010=
METAR RJTH 080900Z 23009KT 200V260 9999 -SHRA FEW009 SCT030 BKN045
           23/22 Q1012=
METAR RJTT 080900Z 18017KT 9999 FEW025 BKN/// 26/22 Q1009=
METAR ROAH 080900Z 20011KT 9999 FEW010 SCT080 BKN/// 29/27 Q1009=
METAR ROIG 080900Z 19013KT 9999 FEW015 BKN/// 30/26 Q1008=
METAR ROMY 080900Z 21014KT 9999 FEW015 SCT150 BKN/// 30/26 Q1008=
METAR RORS 080900Z 20010KT 9999 FEW016 BKN/// 30/26 Q1008=
METAR RJAH 080900Z 17007KT 150V220 9999 FEW030 SCT270 28/23 Q1008=
METAR RJTF 080900Z NIL=
####018000333####
SAEW37 LEMM 080900
METAR LEBR 080900Z NIL=
METAR LEGA 080900Z 06005KT CAVOK 32/14 Q1019=
METAR LEGT 080900Z 05006KT CAVOK 27/12 Q1019=
METAR LEMO 080900Z 27004KT 240V340 9999 FEW050 26/19 
Q1016 NOSIG=
METAR LERI 080900Z VRB02KT CAVOK 31/20 Q1019 NOSIG=
METAR LERT 080900Z 30007KT 260V320 9000 NSC 24/20 Q1016 NOSIG=
####018000363####
SAPO31 LPMG 080900
METAR LPFR 080900Z 25004KT 180V300 9000 SCT009 BKN011 23/20 Q1016=
METAR LPMA 080900Z 16004KT 110V250 9999 FEW016 23/18 Q1020 RS13001KT 
0512002KT 2321003KT=
METAR LPPR 080900Z VRB03KT 5000 BR SCT250 24/19 Q1013=
METAR LPPS 080900Z 03009KT 9999 FEW016 SCT030 21/15 Q1020=
METAR LPPT 080900Z VRB03KT 8000 FEW120 26/18 Q1015 NOSIG=
####018000382####
SAIR33 OIII 080900
METAR OIBB 080900Z 21012KT 7000 HZ SKC 36/25 Q1000 A2953=
METAR OIBL 080900Z NIL=
METAR OIBP 080900Z NIL=
METAR OICK 080900Z NIL=
METAR OICS 080900Z 20004KT 9000 SKC 38/02 Q1013 A2992=
METAR OIHH 080900Z NIL=
METAR OINZ 080900Z 28008KT 9999 FEW030 34/23 Q1010 A2985=
METAR OITL 080900Z 06020KT CAVOK 25/14 Q1019 A3009=
METAR OIZC 080900Z NIL=
