####018000085####
SAEW KAWN 080700 RRH
METAR EKBI 080650Z 18005KT 150V230 9999 BKN040 19/15 Q1018=
####018000811####
SARS18 KAWN 080700 RRE
METAR UELL 080700Z 18002MPS 9999 SCT026CB BKN200 19/14 Q1010 TEMPO
      TS RMK QFE683 08CLRD70=
METAR UHMM 080700Z 25002MPS 9999 OVC026 14/12 Q1016 NOSIG RMK QFE747
      88010070 MT OBSC=
METAR UHNN 080700Z 08001MPS 9999 -SHRA BKN010CB OVC070 13/12 Q1012
      NOSIG RMK QBB310 QFE754 110///60=
METAR UHSS 080700Z 16003MPS 9999 BKN023CB 15/12 Q1010 NOSIG RMK MT
      OBSC QFE756/1008 19CLRD70=
METAR UHWW 080700Z 24006MPS 210V270 9999 BKN021 OVC070 21/16 Q1009
      NOSIG RMK QFE756/1008 75CLRD70=
METAR UIBB 080700Z 06004MPS 9999 FEW033 BKN200 28/13 Q1006 NOSIG RMK
      QFE712/0949 30CLRD60=
METAR UIUU 080700Z 21006G11MPS 9999 SCT040CB OVC100 25/12 Q1007 NOSIG
      RMK QFE711/0948=
METAR UTSS 080700Z 09005MPS 9999 NSC 34/12 Q1011 R88/70D NOSIG=
####018000322####
SPNA14 KAWN 080715 RRA
SPECI KNSE 080702Z AUTO 31003KT 3SM BR CLR 23/21 A3003 RMK AO2 $=
SPECI KTBN 080710Z AUTO 32007KT 4SM R14/5500VP6000FT HZ FEW001 BKN040
      OVC050 23/ A3007 RMK AO2 SLP162 $=
SPECI KWRI 080710Z AUTO 00000KT 3SM R18/5500VP6000FT R24/2800FT BR
      OVC002 24/24 A2999 RMK AO2 SLP156 $=
####018000139####
SPNA35 KAWN 080715 RRA
SPECI KWRI 080710Z AUTO 00000KT 3SM R18/5500VP6000FT R24/2800FT BR
      OVC002 24/24 A2999 RMK AO2 SLP156 $=
####018000088####
SACI31 ZBBB 080700 RRA
METAR ZWSH 080700Z 10003MPS 040V160 CAVOK 32/03 Q1015 NOSIG=
####018000103####
SPCN46 CWAO 080713
SPECI CYKL 080713Z AUTO 15004KT 130V190 9SM -RA OVC041 OVC096 13/13
A2989=

####018000084####
SAMZ40 FQMA 080700
METAR FQMA 080700Z 21008KT 9999 BKN020 19/16 Q1031 NOSIG=

####018002956####
SAUS20 KNKA 080715
METAR KGUC 080715Z AUTO 35010KT 10SM SCT120 09/03 A3042 RMK AO1=
METAR KGXY 080715Z AUTO 12004KT 10SM BKN008 OVC017 15/12 A3032 RMK 
    AO1=
METAR KHDN 080715Z 09008KT 10SM CLR 12/06 A3032 RMK AO1=
METAR KHEF 080715Z AUTO 00000KT 7SM CLR 25/21 A2999 RMK AO1=
METAR KHEZ 080715Z AUTO 10004KT 10SM CLR 24/23 A3002 RMK AO1=
METAR KHNB 080715Z AUTO 00000KT 10SM CLR 23/21 A3005 RMK AO1=
METAR KHYS 080715Z AUTO 03005KT 10SM OVC017 18/17 A3017 RMK AO1=
SPECI KIMT 080714Z AUTO 18003KT 10SM BKN003 20/19 A2997 RMK AO2=
METAR KIWD 080715Z AUTO 00000KT 10SM BKN070 BKN120 18/16 A3000 RMK 
    AO1=
METAR KJAC 080715Z AUTO 01014KT 10SM CLR 12/M01 A3031 RMK AO1=
METAR KJHW 080715Z AUTO 00000KT 7SM CLR 21/18 A3012 RMK AO1=
METAR KJWG 080712Z AUTO 01003KT 10SM SCT034 BKN048 OVC075 23/23 
     A3009 RMK AO2=
METAR KKLS 080715Z AUTO 00000KT 10SM CLR 18/14 A2989 RMK AO1=
METAR KLBL 080715Z 06010KT 10SM BKN041 20/17 A3019 RMK AO1=
METAR KLCI 080715Z AUTO 00000KT 10SM OVC085 23/19 A3005 RMK AO1=
METAR KLEW 080715Z 17004KT 3SM OVC003 21/20 A3008 RMK AO1=
METAR KLGD 080715Z AUTO 21003KT 10SM CLR 15/05 A3003 RMK AO1=
METAR KLKV 080715Z AUTO 11006KT 10SM CLR 14/05 A3012 RMK AO1=
METAR KLPC 080715Z AUTO 01003KT 10SM OVC012 14/11 A2992 RMK AO1 PNO=
METAR KMBL 080715Z AUTO 00000KT 5SM FEW120 21/19 A3002 RMK AO1=
METAR KMER 080715Z AUTO 35005KT 10SM CLR 20/10 A2983 RMK AO1 =
METAR KMJX 080715Z AUTO 00000KT 4SM SCT004 23/21 A3001 RMK AO1=
METAR KMKT 080715Z 32004KT 10SM CLR 18/17 A3009 RMK AO1=
METAR KMML 080715Z AUTO 25005KT 10SM CLR 16/13 A3013 RMK AO1=
METAR KMNI 080715Z AUTO 00000KT 10SM CLR 22/22 A2996 RMK AO2=
METAR KMNM 080715Z AUTO 00000KT 10SM BKN012 BKN120 21/19 A2997 RMK 
    AO1=
METAR KMRF 080715Z AUTO 05007KT 10SM BKN090 OVC120 18/14 A3017 RMK 
    AO1=
METAR KMSV 080715Z AUTO 01003KT 7SM CLR 21/18 A3009 RMK AO1=
METAR KMTW 080715Z 21004KT 10SM BKN090 OVC120 22/21 A3000 RMK AO1=
SPECI KMVL 080714Z AUTO 00000KT 3SM BR BKN055 21/20 A3006 RMK AO2=
METAR KMVN 080715Z AUTO 00000KT 4SM CLR 22/21 A3005 RMK AO1=
METAR KOKK 080715Z AUTO 00000KT 10SM CLR 23/17 A3005 RMK AO1=
METAR KOLU 080715Z AUTO 30004KT 10SM CLR 17/15 A3017 RMK AO1=
METAR KOTG 080715Z AUTO 25004KT 10SM CLR 15/13 A3015 RMK AO1=
METAR KOTH 080715Z 23004KT 10SM OVC008 11/08 A3000 RMK AO1=
METAR KOXC 080715Z 15003KT 3SM CLR 22/21 A3008 RMK AO1=
METAR KPIB 080715Z AUTO 00000KT 8SM CLR 23/21 A3004 RMK AO1=
METAR KPQI 080715Z AUTO 19004KT 10SM CLR 22/19 A2997 RMK AO1=
METAR KPSO 080715Z AUTO 00000KT 10SM -RA OVC065 12/07 A3039 RMK AO2
      LTG DSNT NW=
METAR KPTN 080715Z AUTO 07003KT 10SM CLR 24/M09 A3002 RMK AO1=
METAR KPTV 080715Z AUTO 00000KT 10SM CLR 22/13 A2983 RMK AO1=
METAR KPVC 080715Z 17006KT 5SM OVC003 21/19 A3008 RMK AO1=
METAR KPVU 080715Z 00000KT 10SM CLR 17/08 A3011 RMK AO1=
METAR KPWT 080715Z AUTO 04010KT 10SM CLR 23/08 A2996 RMK AO1=
####018002992####
SAUS20 KNKA 080715
METAR KAEG 080715Z AUTO 13015KT 10SM CLR 17/08 A3027 RMK AO1  =
METAR KAFJ 080715Z AUTO 00000KT M1/4SM BKN003 18/17 A3010 RMK AO1=
METAR KAIZ 080715Z AUTO 00000KT 10SM FEW038 SCT050 BKN070 23/21 
    A3005 RMK AO1 P0002=
METAR KARG 080715Z AUTO 21003KT 10SM CLR 26/22 A3005 RMK AO1=
METAR KAUO 080715Z AUTO 00000KT 10SM FEW065 26/21 A3004 RMK AO1=
METAR KAWO 080715Z AUTO 00000KT 10SM CLR 17/13 A2997 RMK AO1=
METAR KBHB 080715Z AUTO 22003KT 5SM BKN002 OVC023 18/18 A3009 RMK 
    AO1=
METAR KBID 080715Z AUTO 14004KT 10SM OVC030 22/22 A3005 RMK AO1=
METAR KBKX 080715Z AUTO 00000KT 10SM CLR 14/13 A3016 RMK AO1=
METAR KBLM 080715Z AUTO 00000KT 4SM OVC110 24/21 A3004 RMK AO1=
METAR KBOW 080715Z AUTO 00000KT 10SM CLR 22/21 A3001 RMK AO2 =
METAR KBTP 080715Z AUTO 00000KT 2 1/2SM CLR 19/18 A3010 RMK AO1=
METAR KBVX 080715Z AUTO 00000KT 10SM CLR 24/23 A3005 RMK AO1=
METAR KCGC 080715Z AUTO 00000KT 10SM CLR 22/21 A3000 RMK=
METAR KCGZ 080715Z AUTO 00000KT 10SM CLR 31/01 A2978 RMK AO1=
METAR KCIU 080715Z AUTO 17006KT 10SM BKN080 OVC120 19/17 A2998 RMK 
    AO1 LTG DSNT SE=
METAR KCOD 080715Z 10005KT 10SM CLR 10/M01 A3033 RMK AO1=
METAR KCOE 080715Z AUTO 04011KT 10SM CLR 18/09 A3007 RMK AO1=
METAR KCVN 080715Z AUTO 01008KT 10SM BKN055 18/14 A3022 RMK AO1=
METAR KCWI 080715Z 14006KT 6SM BKN007 OVC075 A3002 RMK AO1=
METAR KDVL 080715Z AUTO 27005KT 10SM CLR 15/11 A3006 RMK AO1=
METAR KDYB 080715Z AUTO 26003KT 10SM CLR 22/21 A2996 RMK AO1=
METAR KDYR 080715Z AUTO 00000KT 10SM CLR 24/20 A3005 RMK AO1=
METAR KEAR 080715Z AUTO 34003KT 10SM CLR 16/14 A3022 RMK AO1=
METAR KEEN 080715Z AUTO 00000KT 6SM CLR 23/22 A3005 RMK AO1=
METAR KEGE 080715Z 29006KT 10SM CLR 12/10 A3037 RMK AO1=
METAR KEHR 080715Z AUTO 00000KT 10SM SCT090 23/19 A3005 RMK AO1=
METAR KENV 080715Z 01014KT 10SM CLR 23/M02 A3008 RMK AO1=
METAR KESC 080715Z AUTO 00000KT 5SM CLR 19/17 A2996 RMK AO1=
METAR KEUL 080715Z AUTO 00000KT 10SM CLR 18/08 A3003 RMK AO1=
METAR KEWK 080715Z AUTO 08003KT 10SM CLR 21/19 A3006 RMK AO1=
METAR KFAM 080715Z AUTO 00000KT 10SM CLR 23/22 A3008 RMK AO1=
METAR KFET 080713Z AUTO 34004KT 10SM CLR 19/17 A3013 RMK AO2=
METAR KFKL 080715Z 00000KT 5SM CLR 20/18 A3014 RMK AO1=
METAR KFLP 080715Z AUTO 00000KT 10SM CLR 24/22 A3004 RMK AO1=
METAR KFNL 080715Z AUTO 11009KT 5SM SCT005 BKN036 OVC120 14/14 A3029 
    RMK AO1=
METAR KFOD 080715Z AUTO 33003KT 10SM CLR 19/18 A3010 RMK AO1=
METAR KFRM 080715Z AUTO 10SM CLR 18/16 A3012 RMK AO1=
METAR KFTN 080715Z AUTO 00000KT 10SM CLR 25/23 A2991 RMK AO1 =
METAR KGAD 080715Z AUTO 00000KT 10SM CLR 23/21 A3005 RMK AO1=
METAR KGAI 080715Z 00000KT 9SM FEW100 25/21 A3003 RMK AO1 
     =
METAR KGBD 080715Z AUTO 02004KT 5SM FEW015 19/18 A3015 RMK AO1=
METAR KGDV 080715Z AUTO 20005KT 10SM CLR 13/08 A3017 RMK AO1=
METAR KGPZ 080715Z AUTO 18003KT 9SM CLR 13/11 A3006 RMK AO1=
METAR KGTR 080715Z 31003KT 10SM CLR 25/23 A3004 RMK AO1=
####018001955####
SAUS20 KNKA 080715
SPECI KPYM 080714Z AUTO 00000KT 6SM BR SCT004 21/19 A3007 RMK AO2=
METAR KRKD 080715Z AUTO 00000KT 1 1/4SM OVC002 18/17 A3008 RMK AO1=
METAR KRUT 080715Z AUTO 13007KT 7SM CLR 22/19 A3005 RMK AO1=
METAR KSDY 080715Z AUTO 00000KT 10SM FEW120 13/09 A3015 RMK AO1=
METAR KSFM 080715Z 00000KT 2SM OVC002 21/19 A3006 RMK AO1=
METAR KSFZ 080715Z AUTO 00000KT 7SM OVC008 22/21 A3005 RMK AO1=
METAR KSGT 080715Z 00000KT 10SM CLR A3004 RMK AO1=
METAR KSGU 080715Z AUTO 16003KT 10SM CLR 29/02 A2993 RMK AO1=
METAR KSKX 080715Z AUTO 07008KT 10SM CLR 13/04 A3037 RMK AO1=
METAR KSLG 080715Z AUTO 14004KT 10SM CLR 23/22 A3005 RMK AO1=
METAR KSMN 080715Z AUTO 00000KT 10SM CLR 12/03 A3019 RMK AO1=
METAR KSOW 080710Z AUTO 16008KT 10SM SCT110 22/04 A3022 RMK AO2=
METAR KSPA 080715Z AUTO 29003KT 10SM CLR 26/23 A3000 RMK AO2=
METAR KSPL 080715Z AUTO RMK AO2 PWINO PNO =
METAR KSQI 080715Z 00000KT 7SM FEW006 BKN048 OVC060 22/21 A3004 RMK 
    AO1=
METAR KSUE 080715Z AUTO 22004KT 6SM BKN120 21/20 A2998 RMK AO1=
METAR KSUN 080711Z AUTO 32008KT 10SM CLR 13/02 A3022 RMK AO2=
METAR KSZT 080710Z AUTO 00000KT 10SM CLR 12/10 A3008 RMK AO2=
METAR KTIF 080710Z AUTO 00000KT 10SM OVC080 16/14 A3025 RMK AO2 
     T01570142=
METAR KTRK 080710Z AUTO 00000KT 10SM FEW110 14/08 A3016 RMK AO2=
METAR KTVF 080715Z AUTO 26006KT 10SM CLR 15/12 A3003 RMK AO1=
METAR KUTA 080715Z AUTO 00000KT 10SM CLR 24/22 A3005 RMK AO2=
METAR KVBT 080715Z AUTO 15004KT 10SM FEW055 FEW070 SCT085 24/22 
    A3002 RMK AO1 P0001=
METAR KVIS 080715Z AUTO 32007KT 10SM CLR 24/12 A2980 RMK AO1=
SPECI KVNY 080714Z AUTO 08003KT 8SM BKN008 15/13 A2991 RMK AO2=
METAR KWVL 080715Z AUTO 18004KT 7SM OVC004 21/19 A3003 RMK AO1=
METAR KWWD 080715Z AUTO 10SM OVC120 24/24 A3001 RMK AO1=
METAR KX40 080715Z AUTO 00000KT 7SM CLR 23/22 A3001 RMK AO2 
     T02310223=
METAR KYKN 080715Z AUTO 31003KT 10SM BKN120 16/14 A3017 RMK AO1=
####018000075####
SAMA21 FIMP 080700
METAR FIMR 080700Z 12018KT 9999 SCT018 26/17 Q1021=
####018001009####
SAUS90 KWBC 080716
METAR KPQN 080713Z AUTO 30003KT 10SM CLR 16/14 A3016 RMK AO2=
METAR KFGN 080714Z AUTO 25007KT 1 1/4SM HZ BKN100 17/13 A2996 RMK
     AO2=
METAR KPNM 080713Z AUTO 00000KT 10SM CLR 16/14 A3008 RMK AO2=
METAR KPWC 080713Z AUTO 00000KT 10SM BKN001 11/11 A3008 RMK
     AO2=
METAR KFFM 080713Z AUTO 21003KT 10SM CLR 16/14 A3007 RMK AO2=
METAR KGDB 080713Z AUTO 25004KT 10SM CLR 14/14 A3013 RMK AO2
     T01400137=
METAR KAIT 080713Z AUTO 00000KT 1/2SM FG VV005 13/12 A3006 RMK
     AO2=
METAR KGHW 080713Z AUTO 22006KT 10SM CLR 14/13 A3013 RMK AO2=
METAR KMWM 080713Z AUTO 25003KT 10SM CLR 16/15 A3013 RMK AO2=
METAR KULM 080715Z AUTO 29004KT 10SM CLR 15/13 A3010 RMK AO2=
METAR KBBB 080713Z AUTO 00000KT 5SM BR CLR 14/14 A3010 RMK AO2=
METAR KTWM 080713Z AUTO 00000KT 10SM BKN050 BKN100 18/14 A3001 RMK
     AO2=
METAR KMGG 080715Z AUTO 00000KT 10SM CLR 17/16 A3009 RMK AO2
     T01660155=
METAR KMOX 080710Z AUTO 23005KT 10SM CLR 16/16 A3007 RMK AO2=
####018000104####
SPUS90 KWBC 080716
SPECI KVCT 080713Z AUTO 03007KT 10SM TS FEW020 26/25 A2988 RMK AO2
     TSB07=
####018000182####
SAZA42 FAJS 080700 RRB
METAR FAWK 080700Z 14010KT 4000 BR NSC 10/// Q1038=
METAR FASK 080700Z 18005KT 7000 NSC 09/// Q1035=
METAR FALM 080700Z 13510KT 9000 BKN012 14/// 1034=
####018003737####
SAUS99 KWBC 080716
METAR
KPMV 080710Z AUTO 33003KT 5SM BR CLR 21/20 A3010 RMK AO2
     T02060198=
KAUN 080710Z AUTO 11008KT 10SM CLR 22/12 A2988 RMK AO1=
KBIE 080710Z AUTO 36005KT 5SM BR SCT009 20/19 A3011 RMK AO2
     T02000191=
KBTA 080710Z AUTO 33007KT 10SM CLR 20/17 A3012 RMK AO2
     T01960173=
KBVN 080710Z AUTO 35003KT 10SM CLR 16/15 A3018 RMK AO2
     T01560145=
KDVO 080710Z AUTO 31005KT 10SM BKN012 12/12 A2993 RMK AO2=
KHDE 080710Z AUTO 35004KT 10SM CLR 17/15 A3020 RMK AO2
     T01650151=
KHJH 080710Z AUTO 01007KT 10SM SCT023 20/18 A3014 RMK AO2
     T02000182=
KIBM 080710Z AUTO 14003KT 7SM OVC018 12/11 A3031 RMK AO2
     T01220112=
KJYR 080710Z AUTO 36006KT 10SM CLR 17/16 A3016 RMK AO2=
KLCG 080710Z AUTO 00000KT 10SM SCT120 16/15 A3016 RMK AO2
     T01590152=
KLHM 080711Z AUTO 17008KT 10SM CLR 20/12 A2980 RMK AO1
     T02000120=
KLXN 080710Z AUTO 33005KT 10SM CLR 15/15 A3022 RMK AO2
     T01510145=
KMLE 080710Z AUTO 33005KT 10SM CLR 21/17 A3011 RMK AO2
     T02070172=
KMMH 080710Z AUTO 27006KT 10SM CLR 14/03 A3020 RMK AO1=
KOGA 080710Z AUTO 27004KT 10SM OVC060 16/15 A3027 RMK AO2
     T01620150=
KONL 080710Z AUTO 27003KT 10SM OVC110 16/14 A3021 RMK AO2
     T01560143=
KPNA 080710Z AUTO 00000KT 10SM CLR 11/00 A3036 RMK AO2
     T01111005=
KPTT 080710Z AUTO 36007KT 10SM CLR 19/18 A3014 RMK AO2=
KPQN 080713Z AUTO 30003KT 10SM CLR 16/14 A3016 RMK AO2=
KFGN 080714Z AUTO 25007KT 1 1/4SM HZ BKN100 17/13 A2996 RMK
     AO2=
KPNM 080713Z AUTO 00000KT 10SM CLR 16/14 A3008 RMK AO2=
KPWC 080713Z AUTO 00000KT 10SM BKN001 11/11 A3008 RMK AO2=
KFFM 080713Z AUTO 21003KT 10SM CLR 16/14 A3007 RMK AO2=
KGDB 080713Z AUTO 25004KT 10SM CLR 14/14 A3013 RMK AO2
     T01400137=
KAIT 080713Z AUTO 00000KT 1/2SM FG VV005 13/12 A3006 RMK AO2=
KGHW 080713Z AUTO 22006KT 10SM CLR 14/13 A3013 RMK AO2=
KMWM 080713Z AUTO 25003KT 10SM CLR 16/15 A3013 RMK AO2=
KULM 080715Z AUTO 29004KT 10SM CLR 15/13 A3010 RMK AO2=
KBBB 080713Z AUTO 00000KT 5SM BR CLR 14/14 A3010 RMK AO2=
KTWM 080713Z AUTO 00000KT 10SM BKN050 BKN100 18/14 A3001 RMK
     AO2=
KMGG 080715Z AUTO 00000KT 10SM CLR 17/16 A3009 RMK AO2
     T01660155=
KMOX 080710Z AUTO 23005KT 10SM CLR 16/16 A3007 RMK AO2=
KGUC 080715Z AUTO 35010KT 10SM SCT120 09/03 A3042 RMK AO1=
KGXY 080715Z AUTO 12004KT 10SM BKN008 OVC017 15/12 A3032 RMK
     AO1=
KHDN 080715Z 09008KT 10SM CLR 12/06 A3032 RMK AO1=
KHEF 080715Z AUTO 00000KT 7SM CLR 25/21 A2999 RMK AO1=
KHEZ 080715Z AUTO 10004KT 10SM CLR 24/23 A3002 RMK AO1=
KHNB 080715Z AUTO 00000KT 10SM CLR 23/21 A3005 RMK AO1=
KHYS 080715Z AUTO 03005KT 10SM OVC017 18/17 A3017 RMK AO1=
KIWD 080715Z AUTO 00000KT 10SM BKN070 BKN120 18/16 A3000 RMK
     AO1=
KJAC 080715Z AUTO 01014KT 10SM CLR 12/M01 A3031 RMK AO1=
KJHW 080715Z AUTO 00000KT 7SM CLR 21/18 A3012 RMK AO1=
KJWG 080712Z AUTO 01003KT 10SM SCT034 BKN048 OVC075 23/23 A3009
     RMK AO2=
KKLS 080715Z AUTO 00000KT 10SM CLR 18/14 A2989 RMK AO1=
KLBL 080715Z 06010KT 10SM BKN041 20/17 A3019 RMK AO1=
KLCI 080715Z AUTO 00000KT 10SM OVC085 23/19 A3005 RMK AO1=
KLEW 080715Z 17004KT 3SM OVC003 21/20 A3008 RMK AO1=
KLGD 080715Z AUTO 21003KT 10SM CLR 15/05 A3003 RMK AO1=
KLKV 080715Z AUTO 11006KT 10SM CLR 14/05 A3012 RMK AO1=
KLPC 080715Z AUTO 01003KT 10SM OVC012 14/11 A2992 RMK AO1 PNO=
KMBL 080715Z AUTO 00000KT 5SM FEW120 21/19 A3002 RMK AO1=
KMER 080715Z AUTO 35005KT 10SM CLR 20/10 A2983 RMK AO1=
KMJX 080715Z AUTO 00000KT 4SM SCT004 23/21 A3001 RMK AO1=
KMKT 080715Z 32004KT 10SM CLR 18/17 A3009 RMK AO1=
KMML 080715Z AUTO 25005KT 10SM CLR 16/13 A3013 RMK AO1=
KMNI 080715Z AUTO 00000KT 10SM CLR 22/22 A2996 RMK AO2=
####018001778####
SAUS99 KWBC 080716 RRB
METAR
KGPZ 080715Z AUTO 18003KT 9SM CLR 13/11 A3006 RMK AO1=
KGTR 080715Z 31003KT 10SM CLR 25/23 A3004 RMK AO1=
KRKD 080715Z AUTO 00000KT 1 1/4SM OVC002 18/17 A3008 RMK AO1=
KRUT 080715Z AUTO 13007KT 7SM CLR 22/19 A3005 RMK AO1=
KSDY 080715Z AUTO 00000KT 10SM FEW120 13/09 A3015 RMK AO1=
KSFM 080715Z 00000KT 2SM OVC002 21/19 A3006 RMK AO1=
KSFZ 080715Z AUTO 00000KT 7SM OVC008 22/21 A3005 RMK AO1=
KSGT 080715Z 00000KT 10SM CLR A3004 RMK AO1=
KSGU 080715Z AUTO 16003KT 10SM CLR 29/02 A2993 RMK AO1=
KSKX 080715Z AUTO 07008KT 10SM CLR 13/04 A3037 RMK AO1=
KSLG 080715Z AUTO 14004KT 10SM CLR 23/22 A3005 RMK AO1=
KSMN 080715Z AUTO 00000KT 10SM CLR 12/03 A3019 RMK AO1=
KSOW 080710Z AUTO 16008KT 10SM SCT110 22/04 A3022 RMK AO2=
KSPA 080715Z AUTO 29003KT 10SM CLR 26/23 A3000 RMK AO2=
KSPL 080715Z AUTO RMK AO2 PWINO PNO=
KSQI 080715Z 00000KT 7SM FEW006 BKN048 OVC060 22/21 A3004 RMK
     AO1=
KSUE 080715Z AUTO 22004KT 6SM BKN120 21/20 A2998 RMK AO1=
KSUN 080711Z AUTO 32008KT 10SM CLR 13/02 A3022 RMK AO2=
KSZT 080710Z AUTO 00000KT 10SM CLR 12/10 A3008 RMK AO2=
KTIF 080710Z AUTO 00000KT 10SM OVC080 16/14 A3025 RMK AO2
     T01570142=
KTRK 080710Z AUTO 00000KT 10SM FEW110 14/08 A3016 RMK AO2=
KTVF 080715Z AUTO 26006KT 10SM CLR 15/12 A3003 RMK AO1=
KUTA 080715Z AUTO 00000KT 10SM CLR 24/22 A3005 RMK AO2=
KVBT 080715Z AUTO 15004KT 10SM FEW055 FEW070 SCT085 24/22 A3002
     RMK AO1 P0001=
KVIS 080715Z AUTO 32007KT 10SM CLR 24/12 A2980 RMK AO1=
KWVL 080715Z AUTO 18004KT 7SM OVC004 21/19 A3003 RMK AO1=
KWWD 080715Z AUTO 10SM OVC120 24/24 A3001 RMK AO1=
KX40 080715Z AUTO 00000KT 7SM CLR 23/22 A3001 RMK AO2
     T02310223=
KYKN 080715Z AUTO 31003KT 10SM BKN120 16/14 A3017 RMK AO1=
####018000798####
SPUS99 KWBC 080716
SPECI
KAKO 080713Z AUTO 13010KT 9SM OVC004 15/14 A3032 RMK AO2 CIG
     003V008 TSNO=
KAMA 080713Z 04010KT 1SM RA BR FEW016 BKN055 OVC080 17/17 A3019
     RMK AO2 SFC VIS 3 P0009 $=
KFOE 080713Z AUTO 06008KT 8SM -RA SCT023 OVC095 22/20 A3008 RMK
     AO2 P0002=
KFOK 080713Z AUTO 13003KT 3SM BR OVC001 24/22 A3005 RMK AO2
     TSNO=
KMKO 080712Z AUTO 07004KT 10SM BKN009 BKN017 OVC060 23/23 A3003
     RMK AO2 LTG DSNT N CIG 008V013=
KVAY 080713Z AUTO 12003KT 2 1/2SM BR BKN003 23/22 A3000 RMK
     AO2=
KIMT 080714Z AUTO 18003KT 10SM BKN003 20/19 A2997 RMK AO2=
KMVL 080714Z AUTO 00000KT 3SM BR BKN055 21/20 A3006 RMK AO2=
KPYM 080714Z AUTO 00000KT 6SM BR SCT004 21/19 A3007 RMK AO2=
KVNY 080714Z AUTO 08003KT 8SM BKN008 15/13 A2991 RMK AO2=
####018003702####
SAUS99 KWBC 080716 RRA
METAR
KMNM 080715Z AUTO 00000KT 10SM BKN012 BKN120 21/19 A2997 RMK
     AO1=
KMRF 080715Z AUTO 05007KT 10SM BKN090 OVC120 18/14 A3017 RMK
     AO1=
KMSV 080715Z AUTO 01003KT 7SM CLR 21/18 A3009 RMK AO1=
KMTW 080715Z 21004KT 10SM BKN090 OVC120 22/21 A3000 RMK AO1=
KMVN 080715Z AUTO 00000KT 4SM CLR 22/21 A3005 RMK AO1=
KOKK 080715Z AUTO 00000KT 10SM CLR 23/17 A3005 RMK AO1=
KOLU 080715Z AUTO 30004KT 10SM CLR 17/15 A3017 RMK AO1=
KOTG 080715Z AUTO 25004KT 10SM CLR 15/13 A3015 RMK AO1=
KOTH 080715Z 23004KT 10SM OVC008 11/08 A3000 RMK AO1=
KOXC 080715Z 15003KT 3SM CLR 22/21 A3008 RMK AO1=
KPIB 080715Z AUTO 00000KT 8SM CLR 23/21 A3004 RMK AO1=
KPQI 080715Z AUTO 19004KT 10SM CLR 22/19 A2997 RMK AO1=
KPSO 080715Z AUTO 00000KT 10SM -RA OVC065 12/07 A3039 RMK AO2 LTG
     DSNT NW=
KPTN 080715Z AUTO 07003KT 10SM CLR 24/M09 A3002 RMK AO1=
KPTV 080715Z AUTO 00000KT 10SM CLR 22/13 A2983 RMK AO1=
KPVC 080715Z 17006KT 5SM OVC003 21/19 A3008 RMK AO1=
KPVU 080715Z 00000KT 10SM CLR 17/08 A3011 RMK AO1=
KPWT 080715Z AUTO 04010KT 10SM CLR 23/08 A2996 RMK AO1=
KAEG 080715Z AUTO 13015KT 10SM CLR 17/08 A3027 RMK AO1=
KAFJ 080715Z AUTO 00000KT M1/4SM BKN003 18/17 A3010 RMK AO1=
KAIZ 080715Z AUTO 00000KT 10SM FEW038 SCT050 BKN070 23/21 A3005
     RMK AO1 P0002=
KARG 080715Z AUTO 21003KT 10SM CLR 26/22 A3005 RMK AO1=
KAUO 080715Z AUTO 00000KT 10SM FEW065 26/21 A3004 RMK AO1=
KAWO 080715Z AUTO 00000KT 10SM CLR 17/13 A2997 RMK AO1=
KBHB 080715Z AUTO 22003KT 5SM BKN002 OVC023 18/18 A3009 RMK
     AO1=
KBID 080715Z AUTO 14004KT 10SM OVC030 22/22 A3005 RMK AO1=
KBKX 080715Z AUTO 00000KT 10SM CLR 14/13 A3016 RMK AO1=
KBLM 080715Z AUTO 00000KT 4SM OVC110 24/21 A3004 RMK AO1=
KBOW 080715Z AUTO 00000KT 10SM CLR 22/21 A3001 RMK AO2=
KBTP 080715Z AUTO 00000KT 2 1/2SM CLR 19/18 A3010 RMK AO1=
KBVX 080715Z AUTO 00000KT 10SM CLR 24/23 A3005 RMK AO1=
KCGC 080715Z AUTO 00000KT 10SM CLR 22/21 A3000 RMK=
KCGZ 080715Z AUTO 00000KT 10SM CLR 31/01 A2978 RMK AO1=
KCIU 080715Z AUTO 17006KT 10SM BKN080 OVC120 19/17 A2998 RMK AO1
     LTG DSNT SE=
KCOD 080715Z 10005KT 10SM CLR 10/M01 A3033 RMK AO1=
KCOE 080715Z AUTO 04011KT 10SM CLR 18/09 A3007 RMK AO1=
KCVN 080715Z AUTO 01008KT 10SM BKN055 18/14 A3022 RMK AO1=
KCWI 080715Z 14006KT 6SM BKN007 OVC075 A3002 RMK AO1=
KDVL 080715Z AUTO 27005KT 10SM CLR 15/11 A3006 RMK AO1=
KDYB 080715Z AUTO 26003KT 10SM CLR 22/21 A2996 RMK AO1=
KDYR 080715Z AUTO 00000KT 10SM CLR 24/20 A3005 RMK AO1=
KEAR 080715Z AUTO 34003KT 10SM CLR 16/14 A3022 RMK AO1=
KEEN 080715Z AUTO 00000KT 6SM CLR 23/22 A3005 RMK AO1=
KEGE 080715Z 29006KT 10SM CLR 12/10 A3037 RMK AO1=
KEHR 080715Z AUTO 00000KT 10SM SCT090 23/19 A3005 RMK AO1=
KENV 080715Z 01014KT 10SM CLR 23/M02 A3008 RMK AO1=
KESC 080715Z AUTO 00000KT 5SM CLR 19/17 A2996 RMK AO1=
KEUL 080715Z AUTO 00000KT 10SM CLR 18/08 A3003 RMK AO1=
KEWK 080715Z AUTO 08003KT 10SM CLR 21/19 A3006 RMK AO1=
KFAM 080715Z AUTO 00000KT 10SM CLR 23/22 A3008 RMK AO1=
KFET 080713Z AUTO 34004KT 10SM CLR 19/17 A3013 RMK AO2=
KFKL 080715Z 00000KT 5SM CLR 20/18 A3014 RMK AO1=
KFLP 080715Z AUTO 00000KT 10SM CLR 24/22 A3004 RMK AO1=
KFNL 080715Z AUTO 11009KT 5SM SCT005 BKN036 OVC120 14/14 A3029 RMK
     AO1=
KFOD 080715Z AUTO 33003KT 10SM CLR 19/18 A3010 RMK AO1=
KFRM 080715Z AUTO 10SM CLR 18/16 A3012 RMK AO1=
KFTN 080715Z AUTO 00000KT 10SM CLR 25/23 A2991 RMK AO1=
KGAD 080715Z AUTO 00000KT 10SM CLR 23/21 A3005 RMK AO1=
KGAI 080715Z 00000KT 9SM FEW100 25/21 A3003 RMK AO1=
KGBD 080715Z AUTO 02004KT 5SM FEW015 19/18 A3015 RMK AO1=
KGDV 080715Z AUTO 20005KT 10SM CLR 13/08 A3017 RMK AO1=
####018000087####
SACI31 ZBBB 080700 RRA
METAR ZWSH 080700Z 10003MPS 040V160 CAVOK 32/03 Q1015 NOSIG=
####018001490####
SPUS70 KWBC 080716
SPECI
KAQW 080712Z AUTO 00000KT 4SM BR CLR 19/18 A3005 RMK AO2=
KBAZ 080712Z AUTO 06006KT 10SM SCT028 BKN036 OVC045 26/23 A2993
     RMK AO2=
KHIB 080712Z AUTO 00000KT 1/2SM FG CLR 11/10 A3005 RMK AO2=
KISW 080712Z AUTO 24005KT 10SM FEW012 22/21 A3000 RMK AO2 TSNO=
KITR 080712Z AUTO 00000KT 10SM BKN010 OVC016 17/15 A3031 RMK
     AO2=
KRKP 080712Z AUTO 10012KT 10SM SCT019 BKN028 28/26 A2984 RMK AO2
     LTG DSNT N AND NE TSE0658=
KTKI 080713Z AUTO 16003KT 10SM BKN019 26/23 A3000 RMK AO2=
KLBX 080713Z AUTO 12006KT 10SM SCT025 BKN029 OVC060 27/25 A2990
     RMK AO2=
PAWD 080712Z AUTO 08003KT 1 3/4SM -RA BR BKN001 BKN008 OVC060
     10/09 A2998 RMK AO2 P0000 TSNO=
KAKO 080713Z AUTO 13010KT 9SM OVC004 15/14 A3032 RMK AO2 CIG
     003V008 TSNO=
KAMA 080713Z 04010KT 1SM RA BR FEW016 BKN055 OVC080 17/17 A3019
     RMK AO2 SFC VIS 3 P0009 $=
KFOE 080713Z AUTO 06008KT 8SM -RA SCT023 OVC095 22/20 A3008 RMK
     AO2 P0002=
KFOK 080713Z AUTO 13003KT 3SM BR OVC001 24/22 A3005 RMK AO2
     TSNO=
KMKO 080712Z AUTO 07004KT 10SM BKN009 BKN017 OVC060 23/23 A3003
     RMK AO2 LTG DSNT N CIG 008V013=
KVAY 080713Z AUTO 12003KT 2 1/2SM BR BKN003 23/22 A3000 RMK
     AO2=
KIMT 080714Z AUTO 18003KT 10SM BKN003 20/19 A2997 RMK AO2=
KMVL 080714Z AUTO 00000KT 3SM BR BKN055 21/20 A3006 RMK AO2=
KPYM 080714Z AUTO 00000KT 6SM BR SCT004 21/19 A3007 RMK AO2=
KVNY 080714Z AUTO 08003KT 8SM BKN008 15/13 A2991 RMK AO2=
####018003723####
SAUS70 KWBC 080716
METAR
K1F0 080709Z AUTO 00000KT 10SM SCT036 24/23 A2999 RMK AO2=
K4O4 080708Z AUTO 10003KT 10SM SCT001 BKN015 23/22 A3004 RMK
     AO2=
KADH 080710Z AUTO 00000KT 5SM BR OVC004 23/22 A3002 RMK AO2=
KADM 080710Z AUTO 00000KT 7SM SCT065 23/23 A3000 RMK AO2=
KAFK 080710Z AUTO 01004KT 7SM SCT120 20/19 A3009 RMK AO2
     T02030191=
KALM 080710Z AUTO 33005KT 10SM FEW100 20/14 A3016 RMK AO2=
KANW 080710Z AUTO 00000KT 10SM OVC110 17/15 A3023 RMK AO2
     T01660152=
KATS 080710Z AUTO 35012KT 8SM -RA SCT026 BKN034 OVC046 19/18 A3016
     RMK AO2=
KAUH 080710Z AUTO 34005KT 10SM CLR 16/15 A3017 RMK AO2
     T01600150=
KAXS 080710Z AUTO 33004KT 10SM -RA CLR 24/22 A3006 RMK AO2
     T02370221=
KAXX 080710Z AUTO 25003KT 10SM CLR 05/04 A3047 RMK AO2=
KBVS 080710Z AUTO 32004KT 10SM CLR 16/14 A2996 RMK A01 P000=
KCHK 080711Z AUTO 00000KT 10SM SCT021 SCT100 23/23 A3004 RMK
     AO2=
KCLK 080713Z AUTO 04003KT 10SM CLR 22/21 A3007 RMK AO2=
KCQB 080710Z AUTO 01003KT 10SM 23/23 A3003 RMK AO2 TSNO=
KCUH 080710Z AUTO 05003KT 10SM SCT040 SCT047 OVC065 25/23 A3003
     RMK AO2=
KDUA 080717Z AUTO 15007KT 10SM OVC075 26/23 A3001 RMK AO2=
KGCD 080710Z AUTO 16008KT 10SM CLR 19/04 A3010 RMK AO2
     T01890044=
KGCM 080715Z AUTO 00000KT 4SM +RA SCT002 BKN005 OVC024 22/22 A3006
     RMK AO2 LTG DSNT SE P0003=
KGMJ 080714Z AUTO 00000KT 26/26 A3004 RMK AO2 P0002 PWINO=
KIDP 080710Z AUTO 35004KT 10SM SCT045 SCT060 21/20 A3004 RMK
     AO2=
KJSV 080710Z AUTO 00000KT 10SM BKN070 23/23 A3003 RMK AO2 LTG DSNT
     NW=
KL35 080711Z AUTO 00000KT 10SM CLR 08/M06 A3018 RMK AO2=
KLAM 080710Z AUTO 00000KT 10SM SCT120 15/09 A3036 RMK AO2=
KLRU 080711Z AUTO 04010KT 10SM CLR 21/14 A3016 RMK AO2=
KOJA 080710Z AUTO 00000KT 7SM CLR 22/22 A3008 RMK AO2=
KOKM 080711Z AUTO 06004KT 10SM BKN021 24/24 A3002 RMK AO1=
KONP 080710Z AUTO 21009KT 4SM BR OVC002 11/10 A2998 RMK AO1=
KORS 080710Z AUTO 00000KT 10SM CLR 17/12 A2993 RMK AO2=
KPLU 080710Z AUTO 00000KT 10SM FEW035 SCT049 16/14 A2993 RMK
     AO2=
KPVJ 080707Z AUTO 00000KT 10SM BKN011 24/23 A3002 RMK AO2=
KRKR 080712Z AUTO 00000KT 10SM BKN028 27/23 A3003 RMK AO2=
KSNL 080712Z AUTO 36004KT 10SM BKN007 BKN022 OVC047 25/24 A3004
     RMK AO2=
KSRE 080710Z AUTO 00000KT 7SM 24/24 A3002 RMK AO2=
KSVC 080710Z AUTO 11008KT 5SM -RA FEW022 SCT031 BKN037 17/14 A3024
     RMK AO2 P0002=
KTMK 080713Z AUTO 19004KT 10SM OVC008 13/12 A2994 RMK AO2=
KTQH 080715Z AUTO 13003KT 10SM BKN012 BKN026 BKN034 23/23 A3004
     RMK AO2=
KWDG 080710Z AUTO 03007KT 10SM -DZ SCT029 SCT047 BKN060 22/22
     A3009 RMK AO2=
KWWR 080709Z AUTO 36008KT 10SM SCT027 23/21 A3014 RMK AO2
     T02250206=
KAIK 080715Z AUTO 25004KT 10SM CLR 23/22 A3004 RMK AO2 PNO=
KARW 080715Z AUTO 26005KT 10SM CLR 25/18 A2998 RMK AO2=
KBDN 080715Z AUTO 29005KT 10SM CLR 19/03 A3009 RMK AO2=
KFDW 080715Z AUTO 27004KT 10SM CLR 27/17 A3000 RMK AO1=
KGLY 080715Z AUTO 00000KT 5SM BR FEW007 OVC065 23/23 A3004 RMK AO2
     LTG DSNT E=
KMEZ 080715Z AUTO 00000KT 10SM BKN014 BKN018 OVC024 25/23 A3006
     RMK AO2=
KMYR 080715Z AUTO 28009KT 10SM CLR 26/21 A2996 RMK AO1=
KOAJ 080715Z AUTO 00000KT 10SM CLR 23/22 A2992 RMK AO1=
KOCF 080715Z AUTO 00000KT 9SM CLR 21/21 A3001 RMK AO1=
KSOP 080715Z AUTO 32003KT 10SM CLR 26/17 A2997 RMK AO1=
KUDG 080715Z 27006KT 10SM FEW100 27/18 A2998 RMK AO1=
KPMV 080710Z AUTO 33003KT 5SM BR CLR 21/20 A3010 RMK AO2
     T02060198=
KAUN 080710Z AUTO 11008KT 10SM CLR 22/12 A2988 RMK AO1=
KBIE 080710Z AUTO 36005KT 5SM BR SCT009 20/19 A3011 RMK AO2
     T02000191=
KBTA 080710Z AUTO 33007KT 10SM CLR 20/17 A3012 RMK AO2
     T01960173=
####018000427####
SAUS70 KWBC 080716 RRC
METAR
KVBT 080715Z AUTO 15004KT 10SM FEW055 FEW070 SCT085 24/22 A3002
     RMK AO1 P0001=
KVIS 080715Z AUTO 32007KT 10SM CLR 24/12 A2980 RMK AO1=
KWVL 080715Z AUTO 18004KT 7SM OVC004 21/19 A3003 RMK AO1=
KWWD 080715Z AUTO 10SM OVC120 24/24 A3001 RMK AO1=
KX40 080715Z AUTO 00000KT 7SM CLR 23/22 A3001 RMK AO2
     T02310223=
KYKN 080715Z AUTO 31003KT 10SM BKN120 16/14 A3017 RMK AO1=
####018003710####
SAUS70 KWBC 080716 RRA
METAR
KBVN 080710Z AUTO 35003KT 10SM CLR 16/15 A3018 RMK AO2
     T01560145=
KDVO 080710Z AUTO 31005KT 10SM BKN012 12/12 A2993 RMK AO2=
KHDE 080710Z AUTO 35004KT 10SM CLR 17/15 A3020 RMK AO2
     T01650151=
KHJH 080710Z AUTO 01007KT 10SM SCT023 20/18 A3014 RMK AO2
     T02000182=
KIBM 080710Z AUTO 14003KT 7SM OVC018 12/11 A3031 RMK AO2
     T01220112=
KJYR 080710Z AUTO 36006KT 10SM CLR 17/16 A3016 RMK AO2=
KLCG 080710Z AUTO 00000KT 10SM SCT120 16/15 A3016 RMK AO2
     T01590152=
KLHM 080711Z AUTO 17008KT 10SM CLR 20/12 A2980 RMK AO1
     T02000120=
KLXN 080710Z AUTO 33005KT 10SM CLR 15/15 A3022 RMK AO2
     T01510145=
KMLE 080710Z AUTO 33005KT 10SM CLR 21/17 A3011 RMK AO2
     T02070172=
KMMH 080710Z AUTO 27006KT 10SM CLR 14/03 A3020 RMK AO1=
KOGA 080710Z AUTO 27004KT 10SM OVC060 16/15 A3027 RMK AO2
     T01620150=
KONL 080710Z AUTO 27003KT 10SM OVC110 16/14 A3021 RMK AO2
     T01560143=
KPNA 080710Z AUTO 00000KT 10SM CLR 11/00 A3036 RMK AO2
     T01111005=
KPTT 080710Z AUTO 36007KT 10SM CLR 19/18 A3014 RMK AO2=
KGUC 080715Z AUTO 35010KT 10SM SCT120 09/03 A3042 RMK AO1=
KGXY 080715Z AUTO 12004KT 10SM BKN008 OVC017 15/12 A3032 RMK
     AO1=
KHDN 080715Z 09008KT 10SM CLR 12/06 A3032 RMK AO1=
KHEF 080715Z AUTO 00000KT 7SM CLR 25/21 A2999 RMK AO1=
KHEZ 080715Z AUTO 10004KT 10SM CLR 24/23 A3002 RMK AO1=
KHNB 080715Z AUTO 00000KT 10SM CLR 23/21 A3005 RMK AO1=
KHYS 080715Z AUTO 03005KT 10SM OVC017 18/17 A3017 RMK AO1=
KIWD 080715Z AUTO 00000KT 10SM BKN070 BKN120 18/16 A3000 RMK
     AO1=
KJAC 080715Z AUTO 01014KT 10SM CLR 12/M01 A3031 RMK AO1=
KJHW 080715Z AUTO 00000KT 7SM CLR 21/18 A3012 RMK AO1=
KJWG 080712Z AUTO 01003KT 10SM SCT034 BKN048 OVC075 23/23 A3009
     RMK AO2=
KKLS 080715Z AUTO 00000KT 10SM CLR 18/14 A2989 RMK AO1=
KLBL 080715Z 06010KT 10SM BKN041 20/17 A3019 RMK AO1=
KLCI 080715Z AUTO 00000KT 10SM OVC085 23/19 A3005 RMK AO1=
KLEW 080715Z 17004KT 3SM OVC003 21/20 A3008 RMK AO1=
KLGD 080715Z AUTO 21003KT 10SM CLR 15/05 A3003 RMK AO1=
KLKV 080715Z AUTO 11006KT 10SM CLR 14/05 A3012 RMK AO1=
KLPC 080715Z AUTO 01003KT 10SM OVC012 14/11 A2992 RMK AO1 PNO=
KMBL 080715Z AUTO 00000KT 5SM FEW120 21/19 A3002 RMK AO1=
KMER 080715Z AUTO 35005KT 10SM CLR 20/10 A2983 RMK AO1=
KMJX 080715Z AUTO 00000KT 4SM SCT004 23/21 A3001 RMK AO1=
KMKT 080715Z 32004KT 10SM CLR 18/17 A3009 RMK AO1=
KMML 080715Z AUTO 25005KT 10SM CLR 16/13 A3013 RMK AO1=
KMNI 080715Z AUTO 00000KT 10SM CLR 22/22 A2996 RMK AO2=
KMNM 080715Z AUTO 00000KT 10SM BKN012 BKN120 21/19 A2997 RMK
     AO1=
KMRF 080715Z AUTO 05007KT 10SM BKN090 OVC120 18/14 A3017 RMK
     AO1=
KMSV 080715Z AUTO 01003KT 7SM CLR 21/18 A3009 RMK AO1=
KMTW 080715Z 21004KT 10SM BKN090 OVC120 22/21 A3000 RMK AO1=
KMVN 080715Z AUTO 00000KT 4SM CLR 22/21 A3005 RMK AO1=
KOKK 080715Z AUTO 00000KT 10SM CLR 23/17 A3005 RMK AO1=
KOLU 080715Z AUTO 30004KT 10SM CLR 17/15 A3017 RMK AO1=
KOTG 080715Z AUTO 25004KT 10SM CLR 15/13 A3015 RMK AO1=
KOTH 080715Z 23004KT 10SM OVC008 11/08 A3000 RMK AO1=
KOXC 080715Z 15003KT 3SM CLR 22/21 A3008 RMK AO1=
KPIB 080715Z AUTO 00000KT 8SM CLR 23/21 A3004 RMK AO1=
KPQI 080715Z AUTO 19004KT 10SM CLR 22/19 A2997 RMK AO1=
KPSO 080715Z AUTO 00000KT 10SM -RA OVC065 12/07 A3039 RMK AO2 LTG
     DSNT NW=
KPTN 080715Z AUTO 07003KT 10SM CLR 24/M09 A3002 RMK AO1=
KPTV 080715Z AUTO 00000KT 10SM CLR 22/13 A2983 RMK AO1=
KPVC 080715Z 17006KT 5SM OVC003 21/19 A3008 RMK AO1=
KPVU 080715Z 00000KT 10SM CLR 17/08 A3011 RMK AO1=
KPWT 080715Z AUTO 04010KT 10SM CLR 23/08 A2996 RMK AO1=
KAEG 080715Z AUTO 13015KT 10SM CLR 17/08 A3027 RMK AO1=
####018000386####
SAUS80 KWBC 080716
METAR
KIZA 080709Z AUTO 00000KT 10SM OVC009 14/11 A2992 RMK AO2=
KPTS 080710Z AUTO 00000KT 10SM CLR 22/ A3004 RMK AO2 T0220=
KDVL 080715Z AUTO 27005KT 10SM CLR 15/11 A3006 RMK AO1=
KEAR 080715Z AUTO 34003KT 10SM CLR 16/14 A3022 RMK AO1=
KGPZ 080715Z AUTO 18003KT 9SM CLR 13/11 A3006 RMK AO1=
KSOW 080710Z AUTO 16008KT 10SM SCT110 22/04 A3022 RMK AO2=
####018003670####
SAUS70 KWBC 080716 RRB
METAR
KAFJ 080715Z AUTO 00000KT M1/4SM BKN003 18/17 A3010 RMK AO1=
KAIZ 080715Z AUTO 00000KT 10SM FEW038 SCT050 BKN070 23/21 A3005
     RMK AO1 P0002=
KARG 080715Z AUTO 21003KT 10SM CLR 26/22 A3005 RMK AO1=
KAUO 080715Z AUTO 00000KT 10SM FEW065 26/21 A3004 RMK AO1=
KAWO 080715Z AUTO 00000KT 10SM CLR 17/13 A2997 RMK AO1=
KBHB 080715Z AUTO 22003KT 5SM BKN002 OVC023 18/18 A3009 RMK
     AO1=
KBID 080715Z AUTO 14004KT 10SM OVC030 22/22 A3005 RMK AO1=
KBKX 080715Z AUTO 00000KT 10SM CLR 14/13 A3016 RMK AO1=
KBLM 080715Z AUTO 00000KT 4SM OVC110 24/21 A3004 RMK AO1=
KBOW 080715Z AUTO 00000KT 10SM CLR 22/21 A3001 RMK AO2=
KBTP 080715Z AUTO 00000KT 2 1/2SM CLR 19/18 A3010 RMK AO1=
KBVX 080715Z AUTO 00000KT 10SM CLR 24/23 A3005 RMK AO1=
KCGC 080715Z AUTO 00000KT 10SM CLR 22/21 A3000 RMK=
KCGZ 080715Z AUTO 00000KT 10SM CLR 31/01 A2978 RMK AO1=
KCIU 080715Z AUTO 17006KT 10SM BKN080 OVC120 19/17 A2998 RMK AO1
     LTG DSNT SE=
KCOD 080715Z 10005KT 10SM CLR 10/M01 A3033 RMK AO1=
KCOE 080715Z AUTO 04011KT 10SM CLR 18/09 A3007 RMK AO1=
KCVN 080715Z AUTO 01008KT 10SM BKN055 18/14 A3022 RMK AO1=
KCWI 080715Z 14006KT 6SM BKN007 OVC075 A3002 RMK AO1=
KDYB 080715Z AUTO 26003KT 10SM CLR 22/21 A2996 RMK AO1=
KDYR 080715Z AUTO 00000KT 10SM CLR 24/20 A3005 RMK AO1=
KEEN 080715Z AUTO 00000KT 6SM CLR 23/22 A3005 RMK AO1=
KEGE 080715Z 29006KT 10SM CLR 12/10 A3037 RMK AO1=
KEHR 080715Z AUTO 00000KT 10SM SCT090 23/19 A3005 RMK AO1=
KENV 080715Z 01014KT 10SM CLR 23/M02 A3008 RMK AO1=
KESC 080715Z AUTO 00000KT 5SM CLR 19/17 A2996 RMK AO1=
KEUL 080715Z AUTO 00000KT 10SM CLR 18/08 A3003 RMK AO1=
KEWK 080715Z AUTO 08003KT 10SM CLR 21/19 A3006 RMK AO1=
KFAM 080715Z AUTO 00000KT 10SM CLR 23/22 A3008 RMK AO1=
KFET 080713Z AUTO 34004KT 10SM CLR 19/17 A3013 RMK AO2=
KFKL 080715Z 00000KT 5SM CLR 20/18 A3014 RMK AO1=
KFLP 080715Z AUTO 00000KT 10SM CLR 24/22 A3004 RMK AO1=
KFNL 080715Z AUTO 11009KT 5SM SCT005 BKN036 OVC120 14/14 A3029 RMK
     AO1=
KFOD 080715Z AUTO 33003KT 10SM CLR 19/18 A3010 RMK AO1=
KFRM 080715Z AUTO 10SM CLR 18/16 A3012 RMK AO1=
KFTN 080715Z AUTO 00000KT 10SM CLR 25/23 A2991 RMK AO1=
KGAD 080715Z AUTO 00000KT 10SM CLR 23/21 A3005 RMK AO1=
KGAI 080715Z 00000KT 9SM FEW100 25/21 A3003 RMK AO1=
KGBD 080715Z AUTO 02004KT 5SM FEW015 19/18 A3015 RMK AO1=
KGDV 080715Z AUTO 20005KT 10SM CLR 13/08 A3017 RMK AO1=
KGTR 080715Z 31003KT 10SM CLR 25/23 A3004 RMK AO1=
KRKD 080715Z AUTO 00000KT 1 1/4SM OVC002 18/17 A3008 RMK AO1=
KRUT 080715Z AUTO 13007KT 7SM CLR 22/19 A3005 RMK AO1=
KSDY 080715Z AUTO 00000KT 10SM FEW120 13/09 A3015 RMK AO1=
KSFM 080715Z 00000KT 2SM OVC002 21/19 A3006 RMK AO1=
KSFZ 080715Z AUTO 00000KT 7SM OVC008 22/21 A3005 RMK AO1=
KSGT 080715Z 00000KT 10SM CLR A3004 RMK AO1=
KSGU 080715Z AUTO 16003KT 10SM CLR 29/02 A2993 RMK AO1=
KSKX 080715Z AUTO 07008KT 10SM CLR 13/04 A3037 RMK AO1=
KSLG 080715Z AUTO 14004KT 10SM CLR 23/22 A3005 RMK AO1=
KSMN 080715Z AUTO 00000KT 10SM CLR 12/03 A3019 RMK AO1=
KSPA 080715Z AUTO 29003KT 10SM CLR 26/23 A3000 RMK AO2=
KSPL 080715Z AUTO RMK AO2 PWINO PNO=
KSQI 080715Z 00000KT 7SM FEW006 BKN048 OVC060 22/21 A3004 RMK
     AO1=
KSUE 080715Z AUTO 22004KT 6SM BKN120 21/20 A2998 RMK AO1=
KSUN 080711Z AUTO 32008KT 10SM CLR 13/02 A3022 RMK AO2=
KSZT 080710Z AUTO 00000KT 10SM CLR 12/10 A3008 RMK AO2=
KTIF 080710Z AUTO 00000KT 10SM OVC080 16/14 A3025 RMK AO2
     T01570142=
KTRK 080710Z AUTO 00000KT 10SM FEW110 14/08 A3016 RMK AO2=
KTVF 080715Z AUTO 26006KT 10SM CLR 15/12 A3003 RMK AO1=
KUTA 080715Z AUTO 00000KT 10SM CLR 24/22 A3005 RMK AO2=
####018000106####
SPUS80 KWBC 080716
SPECI
KVCT 080713Z AUTO 03007KT 10SM TS FEW020 26/25 A2988 RMK AO2
     TSB07=
####018000087####
SAAF33 KWBC 080700 RRA
METAR
FQMA 080700Z 21008KT 9999 BKN020 19/16 Q1031 NOSIG=
####018000089####
SAAW42 KWBC 080700 RRC
METAR
OMAD 080700Z 16009KT 130V190 CAVOK 40/18 Q1000 A2955=
####018000102####
SPCN31 KWBC 080716
SPECI
CYKL 080713Z AUTO 15004KT 130V190 9SM -RA OVC041 OVC096 13/13
A2989=
####018000081####
SAIO31 KWBC 080700 RRC
METAR
FIMR 080700Z 12018KT 9999 SCT018 26/17 Q1021=
####018000461####
SAJP31 KWBC 080700 RRA
METAR
RJAA 080700Z 22004KT 180V280 9999 FEW025 BKN/// 28/22 Q1009 NOSIG
     RMK 1CU025 A2980=
RJCC 080700Z 16007KT 6000 -DZ FEW003 BKN004 19/17 Q1008 RMK 2ST003
     7ST004 A2979=
RJFK 080700Z 18010KT 9999 FEW030 BKN/// 28/20 Q1009 RMK 1CU030
     A2982=
RJOO 080700Z 23008KT 200V260 9999 FEW030 BKN/// 31/19 Q1007 RMK
     1CU030 A2975=
RJTT 080700Z 19013KT 9999 FEW030 BKN/// 28/22 Q1008 RMK 1CU030
     A2979=
####018000081####
SAPO31 KWBC 080700 RRC
METAR
LPMR 080700Z 14004KT 9999 FEW005 19/17 Q1014=
####018000088####
SAPH31 KWBC 080700 RRC
METAR
RPLB 080700Z 24008KT 9999 FEW020 BKN300 34/22 Q1008=
####018000095####
SAXX62 KWBC 080700 RRA
METAR
RKSM 080700Z 25003KT 9999 FEW030 SCT100 BKN200 28/19 A2979=
####018000128####
SAXX99 KWBC 080700 CCC
METAR
CYRT 080700Z CCA 09011KT 1/4SM -RA FG VV001 05/05 A2960 RMK FG8
     OBS TAKEN +12 SLP026=
####018000332####
SAXX99 KWBC 080700 RRN
METAR
AYMO 080700Z AUTO 17003KT //// // ////// 30/24 Q1008=
CMFM 080700Z AUTO 33001KT 18/17 RMK AO1 SLP166 T01810173 58001=
K4O4 080708Z AUTO 10003KT 10SM SCT001 BKN015 23/22 A3004 RMK
     AO2=
OEKJ 080700Z 03020KT 8000 SKC 42/00 Q1008=
ZWSH 080700Z 10003MPS 040V160 CAVOK 32/03 Q1015 NOSIG=
####018000085####
SPUS52 KWBC 080716
SPECI
KVCT 080713Z AUTO 03007KT 10SM TS FEW020 26/25 A2988=
####018000085####
SPUS72 KWBC 080716
SPECI
KVCT 080713Z AUTO 03007KT 10SM TS FEW020 26/25 A2988=
####018000079####
SATH31 VTBB 080700 RRA
METAR VTPH 080700Z 09006KT 9999 FEW030 34/22 Q1008=
####018000083####
SPUS73 KWBC 080716
SPECI
KHIB 080712Z AUTO 00000KT 1/2SM FG CLR 11/10 A3005=
####018000159####
SAAM31 FCBB 080700 RRA
METAR FEFF 080700Z 00000KT 9999 SCT013 OVC150 23/23 Q1015 NOSIG=
METAR FPST 080700Z 18010KT 9999 FEW020 BKN110 23/20 Q1014 NOSIG=
####018000176####
SAIN32 VIDP 080700
METAR VIJP 080700Z 06006KT 3500 HZ SCT030 SCT080 33/25 Q1007 NOSIG=
METAR VIDP 080700Z 13005KT 3200 HZ SCT030 FEW040CB SCT100 34/25 Q1006
    NOSIG=
####018000101####
SAUS44 KLZK 080716
MTRMWT
SPECI KMWT 080714Z AUTO 00000KT 10SM OVC014 23/23 A3004 RMK AO2 TSNO
####018000085####
SPUS81 KWBC 080716
SPECI
KVCT 080713Z AUTO 03007KT 10SM TS FEW020 26/25 A2988=
####018000598####
SAUS20 KNKA 080716
METAR KGTU 080715Z 09004KT 10SM OVC010 25/21 A3001 RMK AO1=
METAR KHYI 080715Z AUTO 07007KT 10SM FEW016 SCT030 OVC043 25/23 
    A2995 RMK AO1=
METAR KILE 080715Z 13006KT 10SM BKN014 OVC020 25/22 A2997 RMK AO1=
SPECI KLBB 080715Z 00000KT 10SM -RA FEW006 SCT030 OVC120 21/19 A3014 
    RMK AO2 RAB08 P0000=
METAR KOCH 080715Z AUTO 11004KT 10SM CLR 24/19 A3000 RMK AO1=
METAR KPRX 080715Z 15006KT 10SM BKN006 BKN013 24/22 A3001 RMK AO1=
METAR KPWG 080715Z AUTO 14004KT 10SM CLR 25/22 A2999 RMK AO1=
METAR KTPL 080715Z 11003KT 10SM BKN014 25/23 A2998 RMK AO1=
####018000124####
SPUS17 KAWN 080716 RRB
SPECI KAFF 080711Z AUTO 01003KT 10SM BKN013 OVC041 13/12 A3040 RMK
      AO2 BKN V SCT SLP206=
####018000333####
SAXX70 KAWN 080700 RRL
METAR KQM1 080655Z AUTO 22003KT 9999 CLR 37/15 A3003 RMK AO2 SLP095
      T03660152 $=
METAR KQD2 080658Z AUTO VRB03KT 9999 CLR 32/08 A3006 RMK AO2 SLP061
      T03170084 $=
METAR KQFW 080700Z AUTO 29003KT 7SM CLR 28/17 A2987 RMK A02=
METAR KQEX 080710Z AUTO 05002KT 7SM CLR 29/17 A2972 RMK A02=
####018000818####
SAZZ40 KAWN 080700 RRP
METAR MKJP 080700Z 11012KT 9999 FEW020 BKN220 27/20 Q1013=
METAR NGFU 080700Z 07008KT 50KM FEW020 29/23 Q1009=
METAR NSFA 080700Z 08006KT 45KM FEW020 28/25 Q1011=
METAR OEAH 080700Z 01010KT 9000 NSC 42/09 Q1003 NOSIG=
METAR OEGS 080700Z 09006KT CAVOK 40/08 Q1009=
METAR OEGT 080700Z 29008KT CAVOK 31/02 Q1010=
METAR OEHL 080700Z 13002KT CAVOK 40/02 Q1014 NOSIG=
METAR OEKK 080700Z 06008KT CAVOK 42/11 Q1006=
METAR OERF 080700Z 34002KT CAVOK 40/11 Q1007=
METAR OERR 080700Z 10012KT CAVOK 40/10 Q1008=
METAR OETB 080700Z 33003KT CAVOK 32/09 Q1011 NOSIG=
METAR OETR 080700Z 02010KT CAVOK 34/05 Q1011=
METAR OEYN 080700Z 17007KT CAVOK 36/21 Q1001 NOSIG=
METAR TNCM 080700Z 10008KT 9999 SCT018 28/24 Q1015=
METAR ZWSH 080700Z 10003MPS 040V160 CAVOK 32/03 Q1015 NOSIG=
####018000131####
SPCN46 CWAO 080716
SPECI CYKF 080716Z AUTO 00000KT 3SM BR CLR 20/19 A3006 RMK SLP177
 DENSITY ALT 1700FT VIS VRB 1 1/4-3=

####018000078####
SPCN51 CWAO 080715
SPECI CWZZ 080715Z AUTO ///// 9SM BKN027 09/ A2983=

####018002980####
SAUS20 KNKA 080716
METAR K0A9 080715Z AUTO 00000KT 8SM CLR 20/18 A3011 RMK=
METAR K20V 080716Z AUTO 09003KT 10SM CLR 10/06 A3042 RMK AO2=
METAR K4BM 080714Z AUTO 00000KT 2SM BR 04/03 A3064 RMK AO2=
METAR K5SM 080713Z AUTO 00000KT 10SM VCTS SCT050 BKN070 OVC110
     08/05 A3060 RMK AO2 LTG DSNT S=
METAR K7BM 080716Z AUTO 00000KT 10SM OVC017 10/07 A3055 RMK AO2=
SPECI KACK 080715Z AUTO 12007KT 4SM BR OVC001 19/18 A3006 RMK AO2 
    TSNO=
METAR KAIT 080713Z AUTO 00000KT 1/2SM FG VV005 13/12 A3006 RMK
     AO2=
SPECI KAVX 080715Z AUTO 25003KT 1 1/4SM BR OVC001 11/11 A2994 RMK 
    AO2 VIS 3/4V2 TSNO=
METAR KBBB 080713Z AUTO 00000KT 5SM BR CLR 14/14 A3010 RMK AO2=
METAR KBBG 080715Z AUTO 00000KT 5SM BR SCT027 23/23 A3007 RMK AO2 
     =
METAR KBBP 080715Z AUTO 29004KT 10SM SCT100 25/20 A2995 RMK AO2=
METAR KBDU 080716Z AUTO 18004KT 10SM -RA BKN065 OVC085 16/13 A3029
     RMK AO2=
METAR KBJC 080717Z AUTO 33004KT 10SM OVC100 14/11 A3034 RMK AO2=
METAR KBKN 080715Z AUTO 03004KT 10SM SCT060 BKN070 22/21 A3005 RMK 
     AO2 =
METAR KCCU 080716Z AUTO 17009KT 10SM CLR 06/03 A3065 RMK AO2 LTG
     DSNT SW=
METAR KCIC 080715Z AUTO 00000KT 10SM CLR 26/16 A2980 RMK AO1 =
METAR KCMR 080715Z AUTO 15009KT 10SM OVC100 16/01 A3024 RMK AO1 =
METAR KFFM 080713Z AUTO 21003KT 10SM CLR 16/14 A3007 RMK AO2=
METAR KFGN 080714Z AUTO 25007KT 1 1/4SM HZ BKN100 17/13 A2996 RMK
     AO2=
METAR KGDB 080713Z AUTO 25004KT 10SM CLR 14/14 A3013 RMK AO2
     T01400137=
METAR KGGE 080715Z AUTO 27006KT 10SM CLR 25/22 A2994 RMK AO2=
METAR KGHW 080713Z AUTO 22006KT 10SM CLR 14/13 A3013 RMK AO2=
SPECI KHOT 080715Z AUTO 00000KT 10SM SCT008 SCT011 24/23 A3006 RMK 
    AO2=
SPECI KHYA 080715Z AUTO 18003KT 2 1/2SM BR OVC001 21/21 A3006 RMK 
    AO2=
SPECI KJEF 080715Z AUTO 06005KT 2 1/2SM +RA BR FEW003 BKN025 OVC070 
    24/23 A3004 RMK AO2 LTG DSNT E RAB0654 P0015=
METAR KLUX 080715Z AUTO 26004KT 10SM CLR 22/22 A3002 RMK AO2=
METAR KMAO 080715Z AUTO 28003KT 10SM SCT120 26/19 A2994 RMK AO2=
METAR KMGG 080715Z AUTO 00000KT 10SM CLR 17/16 A3009 RMK AO2
     T01660155=
METAR KMOX 080710Z AUTO 23005KT 10SM CLR 16/16 A3007 RMK AO2=
METAR KMWM 080713Z AUTO 25003KT 10SM CLR 16/15 A3013 RMK AO2=
METAR KMYP 080616Z AUTO 06011KT M1/4SM -SN OVC001 03/03 A3075 RMK
     AO2=
METAR KNQA 080715Z AUTO 00000KT 10SM CLR 25/23 A3005 RMK=
METAR KOUN 080716Z AUTO 00000KT 10SM SCT019 SCT023 SCT041 25/23 
     A3004 RMK AO2=
METAR KPNM 080713Z AUTO 00000KT 10SM CLR 16/14 A3008 RMK AO2=
METAR KPQN 080713Z AUTO 30003KT 10SM CLR 16/14 A3016 RMK AO2=
METAR KPWC 080713Z AUTO 00000KT 10SM BKN001 11/11 A3008 RMK
     AO2=
METAR KRCE 080715Z AUTO 03004KT 10SM FEW013 23/22 A3006 RMK AO2 =
METAR KSMS 080715Z AUTO 28006KT 10SM CLR 26/19 A2998 RMK AO2 =
METAR KSRR 080715Z AUTO 18004KT 10SM FEW070 BKN095 13/11 A3036 RMK 
     AO2 =
SPECI KTQE 080715Z AUTO 34005KT 10SM BKN025 19/18 A3012 RMK AO2=
####018000359####
SAUS20 KNKA 080716
METAR KTWM 080713Z AUTO 00000KT 10SM BKN050 BKN100 18/14 A3001 RMK
     AO2=
METAR KULM 080715Z AUTO 29004KT 10SM CLR 15/13 A3010 RMK AO2=
METAR KVQQ 080715Z AUTO 00000KT 10SM CLR 18/18 A3002 RMK AO2 =
METAR KVTP 080720Z AUTO 03005KT 10SM CLR 06/03 A3055 RMK AO2=
METAR KWYS 080710Z AUTO 21003KT 10SM CLR 04/01 A3035 RMK AO2=
####018000087####
SAUS46 KLOX 080716
MTRMWS
METAR KMWS 080700Z 15004G05KT 19/M01 RMK SNOW DEPTH  M
####018000613####
SPUS99 KWBC 080717
SPECI
KLBB 080715Z 00000KT 10SM -RA FEW006 SCT030 OVC120 21/19 A3014 RMK
     AO2 RAB08 P0000=
KACK 080715Z AUTO 12007KT 4SM BR OVC001 19/18 A3006 RMK AO2
     TSNO=
KAVX 080715Z AUTO 25003KT 1 1/4SM BR OVC001 11/11 A2994 RMK AO2
     VIS 3/4V2 TSNO=
KHOT 080715Z AUTO 00000KT 10SM SCT008 SCT011 24/23 A3006 RMK
     AO2=
KHYA 080715Z AUTO 18003KT 2 1/2SM BR OVC001 21/21 A3006 RMK
     AO2=
KJEF 080715Z AUTO 06005KT 2 1/2SM +RA BR FEW003 BKN025 OVC070
     24/23 A3004 RMK AO2 LTG DSNT E RAB0654 P0015=
KTQE 080715Z AUTO 34005KT 10SM BKN025 19/18 A3012 RMK AO2=
####018002971####
SAUS99 KWBC 080717
METAR
KGTU 080715Z 09004KT 10SM OVC010 25/21 A3001 RMK AO1=
KHYI 080715Z AUTO 07007KT 10SM FEW016 SCT030 OVC043 25/23 A2995
     RMK AO1=
KILE 080715Z 13006KT 10SM BKN014 OVC020 25/22 A2997 RMK AO1=
KOCH 080715Z AUTO 11004KT 10SM CLR 24/19 A3000 RMK AO1=
KPRX 080715Z 15006KT 10SM BKN006 BKN013 24/22 A3001 RMK AO1=
KPWG 080715Z AUTO 14004KT 10SM CLR 25/22 A2999 RMK AO1=
KTPL 080715Z 11003KT 10SM BKN014 25/23 A2998 RMK AO1=
KTWM 080713Z AUTO 00000KT 10SM BKN050 BKN100 18/14 A3001 RMK
     AO2=
KULM 080715Z AUTO 29004KT 10SM CLR 15/13 A3010 RMK AO2=
KVQQ 080715Z AUTO 00000KT 10SM CLR 18/18 A3002 RMK AO2=
KVTP 080720Z AUTO 03005KT 10SM CLR 06/03 A3055 RMK AO2=
KWYS 080710Z AUTO 21003KT 10SM CLR 04/01 A3035 RMK AO2=
K0A9 080715Z AUTO 00000KT 8SM CLR 20/18 A3011 RMK=
K20V 080716Z AUTO 09003KT 10SM CLR 10/06 A3042 RMK AO2=
K4BM 080714Z AUTO 00000KT 2SM BR 04/03 A3064 RMK AO2=
K5SM 080713Z AUTO 00000KT 10SM VCTS SCT050 BKN070 OVC110 08/05
     A3060 RMK AO2 LTG DSNT S=
K7BM 080716Z AUTO 00000KT 10SM OVC017 10/07 A3055 RMK AO2=
KAIT 080713Z AUTO 00000KT 1/2SM FG VV005 13/12 A3006 RMK AO2=
KBBB 080713Z AUTO 00000KT 5SM BR CLR 14/14 A3010 RMK AO2=
KBBG 080715Z AUTO 00000KT 5SM BR SCT027 23/23 A3007 RMK AO2=
KBBP 080715Z AUTO 29004KT 10SM SCT100 25/20 A2995 RMK AO2=
KBDU 080716Z AUTO 18004KT 10SM -RA BKN065 OVC085 16/13 A3029 RMK
     AO2=
KBJC 080717Z AUTO 33004KT 10SM OVC100 14/11 A3034 RMK AO2=
KBKN 080715Z AUTO 03004KT 10SM SCT060 BKN070 22/21 A3005 RMK
     AO2=
KCCU 080716Z AUTO 17009KT 10SM CLR 06/03 A3065 RMK AO2 LTG DSNT
     SW=
KCIC 080715Z AUTO 00000KT 10SM CLR 26/16 A2980 RMK AO1=
KCMR 080715Z AUTO 15009KT 10SM OVC100 16/01 A3024 RMK AO1=
KFFM 080713Z AUTO 21003KT 10SM CLR 16/14 A3007 RMK AO2=
KFGN 080714Z AUTO 25007KT 1 1/4SM HZ BKN100 17/13 A2996 RMK
     AO2=
KGDB 080713Z AUTO 25004KT 10SM CLR 14/14 A3013 RMK AO2
     T01400137=
KGGE 080715Z AUTO 27006KT 10SM CLR 25/22 A2994 RMK AO2=
KGHW 080713Z AUTO 22006KT 10SM CLR 14/13 A3013 RMK AO2=
KLUX 080715Z AUTO 26004KT 10SM CLR 22/22 A3002 RMK AO2=
KMAO 080715Z AUTO 28003KT 10SM SCT120 26/19 A2994 RMK AO2=
KMGG 080715Z AUTO 00000KT 10SM CLR 17/16 A3009 RMK AO2
     T01660155=
KMOX 080710Z AUTO 23005KT 10SM CLR 16/16 A3007 RMK AO2=
KMWM 080713Z AUTO 25003KT 10SM CLR 16/15 A3013 RMK AO2=
KMYP 080616Z AUTO 06011KT M1/4SM -SN OVC001 03/03 A3075 RMK
     AO2=
KNQA 080715Z AUTO 00000KT 10SM CLR 25/23 A3005 RMK=
KOUN 080716Z AUTO 00000KT 10SM SCT019 SCT023 SCT041 25/23 A3004
     RMK AO2=
KPNM 080713Z AUTO 00000KT 10SM CLR 16/14 A3008 RMK AO2=
KPQN 080713Z AUTO 30003KT 10SM CLR 16/14 A3016 RMK AO2=
KPWC 080713Z AUTO 00000KT 10SM BKN001 11/11 A3008 RMK AO2=
KRCE 080715Z AUTO 03004KT 10SM FEW013 23/22 A3006 RMK AO2=
KSMS 080715Z AUTO 28006KT 10SM CLR 26/19 A2998 RMK AO2=
KSRR 080715Z AUTO 18004KT 10SM FEW070 BKN095 13/11 A3036 RMK
     AO2=
####018000084####
SAAP32 FAPR 080700 RRB
METAR FQMA 080700Z 21008KT 9999 BKN020 19/16 Q1031 NOSIG=
####018000131####
SAAP32 FAPR 080700 RRA
METAR FVHA 080700Z 13015KT 9999 BKN020 11/06 Q1031 NOSIG=
METAR FYWH 080700Z 36002KT CAVOK 10/00 Q1030=
####018000088####
SAUK35 EGGY 080650 RRA
METAR EGHH 080650Z 24005KT 5000 BR SCT007 BKN015 17/17 Q1019=
####018000157####
SAAM31 FCBB 080700 RRA
METAR FEFF 080700Z 00000KT 9999 SCT013 OVC150 23/23 Q1015 NOSIG=
METAR FPST 080700Z 18010KT 9999 FEW020 BKN110 23/20 Q1014 NOSIG=
####018000125####
SPCN46 CWAO 080716
SPECI CYSC 080716Z AUTO 00000KT 3SM BR FEW056 SCT140 21/20 A3002 RMK
 SLP165 DENSITY ALT 1500FT=

####018000096####
SPUS42 KWBC 080717
SPECI
KAMA 080713Z 04010KT 1SM RA BR FEW016 BKN055 OVC080 17/17 A3019=
####018000282####
SANG31 YBBN 080700
METAR AYPY 080700Z NIL=
METAR AYWK 080700Z NIL=
METAR AYVN 080700Z NIL=
METAR AYNZ 080700Z NIL=
METAR AYMH 080700Z NIL=
METAR AYGN 080700Z NIL=
METAR AYMO 080700Z NIL=
METAR AGGH 080700Z 09002KT 9999 FEW017 SCT100 OVC300 26/24 Q1009 RMK
REDZ=
####018000089####
SAUK35 EGGY 080650 RRA
METAR EGHH 080650Z 24005KT 5000 BR SCT007 BKN015 17/17 Q1019=
####018000096####
SPUS72 KWBC 080717
SPECI
KAMA 080713Z 04010KT 1SM RA BR FEW016 BKN055 OVC080 17/17 A3019=
####018000078####
SACN70 CWAO 080700 RRB
WOO SA 0700 AUTO8 M M M M/14/10/3005/M/ M 98MM=

####018000078####
SACN93 CWAO 080400 RRJ
WOW SA 0400 AUTO8 M M M M/22/21/2302/M/ M 33MM=

####018000075####
SACN50 CWAO 080715
VWB SA 0715 AUTO8 M M M M/17/04/MMMM/M/M M 00MM=

####018000075####
SACN94 CWAO 080715
WSK SA 0715 AUTO8 M M M M/17/13/0302/M/M M 15MM=

####018000230####
SACN59 CWAO 080700 RRA
NPK SA 0700 AUTO8 M M M 244/08/07/2101/M/ 0002 19MM=
PBR SA 0700 AUTO8 M M M M/12/M/MMMM/M/ M 6MMM=
PCR SA 0700 AUTO8 M M M M/08/M/MMMM/M/ M 4MMM=
PMR SA 0700 AUTO8 M M M M/16/M/MMMM/M/ M 5MMM=

####018000321####
SACN89 CWAO 080700 RRB
WAY SA 0700 AUTO8 M M M 076/04/00/3006/M/ 1007 61MM=
WCF SA 0700 AUTO8 M M M M/16/11/3010/M/ PK WND 2824 0625Z 2001
31MM=
WCH SA 0700 AUTO8 M M M 162/13/12/0000/M/ 6010 91MM=
WCJ SA 0700 AUTO8 M M M 143/16/16/0904/M/ 8014 07MM=
WDK SA 0700 AUTO8 M M M 229/10/08/0102/M/ 1005 89MM=

####018000077####
SACN59 CWAO 080600 RRK
PBH SA 0600 AUTO8 M M M M/11/M/MMMM/M/ M 3MMM=

####018000268####
SACN63 CWAO 080700 RRB
NVQ SA 0700 AUTO8 M M M 154/14/11/3402/M/ 3014 41MM=
ZEV SA 0700 AUTO8 M M M 172/07/04/3114/M/ PK WND 2927 0604Z 1017
08MM=
ZFS SA 0700 AUTO8 M M M 155/16/14/3103/M/ 1006 70MM=
ZSM SA 0700 AUTO8 M M M 131/13/09/2702/M/ 8002 38MM=

####018000078####
SACN93 CWAO 080500 RRH
WOW SA 0500 AUTO8 M M M M/22/21/1701/M/ M 79MM=

####018000408####
SACN93 CWAO 080700 RRB
WNC SA 0700 AUTO8 M M M 158/22/21/0501/M/ 8004 24MM=
WOC SA 0700 AUTO8 M M M 148/16/14/2101/M/ 5002 54MM=
WOK SA 0700 AUTO8 M M M 197/13/11/0405/M/ 1007 22MM=
WOW SA 0700 AUTO8 M M M M/21/20/2001/M/ M 60MM=
WPD SA 0700 AUTO8 M M M 130/19/19/2201/M/ 8001 87MM=
WPF SA 0700 AUTO8 M M M 134/17/14/0504/M/ 1008 65MM=
WPR SA 0700 AUTO8 M M M 176/18/M/3103/M/M 3021 0MMM=

####018000083####
SACN87 CWAO 080700 RRA
WJD SA 0700 AUTO8 M M M 134/15/11/3105/M/ 1001 65MM=

####018000409####
SACN95 CWAO 080700 RRB
WTY SA 0700 AUTO8 M M M 140/25/22/2302/M/ 3002 93MM=
WUT SA 0700 AUTO8 M M M 174/11/10/3005/M/M 1004 66MM=
WUY SA 0700 AUTO7 M M M 151/22/20/1302/M/ 8008 37MM=
WVC SA 0700 AUTO8 M M M 208/14/11/2606/M/ 1003 58MM=
WWF SA 0700 AUTO8 M M M 189/14/11/2804/M/ 0000 74MM=
WWN SA 0700 AUTO8 M M M 102/10/10/1503/M/ 8010 05MM=
WXB SA 0700 AUTO8 M M M M/07/06/2604/M/ M 44MM=

####018000078####
SACN93 CWAO 080600 RRI
WOW SA 0600 AUTO8 M M M M/21/20/2002/M/ M 24MM=

####018000399####
SACN97 CWAO 080700 RRB
XCA SA 0700 AUTO8 M M M 154/18/15/0000/M/ 6009 52MM=
XEC SA 0700 AUTO8 M M M M/16/14/MMMM/M/ M 46MM=
XEG SA 0700 AUTO8 M M M M/11/11/MMMM/M/ M 44MM=
XGH SA 0700 AUTO8 M M M M/15/15/2704/M/M M 11MM=
XMD SA 0700 AUTO8 M M M 148/16/12/2707/M/ 7002 30MM=
XMW SA 0700 AUTO8 M M M 207/12/11/MMMM/M/ 0002 00MM=
XTL SA 0700 AUTO8 M M M 208/11/07/0000/M/ 1018 75MM=

####018000075####
SACN95 CWAO 080715
WWA SA 0715 AUTO8 M M M M/21/09/3603/M/M M 99MM=

####018000244####
SACN96 CWAO 080700 RRB
WYE SA 0700 AUTO8 M M M 178/12/10/2104/M/ 0008 20MM=
WZA SA 0700 AUTO8 M M M 142/19/17/2901/M/ 1017 89MM=
XKA SA 0700 AUTO8 M M M 120/20/17/2003/M/ 8013 83MM=
XPT SA 0700 AUTO8 M M M M/25/22/MMMM/M/M M 99MM=

####018000075####
SACN50 CWAO 080715
VOU SA 0715 AUTO8 M M M M/25/07/3410/M/M M 98MM=

####018000075####
SACN50 CWAO 080715
VOB SA 0715 AUTO8 M M M M/18/07/0000/M/M M 66MM=

####018000357####
SACN92 CWAO 080700 RRB
WJR SA 0700 AUTO8 M M M 193/19/M/3505/M/ 1012 2MMM=
WJX SA 0700 AUTO8 M M M 206/13/12/2306/M/ 1004 66MM=
WKG SA 0700 AUTO8 M M M 203/17/16/0000/M/ 8009 73MM=
WLJ SA 0700 AUTO8 M M M 183/11/08/2205/M/ 6003 62MM=
WMI SA 0700 AUTO8 M M M 151/16/15/1603/M/ 5005 79MM=
WMQ SA 0700 AUTO8 M M M 212/11/09/2005/M/ 0001 00MM=

####018000138####
SACN78 CWAO 080700 RRB
TNK SA 0700 AUTO8 M M M 173/18/17/0000/M/ 8002 29MM=
XBI SA 0700 AUTO8 M M M 167/20/19/0701/M/ 8006 38MM=

####018000106####
SACN45 CWAO 080700 RRA
METAR CYRT 080700Z 09011KT 1/4SM -RA FG VV001 05/05 A2960 RMK FG8
SLP026=

####018000739####
SACN88 CWAO 080700 RRB
AAW SA 0700 AUTO8 M M M 193/16/16/1601/M/ 5005 26MM=
ACP SA 0700 AUTO8 M M M 196/15/15/1804/M/ 8007 88MM=
ACQ SA 0700 AUTO8 M M M 152/22/20/2406/M/ 5005 55MM=
ADS SA 0700 AUTO8 M M M 220/09/09/1205/M/ 1005 31MM=
AJT SA 0700 AUTO8 M M M 177/17/15/0605/M/ 8008 70MM=
AMS SA 0700 AUTO8 M M M 189/17/16/2108/M/ 5003 60MM=
AWR SA 0700 AUTO8 M M M 186/21/16/1408/M/ 8005 87MM=
WAR SA 0700 AUTO8 M M M 233/11/10/2003/M/ 3005 70MM=
WDO SA 0700 AUTO8 M M M 207/09/08/1310/M/M 8007 09MM=
WSS SA 0700 AUTO8 M M M 183/19/18/2003/M/ 5006 42MM=
XKT SA 0700 AUTO8 M M M M/16/16/0301/M/ M 08MM=
XNP SA 0700 AUTO8 M M M 186/18/17/1909/M/ 4000 28MM=
ZDB SA 0700 AUTO8 M M M 193/16/16/2802/M/ 0000 38MM=

####018000239####
SACN98 CWAO 080700 RRB
XDK SA 0700 AUTO8 M M M 151/18/12/1207/M/ 3023 27MM=
XRB SA 0700 AUTO8 M M M 092/10/-02/1306/M/ 8007 05MM=
ZKD SA 0700 AUTO8 M M M M/13/10/2603/M/ M 64MM=
ZZJ SA 0700 AUTO8 M M M M/12/07/MMMM/M/ M 20MM=

####018000194####
SACN94 CWAO 080700 RRB
WQC SA 0700 AUTO8 M M M 151/16/13/2201/M/ 1011 71MM=
WRD SA 0700 AUTO8 M M M 176/15/11/1203/M/M 3005 77MM=
WSR SA 0700 AUTO8 M M M 186/09/09/2003/M/ 0001 86MM=

####018000083####
SACN86 CWAO 080700 RRA
WPO SA 0700 AUTO8 M M M 183/13/13/2405/M/ 5001 45MM=

####018000138####
SACN90 CWAO 080700 RRB
WEZ SA 0700 AUTO8 M M M 137/21/15/0203/M/ 1009 56MM=
WFF SA 0700 AUTO8 M M M 189/10/08/2506/M/ 0001 75MM=

####018000189####
SACN91 CWAO 080700 RRB
WII SA 0700 AUTO8 M M M M/19/15/3113/M/M M 39MM=
WIW SA 0700 AUTO8 M M M 197/12/10/2806/M/ 0003 53MM=
WIY SA 0700 AUTO8 M M M 155/22/21/0000/M/ 5003 98MM=

####018000075####
SACN50 CWAO 080715
VOD SA 0715 AUTO8 M M M M/13/04/1103/M/M M 84MM=

####018000082####
SPUS81 KWBC 080717
SPECI
KMWT 080714Z AUTO 00000KT 10SM OVC014 23/23 A3004=
####018000103####
SPCN47 CWAO 080715
SPECI CYPQ 080715Z AUTO ///// 1/2SM CLR 21/21 A3003 RMK VSBY VRBL
0.2V5.0=

####018000075####
SPCN44 CWAO 080716
SPECI CYUS 080716Z AUTO ///// 9SM CLR 11/ A2980=

####018002895####
SAAK41 KNKA 080717
METAR PAAK 080716Z AUTO 08017G24KT 10SM BKN016 OVC026 07/04 A2964 
    RMK AO1 PNO=
METAR PABL 080716Z AUTO 30008KT 10SM CLR 13/08 A3015 RMK AO1 PNO=
METAR PABV 080716Z AUTO 18003KT 10SM OVC085 13/09 RMK AO1 PNO=
METAR PADK 080716Z 06011KT 10SM 07/06 A2959 RMK AO1 PNO=
METAR PADL 080716Z 30006KT 10SM BKN060 OVC120 11/08 A2997 RMK AO1 
    PNO TSNO=
METAR PAEM 080716Z AUTO 36011KT 10SM CLR 13/07 A3004 RMK AO1 PNO=
METAR PAFE 080716Z AUTO 00000KT 10SM CLR 12/10 A3018 RMK AO1 PNO=
METAR PAFM 080716Z AUTO 00000KT 10SM CLR 18/10 A3010 RMK AO1 PNO=
METAR PAGL 080716Z AUTO 34003KT 10SM FEW045 SCT080 17/11 A3013 RMK 
    AO1 PNO=
METAR PAGS 080716Z AUTO 32003KT 10SM CLR 13/11 A3020 RMK AO1 PNO=
METAR PAHP 080716Z AUTO 36006KT 10SM SCT070 SCT120 13/09 A3006 RMK 
    AO1 PNO TSNO=
METAR PAHY 080716Z AUTO 00000KT 10SM CLR 17/11 A3011 RMK AO1 PNO=
METAR PAII 080716Z AUTO 01005KT 10SM SCT023 OVC060 11/08 A2996 RMK 
    AO1 PNO=
METAR PAIN 080716Z AUTO 00000KT 10SM CLR 14/07 A3008 RMK AO1 PNO=
METAR PAJC 080716Z AUTO 33003KT 10SM BKN017 OVC024 11/06 A2994 RMK 
    AO1 PNO=
METAR PAKK 080716Z AUTO 01009G14KT 10SM BKN085 17/09 A3004 RMK AO1 
    PNO=
METAR PAKP 080716Z AUTO 00000KT 10SM BKN034 BKN042 OVC050 11/04 
    A3009 RMK AO1=
METAR PAMD 080716Z AUTO 09019G26KT 3SM BKN004 OVC017 11/09 A3001 RMK 
    AO1 PNO=
METAR PAMH 080716Z 00000KT 10SM CLR 16/07 A2999 RMK AO1 PNO=
METAR PAMM 080716Z AUTO 35007KT 10SM CLR 21/11 A3009 RMK AO1 PNO=
METAR PAMY 080716Z 29006KT 3/4SM OVC002 06/05 A3007 RMK AO1=
METAR PANI 080716Z AUTO 00000KT 10SM BKN070 BKN090 OVC110 14/09 
    A3000 RMK AO1 PNO=
METAR PANV 080716Z AUTO 21003KT 10SM BKN075 OVC090 16/08 A3000 RMK 
    AO1 PNO=
METAR PAPG 080716Z 04004KT 10SM CLR 13/11 A3014 RMK AO1 
      PNO=
METAR PAPH 080716Z AUTO 01007KT 10SM FEW048 07/04 A2998 RMK AO1 PNO=
SPECI PAQT 080715Z AUTO 26010KT 10SM OVC028 13/07 A3002 RMK AO2 TSNO=
METAR PARC 080716Z AUTO 00000KT 10SM CLR 12/01 A3001 RMK AO1 PNO=
METAR PASA 080716Z AUTO 05005KT 10SM CLR 08/05 A3020 RMK AO1 PNO=
METAR PASD 080716Z AUTO 11004KT 10SM OVC050 09/04 A2996 RMK AO1 PNO=
METAR PASH 080716Z AUTO 03005KT 9SM CLR 07/05 A3019 RMK AO1 PNO=
METAR PASK 080716Z 27005KT 10SM CLR 16/09 A3011 RMK AO1 PNO=
METAR PASL 080716Z AUTO 00000KT 10SM FEW100 SCT120 14/08 A3002 RMK 
    AO1 PNO=
METAR PASM 080716Z AUTO 29006KT 10SM OVC100 11/08 A3006 RMK AO1 PNO=
METAR PAUN 080716Z AUTO 33005KT 10SM CLR 16/11 A3002 RMK AO1 PNO=
METAR PAVD 080716Z 00000KT 10SM OVC090 10/07 A3011 RMK AO1 
      PNO=
METAR PAWG 080716Z AUTO 28005KT 10SM CLR 15/11 A3013 RMK AO1 PNO=
METAR PAWN 080716Z AUTO 31006KT 10SM CLR 15/05 A3012 RMK AO1 PNO=
METAR PAWS 080716Z AUTO 03004KT 10SM BKN090 14/07 A3001 RMK AO1 PNO=
METAR PAZK 080716Z AUTO 01006KT 10SM FEW055 10/04 A3010 RMK AO1 PNO=
####018002707####
SAUS20 KNKA 080717
METAR K04W 080714Z AUTO 00000KT 10SM CLR 18/17 A3006 RMK AO2 
     T01810170=
METAR K1A6 080715Z AUTO 00000KT 4SM BR CLR 22/22 A3010 RMK AO2=
METAR K1P1 080715Z AUTO 00000KT 2 1/2SM BR CLR 22/21 A3005 RMK AO2 
     T02240212=
METAR K21D 080718Z AUTO 31004KT 10SM CLR 19/17 A3006 RMK AO2=
SPECI KBFD 080716Z AUTO 00000KT 1 1/2SM BR CLR 16/16 A3015 RMK AO2=
METAR KBJI 080714Z AUTO 20004KT 10SM CLR 15/14 A3004 RMK AO2=
METAR KBUU 080714Z AUTO 19003KT 7SM BKN090 BKN120 21/21 A3003 RMK 
     AO2=
METAR KC29 080715Z AUTO 00000KT 10SM SCT110 22/20 A3000 RMK AO2 
     T02200201=
METAR KD39 080714Z AUTO 00000KT 10SM CLR 16/15 A3010 RMK AO2 
     T01610153=
METAR KDLL 080715Z AUTO 24004KT 10SM -RA SCT004 SCT009 SCT022 
     21/20 A3000 RMK AO2=
METAR KE80 080715Z AUTO 27005KT 10SM CLR 20/11 A3022 RMK AO2 
     T01950105=
METAR KEDC 080715Z AUTO 06004KT OVC010 25/24 A2997 RMK AO2 =
METAR KEIK 080715Z AUTO 20003KT 10SM -DZ BKN085 OVC110 14/13 A3031 
     RMK AO2=
METAR KEOE 080715Z AUTO 00000KT 10SM 23/20 A3003 RMK AO2=
METAR KFMH 080715Z AUTO 16006KT 1 1/4SM BR OVC002 21/20 A3007 RMK 
     AO2 =
SPECI KHLC 080716Z AUTO 36006KT 10SM BKN026 17/16 A3020 RMK AO2=
METAR KHVS 080715Z AUTO 28004KT 10SM CLR 26/20 A2998 RMK AO2=
SPECI KHWV 080716Z AUTO 00000KT 1 1/4SM BR OVC002 24/24 A3003 RMK 
    AO2 CIG 001V006=
METAR KIFP 080715Z AUTO 06005KT 10SM CLR 33/M02 A2971 RMK AO2 =
METAR KIWA 080716Z AUTO 00000KT 10SM CLR 33/04 A2979 RMK AO2=
SPECI KLUK 080716Z AUTO 00000KT 1 3/4SM BR CLR 22/22 A3007 RMK AO2=
METAR KMAN 080715Z AUTO 00000KT 10SM CLR 18/09 A3002 RMK AO1 =
METAR KPVF 080715Z AUTO 00000KT 10SM CLR 22/12 A2993 RMK AO1 =
METAR KRBW 080715Z AUTO 28007KT 10SM CLR 23/20 A2998 RMK AO2=
METAR KRCM 080715Z AUTO 00000KT 7SM OVC038 22/22 A3004 RMK AO2 LTG 
     DSNT E=
SPECI KRHI 080716Z AUTO 25003KT 10SM OVC003 19/18 A3003 RMK AO2=
SPECI KRVS 080716Z 18004KT 2 1/2SM +RA BR SCT010 BKN013 OVC041 23/23 
    A3002 RMK AO2 P0008=
METAR KSNC 080715Z AUTO 11003KT 1 1/4SM  BR OVC001 22/ A3006 RMK 
     AO2 =
METAR KTME 080715Z AUTO 00000KT 6SM 25/25 A2994 RMK AO1 =
METAR KTZR 080716Z AUTO 00000KT 7SM CLR 22/19 A3008 RMK AO2=
SPECI KUGN 080716Z AUTO 23006KT 2 1/2SM +RA BR BKN030 BKN047 OVC090 
    23/22 A3004 RMK AO2 VIS 1 1/4V4 LTG DSNT S TSB0658E13 P0008=
METAR KUOX 080715Z AUTO 00000KT 10SM CLR 23/21 A3007 RMK AO2 =
METAR KY51 080715Z AUTO 29005KT 5SM BKN002 OVC008 22/22 A3003 RMK 
     AO1 T02190217=
METAR PAAK 080716Z AUTO 08017G24KT 10SM BKN016 OVC026 07/04 A2964 
    RMK AO1 PNO=
METAR PAHP 080716Z AUTO 36006KT 10SM SCT070 SCT120 13/09 A3006 RMK 
    AO1 PNO TSNO=
####018000100####
SPUS90 KWBC 080718
SPECI KMWT 080714Z AUTO 00000KT 10SM OVC014 23/23 A3004 RMK AO2
     TSNO=
####018000082####
SAUS90 KWBC 080700 RRG
METAR KMWS 080700Z 15004G05KT 19/M01 RMK SNOW DEPTH M=
####018000075####
SACN50 CWAO 080715
VOC SA 0715 AUTO8 M M M M/15/10/1301/M/M M 48MM=

####018000075####
SACN50 CWAO 080715
VOH SA 0715 AUTO8 M M M M/15/02/0703/M/M M 43MM=

####018000075####
SACN50 CWAO 080715
VOF SA 0715 AUTO8 M M M M/15/06/3503/M/M M 42MM=

####018000075####
SACN50 CWAO 080715
WHC SA 0715 AUTO8 M M M M/20/14/MMMM/M/M M 86MM=

####018000075####
SACN50 CWAO 080645
VOC SA 0645 AUTO8 M M M M/16/09/0401/M/M M 14MM=

####018003743####
SAUS99 KWBC 080718
METAR
PAAK 080716Z AUTO 08017G24KT 10SM BKN016 OVC026 07/04 A2964 RMK
     AO1 PNO=
PABL 080716Z AUTO 30008KT 10SM CLR 13/08 A3015 RMK AO1 PNO=
PABV 080716Z AUTO 18003KT 10SM OVC085 13/09 RMK AO1 PNO=
PADK 080716Z 06011KT 10SM 07/06 A2959 RMK AO1 PNO=
PADL 080716Z 30006KT 10SM BKN060 OVC120 11/08 A2997 RMK AO1 PNO
     TSNO=
PAEM 080716Z AUTO 36011KT 10SM CLR 13/07 A3004 RMK AO1 PNO=
PAFE 080716Z AUTO 00000KT 10SM CLR 12/10 A3018 RMK AO1 PNO=
PAFM 080716Z AUTO 00000KT 10SM CLR 18/10 A3010 RMK AO1 PNO=
PAGL 080716Z AUTO 34003KT 10SM FEW045 SCT080 17/11 A3013 RMK AO1
     PNO=
PAGS 080716Z AUTO 32003KT 10SM CLR 13/11 A3020 RMK AO1 PNO=
PAHP 080716Z AUTO 36006KT 10SM SCT070 SCT120 13/09 A3006 RMK AO1
     PNO TSNO=
PAHY 080716Z AUTO 00000KT 10SM CLR 17/11 A3011 RMK AO1 PNO=
PAII 080716Z AUTO 01005KT 10SM SCT023 OVC060 11/08 A2996 RMK AO1
     PNO=
PAIN 080716Z AUTO 00000KT 10SM CLR 14/07 A3008 RMK AO1 PNO=
PAJC 080716Z AUTO 33003KT 10SM BKN017 OVC024 11/06 A2994 RMK AO1
     PNO=
PAKK 080716Z AUTO 01009G14KT 10SM BKN085 17/09 A3004 RMK AO1
     PNO=
PAKP 080716Z AUTO 00000KT 10SM BKN034 BKN042 OVC050 11/04 A3009
     RMK AO1=
PAMD 080716Z AUTO 09019G26KT 3SM BKN004 OVC017 11/09 A3001 RMK AO1
     PNO=
PAMH 080716Z 00000KT 10SM CLR 16/07 A2999 RMK AO1 PNO=
PAMM 080716Z AUTO 35007KT 10SM CLR 21/11 A3009 RMK AO1 PNO=
PAMY 080716Z 29006KT 3/4SM OVC002 06/05 A3007 RMK AO1=
PANI 080716Z AUTO 00000KT 10SM BKN070 BKN090 OVC110 14/09 A3000
     RMK AO1 PNO=
PANV 080716Z AUTO 21003KT 10SM BKN075 OVC090 16/08 A3000 RMK AO1
     PNO=
PAPG 080716Z 04004KT 10SM CLR 13/11 A3014 RMK AO1 PNO=
PAPH 080716Z AUTO 01007KT 10SM FEW048 07/04 A2998 RMK AO1 PNO=
PARC 080716Z AUTO 00000KT 10SM CLR 12/01 A3001 RMK AO1 PNO=
PASA 080716Z AUTO 05005KT 10SM CLR 08/05 A3020 RMK AO1 PNO=
PASD 080716Z AUTO 11004KT 10SM OVC050 09/04 A2996 RMK AO1 PNO=
PASH 080716Z AUTO 03005KT 9SM CLR 07/05 A3019 RMK AO1 PNO=
PASK 080716Z 27005KT 10SM CLR 16/09 A3011 RMK AO1 PNO=
PASL 080716Z AUTO 00000KT 10SM FEW100 SCT120 14/08 A3002 RMK AO1
     PNO=
PASM 080716Z AUTO 29006KT 10SM OVC100 11/08 A3006 RMK AO1 PNO=
PAUN 080716Z AUTO 33005KT 10SM CLR 16/11 A3002 RMK AO1 PNO=
PAVD 080716Z 00000KT 10SM OVC090 10/07 A3011 RMK AO1 PNO=
PAWG 080716Z AUTO 28005KT 10SM CLR 15/11 A3013 RMK AO1 PNO=
PAWN 080716Z AUTO 31006KT 10SM CLR 15/05 A3012 RMK AO1 PNO=
PAWS 080716Z AUTO 03004KT 10SM BKN090 14/07 A3001 RMK AO1 PNO=
PAZK 080716Z AUTO 01006KT 10SM FEW055 10/04 A3010 RMK AO1 PNO=
K04W 080714Z AUTO 00000KT 10SM CLR 18/17 A3006 RMK AO2
     T01810170=
K1A6 080715Z AUTO 00000KT 4SM BR CLR 22/22 A3010 RMK AO2=
K1P1 080715Z AUTO 00000KT 2 1/2SM BR CLR 22/21 A3005 RMK AO2
     T02240212=
K21D 080718Z AUTO 31004KT 10SM CLR 19/17 A3006 RMK AO2=
KBJI 080714Z AUTO 20004KT 10SM CLR 15/14 A3004 RMK AO2=
KBUU 080714Z AUTO 19003KT 7SM BKN090 BKN120 21/21 A3003 RMK
     AO2=
KC29 080715Z AUTO 00000KT 10SM SCT110 22/20 A3000 RMK AO2
     T02200201=
KD39 080714Z AUTO 00000KT 10SM CLR 16/15 A3010 RMK AO2
     T01610153=
KDLL 080715Z AUTO 24004KT 10SM -RA SCT004 SCT009 SCT022 21/20
     A3000 RMK AO2=
KE80 080715Z AUTO 27005KT 10SM CLR 20/11 A3022 RMK AO2
     T01950105=
KEDC 080715Z AUTO 06004KT OVC010 25/24 A2997 RMK AO2=
KEIK 080715Z AUTO 20003KT 10SM -DZ BKN085 OVC110 14/13 A3031 RMK
     AO2=
KEOE 080715Z AUTO 00000KT 10SM 23/20 A3003 RMK AO2=
KFMH 080715Z AUTO 16006KT 1 1/4SM BR OVC002 21/20 A3007 RMK
     AO2=
KHVS 080715Z AUTO 28004KT 10SM CLR 26/20 A2998 RMK AO2=
KIFP 080715Z AUTO 06005KT 10SM CLR 33/M02 A2971 RMK AO2=
KIWA 080716Z AUTO 00000KT 10SM CLR 33/04 A2979 RMK AO2=
####018000768####
SAUS99 KWBC 080718 RRA
METAR
KMAN 080715Z AUTO 00000KT 10SM CLR 18/09 A3002 RMK AO1=
KPVF 080715Z AUTO 00000KT 10SM CLR 22/12 A2993 RMK AO1=
KRBW 080715Z AUTO 28007KT 10SM CLR 23/20 A2998 RMK AO2=
KRCM 080715Z AUTO 00000KT 7SM OVC038 22/22 A3004 RMK AO2 LTG DSNT
     E=
KSNC 080715Z AUTO 11003KT 1 1/4SM BR OVC001 22/ A3006 RMK AO2=
KTME 080715Z AUTO 00000KT 6SM 25/25 A2994 RMK AO1=
KTZR 080716Z AUTO 00000KT 7SM CLR 22/19 A3008 RMK AO2=
KUOX 080715Z AUTO 00000KT 10SM CLR 23/21 A3007 RMK AO2=
KY51 080715Z AUTO 29005KT 5SM BKN002 OVC008 22/22 A3003 RMK AO1
     T02190217=
PAAK 080716Z AUTO 08017G24KT 10SM BKN016 OVC026 07/04 A2964 RMK
     AO1 PNO=
PAHP 080716Z AUTO 36006KT 10SM SCT070 SCT120 13/09 A3006 RMK AO1
     PNO TSNO=
####018000663####
SPUS99 KWBC 080718
SPECI
PAQT 080715Z AUTO 26010KT 10SM OVC028 13/07 A3002 RMK AO2 TSNO=
KBFD 080716Z AUTO 00000KT 1 1/2SM BR CLR 16/16 A3015 RMK AO2=
KHLC 080716Z AUTO 36006KT 10SM BKN026 17/16 A3020 RMK AO2=
KHWV 080716Z AUTO 00000KT 1 1/4SM BR OVC002 24/24 A3003 RMK AO2
     CIG 001V006=
KLUK 080716Z AUTO 00000KT 1 3/4SM BR CLR 22/22 A3007 RMK AO2=
KRHI 080716Z AUTO 25003KT 10SM OVC003 19/18 A3003 RMK AO2=
KRVS 080716Z 18004KT 2 1/2SM +RA BR SCT010 BKN013 OVC041 23/23
     A3002 RMK AO2 P0008=
KUGN 080716Z AUTO 23006KT 2 1/2SM +RA BR BKN030 BKN047 OVC090
     23/22 A3004 RMK AO2 VIS 1 1/4V4 LTG DSNT S TSB0658E13
     P0008=
####018000091####
SAAF14 LFPW 080700 RRB
METAR FEFF 080700Z 00000KT 9999 SCT013 OVC150 23/23 Q1015 NOSIG=
####018000091####
SAAF11 LFPW 080700 RRA
METAR FPST 080700Z 18010KT 9999 FEW020 BKN110 23/20 Q1014 NOSIG=
####018000078####
SAAF18 LFPW 080700 RRB
METAR FIMR 080700Z 12018KT 9999 SCT018 26/17 Q1021=
####018000173####
SAIN32 VIDP 080700
METAR VIJP 080700Z 06006KT 3500 HZ SCT030 SCT080 33/25 Q1007 NOSIG=
METAR VIDP 080700Z 13005KT 3200 HZ SCT030 FEW040CB SCT100 34/25 Q1006
    NOSIG=
####018000169####
SACN78 KWBC 080718
METAR CTNK 080700Z AUTO 00000KT 18/17 RMK AO1 SLP173 T01820169
58002=
METAR CXBI 080700Z AUTO 07001KT 20/19 RMK AO1 SLP167 T02030188
58006=
####018000302####
SACN95 KWBC 080718
METAR CWTY 080700Z AUTO 23002KT 25/22 RMK AO1 SLP140 T02490223
53002=
METAR CWWF 080700Z AUTO 28004KT 14/11 RMK AO1 SLP189 T01370114
50000=
METAR CWWF 080700Z AUTO 28004KT 14/11 RMK AO1 SLP189 T01370114
50000=
METAR CWWA 080715Z AUTO 36003KT 21/09 RMK AO1 T02090089=
####018000328####
SACN89 KWBC 080718
METAR CWCF 080700Z AUTO 30010KT 16/11 RMK AO1 PK WND 28024/0625
T01630111 52001=
METAR CWCJ 080700Z AUTO 09004KT 16/16 RMK AO1 SLP143 T01600157
58014=
METAR CWDK 080700Z AUTO 01002KT 10/08 RMK AO1 SLP229 T00980079
51005=
METAR CWDK 080700Z AUTO 01002KT 10/08 RMK AO1 SLP229 T00980079
51005=
####018000169####
SACN86 KWBC 080718
METAR CWPO 080700Z AUTO 24005KT 13/13 RMK AO1 SLP183 T01340125
55001=
METAR CWNC 080700Z AUTO 05001KT 22/21 RMK AO1 SLP158 T02220214
58004=
####018000994####
SACN97 KWBC 080718
METAR CXKT 080700Z AUTO 03001KT 16/16 RMK AO1 T01600158=
METAR CXKT 080700Z AUTO 03001KT 16/16 RMK AO1 T01600158=
METAR CXKT 080700Z AUTO 03001KT 16/16 RMK AO1 T01600158=
METAR CXKT 080700Z AUTO 03001KT 16/16 RMK AO1 T01600158=
METAR CXKT 080700Z AUTO 03001KT 16/16 RMK AO1 T01600158=
METAR CXKT 080700Z AUTO 03001KT 16/16 RMK AO1 T01600158=
METAR CXCA 080700Z AUTO 00000KT 18/15 RMK AO1 SLP154 T01750152
56009=
METAR CXEC 080700Z AUTO 16/14 RMK AO1 T01640136=
METAR CXEG 080700Z AUTO 11/11 RMK AO1 T01140114=
METAR CXGH 080700Z AUTO 27004KT 15/15 RMK AO1 T01510151=
METAR CXMD 080700Z AUTO 27007KT 16/12 RMK AO1 SLP148 T01630120
57002=
METAR CXKT 080700Z AUTO 03001KT 16/16 RMK AO1 T01600158=
METAR CXMD 080700Z AUTO 27007KT 16/12 RMK AO1 SLP148 T01630120
57002=
METAR CXKT 080700Z AUTO 03001KT 16/16 RMK AO1 T01600158=
METAR CXKT 080700Z AUTO 03001KT 16/16 RMK AO1 T01600158=
METAR CXKT 080700Z AUTO 03001KT 16/16 RMK AO1 T01600158=
####018002241####
SACN88 KWBC 080718
METAR CWAR 080700Z AUTO 20003KT 11/10 RMK AO1 SLP233 T01070100
53005=
METAR CXNP 080700Z AUTO 19009KT 18/17 RMK AO1 SLP186 T01820168
54000=
METAR CZDB 080700Z AUTO 28002KT 16/16 RMK AO1 SLP193 T01630158
50000=
METAR CWAR 080700Z AUTO 20003KT 11/10 RMK AO1 SLP233 T01070100
53005=
METAR CXNP 080700Z AUTO 19009KT 18/17 RMK AO1 SLP186 T01820168
54000=
METAR CZDB 080700Z AUTO 28002KT 16/16 RMK AO1 SLP193 T01630158
50000=
METAR CWAR 080700Z AUTO 20003KT 11/10 RMK AO1 SLP233 T01070100
53005=
METAR CXNP 080700Z AUTO 19009KT 18/17 RMK AO1 SLP186 T01820168
54000=
METAR CZDB 080700Z AUTO 28002KT 16/16 RMK AO1 SLP193 T01630158
50000=
METAR CWAR 080700Z AUTO 20003KT 11/10 RMK AO1 SLP233 T01070100
53005=
METAR CXNP 080700Z AUTO 19009KT 18/17 RMK AO1 SLP186 T01820168
54000=
METAR CZDB 080700Z AUTO 28002KT 16/16 RMK AO1 SLP193 T01630158
50000=
METAR CWAR 080700Z AUTO 20003KT 11/10 RMK AO1 SLP233 T01070100
53005=
METAR CXNP 080700Z AUTO 19009KT 18/17 RMK AO1 SLP186 T01820168
54000=
METAR CZDB 080700Z AUTO 28002KT 16/16 RMK AO1 SLP193 T01630158
50000=
METAR CWAR 080700Z AUTO 20003KT 11/10 RMK AO1 SLP233 T01070100
53005=
METAR CXNP 080700Z AUTO 19009KT 18/17 RMK AO1 SLP186 T01820168
54000=
METAR CZDB 080700Z AUTO 28002KT 16/16 RMK AO1 SLP193 T01630158
50000=
METAR CWAR 080700Z AUTO 20003KT 11/10 RMK AO1 SLP233 T01070100
53005=
METAR CXNP 080700Z AUTO 19009KT 18/17 RMK AO1 SLP186 T01820168
54000=
METAR CZDB 080700Z AUTO 28002KT 16/16 RMK AO1 SLP193 T01630158
50000=
METAR CWAR 080700Z AUTO 20003KT 11/10 RMK AO1 SLP233 T01070100
53005=
METAR CXNP 080700Z AUTO 19009KT 18/17 RMK AO1 SLP186 T01820168
54000=
METAR CZDB 080700Z AUTO 28002KT 16/16 RMK AO1 SLP193 T01630158
50000=
METAR CWAR 080700Z AUTO 20003KT 11/10 RMK AO1 SLP233 T01070100
53005=
METAR CXNP 080700Z AUTO 19009KT 18/17 RMK AO1 SLP186 T01820168
54000=
METAR CZDB 080700Z AUTO 28002KT 16/16 RMK AO1 SLP193 T01630158
50000=
METAR CWAR 080700Z AUTO 20003KT 11/10 RMK AO1 SLP233 T01070100
53005=
METAR CXNP 080700Z AUTO 19009KT 18/17 RMK AO1 SLP186 T01820168
54000=
METAR CZDB 080700Z AUTO 28002KT 16/16 RMK AO1 SLP193 T01630158
50000=
####018000095####
SACN87 KWBC 080718
METAR CWJD 080700Z AUTO 31005KT 15/11 RMK AO1 SLP134 T01460105
51001=
####018000169####
SACN96 KWBC 080718
METAR CWZA 080700Z AUTO 29001KT 19/17 RMK AO1 SLP142 T01880169
51017=
METAR CXKA 080700Z AUTO 20003KT 20/17 RMK AO1 SLP120 T01980173
58013=
####018000376####
SACN91 KWBC 080718
METAR CWII 080700Z AUTO 31013KT 19/15 RMK AO1 T01930149=
METAR CWIW 080700Z AUTO 28006KT 12/10 RMK AO1 SLP197 T01150103
50003=
METAR CWIY 080700Z AUTO 00000KT 22/21 RMK AO1 SLP155 T02190208
55003=
METAR CWIY 080700Z AUTO 00000KT 22/21 RMK AO1 SLP155 T02190208
55003=
METAR CWIY 080700Z AUTO 00000KT 22/21 RMK AO1 SLP155 T02190208
55003=
####018000737####
SACN93 KWBC 080718
METAR CWOC 080700Z AUTO 21001KT 16/14 RMK AO1 SLP148 T01550144
55002=
METAR CWPD 080700Z AUTO 22001KT 19/19 RMK AO1 SLP130 T01880187
58001=
METAR CWPF 080700Z AUTO 05004KT 17/14 RMK AO1 SLP134 T01660135
51008=
METAR CWPR 080700Z AUTO 31003KT 18/ RMK AO1 SLP176 T0180 53021=
METAR CWPD 080700Z AUTO 22001KT 19/19 RMK AO1 SLP130 T01880187
58001=
METAR CWPF 080700Z AUTO 05004KT 17/14 RMK AO1 SLP134 T01660135
51008=
METAR CWPR 080700Z AUTO 31003KT 18/ RMK AO1 SLP176 T0180 53021=
METAR CWPD 080700Z AUTO 22001KT 19/19 RMK AO1 SLP130 T01880187
58001=
METAR CWPF 080700Z AUTO 05004KT 17/14 RMK AO1 SLP134 T01660135
51008=
METAR CWPR 080700Z AUTO 31003KT 18/ RMK AO1 SLP176 T0180 53021=
####018000309####
SACN92 KWBC 080718
METAR CWJR 080700Z AUTO 35005KT 19/ RMK AO1 SLP193 T0192 51012=
METAR CWJX 080700Z AUTO 23006KT 13/12 RMK AO1 SLP206 T01260116
51004=
METAR CWKG 080700Z AUTO 00000KT 17/16 RMK AO1 SLP203 T01670163
58009=
METAR CWMQ 080700Z AUTO 20005KT 11/09 RMK AO1 SLP212 T01100090
50001=
####018000169####
SACN90 KWBC 080718
METAR CWEZ 080700Z AUTO 02003KT 21/15 RMK AO1 SLP137 T02050146
51009=
METAR CWFF 080700Z AUTO 25006KT 10/08 RMK AO1 SLP189 T00970075
50001=
####018000154####
SACN94 KWBC 080718
METAR CWSK 080715Z AUTO 03002KT 17/13 RMK AO1 T01710125=
METAR CWSR 080700Z AUTO 20003KT 09/09 RMK AO1 SLP186 T00880086
50001=
####018001501####
SACN85 KWBC 080718
METAR CWDO 080700Z AUTO 13010KT 09/08 RMK AO1 SLP207 T00900079
58007=
METAR CWSS 080700Z AUTO 20003KT 19/18 RMK AO1 SLP183 T01940182
55006=
METAR CWDO 080700Z AUTO 13010KT 09/08 RMK AO1 SLP207 T00900079
58007=
METAR CWSS 080700Z AUTO 20003KT 19/18 RMK AO1 SLP183 T01940182
55006=
METAR CWDO 080700Z AUTO 13010KT 09/08 RMK AO1 SLP207 T00900079
58007=
METAR CWSS 080700Z AUTO 20003KT 19/18 RMK AO1 SLP183 T01940182
55006=
METAR CWDO 080700Z AUTO 13010KT 09/08 RMK AO1 SLP207 T00900079
58007=
METAR CWSS 080700Z AUTO 20003KT 19/18 RMK AO1 SLP183 T01940182
55006=
METAR CWDO 080700Z AUTO 13010KT 09/08 RMK AO1 SLP207 T00900079
58007=
METAR CWSS 080700Z AUTO 20003KT 19/18 RMK AO1 SLP183 T01940182
55006=
METAR CWDO 080700Z AUTO 13010KT 09/08 RMK AO1 SLP207 T00900079
58007=
METAR CWSS 080700Z AUTO 20003KT 19/18 RMK AO1 SLP183 T01940182
55006=
METAR CWDO 080700Z AUTO 13010KT 09/08 RMK AO1 SLP207 T00900079
58007=
METAR CWSS 080700Z AUTO 20003KT 19/18 RMK AO1 SLP183 T01940182
55006=
METAR CWDO 080700Z AUTO 13010KT 09/08 RMK AO1 SLP207 T00900079
58007=
METAR CWSS 080700Z AUTO 20003KT 19/18 RMK AO1 SLP183 T01940182
55006=
METAR CWDO 080700Z AUTO 13010KT 09/08 RMK AO1 SLP207 T00900079
58007=
METAR CWSS 080700Z AUTO 20003KT 19/18 RMK AO1 SLP183 T01940182
55006=
METAR CWDO 080700Z AUTO 13010KT 09/08 RMK AO1 SLP207 T00900079
58007=
METAR CWSS 080700Z AUTO 20003KT 19/18 RMK AO1 SLP183 T01940182
55006=
####018001027####
SPUS70 KWBC 080718
SPECI
KACK 080715Z AUTO 12007KT 4SM BR OVC001 19/18 A3006 RMK AO2
     TSNO=
KAVX 080715Z AUTO 25003KT 1 1/4SM BR OVC001 11/11 A2994 RMK AO2
     VIS 3/4V2 TSNO=
KHOT 080715Z AUTO 00000KT 10SM SCT008 SCT011 24/23 A3006 RMK
     AO2=
KHYA 080715Z AUTO 18003KT 2 1/2SM BR OVC001 21/21 A3006 RMK
     AO2=
KJEF 080715Z AUTO 06005KT 2 1/2SM +RA BR FEW003 BKN025 OVC070
     24/23 A3004 RMK AO2 LTG DSNT E RAB0654 P0015=
KTQE 080715Z AUTO 34005KT 10SM BKN025 19/18 A3012 RMK AO2=
KBFD 080716Z AUTO 00000KT 1 1/2SM BR CLR 16/16 A3015 RMK AO2=
KHWV 080716Z AUTO 00000KT 1 1/4SM BR OVC002 24/24 A3003 RMK AO2
     CIG 001V006=
KLUK 080716Z AUTO 00000KT 1 3/4SM BR CLR 22/22 A3007 RMK AO2=
KRHI 080716Z AUTO 25003KT 10SM OVC003 19/18 A3003 RMK AO2=
KRVS 080716Z 18004KT 2 1/2SM +RA BR SCT010 BKN013 OVC041 23/23
     A3002 RMK AO2 P0008=
KUGN 080716Z AUTO 23006KT 2 1/2SM +RA BR BKN030 BKN047 OVC090
     23/22 A3004 RMK AO2 VIS 1 1/4V4 LTG DSNT S TSB0658E13
     P0008=
####018000315####
SPUS80 KWBC 080718
SPECI
KMWT 080714Z AUTO 00000KT 10SM OVC014 23/23 A3004 RMK AO2 TSNO=
KLBB 080715Z 00000KT 10SM -RA FEW006 SCT030 OVC120 21/19 A3014 RMK
     AO2 RAB08 P0000=
PAQT 080715Z AUTO 26010KT 10SM OVC028 13/07 A3002 RMK AO2 TSNO=
KHLC 080716Z AUTO 36006KT 10SM BKN026 17/16 A3020 RMK AO2=
####018000084####
SAUS80 KWBC 080700 RRF
METAR
KMWS 080700Z 15004G05KT 19/M01 RMK SNOW DEPTH M=
####018000261####
SAUS80 KWBC 080718
METAR
K4BM 080714Z AUTO 00000KT 2SM BR 04/03 A3064 RMK AO2=
KSMS 080715Z AUTO 28006KT 10SM CLR 26/19 A2998 RMK AO2=
PADK 080716Z 06011KT 10SM 07/06 A2959 RMK AO1 PNO=
KSNC 080715Z AUTO 11003KT 1 1/4SM BR OVC001 22/ A3006 RMK AO2=
####018003691####
SAUS70 KWBC 080718
METAR
KGTU 080715Z 09004KT 10SM OVC010 25/21 A3001 RMK AO1=
KHYI 080715Z AUTO 07007KT 10SM FEW016 SCT030 OVC043 25/23 A2995
     RMK AO1=
KILE 080715Z 13006KT 10SM BKN014 OVC020 25/22 A2997 RMK AO1=
KOCH 080715Z AUTO 11004KT 10SM CLR 24/19 A3000 RMK AO1=
KPRX 080715Z 15006KT 10SM BKN006 BKN013 24/22 A3001 RMK AO1=
KPWG 080715Z AUTO 14004KT 10SM CLR 25/22 A2999 RMK AO1=
KTPL 080715Z 11003KT 10SM BKN014 25/23 A2998 RMK AO1=
KTWM 080713Z AUTO 00000KT 10SM BKN050 BKN100 18/14 A3001 RMK
     AO2=
KULM 080715Z AUTO 29004KT 10SM CLR 15/13 A3010 RMK AO2=
KVQQ 080715Z AUTO 00000KT 10SM CLR 18/18 A3002 RMK AO2=
KVTP 080720Z AUTO 03005KT 10SM CLR 06/03 A3055 RMK AO2=
KWYS 080710Z AUTO 21003KT 10SM CLR 04/01 A3035 RMK AO2=
K0A9 080715Z AUTO 00000KT 8SM CLR 20/18 A3011 RMK=
K20V 080716Z AUTO 09003KT 10SM CLR 10/06 A3042 RMK AO2=
K5SM 080713Z AUTO 00000KT 10SM VCTS SCT050 BKN070 OVC110 08/05
     A3060 RMK AO2 LTG DSNT S=
K7BM 080716Z AUTO 00000KT 10SM OVC017 10/07 A3055 RMK AO2=
KAIT 080713Z AUTO 00000KT 1/2SM FG VV005 13/12 A3006 RMK AO2=
KBBB 080713Z AUTO 00000KT 5SM BR CLR 14/14 A3010 RMK AO2=
KBBG 080715Z AUTO 00000KT 5SM BR SCT027 23/23 A3007 RMK AO2=
KBBP 080715Z AUTO 29004KT 10SM SCT100 25/20 A2995 RMK AO2=
KBDU 080716Z AUTO 18004KT 10SM -RA BKN065 OVC085 16/13 A3029 RMK
     AO2=
KBJC 080717Z AUTO 33004KT 10SM OVC100 14/11 A3034 RMK AO2=
KBKN 080715Z AUTO 03004KT 10SM SCT060 BKN070 22/21 A3005 RMK
     AO2=
KCCU 080716Z AUTO 17009KT 10SM CLR 06/03 A3065 RMK AO2 LTG DSNT
     SW=
KCIC 080715Z AUTO 00000KT 10SM CLR 26/16 A2980 RMK AO1=
KCMR 080715Z AUTO 15009KT 10SM OVC100 16/01 A3024 RMK AO1=
KFFM 080713Z AUTO 21003KT 10SM CLR 16/14 A3007 RMK AO2=
KFGN 080714Z AUTO 25007KT 1 1/4SM HZ BKN100 17/13 A2996 RMK
     AO2=
KGDB 080713Z AUTO 25004KT 10SM CLR 14/14 A3013 RMK AO2
     T01400137=
KGGE 080715Z AUTO 27006KT 10SM CLR 25/22 A2994 RMK AO2=
KGHW 080713Z AUTO 22006KT 10SM CLR 14/13 A3013 RMK AO2=
KLUX 080715Z AUTO 26004KT 10SM CLR 22/22 A3002 RMK AO2=
KMAO 080715Z AUTO 28003KT 10SM SCT120 26/19 A2994 RMK AO2=
KMGG 080715Z AUTO 00000KT 10SM CLR 17/16 A3009 RMK AO2
     T01660155=
KMOX 080710Z AUTO 23005KT 10SM CLR 16/16 A3007 RMK AO2=
KMWM 080713Z AUTO 25003KT 10SM CLR 16/15 A3013 RMK AO2=
KMYP 080616Z AUTO 06011KT M1/4SM -SN OVC001 03/03 A3075 RMK
     AO2=
KNQA 080715Z AUTO 00000KT 10SM CLR 25/23 A3005 RMK=
KOUN 080716Z AUTO 00000KT 10SM SCT019 SCT023 SCT041 25/23 A3004
     RMK AO2=
KPNM 080713Z AUTO 00000KT 10SM CLR 16/14 A3008 RMK AO2=
KPQN 080713Z AUTO 30003KT 10SM CLR 16/14 A3016 RMK AO2=
KPWC 080713Z AUTO 00000KT 10SM BKN001 11/11 A3008 RMK AO2=
KRCE 080715Z AUTO 03004KT 10SM FEW013 23/22 A3006 RMK AO2=
KSRR 080715Z AUTO 18004KT 10SM FEW070 BKN095 13/11 A3036 RMK
     AO2=
PAAK 080716Z AUTO 08017G24KT 10SM BKN016 OVC026 07/04 A2964 RMK
     AO1 PNO=
PABL 080716Z AUTO 30008KT 10SM CLR 13/08 A3015 RMK AO1 PNO=
PABV 080716Z AUTO 18003KT 10SM OVC085 13/09 RMK AO1 PNO=
PADL 080716Z 30006KT 10SM BKN060 OVC120 11/08 A2997 RMK AO1 PNO
     TSNO=
PAEM 080716Z AUTO 36011KT 10SM CLR 13/07 A3004 RMK AO1 PNO=
PAFE 080716Z AUTO 00000KT 10SM CLR 12/10 A3018 RMK AO1 PNO=
PAFM 080716Z AUTO 00000KT 10SM CLR 18/10 A3010 RMK AO1 PNO=
PAGL 080716Z AUTO 34003KT 10SM FEW045 SCT080 17/11 A3013 RMK AO1
     PNO=
PAGS 080716Z AUTO 32003KT 10SM CLR 13/11 A3020 RMK AO1 PNO=
PAHP 080716Z AUTO 36006KT 10SM SCT070 SCT120 13/09 A3006 RMK AO1
     PNO TSNO=
PAHY 080716Z AUTO 00000KT 10SM CLR 17/11 A3011 RMK AO1 PNO=
PAII 080716Z AUTO 01005KT 10SM SCT023 OVC060 11/08 A2996 RMK AO1
     PNO=
####018003530####
SAUS70 KWBC 080718 RRA
METAR
PAIN 080716Z AUTO 00000KT 10SM CLR 14/07 A3008 RMK AO1 PNO=
PAJC 080716Z AUTO 33003KT 10SM BKN017 OVC024 11/06 A2994 RMK AO1
     PNO=
PAKK 080716Z AUTO 01009G14KT 10SM BKN085 17/09 A3004 RMK AO1
     PNO=
PAKP 080716Z AUTO 00000KT 10SM BKN034 BKN042 OVC050 11/04 A3009
     RMK AO1=
PAMD 080716Z AUTO 09019G26KT 3SM BKN004 OVC017 11/09 A3001 RMK AO1
     PNO=
PAMH 080716Z 00000KT 10SM CLR 16/07 A2999 RMK AO1 PNO=
PAMM 080716Z AUTO 35007KT 10SM CLR 21/11 A3009 RMK AO1 PNO=
PAMY 080716Z 29006KT 3/4SM OVC002 06/05 A3007 RMK AO1=
PANI 080716Z AUTO 00000KT 10SM BKN070 BKN090 OVC110 14/09 A3000
     RMK AO1 PNO=
PANV 080716Z AUTO 21003KT 10SM BKN075 OVC090 16/08 A3000 RMK AO1
     PNO=
PAPG 080716Z 04004KT 10SM CLR 13/11 A3014 RMK AO1 PNO=
PAPH 080716Z AUTO 01007KT 10SM FEW048 07/04 A2998 RMK AO1 PNO=
PARC 080716Z AUTO 00000KT 10SM CLR 12/01 A3001 RMK AO1 PNO=
PASA 080716Z AUTO 05005KT 10SM CLR 08/05 A3020 RMK AO1 PNO=
PASD 080716Z AUTO 11004KT 10SM OVC050 09/04 A2996 RMK AO1 PNO=
PASH 080716Z AUTO 03005KT 9SM CLR 07/05 A3019 RMK AO1 PNO=
PASK 080716Z 27005KT 10SM CLR 16/09 A3011 RMK AO1 PNO=
PASL 080716Z AUTO 00000KT 10SM FEW100 SCT120 14/08 A3002 RMK AO1
     PNO=
PASM 080716Z AUTO 29006KT 10SM OVC100 11/08 A3006 RMK AO1 PNO=
PAUN 080716Z AUTO 33005KT 10SM CLR 16/11 A3002 RMK AO1 PNO=
PAVD 080716Z 00000KT 10SM OVC090 10/07 A3011 RMK AO1 PNO=
PAWG 080716Z AUTO 28005KT 10SM CLR 15/11 A3013 RMK AO1 PNO=
PAWN 080716Z AUTO 31006KT 10SM CLR 15/05 A3012 RMK AO1 PNO=
PAWS 080716Z AUTO 03004KT 10SM BKN090 14/07 A3001 RMK AO1 PNO=
PAZK 080716Z AUTO 01006KT 10SM FEW055 10/04 A3010 RMK AO1 PNO=
K04W 080714Z AUTO 00000KT 10SM CLR 18/17 A3006 RMK AO2
     T01810170=
K1A6 080715Z AUTO 00000KT 4SM BR CLR 22/22 A3010 RMK AO2=
K1P1 080715Z AUTO 00000KT 2 1/2SM BR CLR 22/21 A3005 RMK AO2
     T02240212=
K21D 080718Z AUTO 31004KT 10SM CLR 19/17 A3006 RMK AO2=
KBJI 080714Z AUTO 20004KT 10SM CLR 15/14 A3004 RMK AO2=
KBUU 080714Z AUTO 19003KT 7SM BKN090 BKN120 21/21 A3003 RMK
     AO2=
KC29 080715Z AUTO 00000KT 10SM SCT110 22/20 A3000 RMK AO2
     T02200201=
KD39 080714Z AUTO 00000KT 10SM CLR 16/15 A3010 RMK AO2
     T01610153=
KDLL 080715Z AUTO 24004KT 10SM -RA SCT004 SCT009 SCT022 21/20
     A3000 RMK AO2=
KE80 080715Z AUTO 27005KT 10SM CLR 20/11 A3022 RMK AO2
     T01950105=
KEDC 080715Z AUTO 06004KT OVC010 25/24 A2997 RMK AO2=
KEIK 080715Z AUTO 20003KT 10SM -DZ BKN085 OVC110 14/13 A3031 RMK
     AO2=
KEOE 080715Z AUTO 00000KT 10SM 23/20 A3003 RMK AO2=
KFMH 080715Z AUTO 16006KT 1 1/4SM BR OVC002 21/20 A3007 RMK
     AO2=
KHVS 080715Z AUTO 28004KT 10SM CLR 26/20 A2998 RMK AO2=
KIFP 080715Z AUTO 06005KT 10SM CLR 33/M02 A2971 RMK AO2=
KIWA 080716Z AUTO 00000KT 10SM CLR 33/04 A2979 RMK AO2=
KMAN 080715Z AUTO 00000KT 10SM CLR 18/09 A3002 RMK AO1=
KPVF 080715Z AUTO 00000KT 10SM CLR 22/12 A2993 RMK AO1=
KRBW 080715Z AUTO 28007KT 10SM CLR 23/20 A2998 RMK AO2=
KRCM 080715Z AUTO 00000KT 7SM OVC038 22/22 A3004 RMK AO2 LTG DSNT
     E=
KTME 080715Z AUTO 00000KT 6SM 25/25 A2994 RMK AO1=
KTZR 080716Z AUTO 00000KT 7SM CLR 22/19 A3008 RMK AO2=
KUOX 080715Z AUTO 00000KT 10SM CLR 23/21 A3007 RMK AO2=
KY51 080715Z AUTO 29005KT 5SM BKN002 OVC008 22/22 A3003 RMK AO1
     T02190217=
PAAK 080716Z AUTO 08017G24KT 10SM BKN016 OVC026 07/04 A2964 RMK
     AO1 PNO=
PAHP 080716Z AUTO 36006KT 10SM SCT070 SCT120 13/09 A3006 RMK AO1
     PNO TSNO=
####018000094####
SAAF32 KWBC 080700 RRC
METAR
FPST 080700Z 18010KT 9999 FEW020 BKN110 23/20 Q1014 NOSIG=
####018000094####
SAAF34 KWBC 080700 RRB
METAR
FEFF 080700Z 00000KT 9999 SCT013 OVC150 23/23 Q1015 NOSIG=
####018001738####
SPZZ40 KAWN 080717 RRC
SPECI CWSA 080708Z AUTO 24007KT 1/8SM BKN001 OVC005 17/17 A3017=
SPECI CWZZ 080715Z AUTO ///// 9SM BKN027 09/ A2983=
SPECI CYKF 080716Z AUTO 00000KT 3SM BR CLR 20/19 A3006 RMK SLP177 DENSITY
      ALT 1700FT VIS VRB 1 1/4-3=
SPECI CYKL 080713Z AUTO 15004KT 130V190 9SM -RA OVC041 OVC096 13/13
      A2989=
SPECI CYPQ 080715Z AUTO ///// 1/2SM CLR 21/21 A3003 RMK VSBY VRBL 0.2V5.0=
SPECI CYSC 080716Z AUTO 00000KT 3SM BR FEW056 SCT140 21/20 A3002 RMK
      SLP165 DENSITY ALT 1500FT=
SPECI CYUA 080713Z AUTO 31016KT 9SM OVC004 OVC011 OVC013 05/ A3007=
SPECI EGUN 080711Z AUTO 25008KT 9999 -RA FEW007 BKN016 OVC022 17/17
      A3006 RMK AO2 VIS 3200 RWY11 RAB0711 CIG 014V019 SLP170=
SPECI EHGR 080714Z AUTO 23005KT 9999NDV FEW300 24/13 Q1019 BLU BLU=
SPECI EHVK 080713Z AUTO 20005KT 9999NDV NCD 25/12 Q1019 BLU BLU=
SPECI KWRI 080715Z AUTO 00000KT 3SM R18/5500VP6000FT R24/2800FT BR
      OVC001 24/24 A2999 RMK AO2 SLP156 $=
PACZ SP 0715 AWOS MM 10 54/51/0509/006=
PAEH SP 0715 AWOS M20 BKN 49 OVC 10 49/-19/0000/000=
PAIM SP 0715 AWOS CLR BLO 120 10 60/44/0000/008=
PALU SP 0715 AWOS CLR BLO 120 10 55/34/2223/009=
PASV SP 0715 AWOS M90 BKN 10 50/49/0000/996=
PATL SP 0715 AWOS CLR BLO 120 10 63/42/0404/999=
SPECI PGUA 080712Z AUTO 07014KT 10SM SCT017 BKN024 28/ A2986 RMK AO2
      CIG 021V026 BKN V SCT SLP092 VISNO RWY24L $=
SPECI PGUA 080716Z AUTO 07014KT 10SM SCT017 SCT023 28/ A2986 RMK AO2
      SCT023 V BKN SLP092 VISNO RWY24L $=
SPECI PHHI 080716Z AUTO 03004KT 9SM -RA SCT033 BKN055 22/18 A3006 RMK
      AO2 RAB0716 SLP169=
SPECI RJTH 080707Z 21010KT 180V250 9999 SHRA FEW008 BKN013 BKN025 25/23
      Q1011 RMK 2ST008 5CU013 6CU025 A2988=
####018000113####
SAAS31 KWBC 080705 RRB
METAR
VIDP 080700Z 13005KT 3200 HZ SCT030 FEW040CB SCT100 34/25 Q1006
     NOSIG=
####018000088####
SACA31 KWBC 080700 RRB
METAR
MKJP 080700Z 11012KT 9999 FEW020 BKN220 27/20 Q1013=
####018000081####
SACA33 KWBC 080700 RRB
METAR
TNCM 080700Z 10008KT 9999 SCT018 28/24 Q1015=
####018000091####
SAUK31 KWBC 080650 RRB
METAR
EGHH 080650Z 24005KT 5000 BR SCT007 BKN015 17/17 Q1019=
####018000222####
SAXX99 KWBC 080700 RRO
METAR
CYRT 080700Z 09011KT 1/4SM -RA FG VV001 05/05 A2960 RMK FG8
     SLP026=
VIJP 080700Z 06006KT 3500 HZ SCT030 SCT080 33/25 Q1007 NOSIG=
VTPH 080700Z 09006KT 9999 FEW030 34/22 Q1008=
####018000083####
SAUS41 KWBC 080700 RRD
METAR
KPQI 080715Z AUTO 19004KT 10SM CLR 22/19 A2997=
####018000095####
SPUS44 KWBC 080718
SPECI
KLBB 080715Z 00000KT 10SM -RA FEW006 SCT030 OVC120 21/19 A3014=
####018000093####
SAUS43 KWBC 080700 RRD
METAR
KCIU 080715Z AUTO 17006KT 10SM BKN080 OVC120 19/17 A2998=
####018000089####
SPUS52 KWBC 080718
SPECI
KHOT 080715Z AUTO 00000KT 10SM SCT008 SCT011 24/23 A3006=
####018000083####
SAUS44 KWBC 080700 RRD
METAR
KGDV 080715Z AUTO 20005KT 10SM CLR 13/08 A3017=
####018000083####
SAUS51 KWBC 080700 RRB
METAR
KMYR 080715Z AUTO 28009KT 10SM CLR 26/21 A2996=
####018000131####
SAAO32 GOOY 080700 RRA
METAR GGOV 080700Z 17006KT 140V200 9999 FEW009 SCT014TCU FEW020CB
      BKN090 26/25 Q1012  NOSIG=

####018000442####
SAUS53 KWBC 080700 RRF
METAR
KANW 080710Z AUTO 00000KT 10SM OVC110 17/15 A3023=
KBIE 080710Z AUTO 36005KT 5SM BR SCT009 20/19 A3011=
KDVL 080715Z AUTO 27005KT 10SM CLR 15/11 A3006=
KEAR 080715Z AUTO 34003KT 10SM CLR 16/14 A3022=
KGPZ 080715Z AUTO 18003KT 9SM CLR 13/11 A3006=
KJAC 080715Z AUTO 01014KT 10SM CLR 12/M01 A3031=
KONL 080710Z AUTO 27003KT 10SM OVC110 16/14 A3021=
KUDG 080715Z 27006KT 10SM FEW100 27/18 A2998=
####018000226####
SAUS54 KWBC 080700 RRB
METAR
KIZA 080709Z AUTO 00000KT 10SM OVC009 14/11 A2992=
KMWS 080700Z 15004G05KT 19/M01=
KSOW 080710Z AUTO 16008KT 10SM SCT110 22/04 A3022=
KTRK 080710Z AUTO 00000KT 10SM FEW110 14/08 A3016=
####018000094####
SAJP36 RJTD 080700 RRC
METAR RJNK 080700Z 33004KT 270V030 9000 FEW025 BKN200 27/21 Q1009=
####018000111####
SATH33 VTBB 080700 RRA
METAR VTUU 080700Z 22006KT 9999 FEW025 SCT300 35/22 Q1006 A2971
           NOSIG=
####018000089####
SPUS72 KWBC 080718
SPECI
KHOT 080715Z AUTO 00000KT 10SM SCT008 SCT011 24/23 A3006=
####018000095####
SPUS72 KWBC 080718
SPECI
KLBB 080715Z 00000KT 10SM -RA FEW006 SCT030 OVC120 21/19 A3014=
####018000131####
SAUS72 KWBC 080700 RRD
METAR
KLRU 080711Z AUTO 04010KT 10SM CLR 21/14 A3016=
TNCM 080700Z 10008KT 9999 SCT018 28/24 Q1015=
####018000290####
SAUS73 KWBC 080700 RRE
METAR
KBJC 080717Z AUTO 33004KT 10SM OVC100 14/11 A3034=
KCIU 080715Z AUTO 17006KT 10SM BKN080 OVC120 19/17 A2998=
KEGE 080715Z 29006KT 10SM CLR 12/10 A3037=
KJAC 080715Z AUTO 01014KT 10SM CLR 12/M01 A3031=
KLBL 080715Z 06010KT 10SM BKN041 20/17 A3019=
####018000437####
SALY31 HLMC 080700
METAR HLLB 080650Z 01010KT 8000 FEW020 28/19 Q1016=
METAR HLLS 080650Z 09018KT CAVOK 29/09 Q1017=
METAR HLLT 080650Z VRB02KT 7000 BKN016 25/19 Q1019=
METAR HLGD 080700Z NIL=
METAR HLGT 080700Z NIL=
METAR HLJA 080700Z NIL=
METAR HLKF 080700Z NIL=
METAR HLKM 080700Z NIL=
METAR HLLM 080700Z NIL=
METAR HLMI 080700Z NIL=
METAR HLNT 080700Z NIL=
METAR HLON 080700Z NIL=
METAR HLTD 080700Z NIL=
####018000081####
SAUS74 KWBC 080700 RRC
METAR
KOTH 080715Z 23004KT 10SM OVC008 11/08 A3000=
####018000095####
SPUS81 KWBC 080718
SPECI
KLBB 080715Z 00000KT 10SM -RA FEW006 SCT030 OVC120 21/19 A3014=
####018000087####
SPEW32 LEMM 080718
SPECI LECO 080718Z 02010KT 340V070 1500 -RA BKN003 19/19 Q1016=
####018000128####
SAAO32 GOOY 080700 RRA
METAR GGOV 080700Z 17006KT 140V200 9999 FEW009 SCT014TCU FEW020CB
      BKN090 26/25 Q1012  NOSIG=
####018002941####
SAUS20 KNKA 080718
METAR K14Y 080718Z AUTO 00000KT 5SM BR CLR 15/14 A3010 RMK AO2 
     T01450142=
METAR K4M9 080715Z AUTO 19005KT 10SM BKN039 25/25 A3005 RMK AO2 =
METAR KAEJ 080715Z AUTO 00000KT 10SM OVC046 10/07 A3046 RMK AO2=
METAR KAIG 080715Z AUTO 29003KT 2 1/2SM BR OVC003 19/19 A3000 RMK 
     AO2=
SPECI KAMW 080717Z AUTO 35008KT 10SM BKN019 21/19 A3008 RMK AO2=
METAR KARV 080712Z AUTO 29003KT 10SM CLR 19/18 A3003 RMK AO2 
     T01870177=
METAR KATW 080715Z AUTO 21007KT 10SM -RA SCT034 SCT060 BKN065 
     21/20 A3000 RMK AO2 P0001=
METAR KBVU 080715Z AUTO 33004KT 10SM CLR 26/02 A2984 RMK AO2 =
METAR KBWP 080711Z AUTO 25004KT 10SM CLR 16/14 A3008 RMK AO1 
     T01560137=
METAR KCWA 080715Z AUTO 00000KT 10SM SCT006 20/20 A3000 RMK AO2 
     T01980198=
METAR KDCM 080715Z AUTO 31003KT 7SM CLR 22/21 A3000 RMK AO2=
METAR KDVK 080717Z AUTO 00000KT 7SM 21/19 A3009 RMK AO1=
METAR KEFT 080715Z AUTO 00000KT 10SM BKN080 OVC110 21/19 A3000 
     RMK AO2 T02100193=
METAR KEGV 080712Z AUTO 27003KT 4SM BR BKN002 OVC013 19/19 A3002 
     RMK AO2 T01910192=
METAR KETB 080712Z AUTO 28004KT 10SM SCT100 BKN120 22/21 A3001 
     RMK AO2 T02240206=
METAR KEZS 080715Z AUTO 00000KT 7SM -RA BKN005 OVC013 22/21 A2997 
     RMK AO2 P0001 T02200212=
METAR KGLW 080713Z AUTO 08004KT 7SM CLR 22/20 A3007 RMK AO2 
     T02150199=
METAR KGYH 080715Z AUTO 29003KT 10SM CLR 23/19 A3003 RMK AO2=
METAR KHFJ 080715Z AUTO 00000KT 7SM SCT060 23/23 A3003 RMK AO1=
METAR KHYW 080715Z AUTO 00000KT 7SM BKN120 25/23 A2994 RMK AO2=
METAR KJVL 080715Z AUTO 00000KT 10SM SCT050 OVC080 23/20 A3001 
     RMK AO2 T02260200=
METAR KLCK 080715Z AUTO 00000KT 5SM HZ CLR 23/21 A3007 RMK AO2 
     T02340205=
SPECI KLHX 080717Z AUTO 34011KT 7SM RA FEW024 OVC065 16/15 A3031 RMK 
    AO2 PNO $=
METAR KLNL 080715Z AUTO 00000KT 5SM BR CLR 19/18 A3002 RMK AO2 
     T01850180=
METAR KLUM 080715Z AUTO 27004KT 10SM SCT055 SCT070 20/19 A3003 
     RMK AO2=
SPECI KMCI 080717Z 35003KT 9SM SCT008 BKN016 OVC045 23/22 A3008 RMK 
    AO2 $=
METAR KMCJ 080715Z AUTO 12011G18KT 9SM CLR 27/24 A2990 RMK AO1 =
METAR KMWO 080715Z AUTO 00000KT 4SM BR CLR 21/20 A3008 RMK AO2=
SPECI KMWT 080714Z AUTO 00000KT 10SM OVC014 23/23 A3004 RMK AO2
     TSNO=
METAR KPVB 080713Z AUTO 00000KT 10SM BKN120 20/19 A3002 RMK AO1 
     T01960188=
METAR KRZN 080714Z AUTO 31006KT 10SM OVC047 20/16 A3005 RMK AO2 
     T01970162=
METAR KSME 080715Z AUTO 00000KT 5SM BR 21/20 A3008 RMK AO2=
SPECI KSSF 080717Z AUTO 07006KT 10SM BKN019 26/23 A2993 RMK AO2=
SPECI KSTJ 080717Z AUTO 20008KT 5SM BR BKN004 OVC120 23/22 A3007 RMK 
    AO2=
METAR KUNI 080715Z AUTO 00000KT 1 1/2SM HZ VV007 23/18 A3007 RMK 
     AO2 T02270182=
METAR KVES 080714Z AUTO 00000KT 7SM CLR 21/20 A3007 RMK AO2 
     T02100196=
METAR KY63 080720Z AUTO 20005KT 10SM CLR 16/15 A3009 RMK AO2 
     T01550145=
####018000123####
SPCN31 CWAO 080718
SPECI CYFC 080718Z AUTO 20006KT 8SM BKN010 19/18 A3003 RMK SLP172
 DENSITY ALT 400FT RVR MISG=

####018003541####
SAUS99 KWBC 080719 RRA
METAR
KMJQ 080712Z AUTO 29003KT 7SM CLR 15/15 A3013 RMK AO2=
KHCO 080714Z AUTO 00000KT 10SM CLR 13/13 A3004 RMK AO2=
KLVN 080708Z AUTO 31006KT 10SM CLR 19/17 A3007 RMK AO2=
KPEX 080713Z AUTO 24003KT 7SM CLR 14/13 A3010 RMK AO2
     T01360134=
KJMR 080718Z AUTO 00000KT 7SM CLR 15/13 A3008 RMK AO2=
KJKJ 080714Z AUTO 23004KT 10SM CLR 17/16 A3005 RMK AO2=
KMVE 080714Z AUTO 29004KT 10SM CLR 18/16 A3010 RMK AO2=
KTKC 080713Z AUTO 25005KT 10SM CLR 15/14 A3014 RMK AO2
     T01540137=
KGYL 080714Z AUTO 00000KT 10SM CLR 17/15 A3008 RMK AO2
     T01650152=
KDXX 080714Z AUTO 00000KT 10SM CLR 15/15 A3010 RMK AO2=
KHZX 080711Z AUTO 00000KT 4SM CLR 14/14 A3007 RMK AO2=
KSAZ 080714Z AUTO 00000KT 10SM CLR 14/14 A3008 RMK AO2=
KONA 080711Z AUTO 31004KT 10SM CLR 20/18 A3001 RMK AO2=
KOVL 080714Z AUTO 00000KT 10SM CLR 14/12 A3010 RMK AO2
     T01400123=
KLJF 080712Z AUTO 00000KT 10SM CLR 16/16 A3010 RMK AO2=
KAEL 080710Z AUTO 31004KT 10SM CLR 18/17 A3007 RMK AO2=
K29G 080714Z AUTO 00000KT 7SM CLR 20/18 A3009 RMK AO2 T02000181
     PWINO=
KMRT 080713Z AUTO 00000KT 5SM CLR 21/19 A3011 RMK AO2
     T02110191=
KIKW 080714Z AUTO 3SM BR CLR 22/21 A3001 RMK AO2 T02160206=
KMDS 080705Z AUTO 28004KT 10SM CLR 15/15 A3017 RMK AO2=
K14Y 080718Z AUTO 00000KT 5SM BR CLR 15/14 A3010 RMK AO2
     T01450142=
K4M9 080715Z AUTO 19005KT 10SM BKN039 25/25 A3005 RMK AO2=
KAEJ 080715Z AUTO 00000KT 10SM OVC046 10/07 A3046 RMK AO2=
KAIG 080715Z AUTO 29003KT 2 1/2SM BR OVC003 19/19 A3000 RMK
     AO2=
KARV 080712Z AUTO 29003KT 10SM CLR 19/18 A3003 RMK AO2
     T01870177=
KATW 080715Z AUTO 21007KT 10SM -RA SCT034 SCT060 BKN065 21/20
     A3000 RMK AO2 P0001=
KBVU 080715Z AUTO 33004KT 10SM CLR 26/02 A2984 RMK AO2=
KBWP 080711Z AUTO 25004KT 10SM CLR 16/14 A3008 RMK AO1
     T01560137=
KCWA 080715Z AUTO 00000KT 10SM SCT006 20/20 A3000 RMK AO2
     T01980198=
KDCM 080715Z AUTO 31003KT 7SM CLR 22/21 A3000 RMK AO2=
KDVK 080717Z AUTO 00000KT 7SM 21/19 A3009 RMK AO1=
KEFT 080715Z AUTO 00000KT 10SM BKN080 OVC110 21/19 A3000 RMK AO2
     T02100193=
KEGV 080712Z AUTO 27003KT 4SM BR BKN002 OVC013 19/19 A3002 RMK AO2
     T01910192=
KETB 080712Z AUTO 28004KT 10SM SCT100 BKN120 22/21 A3001 RMK AO2
     T02240206=
KEZS 080715Z AUTO 00000KT 7SM -RA BKN005 OVC013 22/21 A2997 RMK
     AO2 P0001 T02200212=
KGLW 080713Z AUTO 08004KT 7SM CLR 22/20 A3007 RMK AO2
     T02150199=
KGYH 080715Z AUTO 29003KT 10SM CLR 23/19 A3003 RMK AO2=
KHFJ 080715Z AUTO 00000KT 7SM SCT060 23/23 A3003 RMK AO1=
KHYW 080715Z AUTO 00000KT 7SM BKN120 25/23 A2994 RMK AO2=
KJVL 080715Z AUTO 00000KT 10SM SCT050 OVC080 23/20 A3001 RMK AO2
     T02260200=
KLCK 080715Z AUTO 00000KT 5SM HZ CLR 23/21 A3007 RMK AO2
     T02340205=
KLNL 080715Z AUTO 00000KT 5SM BR CLR 19/18 A3002 RMK AO2
     T01850180=
KLUM 080715Z AUTO 27004KT 10SM SCT055 SCT070 20/19 A3003 RMK
     AO2=
KMCJ 080715Z AUTO 12011G18KT 9SM CLR 27/24 A2990 RMK AO1=
KMWO 080715Z AUTO 00000KT 4SM BR CLR 21/20 A3008 RMK AO2=
KPVB 080713Z AUTO 00000KT 10SM BKN120 20/19 A3002 RMK AO1
     T01960188=
KRZN 080714Z AUTO 31006KT 10SM OVC047 20/16 A3005 RMK AO2
     T01970162=
KSME 080715Z AUTO 00000KT 5SM BR 21/20 A3008 RMK AO2=
KUNI 080715Z AUTO 00000KT 1 1/2SM HZ VV007 23/18 A3007 RMK AO2
     T02270182=
KVES 080714Z AUTO 00000KT 7SM CLR 21/20 A3007 RMK AO2
     T02100196=
KY63 080720Z AUTO 20005KT 10SM CLR 16/15 A3009 RMK AO2
     T01550145=
####018000350####
SAPO61 LPAM 080700
METAR LPBJ 080700Z 15004KT CAVOK 22/19 Q1015=
METAR LPMR 080700Z 14004KT 9999 FEW005 19/17 Q1014=
METAR LPMT 080700Z 02005KT CAVOK 20/18 Q1014 CLD5 FEW220 BLU=
METAR LPOV 080700Z 17008KT 6000 FEW005 19/17 Q1013=
METAR LPST 080700Z VRB02KT 9999 FEW003 17/17 Q1014=
METAR LPLA 080700Z 17003KT 9999 FEW018 BKN028 19/18 Q1024=
####018000455####
SPUS99 KWBC 080719
SPECI
KAMW 080717Z AUTO 35008KT 10SM BKN019 21/19 A3008 RMK AO2=
KLHX 080717Z AUTO 34011KT 7SM RA FEW024 OVC065 16/15 A3031 RMK AO2
     PNO $=
KMCI 080717Z 35003KT 9SM SCT008 BKN016 OVC045 23/22 A3008 RMK AO2
     $=
KMWT 080714Z AUTO 00000KT 10SM OVC014 23/23 A3004 RMK AO2 TSNO=
KSSF 080717Z AUTO 07006KT 10SM BKN019 26/23 A2993 RMK AO2=
KSTJ 080717Z AUTO 20008KT 5SM BR BKN004 OVC120 23/22 A3007 RMK
     AO2=
####018000082####
SALT33 EYVI 080720
METAR EYPA 080720Z 33006KT 250V050 CAVOK 19/15 Q1017 NOSIG=
####018000126####
SAAO32 GOOY 080700 RRA
METAR GGOV 080700Z 17006KT 140V200 9999 FEW009 SCT014TCU FEW020CB
      BKN090 26/25 Q1012  NOSIG=
####018000104####
SAIY42 LIIB 080700 RRA
METAR LIQW 080655Z 29005KT CAVOK 26/20 Q1019 RMK SKC VIS MIN 9999
      BLU=
####018003714####
SAUS99 KWBC 080719
METAR
KFKA 080722Z AUTO 31006KT 7SM CLR 20/19 A3006 RMK AO2
     T01960190=
KFPK 080716Z AUTO 00000KT 3SM BR CLR 21/20 A3003 RMK AO2=
KMOP 080714Z AUTO 00000KT 5SM BR CLR 22/22 A3002 RMK AO2=
KCAD 080714Z AUTO 23003KT 10SM SCT110 22/21 A3004 RMK AO2=
KMGN 080714Z AUTO 00000KT 7SM BKN100 21/20 A2998 RMK AO2=
KHAI 080715Z AUTO 00000KT 7SM CLR 22/21 A3005 RMK AO2=
KLWA 080716Z AUTO 00000KT 10SM SCT050 SCT065 BKN120 23/21 A3004
     RMK AO2=
KDRM 080716Z AUTO 27006KT 242V312 2 1/2SM RA BKN001 BKN009 OVC041
     19/19 A3001 RMK AO2=
KVLL 080714Z AUTO 00000KT 10SM CLR 26/21 A3006 RMK AO2=
KCFS 080715Z AUTO 00000KT 2SM BR CLR 21/21 A3003 RMK AO2=
KOZW 080715Z AUTO 00000KT 10SM CLR 23/21 A3005 RMK AO2=
KRNP 080715Z AUTO 00000KT 10SM CLR 22/21 A3003 RMK AO2=
KDUH 080715Z AUTO 00000KT 7SM CLR 22/18 A3005 RMK AO2=
KJYM 080715Z AUTO 00000KT 5SM BR CLR 21/19 A3006 RMK AO2=
KBAX 080715Z AUTO 00000KT 4SM BR SCT075 22/21 A3002 RMK AO2=
KIRS 080715Z AUTO 00000KT 10SM CLR 23/19 A3005 RMK AO2=
KACB 080715Z AUTO 00000KT 10SM OVC110 23/21 A2999 RMK AO2=
KRQB 080714Z AUTO 00000KT 10SM -RA BKN065 BKN075 OVC090 23/22
     A3004 RMK AO2=
KOEB 080715Z AUTO 27003KT 10SM CLR 23/20 A3005 RMK AO2=
K4I3 080716Z AUTO 00000KT 10SM CLR 21/18 A3010 RMK AO2=
KAUM 080715Z AUTO 32005KT 10SM SCT041 19/18 A3007 RMK AO2=
KFFX 080715Z AUTO 26005KT 7SM -RA SCT075 OVC090 23/21 A3003 RMK
     AO2=
KCNB 080718Z AUTO 24004KT 10SM CLR 15/13 A3013 RMK AO2
     T01500125=
KCKN 080715Z AUTO 26004KT 10SM CLR 15/12 A3004 RMK AO2=
KCFE 080715Z AUTO 29003KT 10SM CLR 19/17 A3009 RMK AO2
     T01860165=
KCQM 080717Z AUTO 00000KT 10SM CLR 13/13 A3005 RMK AO2=
KDTL 080715Z AUTO 25005KT 10SM CLR 18/13 A3008 RMK AO2=
KBDH 080715Z AUTO 29003KT 7SM CLR 15/14 A3011 RMK AO2=
KCBG 080715Z AUTO 00000KT 10SM CLR 17/15 A3006 RMK AO2=
KADC 080717Z AUTO 23004KT 10SM CLR 13/12 A3008 RMK AO2=
KHAF 080710Z AUTO 26003KT 8SM OVC008 12/10 A2994 RMK AO2=
KCKC 080715Z AUTO 29003KT 10SM CLR 15/13 A3004 RMK AO2=
KJYG 080715Z AUTO 00000KT 10SM CLR 17/17 A3012 RMK AO2=
KCOQ 080716Z AUTO 29004KT 10SM CLR 14/14 A3005 RMK AO2=
KACQ 080719Z AUTO 31006KT 10SM CLR 17/17 A3010 RMK AO2=
KRGK 080715Z AUTO 29003KT 10SM CLR 21/18 A3004 RMK AO2=
KFSE 080714Z AUTO 21004KT 10SM CLR 14/13 A3004 RMK AO2=
KY70 080715Z AUTO 23006KT 10SM SCT055 SCT065 BKN120 24/21 A3002
     RMK AO2 T02430213=
KUKT 080715Z AUTO 00000KT 5SM CLR 22/21 A3003 RMK AO1=
KTEW 080712Z AUTO 00000KT 7SM CLR 21/20 A3004 RMK AO2=
KCVH 080710Z AUTO 00000KT 10SM CLR 12/11 A2993 RMK AO1=
KDYT 080714Z AUTO 31004KT 10SM SCT060 22/16 A3004 RMK AO2=
KFSO 080718Z AUTO 00000KT 5SM BR SCT070 23/22 A3000 RMK AO2=
KFBL 080714Z AUTO 30004KT 10SM CLR 18/17 A3008 RMK AO2=
KLYV 080718Z AUTO 00000KT 10SM CLR 14/13 A3016 RMK AO2=
KEFK 080715Z AUTO 21003KT 4SM BR SCT050 SCT075 SCT085 21/20 A3005
     RMK AO2=
KRRT 080714Z AUTO 23006KT 10SM CLR 16/13 A3000 RMK AO2=
KTOB 080715Z AUTO 00000KT 10SM CLR 19/18 A3008 RMK AO2=
KLXL 080714Z AUTO 00000KT 5SM BR CLR 13/12 A3008 RMK AO2=
KEVM 080712Z AUTO 00000KT 1/2SM FG VV005 13/12 A3003 RMK AO1=
KELO 080713Z AUTO 00000KT 10SM CLR 14/13 A3003 RMK AO2=
KANE 080715Z AUTO 29005KT 10SM 19/17 A3007 RMK AO2=
KROX 080714Z AUTO 25005KT 10SM CLR 17/14 A3000 RMK AO2=
KSYN 080730Z AUTO 30003KT 10SM CLR 19/17 A3006 RMK AO2
     T01910173=
KVVV 080716Z AUTO 23003KT 10SM CLR 17/14 A3011 RMK AO2=
KROS 080715Z AUTO 30003KT 10SM CLR 18/16 A3006 RMK AO2
     T01770157=
KHCD 080712Z AUTO 28003KT 10SM CLR 15/14 A3009 RMK AO2
     T01450135=
KSGS 080713Z AUTO 32004KT 10SM CLR 21/17 A3006 RMK AO2
     T02060170=
####018000084####
SPAK32 KWBC 080719
SPECI
PAEH SP 0715 AWOS M20 BKN 49 OVC 10 49/-19/0000/000=
####018000071####
SPAK32 KWBC 080719
SPECI
PACZ SP 0715 AWOS MM 10 54/51/0509/006=
####018000080####
SPAK32 KWBC 080719
SPECI
PAIM SP 0715 AWOS CLR BLO 120 10 60/44/0000/008=
####018000076####
SPAK32 KWBC 080719
SPECI
PASV SP 0715 AWOS M90 BKN 10 50/49/0000/996=
####018000080####
SPAK32 KWBC 080719
SPECI
PALU SP 0715 AWOS CLR BLO 120 10 55/34/2223/009=
####018000080####
SPAK32 KWBC 080719
SPECI
PATL SP 0715 AWOS CLR BLO 120 10 63/42/0404/999=
####018000087####
SPPA41 KWBC 080719
SPECI
PGUA 080716Z AUTO 07014KT 10SM SCT017 SCT023 28/ A2986=
####018000087####
SPPA41 KWBC 080719
SPECI
PGUA 080712Z AUTO 07014KT 10SM SCT017 BKN024 28/ A2986=
####018000121####
SPCN31 KWBC 080719
SPECI
CYFC 080718Z AUTO 20006KT 8SM BKN010 19/18 A3003 RMK SLP172
DENSITY ALT 400FT RVR MISG=
####018000137####
SPJP44 KWBC 080719
SPECI
RJTH 080707Z 21010KT 180V250 9999 SHRA FEW008 BKN013 BKN025 25/23
Q1011 RMK 2ST008 5CU013 6CU025 A2988=
####018000093####
SPNL31 KWBC 080719
SPECI
EHGR 080714Z AUTO 23005KT 9999NDV FEW300 24/13 Q1019 BLU BLU=
####018000090####
SPNL31 KWBC 080719
SPECI
EHVK 080713Z AUTO 20005KT 9999NDV NCD 25/12 Q1019 BLU BLU=
####018000132####
SPPA31 KWBC 080719
SPECI
PGUA 080716Z AUTO 07014KT 10SM SCT017 SCT023 28/ A2986 RMK AO2
SCT023 V BKN SLP092 VISNO RWY24L $=
####018000141####
SPPA31 KWBC 080719
SPECI
PGUA 080712Z AUTO 07014KT 10SM SCT017 BKN024 28/ A2986 RMK AO2 CIG
021V026 BKN V SCT SLP092 VISNO RWY24L $=
####018000103####
SPCN47 CWAO 080717
SPECI CYPQ 080717Z AUTO ///// 3/8SM CLR 21/21 A3003 RMK VSBY VRBL
0.1V5.0=

####018000079####
SPCN46 CWAO 080718
SPECI CYBN 080718Z AUTO 00000KT 6SM CLR 21/19 A3003=

####018000089####
SPSP31 KWBC 080719
SPECI
LECO 080718Z 02010KT 340V070 1500 -RA BKN003 19/19 Q1016=
####018000152####
SPXX61 KWBC 080719
SPECI
EGUN 080711Z AUTO 25008KT 9999 -RA FEW007 BKN016 OVC022 17/17
A3006 RMK AO2 VIS 3200 RWY11 RAB0711 CIG 014V019 SLP170=
####018000117####
SPXX62 KWBC 080719
SPECI
PHHI 080716Z AUTO 03004KT 9SM -RA SCT033 BKN055 22/18 A3006 RMK
AO2 RAB0716 SLP169=
####018000085####
SPUS41 KWBC 080719
SPECI
KLUK 080716Z AUTO 00000KT 1 3/4SM BR CLR 22/22 A3007=
####018000114####
SPUS41 KWBC 080719
SPECI
KWRI 080715Z AUTO 00000KT 3SM R18/5500VP6000FT R24/2800FT BR
OVC001 24/24 A2999=
####018000106####
SAIY42 LIIB 080700 RRA
METAR LIQW 080655Z 29005KT CAVOK 26/20 Q1019 RMK SKC VIS MIN 9999
      BLU=
####018000083####
SALT33 EYVI 080720
METAR EYPA 080720Z 33006KT 250V050 CAVOK 19/15 Q1017 NOSIG=
####018000096####
SAUS44 KMAF 080719
MTRNFW
SPECI KNFW 080717Z AUTO 14006KT 10SM BKN022 27/22 A3003 RMK AO2
####018000212####
SPAU31 AMMC 080719
SPECI YPPH 080717Z 29009KT 1500 +SHRA FEW009 SCT022 OVC045 FEW022CB 15/14
     Q1000
     FM0717 33018G28KT 9999 -SHRA BKN020
     INTER 0717/1017 27025G35KT 3000 +SHRA BKN010=


####018000206####
SPAU31 AMMC 080719
SPECI YPPH 080717Z 29009KT 1500 +SHRA FEW009 SCT022 OVC045 FEW022CB 15/14
     Q1000
     FM0717 33018G28KT 9999 -SHRA BKN020
     INTER 0717/1017 27025G35KT 3000 +SHRA BKN010=
####018000105####
SAIY42 LIIB 080700 RRA
METAR LIQW 080655Z 29005KT CAVOK 26/20 Q1019 RMK SKC VIS MIN 9999
      BLU=
####018000082####
SPUS81 KWBC 080719
SPECI
KHLC 080716Z AUTO 36006KT 10SM BKN026 17/16 A3020=
####018000082####
SPUS81 KWBC 080719
SPECI
PAQT 080715Z AUTO 26010KT 10SM OVC028 13/07 A3002=
####018000286####
SAEU KAWN 080700 RRX
METAR EGHH 080650Z 24005KT 5000 BR SCT007 BKN015 17/17 Q1019=
METAR EGUO 080650Z 00000KT 9999 FEW015 SCT020 BKN090 15/13 Q1020 WHT=
METAR LIQW 080655Z 29005KT CAVOK 26/20 Q1019 RMK SKC VIS MIN 9999 BLU=
METAR LPMR 080700Z 14004KT 9999 FEW005 19/17 Q1014=
####018000140####
SAXN17 KAWN 080700 RRG
METAR MKJP 080700Z 11012KT 9999 FEW020 BKN220 27/20 Q1013=
METAR TNCM 080700Z 10008KT 9999 SCT018 28/24 Q1015=
####018000159####
SAUK KAWN 080700 RRE
METAR EGHH 080650Z 24005KT 5000 BR SCT007 BKN015 17/17 Q1019=
METAR EGUO 080650Z 00000KT 9999 FEW015 SCT020 BKN090 15/13 Q1020 WHT=
####018000110####
SPXX70 KAWN 080700
SPECI KQMG 080714Z AUTO 03011KT 12SM FEW036 BKN100 21/15 A3016 RMK
      AO2 SLP141=
####018000094####
SAXX70 KAWN 080700 RRM
METAR KQFT 080710Z AUTO 17004KT 6SM BR OVC035 29/17 A2982 RMK A02=
####018000140####
SANA35 KAWN 080700 RRE
METAR MKJP 080700Z 11012KT 9999 FEW020 BKN220 27/20 Q1013=
METAR TNCM 080700Z 10008KT 9999 SCT018 28/24 Q1015=
####018000729####
SAAM31 FCBB 080700
METAR FCBB 080700Z 23005KT 4000  BR NSC 22/20 Q1016 BECMG 6000 NSW=
METAR FCPP 080700Z VRB03KT 1500 R17/P1500 BR BKN016 21/21 Q1014 BECMG
3000 BR=
METAR FKKD 080700Z VRB01KT 8000 TS BKN013 FEW016CB OVC120 25/24
Q1015 NOSIG=
METAR FKYS 080700Z 24003KT 8000 FEW003 BKN006 22/20 Q1019 NOSIG=
METAR FEFF 080700Z 00000KT 9999 SCT013 OVC150 23/23 Q1015 NOSIG=
METAR FOOL 080700Z 17007KT 140V200 8000 SCT010 BKN030 25/21 Q1015
NOSIG=
METAR FGSL 080700Z 00000KT 9999 SCT013 FEW020CB BKN130 25/25
Q1014 NOSIG=
METAR FZAA 080700Z 00000KT 3000 BR SKC 21/20 Q1016 NIL=
METAR FNLU 080700Z VRB03KT 5000 BKN020 21/19 Q1015 NOSIG=
METAR FPST 080700Z 18010KT 9999 FEW020 BKN110 23/20 Q1014 NOSIG=
####018000126####
SAAK41 KNKA 080719
SPECI PAWD 080717Z AUTO 00000KT 2SM -RA BR SCT001 BKN048 OVC060 
    10/09 A2998 RMK AO2 P0000 TSNO=
####018002796####
SAUS20 KNKA 080719
METAR KBBF 080815Z AUTO VRB05G14KT 10SM FEW090 30/27 A2982 RMK A01=
SPECI KBJJ 080718Z AUTO 00000KT 2 1/2SM BR CLR 19/18 A3010 RMK AO2=
METAR KBQX 080715Z AUTO 12019G31KT 9SM SCT022 SCT036 BKN050 29/26
     A2985 RMK A01=
METAR KDLP 080715Z AUTO 10SM SCT016 28/25 A2998 RMK A01=
METAR KEDU 080715Z AUTO 18007KT 10SM CLR 16/10 A2981 RMK AO1=
METAR KEHC 080715Z AUTO 11025KT 6SM HZ FEW016 FEW030 FEW036 28/26
     A2992 RMK A01=
METAR KEIR 080715Z AUTO VRB05G16KT 9SM CLR 28/25 A2997 RMK A01=
METAR KEMK 080715Z AUTO 14026KT 7SM FEW022 SCT048 BKN095 29/25
     A2987 RMK A01=
METAR KGBK 080715Z AUTO 10020G26KT 10SM CLR 29/25 A2990 RMK A01=
METAR KHQI 080715Z AUTO 10032KT 7SM FEW034 SCT060 29/26 A2989 RMK
     A01=
METAR KIPN 080715Z AUTO 11012KT 10SM CLR /57 A2998 RMK A01=
SPECI KLHQ 080718Z AUTO 00000KT 2 1/2SM BR CLR 19/19 A3008 RMK AO2=
METAR KMDJ 080715Z AUTO 13016KT 10SM FEW021 SCT044 BKN060 29/24
     A2999 RMK A01=
METAR KMDZ 080715Z AUTO 28003KT 1 1/2SM BR BKN001 OVC006 20/19 
     A3003 RMK AO2=
METAR KMHR 080715Z AUTO 18006KT 10SM CLR 15/10 A2984 RMK AO1=
METAR KMIU 080715Z AUTO 10017KT 7SM FEW041 BKN050 BKN080 29/26
     A2982 RMK A01=
METAR KMRJ 080715Z AUTO 30004KT 10SM CLR 20/19 A3002 RMK AO2 
     T02030187=
METAR KMWC 080715Z AUTO 00000KT 10SM -RA SCT075 BKN085 OVC110 
     21/20 A3001 RMK AO2 P0001=
METAR KMYT 080715Z AUTO 13016G22KT 9SM CLR 28/24 A2996 RMK A01=
METAR KMZG 080715Z AUTO 00000KT 10SM FEW024 FEW029 29/24 A2982 RMK
     A01=
METAR KOEO 080715Z AUTO 00000KT 10SM CLR 19/17 A3006 RMK AO2=
METAR KPBH 080715Z AUTO 00000KT 1 1/2SM BR OVC003 21/19 A3004 RMK 
     AO2=
METAR KPCZ 080715Z AUTO 18005KT 7SM CLR 22/20 A2998 RMK AO2 
     T02170203=
METAR KPDC 080713Z AUTO 00000KT 5SM BR OVC004 23/21 A3002 RMK AO2 
     T02250212=
METAR KRCX 080715Z AUTO 24003KT 10SM CLR 20/19 A3004 RMK AO2 
     T01950185=
METAR KRNH 080716Z AUTO 30003KT 10SM CLR 19/17 A3006 RMK AO2 
     T01850170=
METAR KRPD 080714Z AUTO 00000KT 10SM CLR 19/18 A3004 RMK AO2 
     T01930175=
METAR KRRL 080715Z AUTO 32004KT 7SM OVC001 19/19 A3002 RMK AO2 
     T01910187=
METAR KRYV 080715Z AUTO 00000KT 10SM -RA CLR 23/20 A3001 RMK AO2=
METAR KSCF 080720Z AUTO 15022KT 8SM BKN018 BKN025 BKN029 29/26
     A2991 RMK A01=
METAR KSTE 080715Z AUTO 20004KT 4SM BR OVC005 22/21 A3000 RMK AO2=
METAR KSUW 080715Z AUTO 30003KT 10SM SCT060 19/15 A3002 RMK AO2=
METAR KTKV 080715Z AUTO 00000KT 7SM SCT010 BKN095 18/17 A3003 RMK 
     AO2 T01770170=
METAR KUES 080715Z AUTO 24003KT 7SM SCT090 SCT110 21/20 A3003 RMK 
     AO2 T02120197=
METAR KVBS 080715Z AUTO 12022KT 10SM SCT021 29/25 A2993 RMK A01=
METAR KVNP 080715Z AUTO 10008G16KT 7SM 28/26 A2997 RMK A01=
####018000074####
SACN50 CWAO 080715
VOJ SA 0715 AUTO8 M M M M/18/M/0406/M/M M 5MMM=

####018001254####
SACI51 RJTD 080700
METAR ZBAA 080700Z VRB03MPS CAVOK 36/11 Q1003 NOSIG=
METAR ZBTJ 080700Z 13005MPS 090V160 9999 SCT033 33/19 Q1004 NOSIG=
METAR ZBYN 080700Z 06003MPS 020V140 CAVOK 31/11 Q1008 NOSIG=
METAR ZGGG 080700Z 16004MPS 9999 FEW050TCU BKN050 36/24 Q1005 NOSIG=
METAR ZGKL 080700Z 18007MPS 9999 SCT066 36/23 Q1004 NOSIG=
METAR ZGNN 080700Z 14006MPS 120V190 9999 SCT030 36/25 Q1003 NOSIG=
METAR ZGOW 080700Z 19006MPS 9999 SCT030 34/26 Q1006 NOSIG=
METAR ZGSZ 080700Z 17009MPS 9999 FEW020 33/25 Q1006 NOSIG=
METAR ZLXY 080700Z VRB01MPS 1800 BR FEW010 OVC060 24/21 Q1007 NOSIG=
METAR ZPPP 080700Z 20003MPS 170V240 9999 FEW026TCU FEW026 SCT036
           OVC050 23/16 Q1016 NOSIG=
METAR ZSAM 080700Z 18007MPS 9999 FEW023 34/24 Q1005 NOSIG=
METAR ZSHC 080700Z 08003MPS 4000 HZ NSC 30/23 Q1004 TEMPO TSRA
           SCT033CB=
METAR ZSNJ 080700Z 10003MPS 070V130 4000 HZ NSC 30/22 Q1003 NOSIG=
METAR ZSQD 080700Z 17004MPS 140V200 CAVOK 27/16 Q1006 NOSIG=
METAR ZSSS 080700Z 11004MPS 080V150 9999 SCT026 30/22 Q1005 NOSIG=
METAR ZWWW 080700Z 36004MPS 310V060 9999 FEW050CB 32/09 Q1011 NOSIG=
METAR ZYTL 080700Z 30005MPS 9999 SCT033 28/18 Q1006 NOSIG=
METAR ZYTX 080700Z 31003MPS 9999 FEW030TCU 26/19 Q1006 NOSIG=
####018000252####
SASG21 GOOY 080700
METAR GOTT 080700Z 28006KT 9999 BKN013 FEW230 28/26 Q1012=
METAR GOGS 080700Z 22006KT 9999 SCT015 SCT230 27/25 Q1011=
METAR GOSS 080700Z 18002KT CAVOK 27/25 Q1011=
METAR GOGG 080700Z VRB02KT 9999 BKN015 SCT230 26/25 Q1012=
