####018000283####
SAXX70 KAWN 080700 RRO
METAR KQEL 080720Z AUTO 22003KT 7SM CLR 28/19 A2970 RMK A02=
METAR KQEQ 080720Z AUTO 27004KT 7SM CLR 26/18 A2980 RMK A02=
METAR KQEW 080720Z AUTO 04003KT 7SM CLR 27/19 A2981 RMK A02=
METAR KQFT 080720Z AUTO 17004KT 5SM BR FEW036 28/17 A2982 RMK A02=
####018001817####
SAEU KAWN 080700 RRX
METAR EDHL 080720Z 16008KT CAVOK 22/15 Q1020 RMK G=
METAR EDLW 080720Z 19009KT CAVOK 25/09 Q1020 RMK ATIS I=
METAR EDNY 080720Z VRB05KT CAVOK 21/12 Q1022 RMK ATIS I=
METAR COR EGCC 080720Z 19008KT 9999 FEW032 SCT036 15/12 Q1017 NOSIG=
METAR EGMD 080720Z 22010KT 0900 FG SCT000 BKN001 16/15 Q1019=
METAR EGNC 080720Z 22012KT 190V250 9999 SCT035 15/11 Q1014=
METAR EGNJ 080720Z 22009KT 9999 FEW030 16/12 Q1017=
METAR EGPL 080720Z 22021KT 9999 VCSH FEW015 SCT020 14/11 Q1006=
METAR COR EGPM 080720Z 21023KT 9999 FEW012 SCT040 14/10 Q1004 NOSIG=
METAR EHAM 080725Z 27008KT 230V300 CAVOK 22/15 Q1019 NOSIG=
METAR EHBK 080725Z AUTO 20009KT 170V230 9999NDV NCD 24/12 Q1019 NOSIG=
METAR EHDL 080725Z AUTO 22008KT 9999NDV SCT150 25/12 Q1019 BLU=
METAR EHGG 080725Z AUTO 21008KT 180V240 9999NDV NSC 22/12 Q1018 NOSIG=
METAR EHGR 080725Z AUTO 23005KT 9999NDV FEW300 25/12 Q1019 BLU BLU=
METAR EHKD 080725Z AUTO 23010KT 9999NDV FEW200/// 20/15 Q1018 BLU BLU=
METAR EHLW 080725Z AUTO 23007KT 9999NDV OVC110 22/16 Q1018 RE// BLU
      BLU=
METAR EHRD 080725Z 27007KT 240V310 9999 FEW036 22/14 Q1019 NOSIG=
METAR EHVK 080725Z AUTO 20005KT 9999NDV NCD 25/12 Q1019 BLU BLU=
METAR EHVL 080725Z AUTO 23013KT 9999NDV OVC100 19/15 Q1018 BLU=
METAR EHWO 080725Z AUTO 27006KT 9999NDV BKN140 23/14 Q1019 BLU BLU=
METAR ETMN 080720Z 19004KT 9999 BKN090 BKN260 22/11 Q1019 BLU BLU BECMG
      BLU/=
METAR ETNS 080720Z 16007KT 9999 SCT050 SCT120 23/09 Q1019 BLU/BLU=
METAR ETNU 080720Z 16003KT 9999 FEW130 BKN180 21/11 Q1022 BLU BLU TEMPO
      BLU/=
METAR LIPE 080720Z 11004KT 050V140 CAVOK 25/17 Q1021=
METAR LIRX 080655Z 19004KT CAVOK 22/12 Q1018 RMK SKC VIS MIN 9999E
      VIS MAR 20 KM=
METAR LOXT 080720Z VRB03KT 50KM FEW300CI 19/12 Q1024 NOSIG RMK FEW=
####018000094####
SANM40 FYWW 080700 CCB
METAR COR FYOT 080700Z AUTO 06007KT //// // ////// 16/03 Q////=

####018000114####
SAUS44 KCRP 080730
MTRVCT
SPECI KVCT 080729Z AUTO 05007KT 9SM FEW021 SCT050 26/25 A2989 RMK 
AO2 TSB07E23
####018000597####
SAUS20 KNKA 080730
METAR KCCA 080735Z AUTO 00000KT 3SM  BR CLR 23/22 A3005 RMK AO2 =
METAR KCDN 080735Z AUTO 28003KT 10SM CLR 26/22 A2999 RMK A02 P000 
     =
METAR KCKI 080735Z AUTO 00000KT 10SM CLR 22/21 A2995 RMK AO2=
SPECI KEKN 080729Z AUTO 00000KT 2 1/2SM BR SCT070 18/17 A3015 RMK 
    AO2 TSNO=
SPECI KGFL 080729Z AUTO 00000KT 1/2SM FG CLR 21/21 A3001 RMK AO2=
METAR KLRO 080735Z AUTO 28003KT 10SM CLR 24/19 A2996 RMK AO2 =
METAR KMKS 080735Z AUTO 27003KT 10SM CLR 24/20 A2996 RMK AO2 TSNO=
SPECI KVTA 080729Z AUTO 00000KT 2 1/2SM BR SCT065 19/18 A3008 RMK 
    AO2=
####018000098####
SASG20 GOOY 080730
METAR GOOY 080730Z 16005KT 130V200 9999 FEW013 SCT230 27/24 Q1011
NOSIG=
####018000087####
SAAF36 KWBC 080700 RRB
METAR
HRYR 080730Z 16010KT 9999 FEW026 22/13 Q1024 NOSIG=
####018000089####
SAAW34 KWBC 080715 RRA
METAR
OPKC 080730Z 09010KTS 9000 BKN030 35/25 Q.1003 NOSIG=
####018000331####
SAUS99 KWBC 080731
METAR
KCCA 080735Z AUTO 00000KT 3SM BR CLR 23/22 A3005 RMK AO2=
KCDN 080735Z AUTO 28003KT 10SM CLR 26/22 A2999 RMK A02 P000=
KCKI 080735Z AUTO 00000KT 10SM CLR 22/21 A2995 RMK AO2=
KLRO 080735Z AUTO 28003KT 10SM CLR 24/19 A2996 RMK AO2=
KMKS 080735Z AUTO 27003KT 10SM CLR 24/20 A2996 RMK AO2 TSNO=
####018000244####
SPUS99 KWBC 080731
SPECI
KEKN 080729Z AUTO 00000KT 2 1/2SM BR SCT070 18/17 A3015 RMK AO2
     TSNO=
KGFL 080729Z AUTO 00000KT 1/2SM FG CLR 21/21 A3001 RMK AO2=
KVTA 080729Z AUTO 00000KT 2 1/2SM BR SCT065 19/18 A3008 RMK
     AO2=
####018000086####
SASW31 LSSW 080720 RRA
METAR LSZH 080720Z 32004KT 240V020 CAVOK 20/13 Q1022 NOSIG=
####018000419####
SANM40 FYWW 080700 CCA
METAR COR FYAN 080700Z AUTO 04007KT //// // ////// 13/02 Q1029=
METAR COR FYKB 080700Z AUTO 03008G55KT //// // ////// 18/01 Q1025=
METAR COR FYKT 080700Z AUTO 36008KT //// // ////// 18/01 Q1027=
METAR COR FYKX 080700Z AUTO 14014KT //// // ////// ///// Q1025=
METAR COR FYML 080700Z AUTO 35002KT //// // ////// 11/M02 Q1029=
METAR COR FYRH 080700Z AUTO 04014KT //// // ////// ///// Q////=
####018000169####
SPFA31 EKCH 080730
SPECI EKVG 080730Z 16010KT 9999 SCT004 BKN006 BKN010 11/10 Q0992
RMK/RWY 13/31 CLOSED DUE WIP. SEE NOTAM E0050/10 WIND 850FT
15010G23KT 110V240=
####018000460####
SAHU41 LHBM 080730
METAR LHDC 080715Z 01010KT CAVOK 20/12 Q1020 NOSIG=
METAR LHKE 080715Z 06004MPS CAVOK 21/10 Q1021 NOSIG RMK BLU=
METAR LHPA 080715Z 34004MPS CAVOK 20/11 Q1023 NOSIG RMK BLU=
METAR LHPP 080715Z 01007KT CAVOK 20/12 Q1023 NOSIG=
METAR LHPR 080715Z 33008KT CAVOK 21/11 Q1023=
METAR LHSM 080715Z 32008KT CAVOK 20/12 Q1023 NOSIG=
METAR LHSN 080715Z 06004MPS CAVOK 21/12 Q1021 NOSIG RMK BLU=
METAR LHUD 080715Z 31007KT CAVOK 18/14 Q1022=
####018000367####
SABU31 LBSM 080730
METAR LBSF 080730Z 28007MPS 9999 BKN033 14/10 Q1018 NOSIG=
METAR LBWN 080730Z 28004MPS 230V340 9999 BKN025 19/14 Q1014
 BECMG RA=
METAR LBBG 080730Z 26006MPS 9999 -DZ FEW048 BKN066 BKN120 17/14
 Q1015 NOSIG=
METAR LBPD 080730Z 26005MPS 9999 OVC050 16/12 Q1016 NOSIG=
METAR LBGO 080730Z 00000MPS 9999 -RA SCT033 OVC070 16/14 Q1017
 NOSIG=
####018000091####
SAUZ31 UTTT 080730
METAR UTTT 080730Z 30003MPS 7000 NSC 37/11 Q1011 R08R/CLRD70
NOSIG=
####018000114####
SAIV20 DIAP 080730
METAR DIAP 080730Z 00000KT 6000 SCT012 SCT080 BKN260 26/25 Q1015
TEMPO 6000 BKN018 BKN080=
####018000098####
SARM31 LUKK 080730
METAR LUKK 080730Z 33008KT 240V360 9999 SCT016 20/14 Q1015
08CLRD65 NOSIG=
####018000090####
SANM40 FYWW 080700 CCB
METAR COR FYOT 080700Z AUTO 06007KT //// // ////// 16/03 Q////=
####018000093####
SPCN31 KWBC 080731
SPECI
CYZV 080728Z 15004KT 1/4SM R09/2200FT/N -DZ FG VV002 RMK FG8=
####018000117####
SPJP42 KWBC 080731
SPECI
RJFZ 080714Z 02002KT 8000 FEW030 BKN045 OVC230 27/21 Q1007 RMK
1CU030 5SC045 A2975=
####018000118####
SAIY43 KWBC 080650 RRD
METAR
LIRX 080655Z 19004KT CAVOK 22/12 Q1018 RMK SKC VIS MIN 9999E VIS
     MAR 20 KM=
####018000183####
SPJP44 KWBC 080731
SPECI
RJST 080717Z 16007KT 9999 -SHRA FEW002 BKN015 FEW020CB BKN025
22/21 Q1009 RETS RMK 1ST002 5CU015 2CB020 5CU025 A2980 VIS E-SE
6KM 1ST002 SE-S CB E=
####018000103####
SPJP45 KWBC 080731
SPECI
RJTR 080730Z 17007KT 110V190 9999 FEW020 BKN160 28/22 A2980 RMK
LAST=
####018000159####
SPJP44 KWBC 080731
SPECI
RJSM 080718Z 10006KT 7000 -SHRA FEW003 SCT005 BKN035 20/18 Q1008
RMK 2ST003 3ST005 5CU035 A2978 WIND BY EQPT/10 VIS NE-E 5KM=
####018000237####
SANL31 KWBC 080720 RRB
METAR
EHAM 080725Z 27008KT 230V300 CAVOK 22/15 Q1019 NOSIG=
EHGG 080725Z AUTO 21008KT 180V240 9999NDV NSC 22/12 Q1018
     NOSIG=
EHKD 080725Z AUTO 23010KT 9999NDV FEW200/// 20/15 Q1018 BLU
     BLU=
####018000089####
SPCN46 CWAO 080729
SPECI CYKL 080729Z AUTO 14004KT 9SM OVC041 OVC094 13/13 A2987=

####018000094####
SAUK31 KWBC 080720 CCB
METAR
EGCC 080720Z 19008KT 9999 FEW032 SCT036 15/12 Q1017 NOSIG=
####018000091####
SAUK31 KWBC 080720 RRA
METAR
EGMD 080720Z 22010KT 0900 FG SCT000 BKN001 16/15 Q1019=
####018000159####
SPXX62 KWBC 080731
SPECI
RJSM 080718Z 10006KT 7000 -SHRA FEW003 SCT005 BKN035 20/18 Q1008
RMK 2ST003 3ST005 5CU035 A2978 WIND BY EQPT/10 VIS NE-E 5KM=
####018000173####
SAXX99 KWBC 080700 RRU
METAR
ETNS 080720Z 16007KT 9999 SCT050 SCT120 23/09 Q1019 BLU+BLU=
VTCH 080700Z 33002KT 5000 FEW025 SCT030 35/21 Q1007 A2975 INFO :
     G=
####018000140####
SPXX61 KWBC 080731
SPECI
EGUN 080725Z AUTO 24007KT 9999 -RA BKN005 BKN014 OVC019 17/17
A3007 RMK AO2 VIS 2800 RWY11 RAB0711 SLP171=
####018000057####
SAXX99 KWBC 080600 RRX
METAR
K8S0 080625Z 27006KT=
####018000102####
SPUS41 KWBC 080731
SPECI
KDOV 080728Z AUTO 00000KT 4SM R01/4000V4500FT BR SCT110 25/25
A2998=
####018000083####
SAUS42 KWBC 080700 RRE
METAR
KGLE 080724Z AUTO 00000KT 10SM CLR 26/23 A3002=
####018001195####
SAUS43 KWBC 080700 RRG
METAR
K1H2 080725Z AUTO 00000KT 7SM CLR 25/24 A3004=
KAAA 080723Z AUTO 00000KT 5SM BR SCT095 OVC120 23/22 A3003=
KC09 080724Z AUTO 00000KT 3SM BR OVC100 21/21 A3004=
KDKB 080721Z AUTO 00000KT 5SM -RA SCT013 SCT018 SCT090 22/21
     A3003=
KDNV 080725Z AUTO 00000KT 7SM CLR 22/20 A3001=
KENL 080724Z AUTO 19003KT 10SM CLR 24/16 A3004=
KFEP 080725Z AUTO 00000KT 7SM -DZ SCT050 BKN060 24/22 A3001=
KFOA 080725Z AUTO 00000KT 7SM SCT110 26/25 A3004=
KFWC 080725Z AUTO 00000KT 7SM SCT110 24/23 A3004=
KGBG 080725Z AUTO 22004KT 10SM OVC006 23/22 A3002=
KHSB 080725Z AUTO 00000KT 4SM BR CLR 22/21 A3004=
KIJX 080725Z AUTO 00000KT 5SM BR SCT022 SCT028 BKN080 24/23
     A3004=
KIKK 080725Z AUTO 00000KT 5SM HZ CLR 26/23 A3004=
KJOT 080726Z AUTO 00000KT 7SM CLR 23/22 A3003=
KLOT 080721Z AUTO 00000KT 7SM BKN100 23/22 A3003=
KOLY 080723Z AUTO 00000KT 5SM BR SCT090 24/23 A3004=
KPNT 080725Z AUTO 00000KT 3SM BR SCT055 SCT065 OVC110 23/22
     A3004=
KPPQ 080725Z AUTO 00000KT 4SM DZ SCT001 BKN009 OVC029 23/23
     A3005=
KPRG 080725Z AUTO 00000KT 5SM BR BKN100 BKN120 22/21 A3005=
KSLO 080721Z AUTO 19003KT 10SM CLR 24/22 A3005=
####018000182####
SAUS44 KWBC 080700 RRE
METAR
K11R 080724Z AUTO 06005KT 7SM CLR 25/24 A2995=
KBPG 080725Z AUTO 10006KT 10SM CLR 22/20 A3009=
KBYY 080726Z AUTO 08005KT 10SM CLR 27/26 A2988=
####018000089####
SATG20 DXXX 080730
METAR DXXX 080730Z 25005KT 220V290 8000 SCT010 25/24 Q1014 NOSIG=
####018000116####
SAIV20 DIAP 080730
METAR DIAP 080730Z 00000KT 6000 SCT012 SCT080 BKN260 26/25 Q1015
TEMPO 6000 BKN018 BKN080=
####018000168####
SAUS20 KNKA 080730
SPECI KPHD 080729Z AUTO 00000KT 3SM BR CLR 20/18 A3008 RMK AO2=
SPECI KTRL 080730Z AUTO 00000KT 10SM SCT015 SCT021 27/22 A3000 RMK 
    AO2=
####018000468####
SAHU41 LHBM 080730
METAR LHDC 080715Z 01010KT CAVOK 20/12 Q1020 NOSIG=
METAR LHKE 080715Z 06004MPS CAVOK 21/10 Q1021 NOSIG RMK BLU=
METAR LHPA 080715Z 34004MPS CAVOK 20/11 Q1023 NOSIG RMK BLU=
METAR LHPP 080715Z 01007KT CAVOK 20/12 Q1023 NOSIG=
METAR LHPR 080715Z 33008KT CAVOK 21/11 Q1023=
METAR LHSM 080715Z 32008KT CAVOK 20/12 Q1023 NOSIG=
METAR LHSN 080715Z 06004MPS CAVOK 21/12 Q1021 NOSIG RMK BLU=
METAR LHUD 080715Z 31007KT CAVOK 18/14 Q1022=
####018000375####
SABU31 LBSM 080730
METAR LBSF 080730Z 28007MPS 9999 BKN033 14/10 Q1018 NOSIG=
METAR LBWN 080730Z 28004MPS 230V340 9999 BKN025 19/14 Q1014
 BECMG RA=
METAR LBBG 080730Z 26006MPS 9999 -DZ FEW048 BKN066 BKN120 17/14
 Q1015 NOSIG=
METAR LBPD 080730Z 26005MPS 9999 OVC050 16/12 Q1016 NOSIG=
METAR LBGO 080730Z 00000MPS 9999 -RA SCT033 OVC070 16/14 Q1017
 NOSIG=
####018000087####
SASW31 LSSW 080720 RRA
METAR LSZH 080720Z 32004KT 240V020 CAVOK 20/13 Q1022 NOSIG=
####018000372####
SATU32 LTAA 080720
METAR LTAN 080720Z 01009KT CAVOK 27/14 Q1013 NOSIG=
METAR LTAU 080720Z 12002KT 9999 FEW040 27/15 Q1013 NOSIG=
METAR LTBR 080720Z 01006KT CAVOK 26/15 Q1012 NOSIG=
METAR LTBU 080720Z 34013KT 9999 SCT030 BKN100 23/12 Q1014=
METAR LTCC 080720Z VRB03KT CAVOK 35/06 Q1007 NOSIG=
METAR LTCE 080720Z 08011KT 050V110 9999 FEW025 25/10 Q1018 NOSIG=
####018000093####
SAUZ31 UTTT 080730
METAR UTTT 080730Z 30003MPS 7000 NSC 37/11 Q1011 R08R/CLRD70
NOSIG=
####018000935####
SATU31 LTAA 080720
METAR LTAC 080720Z 05012KT 9999 SCT040 24/16 Q1014 NOSIG=
METAR LTAF 080720Z /////KT 5000 2000S BR SCT035 BKN100 29/22 Q1008 
BECMG TL0750 9999 NSW=
METAR LTAI 080720Z 14005KT 080V200 8000 SCT020 28/22 Q1008 NOSIG=
METAR LTAJ 080720Z 20004KT CAVOK 33/15 Q1008 NOSIG=
METAR LTAZ 080720Z NIL=
METAR LTBA 080720Z 35024KT 9999 SCT035 24/14 Q1012 NOSIG=
METAR LTBJ 080720Z 01012KT CAVOK 29/11 Q1009 NOSIG=
METAR LTBS 080720Z 20009KT 9999 FEW030 29/22 Q1008 NOSIG=
METAR LTCF 080720Z 03010KT 360V070 CAVOK 25/13 Q1020=
METAR LTCG 080720Z 07005KT 9999 SCT035 SCT100 26/21 Q1011 NOSIG=
METAR LTCI 080720Z 28006KT 240V310 CAVOK 25/14 Q1017 NOSIG=
METAR LTCS 080720Z 15007KT 090V230 CAVOK 34/12 Q1010=
METAR LTFE 080720Z VRB04KT CAVOK 30/16 Q1008 BECMG TL0900 30014KT=
METAR LTFH 080720Z 30011KT 9999 SCT036 BKN100 26/22 Q1011 NOSIG=
METAR LTFJ 080720Z 01015KT 9999 SCT035 24/17 Q1011 NOSIG=
####018000420####
SARH31 LDZM 080730
METAR LDSP 080730Z VRB02KT CAVOK 25/05 Q1020 NOSIG =
METAR LDPL 080730Z 08011KT CAVOK 23/10 Q1022 NOSIG =
METAR LDDU 080730Z 31008KT 240V020 CAVOK 24/06 Q1019 NOSIG =
METAR LDZA 080730Z 00000KT CAVOK 21/11 Q1023 NOSIG =
METAR LDZD 080730Z VRB03KT CAVOK 25/04 Q1021 NOSIG =
METAR LDRI 080730Z 30004KT 210V350 CAVOK 23/09 Q1022 NOSIG=
METAR LDOS 080730Z 34003KT CAVOK 19/10 Q1022 NOSIG=
####018000099####
SAHK31 VHHH 080730
METAR VHHH 080730Z 21013KT 180V240 9999 FEW020 SCT030 34/24 
Q1006 NOSIG=
####018000086####
SANC01 NWWW 080730
METAR NWWW 080730Z AUTO 00000KT 9999NDV SCT046/// 20/16 Q1016=
####018000135####
SAUS73 KWBC 080700 RRH
METAR
KALN 080723Z AUTO 00000KT 10SM CLR 25/24 A3003=
KIKK 080725Z AUTO 00000KT 5SM HZ CLR 26/23 A3004=
####018000452####
SAHK31 VHHH 080730
METAR VHHH 080730Z 21013KT 180V240 9999 FEW020 SCT030 34/24 
Q1006 NOSIG=
METAR RCTP 080730Z 25018KT 9999 FEW025 SCT150 32/26 Q1007
NOSIG=
METAR RCKH 080730Z 26012KT 220V310 9999 FEW013 BKN120 32/26
Q1008 NOSIG RMK 28012KT/RWY09=
METAR RCSS 080730Z 32007KT 270V390 9999 FEW020 SCT035 BKN100 35/24
Q1006 NOSIG RMK 31008KT/R10=
METAR VMMC 080730Z 19013KT 170V260 9999 FEW015 SCT030 BKN090
     31/27 Q1006 NOSIG=
####018000415####
SPUS17 KAWN 080731 RRD
SPECI KAFF 080728Z AUTO 00000KT 10SM SCT013 BKN019 BKN027 BKN043 13/12
      A3041 RMK AO2 SLP207=
SPECI KDOV 080728Z AUTO 00000KT 4SM R01/4000V4500FT BR SCT110 25/25
      A2998 RMK AO2 SLP155=
SPECI KGRF 080722Z AUTO 00000KT 10SM -DZ CLR 19/11 A2993 RMK AO2 DZB0722
      SLP135 $=
SPECI KLTS 080720Z AUTO 34006KT 10SM CLR 23/23 A3005 RMK AO2 DZB0657E0720
      SLP157 $=
####018000101####
SASG20 GOOY 080730
METAR GOOY 080730Z 16005KT 130V200 9999 FEW013 SCT230 27/24 Q1011
NOSIG=

####018000112####
SASR31 WSSS 080730
METAR WSSS 080730Z 21004KT 170V260 9999 -RA FEW016 FEW018TCU BKN150
29/25 Q1009 NOSIG=
####018000205####
SPAU31 AMMC 080731
SPECI YPPH 080730Z 34013KT 6000 SHRA FEW008 SCT022 BKN050 FEW022CB 15/14
     Q1000
     FM0730 33018G28KT 9999 -SHRA BKN020
     INTER 0730/1030 27025G35KT 3000 +SHRA BKN010=
####018000211####
SPAU31 AMMC 080731
SPECI YPPH 080730Z 34013KT 6000 SHRA FEW008 SCT022 BKN050 FEW022CB 15/14
     Q1000
     FM0730 33018G28KT 9999 -SHRA BKN020
     INTER 0730/1030 27025G35KT 3000 +SHRA BKN010=


####018000080####
SANC01 NWWL 080730
METAR NWWL 080730Z AUTO 15002KT 9999NDV NCD 19/17 Q1015=
####018000086####
SANC01 NWWU 080730
METAR NWWU 080730Z AUTO VRB03KT 9999NDV FEW037/// 21/17 Q1014=
####018000080####
SANC01 NWWM 080730
METAR NWWM 080730Z AUTO 25003KT 9999NDV NCD 21/16 Q1015=
####018001770####
SAEU KAWN 080700 RRX
METAR EGAE 080720Z 22012KT 9999 FEW014 SCT023 BKN050 14/10 Q1012=
METAR EGBJ 080720Z 22003KT 9999 FEW020 17/11 Q1018=
METAR EGNH 080720Z 22011KT 9999 FEW015 SCT042 17/11 Q1016=
METAR EGPA 080720Z 19014KT 9999 SCT030 15/11 Q1006=
METAR EGPC 080720Z 19013KT 9999 FEW025 14/11 Q1007=
METAR EGPE 080720Z 22018KT 9999 FEW025 SCT048 15/09 Q1007=
METAR EGPN 080720Z 23015KT 9999 FEW022 SCT048 15/11 Q1011=
METAR EGPO 080720Z 22019KT 9999 6000NE -SHRA FEW018 BKN030 13/10 Q1004
      RESHRA=
METAR EGSC 080720Z 24005KT 210V280 8000 VCSH FEW012 BKN018 17/16 Q1018=
METAR COR EGSH 080720Z 23007KT 9999 SCT010 BKN028 20/16 Q1018 NOSIG=
METAR LBBG 080730Z 26006MPS 9999 -DZ FEW048 BKN066 BKN120 17/14 Q1015
      NOSIG=
METAR LBGO 080730Z 00000MPS 9999 -RA SCT033 OVC070 16/14 Q1017 NOSIG=
METAR LBPD 080730Z 26005MPS 9999 OVC050 16/12 Q1016 NOSIG=
METAR LBSF 080730Z 28007MPS 9999 BKN033 14/10 Q1018 NOSIG=
METAR LBWN 080730Z 28004MPS 230V340 9999 BKN025 19/14 Q1014 BECMG RA=
METAR LDDU 080730Z 31008KT 240V020 CAVOK 24/06 Q1019 NOSIG=
METAR LDPL 080730Z 08011KT CAVOK 23/10 Q1022 NOSIG=
METAR LDRI 080730Z 30004KT 210V350 CAVOK 23/09 Q1022 NOSIG=
METAR LDSP 080730Z VRB02KT CAVOK 25/05 Q1020 NOSIG=
METAR LDZA 080730Z 00000KT CAVOK 21/11 Q1023 NOSIG=
METAR LDZD 080730Z VRB03KT CAVOK 25/04 Q1021 NOSIG=
METAR LHDC 080715Z 01010KT CAVOK 20/12 Q1020 NOSIG=
METAR LHKE 080715Z 06004MPS CAVOK 21/10 Q1021 NOSIG RMK BLU=
METAR LHPA 080715Z 34004MPS CAVOK 20/11 Q1023 NOSIG RMK BLU=
METAR LHPP 080715Z 01007KT CAVOK 20/12 Q1023 NOSIG=
METAR LHSN 080715Z 06004MPS CAVOK 21/12 Q1021 NOSIG RMK BLU=
METAR LHUD 080715Z 31007KT CAVOK 18/14 Q1022=
METAR LSZH 080720Z 32004KT 240V020 CAVOK 20/13 Q1022 NOSIG=
####018000131####
SAAK41 KNKA 080731
SPECI PACM 080729Z AUTO 18006G15KT 1 3/4SM RA FEW018 BKN035 OVC060 
    12/08 A3010 RMK AO2 TSNO P0007 $=
####018002420####
SAUS20 KNKA 080731
SPECI KBDR 080730Z AUTO 06006KT 3SM BR BKN004 24/23 A3002 RMK AO2=
METAR KBEA 080725Z AUTO 05006KT 10SM SCT020 SCT030 BKN110 25/25 
     A2988 RMK AO2 LTG DSNT E T02520253=
METAR KBNL 080735Z AUTO 27004KT 10SM CLR 24/19 A3000 RMK AO2 =
METAR KC75 080726Z AUTO 00000KT 5SM BR BKN065 OVC075 23/23 A3003 
     RMK AO2 P0001=
METAR KCQW 080735Z AUTO 27006KT 7SM CLR 25/18 A2996 RMK AO2 =
SPECI KHYA 080730Z AUTO 19004KT 3SM BR OVC001 21/21 A3006 RMK AO2=
METAR KIGQ 080720Z AUTO 00000KT 7SM SCT055 24/22 A3004 RMK AO2=
SPECI KJEF 080730Z AUTO 00000KT 10SM -RA FEW007 BKN028 OVC065 24/23 
    A3004 RMK AO2 LTG DSNT E AND SE RAB0654 P0018=
METAR KJWY 080725Z AUTO 14005KT 10SM 24/23 A3000 RMK AO2 T02430225=
METAR KLKR 080735Z AUTO 00000KT 9SM CLR 19/19 A2999 RMK AO2 =
METAR KMKN 080720Z AUTO 00000KT 10SM 24/22 A3002 RMK AO2=
METAR KOLV 080735Z AUTO 00000KT 9SM CLR 24/24 A3006 RMK A01 P000 =
METAR KPEQ 080726Z AUTO 05006KT 10SM SCT120 24/21 A3005 RMK AO2=
SPECI KPYM 080730Z AUTO 00000KT 5SM BR BKN006 21/19 A3007 RMK AO2 
    CIG 002V009=
SPECI KRUE 080730Z AUTO 00000KT 10SM BKN025 24/23 A3005 RMK AO2=
METAR KRYW 080725Z AUTO 09003KT 7SM -RA OVC010 25/22 A2999 RMK AO2=
METAR KSAR 080725Z AUTO 18004KT 7SM SCT055 26/23 A3004 RMK AO2=
METAR KSLO 080722Z AUTO 18003KT 10SM CLR 24/22 A3005 RMK AO2 
     T02430215=
METAR KSOA 080720Z AUTO 10003KT 10SM 24/20 A3006 RMK AO2=
METAR KSWW 080725Z AUTO 16005KT 10SM CLR 22/21 A3007 RMK AO1 
     T02200208=
METAR KT65 080725Z AUTO 36003KT 10SM CLR 26/25 A2981 RMK AO2 LTG 
     DSNT S T02610251=
METAR KT82 080725Z AUTO 10003KT BKN010 BKN017 OVC025 24/23 A3001 
     RMK AO1 T02350225=
METAR KTAZ 080725Z AUTO 00000KT 10SM CLR 24/23 A3002 RMK AO2 LTG 
     DSNT NW=
METAR KTFP 080725Z AUTO 09003KT 10SM CLR 27/26 A2983 RMK AO2 LTG 
     DSNT N AND NE P0001 T02710256=
METAR KTIP 080725Z AUTO 30003KT 10SM CLR 25/23 A3005 RMK AO2 
     T02460232=
METAR KTYQ 080725Z AUTO 00000KT 5SM BR CLR 21/20 A3007 RMK AO2=
METAR KUVA 080725Z AUTO 05004KT 10SM CLR 24/23 A2994 RMK AO2 
     T02410227=
METAR KVYS 080725Z AUTO 00000KT 5SM -DZ BKN065 BKN085 23/22 A3003 
     RMK AO2 T02320216=
METAR KXBP 080725Z AUTO 13004KT 10SM BKN043 25/22 A3001 RMK AO2 
     T02500222=
SPECI PACM 080729Z AUTO 18006G15KT 1 3/4SM RA FEW018 BKN035 OVC060 
    12/08 A3010 RMK AO2 TSNO P0007 $=
####018000088####
SAMD90 KWBC 080731
METAR K2G4 080730Z AUTO 00000KT 10SM BKN060 22/13 A3019 RMK AO1=
####018000110####
SPUS90 KWBC 080732
SPECI KVCT 080729Z AUTO 05007KT 9SM FEW021 SCT050 26/25 A2989 RMK
     AO2 TSB07E23=
####018000175####
SAUS90 KWBC 080732
METAR K2G4 080730Z AUTO 00000KT 10SM BKN060 22/13 A3019 RMK
     AO1=
METAR KEHA 080728Z AUTO 30007KT 17/15 RMK AO1 PK WND 12 008
     T01670151=
####018000096####
SAUS98 KWBC 080732
METAR KEHA 080728Z AUTO 30007KT 17/15 RMK AO1 PK WND 12 008
T01670151=
####018001741####
SAUS99 KWBC 080732
METAR
KBEA 080725Z AUTO 05006KT 10SM SCT020 SCT030 BKN110 25/25 A2988
     RMK AO2 LTG DSNT E T02520253=
KBNL 080735Z AUTO 27004KT 10SM CLR 24/19 A3000 RMK AO2=
KC75 080726Z AUTO 00000KT 5SM BR BKN065 OVC075 23/23 A3003 RMK AO2
     P0001=
KCQW 080735Z AUTO 27006KT 7SM CLR 25/18 A2996 RMK AO2=
KIGQ 080720Z AUTO 00000KT 7SM SCT055 24/22 A3004 RMK AO2=
KJWY 080725Z AUTO 14005KT 10SM 24/23 A3000 RMK AO2 T02430225=
KLKR 080735Z AUTO 00000KT 9SM CLR 19/19 A2999 RMK AO2=
KMKN 080720Z AUTO 00000KT 10SM 24/22 A3002 RMK AO2=
KOLV 080735Z AUTO 00000KT 9SM CLR 24/24 A3006 RMK A01 P000=
KPEQ 080726Z AUTO 05006KT 10SM SCT120 24/21 A3005 RMK AO2=
KRYW 080725Z AUTO 09003KT 7SM -RA OVC010 25/22 A2999 RMK AO2=
KSAR 080725Z AUTO 18004KT 7SM SCT055 26/23 A3004 RMK AO2=
KSLO 080722Z AUTO 18003KT 10SM CLR 24/22 A3005 RMK AO2
     T02430215=
KSOA 080720Z AUTO 10003KT 10SM 24/20 A3006 RMK AO2=
KSWW 080725Z AUTO 16005KT 10SM CLR 22/21 A3007 RMK AO1
     T02200208=
KT65 080725Z AUTO 36003KT 10SM CLR 26/25 A2981 RMK AO2 LTG DSNT S
     T02610251=
KT82 080725Z AUTO 10003KT BKN010 BKN017 OVC025 24/23 A3001 RMK AO1
     T02350225=
KTAZ 080725Z AUTO 00000KT 10SM CLR 24/23 A3002 RMK AO2 LTG DSNT
     NW=
KTFP 080725Z AUTO 09003KT 10SM CLR 27/26 A2983 RMK AO2 LTG DSNT N
     AND NE P0001 T02710256=
KTIP 080725Z AUTO 30003KT 10SM CLR 25/23 A3005 RMK AO2
     T02460232=
KTYQ 080725Z AUTO 00000KT 5SM BR CLR 21/20 A3007 RMK AO2=
KUVA 080725Z AUTO 05004KT 10SM CLR 24/23 A2994 RMK AO2
     T02410227=
KVYS 080725Z AUTO 00000KT 5SM -DZ BKN065 BKN085 23/22 A3003 RMK
     AO2 T02320216=
KXBP 080725Z AUTO 13004KT 10SM BKN043 25/22 A3001 RMK AO2
     T02500222=
####018000759####
SPUS99 KWBC 080732
SPECI
KPHD 080729Z AUTO 00000KT 3SM BR CLR 20/18 A3008 RMK AO2=
KTRL 080730Z AUTO 00000KT 10SM SCT015 SCT021 27/22 A3000 RMK
     AO2=
PACM 080729Z AUTO 18006G15KT 1 3/4SM RA FEW018 BKN035 OVC060 12/08
     A3010 RMK AO2 TSNO P0007 $=
KBDR 080730Z AUTO 06006KT 3SM BR BKN004 24/23 A3002 RMK AO2=
KHYA 080730Z AUTO 19004KT 3SM BR OVC001 21/21 A3006 RMK AO2=
KJEF 080730Z AUTO 00000KT 10SM -RA FEW007 BKN028 OVC065 24/23
     A3004 RMK AO2 LTG DSNT E AND SE RAB0654 P0018=
KPYM 080730Z AUTO 00000KT 5SM BR BKN006 21/19 A3007 RMK AO2 CIG
     002V009=
KRUE 080730Z AUTO 00000KT 10SM BKN025 24/23 A3005 RMK AO2=
PACM 080729Z AUTO 18006G15KT 1 3/4SM RA FEW018 BKN035 OVC060 12/08
     A3010 RMK AO2 TSNO P0007 $=
####018000091####
SALI20 GLRB 080700
METAR GLRB 080700Z 00000KT 9999 BKN012 FEW024CB 24/23 Q1014
 CB-SW=
####018000106####
SAMR20 TFFF 080730
METAR TFFF 080730Z AUTO 06010KT 9999NDV FEW010/// BKN024///
BKN031/// 28/25 Q1013=
####018000085####
SANC01 NWWW 080730
METAR NWWW 080730Z AUTO 00000KT 9999NDV SCT046/// 20/16 Q1016=
####018000442####
SAHK31 VHHH 080730
METAR VHHH 080730Z 21013KT 180V240 9999 FEW020 SCT030 34/24 
Q1006 NOSIG=
METAR RCTP 080730Z 25018KT 9999 FEW025 SCT150 32/26 Q1007
NOSIG=
METAR RCKH 080730Z 26012KT 220V310 9999 FEW013 BKN120 32/26
Q1008 NOSIG RMK 28012KT/RWY09=
METAR RCSS 080730Z 32007KT 270V390 9999 FEW020 SCT035 BKN100 35/24
Q1006 NOSIG RMK 31008KT/R10=
METAR VMMC 080730Z 19013KT 170V260 9999 FEW015 SCT030 BKN090
     31/27 Q1006 NOSIG=
####018000086####
SAUZ31 UTTW 080730
METAR UTST 080730Z VRB01MPS CAVOK 39/06 Q1007 R88/CLRD70 NOSIG=
####018000190####
SPAU31 YBBN 080731
SPECI YPPH 080730Z 34013KT 6000 SHRA FEW008 SCT022 BKN050 FEW022CB
15/14 Q1000
FM0730 33018G28KT 9999 -SHRA BKN020
INTER 0730/1030 27025G35KT 3000 +SHRA BKN010=
####018000080####
SAHU31 LHBM 080730
METAR LHBP 080730Z VRB03KT 9999 FEW038 21/11 Q1022 NOSIG=
####018000599####
SAGR31 LGAT 080720
METAR LGAD 080720Z 33009KT 9999 FEW020 27/20 Q1013=
METAR LGAV 080720Z 03018KT 9999 SCT025 26/14 Q1012 NOSIG=
METAR LGIR 080720Z 08004KT CAVOK 29/18 Q1011 NOSIG=
METAR COR LGKL 080720Z 32006KT CAVOK 30/17 Q1011=
METAR LGKO 080720Z 31017KT CAVOK 27/18 Q1009=
METAR LGKR 080720Z 31018KT CAVOK 27/12 Q1013 NOSIG=
METAR LGLM 080720Z 03012KT 9999 SCT008 FEW020TCU SCT025 BKN080 19/18
      Q1013=
METAR LGRP 080720Z NIL=
METAR LGSA 080720Z 30008KT CAVOK 31/15 Q1011=
METAR LGSM 080720Z 34015KT CAVOK 28/15 Q1010=
METAR LGTS 080720Z 33025KT 9999 FEW025 21/11 Q1016 NOSIG=
####018001996####
SAUS70 KWBC 080732
METAR
KCCA 080735Z AUTO 00000KT 3SM BR CLR 23/22 A3005 RMK AO2=
KCDN 080735Z AUTO 28003KT 10SM CLR 26/22 A2999 RMK A02 P000=
KCKI 080735Z AUTO 00000KT 10SM CLR 22/21 A2995 RMK AO2=
KLRO 080735Z AUTO 28003KT 10SM CLR 24/19 A2996 RMK AO2=
KMKS 080735Z AUTO 27003KT 10SM CLR 24/20 A2996 RMK AO2 TSNO=
KBEA 080725Z AUTO 05006KT 10SM SCT020 SCT030 BKN110 25/25 A2988
     RMK AO2 LTG DSNT E T02520253=
KBNL 080735Z AUTO 27004KT 10SM CLR 24/19 A3000 RMK AO2=
KC75 080726Z AUTO 00000KT 5SM BR BKN065 OVC075 23/23 A3003 RMK AO2
     P0001=
KCQW 080735Z AUTO 27006KT 7SM CLR 25/18 A2996 RMK AO2=
KIGQ 080720Z AUTO 00000KT 7SM SCT055 24/22 A3004 RMK AO2=
KJWY 080725Z AUTO 14005KT 10SM 24/23 A3000 RMK AO2 T02430225=
KLKR 080735Z AUTO 00000KT 9SM CLR 19/19 A2999 RMK AO2=
KOLV 080735Z AUTO 00000KT 9SM CLR 24/24 A3006 RMK A01 P000=
KPEQ 080726Z AUTO 05006KT 10SM SCT120 24/21 A3005 RMK AO2=
KRYW 080725Z AUTO 09003KT 7SM -RA OVC010 25/22 A2999 RMK AO2=
KSAR 080725Z AUTO 18004KT 7SM SCT055 26/23 A3004 RMK AO2=
KSLO 080722Z AUTO 18003KT 10SM CLR 24/22 A3005 RMK AO2
     T02430215=
KSWW 080725Z AUTO 16005KT 10SM CLR 22/21 A3007 RMK AO1
     T02200208=
KT65 080725Z AUTO 36003KT 10SM CLR 26/25 A2981 RMK AO2 LTG DSNT S
     T02610251=
KT82 080725Z AUTO 10003KT BKN010 BKN017 OVC025 24/23 A3001 RMK AO1
     T02350225=
KTAZ 080725Z AUTO 00000KT 10SM CLR 24/23 A3002 RMK AO2 LTG DSNT
     NW=
KTFP 080725Z AUTO 09003KT 10SM CLR 27/26 A2983 RMK AO2 LTG DSNT N
     AND NE P0001 T02710256=
KTIP 080725Z AUTO 30003KT 10SM CLR 25/23 A3005 RMK AO2
     T02460232=
KTYQ 080725Z AUTO 00000KT 5SM BR CLR 21/20 A3007 RMK AO2=
KUVA 080725Z AUTO 05004KT 10SM CLR 24/23 A2994 RMK AO2
     T02410227=
KVYS 080725Z AUTO 00000KT 5SM -DZ BKN065 BKN085 23/22 A3003 RMK
     AO2 T02320216=
KXBP 080725Z AUTO 13004KT 10SM BKN043 25/22 A3001 RMK AO2
     T02500222=
K2G4 080730Z AUTO 00000KT 10SM BKN060 22/13 A3019 RMK AO1=
####018000254####
SPUS80 KWBC 080732
SPECI
KVCT 080729Z AUTO 05007KT 9SM FEW021 SCT050 26/25 A2989 RMK AO2
     TSB07E23=
KEKN 080729Z AUTO 00000KT 2 1/2SM BR SCT070 18/17 A3015 RMK AO2
     TSNO=
KBDR 080730Z AUTO 06006KT 3SM BR BKN004 24/23 A3002 RMK AO2=
####018000211####
SAUS80 KWBC 080732
METAR
KMKN 080720Z AUTO 00000KT 10SM 24/22 A3002 RMK AO2=
KSOA 080720Z AUTO 10003KT 10SM 24/20 A3006 RMK AO2=
KEHA 080728Z AUTO 30007KT 17/15 RMK AO1 PK WND 12 008
     T01670151=
####018000110####
SASR31 WSSS 080730
METAR WSSS 080730Z 21004KT 170V260 9999 -RA FEW016 FEW018TCU BKN150
29/25 Q1009 NOSIG=
####018000832####
SPUS70 KWBC 080732
SPECI
KGFL 080729Z AUTO 00000KT 1/2SM FG CLR 21/21 A3001 RMK AO2=
KVTA 080729Z AUTO 00000KT 2 1/2SM BR SCT065 19/18 A3008 RMK
     AO2=
KPHD 080729Z AUTO 00000KT 3SM BR CLR 20/18 A3008 RMK AO2=
KTRL 080730Z AUTO 00000KT 10SM SCT015 SCT021 27/22 A3000 RMK
     AO2=
PACM 080729Z AUTO 18006G15KT 1 3/4SM RA FEW018 BKN035 OVC060 12/08
     A3010 RMK AO2 TSNO P0007 $=
KHYA 080730Z AUTO 19004KT 3SM BR OVC001 21/21 A3006 RMK AO2=
KJEF 080730Z AUTO 00000KT 10SM -RA FEW007 BKN028 OVC065 24/23
     A3004 RMK AO2 LTG DSNT E AND SE RAB0654 P0018=
KPYM 080730Z AUTO 00000KT 5SM BR BKN006 21/19 A3007 RMK AO2 CIG
     002V009=
KRUE 080730Z AUTO 00000KT 10SM BKN025 24/23 A3005 RMK AO2=
PACM 080729Z AUTO 18006G15KT 1 3/4SM RA FEW018 BKN035 OVC060 12/08
     A3010 RMK AO2 TSNO P0007 $=
####018000189####
SAAF31 KWBC 080700 RRC
METAR
DIAP 080730Z 00000KT 6000 SCT012 SCT080 BKN260 26/25 Q1015 TEMPO
     6000 BKN018 BKN080=
DXXX 080730Z 25005KT 220V290 8000 SCT010 25/24 Q1014 NOSIG=
####018000109####
SAAO33 KWBC 080700 RRC
METAR
GOOY 080730Z 16005KT 130V200 9999 FEW013 SCT230 27/24 Q1011
     NOSIG=
####018000190####
SPAU31 KWBC 080732
SPECI
YPPH 080730Z 34013KT 6000 SHRA FEW008 SCT022 BKN050 FEW022CB 15/14
Q1000 FM0730 33018G28KT 9999 -SHRA BKN020 INTER 0730/1030
27025G35KT 3000 +SHRA BKN010=
####018000398####
SAAW31 KWBC 080700 RRA
METAR
LTAC 080720Z 05012KT 9999 SCT040 24/16 Q1014 NOSIG=
LTAF 080720Z /////KT 5000 2000S BR SCT035 BKN100 29/22 Q1008 BECMG
     TL0750 9999 NSW=
LTAI 080720Z 14005KT 080V200 8000 SCT020 28/22 Q1008 NOSIG=
LTBA 080720Z 35024KT 9999 SCT035 24/14 Q1012 NOSIG=
LTBJ 080720Z 01012KT CAVOK 29/11 Q1009 NOSIG=
LTBS 080720Z 20009KT 9999 FEW030 29/22 Q1008 NOSIG=
####018000090####
SAAF36 KWBC 080700 RRC
METAR
HKMO 080700Z 18010KT 9999 FEW022TCU 25/20 Q1020 NOSIG=
####018000473####
SAAW41 KWBC 080750 RRB
METAR
LTAJ 080720Z 20004KT CAVOK 33/15 Q1008 NOSIG=
LTAN 080720Z 01009KT CAVOK 27/14 Q1013 NOSIG=
LTAU 080720Z 12002KT 9999 FEW040 27/15 Q1013 NOSIG=
LTCC 080720Z VRB03KT CAVOK 35/06 Q1007 NOSIG=
LTCE 080720Z 08011KT 050V110 9999 FEW025 25/10 Q1018 NOSIG=
LTCG 080720Z 07005KT 9999 SCT035 SCT100 26/21 Q1011 NOSIG=
LTCI 080720Z 28006KT 240V310 CAVOK 25/14 Q1017 NOSIG=
LTFE 080720Z VRB04KT CAVOK 30/16 Q1008 BECMG TL0900 30014KT=
####018000245####
SAAW34 KWBC 080715 RRB
METAR
OPGD 080730Z NIL=
OPLA 080725Z 12006KT 6000 SCT040 37/23 Q1006=
OPNH 080730Z NIL=
OPPS 080730Z NIL=
OPRN 080730Z NIL=
OPSK 080730Z NIL=
UTTT 080730Z 30003MPS 7000 NSC 37/11 Q1011 R08R/CLRD70 NOSIG=
####018000287####
SACI31 KWBC 080700 RRB
METAR
RCKH 080730Z 26012KT 220V310 9999 FEW013 BKN120 32/26 Q1008 NOSIG
     RMK 28012KT/RWY09=
RCSS 080730Z 32007KT 270V390 9999 FEW020 SCT035 BKN100 35/24 Q1006
     NOSIG RMK 31008KT/R10=
RCTP 080730Z 25018KT 9999 FEW025 SCT150 32/26 Q1007 NOSIG=
####018000081####
SADL31 KWBC 080720 RRA
METAR
EDHL 080720Z 16008KT CAVOK 22/15 Q1020 RMK G=
####018000086####
SADL32 KWBC 080720 RRA
METAR
EDLW 080720Z 19009KT CAVOK 25/09 Q1020 RMK ATIS I=
####018000088####
SPCN31 KWBC 080732
SPECI
CYKL 080729Z AUTO 14004KT 9SM OVC041 OVC094 13/13 A2987=
####018000086####
SADL33 KWBC 080715 RRC
METAR
EDNY 080720Z VRB05KT CAVOK 21/12 Q1022 RMK ATIS I=
####018000174####
SPDN31 KWBC 080732
SPECI
EKVG 080730Z 16010KT 9999 SCT004 BKN006 BKN010 11/10 Q0992 RMK/RWY
13/31 CLOSED DUE WIP. SEE NOTAM E0050/10 WIND 850FT 15010G23KT
110V240=
####018000093####
SPUS31 KWBC 080732
SPECI
KDEN 080728Z 00000KT 5SM BR SCT004 BKN026 OVC120 15/14 A3033=
####018000159####
SARA31 KWBC 080700 RRE
METAR
UBBB 080730Z 34022KT CAVOK 31/26 Q1011 NOSIG RMK R88CLRD70=
UTTT 080730Z 30003MPS 7000 NSC 37/11 Q1011 R08R/CLRD70 NOSIG=
####018000089####
SASW31 KWBC 080720 RRA
METAR
LSZH 080720Z 32004KT 240V020 CAVOK 20/13 Q1022 NOSIG=
####018000084####
SPUS31 KWBC 080732
SPECI
KMCI 080728Z 34004KT 10SM FEW011 OVC043 23/22 A3008=
####018000136####
SAUK31 KWBC 080720 RRB
METAR
EGNH 080720Z 22011KT 9999 FEW015 SCT042 17/11 Q1016=
EGNJ 080720Z 22009KT 9999 FEW030 16/12 Q1017=
####018000190####
SAUK32 KWBC 080720 RRB
METAR
EGPA 080720Z 19014KT 9999 SCT030 15/11 Q1006=
EGPC 080720Z 19013KT 9999 FEW025 14/11 Q1007=
EGSH 080720Z 23007KT 9999 SCT010 BKN028 20/16 Q1018 NOSIG=
####018000239####
SAUK41 KWBC 080720 RRB
METAR
EGAE 080720Z 22012KT 9999 FEW014 SCT023 BKN050 14/10 Q1012=
EGBE 080720Z NIL=
EGBJ 080720Z 22003KT 9999 FEW020 17/11 Q1018=
EGDL 080720Z NIL=
EGNC 080720Z 22012KT 190V250 9999 SCT035 15/11 Q1014=
####018000489####
SAUK42 KWBC 080720 RRA
METAR
EGPC 080720Z 19013KT 9999 FEW025 14/11 Q1007=
EGPE 080720Z 22018KT 9999 FEW025 SCT048 15/09 Q1007=
EGPL 080720Z 22021KT 9999 VCSH FEW015 SCT020 14/11 Q1006=
EGPM 080720Z 21023KT 9999 FEW012 SCT040 14/10 Q1004 NOSIG=
EGPN 080720Z 23015KT 9999 FEW022 SCT048 15/11 Q1011=
EGPO 080720Z 22019KT 9999 6000NE -SHRA FEW018 BKN030 13/10 Q1004
     RESHRA=
EGPU 080720Z NIL=
EGSC 080720Z 24005KT 210V280 8000 VCSH FEW012 BKN018 17/16
     Q1018=
####018000103####
SACN97 CWAO 080700 RRD
XTV SA 0700 AUTO8 M M M 162/06/M/2810/M/M PK WND 3024 0602Z 3012
0MMM=

####018000087####
SAXX61 KWBC 080700 RRE
METAR
LTAC 080720Z 05012KT 9999 SCT040 24/16 Q1014 NOSIG=
####018000135####
SACN96 CWAO 080700 RRD
WYF SA 0700 AUTO8 M M M 100/06/03/2904/M/ 2003 63MM=
WZV SA 0700 AUTO8 M M M M/M/M/3406/M/M 1003 MMMM=

####018000879####
SACN59 CWAO 080700 RRD
PBL SA 0700 AUTO8 M M M M/13/10/2404/M/ M 33MM=
PFI SA 0700 AUTO8 M M M M/13/12/1903/M/ M 25MM=
PRO SA 0700 AUTO8 M M M M/11/11/2305/M/ M 06MM=
PRY SA 0700 AUTO8 M M M M/11/09/2102/M/ M 58MM=
PST SA 0700 AUTO8 M M M M/14/10/1205/M/ M 73MM=
PSV SA 0700 AUTO8 M M M M/09/08/2204/M/ M 32MM=
XAK SA 0700 AUTO8 M M M M/12/09/2009/M/ M 54MM=
XFM SA 0700 AUTO8 M M M M/12/09/1906/M/ M 63MM=
XHD SA 0700 AUTO8 M M M M/12/11/2306/M/ M 30MM=
XMO SA 0700 AUTO8 M M M M/10/08/1805/M/ M 12MM=
XOL SA 0700 AUTO8 M M M M/10/08/1906/M/ M 55MM=
XPL SA 0700 AUTO8 M M M M/10/09/2905/M/ M 17MM=
XSL SA 0700 AUTO8 M M M M/13/11/2302/M/M M 06MM=
XSP SA 0700 AUTO8 M M M M/13/11/1903/M/ M 10MM=
XVM SA 0700 AUTO8 M M M M/12/11/2204/M/ M 29MM=
ZOL SA 0700 AUTO8 M M M M/12/11/2202/M/ M 92MM=
ZPS SA 0700 AUTO8 M M M M/14/09/2209/M/ M 61MM=

####018000283####
SACN98 CWAO 080700 RRE
XAG SA 0700 AUTO8 M M M M/12/11/2205/M/ M 60MM=
XAJ SA 0700 AUTO8 M M M M/13/10/2503/M/ M 23MM=
XBA SA 0700 AUTO8 M M M M/11/10/2605/M/ M 39MM=
XCS SA 0700 AUTO8 M M M M/12/10/2707/M/ M 04MM=
XYH SA 0700 AUTO8 M M M 148/14/13/0000/M/ 1025 36MM=

####018000103####
SACN87 CWAO 080700 RRC
WWS SA 0700 AUTO8 M M M 128/16/13/3011/M/ PK WND 3219 0606Z 0001
25MM=

####018000083####
SACN90 CWAO 080700 RRC
WEC SA 0700 AUTO8 M M M 127/18/14/2907/M/ 6012 41MM=

####018000151####
SACN94 CWAO 080700 RRD
WQS SA 0700 AUTO8 M M M M/13/M/0114/M/ PK WND 3621 0614Z M 7MMM=
WRR SA 0700 AUTO8 M M M 172/07/06/2002/M/M 2011 53MM=

####018000078####
SACN70 CWAO 080700 RRC
XMN SA 0700 AUTO8 M M M M/12/09/1606/M/ M 79MM=

####018000135####
SACN78 CWAO 080700 RRD
WNB SA 0700 AUTO8 M M M M/M/M/MM09/M/M 8006 MMMM=
WPS SA 0700 AUTO8 M M M 158/25/M/1611/M/M 8004 9MMM=

####018000090####
SAXX99 KWBC 080700 CCD
METAR
FYML 080700Z AUTO 35002KT //// // ////// 11/M02 Q1029=
####018001178####
SAXX99 KWBC 080700 RRV
METAR
EGCN 080720Z 23010KT 9999 FEW035 16/11 Q1018=
EGEC 080720Z NIL=
EGNR 080720Z 17005KT 140V210 9999 FEW025 16/11 Q1017=
EGPI 080720Z NIL=
EGVN 080720Z NIL=
EGWU 080720Z NIL=
ETMN 080720Z 19004KT 9999 BKN090 BKN260 22/11 Q1019 BLU BLU BECMG
     BLU/=
ETNS 080720Z 16007KT 9999 SCT050 SCT120 23/09 Q1019 BLU/BLU=
ETNU 080720Z 16003KT 9999 FEW130 BKN180 21/11 Q1022 BLU BLU TEMPO
     BLU/=
LBGO 080730Z 00000MPS 9999 -RA SCT033 OVC070 16/14 Q1017 NOSIG=
LHDC 080715Z 01010KT CAVOK 20/12 Q1020 NOSIG=
LHKE 080715Z 06004MPS CAVOK 21/10 Q1021 NOSIG RMK BLU=
LHPP 080715Z 01007KT CAVOK 20/12 Q1023 NOSIG=
LHSN 080715Z 06004MPS CAVOK 21/12 Q1021 NOSIG RMK BLU=
LHUD 080715Z 31007KT CAVOK 18/14 Q1022=
LOXT 080720Z VRB03KT 50KM FEW300CI 19/12 Q1024 NOSIG RMK FEW=
LTAZ 080720Z NIL=
LTBR 080720Z 01006KT CAVOK 26/15 Q1012 NOSIG=
LTBU 080720Z 34013KT 9999 SCT030 BKN100 23/12 Q1014=
LTCF 080720Z 03010KT 360V070 CAVOK 25/13 Q1020=
LTFH 080720Z 30011KT 9999 SCT036 BKN100 26/22 Q1011 NOSIG=
LTFJ 080720Z 01015KT 9999 SCT035 24/17 Q1011 NOSIG=
VTBO 080700Z 24010KT 9999 TS FEW018CB BKN020 30/26 Q1008 CB AD=
####018000099####
SPUS41 KWBC 080732
SPECI
KLUK 080728Z AUTO 00000KT 2SM R21L/1800VP6000FT BR CLR 22/22 A3007=
####018000088####
SPUS51 KWBC 080732
SPECI
KEKN 080729Z AUTO 00000KT 2 1/2SM BR SCT070 18/17 A3015=
####018000083####
SPUS51 KWBC 080732
SPECI
KGFL 080729Z AUTO 00000KT 1/2SM FG CLR 21/21 A3001=
####018000088####
SPUS52 KWBC 080732
SPECI
KVCT 080729Z AUTO 05007KT 9SM FEW021 SCT050 26/25 A2989=
####018000081####
SPUS53 KWBC 080732
SPECI
KDDC 080728Z AUTO 02007KT 7SM FEW009 18/17 A3016=
####018000085####
SAMD90 KWBC 080731
METAR KCBE 080731Z AUTO 02003KT 10SM CLR 23/18 A3009 RMK AO1=
####018000087####
SAMD90 KWBC 080731
METAR KESN 080736Z AUTO 00000KT 5SM BR CLR 23/23 A3001 RMK AO2=
####018000084####
SAMD90 KWBC 080731
METAR KCGE 080729Z AUTO 00000KT 5SM CLR 25/23 A2999 RMK AO1=
####018000084####
SAMD90 KWBC 080731
METAR KCGS 080735Z AUTO 00000KT 7SM CLR 26/22 A2998 RMK AO1=
####018000084####
SAMD90 KWBC 080731
METAR K2W6 080731Z AUTO 00000KT 7SM CLR 23/22 A2999 RMK AO1=
####018000084####
SAMD90 KWBC 080731
METAR KDMW 080731Z AUTO 00000KT 7SM CLR 26/21 A3003 RMK AO2=
####018000087####
SAMD90 KWBC 080731
METAR KFDK 080717Z AUTO 00000KT 7SM SCT090 25/21 A3002 RMK AO2=
####018000088####
SPUS72 KWBC 080732
SPECI
KVCT 080729Z AUTO 05007KT 9SM FEW021 SCT050 26/25 A2989=
####018000081####
SPUS73 KWBC 080732
SPECI
KDDC 080728Z AUTO 02007KT 7SM FEW009 18/17 A3016=
####018000093####
SPUS73 KWBC 080732
SPECI
KDEN 080728Z 00000KT 5SM BR SCT004 BKN026 OVC120 15/14 A3033=
####018000084####
SPUS73 KWBC 080732
SPECI
KMCI 080728Z 34004KT 10SM FEW011 OVC043 23/22 A3008=
####018000093####
SALI20 GLRB 080700
METAR GLRB 080700Z 00000KT 9999 BKN012 FEW024CB 24/23 Q1014
 CB-SW=
####018000108####
SAMR20 TFFF 080730
METAR TFFF 080730Z AUTO 06010KT 9999NDV FEW010/// BKN024///
BKN031/// 28/25 Q1013=
####018000106####
SATU33 LTAA 080720
METAR LCEN 080720Z 09003KT 9999 FEW025 30/17 Q1008 NOSIG=
METAR LCGK 080720Z NIL=
####018000919####
SATU31 LTAA 080720
METAR LTAC 080720Z 05012KT 9999 SCT040 24/16 Q1014 NOSIG=
METAR LTAF 080720Z /////KT 5000 2000S BR SCT035 BKN100 29/22 Q1008
BECMG TL0750 9999 NSW=
METAR LTAI 080720Z 14005KT 080V200 8000 SCT020 28/22 Q1008 NOSIG=
METAR LTAJ 080720Z 20004KT CAVOK 33/15 Q1008 NOSIG=
METAR LTAZ 080720Z NIL=
METAR LTBA 080720Z 35024KT 9999 SCT035 24/14 Q1012 NOSIG=
METAR LTBJ 080720Z 01012KT CAVOK 29/11 Q1009 NOSIG=
METAR LTBS 080720Z 20009KT 9999 FEW030 29/22 Q1008 NOSIG=
METAR LTCF 080720Z 03010KT 360V070 CAVOK 25/13 Q1020=
METAR LTCG 080720Z 07005KT 9999 SCT035 SCT100 26/21 Q1011 NOSIG=
METAR LTCI 080720Z 28006KT 240V310 CAVOK 25/14 Q1017 NOSIG=
METAR LTCS 080720Z 15007KT 090V230 CAVOK 34/12 Q1010=
METAR LTFE 080720Z VRB04KT CAVOK 30/16 Q1008 BECMG TL0900 30014KT=
METAR LTFH 080720Z 30011KT 9999 SCT036 BKN100 26/22 Q1011 NOSIG=
METAR LTFJ 080720Z 01015KT 9999 SCT035 24/17 Q1011 NOSIG=
####018000087####
SAUZ31 UTTW 080730
METAR UTST 080730Z VRB01MPS CAVOK 39/06 Q1007 R88/CLRD70 NOSIG=
####018000367####
SATU32 LTAA 080720
METAR LTAN 080720Z 01009KT CAVOK 27/14 Q1013 NOSIG=
METAR LTAU 080720Z 12002KT 9999 FEW040 27/15 Q1013 NOSIG=
METAR LTBR 080720Z 01006KT CAVOK 26/15 Q1012 NOSIG=
METAR LTBU 080720Z 34013KT 9999 SCT030 BKN100 23/12 Q1014=
METAR LTCC 080720Z VRB03KT CAVOK 35/06 Q1007 NOSIG=
METAR LTCE 080720Z 08011KT 050V110 9999 FEW025 25/10 Q1018 NOSIG=
####018000100####
SARM31 LUKK 080730
METAR LUKK 080730Z 33008KT 240V360 9999 SCT016 20/14 Q1015
08CLRD65 NOSIG=
####018000199####
SASQ31 LZIB 080730
METAR LZIB 080730Z 03009KT 350V060 CAVOK 22/06 Q1023=
METAR LZKZ 080730Z 02010KT 340V060 CAVOK 20/11 Q1021 NOSIG=
METAR LZTT 080730Z VRB03KT 9999 FEW043 17/08 Q1022 NOSIG=
####018000088####
SPUS81 KWBC 080732
SPECI
KEKN 080729Z AUTO 00000KT 2 1/2SM BR SCT070 18/17 A3015=
####018000304####
SAMC31 GMMC 080730
METAR GMME 080730Z VRB01KT 6000 OVC010 22/19 Q1015 NOSIG=
METAR GMMX 080730Z 24005KT 210V270 6000 FEW100 23/18 Q1016 NOSIG=
METAR GMTT 080730Z 29004KT 240V340 8000 FEW010 SCT016 22/20 Q1016
NOSIG=
METAR GMAD 080730Z NIL=
METAR GMFF 080730Z NIL=
METAR GMMN 080730Z NIL=
####018001132####
SAEW KAWN 080700 RRL
METAR EDHL 080720Z 16008KT CAVOK 22/15 Q1020 RMK G=
METAR EDLW 080720Z 19009KT CAVOK 25/09 Q1020 RMK ATIS I=
METAR EDNY 080720Z VRB05KT CAVOK 21/12 Q1022 RMK ATIS I=
METAR EHAM 080725Z 27008KT 230V300 CAVOK 22/15 Q1019 NOSIG=
METAR EHDL 080725Z AUTO 22008KT 9999NDV SCT150 25/12 Q1019 BLU=
METAR EHGG 080725Z AUTO 21008KT 180V240 9999NDV NSC 22/12 Q1018 NOSIG=
METAR EHGR 080725Z AUTO 23005KT 9999NDV FEW300 25/12 Q1019 BLU BLU=
METAR EHKD 080725Z AUTO 23010KT 9999NDV FEW200/// 20/15 Q1018 BLU BLU=
METAR EHLW 080725Z AUTO 23007KT 9999NDV OVC110 22/16 Q1018 RE// BLU
      BLU=
METAR EHVK 080725Z AUTO 20005KT 9999NDV NCD 25/12 Q1019 BLU BLU=
METAR EHVL 080725Z AUTO 23013KT 9999NDV OVC100 19/15 Q1018 BLU=
METAR EHWO 080725Z AUTO 27006KT 9999NDV BKN140 23/14 Q1019 BLU BLU=
METAR ETMN 080720Z 19004KT 9999 BKN090 BKN260 22/11 Q1019 BLU BLU BECMG
      BLU/=
METAR ETNS 080720Z 16007KT 9999 SCT050 SCT120 23/09 Q1019 BLU/BLU=
METAR ETNU 080720Z 16003KT 9999 FEW130 BKN180 21/11 Q1022 BLU BLU TEMPO
      BLU/=
METAR LSZH 080720Z 32004KT 240V020 CAVOK 20/13 Q1022 NOSIG=
####018000420####
SAXX70 KAWN 080700 RRP
METAR KQEN 080730Z AUTO 06004KT M1/4SM BR VV004 18/17 A3039 RMK A02=
METAR KQEP 080730Z AUTO 24002KT 7SM FEW047 29/16 A2985 RMK A02=
METAR KQER 080730Z AUTO 24003KT 7SM FEW028 26/17 A2987 RMK A02=
METAR KQES 080730Z AUTO 32009KT 5SM BR CLR 20/17 A2984 RMK A02=
METAR KQEY 080730Z AUTO 33003KT 7SM CLR 28/16 A2957 RMK A02=
METAR KQEV 080740Z AUTO 34001KT 7SM CLR 30/17 A2976 RMK A02=
####018000088####
SPUS81 KWBC 080732
SPECI
KVCT 080729Z AUTO 05007KT 9SM FEW021 SCT050 26/25 A2989=
####018000084####
SAMD90 KWBC 080731
METAR KMTN 080733Z AUTO 00000KT 7SM CLR 26/24 A3000 RMK AO2=
####018000087####
SAMD90 KWBC 080731
METAR KW29 080731Z AUTO 14003KT 7SM SCT110 25/22 A2998 RMK AO1=
####018000084####
SAMD90 KWBC 080731
METAR KFME 080733Z AUTO 00000KT 4SM CLR 21/21 A3001 RMK AO1=
####018000075####
SACN50 CWAO 080715
VOK SA 0715 AUTO8 M M M M/15/07/0302/M/M M 36MM=

####018000075####
SACN50 CWAO 080730
VOY SA 0730 AUTO8 M M M M/14/07/3301/M/M M 51MM=

####018000075####
SACN50 CWAO 080730
VOV SA 0730 AUTO8 M M M M/13/06/0202/M/M M 74MM=

####018000074####
SACN50 CWAO 080730
VOJ SA 0730 AUTO8 M M M M/17/M/0306/M/M M 2MMM=

####018000075####
SACN50 CWAO 080730
VWB SA 0730 AUTO8 M M M M/17/04/MMMM/M/M M 00MM=

####018000075####
SACN50 CWAO 080730
VOB SA 0730 AUTO8 M M M M/17/07/0000/M/M M 25MM=

####018000075####
SACN50 CWAO 080715
VOV SA 0715 AUTO8 M M M M/13/06/0301/M/M M 84MM=

####018000074####
SACN50 CWAO 080715
WPN SA 0715 AUTO8 M M M M/16/M/1202/M/M M 2MMM=

####018000075####
SACN50 CWAO 080730
WHC SA 0730 AUTO8 M M M M/20/14/MMMM/M/M M 77MM=

####018000075####
SACN50 CWAO 080730
VOF SA 0730 AUTO8 M M M M/15/07/3603/M/M M 86MM=

####018000075####
SACN50 CWAO 080715
VOY SA 0715 AUTO8 M M M M/14/07/3401/M/M M 28MM=

####018000075####
SACN50 CWAO 080730
VOK SA 0730 AUTO8 M M M M/15/06/0701/M/M M 44MM=

####018000075####
SACN50 CWAO 080730
VOU SA 0730 AUTO8 M M M M/25/07/3408/M/M M 69MM=

####018000078####
SAMT20 GQNN 080730
METAR GQNN 080730Z 19006KT 6000 NSC 26/23 Q1011 NOSIG=
####018000210####
SPNA35 KAWN 080732 RRD
SPECI KDOV 080728Z AUTO 00000KT 4SM R01/4000V4500FT BR SCT110 25/25
      A2998 RMK AO2 SLP155=
SPECI KJFK 080725Z 00000KT 1 3/4SM BR BKN003 OVC009 24/23 A3002 RMK
      AO2 $=
####018000119####
SPCN46 CWAO 080732
SPECI CYKF 080732Z AUTO 00000KT 1 1/2SM BR CLR 19/18 A3006 RMK SLP177
 DENSITY ALT 1600FT=

####018000107####
SATU33 LTAA 080720
METAR LCEN 080720Z 09003KT 9999 FEW025 30/17 Q1008 NOSIG=
METAR LCGK 080720Z NIL=
####018000075####
SACN95 CWAO 080730
WWA SA 0730 AUTO8 M M M M/21/09/0301/M/M M 64MM=

####018000075####
SACN94 CWAO 080730
WSK SA 0730 AUTO8 M M M M/17/12/0301/M/M M 92MM=

####018000075####
SACN88 CWAO 080730
WZU SA 0730 AUTO7 M M M M/17/16/1601/M/M M 59MM=

####018000075####
SACN50 CWAO 080730
VOD SA 0730 AUTO8 M M M M/12/04/0803/M/M M 11MM=

####018000422####
SAUS20 KNKA 080732
METAR K1F0 080727Z AUTO 00000KT 10SM SCT031 BKN036 24/24 A3000 
     RMK AO2=
METAR K2G4 080730Z AUTO 00000KT 10SM BKN060 22/13 A3019 RMK
     AO1=
METAR KDUC 080732Z AUTO 04004KT 10SM CLR 23/22 A3002 RMK AO2=
SPECI KMKO 080731Z AUTO 08003KT 10SM FEW009 BKN060 OVC085 23/23 
    A3002 RMK AO2 LTG DSNT N=
METAR KONM 080727Z AUTO 00000KT 10SM CLR 20/14 A3022 RMK AO2 
     T01950135=
####018000075####
SALY31 HLLB 080730
METAR HLLB 080725Z 33012KT 9999 FEW025 29/18 Q1016=
####018000298####
SAUS99 KWBC 080733
METAR
K1F0 080727Z AUTO 00000KT 10SM SCT031 BKN036 24/24 A3000 RMK
     AO2=
K2G4 080730Z AUTO 00000KT 10SM BKN060 22/13 A3019 RMK AO1=
KDUC 080732Z AUTO 04004KT 10SM CLR 23/22 A3002 RMK AO2=
KONM 080727Z AUTO 00000KT 10SM CLR 20/14 A3022 RMK AO2
     T01950135=
####018000122####
SPUS99 KWBC 080733
SPECI
KMKO 080731Z AUTO 08003KT 10SM FEW009 BKN060 OVC085 23/23 A3002
     RMK AO2 LTG DSNT N=
####018000299####
SAGR33 LGAT 080720
METAR LGHI 080720Z NIL=
METAR LGKC 080720Z NIL=
METAR LGKF 080720Z NIL=
METAR LGKP 080720Z 32015KT CAVOK 28/17 Q1008=
METAR LGKZ 080720Z NIL=
METAR LGMK 080720Z 35025G36KT 9999 FEW018 26/20 Q1011=
METAR LGNX 080720Z NIL=
METAR LGPA 080720Z NIL=
METAR LGSO 080720Z NIL=
####018000074####
SAQB31 LQBK 080730
METAR LQBK 080730Z 35006KT CAVOK 21/12 Q1022 NOSIG=
####018000467####
SAGR32 LGAT 080720
METAR LGAL 080720Z NIL=
METAR LGEL 080720Z 02012G22KT 9999 FEW025 26/15 Q1011=
METAR LGKV 080720Z 00000KT 9999 SCT020TCU 17/16 Q1013=
METAR LGMT 080720Z 36010KT 9999 FEW020 SCT160 27/14 Q1010=
METAR LGPZ 080720Z 27012KT 9999 FEW025 28/19 Q1013 NOSIG=
METAR LGRX 080720Z 28006KT 9999 FEW025 27/21 Q1012 NOSIG=
METAR LGSK 080720Z NIL=
METAR LGSR 080720Z 29007KT CAVOK 29/15 Q1009 NOSIG=
METAR LGZA 080720Z 36009KT 9999 FEW020 29/17 Q1012=
####018000297####
SAMC31 GMMC 080730
METAR GMME 080730Z VRB01KT 6000 OVC010 22/19 Q1015 NOSIG=
METAR GMMX 080730Z 24005KT 210V270 6000 FEW100 23/18 Q1016 NOSIG=
METAR GMTT 080730Z 29004KT 240V340 8000 FEW010 SCT016 22/20 Q1016
NOSIG=
METAR GMAD 080730Z NIL=
METAR GMFF 080730Z NIL=
METAR GMMN 080730Z NIL=
####018000098####
SAAJ31 UBBB 080730
METAR UBBG 080730Z 36005KT 9999 FEW100 32/18 Q1012 NOSIG RMK
R30R/CLRD70 =
####018000113####
SAIV20 DIAP 080732
METAR COR DIAP 080730Z 00000KT 6000 SCT012 SCT080 BKN260 26/25 Q1015
TEMPO BKN018 BKN080=
####018000111####
SAGR32 LGAT 080720 RRA
METAR LGAL 080720Z 08009KT 6000 -RA SCT006 SCT020TCU BKN025 15/13
      Q1015 RERA=
####018000091####
SALI20 GLRB 080730
METAR GLRB 080730Z 04004KT 9999 BKN012 FEW024CB 24/23 Q1014
 CB-SW=
####018000078####
SAGR31 LGAT 080720 RRA
METAR LGRP 080720Z 24014KT CAVOK 29/21 Q1007 NOSIG=
####018000085####
SAUS41 KWBC 080700 RRG
METAR
KFDK 080717Z AUTO 00000KT 7SM SCT090 25/21 A3002=
####018000084####
SPUS41 KWBC 080733
SPECI
KBDR 080730Z AUTO 06006KT 3SM BR BKN004 24/23 A3002=
####018000308####
SAGR33 LGAT 080720
METAR LGHI 080720Z NIL=
METAR LGKC 080720Z NIL=
METAR LGKF 080720Z NIL=
METAR LGKP 080720Z 32015KT CAVOK 28/17 Q1008=
METAR LGKZ 080720Z NIL=
METAR LGMK 080720Z 35025G36KT 9999 FEW018 26/20 Q1011=
METAR LGNX 080720Z NIL=
METAR LGPA 080720Z NIL=
METAR LGSO 080720Z NIL=
####018000093####
SALI20 GLRB 080730
METAR GLRB 080730Z 04004KT 9999 BKN012 FEW024CB 24/23 Q1014
 CB-SW=
####018000113####
SAGR32 LGAT 080720 RRA
METAR LGAL 080720Z 08009KT 6000 -RA SCT006 SCT020TCU BKN025 15/13
      Q1015 RERA=
####018000115####
SAIV20 DIAP 080732
METAR COR DIAP 080730Z 00000KT 6000 SCT012 SCT080 BKN260 26/25 Q1015
TEMPO BKN018 BKN080=
####018000476####
SAGR32 LGAT 080720
METAR LGAL 080720Z NIL=
METAR LGEL 080720Z 02012G22KT 9999 FEW025 26/15 Q1011=
METAR LGKV 080720Z 00000KT 9999 SCT020TCU 17/16 Q1013=
METAR LGMT 080720Z 36010KT 9999 FEW020 SCT160 27/14 Q1010=
METAR LGPZ 080720Z 27012KT 9999 FEW025 28/19 Q1013 NOSIG=
METAR LGRX 080720Z 28006KT 9999 FEW025 27/21 Q1012 NOSIG=
METAR LGSK 080720Z NIL=
METAR LGSR 080720Z 29007KT CAVOK 29/15 Q1009 NOSIG=
METAR LGZA 080720Z 36009KT 9999 FEW020 29/17 Q1012=
####018000611####
SAGR31 LGAT 080720
METAR LGAD 080720Z 33009KT 9999 FEW020 27/20 Q1013=
METAR LGAV 080720Z 03018KT 9999 SCT025 26/14 Q1012 NOSIG=
METAR LGIR 080720Z 08004KT CAVOK 29/18 Q1011 NOSIG=
METAR COR LGKL 080720Z 32006KT CAVOK 30/17 Q1011=
METAR LGKO 080720Z 31017KT CAVOK 27/18 Q1009=
METAR LGKR 080720Z 31018KT CAVOK 27/12 Q1013 NOSIG=
METAR LGLM 080720Z 03012KT 9999 SCT008 FEW020TCU SCT025 BKN080 19/18
      Q1013=
METAR LGRP 080720Z NIL=
METAR LGSA 080720Z 30008KT CAVOK 31/15 Q1011=
METAR LGSM 080720Z 34015KT CAVOK 28/15 Q1010=
METAR LGTS 080720Z 33025KT 9999 FEW025 21/11 Q1016 NOSIG=
####018000079####
SAGR31 LGAT 080720 RRA
METAR LGRP 080720Z 24014KT CAVOK 29/21 Q1007 NOSIG=
####018000096####
SANI20 DNMM 080730
METAR DNMM 080730Z 00000KT 5000 BR FEW008 24/24 Q1015 BECMG 6000 NSW=

####018000515####
SAUS43 KWBC 080700 RRH
METAR
KC75 080726Z AUTO 00000KT 5SM BR BKN065 OVC075 23/23 A3003=
KIGQ 080720Z AUTO 00000KT 7SM SCT055 24/22 A3004=
KMQB 080725Z AUTO 22005KT 10SM OVC008 23/23 A3005=
KMWA 080725Z AUTO 00000KT 10SM CLR 25/24 A3005=
KSAR 080725Z AUTO 18004KT 7SM SCT055 26/23 A3004=
KSLO 080722Z AUTO 18003KT 10SM CLR 24/22 A3005=
KTAZ 080725Z AUTO 00000KT 10SM CLR 24/23 A3002=
KTIP 080725Z AUTO 30003KT 10SM CLR 25/23 A3005=
KVYS 080725Z AUTO 00000KT 5SM -DZ BKN065 BKN085 23/22 A3003=
####018000082####
SAUS44 KWBC 080700 RRF
METAR
KOLV 080735Z AUTO 00000KT 9SM CLR 24/24 A3006=
####018000135####
SAUS51 KWBC 080700 RRD
METAR
KCBE 080731Z AUTO 02003KT 10SM CLR 23/18 A3009=
KESN 080736Z AUTO 00000KT 5SM BR CLR 23/23 A3001=
####018000083####
SAUS52 KWBC 080700 RRE
METAR
KSEP 080725Z AUTO 00000KT 10SM CLR 23/21 A3001=
####018000118####
SAUS53 KWBC 080700 RRI
METAR
KEHA 080728Z AUTO 30007KT 17/15=
KLNC 080725Z AUTO 00000KT 10SM CLR 24/24 A3000=
####018000087####
SAUZ31 UTTW 080730
METAR UTSB 080730Z 02007MPS CAVOK 39/06 Q1009 R01/CLRD70 NOSIG=
####018000109####
SPBY31 UMMN 080730
SPECI  UMII  080730Z  17003MPS  P6000  BKN010CB  18/16  Q1012
R23/CLRD//  NOSIG   =
####018000093####
SAUZ31 UTTW 080730
METAR UTSA 080730Z 02007MPS 9999 NSC 38/05 Q1009 R88/CLRD70 
NOSIG=
####018000084####
SPUS81 KWBC 080733
SPECI
KBDR 080730Z AUTO 06006KT 3SM BR BKN004 24/23 A3002=
####018000089####
SAQT99 OTBD 080730
METAR OTBD 080730Z 01010KT 350V050 5000 HZ NSC 36/30 Q1001 NOSIG=
####018000075####
SACN50 CWAO 080730
VOC SA 0730 AUTO8 M M M M/15/10/0000/M/M M 06MM=

####018000075####
SACN50 CWAO 080730
VOH SA 0730 AUTO8 M M M M/16/02/0803/M/M M 64MM=

####018000109####
SAGG31 UGTB 080731
METAR UGTB 080731Z 33009KT 9999 SCT050 BKN100 30/18 Q1015 NOSIG RMK
      31CLRD80=
####018000080####
SAKW35 OKBK 080730 RRA
METAR OKBK 080730Z 34016KT CAVOK 45/M04 Q1002 NOSIG=
####018000092####
SAUZ31 UTTW 080730
METAR UTSA 080730Z 02007MPS 9999 NSC 38/05 Q1009 R88/CLRD70
NOSIG=
####018000106####
SPBY31 UMMN 080730
SPECI UMII 080730Z 17003MPS  P6000  BKN010CB  18/16  Q1012
R23/CLRD//  NOSIG   =
####018000821####
SAUR30 UKMS 080730
METAR UKBB 080730Z 31003MPS 260V330 9999 SCT016 23/18
         Q1013 88CLRD95    NOSIG=
METAR UKHH 080730Z 20002MPS 160V230 9999 SCT046
         BKN200  27/16 Q1014 080///65 NOSIG=
METAR UKOO 080730Z 34005MPS 310V020 CAVOK 22/16 Q1014
          34090070 NOSIG=
METAR UKDE 080730Z 24003MPS 160V300 9999 BKN050TCU
         26/20 Q1014 20CLRD70 NOSIG=
METAR UKDD 080730Z 25002MPS CAVOK 26/18 Q1014
         08090070 NOSIG=
METAR UKFF 080730Z 10002MPS 040V170 9999 FEW033 26/17
          Q1013 19010070 NOSIG=
METAR UKLL 080730Z 30004MPS 240V010 9999 SCT028CB
         BKN028 16/12 Q1020 31210365 NOSIG=
METAR UKCC 080730Z 00000MPS CAVOK 28/18 Q1015
         08090070 NOSIG=
METAR UKDR 080730Z 24003MPS 220V280 9999 SCT033
         OVC200  26/20 Q1013 1809//70 NOSIG=
####018000075####
SACN88 CWAO 080730
ABB SA 0730 AUTO7 M M M M/18/17/2103/M/M M 74MM=

####018002995####
SAUS20 KNKA 080733
METAR K4O4 080728Z AUTO 00000KT 10SM SCT001 OVC015 23/22 A3004 
     RMK AO2=
METAR KADH 080730Z AUTO 00000KT 7SM BKN004 OVC047 23/22 A3002 RMK 
     AO2=
METAR KADM 080730Z AUTO 00000KT 7SM SCT035 SCT065 23/23 A3000 RMK 
     AO2=
METAR KAIK 080735Z AUTO 27003KT 10SM CLR 23/22 A3004 RMK AO2 PNO=
METAR KALM 080730Z AUTO 32006KT 10SM FEW075 20/14 A3015 RMK AO2=
METAR KARW 080735Z AUTO 24004KT 10SM CLR 24/18 A2997 RMK AO2=
METAR KATS 080730Z AUTO 36011KT 7SM -RA FEW015 SCT030 BKN047 
     19/18 A3016 RMK AO2=
METAR KAXS 080730Z AUTO 36005KT 10SM -DZ SCT036 24/22 A3006 RMK 
     AO2 T02350217=
METAR KAXX 080730Z AUTO 00000KT 10SM CLR 06/05 A3047 RMK AO2=
METAR KBDN 080735Z AUTO 30006KT 10SM CLR 19/03 A3009 RMK AO2 =
METAR KBVS 080730Z AUTO 05006KT 10SM CLR 20/16 A2996 RMK A01 P000=
METAR KCHK 080731Z AUTO 00000KT 10SM SCT021 SCT100 23/23 A3004 
     RMK AO2=
METAR KCLK 080733Z AUTO 02004KT 10SM CLR 22/21 A3007 RMK AO2=
METAR KCQB 080730Z AUTO 00000KT 10SM 23/23 A3003 RMK AO2 TSNO=
METAR KCUH 080730Z AUTO 03003KT 10SM SCT036 BKN065 BKN080 25/23 
     A3003 RMK AO2=
SPECI KDAW 080732Z AUTO 00000KT 1 1/2SM BR OVC003 21/20 A3005 RMK 
    AO2 $=
METAR KDUA 080737Z AUTO 15007KT 10SM SCT042 OVC070 26/23 A3001 
     RMK AO2=
METAR KFDW 080735Z AUTO 26004KT 10SM CLR 26/17 A3000 RMK AO1=
METAR KGCD 080730Z AUTO 13007KT 10SM CLR 19/04 A3010 RMK AO2 
     T01880043=
METAR KGCM 080735Z AUTO 00000KT 10SM -RA SCT002 BKN005 OVC014 
     23/22 A3005 RMK AO2 LTG DSNT SW P0005=
METAR KGLY 080735Z AUTO 00000KT 5SM  BR SCT003 BKN009 OVC065 23/23 
     A3004 RMK AO2 =
METAR KGMJ 080734Z AUTO 00000KT 25/25 A3004 RMK AO2 P0002 PWINO=
METAR KIDP 080730Z AUTO 33004KT 10SM CLR 21/20 A3004 RMK AO2=
METAR KJSV 080730Z AUTO 11003KT 10SM BKN060 OVC080 23/23 A3003 
     RMK AO2=
METAR KJWG 080730Z AUTO 05004KT 10SM SCT034 SCT043 BKN050 23/23 
     A3009 RMK AO2=
METAR KLAM 080730Z AUTO 00000KT 10SM CLR 15/09 A3037 RMK AO2=
METAR KLRU 080731Z AUTO 04009KT 10SM CLR 21/14 A3016 RMK AO2=
METAR KMEZ 080735Z AUTO 00000KT 10SM SCT014 OVC021 25/23 A3006 RMK 
     AO2=
METAR KMYR 080735Z AUTO 29007KT 10SM BKN110 26/20 A2996 RMK AO1=
METAR KOAJ 080735Z AUTO 02006KT 9SM CLR 22/21 A2992 RMK AO1=
METAR KOCF 080735Z AUTO 00000KT 10SM CLR 21/20 A3001 RMK AO1=
METAR KOKM 080731Z AUTO 09004KT 10SM SCT004 OVC019 24/24 A3001 
     RMK AO1 LTG DSNT N=
METAR KONP 080730Z AUTO 21010KT 5SM BR OVC002 11/10 A2998 RMK AO1=
SPECI KORD 080732Z 00000KT 10SM FEW008 SCT047 BKN070 OVC200 23/22 
    A3003 RMK AO2 TSE0658RAE19 P0003=
METAR KOUN 080732Z AUTO 00000KT 10SM SCT016 SCT022 25/23 A3004 
     RMK AO2=
METAR KPSO 080735Z AUTO 00000KT 10SM SCT065 SCT085 OVC100 12/07 
     A3039 RMK AO2 LTG DSNT N=
METAR KPTS 080730Z AUTO 00000KT 10SM SCT047 22/ A3004 RMK AO2 
     T0220=
SPECI KRVS 080732Z 00000KT 1SM +TSRA BR BKN005 BKN008 OVC014 23/23 
    A3002 RMK AO2 TSB18 P0065=
####018000102####
SAAK41 KNKA 080733
SPECI PAKF 080731Z AUTO 15005KT 10SM SCT017 OVC037 08/07 A2993 RMK 
    AO2=
####018000465####
SAUS20 KNKA 080733
METAR KSOP 080735Z AUTO 00000KT 10SM CLR 25/17 A2997 RMK AO1=
METAR KSVC 080730Z AUTO 06004KT 5SM RA FEW021 SCT035 OVC047 17/14 
     A3024 RMK AO2 P0006=
METAR KTMK 080733Z AUTO 17004KT 10SM OVC008 13/12 A2994 RMK AO2=
SPECI KUCP 080733Z AUTO 00000KT 1 1/4SM BR CLR 19/19 A3009 RMK AO2 $=
METAR KUDG 080735Z 26006KT 10SM SCT110 27/18 A2997 RMK AO1=
METAR KWWR 080729Z AUTO 01008KT 10SM CLR 22/21 A3015 RMK AO2 
     T02230206=
####018000719####
SAUS90 KWBC 080734
METAR KCBE 080731Z AUTO 02003KT 10SM CLR 23/18 A3009 RMK AO1=
METAR K2W6 080731Z AUTO 00000KT 7SM CLR 23/22 A2999 RMK AO1=
METAR KCGS 080735Z AUTO 00000KT 7SM CLR 26/22 A2998 RMK AO1=
METAR KCGE 080729Z AUTO 00000KT 5SM CLR 25/23 A2999 RMK AO1=
METAR KESN 080736Z AUTO 00000KT 5SM BR CLR 23/23 A3001 RMK AO2=
METAR KDMW 080731Z AUTO 00000KT 7SM CLR 26/21 A3003 RMK AO2=
METAR KFDK 080717Z AUTO 00000KT 7SM SCT090 25/21 A3002 RMK AO2=
METAR KMTN 080733Z AUTO 00000KT 7SM CLR 26/24 A3000 RMK AO2=
METAR KFME 080733Z AUTO 00000KT 4SM CLR 21/21 A3001 RMK AO1=
METAR KW29 080731Z AUTO 14003KT 7SM SCT110 25/22 A2998 RMK AO1=
METAR KFDK 080717Z AUTO 00000KT 7SM SCT090 25/21 A3002=
####018002814####
SAUS99 KWBC 080734
METAR
K4O4 080728Z AUTO 00000KT 10SM SCT001 OVC015 23/22 A3004 RMK
     AO2=
KADH 080730Z AUTO 00000KT 7SM BKN004 OVC047 23/22 A3002 RMK
     AO2=
KADM 080730Z AUTO 00000KT 7SM SCT035 SCT065 23/23 A3000 RMK
     AO2=
KAIK 080735Z AUTO 27003KT 10SM CLR 23/22 A3004 RMK AO2 PNO=
KALM 080730Z AUTO 32006KT 10SM FEW075 20/14 A3015 RMK AO2=
KARW 080735Z AUTO 24004KT 10SM CLR 24/18 A2997 RMK AO2=
KATS 080730Z AUTO 36011KT 7SM -RA FEW015 SCT030 BKN047 19/18 A3016
     RMK AO2=
KAXS 080730Z AUTO 36005KT 10SM -DZ SCT036 24/22 A3006 RMK AO2
     T02350217=
KAXX 080730Z AUTO 00000KT 10SM CLR 06/05 A3047 RMK AO2=
KBDN 080735Z AUTO 30006KT 10SM CLR 19/03 A3009 RMK AO2=
KBVS 080730Z AUTO 05006KT 10SM CLR 20/16 A2996 RMK A01 P000=
KCHK 080731Z AUTO 00000KT 10SM SCT021 SCT100 23/23 A3004 RMK
     AO2=
KCLK 080733Z AUTO 02004KT 10SM CLR 22/21 A3007 RMK AO2=
KCQB 080730Z AUTO 00000KT 10SM 23/23 A3003 RMK AO2 TSNO=
KCUH 080730Z AUTO 03003KT 10SM SCT036 BKN065 BKN080 25/23 A3003
     RMK AO2=
KDUA 080737Z AUTO 15007KT 10SM SCT042 OVC070 26/23 A3001 RMK
     AO2=
KFDW 080735Z AUTO 26004KT 10SM CLR 26/17 A3000 RMK AO1=
KGCD 080730Z AUTO 13007KT 10SM CLR 19/04 A3010 RMK AO2
     T01880043=
KGCM 080735Z AUTO 00000KT 10SM -RA SCT002 BKN005 OVC014 23/22
     A3005 RMK AO2 LTG DSNT SW P0005=
KGLY 080735Z AUTO 00000KT 5SM BR SCT003 BKN009 OVC065 23/23 A3004
     RMK AO2=
KGMJ 080734Z AUTO 00000KT 25/25 A3004 RMK AO2 P0002 PWINO=
KIDP 080730Z AUTO 33004KT 10SM CLR 21/20 A3004 RMK AO2=
KJSV 080730Z AUTO 11003KT 10SM BKN060 OVC080 23/23 A3003 RMK
     AO2=
KJWG 080730Z AUTO 05004KT 10SM SCT034 SCT043 BKN050 23/23 A3009
     RMK AO2=
KLAM 080730Z AUTO 00000KT 10SM CLR 15/09 A3037 RMK AO2=
KLRU 080731Z AUTO 04009KT 10SM CLR 21/14 A3016 RMK AO2=
KMEZ 080735Z AUTO 00000KT 10SM SCT014 OVC021 25/23 A3006 RMK
     AO2=
KMYR 080735Z AUTO 29007KT 10SM BKN110 26/20 A2996 RMK AO1=
KOAJ 080735Z AUTO 02006KT 9SM CLR 22/21 A2992 RMK AO1=
KOCF 080735Z AUTO 00000KT 10SM CLR 21/20 A3001 RMK AO1=
KOKM 080731Z AUTO 09004KT 10SM SCT004 OVC019 24/24 A3001 RMK AO1
     LTG DSNT N=
KONP 080730Z AUTO 21010KT 5SM BR OVC002 11/10 A2998 RMK AO1=
KOUN 080732Z AUTO 00000KT 10SM SCT016 SCT022 25/23 A3004 RMK
     AO2=
KPSO 080735Z AUTO 00000KT 10SM SCT065 SCT085 OVC100 12/07 A3039
     RMK AO2 LTG DSNT N=
KPTS 080730Z AUTO 00000KT 10SM SCT047 22/ A3004 RMK AO2 T0220=
KSOP 080735Z AUTO 00000KT 10SM CLR 25/17 A2997 RMK AO1=
KSVC 080730Z AUTO 06004KT 5SM RA FEW021 SCT035 OVC047 17/14 A3024
     RMK AO2 P0006=
KTMK 080733Z AUTO 17004KT 10SM OVC008 13/12 A2994 RMK AO2=
KUDG 080735Z 26006KT 10SM SCT110 27/18 A2997 RMK AO1=
KWWR 080729Z AUTO 01008KT 10SM CLR 22/21 A3015 RMK AO2
     T02230206=
####018000070####
SACN96 KWBC 080734
METAR CWZV 080700Z AUTO 34006KT RMK AO1 51003=
####018000128####
SACN86 KWBC 080734
METAR CWNB 080700Z AUTO RMK AO1 58006=
METAR CWPS 080700Z AUTO 16011KT 25/ RMK AO1 SLP158 T0249 58004=
####018000255####
SACZ31 LKPW 080730
METAR LKKV 080730Z VRB02KT CAVOK 18/11 Q1024=
METAR LKMT 080730Z VRB01KT 9999 FEW033 18/11 Q1024 NOSIG=
METAR LKPR 080730Z 14004KT 070V190 CAVOK 20/09 Q1024 NOSIG=
METAR LKTB 080730Z 27004KT 220V330 9999 FEW035 20/10 Q1023 NOSIG=
####018000080####
SACN95 KWBC 080734
METAR CWWA 080730Z AUTO 03001KT 21/09 RMK AO1 T02060094=
####018000803####
SAUR30 UKMS 080730
METAR UKBB 080730Z 31003MPS 260V330 9999 SCT016 23/18
         Q1013 88CLRD95    NOSIG=
METAR UKHH 080730Z 20002MPS 160V230 9999 SCT046
         BKN200  27/16 Q1014 080///65 NOSIG=
METAR UKOO 080730Z 34005MPS 310V020 CAVOK 22/16 Q1014
          34090070 NOSIG=
METAR UKDE 080730Z 24003MPS 160V300 9999 BKN050TCU
         26/20 Q1014 20CLRD70 NOSIG=
METAR UKDD 080730Z 25002MPS CAVOK 26/18 Q1014
         08090070 NOSIG=
METAR UKFF 080730Z 10002MPS 040V170 9999 FEW033 26/17
          Q1013 19010070 NOSIG=
METAR UKLL 080730Z 30004MPS 240V010 9999 SCT028CB
         BKN028 16/12 Q1020 31210365 NOSIG=
METAR UKCC 080730Z 00000MPS CAVOK 28/18 Q1015
         08090070 NOSIG=
METAR UKDR 080730Z 24003MPS 220V280 9999 SCT033
         OVC200  26/20 Q1013 1809//70 NOSIG=
####018000107####
SAGG31 UGTB 080731
METAR UGTB 080731Z 33009KT 9999 SCT050 BKN100 30/18 Q1015 NOSIG RMK
      31CLRD80=
####018000446####
SPUS99 KWBC 080734
SPECI
KDAW 080732Z AUTO 00000KT 1 1/2SM BR OVC003 21/20 A3005 RMK AO2
     $=
KORD 080732Z 00000KT 10SM FEW008 SCT047 BKN070 OVC200 23/22 A3003
     RMK AO2 TSE0658RAE19 P0003=
KRVS 080732Z 00000KT 1SM +TSRA BR BKN005 BKN008 OVC014 23/23 A3002
     RMK AO2 TSB18 P0065=
PAKF 080731Z AUTO 15005KT 10SM SCT017 OVC037 08/07 A2993 RMK
     AO2=
KUCP 080733Z AUTO 00000KT 1 1/4SM BR CLR 19/19 A3009 RMK AO2 $=
####018000325####
SAIE31 EIDB 080730
METAR EIDW 080730Z 23011KT 9999 FEW023 BKN180 15/10 Q1015 NOSIG=
METAR EINN 080730Z 20009KT 9999 FEW015 SCT040 BKN080 14/11 Q1015
     NOSIG=
METAR EICK 080730Z 20008KT 9999 FEW018 SCT050 BKN080 14/13 Q1016
     NOSIG=
METAR EIKN 080730Z 19007KT 150V220 9999 FEW015 SCT045 12/10 Q1013
     NOSIG=
####018000166####
SACY31 LCLK 080730
METAR LCLK 080730Z 20013KT 9999 FEW010 29/23 Q1008 NOSIG=
METAR LCPH 080730Z 20006KT 140V230 9999 FEW020 28/22 Q1009=
METAR LCNC 080730Z NIL=
####018003309####
SAUS70 KWBC 080734
METAR
K2W6 080731Z AUTO 00000KT 7SM CLR 23/22 A2999 RMK AO1=
KCGS 080735Z AUTO 00000KT 7SM CLR 26/22 A2998 RMK AO1=
KFDK 080717Z AUTO 00000KT 7SM SCT090 25/21 A3002 RMK AO2=
KMTN 080733Z AUTO 00000KT 7SM CLR 26/24 A3000 RMK AO2=
KW29 080731Z AUTO 14003KT 7SM SCT110 25/22 A2998 RMK AO1=
K1F0 080727Z AUTO 00000KT 10SM SCT031 BKN036 24/24 A3000 RMK
     AO2=
K2G4 080730Z AUTO 00000KT 10SM BKN060 22/13 A3019 RMK AO1=
KDUC 080732Z AUTO 04004KT 10SM CLR 23/22 A3002 RMK AO2=
KONM 080727Z AUTO 00000KT 10SM CLR 20/14 A3022 RMK AO2
     T01950135=
K4O4 080728Z AUTO 00000KT 10SM SCT001 OVC015 23/22 A3004 RMK
     AO2=
KADH 080730Z AUTO 00000KT 7SM BKN004 OVC047 23/22 A3002 RMK
     AO2=
KADM 080730Z AUTO 00000KT 7SM SCT035 SCT065 23/23 A3000 RMK
     AO2=
KAIK 080735Z AUTO 27003KT 10SM CLR 23/22 A3004 RMK AO2 PNO=
KALM 080730Z AUTO 32006KT 10SM FEW075 20/14 A3015 RMK AO2=
KARW 080735Z AUTO 24004KT 10SM CLR 24/18 A2997 RMK AO2=
KATS 080730Z AUTO 36011KT 7SM -RA FEW015 SCT030 BKN047 19/18 A3016
     RMK AO2=
KAXS 080730Z AUTO 36005KT 10SM -DZ SCT036 24/22 A3006 RMK AO2
     T02350217=
KAXX 080730Z AUTO 00000KT 10SM CLR 06/05 A3047 RMK AO2=
KBDN 080735Z AUTO 30006KT 10SM CLR 19/03 A3009 RMK AO2=
KBVS 080730Z AUTO 05006KT 10SM CLR 20/16 A2996 RMK A01 P000=
KCHK 080731Z AUTO 00000KT 10SM SCT021 SCT100 23/23 A3004 RMK
     AO2=
KCLK 080733Z AUTO 02004KT 10SM CLR 22/21 A3007 RMK AO2=
KCQB 080730Z AUTO 00000KT 10SM 23/23 A3003 RMK AO2 TSNO=
KCUH 080730Z AUTO 03003KT 10SM SCT036 BKN065 BKN080 25/23 A3003
     RMK AO2=
KDUA 080737Z AUTO 15007KT 10SM SCT042 OVC070 26/23 A3001 RMK
     AO2=
KFDW 080735Z AUTO 26004KT 10SM CLR 26/17 A3000 RMK AO1=
KGCD 080730Z AUTO 13007KT 10SM CLR 19/04 A3010 RMK AO2
     T01880043=
KGCM 080735Z AUTO 00000KT 10SM -RA SCT002 BKN005 OVC014 23/22
     A3005 RMK AO2 LTG DSNT SW P0005=
KGLY 080735Z AUTO 00000KT 5SM BR SCT003 BKN009 OVC065 23/23 A3004
     RMK AO2=
KGMJ 080734Z AUTO 00000KT 25/25 A3004 RMK AO2 P0002 PWINO=
KIDP 080730Z AUTO 33004KT 10SM CLR 21/20 A3004 RMK AO2=
KJSV 080730Z AUTO 11003KT 10SM BKN060 OVC080 23/23 A3003 RMK
     AO2=
KJWG 080730Z AUTO 05004KT 10SM SCT034 SCT043 BKN050 23/23 A3009
     RMK AO2=
KLAM 080730Z AUTO 00000KT 10SM CLR 15/09 A3037 RMK AO2=
KLRU 080731Z AUTO 04009KT 10SM CLR 21/14 A3016 RMK AO2=
KMEZ 080735Z AUTO 00000KT 10SM SCT014 OVC021 25/23 A3006 RMK
     AO2=
KMYR 080735Z AUTO 29007KT 10SM BKN110 26/20 A2996 RMK AO1=
KOAJ 080735Z AUTO 02006KT 9SM CLR 22/21 A2992 RMK AO1=
KOCF 080735Z AUTO 00000KT 10SM CLR 21/20 A3001 RMK AO1=
KOKM 080731Z AUTO 09004KT 10SM SCT004 OVC019 24/24 A3001 RMK AO1
     LTG DSNT N=
KONP 080730Z AUTO 21010KT 5SM BR OVC002 11/10 A2998 RMK AO1=
KOUN 080732Z AUTO 00000KT 10SM SCT016 SCT022 25/23 A3004 RMK
     AO2=
KPSO 080735Z AUTO 00000KT 10SM SCT065 SCT085 OVC100 12/07 A3039
     RMK AO2 LTG DSNT N=
KSOP 080735Z AUTO 00000KT 10SM CLR 25/17 A2997 RMK AO1=
KSVC 080730Z AUTO 06004KT 5SM RA FEW021 SCT035 OVC047 17/14 A3024
     RMK AO2 P0006=
KTMK 080733Z AUTO 17004KT 10SM OVC008 13/12 A2994 RMK AO2=
KUDG 080735Z 26006KT 10SM SCT110 27/18 A2997 RMK AO1=
KWWR 080729Z AUTO 01008KT 10SM CLR 22/21 A3015 RMK AO2
     T02230206=
####018000464####
SPUS70 KWBC 080734
SPECI
KMKO 080731Z AUTO 08003KT 10SM FEW009 BKN060 OVC085 23/23 A3002
     RMK AO2 LTG DSNT N=
KDAW 080732Z AUTO 00000KT 1 1/2SM BR OVC003 21/20 A3005 RMK AO2
     $=
KORD 080732Z 00000KT 10SM FEW008 SCT047 BKN070 OVC200 23/22 A3003
     RMK AO2 TSE0658RAE19 P0003=
KRVS 080732Z 00000KT 1SM +TSRA BR BKN005 BKN008 OVC014 23/23 A3002
     RMK AO2 TSB18 P0065=
KUCP 080733Z AUTO 00000KT 1 1/4SM BR CLR 19/19 A3009 RMK AO2 $=
####018000090####
SAUZ31 UTTW 080730
METAR UTSA 080730Z 02007MPS 9999 NSC 38/05 Q1009 R88/CLRD70
NOSIG=
####018000080####
SACN94 KWBC 080734
METAR CWSK 080730Z AUTO 03001KT 17/12 RMK AO1 T01690122=
####018000107####
SACN97 KWBC 080734
METAR CXTV 080700Z AUTO 28010KT 06/ RMK AO1 PK WND 30024/0602
SLP162 T0060 53012=
####018000104####
SPBY31 UMMN 080730
SPECI UMII 080730Z 17003MPS  P6000  BKN010CB  18/16  Q1012
R23/CLRD//  NOSIG   =
####018000095####
SAUZ31 UTTW 080730
METAR UTNN 080730Z 19005MPS 150V220 CAVOK 40/08 Q1008 R15/CLRD70
NOSIG=
####018000186####
SACN87 KWBC 080734
METAR CWWS 080700Z AUTO 30011KT 16/13 RMK AO1 PK WND 32019/0606
SLP128 T01620125 50001=
METAR CWQS 080700Z AUTO 01014KT 13/ RMK AO1 PK WND 36021/0614
T0127=
####018000081####
SAAF35 KWBC 080700 RRD
METAR
HLLB 080725Z 33012KT 9999 FEW025 29/18 Q1016=
####018000188####
SAAF31 KWBC 080700 RRD
METAR
DIAP 080730Z 00000KT 6000 SCT012 SCT080 BKN260 26/25 Q1015 TEMPO
     BKN018 BKN080=
DNMM 080730Z 00000KT 5000 BR FEW008 24/24 Q1015 BECMG 6000 NSW=
####018000212####
SAUS80 KWBC 080734
METAR
KCBE 080731Z AUTO 02003KT 10SM CLR 23/18 A3009 RMK AO1=
KESN 080736Z AUTO 00000KT 5SM BR CLR 23/23 A3001 RMK AO2=
KPTS 080730Z AUTO 00000KT 10SM SCT047 22/ A3004 RMK AO2 T0220=
####018000084####
SAAO32 KWBC 080700 RRC
METAR
GQNN 080730Z 19006KT 6000 NSC 26/23 Q1011 NOSIG=
####018000098####
SPEE31 KWBC 080734
SPECI
UMII 080730Z 17003MPS P6000 BKN010CB 18/16 Q1012 R23/CLRD// NOSIG=
####018000098####
SPRA31 KWBC 080734
SPECI
UMII 080730Z 17003MPS P6000 BKN010CB 18/16 Q1012 R23/CLRD// NOSIG=
####018000926####
SAGR31 KWBC 080720 RRA
METAR
LGAD 080720Z 33009KT 9999 FEW020 27/20 Q1013=
LGAL 080720Z 08009KT 6000 -RA SCT006 SCT020TCU BKN025 15/13 Q1015
     RERA=
LGAL 080720Z NIL=
LGAV 080720Z 03018KT 9999 SCT025 26/14 Q1012 NOSIG=
LGEL 080720Z 02012G22KT 9999 FEW025 26/15 Q1011=
LGIR 080720Z 08004KT CAVOK 29/18 Q1011 NOSIG=
LGKF 080720Z NIL=
LGKL 080720Z 32006KT CAVOK 30/17 Q1011=
LGKO 080720Z 31017KT CAVOK 27/18 Q1009=
LGKR 080720Z 31018KT CAVOK 27/12 Q1013 NOSIG=
LGKV 080720Z 00000KT 9999 SCT020TCU 17/16 Q1013=
LGLM 080720Z 03012KT 9999 SCT008 FEW020TCU SCT025 BKN080 19/18
     Q1013=
LGMT 080720Z 36010KT 9999 FEW020 SCT160 27/14 Q1010=
LGRP 080720Z 24014KT CAVOK 29/21 Q1007 NOSIG=
LGRP 080720Z NIL=
LGSA 080720Z 30008KT CAVOK 31/15 Q1011=
LGSM 080720Z 34015KT CAVOK 28/15 Q1010=
LGSR 080720Z 29007KT CAVOK 29/15 Q1009 NOSIG=
LGTS 080720Z 33025KT 9999 FEW025 21/11 Q1016 NOSIG=
####018000322####
SAGR41 KWBC 080720 RRA
METAR
LGKP 080720Z 32015KT CAVOK 28/17 Q1008=
LGKZ 080720Z NIL=
LGMK 080720Z 35025G36KT 9999 FEW018 26/20 Q1011=
LGPZ 080720Z 27012KT 9999 FEW025 28/19 Q1013 NOSIG=
LGRX 080720Z 28006KT 9999 FEW025 27/21 Q1012 NOSIG=
LGSK 080720Z NIL=
LGZA 080720Z 36009KT 9999 FEW020 29/17 Q1012=
####018000087####
SAMM31 KWBC 080700 RRB
METAR
LCEN 080720Z 09003KT 9999 FEW025 30/17 Q1008 NOSIG=
####018000293####
SARA31 KWBC 080700 RRF
METAR
UBBG 080730Z 36005KT 9999 FEW100 32/18 Q1012 NOSIG RMK
     R30R/CLRD70=
UTSA 080730Z 02007MPS 9999 NSC 38/05 Q1009 R88/CLRD70 NOSIG=
UTSB 080730Z 02007MPS CAVOK 39/06 Q1009 R01/CLRD70 NOSIG=
UTST 080730Z VRB01MPS CAVOK 39/06 Q1007 R88/CLRD70 NOSIG=
####018000715####
SAUR31 KWBC 080650 RRA
METAR
UKBB 080730Z 31003MPS 260V330 9999 SCT016 23/18 Q1013 88CLRD95
     NOSIG=
UKCC 080730Z 00000MPS CAVOK 28/18 Q1015 08090070 NOSIG=
UKDD 080730Z 25002MPS CAVOK 26/18 Q1014 08090070 NOSIG=
UKDE 080730Z 24003MPS 160V300 9999 BKN050TCU 26/20 Q1014 20CLRD70
     NOSIG=
UKDR 080730Z 24003MPS 220V280 9999 SCT033 OVC200 26/20 Q1013
     1809//70 NOSIG=
UKFF 080730Z 10002MPS 040V170 9999 FEW033 26/17 Q1013 19010070
     NOSIG=
UKHH 080730Z 20002MPS 160V230 9999 SCT046 BKN200 27/16 Q1014
     080///65 NOSIG=
UKLL 080730Z 30004MPS 240V010 9999 SCT028CB BKN028 16/12 Q1020
     31210365 NOSIG=
UKOO 080730Z 34005MPS 310V020 CAVOK 22/16 Q1014 34090070 NOSIG=
####018000376####
SAXX99 KWBC 080700 RRW
METAR
GMAD 080730Z NIL=
KCBE 080731Z AUTO 02003KT 10SM CLR 23/18 A3009 RMK AO1=
KESN 080736Z AUTO 00000KT 5SM BR CLR 23/23 A3001 RMK AO2=
KFME 080733Z AUTO 00000KT 4SM CLR 21/21 A3001 RMK AO1=
LGHI 080720Z NIL=
LGKC 080720Z NIL=
LGNX 080720Z NIL=
LGPA 080720Z NIL=
LGSO 080720Z NIL=
LQBK 080730Z 35006KT CAVOK 21/12 Q1022 NOSIG=
####018000343####
SAEW33 LEMM 080730
METAR GCLP 080730Z 36020KT 9999 BKN016 22/17 Q1016 NOSIG=
METAR GCXO 080730Z 29015KT 0100 R30/0200N R12/0175N FG OVC000 
16/16 Q1019 NOSIG=
METAR GCTS 080730Z 07012KT 9999 BKN017 21/18 Q1017 NOSIG=
METAR GCRR 080730Z 01013KT 340V040 9000 SCT015 22/18 Q1016=
METAR GCFV 080730Z 02009KT 9999 BKN018 21/18 Q1016=
####018000779####
SAEW32 LEMM 080730
METAR LEAS 080730Z 06004KT 310V120 9999 4000S SCT015 SCT020TCU 
19/18 Q1017 TEMPO 4000 TSRA SCT025CB=
METAR LEBB 080730Z VRB02KT 7000 FEW015 24/19 Q1016 NOSIG=
METAR COR LECO 080730Z VRB04KT 1500 TS -RA BKN003 FEW005CB OVC006 
19/19 Q1016=
METAR LEGE 080730Z 00000KT CAVOK 27/20 Q1019=
METAR LEST 080730Z 09010KT 060V120 6000 SCT005 SCT024 16/16 Q1016 
NOSIG=
METAR LEZG 080730Z 10009KT 080V140 CAVOK 27/17 Q1019=
METAR LESO 080730Z VRB02KT CAVOK 24/19 Q1016=
METAR LEVT 080730Z 00000KT 9999 FEW035 22/19 Q1019=
METAR LERS 080730Z VRB01KT 9999 FEW045 25/19 Q1019=
METAR LEMH 080730Z 00000KT CAVOK 28/18 Q1020=
METAR LEAM 080730Z VRB02KT CAVOK 31/09 Q1017=
METAR LEGR 080730Z NIL=
METAR LERL 080730Z 07007KT CAVOK 27/12 Q1018=
####018000100####
SAAJ31 UBBB 080730
METAR UBBG 080730Z 36005KT 9999 FEW100 32/18 Q1012 NOSIG RMK
R30R/CLRD70 =
####018000589####
SAEW31 LEMM 080730
METAR LEMD 080730Z 34006KT 310V010 CAVOK 26/14 Q1019 NOSIG=
METAR LEBL 080730Z 29003KT 250V010 CAVOK 27/19 Q1019 NOSIG=
METAR LEPA 080730Z 00000KT CAVOK 28/14 Q1020 BECMG 22010KT=
METAR LEZL 080730Z 26005KT 230V310 CAVOK 26/19 Q1015 NOSIG=
METAR LEMG 080730Z 14004KT 9999 FEW040 26/18 Q1016 NOSIG=
METAR LEVC 080730Z 00000KT CAVOK 27/20 Q1019 NOSIG=
METAR LEAL 080730Z 03005KT 350V080 CAVOK 28/15 Q1018 NOSIG=
METAR LEIB 080730Z 07006KT 050V110 CAVOK 27/21 Q1019 NOSIG=
METAR LELC 080730Z NIL=
METAR LEVX 080730Z VRB02KT 7000 VCFG NSC 19/18 Q1014=
####018000527####
SAYG31 LYBM 080730
METAR LYBE 080730Z 28006KT CAVOK 16/14 Q1021 NOSIG=
METAR LYBT 080730Z 27006KT 250V310 9999 SCT040 17/16 Q1021 NOSIG=
METAR LYKV 080730Z 32005KT 290V360 9999 SCT035 16/15 Q1022 NOSIG=
METAR LYNI 080730Z 34008KT 9999 SCT013 OVC033 14/12 Q1020 NOSIG=
METAR LYPG 080730Z 02014KT 350V060 9999 FEW040 24/06 Q1017 NOSIG=
METAR LYPR 080730Z NIL=
METAR LYTV 080730Z NIL=
METAR LYUZ 080730Z 31008KT 9999 BKN020 12/10 Q1023 NOSIG=
METAR LYVR 080730Z 02003KT 310V090 9999 FEW020 BKN040 17/13 Q1021=
####018000081####
SAMP31 LMMM 080730 RRA
METAR HLLB 080725Z
33012KT 9999 FEW025 29/18 Q1016=
####018000089####
SAIL31 BICC 080730
METAR BIKF 080730Z 02019KT 9999 FEW014 SCT027 BKN120 10/05 Q0993=
####018000259####
SACZ31 LKPW 080730
METAR LKKV 080730Z VRB02KT CAVOK 18/11 Q1024=
METAR LKMT 080730Z VRB01KT 9999 FEW033 18/11 Q1024 NOSIG=
METAR LKPR 080730Z 14004KT 070V190 CAVOK 20/09 Q1024 NOSIG=
METAR LKTB 080730Z 27004KT 220V330 9999 FEW035 20/10 Q1023 NOSIG=
####018000181####
SAEW35 LEMM 080730
METAR LESA 080730Z 00000KT CAVOK 24/18 Q1019=
METAR LEVD 080730Z 10005KT 070V130 CAVOK 24/13 Q1019=
METAR LEVS 080730Z 04004KT 350V140 CAVOK 26/12 Q1019=
####018000139####
SAEW36 LEMM 080730
METAR GCLA 080730Z 02012KT 350V050 9999 BKN020 21/17 Q1018=
METAR GEML 080730Z 06004KT 360V110 CAVOK 25/21 Q1017=
####018000064####
SASU01 HSSS 080730
METAR HSSS 080730Z 24004KT 8000HZ Q1010=
####018000282####
SAEW34 LEMM 080730
METAR LEDA 080730Z 08008KT CAVOK 27/18 Q1020=
METAR LEJR 080730Z VRB02KT CAVOK 23/19 Q1015=
METAR LELL 080730Z 26004KT 200V290 CAVOK 25/15 Q1019=
METAR LEPP 080730Z VRB01KT CAVOK 24/16 Q1020=
METAR LEXJ 080730Z 00000KT 6000 FEW012 BKN020 22/19 Q1016=
####018000332####
SAIE31 EIDB 080730
METAR EIDW 080730Z 23011KT 9999 FEW023 BKN180 15/10 Q1015 NOSIG=
METAR EINN 080730Z 20009KT 9999 FEW015 SCT040 BKN080 14/11 Q1015
     NOSIG=
METAR EICK 080730Z 20008KT 9999 FEW018 SCT050 BKN080 14/13 Q1016
     NOSIG=
METAR EIKN 080730Z 19007KT 150V220 9999 FEW015 SCT045 12/10 Q1013
     NOSIG=
####018000263####
SATS40 DTTA 080730
METAR DTMB 080730Z 31006KT 9999 FEW020 26/20 Q1019 NOSIG=
METAR DTNZ 080730Z AUTO VRB02KT CAVOK 27/12 Q1019=
METAR DTTA 080730Z 27007KT 200V300 9999 FEW026 26/18 Q1019  NOSIG=
METAR DTTJ 080730Z 06004KT 8000 FEW020 28/22 Q1019 NOSIG=
####018000075####
SAEG31 HECA 080730
METAR HECA 080730Z 32005KT CAVOK 28/19 Q1011 NOSIG=
####018000097####
SAUZ31 UTTW 080730
METAR UTNN 080730Z 19005MPS 150V220 CAVOK 40/08 Q1008 R15/CLRD70
NOSIG=
####018000468####
SAGR32 LGAT 080720
METAR LGAL 080720Z NIL=
METAR LGEL 080720Z 02012G22KT 9999 FEW025 26/15 Q1011=
METAR LGKV 080720Z 00000KT 9999 SCT020TCU 17/16 Q1013=
METAR LGMT 080720Z 36010KT 9999 FEW020 SCT160 27/14 Q1010=
METAR LGPZ 080720Z 27012KT 9999 FEW025 28/19 Q1013 NOSIG=
METAR LGRX 080720Z 28006KT 9999 FEW025 27/21 Q1012 NOSIG=
METAR LGSK 080720Z NIL=
METAR LGSR 080720Z 29007KT CAVOK 29/15 Q1009 NOSIG=
METAR LGZA 080720Z 36009KT 9999 FEW020 29/17 Q1012=
####018000600####
SAGR31 LGAT 080720
METAR LGAD 080720Z 33009KT 9999 FEW020 27/20 Q1013=
METAR LGAV 080720Z 03018KT 9999 SCT025 26/14 Q1012 NOSIG=
METAR LGIR 080720Z 08004KT CAVOK 29/18 Q1011 NOSIG=
METAR COR LGKL 080720Z 32006KT CAVOK 30/17 Q1011=
METAR LGKO 080720Z 31017KT CAVOK 27/18 Q1009=
METAR LGKR 080720Z 31018KT CAVOK 27/12 Q1013 NOSIG=
METAR LGLM 080720Z 03012KT 9999 SCT008 FEW020TCU SCT025 BKN080 19/18
      Q1013=
METAR LGRP 080720Z NIL=
METAR LGSA 080720Z 30008KT CAVOK 31/15 Q1011=
METAR LGSM 080720Z 34015KT CAVOK 28/15 Q1010=
METAR LGTS 080720Z 33025KT 9999 FEW025 21/11 Q1016 NOSIG=
####018000081####
SAMP31 LMMM 080730 RRA
METAR HLLB 080725Z 
33012KT 9999 FEW025 29/18 Q1016=
####018000077####
SALY31 HLLB 080730
METAR HLLB 080725Z 
33012KT 9999 FEW025 29/18 Q1016=
####018000300####
SAGR33 LGAT 080720
METAR LGHI 080720Z NIL=
METAR LGKC 080720Z NIL=
METAR LGKF 080720Z NIL=
METAR LGKP 080720Z 32015KT CAVOK 28/17 Q1008=
METAR LGKZ 080720Z NIL=
METAR LGMK 080720Z 35025G36KT 9999 FEW018 26/20 Q1011=
METAR LGNX 080720Z NIL=
METAR LGPA 080720Z NIL=
METAR LGSO 080720Z NIL=
####018000085####
SADL33 EDZO 080720 CCA
METAR COR EDFM 080720Z 14006KT 100V190 CAVOK 25/10 Q1020=
####018001718####
SPZZ40 KAWN 080734 RRG
SPECI BGTL 080724Z AUTO 00000KT M0400 FG VV001 05/04 A2985 RMK AO2
      VIS 4000 RWY26 SLP112=
SPECI CYKF 080732Z AUTO 00000KT 1 1/2SM BR CLR 19/18 A3006 RMK SLP177
      DENSITY ALT 1600FT=
SPECI CYKL 080729Z AUTO 14004KT 9SM OVC041 OVC094 13/13 A2987=
SPECI CYUS 080728Z AUTO ///// 9SM CLR 11/ A2980=
SPECI CYZV 080728Z 15004KT 1/4SM R09/2200FT/N -DZ FG VV002 RMK FG8=
SPECI EGUL 080733Z AUTO 23009KT 8000 -DZ BR FEW005 OVC022 17/16 A3006
      RMK AO2 RAB0711E0731DZB0708E0711B0731 SLP180=
SPECI EGUN 080729Z AUTO 25008KT 9999 -RA BKN004 BKN014 OVC019 17/17
      A3007 RMK AO2 VIS 2800 RWY11 RAB0711 SLP171=
SPECI EKVG 080730Z 16010KT 9999 SCT004 BKN006 BKN010 11/10 Q0992 RMK/RWY
      13/31 CLOSED DUE WIP/ SEE NOTAM E0050/10 WIND 850FT
      15010G23KT 110V240=
SPECI KRND 080731Z AUTO 07006KT 10SM SCT014 BKN023 25/23 A2994 RMK
      AO2 SCT V BKN CIG 011 RWY32R SLP128=
PAEH SP 0735 AWOS 9 SCT M20 OVC 10 50/-19/0000/001=
PATC SP 0735 AWOS CLR BLO 120 10 52/44/0000/016=
SPECI PHHI 080732Z AUTO 06004KT 10SM SCT031 SCT055 21/18 A3006 RMK
      AO2 RAB0716E0729DZB0729E0732 SLP168=
SPECI RJCK 080721Z 21003KT 1400 R17/P1800N BR SCT002 BKN003 17/16 Q1009
      RMK 4ST002 7ST003 A2981=
SPECI RJCK 080728Z 20003KT 0900 R17/P1800N FG -SHRA VV001 17/16 Q1009
      RMK A2981=
SPECI RJTH 080729Z 21012KT 4800 SHRA BR FEW004 SCT008 BKN012 25/24
      Q1011 RMK 1ST004 3ST008 6CU012 A2987=
SPECI UMII 080730Z 17003MPS P6000 BKN010CB 18/16 Q1012 R23/D NOSIG=
SPECI YPPH 080730Z 34013KT 6000 SHRA FEW008 SCT022 BKN050 FEW022CB
      15/14 Q1000 FM0730 33018G28KT 9999 -SHRA BKN020 INTER
      0730/1030 27025G35KT 3000 +SHRA BKN010=
####018000587####
SARS18 KAWN 080700 RRH
METAR LUKK 080730Z 33008KT 240V360 9999 SCT016 20/14 Q1015 08CLRD65
      NOSIG=
METAR UBBB 080730Z 34022KT CAVOK 31/26 Q1011 NOSIG RMK R88CLRD70=
METAR UKBB 080730Z 31003MPS 260V330 9999 SCT016 23/18 Q1013 88CLRD95
      NOSIG=
METAR UKFF 080730Z 10002MPS 040V170 9999 FEW033 26/17 Q1013 19010070
      NOSIG=
METAR UKLL 080730Z 30004MPS 240V010 9999 SCT028CB BKN028 16/12 Q1020
      31210365 NOSIG=
METAR UKOO 080730Z 34005MPS 310V020 CAVOK 22/16 Q1014 34090070 NOSIG=
METAR UTTT 080730Z 30003MPS 7000 NSC 37/11 Q1011 R08R/CLRD70 NOSIG=
####018000352####
SAXX70 KAWN 080700 RRQ
METAR KQEJ 080720Z AUTO 20004KT 7SM CLR 28/17 A2990 RMK A02=
METAR KQEL 080730Z AUTO 21004KT 7SM CLR 28/19 A2970 RMK A02=
METAR KQEQ 080730Z AUTO 25002KT 7SM SCT120 25/19 A2980 RMK A02=
METAR KQEW 080730Z AUTO 00000KT 7SM CLR 28/20 A2981 RMK A02=
METAR KQFB 080730Z AUTO 08003KT 2SM +SHRA BKN019 24/20 A2990 RMK A02=
####018001615####
SAEU KAWN 080700 RRX
METAR EBBE 080725Z 24006KT 9999 FEW200 25/11 Q1019 BLU BLU=
METAR EBFN 080725Z 28006KT 9999 FEW042 SCT130 BKN190 19/15 Q1019 BLU
      BLU=
METAR EBLB 080725Z 21005KT 9999 FEW160 22/11 Q1022 BLU BLU=
METAR LGAD 080720Z 33009KT 9999 FEW020 27/20 Q1013=
METAR LGAL 080720Z 08009KT 6000 -RA SCT006 SCT020TCU BKN025 15/13 Q1015
      RERA=
METAR LGEL 080720Z 02012G22KT 9999 FEW025 26/15 Q1011=
METAR LGIR 080720Z 08004KT CAVOK 29/18 Q1011 NOSIG=
METAR COR LGKL 080720Z 32006KT CAVOK 30/17 Q1011=
METAR LGKO 080720Z 31017KT CAVOK 27/18 Q1009=
METAR LGKP 080720Z 32015KT CAVOK 28/17 Q1008=
METAR LGKR 080720Z 31018KT CAVOK 27/12 Q1013 NOSIG=
METAR LGKV 080720Z 00000KT 9999 SCT020TCU 17/16 Q1013=
METAR LGLM 080720Z 03012KT 9999 SCT008 FEW020TCU SCT025 BKN080 19/18
      Q1013=
METAR LGMK 080720Z 35025G36KT 9999 FEW018 26/20 Q1011=
METAR LGMT 080720Z 36010KT 9999 FEW020 SCT160 27/14 Q1010=
METAR LGPZ 080720Z 27012KT 9999 FEW025 28/19 Q1013 NOSIG=
METAR LGRP 080720Z 24014KT CAVOK 29/21 Q1007 NOSIG=
METAR LGRX 080720Z 28006KT 9999 FEW025 27/21 Q1012 NOSIG=
METAR LGSA 080720Z 30008KT CAVOK 31/15 Q1011=
METAR LGSM 080720Z 34015KT CAVOK 28/15 Q1010=
METAR LGSR 080720Z 29007KT CAVOK 29/15 Q1009 NOSIG=
METAR LGTS 080720Z 33025KT 9999 FEW025 21/11 Q1016 NOSIG=
METAR LGZA 080720Z 36009KT 9999 FEW020 29/17 Q1012=
METAR LHBP 080730Z VRB03KT 9999 FEW038 21/11 Q1022 NOSIG=
METAR LQBK 080730Z 35006KT CAVOK 21/12 Q1022 NOSIG=
METAR LZIB 080730Z 03009KT 350V060 CAVOK 22/06 Q1023=
METAR LZTT 080730Z VRB03KT 9999 FEW043 17/08 Q1022 NOSIG=
####018000106####
SAAU31 AMMC 080700 CCC
METAR YBTL 080700Z 06008KT 9999 FEW030 SCT045 BKN080 23/19 Q1015
     NOSIG=
####018000106####
SAAU31 AMMC 080700 CCD
METAR YBTL 080700Z 06008KT 9999 FEW030 SCT045 BKN080 23/19 Q1015
     NOSIG=
####018000112####
SAAU31 AMMC 080700 CCC
METAR YBTL 080700Z 06008KT 9999 FEW030 SCT045 BKN080 23/19 Q1015
     NOSIG=


####018000112####
SAAU31 AMMC 080700 CCD
METAR YBTL 080700Z 06008KT 9999 FEW030 SCT045 BKN080 23/19 Q1015
     NOSIG=


####018000432####
SAIR31 OIII 080730
METAR OIAW 080730Z NIL=
METAR OIFM 080730Z 18006KT CAVOK 36/07 Q1017 A3006=
METAR OIII 080730Z 17006KT CAVOK 36/M01 Q1015 A2997 880.0=
METAR OIKB 080730Z NIL=
METAR OIKK 080730Z NIL=
METAR OIMM 080730Z 08010KT CAVOK 37/M01 Q1015 A2998=
METAR OISS 080730Z 09006KT CAVOK 37/07 Q1014 A2997=
METAR OITT 080730Z 09012KT CAVOK 32/03 Q1015 A3000=
METAR OIZH 080730Z 05006KT CAVOK 35/M04 Q1014 A2995=
####018001803####
SAEU KAWN 080700 RRX
METAR EBBL 080725Z 20004KT 9999 FEW220 27/12 Q1019 BLU BLU=
METAR EBCV 080725Z 26003KT 9999 FEW150 22/14 Q1020 BLU=
METAR EBDT 080725Z 16004KT 9999 FEW160 25/14 Q1019 BLU=
METAR EBFS 080725Z 19007KT 9999 SCT250 23/11 Q1020 BLU BLU=
METAR EICK 080730Z 20008KT 9999 FEW018 SCT050 BKN080 14/13 Q1016 NOSIG=
METAR EIDW 080730Z 23011KT 9999 FEW023 BKN180 15/10 Q1015 NOSIG=
METAR EIKN 080730Z 19007KT 150V220 9999 FEW015 SCT045 12/10 Q1013 NOSIG=
METAR EINN 080730Z 20009KT 9999 FEW015 SCT040 BKN080 14/11 Q1015 NOSIG=
METAR EPKT 080730Z 35006KT CAVOK 18/09 Q1023=
METAR EPWR 080730Z 20005KT 150V250 CAVOK 20/10 Q1024=
METAR LEBL 080730Z 29003KT 250V010 CAVOK 27/19 Q1019 NOSIG=
METAR COR LECO 080730Z VRB04KT 1500 TS -RA BKN003 FEW005CB OVC006 19/19
      Q1016=
METAR LEMD 080730Z 34006KT 310V010 CAVOK 26/14 Q1019 NOSIG=
METAR LEMH 080730Z 00000KT CAVOK 28/18 Q1020=
METAR LEPA 080730Z 00000KT CAVOK 28/14 Q1020 BECMG 22010KT=
METAR LEPP 080730Z VRB01KT CAVOK 24/16 Q1020=
METAR LESA 080730Z 00000KT CAVOK 24/18 Q1019=
METAR LEST 080730Z 09010KT 060V120 6000 SCT005 SCT024 16/16 Q1016 NOSIG=
METAR LEVT 080730Z 00000KT 9999 FEW035 22/19 Q1019=
METAR LEXJ 080730Z 00000KT 6000 FEW012 BKN020 22/19 Q1016=
METAR LEZL 080730Z 26005KT 230V310 CAVOK 26/19 Q1015 NOSIG=
METAR LGKL 080720Z 32006KT CAVOK 30/17 Q1011=
METAR LKKV 080730Z VRB02KT CAVOK 18/11 Q1024=
METAR LKMT 080730Z VRB01KT 9999 FEW033 18/11 Q1024 NOSIG=
METAR LKPR 080730Z 14004KT 070V190 CAVOK 20/09 Q1024 NOSIG=
METAR LKTB 080730Z 27004KT 220V330 9999 FEW035 20/10 Q1023 NOSIG=
METAR LYBE 080730Z 28006KT CAVOK 16/14 Q1021 NOSIG=
METAR LYNI 080730Z 34008KT 9999 SCT013 OVC033 14/12 Q1020 NOSIG=
METAR LYPG 080730Z 02014KT 350V060 9999 FEW040 24/06 Q1017 NOSIG=
####018000085####
SPCN51 CWAO 080733
SPECI CWZZ 080733Z AUTO ///// 9SM SCT017 OVC028 10/ A2983=

####018000092####
SAUZ31 UTTW 080730
METAR UTSS 080730Z 10005MPS 9999 NSC 34/10 Q1011
R88/CLRD70 NOSIG=
####018002960####
SAUS20 KNKA 080734
METAR K2W6 080731Z AUTO 00000KT 7SM CLR 23/22 A2999 RMK AO1=
METAR K36U 080737Z AUTO 00000KT 10SM CLR 14/04 A3019 RMK AO2=
METAR KAFK 080730Z AUTO 34006KT 7SM CLR 20/19 A3010 RMK AO2 
     T02040191=
METAR KANW 080730Z AUTO 00000KT 10SM OVC110 17/15 A3023 RMK AO2 
     T01660150=
METAR KAUH 080730Z AUTO 35004KT 10SM CLR 16/15 A3017 RMK AO2 
     T01620152=
METAR KAUN 080730Z AUTO 08006KT 10SM CLR 21/13 A2987 RMK AO1=
METAR KBIE 080730Z AUTO 01007KT 10SM SCT011 20/19 A3011 RMK AO2 
     T02010188=
METAR KBTA 080730Z AUTO 34008KT 10SM BKN023 20/17 A3012 RMK AO2 
     T01970172=
METAR KBVN 080730Z AUTO 00000KT 10SM SCT090 16/15 A3018 RMK AO2 
     T01560145=
METAR KCBE 080731Z AUTO 02003KT 10SM CLR 23/18 A3009 RMK AO1=
METAR KCGE 080729Z AUTO 00000KT 5SM CLR 25/23 A2999 RMK AO1=
METAR KCGS 080735Z AUTO 00000KT 7SM CLR 26/22 A2998 RMK AO1=
METAR KFDK 080717Z AUTO 00000KT 7SM SCT090 25/21 A3002 RMK AO2=
METAR KDMW 080731Z AUTO 00000KT 7SM CLR 26/21 A3003 RMK AO2=
METAR KDVO 080730Z AUTO 34003KT 10SM OVC012 13/12 A2993 RMK AO2=
METAR KESN 080736Z AUTO 00000KT 5SM BR CLR 23/23 A3001 RMK AO2=
METAR KFET 080731Z AUTO 00000KT 10SM CLR 18/17 A3013 RMK AO2=
METAR KFME 080733Z AUTO 00000KT 4SM CLR 21/21 A3001 RMK AO1=
METAR KHDE 080730Z AUTO 33004KT 10SM CLR 16/15 A3020 RMK AO2 
     T01620148=
METAR KHJH 080730Z AUTO 35006KT 10SM SCT023 20/18 A3014 RMK AO2 
     T01970181=
SPECI KHOT 080733Z AUTO 00000KT 10SM BKN010 BKN120 24/23 A3006 RMK 
    AO2=
METAR KIBM 080730Z AUTO 00000KT 10SM OVC016 12/11 A3031 RMK AO2 
     T01220112=
METAR KIZA 080730Z AUTO 00000KT 10SM OVC009 14/11 A2991 RMK AO2=
METAR KJYR 080730Z AUTO 35004KT 10SM CLR 17/16 A3015 RMK AO2=
METAR KL35 080732Z AUTO 00000KT 10SM CLR 08/M06 A3018 RMK AO2=
METAR KLCG 080730Z AUTO 00000KT 10SM SCT120 16/15 A3016 RMK AO2 
     T01570150=
METAR KLHM 080731Z AUTO 15009KT 10SM CLR 20/12 A2981 RMK AO1 
     T01960116=
METAR KLXN 080730Z AUTO 33004KT 10SM BKN045 16/15 A3022 RMK AO2 
     T01560150=
METAR KMTN 080733Z AUTO 00000KT 7SM CLR 26/24 A3000 RMK AO2=
METAR KOJA 080730Z AUTO 00000KT 7SM CLR 22/22 A3007 RMK AO2=
METAR KORS 080730Z AUTO 00000KT 10SM CLR 18/12 A2993 RMK AO2=
METAR KPLU 080730Z AUTO 00000KT 10SM FEW031 FEW047 FEW060 17/13 
     A2993 RMK AO2=
METAR KPVJ 080727Z AUTO 00000KT 10SM OVC009 25/24 A3002 RMK AO2=
METAR KRKR 080732Z AUTO 00000KT 10SM OVC030 26/24 A3003 RMK AO2=
METAR KSNL 080732Z AUTO 00000KT 10SM BKN009 OVC013 24/23 A3004 
     RMK AO2=
METAR KSRE 080730Z AUTO 00000KT 7SM -RA 24/24 A3002 RMK AO2=
METAR KTEX 080731Z AUTO 00000KT 10SM CLR 13/03 A3044 RMK AO2 LTG 
     DSNT N=
METAR KTQH 080735Z AUTO 00000KT 10SM SCT010 SCT035 BKN042 23/23 
     A3004 RMK AO2=
METAR KW29 080731Z AUTO 14003KT 7SM SCT110 25/22 A2998 RMK AO1=
METAR KWDG 080730Z AUTO 02006KT 10SM SCT048 SCT065 SCT075 22/22 
     A3009 RMK AO2=
####018000104####
SPUS99 KWBC 080735
SPECI
KHOT 080733Z AUTO 00000KT 10SM BKN010 BKN120 24/23 A3006 RMK
     AO2=
####018000519####
SAFR36 LFPW 080730
METAR LFBE 080730Z 07004KT 040V100 CAVOK 22/16 Q1018 NOSIG=
METAR LFGJ 080730Z AUTO 23004KT 180V300 9999NDV NSC 21/15 Q1021=
METAR LFMD 080730Z AUTO VRB02KT 9999NDV BKN076 28/20 Q1020=
METAR LFOT 080730Z AUTO VRB02KT 9999NDV NSC 24/14 Q1019=
METAR LFRC 080730Z AUTO 30007KT 260V340 9999NDV OVC005 17/16 Q1020=
METAR LFRG 080730Z AUTO 00000KT 9999NDV NSC 22/09 Q1020=
METAR LFBA 080730Z NIL=
METAR LFJR 080730Z NIL=
METAR LFMH 080730Z NIL=
METAR LFPN 080730Z NIL=
METAR LFRK 080730Z NIL=
####018002636####
SAUS99 KWBC 080735
METAR
K2W6 080731Z AUTO 00000KT 7SM CLR 23/22 A2999 RMK AO1=
K36U 080737Z AUTO 00000KT 10SM CLR 14/04 A3019 RMK AO2=
KAFK 080730Z AUTO 34006KT 7SM CLR 20/19 A3010 RMK AO2
     T02040191=
KANW 080730Z AUTO 00000KT 10SM OVC110 17/15 A3023 RMK AO2
     T01660150=
KAUH 080730Z AUTO 35004KT 10SM CLR 16/15 A3017 RMK AO2
     T01620152=
KAUN 080730Z AUTO 08006KT 10SM CLR 21/13 A2987 RMK AO1=
KBIE 080730Z AUTO 01007KT 10SM SCT011 20/19 A3011 RMK AO2
     T02010188=
KBTA 080730Z AUTO 34008KT 10SM BKN023 20/17 A3012 RMK AO2
     T01970172=
KBVN 080730Z AUTO 00000KT 10SM SCT090 16/15 A3018 RMK AO2
     T01560145=
KCBE 080731Z AUTO 02003KT 10SM CLR 23/18 A3009 RMK AO1=
KCGE 080729Z AUTO 00000KT 5SM CLR 25/23 A2999 RMK AO1=
KCGS 080735Z AUTO 00000KT 7SM CLR 26/22 A2998 RMK AO1=
KFDK 080717Z AUTO 00000KT 7SM SCT090 25/21 A3002 RMK AO2=
KDMW 080731Z AUTO 00000KT 7SM CLR 26/21 A3003 RMK AO2=
KDVO 080730Z AUTO 34003KT 10SM OVC012 13/12 A2993 RMK AO2=
KESN 080736Z AUTO 00000KT 5SM BR CLR 23/23 A3001 RMK AO2=
KFET 080731Z AUTO 00000KT 10SM CLR 18/17 A3013 RMK AO2=
KFME 080733Z AUTO 00000KT 4SM CLR 21/21 A3001 RMK AO1=
KHDE 080730Z AUTO 33004KT 10SM CLR 16/15 A3020 RMK AO2
     T01620148=
KHJH 080730Z AUTO 35006KT 10SM SCT023 20/18 A3014 RMK AO2
     T01970181=
KIBM 080730Z AUTO 00000KT 10SM OVC016 12/11 A3031 RMK AO2
     T01220112=
KIZA 080730Z AUTO 00000KT 10SM OVC009 14/11 A2991 RMK AO2=
KJYR 080730Z AUTO 35004KT 10SM CLR 17/16 A3015 RMK AO2=
KL35 080732Z AUTO 00000KT 10SM CLR 08/M06 A3018 RMK AO2=
KLCG 080730Z AUTO 00000KT 10SM SCT120 16/15 A3016 RMK AO2
     T01570150=
KLHM 080731Z AUTO 15009KT 10SM CLR 20/12 A2981 RMK AO1
     T01960116=
KLXN 080730Z AUTO 33004KT 10SM BKN045 16/15 A3022 RMK AO2
     T01560150=
KMTN 080733Z AUTO 00000KT 7SM CLR 26/24 A3000 RMK AO2=
KOJA 080730Z AUTO 00000KT 7SM CLR 22/22 A3007 RMK AO2=
KORS 080730Z AUTO 00000KT 10SM CLR 18/12 A2993 RMK AO2=
KPLU 080730Z AUTO 00000KT 10SM FEW031 FEW047 FEW060 17/13 A2993
     RMK AO2=
KPVJ 080727Z AUTO 00000KT 10SM OVC009 25/24 A3002 RMK AO2=
KRKR 080732Z AUTO 00000KT 10SM OVC030 26/24 A3003 RMK AO2=
KSNL 080732Z AUTO 00000KT 10SM BKN009 OVC013 24/23 A3004 RMK
     AO2=
KSRE 080730Z AUTO 00000KT 7SM -RA 24/24 A3002 RMK AO2=
KTEX 080731Z AUTO 00000KT 10SM CLR 13/03 A3044 RMK AO2 LTG DSNT
     N=
KTQH 080735Z AUTO 00000KT 10SM SCT010 SCT035 BKN042 23/23 A3004
     RMK AO2=
KW29 080731Z AUTO 14003KT 7SM SCT110 25/22 A2998 RMK AO1=
KWDG 080730Z AUTO 02006KT 10SM SCT048 SCT065 SCT075 22/22 A3009
     RMK AO2=
####018000579####
SAEW31 LEMM 080730
METAR LEMD 080730Z 34006KT 310V010 CAVOK 26/14 Q1019 NOSIG=
METAR LEBL 080730Z 29003KT 250V010 CAVOK 27/19 Q1019 NOSIG=
METAR LEPA 080730Z 00000KT CAVOK 28/14 Q1020 BECMG 22010KT=
METAR LEZL 080730Z 26005KT 230V310 CAVOK 26/19 Q1015 NOSIG=
METAR LEMG 080730Z 14004KT 9999 FEW040 26/18 Q1016 NOSIG=
METAR LEVC 080730Z 00000KT CAVOK 27/20 Q1019 NOSIG=
METAR LEAL 080730Z 03005KT 350V080 CAVOK 28/15 Q1018 NOSIG=
METAR LEIB 080730Z 07006KT 050V110 CAVOK 27/21 Q1019 NOSIG=
METAR LELC 080730Z NIL=
METAR LEVX 080730Z VRB02KT 7000 VCFG NSC 19/18 Q1014=
####018000413####
SAFR37 LFPW 080730
METAR LFBU 080730Z AUTO 11005KT 080V150 9999NDV NSC 25/15 Q1018=
METAR LFLN 080730Z AUTO VRB01KT //// NSC 22/15 Q1021=
METAR LFPM 080730Z 00000KT CAVOK 23/14 Q1019=
METAR LFSD 080730Z AUTO 05003KT 330V110 9999NDV NSC 22/13 Q1020=
METAR LFTW 080730Z AUTO VRB02KT 9999NDV NSC 26/14 Q1020=
METAR LFAQ 080730Z NIL=
METAR LFRH 080730Z NIL=
METAR LFRQ 080730Z NIL=
METAR LFRT 080730Z NIL=
####018000360####
SARO31 LROM 080730
METAR LRBS 080730Z VRB01KT 9999 SCT018 OVC041 19/15 Q1016 NOSIG=
METAR LRCK 080730Z 01010KT 340V050 9999 BKN033 22/15 Q1015 NOSIG=
METAR LROP 080730Z 00000KT 9999 FEW040CB BKN042 19/14 Q1016
880///95 NOSIG=
METAR LRSB 080730Z 02006KT 9999 SCT032 OVC086 14/12 Q1020=
METAR LRTR 080730Z 33007KT 310V010 9999 FEW020 BKN043 18/14 Q1020=
####018000090####
SAUZ31 UTTW 080730
METAR UTSS 080730Z 10005MPS 9999 NSC 34/10 Q1011
R88/CLRD70 NOSIG=
####018000137####
SAEW36 LEMM 080730
METAR GCLA 080730Z 02012KT 350V050 9999 BKN020 21/17 Q1018=
METAR GEML 080730Z 06004KT 360V110 CAVOK 25/21 Q1017=
####018000107####
SAKO31 RKSI 080730
METAR RKSI 080730Z 26005KT 230V290 9999 FEW040 OVC120 24/19 Q1008
           NOSIG=
####018000178####
SAEW35 LEMM 080730
METAR LESA 080730Z 00000KT CAVOK 24/18 Q1019=
METAR LEVD 080730Z 10005KT 070V130 CAVOK 24/13 Q1019=
METAR LEVS 080730Z 04004KT 350V140 CAVOK 26/12 Q1019=
####018000392####
SAFR31 LFPW 080730
METAR LFLL 080730Z VRB01KT CAVOK 23/14 Q1021 NOSIG=
METAR LFMN 080730Z 10002KT 9999 BKN060 28/21 Q1020 NOSIG=
METAR LFPG 080730Z 19004KT 150V220 CAVOK 24/11 Q1020 NOSIG=
METAR LFPO 080730Z 18004KT 130V210 CAVOK 24/13 Q1019 NOSIG=
METAR LFQQ 080730Z VRB02KT CAVOK 23/14 Q1019 NOSIG=
METAR LFRB 080730Z 00000KT 9999 OVC009 17/15 Q1019 NOSIG=
METAR LFRS 080730Z NIL=
####018000277####
SAEW34 LEMM 080730
METAR LEDA 080730Z 08008KT CAVOK 27/18 Q1020=
METAR LEJR 080730Z VRB02KT CAVOK 23/19 Q1015=
METAR LELL 080730Z 26004KT 200V290 CAVOK 25/15 Q1019=
METAR LEPP 080730Z VRB01KT CAVOK 24/16 Q1020=
METAR LEXJ 080730Z 00000KT 6000 FEW012 BKN020 22/19 Q1016=
####018000166####
SANM40 FYWW 080730
METAR FYWB 080730Z 09018KT 9999 R27/M0050VP1500U VV/// 25/04 Q1017 =
METAR FYWB 080730Z 09018KT 9999 R27/M0050VP1500U VV/// 25/04 Q1017 =

####018000083####
SPAK32 KWBC 080735
SPECI
PAEH SP 0735 AWOS 9 SCT M20 OVC 10 50/-19/0000/001=
####018000080####
SPAK32 KWBC 080735
SPECI
PATC SP 0735 AWOS CLR BLO 120 10 52/44/0000/016=
####018000093####
SPEE31 KWBC 080735
SPECI
UMII 080730Z 17003MPS P6000 BKN010CB 18/16 Q1012 R23/D NOSIG=
####018000174####
SPDN31 KWBC 080735
SPECI
EKVG 080730Z 16010KT 9999 SCT004 BKN006 BKN010 11/10 Q0992 RMK/RWY
13/31 CLOSED DUE WIP/ SEE NOTAM E0050/10 WIND 850FT 15010G23KT
110V240=
####018000124####
SPJP41 KWBC 080735
SPECI
RJCK 080721Z 21003KT 1400 R17/P1800N BR SCT002 BKN003 17/16 Q1009
RMK 4ST002 7ST003 A2981=
####018000108####
SPJP41 KWBC 080735
SPECI
RJCK 080728Z 20003KT 0900 R17/P1800N FG -SHRA VV001 17/16 Q1009
RMK A2981=
####018000098####
SPUS31 KWBC 080735
SPECI
KORD 080732Z 00000KT 10SM FEW008 SCT047 BKN070 OVC200 23/22 A3003=
####018000132####
SPJP44 KWBC 080735
SPECI
RJTH 080729Z 21012KT 4800 SHRA BR FEW004 SCT008 BKN012 25/24 Q1011
RMK 1ST004 3ST008 6CU012 A2987=
####018000117####
SPNT31 KWBC 080735
SPECI
BGTL 080724Z AUTO 00000KT M0400 FG VV001 05/04 A2985 RMK AO2 VIS
4000 RWY26 SLP112=
####018000093####
SPRA31 KWBC 080735
SPECI
UMII 080730Z 17003MPS P6000 BKN010CB 18/16 Q1012 R23/D NOSIG=
####018000143####
SPXX61 KWBC 080735
SPECI
EGUL 080733Z AUTO 23009KT 8000 -DZ BR FEW005 OVC022 17/16 A3006
RMK AO2 RAB0711E0731DZB0708E0711B0731 SLP180=
####018000140####
SPXX61 KWBC 080735
SPECI
EGUN 080729Z AUTO 25008KT 9999 -RA BKN004 BKN014 OVC019 17/17
A3007 RMK AO2 VIS 2800 RWY11 RAB0711 SLP171=
####018000131####
SPXX62 KWBC 080735
SPECI
PHHI 080732Z AUTO 06004KT 10SM SCT031 SCT055 21/18 A3006 RMK AO2
RAB0716E0729DZB0729E0732 SLP168=
####018000089####
SAMG20 FMMI 080730
METAR FMMI 080730Z 14009KT 110V180 9999 BKN016 18/12 Q1028 NOSIG=
####018000371####
SAPO31 LPMG 080730
METAR LPFR 080730Z 21005KT 180V260 7000 SCT008 BKN010 22/20 Q1015=
METAR LPMA 080730Z 03007KT 320V090 9999 FEW015 21/16 Q1019 RS07001KT 
0528002KT 2334013KT=
METAR LPPR 080730Z 00000KT 5000 BR BKN250 22/19 Q1014=
METAR LPPS 080730Z 02010KT 350V060 9999 FEW016 BKN030 20/15 Q1020=
METAR LPPT 080730Z VRB03KT 8000 FEW120 22/18 Q1014 NOSIG=
####018000103####
SPCN47 CWAO 080733
SPECI CYPQ 080733Z AUTO ///// 1/2SM CLR 21/21 A3003 RMK VSBY VRBL
0.1V6.0=

####018000098####
SPUS73 KWBC 080735
SPECI
KORD 080732Z 00000KT 10SM FEW008 SCT047 BKN070 OVC200 23/22 A3003=
####018000112####
SPCN48 CWAO 080733
SPECI CYPH 080733Z AUTO 24017G22KT 1 1/8SM VV001 05/05 A2976 RMK VSBY
VRBL 0.4V6.0=

####018000530####
SAFR36 LFPW 080730
METAR LFBE 080730Z 07004KT 040V100 CAVOK 22/16 Q1018 NOSIG=
METAR LFGJ 080730Z AUTO 23004KT 180V300 9999NDV NSC 21/15 Q1021=
METAR LFMD 080730Z AUTO VRB02KT 9999NDV BKN076 28/20 Q1020=
METAR LFOT 080730Z AUTO VRB02KT 9999NDV NSC 24/14 Q1019=
METAR LFRC 080730Z AUTO 30007KT 260V340 9999NDV OVC005 17/16 Q1020=
METAR LFRG 080730Z AUTO 00000KT 9999NDV NSC 22/09 Q1020=
METAR LFBA 080730Z NIL=
METAR LFJR 080730Z NIL=
METAR LFMH 080730Z NIL=
METAR LFPN 080730Z NIL=
METAR LFRK 080730Z NIL=
####018000366####
SARO31 LROM 080730
METAR LRBS 080730Z VRB01KT 9999 SCT018 OVC041 19/15 Q1016 NOSIG=
METAR LRCK 080730Z 01010KT 340V050 9999 BKN033 22/15 Q1015 NOSIG=
METAR LROP 080730Z 00000KT 9999 FEW040CB BKN042 19/14 Q1016
880///95 NOSIG=
METAR LRSB 080730Z 02006KT 9999 SCT032 OVC086 14/12 Q1020=
METAR LRTR 080730Z 33007KT 310V010 9999 FEW020 BKN043 18/14 Q1020=
####018000399####
SAFR31 LFPW 080730
METAR LFLL 080730Z VRB01KT CAVOK 23/14 Q1021 NOSIG=
METAR LFMN 080730Z 10002KT 9999 BKN060 28/21 Q1020 NOSIG=
METAR LFPG 080730Z 19004KT 150V220 CAVOK 24/11 Q1020 NOSIG=
METAR LFPO 080730Z 18004KT 130V210 CAVOK 24/13 Q1019 NOSIG=
METAR LFQQ 080730Z VRB02KT CAVOK 23/14 Q1019 NOSIG=
METAR LFRB 080730Z 00000KT 9999 OVC009 17/15 Q1019 NOSIG=
METAR LFRS 080730Z NIL=
####018000169####
SACY31 LCLK 080730
METAR LCLK 080730Z 20013KT 9999 FEW010 29/23 Q1008 NOSIG=
METAR LCPH 080730Z 20006KT 140V230 9999 FEW020 28/22 Q1009=
METAR LCNC 080730Z NIL=
####018000424####
SAFR32 LFPW 080730
METAR LFBD 080730Z 09007KT CAVOK 26/14 Q1017 NOSIG=
METAR LFBH 080730Z AUTO 10005KT 9999NDV NSC 26/13 Q1018=
METAR LFBO 080730Z 13009KT CAVOK 24/12 Q1019 NOSIG=
METAR LFML 080730Z 27003KT CAVOK 27/18 Q1019 NOSIG=
METAR LFBI 080730Z NIL=
METAR LFBL 080730Z NIL=
METAR LFBP 080730Z NIL=
METAR LFBT 080730Z NIL=
METAR LFBZ 080730Z NIL=
METAR LFLB 080730Z NIL=
METAR LFLX 080730Z NIL=
####018000075####
SAAB31 LATI 080730
METAR LATI 080730Z 34008KT CAVOK 24/11 Q1015 NOSIG=
####018000465####
SAFR35 LFPW 080730
METAR LFMI 080730Z AUTO VRB02KT 9999NDV NSC 29/15 Q1019=
METAR LFRD 080730Z AUTO 36005KT 320V050 9999NDV BKN009 18/15 Q1020=
METAR LFRO 080730Z AUTO 34002KT 9999NDV BKN012 19/16 Q1020=
METAR LFRZ 080730Z AUTO 01005KT 340V040 9999NDV NSC 20/13 Q1018=
METAR LFSB 080730Z VRB02KT CAVOK 23/12 Q1021 NOSIG=
METAR LFST 080730Z VRB01KT CAVOK 22/12 Q1020 NOSIG=
METAR LFMK 080730Z NIL=
METAR LFRN 080730Z NIL=
METAR LFTH 080730Z NIL=
####018000363####
SAFR33 LFPW 080730
METAR LFKB 080730Z VRB01KT 9000 SCT018 28/22 Q1019 NOSIG=
METAR LFKJ 080730Z VRB03KT 9999 FEW023 26/20 Q1019 NOSIG=
METAR LFMV 080730Z AUTO VRB02KT 9999NDV NSC 26/17 Q1020=
METAR LFSL 080730Z AUTO 11006KT 9999NDV NSC 23/14 Q1020=
METAR LFKC 080730Z NIL=
METAR LFKF 080730Z NIL=
METAR LFLC 080730Z NIL=
METAR LFMP 080730Z NIL=
####018000422####
SAFR37 LFPW 080730
METAR LFBU 080730Z AUTO 11005KT 080V150 9999NDV NSC 25/15 Q1018=
METAR LFLN 080730Z AUTO VRB01KT //// NSC 22/15 Q1021=
METAR LFPM 080730Z 00000KT CAVOK 23/14 Q1019=
METAR LFSD 080730Z AUTO 05003KT 330V110 9999NDV NSC 22/13 Q1020=
METAR LFTW 080730Z AUTO VRB02KT 9999NDV NSC 26/14 Q1020=
METAR LFAQ 080730Z NIL=
METAR LFRH 080730Z NIL=
METAR LFRQ 080730Z NIL=
METAR LFRT 080730Z NIL=
####018000612####
SAFR34 LFPW 080730
METAR LFCR 080730Z AUTO 12005KT 090V150 9999NDV NSC 24/12 Q1022=
METAR LFJL 080730Z AUTO VRB01KT 9999NDV NSC 22/11 Q1021=
METAR LFLP 080730Z AUTO VRB02KT 9999NDV FEW068 22/13 Q1022=
METAR LFMU 080730Z AUTO 06007KT 030V090 9999NDV NSC 27/14 Q1019=
METAR LFOH 080730Z AUTO 10005KT 9999NDV NSC 21/09 Q1019=
METAR LFOK 080730Z AUTO 17005KT 140V200 9999NDV NSC 23/14 Q1020=
METAR LFPB 080730Z VRB02KT CAVOK 25/12 Q1019 NOSIG=
METAR LFLS 080730Z NIL=
METAR LFLY 080730Z NIL=
METAR LFMT 080730Z NIL=
METAR LFOB 080730Z NIL=
METAR LFOP 080730Z NIL=
METAR LFSN 080730Z NIL=
####018000109####
SAKO31 RKSI 080730
METAR RKSI 080730Z 26005KT 230V290 9999 FEW040 OVC120 24/19 Q1008
           NOSIG=
####018001213####
SAUK KAWN 080700 RRH
METAR EGAE 080720Z 22012KT 9999 FEW014 SCT023 BKN050 14/10 Q1012=
METAR EGBJ 080720Z 22003KT 9999 FEW020 17/11 Q1018=
METAR EGNC 080720Z 22012KT 190V250 9999 SCT035 15/11 Q1014=
METAR EGNH 080720Z 22011KT 9999 FEW015 SCT042 17/11 Q1016=
METAR EGNJ 080720Z 22009KT 9999 FEW030 16/12 Q1017=
METAR EGPA 080720Z 19014KT 9999 SCT030 15/11 Q1006=
METAR EGPC 080720Z 19013KT 9999 FEW025 14/11 Q1007=
METAR EGPE 080720Z 22018KT 9999 FEW025 SCT048 15/09 Q1007=
METAR EGPL 080720Z 22021KT 9999 VCSH FEW015 SCT020 14/11 Q1006=
METAR COR EGPM 080720Z 21023KT 9999 FEW012 SCT040 14/10 Q1004 NOSIG=
METAR EGPN 080720Z 23015KT 9999 FEW022 SCT048 15/11 Q1011=
METAR EGPO 080720Z 22019KT 9999 6000NE -SHRA FEW018 BKN030 13/10 Q1004
      RESHRA=
METAR EGSC 080720Z 24005KT 210V280 8000 VCSH FEW012 BKN018 17/16 Q1018=
METAR COR EGSH 080720Z 23007KT 9999 SCT010 BKN028 20/16 Q1018 NOSIG=
METAR EICK 080730Z 20008KT 9999 FEW018 SCT050 BKN080 14/13 Q1016 NOSIG=
METAR EIDW 080730Z 23011KT 9999 FEW023 BKN180 15/10 Q1015 NOSIG=
METAR EIKN 080730Z 19007KT 150V220 9999 FEW015 SCT045 12/10 Q1013 NOSIG=
METAR EINN 080730Z 20009KT 9999 FEW015 SCT040 BKN080 14/11 Q1015 NOSIG=
####018000238####
SAZZ40 KAWN 080600 RRV
METAR KWRB 080555Z COR 00000KT 10SM CLR 22/22 A3003 RMK AO2A SLP167
      T02230220 10352 20213 51001 COR 0730=
METAR KWRB 080555Z 00000KT 10SM CLR 22/22 A3003 RMK AO2A SLP167 T02230220
      10352 20213=
####018000238####
SANA14 KAWN 080600 RRH
METAR KWRB 080555Z COR 00000KT 10SM CLR 22/22 A3003 RMK AO2A SLP167
      T02230220 10352 20213 51001 COR 0730=
METAR KWRB 080555Z 00000KT 10SM CLR 22/22 A3003 RMK AO2A SLP167 T02230220
      10352 20213=
