####018000208####
SAUS90 KWBC 081000
METAR KCQT 080947Z AUTO 00000KT 8SM OVC013 18/13 A2990 RMK AO2
     SLP122 T01780133 TSNO $=
METAR KJDN 080948Z AUTO 28004KT 10/07 A3017 RMK AO2 SLP212
     T01000072 PWINO TSNO=
####018002964####
SAUS20 KNKA 080949
METAR K0F2 080944Z AUTO 00000KT 10SM SCT018 BKN050 24/22 A3002 
     RMK AO2 T02350218=
SPECI KAMA 080948Z 03009KT 1SM -RA SCT028 OVC095 17/16 A3019 RMK AO2 
    SFC VIS 9 P0001 $=
SPECI KBMI 080949Z AUTO 00000KT 8SM SCT001 23/22 A3005 RMK AO2 PWINO 
    TSB07E30 P0010 $=
METAR KCPT 080945Z AUTO 12006KT 10SM CLR 24/24 A3001 RMK AO2=
SPECI KCQX 080948Z AUTO 00000KT 2SM BR OVC001 19/18 A3011 RMK AO2=
METAR KCVB 080944Z AUTO 00000KT 10SM BKN015 BKN032 25/23 A2994 
     RMK AO2 T02520233=
METAR KCWC 080945Z AUTO 05003KT 10SM CLR 24/22 A3003 RMK AO2 
     T02360218=
METAR KDUX 080947Z AUTO 32011KT 10SM BKN029 16/15 A3021 RMK AO2 
     P0001 T01630153=
METAR KE38 080945Z AUTO 33004KT 10SM CLR 18/16 A3019 RMK AO2 
     T01750157=
METAR KEBG 080946Z AUTO 00000KT 10SM -RA SCT043 SCT075 BKN090 
     27/25 A2979 RMK AO2 T02650250=
SPECI KEKN 080948Z AUTO 00000KT 1 3/4SM BR BKN075 16/16 A3016 RMK 
    AO2 TSNO=
METAR KFWC 080945Z AUTO 00000KT 7SM CLR 23/22 A3004 RMK AO2=
METAR KFWS 080945Z AUTO 00000KT 10SM CLR 25/24 A3001 RMK AO2 
     T02480235=
METAR KGBG 080945Z AUTO 26003KT 5SM BR OVC002 23/22 A3002 RMK AO2=
METAR KGDJ 080944Z AUTO 11004KT 10SM SCT013 SCT018 BKN029 26/24 
     A3001 RMK AO2 T02560235=
METAR KGNC 080945Z AUTO 04005KT 5SM -RA SCT018 SCT031 BKN042 
     20/19 A3013 RMK AO2 P0052 T01970191=
METAR KGOP 080940Z AUTO 00000KT 10SM SCT013 24/23 A3001 RMK AO2=
METAR KGVT 080945Z AUTO 11003KT 10SM SCT009 BKN015 BKN021 25/23 
     A3002 RMK AO2=
METAR KGWB 080945Z AUTO 00000KT 4SM HZ CLR 22/17 A3006 RMK AO2=
METAR KGYB 080945Z AUTO 06004KT 7SM OVC006 25/24 A2998 RMK AO2 
     T02480241=
METAR KGYI 080944Z AUTO 15004KT 10SM CLR 25/24 A3003 RMK AO2 
     T02520235=
SPECI KHAO 080948Z AUTO 00000KT 1 1/2SM BR CLR 21/19 A3008 RMK AO2=
METAR KHBV 080940Z AUTO 02007KT 7SM OVC003 25/24 A2986 RMK AO2 
     T02510240=
METAR KHHF 080945Z AUTO 01006KT 10SM SCT014 BKN020 OVC033 21/19 
     A3013 RMK AO2 LTG DSNT N T02100191=
METAR KHRX 080945Z AUTO 00000KT 10SM SCT075 BKN110 17/17 A3019 
     RMK AO2 T01720165=
METAR KHSB 080945Z AUTO 00000KT 5SM BR CLR 22/21 A3005 RMK AO2=
METAR KIJX 080945Z AUTO 16003KT 2 1/2SM -RA SCT003 BKN029 OVC070 
     24/23 A3004 RMK AO2 VIS 1 1/2V4 P0006 T02350227=
METAR KINJ 080945Z AUTO 10005KT 10SM SCT039 25/23 A3000 RMK AO2 
     T02450226=
METAR KJAS 080945Z AUTO 08003KT 10SM CLR 25/24 A3001 RMK AO2 
     T02480235=
METAR KJDD 080945Z AUTO 00000KT 4SM  BR FEW002 FEW006 24/24 A3003 
     RMK AO2=
METAR KJOT 080947Z AUTO 00000KT 3SM RA SCT043 SCT050 23/22 A3002 
     RMK AO2=
METAR KJSO 080950Z AUTO 00000KT 5SM BR SCT001 24/24 A3003 RMK AO2 
     T02350235=
METAR KJWY 080945Z AUTO 00000KT 10SM 24/23 A3001 RMK AO2 T02420225=
METAR KJXI 080945Z AUTO 00000KT OVC003 25/25 A3004 RMK AO2=
SPECI KLAR 080948Z AUTO 00000KT 1 3/4SM BR SCT017 07/07 A3039 RMK 
    AO2=
####018001501####
SAUS20 KNKA 080949
METAR KLBR 080945Z AUTO 00000KT 7SM BKN004 OVC010 24/23 A3003 RMK 
     AO2 T02400230=
METAR KLHB 080944Z AUTO 07003KT 7SM SCT032 SCT120 25/23 A2996 RMK 
     AO2 T02510232=
METAR KLNC 080945Z AUTO 00000KT 10SM BKN014 24/24 A3000 RMK AO2 
     T02420241=
METAR KLUD 080945Z AUTO 00000KT 10SM CLR 25/22 A3002 RMK AO2 
     T02460222=
METAR KM30 080946Z AUTO 00000KT 7SM CLR 22/21 A3005 RMK AO2=
METAR KMDD 080940Z AUTO 03005KT 10SM CLR 22/21 A3008 RMK AO2 
     T02200205=
SPECI KMHT 080948Z 17006KT 2SM BR BKN006 OVC080 23/22 A3005 RMK AO2 
    TWR VIS 4=
METAR KMKN 080940Z AUTO 00000KT 10SM 24/23 A3003 RMK AO2=
METAR KMNZ 080950Z AUTO 13004KT 10SM CLR 24/24 A3001 RMK AO2 
     T02420238=
METAR KMQB 080945Z AUTO 24003KT 7SM OVC004 23/23 A3005 RMK AO2 
     T02300228=
SPECI KMVY 080948Z 14005KT 1 1/4SM R24/4500VP6000FT BR OVC001 21/19 
    A3009 RMK AO2=
METAR KOSA 080945Z AUTO 09003KT 7SM CLR 25/24 A3004 RMK AO1 
     T02450240=
METAR KOXC 080945Z 15004KT 3/4SM BR OVC003 22/21 A3009=
METAR KPEZ 080945Z AUTO 04005KT 10SM BKN009 OVC016 25/23 A2992 
     RMK AO2 T02530230=
SPECI KPIA 080948Z 20003KT 2 1/2SM BR FEW005 BKN010 OVC030 23/22 
    A3003 RMK AO2 CIG 008V013=
METAR KRPJ 080945Z AUTO 16004KT 5SM BR SCT011 OVC070 21/20 A3001 
     RMK AO2 T02070197=
METAR KRSV 080942Z AUTO 00000KT 5SM BR CLR 24/23 A3005 RMK AO2 
     T02350225=
SPECI KSLK 080948Z AUTO 00000KT 2 1/2SM BR CLR 17/16 A3009 RMK AO2=
####018000910####
SPUS99 KWBC 080950
SPECI
KMKO 080946Z AUTO 16007KT 10SM VCTS SCT021 BKN028 OVC034 23/23
     A3003 RMK AO2 TSB40=
KAMA 080948Z 03009KT 1SM -RA SCT028 OVC095 17/16 A3019 RMK AO2 SFC
     VIS 9 P0001 $=
KBMI 080949Z AUTO 00000KT 8SM SCT001 23/22 A3005 RMK AO2 PWINO
     TSB07E30 P0010 $=
KCQX 080948Z AUTO 00000KT 2SM BR OVC001 19/18 A3011 RMK AO2=
KEKN 080948Z AUTO 00000KT 1 3/4SM BR BKN075 16/16 A3016 RMK AO2
     TSNO=
KHAO 080948Z AUTO 00000KT 1 1/2SM BR CLR 21/19 A3008 RMK AO2=
KLAR 080948Z AUTO 00000KT 1 3/4SM BR SCT017 07/07 A3039 RMK
     AO2=
KMHT 080948Z 17006KT 2SM BR BKN006 OVC080 23/22 A3005 RMK AO2 TWR
     VIS 4=
KMVY 080948Z 14005KT 1 1/4SM R24/4500VP6000FT BR OVC001 21/19
     A3009 RMK AO2=
KPIA 080948Z 20003KT 2 1/2SM BR FEW005 BKN010 OVC030 23/22 A3003
     RMK AO2 CIG 008V013=
KSLK 080948Z AUTO 00000KT 2 1/2SM BR CLR 17/16 A3009 RMK AO2=
####018003313####
SAUS99 KWBC 080950
METAR
K0F2 080944Z AUTO 00000KT 10SM SCT018 BKN050 24/22 A3002 RMK AO2
     T02350218=
KCPT 080945Z AUTO 12006KT 10SM CLR 24/24 A3001 RMK AO2=
KCVB 080944Z AUTO 00000KT 10SM BKN015 BKN032 25/23 A2994 RMK AO2
     T02520233=
KCWC 080945Z AUTO 05003KT 10SM CLR 24/22 A3003 RMK AO2
     T02360218=
KDUX 080947Z AUTO 32011KT 10SM BKN029 16/15 A3021 RMK AO2 P0001
     T01630153=
KE38 080945Z AUTO 33004KT 10SM CLR 18/16 A3019 RMK AO2
     T01750157=
KEBG 080946Z AUTO 00000KT 10SM -RA SCT043 SCT075 BKN090 27/25
     A2979 RMK AO2 T02650250=
KFWC 080945Z AUTO 00000KT 7SM CLR 23/22 A3004 RMK AO2=
KFWS 080945Z AUTO 00000KT 10SM CLR 25/24 A3001 RMK AO2
     T02480235=
KGBG 080945Z AUTO 26003KT 5SM BR OVC002 23/22 A3002 RMK AO2=
KGDJ 080944Z AUTO 11004KT 10SM SCT013 SCT018 BKN029 26/24 A3001
     RMK AO2 T02560235=
KGNC 080945Z AUTO 04005KT 5SM -RA SCT018 SCT031 BKN042 20/19 A3013
     RMK AO2 P0052 T01970191=
KGOP 080940Z AUTO 00000KT 10SM SCT013 24/23 A3001 RMK AO2=
KGVT 080945Z AUTO 11003KT 10SM SCT009 BKN015 BKN021 25/23 A3002
     RMK AO2=
KGWB 080945Z AUTO 00000KT 4SM HZ CLR 22/17 A3006 RMK AO2=
KGYB 080945Z AUTO 06004KT 7SM OVC006 25/24 A2998 RMK AO2
     T02480241=
KGYI 080944Z AUTO 15004KT 10SM CLR 25/24 A3003 RMK AO2
     T02520235=
KHBV 080940Z AUTO 02007KT 7SM OVC003 25/24 A2986 RMK AO2
     T02510240=
KHHF 080945Z AUTO 01006KT 10SM SCT014 BKN020 OVC033 21/19 A3013
     RMK AO2 LTG DSNT N T02100191=
KHRX 080945Z AUTO 00000KT 10SM SCT075 BKN110 17/17 A3019 RMK AO2
     T01720165=
KHSB 080945Z AUTO 00000KT 5SM BR CLR 22/21 A3005 RMK AO2=
KIJX 080945Z AUTO 16003KT 2 1/2SM -RA SCT003 BKN029 OVC070 24/23
     A3004 RMK AO2 VIS 1 1/2V4 P0006 T02350227=
KINJ 080945Z AUTO 10005KT 10SM SCT039 25/23 A3000 RMK AO2
     T02450226=
KJAS 080945Z AUTO 08003KT 10SM CLR 25/24 A3001 RMK AO2
     T02480235=
KJDD 080945Z AUTO 00000KT 4SM BR FEW002 FEW006 24/24 A3003 RMK
     AO2=
KJOT 080947Z AUTO 00000KT 3SM RA SCT043 SCT050 23/22 A3002 RMK
     AO2=
KJSO 080950Z AUTO 00000KT 5SM BR SCT001 24/24 A3003 RMK AO2
     T02350235=
KJWY 080945Z AUTO 00000KT 10SM 24/23 A3001 RMK AO2 T02420225=
KJXI 080945Z AUTO 00000KT OVC003 25/25 A3004 RMK AO2=
KLBR 080945Z AUTO 00000KT 7SM BKN004 OVC010 24/23 A3003 RMK AO2
     T02400230=
KLHB 080944Z AUTO 07003KT 7SM SCT032 SCT120 25/23 A2996 RMK AO2
     T02510232=
KLNC 080945Z AUTO 00000KT 10SM BKN014 24/24 A3000 RMK AO2
     T02420241=
KLUD 080945Z AUTO 00000KT 10SM CLR 25/22 A3002 RMK AO2
     T02460222=
KM30 080946Z AUTO 00000KT 7SM CLR 22/21 A3005 RMK AO2=
KMDD 080940Z AUTO 03005KT 10SM CLR 22/21 A3008 RMK AO2
     T02200205=
KMKN 080940Z AUTO 00000KT 10SM 24/23 A3003 RMK AO2=
KMNZ 080950Z AUTO 13004KT 10SM CLR 24/24 A3001 RMK AO2
     T02420238=
KMQB 080945Z AUTO 24003KT 7SM OVC004 23/23 A3005 RMK AO2
     T02300228=
KOSA 080945Z AUTO 09003KT 7SM CLR 25/24 A3004 RMK AO1
     T02450240=
KOXC 080945Z 15004KT 3/4SM BR OVC003 22/21 A3009=
KPEZ 080945Z AUTO 04005KT 10SM BKN009 OVC016 25/23 A2992 RMK AO2
     T02530230=
KRPJ 080945Z AUTO 16004KT 5SM BR SCT011 OVC070 21/20 A3001 RMK AO2
     T02070197=
KRSV 080942Z AUTO 00000KT 5SM BR CLR 24/23 A3005 RMK AO2
     T02350225=
####018000108####
SAMX55 MMMY 081000
METAR MMAN 080949Z 28006KT 10SM  SCT040 24/23 A2989 RMK 8/500 RTS=





TX OPMET V1
####018000091####
SAPM31 MPTO 081000
METAR
MPTO 081000Z 00000KT 9999 SCT018  25/24 Q1010 REDZ RWY DAMP=
####018000897####
SAUS70 KWBC 081000 RRA
METAR
KJWY 080945Z AUTO 00000KT 10SM 24/23 A3001 RMK AO2 T02420225=
KJXI 080945Z AUTO 00000KT OVC003 25/25 A3004 RMK AO2=
KLBR 080945Z AUTO 00000KT 7SM BKN004 OVC010 24/23 A3003 RMK AO2
     T02400230=
KLNC 080945Z AUTO 00000KT 10SM BKN014 24/24 A3000 RMK AO2
     T02420241=
KLUD 080945Z AUTO 00000KT 10SM CLR 25/22 A3002 RMK AO2
     T02460222=
KM30 080946Z AUTO 00000KT 7SM CLR 22/21 A3005 RMK AO2=
KMNZ 080950Z AUTO 13004KT 10SM CLR 24/24 A3001 RMK AO2
     T02420238=
KMQB 080945Z AUTO 24003KT 7SM OVC004 23/23 A3005 RMK AO2
     T02300228=
KOSA 080945Z AUTO 09003KT 7SM CLR 25/24 A3004 RMK AO1
     T02450240=
KOXC 080945Z 15004KT 3/4SM BR OVC003 22/21 A3009=
KPEZ 080945Z AUTO 04005KT 10SM BKN009 OVC016 25/23 A2992 RMK AO2
     T02530230=
KRPJ 080945Z AUTO 16004KT 5SM BR SCT011 OVC070 21/20 A3001 RMK AO2
     T02070197=
####018003713####
SAUS70 KWBC 081000
METAR
KFEP 080945Z AUTO 00000KT 7SM BKN003 BKN007 23/21 A3002 RMK AO2
     T02330213=
KFOA 080945Z AUTO 00000KT 4SM BR CLR 25/25 A3004 RMK AO2
     T02450245=
KGPM 080951Z AUTO 13004KT 10SM CLR 26/23 A3000 RMK AO2=
KHQZ 080946Z AUTO 14005KT 10SM BKN009 OVC017 25/23 A3001 RMK
     AO2=
KIKK 080945Z AUTO 06004KT 3SM -TSRA SCT016 SCT060 BKN090 25/23
     A3002 RMK AO2 LTG DSNT SE AND S=
KOXI 080945Z AUTO 00000KT 3SM BKN065 21/20 A3003 RMK AO1
     T02120201=
KPNT 080945Z AUTO 00000KT 4SM BR SCT027 BKN090 120 22/22 A3002 RMK
     AO2 LTG DSNT E=
KPPQ 080945Z AUTO 00000KT 7SM -RA SCT018 BKN044 OVC090 23/22 A3005
     RMK AO2 P0018=
KPRG 080945Z AUTO 00000KT 4SM BR SCT120 21/21 A3005 RMK AO2
     T02160211=
K1H2 080945Z AUTO 00000KT 7SM CLR 24/23 A3004 RMK AO2
     T02400230=
K5C1 080945Z AUTO 00000KT 10SM OVC007 24/22 A2997 RMK AO1=
KAJG 080945Z AUTO 00000KT 7SM CLR 23/22 A3004 RMK AO2
     T02280216=
KAQO 080945Z AUTO 00000KT 25/23 A3001 RMK AO2=
KARM 080945Z AUTO 14005KT 5SM -RA SCT004 BKN035 OVC045 26/25 A2990
     RMK AO2 P0001 T02630246=
KASW 080945Z AUTO 00000KT 5SM BR CLR 21/20 A3005 RMK AO2
     T02110201=
KAXH 080945Z AUTO 08004KT 10SM SCT036 SCT044 SCT050 26/24 A2990
     RMK AO2 LTG DSNT SW T02600240=
KBBD 080945Z AUTO 00000KT 10SM CLR 22/21 A3001 RMK=
KBKS 080946Z AUTO 01004KT 10SM SCT003 SCT100 26/25 A2981 RMK AO1
     T02640250=
KBPC 080948Z AUTO 36004KT 10SM -RA SCT037 SCT055 OVC080 18/17
     A3016 RMK AO2=
KBPG 080945Z AUTO 32003KT 7SM CLR 21/20 A3009 RMK AO1
     T02060195=
KBYY 080946Z AUTO 08006KT 10SM SCT065 OVC075 26/25 A2987 RMK AO2
     T02630250=
KDKR 080945Z AUTO 08004KT 7SM CLR 24/24 A3001 RMK AO2=
KDNV 080945Z AUTO 00000KT 7SM SCT110 22/21 A3001 RMK AO2
     T02240206=
KDZB 080945Z AUTO 00000KT 5SM BR SCT025 SCT038 OVC080 24/24 A2997
     RMK AO2 T02380238=
KECU 080945Z AUTO 06005KT 9SM FEW012 21/21 A3007 RMK AO2=
KERV 080945Z AUTO 00000KT 10SM OVC042 23/21 A2999 RMK AO2
     T02330213=
KCPT 080945Z AUTO 12006KT 10SM CLR 24/24 A3001 RMK AO2=
KCWC 080945Z AUTO 05003KT 10SM CLR 24/22 A3003 RMK AO2
     T02360218=
KDUX 080947Z AUTO 32011KT 10SM BKN029 16/15 A3021 RMK AO2 P0001
     T01630153=
KE38 080945Z AUTO 33004KT 10SM CLR 18/16 A3019 RMK AO2
     T01750157=
KEBG 080946Z AUTO 00000KT 10SM -RA SCT043 SCT075 BKN090 27/25
     A2979 RMK AO2 T02650250=
KFWC 080945Z AUTO 00000KT 7SM CLR 23/22 A3004 RMK AO2=
KFWS 080945Z AUTO 00000KT 10SM CLR 25/24 A3001 RMK AO2
     T02480235=
KGBG 080945Z AUTO 26003KT 5SM BR OVC002 23/22 A3002 RMK AO2=
KGNC 080945Z AUTO 04005KT 5SM -RA SCT018 SCT031 BKN042 20/19 A3013
     RMK AO2 P0052 T01970191=
KGVT 080945Z AUTO 11003KT 10SM SCT009 BKN015 BKN021 25/23 A3002
     RMK AO2=
KGWB 080945Z AUTO 00000KT 4SM HZ CLR 22/17 A3006 RMK AO2=
KGYB 080945Z AUTO 06004KT 7SM OVC006 25/24 A2998 RMK AO2
     T02480241=
KHHF 080945Z AUTO 01006KT 10SM SCT014 BKN020 OVC033 21/19 A3013
     RMK AO2 LTG DSNT N T02100191=
KHRX 080945Z AUTO 00000KT 10SM SCT075 BKN110 17/17 A3019 RMK AO2
     T01720165=
KHSB 080945Z AUTO 00000KT 5SM BR CLR 22/21 A3005 RMK AO2=
KIJX 080945Z AUTO 16003KT 2 1/2SM -RA SCT003 BKN029 OVC070 24/23
     A3004 RMK AO2 VIS 1 1/2V4 P0006 T02350227=
KINJ 080945Z AUTO 10005KT 10SM SCT039 25/23 A3000 RMK AO2
     T02450226=
KJAS 080945Z AUTO 08003KT 10SM CLR 25/24 A3001 RMK AO2
     T02480235=
KJDD 080945Z AUTO 00000KT 4SM BR FEW002 FEW006 24/24 A3003 RMK
     AO2=
KJOT 080947Z AUTO 00000KT 3SM RA SCT043 SCT050 23/22 A3002 RMK
     AO2=
KJSO 080950Z AUTO 00000KT 5SM BR SCT001 24/24 A3003 RMK AO2
     T02350235=
####018001049####
SPUS70 KWBC 080950
SPECI
PASC 080946Z 25011KT 10SM OVC028 11/07 A3001 RMK AO2=
KGFL 080947Z AUTO 00000KT 2SM BR FEW025 21/21 A3002 RMK AO2 VIS 1
     1/4V3=
KHWV 080947Z AUTO 15004KT 4SM BR BKN004 BKN007 BKN055 24/23 A3005
     RMK AO2=
KAUS 080947Z 06005KT 9SM FEW001 BKN010 OVC031 26/24 A2995 RMK AO2
     RAB21E42 P0013=
KMKO 080946Z AUTO 16007KT 10SM VCTS SCT021 BKN028 OVC034 23/23
     A3003 RMK AO2 TSB40=
KAMA 080948Z 03009KT 1SM -RA SCT028 OVC095 17/16 A3019 RMK AO2 SFC
     VIS 9 P0001 $=
KBMI 080949Z AUTO 00000KT 8SM SCT001 23/22 A3005 RMK AO2 PWINO
     TSB07E30 P0010 $=
KCQX 080948Z AUTO 00000KT 2SM BR OVC001 19/18 A3011 RMK AO2=
KHAO 080948Z AUTO 00000KT 1 1/2SM BR CLR 21/19 A3008 RMK AO2=
KLAR 080948Z AUTO 00000KT 1 3/4SM BR SCT017 07/07 A3039 RMK
     AO2=
KMHT 080948Z 17006KT 2SM BR BKN006 OVC080 23/22 A3005 RMK AO2 TWR
     VIS 4=
KMVY 080948Z 14005KT 1 1/4SM R24/4500VP6000FT BR OVC001 21/19
     A3009 RMK AO2=
KSLK 080948Z AUTO 00000KT 2 1/2SM BR CLR 17/16 A3009 RMK AO2=
####018000141####
SAUS80 KWBC 080950
METAR
KCIR 080942Z AUTO 00000KT 10SM CLR 24/22 A3005 RMK AO2=
KMKN 080940Z AUTO 00000KT 10SM 24/23 A3003 RMK AO2=
####018000352####
SAUS80 KWBC 081000
METAR
KCQT 080947Z AUTO 00000KT 8SM OVC013 18/13 A2990 RMK AO2 SLP122
     T01780133 TSNO $=
KSFY 080945Z AUTO 00000KT 2 1/2SM BR OVC009 23/22 A3001 RMK
     AO2=
KCUL 080945Z AUTO 00000KT 7SM CLR 23/21 A3004 RMK AO2
     T02250205=
KJDN 080948Z AUTO 28004KT 10/07 A3017 RMK AO2 SLP212 T01000072
     PWINO TSNO=
####018000107####
SAXX60 KWBC 080950
METAR
KAPY 080943Z AUTO 34003KT 10SM OVC019 26/25 A2984 RMK AO2
     T02550245=
####018002257####
SAUS70 KWBC 080950
METAR
KOSC 080934Z AUTO 00000KT 10SM CLR 20/18 A2999 RMK AO2=
KF05 080944Z AUTO 04003KT 10SM SCT013 OVC034 24/22 A3005 RMK AO2
     T02400224=
KLOT 080941Z AUTO 00000KT 4SM BR SCT046 SCT050 BKN060 22/22 A3002
     RMK AO2 LTG DSNT SE=
KOLY 080943Z AUTO 00000KT 5SM BR CLR 23/22 A3004 RMK AO2=
KOZA 080941Z AUTO 00000KT 10SM SCT042 22/21 A3005 RMK AO2
     T02210213=
KPVW 080941Z AUTO 35007KT 10SM SCT041 18/16 A3015 RMK AO2=
K11R 080944Z AUTO 06004KT 7SM CLR 25/23 A2995 RMK AO2=
K3LF 080943Z AUTO 00000KT 7SM SCT055 SCT070 SCT100 23/22 A3003 RMK
     AO2=
K3T5 080944Z AUTO 00000KT 7SM SCT008 SCT016 SCT060 25/24 A2991 RMK
     AO2 T02510236=
K6R3 080941Z AUTO 06003KT 7SM SCT010 SCT021 OVC095 24/24 A2995 RMK
     AO2 T02440244=
KAAA 080943Z AUTO 00000KT 1 3/4SM BR SCT039 SCT080 BKN095 22/22
     A3003 RMK AO2 T02230216=
KADS 080943Z AUTO 12004KT 10SM OVC012 25/23 A3001 RMK AO2
     T02490225=
KALN 080943Z AUTO 00000KT 7SM CLR 25/24 A3002 RMK AO2 P0001
     T02460240=
KBEA 080943Z AUTO 04005KT 10SM SCT017 BKN024 BKN030 25/25 A2987
     RMK AO2 LTG DSNT S P0001 T02470247=
KBKD 080941Z AUTO 00000KT 7SM CLR 23/23 A3002 RMK AO2
     T02340226=
KC09 080944Z AUTO 00000KT 2 1/2SM BR OVC055 21/21 A3001 RMK
     AO2=
KC75 080943Z AUTO 16003KT 5SM BR SCT014 SCT019 OVC042 24/24 A3001
     RMK AO2=
KDKB 080941Z AUTO 15006KT 4SM BR BKN013 OVC070 22/21 A3002 RMK AO2
     T02150210=
KENL 080944Z AUTO 19003KT 10SM CLR 24/16 A3004 RMK AO2
     T02400161=
K0F2 080944Z AUTO 00000KT 10SM SCT018 BKN050 24/22 A3002 RMK AO2
     T02350218=
KCVB 080944Z AUTO 00000KT 10SM BKN015 BKN032 25/23 A2994 RMK AO2
     T02520233=
KGDJ 080944Z AUTO 11004KT 10SM SCT013 SCT018 BKN029 26/24 A3001
     RMK AO2 T02560235=
KGOP 080940Z AUTO 00000KT 10SM SCT013 24/23 A3001 RMK AO2=
KGYI 080944Z AUTO 15004KT 10SM CLR 25/24 A3003 RMK AO2
     T02520235=
KHBV 080940Z AUTO 02007KT 7SM OVC003 25/24 A2986 RMK AO2
     T02510240=
KLHB 080944Z AUTO 07003KT 7SM SCT032 SCT120 25/23 A2996 RMK AO2
     T02510232=
KMDD 080940Z AUTO 03005KT 10SM CLR 22/21 A3008 RMK AO2
     T02200205=
KRSV 080942Z AUTO 00000KT 5SM BR CLR 24/23 A3005 RMK AO2
     T02350225=
####018000203####
SPUS80 KWBC 080950
SPECI
KEKN 080948Z AUTO 00000KT 1 3/4SM BR BKN075 16/16 A3016 RMK AO2
     TSNO=
KPIA 080948Z 20003KT 2 1/2SM BR FEW005 BKN010 OVC030 23/22 A3003
     RMK AO2 CIG 008V013=
####018000077####
SPAK31 KWBC 080950
SPECI
PASC 080946Z 25011KT 10SM OVC028 11/07 A3001=
####018000028####
SAAW34 KWBC 080945
NIL=
####018000028####
SADL33 KWBC 080945
NIL=
####018000235####
SAMX31 KWBC 080945 RRB
METAR
MMAA NIL=
MMCZ NIL=
MMGL NIL=
MMMD NIL=
MMMX NIL=
MMMY 080941Z 30006KT 15SM SCT045 23/22 A2986 RMK 8/500=
MMMZ NIL=
MMPR NIL=
MMTM NIL=
MMTP NIL=
MMUN NIL=
MMVR NIL=
MNMG NIL=
####018000032####
SAMX41 KWBC 080945 RRA
NIL=
####018000028####
SAMX42 KWBC 080945
NIL=
####018000090####
SPUS42 KWBC 080950
SPECI
KAUS 080947Z 06005KT 9SM FEW001 BKN010 OVC031 26/24 A2995=
####018000077####
SAEO32 EETN 080950
METAR EEKE 080950Z 35008KT 310V010 CAVOK 21/15 Q1016=
####018000084####
SPUS51 KWBC 080950
SPECI
KGFL 080947Z AUTO 00000KT 2SM BR FEW025 21/21 A3002=
####018000090####
SPUS52 KWBC 080950
SPECI
KAUS 080947Z 06005KT 9SM FEW001 BKN010 OVC031 26/24 A2995=
####018000086####
SAAI41 FHAW 080950
METAR FHAW 080950Z 13014KT 9999 FEW028 BKN035 27/19 Q1017 BLU=
####018000079####
SAMC32 GMMC 080900 RRC
METAR GMFM 080900Z 30004KT 3000 BR SKC 25/19 Q1018=
####018000107####
SAXX98 KWBC 080950
METAR MYEG 080959Z AUTO 15006KT 10SM SCT019 SCT025 27/24 A2992 RMK AO2 LTG DSNT W
####018000119####
SAUS45 KFGZ 080950
MTRIGM
METAR KIGM 080948Z AUTO 12003KT 10SM CLR 20/M03 A2995 RMK AO2 SLP065 
T02001033 TSNO
####018002838####
SAUS20 KNKA 080950
METAR KCCA 080955Z AUTO 00000KT 5SM  BR SCT003 OVC009 22/22 A3006 
     RMK AO2 =
METAR KCDN 080955Z AUTO 00000KT 10SM CLR 23/19 A2998 RMK A02 P000 
     =
METAR KCKI 080955Z AUTO 00000KT 10SM SCT100 21/21 A2994 RMK AO2=
SPECI KCRS 080948Z AUTO 00000KT 10SM -RA SCT012 BKN018 25/24 A2999 
    RMK AO2 RAB38 P0000=
METAR KIGQ 080940Z AUTO 00000KT 7SM SCT075 BKN090 23/22 A3002 RMK 
     AO2 LTG DSNT S=
METAR KLRO 080955Z AUTO 26005KT 10SM CLR 23/19 A2995 RMK AO2 =
METAR KMKS 080955Z AUTO 00000KT 7SM CLR 22/20 A2995 RMK AO2 TSNO=
METAR KMWA 080945Z AUTO 00000KT 10SM SCT110 24/24 A3005 RMK AO2 
     T02440235=
METAR KPKV 080946Z AUTO 00000KT 7SM DZ SCT023 BKN050 OVC060 24/23 
     A2985 RMK AO2 P0008 T02430226=
METAR KPPA 080945Z AUTO 36006KT 10SM DZ SCT004 SCT035 BKN110 
     17/17 A3018 RMK AO2=
METAR KPSN 080945Z AUTO 07003KT 7SM 24/24 A3001 RMK AO2 T02410235=
METAR KPYX 080950Z AUTO 02005KT 10SM SCT006 SCT018 OVC110 19/18 
     A3019 RMK AO2 P0004 T01880177=
METAR KRAS 080945Z AUTO 11007KT 6SM  HZ FEW075 28/26 A2984 RMK AO2=
METAR KRBO 080945Z AUTO 01009KT 7SM -RA SCT009 BKN038 OVC090 
     26/25 A2984 RMK AO2 P0005 T02600251=
METAR KRFI 080945Z AUTO 00000KT 7SM CLR 24/23 A3001 RMK AO2 
     T02400230=
METAR KRPH 080945Z AUTO 00000KT 10SM CLR 23/21 A3001 RMK AO2 
     T02250210=
METAR KRWV 080940Z AUTO 00000KT 7SM SCT023 SCT030 24/24 A2998 RMK 
     AO2=
METAR KRYW 080945Z AUTO 07003KT 7SM SCT020 SCT027 OVC040 24/23 
     A2999 RMK AO2=
METAR KSAR 080945Z AUTO 18004KT 10SM OVC065 26/23 A3004 RMK AO2=
METAR KSEP 080945Z AUTO 00000KT 10SM SCT013 SCT060 23/21 A3002 
     RMK AO1=
METAR KSLO 080940Z AUTO 19004KT 10SM CLR 24/22 A3004 RMK AO2 
     T02380215=
METAR KSLR 080942Z AUTO 12004KT 10SM BKN027 25/23 A3004 RMK AO2 
     T02500232=
METAR KSNK 080946Z AUTO 04003KT 7SM CLR 21/20 A3009 RMK AO2 
     T02080198=
METAR KSOA 080940Z AUTO 05003KT 10SM 23/22 A3006 RMK AO2=
METAR KSWW 080945Z AUTO 34004KT 7SM CLR 21/21 A3009 RMK AO1 
     T02110205=
METAR KT65 080947Z AUTO 05005KT 7SM RA BKN004 OVC050 26/25 A2979 
     RMK AO2 P0001 T02580251=
METAR KT82 080945Z AUTO 10005KT 23/22 A3002 RMK AO1 T02280218=
METAR KTAZ 080945Z AUTO 00000KT 3SM BR CLR 23/23 A3002 RMK AO2=
METAR KTFP 080945Z AUTO 09003KT 10SM BKN070 BKN080 27/25 A2982 
     RMK AO2 LTG DSNT W T02700253=
METAR KTIP 080945Z AUTO 00000KT 5SM BR CLR 24/23 A3004 RMK AO2 
     T02400229=
METAR KTYQ 080945Z AUTO 00000KT 7SM BKN080 OVC110 23/21 A3007 RMK 
     AO2=
METAR KUVA 080945Z AUTO 06005KT 10SM SCT018 OVC026 24/23 A2995 
     RMK AO2 T02410228=
METAR KVYS 080945Z AUTO 13004KT 4SM BR OVC014 23/22 A3001 RMK AO2 
     T02300216=
METAR KXBP 080945Z AUTO 00000KT 10SM CLR 24/22 A3002 RMK AO2 
     T02380222=
####018000090####
SPUS72 KWBC 080950
SPECI
KAUS 080947Z 06005KT 9SM FEW001 BKN010 OVC031 26/24 A2995=
####018000080####
SPCN31 CWAO 080949
SPECI CYQB 080949Z 07008KT 3SM BR OVC004 18/ RMK ST8=

####018000077####
SPUS75 KWBC 080950
SPECI
PASC 080946Z 25011KT 10SM OVC028 11/07 A3001=
####018000073####
SAUS81 KWBC 080948
&EHA SA 0948  AMOS 64/62/3605/M PK WND 06 014

####018000081####
SAUS17 KAWN 081000
METAR KEFD 080950Z 11008KT 9SM FEW025 BKN130 28/24 A2993=
####018000134####
SARS18 KAWN 080900 RRK
METAR UELL 080930Z VRB01MPS 9999 VCTS -SHRA BKN021CB OVC200 12/12 Q1012
      NOSIG RMK QFE684 08CLRD70=
####018001601####
SPZZ40 KAWN 080950 RRL
SPECI BGTL 080945Z AUTO 00000KT 1600 BR VV001 04/04 A2984 RMK AO2 SLP109=
SPECI BGTL 080947Z AUTO 00000KT 2000 BR OVC001 04/04 A2984 RMK AO2
      SLP109=
SPECI CYKF 080948Z AUTO 00000KT 5/8SM BR CLR 19/19 A3006 RMK SLP175
      DENSITY ALT 1600FT VIS VRB 1/8-3=
SPECI CYPQ 080945Z AUTO ///// 1SM CLR 20/20 A3003 RMK VSBY VRBL 0.3V4.0=
SPECI CYQX 080945Z 16008KT 15SM BKN003 OVC029 11/ RMK SF7SC1=
SPECI CYTZ 080948Z AUTO 20003KT 1SM BR SCT003 19/18 A3001 RMK SLP164
      DENSITY ALT 600FT RVR MISG=
SPECI CYYY 080944Z 05002KT 3/4SM R06/4000V5500FT/N BR VV003 RMK FG8=
SPECI CYZE 080949Z AUTO 19003KT 1 1/2SM BR OVC002 20/20 A2998 RMK SLP152
      DENSITY ALT 1300FT=
SPECI EGUL 080947Z AUTO 24007KT 9999 BKN027 OVC170 19/13 A3007 RMK
      AO2 CIG 027V030 SLP184=
SPECI KEGI 080947Z AUTO 00000KT 2 1/2SM R18/1600V5000FT BR CLR 21/21
      A3002 RMK AO2 VIS 3/4V5 SLP166 $=
SPECI KEGI 080948Z AUTO 00000KT 1 3/4SM R18/1000V5000FT BR CLR 21/21
      A3002 RMK AO2 VIS 1/2V5 SLP166 $=
SPECI KNSE 080941Z AUTO 00000KT 2SM BR CLR 23/21 A3002 RMK AO2 VIS
      1V4 $=
SPECI KRND 080946Z AUTO 04007KT 10SM FEW008 SCT014 OVC021 25/24 A2994
      RMK AO2 FEW V SCT SLP126=
SPECI KSKF 080948Z 05006KT 10SM OVC013 25/ A2992 RMK AO2A RAB0909E0945DZB0910E0912B0929E0935
      CIG 011V017 SLP122 $=
SPECI PASC 080946Z 25011KT 10SM OVC028 11/07 A3001 RMK AO2=
SPECI RKSG 080944Z AUTO 30005KT 9999 -DZ CLR 26/25 A2979 RMK AO2 DZB0944
      SLP089 $=
SPECI SLTR 080938Z 09005KT 8000 TS VCSH SCT013 FEW017CB OVC070 22/21
      Q1013=
####018000208####
SPNA35 KAWN 080950 RRG
SPECI KDOV 080944Z AUTO 09004KT 2SM BR SCT007 24/ A2999 RMK AO2 SCT
      V BKN SLP159 $=
SPECI KNHK 080944Z AUTO 09005KT 4SM BR BKN009 26/24 A2999 RMK AO2 CIG
      007V013=
####018000084####
SPCN31 CWAO 080949
SPECI CYYT 080949Z 17006KT 1 1/2SM BR OVC003 08/ RMK SF8=

####018000118####
SAAK41 KNKA 080950
SPECI PAWD 080948Z AUTO 00000KT 3/4SM BR SCT003 BKN055 OVC070 10/09 
    A2996 RMK AO2 TSNO=
####018000081####
SRPR30 KWAL 080950
CE2D864E 189095036bB1r@IJ@IJ@IK@IK@IL@IL@IM@IMI 43+0NN 161E####018000719####
SAUS20 KNKA 080950
SPECI KBGD 080949Z AUTO 35005KT 10SM BKN020 BKN080 OVC110 19/18 
    A3019 RMK AO2 RAB0853E42 P0001=
SPECI KCNM 080949Z AUTO 35004KT 5SM VCTS RA BR BKN007 OVC010 20/19 
    A3013 RMK AO2 LTG DSNT NE AND S TSB37 P0019=
METAR KCQX 080949Z AUTO 00000KT 2 1/2SM BR OVC001 19/18 A3011 RMK 
    AO2 SLP196 T01890183=
METAR KEFD 080950Z 11008KT 9SM FEW025 BKN130 28/24 A2993=
SPECI KELZ 080949Z AUTO 00000KT 1/2SM FG VV001 18/18 A3016 RMK AO2=
SPECI KFVE 080949Z AUTO 19004KT 1 1/4SM BR BKN002 BKN060 22/22 A3001 
    RMK AO2=
SPECI KGOK 080950Z AUTO 02003KT 10SM SCT025 BKN049 BKN075 23/21 
    A3004 RMK AO2=
SPECI KPHD 080949Z AUTO 00000KT 1 1/2SM BR CLR 19/17 A3010 RMK AO2=
####018002662####
SAUS99 KWBC 080951
METAR
KCCA 080955Z AUTO 00000KT 5SM BR SCT003 OVC009 22/22 A3006 RMK
     AO2=
KCDN 080955Z AUTO 00000KT 10SM CLR 23/19 A2998 RMK A02 P000=
KCKI 080955Z AUTO 00000KT 10SM SCT100 21/21 A2994 RMK AO2=
KIGQ 080940Z AUTO 00000KT 7SM SCT075 BKN090 23/22 A3002 RMK AO2
     LTG DSNT S=
KLRO 080955Z AUTO 26005KT 10SM CLR 23/19 A2995 RMK AO2=
KMKS 080955Z AUTO 00000KT 7SM CLR 22/20 A2995 RMK AO2 TSNO=
KMWA 080945Z AUTO 00000KT 10SM SCT110 24/24 A3005 RMK AO2
     T02440235=
KPKV 080946Z AUTO 00000KT 7SM DZ SCT023 BKN050 OVC060 24/23 A2985
     RMK AO2 P0008 T02430226=
KPPA 080945Z AUTO 36006KT 10SM DZ SCT004 SCT035 BKN110 17/17 A3018
     RMK AO2=
KPSN 080945Z AUTO 07003KT 7SM 24/24 A3001 RMK AO2 T02410235=
KPYX 080950Z AUTO 02005KT 10SM SCT006 SCT018 OVC110 19/18 A3019
     RMK AO2 P0004 T01880177=
KRAS 080945Z AUTO 11007KT 6SM HZ FEW075 28/26 A2984 RMK AO2=
KRBO 080945Z AUTO 01009KT 7SM -RA SCT009 BKN038 OVC090 26/25 A2984
     RMK AO2 P0005 T02600251=
KRFI 080945Z AUTO 00000KT 7SM CLR 24/23 A3001 RMK AO2
     T02400230=
KRPH 080945Z AUTO 00000KT 10SM CLR 23/21 A3001 RMK AO2
     T02250210=
KRWV 080940Z AUTO 00000KT 7SM SCT023 SCT030 24/24 A2998 RMK
     AO2=
KRYW 080945Z AUTO 07003KT 7SM SCT020 SCT027 OVC040 24/23 A2999 RMK
     AO2=
KSAR 080945Z AUTO 18004KT 10SM OVC065 26/23 A3004 RMK AO2=
KSEP 080945Z AUTO 00000KT 10SM SCT013 SCT060 23/21 A3002 RMK
     AO1=
KSLO 080940Z AUTO 19004KT 10SM CLR 24/22 A3004 RMK AO2
     T02380215=
KSLR 080942Z AUTO 12004KT 10SM BKN027 25/23 A3004 RMK AO2
     T02500232=
KSNK 080946Z AUTO 04003KT 7SM CLR 21/20 A3009 RMK AO2
     T02080198=
KSOA 080940Z AUTO 05003KT 10SM 23/22 A3006 RMK AO2=
KSWW 080945Z AUTO 34004KT 7SM CLR 21/21 A3009 RMK AO1
     T02110205=
KT65 080947Z AUTO 05005KT 7SM RA BKN004 OVC050 26/25 A2979 RMK AO2
     P0001 T02580251=
KT82 080945Z AUTO 10005KT 23/22 A3002 RMK AO1 T02280218=
KTAZ 080945Z AUTO 00000KT 3SM BR CLR 23/23 A3002 RMK AO2=
KTFP 080945Z AUTO 09003KT 10SM BKN070 BKN080 27/25 A2982 RMK AO2
     LTG DSNT W T02700253=
KTIP 080945Z AUTO 00000KT 5SM BR CLR 24/23 A3004 RMK AO2
     T02400229=
KTYQ 080945Z AUTO 00000KT 7SM BKN080 OVC110 23/21 A3007 RMK
     AO2=
KUVA 080945Z AUTO 06005KT 10SM SCT018 OVC026 24/23 A2995 RMK AO2
     T02410228=
KVYS 080945Z AUTO 13004KT 4SM BR OVC014 23/22 A3001 RMK AO2
     T02300216=
KXBP 080945Z AUTO 00000KT 10SM CLR 24/22 A3002 RMK AO2
     T02380222=
KCQX 080949Z AUTO 00000KT 2 1/2SM BR OVC001 19/18 A3011 RMK AO2
     SLP196 T01890183=
KEFD 080950Z 11008KT 9SM FEW025 BKN130 28/24 A2993=
####018000716####
SPUS99 KWBC 080951
SPECI
KCRS 080948Z AUTO 00000KT 10SM -RA SCT012 BKN018 25/24 A2999 RMK
     AO2 RAB38 P0000=
PAWD 080948Z AUTO 00000KT 3/4SM BR SCT003 BKN055 OVC070 10/09
     A2996 RMK AO2 TSNO=
KBGD 080949Z AUTO 35005KT 10SM BKN020 BKN080 OVC110 19/18 A3019
     RMK AO2 RAB0853E42 P0001=
KCNM 080949Z AUTO 35004KT 5SM VCTS RA BR BKN007 OVC010 20/19 A3013
     RMK AO2 LTG DSNT NE AND S TSB37 P0019=
KELZ 080949Z AUTO 00000KT 1/2SM FG VV001 18/18 A3016 RMK AO2=
KFVE 080949Z AUTO 19004KT 1 1/4SM BR BKN002 BKN060 22/22 A3001 RMK
     AO2=
KGOK 080950Z AUTO 02003KT 10SM SCT025 BKN049 BKN075 23/21 A3004
     RMK AO2=
KPHD 080949Z AUTO 00000KT 1 1/2SM BR CLR 19/17 A3010 RMK AO2=
####018000078####
SAMC32 GMMC 080900 RRC
METAR GMFM 080900Z 30004KT 3000 BR SKC 25/19 Q1018=
####018000097####
SALV31 EVRA 080950
METAR EVRA 080950Z 31010KT 270V330 9999 SCT010 OVC017 19/16 Q1015 
NOSIG=
####018000159####
SAAU32 YBBN 080930 RRA
METAR YWLM 080930Z 23006KT 9999 SCT020 BKN045 12/11 Q1025
RMK USE TAF FOR ARRIVALS AFTER 1000Z
INTER 0930/1000 4000 SHRA BKN010=
####018000085####
SAAI41 FHAW 080950
METAR FHAW 080950Z 13014KT 9999 FEW028 BKN035 27/19 Q1017 BLU=
####018000074####
SALT34 EYVI 080950
METAR EYSA 080950Z 32013KT 9999 OVC049 17/14 Q1016=
####018000074####
SAEO31 EETN 080950
METAR EETN 080950Z 31009KT CAVOK 23/18 Q1014 NOSIG=
####018000101####
SAAZ61 LPLA 081000
METAR LPLA 081000Z 22004KT 9999 VCSH FEW008 SCT016 BKN028 20/18
      Q1024=
####018000175####
SAFA31 EKCH 080950
METAR EKVG 080950Z 15012KT 9999 -SHRA SCT004 BKN006 BKN010 10/10
Q0992 RMK/RWY 13/31 CLOSED DUE WIP. SEE NOTAM E0050/10 WIND
850FT 15016G30KT 090V220=
####018000101####
SALT31 EYVI 080950
METAR EYVI 080950Z 28009KT 230V310 7000 BKN010 OVC023 16/15 Q1014
     NOSIG=
####018000084####
SAGR32 LGAT 080920 RRB
METAR LGRX 080920Z 27010KT 9999 FEW025 28/19 Q1013 NOSIG=
####018000083####
SPCN31 KWBC 080951
SPECI
CYYT 080949Z 17006KT 1 1/2SM BR OVC003 08/ RMK SF8=
####018000079####
SPCN31 KWBC 080951
SPECI
CYQB 080949Z 07008KT 3SM BR OVC004 18/ RMK ST8=
####018000099####
SPNT31 KWBC 080951
SPECI
BGTL 080945Z AUTO 00000KT 1600 BR VV001 04/04 A2984 RMK AO2 SLP109=
####018000102####
SPNT31 KWBC 080951
SPECI
BGTL 080947Z AUTO 00000KT 2000 BR OVC001 04/04 A2984 RMK AO2
SLP109=
####018000118####
SPXX61 KWBC 080951
SPECI
EGUL 080947Z AUTO 24007KT 9999 BKN027 OVC170 19/13 A3007 RMK AO2
CIG 027V030 SLP184=
####018000110####
SPXX62 KWBC 080951
SPECI
RKSG 080944Z AUTO 30005KT 9999 -DZ CLR 26/25 A2979 RMK AO2 DZB0944
SLP089 $=
####018000087####
SPUS42 KWBC 080951
SPECI
KAMA 080948Z 03009KT 1SM -RA SCT028 OVC095 17/16 A3019=
####018000097####
SPUS43 KWBC 080951
SPECI
KPIA 080948Z 20003KT 2 1/2SM BR FEW005 BKN010 OVC030 23/22 A3003=
####018001328####
SAUS43 KWBC 080900 RRJ
METAR
K1H2 080945Z AUTO 00000KT 7SM CLR 24/23 A3004=
KAAA 080943Z AUTO 00000KT 1 3/4SM BR SCT039 SCT080 BKN095 22/22
     A3003=
KC09 080944Z AUTO 00000KT 2 1/2SM BR OVC055 21/21 A3001=
KC75 080943Z AUTO 16003KT 5SM BR SCT014 SCT019 OVC042 24/24
     A3001=
KDKB 080941Z AUTO 15006KT 4SM BR BKN013 OVC070 22/21 A3002=
KDNV 080945Z AUTO 00000KT 7SM SCT110 22/21 A3001=
KENL 080944Z AUTO 19003KT 10SM CLR 24/16 A3004=
KFEP 080945Z AUTO 00000KT 7SM BKN003 BKN007 23/21 A3002=
KFOA 080945Z AUTO 00000KT 4SM BR CLR 25/25 A3004=
KFWC 080945Z AUTO 00000KT 7SM CLR 23/22 A3004=
KGBG 080945Z AUTO 26003KT 5SM BR OVC002 23/22 A3002=
KHSB 080945Z AUTO 00000KT 5SM BR CLR 22/21 A3005=
KIJX 080945Z AUTO 16003KT 2 1/2SM -RA SCT003 BKN029 OVC070 24/23
     A3004=
KIKK 080945Z AUTO 06004KT 3SM -TSRA SCT016 SCT060 BKN090 25/23
     A3002=
KJOT 080947Z AUTO 00000KT 3SM RA SCT043 SCT050 23/22 A3002=
KLOT 080941Z AUTO 00000KT 4SM BR SCT046 SCT050 BKN060 22/22
     A3002=
KMQB 080945Z AUTO 24003KT 7SM OVC004 23/23 A3005=
KOLY 080943Z AUTO 00000KT 5SM BR CLR 23/22 A3004=
KPNT 080945Z AUTO 00000KT 4SM BR SCT027 BKN090 120 22/22 A3002=
KPPQ 080945Z AUTO 00000KT 7SM -RA SCT018 BKN044 OVC090 23/22
     A3005=
KPRG 080945Z AUTO 00000KT 4SM BR SCT120 21/21 A3005=
####018000088####
SPUS51 KWBC 080951
SPECI
KEKN 080948Z AUTO 00000KT 1 3/4SM BR BKN075 16/16 A3016=
####018000191####
SAUS44 KWBC 080900 RRG
METAR
K11R 080944Z AUTO 06004KT 7SM CLR 25/23 A2995=
KBPG 080945Z AUTO 32003KT 7SM CLR 21/20 A3009=
KBYY 080946Z AUTO 08006KT 10SM SCT065 OVC075 26/25 A2987=
####018000086####
SAUS53 KWBC 080900 RRL
METAR
KLNC 080945Z AUTO 00000KT 10SM BKN014 24/24 A3000=
####018000404####
SAIR31 OIII 080900
METAR OIAW 080900Z 24008KT CAVOK 45/09 Q0998 A2949=
METAR OIFM 080900Z 12006KT CAVOK 38/05 Q1017 A3004=
METAR OIII 080900Z NIL=
METAR OIKB 080900Z 20012KT 5000 HZ NSC 38/25 Q1001 A2956=
METAR OIMM 080900Z 06012KT CAVOK 38/M02 Q1015 A2997=
METAR OISS 080900Z 36012KT CAVOK 38/08 Q1014 A2995=
METAR OITT 080900Z 09014KT CAVOK 35/04 Q1015 A2998=
METAR OIZH 080900Z NIL=
####018000125####
SAUS54 KWBC 080900 RRI
METAR
KIGM 080948Z AUTO 12003KT 10SM CLR 20/M03 A2995=
KJDN 080948Z AUTO 28004KT 10/07 A3017=
####018000103####
SALT31 EYVI 080950
METAR EYVI 080950Z 28009KT 230V310 7000 BKN010 OVC023 16/15 Q1014
     NOSIG=
####018000099####
SALV31 EVRA 080950
METAR EVRA 080950Z 31010KT 270V330 9999 SCT010 OVC017 19/16 Q1015 
NOSIG=
####018000077####
SAEO32 EETN 080950
METAR EEPU 080950Z 36004KT 320V040 CAVOK 23/19 Q1014=
####018000085####
SAGR32 LGAT 080920 RRB
METAR LGRX 080920Z 27010KT 9999 FEW025 28/19 Q1013 NOSIG=
####018000120####
SAMP31 LMMM 081000
METAR HLLT NIL=
METAR HLLB NIL=
METAR LMML 080945Z 04006KT 330V090 CAVOK 29/21 Q1018 NOSIG =
####018000321####
SAIS31 LLBG 080950
METAR LLBG 080950Z 28008KT CAVOK 30/18 Q1009 NOSIG=
METAR LLOV 080950Z 36005KT CAVOK 33/09 Q1010=
METAR LLET 080950Z 03015KT CAVOK 38/13 Q1006=
METAR LLHA 080950Z 25010KT 9999 FEW030 30/17 Q1009=
METAR LLIB 080950Z 14008KT CAVOK 31/16 Q1009=
METAR LLSD 080950Z 26010KT CAVOK 28/21 Q1009=
####018000085####
SAEO32 EETN 080950
METAR EETU 080950Z VRB02KT 9999 SCT023TCU SCT030 25/20 Q1013=
####018000178####
SAFA31 EKCH 080950
METAR EKVG 080950Z 15012KT 9999 -SHRA SCT004 BKN006 BKN010 10/10
Q0992 RMK/RWY 13/31 CLOSED DUE WIP. SEE NOTAM E0050/10 WIND
850FT 15016G30KT 090V220=
####018000075####
SALT34 EYVI 080950
METAR EYSA 080950Z 32013KT 9999 OVC049 17/14 Q1016=
####018000078####
SAID32 WIII 080930
METAR WIPP 080930Z 00000KT 8000 HZ FEW015 27/23 Q1009=
####018000075####
SAEO31 EETN 080950
METAR EETN 080950Z 31009KT CAVOK 23/18 Q1014 NOSIG=
####018000160####
SAAU32 YBBN 080930 RRA
METAR YWLM 080930Z 23006KT 9999 SCT020 BKN045 12/11 Q1025
RMK USE TAF FOR ARRIVALS AFTER 1000Z
INTER 0930/1000 4000 SHRA BKN010=
####018000087####
SPUS72 KWBC 080951
SPECI
KAMA 080948Z 03009KT 1SM -RA SCT028 OVC095 17/16 A3019=
####018000088####
SPUS73 KWBC 080951
SPECI
KLAR 080948Z AUTO 00000KT 1 3/4SM BR SCT017 07/07 A3039=
####018000097####
SPUS73 KWBC 080951
SPECI
KPIA 080948Z 20003KT 2 1/2SM BR FEW005 BKN010 OVC030 23/22 A3003=
####018000218####
SAUS73 KWBC 080900 RRK
METAR
KALN 080943Z AUTO 00000KT 7SM CLR 25/24 A3002=
KGYY 080945Z 00000KT 4SM BR SCT037 OVC120 24/22 A3002=
KIKK 080945Z AUTO 06004KT 3SM -TSRA SCT016 SCT060 BKN090 25/23
     A3002=
####018000088####
SPUS81 KWBC 080951
SPECI
KEKN 080948Z AUTO 00000KT 1 3/4SM BR BKN075 16/16 A3016=
####018000097####
SPUS81 KWBC 080951
SPECI
KPIA 080948Z 20003KT 2 1/2SM BR FEW005 BKN010 OVC030 23/22 A3003=
####018000189####
SAEU KAWN 080900 RRX
METAR LGRX 080920Z 27010KT 9999 FEW025 28/19 Q1013 NOSIG=
METAR LIQC 080855Z 04003KT CAVOK 28/15 Q1020 RMK SKC QUK 2 QUL 1 NW
      VIS MAR 20 KM VIS MIN 9999=
####018001023####
SPNA14 KAWN 080951 RRH
SPECI KEGI 080947Z AUTO 00000KT 2 1/2SM R18/1600V5000FT BR CLR 21/21
      A3002 RMK AO2 VIS 3/4V5 SLP166 $=
SPECI KEGI 080948Z AUTO 00000KT 1 3/4SM R18/1000V5000FT BR CLR 21/21
      A3002 RMK AO2 VIS 1/2V5 SLP166 $=
SPECI KEGI 080949Z AUTO 00000KT 1 1/4SM R18/1000V5000FT BR CLR 21/21
      A3002 RMK AO2 VIS 1/2V5 SLP166 $=
SPECI KNHK 080944Z AUTO 09005KT 4SM BR BKN009 26/24 A2999 RMK AO2 CIG
      007V013=
SPECI KNSE 080941Z AUTO 00000KT 2SM BR CLR 23/21 A3002 RMK AO2 VIS
      1V4 $=
SPECI KRND 080946Z AUTO 04007KT 10SM FEW008 SCT014 OVC021 25/24 A2994
      RMK AO2 FEW V SCT SLP126=
SPECI KSKF 080945Z 06007KT 10SM OVC012 25/ A2992 RMK AO2A RAB0909E0945DZB0910E0912B0929E0935
      CIG 011V017 SLP122 $=
SPECI KSKF 080948Z 05006KT 10SM OVC013 25/ A2992 RMK AO2A RAB0909E0945DZB0910E0912B0929E0935
      CIG 011V017 SLP122 $=
SPECI KWRI 080950Z AUTO 11004KT M1/4SM R18/0200V3000FT R24/0300V0700FT
      FG VV001 23/23 A3000 RMK AO2 BKN V SCT SLP160 $=
####018000218####
SAZZ40 KAWN 081000
METAR LPLA 081000Z 22004KT 9999 VCSH FEW008 SCT016 BKN028 20/18 Q1024=
METAR MPTO 081000Z 00000KT 9999 SCT018 25/24 Q1010 REDZ RWY DAMP=
METAR OAUZ 080950Z 32004KT 9999 SKC 41/03 Q1007 BLU/=
####018000072####
SAAK17 KAWN 081000
PATC SA 0955 AWOS CLR BLO 120 10 46/44/0209/016=
####018000540####
SAXX70 KAWN 081000 RRA
METAR KQEI 080950Z AUTO 14002KT 7SM CLR 24/19 A2992 RMK A02=
METAR KQEN 080950Z AUTO 26003KT 7SM CLR 21/16 A3040 RMK A02=
METAR KQEP 080950Z AUTO 27003KT 5SM BR CLR 27/18 A2985 RMK A02=
METAR KQER 080950Z AUTO 24002KT 7SM CLR 24/19 A2987 RMK A02=
METAR KQEY 080950Z AUTO 31002KT 7SM FEW110 28/16 A2959 RMK A02=
METAR KQFV 080950Z AUTO 08001KT 7SM OVC030 23/19 A3000 RMK A02=
METAR KQTU 080955Z 29009KT 9999 CLR 43/02 A2965 RMK SLP019=
METAR KQEV 081000Z AUTO 34003KT 7SM BKN100 27/20 A2978 RMK A02=
####018000082####
SPMC32 GMMC 080900 RRA
SPECI NR01
GMFM 080940Z 3200KT 5000 SKC 26/19 Q1018=
####018000092####
SAHW31 KMSC 080951
METAR PGWT 080950Z 10009KT 7SM FEW015 FEW100 26/23 A2989 RMK LAST
=
####018000852####
SAUS20 KNKA 080951
METAR KBNL 080955Z AUTO 31003KT 10SM CLR 23/18 A2999 RMK AO2 =
METAR KCQW 080955Z AUTO 00000KT 7SM CLR 21/18 A2997 RMK AO2 =
METAR KGLE 080948Z AUTO 00000KT 10SM SCT018 BKN060 BKN090 26/23 
     A3004 RMK AO2=
SPECI KGRB 080950Z AUTO 25003KT 8SM BKN010 21/20 A2999 RMK AO2 CIG 
    007V012=
METAR KLKR 080955Z AUTO 00000KT 6SM BR CLR 19/19 A3000 RMK AO2 =
SPECI KMHK 080950Z AUTO 35003KT 10SM BKN016 22/21 A3010 RMK AO2=
METAR KOLV 080955Z AUTO 00000KT 8SM CLR 23/23 A3008 RMK A01 P000 =
SPECI KRAL 080950Z AUTO 00000KT 5SM BR BKN011 14/12 A2991 RMK AO2=
SPECI KRKP 080950Z AUTO 13016G21KT 10SM FEW013 BKN020 OVC070 27/25 
    A2983 RMK AO2 RAB0859E09B30E43 P0002=
SPECI KVTA 080950Z AUTO 00000KT 3/4SM BR SCT060 18/18 A3008 RMK AO2=
METAR PGWT 080950Z 10009KT 7SM FEW015 FEW100 26/23 A2989 RMK LAST
=
####018000093####
SAAH10 OAKB 080950
METAR OAKB 080950Z 05005KT 9999 SCT070 34/06 Q1016 NOSIG RMK BLU BLU=
####018000207####
SAUS90 KWBC 081000
METAR MYEG 080959Z AUTO 15006KT 10SM SCT019 SCT025 27/24 A2992 RMK
     AO2 LTG DSNT W=
METAR KIGM 080948Z AUTO 12003KT 10SM CLR 20/M03 A2995 RMK AO2
     SLP065 T02001033 TSNO=
####018000096####
SAUS98 KWBC 080952
METAR KEHA 080948Z AUTO 36005KT 18/17 RMK AO1 PK WND 06 014
T01780167=
####018000405####
SPUS99 KWBC 080952
SPECI
KGRB 080950Z AUTO 25003KT 8SM BKN010 21/20 A2999 RMK AO2 CIG
     007V012=
KMHK 080950Z AUTO 35003KT 10SM BKN016 22/21 A3010 RMK AO2=
KRAL 080950Z AUTO 00000KT 5SM BR BKN011 14/12 A2991 RMK AO2=
KRKP 080950Z AUTO 13016G21KT 10SM FEW013 BKN020 OVC070 27/25 A2983
     RMK AO2 RAB0859E09B30E43 P0002=
KVTA 080950Z AUTO 00000KT 3/4SM BR SCT060 18/18 A3008 RMK AO2=
####018000411####
SAUS99 KWBC 080952
METAR
KBNL 080955Z AUTO 31003KT 10SM CLR 23/18 A2999 RMK AO2=
KCQW 080955Z AUTO 00000KT 7SM CLR 21/18 A2997 RMK AO2=
KGLE 080948Z AUTO 00000KT 10SM SCT018 BKN060 BKN090 26/23 A3004
     RMK AO2=
KLKR 080955Z AUTO 00000KT 6SM BR CLR 19/19 A3000 RMK AO2=
KOLV 080955Z AUTO 00000KT 8SM CLR 23/23 A3008 RMK A01 P000=
PGWT 080950Z 10009KT 7SM FEW015 FEW100 26/23 A2989 RMK LAST=
####018000115####
SAKA31 PTKK 081000
METAR PTKK 080950Z VRB04KT 15SM SCT014CB OVC120 25/23 A2984 RMK CB
ALQDS SLP106 T02490229=
####018000155####
SAPQ50 KWBC 081000
METAR
PGWT 080950Z 10009KT 7SM FEW015 FEW100 26/23 A2989 RMK LAST=
PGWT 080950Z 10009KT 7SM FEW015 FEW100 26/23 A2989 RMK LAST=
####018000082####
SAQB31 LQSM 081000
METAR LQTZ 081000Z 21004KT 170V260 9999 FEW040 20/// Q1023=
####018000090####
SPUS80 KWBC 080952
SPECI
KMHK 080950Z AUTO 35003KT 10SM BKN016 22/21 A3010 RMK AO2=
####018000081####
SAEE31 KWBC 080930 RRC
METAR
EYSA 080950Z 32013KT 9999 OVC049 17/14 Q1016=
####018000165####
SAAW31 KWBC 080930 RRA
METAR
LLBG 080950Z 28008KT CAVOK 30/18 Q1009 NOSIG=
LLET 080950Z 03015KT CAVOK 38/13 Q1006=
LLOV 080950Z 36005KT CAVOK 33/09 Q1010=
####018002457####
SAUS70 KWBC 081000
METAR
KCCA 080955Z AUTO 00000KT 5SM BR SCT003 OVC009 22/22 A3006 RMK
     AO2=
KCDN 080955Z AUTO 00000KT 10SM CLR 23/19 A2998 RMK A02 P000=
KCKI 080955Z AUTO 00000KT 10SM SCT100 21/21 A2994 RMK AO2=
KLRO 080955Z AUTO 26005KT 10SM CLR 23/19 A2995 RMK AO2=
KMKS 080955Z AUTO 00000KT 7SM CLR 22/20 A2995 RMK AO2 TSNO=
KMWA 080945Z AUTO 00000KT 10SM SCT110 24/24 A3005 RMK AO2
     T02440235=
KPKV 080946Z AUTO 00000KT 7SM DZ SCT023 BKN050 OVC060 24/23 A2985
     RMK AO2 P0008 T02430226=
KPPA 080945Z AUTO 36006KT 10SM DZ SCT004 SCT035 BKN110 17/17 A3018
     RMK AO2=
KPYX 080950Z AUTO 02005KT 10SM SCT006 SCT018 OVC110 19/18 A3019
     RMK AO2 P0004 T01880177=
KRAS 080945Z AUTO 11007KT 6SM HZ FEW075 28/26 A2984 RMK AO2=
KRBO 080945Z AUTO 01009KT 7SM -RA SCT009 BKN038 OVC090 26/25 A2984
     RMK AO2 P0005 T02600251=
KRPH 080945Z AUTO 00000KT 10SM CLR 23/21 A3001 RMK AO2
     T02250210=
KRYW 080945Z AUTO 07003KT 7SM SCT020 SCT027 OVC040 24/23 A2999 RMK
     AO2=
KSAR 080945Z AUTO 18004KT 10SM OVC065 26/23 A3004 RMK AO2=
KSNK 080946Z AUTO 04003KT 7SM CLR 21/20 A3009 RMK AO2
     T02080198=
KSWW 080945Z AUTO 34004KT 7SM CLR 21/21 A3009 RMK AO1
     T02110205=
KT65 080947Z AUTO 05005KT 7SM RA BKN004 OVC050 26/25 A2979 RMK AO2
     P0001 T02580251=
KT82 080945Z AUTO 10005KT 23/22 A3002 RMK AO1 T02280218=
KTAZ 080945Z AUTO 00000KT 3SM BR CLR 23/23 A3002 RMK AO2=
KTFP 080945Z AUTO 09003KT 10SM BKN070 BKN080 27/25 A2982 RMK AO2
     LTG DSNT W T02700253=
KTIP 080945Z AUTO 00000KT 5SM BR CLR 24/23 A3004 RMK AO2
     T02400229=
KTYQ 080945Z AUTO 00000KT 7SM BKN080 OVC110 23/21 A3007 RMK
     AO2=
KUVA 080945Z AUTO 06005KT 10SM SCT018 OVC026 24/23 A2995 RMK AO2
     T02410228=
KVYS 080945Z AUTO 13004KT 4SM BR OVC014 23/22 A3001 RMK AO2
     T02300216=
KXBP 080945Z AUTO 00000KT 10SM CLR 24/22 A3002 RMK AO2
     T02380222=
KEFD 080950Z 11008KT 9SM FEW025 BKN130 28/24 A2993=
KCQX 080949Z AUTO 00000KT 2 1/2SM BR OVC001 19/18 A3011 RMK AO2
     SLP196 T01890183=
KEFD 080950Z 11008KT 9SM FEW025 BKN130 28/24 A2993=
KBNL 080955Z AUTO 31003KT 10SM CLR 23/18 A2999 RMK AO2=
KCQW 080955Z AUTO 00000KT 7SM CLR 21/18 A2997 RMK AO2=
KGLE 080948Z AUTO 00000KT 10SM SCT018 BKN060 BKN090 26/23 A3004
     RMK AO2=
KLKR 080955Z AUTO 00000KT 6SM BR CLR 19/19 A3000 RMK AO2=
KOLV 080955Z AUTO 00000KT 8SM CLR 23/23 A3008 RMK A01 P000=
####018000329####
SAUS80 KWBC 081000
METAR
KIGM 080948Z AUTO 12003KT 10SM CLR 20/M03 A2995 RMK AO2 SLP065
     T02001033 TSNO=
KPSN 080945Z AUTO 07003KT 7SM 24/24 A3001 RMK AO2 T02410235=
KRFI 080945Z AUTO 00000KT 7SM CLR 24/23 A3001 RMK AO2
     T02400230=
KSEP 080945Z AUTO 00000KT 10SM SCT013 SCT060 23/21 A3002 RMK
     AO1=
####018000068####
SABZ23 SBCB 081000
METAR SBCB 081000Z 04003KT CAVOK 17/15 Q1018=
####018000101####
SALT32 EYVI 080950
METAR EYKA 080950Z 28007KT 250V340 9999 -RA FEW013 BKN026 OVC039
17/14 Q1016=
####018000246####
SPXX60 KWBC 080952
SPECI
KRND 080946Z AUTO 04007KT 10SM FEW008 SCT014 OVC021 25/24 A2994
     RMK AO2 FEW V SCT SLP126=
KSKF 080948Z 05006KT 10SM OVC013 25/ A2992 RMK AO2A
     RAB0909E0945DZB0910E0912B0929E0935 CIG 011V017 SLP122 $=
####018001164####
SPUS70 KWBC 080952
SPECI
KCRS 080948Z AUTO 00000KT 10SM -RA SCT012 BKN018 25/24 A2999 RMK
     AO2 RAB38 P0000=
KNSE 080941Z AUTO 00000KT 2SM BR CLR 23/21 A3002 RMK AO2 VIS 1V4
     $=
PASC 080946Z 25011KT 10SM OVC028 11/07 A3001 RMK AO2=
PAWD 080948Z AUTO 00000KT 3/4SM BR SCT003 BKN055 OVC070 10/09
     A2996 RMK AO2 TSNO=
KBGD 080949Z AUTO 35005KT 10SM BKN020 BKN080 OVC110 19/18 A3019
     RMK AO2 RAB0853E42 P0001=
KCNM 080949Z AUTO 35004KT 5SM VCTS RA BR BKN007 OVC010 20/19 A3013
     RMK AO2 LTG DSNT NE AND S TSB37 P0019=
KELZ 080949Z AUTO 00000KT 1/2SM FG VV001 18/18 A3016 RMK AO2=
KFVE 080949Z AUTO 19004KT 1 1/4SM BR BKN002 BKN060 22/22 A3001 RMK
     AO2=
KGOK 080950Z AUTO 02003KT 10SM SCT025 BKN049 BKN075 23/21 A3004
     RMK AO2=
KPHD 080949Z AUTO 00000KT 1 1/2SM BR CLR 19/17 A3010 RMK AO2=
KGRB 080950Z AUTO 25003KT 8SM BKN010 21/20 A2999 RMK AO2 CIG
     007V012=
KRAL 080950Z AUTO 00000KT 5SM BR BKN011 14/12 A2991 RMK AO2=
KRKP 080950Z AUTO 13016G21KT 10SM FEW013 BKN020 OVC070 27/25 A2983
     RMK AO2 RAB0859E09B30E43 P0002=
KVTA 080950Z AUTO 00000KT 3/4SM BR SCT060 18/18 A3008 RMK AO2=
####018000341####
SAUS70 KWBC 080952
METAR
KIGQ 080940Z AUTO 00000KT 7SM SCT075 BKN090 23/22 A3002 RMK AO2
     LTG DSNT S=
KRWV 080940Z AUTO 00000KT 7SM SCT023 SCT030 24/24 A2998 RMK
     AO2=
KSLO 080940Z AUTO 19004KT 10SM CLR 24/22 A3004 RMK AO2
     T02380215=
KSLR 080942Z AUTO 12004KT 10SM BKN027 25/23 A3004 RMK AO2
     T02500232=
####018000081####
SABZ24 SBFI 081000
METAR SBFI 081000Z 24002KT 9999 FEW020 SCT100 15/13 Q1015=
####018000083####
SAUS80 KWBC 080952
METAR
KSOA 080940Z AUTO 05003KT 10SM 23/22 A3006 RMK AO2=
####018000087####
SAGR41 KWBC 080920 RRB
METAR
LGRX 080920Z 27010KT 9999 FEW025 28/19 Q1013 NOSIG=
####018000132####
SAIY43 KWBC 080850 RRD
METAR
LIQC 080855Z 04003KT CAVOK 28/15 Q1020 RMK SKC QUK 2 QUL 1 NW VIS
     MAR 20 KM VIS MIN 9999=
####018000089####
SAMM31 KWBC 080930 RRA
METAR
LMML 080945Z 04006KT 330V090 CAVOK 29/21 Q1018 NOSIG=
####018000092####
SAAH10 OAKB 080950
METAR OAKB 080950Z 05005KT 9999 SCT070 34/06 Q1016 NOSIG RMK BLU BLU=
####018000095####
SPUS41 KWBC 080952
SPECI
KFVE 080949Z AUTO 19004KT 1 1/4SM BR BKN002 BKN060 22/22 A3001=
####018000120####
SPUS41 KWBC 080952
SPECI
KWRI 080950Z AUTO 11004KT M1/4SM R18/0200V3000FT R24/0300V0700FT
FG VV001 23/23 A3000=
####018000213####
SAXX99 KWBC 080900 RRX
METAR
GMFM 080900Z 30004KT 3000 BR SKC 25/19 Q1018=
YWLM 080930Z 23006KT 9999 SCT020 BKN045 12/11 Q1025 RMK USE TAF
     FOR ARRIVALS AFTER 1000Z INTER 0930/1000 4000 SHRA BKN010=
####018000118####
SAUS46 KSGX 080952
MTRSAN
METAR KSAN 080951Z 33004KT 10SM FEW010 OVC019 17/14 A2991 RMK AO2 
SLP127 T01670139
####018000099####
SPUS52 KWBC 080952
SPECI
KCNM 080949Z AUTO 35004KT 5SM VCTS RA BR BKN007 OVC010 20/19 A3013=
####018000178####
SACN60 CWAO 080900 RRC
PHE SA 0900 AUTO8 M M M M/10/09/MMMM/M/ M 23MM=
PRD SA 0900 AUTO8 M M M M/13/08/1809/M/ M 92MM=
PSA SA 0900 AUTO8 M M M M/10/10/MMMM/M/ M 46MM=

####018000079####
SPCN47 CWAO 080950
SPECI CYPQ 080950Z AUTO ///// 5/8SM CLR 20/20 A3003=

####018000083####
SACN88 CWAO 080900 RRH
WZN SA 0900 AUTO8 M M M 210/11/M/1411/M/M 3004 6MMM=

####018000083####
SACN96 CWAO 080900 RRD
XND SA 0900 AUTO8 M M M 230/07/07/MM02/M/ 1003 18MM=

####018000083####
SACN94 CWAO 080900 RRE
WSQ SA 0900 AUTO8 M M M 097/06/04/2506/M/ 3001 71MM=

####018000386####
SACN59 CWAO 080900 RRI
NLB SA 0900 AUTO8 M M M M/13/11/2404/M/ M 30MM=
NLD SA 0900 AUTO8 M M M M/11/10/3008/M/0004 M 88MM=
NNR SA 0900 AUTO8 M M M M/11/08/2304/M/ M 60MM=
NTK SA 0900 AUTO8 M M M M/13/10/1703/M/ M 12MM=
PCM SA 0900 AUTO8 M M M M/09/08/MMMM/M/0004 M 89MM=
PQU SA 0900 AUTO8 M M M M/11/09/1601/M/ M 13MM=
PTR SA 0900 AUTO8 M M M M/13/11/MMMM/M/ M 06MM=

####018000084####
SACN89 CWAO 080900 RRE
WDT SA 0900 AUTO7 M M M 166/17/17/3103/M/M 3002 33MM=

####018000083####
SACN97 CWAO 080900 RRG
XLL SA 0900 AUTO8 M M M 162/13/13/2001/M/ 0000 88MM=

####018000084####
SANI20 DNMM 080930
METAR DNMM 080930Z 00000KT 9999 BKN011 27/25 Q1016 NOSIG=

####018000118####
SAMP31 LMMM 081000
METAR HLLT NIL=
METAR HLLB NIL=
METAR LMML 080945Z 04006KT 330V090 CAVOK 29/21 Q1018 NOSIG =
####018000099####
SPUS72 KWBC 080952
SPECI
KCNM 080949Z AUTO 35004KT 5SM VCTS RA BR BKN007 OVC010 20/19 A3013=
####018000103####
SALT32 EYVI 080950
METAR EYKA 080950Z 28007KT 250V340 9999 -RA FEW013 BKN026 OVC039
17/14 Q1016=
####018000083####
SAQB31 LQSM 081000
METAR LQTZ 081000Z 21004KT 170V260 9999 FEW040 20/// Q1023=
####018000273####
SAUS20 KNKA 080951
METAR KACT 080951Z 09005KT 10SM FEW012 SCT021 OVC031 26/23 A2998 RMK 
    AO2 SLP145 T02560233=
SPECI KDTS 080950Z AUTO 00000KT 1SM BR VV001 25/23 A3001 RMK AO2=
SPECI KNSE 080941Z AUTO 00000KT 2SM BR CLR 23/21 A3002 RMK AO2 VIS
      1V4 $=
####018000096####
SPCN47 CWAO 080950
SPECI CYNA 080950Z AUTO 09007KT 9SM OVC004 OVC047 OVC053 13/12 A3005=

####018000091####
SAXX70 KAWN 080900 RRW
METAR KQFU 080930Z AUTO 06004KT 7SM OVC050 25/19 A2989 RMK A02=
####018000111####
SAMO31 ZMUB 081000
METAR ZMUB 081000Z 15010MPS 9999 FEW030CB BKN033 16/12 Q1007 NOSIG 
 RMK QFE649.0 81=
####018000092####
SPCN51 CWAO 080951
SPECI CWZZ 080951Z AUTO ///// 4SM SCT019 BKN052 BKN066 11/ A2979=

####018000082####
SABZ24 SBFI 081000
METAR SBFI 081000Z 24002KT 9999 FEW020 SCT100 15/13 Q1015=
####018000083####
SPUS31 KKCI 080950
SPECI
K7R3 080950Z 04004KT 7SM SKC 24/23 A2999 RMK DA011=
####018000110####
SAUS41 KAKQ 080952
MTRORF
METAR KORF 080951Z 08006KT 9SM BKN120 26/23 A2996 RMK AO2 SLP145 
T02560233
####018001643####
SPZZ40 KAWN 080952 RRM
SPECI BGTL 080948Z AUTO 00000KT 2000 BR OVC002 04/04 A2984 RMK AO2
      SLP110=
SPECI CYIV 080946Z CCA 32004KT 2SM -TSRA BR BKN037CB OVC050 RERA RMK
      CB7SC1 LTNG CB NNE=
SPECI CYIV 080946Z 32004KT 2SM -TSRA BR BKN037CB OVC050 RMK CB7SC1
      LTNG CB NNE=
SPECI CYNA 080950Z AUTO 09007KT 9SM OVC004 OVC047 OVC053 13/12 A3005=
SPECI CYPH 080948Z AUTO 24016KT 1SM VV001 06/05 A2979=
SPECI CYPQ 080950Z AUTO ///// 5/8SM CLR 20/20 A3003=
SPECI CYQB 080949Z 07008KT 3SM BR OVC004 18/ RMK ST8=
SPECI CYUA 080948Z AUTO 29009KT 9SM OVC005 05/ A3008=
SPECI CYYT 080949Z 17006KT 1 1/2SM BR OVC003 08/ RMK SF8=
SPECI KAFF 080950Z AUTO 18008KT 10SM OVC010 12/12 A3039 RMK AO2 CIG
      006V013 SLP203=
SPECI KDTS 080950Z AUTO 00000KT 1SM BR VV001 25/23 A3001 RMK AO2=
SPECI KEGI 080949Z AUTO 00000KT 1 1/4SM R18/1000V5000FT BR CLR 21/21
      A3002 RMK AO2 VIS 1/2V5 SLP166 $=
SPECI KEGI 080950Z AUTO 00000KT 1SM R18/1000V5000FT BR CLR 21/21 A3002
      RMK AO2 VIS 1/2V5 SLP166 $=
SPECI KFCS 080949Z AUTO 19005KT 10SM BKN030 14/11 A3037 RMK AO2 SLP213=
SPECI KNSE 080941Z AUTO 00000KT 2SM BR CLR 23/21 A3002 RMK AO2 VIS
      1V4 $=
SPECI KOZR 080950Z AUTO 00000KT 6SM R06/4500V5500FT BR CLR 22/22 A3002
      RMK AO2 SLP163=
SPECI KWRI 080950Z AUTO 11004KT M1/4SM R18/0200V3000FT R24/0300V0700FT
      FG VV001 23/23 A3000 RMK AO2 BKN V SCT SLP160 $=
SPECI KWRI 080951Z AUTO 11005KT M1/4SM R18/0200V1800FT R24/0300V0700FT
      FG VV001 23/23 A3000 RMK AO2 SLP160 $=
SPECI RKJK 080948Z 33009KT 9999 -DZ SCT090 BKN100 25/20 A2979 RMK AO2A
      DZB0948 SLP089 $=
####018000110####
SAUS41 KCLE 080952
MTRCAK
METAR KCAK 080951Z 00000KT 6SM HZ CLR 21/18 A3009 RMK AO2 SLP179 
T02110183
####018000076####
SAKW35 OKBK 081000
METAR OKBK 081000Z 35018KT CAVOK 47/M10 Q1000 NOSIG=
####018000125####
SAUS41 KGYX 080952
MTRCON
METAR KCON 080951Z AUTO 00000KT 4SM BR FEW050 BKN080 23/21 A3006 RMK 
AO2 SLP178 T02280211
####018000147####
SAUS44 KEWX 080952
MTRATT
METAR KATT 080951Z AUTO 00000KT 8SM -RA BKN012 BKN016 OVC025 26/24 
A2996 RMK AO2 RAB42 SLP131 P0000 T02560239 $
####018002034####
SAUS20 KNKA 080952
METAR KMDW 080951Z 00000KT 7SM FEW020 SCT042 SCT080 OVC130 24/22 
    A3002 RMK AO2 RAE17 SLP152 P0000 T02390217=
SPECI KMIV 080951Z AUTO 10003KT 1 3/4SM BR SCT003 SCT100 23/22 A3000 
    RMK AO2=
METAR KMPV 080951Z AUTO 00000KT 1 3/4SM BR CLR 19/19 A3011 RMK AO2 
    SLP189 T01940189=
METAR KMYL 080951Z AUTO 00000KT 10SM CLR 08/06 A3018 RMK AO2 SLP187 
    T00830061=
METAR KOKM 080951Z AUTO 00000KT 10SM VCTS BKN005 OVC010 25/25 
     A3003 RMK AO1 LTG DSNT N=
METAR KONM 080947Z AUTO 17004KT 10SM CLR 19/14 A3022 RMK AO2 
     T01860136=
METAR KORD 080951Z 18003KT 10SM FEW025 BKN150 23/22 A3002 RMK AO2 
    SLP159 T02280222=
METAR KOXR 080951Z AUTO 29007KT 10SM OVC011 16/12 A2990 RMK AO2 
    SLP124 T01560122 $=
METAR KPHX 080951Z 23004KT 10SM FEW170 32/02 A2975 RMK AO2 SLP051 
    T03220017 $=
METAR KPIT 080951Z 00000KT 5SM BR SCT038 SCT250 21/19 A3009 RMK AO2 
    SLP186 T02110189=
SPECI KPNE 080951Z 12006KT 3SM BR FEW006 24/23 A3003 RMK AO2=
SPECI KPRB 080951Z AUTO 00000KT 10SM BKN009 12/10 A2990 RMK AO2=
METAR KPWM 080951Z 18006KT 7SM OVC006 21/20 A3008 RMK AO2 SLP185 
    T02060200 $=
METAR KRDU 080951Z 35004KT 6SM HZ FEW090 24/19 A2998 RMK AO2 SLP144 
    T02440189 $=
SPECI KRHI 080951Z AUTO 00000KT 1 3/4SM BR FEW001 18/17 A3003 RMK 
    AO2=
METAR KROW 080951Z AUTO 01004KT 10SM FEW095 BKN120 19/16 A3017 RMK 
    AO2 RAE10 SLP152 P0000 T01940161 TSNO=
METAR KSLK 080951Z AUTO 00000KT 2 1/2SM BR CLR 17/16 A3008 RMK AO2 
    SLP177 T01720156=
METAR KSMO 080951Z AUTO 00000KT 10SM OVC011 17/13 A2990 RMK AO2 
    SLP125 T01670128=
METAR KSTL 080951Z 00000KT 10SM FEW046 SCT090 BKN150 BKN250 25/23 
    A3003 RMK AO2 SLP157 TCU DSNT E T02500228=
METAR KTEB 080951Z 00000KT 3SM MIFG CLR 26/22 A3001 RMK AO2 SLP162 
    T02560222=
METAR KVNY 080951Z AUTO 13003KT 6SM HZ OVC008 16/13 A2990 RMK AO2 
    SLP117 T01560128=
METAR KYNG 080951Z 00000KT 6SM BR HZ FEW060 20/17 A3010 RMK AO2 
    SLP181 T02000172=
####018002960####
SAUS20 KNKA 080952
METAR K1F0 080947Z AUTO 00000KT 10SM SCT033 SCT040 OVC048 24/24 
     A3001 RMK AO2=
SPECI KACV 080951Z AUTO 28003KT 3SM BR OVC001 10/09 A2996 RMK AO2=
METAR KADH 080950Z AUTO 00000KT 7SM SCT023 SCT032 23/21 A3003 RMK 
     AO2=
METAR KAHN 080951Z AUTO 00000KT 7SM CLR 21/19 A3002 RMK AO2 SLP158 
    T02110194 $=
METAR KALB 080951Z 00000KT 4SM BR FEW100 23/21 A3003 RMK AO2 SLP166 
    T02280206=
METAR KALM 080950Z AUTO 14005KT 10SM CLR 17/13 A3014 RMK AO2=
METAR KASH 080951Z 13005KT 3SM BR OVC008 23/22 A3008 RMK AO2 
    T02330216 SLP185=
METAR KATS 080950Z AUTO 34008KT 10SM -RA FEW043 19/18 A3016 RMK 
     AO2 P0001=
METAR KAVX 080951Z AUTO 28004KT 1/4SM FG VV001 12/12 A2992 RMK AO2 
    SLP124 T01170117 TSNO=
METAR KBAZ 080951Z AUTO 05005KT 10SM FEW031 25/24 A2992 RMK AO2 
    SLP123 T02500239=
METAR KBDL 080951Z 15004KT 3SM HZ SCT012 BKN100 24/21 A3004 RMK AO2 
    SLP171 T02390211=
METAR KBGD 080951Z AUTO 34005KT 10SM BKN020 BKN060 OVC080 19/18 
    A3019 RMK AO2 RAB0853E42 SLP183 P0001 T01890178=
METAR KBKW 080951Z AUTO 00000KT 3SM BR FEW070 19/18 A3016 RMK AO2 
    SLP174 T01890178 VISNO RWY19 $=
METAR KCHK 080951Z AUTO 00000KT 10SM SCT090 SCT110 22/22 A3004 
     RMK AO2=
METAR KCLE 080951Z 00000KT 7SM FEW060 22/18 A3008 RMK AO2 SLP177 
    T02220178 $=
METAR KCMH 080951Z 00000KT 7SM SCT060 22/19 A3007 RMK AO2 SLP176 
    T02170194 $=
METAR KCQB 080950Z AUTO 02003KT 5SM +RA 23/23 A3004 RMK AO2 TSNO=
METAR KCSG 080951Z 00000KT 10SM CLR 24/20 A3002 RMK AO2 SLP160 
    T02390200=
METAR KDAW 080951Z AUTO 17003KT 1SM BR OVC003 22/21 A3007 RMK AO2 
    SLP177 T02170206 $=
METAR KDUC 080952Z AUTO 05003KT 10SM CLR 22/22 A3004 RMK AO2=
METAR KEKN 080951Z AUTO 00000KT 1 3/4SM BR BKN075 17/16 A3016 RMK 
    AO2 SLP200 T01670161 TSNO=
METAR KELP 080951Z 36010KT 10SM FEW035 BKN060 BKN100 22/14 A3012 RMK 
    AO2 SLP122 T02220144=
METAR KERI 080951Z 20004KT 6SM HZ CLR 22/18 A3006 RMK AO2 SLP174 
    T02170183=
METAR KEWR 080951Z 00000KT 4SM BR BKN110 BKN250 26/25 A3002 RMK AO2 
    SLP165 T02560250=
SPECI KFIG 080951Z AUTO 35005KT 2SM BR CLR 17/17 A3012 RMK AO2=
METAR KGMJ 080954Z AUTO 00000KT 26/26 A3004 RMK AO2 P0004 PWINO=
SPECI KGUY 080951Z AUTO 20004KT 2SM RA BR FEW004 BKN030 OVC045 18/18 
    A3023 RMK AO2 TSB16E31 P0026=
METAR KHDO 080951Z AUTO 04005KT 10SM BKN026 24/23 A2996 RMK AO2 
    SLP127 T02440228=
METAR KHTS 080951Z AUTO 00000KT 1 1/4SM BR CLR 21/19 A3008 RMK AO2 
    SLP176 T02060194 TSNO=
METAR KILG 080951Z AUTO 00000KT 2 1/2SM BR BKN006 24/23 A3002 RMK 
    AO2 SLP164 T02440228 $=
METAR KJFK 080951Z 13003KT 3SM BR SCT005 SCT090 BKN120 BKN250 26/23 
    A3003 RMK AO2 SLP168 T02560233 $=
METAR KLGA 080951Z 04006KT 3SM HZ BKN095 BKN250 25/22 A3002 RMK AO2 
    SLP164 T02500222=
METAR KLGU 080951Z AUTO 03005KT 10SM CLR 14/06 A3014 RMK AO2 SLP159 
    T01390061=
####018003702####
SAUS99 KWBC 080953
METAR
KACT 080951Z 09005KT 10SM FEW012 SCT021 OVC031 26/23 A2998 RMK AO2
     SLP145 T02560233=
K1F0 080947Z AUTO 00000KT 10SM SCT033 SCT040 OVC048 24/24 A3001
     RMK AO2=
KADH 080950Z AUTO 00000KT 7SM SCT023 SCT032 23/21 A3003 RMK
     AO2=
KAHN 080951Z AUTO 00000KT 7SM CLR 21/19 A3002 RMK AO2 SLP158
     T02110194 $=
KALB 080951Z 00000KT 4SM BR FEW100 23/21 A3003 RMK AO2 SLP166
     T02280206=
KALM 080950Z AUTO 14005KT 10SM CLR 17/13 A3014 RMK AO2=
KASH 080951Z 13005KT 3SM BR OVC008 23/22 A3008 RMK AO2 T02330216
     SLP185=
KATS 080950Z AUTO 34008KT 10SM -RA FEW043 19/18 A3016 RMK AO2
     P0001=
KAVX 080951Z AUTO 28004KT 1/4SM FG VV001 12/12 A2992 RMK AO2
     SLP124 T01170117 TSNO=
KBAZ 080951Z AUTO 05005KT 10SM FEW031 25/24 A2992 RMK AO2 SLP123
     T02500239=
KBDL 080951Z 15004KT 3SM HZ SCT012 BKN100 24/21 A3004 RMK AO2
     SLP171 T02390211=
KBGD 080951Z AUTO 34005KT 10SM BKN020 BKN060 OVC080 19/18 A3019
     RMK AO2 RAB0853E42 SLP183 P0001 T01890178=
KBKW 080951Z AUTO 00000KT 3SM BR FEW070 19/18 A3016 RMK AO2 SLP174
     T01890178 VISNO RWY19 $=
KCHK 080951Z AUTO 00000KT 10SM SCT090 SCT110 22/22 A3004 RMK
     AO2=
KCLE 080951Z 00000KT 7SM FEW060 22/18 A3008 RMK AO2 SLP177
     T02220178 $=
KCMH 080951Z 00000KT 7SM SCT060 22/19 A3007 RMK AO2 SLP176
     T02170194 $=
KCQB 080950Z AUTO 02003KT 5SM +RA 23/23 A3004 RMK AO2 TSNO=
KCSG 080951Z 00000KT 10SM CLR 24/20 A3002 RMK AO2 SLP160
     T02390200=
KDAW 080951Z AUTO 17003KT 1SM BR OVC003 22/21 A3007 RMK AO2 SLP177
     T02170206 $=
KDUC 080952Z AUTO 05003KT 10SM CLR 22/22 A3004 RMK AO2=
KEKN 080951Z AUTO 00000KT 1 3/4SM BR BKN075 17/16 A3016 RMK AO2
     SLP200 T01670161 TSNO=
KELP 080951Z 36010KT 10SM FEW035 BKN060 BKN100 22/14 A3012 RMK AO2
     SLP122 T02220144=
KERI 080951Z 20004KT 6SM HZ CLR 22/18 A3006 RMK AO2 SLP174
     T02170183=
KEWR 080951Z 00000KT 4SM BR BKN110 BKN250 26/25 A3002 RMK AO2
     SLP165 T02560250=
KGMJ 080954Z AUTO 00000KT 26/26 A3004 RMK AO2 P0004 PWINO=
KHDO 080951Z AUTO 04005KT 10SM BKN026 24/23 A2996 RMK AO2 SLP127
     T02440228=
KHTS 080951Z AUTO 00000KT 1 1/4SM BR CLR 21/19 A3008 RMK AO2
     SLP176 T02060194 TSNO=
KILG 080951Z AUTO 00000KT 2 1/2SM BR BKN006 24/23 A3002 RMK AO2
     SLP164 T02440228 $=
KJFK 080951Z 13003KT 3SM BR SCT005 SCT090 BKN120 BKN250 26/23
     A3003 RMK AO2 SLP168 T02560233 $=
KLGA 080951Z 04006KT 3SM HZ BKN095 BKN250 25/22 A3002 RMK AO2
     SLP164 T02500222=
KLGU 080951Z AUTO 03005KT 10SM CLR 14/06 A3014 RMK AO2 SLP159
     T01390061=
KMDW 080951Z 00000KT 7SM FEW020 SCT042 SCT080 OVC130 24/22 A3002
     RMK AO2 RAE17 SLP152 P0000 T02390217=
KMPV 080951Z AUTO 00000KT 1 3/4SM BR CLR 19/19 A3011 RMK AO2
     SLP189 T01940189=
KMYL 080951Z AUTO 00000KT 10SM CLR 08/06 A3018 RMK AO2 SLP187
     T00830061=
KOKM 080951Z AUTO 00000KT 10SM VCTS BKN005 OVC010 25/25 A3003 RMK
     AO1 LTG DSNT N=
KONM 080947Z AUTO 17004KT 10SM CLR 19/14 A3022 RMK AO2
     T01860136=
KORD 080951Z 18003KT 10SM FEW025 BKN150 23/22 A3002 RMK AO2 SLP159
     T02280222=
KOXR 080951Z AUTO 29007KT 10SM OVC011 16/12 A2990 RMK AO2 SLP124
     T01560122 $=
KPHX 080951Z 23004KT 10SM FEW170 32/02 A2975 RMK AO2 SLP051
     T03220017 $=
KPIT 080951Z 00000KT 5SM BR SCT038 SCT250 21/19 A3009 RMK AO2
     SLP186 T02110189=
KPWM 080951Z 18006KT 7SM OVC006 21/20 A3008 RMK AO2 SLP185
     T02060200 $=
KRDU 080951Z 35004KT 6SM HZ FEW090 24/19 A2998 RMK AO2 SLP144
     T02440189 $=
KROW 080951Z AUTO 01004KT 10SM FEW095 BKN120 19/16 A3017 RMK AO2
     RAE10 SLP152 P0000 T01940161 TSNO=
####018000571####
SAUS99 KWBC 080953 RRA
METAR
KSLK 080951Z AUTO 00000KT 2 1/2SM BR CLR 17/16 A3008 RMK AO2
     SLP177 T01720156=
KSMO 080951Z AUTO 00000KT 10SM OVC011 17/13 A2990 RMK AO2 SLP125
     T01670128=
KSTL 080951Z 00000KT 10SM FEW046 SCT090 BKN150 BKN250 25/23 A3003
     RMK AO2 SLP157 TCU DSNT E T02500228=
KTEB 080951Z 00000KT 3SM MIFG CLR 26/22 A3001 RMK AO2 SLP162
     T02560222=
KVNY 080951Z AUTO 13003KT 6SM HZ OVC008 16/13 A2990 RMK AO2 SLP117
     T01560128=
KYNG 080951Z 00000KT 6SM BR HZ FEW060 20/17 A3010 RMK AO2 SLP181
     T02000172=
####018000667####
SPUS99 KWBC 080953
SPECI
KDTS 080950Z AUTO 00000KT 1SM BR VV001 25/23 A3001 RMK AO2=
KNSE 080941Z AUTO 00000KT 2SM BR CLR 23/21 A3002 RMK AO2 VIS 1V4
     $=
KACV 080951Z AUTO 28003KT 3SM BR OVC001 10/09 A2996 RMK AO2=
KFIG 080951Z AUTO 35005KT 2SM BR CLR 17/17 A3012 RMK AO2=
KGUY 080951Z AUTO 20004KT 2SM RA BR FEW004 BKN030 OVC045 18/18
     A3023 RMK AO2 TSB16E31 P0026=
KMIV 080951Z AUTO 10003KT 1 3/4SM BR SCT003 SCT100 23/22 A3000 RMK
     AO2=
KPNE 080951Z 12006KT 3SM BR FEW006 24/23 A3003 RMK AO2=
KPRB 080951Z AUTO 00000KT 10SM BKN009 12/10 A2990 RMK AO2=
KRHI 080951Z AUTO 00000KT 1 3/4SM BR FEW001 18/17 A3003 RMK
     AO2=
####018000255####
SASW31 LSSW 080950
METAR LSZH 080950Z VRB02KT CAVOK 25/13 Q1022 NOSIG=
METAR LSGG 080950Z VRB03KT CAVOK 27/11 Q1022 NOSIG=
METAR LSZB 080950Z 33004KT 280V020 CAVOK 26/14 Q1022 NOSIG=
METAR LSZA 080950Z 18004KT 140V220 9999 BKN055 26/13 Q1023 NOSIG=
####018000128####
SALV32 EVRA 080950
METAR EVLA 080950Z 32007KT 280V360 CAVOK 21/16 Q1018=
METAR EVVA 080950Z AUTO 33011KT CAVOK 21/17 Q1018=
####018000068####
SABZ22 SBCY 081000
METAR SBCY 081000Z 02007KT CAVOK 19/14 Q1014=
####018000122####
SAUS46 KLOX 080952
MTRSMX
METAR KSMX 080951Z AUTO 00000KT 8SM OVC009 13/11 A2992 RMK AO2 
SLP133 T01280106 TSNO $
####018000095####
SAUS44 KSHV 080952
MTRDNK
SPECI KDNK 080951Z AUTO 08003KT 9SM SCT018 24/22 A3000 RMK AO2
####018000121####
SAUS45 KTWC 080952
MTRSAD
METAR KSAD 080951Z AUTO 14010KT 10SM SCT080 24/13 A2999 RMK AO2 
SLP093 T02440128 TSNO
####018000120####
SAUS44 KSJT 080952
MTRJCT
METAR KJCT 080951Z AUTO 00000KT 8SM BKN036 23/21 A3001 RMK AO2 
SLP123 T02280211 TSNO
####018000149####
SAUS44 KCRP 080952
MTRCRP
METAR KCRP 080951Z 01006KT 9SM -RA SCT021 SCT028 OVC050 26/25 A2983 
RMK AO2 TSE35 SLP100 TS DSIPT P0052 T02560250
####018000102####
SPNT31 KWBC 080953
SPECI
BGTL 080948Z AUTO 00000KT 2000 BR OVC002 04/04 A2984 RMK AO2
SLP110=
####018000120####
SPUS41 KWBC 080953
SPECI
KWRI 080951Z AUTO 11005KT M1/4SM R18/0200V1800FT R24/0300V0700FT
FG VV001 23/23 A3000=
####018000116####
SPXX62 KWBC 080953
SPECI
RKJK 080948Z 33009KT 9999 -DZ SCT090 BKN100 25/20 A2979 RMK AO2A
DZB0948 SLP089 $=
####018000107####
SAAH10 OAKN 081000
METAR OAKN 080950Z 34008KT 9000 HZ FEW120 41/07 Q1008 BLU NOSIG RMK
A2977 DA7100=
####018000081####
SPUS43 KWBC 080953
SPECI
KGRB 080950Z AUTO 25003KT 8SM BKN010 21/20 A2999=
####018000125####
SAUS41 KOKX 080952
MTRNYC
METAR KNYC 080951Z AUTO 00000KT 4SM HZ FEW095 26/23 A3005 RMK AO2 
SLP166 T02560228 TSNO $
####018000120####
SAUS41 KPHI 080952
MTRABE
METAR KABE 080951Z AUTO 34004KT 5SM BR CLR 22/20 A3003 RMK AO2 
SLP164 T02220200 TSNO
####018000115####
SAUS43 KMQT 080953
MTRP59
METAR KP59 080951Z AUTO 02003KT 17/15 A2998 RMK AO2 SLP145 T01670150 
PWINO TSNO
####018000089####
SAZA42 FAJS 081000
METAR FAJS 081000Z 06009KT 030V110 9999 SCT030 14/06 Q1036 NOSIG=
####018000082####
SPUS53 KWBC 080953
SPECI
KMHK 080950Z AUTO 35003KT 10SM BKN016 22/21 A3010=
####018000136####
SAYE20 OYAA 081000
METAR OYAA 081000Z 21014KT 6000 NSC 35/21 Q1002=
METAR OYSQ 081000Z 21047G57KT 9999 FEW018 SCT200 32/24 Q1006=
####018000115####
SAUS43 KDTX 080953
MTRP58
METAR KP58 080951Z AUTO 00000KT 24/21 A2999 RMK AO2 SLP145 T02440211 
PWINO TSNO
####018000144####
SAUS44 KMAF 080953
MTRGDP
METAR KGDP 080951Z AUTO 06014G21KT 1/4SM FG VV005 17/17 A3023 RMK 
AO2 RAB0853E36 SLP161 P0000 T01670167 TSNO
####018000156####
SAUS44 KCRP 080953
MTRVCT
METAR KVCT 080951Z AUTO 07009KT 3SM +RA BR SCT015 BKN026 OVC095 
25/24 A2988 RMK AO2 RAB0853E21B47 SLP116 P0017 T02500244
####018000116####
SAUS45 KPIH 080953
MTRSNT
METAR KSNT 080951Z AUTO 00000KT 03/M01 A3032 RMK AO2 SLP191 
T00281006 PWINO TSNO
####018000082####
SPUS73 KWBC 080953
SPECI
KMHK 080950Z AUTO 35003KT 10SM BKN016 22/21 A3010=
####018000098####
SAEU31 BKPR 081000
METAR BKPR 081000Z 35006KT 9999 SCT035 BKN070 16/10 Q1020 NOSIG RMK
BLU=
####018000259####
SASW31 LSSW 080950
METAR LSZH 080950Z VRB02KT CAVOK 25/13 Q1022 NOSIG=
METAR LSGG 080950Z VRB03KT CAVOK 27/11 Q1022 NOSIG=
METAR LSZB 080950Z 33004KT 280V020 CAVOK 26/14 Q1022 NOSIG=
METAR LSZA 080950Z 18004KT 140V220 9999 BKN055 26/13 Q1023 NOSIG=
####018000251####
SASW39 LSSW 080950
METAR LSMA 080950Z 36004KT 310V040 CAVOK 24/14 Q1022 RMK BLU=
METAR LSMD 080950Z NIL=
METAR LSME 080950Z NIL=
METAR LSMM 080950Z NIL=
METAR LSMP 080950Z NIL=
METAR LSMS 080950Z 23005KT 190V270 9999 FEW100 27/12 Q1021=
####018000120####
SAUS42 KMHX 080953
MTRHSE
METAR KHSE 080951Z AUTO 06006KT 9SM BKN110 24/24 A2992 RMK AO2 
SLP132 T02440244 TSNO
####018000383####
SAUS20 KNKA 080953
METAR KESN 080950Z 00000KT 1 1/2SM BR VV007 23/23 A3004=
METAR KGLS 080952Z AUTO 11017KT 10SM SCT025 BKN033 28/24 A2990 RMK 
    AO2 SLP126 T02830244=
METAR KHRL 080952Z AUTO 34006KT 10SM FEW017 BKN047 BKN110 26/26 
    A2977 RMK AO2 RAE42 SLP081 P0001 T02560256=
METAR KSJT 080951Z AUTO 23003KT 10SM CLR 21/20 A3002 RMK AO2 SLP140 
    T02110200=
####018000081####
SABZ21 SBFZ 081000
METAR SBFZ 081000Z 15005KT 9999 SCT017 BKN100 25/21 Q1014=
####018000075####
SPCN44 CWAO 080952
SPECI CYUS 080952Z AUTO ///// 9SM CLR 10/ A2979=

####018000617####
SAIN31 VABB 080940
METAR VAAH 080940Z 17008KT 3500 HZ SCT018 SCT080 29/23 Q1004 NOSIG=
METAR VABB 080940Z 16007KT 2700 HZ SCT010 SCT015 FEW025TCU BKN090
     28/25 Q1007 TEMPO 1500 SHRA=
METAR VANP 080940Z 33005KT 2000 -RA FEW010 SCT015 FEW025CB OVC080
    28/26 Q1005 TEMPO 1500M IN RA/TSRA=
METAR VOHS 080940Z 26011KT 5000 HZ SCT010 SCT015 BKN080 26/23 Q1010
    NOSIG=
METAR VOHY 080940Z 26008KT 5000 -DZ SCT015 SCT025 BKN080 25/21 Q1011
    NOSIG=
METAR VOMM 080940Z 12006KT 4000 HZ SCT015 SCT100 OVC200 28/26 Q1008
     NOSIG=
METAR VOTR 080940Z VRB04KT 6000 SCT020 OVC100 34/23 Q1008=
####018000081####
SPUS73 KWBC 080953
SPECI
KGRB 080950Z AUTO 25003KT 8SM BKN010 21/20 A2999=
####018000130####
SALV32 EVRA 080950
METAR EVLA 080950Z 32007KT 280V360 CAVOK 21/16 Q1018=
METAR EVVA 080950Z AUTO 33011KT CAVOK 21/17 Q1018=
####018000075####
SAID32 WIII 080930
METAR WIPT 080930Z 00000KT 9999 FEW020 29/24 Q1009=
####018000082####
SPUS81 KWBC 080953
SPECI
KMHK 080950Z AUTO 35003KT 10SM BKN016 22/21 A3010=
####018000407####
SADL32 EDZO 080950
METAR EDDB 080950Z VRB02KT CAVOK 25/08 Q1021 NOSIG=
METAR EDDC 080950Z 28001KT CAVOK 24/09 Q1023 NOSIG=
METAR EDDE 080950Z VRB03KT CAVOK 25/08 Q1022 NOSIG=
METAR EDDG 080950Z 22005KT 160V240 CAVOK 27/10 Q1020 NOSIG=
METAR EDDP 080950Z VRB02KT CAVOK 26/10 Q1022 NOSIG=
METAR EDDR 080950Z VRB02KT CAVOK 26/13 Q1021 NOSIG=
METAR EDDW 080950Z 23006KT CAVOK 29/08 Q1019 NOSIG=
####018000245####
SASW39 LSSW 080950
METAR LSMA 080950Z 36004KT 310V040 CAVOK 24/14 Q1022 RMK BLU=
METAR LSMD 080950Z NIL=
METAR LSME 080950Z NIL=
METAR LSMM 080950Z NIL=
METAR LSMP 080950Z NIL=
METAR LSMS 080950Z 23005KT 190V270 9999 FEW100 27/12 Q1021=
####018000075####
SACH01 SCFA 081000
METAR SCFA 081000Z 06005KT 9999 OVC017 13/08 Q1016=
####018000523####
SADL31 EDZO 080950
METAR EDDF 080950Z 21002KT CAVOK 28/10 Q1021 NOSIG=
METAR EDDH 080950Z 15007KT CAVOK 27/12 Q1019 NOSIG=
METAR EDDK 080950Z 21005KT 180V240 CAVOK 29/10 Q1020 NOSIG=
METAR EDDL 080950Z 18005KT CAVOK 28/09 Q1019 NOSIG=
METAR EDDM 080950Z 07007KT CAVOK 22/07 Q1023 NOSIG=
METAR EDDN 080950Z 13008KT CAVOK 25/08 Q1022 NOSIG=
METAR EDDS 080950Z VRB03KT CAVOK 25/08 Q1022 NOSIG=
METAR EDDT 080950Z VRB03KT CAVOK 26/07 Q1022 NOSIG=
METAR EDDV 080950Z 21006KT 180V270 CAVOK 28/10 Q1020 NOSIG=
####018000105####
SAUS44 KMOB 080953 COR
MTRNSE
SPECI KNSE 080948Z AUTO 00000KT 1 1/4SM BR CLR 23/21 A3002 RMK AO2 $
####018000079####
SPCN43 CWAO 080952
SPECI CYPY 080952Z AUTO 22002KT 9SM CLR 11/11 A2992=

####018000116####
SAUS46 KPQR 080953
MTRREO
METAR KREO 080952Z AUTO 06006KT 12/M01 A3010 RMK AO2 SLP157 
T01221011 PWINO TSNO
####018000118####
SAUS45 KSLC 080953
MTRMLF
METAR KMLF 080952Z AUTO 00000KT 10SM CLR 12/01 A3010 RMK AO2 SLP130 
T01170011 TSNO
####018002072####
SAUS90 KWBC 081000
METAR KEHA 080948Z AUTO 36005KT 18/17 RMK AO1 PK WND 06 014
     T01780167=
METAR KSAN 080951Z 33004KT 10SM FEW010 OVC019 17/14 A2991 RMK AO2
     SLP127 T01670139=
METAR KORF 080951Z 08006KT 9SM BKN120 26/23 A2996 RMK AO2 SLP145
     T02560233=
METAR KCAK 080951Z 00000KT 6SM HZ CLR 21/18 A3009 RMK AO2 SLP179
     T02110183=
METAR KCON 080951Z AUTO 00000KT 4SM BR FEW050 BKN080 23/21 A3006
     RMK AO2 SLP178 T02280211=
METAR KATT 080951Z AUTO 00000KT 8SM -RA BKN012 BKN016 OVC025 26/24
     A2996 RMK AO2 RAB42 SLP131 P0000 T02560239 $=
METAR KSAD 080951Z AUTO 14010KT 10SM SCT080 24/13 A2999 RMK AO2
     SLP093 T02440128 TSNO=
METAR KCRP 080951Z 01006KT 9SM -RA SCT021 SCT028 OVC050 26/25
     A2983 RMK AO2 TSE35 SLP100 TS DSIPT P0052 T02560250=
METAR KJCT 080951Z AUTO 00000KT 8SM BKN036 23/21 A3001 RMK AO2
     SLP123 T02280211 TSNO=
METAR KSMX 080951Z AUTO 00000KT 8SM OVC009 13/11 A2992 RMK AO2
     SLP133 T01280106 TSNO $=
METAR KABE 080951Z AUTO 34004KT 5SM BR CLR 22/20 A3003 RMK AO2
     SLP164 T02220200 TSNO=
METAR KP59 080951Z AUTO 02003KT 17/15 A2998 RMK AO2 SLP145
     T01670150 PWINO TSNO=
METAR KNYC 080951Z AUTO 00000KT 4SM HZ FEW095 26/23 A3005 RMK AO2
     SLP166 T02560228 TSNO $=
METAR KP58 080951Z AUTO 00000KT 24/21 A2999 RMK AO2 SLP145
     T02440211 PWINO TSNO=
METAR KVCT 080951Z AUTO 07009KT 3SM +RA BR SCT015 BKN026 OVC095
     25/24 A2988 RMK AO2 RAB0853E21B47 SLP116 P0017 T02500244=
METAR KSNT 080951Z AUTO 00000KT 03/M01 A3032 RMK AO2 SLP191
     T00281006 PWINO TSNO=
METAR KGDP 080951Z AUTO 06014G21KT 1/4SM FG VV005 17/17 A3023 RMK
     AO2 RAB0853E36 SLP161 P0000 T01670167 TSNO=
METAR KHSE 080951Z AUTO 06006KT 9SM BKN110 24/24 A2992 RMK AO2
     SLP132 T02440244 TSNO=
METAR KREO 080952Z AUTO 06006KT 12/M01 A3010 RMK AO2 SLP157
     T01221011 PWINO TSNO=
METAR KMLF 080952Z AUTO 00000KT 10SM CLR 12/01 A3010 RMK AO2
     SLP130 T01170011 TSNO=
METAR KN60 080952Z AUTO 28003KT 12/10 A3010 RMK AO1 SLP192
     T01170100=
####018000147####
SPUS90 KWBC 080954
SPECI K7R3 080950Z 04004KT 7SM SKC 24/23 A2999 RMK DA011=
SPECI KDNK 080951Z AUTO 08003KT 9SM SCT018 24/22 A3000 RMK AO2=
####018000118####
SAUS41 KLWX 080953
MTRNHK
METAR KNHK 080952Z AUTO 09004KT 3SM BR BKN009 26/24 A2999 RMK AO2 
SLP155 T02610239
####018000101####
SAUS43 KBIS 080953
MTRN60
METAR KN60 080952Z AUTO 28003KT 12/10 A3010 RMK AO1 SLP192 T01170100
####018000075####
SAGI32 EGRR 080950
METAR LXGB 080950Z 07013KT CAVOK 26/17 Q1016 NOSIG=
####018002975####
SAUS20 KNKA 080953
METAR K4O4 080948Z AUTO 10003KT 7SM SCT001 SCT007 23/22 A3004 RMK 
     AO2=
METAR KADM 080950Z AUTO 00000KT 10SM OVC023 23/23 A3002 RMK AO2=
METAR KAFK 080950Z AUTO 36005KT 7SM CLR 20/19 A3011 RMK AO2 
     T01950185=
METAR KAFN 080952Z AUTO 00000KT 5SM BR OVC080 22/21 A3010 RMK AO2 
    SLP187 T02220211 $=
METAR KAFW 080953Z 15003KT 10SM FEW018 26/23 A3000 RMK AO2 SLP142 
    T02560228=
METAR KAIK 080955Z AUTO 28004KT 10SM CLR 22/22 A3003 RMK AO2 LTG 
     DSNT SE PNO=
METAR KALS 080952Z AUTO 14005KT 10SM CLR 07/06 A3041 RMK AO2 SLP243 
    T00670056=
METAR KANW 080950Z AUTO 00000KT 10SM SCT120 17/15 A3024 RMK AO2 
     T01670150=
METAR KAQW 080952Z AUTO 00000KT 2SM BR CLR 18/18 A3006 RMK AO2 
    SLP175 T01830178=
METAR KARR 080952Z AUTO 18003KT 3SM BR BKN018 OVC025 22/22 A3003 RMK 
    AO2 SLP163 T02220217 $=
METAR KARW 080955Z AUTO 26005KT 10SM CLR 24/18 A2997 RMK AO2=
METAR KATL 080952Z 29003KT 10SM CLR 24/19 A3004 RMK AO2 SLP159 
    T02390189=
METAR KAUH 080950Z AUTO 34004KT 10SM CLR 16/15 A3018 RMK AO2 
     T01550145=
METAR KAUN 080950Z AUTO 13003KT 10SM CLR 21/13 A2987 RMK AO1=
METAR KAXS 080950Z AUTO 00000KT 10SM RA OVC031 24/22 A3007 RMK 
     AO2 LTG DSNT SW T02360215=
METAR KAXX 080950Z AUTO 10003KT 10SM CLR 04/03 A3048 RMK AO2=
METAR KBDN 080955Z AUTO 00000KT 10SM CLR 13/02 A3010 RMK AO2 =
METAR KBDR 080952Z AUTO 07005KT 2SM BR OVC002 24/23 A3004 RMK AO2 
    SLP171 T02440228=
METAR KBIE 080950Z AUTO 35006KT 10SM CLR 19/17 A3013 RMK AO2 
     T01850173=
METAR KBIS 080952Z AUTO 00000KT 10SM CLR 13/10 A3013 RMK AO2 SLP201 
    T01280100=
METAR KBLF 080952Z AUTO 25004KT 6SM HZ CLR 22/17 A3019 RMK AO2 
    SLP174 T02170172=
METAR KBLH 080952Z AUTO 20005KT 10SM CLR 30/M04 A2971 RMK AO2 SLP054 
    T03001039=
METAR KBML 080952Z AUTO 00000KT M1/4SM FG VV001 20/20 A3010 RMK AO2 
    SLP186 T02000200 $=
METAR KBTA 080950Z AUTO 01004KT 10SM CLR 19/17 A3013 RMK AO2 
     T01900171=
METAR KBVS 080950Z AUTO 03008KT 10SM CLR 21/13 A2997 RMK A01 P000=
METAR KCDS 080953Z AUTO 03005KT 10SM SCT041 23/21 A3010 RMK AO2 LTG 
    DSNT SE SLP164 T02280206=
METAR KCFV 080952Z AUTO 03003KT 10SM BKN025 BKN065 OVC110 22/21 
    A3004 RMK AO2 SLP164 T02220211=
METAR KCID 080952Z 33005KT 10SM CLR 20/19 A3004 RMK AO2 SLP165 
    T02000194=
METAR KCKV 080952Z AUTO 00000KT 10SM FEW070 23/22 A3006 RMK AO2 
    SLP173 T02330217=
METAR KCLK 080953Z AUTO 04006KT 10SM SCT080 22/20 A3007 RMK AO2=
METAR KCLT 080952Z 35004KT 10SM FEW140 21/17 A3001 RMK AO2 SLP152 
    T02110172=
METAR KCNU 080952Z AUTO 03004KT 10SM CLR 22/20 A3004 RMK AO2 SLP161 
    T02170200=
METAR KCSM 080953Z AUTO 35003KT 7SM SCT065 23/21 A3010 RMK AO2 
    SLP171 T02280211=
METAR KCUH 080950Z AUTO 00000KT 10SM BKN013 OVC021 23/23 A3004 
     RMK AO2=
METAR KCVG 080952Z 00000KT 5SM BR CLR 22/19 A3008 RMK AO2 SLP174 
    T02170194=
####018000087####
SACN88 KWBC 080954
METAR CWZN 080900Z AUTO 14011KT 11/ RMK AO1 SLP210 T0106 53004=
####018000095####
SACN97 KWBC 080954
METAR CXLL 080900Z AUTO 20001KT 13/13 RMK AO1 SLP162 T01280128
50000=
####018000095####
SACN89 KWBC 080954
METAR CWDT 080900Z AUTO 31003KT 17/17 RMK AO1 SLP166 T01730173
53002=
####018000134####
SAYE20 OYAA 081000
METAR OYAA 081000Z 21014KT 6000 NSC 35/21 Q1002=
METAR OYSQ 081000Z 21047G57KT 9999 FEW018 SCT200 32/24 Q1006=
####018000110####
SPPR01 SPIM 080922 COR
SPECI
SPIM 080952Z AUTO 17004KT 6000 HZ FEW001 OVC024 16/14 Q1013 NOSIG RMK PP000=
####018003102####
SAUS99 KWBC 080954
METAR
KESN 080950Z 00000KT 1 1/2SM BR VV007 23/23 A3004=
KGLS 080952Z AUTO 11017KT 10SM SCT025 BKN033 28/24 A2990 RMK AO2
     SLP126 T02830244=
KHRL 080952Z AUTO 34006KT 10SM FEW017 BKN047 BKN110 26/26 A2977
     RMK AO2 RAE42 SLP081 P0001 T02560256=
KSJT 080951Z AUTO 23003KT 10SM CLR 21/20 A3002 RMK AO2 SLP140
     T02110200=
K4O4 080948Z AUTO 10003KT 7SM SCT001 SCT007 23/22 A3004 RMK
     AO2=
KADM 080950Z AUTO 00000KT 10SM OVC023 23/23 A3002 RMK AO2=
KAFK 080950Z AUTO 36005KT 7SM CLR 20/19 A3011 RMK AO2
     T01950185=
KAFN 080952Z AUTO 00000KT 5SM BR OVC080 22/21 A3010 RMK AO2 SLP187
     T02220211 $=
KAFW 080953Z 15003KT 10SM FEW018 26/23 A3000 RMK AO2 SLP142
     T02560228=
KAIK 080955Z AUTO 28004KT 10SM CLR 22/22 A3003 RMK AO2 LTG DSNT SE
     PNO=
KALS 080952Z AUTO 14005KT 10SM CLR 07/06 A3041 RMK AO2 SLP243
     T00670056=
KANW 080950Z AUTO 00000KT 10SM SCT120 17/15 A3024 RMK AO2
     T01670150=
KAQW 080952Z AUTO 00000KT 2SM BR CLR 18/18 A3006 RMK AO2 SLP175
     T01830178=
KARR 080952Z AUTO 18003KT 3SM BR BKN018 OVC025 22/22 A3003 RMK AO2
     SLP163 T02220217 $=
KARW 080955Z AUTO 26005KT 10SM CLR 24/18 A2997 RMK AO2=
KATL 080952Z 29003KT 10SM CLR 24/19 A3004 RMK AO2 SLP159
     T02390189=
KAUH 080950Z AUTO 34004KT 10SM CLR 16/15 A3018 RMK AO2
     T01550145=
KAUN 080950Z AUTO 13003KT 10SM CLR 21/13 A2987 RMK AO1=
KAXS 080950Z AUTO 00000KT 10SM RA OVC031 24/22 A3007 RMK AO2 LTG
     DSNT SW T02360215=
KAXX 080950Z AUTO 10003KT 10SM CLR 04/03 A3048 RMK AO2=
KBDN 080955Z AUTO 00000KT 10SM CLR 13/02 A3010 RMK AO2=
KBDR 080952Z AUTO 07005KT 2SM BR OVC002 24/23 A3004 RMK AO2 SLP171
     T02440228=
KBIE 080950Z AUTO 35006KT 10SM CLR 19/17 A3013 RMK AO2
     T01850173=
KBIS 080952Z AUTO 00000KT 10SM CLR 13/10 A3013 RMK AO2 SLP201
     T01280100=
KBLF 080952Z AUTO 25004KT 6SM HZ CLR 22/17 A3019 RMK AO2 SLP174
     T02170172=
KBLH 080952Z AUTO 20005KT 10SM CLR 30/M04 A2971 RMK AO2 SLP054
     T03001039=
KBML 080952Z AUTO 00000KT M1/4SM FG VV001 20/20 A3010 RMK AO2
     SLP186 T02000200 $=
KBTA 080950Z AUTO 01004KT 10SM CLR 19/17 A3013 RMK AO2
     T01900171=
KBVS 080950Z AUTO 03008KT 10SM CLR 21/13 A2997 RMK A01 P000=
KCDS 080953Z AUTO 03005KT 10SM SCT041 23/21 A3010 RMK AO2 LTG DSNT
     SE SLP164 T02280206=
KCFV 080952Z AUTO 03003KT 10SM BKN025 BKN065 OVC110 22/21 A3004
     RMK AO2 SLP164 T02220211=
KCID 080952Z 33005KT 10SM CLR 20/19 A3004 RMK AO2 SLP165
     T02000194=
KCKV 080952Z AUTO 00000KT 10SM FEW070 23/22 A3006 RMK AO2 SLP173
     T02330217=
KCLK 080953Z AUTO 04006KT 10SM SCT080 22/20 A3007 RMK AO2=
KCLT 080952Z 35004KT 10SM FEW140 21/17 A3001 RMK AO2 SLP152
     T02110172=
KCNU 080952Z AUTO 03004KT 10SM CLR 22/20 A3004 RMK AO2 SLP161
     T02170200=
KCSM 080953Z AUTO 35003KT 7SM SCT065 23/21 A3010 RMK AO2 SLP171
     T02280211=
KCUH 080950Z AUTO 00000KT 10SM BKN013 OVC021 23/23 A3004 RMK
     AO2=
KCVG 080952Z 00000KT 5SM BR CLR 22/19 A3008 RMK AO2 SLP174
     T02170194=
####018000278####
SAGL31 BGSF 080950
METAR BGSF 080950Z 07007KT 9999 BKN070 11/02 Q1009=
METAR BGBW 080953Z NIL=
METAR BGGH 080950Z 28004KT 250V310 9999 OVC004 05/03 Q1010=
METAR BGJN 080950Z 26002KT 9999 VCFG FEW200 07/05 Q1010=
METAR BGKK 080950Z 07011KT 9999 FEW140 SCT160 07/03 Q1009=
####018000088####
SAZA42 FAJS 081000
METAR FAJS 081000Z 06009KT 030V110 9999 SCT030 14/06 Q1036 NOSIG=
####018000613####
SASN31 ESWI 080950
METAR ESGG 080950Z NIL=
METAR ESGJ 080950Z AUTO 22015KT 9999NDV BKN042/// BKN050/// 22/10
Q1019=
METAR ESGP 080950Z 19013KT 9999 -RA SCT033CB OVC061 19/15 Q1018=
METAR ESGT 080950Z 21011KT 9999 BKN035 20/12 Q1017=
METAR ESMK 080950Z 19004KT 140V240 CAVOK 25/12 Q1020=
METAR ESMQ 080950Z 18010KT CAVOK 23/12 Q1020=
METAR ESMS 080950Z 20011KT CAVOK 23/10 Q1021=
METAR ESMT 080950Z 18010KT 150V210 CAVOK 22/13 Q1020=
METAR ESMX 080950Z 25009KT CAVOK 23/11 Q1020=
METAR ESTA 080950Z 17012KT CAVOK 22/15 Q1020=
METAR ESTL 080950Z AUTO 21009KT 9999NDV FEW028/// BKN054/// 23/12
Q1020=
####018000514####
SADL31 EDZO 080950
METAR EDDF 080950Z 21002KT CAVOK 28/10 Q1021 NOSIG=
METAR EDDH 080950Z 15007KT CAVOK 27/12 Q1019 NOSIG=
METAR EDDK 080950Z 21005KT 180V240 CAVOK 29/10 Q1020 NOSIG=
METAR EDDL 080950Z 18005KT CAVOK 28/09 Q1019 NOSIG=
METAR EDDM 080950Z 07007KT CAVOK 22/07 Q1023 NOSIG=
METAR EDDN 080950Z 13008KT CAVOK 25/08 Q1022 NOSIG=
METAR EDDS 080950Z VRB03KT CAVOK 25/08 Q1022 NOSIG=
METAR EDDT 080950Z VRB03KT CAVOK 26/07 Q1022 NOSIG=
METAR EDDV 080950Z 21006KT 180V270 CAVOK 28/10 Q1020 NOSIG=
####018000091####
SAHW31 PWAK 080953
METAR PWAK 080952Z 08012KT 7SM HZ FEW022 28/24 A2999 
RMK AO2A
=
####018000124####
SAKA31 PTKR 081000
METAR PTKR 080953Z 00000KT 15SM FEW018CB SCT120 OVC300 28/24 A2982
RMK CB DSNT NE SLP099 T02750243=
####018000187####
SADN33 EKCH 080950
METAR EKKA 080950Z 21005KT 170V250 9999 FEW018 BKN045 18/16
Q1018 TEMPO 4000 SHRA SCT020CB=
METAR EKSP 080950Z 20013KT CAVOK 25/11 Q1018 NOSIG RMK FEW050
BKN120=
####018000400####
SADL32 EDZO 080950
METAR EDDB 080950Z VRB02KT CAVOK 25/08 Q1021 NOSIG=
METAR EDDC 080950Z 28001KT CAVOK 24/09 Q1023 NOSIG=
METAR EDDE 080950Z VRB03KT CAVOK 25/08 Q1022 NOSIG=
METAR EDDG 080950Z 22005KT 160V240 CAVOK 27/10 Q1020 NOSIG=
METAR EDDP 080950Z VRB02KT CAVOK 26/10 Q1022 NOSIG=
METAR EDDR 080950Z VRB02KT CAVOK 26/13 Q1021 NOSIG=
METAR EDDW 080950Z 23006KT CAVOK 29/08 Q1019 NOSIG=
####018000469####
SADN31 EKCH 080950
METAR EKCH 080950Z 18013KT CAVOK 21/15 Q1020 NOSIG=
METAR EKBI 080950Z NIL=
METAR EKYT 080950Z 22010KT 9999 FEW025 BKN030 20/14 Q1017 NOSIG=
METAR EKRK 080950Z AUTO 18011KT 150V210 9999NDV SCT050/// BKN065///
24/12 Q1020=
METAR EKAH 080950Z AUTO 20006KT 140V260 9999NDV OVC048/// 22/14
Q1019=
METAR EKEB 080950Z AUTO 22010KT 9999NDV -SHRA  FEW023/// BKN056///
21/14 Q1018=
METAR EKRN 080950Z AUTO 21005KT 180V240 9999NDV NCD 20/15 Q1022=
####018000123####
SAPQ50 KWBC 081000
METAR
PTKK 080950Z VRB04KT 15SM SCT014CB OVC120 25/23 A2984 RMK CB ALQDS
     SLP106 T02490229=
####018000488####
SAFI31 EFHK 080950
METAR EFHK 080950Z 36006KT 330V040 9999 SCT035 SCT200 29/18 Q1014
NOSIG=
EFJY 080950Z 33003KT 9999 BKN019 BKN080 21/16 Q1016=
METAR EFKU 080950Z AUTO VRB03KT CAVOK 23/17 Q1015=
EFOU 080950Z 18005KT 110V250 9999 FEW025 SCT200 21/13 Q1016=
METAR EFRO 080950Z AUTO VRB03KT 9999NDV FEW034 
20/10 Q1016=
EFTP 080950Z VRB05KT 9999 FEW040 24/14 Q1015=
METAR EFTU 080950Z AUTO VRB04KT CAVOK 26/07 Q1015=
EFVA 080950Z 16004KT 090V250 9999 FEW030 BKN200 23/12 Q1015=
####018000105####
SAAH10 OAKN 081000
METAR OAKN 080950Z 34008KT 9000 HZ FEW120 41/07 Q1008 BLU NOSIG RMK
A2977 DA7100=
####018000736####
SPUS70 KWBC 080954
SPECI
KNSE 080941Z AUTO 00000KT 2SM BR CLR 23/21 A3002 RMK AO2 VIS 1V4
     $=
K7R3 080950Z 04004KT 7SM SKC 24/23 A2999 RMK DA011=
KNSE 080941Z AUTO 00000KT 2SM BR CLR 23/21 A3002 RMK AO2 VIS 1V4
     $=
KACV 080951Z AUTO 28003KT 3SM BR OVC001 10/09 A2996 RMK AO2=
KFIG 080951Z AUTO 35005KT 2SM BR CLR 17/17 A3012 RMK AO2=
KGUY 080951Z AUTO 20004KT 2SM RA BR FEW004 BKN030 OVC045 18/18
     A3023 RMK AO2 TSB16E31 P0026=
KMIV 080951Z AUTO 10003KT 1 3/4SM BR SCT003 SCT100 23/22 A3000 RMK
     AO2=
KPNE 080951Z 12006KT 3SM BR FEW006 24/23 A3003 RMK AO2=
KPRB 080951Z AUTO 00000KT 10SM BKN009 12/10 A2990 RMK AO2=
KRHI 080951Z AUTO 00000KT 1 3/4SM BR FEW001 18/17 A3003 RMK
     AO2=
####018003238####
SAUS80 KWBC 081000
METAR
KEHA 080948Z AUTO 36005KT 18/17 RMK AO1 PK WND 06 014
     T01780167=
KSAN 080951Z 33004KT 10SM FEW010 OVC019 17/14 A2991 RMK AO2 SLP127
     T01670139=
KORF 080951Z 08006KT 9SM BKN120 26/23 A2996 RMK AO2 SLP145
     T02560233=
KCAK 080951Z 00000KT 6SM HZ CLR 21/18 A3009 RMK AO2 SLP179
     T02110183=
KCON 080951Z AUTO 00000KT 4SM BR FEW050 BKN080 23/21 A3006 RMK AO2
     SLP178 T02280211=
KATT 080951Z AUTO 00000KT 8SM -RA BKN012 BKN016 OVC025 26/24 A2996
     RMK AO2 RAB42 SLP131 P0000 T02560239 $=
KALB 080951Z 00000KT 4SM BR FEW100 23/21 A3003 RMK AO2 SLP166
     T02280206=
KBDL 080951Z 15004KT 3SM HZ SCT012 BKN100 24/21 A3004 RMK AO2
     SLP171 T02390211=
KBKW 080951Z AUTO 00000KT 3SM BR FEW070 19/18 A3016 RMK AO2 SLP174
     T01890178 VISNO RWY19 $=
KEKN 080951Z AUTO 00000KT 1 3/4SM BR BKN075 17/16 A3016 RMK AO2
     SLP200 T01670161 TSNO=
KELP 080951Z 36010KT 10SM FEW035 BKN060 BKN100 22/14 A3012 RMK AO2
     SLP122 T02220144=
KHTS 080951Z AUTO 00000KT 1 1/4SM BR CLR 21/19 A3008 RMK AO2
     SLP176 T02060194 TSNO=
KMYL 080951Z AUTO 00000KT 10SM CLR 08/06 A3018 RMK AO2 SLP187
     T00830061=
KOXR 080951Z AUTO 29007KT 10SM OVC011 16/12 A2990 RMK AO2 SLP124
     T01560122 $=
KROW 080951Z AUTO 01004KT 10SM FEW095 BKN120 19/16 A3017 RMK AO2
     RAE10 SLP152 P0000 T01940161 TSNO=
KTEB 080951Z 00000KT 3SM MIFG CLR 26/22 A3001 RMK AO2 SLP162
     T02560222=
KYNG 080951Z 00000KT 6SM BR HZ FEW060 20/17 A3010 RMK AO2 SLP181
     T02000172=
KSAD 080951Z AUTO 14010KT 10SM SCT080 24/13 A2999 RMK AO2 SLP093
     T02440128 TSNO=
KCRP 080951Z 01006KT 9SM -RA SCT021 SCT028 OVC050 26/25 A2983 RMK
     AO2 TSE35 SLP100 TS DSIPT P0052 T02560250=
KSMX 080951Z AUTO 00000KT 8SM OVC009 13/11 A2992 RMK AO2 SLP133
     T01280106 TSNO $=
KABE 080951Z AUTO 34004KT 5SM BR CLR 22/20 A3003 RMK AO2 SLP164
     T02220200 TSNO=
KP59 080951Z AUTO 02003KT 17/15 A2998 RMK AO2 SLP145 T01670150
     PWINO TSNO=
KNYC 080951Z AUTO 00000KT 4SM HZ FEW095 26/23 A3005 RMK AO2 SLP166
     T02560228 TSNO $=
KP58 080951Z AUTO 00000KT 24/21 A2999 RMK AO2 SLP145 T02440211
     PWINO TSNO=
KVCT 080951Z AUTO 07009KT 3SM +RA BR SCT015 BKN026 OVC095 25/24
     A2988 RMK AO2 RAB0853E21B47 SLP116 P0017 T02500244=
KSNT 080951Z AUTO 00000KT 03/M01 A3032 RMK AO2 SLP191 T00281006
     PWINO TSNO=
KGDP 080951Z AUTO 06014G21KT 1/4SM FG VV005 17/17 A3023 RMK AO2
     RAB0853E36 SLP161 P0000 T01670167 TSNO=
KHSE 080951Z AUTO 06006KT 9SM BKN110 24/24 A2992 RMK AO2 SLP132
     T02440244 TSNO=
KESN 080950Z 00000KT 1 1/2SM BR VV007 23/23 A3004=
KREO 080952Z AUTO 06006KT 12/M01 A3010 RMK AO2 SLP157 T01221011
     PWINO TSNO=
KMLF 080952Z AUTO 00000KT 10SM CLR 12/01 A3010 RMK AO2 SLP130
     T01170011 TSNO=
KN60 080952Z AUTO 28003KT 12/10 A3010 RMK AO1 SLP192 T01170100=
KALS 080952Z AUTO 14005KT 10SM CLR 07/06 A3041 RMK AO2 SLP243
     T00670056=
KBDR 080952Z AUTO 07005KT 2SM BR OVC002 24/23 A3004 RMK AO2 SLP171
     T02440228=
KCID 080952Z 33005KT 10SM CLR 20/19 A3004 RMK AO2 SLP165
     T02000194=
KCNU 080952Z AUTO 03004KT 10SM CLR 22/20 A3004 RMK AO2 SLP161
     T02170200=
####018000701####
SPXX60 KWBC 080954
SPECI
KDTS 080950Z AUTO 00000KT 1SM BR VV001 25/23 A3001 RMK AO2=
KAFF 080950Z AUTO 18008KT 10SM OVC010 12/12 A3039 RMK AO2 CIG
     006V013 SLP203=
KDTS 080950Z AUTO 00000KT 1SM BR VV001 25/23 A3001 RMK AO2=
KFCS 080949Z AUTO 19005KT 10SM BKN030 14/11 A3037 RMK AO2
     SLP213=
KOZR 080950Z AUTO 00000KT 6SM R06/4500V5500FT BR CLR 22/22 A3002
     RMK AO2 SLP163=
KWRI 080950Z AUTO 11004KT M1/4SM R18/0200V3000FT R24/0300V0700FT
     FG VV001 23/23 A3000 RMK AO2 BKN V SCT SLP160 $=
KWRI 080951Z AUTO 11005KT M1/4SM R18/0200V1800FT R24/0300V0700FT
     FG VV001 23/23 A3000 RMK AO2 SLP160 $=
KDNK 080951Z AUTO 08003KT 9SM SCT018 24/22 A3000 RMK AO2=
####018000512####
SAAS31 KWBC 080930 RRC
METAR
VAAH 080940Z 17008KT 3500 HZ SCT018 SCT080 29/23 Q1004 NOSIG=
VABB 080940Z 16007KT 2700 HZ SCT010 SCT015 FEW025TCU BKN090 28/25
     Q1007 TEMPO 1500 SHRA=
VANP 080940Z 33005KT 2000 -RA FEW010 SCT015 FEW025CB OVC080 28/26
     Q1005 TEMPO 1500M IN RA/TSRA=
VOHY 080940Z 26008KT 5000 -DZ SCT015 SCT025 BKN080 25/21 Q1011
     NOSIG=
VOMM 080940Z 12006KT 4000 HZ SCT015 SCT100 OVC200 28/26 Q1008
     NOSIG=
VOTR 080940Z VRB04KT 6000 SCT020 OVC100 34/23 Q1008=
####018000081####
SABZ20 SBBE 081000
METAR SBBE 081000Z 10005KT 9999 FEW017 BKN080 25/22 Q1013=
####018002366####
SAUS70 KWBC 081000 RRA
METAR
KADM 080950Z AUTO 00000KT 10SM OVC023 23/23 A3002 RMK AO2=
KAFK 080950Z AUTO 36005KT 7SM CLR 20/19 A3011 RMK AO2
     T01950185=
KAFN 080952Z AUTO 00000KT 5SM BR OVC080 22/21 A3010 RMK AO2 SLP187
     T02220211 $=
KAFW 080953Z 15003KT 10SM FEW018 26/23 A3000 RMK AO2 SLP142
     T02560228=
KAIK 080955Z AUTO 28004KT 10SM CLR 22/22 A3003 RMK AO2 LTG DSNT SE
     PNO=
KANW 080950Z AUTO 00000KT 10SM SCT120 17/15 A3024 RMK AO2
     T01670150=
KAQW 080952Z AUTO 00000KT 2SM BR CLR 18/18 A3006 RMK AO2 SLP175
     T01830178=
KARR 080952Z AUTO 18003KT 3SM BR BKN018 OVC025 22/22 A3003 RMK AO2
     SLP163 T02220217 $=
KARW 080955Z AUTO 26005KT 10SM CLR 24/18 A2997 RMK AO2=
KATL 080952Z 29003KT 10SM CLR 24/19 A3004 RMK AO2 SLP159
     T02390189=
KAUH 080950Z AUTO 34004KT 10SM CLR 16/15 A3018 RMK AO2
     T01550145=
KAUN 080950Z AUTO 13003KT 10SM CLR 21/13 A2987 RMK AO1=
KAXS 080950Z AUTO 00000KT 10SM RA OVC031 24/22 A3007 RMK AO2 LTG
     DSNT SW T02360215=
KAXX 080950Z AUTO 10003KT 10SM CLR 04/03 A3048 RMK AO2=
KBDN 080955Z AUTO 00000KT 10SM CLR 13/02 A3010 RMK AO2=
KBIE 080950Z AUTO 35006KT 10SM CLR 19/17 A3013 RMK AO2
     T01850173=
KBIS 080952Z AUTO 00000KT 10SM CLR 13/10 A3013 RMK AO2 SLP201
     T01280100=
KBLF 080952Z AUTO 25004KT 6SM HZ CLR 22/17 A3019 RMK AO2 SLP174
     T02170172=
KBLH 080952Z AUTO 20005KT 10SM CLR 30/M04 A2971 RMK AO2 SLP054
     T03001039=
KBML 080952Z AUTO 00000KT M1/4SM FG VV001 20/20 A3010 RMK AO2
     SLP186 T02000200 $=
KBTA 080950Z AUTO 01004KT 10SM CLR 19/17 A3013 RMK AO2
     T01900171=
KBVS 080950Z AUTO 03008KT 10SM CLR 21/13 A2997 RMK A01 P000=
KCDS 080953Z AUTO 03005KT 10SM SCT041 23/21 A3010 RMK AO2 LTG DSNT
     SE SLP164 T02280206=
KCFV 080952Z AUTO 03003KT 10SM BKN025 BKN065 OVC110 22/21 A3004
     RMK AO2 SLP164 T02220211=
KCKV 080952Z AUTO 00000KT 10SM FEW070 23/22 A3006 RMK AO2 SLP173
     T02330217=
KCLK 080953Z AUTO 04006KT 10SM SCT080 22/20 A3007 RMK AO2=
KCLT 080952Z 35004KT 10SM FEW140 21/17 A3001 RMK AO2 SLP152
     T02110172=
KCSM 080953Z AUTO 35003KT 7SM SCT065 23/21 A3010 RMK AO2 SLP171
     T02280211=
KCUH 080950Z AUTO 00000KT 10SM BKN013 OVC021 23/23 A3004 RMK
     AO2=
KCVG 080952Z 00000KT 5SM BR CLR 22/19 A3008 RMK AO2 SLP174
     T02170194=
####018000099####
SPUS70 KWBC 080954 CCA
SPECI
KNSE 080948Z AUTO 00000KT 1 1/4SM BR CLR 23/21 A3002 RMK AO2 $=
####018000215####
SADN34 EKCH 080950
METAR EKGF 080950Z 22011KT CAVOK 16/16 Q1017=
METAR EKHN 080950Z AUTO 22004KT 150V310 9999NDV -RA  BKN046///
17/14 Q1019 RERA=
METAR EKHR 080950Z AUTO 22011KT 9999NDV OVC048/// 18/15 Q1018=
####018000087####
SAAF31 KWBC 080900 RRH
METAR
DNMM 080930Z 00000KT 9999 BKN011 27/25 Q1016 NOSIG=
####018003689####
SAUS70 KWBC 081000
METAR
KACT 080951Z 09005KT 10SM FEW012 SCT021 OVC031 26/23 A2998 RMK AO2
     SLP145 T02560233=
K1F0 080947Z AUTO 00000KT 10SM SCT033 SCT040 OVC048 24/24 A3001
     RMK AO2=
KADH 080950Z AUTO 00000KT 7SM SCT023 SCT032 23/21 A3003 RMK
     AO2=
KAHN 080951Z AUTO 00000KT 7SM CLR 21/19 A3002 RMK AO2 SLP158
     T02110194 $=
KALM 080950Z AUTO 14005KT 10SM CLR 17/13 A3014 RMK AO2=
KASH 080951Z 13005KT 3SM BR OVC008 23/22 A3008 RMK AO2 T02330216
     SLP185=
KATS 080950Z AUTO 34008KT 10SM -RA FEW043 19/18 A3016 RMK AO2
     P0001=
KAVX 080951Z AUTO 28004KT 1/4SM FG VV001 12/12 A2992 RMK AO2
     SLP124 T01170117 TSNO=
KBAZ 080951Z AUTO 05005KT 10SM FEW031 25/24 A2992 RMK AO2 SLP123
     T02500239=
KBGD 080951Z AUTO 34005KT 10SM BKN020 BKN060 OVC080 19/18 A3019
     RMK AO2 RAB0853E42 SLP183 P0001 T01890178=
KCHK 080951Z AUTO 00000KT 10SM SCT090 SCT110 22/22 A3004 RMK
     AO2=
KCLE 080951Z 00000KT 7SM FEW060 22/18 A3008 RMK AO2 SLP177
     T02220178 $=
KCMH 080951Z 00000KT 7SM SCT060 22/19 A3007 RMK AO2 SLP176
     T02170194 $=
KCQB 080950Z AUTO 02003KT 5SM +RA 23/23 A3004 RMK AO2 TSNO=
KCSG 080951Z 00000KT 10SM CLR 24/20 A3002 RMK AO2 SLP160
     T02390200=
KDAW 080951Z AUTO 17003KT 1SM BR OVC003 22/21 A3007 RMK AO2 SLP177
     T02170206 $=
KDUC 080952Z AUTO 05003KT 10SM CLR 22/22 A3004 RMK AO2=
KERI 080951Z 20004KT 6SM HZ CLR 22/18 A3006 RMK AO2 SLP174
     T02170183=
KEWR 080951Z 00000KT 4SM BR BKN110 BKN250 26/25 A3002 RMK AO2
     SLP165 T02560250=
KGMJ 080954Z AUTO 00000KT 26/26 A3004 RMK AO2 P0004 PWINO=
KHDO 080951Z AUTO 04005KT 10SM BKN026 24/23 A2996 RMK AO2 SLP127
     T02440228=
KILG 080951Z AUTO 00000KT 2 1/2SM BR BKN006 24/23 A3002 RMK AO2
     SLP164 T02440228 $=
KJFK 080951Z 13003KT 3SM BR SCT005 SCT090 BKN120 BKN250 26/23
     A3003 RMK AO2 SLP168 T02560233 $=
KLGA 080951Z 04006KT 3SM HZ BKN095 BKN250 25/22 A3002 RMK AO2
     SLP164 T02500222=
KLGU 080951Z AUTO 03005KT 10SM CLR 14/06 A3014 RMK AO2 SLP159
     T01390061=
KMDW 080951Z 00000KT 7SM FEW020 SCT042 SCT080 OVC130 24/22 A3002
     RMK AO2 RAE17 SLP152 P0000 T02390217=
KMPV 080951Z AUTO 00000KT 1 3/4SM BR CLR 19/19 A3011 RMK AO2
     SLP189 T01940189=
KOKM 080951Z AUTO 00000KT 10SM VCTS BKN005 OVC010 25/25 A3003 RMK
     AO1 LTG DSNT N=
KONM 080947Z AUTO 17004KT 10SM CLR 19/14 A3022 RMK AO2
     T01860136=
KORD 080951Z 18003KT 10SM FEW025 BKN150 23/22 A3002 RMK AO2 SLP159
     T02280222=
KPHX 080951Z 23004KT 10SM FEW170 32/02 A2975 RMK AO2 SLP051
     T03220017 $=
KPIT 080951Z 00000KT 5SM BR SCT038 SCT250 21/19 A3009 RMK AO2
     SLP186 T02110189=
KPWM 080951Z 18006KT 7SM OVC006 21/20 A3008 RMK AO2 SLP185
     T02060200 $=
KRDU 080951Z 35004KT 6SM HZ FEW090 24/19 A2998 RMK AO2 SLP144
     T02440189 $=
KSLK 080951Z AUTO 00000KT 2 1/2SM BR CLR 17/16 A3008 RMK AO2
     SLP177 T01720156=
KSMO 080951Z AUTO 00000KT 10SM OVC011 17/13 A2990 RMK AO2 SLP125
     T01670128=
KSTL 080951Z 00000KT 10SM FEW046 SCT090 BKN150 BKN250 25/23 A3003
     RMK AO2 SLP157 TCU DSNT E T02500228=
KVNY 080951Z AUTO 13003KT 6SM HZ OVC008 16/13 A2990 RMK AO2 SLP117
     T01560128=
KJCT 080951Z AUTO 00000KT 8SM BKN036 23/21 A3001 RMK AO2 SLP123
     T02280211 TSNO=
KGLS 080952Z AUTO 11017KT 10SM SCT025 BKN033 28/24 A2990 RMK AO2
     SLP126 T02830244=
KHRL 080952Z AUTO 34006KT 10SM FEW017 BKN047 BKN110 26/26 A2977
     RMK AO2 RAE42 SLP081 P0001 T02560256=
KSJT 080951Z AUTO 23003KT 10SM CLR 21/20 A3002 RMK AO2 SLP140
     T02110200=
K4O4 080948Z AUTO 10003KT 7SM SCT001 SCT007 23/22 A3004 RMK
     AO2=
####018000109####
SAUS44 KSJT 080953
MTRABI
METAR KABI 080952Z 02004KT 9SM CLR 22/21 A3005 RMK AO2 SLP148 
T02170211 $
####018000263####
SADN32 EKCH 080950
METAR EKVJ 080950Z NIL=
METAR EKSB 080950Z 18007KT 140V210 CAVOK 24/12 Q1018=
METAR EKSN 080950Z 22009KT 9999 SCT023 BKN047 20/15 Q1017=
METAR EKVD 080950Z 22010KT CAVOK 24/13 Q1018=
METAR EKOD 080950Z 19008KT 160V220 CAVOK 24/12 Q1019=
####018000116####
SAXX60 KWBC 081000
METAR
KNHK 080952Z AUTO 09004KT 3SM BR BKN009 26/24 A2999 RMK AO2 SLP155
     T02610239=
####018000433####
SADL33 KWBC 080945 RRA
METAR
EDDB 080950Z VRB02KT CAVOK 25/08 Q1021 NOSIG=
EDDC 080950Z 28001KT CAVOK 24/09 Q1023 NOSIG=
EDDG 080950Z 22005KT 160V240 CAVOK 27/10 Q1020 NOSIG=
EDDP 080950Z VRB02KT CAVOK 26/10 Q1022 NOSIG=
EDDR 080950Z VRB02KT CAVOK 26/13 Q1021 NOSIG=
EDDT 080950Z VRB03KT CAVOK 26/07 Q1022 NOSIG=
EDDV 080950Z 21006KT 180V270 CAVOK 28/10 Q1020 NOSIG=
EDDW 080950Z 23006KT CAVOK 29/08 Q1019 NOSIG=
####018000081####
SAEW31 KWBC 080930 RRB
METAR
LXGB 080950Z 07013KT CAVOK 26/17 Q1016 NOSIG=
####018000100####
SAFK41 EGYP 080950
METAR EGYP 080950Z 02017KT 3500 DZ FEW006 BKN015 OVC045 05/04 Q0995
 YLO1=
####018000115####
SAUS46 KSGX 080953
MTRCZZ
METAR KCZZ 080952Z AUTO 00000KT 09/08 A2988 RMK AO2 SLP090 T00940083 
PWINO TSNO
####018000964####
SAUS20 KNKA 080953
METAR KTOL 080952Z 00000KT 8SM CLR 21/18 A3004 RMK AO2 SLP168 
    T02110183=
METAR KTQH 080954Z AUTO 12003KT 10SM OVC020 23/23 A3004 RMK AO2=
METAR KTRL 080953Z AUTO 14004KT 10SM BKN022 27/22 A3001 RMK AO2 
    SLP155 T02670222=
METAR KTRM 080952Z AUTO 33009KT 10SM CLR 25/12 A2968 RMK AO2 SLP055 
    T02500122=
METAR KTXK 080953Z AUTO 00000KT 4SM BR BKN003 23/23 A3004 RMK AO2 
    CIG 001V007 SLP166 T02330233=
METAR KTYR 080953Z AUTO 10003KT 10SM CLR 25/24 A3003 RMK AO2 SLP160 
    T02500239=
METAR KUDG 080955Z 32005KT 10SM CLR 23/18 A2998 RMK AO1=
METAR KUGN 080952Z AUTO 15005KT 7SM BKN110 23/21 A3000 RMK AO2 
    RAB36E46 SLP149 P0000 T02280211=
METAR KVTN 080952Z AUTO 21004KT 10SM OVC120 16/14 A3023 RMK AO2 
    SLP225 T01560144=
METAR KWDG 080950Z AUTO 00000KT 10SM CLR 21/21 A3007 RMK AO2=
METAR KWWR 080949Z AUTO 03005KT 10SM -RA SCT021 SCT038 BKN120 
     22/21 A3015 RMK AO2 T02200210=
####018002927####
SAUS20 KNKA 080953
METAR KMKE 080952Z 17005KT 8SM -RA FEW065 BKN085 BKN110 23/21 A2999 
    RMK AO2 SLP150 P0002 T02280211=
METAR KMKO 080953Z AUTO 16006KT 10SM VCTS FEW021 OVC028 23/23 A3003 
    RMK AO2 TSB40 SLP160 T02330228=
METAR KMLC 080953Z AUTO 18003KT 10SM CLR 24/23 A3003 RMK AO2 SLP159 
    T02390228=
METAR KMLI 080952Z 00000KT 8SM OVC009 23/22 A3002 RMK AO2 SLP161 
    T02280217 $=
METAR KMWH 080952Z AUTO 36007KT 10SM CLR 15/07 A3001 RMK AO2 SLP154 
    T01500072=
METAR KOAJ 080955Z AUTO 35003KT 10SM CLR 22/20 A2993 RMK AO1=
METAR KOCF 080955Z AUTO 00000KT 7SM CLR 20/20 A3001 RMK AO1=
METAR KODO 080953Z AUTO VRB05KT 10SM SCT100 21/20 A3009 RMK AO2 
    SLP144 T02110200=
METAR KOJA 080950Z AUTO 34003KT 10SM SCT090 22/21 A3008 RMK AO2=
METAR KOKB 080952Z AUTO 00000KT 9SM OVC014 18/14 A2989 RMK AO2 
    SLP121 T01780139=
METAR KOKC 080952Z 34005KT 10SM FEW055 SCT130 BKN200 23/22 A3005 RMK 
    AO2 SLP160 T02330222=
METAR KOMA 080952Z 35005KT 10SM FEW022 SCT130 19/18 A3013 RMK AO2 
    SLP196 T01940183=
METAR KONP 080950Z AUTO 20006KT 10SM OVC004 11/10 A3000 RMK AO1=
METAR KORE 080952Z AUTO 00000KT 5SM BR FEW010 OVC080 23/22 A3007 RMK 
    AO2 SLP177 T02280217=
METAR KORS 080950Z AUTO 00000KT 10SM CLR 15/12 A2995 RMK AO2=
METAR KPLU 080950Z AUTO 00000KT 10SM FEW036 FEW055 13/13 A2994 
     RMK AO2=
METAR KPPF 080952Z AUTO 00000KT 10SM CLR 22/21 A3004 RMK AO2 SLP161 
    T02220206=
METAR KPTS 080950Z AUTO 00000KT 10SM SCT026 BKN090 22/ A3003 RMK 
     AO2 T0220=
METAR KPWA 080953Z 36005KT 7SM CLR 23/21 A3005 RMK AO2 SLP161 
    T02280211=
METAR KPWK 080952Z AUTO 17004KT 7SM FEW065 23/22 A3003 RMK AO2 
    SLP164 T02280217=
METAR KPYM 080952Z AUTO 00000KT 8SM OVC006 23/21 A3009 RMK AO2 
    SLP188 T02280206=
METAR KRAP 080952Z AUTO 29005KT 10SM CLR 11/08 A3025 RMK AO2 SLP231 
    T01110083=
METAR KRBD 080953Z 11005KT 10SM SCT008 BKN012 25/23 A3000 RMK AO2 
    SLP149 T02500233=
METAR KSGF 080952Z 17005KT 9SM CLR 23/23 A3004 RMK AO2 LTG DSNT N 
    AND W SLP156 T02330228=
METAR KSNL 080952Z AUTO 35004KT 7SM OVC006 24/24 A3004 RMK AO2 
     LTG DSNT NE=
METAR KSOP 080955Z AUTO 00000KT 10SM CLR 24/17 A2997 RMK AO1=
METAR KSPI 080952Z AUTO 00000KT 7SM CLR 23/23 A3003 RMK AO2 SLP164 
    T02330228=
METAR KSPS 080952Z 05004KT 10SM SCT150 BKN250 23/22 A3003 RMK AO2 
    SLP155 T02280217=
METAR KSRE 080950Z AUTO 24004KT 3SM -RA 24/24 A3002 RMK AO2 LTG 
     DSNT NE=
METAR KSUX 080952Z 31003KT 10SM CLR 17/15 A3015 RMK AO2 SLP205 
    T01670150=
METAR KSVC 080950Z AUTO 08011KT 10SM FEW100 18/14 A3021 RMK AO2=
METAR KTAN 080952Z AUTO 16004KT 4SM BR OVC002 21/21 A3007 RMK AO2 
    SLP181 T02110211=
METAR KTKI 080953Z AUTO 17004KT 10SM CLR 26/23 A3001 RMK AO2 PK WND 
    21076/0941 SLP156 T02560233=
METAR KTMK 080953Z AUTO 15004KT 7SM OVC006 12/12 A2996 RMK AO2=
####018002903####
SAUS20 KNKA 080953
METAR KDCA 080952Z 06006KT 6SM HZ FEW050 27/22 A3000 RMK AO2 SLP158 
    T02720217=
METAR KDDC 080952Z AUTO 03007KT 5SM BR BKN007 18/17 A3017 RMK AO2 
    SLP192 T01830172=
METAR KDPA 080952Z 15003KT 5SM BR SCT022 SCT060 BKN075 23/22 A3002 
    RMK AO2 SLP160 T02280217=
METAR KDUA 080957Z AUTO 14005KT 10SM -RA SCT085 25/24 A3003 RMK 
     AO2=
METAR KDVN 080952Z AUTO 21003KT 6SM BR OVC005 22/21 A3003 RMK AO2 
    CIG 002V008 SLP163 T02220211=
METAR KEST 080952Z AUTO 31007KT 10SM CLR 16/14 A3013 RMK AO2 SLP199 
    P0001 T01610144=
METAR KFDR 080953Z AUTO 00000KT 10SM 24/23 A3003 RMK AO2 SLP154 
    T02390228=
METAR KFDW 080955Z AUTO 26005KT 10SM CLR 25/17 A3000 RMK AO1=
METAR KFET 080950Z AUTO 33004KT 10SM CLR 18/17 A3014 RMK AO2=
METAR KFIT 080952Z AUTO 15007KT 4SM BR OVC008 23/21 A3008 RMK AO2 
    CIG 007V011 SLP184 T02330211=
METAR KFTW 080953Z 12005KT 10SM FEW013 25/23 A2999 RMK AO2 SLP147 
    T02500233=
METAR KGCD 080950Z AUTO 12011KT 10SM CLR 15/04 A3010 RMK AO2 
     T01530040=
METAR KGCM 080956Z AUTO 00000KT 4SM +RA SCT001 OVC012 23/23 A3005 
     RMK AO2 LTG DSNT SW P0006=
METAR KGKY 080953Z AUTO 13004KT 10SM CLR 25/23 A3000 RMK AO2 SLP149 
    T02500228=
METAR KGLY 080955Z AUTO 00000KT 8SM CLR 22/22 A3003 RMK AO2 =
METAR KHUT 080952Z AUTO 01004KT 6SM BR CLR 22/21 A3012 RMK AO2 
    SLP178 T02170206=
METAR KIAD 080952Z 00000KT 7SM BKN100 BKN250 26/21 A3001 RMK AO2 
    SLP157 T02610211=
METAR KIDP 080950Z AUTO 00000KT 10SM SCT036 SCT055 21/20 A3003 
     RMK AO2 LTG DSNT S=
METAR KIEN 080952Z AUTO 05004KT 10SM CLR 08/08 A3027 RMK AO2 SLP241 
    T00830078=
METAR KIJD 080952Z AUTO VRB04KT 2 1/2SM BR OVC003 23/22 A3007 RMK 
    AO2 SLP180 T02280222=
METAR KIOW 080952Z AUTO 30003KT 10SM FEW095 22/21 A3004 RMK AO2 
    SLP169 T02170206=
METAR KISN 080952Z 21004KT 10SM CLR 13/11 A3012 RMK AO2 SLP195 
    T01280111=
METAR KIZA 080949Z AUTO 00000KT 10SM OVC009 13/11 A2990 RMK AO2=
METAR KLAM 080950Z AUTO 21008KT 10SM CLR 14/10 A3037 RMK AO2=
METAR KLAW 080953Z AUTO 04004KT 10SM FEW041 23/22 A3005 RMK AO2 
    SLP163 T02280222=
METAR KLBB 080953Z 01010KT 10SM -RA FEW011 SCT075 OVC100 19/17 A3014 
    RMK AO2 RAB53 SLP160 -RA AT AP P0000 T01940172=
METAR KLRU 080951Z AUTO 00000KT 10SM CLR 20/15 A3016 RMK AO2=
METAR KLWC 080952Z AUTO 00000KT 10SM SCT090 22/21 A3005 RMK AO2 
    SLP167 T02170206=
METAR KMDH 080952Z AUTO 00000KT 7SM FEW085 23/22 A3005 RMK AO2 
    SLP169 T02330217=
METAR KMEB 080952Z AUTO 31003KT 10SM CLR 23/17 A2995 RMK AO2 SLP138 
    T02280172=
METAR KMEZ 080955Z AUTO 00000KT 10SM SCT015 BKN027 OVC039 26/23 
     A3007 RMK AO2=
METAR KMFD 080952Z AUTO 16003KT 7SM CLR 21/17 A3010 RMK AO2 SLP181 
    T02060167=
METAR KMHK 080952Z AUTO 00000KT 10SM BKN016 22/21 A3010 RMK AO2 
    SLP183 T02170206=
####018000268####
SADN32 EKCH 080950
METAR EKVJ 080950Z NIL=
METAR EKSB 080950Z 18007KT 140V210 CAVOK 24/12 Q1018=
METAR EKSN 080950Z 22009KT 9999 SCT023 BKN047 20/15 Q1017=
METAR EKVD 080950Z 22010KT CAVOK 24/13 Q1018=
METAR EKOD 080950Z 19008KT 160V220 CAVOK 24/12 Q1019=
####018000107####
SAUS42 KWBC 080900 RRF
METAR
KGLE 080948Z AUTO 00000KT 10SM SCT018 BKN060 BKN090 26/23
     A3004=
####018000626####
SASN31 ESWI 080950
METAR ESGG 080950Z NIL=
METAR ESGJ 080950Z AUTO 22015KT 9999NDV BKN042/// BKN050/// 22/10
Q1019=
METAR ESGP 080950Z 19013KT 9999 -RA SCT033CB OVC061 19/15 Q1018=
METAR ESGT 080950Z 21011KT 9999 BKN035 20/12 Q1017=
METAR ESMK 080950Z 19004KT 140V240 CAVOK 25/12 Q1020=
METAR ESMQ 080950Z 18010KT CAVOK 23/12 Q1020=
METAR ESMS 080950Z 20011KT CAVOK 23/10 Q1021=
METAR ESMT 080950Z 18010KT 150V210 CAVOK 22/13 Q1020=
METAR ESMX 080950Z 25009KT CAVOK 23/11 Q1020=
METAR ESTA 080950Z 17012KT CAVOK 22/15 Q1020=
METAR ESTL 080950Z AUTO 21009KT 9999NDV FEW028/// BKN054/// 23/12
Q1020=
####018000299####
SASW32 LSSW 080950
METAR LSGC 080950Z NIL=
METAR LSGS 080950Z 23005KT 190V270 9999 FEW100 27/12 Q1021=
METAR LSZG 080950Z NIL=
METAR LSZR 080950Z 29004KT 260V340 CAVOK 22/15 Q1022 NOSIG RMK G=
METAR LSZS 080950Z 22008KT CAVOK 21/11 Q1027=
METAR LSZC 080950Z VRB04KT CAVOK 24/15 Q1022=
####018000118####
SAUS46 KSTO 080954
MTRBLU
METAR KBLU 080952Z AUTO 05004KT 10SM CLR 22/04 A3009 RMK AO2 SLP081 
T02170044 TSNO
####018000479####
SADN31 EKCH 080950
METAR EKCH 080950Z 18013KT CAVOK 21/15 Q1020 NOSIG=
METAR EKBI 080950Z NIL=
METAR EKYT 080950Z 22010KT 9999 FEW025 BKN030 20/14 Q1017 NOSIG=
METAR EKRK 080950Z AUTO 18011KT 150V210 9999NDV SCT050/// BKN065///
24/12 Q1020=
METAR EKAH 080950Z AUTO 20006KT 140V260 9999NDV OVC048/// 22/14
Q1019=
METAR EKEB 080950Z AUTO 22010KT 9999NDV -SHRA  FEW023/// BKN056///
21/14 Q1018=
METAR EKRN 080950Z AUTO 21005KT 180V240 9999NDV NCD 20/15 Q1022=
####018000160####
SAUS44 KCRP 080954 COR
MTRVCT
METAR KVCT 080951Z AUTO 07009KT 3SM +RA BR SCT015 BKN026 OVC095 
25/24 A2988 RMK AO2 RAB0853E21B47 SLP116 P0017 T02500244
####018000283####
SAGL31 BGSF 080950
METAR BGSF 080950Z 07007KT 9999 BKN070 11/02 Q1009=
METAR BGBW 080953Z NIL=
METAR BGGH 080950Z 28004KT 250V310 9999 OVC004 05/03 Q1010=
METAR BGJN 080950Z 26002KT 9999 VCFG FEW200 07/05 Q1010=
METAR BGKK 080950Z 07011KT 9999 FEW140 SCT160 07/03 Q1009=
####018000131####
SAUS46 KLOX 080954
MTRNZY
METAR KNZY 080952Z 32006KT 8SM FEW008 OVC014 18/14 A2989 RMK AO2 
DZE43 SLP120 P0000 T01780139 $
####018000498####
SAFI31 EFHK 080950
METAR EFHK 080950Z 36006KT 330V040 9999 SCT035 SCT200 29/18 Q1014
NOSIG=
EFJY 080950Z 33003KT 9999 BKN019 BKN080 21/16 Q1016=
METAR EFKU 080950Z AUTO VRB03KT CAVOK 23/17 Q1015=
EFOU 080950Z 18005KT 110V250 9999 FEW025 SCT200 21/13 Q1016=
METAR EFRO 080950Z AUTO VRB03KT 9999NDV FEW034 
20/10 Q1016=
EFTP 080950Z VRB05KT 9999 FEW040 24/14 Q1015=
METAR EFTU 080950Z AUTO VRB04KT CAVOK 26/07 Q1015=
EFVA 080950Z 16004KT 090V250 9999 FEW030 BKN200 23/12 Q1015=
####018000103####
SAPK31 OPSK 080953
METAR OPSK 080955Z 050108KTS 6000 HZ SCT040 SCT100 39/25 QNH 1001
R.H. 46 PC=
####018000113####
SAUS44 KMAF 080954
MTRNFW
METAR KNFW 080952Z AUTO 10003KT 10SM CLR 26/22 A3004 RMK AO2 SLP156 
T02610222
####018000148####
SAUS44 KMAF 080954 COR
MTRGDP
METAR KGDP 080951Z AUTO 06014G21KT 1/4SM FG VV005 17/17 A3023 RMK 
AO2 RAB0853E36 SLP161 P0000 T01670167 TSNO
####018000407####
SAUS43 KWBC 080900 RRK
METAR
KIGQ 080940Z AUTO 00000KT 7SM SCT075 BKN090 23/22 A3002=
KMWA 080945Z AUTO 00000KT 10SM SCT110 24/24 A3005=
KSAR 080945Z AUTO 18004KT 10SM OVC065 26/23 A3004=
KSLO 080940Z AUTO 19004KT 10SM CLR 24/22 A3004=
KTAZ 080945Z AUTO 00000KT 3SM BR CLR 23/23 A3002=
KTIP 080945Z AUTO 00000KT 5SM BR CLR 24/23 A3004=
KVYS 080945Z AUTO 13004KT 4SM BR OVC014 23/22 A3001=
####018000079####
SPUS51 KWBC 080954
SPECI
KPNE 080951Z 12006KT 3SM BR FEW006 24/23 A3003=
####018000083####
SACA01 KMSC 080953
METAR TJPS 080950Z 05005KT 8SM FEW030 25/23 A2997 HZ ALQDS=
####018000093####
SAUS52 KWBC 080900 RRG
METAR
KSEP 080945Z AUTO 00000KT 10SM SCT013 SCT060 23/21 A3002=
####018000105####
SPCN44 CWAO 080952
SPECI CYEK 080952Z AUTO 09003KT 9SM BKN004 BKN026 OVC047 OVC095 07/07
A2960=

####018000068####
SAUS53 KWBC 080900 RRM
METAR
KEHA 080948Z AUTO 36005KT 18/17=
####018000120####
SAUS46 KLOX 080954
MTRSDB
METAR KSDB 080952Z AUTO 33008KT 10SM CLR 18/03 A3002 RMK AO2 SLP108 
T01830028 TSNO $
####018000113####
SAUS42 KJAX 080954
MTRNRB
METAR KNRB 080952Z AUTO 00000KT 10SM CLR 23/21 A2999 RMK AO2 SLP155 
T02330211
####018000069####
SALY31 HLLB 081000
METAR HLLB 080950Z 34019KT CAVOK 30/16 Q1016=
####018000115####
SAUS43 KFSD 080954
MTR9V9
METAR K9V9 080952Z AUTO 28005KT 16/13 A3019 RMK AO2 SLP214 T01560133 
PWINO TSNO
####018001759####
SAEU KAWN 081000
METAR EDDB 080950Z VRB02KT CAVOK 25/08 Q1021 NOSIG=
METAR EDDC 080950Z 28001KT CAVOK 24/09 Q1023 NOSIG=
METAR EDDE 080950Z VRB03KT CAVOK 25/08 Q1022 NOSIG=
METAR EDDF 080950Z 21002KT CAVOK 28/10 Q1021 NOSIG=
METAR EDDG 080950Z 22005KT 160V240 CAVOK 27/10 Q1020 NOSIG=
METAR EDDH 080950Z 15007KT CAVOK 27/12 Q1019 NOSIG=
METAR EDDK 080950Z 21005KT 180V240 CAVOK 29/10 Q1020 NOSIG=
METAR EDDL 080950Z 18005KT CAVOK 28/09 Q1019 NOSIG=
METAR EDDM 080950Z 07007KT CAVOK 22/07 Q1023 NOSIG=
METAR EDDN 080950Z 13008KT CAVOK 25/08 Q1022 NOSIG=
METAR EDDP 080950Z VRB02KT CAVOK 26/10 Q1022 NOSIG=
METAR EDDR 080950Z VRB02KT CAVOK 26/13 Q1021 NOSIG=
METAR EDDS 080950Z VRB03KT CAVOK 25/08 Q1022 NOSIG=
METAR EDDT 080950Z VRB03KT CAVOK 26/07 Q1022 NOSIG=
METAR EDDV 080950Z 21006KT 180V270 CAVOK 28/10 Q1020 NOSIG=
METAR EDDW 080950Z 23006KT CAVOK 29/08 Q1019 NOSIG=
METAR EHEH 080955Z AUTO 26006KT 9999NDV NCD 29/12 Q1019 BLU BLU=
METAR EKAH 080950Z AUTO 20006KT 140V260 9999NDV OVC048/// 22/14 Q1019=
METAR EKVG 080950Z 15012KT 9999 -SHRA SCT004 BKN006 BKN010 10/10 Q0992
      RMK/RWY 13/31 CLOSED DUE WIP/ SEE NOTAM E0050/10 WIND 850FT
      15016G30KT 090V220=
METAR ETNG 080950Z 26006KT CAVOK 28/09 Q1020 NOSIG=
METAR LMML 080945Z 04006KT 330V090 CAVOK 29/21 Q1018 NOSIG=
METAR LPLA 081000Z 22004KT 9999 VCSH FEW008 SCT016 BKN028 20/18 Q1024=
METAR LQTZ 081000Z 21004KT 170V260 9999 FEW040 20/// Q1023=
METAR LSGG 080950Z VRB03KT CAVOK 27/11 Q1022 NOSIG=
METAR LSZA 080950Z 18004KT 140V220 9999 BKN055 26/13 Q1023 NOSIG=
METAR LSZB 080950Z 33004KT 280V020 CAVOK 26/14 Q1022 NOSIG=
METAR LSZH 080950Z VRB02KT CAVOK 25/13 Q1022 NOSIG=
METAR LXGB 080950Z 07013KT CAVOK 26/17 Q1016 NOSIG=
####018001757####
SAEW KAWN 081000
METAR EDDB 080950Z VRB02KT CAVOK 25/08 Q1021 NOSIG=
METAR EDDC 080950Z 28001KT CAVOK 24/09 Q1023 NOSIG=
METAR EDDE 080950Z VRB03KT CAVOK 25/08 Q1022 NOSIG=
METAR EDDF 080950Z 21002KT CAVOK 28/10 Q1021 NOSIG=
METAR EDDG 080950Z 22005KT 160V240 CAVOK 27/10 Q1020 NOSIG=
METAR EDDH 080950Z 15007KT CAVOK 27/12 Q1019 NOSIG=
METAR EDDK 080950Z 21005KT 180V240 CAVOK 29/10 Q1020 NOSIG=
METAR EDDL 080950Z 18005KT CAVOK 28/09 Q1019 NOSIG=
METAR EDDM 080950Z 07007KT CAVOK 22/07 Q1023 NOSIG=
METAR EDDN 080950Z 13008KT CAVOK 25/08 Q1022 NOSIG=
METAR EDDP 080950Z VRB02KT CAVOK 26/10 Q1022 NOSIG=
METAR EDDR 080950Z VRB02KT CAVOK 26/13 Q1021 NOSIG=
METAR EDDS 080950Z VRB03KT CAVOK 25/08 Q1022 NOSIG=
METAR EDDT 080950Z VRB03KT CAVOK 26/07 Q1022 NOSIG=
METAR EDDV 080950Z 21006KT 180V270 CAVOK 28/10 Q1020 NOSIG=
METAR EDDW 080950Z 23006KT CAVOK 29/08 Q1019 NOSIG=
METAR EHEH 080955Z AUTO 26006KT 9999NDV NCD 29/12 Q1019 BLU BLU=
METAR EKAH 080950Z AUTO 20006KT 140V260 9999NDV OVC048/// 22/14 Q1019=
METAR EKCH 080950Z 18013KT CAVOK 21/15 Q1020 NOSIG=
METAR EKRN 080950Z AUTO 21005KT 180V240 9999NDV NCD 20/15 Q1022=
METAR EKSN 080950Z 22009KT 9999 SCT023 BKN047 20/15 Q1017=
METAR EKVG 080950Z 15012KT 9999 -SHRA SCT004 BKN006 BKN010 10/10 Q0992
      RMK/RWY 13/31 CLOSED DUE WIP/ SEE NOTAM E0050/10 WIND 850FT
      15016G30KT 090V220=
METAR EKYT 080950Z 22010KT 9999 FEW025 BKN030 20/14 Q1017 NOSIG=
METAR ETNG 080950Z 26006KT CAVOK 28/09 Q1020 NOSIG=
METAR LSGG 080950Z VRB03KT CAVOK 27/11 Q1022 NOSIG=
METAR LSZA 080950Z 18004KT 140V220 9999 BKN055 26/13 Q1023 NOSIG=
METAR LSZB 080950Z 33004KT 280V020 CAVOK 26/14 Q1022 NOSIG=
METAR LSZH 080950Z VRB02KT CAVOK 25/13 Q1022 NOSIG=
####018000562####
SARS18 KAWN 081000
METAR EETN 080950Z 31009KT CAVOK 23/18 Q1014 NOSIG=
METAR EETU 080950Z VRB02KT 9999 SCT023TCU SCT030 25/20 Q1013=
METAR EFHK 080950Z 36006KT 330V040 9999 SCT035 SCT200 29/18 Q1014 NOSIG=
METAR EVLA 080950Z 32007KT 280V360 CAVOK 21/16 Q1018=
METAR EVRA 080950Z 31010KT 270V330 9999 SCT010 OVC017 19/16 Q1015 NOSIG=
METAR EYKA 080950Z 28007KT 250V340 9999 -RA FEW013 BKN026 OVC039 17/14
      Q1016=
METAR EYPA 080950Z 33006KT CAVOK 21/16 Q1018 NOSIG=
METAR EYVI 080950Z 28009KT 230V310 7000 BKN010 OVC023 16/15 Q1014 NOSIG=
####018000422####
SAXN17 KAWN 081000
METAR MMAN 080949Z 28006KT 10SM SCT040 24/23 A2989 RMK 8/500 RTS=
METAR MPTO 081000Z 00000KT 9999 SCT018 25/24 Q1010 REDZ RWY DAMP=
PAEH SA 0955 AWOS M16 BKN 10 48/-20/0000/000=
PATC SA 0955 AWOS CLR BLO 120 10 46/44/0209/016=
METAR PTKK 080950Z VRB04KT 15SM SCT014CB OVC120 25/23 A2984 RMK CB
      ALQDS SLP106 T02490229=
METAR PWAK 080952Z 08012KT 7SM HZ FEW022 28/24 A2999 RMK AO2A=
####018000740####
SAXX70 KAWN 081000 RRB
METAR KQEL 080950Z AUTO 05001KT 7SM FEW039 25/20 A2970 RMK A02=
METAR KQES 080950Z AUTO 29002KT 5SM -SHRA BKN047 22/20 A2982 RMK A02=
METAR KQEW 080950Z AUTO 19001KT 7SM BKN070 27/21 A2981 RMK A02=
METAR KQFB 080950Z AUTO 27005KT 4SM BR CLR 24/21 A2992 RMK A02=
METAR KQDD 080955Z AUTO VRB02KT 9999 CLR 32/10 A2986 RMK AO2 SLP109=
METAR KQFS 080955Z AUTO 12005G13KT 8000 BR FEW038 SCT140 25/21 A2979
      RMK AO2 SLP083 T02480212 $=
METAR KQGV 080955Z 32027G37KT 5000 BLDU CLR 47/M08 A2958 RMK PK WND
      32045/38 SLP004=
METAR KQTX 080955Z 30006G16KT 9999 CLR 43/M02 A2967 RMK SLP019=
METAR KQXJ 080955Z 31022G32KT 2400 BLDU BKN000 47/00 A2955 RMK DU BKN000
      SLP009 PA+365 DA+4068=
####018000084####
SPUS74 KWBC 080954
SPECI
KACV 080951Z AUTO 28003KT 3SM BR OVC001 10/09 A2996=
####018000082####
SPUS74 KWBC 080954
SPECI
KPRB 080951Z AUTO 00000KT 10SM BKN009 12/10 A2990=
####018001544####
SAZZ40 KAWN 081000 RRA
METAR BGGH 080950Z 28004KT 250V310 9999 OVC004 05/03 Q1010=
METAR BGJN 080950Z 26002KT 9999 VCFG FEW200 07/05 Q1010=
METAR BGKK 080950Z 07011KT 9999 FEW140 SCT160 07/03 Q1009=
METAR BGSF 080950Z 07007KT 9999 BKN070 11/02 Q1009=
METAR EFKU 080950Z AUTO VRB03KT CAVOK 23/17 Q1015=
METAR EFOU 080950Z 18005KT 110V250 9999 FEW025 SCT200 21/13 Q1016=
METAR KBLV 080955Z AUTO 00000KT 10SM FEW045 SCT220 24/24 A3002 RMK
      AO2 SLP164 T02420240=
METAR KHMN 080955Z 31006KT 10SM OVC140 21/13 A3013 RMK AO2A SLP124
      T02080135 $=
METAR KLRF 080955Z AUTO 00000KT 10SM OVC170 23/22 A3005 RMK AO2 SLP175
      T02330224=
METAR KNHK 080952Z AUTO 09004KT 3SM BR BKN009 26/24 A2999 RMK AO2 SLP155
      T02610239=
METAR KRDR 080955Z AUTO 25007KT 10SM CLR 14/13 A3004 RMK AO2 SLP182
      T01440128 $=
METAR KSAN 080951Z 33004KT 10SM FEW010 OVC019 17/14 A2991 RMK AO2 SLP127
      T01670139=
METAR LLBG 080950Z 28008KT CAVOK 30/18 Q1009 NOSIG=
METAR LLET 080950Z 03015KT CAVOK 38/13 Q1006=
METAR LLOV 080950Z 36005KT CAVOK 33/09 Q1010=
METAR LQTZ 081000Z 21004KT 170V260 9999 FEW040 20/// Q1023=
METAR OAFZ 080950Z 07004KT 9999 SKC 38/M01 Q1014 BLU/=
METAR OAKB 080950Z 05005KT 9999 SCT070 34/06 Q1016 NOSIG RMK BLU BLU=
METAR OAKN 080950Z 34008KT 9000 HZ FEW120 41/07 Q1008 BLU NOSIG RMK
      A2977 DA7100=
METAR OKBK 081000Z 35018KT CAVOK 47/M10 Q1000 NOSIG=
METAR PWAK 080952Z 08012KT 7SM HZ FEW022 28/24 A2999 RMK AO2A=
METAR SBCB 081000Z 04003KT CAVOK 17/15 Q1018=
####018000299####
SAAK41 KNKA 080954
METAR PATA 080952Z AUTO 03004KT 10SM CLR 13/06 A3005 RMK AO2 SLP177 
    T01330056 TSNO=
METAR PAWR 080952Z 16005G10KT 2SM -RA BR OVC008 12/12 A3007 RMK
     SLP183 NOSPECI=
METAR PHJR 080953Z 00000KT 10SM SCT050 23/18 A3005 RMK AO2 SLP183 
    T02330183 403060217=
####018000117####
SAUS45 KMSO 080954
MTRP69
METAR KP69 080952Z AUTO 34003KT 12/11 A3011 RMK AO2 SLP176 T01220106 
PWINO TSNO $
####018000081####
SAMJ41 LWSK 081000
METAR LWSK 081000Z 35010KT 9999 BKN040 18/11 Q1020 NOSIG=
####018000111####
SAUS42 KCHS 080954
MTRSAV
METAR KSAV 080953Z 24003KT 10SM FEW024 21/19 A2999 RMK AO2 SLP154 
T02110194
####018000118####
SAUS45 KABQ 080954
MTRCQC
METAR KCQC 080953Z AUTO 05007KT 10SM CLR 12/09 A3035 RMK AO2 SLP219 
T01170089 TSNO
####018000115####
SAUS44 KMAF 080954
MTR6R6
METAR K6R6 080953Z AUTO 01004KT 22/21 A3000 RMK AO2 SLP123 T02220206 
PWINO TSNO
####018000108####
SAUS42 KTAE 080954
MTRTLH
METAR KTLH 080953Z 00000KT 10SM CLR 22/21 A3001 RMK AO2 SLP161 
T02220206
####018000108####
SAUS43 KFGF 080954
MTRFAR
METAR KFAR 080953Z 22004KT 10SM CLR 14/11 A3007 RMK AO2 SLP181 
T01390111
####018000118####
SAUS46 KSEW 080954
MTRUIL
METAR KUIL 080953Z AUTO 00000KT 10SM CLR 14/11 A2994 RMK AO2 SLP136 
T01440111 TSNO
####018001747####
SAEU KAWN 081000 RRA
METAR EGAA 080950Z 22014KT 9999 SCT024 16/10 Q1014=
METAR EGAC 080950Z 21014KT 9999 FEW020 SCT031 17/09 Q1014=
METAR EGFF 080950Z 20006KT 160V250 9999 SCT019 19/12 Q1019=
METAR EGGP 080950Z 21010KT 170V230 9999 SCT030 SCT044 18/10 Q1017=
METAR EGGW 080950Z 24004KT 170V290 9999 SCT030 20/13 Q1019=
METAR EGHD 080950Z 25001KT 9999 FEW022 19/13 Q1019=
METAR EGHE 080950Z 19005KT 9999 FEW018 18/13 Q1018=
METAR EGJA 080950Z 24004KT 9999 SCT003 BKN015 17/16 Q1019=
METAR EGJB 080950Z VRB03KT 9999 SCT008 BKN010 19/17 Q1019=
METAR EGJJ 080950Z 34004KT 280V030 9999 FEW001 20/17 Q1019 NOSIG=
METAR EGLC 080950Z 30008KT 250V340 9999 FEW018 BKN024 19/15 Q1019=
METAR EGNM 080950Z 22011KT 190V250 9999 SCT025 17/10 Q1017=
METAR EGNX 080950Z 20011KT CAVOK 19/09 Q1018=
METAR EGPD 080950Z 23016KT 9999 FEW030 17/08 Q1010 NOSIG=
METAR EGTE 080950Z 20006KT 070V310 9999 FEW030 21/14 Q1018=
METAR EGTG 080950Z 25007KT 9999 SCT020 18/12 Q1019=
METAR EKCH 080950Z 18013KT CAVOK 21/15 Q1020 NOSIG=
METAR EKEB 080950Z AUTO 22010KT 9999NDV -SHRA FEW023/// BKN056/// 21/14
      Q1018=
METAR EKKA 080950Z 21005KT 170V250 9999 FEW018 BKN045 18/16 Q1018 TEMPO
      4000 SHRA SCT020CB=
METAR EKOD 080950Z 19008KT 160V220 CAVOK 24/12 Q1019=
METAR EKRK 080950Z AUTO 18011KT 150V210 9999NDV SCT050/// BKN065///
      24/12 Q1020=
METAR EKRN 080950Z AUTO 21005KT 180V240 9999NDV NCD 20/15 Q1022=
METAR EKSB 080950Z 18007KT 140V210 CAVOK 24/12 Q1018=
METAR EKSN 080950Z 22009KT 9999 SCT023 BKN047 20/15 Q1017=
METAR EKSP 080950Z 20013KT CAVOK 25/11 Q1018 NOSIG RMK FEW050 BKN120=
METAR EKVD 080950Z 22010KT CAVOK 24/13 Q1018=
METAR EKYT 080950Z 22010KT 9999 FEW025 BKN030 20/14 Q1017 NOSIG=
####018000140####
SAUS45 KABQ 080954
MTRTCS
METAR KTCS 080953Z AUTO 34003KT 10SM -RA OVC110 19/16 A3019 RMK AO2 
RAE07B44 SLP136 P0000 T01890156 TSNO
####018000122####
SPCN47 CWAO 080954
SPECI CYZE 080954Z AUTO VRB02KT 2 1/2SM BR OVC002 20/20 A2998 RMK
 SLP152 DENSITY ALT 1300FT=

####018003692####
SAUS99 KWBC 080955
METAR
KMKE 080952Z 17005KT 8SM -RA FEW065 BKN085 BKN110 23/21 A2999 RMK
     AO2 SLP150 P0002 T02280211=
KMKO 080953Z AUTO 16006KT 10SM VCTS FEW021 OVC028 23/23 A3003 RMK
     AO2 TSB40 SLP160 T02330228=
KMLC 080953Z AUTO 18003KT 10SM CLR 24/23 A3003 RMK AO2 SLP159
     T02390228=
KMLI 080952Z 00000KT 8SM OVC009 23/22 A3002 RMK AO2 SLP161
     T02280217 $=
KMWH 080952Z AUTO 36007KT 10SM CLR 15/07 A3001 RMK AO2 SLP154
     T01500072=
KOAJ 080955Z AUTO 35003KT 10SM CLR 22/20 A2993 RMK AO1=
KOCF 080955Z AUTO 00000KT 7SM CLR 20/20 A3001 RMK AO1=
KODO 080953Z AUTO VRB05KT 10SM SCT100 21/20 A3009 RMK AO2 SLP144
     T02110200=
KOJA 080950Z AUTO 34003KT 10SM SCT090 22/21 A3008 RMK AO2=
KOKB 080952Z AUTO 00000KT 9SM OVC014 18/14 A2989 RMK AO2 SLP121
     T01780139=
KOKC 080952Z 34005KT 10SM FEW055 SCT130 BKN200 23/22 A3005 RMK AO2
     SLP160 T02330222=
KOMA 080952Z 35005KT 10SM FEW022 SCT130 19/18 A3013 RMK AO2 SLP196
     T01940183=
KONP 080950Z AUTO 20006KT 10SM OVC004 11/10 A3000 RMK AO1=
KORE 080952Z AUTO 00000KT 5SM BR FEW010 OVC080 23/22 A3007 RMK AO2
     SLP177 T02280217=
KORS 080950Z AUTO 00000KT 10SM CLR 15/12 A2995 RMK AO2=
KPLU 080950Z AUTO 00000KT 10SM FEW036 FEW055 13/13 A2994 RMK
     AO2=
KPPF 080952Z AUTO 00000KT 10SM CLR 22/21 A3004 RMK AO2 SLP161
     T02220206=
KPTS 080950Z AUTO 00000KT 10SM SCT026 BKN090 22/ A3003 RMK AO2
     T0220=
KPWA 080953Z 36005KT 7SM CLR 23/21 A3005 RMK AO2 SLP161
     T02280211=
KPWK 080952Z AUTO 17004KT 7SM FEW065 23/22 A3003 RMK AO2 SLP164
     T02280217=
KPYM 080952Z AUTO 00000KT 8SM OVC006 23/21 A3009 RMK AO2 SLP188
     T02280206=
KRAP 080952Z AUTO 29005KT 10SM CLR 11/08 A3025 RMK AO2 SLP231
     T01110083=
KRBD 080953Z 11005KT 10SM SCT008 BKN012 25/23 A3000 RMK AO2 SLP149
     T02500233=
KSGF 080952Z 17005KT 9SM CLR 23/23 A3004 RMK AO2 LTG DSNT N AND W
     SLP156 T02330228=
KSNL 080952Z AUTO 35004KT 7SM OVC006 24/24 A3004 RMK AO2 LTG DSNT
     NE=
KSOP 080955Z AUTO 00000KT 10SM CLR 24/17 A2997 RMK AO1=
KSPI 080952Z AUTO 00000KT 7SM CLR 23/23 A3003 RMK AO2 SLP164
     T02330228=
KSPS 080952Z 05004KT 10SM SCT150 BKN250 23/22 A3003 RMK AO2 SLP155
     T02280217=
KSRE 080950Z AUTO 24004KT 3SM -RA 24/24 A3002 RMK AO2 LTG DSNT
     NE=
KSUX 080952Z 31003KT 10SM CLR 17/15 A3015 RMK AO2 SLP205
     T01670150=
KSVC 080950Z AUTO 08011KT 10SM FEW100 18/14 A3021 RMK AO2=
KTAN 080952Z AUTO 16004KT 4SM BR OVC002 21/21 A3007 RMK AO2 SLP181
     T02110211=
KTKI 080953Z AUTO 17004KT 10SM CLR 26/23 A3001 RMK AO2 PK WND
     21076/0941 SLP156 T02560233=
KTMK 080953Z AUTO 15004KT 7SM OVC006 12/12 A2996 RMK AO2=
KDCA 080952Z 06006KT 6SM HZ FEW050 27/22 A3000 RMK AO2 SLP158
     T02720217=
KDDC 080952Z AUTO 03007KT 5SM BR BKN007 18/17 A3017 RMK AO2 SLP192
     T01830172=
KDPA 080952Z 15003KT 5SM BR SCT022 SCT060 BKN075 23/22 A3002 RMK
     AO2 SLP160 T02280217=
KDUA 080957Z AUTO 14005KT 10SM -RA SCT085 25/24 A3003 RMK AO2=
KDVN 080952Z AUTO 21003KT 6SM BR OVC005 22/21 A3003 RMK AO2 CIG
     002V008 SLP163 T02220211=
KEST 080952Z AUTO 31007KT 10SM CLR 16/14 A3013 RMK AO2 SLP199
     P0001 T01610144=
KFDR 080953Z AUTO 00000KT 10SM 24/23 A3003 RMK AO2 SLP154
     T02390228=
KFDW 080955Z AUTO 26005KT 10SM CLR 25/17 A3000 RMK AO1=
KFET 080950Z AUTO 33004KT 10SM CLR 18/17 A3014 RMK AO2=
KFIT 080952Z AUTO 15007KT 4SM BR OVC008 23/21 A3008 RMK AO2 CIG
     007V011 SLP184 T02330211=
KFTW 080953Z 12005KT 10SM FEW013 25/23 A2999 RMK AO2 SLP147
     T02500233=
KGCD 080950Z AUTO 12011KT 10SM CLR 15/04 A3010 RMK AO2
     T01530040=
####018002876####
SAUS99 KWBC 080955 RRA
METAR
KGCM 080956Z AUTO 00000KT 4SM +RA SCT001 OVC012 23/23 A3005 RMK
     AO2 LTG DSNT SW P0006=
KGKY 080953Z AUTO 13004KT 10SM CLR 25/23 A3000 RMK AO2 SLP149
     T02500228=
KGLY 080955Z AUTO 00000KT 8SM CLR 22/22 A3003 RMK AO2=
KHUT 080952Z AUTO 01004KT 6SM BR CLR 22/21 A3012 RMK AO2 SLP178
     T02170206=
KIAD 080952Z 00000KT 7SM BKN100 BKN250 26/21 A3001 RMK AO2 SLP157
     T02610211=
KIDP 080950Z AUTO 00000KT 10SM SCT036 SCT055 21/20 A3003 RMK AO2
     LTG DSNT S=
KIEN 080952Z AUTO 05004KT 10SM CLR 08/08 A3027 RMK AO2 SLP241
     T00830078=
KIJD 080952Z AUTO VRB04KT 2 1/2SM BR OVC003 23/22 A3007 RMK AO2
     SLP180 T02280222=
KIOW 080952Z AUTO 30003KT 10SM FEW095 22/21 A3004 RMK AO2 SLP169
     T02170206=
KISN 080952Z 21004KT 10SM CLR 13/11 A3012 RMK AO2 SLP195
     T01280111=
KIZA 080949Z AUTO 00000KT 10SM OVC009 13/11 A2990 RMK AO2=
KLAM 080950Z AUTO 21008KT 10SM CLR 14/10 A3037 RMK AO2=
KLAW 080953Z AUTO 04004KT 10SM FEW041 23/22 A3005 RMK AO2 SLP163
     T02280222=
KLBB 080953Z 01010KT 10SM -RA FEW011 SCT075 OVC100 19/17 A3014 RMK
     AO2 RAB53 SLP160 -RA AT AP P0000 T01940172=
KLRU 080951Z AUTO 00000KT 10SM CLR 20/15 A3016 RMK AO2=
KLWC 080952Z AUTO 00000KT 10SM SCT090 22/21 A3005 RMK AO2 SLP167
     T02170206=
KMDH 080952Z AUTO 00000KT 7SM FEW085 23/22 A3005 RMK AO2 SLP169
     T02330217=
KMEB 080952Z AUTO 31003KT 10SM CLR 23/17 A2995 RMK AO2 SLP138
     T02280172=
KMEZ 080955Z AUTO 00000KT 10SM SCT015 BKN027 OVC039 26/23 A3007
     RMK AO2=
KMFD 080952Z AUTO 16003KT 7SM CLR 21/17 A3010 RMK AO2 SLP181
     T02060167=
KMHK 080952Z AUTO 00000KT 10SM BKN016 22/21 A3010 RMK AO2 SLP183
     T02170206=
KTOL 080952Z 00000KT 8SM CLR 21/18 A3004 RMK AO2 SLP168
     T02110183=
KTQH 080954Z AUTO 12003KT 10SM OVC020 23/23 A3004 RMK AO2=
KTRL 080953Z AUTO 14004KT 10SM BKN022 27/22 A3001 RMK AO2 SLP155
     T02670222=
KTRM 080952Z AUTO 33009KT 10SM CLR 25/12 A2968 RMK AO2 SLP055
     T02500122=
KTXK 080953Z AUTO 00000KT 4SM BR BKN003 23/23 A3004 RMK AO2 CIG
     001V007 SLP166 T02330233=
KTYR 080953Z AUTO 10003KT 10SM CLR 25/24 A3003 RMK AO2 SLP160
     T02500239=
KUDG 080955Z 32005KT 10SM CLR 23/18 A2998 RMK AO1=
KUGN 080952Z AUTO 15005KT 7SM BKN110 23/21 A3000 RMK AO2 RAB36E46
     SLP149 P0000 T02280211=
KVTN 080952Z AUTO 21004KT 10SM OVC120 16/14 A3023 RMK AO2 SLP225
     T01560144=
KWDG 080950Z AUTO 00000KT 10SM CLR 21/21 A3007 RMK AO2=
KWWR 080949Z AUTO 03005KT 10SM -RA SCT021 SCT038 BKN120 22/21
     A3015 RMK AO2 T02200210=
PATA 080952Z AUTO 03004KT 10SM CLR 13/06 A3005 RMK AO2 SLP177
     T01330056 TSNO=
PAWR 080952Z 16005G10KT 2SM -RA BR OVC008 12/12 A3007 RMK SLP183
     NOSPECI=
PHJR 080953Z 00000KT 10SM SCT050 23/18 A3005 RMK AO2 SLP183
     T02330183 403060217=
####018000557####
SAMX41 MMMX 080952
METAR MMMX 080947Z 00000KT 2SM -RA SCT008 BKN020 OVC070 15/14 A3018
      NOSIG RMK 60135 8/47/ VSBY TWR  LWR CLOUDS-NE=
METAR MMAA 080944Z 12004KT 8SM SCT020TCU SCT090 BKN300 26/23 A2977
      RMK 8/232=
METAR MMQT 080945Z 06005KT 6SM SCT015 BKN025 BKN120 OVC250 17/015
      A3014 RMK 8/432 DROPS=
METAR MMTO 080945Z 00000KT 3SM HZ SCT015 OVC070 13/11 A3023 
      RMK 8/47/ -RA E35 CB VC OCNL DROPS=
METAR MMVR 080945Z 00000KT 7SM  SCT012CB BKN080 BKN220 24/24 A2980 
      RMK 60945 8/963 +RA INTMT E30 VRB COND=
####018000461####
SAUK31 EGGY 080950
METAR EGBB 080950Z 24008KT 180V290 CAVOK 19/10 Q1018=
METAR EGCC 080950Z 23012KT 9999 FEW032 19/10 Q1017=
METAR EGKK 080950Z 24006KT 9999 BKN018 21/14 Q1018=
METAR EGLL 080950Z VRB03KT 9999 SCT012 SCT015 19/14 Q1019=
METAR EGPF 080950Z 22017KT 9999 FEW020 SCT030 16/11 Q1013=
METAR EGPH 080950Z 22014KT 9999 FEW030 16/09 Q1013=
METAR EGPK 080950Z 23016KT 9999 SCT025 16/10 Q1014=
METAR EGSS 080950Z 24006KT 9999 BKN017 19/14 Q1019=
####018000534####
SAUK34 EGGY 080950
METAR EGHD 080950Z 25001KT 9999 FEW022 19/13 Q1019=
METAR EGHE 080950Z 19005KT 9999 FEW018 18/13 Q1018=
METAR EGHK 080950Z 15005KT 9999 FEW025 17/15 Q1018=
METAR EGHQ 080950Z 29004KT 9999 SCT025 17/13 Q1019=
METAR EGJA 080950Z 24004KT 9999 SCT003 BKN015 17/16 Q1019=
METAR EGJB 080950Z VRB03KT 9999 SCT008 BKN010 19/17 Q1019=
METAR EGJJ 080950Z 34004KT 280V030 9999 FEW001 20/17 Q1019 NOSIG=
METAR EGTE 080950Z 20006KT 070V310 9999 FEW030 21/14 Q1018=
METAR EGTG 080950Z 25007KT 9999 SCT020 18/12 Q1019=
####018000508####
SASN32 ESWI 080950
METAR ESKN 080950Z 25010KT 230V290 9999 FEW045 24/12 Q1018=
METAR ESOE 080950Z 23009KT 9999 SCT029 BKN044 20/13 Q1018=
METAR ESOK 080950Z 20011KT 9999 BKN025 19/13 Q1017=
METAR ESOW 080950Z 22011KT CAVOK 22/13 Q1017=
METAR ESSA 080950Z 23011KT 190V260 CAVOK 23/12 Q1017 NOSIG=
METAR ESSB 080950Z 26010KT CAVOK 24/11 Q1017=
METAR ESSD 080950Z AUTO 24010KT 9999NDV BKN026/// 19/12 Q1016=
METAR ESSP 080950Z 24014KT CAVOK 22/11 Q1018=
METAR ESSV 080950Z 26006KT CAVOK 20/11 Q1019=
####018000551####
SASN33 ESWI 080950
METAR ESNG 080950Z 14008KT 9999 FEW048 SCT069 20/09 Q1013=
METAR ESNK 080950Z AUTO 16010KT 9999NDV FEW058/// 22/12 Q1012=
METAR ESNN 080950Z 14010KT CAVOK 22/13 Q1013=
METAR ESNO 080950Z AUTO 16012KT 9999NDV FEW050/// 20/11 Q1014=
METAR ESNQ 080950Z 20009KT 9999 VCSHRA BKN057 17/09 Q1013=
METAR ESNS 080950Z AUTO 13009KT 110V170 9999NDV ////// 22/10 Q1015=
METAR ESNU 080950Z 16007KT CAVOK 19/13 Q1015=
METAR ESNZ 080950Z 19010KT 160V220 CAVOK 18/11 Q1012=
METAR ESUT 080950Z AUTO 15008KT 9999NDV BKN110/// 19/11 Q1010=
####018000170####
SASN34 ESWI 080950
METAR ESDF 080950Z 20008KT 160V230 CAVOK 22/11 Q1021=
METAR ESPA 080950Z 15012KT CAVOK 19/14 Q1016=
METAR ESSL 080950Z 27011KT CAVOK 22/11 Q1019=
####018000293####
SASW32 LSSW 080950
METAR LSGC 080950Z NIL=
METAR LSGS 080950Z 23005KT 190V270 9999 FEW100 27/12 Q1021=
METAR LSZG 080950Z NIL=
METAR LSZR 080950Z 29004KT 260V340 CAVOK 22/15 Q1022 NOSIG RMK G=
METAR LSZS 080950Z 22008KT CAVOK 21/11 Q1027=
METAR LSZC 080950Z VRB04KT CAVOK 24/15 Q1022=
####018000476####
SASN35 ESWI 080950
METAR ESGL 080950Z AUTO 22010KT 9999NDV BKN031/// OVC037/// 20/15 
Q1018=
METAR ESGR 080950Z AUTO 22009KT 180V250 9999NDV OVC044/// 22/13
Q1018=
METAR ESKM 080950Z NIL=
METAR ESNL 080950Z AUTO 15008KT 9999NDV OVC074/// 19/11 Q1013=
METAR ESNX 080950Z AUTO 18008KT 150V210 9999NDV DZ OVC066/// 17/11
Q1014=
METAR ESNY 080950Z AUTO 22007KT 170V290 9999 FEW041 24/16 Q1014=
METAR ESSF 080950Z NIL=
METAR ESSK 080950Z NIL=
METAR ESUD 080950Z NIL=
####018000505####
SAUK35 EGGY 080950
METAR EGHH 080950Z 02002KT 9999 FEW006 BKN012 17/16 Q1019=
METAR EGKA 080950Z 21009KT 9999 FEW017 20/17 Q1019=
METAR EGKB 080950Z 25005KT 190V290 9999 BKN025 20/15 Q1019 =
METAR EGLF 080950Z 34004KT 300V010 9999 VCSH BKN009 16/14 Q1019=
METAR EGMC 080950Z 22004KT 210V280 9999 FEW024 21/16 Q1019=
METAR EGMD 080950Z 28007KT 9999 BKN015 21/16 Q1019=
METAR EGMH 080950Z 26007KT 220V290 9999 FEW018 22/17 Q1019 =
METAR EGTC 080950Z 21006KT 170V250 9999 -SHRA FEW020 17/12 Q1018=
####018000389####
SAFI32 EFHK 080950
EFHA 080950Z VRB02KT 9999 FEW030 SCT095 BKN200 21/16 Q1016=
EFHF 080950Z 31007KT 270V360 9999 FEW039 BKN047 27/18 Q1014=
EFKA 080950Z VRB03KT 9999 FEW030 BKN200 23/13 Q1015=
EFKK 080950Z 11005KT 060V210 CAVOK 23/12 Q1015=
EFMA 080950Z 18009KT CAVOK 22/13 Q1016=
EFPO 080950Z 24005KT 180V300 CAVOK 24/10 Q1016=
EFSI 080950Z AUTO 14003KT 9999 FEW047 24/11 Q1015=
####018000069####
SABZ22 SBBR 081000
METAR SBBR 081000Z 33002KT CAVOK 13/09 Q1023 =
####018000110####
SAKA31 PTRO 081000
METAR PTRO 080953Z 00000KT 14SM SCT016TCU BKN120 BKN300 26/24 A2985 
RMK TCU VC ALQDS
####018000092####
SAES20 MSLP 081000
METAR MSLP 080950Z 10002KT 9999 SCT023 BKN060 24/23 Q1010 A2985=

 
####018000074####
SAGI32 EGRR 080950
METAR LXGB 080950Z 07013KT CAVOK 26/17 Q1016 NOSIG=
####018000098####
SAFK41 EGYP 080950
METAR EGYP 080950Z 02017KT 3500 DZ FEW006 BKN015 OVC045 05/04 Q0995
 YLO1=
####018000087####
SAQB31 LQSM 081000
METAR LQSA 081000Z VRB02KT 9999 SCT040 BKN050 20/11 Q1023 NOSIG=
####018000123####
SAUS44 KLZK 080954
MTRMWT
METAR KMWT 080953Z AUTO 00000KT 4SM BR BKN002 23/22 A3004 RMK AO2 
SLP160 T02280222 TSNO
####018000117####
SAUS44 KMRX 080954
MTROQT
METAR KOQT 080953Z AUTO 00000KT 7SM CLR 22/19 A3008 RMK AO2 SLP168 
T02170194 TSNO
####018000118####
SAUS41 KAKQ 080954
MTRNUI
METAR KNUI 080953Z AUTO 00000KT 3SM BR FEW011 24/23 A2998 RMK AO2 
SLP153 T02440233
####018000115####
SAUS44 KLCH 080954
MTRP92
METAR KP92 080953Z AUTO 00000KT 26/25 A2997 RMK AO2 SLP147 T02560250 
PWINO TSNO
####018000111####
SAUS46 KLOX 080954
MTRLAX
METAR KLAX 080953Z 22005KT 10SM OVC012 16/12 A2991 RMK AO2 SLP125 
T01610122
####018000108####
SAUS44 KMRX 080954
MTRCHA
METAR KCHA 080953Z 00000KT 10SM CLR 23/19 A3006 RMK AO2 SLP168 
T02280189
####018000115####
SAUS45 KABQ 080954
MTRGNT
METAR KGNT 080953Z AUTO 14015KT 17/08 A3030 RMK AO2 SLP163 T01670078 
PWINO TSNO
####018000115####
SAUS44 KSHV 080954
MTRDNK
METAR KDNK 080953Z AUTO 00000KT 9SM FEW018 24/22 A3000 RMK AO2 
SLP156 T02390217
####018000116####
SAUS43 KAPX 080955
MTRHTL
METAR KHTL 080953Z AUTO 22005KT 10SM OVC100 23/21 A3003 RMK AO2 
SLP163 T02280206
####018000117####
SAUS42 KTAE 080954
MTRCTY
METAR KCTY 080953Z AUTO 00000KT 20/19 A3000 RMK AO2 SLP157 T02000194 
PWINO TSNO $
####018000112####
SAUS44 KJAN 080954
MTRJAN
METAR KJAN 080954Z 00000KT 6SM BR CLR 23/22 A3004 RMK AO2 SLP169 
T02280222 $
####018000110####
SAUS43 KMKX 080955
MTRMSN
METAR KMSN 080953Z VRB03KT 9SM BKN120 21/20 A3001 RMK AO2 SLP156 
T02110200
####018000118####
SAUS44 KHGX 080954
MTRSGR
METAR KSGR 080953Z AUTO 07006KT 10SM CLR 26/23 A2990 RMK AO2 SLP132 
T02610233 TSNO
####018000108####
SAUS44 KMRX 080954
MTRNIP
METAR KNIP 080953Z 25004KT 10SM CLR 23/21 A3000 RMK AO2 SLP154 
T02280206
####018000123####
SAUS46 KSGX 080954
MTRRNM
METAR KRNM 080953Z AUTO 26003KT 6SM BR OVC004 14/13 A2990 RMK AO2 
SLP112 T01440128 TSNO
####018000070####
SABZ22 SBBR 081000
METAR SBBR 081000Z 33002KT CAVOK 13/09 Q1023 =
####018000078####
SAMZ40 FQMA 081001
METAR FQBR 081000Z 19012KT 9999 SCT020 23/17 Q1026=

####018000118####
SAUS43 KUNR 080955
MTRCUT
METAR KCUT 080953Z AUTO 00000KT 10SM CLR 07/06 A3035 RMK AO2 SLP241 
T00720061 TSNO
####018000135####
SAUS45 KPUB 080955
MTRLXV
METAR KLXV 080953Z AUTO 00000KT 10SM FEW013 BKN031 OVC100 07/06 
A3055 RMK AO2 SLP199 T00670061 TSNO
####018000110####
SAUS41 KBTV 080955
MTRBTV
METAR KBTV 080954Z 00000KT 4SM BR CLR 23/21 A3001 RMK AO2 SLP161 
T02330211
####018002937####
SAUS20 KNKA 080954
METAR KGIF 080953Z AUTO 02003KT 10SM CLR 23/21 A3000 RMK AO2 SLP155 
    T02280211 TSNO=
METAR KGJT 080953Z AUTO 10010KT 10SM CLR 19/06 A3017 RMK AO2 SLP140 
    T01940061=
METAR KGKJ 080953Z AUTO 00000KT 7SM CLR 20/17 A3011 RMK AO2 SLP182 
    T02000172=
METAR KGLD 080953Z AUTO 04003KT 10SM OVC039 17/16 A3028 RMK AO2 
    SLP218 T01720161=
METAR KGLH 080953Z AUTO 00000KT 7SM CLR 22/22 A3004 RMK AO2 SLP177 
    T02170217=
METAR KGLR 080953Z AUTO 22007KT 10SM BKN110 22/19 A3001 RMK AO2 
    SLP152 T02220194=
METAR KGMU 080953Z AUTO 00000KT 10SM CLR 24/19 A3004 RMK AO2 SLP158 
    T02440189=
METAR KGPT 080953Z AUTO 00000KT 6SM BR CLR 26/24 A3001 RMK AO2 
    SLP160 T02560239=
METAR KGRB 080953Z AUTO 25005KT 9SM BKN008 BKN012 21/20 A2999 RMK 
    AO2 CIG 006V011 SLP153 T02110200=
METAR KGRI 080953Z AUTO 30004KT 10SM CLR 15/13 A3020 RMK AO2 SLP217 
    T01500133=
METAR KGRR 080953Z 27004KT 4SM BR BKN055 OVC095 24/22 A3004 RMK AO2 
    SLP166 T02390222=
METAR KGSH 080953Z AUTO 00000KT 6SM BR CLR 22/19 A3005 RMK AO2 
    SLP168 T02170194=
METAR KGSP 080953Z AUTO 00000KT 10SM CLR 23/19 A3002 RMK AO2 SLP150 
    T02280189=
METAR KGTF 080953Z 23008KT 10SM CLR 07/05 A3022 RMK AO2 SLP223 
    T00720050 $=
METAR KGUP 080953Z AUTO 00000KT 10SM CLR 18/06 A3025 RMK AO2 SLP046 
    T01830061=
METAR KGUY 080953Z AUTO 21004KT 2 1/2SM RA BR FEW007 BKN030 OVC048 
    18/18 A3022 RMK AO2 TSB16E31 SLP192 P0026 T01830178=
METAR KGVL 080953Z AUTO 35003KT 10SM CLR 23/20 A3007 RMK AO2 SLP164 
    T02280200=
METAR KGWO 080953Z AUTO 05003KT 10SM CLR 23/22 A3005 RMK AO2 SLP173 
    T02280222=
METAR KHAO 080953Z AUTO 00000KT 2SM BR CLR 21/19 A3008 RMK AO2 
    SLP181 T02060194=
METAR KHBG 080953Z AUTO 00000KT 7SM CLR 23/23 A3003 RMK AO2 SLP167 
    T02330228=
METAR KHDE 080950Z AUTO 00000KT 10SM SCT050 15/14 A3023 RMK AO2 
     T01530140=
METAR KHEI 080953Z AUTO 00000KT 10SM CLR 10/08 A3018 RMK AO2 SLP213 
    T01000078=
METAR KHFD 080953Z AUTO 00000KT 3SM HZ OVC008 25/22 A3004 RMK AO2 
    SLP171 T02500217=
METAR KHGR 080953Z AUTO 07003KT 5SM HZ CLR 24/17 A3003 RMK AO2 
    SLP170 T02440167=
METAR KHHR 080953Z AUTO 24003KT 10SM OVC014 17/13 A2990 RMK AO2 
    SLP125 T01670133=
METAR KHIB 080953Z AUTO 00000KT 1 1/4SM BR CLR 09/08 A3004 RMK AO2 
    SLP176 T00890083=
METAR KHIO 080953Z AUTO 00000KT 10SM CLR 15/12 A2988 RMK AO2 SLP115 
    T01500122=
METAR KHJH 080950Z AUTO 02005KT 10SM SCT016 OVC027 19/18 A3016 
     RMK AO2 T01930176=
METAR KHJO 080953Z AUTO 30007KT 10SM CLR 20/13 A2982 RMK AO2 SLP096 
    T02000133=
METAR KHKA 080953Z AUTO 21003KT 7SM CLR 25/22 A3005 RMK AO2 SLP174 
    T02500222=
METAR KHKS 080953Z AUTO 00000KT 9SM CLR 24/23 A3005 RMK AO2 SLP168 
    T02390228=
METAR KHKY 080953Z AUTO 30005KT 10SM FEW090 22/17 A3004 RMK AO2 
    SLP148 T02220172 $=
####018002954####
SAUS20 KNKA 080954
METAR KBDE 080953Z AUTO 00000KT 10SM CLR 14/12 A2999 RMK AO2 SLP157 
    T01440122=
METAR KBEH 080953Z AUTO 00000KT 2 1/2SM BR CLR 22/22 A3003 RMK AO2 
    SLP164 T02220217 $=
METAR KBFD 080953Z AUTO 00000KT 4SM BR CLR 16/15 A3015 RMK AO2 
    SLP192 T01610150=
METAR KBFF 080953Z AUTO 00000KT 10SM BKN032 BKN055 OVC085 16/13 
    A3029 RMK AO2 SLP229 T01560133=
METAR KBFI 080953Z 00000KT 10SM CLR 20/12 A2994 RMK AO2 SLP139 
    T02000117=
METAR KBFM 080953Z 00000KT 9SM CLR 24/23 A3003 RMK AO2 SLP169 P0001 
    T02390228=
METAR KBGM 080953Z 31004KT 4SM HZ CLR 22/18 A3012 RMK AO2 SLP184 
    T02170183=
METAR KBGR 080953Z 19006KT 1 1/2SM BR OVC003 20/19 A3007 RMK AO2 
    SLP179 T02000194=
METAR KBHK 080953Z AUTO 23007KT 10SM CLR 13/08 A3020 RMK AO2 SLP212 
    T01330083=
METAR KBHM 080953Z 33003KT 9SM CLR 24/22 A3007 RMK AO2 SLP171 
    T02440217=
METAR KBIL 080953Z 19005KT 10SM CLR 13/07 A3023 RMK AO2 SLP216 
    T01280072=
METAR KBIV 080953Z AUTO 00000KT 7SM CLR 24/22 A3004 RMK AO2 SLP167 
    T02390217=
SPECI KBJJ 080953Z AUTO 00000KT 1 1/4SM BR CLR 18/17 A3010 RMK AO2=
METAR KBKE 080953Z AUTO 17003KT 10SM CLR 06/05 A3011 RMK AO2 SLP180 
    T00610050=
METAR KBKL 080953Z 15005KT 6SM HZ CLR 24/19 A3004 RMK AO2 SLP168 
    T02440189=
METAR KBLI 080953Z AUTO 00000KT 10SM CLR 16/13 A2996 RMK AO2 SLP151 
    T01560133=
METAR KBMG 080953Z AUTO 00000KT 5SM BR FEW090 22/21 A3005 RMK AO2 
    SLP167 T02170211=
METAR KBMQ 080953Z AUTO 07003KT 10SM BKN011 23/22 A3001 RMK AO2 
    SLP141 T02330217 $=
METAR KBNA 080953Z 00000KT 10SM FEW080 24/22 A3007 RMK AO2 SLP174 
    T02440217=
METAR KBOI 080953Z 13007KT 10SM CLR 18/07 A3005 RMK AO2 SLP146 
    T01830067=
METAR KBPI 080953Z AUTO 31004KT 10SM BKN100 07/01 A3039 RMK AO2 
    SLP215 T00670011=
METAR KBPK 080953Z AUTO 00000KT 9SM FEW085 23/22 A3005 RMK AO2 
    SLP164 T02280217=
METAR KBPT 080953Z 08010KT 10SM FEW014 26/24 A2994 RMK AO2 RAB01E10 
    SLP136 P0000 T02610244 $=
METAR KBRD 080953Z AUTO 21005KT 10SM CLR 14/12 A3008 RMK AO2 SLP183 
    T01390117=
METAR KBRL 080953Z AUTO 10SM CLR 22/21 A3003 RMK AO2 SLP164 
    T02220211 $=
METAR KBRO 080953Z 32004KT 10SM -RA SCT021 SCT027 BKN040 26/25 A2977 
    RMK AO2 RAB50 SLP078 P0000 T02610250=
METAR KBTL 080953Z 00000KT 8SM SCT060 22/20 A3006 RMK AO2 SLP170 
    T02170200=
METAR KBTM 080953Z AUTO 15005KT 10SM CLR 06/01 A3031 RMK AO2 SLP233 
    T00560011=
METAR KBUR 080953Z VRB03KT 8SM OVC009 16/13 A2990 RMK AO2 SLP114 
    T01560133=
METAR KBVN 080950Z AUTO 33003KT 10SM OVC090 16/15 A3019 RMK AO2 
     T01620150=
METAR KBVO 080953Z AUTO 00000KT 10SM SCT100 22/21 A3004 RMK AO2 
    SLP159 T02220211=
METAR KBVY 080953Z 15006KT 9SM CLR 22/19 A3007 RMK AO2 SLP178 
    T02170194 PNO=
METAR KBWG 080953Z AUTO 00000KT 8SM SCT085 23/21 A3007 RMK AO2 
    SLP176 T02280211=
####018002945####
SAUS20 KNKA 080954
METAR KHLC 080953Z AUTO 36008KT 10SM OVC022 18/16 A3021 RMK AO2 
    SLP213 T01780161=
METAR KHLG 080953Z AUTO 00000KT 2 1/2SM BR SCT050 21/19 A3010 RMK 
    AO2 SLP184 T02060194=
METAR KHLN 080953Z AUTO 25008KT 10SM CLR 12/04 A3025 RMK AO2 SLP236 
    T01170039=
METAR KHOT 080953Z AUTO 00000KT 10SM OVC008 24/23 A3006 RMK AO2 
    SLP171 T02440233=
METAR KHOU 080953Z 10005KT 10SM FEW026 SCT039 BKN130 BKN250 28/24 
    A2991 RMK AO2 SLP132 T02780239=
METAR KHQM 080953Z AUTO 25006KT 10SM 16/14 A2994 RMK AO2 SLP141 
    T01560139 $=
METAR KHRI 080953Z AUTO 14003KT 10SM CLR 16/07 A2994 RMK AO2 SLP132 
    T01610072=
METAR KHRO 080953Z AUTO 18003KT 9SM CLR 22/21 A3007 RMK AO2 SLP169 
    T02170206=
METAR KHSI 080953Z AUTO 35004KT 10SM CLR 16/14 A3020 RMK AO2 SLP216 
    T01560144=
METAR KHSV 080953Z 00000KT 10SM CLR 23/23 A3006 RMK AO2 SLP169 
    T02330228=
METAR KHUF 080953Z 00000KT 6SM BR CLR 23/21 A3004 RMK AO2 SLP165 
    T02280211 $=
METAR KHUL 080953Z AUTO 20005KT 4SM BR CLR 21/18 A3003 RMK AO2 
    SLP165 T02060183=
METAR KHVN 080953Z 10004KT 1 1/2SM HZ OVC002 24/23 A3004 RMK AO2 
    SLP172 T02440233=
METAR KHVR 080953Z AUTO 00000KT 10SM CLR 09/07 A3019 RMK AO2 SLP217 
    T00890072=
METAR KHWO 080953Z AUTO 00000KT 10SM CLR 25/24 A2994 RMK AO2 SLP140 
    T02500239=
METAR KHYR 080953Z AUTO 00000KT 10SM BKN048 16/15 A3005 RMK AO2 
    SLP172 T01610150=
METAR KIAG 080953Z AUTO 20003KT 5SM BR CLR 23/21 A3004 RMK AO2 
    SLP167 T02280206=
METAR KIAH 080953Z 04008KT 7SM FEW022 BKN035 BKN130 25/24 A2992 RMK 
    AO2 SLP133 T02500244=
METAR KIBM 080950Z AUTO 00000KT 7SM BKN065 12/11 A3032 RMK AO2 
     T01220114=
METAR KICR 080953Z AUTO 26003KT 10SM CLR 17/12 A3020 RMK AO2 SLP217 
    T01720122 TSNO=
METAR KICT 080953Z 33009KT 10SM SCT080 OVC200 22/20 A3009 RMK AO2 
    SLP175 T02170200 $=
METAR KIDA 080953Z AUTO 36005KT 10SM CLR 08/06 A3019 RMK AO2 SLP193 
    T00780056=
METAR KILM 080953Z 35003KT 10SM CLR 24/19 A2991 RMK AO2 SLP127 P0001 
    T02440194=
METAR KIML 080953Z AUTO 32005KT 10SM BKN060 16/14 A3026 RMK AO2 
    SLP231 T01610144=
METAR KIPL 080953Z AUTO 16007KT 10SM CLR 26/16 A2968 RMK AO2 SLP052 
    T02560161=
METAR KITR 080953Z AUTO 00000KT 10SM BKN005 OVC032 16/15 A3030 RMK 
    AO2 SLP219 T01610150=
METAR KIWI 080953Z AUTO VRB04KT 9SM OVC001 20/19 A3010 RMK AO2 
    SLP192 T02000189=
METAR KIXD 080953Z AUTO 01006KT 5SM BR OVC002 22/21 A3006 RMK AO2 
    SLP168 T02220206=
METAR KJBR 080953Z AUTO 20003KT 10SM CLR 24/23 A3005 RMK AO2 SLP172 
    T02440228 $=
METAR KJCT 080951Z AUTO 00000KT 8SM BKN036 23/21 A3001 RMK AO2
     SLP123 T02280211 TSNO=
METAR KJEF 080953Z AUTO 35004KT 10SM BKN004 OVC065 24/23 A3003 RMK 
    AO2 RAE06 SLP156 P0000 T02390228=
METAR KJER 080953Z AUTO 04012KT 10SM CLR 16/M03 A3011 RMK AO2 SLP161 
    T01561033=
####018000125####
SAGM31 PGUM 080955
MTRGUM
METAR PGUM 080954Z 08008KT 10SM SCT019 SCT025 SCT030 28/24 A2989 RMK 
AO2 SLP113 T02830244
####018002968####
SAUS20 KNKA 080954
METAR KDEN 080953Z 21006KT 5SM BR FEW018 BKN025 14/13 A3032 RMK AO2 
    SLP214 T01440133 $=
METAR KDET 080953Z 00000KT 8SM CLR 25/21 A3003 RMK AO2 SLP163 
    T02500211 $=
METAR KDEW 080953Z AUTO 00000KT 10SM CLR 14/07 A3007 RMK AO2 SLP171 
    T01390072=
METAR KDFI 080953Z AUTO 00000KT 6SM BR CLR 21/19 A3005 RMK AO2 
    SLP171 T02110189=
METAR KDGW 080953Z AUTO 00000KT 3SM BR CLR 05/04 A3033 RMK AO2 
    SLP246 T00500044 $=
METAR KDHT 080953Z AUTO 35010KT 10SM -RA OVC075 17/15 A3025 RMK AO2 
    RAE0857B39 SLP191 P0000 T01670150=
METAR KDKK 080953Z AUTO 00000KT 7SM SCT090 19/18 A3006 RMK AO2 
    SLP174 T01940178=
METAR KDLN 080953Z AUTO 18003KT 10SM CLR 06/03 A3028 RMK AO2 SLP221 
    T00560028=
METAR KDLS 080953Z AUTO 12003KT 10SM CLR 17/06 A2995 RMK AO2 SLP139 
    T01670061=
METAR KDMN 080953Z AUTO 05008KT 10SM SCT120 21/13 A3013 RMK AO2 
    RAE03 SLP116 P0000 T02110133=
METAR KDMO 080953Z AUTO 00000KT 10SM SCT090 BKN110 23/22 A3004 RMK 
    AO2 RAB26E35 SLP163 P0000 T02330217=
METAR KDNL 080953Z AUTO 28006KT 10SM CLR 27/18 A3001 RMK AO2 SLP154 
    T02670178=
METAR KDRO 080953Z AUTO 00000KT 10SM CLR 13/06 A3030 RMK AO2 SLP167 
    T01330056=
METAR KDRT 080953Z AUTO 01003KT 10SM FEW021 24/22 A2994 RMK AO2 
    SLP119 T02440222=
METAR KDTW 080953Z 25004KT 5SM HZ FEW040 SCT150 23/21 A3003 RMK AO2 
    SLP165 T02330206=
METAR KDVO 080950Z AUTO 11003KT 10SM BKN012 12/11 A2993 RMK AO2=
METAR KDVT 080953Z 00000KT 10SM CLR 27/00 A2978 RMK AO2 SLP055 
    T02670000=
METAR KDWH 080953Z 06006KT 7SM CLR 24/24 A2993 RMK AO2 SLP132 
    T02440239=
METAR KDXR 080953Z AUTO 15004KT 2 1/2SM BR BKN007 23/22 A3007 RMK 
    AO2 SLP176 T02280217=
METAR KEEO 080953Z AUTO 10SM CLR 12/06 A3027 RMK AO2 SLP165 
    T01170056 PNO $=
METAR KEET 080953Z AUTO 00000KT 6SM BR CLR 24/22 A3004 RMK AO2 
    SLP164 T02390217=
METAR KELM 080953Z 00000KT 2SM BR CLR 18/17 A3009 RMK AO2 SLP181 
    T01780172=
METAR KELN 080953Z AUTO 13003KT 10SM CLR 16/06 A3004 RMK AO2 SLPNO 
    T01610061 $=
METAR KEMP 080953Z AUTO 00000KT 4SM BR FEW005 SCT021 OVC110 22/20 
    A3007 RMK AO2 SLP173 T02170200=
METAR KENW 080953Z AUTO 17005KT 7SM SCT110 23/22 A3001 RMK AO2 RAE26 
    SLP157 P0000 T02280217 $=
METAR KEPH 080953Z AUTO 32010KT 10SM CLR 22/04 A3000 RMK AO2 SLP147 
    T02220044=
METAR KEQY 080953Z AUTO 34003KT 10SM CLR 24/18 A2999 RMK AO2 SLP150 
    T02390178=
METAR KESF 080953Z AUTO 00000KT 6SM BR FEW015 23/22 A3002 RMK AO2 
    SLP163 T02280217=
METAR KEVW 080953Z AUTO 08009KT 10SM CLR 11/02 A3032 RMK AO2 SLP181 
    T01110022 TSNO=
METAR KEWB 080953Z AUTO 14005KT 4SM BR OVC002 22/21 A3007 RMK AO2 
    SLP182 T02220211=
METAR KEYE 080953Z AUTO 00000KT 8SM CLR 24/21 A3005 RMK AO2 SLP167 
    T02440206=
METAR KEYW 080953Z AUTO 08006KT 10SM FEW020 28/24 A2992 RMK AO2 
    RAB0854E04 SLP132 P0000 T02780244=
####018002997####
SAUS20 KNKA 080954
SPECI K7R3 080950Z 04004KT 7SM SKC 24/23 A2999 RMK DA011=
METAR KPMV 080950Z AUTO 33003KT 10SM CLR 19/19 A3012 RMK AO2 
     T01930185=
METAR KABR 080953Z AUTO 00000KT 1 1/2SM BR CLR 14/13 A3012 RMK AO2 
    VIS 1/2V5 SLP197 T01440133=
METAR KACK 080953Z 12007KT 8SM CLR 19/19 A3009 RMK AO2 SLP188 
    T01940189=
METAR KACV 080953Z AUTO 28003KT 3SM BR OVC001 10/09 A2996 RMK AO2 
    SLP151 T01000094=
METAR KADG 080953Z AUTO 00000KT 6SM HZ CLR 22/19 A3006 RMK AO2 
    SLP173 T02220194=
METAR KAEX 080953Z AUTO 00000KT 10SM FEW016 24/23 A3000 RMK AO2 
    SLP162 T02390228=
METAR KAGC 080953Z 00000KT 3SM HZ CLR 23/19 A3009 RMK AO2 SLP183 
    T02280194=
METAR KAGS 080953Z AUTO 00000KT 10SM CLR 22/19 A2999 RMK AO2 SLP152 
    T02220194 TSNO=
METAR KAIA 080953Z AUTO 00000KT 10SM FEW026 BKN090 15/14 A3028 RMK 
    AO2 SLP227 T01500139 $=
METAR KALI 080953Z AUTO 01005KT 2 1/2SM +RA BR OVC026 25/25 A2984 
    RMK AO2 LTG DSNT NE RAB16 SLP102 P0020 T02500250=
METAR KALW 080953Z AUTO 00000KT 10SM CLR 17/08 A2997 RMK AO2 SLP139 
    T01720078=
METAR KAMA 080953Z 03009KT 1SM -RA FEW028 OVC100 17/16 A3019 RMK AO2 
    SFC VIS 8 SLP173 P0002 T01720156 $=
METAR KAMW 080953Z AUTO 34008KT 7SM FEW095 20/19 A3009 RMK AO2 
    SLP181 T02000189=
METAR KANB 080953Z AUTO 00000KT 10SM CLR 22/20 A3004 RMK AO2 SLP162 
    T02170200=
METAR KAOH 080953Z AUTO 18004KT 6SM HZ 22/19 A3007 RMK AO2 SLP175 
    T02220194 $=
METAR KAOO 080953Z AUTO 31003KT 3SM BR CLR 18/16 A3011 RMK AO2 
    SLP182 T01830161=
METAR KAPA 080953Z 00000KT 7SM FEW007 OVC027 14/13 A3034 RMK AO2 
    SLP230 T01440128 $=
METAR KAPF 080953Z 03005KT 10SM CLR 24/23 A2995 RMK AO2 SLP141 
    T02440228=
METAR KARA 080953Z AUTO 07005KT 7SM CLR 24/24 A2999 RMK AO2 SLP153 
    T02440239=
METAR KARB 080953Z AUTO 27003KT 1/2SM FG CLR 19/18 A3004 RMK AO2 
    SLP166 T01940183=
METAR KASD 080953Z AUTO 00000KT 9SM CLR 24/23 A3000 RMK AO2 SLP159 
    T02440228=
METAR KASE 080953Z 18020G27KT 10SM FEW055 SCT080 BKN100 09/07 A3038 
    RMK AO2 PK WND 19027/0951 WSHFT 0932 RAE48 SLP174 P0004 
    T00890067=
METAR KASX 080953Z AUTO 00000KT 10SM SCT055 16/15 A3003 RMK AO2 
    SLP167 T01610150=
METAR KATY 080953Z AUTO 23006KT 10SM CLR 14/13 A3015 RMK AO2 SLP204 
    T01440133=
METAR KAUG 080953Z AUTO 16006KT 5SM BR OVC005 21/19 A3008 RMK AO2 
    SLP185 T02060194=
METAR KAWM 080953Z AUTO 00000KT 10SM CLR 23/22 A3005 RMK AO2 SLP171 
    T02330222=
METAR KAXN 080953Z AUTO 22005KT 9SM CLR 14/14 A3012 RMK AO2 SLP199 
    T01440139=
METAR KAZO 080953Z 00000KT 4SM BR SCT050 23/21 A3005 RMK AO2 SLP169 
    T02280206 $=
METAR KBAF 080953Z 15003KT 6SM BR FEW070 BKN100 23/21 A3005 RMK AO2 
    SLP171 T02330211=
METAR KBBW 080953Z AUTO 00000KT 10SM OVC065 17/16 A3023 RMK AO2 
    SLP222 T01720156=
METAR KBCE 080953Z AUTO 25005KT 10SM OVC110 09/02 A3031 RMK AO2 
    SLP153 T00940022 TSNO=
####018002951####
SAUS20 KNKA 080954
METAR KFAT 080953Z 31008KT 10SM CLR 22/08 A2982 RMK AO2 SLP093 
    T02170083=
METAR KFAY 080953Z AUTO 35005KT 10SM CLR 25/18 A2994 RMK AO2 SLP129 
    T02500178=
METAR KFCM 080953Z AUTO 31003KT 10SM CLR 18/16 A3008 RMK AO2 SLP181 
    T01830156=
METAR KFDY 080953Z AUTO 17003KT 7SM CLR 22/19 A3006 RMK AO2 SLP167 
    T02170189=
METAR KFFC 080953Z AUTO 00000KT 7SM CLR 21/19 A3004 RMK AO2 SLP165 
    T02060189=
METAR KFFT 080953Z AUTO 00000KT 3SM BR CLR 21/20 A3008 RMK AO2 
    SLP175 T02110200=
METAR KFHR 080953Z AUTO 00000KT 10SM CLR 13/11 A2997 RMK AO2 SLP149 
    T01280106=
METAR KFLD 080953Z AUTO 22005KT 10SM CLR 22/20 A3001 RMK AO2 RAE22 
    SLP156 P0000 T02170200=
METAR KFLL 080953Z 06007KT 10SM FEW020 28/24 A2992 RMK AO2 SLP132 
    T02780244=
METAR KFMN 080953Z AUTO 06006KT 10SM CLR 19/06 A3020 RMK AO2 SLP156 
    T01940056=
METAR KFMY 080953Z AUTO 05003KT 10SM CLR 24/22 A2994 RMK AO2 SLP142 
    T02390222=
METAR KFNB 080953Z AUTO 34006KT 10SM SCT017 OVC037 22/20 A3008 RMK 
    AO2 SLP177 T02170200=
METAR KFNT 080953Z AUTO 21004KT 9SM CLR 23/21 A3003 RMK AO2 SLP163 
    T02330206=
METAR KFOE 080953Z AUTO 33006KT 10SM CLR 21/19 A3007 RMK AO2 SLP171 
    T02110194=
METAR KFOK 080953Z AUTO 12003KT 5SM HZ SCT010 BKN018 OVC031 24/21 
    A3007 RMK AO2 SLP181 T02390211 TSNO=
METAR KFPR 080953Z AUTO 00000KT 9SM CLR 22/21 A2997 RMK AO2 SLP146 
    T02170211=
METAR KFRG 080953Z AUTO 14006KT 4SM BR BKN002 24/24 A3004 RMK AO2 
    RAB39E53 SLP171 P0000 T02440244=
METAR KFSM 080953Z AUTO 00000KT 10SM BKN026 OVC034 24/22 A3003 RMK 
    AO2 SLP162 T02440222=
METAR KFST 080953Z AUTO 14004KT 10SM OVC085 22/19 A3006 RMK AO2 
    SLP130 T02220189=
METAR KFTY 080953Z 00000KT 9SM CLR 21/18 A3003 RMK AO2 SLP159 
    T02060183=
METAR KFUL 080953Z 00000KT 10SM OVC017 17/12 A2989 RMK AO2 SLP121 
    T01720122=
METAR KFVE 080953Z AUTO 18004KT 3/4SM BR OVC002 22/22 A3001 RMK AO2 
    SLP153 T02220222=
METAR KFWN 080953Z AUTO 00000KT 2 1/2SM BR CLR 22/21 A3005 RMK AO2 
    SLP170 T02170206=
METAR KFYV 080953Z AUTO 00000KT 10SM CLR 22/21 A3006 RMK AO2 SLP164 
    T02220211=
METAR KGAG 080953Z AUTO 03006KT 10SM FEW120 21/19 A3013 RMK AO2 
    RAE07 SLP177 P0000 T02110194=
METAR KGCC 080953Z AUTO 00000KT 10SM CLR 08/06 A3028 RMK AO2 SLP229 
    T00830061=
METAR KGEG 080953Z 06004KT 10SM CLR 18/08 A3007 RMK AO2 SLP164 
    T01830083=
METAR KGEY 080953Z AUTO 12004KT 10SM CLR 12/03 A3025 RMK AO2 SLP218 
    T01170033=
METAR KGEZ 080953Z AUTO 13003KT 5SM BR BKN090 22/20 A3005 RMK AO2 
    SLP167 T02170200=
METAR KGFK 080953Z 24004KT 10SM FEW080 14/12 A3003 RMK AO2 SLP170 
    T01440122=
METAR KGFL 080953Z AUTO 00000KT 2 1/2SM BR FEW033 21/21 A3003 RMK 
    AO2 VIS 1 1/2V3 SLP163 T02060206=
METAR KGGW 080953Z AUTO 30003KT 10SM CLR 14/09 A3014 RMK AO2 SLP200 
    T01390089 TSNO=
####018002918####
SAUS20 KNKA 080954
METAR KBYG 080953Z AUTO 24005KT 10SM CLR 11/04 A3029 RMK AO2 SLP224 
    T01110039=
METAR KBYI 080953Z AUTO 00000KT 10SM CLR 10/03 A3012 RMK AO2 SLP164 
    T01000033=
METAR KCAG 080953Z AUTO 05008KT 10SM CLR 12/07 A3029 RMK AO2 SLP190 
    T01220067=
METAR KCAK 080951Z 00000KT 6SM HZ CLR 21/18 A3009 RMK AO2 SLP179
     T02110183=
METAR KCCR 080953Z AUTO 25006KT 10SM BKN013 13/10 A2990 RMK AO2 
    SLP112 T01280100=
METAR KCDC 080953Z AUTO 02006KT 10SM FEW110 14/02 A3014 RMK AO2 
    SLP128 T01440022 $=
METAR KCDR 080953Z AUTO 23004KT 10SM CLR 09/08 A3028 RMK AO2 SLP250 
    T00940083=
METAR KCDW 080953Z AUTO 00000KT 4SM BR SCT100 23/21 A3004 RMK AO2 
    SLP174 T02330211 TSNO=
METAR KCEZ 080953Z AUTO 06004KT 10SM CLR 17/06 A3022 RMK AO2 SLP144 
    T01720061=
METAR KCGI 080953Z AUTO 00000KT 10SM BKN046 24/23 A3004 RMK AO2 
    SLP169 T02390228 TSNO=
METAR KCHO 080953Z 00000KT 4SM HZ CLR 22/19 A3001 RMK AO2 SLP154 
    T02220194=
METAR KCKB 080953Z AUTO 00000KT 3SM BR CLR 19/18 A3010 RMK AO2 
    SLP176 T01890183=
METAR KCLL 080953Z 07006KT 10SM CLR 26/23 A2995 RMK AO2 SLP136 
    T02560228=
METAR KCLM 080953Z AUTO A2997 RMK AO2 SLPNO PWINO FZRANO $=
METAR KCMI 080953Z AUTO 17003KT 5SM BR FEW100 22/21 A3004 RMK AO2 
    SLP164 T02220211=
METAR KCMX 080953Z AUTO 32007KT 10SM FEW060 SCT090 BKN110 18/18 
    A2998 RMK AO2 SLP148 T01830178=
METAR KCNM 080953Z AUTO 36008KT 5SM VCTS RA BR OVC007 20/19 A3013 
    RMK AO2 LTG DSNT NE AND S TSB37 SLP149 P0020 T02000189=
METAR KCNO 080953Z 25003KT 5SM BR OVC013 15/13 A2991 RMK AO2 SLP124 
    T01500128=
METAR KCNY 080953Z AUTO 06008KT 10SM CLR 22/04 A3009 RMK AO2 SLP124 
    T02170044=
METAR KCOT 080953Z AUTO 04006KT 10SM -RA BKN031 BKN040 OVC050 25/23 
    A2990 RMK AO2 RAB53 SLP114 P0000 T02500228=
METAR KCPR 080953Z AUTO 00000KT 10SM CLR 04/04 A3033 RMK AO2 SLP238 
    T00440039=
METAR KCPS 080953Z AUTO 00000KT 10SM CLR 24/22 A3002 RMK AO2 SLP161 
    T02440222=
METAR KCRP 080951Z 01006KT 9SM -RA SCT021 SCT028 OVC050 26/25
     A2983 RMK AO2 TSE35 SLP100 TS DSIPT P0052 T02560250=
METAR KCRQ 080953Z AUTO 34003KT 10SM OVC011 17/13 A2989 RMK AO2 
    SLP119 T01720133=
METAR KCSV 080953Z AUTO 00000KT 8SM CLR 21/17 A3014 RMK AO2 SLP180 
    T02060172=
METAR KCXO 080953Z 04003KT 8SM SCT007 BKN020 24/23 A2994 RMK AO2 
    SLP136 T02390233=
METAR KCYS 080953Z AUTO 12003KT 7SM BKN004 OVC010 12/12 A3036 RMK 
    AO2 CIG 003V006 SLP235 T01170117 TSNO=
METAR KDAG 080953Z AUTO 29007KT 10SM CLR 23/01 A2985 RMK AO2 SLP077 
    T02280011 TSNO $=
METAR KDAN 080953Z AUTO 00000KT 5SM HZ CLR 24/18 A3001 RMK AO2 
    SLP148 T02390183=
METAR KDBQ 080953Z AUTO 00000KT 10SM BKN026 20/19 A3004 RMK AO2 
    SLP168 T02000194=
METAR KDCU 080953Z AUTO 36004KT 10SM CLR 23/21 A3006 RMK AO2 SLP170 
    T02330206=
####018000079####
SPCN47 CWAO 080953
SPECI CYPQ 080953Z AUTO ///// 3/8SM CLR 20/20 A3003=

####018000219####
SADN34 EKCH 080950
METAR EKGF 080950Z 22011KT CAVOK 16/16 Q1017=
METAR EKHN 080950Z AUTO 22004KT 150V310 9999NDV -RA  BKN046///
17/14 Q1019 RERA=
METAR EKHR 080950Z AUTO 22011KT 9999NDV OVC048/// 18/15 Q1018=
####018000560####
SASN33 ESWI 080950
METAR ESNG 080950Z 14008KT 9999 FEW048 SCT069 20/09 Q1013=
METAR ESNK 080950Z AUTO 16010KT 9999NDV FEW058/// 22/12 Q1012=
METAR ESNN 080950Z 14010KT CAVOK 22/13 Q1013=
METAR ESNO 080950Z AUTO 16012KT 9999NDV FEW050/// 20/11 Q1014=
METAR ESNQ 080950Z 20009KT 9999 VCSHRA BKN057 17/09 Q1013=
METAR ESNS 080950Z AUTO 13009KT 110V170 9999NDV ////// 22/10 Q1015=
METAR ESNU 080950Z 16007KT CAVOK 19/13 Q1015=
METAR ESNZ 080950Z 19010KT 160V220 CAVOK 18/11 Q1012=
METAR ESUT 080950Z AUTO 15008KT 9999NDV BKN110/// 19/11 Q1010=
####018000543####
SAUK34 EGGY 080950
METAR EGHD 080950Z 25001KT 9999 FEW022 19/13 Q1019=
METAR EGHE 080950Z 19005KT 9999 FEW018 18/13 Q1018=
METAR EGHK 080950Z 15005KT 9999 FEW025 17/15 Q1018=
METAR EGHQ 080950Z 29004KT 9999 SCT025 17/13 Q1019=
METAR EGJA 080950Z 24004KT 9999 SCT003 BKN015 17/16 Q1019=
METAR EGJB 080950Z VRB03KT 9999 SCT008 BKN010 19/17 Q1019=
METAR EGJJ 080950Z 34004KT 280V030 9999 FEW001 20/17 Q1019 NOSIG=
METAR EGTE 080950Z 20006KT 070V310 9999 FEW030 21/14 Q1018=
METAR EGTG 080950Z 25007KT 9999 SCT020 18/12 Q1019=
####018000517####
SASN32 ESWI 080950
METAR ESKN 080950Z 25010KT 230V290 9999 FEW045 24/12 Q1018=
METAR ESOE 080950Z 23009KT 9999 SCT029 BKN044 20/13 Q1018=
METAR ESOK 080950Z 20011KT 9999 BKN025 19/13 Q1017=
METAR ESOW 080950Z 22011KT CAVOK 22/13 Q1017=
METAR ESSA 080950Z 23011KT 190V260 CAVOK 23/12 Q1017 NOSIG=
METAR ESSB 080950Z 26010KT CAVOK 24/11 Q1017=
METAR ESSD 080950Z AUTO 24010KT 9999NDV BKN026/// 19/12 Q1016=
METAR ESSP 080950Z 24014KT CAVOK 22/11 Q1018=
METAR ESSV 080950Z 26006KT CAVOK 20/11 Q1019=
####018000075####
SAMP31 LMMM 081000 RRA
METAR HLLB 080950Z
34019KT CAVOK 30/16 Q1016=
####018000513####
SAUK35 EGGY 080950
METAR EGHH 080950Z 02002KT 9999 FEW006 BKN012 17/16 Q1019=
METAR EGKA 080950Z 21009KT 9999 FEW017 20/17 Q1019=
METAR EGKB 080950Z 25005KT 190V290 9999 BKN025 20/15 Q1019 =
METAR EGLF 080950Z 34004KT 300V010 9999 VCSH BKN009 16/14 Q1019=
METAR EGMC 080950Z 22004KT 210V280 9999 FEW024 21/16 Q1019=
METAR EGMD 080950Z 28007KT 9999 BKN015 21/16 Q1019=
METAR EGMH 080950Z 26007KT 220V290 9999 FEW018 22/17 Q1019 =
METAR EGTC 080950Z 21006KT 170V250 9999 -SHRA FEW020 17/12 Q1018=
####018000244####
SASY31 OSDI 081000
OSDI 081000Z 21012KT CAVOK 36/01 Q1009=
OSAP 081000Z 29015KT CAVOK 32/18 Q1006=
OSLK 081000Z 24008KT 9999 FEW026 SCT030 28/20 Q1009=
OSDZ 081000Z 03004KT CAVOK 37/13 Q1006=
OSKL 081000Z 29009KT CAVOK 39/04 Q1005=
####018000469####
SAUK31 EGGY 080950
METAR EGBB 080950Z 24008KT 180V290 CAVOK 19/10 Q1018=
METAR EGCC 080950Z 23012KT 9999 FEW032 19/10 Q1017=
METAR EGKK 080950Z 24006KT 9999 BKN018 21/14 Q1018=
METAR EGLL 080950Z VRB03KT 9999 SCT012 SCT015 19/14 Q1019=
METAR EGPF 080950Z 22017KT 9999 FEW020 SCT030 16/11 Q1013=
METAR EGPH 080950Z 22014KT 9999 FEW030 16/09 Q1013=
METAR EGPK 080950Z 23016KT 9999 SCT025 16/10 Q1014=
METAR EGSS 080950Z 24006KT 9999 BKN017 19/14 Q1019=
####018000088####
SAQB31 LQSM 081000
METAR LQSA 081000Z VRB02KT 9999 SCT040 BKN050 20/11 Q1023 NOSIG=
####018000448####
SAUK33 EGGY 080950
METAR EGGD 080950Z 20004KT 130V280 9999 SCT022 SCT026 18/12
    Q1019=
METAR EGGP 080950Z 21010KT 170V230 9999 SCT030 SCT044 18/10
    Q1017=
METAR EGHI 080950Z 36003KT 310V060 9999 SCT007 BKN013 18/14 Q1019 =
METAR EGNS 080950Z NIL=
METAR EGNT 080950Z 24010KT 190V290 9999 SCT040 18/10 Q1014=
METAR EGNV 080950Z 22010KT 9999 FEW019 SCT026 18/11 Q1016=
METAR COR EGPB 080950Z 20016KT CAVOK 15/11 Q1006 NOSIG=
####018000092####
SAFJ31 NFFN 081000
METAR NFFN 081000Z 14006KT 40KM FEW030 22/19 Q1014 NOSIG RMK RR NIL=
####018000173####
SASN34 ESWI 080950
METAR ESDF 080950Z 20008KT 160V230 CAVOK 22/11 Q1021=
METAR ESPA 080950Z 15012KT CAVOK 19/14 Q1016=
METAR ESSL 080950Z 27011KT CAVOK 22/11 Q1019=
####018000396####
SAFI32 EFHK 080950
EFHA 080950Z VRB02KT 9999 FEW030 SCT095 BKN200 21/16 Q1016=
EFHF 080950Z 31007KT 270V360 9999 FEW039 BKN047 27/18 Q1014=
EFKA 080950Z VRB03KT 9999 FEW030 BKN200 23/13 Q1015=
EFKK 080950Z 11005KT 060V210 CAVOK 23/12 Q1015=
EFMA 080950Z 18009KT CAVOK 22/13 Q1016=
EFPO 080950Z 24005KT 180V300 CAVOK 24/10 Q1016=
EFSI 080950Z AUTO 14003KT 9999 FEW047 24/11 Q1015=
####018000191####
SADN33 EKCH 080950
METAR EKKA 080950Z 21005KT 170V250 9999 FEW018 BKN045 18/16
Q1018 TEMPO 4000 SHRA SCT020CB=
METAR EKSP 080950Z 20013KT CAVOK 25/11 Q1018 NOSIG RMK FEW050
BKN120=
####018000488####
SASN35 ESWI 080950
METAR ESGL 080950Z AUTO 22010KT 9999NDV BKN031/// OVC037/// 20/15 
Q1018=
METAR ESGR 080950Z AUTO 22009KT 180V250 9999NDV OVC044/// 22/13
Q1018=
METAR ESKM 080950Z NIL=
METAR ESNL 080950Z AUTO 15008KT 9999NDV OVC074/// 19/11 Q1013=
METAR ESNX 080950Z AUTO 18008KT 150V210 9999NDV DZ OVC066/// 17/11
Q1014=
METAR ESNY 080950Z AUTO 22007KT 170V290 9999 FEW041 24/16 Q1014=
METAR ESSF 080950Z NIL=
METAR ESSK 080950Z NIL=
METAR ESUD 080950Z NIL=
####018000505####
SAUK32 EGGY 080950
METAR EGAA 080950Z 22014KT 9999 SCT024 16/10 Q1014=
METAR EGAC 080950Z 21014KT 9999 FEW020 SCT031 17/09 Q1014=
METAR EGFF 080950Z 20006KT 160V250 9999 SCT019 19/12 Q1019=
METAR EGGW 080950Z 24004KT 170V290 9999 SCT030 20/13 Q1019=
METAR EGLC 080950Z 30008KT 250V340 9999 FEW018 BKN024 19/15
    Q1019=
METAR EGNM 080950Z 22011KT 190V250 9999 SCT025 17/10 Q1017=
METAR EGNX 080950Z 20011KT CAVOK 19/09 Q1018=
METAR EGPD 080950Z 23016KT 9999 FEW030 17/08 Q1010 NOSIG=
####018000072####
SALY31 HLLT 081000
METAR HLLT 080950Z VRB02KT 8000 SKC 30/19 Q1019=
####018000128####
SAUS45 KABQ 080955
MTRRTN
METAR KRTN 080953Z AUTO 05005KT 10SM SCT075 OVC100 14/11 A3035 RMK 
AO2 SLP208 T01390111 TSNO
####018000116####
SAUS45 KLKN 080955
MTRELY
METAR KELY 080953Z AUTO 19007KT 10SM CLR 09/M04 A3021 RMK AO2 SLP133 
T00891044 $
####018000118####
SAUS45 KGJT 080955
MTRRIL
METAR KRIL 080953Z AUTO 01003KT 10SM CLR 16/08 A3024 RMK AO2 SLP164 
T01560078 TSNO
####018001809####
SAUK KAWN 081000
METAR EGAA 080950Z 22014KT 9999 SCT024 16/10 Q1014=
METAR EGAC 080950Z 21014KT 9999 FEW020 SCT031 17/09 Q1014=
METAR EGBB 080950Z 24008KT 180V290 CAVOK 19/10 Q1018=
METAR EGCC 080950Z 23012KT 9999 FEW032 19/10 Q1017=
METAR EGFF 080950Z 20006KT 160V250 9999 SCT019 19/12 Q1019=
METAR EGGD 080950Z 20004KT 130V280 9999 SCT022 SCT026 18/12 Q1019=
METAR EGGP 080950Z 21010KT 170V230 9999 SCT030 SCT044 18/10 Q1017=
METAR EGGW 080950Z 24004KT 170V290 9999 SCT030 20/13 Q1019=
METAR EGHD 080950Z 25001KT 9999 FEW022 19/13 Q1019=
METAR EGHE 080950Z 19005KT 9999 FEW018 18/13 Q1018=
METAR EGHI 080950Z 36003KT 310V060 9999 SCT007 BKN013 18/14 Q1019=
METAR EGJA 080950Z 24004KT 9999 SCT003 BKN015 17/16 Q1019=
METAR EGJB 080950Z VRB03KT 9999 SCT008 BKN010 19/17 Q1019=
METAR EGJJ 080950Z 34004KT 280V030 9999 FEW001 20/17 Q1019 NOSIG=
METAR EGKK 080950Z 24006KT 9999 BKN018 21/14 Q1018=
METAR EGLC 080950Z 30008KT 250V340 9999 FEW018 BKN024 19/15 Q1019=
METAR EGLL 080950Z VRB03KT 9999 SCT012 SCT015 19/14 Q1019=
METAR EGMH 080950Z 26007KT 220V290 9999 FEW018 22/17 Q1019=
METAR EGNM 080950Z 22011KT 190V250 9999 SCT025 17/10 Q1017=
METAR EGNT 080950Z 24010KT 190V290 9999 SCT040 18/10 Q1014=
METAR EGNV 080950Z 22010KT 9999 FEW019 SCT026 18/11 Q1016=
METAR EGNX 080950Z 20011KT CAVOK 19/09 Q1018=
METAR COR EGPB 080950Z 20016KT CAVOK 15/11 Q1006 NOSIG=
METAR EGPD 080950Z 23016KT 9999 FEW030 17/08 Q1010 NOSIG=
METAR EGPF 080950Z 22017KT 9999 FEW020 SCT030 16/11 Q1013=
METAR EGPH 080950Z 22014KT 9999 FEW030 16/09 Q1013=
METAR EGPK 080950Z 23016KT 9999 SCT025 16/10 Q1014=
METAR EGSS 080950Z 24006KT 9999 BKN017 19/14 Q1019=
METAR EGTE 080950Z 20006KT 070V310 9999 FEW030 21/14 Q1018=
METAR EGTG 080950Z 25007KT 9999 SCT020 18/12 Q1019=
####018000121####
SAUS46 KSGX 080955
MTRSDM
METAR KSDM 080953Z AUTO 28005KT 10SM OVC012 16/13 A2989 RMK AO2 
SLP119 T01610133 TSNO
####018000124####
SAUS42 KKEY 080955
MTRNQX
METAR KNQX 080953Z AUTO 10004KT 10SM SCT080 28/24 A2992 RMK AO2 
TSE12 SLP130 T02780244 $
####018002924####
SAUS20 KNKA 080954
METAR KAAF 080953Z AUTO 02004KT 10SM CLR 23/22 A2999 RMK AO2 SLP157 
    T02330222=
METAR KABY 080953Z 00000KT 10SM CLR 21/19 A3003 RMK AO2 SLP166 
    T02110194=
METAR KAEG 080955Z AUTO 00000KT 10SM FEW120 15/08 A3028 RMK AO1  =
METAR KAKO 080953Z AUTO 14005KT 6SM BR FEW006 OVC029 14/14 A3031 RMK 
    AO2 SLP228 T01440139 TSNO=
METAR KAMG 080953Z AUTO 00000KT 10SM CLR 21/19 A3000 RMK AO2 SLP156 
    T02110194=
METAR KAUS 080953Z 05005KT 9SM BKN012 OVC031 26/24 A2995 RMK AO2 
    RAB21E42 SLP128 P0013 T02610239=
METAR KBOW 080955Z AUTO 00000KT 10SM CLR 21/21 A2999 RMK AO2 =
METAR KCEW 080953Z AUTO 00000KT 6SM BR CLR 21/21 A3003 RMK AO2 
    SLP165 T02060206=
METAR KCGC 080955Z AUTO 00000KT 6SM CLR 21/20 A2999 RMK=
METAR KCRE 080953Z AUTO 00000KT 10SM CLR 26/20 A2991 RMK AO2 SLP130 
    T02610200=
METAR KCRS 080953Z AUTO 08003KT 10SM BKN014 25/24 A2999 RMK AO2 
    RAB38E49 SLP149 P0000 T02500239=
METAR KCUB 080953Z AUTO 00000KT 10SM CLR 23/19 A2999 RMK AO2 SLP151 
    T02330189=
METAR KDAL 080953Z 14006KT 10SM FEW012 SCT130 OVC210 26/23 A3000 RMK 
    AO2 SLP151 T02610228=
METAR KDFW 080953Z 14004KT 10SM SCT012 SCT090 BKN220 25/23 A3000 RMK 
    AO2 SLP148 T02500228=
METAR KDHN 080953Z AUTO 00000KT 10SM FEW070 23/22 A3006 RMK AO2 
    SLP172 T02330222=
METAR KDTN 080953Z AUTO 00000KT 10SM CLR 24/23 A3003 RMK AO2 SLP165 
    T02440233=
METAR KDTO 080953Z AUTO 15004KT 10SM SCT024 26/23 A3000 RMK AO2 
    SLP151 T02560233=
METAR KDTS 080953Z AUTO 00000KT 3SM BR FEW001 25/23 A3001 RMK AO2 
    SLP160 T02500233=
METAR KDYB 080955Z AUTO 00000KT 10SM CLR 21/20 A2996 RMK AO1=
METAR KECP 080953Z AUTO 00000KT 5SM BR CLR 23/23 A3001 RMK AO2 
    SLP171 T02330228=
METAR KELD 080953Z AUTO 00000KT 6SM BR FEW001 22/22 A3004 RMK AO2 
    SLP168 T02220222=
METAR KFTN 080955Z AUTO 05003KT 10SM BKN022 BKN028 24/23 A2991 RMK 
     AO1 =
METAR KFXE 080953Z 05003KT 10SM FEW020 27/24 A2993 RMK AO2 RAE09 
    SLP136 P0000 T02720239 $=
METAR KGNV 080953Z AUTO 00000KT 9SM CLR 19/18 A3000 RMK AO2 SLP156 
    T01940183=
METAR KGZH 080953Z AUTO 00000KT 8SM CLR 22/22 A3004 RMK AO2 SLP167 
    T02220217=
METAR KHBR 080953Z AUTO 04005KT 7SM SCT050 BKN110 23/22 A3007 RMK 
    AO2 RAB01E28 SLP165 P0000 T02330222=
METAR KHZY 080953Z AUTO 00000KT 4SM BR CLR 21/19 A3009 RMK AO2 
    SLP181 T02060194=
METAR KINK 080953Z AUTO 09003KT 10SM CLR 22/19 A3005 RMK AO2 SLP135 
    T02170194 TSNO=
METAR KLUX 080955Z AUTO 00000KT 10SM CLR 21/21 A3002 RMK AO2=
METAR KMAF 080953Z AUTO 03004KT 10SM BKN110 22/20 A3008 RMK AO2 
    SLP143 T02170200=
METAR KMER 080955Z AUTO 32006KT 10SM CLR 17/11 A2983 RMK AO1 =
METAR KMFE 080953Z AUTO 35007KT 10SM BKN006 BKN021 26/24 A2980 RMK 
    AO2 SLP088 T02610244=
METAR KMLB 080953Z AUTO 28004KT 10SM CLR 21/21 A2997 RMK AO2 SLP149 
    T02110206=
####018002955####
SAUS20 KNKA 080954
METAR KLVM 080953Z AUTO 26003KT 10SM CLR 03/01 A3028 RMK AO2 SLP235 
    T00330011=
METAR KLVS 080953Z AUTO 02008KT 10SM CLR 11/09 A3037 RMK AO2 SLP208 
    T01110089 TSNO=
METAR KLWD 080953Z AUTO 34006KT 10SM SCT007 21/20 A3008 RMK AO2 
    SLP179 T02060200=
METAR KLWV 080953Z AUTO 00000KT 3SM BR CLR 24/22 A3003 RMK AO2 
    SLP165 T02390217=
METAR KLXN 080950Z AUTO 33004KT 10SM SCT049 OVC080 16/16 A3022 
     RMK AO2 T01630155=
METAR KLXT 080953Z AUTO 00000KT 10SM CLR 22/21 A3005 RMK AO2 SLP168 
    T02170206=
METAR KMAE 080953Z AUTO 30007KT 10SM CLR 17/12 A2982 RMK AO2 SLP096 
    T01720117=
METAR KMBS 080953Z 22004KT 8SM CLR 23/22 A3002 RMK AO2 SLP162 
    T02330217=
METAR KMCB 080953Z AUTO 00000KT 8SM CLR 23/22 A3003 RMK AO2 SLP164 
    T02330222=
METAR KMCE 080953Z AUTO 30007KT 10SM CLR 18/10 A2982 RMK AO2 SLP096 
    T01780100=
METAR KMCI 080953Z 32005KT 9SM SCT110 22/21 A3005 RMK AO2 SLP167 
    T02220211 $=
METAR KMCK 080953Z AUTO 00000KT 10SM OVC065 17/16 A3024 RMK AO2 
    SLP226 T01670161=
METAR KMCO 080953Z 35003KT 10SM FEW015 22/21 A2999 RMK AO2 SLP153 
    T02170206=
METAR KMCW 080953Z AUTO 32005KT 10SM CLR 17/17 A3011 RMK AO2 SLP184 
    T01720172 $=
METAR KMEM 080953Z 00000KT 10SM FEW250 26/22 A3007 RMK AO2 SLP176 
    T02560222=
METAR KMFR 080953Z AUTO 02005KT 10SM CLR 21/12 A2988 RMK AO2 SLP103 
    T02060122=
METAR KMGW 080953Z AUTO 00000KT 4SM HZ CLR 21/18 A3011 RMK AO2 
    SLP184 T02060178=
METAR KMGY 080953Z AUTO 00000KT 5SM HZ CLR 22/19 A3008 RMK AO2 
    SLP175 T02220194=
METAR KMHE 080953Z AUTO 26005KT 10SM CLR 18/14 A3016 RMK AO2 SLP207 
    T01780144 TSNO=
METAR KMHT 080953Z 17008KT 2SM BR BKN006 OVC080 23/22 A3005 RMK AO2 
    TWR VIS 3 SLP185 T02330217=
METAR KMIA 080953Z 02003KT 10SM FEW025 SCT080 SCT250 28/24 A2993 RMK 
    AO2 SLP134 T02780244=
METAR KMIC 080953Z 30003KT 10SM CLR 18/16 A3007 RMK AO2 SLP179 
    T01780156=
METAR KMIE 080953Z AUTO 00000KT 9SM CLR 22/19 A3007 RMK AO2 SLP169 
    T02220194=
METAR KMIW 080953Z AUTO 33006KT 10SM CLR 19/18 A3006 RMK AO2 SLP172 
    T01940183=
METAR KMKL 080953Z AUTO 00000KT 10SM CLR 22/21 A3007 RMK AO2 SLP177 
    T02220206=
METAR KMLE 080950Z AUTO 35003KT 10SM CLR 20/17 A3013 RMK AO2 
     T01980168=
METAR KMLP 080953Z AUTO 12008G16KT 10SM CLR 13/02 A3027 RMK AO2 
    SLP154 T01330017 TSNO=
METAR KMLS 080953Z AUTO 16003KT 10SM CLR 12/10 A3019 RMK AO2 SLP211 
    T01170100=
METAR KMLT 080953Z AUTO 00000KT 4SM BR BKN007 21/19 A3006 RMK AO2 
    SLP181 T02110189=
METAR KMMH 080950Z AUTO 00000KT 10SM CLR 10/02 A3021 RMK AO1=
METAR KMMK 080953Z AUTO 00000KT 1 3/4SM BR OVC008 24/22 A3005 RMK 
    AO2 SLP172 T02390222=
METAR KMMV 080953Z AUTO 27004KT 10SM CLR 15/12 A2988 RMK AO2 SLP118 
    T01500117=
METAR KMNN 080953Z AUTO 00000KT 7SM CLR 19/18 A3008 RMK AO2 SLP181 
    T01940178=
####018001095####
SAUS20 KNKA 080954
METAR KMLU 080953Z AUTO 07004KT 10SM CLR 25/23 A3004 RMK AO2 SLP170 
    T02500233=
METAR KMNI 080955Z AUTO 30003KT 10SM CLR 24/22 A2995 RMK AO2=
METAR KMWL 080953Z AUTO 11005KT 10SM FEW024 23/21 A3000 RMK AO2 
    SLP144 T02280206=
METAR KMYR 080945Z 31008KT 10SM FEW090 25/19 A2996 =
METAR KOGB 080953Z AUTO 31005KT 10SM CLR 23/19 A2998 RMK AO2 SLP148 
    T02330189=
METAR KPNS 080953Z AUTO 00000KT 8SM CLR 24/23 A3001 RMK AO2 SLP163 
    T02390233=
METAR KPSO 080955Z AUTO 00000KT 10SM CLR 11/05 A3038 RMK AO2=
METAR KSPA 080955Z AUTO 00000KT 10SM CLR 22/22 A3001 RMK AO2=
METAR KSPL 080955Z AUTO 03007KT 28/25 A2976 RMK AO2 PWINO PNO =
METAR KSSI 080953Z AUTO 27005KT 10SM CLR 23/21 A2999 RMK AO2 SLP155 
    T02280211=
METAR KUTA 080955Z AUTO 00000KT 10SM CLR 23/22 A3006 RMK AO2=
METAR KVLD 080953Z AUTO 00000KT 5SM BR CLR 19/18 A3001 RMK AO2 
    SLP168 T01940183=
METAR KX40 080955Z AUTO 00000KT 7SM CLR 22/21 A3000 RMK AO2 
     T02200212=
METAR KYIP 080953Z 22003KT 6SM BR CLR 23/21 A3004 RMK AO2 SLP165 
    T02280206=
####018002960####
SAUS20 KNKA 080954
METAR KSDL 080953Z 00000KT 10SM CLR 30/03 A2980 RMK AO2 SLP058 
    T03000033=
METAR KSEA 080953Z 36007KT 10SM CLR 19/11 A2996 RMK AO2 SLP147 
    T01940111 $=
METAR KSEG 080953Z AUTO 00000KT 3SM HZ CLR 22/17 A3004 RMK AO2 
    SLP169 T02170172=
METAR KSFF 080953Z AUTO 00000KT 10SM CLR 13/11 A3006 RMK AO2 SLP167 
    T01330106=
METAR KSHN 080953Z AUTO 00000KT 10SM CLR 13/11 A2993 RMK AO2 SLP132 
    T01280111=
METAR KSHR 080953Z AUTO 00000KT 10SM CLR 08/06 A3025 RMK AO2 SLP231 
    T00780056=
METAR KSIY 080953Z AUTO 28003KT 10SM CLR 20/08 A2994 RMK AO2 SLP118 
    T02000083 $=
METAR KSJC 080953Z AUTO 31005KT 8SM OVC013 16/12 A2991 RMK AO2 
    SLP129 T01560117=
METAR KSLC 080953Z 18005KT 10SM FEW130 18/07 A3008 RMK AO2 SLP135 
    T01830072=
METAR KSLN 080953Z AUTO 34007KT 6SM BR OVC004 21/20 A3012 RMK AO2 
    CIG 003V008 SLP188 T02110200=
METAR KSMF 080953Z 15009KT 10SM CLR 15/11 A2982 RMK AO2 SLP099 
    T01500106=
METAR KSMQ 080953Z AUTO 32003KT 2 1/2SM BR CLR 21/21 A3001 RMK AO2 
    SLP162 T02110206=
METAR KSNA 080953Z 00000KT 8SM OVC017 18/12 A2990 RMK AO2 SLP122 
    T01830122=
METAR KSNS 080953Z AUTO 27005KT 9SM OVC009 13/11 A2992 RMK AO2 
    SLP140 T01280106=
METAR KSNY 080953Z AUTO 22003KT 10SM SCT060 16/14 A3031 RMK AO2 
    SLP232 T01560144 $=
METAR KSOW 080950Z AUTO 21007KT 10SM BKN100 21/04 A3025 RMK AO2=
METAR KSPB 080953Z AUTO 00000KT 10SM CLR 18/12 A2988 RMK AO2 SLP117 
    T01780122 $=
METAR KSPG 080953Z AUTO 10005KT 10SM CLR 26/22 A2996 RMK AO2 SLP145 
    T02610222=
METAR KSPW 080953Z AUTO 30005KT 9SM CLR 16/14 A3014 RMK AO2 SLP202 
    T01560144=
METAR KSRQ 080953Z 05003KT 10SM CLR 23/22 A2996 RMK AO2 SLP143 
    T02330217=
METAR KSSF 080953Z AUTO 05005KT 10SM OVC013 26/23 A2992 RMK AO2 
    RAB02E11 SLP116 P0000 T02610233=
METAR KSTC 080953Z AUTO 00000KT 5SM BR CLR 13/12 A3009 RMK AO2 
    SLP195 T01330117=
METAR KSTJ 080953Z AUTO 00000KT 6SM -RA BR SCT005 BKN050 23/21 A3006 
    RMK AO2 RAB00 SLP170 P0001 T02280211=
METAR KSTP 080953Z 32003KT 10SM CLR 18/17 A3008 RMK AO2 SLP182 
    T01830167=
METAR KSTS 080953Z AUTO 17003KT 10SM OVC006 12/10 A2991 RMK AO2 
    SLP123 T01220100=
METAR KSUN 080951Z AUTO 32009KT 10SM CLR 11/01 A3023 RMK AO2=
METAR KSWO 080953Z AUTO 35004KT 9SM BKN021 OVC043 23/21 A3004 RMK 
    AO2 LTG DSNT SE SLP159 T02280211=
METAR KSZT 080950Z AUTO 00000KT 10SM CLR 10/08 A3010 RMK AO2=
METAR KTCC 080953Z AUTO 04006KT 10SM OVC007 18/16 A3022 RMK AO2 CIG 
    007V011 SLP175 T01780161=
METAR KTCL 080953Z AUTO 00000KT 8SM CLR 24/22 A3004 RMK AO2 SLP169 
    T02390217=
METAR KTDZ 080953Z AUTO 00000KT 10SM CLR 23/18 A3005 RMK AO2 SLP169 
    T02330183=
METAR KTHV 080953Z AUTO 00000KT 2 1/2SM BR CLR 21/19 A3003 RMK AO2 
    SLP165 T02110194=
METAR KTIW 080953Z AUTO 02008KT 10SM FEW095 22/11 A2994 RMK AO2 
    SLP133 T02220106=
####018000207####
SACA01 KMSC 080954
METAR TISX 080953Z 07007KT 10SM BKN023 OVC029 27/24 A2997 RMK AO2 
    SLP148 T02720239=
METAR TIST 080953Z AUTO 10006KT 10SM CLR 27/24 A2997 RMK AO2 SLP150 
    T02720239 TSNO=
####018000614####
SAHW31 KMSC 080954
METAR PHNL 080953Z 06010KT 10SM FEW032 24/18 A3004 RMK AO2 SLP173 
    T02440178 403000222=
METAR PHTO 080953Z AUTO 25006KT 10SM FEW028 OVC065 22/19 A3005 RMK 
    AO2 RAE37 SLP173 P0010 T02170194 402830189 TSNO=
METAR PHKO 080953Z AUTO 14009KT 10SM CLR 24/18 A2999 RMK AO2 SLP155 
    T02390178 402780222 TSNO=
METAR PHLI 080953Z 07013KT 10SM FEW023 OVC045 24/19 A3007 RMK AO2 
    SLP178 T02430187 402890228 $=
METAR PHJR 080953Z 00000KT 10SM SCT050 23/18 A3005 RMK AO2 SLP183 
    T02330183 403060217=
METAR PWAK 080952Z 08012KT 7SM HZ FEW022 28/24 A2999 
RMK AO2A=
####018002981####
SAUS20 KNKA 080954
METAR KPSP 080953Z 00000KT 10SM CLR 24/13 A2973 RMK AO2 SLP061 
    T02440128=
METAR KPSX 080953Z AUTO 08009KT 9SM CLR 27/25 A2985 RMK AO2 RAB33E42 
    SLP109 P0000 T02720250=
METAR KPTK 080953Z 00000KT 8SM SCT250 24/22 A3004 RMK AO2 SLP162 
    T02390217=
METAR KPTT 080950Z AUTO 01007KT 7SM OVC006 20/19 A3014 RMK AO2=
METAR KPUB 080953Z AUTO 27004KT 10SM BKN055 OVC100 15/14 A3033 RMK 
    AO2 RAB0858E49 SLP220 P0001 T01500139=
METAR KPUC 080953Z AUTO 33004KT 10SM CLR 15/02 A3022 RMK AO2 SLP149 
    T01500017 TSNO=
METAR KPUW 080953Z AUTO 00000KT 10SM CLR 10/07 A3008 RMK AO2 SLP174 
    T01000067=
METAR KPVD 080951Z 14006KT 10SM BKN008 OVC016  22/20 A3008 RMK A02
    SLP186 T02220200=
METAR KRAC 080953Z AUTO 18005KT 4SM -RA BR FEW055 SCT090 23/22 A3002 
    RMK AO2 SLP160 P0002 T02280217=
METAR KRAL 080953Z AUTO 00000KT 5SM BR BKN011 14/12 A2991 RMK AO2 
    SLP113 T01440122=
METAR KRBG 080953Z AUTO 00000KT 10SM CLR 18/12 A2992 RMK AO2 SLP126 
    T01830122=
METAR KRDD 080953Z AUTO 36003KT 10SM CLR 23/15 A2982 RMK AO2 SLP092 
    T02330150=
METAR KRHI 080953Z AUTO 00000KT 3/4SM BR VV001 17/17 A3003 RMK AO2 
    SLP164 T01720167=
METAR KRIW 080953Z AUTO 00000KT 10SM CLR 09/04 A3034 RMK AO2 SLP229 
    T00890039=
METAR KRKP 080953Z AUTO 12014G21KT 7SM -RA SCT011 BKN020 OVC055 
    26/25 A2983 RMK AO2 RAB0859E09B30 SLP103 P0002 T02610250=
METAR KRMG 080953Z AUTO 00000KT 10SM CLR 21/18 A3004 RMK AO2 SLP160 
    T02060183=
METAR KRNT 080953Z AUTO 00000KT 10SM CLR 17/14 A2994 RMK AO2 SLP143 
    T01720139=
METAR KRSL 080953Z AUTO 36006KT 10SM SCT013 OVC027 19/18 A3016 RMK 
    AO2 SLP199 T01890178=
METAR KRSW 080953Z 03004KT 10SM CLR 24/22 A2995 RMK AO2 SLP139 
    T02390222=
METAR KRUE 080953Z AUTO 00000KT 10SM BKN019 24/23 A3005 RMK AO2 
    SLP168 T02390228=
METAR KRVS 080953Z 12004KT 1 1/4SM +TSRA BR BKN010 OVC026 23/23 
    A3003 RMK AO2 LTG DSNT NE AND SE TSB0859 SLP170 P0064 T02280228=
METAR KRWF 080953Z AUTO 29006KT 10SM CLR 16/14 A3011 RMK AO2 SLP194 
    T01560144=
METAR KRWI 080953Z AUTO 01003KT 5SM HZ CLR 23/20 A2995 RMK AO2 
    SLP142 T02280200=
METAR KRWL 080953Z AUTO 07007KT 6SM BR BKN001 08/07 A3037 RMK AO2 
    SLP220 T00780072=
METAR KRXE 080953Z AUTO 06003KT 10SM CLR 09/05 A3020 RMK AO2 SLP198 
    T00890050=
METAR KSAC 080953Z 16003KT 10SM CLR 14/10 A2985 RMK AO2 SLP107 
    T01390100=
METAR KSAF 080953Z AUTO 00000KT 10SM FEW100 14/11 A3031 RMK AO2 
    SLP177 T01440106=
METAR KSAN 080951Z 33004KT 10SM FEW010 OVC019 17/14 A2991 RMK AO2
     SLP127 T01670139=
METAR KSAT 080953Z 05005KT 5SM -RA BR BKN014 BKN040 OVC250 26/23 
    A2994 RMK AO2 RAE0857B38 SLP119 P0000 T02560233=
METAR KSBA 080953Z 00000KT 9SM OVC015 14/12 A2990 RMK AO2 SLP124 
    T01440122 $=
METAR KSBM 080953Z AUTO 19007KT 10SM -RA FEW060 SCT080 BKN110 22/21 
    A3000 RMK AO2 RAB20 SLP153 P0000 T02220211=
####018002918####
SAUS20 KNKA 080954
METAR KOVS 080953Z AUTO 00000KT 5SM BR OVC004 22/21 A3002 RMK AO2 
    CIG 002V009 SLP161 T02170206=
METAR KOWD 080953Z AUTO 16003KT 10SM OVC016 22/19 A3008 RMK AO2 
    SLP185 T02170189=
METAR KOXB 080953Z AUTO 08004KT 8SM SCT100 BKN110 24/24 A3000 RMK 
    AO2 RAE0857B31E45 SLP159 P0000 T02390239 $=
METAR KPAE 080953Z AUTO 03003KT 10SM CLR 19/12 A2997 RMK AO2 SLP146 
    T01890122=
METAR KPAH 080953Z AUTO 00000KT 10SM CLR 23/22 A3004 RMK AO2 SLP168 
    T02330217=
METAR KPBF 080953Z AUTO 00000KT 7SM CLR 24/22 A3005 RMK AO2 SLP174 
    T02390222=
METAR KPBG 080953Z AUTO 00000KT 5SM BR CLR 22/21 A3000 RMK AO2 
    SLP157 T02220206=
METAR KPBI 080953Z 04007KT 10SM SCT023TCU BKN040 BKN250 27/24 A2993 
    RMK AO2 SLP134 TCU OHD AND NE CB DSNT SE T02720239=
METAR KPDK 080953Z AUTO 00000KT 10SM CLR 22/19 A3004 RMK AO2 SLP150 
    T02220189=
METAR KPDT 080953Z AUTO 11005KT 10SM CLR 17/07 A2997 RMK AO2 SLP131 
    T01670072=
METAR KPDX 080953Z 00000KT 10SM CLR 19/14 A2989 RMK AO2 SLP118 
    T01940144=
METAR KPEO 080953Z AUTO 23004KT 3SM BR CLR 22/21 A3008 RMK AO2 
    SLP178 T02170206=
METAR KPGA 080953Z AUTO 00000KT 10SM CLR 24/02 A3004 RMK AO2 SLP097 
    T02440017=
METAR KPGD 080953Z AUTO 02005KT 10SM CLR 23/22 A2998 RMK AO2 SLP153 
    T02280217 TSNO=
METAR KPHD 080953Z AUTO 00000KT 1 1/2SM BR CLR 19/17 A3010 RMK AO2 
    SLP184 T01890172=
METAR KPIE 080953Z 00000KT 10SM CLR 23/21 A2998 RMK AO2 SLP151 
    T02330211=
METAR KPIH 080953Z AUTO 29004KT 10SM CLR 09/02 A3016 RMK AO2 SLP175 
    T00940017=
METAR KPIL 080953Z AUTO 08006KT 4SM -RA SCT016 BKN026 BKN036 28/25 
    A2977 RMK AO2 RAB0856E07B44 SLP080 P0003 T02780250 $=
METAR KPIR 080953Z AUTO 25006KT 10SM CLR 14/13 A3016 RMK AO2 SLP205 
    T01440128=
METAR KPKB 080953Z AUTO 00000KT 1/2SM FG VV001 20/19 A3011 RMK AO2 
    SLP187 T02000194 TSNO RVRNO=
METAR KPKD 080953Z AUTO 25003KT 7SM CLR 13/12 A3007 RMK AO2 SLP185 
    P0001 T01330122=
METAR KPMD 080953Z AUTO 20007KT 10SM CLR 18/04 A2990 RMK AO2 SLP093 
    T01830039 TSNO $=
METAR KPMP 080953Z AUTO 07006KT 10SM FEW021 28/24 A2993 RMK AO2 
    SLP137 T02780244=
METAR KPNA 080950Z AUTO 28006KT 10SM CLR 04/01 A3040 RMK AO2 
     T00400011=
METAR KPNC 080953Z AUTO 36004KT 9SM CLR 22/21 A3004 RMK AO2 SLP161 
    T02220211=
METAR KPOF 080953Z AUTO 00000KT 7SM CLR 24/23 A3004 RMK AO2 SLP167 
    T02440233 $=
METAR KPOU 080953Z 00000KT 4SM BR CLR 23/21 A3002 RMK AO2 SLP160 
    T02280211=
METAR KPQL 080953Z AUTO 00000KT 5SM BR BKN002 23/23 A3001 RMK AO2 
    SLP164 T02330228=
METAR KPRB 080953Z AUTO 00000KT 10SM BKN009 12/10 A2990 RMK AO2 
    SLP121 T01220100=
METAR KPRC 080953Z AUTO 18006KT 10SM CLR 18/01 A3009 RMK AO2 SLP096 
    T01830006=
METAR KPSC 080953Z AUTO 00000KT 10SM CLR 15/11 A2995 RMK AO2 SLP140 
    T01500106=
####018002923####
SAUS20 KNKA 080954
METAR KJKL 080953Z AUTO 00000KT 5SM HZ CLR 23/19 A3011 RMK AO2 
    SLP178 T02280194=
METAR KJLN 080953Z 05004KT 10SM -TSRA FEW006 BKN016 OVC037 23/22 
    A3004 RMK AO2 LTG DSNT NE TSB28E43B45 SLP162 P0072 T02280222=
METAR KJSV 080952Z AUTO 00000KT 10SM SCT032 23/23 A3003 RMK AO2 
     LTG DSNT NW=
METAR KJYR 080950Z AUTO 36003KT 10SM CLR 16/15 A3016 RMK AO2=
METAR KLAA 080953Z AUTO 06004KT 10SM FEW005 BKN024 OVC035 17/16 
    A3026 RMK AO2 SLP203 T01720161=
METAR KLAN 080953Z 31004KT 7SM FEW038 SCT060 SCT110 23/21 A3005 RMK 
    AO2 SLP169 T02280211 $=
METAR KLAR 080953Z AUTO 00000KT 3/4SM BR FEW002 SCT017 07/07 A3039 
    RMK AO2 SLP226 T00720072=
METAR KLBF 080953Z AUTO 00000KT 10SM OVC085 16/15 A3024 RMK AO2 
    SLP224 T01610150=
METAR KLCG 080950Z AUTO 00000KT 10SM CLR 15/14 A3017 RMK AO2 
     T01530143=
METAR KLBX 080953Z AUTO 13007KT 7SM VCTS RA SCT025 BKN048 OVC080 
    27/24 A2989 RMK AO2 LTG DSNT S-W TSB29RAB43 SLP120 P0002 
    T02720244=
METAR KLCH 080953Z AUTO 06006KT 9SM CLR 25/23 A2996 RMK AO2 SLP153 
    T02500233=
METAR KLEB 080953Z AUTO 00000KT 1 3/4SM BR FEW001 22/20 A3006 RMK 
    AO2 SLP165 T02170200=
METAR KLEE 080953Z AUTO 00000KT 10SM CLR 22/21 A3000 RMK AO2 SLP158 
    T02220211=
METAR KLFK 080953Z AUTO 09005KT 10SM CLR 24/23 A2998 RMK AO2 SLP149 
    T02440228=
METAR KLFT 080953Z AUTO 06005KT 10SM FEW004 25/23 A2999 RMK AO2 
    SLP154 T02500233=
METAR KLGB 080953Z 00000KT 10SM OVC017 17/13 A2990 RMK AO2 SLP124 
    T01720133=
METAR KLHM 080951Z AUTO 16008KT 10SM CLR 17/11 A2982 RMK AO1 
     T01660110=
METAR KLHQ 080953Z AUTO 00000KT 2SM BR CLR 19/18 A3009 RMK AO2 
    SLP180 T01890178=
METAR KLHX 080953Z AUTO 00000KT 10SM -RA SCT065 OVC090 16/14 A3028 
    RMK AO2 SLP208 T01610139 PNO $=
METAR KLIT 080953Z 00000KT 7SM BKN150 24/23 A3005 RMK AO2 SLP175 
    T02440228 $=
METAR KLLQ 080953Z AUTO 00000KT 7SM FEW002 23/22 A3006 RMK AO2 
    SLP177 T02330222=
METAR KLMT 080953Z AUTO 31004KT 10SM FEW100 18/11 A3004 RMK AO2 
    SLP121 T01780106=
METAR KLNS 080953Z 12003KT 3SM HZ CLR 23/21 A3002 RMK AO2 SLP163 
    T02330206=
METAR KLOL 080953Z AUTO 22003KT 10SM CLR 19/M04 A2999 RMK AO2 SLP109 
    T01891044=
METAR KLOU 080953Z AUTO 00000KT 7SM CLR 24/21 A3006 RMK AO2 SLP174 
    T02440211=
METAR KLOZ 080953Z AUTO 00000KT 3SM BR CLR 20/19 A3010 RMK AO2 
    SLP177 T02000189=
METAR KLPR 080953Z AUTO 19003KT 7SM CLR 23/18 A3007 RMK AO2 SLP174 
    T02280183=
METAR KLSE 080953Z AUTO 00000KT 8SM CLR 21/19 A3002 RMK AO2 SLP156 
    T02060194=
METAR KLUK 080953Z AUTO 00000KT 2SM R21L/3500V6000FT BR CLR 22/21 
    A3007 RMK AO2 SLP178 T02170206=
METAR KLVJ 080953Z AUTO 09006KT 9SM CLR 28/23 A2992 RMK AO2 SLP130 
    T02780233=
METAR KLVK 080953Z AUTO 29009KT 10SM OVC012 13/11 A2990 RMK AO2 
    SLP123 T01280111=
####018002908####
SAUS20 KNKA 080954
METAR KTMB 080953Z AUTO 36003KT 10SM FEW029 27/25 A2993 RMK AO2 
    SLP133 T02720250=
METAR KTOI 080953Z AUTO 00000KT 10SM CLR 22/21 A3003 RMK AO2 SLP163 
    T02170211=
METAR KTOP 080953Z AUTO 32003KT 10SM SCT110 22/20 A3006 RMK AO2 
    SLP172 T02170200=
METAR KTOR 080953Z AUTO 31003KT 10SM CLR 12/11 A3030 RMK AO2 SLP235 
    T01170106=
METAR KTPA 080953Z 00000KT 10SM SCT250 24/22 A2998 RMK AO2 SLP150 
    T02440217 $=
METAR KTTD 080953Z AUTO 00000KT 10SM CLR 17/14 A2986 RMK AO2 SLP112 
    T01720139=
METAR KTTN 080953Z 00000KT 3SM HZ CLR 24/21 A3002 RMK AO2 SLP159 
    T02390211=
METAR KTUL 080953Z 00000KT 6SM -TSRA BR FEW009 BKN016 OVC035 23/22 
    A3002 RMK AO2 SLP159 FRQ LTGIC OHD-SE-SW TS OHD-SE-SW MOV N 
    P0001 T02280222=
METAR KTUS 080953Z 00000KT 10SM CLR 31/04 A2990 RMK AO2 SLP064 
    T03060044=
METAR KTVC 080953Z AUTO 00000KT 10SM OVC100 23/19 A2996 RMK AO2 
    SLP143 T02330194=
METAR KTVL 080953Z AUTO 18003KT 10SM CLR 11/06 A3016 RMK AO2 SLP152 
    T01060061=
METAR KTVR 080953Z AUTO 00000KT 7SM CLR 22/21 A3003 RMK AO2 SLP175 
    T02220211 $=
METAR KTWF 080953Z AUTO 11009KT 10SM CLR 11/M02 A3012 RMK AO2 SLP150 
    T01111017=
METAR KUAO 080953Z AUTO 03003KT 10SM CLR 22/11 A2987 RMK AO2 SLP115 
    T02170111=
METAR KUNO 080953Z AUTO 20003KT 10SM CLR 22/21 A3007 RMK AO2 SLP169 
    T02220211 TSNO=
METAR KUTS 080953Z AUTO 00000KT 7SM CLR 24/23 A2996 RMK AO2 SLP142 
    T02390228=
METAR KUUU 080953Z AUTO 13004KT 1/4SM FG VV001 21/21 A3008 RMK AO2 
    SLP184 T02060206=
METAR KVCB 080953Z AUTO 24009KT 10SM CLR 17/09 A2982 RMK AO2 SLP095 
    T01720094=
METAR KVEL 080953Z AUTO 33005KT 10SM CLR 17/06 A3021 RMK AO2 SLP166 
    T01720056=
METAR KVGT 080953Z AUTO 35004KT 10SM CLR 26/M02 A2984 RMK AO2 SLP067 
    T02611017 TSNO=
METAR KVIH 080953Z AUTO 14003KT 10SM FEW027 BKN040 OVC060 23/22 
    A3005 RMK AO2 SLP163 T02280217=
METAR KVPC 080953Z AUTO 00000KT 6SM BR CLR 19/19 A3005 RMK AO2 
    SLP162 T01940189=
METAR KVPZ 080953Z AUTO 34004KT 6SM -RA BR FEW039 SCT050 BKN100 
    23/22 A3004 RMK AO2 RAB38 SLP166 P0000 T02330222=
METAR KVRB 080953Z AUTO 00000KT 10SM FEW030 22/21 A2997 RMK AO2 
    SLP146 T02220211=
METAR KVUO 080953Z AUTO 00000KT 10SM CLR 17/13 A2988 RMK AO2 SLP117 
    T01670128=
METAR KWRL 080953Z AUTO 16008KT 10SM CLR 13/04 A3026 RMK AO2 SLP217 
    T01330044=
METAR KWST 080953Z AUTO 11005KT 2SM BR OVC002 22/21 A3007 RMK AO2 
    SLP183 T02170206=
METAR KWVI 080953Z AUTO 00000KT 10SM OVC009 13/11 A2992 RMK AO2 
    SLP133 T01280106=
METAR KXNA 080953Z 00000KT 10SM BKN023 22/22 A3006 RMK AO2 SLP166 
    T02220217=
METAR KYKM 080953Z AUTO 25005KT 10SM CLR 13/07 A3001 RMK AO2 SLP156 
    T01330072=
METAR KZZV 080953Z AUTO 00000KT 4SM BR FEW060 20/18 A3009 RMK AO2 
    SLP179 T02000183=
####018002992####
SAUS20 KNKA 080954
METAR KMOD 080953Z AUTO 34006KT 10SM CLR 17/11 A2984 RMK AO2 SLP103 
    T01670106=
METAR KMPO 080953Z AUTO 34003KT 3SM BR FEW090 18/17 A3011 RMK AO2 
    SLP181 T01830172=
METAR KMRB 080953Z AUTO 00000KT 4SM HZ CLR 21/18 A3003 RMK AO2 
    SLP163 T02110183=
METAR KMSL 080953Z AUTO 00000KT 9SM CLR 23/22 A3007 RMK AO2 SLP176 
    T02330222=
METAR KMSO 080953Z AUTO 00000KT 10SM CLR 12/06 A3020 RMK AO2 SLP210 
    T01220056 $=
METAR KMSP 080953Z 30003KT 10SM CLR 18/17 A3008 RMK AO2 SLP185 
    T01830167=
METAR KMSS 080953Z AUTO 00000KT 4SM BR CLR 22/20 A3001 RMK AO2 
    SLP161 T02170200=
METAR KMSY 080953Z 00000KT 9SM FEW018 SCT250 26/23 A2999 RMK AO2 
    SLP160 T02610233=
METAR KMTH 080953Z AUTO 04005KT 10SM BKN020 A2992 RMK AO2 LTG DSNT 
    NE AND SE TSB34E51 SLP133 FZRANO $=
METAR KMTJ 080953Z AUTO 14009KT 10SM SCT120 16/05 A3027 RMK AO2 
    SLP175 T01560050=
METAR KMTO 080953Z AUTO 21004KT 10SM CLR 24/23 A3003 RMK AO2 SLP162 
    T02440228=
METAR KMVY 080953Z 13004KT 2SM R24/5500VP6000FT BR OVC001 21/19 
    A3009 RMK AO2 SLP187 T02110194=
METAR KMYF 080953Z AUTO 34006KT 10SM FEW008 OVC013 16/14 A2990 RMK 
    AO2 SLP121 T01610139 TSNO=
METAR KMYV 080953Z AUTO 18008KT 10SM CLR 17/12 A2981 RMK AO2 SLP099 
    T01720117=
METAR KNEW 080953Z AUTO 12004KT 10SM CLR 27/25 A3001 RMK AO2 SLP154 
    T02670250 TSNO=
METAR KOAK 080953Z 29009KT 10SM OVC009 15/11 A2993 RMK AO2 SLP135 
    T01500111=
METAR KODX 080953Z AUTO 33004KT 10SM OVC090 16/15 A3020 RMK AO2 
    SLP222 T01610150=
METAR KOGA 080950Z AUTO 00000KT 10SM SCT090 15/14 A3027 RMK AO2 
     T01510141=
METAR KOGD 080953Z 18007KT 10SM CLR 18/07 A3010 RMK AO2 SLP134 
    T01830067=
METAR KOJC 080953Z AUTO 35004KT 8SM CLR 23/22 A3005 RMK AO2 SLP165 
    T02280217=
METAR KOLF 080953Z AUTO 00000KT 10SM CLR 11/08 A3013 RMK AO2 SLP200 
    T01060083=
METAR KOMK 080953Z AUTO 32003KT 10SM CLR 14/08 A3005 RMK AO2 SLP170 
    T01390078=
METAR KONL 080950Z AUTO 28003KT 10SM BKN110 16/15 A3021 RMK AO2 
     T01630145=
METAR KONO 080953Z AUTO 25003KT 10SM CLR 12/07 A3004 RMK AO2 SLP160 
    T01220067=
METAR KONT 080953Z 24003KT 5SM BR OVC010 15/13 A2990 RMK AO2 SLP115 
    T01500128=
METAR KOPF 080953Z AUTO 35004KT 10SM CLR 26/24 A2993 RMK AO2 SLP137 
    T02610244=
METAR KORF 080951Z 08006KT 9SM BKN120 26/23 A2996 RMK AO2 SLP145
     T02560233=
METAR KORL 080953Z 00000KT 10SM CLR 22/21 A2999 RMK AO2 SLP157 
    T02220211=
METAR KOSH 080953Z AUTO 21004KT 10SM CLR 22/20 A3000 RMK AO2 SLP144 
    T02170200=
METAR KOSU 080953Z AUTO 00000KT 6SM HZ CLR 22/19 A3008 RMK AO2 
    SLP177 T02170189=
METAR KOTM 080953Z AUTO 31006KT 5SM BR FEW008 21/20 A3005 RMK AO2 
    SLP170 T02060200=
METAR KOUN 080953Z AUTO 36003KT 10SM SCT020 BKN027 OVC032 25/23 
     A3004 RMK AO2=
METAR KOVE 080953Z AUTO 12008KT 10SM CLR 20/13 A2984 RMK AO2 SLP104 
    T02000128 TSNO=
####018000118####
SABE31 TXKF 080953
METAR TXKF 080955Z 17014KT 9999 FEW013TCU SCT060 BKN170
BKN300 25/23 Q1018 RMK TCU DSNT N
