####018000100####
SAUS45 KBOU 081114
MTRABH
SPECI KABH 081113Z AUTO 27006KT 2SM BR BKN001 12/11 A3036 RMK AO2 $
####018000095####
SAUS41 KLWX 081114
MTRNAK
SPECI KNAK 081113Z AUTO 11004KT 26/23 A3001 RMK AO2 PWINO TSNO
####018003201####
SAUS99 KWBC 081115
METAR
KPSO 081115Z AUTO 30003KT 10SM CLR 08/05 A3039 RMK AO2=
KPTS 081110Z AUTO 14004KT 10SM SCT028 SCT038 BKN045 22/22 A3006
     RMK AO2 LTG DSNT E THRU SW T02200221=
KPVJ 081107Z AUTO 29003KT 7SM CLR 24/23 A3004 RMK AO2 LTG DSNT
     NE=
KSNL 081112Z AUTO 36005KT 7SM VCTS OVC005 24/23 A3005 RMK AO2=
KSVC 081110Z AUTO 05008KT 10SM OVC110 18/14 A3022 RMK AO2=
KTEX 081111Z AUTO 12008KT 10SM SCT085 OVC110 12/04 A3046 RMK
     AO2=
KTMK 081113Z AUTO 11003KT 10SM OVC006 12/12 A2996 RMK AO2=
KTQH 081114Z AUTO 00000KT 10SM SCT017 BKN026 OVC033 23/23 A3005
     RMK AO2=
KWWR 081109Z AUTO 36005KT 10SM SCT009 SCT041 BKN120 22/21 A3015
     RMK AO2 LTG DSNT E T02150205=
K1F0 081108Z AUTO 00000KT 10SM SCT080 24/24 A3002 RMK AO2 LTG DSNT
     NE=
K4O4 081108Z AUTO 00000KT 4SM CLR 23/22 A3006 RMK AO2 LTG DSNT
     N=
KADH 081110Z AUTO 17003KT 7SM SCT025 23/22 A3004 RMK AO2 LTG DSNT
     NE=
KADM 081110Z AUTO 00000KT 7SM SCT021 BKN025 OVC070 23/23 A3003 RMK
     AO2 LTG DSNT N=
KAIK 081115Z AUTO 28004KT 10SM CLR 23/22 A3005 RMK AO2 PNO=
KALM 081110Z AUTO 14004KT 10SM CLR 16/14 A3014 RMK AO2=
KARW 081115Z AUTO 28008KT 10SM CLR 25/19 A2998 RMK AO2=
KATS 081110Z AUTO 34008KT 10SM -RA BKN035 19/18 A3017 RMK AO2=
KAXS 081110Z AUTO 06009KT 3/4SM -RA BKN004 BKN017 OVC022 23/22
     A3008 RMK AO2 P0053 T02320219=
KAXX 081110Z AUTO 00000KT 10SM CLR 05/04 A3048 RMK AO2=
KBDN 081115Z AUTO 21005KT 10SM CLR 12/03 A3011 RMK AO2=
KBVS 081110Z AUTO 03006KT 10SM CLR 19/12 A2998 RMK A01 P000=
KCHK 081111Z AUTO 00000KT 5SM BR CLR 22/22 A3005 RMK AO2 LTG DSNT
     NE=
KCLK 081113Z AUTO 02006KT 10SM SCT025 22/20 A3007 RMK AO2=
KCQB 081110Z AUTO RMK AO2 PWINO TSNO=
KCUH 081110Z AUTO 00000KT 7SM -RA BKN021 BKN035 OVC060 23/23 A3005
     RMK AO2=
KDUA 081117Z AUTO 15005KT 10SM CLR 24/23 A3004 RMK AO2 LTG DSNT
     N=
KFDW 081115Z AUTO 34004KT 10SM CLR 24/18 A3001 RMK AO1=
KFET 081110Z AUTO 34003KT 10SM CLR 17/16 A3017 RMK AO2 LTG DSNT
     S=
KGCD 081110Z AUTO 12006KT 10SM CLR 14/03 A3011 RMK AO2
     T01430030=
KGCM 081115Z AUTO 29003KT 3SM +VCTSRA BKN007 OVC012 23/23 A3007
     RMK AO2 LTG DSNT NE S AND NW P0019=
KGLY 081115Z AUTO 00000KT 5SM BR BKN006 22/22 A3005 RMK AO2=
KGMJ 081114Z AUTO 00000KT OVC021 26/26 A3005 RMK AO2 PWINO=
KIDP 081110Z AUTO 00000KT 10SM VCTS BKN033 BKN041 BKN100 21/20
     A3006 RMK AO2 LTG DSNT SE=
KLAM 081110Z AUTO 00000KT 10SM CLR 15/08 A3037 RMK AO2=
KLRU 081111Z AUTO 36003KT 10SM CLR 20/15 A3016 RMK AO2=
KMEZ 081115Z AUTO 00000KT 7SM SCT012 SCT028 BKN045 25/23 A3008 RMK
     AO2 LTG DSNT NW=
KOJA 081110Z AUTO 01005KT 10SM BKN013 OVC023 22/22 A3008 RMK AO2
     LTG DSNT E=
KOKM 081111Z AUTO 01003KT 10SM -RA OVC005 24/24 A3004 RMK AO1 LTG
     DSNT NE=
KONP 081110Z AUTO 20006KT 10SM OVC004 11/09 A3000 RMK AO1=
KORS 081110Z AUTO 00000KT 10SM CLR 14/12 A2995 RMK AO2=
KOUN 081112Z AUTO 00000KT 10SM OVC011 25/23 A3006 RMK AO2 LTG DSNT
     NE=
KOAJ 081115Z AUTO 00000KT 6SM CLR 23/22 A2994 RMK AO1=
KSOP 081115Z AUTO 00000KT 10SM CLR 23/18 A2998 RMK AO1=
KUDG 081115Z 32004KT 10SM CLR 24/18 A2997 RMK AO1=
####018000504####
SPUS99 KWBC 081115
SPECI
PAKI 081109Z AUTO 00000KT 1 3/4SM BR CLR 08/08 A3002 RMK AO2 PWINO
     TSNO $=
KBAZ 081112Z AUTO 04006KT 8SM SCT013 BKN024 BKN030 25/24 A2993 RMK
     AO2=
KDXR 081112Z 00000KT 1 1/4SM BR OVC003 23/22 A3008 RMK AO2=
KEWN 081112Z 03005KT 2SM BR FEW009 25/24 A2995 RMK AO2=
KHIB 081112Z AUTO 00000KT 10SM CLR 09/09 A3004 RMK AO2=
KIXD 081112Z 36003KT 1SM BR VV001 21/20 A3006 RMK AO2=
KLAA 081112Z AUTO 13004KT 10SM FEW004 OVC100 17/16 A3025 RMK
     AO2=
####018002256####
SAUS20 KNKA 081114
METAR KAFK 081110Z AUTO 35006KT 4SM BR CLR 19/18 A3014 RMK AO2 
     LTG DSNT S T01910182=
METAR KANW 081110Z AUTO 23004KT 10SM CLR 16/15 A3024 RMK AO2 
     T01570145=
METAR KAUH 081110Z AUTO 34007KT 10SM CLR 16/15 A3020 RMK AO2 
     T01550145=
METAR KAUN 081110Z AUTO 00000KT 10SM CLR 21/14 A2987 RMK AO1=
SPECI KBDR 081113Z 13005KT 3SM BR OVC004 25/23 A3005 RMK AO2=
METAR KBIE 081110Z AUTO 00000KT 10SM SCT017 18/17 A3015 RMK AO2 
     LTG DSNT S T01810170=
SPECI KBOK 081114Z AUTO 30003KT 1/2SM FG OVC002 09/09 A2998 RMK AO2 
    $=
METAR KBTA 081110Z AUTO 36004KT 7SM CLR 19/17 A3015 RMK AO2 
     T01850170=
METAR KBVN 081110Z AUTO 32003KT 10SM OVC090 17/15 A3020 RMK AO2 
     T01650152=
METAR KDVO 081110Z AUTO 00000KT 10SM OVC012 12/11 A2992 RMK AO2=
METAR KHDE 081110Z AUTO 33003KT 10SM CLR 16/14 A3022 RMK AO2 
     T01550141=
METAR KHJH 081110Z AUTO 35004KT 10SM OVC029 19/18 A3017 RMK AO2 
     T01920177=
METAR KIBM 081110Z AUTO 00000KT 10SM SCT024 BKN080 OVC085 13/12 
     A3032 RMK AO2 T01260116=
METAR KIZA 081111Z AUTO 00000KT 10SM OVC009 13/11 A2991 RMK AO2=
METAR KJSV 081111Z AUTO 10003KT 10SM VCTS BKN044 23/22 A3004 RMK 
     AO2 LTG DSNT N=
METAR KJYR 081110Z AUTO 35003KT 10SM CLR 15/15 A3018 RMK AO2=
METAR KL35 081112Z AUTO 00000KT 10SM CLR 06/M04 A3017 RMK AO2=
METAR KLCG 081110Z AUTO 29003KT 10SM CLR 14/14 A3019 RMK AO2 
     T01440135=
METAR KLHM 081111Z AUTO 16007KT 10SM CLR 16/11 A2982 RMK AO1 
     T01630109=
METAR KLXN 081110Z AUTO 00000KT 10SM BKN050 OVC080 17/16 A3024 
     RMK AO2 T01700160=
METAR KMLE 081110Z AUTO 00000KT 10SM CLR 19/17 A3015 RMK AO2 
     T01920166=
METAR KMMH 081110Z AUTO 33003KT 10SM CLR 09/01 A3021 RMK AO1=
SPECI KPIA 081113Z 22004KT 1 1/4SM BR FEW010 BKN014 OVC023 23/22 
    A3004 RMK AO2=
METAR KPLU 081110Z AUTO 00000KT 10SM FEW036 FEW070 13/13 A2994 
     RMK AO2=
SPECI KRKP 081113Z AUTO 07006KT 5SM +RA BR BKN015 BKN023 BKN028 
    27/25 A2984 RMK AO2 LTG DSNT NW RAB1056 P0006 $=
METAR KRKR 081112Z AUTO 00000KT 10SM SCT029 SCT120 26/24 A3004 
     RMK AO2 LTG DSNT N AND NW=
METAR KSRE 081110Z AUTO 00000KT 5SM VCTS BR CLR 24/24 A3004 RMK 
     AO2 LTG DSNT NE=
####018000085####
SPBX31 KWBC 081115
SPECI
EBLB 081054Z 27006KT 9999 FEW160 26/10 Q1022 BLU BLU=
####018000081####
SPAK32 KWBC 081115
SPECI
PAEH SP 1115 AWOS CLR BLO 120 10 48/-20/0000/999=
####018000080####
SPAK32 KWBC 081115
SPECI
PATC SP 1115 AWOS CLR BLO 120 10 46/43/0210/014=
####018000140####
SPJP31 KWBC 081115
SPECI
RODN 081111Z AUTO 18012KT 9999 SCT016 BKN023 BKN210 29/26 A2985
RMK AO2 BKN023 V SCT CIG 018 RWY05 SLP106=
####018000097####
SPXX61 KWBC 081115
SPECI
EGUN 081108Z 24008KT 9999 BKN032 OVC120 22/17 A3007 RMK AO2A BLU=
####018000140####
SPXX62 KWBC 081115
SPECI
RODN 081111Z AUTO 18012KT 9999 SCT016 BKN023 BKN210 29/26 A2985
RMK AO2 BKN023 V SCT CIG 018 RWY05 SLP106=
####018000030####
SANG31 AMMC 081100
NIL

####018000084####
SPUS41 KWBC 081115
SPECI
KWRI 081112Z AUTO 17003KT 2SM BR FEW001 24/24 A3001=
####018000134####
SACN44 CWAO 081100 CCB
METAR CYBW 081100Z CCA 31004KT 30SM FEW080 FEW140 FEW250 07/06 A3021
RMK AC1AC1CI1 ACC ASOCTD SLP235=

####018000261####
SAUS43 KWBC 081100 RRD
METAR
KIGQ 081100Z AUTO 00000KT 3SM BR BKN090 23/22 A3003=
KTAZ 081105Z AUTO 00000KT 2 1/2SM BR CLR 23/23 A3003=
KTIP 081105Z AUTO 00000KT 4SM BR SCT100 24/23 A3005=
KVYS 081105Z AUTO 00000KT 3SM BR BKN014 OVC023 23/22 A3003=
####018000082####
SAUS44 KWBC 081100 RRC
METAR
KOLV 081115Z AUTO 00000KT 8SM CLR 23/23 A3009=
####018000068####
SAUS53 KWBC 081100 RRD
METAR
KEHA 081108Z AUTO 35005KT 17/17=
####018000084####
SPUS81 KWBC 081115
SPECI
KABH 081113Z AUTO 27006KT 2SM BR BKN001 12/11 A3036=
####018000888####
SARS18 KAWN 081100 RRE
METAR UELL 081100Z VRB01MPS 9999 VCFG BKN026CB OVC200 13/12 Q1012 TEMPO
      0600 FG VV003 RMK QFE684 08CLRD70=
METAR ULLI 081100Z 11002MPS 010V170 9999 SCT040TCU BKN200 31/15 Q1013
      NOSIG=
METAR UMKK 081100Z 30007MPS P8000 FEW030 SCT200 22/15 Q1020 NOSIG RMK
      QFE 764 SC07=
METAR UTSS 081100Z 04003MPS 9999 NSC 35/10 Q1010 R88/70D NOSIG=
METAR UUDD 081100Z 14006MPS 9999 SCT043TCU BKN200 27/15 Q1015 TEMPO
      TSRA=
METAR UUWW 081100Z 15002MPS 100V190 9999 SCT040 BKN100 26/16 Q1015
      06000070 NOSIG=
METAR UWGG 081100Z 10003MPS 040V220 8000 FEW033 34/09 Q1016 NOSIG RMK
      QFE755 18090070=
METAR UWKD 081100Z 25004MPS 220V300 9999 SCT033CB BKN070 32/12 Q1015
      TEMPO VRB15MPS 3000 TSRA RMK QFE750/1000 792/0350=
METAR UWOO 081100Z 07007MPS P5000 FEW070 32/04 Q1012 08/LRD65 NOSIG
      RMK QFE749/0998=
####018000181####
SAXX70 KAWN 081100 RRM
METAR KQEJ 081100Z AUTO 00000KT 7SM -SHRA FEW039 24/19 A2992 RMK A02=
METAR KQEX 081110Z AUTO 16004KT 4SM BR FEW039 FEW130 26/20 A2974 RMK
      A02=
####018000207####
SANA35 KAWN 081100 RRD
METAR KDOV 081055Z 11007KT 10SM CLR 25/25 A3001 RMK AO2A SLP164=
METAR MKJP 081100Z 11012KT 9999 SCT020 BKN220 27/19 Q1012=
METAR TNCM 081100Z 09009KT 9999 FEW019 28/23 Q1016=
####018000090####
SANM40 FYWW 081100 RRA
METAR FYOA 081100Z AUTO 03012KT //// // ////// 24/01 Q1022=

####018000070####
SPUS81 KWBC 081115
SPECI
KNAK 081113Z AUTO 11004KT 26/23 A3001=
####018000086####
SPCN46 CWAO 081114
SPECI CYBC 081114Z AUTO 00000KT 2 1/8SM OVC002 13/13 A3003=

####018002949####
SAUS20 KNKA 081115
METAR KPMV 081110Z AUTO 33003KT 7SM CLR 19/18 A3014 RMK AO2 
     T01900184=
METAR KAEG 081115Z AUTO 00000KT 10SM CLR 15/08 A3029 RMK AO1  =
METAR KAFJ 081115Z AUTO 00000KT 1 1/4SM BKN060 18/17 A3012 RMK AO1=
METAR KAIZ 081115Z AUTO 00000KT 9SM SCT017 BKN021 OVC032 22/21 A3007 
    RMK AO1 LTG DSNT SW=
METAR KARG 081115Z AUTO 19004KT 10SM CLR 24/22 A3006 RMK AO1=
METAR KAUO 081115Z AUTO 29003KT 10SM CLR 24/22 A3004 RMK AO1=
METAR KAWO 081115Z AUTO 00000KT 10SM CLR 13/12 A2998 RMK AO1=
METAR KBHB 081115Z AUTO 20007KT 7SM OVC002 18/18 A3013 RMK AO1=
METAR KBID 081115Z AUTO 11004KT M1/4SM OVC002 21/21 A3008 RMK AO1=
METAR KBKX 081115Z AUTO 13003KT 10SM CLR 13/11 A3017 RMK AO1=
METAR KBLM 081115Z AUTO 13007KT 10SM BKN008 OVC090 24/21 A3007 RMK 
    AO1=
METAR KBOW 081115Z AUTO 03004KT 9SM CLR 22/22 A3000 RMK AO2 =
METAR KBTP 081115Z AUTO 00000KT 2SM CLR 19/18 A3011 RMK AO1=
METAR KBVX 081115Z AUTO 13004KT 10SM CLR 23/22 A3007 RMK AO1=
METAR KCGC 081115Z AUTO 00000KT 6SM CLR 21/20 A3000 RMK=
METAR KCGZ 081115Z AUTO 00000KT 10SM CLR 27/01 A2980 RMK AO1=
METAR KCIU 081115Z AUTO 30005KT 3SM OVC002 19/18 A2997 RMK AO1=
METAR KCOD 081115Z 14005KT 10SM CLR 11/01 A3033 RMK AO1=
METAR KCOE 081115Z AUTO 08008KT 10SM CLR 13/08 A3009 RMK AO1=
METAR KCVN 081115Z AUTO 01006KT 10SM SCT006 17/14 A3023 RMK AO1=
METAR KCVO 081115Z AUTO 27008KT 10SM CLR 13/09 A2993 RMK AO1=
METAR KCWI 081115Z 28004KT 2SM OVC006 A3006 RMK AO1=
METAR KDVL 081115Z AUTO 28005KT 10SM CLR 14/12 A3008 RMK AO1=
SPECI KDXR 081114Z 00000KT 3/4SM BR OVC003 23/22 A3008 RMK AO2=
METAR KDYR 081115Z AUTO 00000KT 10SM CLR 23/19 A3008 RMK AO1=
METAR KEAR 081115Z AUTO 34007KT 10SM CLR 15/13 A3025 RMK AO1=
METAR KEEN 081115Z AUTO 00000KT 8SM SCT020 BKN085 OVC120 23/22 A3008 
    RMK AO1=
METAR KEGE 081115Z 00000KT 10SM CLR 10/08 A3037 RMK AO1=
METAR KEHR 081115Z AUTO 00000KT 5SM CLR 22/19 A3006 RMK AO1=
METAR KENV 081115Z 15004KT 10SM CLR 17/00 A3009 RMK AO1=
METAR KESC 081115Z AUTO 27003KT 5SM OVC021 19/16 A2997 RMK AO1=
METAR KEUL 081115Z AUTO 09003KT 10SM CLR 12/06 A3006 RMK AO1=
METAR KEWK 081115Z AUTO 01010KT 10SM BKN006 21/19 A3007 RMK AO1=
METAR KFAM 081115Z AUTO 00000KT 9SM SCT080 22/21 A3009 RMK AO1=
METAR KFKL 081115Z 00000KT 1 3/4SM CLR 19/18 A3014 RMK AO1=
METAR KFLP 081115Z AUTO 00000KT 10SM BKN080 23/21 A3006 RMK AO1=
METAR KFNL 081115Z AUTO 35003KT 8SM OVC006 14/13 A3032 RMK AO1=
METAR KFOD 081115Z AUTO 00000KT 10SM CLR 17/16 A3013 RMK AO1=
METAR KFRM 081115Z AUTO 10SM CLR 16/14 A3015 RMK AO1=
METAR KFTN 081115Z AUTO 05003KT 10SM FEW010 OVC021 25/23 A2992 RMK 
     AO1 =
METAR KGAD 081115Z AUTO 00000KT 10SM CLR 21/19 A3006 RMK AO1=
METAR KGAI 081115Z 00000KT 5SM FEW095 25/22 A3005 RMK AO1 
     =
METAR KGBD 081115Z AUTO 35008KT 10SM OVC008 19/18 A3017 RMK AO1=
METAR KGDV 081115Z AUTO 00000KT 10SM CLR 12/07 A3017 RMK AO1=
####018002983####
SAUS20 KNKA 081115
METAR KGPZ 081115Z AUTO 25006KT 10SM CLR 17/14 A3005 RMK AO1=
METAR KGUC 081115Z AUTO 35006KT 10SM CLR 07/M12 A3044 RMK AO1=
METAR KGXY 081115Z AUTO 07005KT 7SM OVC049 15/12 A3032 RMK AO1=
METAR KHDN 081115Z 14005KT 10SM CLR 09/06 A3032 RMK AO1=
METAR KHEF 081115Z AUTO 00000KT 5SM SCT110 23/20 A3001 RMK AO1=
METAR KHEZ 081115Z AUTO 00000KT 5SM CLR 21/21 A3005 RMK AO1=
METAR KHNB 081115Z AUTO 00000KT 5SM FEW060 23/22 A3006 RMK AO1=
METAR KHYS 081115Z AUTO 36009KT 10SM FEW018 OVC026 18/17 A3020 RMK 
    AO1=
METAR KIWD 081115Z AUTO 30004KT 10SM FEW050 16/14 A3001 RMK AO1=
SPECI KIXD 081114Z 01003KT 3/4SM BR CLR 21/20 A3006 RMK AO2=
METAR KJAC 081115Z AUTO 35003KT 10SM CLR 05/M02 A3036 RMK AO1=
METAR KJHW 081115Z AUTO 20004KT 3SM CLR 19/18 A3012 RMK AO1=
METAR KKLS 081115Z AUTO 34003KT 10SM CLR 16/13 A2993 RMK AO1=
METAR KLBL 081115Z 03006KT 10SM BKN034 OVC041 19/17 A3022 RMK AO1=
METAR KLCI 081115Z AUTO 24003KT 10SM FEW023 OVC100 24/20 A3007 RMK 
    AO1=
METAR KLEW 081115Z 19007KT 2 1/2SM OVC003 20/19 A3011 RMK AO1=
METAR KLGD 081115Z AUTO 13003KT 10SM CLR 12/06 A3005 RMK AO1=
METAR KLKV 081115Z AUTO 32007KT 10SM CLR 11/01 A3011 RMK AO1=
METAR KLPC 081115Z AUTO 00000KT 10SM OVC010 13/11 A2992 RMK AO1 PNO=
METAR KLUX 081115Z AUTO 00000KT 10SM CLR 22/22 A3003 RMK AO2=
METAR KMBL 081115Z AUTO 22005KT 8SM OVC050 22/20 A3001 RMK AO1=
METAR KMER 081115Z AUTO 32008KT 10SM CLR 16/10 A2983 RMK AO1 =
METAR KMJX 081115Z AUTO 12004KT 2 1/2SM SCT065 BKN095 24/22 A3004 
    RMK AO1=
METAR KMKT 081115Z 31003KT 10SM CLR 16/15 A3012 RMK AO1=
METAR KMML 081115Z AUTO 28009KT 10SM CLR 15/12 A3014 RMK AO1=
METAR KMNI 081115Z AUTO 00000KT 10SM CLR 23/22 A2996 RMK AO2=
METAR KMNM 081115Z AUTO 00000KT 5SM BKN006 BKN010 OVC014 21/19 A2999 
    RMK AO1=
METAR KMRF 081115Z AUTO 04007KT 10SM BKN110 17/15 A3018 RMK AO1=
METAR KMSV 081115Z AUTO 00000KT 5SM CLR 22/19 A3011 RMK AO1=
METAR KMTW 081115Z 00000KT 6SM SCT008 21/21 A3000 RMK AO1=
METAR KMVN 081115Z AUTO 00000KT 4SM FEW055 23/21 A3006 RMK AO1=
METAR KOGA 081110Z AUTO 00000KT 10SM OVC095 15/14 A3027 RMK AO2 
     T01510142=
METAR KOKK 081115Z AUTO 00000KT 3SM FEW070 BKN080 OVC110 23/18 A3005 
    RMK AO1=
METAR KOLU 081115Z AUTO 01003KT 10SM SCT090 16/14 A3020 RMK AO1=
METAR KONL 081110Z AUTO 30003KT 10SM CLR 17/15 A3021 RMK AO2 LTG 
     DSNT SE T01650150=
METAR KOTG 081115Z AUTO 28005KT 10SM CLR 14/13 A3017 RMK AO1=
METAR KOTH 081115Z 31004KT 10SM OVC006 10/08 A3000 RMK AO1=
METAR KPIB 081115Z AUTO 00000KT 4SM CLR 23/21 A3005 RMK AO1=
METAR KPNA 081110Z AUTO 28006KT 10SM CLR 03/00 A3039 RMK AO2 
     T00310000=
METAR KPQI 081115Z AUTO 15007KT 10SM CLR 22/18 A3000 RMK AO1=
METAR KPTN 081115Z AUTO 08005KT 10SM CLR 24/M08 A3002 RMK AO1=
METAR KPTT 081110Z AUTO 01008KT 4SM BR OVC002 20/20 A3014 RMK AO2 
     LTG DSNT SE=
METAR KPTV 081115Z AUTO 18004KT 10SM CLR 18/11 A2985 RMK AO1=
####018002107####
SAUS20 KNKA 081115
METAR KPVC 081115Z 18008KT 10SM FEW005 23/20 A3011 RMK AO1=
METAR KPVU 081115Z 34004KT 10SM CLR 17/07 A3013 RMK AO1=
METAR KPWT 081115Z AUTO 04006KT 10SM CLR 21/06 A2998 RMK AO1=
METAR KRKD 081115Z AUTO 21005KT 1SM OVC002 18/17 A3012 RMK AO1=
METAR KRUT 081115Z AUTO 14006KT 5SM CLR 23/20 A3006 RMK AO1=
METAR KSDY 081115Z AUTO 19005KT 10SM SCT080 11/08 A3015 RMK AO1=
METAR KSFM 081115Z 00000KT 4SM OVC005 22/19 A3010 RMK AO1=
METAR KSFZ 081115Z AUTO 15003KT 10SM SCT010 BKN015 BKN050 22/21 
    A3009 RMK AO1=
METAR KSGT 081115Z 00000KT 10SM CLR 23/21 A3007 RMK AO1=
METAR KSGU 081115Z AUTO 03008KT 10SM CLR 24/01 A2995 RMK AO1=
METAR KSKX 081115Z AUTO 36005KT 10SM CLR 11/05 A3038 RMK AO1=
METAR KSLG 081115Z AUTO 14003KT 10SM OVC021 22/21 A3008 RMK AO1=
METAR KSMN 081115Z AUTO 00000KT 10SM CLR 07/01 A3026 RMK AO1=
METAR KSOW 081110Z AUTO 14006KT 10SM FEW100 19/03 A3025 RMK AO2=
METAR KSPA 081115Z AUTO 03004KT 10SM CLR 23/23 A3003 RMK AO2=
METAR KSPL 081115Z AUTO RMK AO2 PWINO PNO =
METAR KSQI 081115Z 00000KT 3SM BKN006 OVC014 22/22 A3006 RMK AO1=
METAR KSUE 081115Z AUTO 25003KT 8SM BKN011 21/20 A2999 RMK AO1=
METAR KSUN 081111Z AUTO 31008G16KT 10SM CLR 10/01 A3024 RMK AO2=
METAR KSZT 081110Z AUTO 00000KT 10SM CLR 10/08 A3011 RMK AO2=
SPECI KTCC 081114Z AUTO 01006KT 10SM FEW012 BKN065 OVC100 18/16 
    A3023 RMK AO2=
METAR KTIF 081110Z AUTO 00000KT 10SM SCT085 SCT095 15/14 A3026 
     RMK AO2 T01490140=
METAR KTRK 081110Z AUTO 00000KT 10SM CLR 09/08 A3015 RMK AO2=
METAR KTVF 081115Z AUTO 21003KT 10SM CLR 13/11 A3005 RMK AO1=
METAR KUTA 081115Z AUTO 11003KT 10SM CLR 23/22 A3007 RMK AO2=
METAR KVBT 081115Z AUTO 00000KT 10SM OVC022 23/21 A3005 RMK AO1=
METAR KVIS 081115Z AUTO 29003KT 10SM CLR 19/12 A2981 RMK AO1=
METAR KWVL 081115Z AUTO 19005KT 5SM OVC004 21/19 A3006 RMK AO1=
METAR KWWD 081115Z AUTO 10SM FEW060 BKN080 BKN120 24/23 A3004 RMK 
    AO1=
METAR KX40 081115Z AUTO 00000KT 5SM BR CLR 22/21 A3001 RMK AO2 
     T02200214=
METAR KYKN 081115Z AUTO 26003KT 10SM CLR 17/14 A3018 RMK AO1=
####018000103####
SAPH31 RPLC 081100
METAR RPLC 081100Z
33004G19KT 9999 FEW036 BKN270 27/22 Q1010 A2983 RMK/NOSIG=
####018000087####
SPUS90 KWBC 081116
SPECI KNAK 081113Z AUTO 11004KT 26/23 A3001 RMK AO2 PWINO TSNO=
####018000118####
SAAK41 KNKA 081115
SPECI PAWD 081113Z AUTO 00000KT 9SM FEW002 OVC008 11/09 A2995 RMK 
    AO2 CIG 005V011 TSNO=
####018000094####
SPCN46 CWAO 081114
SPECI CYGQ 081114Z 24005KT 15SM FEW009 BKN025 BKN110 RMK SF2SC2AC2=

####018000124####
SAIN32 VIDP 081100
METAR VIDP 081100Z 06009KT 2700 HZ SCT030 FEW040CB BKN100 33/26 Q1004
    TEMPO 36030KT 1500 TSRA=
####018003692####
SAUS99 KWBC 081116
METAR
KAFK 081110Z AUTO 35006KT 4SM BR CLR 19/18 A3014 RMK AO2 LTG DSNT
     S T01910182=
KANW 081110Z AUTO 23004KT 10SM CLR 16/15 A3024 RMK AO2
     T01570145=
KAUH 081110Z AUTO 34007KT 10SM CLR 16/15 A3020 RMK AO2
     T01550145=
KAUN 081110Z AUTO 00000KT 10SM CLR 21/14 A2987 RMK AO1=
KBIE 081110Z AUTO 00000KT 10SM SCT017 18/17 A3015 RMK AO2 LTG DSNT
     S T01810170=
KBTA 081110Z AUTO 36004KT 7SM CLR 19/17 A3015 RMK AO2
     T01850170=
KBVN 081110Z AUTO 32003KT 10SM OVC090 17/15 A3020 RMK AO2
     T01650152=
KDVO 081110Z AUTO 00000KT 10SM OVC012 12/11 A2992 RMK AO2=
KHDE 081110Z AUTO 33003KT 10SM CLR 16/14 A3022 RMK AO2
     T01550141=
KHJH 081110Z AUTO 35004KT 10SM OVC029 19/18 A3017 RMK AO2
     T01920177=
KIBM 081110Z AUTO 00000KT 10SM SCT024 BKN080 OVC085 13/12 A3032
     RMK AO2 T01260116=
KIZA 081111Z AUTO 00000KT 10SM OVC009 13/11 A2991 RMK AO2=
KJSV 081111Z AUTO 10003KT 10SM VCTS BKN044 23/22 A3004 RMK AO2 LTG
     DSNT N=
KJYR 081110Z AUTO 35003KT 10SM CLR 15/15 A3018 RMK AO2=
KL35 081112Z AUTO 00000KT 10SM CLR 06/M04 A3017 RMK AO2=
KLCG 081110Z AUTO 29003KT 10SM CLR 14/14 A3019 RMK AO2
     T01440135=
KLHM 081111Z AUTO 16007KT 10SM CLR 16/11 A2982 RMK AO1
     T01630109=
KLXN 081110Z AUTO 00000KT 10SM BKN050 OVC080 17/16 A3024 RMK AO2
     T01700160=
KMLE 081110Z AUTO 00000KT 10SM CLR 19/17 A3015 RMK AO2
     T01920166=
KMMH 081110Z AUTO 33003KT 10SM CLR 09/01 A3021 RMK AO1=
KPLU 081110Z AUTO 00000KT 10SM FEW036 FEW070 13/13 A2994 RMK
     AO2=
KRKR 081112Z AUTO 00000KT 10SM SCT029 SCT120 26/24 A3004 RMK AO2
     LTG DSNT N AND NW=
KSRE 081110Z AUTO 00000KT 5SM VCTS BR CLR 24/24 A3004 RMK AO2 LTG
     DSNT NE=
KPMV 081110Z AUTO 33003KT 7SM CLR 19/18 A3014 RMK AO2
     T01900184=
KAEG 081115Z AUTO 00000KT 10SM CLR 15/08 A3029 RMK AO1=
KAFJ 081115Z AUTO 00000KT 1 1/4SM BKN060 18/17 A3012 RMK AO1=
KAIZ 081115Z AUTO 00000KT 9SM SCT017 BKN021 OVC032 22/21 A3007 RMK
     AO1 LTG DSNT SW=
KARG 081115Z AUTO 19004KT 10SM CLR 24/22 A3006 RMK AO1=
KAUO 081115Z AUTO 29003KT 10SM CLR 24/22 A3004 RMK AO1=
KAWO 081115Z AUTO 00000KT 10SM CLR 13/12 A2998 RMK AO1=
KBHB 081115Z AUTO 20007KT 7SM OVC002 18/18 A3013 RMK AO1=
KBID 081115Z AUTO 11004KT M1/4SM OVC002 21/21 A3008 RMK AO1=
KBKX 081115Z AUTO 13003KT 10SM CLR 13/11 A3017 RMK AO1=
KBLM 081115Z AUTO 13007KT 10SM BKN008 OVC090 24/21 A3007 RMK
     AO1=
KBOW 081115Z AUTO 03004KT 9SM CLR 22/22 A3000 RMK AO2=
KBTP 081115Z AUTO 00000KT 2SM CLR 19/18 A3011 RMK AO1=
KBVX 081115Z AUTO 13004KT 10SM CLR 23/22 A3007 RMK AO1=
KCGC 081115Z AUTO 00000KT 6SM CLR 21/20 A3000 RMK=
KCGZ 081115Z AUTO 00000KT 10SM CLR 27/01 A2980 RMK AO1=
KCIU 081115Z AUTO 30005KT 3SM OVC002 19/18 A2997 RMK AO1=
KCOD 081115Z 14005KT 10SM CLR 11/01 A3033 RMK AO1=
KCOE 081115Z AUTO 08008KT 10SM CLR 13/08 A3009 RMK AO1=
KCVN 081115Z AUTO 01006KT 10SM SCT006 17/14 A3023 RMK AO1=
KCVO 081115Z AUTO 27008KT 10SM CLR 13/09 A2993 RMK AO1=
KCWI 081115Z 28004KT 2SM OVC006 A3006 RMK AO1=
KDVL 081115Z AUTO 28005KT 10SM CLR 14/12 A3008 RMK AO1=
KDYR 081115Z AUTO 00000KT 10SM CLR 23/19 A3008 RMK AO1=
KEAR 081115Z AUTO 34007KT 10SM CLR 15/13 A3025 RMK AO1=
KEEN 081115Z AUTO 00000KT 8SM SCT020 BKN085 OVC120 23/22 A3008 RMK
     AO1=
KEGE 081115Z 00000KT 10SM CLR 10/08 A3037 RMK AO1=
KEHR 081115Z AUTO 00000KT 5SM CLR 22/19 A3006 RMK AO1=
KENV 081115Z 15004KT 10SM CLR 17/00 A3009 RMK AO1=
KESC 081115Z AUTO 27003KT 5SM OVC021 19/16 A2997 RMK AO1=
KEUL 081115Z AUTO 09003KT 10SM CLR 12/06 A3006 RMK AO1=
KEWK 081115Z AUTO 01010KT 10SM BKN006 21/19 A3007 RMK AO1=
####018003714####
SAUS99 KWBC 081116 RRA
METAR
KFAM 081115Z AUTO 00000KT 9SM SCT080 22/21 A3009 RMK AO1=
KFKL 081115Z 00000KT 1 3/4SM CLR 19/18 A3014 RMK AO1=
KFLP 081115Z AUTO 00000KT 10SM BKN080 23/21 A3006 RMK AO1=
KFNL 081115Z AUTO 35003KT 8SM OVC006 14/13 A3032 RMK AO1=
KFOD 081115Z AUTO 00000KT 10SM CLR 17/16 A3013 RMK AO1=
KFRM 081115Z AUTO 10SM CLR 16/14 A3015 RMK AO1=
KFTN 081115Z AUTO 05003KT 10SM FEW010 OVC021 25/23 A2992 RMK
     AO1=
KGAD 081115Z AUTO 00000KT 10SM CLR 21/19 A3006 RMK AO1=
KGAI 081115Z 00000KT 5SM FEW095 25/22 A3005 RMK AO1=
KGBD 081115Z AUTO 35008KT 10SM OVC008 19/18 A3017 RMK AO1=
KGDV 081115Z AUTO 00000KT 10SM CLR 12/07 A3017 RMK AO1=
KPVC 081115Z 18008KT 10SM FEW005 23/20 A3011 RMK AO1=
KPVU 081115Z 34004KT 10SM CLR 17/07 A3013 RMK AO1=
KPWT 081115Z AUTO 04006KT 10SM CLR 21/06 A2998 RMK AO1=
KRKD 081115Z AUTO 21005KT 1SM OVC002 18/17 A3012 RMK AO1=
KRUT 081115Z AUTO 14006KT 5SM CLR 23/20 A3006 RMK AO1=
KSDY 081115Z AUTO 19005KT 10SM SCT080 11/08 A3015 RMK AO1=
KSFM 081115Z 00000KT 4SM OVC005 22/19 A3010 RMK AO1=
KSFZ 081115Z AUTO 15003KT 10SM SCT010 BKN015 BKN050 22/21 A3009
     RMK AO1=
KSGT 081115Z 00000KT 10SM CLR 23/21 A3007 RMK AO1=
KSGU 081115Z AUTO 03008KT 10SM CLR 24/01 A2995 RMK AO1=
KSKX 081115Z AUTO 36005KT 10SM CLR 11/05 A3038 RMK AO1=
KSLG 081115Z AUTO 14003KT 10SM OVC021 22/21 A3008 RMK AO1=
KSMN 081115Z AUTO 00000KT 10SM CLR 07/01 A3026 RMK AO1=
KSOW 081110Z AUTO 14006KT 10SM FEW100 19/03 A3025 RMK AO2=
KSPA 081115Z AUTO 03004KT 10SM CLR 23/23 A3003 RMK AO2=
KSPL 081115Z AUTO RMK AO2 PWINO PNO=
KSQI 081115Z 00000KT 3SM BKN006 OVC014 22/22 A3006 RMK AO1=
KSUE 081115Z AUTO 25003KT 8SM BKN011 21/20 A2999 RMK AO1=
KSUN 081111Z AUTO 31008G16KT 10SM CLR 10/01 A3024 RMK AO2=
KSZT 081110Z AUTO 00000KT 10SM CLR 10/08 A3011 RMK AO2=
KTIF 081110Z AUTO 00000KT 10SM SCT085 SCT095 15/14 A3026 RMK AO2
     T01490140=
KTRK 081110Z AUTO 00000KT 10SM CLR 09/08 A3015 RMK AO2=
KTVF 081115Z AUTO 21003KT 10SM CLR 13/11 A3005 RMK AO1=
KUTA 081115Z AUTO 11003KT 10SM CLR 23/22 A3007 RMK AO2=
KVBT 081115Z AUTO 00000KT 10SM OVC022 23/21 A3005 RMK AO1=
KVIS 081115Z AUTO 29003KT 10SM CLR 19/12 A2981 RMK AO1=
KWVL 081115Z AUTO 19005KT 5SM OVC004 21/19 A3006 RMK AO1=
KWWD 081115Z AUTO 10SM FEW060 BKN080 BKN120 24/23 A3004 RMK
     AO1=
KX40 081115Z AUTO 00000KT 5SM BR CLR 22/21 A3001 RMK AO2
     T02200214=
KYKN 081115Z AUTO 26003KT 10SM CLR 17/14 A3018 RMK AO1=
KGPZ 081115Z AUTO 25006KT 10SM CLR 17/14 A3005 RMK AO1=
KGUC 081115Z AUTO 35006KT 10SM CLR 07/M12 A3044 RMK AO1=
KGXY 081115Z AUTO 07005KT 7SM OVC049 15/12 A3032 RMK AO1=
KHDN 081115Z 14005KT 10SM CLR 09/06 A3032 RMK AO1=
KHEF 081115Z AUTO 00000KT 5SM SCT110 23/20 A3001 RMK AO1=
KHEZ 081115Z AUTO 00000KT 5SM CLR 21/21 A3005 RMK AO1=
KHNB 081115Z AUTO 00000KT 5SM FEW060 23/22 A3006 RMK AO1=
KHYS 081115Z AUTO 36009KT 10SM FEW018 OVC026 18/17 A3020 RMK
     AO1=
KIWD 081115Z AUTO 30004KT 10SM FEW050 16/14 A3001 RMK AO1=
KJAC 081115Z AUTO 35003KT 10SM CLR 05/M02 A3036 RMK AO1=
KJHW 081115Z AUTO 20004KT 3SM CLR 19/18 A3012 RMK AO1=
KKLS 081115Z AUTO 34003KT 10SM CLR 16/13 A2993 RMK AO1=
KLBL 081115Z 03006KT 10SM BKN034 OVC041 19/17 A3022 RMK AO1=
KLCI 081115Z AUTO 24003KT 10SM FEW023 OVC100 24/20 A3007 RMK
     AO1=
KLEW 081115Z 19007KT 2 1/2SM OVC003 20/19 A3011 RMK AO1=
KLGD 081115Z AUTO 13003KT 10SM CLR 12/06 A3005 RMK AO1=
KLKV 081115Z AUTO 32007KT 10SM CLR 11/01 A3011 RMK AO1=
KLPC 081115Z AUTO 00000KT 10SM OVC010 13/11 A2992 RMK AO1 PNO=
KLUX 081115Z AUTO 00000KT 10SM CLR 22/22 A3003 RMK AO2=
KMBL 081115Z AUTO 22005KT 8SM OVC050 22/20 A3001 RMK AO1=
####018000650####
SPUS99 KWBC 081116
SPECI
KBDR 081113Z 13005KT 3SM BR OVC004 25/23 A3005 RMK AO2=
KBOK 081114Z AUTO 30003KT 1/2SM FG OVC002 09/09 A2998 RMK AO2
     $=
KPIA 081113Z 22004KT 1 1/4SM BR FEW010 BKN014 OVC023 23/22 A3004
     RMK AO2=
KRKP 081113Z AUTO 07006KT 5SM +RA BR BKN015 BKN023 BKN028 27/25
     A2984 RMK AO2 LTG DSNT NW RAB1056 P0006 $=
KDXR 081114Z 00000KT 3/4SM BR OVC003 23/22 A3008 RMK AO2=
KTCC 081114Z AUTO 01006KT 10SM FEW012 BKN065 OVC100 18/16 A3023
     RMK AO2=
KIXD 081114Z 01003KT 3/4SM BR CLR 21/20 A3006 RMK AO2=
PAWD 081113Z AUTO 00000KT 9SM FEW002 OVC008 11/09 A2995 RMK AO2
     CIG 005V011 TSNO=
####018000505####
SAAF32 KWBC 081100 RRC
METAR
FCBB 081100Z 22008KT 180V250 6000 SCT017 BKN022 25/20 Q1015
     NOSIG=
FCPP 081100Z 22006KT 8000 SCT017 BKN033 25/20 Q1014 NOSIG=
FGSL 081100Z NIL=
FKKD 081100Z 22003KT 170V200 9999 BKN013 FEW016CB 30/25 Q1014
     BECMG BKN016 FEW020CB=
FOOG 081100Z NIL=
FOOL 081100Z 20004KT 150V250 8000 SCT011 BKN040 28/22 Q1015
     NOSIG=
FOON 081100Z 05002KT 7000 OVC020 27/22 Q1017=
FPST 081100Z NIL=
FZAA 081100Z 23010KT 4000 BR BKN018 25/19 Q1015 NOSIG=
####018001462####
SAUS99 KWBC 081116 RRB
METAR
KMER 081115Z AUTO 32008KT 10SM CLR 16/10 A2983 RMK AO1=
KMJX 081115Z AUTO 12004KT 2 1/2SM SCT065 BKN095 24/22 A3004 RMK
     AO1=
KMKT 081115Z 31003KT 10SM CLR 16/15 A3012 RMK AO1=
KMML 081115Z AUTO 28009KT 10SM CLR 15/12 A3014 RMK AO1=
KMNI 081115Z AUTO 00000KT 10SM CLR 23/22 A2996 RMK AO2=
KMNM 081115Z AUTO 00000KT 5SM BKN006 BKN010 OVC014 21/19 A2999 RMK
     AO1=
KMRF 081115Z AUTO 04007KT 10SM BKN110 17/15 A3018 RMK AO1=
KMSV 081115Z AUTO 00000KT 5SM CLR 22/19 A3011 RMK AO1=
KMTW 081115Z 00000KT 6SM SCT008 21/21 A3000 RMK AO1=
KMVN 081115Z AUTO 00000KT 4SM FEW055 23/21 A3006 RMK AO1=
KOGA 081110Z AUTO 00000KT 10SM OVC095 15/14 A3027 RMK AO2
     T01510142=
KOKK 081115Z AUTO 00000KT 3SM FEW070 BKN080 OVC110 23/18 A3005 RMK
     AO1=
KOLU 081115Z AUTO 01003KT 10SM SCT090 16/14 A3020 RMK AO1=
KONL 081110Z AUTO 30003KT 10SM CLR 17/15 A3021 RMK AO2 LTG DSNT SE
     T01650150=
KOTG 081115Z AUTO 28005KT 10SM CLR 14/13 A3017 RMK AO1=
KOTH 081115Z 31004KT 10SM OVC006 10/08 A3000 RMK AO1=
KPIB 081115Z AUTO 00000KT 4SM CLR 23/21 A3005 RMK AO1=
KPNA 081110Z AUTO 28006KT 10SM CLR 03/00 A3039 RMK AO2
     T00310000=
KPQI 081115Z AUTO 15007KT 10SM CLR 22/18 A3000 RMK AO1=
KPTN 081115Z AUTO 08005KT 10SM CLR 24/M08 A3002 RMK AO1=
KPTT 081110Z AUTO 01008KT 4SM BR OVC002 20/20 A3014 RMK AO2 LTG
     DSNT SE=
KPTV 081115Z AUTO 18004KT 10SM CLR 18/11 A2985 RMK AO1=
####018000053####
SAAF34 KWBC 081100 RRC
METAR
FEFF 081100Z NIL=
####018000630####
SAAM31 FCBB 081100
METAR FCBB 081100Z 22008KT 180V250 6000  SCT017 BKN022 25/20 Q1015
NOSIG=
METAR FCPP 081100Z 22006KT 8000 SCT017 BKN033 25/20 Q1014 NOSIG=
METAR FEFF 081100Z NIL=
METAR FGSL 081100Z NIL=
METAR FKKD 081100Z 22003KT 170V200 9999 BKN013 FEW016CB 30/25 Q1014
BECMG BKN016 FEW020CB=
METAR FKYS 081100Z 23005KT 9999 BKN013 26/20 Q1019 NOSIG=
METAR FNLU 081100Z NIL=
METAR FOOG 081100Z NIL=
METAR FOOL 081100Z 20004KT 150V250 8000 SCT011 BKN040 28/22 Q1015
NOSIG=
METAR FOON 081100Z 05002KT 7000 OVC020 27/22 Q1017=
METAR FPST 081100Z NIL=
METAR FZAA 081100Z 23010KT 4000 BR BKN018 25/19 Q1015 NOSIG=
####018000436####
SAUS80 KWBC 081116
METAR
KPTS 081110Z AUTO 14004KT 10SM SCT028 SCT038 BKN045 22/22 A3006
     RMK AO2 LTG DSNT E THRU SW T02200221=
KIZA 081111Z AUTO 00000KT 10SM OVC009 13/11 A2991 RMK AO2=
KDVL 081115Z AUTO 28005KT 10SM CLR 14/12 A3008 RMK AO1=
KEAR 081115Z AUTO 34007KT 10SM CLR 15/13 A3025 RMK AO1=
KSOW 081110Z AUTO 14006KT 10SM FEW100 19/03 A3025 RMK AO2=
KGPZ 081115Z AUTO 25006KT 10SM CLR 17/14 A3005 RMK AO1=
####018000536####
SAUS70 KWBC 081116 RRC
METAR
KOTG 081115Z AUTO 28005KT 10SM CLR 14/13 A3017 RMK AO1=
KOTH 081115Z 31004KT 10SM OVC006 10/08 A3000 RMK AO1=
KPIB 081115Z AUTO 00000KT 4SM CLR 23/21 A3005 RMK AO1=
KPNA 081110Z AUTO 28006KT 10SM CLR 03/00 A3039 RMK AO2
     T00310000=
KPQI 081115Z AUTO 15007KT 10SM CLR 22/18 A3000 RMK AO1=
KPTN 081115Z AUTO 08005KT 10SM CLR 24/M08 A3002 RMK AO1=
KPTT 081110Z AUTO 01008KT 4SM BR OVC002 20/20 A3014 RMK AO2 LTG
     DSNT SE=
KPTV 081115Z AUTO 18004KT 10SM CLR 18/11 A2985 RMK AO1=
####018003688####
SAUS70 KWBC 081116
METAR
KPSO 081115Z AUTO 30003KT 10SM CLR 08/05 A3039 RMK AO2=
KPVJ 081107Z AUTO 29003KT 7SM CLR 24/23 A3004 RMK AO2 LTG DSNT
     NE=
KSNL 081112Z AUTO 36005KT 7SM VCTS OVC005 24/23 A3005 RMK AO2=
KSVC 081110Z AUTO 05008KT 10SM OVC110 18/14 A3022 RMK AO2=
KTEX 081111Z AUTO 12008KT 10SM SCT085 OVC110 12/04 A3046 RMK
     AO2=
KTMK 081113Z AUTO 11003KT 10SM OVC006 12/12 A2996 RMK AO2=
KTQH 081114Z AUTO 00000KT 10SM SCT017 BKN026 OVC033 23/23 A3005
     RMK AO2=
KWWR 081109Z AUTO 36005KT 10SM SCT009 SCT041 BKN120 22/21 A3015
     RMK AO2 LTG DSNT E T02150205=
K1F0 081108Z AUTO 00000KT 10SM SCT080 24/24 A3002 RMK AO2 LTG DSNT
     NE=
K4O4 081108Z AUTO 00000KT 4SM CLR 23/22 A3006 RMK AO2 LTG DSNT
     N=
KADH 081110Z AUTO 17003KT 7SM SCT025 23/22 A3004 RMK AO2 LTG DSNT
     NE=
KADM 081110Z AUTO 00000KT 7SM SCT021 BKN025 OVC070 23/23 A3003 RMK
     AO2 LTG DSNT N=
KAIK 081115Z AUTO 28004KT 10SM CLR 23/22 A3005 RMK AO2 PNO=
KALM 081110Z AUTO 14004KT 10SM CLR 16/14 A3014 RMK AO2=
KARW 081115Z AUTO 28008KT 10SM CLR 25/19 A2998 RMK AO2=
KATS 081110Z AUTO 34008KT 10SM -RA BKN035 19/18 A3017 RMK AO2=
KAXS 081110Z AUTO 06009KT 3/4SM -RA BKN004 BKN017 OVC022 23/22
     A3008 RMK AO2 P0053 T02320219=
KAXX 081110Z AUTO 00000KT 10SM CLR 05/04 A3048 RMK AO2=
KBDN 081115Z AUTO 21005KT 10SM CLR 12/03 A3011 RMK AO2=
KBVS 081110Z AUTO 03006KT 10SM CLR 19/12 A2998 RMK A01 P000=
KCHK 081111Z AUTO 00000KT 5SM BR CLR 22/22 A3005 RMK AO2 LTG DSNT
     NE=
KCLK 081113Z AUTO 02006KT 10SM SCT025 22/20 A3007 RMK AO2=
KCQB 081110Z AUTO RMK AO2 PWINO TSNO=
KCUH 081110Z AUTO 00000KT 7SM -RA BKN021 BKN035 OVC060 23/23 A3005
     RMK AO2=
KDUA 081117Z AUTO 15005KT 10SM CLR 24/23 A3004 RMK AO2 LTG DSNT
     N=
KFDW 081115Z AUTO 34004KT 10SM CLR 24/18 A3001 RMK AO1=
KFET 081110Z AUTO 34003KT 10SM CLR 17/16 A3017 RMK AO2 LTG DSNT
     S=
KGCD 081110Z AUTO 12006KT 10SM CLR 14/03 A3011 RMK AO2
     T01430030=
KGCM 081115Z AUTO 29003KT 3SM +VCTSRA BKN007 OVC012 23/23 A3007
     RMK AO2 LTG DSNT NE S AND NW P0019=
KGLY 081115Z AUTO 00000KT 5SM BR BKN006 22/22 A3005 RMK AO2=
KGMJ 081114Z AUTO 00000KT OVC021 26/26 A3005 RMK AO2 PWINO=
KIDP 081110Z AUTO 00000KT 10SM VCTS BKN033 BKN041 BKN100 21/20
     A3006 RMK AO2 LTG DSNT SE=
KLAM 081110Z AUTO 00000KT 10SM CLR 15/08 A3037 RMK AO2=
KLRU 081111Z AUTO 36003KT 10SM CLR 20/15 A3016 RMK AO2=
KMEZ 081115Z AUTO 00000KT 7SM SCT012 SCT028 BKN045 25/23 A3008 RMK
     AO2 LTG DSNT NW=
KOJA 081110Z AUTO 01005KT 10SM BKN013 OVC023 22/22 A3008 RMK AO2
     LTG DSNT E=
KOKM 081111Z AUTO 01003KT 10SM -RA OVC005 24/24 A3004 RMK AO1 LTG
     DSNT NE=
KONP 081110Z AUTO 20006KT 10SM OVC004 11/09 A3000 RMK AO1=
KORS 081110Z AUTO 00000KT 10SM CLR 14/12 A2995 RMK AO2=
KOUN 081112Z AUTO 00000KT 10SM OVC011 25/23 A3006 RMK AO2 LTG DSNT
     NE=
KOAJ 081115Z AUTO 00000KT 6SM CLR 23/22 A2994 RMK AO1=
KSOP 081115Z AUTO 00000KT 10SM CLR 23/18 A2998 RMK AO1=
KUDG 081115Z 32004KT 10SM CLR 24/18 A2997 RMK AO1=
KAFK 081110Z AUTO 35006KT 4SM BR CLR 19/18 A3014 RMK AO2 LTG DSNT
     S T01910182=
KANW 081110Z AUTO 23004KT 10SM CLR 16/15 A3024 RMK AO2
     T01570145=
KAUH 081110Z AUTO 34007KT 10SM CLR 16/15 A3020 RMK AO2
     T01550145=
KAUN 081110Z AUTO 00000KT 10SM CLR 21/14 A2987 RMK AO1=
KBIE 081110Z AUTO 00000KT 10SM SCT017 18/17 A3015 RMK AO2 LTG DSNT
     S T01810170=
KBTA 081110Z AUTO 36004KT 7SM CLR 19/17 A3015 RMK AO2
     T01850170=
KBVN 081110Z AUTO 32003KT 10SM OVC090 17/15 A3020 RMK AO2
     T01650152=
KDVO 081110Z AUTO 00000KT 10SM OVC012 12/11 A2992 RMK AO2=
####018003740####
SAUS70 KWBC 081116 RRA
METAR
KHDE 081110Z AUTO 33003KT 10SM CLR 16/14 A3022 RMK AO2
     T01550141=
KHJH 081110Z AUTO 35004KT 10SM OVC029 19/18 A3017 RMK AO2
     T01920177=
KIBM 081110Z AUTO 00000KT 10SM SCT024 BKN080 OVC085 13/12 A3032
     RMK AO2 T01260116=
KJSV 081111Z AUTO 10003KT 10SM VCTS BKN044 23/22 A3004 RMK AO2 LTG
     DSNT N=
KJYR 081110Z AUTO 35003KT 10SM CLR 15/15 A3018 RMK AO2=
KL35 081112Z AUTO 00000KT 10SM CLR 06/M04 A3017 RMK AO2=
KLCG 081110Z AUTO 29003KT 10SM CLR 14/14 A3019 RMK AO2
     T01440135=
KLHM 081111Z AUTO 16007KT 10SM CLR 16/11 A2982 RMK AO1
     T01630109=
KLXN 081110Z AUTO 00000KT 10SM BKN050 OVC080 17/16 A3024 RMK AO2
     T01700160=
KMLE 081110Z AUTO 00000KT 10SM CLR 19/17 A3015 RMK AO2
     T01920166=
KMMH 081110Z AUTO 33003KT 10SM CLR 09/01 A3021 RMK AO1=
KPLU 081110Z AUTO 00000KT 10SM FEW036 FEW070 13/13 A2994 RMK
     AO2=
KRKR 081112Z AUTO 00000KT 10SM SCT029 SCT120 26/24 A3004 RMK AO2
     LTG DSNT N AND NW=
KSRE 081110Z AUTO 00000KT 5SM VCTS BR CLR 24/24 A3004 RMK AO2 LTG
     DSNT NE=
KPMV 081110Z AUTO 33003KT 7SM CLR 19/18 A3014 RMK AO2
     T01900184=
KAEG 081115Z AUTO 00000KT 10SM CLR 15/08 A3029 RMK AO1=
KAFJ 081115Z AUTO 00000KT 1 1/4SM BKN060 18/17 A3012 RMK AO1=
KAIZ 081115Z AUTO 00000KT 9SM SCT017 BKN021 OVC032 22/21 A3007 RMK
     AO1 LTG DSNT SW=
KARG 081115Z AUTO 19004KT 10SM CLR 24/22 A3006 RMK AO1=
KAUO 081115Z AUTO 29003KT 10SM CLR 24/22 A3004 RMK AO1=
KAWO 081115Z AUTO 00000KT 10SM CLR 13/12 A2998 RMK AO1=
KBHB 081115Z AUTO 20007KT 7SM OVC002 18/18 A3013 RMK AO1=
KBID 081115Z AUTO 11004KT M1/4SM OVC002 21/21 A3008 RMK AO1=
KBKX 081115Z AUTO 13003KT 10SM CLR 13/11 A3017 RMK AO1=
KBLM 081115Z AUTO 13007KT 10SM BKN008 OVC090 24/21 A3007 RMK
     AO1=
KBOW 081115Z AUTO 03004KT 9SM CLR 22/22 A3000 RMK AO2=
KBTP 081115Z AUTO 00000KT 2SM CLR 19/18 A3011 RMK AO1=
KBVX 081115Z AUTO 13004KT 10SM CLR 23/22 A3007 RMK AO1=
KCGC 081115Z AUTO 00000KT 6SM CLR 21/20 A3000 RMK=
KCGZ 081115Z AUTO 00000KT 10SM CLR 27/01 A2980 RMK AO1=
KCIU 081115Z AUTO 30005KT 3SM OVC002 19/18 A2997 RMK AO1=
KCOD 081115Z 14005KT 10SM CLR 11/01 A3033 RMK AO1=
KCOE 081115Z AUTO 08008KT 10SM CLR 13/08 A3009 RMK AO1=
KCVN 081115Z AUTO 01006KT 10SM SCT006 17/14 A3023 RMK AO1=
KCVO 081115Z AUTO 27008KT 10SM CLR 13/09 A2993 RMK AO1=
KCWI 081115Z 28004KT 2SM OVC006 A3006 RMK AO1=
KDYR 081115Z AUTO 00000KT 10SM CLR 23/19 A3008 RMK AO1=
KEEN 081115Z AUTO 00000KT 8SM SCT020 BKN085 OVC120 23/22 A3008 RMK
     AO1=
KEGE 081115Z 00000KT 10SM CLR 10/08 A3037 RMK AO1=
KEHR 081115Z AUTO 00000KT 5SM CLR 22/19 A3006 RMK AO1=
KENV 081115Z 15004KT 10SM CLR 17/00 A3009 RMK AO1=
KESC 081115Z AUTO 27003KT 5SM OVC021 19/16 A2997 RMK AO1=
KEUL 081115Z AUTO 09003KT 10SM CLR 12/06 A3006 RMK AO1=
KEWK 081115Z AUTO 01010KT 10SM BKN006 21/19 A3007 RMK AO1=
KFAM 081115Z AUTO 00000KT 9SM SCT080 22/21 A3009 RMK AO1=
KFKL 081115Z 00000KT 1 3/4SM CLR 19/18 A3014 RMK AO1=
KFLP 081115Z AUTO 00000KT 10SM BKN080 23/21 A3006 RMK AO1=
KFNL 081115Z AUTO 35003KT 8SM OVC006 14/13 A3032 RMK AO1=
KFOD 081115Z AUTO 00000KT 10SM CLR 17/16 A3013 RMK AO1=
KFRM 081115Z AUTO 10SM CLR 16/14 A3015 RMK AO1=
KFTN 081115Z AUTO 05003KT 10SM FEW010 OVC021 25/23 A2992 RMK
     AO1=
KGAD 081115Z AUTO 00000KT 10SM CLR 21/19 A3006 RMK AO1=
KGAI 081115Z 00000KT 5SM FEW095 25/22 A3005 RMK AO1=
KGBD 081115Z AUTO 35008KT 10SM OVC008 19/18 A3017 RMK AO1=
KGDV 081115Z AUTO 00000KT 10SM CLR 12/07 A3017 RMK AO1=
KPVC 081115Z 18008KT 10SM FEW005 23/20 A3011 RMK AO1=
KPVU 081115Z 34004KT 10SM CLR 17/07 A3013 RMK AO1=
KPWT 081115Z AUTO 04006KT 10SM CLR 21/06 A2998 RMK AO1=
####018000094####
SAXX60 KWBC 081100 RRJ
METAR
KDOV 081055Z 11007KT 10SM CLR 25/25 A3001 RMK AO2A SLP164=
####018003702####
SAUS70 KWBC 081116 RRB
METAR
KRKD 081115Z AUTO 21005KT 1SM OVC002 18/17 A3012 RMK AO1=
KRUT 081115Z AUTO 14006KT 5SM CLR 23/20 A3006 RMK AO1=
KSDY 081115Z AUTO 19005KT 10SM SCT080 11/08 A3015 RMK AO1=
KSFM 081115Z 00000KT 4SM OVC005 22/19 A3010 RMK AO1=
KSFZ 081115Z AUTO 15003KT 10SM SCT010 BKN015 BKN050 22/21 A3009
     RMK AO1=
KSGT 081115Z 00000KT 10SM CLR 23/21 A3007 RMK AO1=
KSGU 081115Z AUTO 03008KT 10SM CLR 24/01 A2995 RMK AO1=
KSKX 081115Z AUTO 36005KT 10SM CLR 11/05 A3038 RMK AO1=
KSLG 081115Z AUTO 14003KT 10SM OVC021 22/21 A3008 RMK AO1=
KSMN 081115Z AUTO 00000KT 10SM CLR 07/01 A3026 RMK AO1=
KSPA 081115Z AUTO 03004KT 10SM CLR 23/23 A3003 RMK AO2=
KSPL 081115Z AUTO RMK AO2 PWINO PNO=
KSQI 081115Z 00000KT 3SM BKN006 OVC014 22/22 A3006 RMK AO1=
KSUE 081115Z AUTO 25003KT 8SM BKN011 21/20 A2999 RMK AO1=
KSUN 081111Z AUTO 31008G16KT 10SM CLR 10/01 A3024 RMK AO2=
KSZT 081110Z AUTO 00000KT 10SM CLR 10/08 A3011 RMK AO2=
KTIF 081110Z AUTO 00000KT 10SM SCT085 SCT095 15/14 A3026 RMK AO2
     T01490140=
KTRK 081110Z AUTO 00000KT 10SM CLR 09/08 A3015 RMK AO2=
KTVF 081115Z AUTO 21003KT 10SM CLR 13/11 A3005 RMK AO1=
KUTA 081115Z AUTO 11003KT 10SM CLR 23/22 A3007 RMK AO2=
KVBT 081115Z AUTO 00000KT 10SM OVC022 23/21 A3005 RMK AO1=
KVIS 081115Z AUTO 29003KT 10SM CLR 19/12 A2981 RMK AO1=
KWVL 081115Z AUTO 19005KT 5SM OVC004 21/19 A3006 RMK AO1=
KWWD 081115Z AUTO 10SM FEW060 BKN080 BKN120 24/23 A3004 RMK
     AO1=
KX40 081115Z AUTO 00000KT 5SM BR CLR 22/21 A3001 RMK AO2
     T02200214=
KYKN 081115Z AUTO 26003KT 10SM CLR 17/14 A3018 RMK AO1=
KGUC 081115Z AUTO 35006KT 10SM CLR 07/M12 A3044 RMK AO1=
KGXY 081115Z AUTO 07005KT 7SM OVC049 15/12 A3032 RMK AO1=
KHDN 081115Z 14005KT 10SM CLR 09/06 A3032 RMK AO1=
KHEF 081115Z AUTO 00000KT 5SM SCT110 23/20 A3001 RMK AO1=
KHEZ 081115Z AUTO 00000KT 5SM CLR 21/21 A3005 RMK AO1=
KHNB 081115Z AUTO 00000KT 5SM FEW060 23/22 A3006 RMK AO1=
KHYS 081115Z AUTO 36009KT 10SM FEW018 OVC026 18/17 A3020 RMK
     AO1=
KIWD 081115Z AUTO 30004KT 10SM FEW050 16/14 A3001 RMK AO1=
KJAC 081115Z AUTO 35003KT 10SM CLR 05/M02 A3036 RMK AO1=
KJHW 081115Z AUTO 20004KT 3SM CLR 19/18 A3012 RMK AO1=
KKLS 081115Z AUTO 34003KT 10SM CLR 16/13 A2993 RMK AO1=
KLBL 081115Z 03006KT 10SM BKN034 OVC041 19/17 A3022 RMK AO1=
KLCI 081115Z AUTO 24003KT 10SM FEW023 OVC100 24/20 A3007 RMK
     AO1=
KLEW 081115Z 19007KT 2 1/2SM OVC003 20/19 A3011 RMK AO1=
KLGD 081115Z AUTO 13003KT 10SM CLR 12/06 A3005 RMK AO1=
KLKV 081115Z AUTO 32007KT 10SM CLR 11/01 A3011 RMK AO1=
KLPC 081115Z AUTO 00000KT 10SM OVC010 13/11 A2992 RMK AO1 PNO=
KLUX 081115Z AUTO 00000KT 10SM CLR 22/22 A3003 RMK AO2=
KMBL 081115Z AUTO 22005KT 8SM OVC050 22/20 A3001 RMK AO1=
KMER 081115Z AUTO 32008KT 10SM CLR 16/10 A2983 RMK AO1=
KMJX 081115Z AUTO 12004KT 2 1/2SM SCT065 BKN095 24/22 A3004 RMK
     AO1=
KMKT 081115Z 31003KT 10SM CLR 16/15 A3012 RMK AO1=
KMML 081115Z AUTO 28009KT 10SM CLR 15/12 A3014 RMK AO1=
KMNI 081115Z AUTO 00000KT 10SM CLR 23/22 A2996 RMK AO2=
KMNM 081115Z AUTO 00000KT 5SM BKN006 BKN010 OVC014 21/19 A2999 RMK
     AO1=
KMRF 081115Z AUTO 04007KT 10SM BKN110 17/15 A3018 RMK AO1=
KMSV 081115Z AUTO 00000KT 5SM CLR 22/19 A3011 RMK AO1=
KMTW 081115Z 00000KT 6SM SCT008 21/21 A3000 RMK AO1=
KMVN 081115Z AUTO 00000KT 4SM FEW055 23/21 A3006 RMK AO1=
KOGA 081110Z AUTO 00000KT 10SM OVC095 15/14 A3027 RMK AO2
     T01510142=
KOKK 081115Z AUTO 00000KT 3SM FEW070 BKN080 OVC110 23/18 A3005 RMK
     AO1=
KOLU 081115Z AUTO 01003KT 10SM SCT090 16/14 A3020 RMK AO1=
KONL 081110Z AUTO 30003KT 10SM CLR 17/15 A3021 RMK AO2 LTG DSNT SE
     T01650150=
####018000131####
SAAS31 KWBC 081105 RRB
METAR
VIDP 081100Z 06009KT 2700 HZ SCT030 FEW040CB BKN100 33/26 Q1004
     TEMPO 36030KT 1500 TSRA=
####018000230####
SPUS80 KWBC 081116
SPECI
KNAK 081113Z AUTO 11004KT 26/23 A3001 RMK AO2 PWINO TSNO=
KBDR 081113Z 13005KT 3SM BR OVC004 25/23 A3005 RMK AO2=
KPIA 081113Z 22004KT 1 1/4SM BR FEW010 BKN014 OVC023 23/22 A3004
     RMK AO2=
####018000053####
SAAF33 KWBC 081100 RRA
METAR
FNLU 081100Z NIL=
####018000296####
SAAF11 LFPW 081100 RRA
METAR FCPP 081100Z 22006KT 8000 SCT017 BKN033 25/20 Q1014 NOSIG=
METAR FKKD 081100Z 22003KT 170V200 9999 BKN013 FEW016CB 30/25 Q1014
BECMG BKN016 FEW020CB=
METAR FKYS 081100Z 23005KT 9999 BKN013 26/20 Q1019 NOSIG=
METAR FOON 081100Z 05002KT 7000 OVC020 27/22 Q1017=
####018000068####
SPBZ24 SBPP 081115
SPECI SBPP 081115Z 00000KT CAVOK 20/10 Q1018=
####018000984####
SPUS70 KWBC 081116
SPECI
PAKI 081109Z AUTO 00000KT 1 3/4SM BR CLR 08/08 A3002 RMK AO2 PWINO
     TSNO $=
KBAZ 081112Z AUTO 04006KT 8SM SCT013 BKN024 BKN030 25/24 A2993 RMK
     AO2=
KDXR 081112Z 00000KT 1 1/4SM BR OVC003 23/22 A3008 RMK AO2=
KEWN 081112Z 03005KT 2SM BR FEW009 25/24 A2995 RMK AO2=
KHIB 081112Z AUTO 00000KT 10SM CLR 09/09 A3004 RMK AO2=
KIXD 081112Z 36003KT 1SM BR VV001 21/20 A3006 RMK AO2=
KLAA 081112Z AUTO 13004KT 10SM FEW004 OVC100 17/16 A3025 RMK
     AO2=
KBOK 081114Z AUTO 30003KT 1/2SM FG OVC002 09/09 A2998 RMK AO2
     $=
KRKP 081113Z AUTO 07006KT 5SM +RA BR BKN015 BKN023 BKN028 27/25
     A2984 RMK AO2 LTG DSNT NW RAB1056 P0006 $=
KDXR 081114Z 00000KT 3/4SM BR OVC003 23/22 A3008 RMK AO2=
KTCC 081114Z AUTO 01006KT 10SM FEW012 BKN065 OVC100 18/16 A3023
     RMK AO2=
KIXD 081114Z 01003KT 3/4SM BR CLR 21/20 A3006 RMK AO2=
PAWD 081113Z AUTO 00000KT 9SM FEW002 OVC008 11/09 A2995 RMK AO2
     CIG 005V011 TSNO=
####018000081####
SPBZ20 SBTF 081107
SPECI SBTF 081115Z 00000KT 9999 SCT010 BKN100 25/24 Q1012=
####018000918####
SPXX60 KWBC 081116
SPECI
KDYS 081111Z 02006KT 10SM FEW005 OVC009 21/21 A3005 RMK AO2A
     SLP158 $=
KGRK 081110Z 07004KT 7SM -SHRA SCT009 BKN013 OVC029 26/24
     A2999=
KLTS 081106Z AUTO 08003KT 10SM BKN019 23/22 A3007 RMK AO2 CIG
     015V022 SLP168 $=
KLTS 081109Z AUTO 06004KT 10SM SCT017 BKN022 23/23 A3007 RMK AO2
     SLP168 $=
KLTS 081110Z AUTO 06005KT 10SM R35R/5500VP6000FT -RA SCT017 BKN022
     23/23 A3007 RMK AO2 RAB1110 SLP169 $=
KNBG 081109Z 04003KT 6SM BR FEW010 BKN250 25/23 A3002 RMK AO2
     $=
KNEL 081107Z AUTO 14006KT 4SM HZ OVC005 25/22 A3003 RMK AO2 $=
KNPA 081102Z 00000KT 7SM MIFG FEW250 24/23 A3002 RMK FIRST=
KWRI 081112Z AUTO 17003KT 2SM BR FEW001 24/24 A3001 RMK AO2 SLP164
     $=
PAEH SP 1115 AWOS CLR BLO 120 10 48/-20/0000/999=
PATC SP 1115 AWOS CLR BLO 120 10 46/43/0210/014=
KABH 081113Z AUTO 27006KT 2SM BR BKN001 12/11 A3036 RMK AO2 $=
####018000088####
SABZ31 KWBC 081100 RRA
METAR
SBTT 081100Z 06002KT 9999 FEW006 BKN070 24/24 Q1011=
####018000081####
SABZ42 KWBC 081100 RRA
METAR
SBPV 081100Z 00000KT 9999 FEW020 24/22 Q1012=
####018000088####
SACA31 KWBC 081100 RRB
METAR
MKJP 081100Z 11012KT 9999 SCT020 BKN220 27/19 Q1012=
####018000114####
SAPH31 KWBC 081100 RRB
METAR
RPLC 081100Z 33004G19KT 9999 FEW036 BKN270 27/22 Q1010 A2983
     RMK/NOSIG=
####018000968####
SAAM20 FCBB 081100
METAR FCBB 081100Z 22008KT 180V250 6000  SCT017 BKN022 25/20 Q1015
NOSIG=
METAR FCPP 081100Z 22006KT 8000 SCT017 BKN033 25/20 Q1014 NOSIG=
METAR FKKD 081100Z 22003KT 170V200 9999 BKN013 FEW016CB 30/25 Q1014
BECMG BKN016 FEW020CB=
METAR FKKR 081100Z 08004KT 9999 SCT020 BKN130 26/23 Q1013 NOSIG=
METAR FKYS 081100Z 23005KT 9999 BKN013 26/20 Q1019 NOSIG=
METAR FKKN NIL=
METAR FKKL NIL=
METAR FEFT NIL=
METAR FEFG NIL=
METAR FEFF 081100Z 26004KT 9999 FEW023 BKN300 30/21 Q1013 NOSIG=
METAR FOOL 081100Z 20004KT 150V250 8000 SCT011 BKN040 28/22 Q1015
NOSIG=
METAR FOON 081100Z 05002KT 7000 OVC020 27/22 Q1017=
METAR FOOG NIL=
METAR FGBT NIL=
METAR FGSL NIL=
METAR FZRF NIL=
METAR FZOS NIL=
METAR FZAA 081100Z 23010KT 4000 BR BKN018 25/19 Q1015 NOSIG=
METAR FZIC NIL=
METAR FZFK NIL=
METAR FZQA NIL=
METAR FNHU NIL=
METAR FNLU NIL=
METAR FPST 081100Z 15014KT 9999 FEW020 SCT110 28/22 Q1015 NOSIG=
####018000095####
SAXX62 KWBC 081100 RRB
METAR
RKSM 081100Z 16006KT 9000 -RA BR SCT030 OVC100 23/21 A2979=
####018000284####
SAXX99 KWBC 081100 RRM
METAR
CMFM 081100Z AUTO 00000KT 20/19 RMK AO1 SLP170 T02040188 51003=
FKYS 081100Z 23005KT 9999 BKN013 26/20 Q1019 NOSIG=
FYOA 081100Z AUTO 03012KT //// // ////// 24/01 Q1022=
K4O4 081108Z AUTO 00000KT 4SM CLR 23/22 A3006 RMK AO2 LTG DSNT
     N=
####018000138####
SAXX99 KWBC 081100 CCE
METAR
CYBW 081100Z CCA 31004KT 30SM FEW080 FEW140 FEW250 07/06 A3021 RMK
     AC1AC1CI1 ACC ASOCTD SLP235=
####018000069####
SPBZ24 SBPP 081115
SPECI SBPP 081115Z 00000KT CAVOK 20/10 Q1018=
####018000116####
SAAE31 VTBB 081100 RRB
METAR VTSS 081100Z 00000KT 9999 FEW016CB BKN300 26/22 Q1008 A2978
           CB SE,NW=
####018000126####
SATH33 VTBB 081100 RRA
METAR VTUD 081100Z 19006KT 150V240 9999 FEW035 BKN300 34/21 Q1004
           A2966 INFO M RWY30=
####018000409####
SAPK31 OPKC 081100
METAR OPGD 081100Z NIL=
METAR OPKC 081100Z 18014KTS 8000 SCT020 SCT030 TCU 35/24 Q.1002 TEMPO
NE 30KTS TSRA FEW025 CB=
METAR OPLA 081055Z 12994KT 6000 SCT040 37/23 Q1003 NOSIG=
METAR OPPS 081055Z NE-12KT 6000 HZ FEW040 FEW100 40/25 Q1002.9=
METAR OPRN 081100Z 23016KT 9999 SCT040 39/18 Q1005.8=
METAR OPSK 081055Z 13004KTS 6000 HZ FEW040 BKN100 35/25 QNH 1001 R.H.
57 PC=
####018000079####
SPUS73 KWBC 081116
SPECI
KHIB 081112Z AUTO 00000KT 10SM CLR 09/09 A3004=
####018001405####
SAUS20 KNKA 081116
METAR K20V 081116Z AUTO 00000KT 10SM SCT019 06/03 A3042 RMK AO2=
METAR K4BM 081114Z AUTO 22006KT 1/4SM -SN 05/04 A3062 RMK AO2=
METAR K5SM 081113Z AUTO 15003KT 10SM CLR 08/01 A3056 RMK AO2=
METAR K7BM 081116Z AUTO 00000KT 10SM CLR 08/05 A3054 RMK AO2=
METAR KBDU 081117Z AUTO 00000KT 10SM BKN038 14/12 A3032 RMK AO2=
METAR KBJC 081117Z AUTO 35007KT 5SM BR SCT001 SCT006 SCT028 12/11
     A3034 RMK AO2=
METAR KCCU 081116Z AUTO 18021KT 10SM SCT110 06/02 A3062 RMK AO2=
SPECI KCLL 081115Z AUTO 07007KT 10SM SCT009 25/23 A2996 RMK AO2=
SPECI KFTW 081115Z 11006KT 10SM SCT012 BKN019 25/23 A3001 RMK AO2=
METAR KGTU 081115Z 07005KT 10SM SCT006 BKN012 OVC070 24/22 A3001 RMK 
    AO1=
METAR KHYI 081115Z AUTO 05006KT 7SM BKN014 25/24 A2994 RMK AO1=
METAR KILE 081115Z 09005KT 10SM SCT012 BKN026 OVC045 24/22 A2998 RMK 
    AO1=
METAR KMYP 081016Z AUTO 09003KT M1/4SM -SN OVC001 03/02 A3075 RMK
     AO2=
METAR KOCH 081115Z AUTO 09006KT 10SM CLR 24/19 A3002 RMK AO1=
METAR KPRX 081115Z 12005KT 5SM SCT004 BKN013 OVC026 24/22 A3004 RMK 
    AO1=
METAR KPWG 081115Z AUTO 07004KT 10SM BKN010 OVC120 25/22 A3000 RMK 
    AO1=
METAR KTPL 081115Z 08005KT 10SM SCT006 OVC013 24/23 A2999 RMK AO1 
     =
METAR KVTP 081120Z AUTO 06005KT 3/4SM BKN001 BKN120 05/04 A3055
     RMK AO2=
METAR KWYS 081110Z AUTO 00000KT 10SM CLR 00/M02 A3037 RMK AO2=
####018000099####
SAUK39 EGRR 081050 CCC
METAR EGXT 081050Z 23012KT 9999 FEW025 SCT120 BKN250 20/07 Q1018
BLU=
####018000233####
SAEU KAWN 081100 RRW
METAR LIQC 081055Z 00000KT CAVOK 28/12 Q1020 RMK SKC QUK 1 QUL 0 VIS
      MAR 12 KM VIS MIN 9999=
METAR LOWZ 081100Z 00000KT 40KM SKC 22/06 Q1023 RMK SKC=
METAR LPMT 081100Z 22012KT CAVOK 25/18 Q1015=
####018000543####
SAXN17 KAWN 081100 RRF
METAR MKJP 081100Z 11012KT 9999 SCT020 BKN220 27/19 Q1012=
METAR MMMA 081109Z RTD 31005KT 6SM -RA BKN010 OVC012 26/25 A2980 RMK
      60208 8/5// BINOVC RTS=
METAR NCRG 081100Z 03006KT 9999 SCT014 BKN290 25/24 Q1017=
METAR NFTF 081100Z 17002KT 9999 FEW015 19/18 Q1015=
METAR TNCA 081100Z 08011KT 9999 FEW017 29/25 Q1011 NOSIG=
METAR TNCB 081100Z AUTO /////KT //// ////// 28/25 Q1012 NOSIG=
METAR TNCC 081100Z 09012KT 9999 SCT017 29/25 Q1011 NOSIG=
METAR TNCE 081100Z 06011KT 9999 FEW018 28/24 Q1016=
####018000478####
SPUS17 KAWN 081116 RRB
SPECI KDYS 081111Z 02006KT 10SM FEW005 OVC009 21/21 A3005 RMK AO2A
      SLP158 $=
SPECI KGRK 081110Z 07004KT 7SM -SHRA SCT009 BKN013 OVC029 26/24 A2999=
SPECI KLTS 081109Z AUTO 06004KT 10SM SCT017 BKN022 23/23 A3007 RMK
      AO2 SLP168 $=
SPECI KLTS 081110Z AUTO 06005KT 10SM R35R/5500VP6000FT -RA SCT017 BKN022
      23/23 A3007 RMK AO2 RAB1110 SLP169 $=
SPECI KNBG 081109Z 04003KT 6SM BR FEW010 BKN250 25/23 A3002 RMK AO2
      $=
####018000862####
SAZZ40 KAWN 081100 RRO
METAR DAAJ 081100Z 05008KT CAVOK 35/05 Q1020=
METAR DBBB 081100Z 21008KT 190V260 8000 SCT012 BKN120 28/25 Q1014 NOSIG=
METAR FKKD 081100Z 22003KT 170V200 9999 BKN013 FEW016CB 30/25 Q1014
      BECMG BKN016 FEW020CB=
METAR FKYS 081100Z 23005KT 9999 BKN013 26/20 Q1019 NOSIG=
METAR KDOV 081055Z 11007KT 10SM CLR 25/25 A3001 RMK AO2A SLP164=
METAR MKJP 081100Z 11012KT 9999 SCT020 BKN220 27/19 Q1012=
METAR NGFU 081100Z 08007KT 50KM FEW020 28/25 Q1010=
METAR NSFA 081100Z 09004KT 45KM FEW020 26/24 Q1012 RMK DEW=
METAR OERF 081100Z 32007KT CAVOK 44/12 Q1006=
METAR OERR 081100Z 30005KT CAVOK 45/10 Q1006=
METAR OESK 081100Z 22005KT CAVOK 43/00 Q1008=
METAR OEWJ 081100Z 30023KT 8000 SKC 33/28 Q1003=
METAR OEYN 081100Z 26014KT 6000 SKC 42/22 Q0999 TEMPO 4000=
METAR ORER 081100Z 16006KT 9000 SKC 43/M03 Q1004=
####018000081####
SPCN51 CWAO 081115
SPECI CZBF 081115Z 00000KT 1/2SM FG OVC003 RMK FG6SF2=

####018000595####
SAAM31 FCBB 081100
METAR FCBB 081100Z 22008KT 180V250 6000  SCT017 BKN022 25/20 Q1015
NOSIG=
METAR FCPP 081100Z 22006KT 8000 SCT017 BKN033 25/20 Q1014 NOSIG=
METAR FKKD 081100Z 22003KT 170V200 9999 BKN013 FEW016CB 30/25 Q1014
BECMG BKN016 FEW020CB=
METAR FKYS 081100Z 23005KT 9999 BKN013 26/20 Q1019 NOSIG=
METAR FEFF 081100Z 26004KT 9999 FEW023 BKN300 30/21 Q1013 NOSIG=
METAR FOOL 081100Z 20004KT 150V250 8000 SCT011 BKN040 28/22 Q1015
NOSIG=
METAR FZAA 081100Z 23010KT 4000 BR BKN018 25/19 Q1015 NOSIG=
METAR FPST 081100Z 15014KT 9999 FEW020 SCT110 28/22 Q1015 NOSIG=
####018000079####
SPCN51 CWAO 081115
SPECI CZCP 081115Z AUTO 28024KT 1/2SM CLR 04/ A2984=

####018000075####
SACN88 CWAO 081030
AHD SA 1030 AUTO7 M M M M/18/16/1204/M/M M 18MM=

####018000087####
SAUS46 KLOX 081116
MTRMWS
METAR KMWS 081100Z 14007G10KT 19/M05 RMK SNOW DEPTH  M
####018000073####
SASD20 OEJD 081100 RRA
METAR OETR 081100Z 00000KT CAVOK 39/04 Q1010=
####018001783####
SAIY40 LIIB 081100
METAR LIMG 081050Z 07008KT 9999 SCT080 30/24 Q1021 RMK VIS MIN 9999=
METAR LIMK 081055Z 34003KT 9999 BKN025 20/13 Q1023 RMK BKN VAL NIL
      VIS MIN 9999=
METAR LIMN 081055Z /////KT 9999 FEW030 27/15 Q1021 RMK FEW VIS MIN
      9999 BLU=
METAR LIMP 081050Z 06004KT 330V120 CAVOK 28/14 Q1022 RMK VIS MIN
9999=
METAR LIMS 081055Z 12009KT 060V150 CAVOK 28/15 Q1021 RMK SKC VIS MIN
      9999 WIND THR30 10006KT BLU=
METAR LIMZ 081050Z 35005KT 8000 FEW025 BKN045 25/17 Q1024 RMK VIS
MIN 8000=
METAR LIPA 081055Z 21008KT 9999 FEW060 25/18 Q1022 RMK FEW VIS MIN
      9999 A3019 BLU=
METAR LIPB 081050Z 17011KT CAVOK 28/12 Q1021 RMK MON LIB VIS MIN
9999=
METAR LIPC 081055Z 11010KT CAVOK 28/14 Q1022 RMK FEW FEW200 VIS MIN
      9999 WIND THR12 11009KT BLU=
METAR LIPF 081055Z 27002KT 9999 FEW050 27/19 Q1021 RMK FEW VIS MIN
      9999=
METAR LIPH 081045Z 16004KT 9999 SCT025 27/20 Q1023 RMK SCT VIS MIN
      9999 WIND THR07 /////KT BLU=
METAR LIPI 081055Z 20005KT 9999 FEW030 26/19 Q1021 RMK FEW VIS MIN
     9999 WIND THR06 18004KT BLU=
METAR LIPL 081055Z 14004KT 9999 FEW035 27/18 Q1022 RMK SCT VIS MIN
      9999 BLU=
METAR LIPO 081050Z 20004KT 100V230 9999 FEW065 28/14 Q1021 RMK VIS
MIN 9999=
METAR LIPQ 081050Z VRB03KT CAVOK 26/15 Q1022=
METAR LIPR 081045Z 08011KT CAVOK 28/17 Q1021 RMK SKC VIS MIN 9999
      WIND THR31 09011KT BLU=
METAR LIPS 081055Z 20003KT 9999 FEW025 29/18 Q1022 RMK FEW VIS MIN
     9999 BLU=
METAR LIPX 081045Z 12003KT 9999 FEW040 29/13 Q1021 RMK FEW VIS MIN
      9999 BLU=
METAR LIPY 081050Z 06008KT 010V090 CAVOK 27/14 Q1021 RMK VIS MIN
9999=
METAR LIVC 081055Z 00000KT 9999 SCT000 14/11 Q1030 RMK SCT MON CLD
      CIME CUF VAL CLD SCT ELEV VIS MIN 9999=
####018001166####
SAUS99 KWBC 081117
METAR
K20V 081116Z AUTO 00000KT 10SM SCT019 06/03 A3042 RMK AO2=
K4BM 081114Z AUTO 22006KT 1/4SM -SN 05/04 A3062 RMK AO2=
K5SM 081113Z AUTO 15003KT 10SM CLR 08/01 A3056 RMK AO2=
K7BM 081116Z AUTO 00000KT 10SM CLR 08/05 A3054 RMK AO2=
KBDU 081117Z AUTO 00000KT 10SM BKN038 14/12 A3032 RMK AO2=
KBJC 081117Z AUTO 35007KT 5SM BR SCT001 SCT006 SCT028 12/11 A3034
     RMK AO2=
KCCU 081116Z AUTO 18021KT 10SM SCT110 06/02 A3062 RMK AO2=
KGTU 081115Z 07005KT 10SM SCT006 BKN012 OVC070 24/22 A3001 RMK
     AO1=
KHYI 081115Z AUTO 05006KT 7SM BKN014 25/24 A2994 RMK AO1=
KILE 081115Z 09005KT 10SM SCT012 BKN026 OVC045 24/22 A2998 RMK
     AO1=
KMYP 081016Z AUTO 09003KT M1/4SM -SN OVC001 03/02 A3075 RMK
     AO2=
KOCH 081115Z AUTO 09006KT 10SM CLR 24/19 A3002 RMK AO1=
KPRX 081115Z 12005KT 5SM SCT004 BKN013 OVC026 24/22 A3004 RMK
     AO1=
KPWG 081115Z AUTO 07004KT 10SM BKN010 OVC120 25/22 A3000 RMK
     AO1=
KTPL 081115Z 08005KT 10SM SCT006 OVC013 24/23 A2999 RMK AO1=
KVTP 081120Z AUTO 06005KT 3/4SM BKN001 BKN120 05/04 A3055 RMK
     AO2=
KWYS 081110Z AUTO 00000KT 10SM CLR 00/M02 A3037 RMK AO2=
####018000153####
SPUS99 KWBC 081117
SPECI
KCLL 081115Z AUTO 07007KT 10SM SCT009 25/23 A2996 RMK AO2=
KFTW 081115Z 11006KT 10SM SCT012 BKN019 25/23 A3001 RMK AO2=
####018000941####
SAAM20 FCBB 081100
METAR FCBB 081100Z 22008KT 180V250 6000  SCT017 BKN022 25/20 Q1015
NOSIG=
METAR FCPP 081100Z 22006KT 8000 SCT017 BKN033 25/20 Q1014 NOSIG=
METAR FKKD 081100Z 22003KT 170V200 9999 BKN013 FEW016CB 30/25 Q1014
BECMG BKN016 FEW020CB=
METAR FKKR 081100Z 08004KT 9999 SCT020 BKN130 26/23 Q1013 NOSIG=
METAR FKYS 081100Z 23005KT 9999 BKN013 26/20 Q1019 NOSIG=
METAR FKKN NIL=
METAR FKKL NIL=
METAR FEFT NIL=
METAR FEFG NIL=
METAR FEFF 081100Z 26004KT 9999 FEW023 BKN300 30/21 Q1013 NOSIG=
METAR FOOL 081100Z 20004KT 150V250 8000 SCT011 BKN040 28/22 Q1015
NOSIG=
METAR FOON 081100Z 05002KT 7000 OVC020 27/22 Q1017=
METAR FOOG NIL=
METAR FGBT NIL=
METAR FGSL NIL=
METAR FZRF NIL=
METAR FZOS NIL=
METAR FZAA 081100Z 23010KT 4000 BR BKN018 25/19 Q1015 NOSIG=
METAR FZIC NIL=
METAR FZFK NIL=
METAR FZQA NIL=
METAR FNHU NIL=
METAR FNLU NIL=
METAR FPST 081100Z 15014KT 9999 FEW020 SCT110 28/22 Q1015 NOSIG=
####018000122####
SAIN32 VIDP 081100
METAR VIDP 081100Z 06009KT 2700 HZ SCT030 FEW040CB BKN100 33/26 Q1004
    TEMPO 36030KT 1500 TSRA=
####018000091####
SAMX41 MMMX 081116
METAR MMIT 081100Z RTD 14010KT 5SM HZ OVC010 26/24 A2976 RMK 8/6// =
####018000584####
SAAM31 FCBB 081100
METAR FCBB 081100Z 22008KT 180V250 6000  SCT017 BKN022 25/20 Q1015
NOSIG=
METAR FCPP 081100Z 22006KT 8000 SCT017 BKN033 25/20 Q1014 NOSIG=
METAR FKKD 081100Z 22003KT 170V200 9999 BKN013 FEW016CB 30/25 Q1014
BECMG BKN016 FEW020CB=
METAR FKYS 081100Z 23005KT 9999 BKN013 26/20 Q1019 NOSIG=
METAR FEFF 081100Z 26004KT 9999 FEW023 BKN300 30/21 Q1013 NOSIG=
METAR FOOL 081100Z 20004KT 150V250 8000 SCT011 BKN040 28/22 Q1015
NOSIG=
METAR FZAA 081100Z 23010KT 4000 BR BKN018 25/19 Q1015 NOSIG=
METAR FPST 081100Z 15014KT 9999 FEW020 SCT110 28/22 Q1015 NOSIG=
####018000071####
SPBZ42 KWBC 081117
SPECI
SBPP 081115Z 00000KT CAVOK 20/10 Q1018=
####018000084####
SPBZ43 KWBC 081117
SPECI
SBTF 081115Z 00000KT 9999 SCT010 BKN100 25/24 Q1012=
####018000080####
SPCN31 KWBC 081117
SPECI
CZBF 081115Z 00000KT 1/2SM FG OVC003 RMK FG6SF2=
####018001196####
SAUS20 KNKA 081116
METAR K0A9 081115Z AUTO 00000KT 7SM SCT085 21/18 A3013 RMK=
METAR KBBG 081115Z AUTO 00000KT 7SM BKN080 22/22 A3008 RMK AO2 =
METAR KBBP 081115Z AUTO 00000KT 10SM CLR 23/19 A2996 RMK AO2=
METAR KBKN 081115Z AUTO 02004KT 10SM CLR 22/21 A3004 RMK AO2 =
METAR KCIC 081115Z AUTO 00000KT 10SM CLR 20/13 A2982 RMK AO1 =
METAR KCMR 081115Z AUTO 16006KT 10SM CLR 16/02 A3025 RMK AO1 =
SPECI KCNU 081115Z AUTO 01004KT 1SM BR OVC001 22/21 A3006 RMK AO2=
METAR KGGE 081115Z AUTO 28006KT 10SM BKN100 24/21 A2994 RMK AO2=
METAR KHVS 081115Z AUTO 00000KT 10SM CLR 23/21 A2998 RMK AO2=
SPECI KILN 081115Z AUTO 00000KT 3SM BR CLR 22/20 A3009 RMK AO2=
METAR KMAO 081115Z AUTO 32003KT 10SM CLR 24/20 A2994 RMK AO2=
SPECI KMKG 081115Z 15004KT 4SM -RA BR SCT043 BKN060 OVC100 23/22 
    A3002 RMK AO2 RAB02 P0002 $=
METAR KNQA 081115Z COR 00000KT 10SM FEW250 23/23 A3008 RMK=
SPECI KPSF 081115Z AUTO 00000KT 3SM BR CLR 22/20 A3009 RMK AO2=
METAR KRCE 081115Z AUTO 04006KT 3/4SM BR OVC002 22/22 A3008 RMK AO2
      =
METAR KSMS 081115Z AUTO 34004KT 10SM CLR 24/20 A2999 RMK AO2 =
METAR KSRR 081115Z AUTO 00000KT 10SM BKN017 OVC110 13/13 A3036 RMK 
     AO2 =
####018000079####
SPUS41 KWBC 081117
SPECI
KBDR 081113Z 13005KT 3SM BR OVC004 25/23 A3005=
####018000097####
SPUS43 KWBC 081117
SPECI
KPIA 081113Z 22004KT 1 1/4SM BR FEW010 BKN014 OVC023 23/22 A3004=
####018000083####
SACN50 CWAO 081100 RRB
WPU SA 1100 AUTO8 M M M 207/07/02/0000/M/ 1011 01MM=

####018000138####
SACN70 CWAO 081100 RRB
PGF SA 1100 AUTO8 M M M 156/15/12/3103/M/ 3009 10MM=
PGH SA 1100 AUTO8 M M M 149/14/12/2906/M/ 3009 63MM=

####018000109####
SACN48 CWAO 081100 RRB
METAR CYBX 081100Z 05004KT 15SM BKN030 BKN150 10/09 A3011 RMK SC5AC2
SLP197=

####018000075####
SACN50 CWAO 081115
VWB SA 1115 AUTO8 M M M M/16/04/MMMM/M/M M 22MM=

####018000075####
SACN50 CWAO 081115
VOH SA 1115 AUTO8 M M M M/15/03/0802/M/M M 36MM=

####018000077####
SACN59 CWAO 081000 RRK
PBH SA 1000 AUTO8 M M M M/08/M/MMMM/M/ M 5MMM=

####018000193####
SACN92 CWAO 081100 RRB
WKG SA 1100 AUTO8 M M M 221/19/19/2401/M/ 1013 20MM=
WLJ SA 1100 AUTO8 M M M 177/10/09/2304/M/ 5005 34MM=
WMQ SA 1100 AUTO8 M M M 216/09/08/0000/M/ 3003 39MM=

####018000134####
SACN90 CWAO 081100 RRB
WFQ SA 1100 AUTO7 M M M M/24/23/0000/M/ M 06MM=
WGN SA 1100 AUTO8 M M M 164/14/12/2806/M/M 3010 80MM=

####018000109####
SACN47 CWAO 081100 RRB
METAR CYRJ 081100Z 00000KT 12SM FEW045 FEW200 25/21 A2998 RMK SC1CI0
SLP152=

####018000235####
SACN49 CWAO 081100 RRA
METAR CYGW 081100Z 35002KT 15SM FEW025 SCT040 BKN080 17/14 A2987 RMK
CU1SC2AC3 TCU ASOCTD VIA YQB FIC SLP117=
METAR CYHH 081100Z 07003KT 15SM BKN080 BKN120 19/14 A2994 RMK AC5AC2
VIA YQB FIC SLP145=

####018000403####
SACN63 CWAO 081100 RRA
NVQ SA 1100 AUTO8 M M M 146/13/12/0605/M/0020 PCPN 0.7MM PAST HR
3001 15MM=
XAR SA 1100 AUTO8 M M M 023/07/07/0804/M/ 3001 20MM=
ZEV SA 1100 AUTO8 M M M 184/06/03/3207/M/ PK WND 3117 1019Z 1008
19MM=
ZFS SA 1100 AUTO8 M M M 157/13/12/3204/M/ 8001 52MM=
ZHY SA 1100 AUTO8 M M M 143/15/12/3105/M/ 3003 93MM=
ZSM SA 1100 AUTO8 M M M 131/10/07/2402/M/ 1001 54MM=

####018000075####
SACN50 CWAO 081115
VOV SA 1115 AUTO8 M M M M/11/07/0301/M/M M 85MM=

####018000078####
SACN93 CWAO 081000 RRI
WOW SA 1000 AUTO8 M M M M/20/19/1701/M/ M 59MM=

####018000249####
SACN91 CWAO 081100 RRB
WGX SA 1100 AUTO8 M M M 086/11/09/2204/M/ 6002 59MM=
WID SA 1100 AUTO8 M M M 148/12/10/3301/M/M 6001 82MM=
WIY SA 1100 AUTO8 M M M 163/23/20/1605/M/ 3009 04MM=
WJH SA 1100 AUTO8 M M M 132/10/07/2603/M/ 8001 60MM=

####018000298####
SACN98 CWAO 081100 RRB
XDK SA 1100 AUTO8 M M M 160/09/09/0000/M/ 1002 25MM=
XRB SA 1100 AUTO8 M M M 084/08/02/1608/M/ 6006 33MM=
XTO SA 1100 AUTO8 M M M 168/25/23/MMMM/M/ 3004 11MM=
ZTB SA 1100 AUTO8 M M M 151/16/15/2704/M/ 0001 88MM=
ZZJ SA 1100 AUTO8 M M M M/08/05/MMMM/M/ M 32MM=

####018000359####
SACN94 CWAO 081100 RRB
WQL SA 1100 AUTO8 M M M 197/12/10/2304/M/ 6001 90MM=
WRD SA 1100 AUTO8 M M M 176/10/10/2103/M/M 3001 26MM=
WSG SA 1100 AUTO7 M M M 173/12/12/3603/M/ 3006 08MM=
WSL SA 1100 AUTO8 M M M 189/12/08/2003/M/ 3011 33MM=
WSR SA 1100 AUTO8 M M M 174/12/11/2410/M/ 6009 92MM=
WSV SA 1100 AUTO8 M M M 220/06/05/MMMM/M/ 1010 32MM=

####018000074####
SACN50 CWAO 081115
WPN SA 1115 AUTO8 M M M M/12/M/0000/M/M M 8MMM=

####018000399####
SACN97 CWAO 081100 RRB
XDW SA 1100 AUTO8 M M M M/14/11/2907/M/ M 54MM=
XEA SA 1100 AUTO8 M M M 136/13/12/2402/M/ 3002 10MM=
XGH SA 1100 AUTO8 M M M M/14/14/2904/M/M M 44MM=
XMD SA 1100 AUTO8 M M M 158/15/12/3006/M/ 3012 50MM=
XMM SA 1100 AUTO8 M M M M/11/09/MMMM/M/ M 11MM=
XMW SA 1100 AUTO8 M M M 220/10/08/MMMM/M/ 3003 54MM=
XWN SA 1100 AUTO8 M M M 156/16/12/3204/M/ 3009 89MM=

####018000158####
SACN89 CWAO 081100 RRB
WAY SA 1100 AUTO8 M M M 084/03/01/3004/M/ 3006 60MM=
WCF SA 1100 AUTO8 M M M 133/16/12/2911/M/ PK WND 2917 1051Z 3006
38MM=

####018000302####
SACN96 CWAO 081100 RRB
WYE SA 1100 AUTO8 M M M 183/09/08/2104/M/ 3001 33MM=
WYY SA 1100 AUTO8 M M M 175/14/12/0000/M/0018 1008 85MM=
WZE SA 1100 AUTO8 M M M M/09/08/2904/M/ M 23MM=
WZS SA 1100 AUTO8 M M M 159/18/17/3204/M/ 3013 03MM=
XKA SA 1100 AUTO8 M M M 122/18/15/2605/M/ 3004 54MM=

####018000513####
SACN93 CWAO 081100 RRB
WNH SA 1100 AUTO8 M M M 161/13/12/3603/M/ 3004 81MM=
WNK SA 1100 AUTO8 M M M M/14/12/3006/M/ M 90MM=
WNM SA 1100 AUTO8 M M M 200/12/11/MMMM/M/ 1007 53MM=
WNQ SA 1100 AUTO7 M M M 151/25/22/1703/M/ 1007 54MM=
WOK SA 1100 AUTO8 M M M 203/10/09/2301/M/ 3003 41MM=
WOW SA 1100 AUTO8 M M M M/21/21/0000/M/ M 15MM=
WPF SA 1100 AUTO8 M M M 140/15/12/0503/M/ 0003 48MM=
WPG SA 1100 AUTO8 M M M 173/14/12/3105/M/ 3012 30MM=
WPZ SA 1100 AUTO8 M M M 199/05/04/3001/M/ 3006 20MM=

####018000683####
SACN88 CWAO 081100 RRB
AAW SA 1100 AUTO8 M M M 207/20/17/1903/M/ 3005 64MM=
ACP SA 1100 AUTO8 M M M 214/15/15/2403/M/ 1015 66MM=
ACQ SA 1100 AUTO8 M M M 167/21/19/2309/M/ 1012 48MM=
ADS SA 1100 AUTO8 M M M 226/11/11/1207/M/ 1003 31MM=
AJT SA 1100 AUTO8 M M M 179/18/14/0704/M/ 7001 84MM=
AMS SA 1100 AUTO8 M M M 200/20/18/2308/M/ 1009 99MM=
AQY SA 1100 AUTO8 M M M 198/21/17/2205/M/ 3005 24MM=
WAR SA 1100 AUTO8 M M M 242/11/10/2607/M/ 3004 77MM=
WSS SA 1100 AUTO8 M M M 191/21/18/1303/M/ 3007 72MM=
XKT SA 1100 AUTO8 M M M M/21/19/2405/M/ M 85MM=
XNP SA 1100 AUTO8 M M M 192/19/18/1910/M/ 2005 36MM=
ZDB SA 1100 AUTO8 M M M 205/18/17/2103/M/ 3008 61MM=

####018000075####
SACN50 CWAO 081115
WHC SA 1115 AUTO8 M M M M/18/12/MMMM/M/M M 55MM=

####018000280####
SACN59 CWAO 081100 RRA
NPK SA 1100 AUTO8 M M M 237/05/05/2303/M/ 6006 37MM=
PBR SA 1100 AUTO8 M M M M/10/M/MMMM/M/ M 9MMM=
PCR SA 1100 AUTO8 M M M M/08/M/MMMM/M/ M 1MMM=
PMR SA 1100 AUTO8 M M M M/11/M/MMMM/M/ M 5MMM=
PRR SA 1100 AUTO8 M M M M/12/M/MMMM/M/M M 9MMM=

####018000218####
SACN78 CWAO 081100 RRB
TBT SA 1100 AUTO8 M M M 181/20/19/0702/M/ 5000 63MM=
TNK SA 1100 AUTO8 M M M 171/18/18/0000/M/0003 PCPN 0.3MM PAST HR
7002 46MM=
WLS SA 1100 AUTO8 M M M 173/23/18/1804/M/ 5000 23MM=

####018000432####
SACN95 CWAO 081100 RRB
WTS SA 1100 AUTO8 M M M 180/09/09/2304/M/0002 PCPN 0.2MM PAST HR
8002 37MM=
WUS SA 1100 AUTO8 M M M 183/16/06/2908/M/ 1009 19MM=
WVN SA 1100 AUTO8 M M M 217/09/08/3401/M/ 3003 39MM=
WWF SA 1100 AUTO8 M M M 198/11/10/3004/M/ 3005 43MM=
WWN SA 1100 AUTO8 M M M 093/15/14/1604/M/ 8006 00MM=
WXB SA 1100 AUTO8 M M M M/06/06/2202/M/ M 49MM=
WXG SA 1100 AUTO8 M M M 199/07/M/2806/M/ 3004 4MMM=

####018000096####
SPUS72 KWBC 081117
SPECI
KTCC 081114Z AUTO 01006KT 10SM FEW012 BKN065 OVC100 18/16 A3023=
####018000097####
SPUS73 KWBC 081117
SPECI
KPIA 081113Z 22004KT 1 1/4SM BR FEW010 BKN014 OVC023 23/22 A3004=
####018000436####
SALY31 HLMC 081100
METAR HLLM 081050Z 31007KT 6000 SKC 27/20 Q1020=
METAR HLLS 081050Z VRBO8KT  CAVOK 36/10 Q1O17=
METAR HLLT 081050Z 33005KT 280V030 8000 31/19 Q1019=
METAR HLGD 081100Z NIL=
METAR HLGT 081100Z NIL=
METAR HLJA 081100Z NIL=
METAR HLKF 081100Z NIL=
METAR HLKM 081100Z NIL=
METAR HLLB 081100Z NIL=
METAR HLMI 081100Z NIL=
METAR HLNT 081100Z NIL=
METAR HLON 081100Z NIL=
METAR HLTD 081100Z NIL=
####018000752####
SAUS20 KNKA 081117
METAR K04W 081114Z AUTO 00000KT 10SM CLR 16/15 A3007 RMK AO2 
     T01550151=
METAR KC29 081115Z AUTO 28006KT 10SM BKN009 OVC013 21/20 A3004 
     RMK AO2 T02140196=
METAR KD39 081114Z AUTO 25005KT 10SM CLR 16/15 A3011 RMK AO2 
     T01620150=
METAR KDLL 081114Z AUTO 00000KT 4SM BR OVC002 21/21 A3004 RMK AO2=
METAR KJWG 081115Z AUTO 03005KT 7SM OVC004 22/22 A3010 RMK AO2=
SPECI KNBG 081109Z 04003KT 6SM BR FEW010 BKN250 25/23 A3002 RMK AO2
      $=
METAR KY51 081115Z AUTO 31005KT 1SM OVC003 19/19 A3005 RMK AO1 
     T01920191=
METAR PAAK 081116Z AUTO 07017G24KT 10SM BKN013 BKN026 OVC070 07/04 
    A2958 RMK AO1 PNO=
METAR PAHP 081116Z AUTO 35009KT 10SM CLR 09/07 A3005 RMK AO1 PNO 
    TSNO=
####018000078####
SPCN44 CWAO 081116
SPECI CYUS 081116Z AUTO ///// 9SM FEW092 11/ A2979=

####018000079####
SPUS81 KWBC 081117
SPECI
KBDR 081113Z 13005KT 3SM BR OVC004 25/23 A3005=
####018000203####
SAXX70 KAWN 081100 RRN
METAR KQHT 081055Z 30007G12KT 9999 SCT150 SCT200 34/-08 A2993 RMK SLP096
      WND DATA ESTMD ALSTG/SLP ESTMD=
METAR KQFW 081100Z AUTO 18003KT 7SM CLR 25/19 A2990 RMK A02=
####018000075####
SACN94 CWAO 081115
WSK SA 1115 AUTO8 M M M M/16/10/3602/M/M M 63MM=

####018000075####
SACN50 CWAO 081115
VOB SA 1115 AUTO8 M M M M/16/07/0000/M/M M 97MM=

####018000075####
SACN50 CWAO 081115
VOU SA 1115 AUTO8 M M M M/16/10/3601/M/M M 03MM=

####018000075####
SACN50 CWAO 081115
VOD SA 1115 AUTO8 M M M M/11/04/0802/M/M M 31MM=

####018000092####
SAIR33 OIII 081100 RRC
METAR OIZC 081100Z 18010KT 6000 SCT035 BKN090 35/26 Q1001 A2957=
####018000097####
SPUS81 KWBC 081117
SPECI
KPIA 081113Z 22004KT 1 1/4SM BR FEW010 BKN014 OVC023 23/22 A3004=
####018000402####
SANI20 DNMM 081100
METAR DNIM 081100Z 30006KT 9999 BKN015 31/24 Q1014=
METAR DNIB 081100Z 28008KT 9999 SCT015 28/23 Q1015=
METAR DNMA 081100Z 21007KT 9999 SCT012 30/24 Q1012=
METAR DNAA 081100Z 27008KT 9999 BKN013 28/22 Q1014 NOSIG=
METAR DNEN 081100Z 27005KT 9999 BKN011 28/23 Q1014=
METAR DNKT 081100Z 27007KT CAVOK 31/21 Q1012=
METAR DNIL 081100Z 21009KT 9999 BKN010 28/23 Q1013=

####018002758####
SAAK41 KNKA 081117
METAR PAAK 081116Z AUTO 07017G24KT 10SM BKN013 BKN026 OVC070 07/04 
    A2958 RMK AO1 PNO=
METAR PABL 081116Z AUTO 00000KT 10SM CLR 08/05 A3016 RMK AO1 PNO=
METAR PABV 081116Z AUTO 15003KT 10SM CLR 11/07 RMK AO1 PNO=
METAR PADK 081116Z 03010KT 10SM BKN011 BKN018 OVC033 07/06 A2954 RMK 
    AO1 PNO=
METAR PADL 081116Z 31007KT 10SM OVC047 10/08 A2998 RMK AO1 PNO TSNO=
METAR PAEM 081116Z AUTO 00000KT 10SM OVC070 12/08 A3004 RMK AO1 PNO=
METAR PAFE 081116Z AUTO 07005KT 10SM CLR 10/08 A3018 RMK AO1 PNO=
METAR PAFM 081116Z AUTO 31004KT 10SM CLR 14/08 A3010 RMK AO1 PNO=
METAR PAGL 081116Z AUTO 33005KT 10SM CLR 15/07 A3013 RMK AO1 PNO=
METAR PAGS 081116Z AUTO 00000KT 10SM CLR 08/07 A3019 RMK AO1 PNO=
METAR PAHP 081116Z AUTO 35009KT 10SM CLR 09/07 A3005 RMK AO1 PNO 
    TSNO=
METAR PAHY 081116Z AUTO 36003KT 10SM CLR 16/10 A3011 RMK AO1 PNO=
METAR PAII 081116Z AUTO 36004KT 10SM FEW042 SCT065 OVC080 10/08 
    A2997 RMK AO1 PNO=
METAR PAIN 081116Z AUTO 22004KT 10SM CLR 08/06 A3008 RMK AO1 PNO=
METAR PAJC 081116Z AUTO 00000KT 10SM OVC017 08/04 A2993 RMK AO1 PNO=
METAR PAKK 081116Z AUTO 01013KT 10SM CLR 13/07 A3005 RMK AO1 PNO=
METAR PAKP 081116Z AUTO 00000KT 10SM SCT035 09/03 A3012 RMK AO1=
METAR PAMD 081116Z AUTO 09016KT 8SM SCT007 BKN016 OVC028 09/08 A3003 
    RMK AO1 PNO=
METAR PAMH 081116Z 00000KT 10SM CLR 14/04 A2999 RMK AO1 PNO=
METAR PAMM 081116Z AUTO 00000KT 10SM CLR 17/11 A3009 RMK AO1 PNO=
METAR PAMY 081116Z 28008KT 1/2SM OVC002 04/03 A3006 RMK AO1=
METAR PANI 081116Z AUTO 00000KT 10SM FEW070 09/08 A3001 RMK AO1 PNO=
METAR PANV 081116Z AUTO 29003KT 10SM OVC075 13/08 A2998 RMK AO1 PNO=
METAR PAPG 081116Z 05005KT 10SM CLR 12/09 A3013 RMK AO1 
      PNO=
METAR PAPH 081116Z AUTO 00000KT 8SM OVC060 06/04 A2995 RMK AO1 PNO=
METAR PARC 081116Z AUTO 30004KT 10SM CLR 09/01 A3005 RMK AO1 PNO=
METAR PASA 081116Z AUTO 00000KT 10SM CLR 05/03 A3019 RMK AO1 PNO=
METAR PASD 081116Z AUTO 00000KT 10SM FEW027 SCT039 07/05 A2994 RMK 
    AO1 PNO=
METAR PASH 081116Z AUTO 00000KT 8SM CLR 06/04 A3017 RMK AO1 PNO=
METAR PASK 081116Z 26008KT 10SM CLR 13/07 A3011 RMK AO1 PNO=
METAR PASL 081116Z AUTO 00000KT 10SM OVC095 12/08 A3001 RMK AO1 PNO=
METAR PASM 081116Z AUTO 05004KT 10SM SCT070 OVC110 10/08 A3004 RMK 
    AO1 PNO=
METAR PAUN 081116Z AUTO 08004KT 10SM CLR 12/04 A3002 RMK AO1 PNO=
METAR PAVD 081116Z 00000KT 10SM OVC080 11/08 A3008 RMK AO1 
      PNO=
METAR PAWG 081116Z AUTO 30006KT 10SM CLR 12/09 A3013 RMK AO1 PNO=
METAR PAWN 081116Z AUTO 00000KT 10SM CLR 07/03 A3015 RMK AO1 PNO=
METAR PAWS 081116Z AUTO 16003KT 10SM SCT090 11/09 A2997 RMK AO1 PNO=
METAR PAZK 081116Z AUTO 08011KT 10SM FEW060 09/03 A3008 RMK AO1 PNO=
####018003670####
SAUS90 KWBC 081118
METAR KFPK 081116Z AUTO 00000KT 5SM BR CLR 22/21 A3003 RMK AO2=
METAR KMOP 081115Z AUTO 23004KT 10SM OVC085 23/22 A3002 RMK
     AO2=
METAR KCAD 081114Z AUTO 23005KT 10SM SCT070 BKN085 OVC110 22/21
     A3003 RMK AO2=
METAR KMGN 081115Z AUTO 27003KT 7SM RA SCT029 SCT050 OVC110 22/20
     A2997 RMK AO2=
METAR KHAI 081115Z AUTO 00000KT 5SM BR CLR 22/21 A3005 RMK AO2=
METAR KLWA 081116Z AUTO 00000KT 10SM BKN044 OVC055 23/21 A3003 RMK
     AO2=
METAR KDRM 081116Z AUTO 17003KT 1 1/2SM BR OVC002 20/20 A2996 RMK
     AO2=
METAR KVLL 081114Z AUTO 24003KT 10SM CLR 25/21 A3006 RMK AO2=
METAR KCFS 081115Z AUTO 22005KT 7SM SCT060 SCT070 23/22 A3003 RMK
     AO2=
METAR KOZW 081115Z AUTO 00000KT 7SM CLR 23/21 A3005 RMK AO2=
METAR KRNP 081115Z AUTO 31003KT 7SM CLR 24/21 A3003 RMK AO2=
METAR KDUH 081114Z AUTO 00000KT 7SM CLR 23/18 A3005 RMK AO2=
METAR KJYM 081115Z AUTO 00000KT 5SM BR CLR 21/19 A3007 RMK AO2=
METAR KBAX 081115Z AUTO 00000KT 4SM BR CLR 23/22 A3000 RMK AO2=
METAR KIRS 081115Z AUTO 00000KT 4SM BR CLR 22/20 A3005 RMK AO2=
METAR KACB 081115Z AUTO 00000KT 7SM RA SCT023 OVC080 23/21 A3000
     RMK AO2=
METAR KRQB 081115Z AUTO 00000KT 7SM -RA BKN075 22/21 A3003 RMK
     AO2=
METAR KOEB 081115Z AUTO 00000KT 3SM BR CLR 22/21 A3006 RMK AO2=
METAR K4I3 081116Z AUTO 00000KT 7SM SCT060 21/19 A3010 RMK AO2=
METAR KAUM 081115Z AUTO 31003KT 5SM BR CLR 17/16 A3010 RMK AO2=
METAR KFFX 081115Z AUTO 00000KT 3SM BR OVC090 22/22 A3002 RMK
     AO2=
METAR KCNB 081117Z AUTO 24008KT 10SM CLR 17/13 A3014 RMK AO2
     T01650131=
METAR KCKN 081115Z AUTO 22004KT 10SM CLR 13/12 A3006 RMK AO2=
METAR KCFE 081115Z AUTO 00000KT 10SM CLR 17/16 A3012 RMK AO2
     T01730158=
METAR KCQM 081117Z AUTO 00000KT 10SM CLR 15/14 A3003 RMK AO2=
METAR KDTL 081115Z AUTO 27003KT 10SM CLR 16/11 A3010 RMK AO2=
METAR KBDH 081115Z AUTO 00000KT 5SM BR CLR 14/14 A3013 RMK AO2=
METAR KCBG 081115Z AUTO 00000KT 10SM CLR 16/14 A3008 RMK AO2=
METAR KADC 081117Z AUTO 25004KT 10SM CLR 13/12 A3009 RMK AO2=
METAR KHAF 081110Z AUTO 00000KT 10SM OVC006 12/11 A2993 RMK
     AO2=
METAR KCKC 081115Z AUTO 29004KT 10SM CLR 16/13 A3004 RMK AO2=
METAR KJYG 081115Z AUTO 00000KT 10SM CLR 16/16 A3015 RMK AO2=
METAR KCOQ 081116Z AUTO 28006KT 10SM CLR 15/15 A3006 RMK AO2=
METAR KACQ 081119Z AUTO 30005KT 4SM BR CLR 16/15 A3013 RMK AO2=
METAR KRGK 081115Z AUTO 30003KT 10SM CLR 18/17 A3008 RMK AO2=
METAR KFSE 081114Z AUTO 19004KT 10SM CLR 11/11 A3006 RMK AO2=
METAR KY70 081115Z AUTO 16003KT 1 3/4SM BR SCT002 SCT070 BKN110
     23/22 A3003 RMK AO2 T02270220=
METAR KUKT 081110Z AUTO 00000KT 5SM CLR 23/21 A3005 RMK AO1=
METAR KTEW 081113Z AUTO 00000KT 7SM CLR 22/20 A3005 RMK AO2=
METAR KCVH 081110Z AUTO 26003KT 8SM OVC006 13/11 A2992 RMK AO1=
METAR KDYT 081109Z AUTO 20007KT 10SM CLR 17/15 A3004 RMK AO2=
METAR KFSO 081118Z AUTO 00000KT 5SM BR BKN060 BKN075 OVC090 24/22
     A3002 RMK AO2=
METAR KFBL 081114Z AUTO 29004KT 10SM CLR 17/15 A3011 RMK AO2=
METAR KLYV 081118Z AUTO 00000KT 10SM CLR 13/11 A3017 RMK AO2=
METAR KEFK 081115Z AUTO 21003KT 4SM BR CLR 22/20 A3006 RMK AO2=
METAR KRRT 081114Z AUTO 23006KT 10SM CLR 13/11 A3001 RMK AO2=
METAR KTOB 081114Z AUTO 00000KT 10SM CLR 17/16 A3010 RMK AO2=
METAR KLXL 081114Z AUTO 00000KT 1 1/4SM BR VV007 12/12 A3008 RMK
     AO2=
METAR KEVM 081112Z AUTO 00000KT 7SM CLR 13/12 A3002 RMK AO1=
METAR KELO 081113Z AUTO 22005KT 10SM CLR 14/13 A3002 RMK AO2=
METAR KANE 081115Z AUTO 00000KT 1SM BR 16/14 A3010 RMK AO2 VIS
     1/4V4=
METAR KROX 081114Z AUTO 23004KT 10SM SCT095 14/12 A3001 RMK
     AO2=
####018000082####
SAUS90 KWBC 081100 RRG
METAR KMWS 081100Z 14007G10KT 19/M05 RMK SNOW DEPTH M=
####018002839####
SAUS90 KWBC 081118 RRA
METAR KSYN 081130Z AUTO 00000KT 7SM CLR 17/15 A3009 RMK AO2
     T01670154=
METAR KVVV 081116Z AUTO 27005KT 10SM CLR 17/14 A3012 RMK AO2=
METAR KROS 081115Z AUTO 00000KT 10SM CLR 15/14 A3008 RMK AO2
     T01480141=
METAR KHCD 081112Z AUTO 25003KT 3SM BR CLR 13/12 A3012 RMK AO2
     T01270118=
METAR KSGS 081113Z AUTO 26003KT 10SM CLR 18/16 A3009 RMK AO2
     T01800162=
METAR KMJQ 081112Z AUTO 25003KT 7SM CLR 15/14 A3016 RMK AO2=
METAR KHCO 081114Z AUTO 21004KT 10SM BKN100 13/13 A3006 RMK
     AO2=
METAR KLVN 081108Z AUTO 27004KT 10SM CLR 16/16 A3011 RMK AO2=
METAR KPEX 081113Z AUTO 26005KT 5SM BR CLR 13/13 A3012 RMK AO2
     T01320131=
METAR KJMR 081118Z AUTO 00000KT 10SM CLR 13/12 A3009 RMK AO2=
METAR KJKJ 081114Z AUTO 22004KT 10SM CLR 16/14 A3007 RMK AO2=
METAR KMVE 081114Z AUTO 28003KT 10SM CLR 16/14 A3011 RMK AO2=
METAR KTKC 081113Z AUTO 26005KT 10SM CLR 16/13 A3014 RMK AO2
     T01570128=
METAR KGYL 081114Z AUTO 00000KT 10SM CLR 15/14 A3011 RMK AO2
     T01520143=
METAR KDXX 081114Z AUTO 00000KT 10SM CLR 14/14 A3011 RMK AO2=
METAR KHZX 081111Z AUTO 00000KT 10SM CLR 13/12 A3007 RMK AO2=
METAR KSAZ 081114Z AUTO 24004KT 10SM CLR 16/16 A3009 RMK AO2=
METAR KONA 081110Z AUTO 30003KT 10SM CLR 20/17 A3005 RMK AO2=
METAR KOVL 081113Z AUTO 25003KT 7SM CLR 13/11 A3012 RMK AO2
     T01250111=
METAR KLJF 081112Z AUTO 26003KT 10SM CLR 17/16 A3012 RMK AO2=
METAR KAEL 081111Z AUTO 00000KT 7SM CLR 17/16 A3011 RMK AO2=
METAR K29G 081114Z AUTO 00000KT 5SM CLR 21/19 A3010 RMK AO2
     T02080193 PWINO=
METAR KMRT 081113Z AUTO 00000KT 2 1/2SM CLR 21/19 A3012 RMK AO2
     T02090193=
METAR KIKW 081113Z AUTO 00000KT 7SM SCT080 OVC100 23/21 A3001 RMK
     AO2 T02300211=
METAR KMDS 081105Z AUTO 24004KT M1/4SM FG VV000 14/14 A3018 RMK
     AO2=
METAR KPQN 081113Z AUTO 33003KT 10SM CLR 17/14 A3017 RMK AO2=
METAR KFGN 081114Z AUTO 26007KT 1/4SM -DZ VV002 16/13 A2998 RMK
     AO2=
METAR KPNM 081113Z AUTO 00000KT 3SM BR CLR 14/13 A3009 RMK AO2=
METAR KPWC 081113Z AUTO 00000KT 1/4SM FG OVC001 10/09 A3009 RMK
     AO2=
METAR KFFM 081113Z AUTO 00000KT 10SM CLR 14/14 A3009 RMK AO2=
METAR KGDB 081113Z AUTO 25004KT 10SM CLR 14/13 A3015 RMK AO2
     T01350129=
METAR KAIT 081113Z AUTO 24004KT 10SM CLR 14/13 A3007 RMK AO2=
METAR KGHW 081114Z AUTO 25005KT 10SM CLR 15/13 A3015 RMK AO2=
METAR KMWM 081113Z AUTO 00000KT 5SM BR CLR 13/13 A3015 RMK AO2=
METAR KULM 081115Z AUTO 00000KT 7SM CLR 13/12 A3013 RMK AO2=
METAR KBBB 081113Z AUTO 00000KT 1 1/4SM BR VV007 13/13 A3012 RMK
     AO2 VIS 1/2V5=
METAR KTWM 081113Z AUTO 29003KT 10SM CLR 16/13 A3002 RMK AO2=
METAR KMGG 081115Z AUTO 27004KT 10SM CLR 17/15 A3011 RMK AO2
     T01660150=
METAR KMOX 081110Z AUTO 26003KT 10SM CLR 15/14 A3009 RMK AO2=
####018000092####
SAAM31 FCBB 081100 RRB
METAR FPST 081100Z 15014KT 9999 FEW020 SCT110 28/22 Q1015 NOSIG=
####018000092####
SAAM31 FCBB 081100 RRC
METAR FEFF 081100Z 26004KT 9999 FEW023 BKN300 30/21 Q1013 NOSIG=
####018000095####
SAUS41 KAKQ 081117
MTRNUI
SPECI KNUI 081116Z AUTO 07004KT 3SM BR CLR 26/24 A2999 RMK AO2
####018003696####
SAUS99 KWBC 081118 RRA
METAR
PAAK 081116Z AUTO 07017G24KT 10SM BKN013 BKN026 OVC070 07/04 A2958
     RMK AO1 PNO=
PAHP 081116Z AUTO 35009KT 10SM CLR 09/07 A3005 RMK AO1 PNO
     TSNO=
KTEW 081113Z AUTO 00000KT 7SM CLR 22/20 A3005 RMK AO2=
KCVH 081110Z AUTO 26003KT 8SM OVC006 13/11 A2992 RMK AO1=
KDYT 081109Z AUTO 20007KT 10SM CLR 17/15 A3004 RMK AO2=
KFSO 081118Z AUTO 00000KT 5SM BR BKN060 BKN075 OVC090 24/22 A3002
     RMK AO2=
KFBL 081114Z AUTO 29004KT 10SM CLR 17/15 A3011 RMK AO2=
KLYV 081118Z AUTO 00000KT 10SM CLR 13/11 A3017 RMK AO2=
KEFK 081115Z AUTO 21003KT 4SM BR CLR 22/20 A3006 RMK AO2=
KRRT 081114Z AUTO 23006KT 10SM CLR 13/11 A3001 RMK AO2=
KTOB 081114Z AUTO 00000KT 10SM CLR 17/16 A3010 RMK AO2=
KLXL 081114Z AUTO 00000KT 1 1/4SM BR VV007 12/12 A3008 RMK AO2=
KEVM 081112Z AUTO 00000KT 7SM CLR 13/12 A3002 RMK AO1=
KELO 081113Z AUTO 22005KT 10SM CLR 14/13 A3002 RMK AO2=
KANE 081115Z AUTO 00000KT 1SM BR 16/14 A3010 RMK AO2 VIS 1/4V4=
KROX 081114Z AUTO 23004KT 10SM SCT095 14/12 A3001 RMK AO2=
KSYN 081130Z AUTO 00000KT 7SM CLR 17/15 A3009 RMK AO2
     T01670154=
KVVV 081116Z AUTO 27005KT 10SM CLR 17/14 A3012 RMK AO2=
KROS 081115Z AUTO 00000KT 10SM CLR 15/14 A3008 RMK AO2
     T01480141=
KHCD 081112Z AUTO 25003KT 3SM BR CLR 13/12 A3012 RMK AO2
     T01270118=
KSGS 081113Z AUTO 26003KT 10SM CLR 18/16 A3009 RMK AO2
     T01800162=
KMJQ 081112Z AUTO 25003KT 7SM CLR 15/14 A3016 RMK AO2=
KHCO 081114Z AUTO 21004KT 10SM BKN100 13/13 A3006 RMK AO2=
KLVN 081108Z AUTO 27004KT 10SM CLR 16/16 A3011 RMK AO2=
KPEX 081113Z AUTO 26005KT 5SM BR CLR 13/13 A3012 RMK AO2
     T01320131=
KJMR 081118Z AUTO 00000KT 10SM CLR 13/12 A3009 RMK AO2=
KJKJ 081114Z AUTO 22004KT 10SM CLR 16/14 A3007 RMK AO2=
KMVE 081114Z AUTO 28003KT 10SM CLR 16/14 A3011 RMK AO2=
KTKC 081113Z AUTO 26005KT 10SM CLR 16/13 A3014 RMK AO2
     T01570128=
KGYL 081114Z AUTO 00000KT 10SM CLR 15/14 A3011 RMK AO2
     T01520143=
KDXX 081114Z AUTO 00000KT 10SM CLR 14/14 A3011 RMK AO2=
KHZX 081111Z AUTO 00000KT 10SM CLR 13/12 A3007 RMK AO2=
KSAZ 081114Z AUTO 24004KT 10SM CLR 16/16 A3009 RMK AO2=
KONA 081110Z AUTO 30003KT 10SM CLR 20/17 A3005 RMK AO2=
KOVL 081113Z AUTO 25003KT 7SM CLR 13/11 A3012 RMK AO2
     T01250111=
KLJF 081112Z AUTO 26003KT 10SM CLR 17/16 A3012 RMK AO2=
KAEL 081111Z AUTO 00000KT 7SM CLR 17/16 A3011 RMK AO2=
K29G 081114Z AUTO 00000KT 5SM CLR 21/19 A3010 RMK AO2 T02080193
     PWINO=
KMRT 081113Z AUTO 00000KT 2 1/2SM CLR 21/19 A3012 RMK AO2
     T02090193=
KIKW 081113Z AUTO 00000KT 7SM SCT080 OVC100 23/21 A3001 RMK AO2
     T02300211=
KMDS 081105Z AUTO 24004KT M1/4SM FG VV000 14/14 A3018 RMK AO2=
KPQN 081113Z AUTO 33003KT 10SM CLR 17/14 A3017 RMK AO2=
KFGN 081114Z AUTO 26007KT 1/4SM -DZ VV002 16/13 A2998 RMK AO2=
KPNM 081113Z AUTO 00000KT 3SM BR CLR 14/13 A3009 RMK AO2=
KPWC 081113Z AUTO 00000KT 1/4SM FG OVC001 10/09 A3009 RMK AO2=
KFFM 081113Z AUTO 00000KT 10SM CLR 14/14 A3009 RMK AO2=
KGDB 081113Z AUTO 25004KT 10SM CLR 14/13 A3015 RMK AO2
     T01350129=
KAIT 081113Z AUTO 24004KT 10SM CLR 14/13 A3007 RMK AO2=
KGHW 081114Z AUTO 25005KT 10SM CLR 15/13 A3015 RMK AO2=
KMWM 081113Z AUTO 00000KT 5SM BR CLR 13/13 A3015 RMK AO2=
KULM 081115Z AUTO 00000KT 7SM CLR 13/12 A3013 RMK AO2=
KBBB 081113Z AUTO 00000KT 1 1/4SM BR VV007 13/13 A3012 RMK AO2 VIS
     1/2V5=
KTWM 081113Z AUTO 29003KT 10SM CLR 16/13 A3002 RMK AO2=
KMGG 081115Z AUTO 27004KT 10SM CLR 17/15 A3011 RMK AO2
     T01660150=
KMOX 081110Z AUTO 26003KT 10SM CLR 15/14 A3009 RMK AO2=
PAAK 081116Z AUTO 07017G24KT 10SM BKN013 BKN026 OVC070 07/04 A2958
     RMK AO1 PNO=
####018003672####
SAUS99 KWBC 081118
METAR
K0A9 081115Z AUTO 00000KT 7SM SCT085 21/18 A3013 RMK=
KBBG 081115Z AUTO 00000KT 7SM BKN080 22/22 A3008 RMK AO2=
KBBP 081115Z AUTO 00000KT 10SM CLR 23/19 A2996 RMK AO2=
KBKN 081115Z AUTO 02004KT 10SM CLR 22/21 A3004 RMK AO2=
KCIC 081115Z AUTO 00000KT 10SM CLR 20/13 A2982 RMK AO1=
KCMR 081115Z AUTO 16006KT 10SM CLR 16/02 A3025 RMK AO1=
KGGE 081115Z AUTO 28006KT 10SM BKN100 24/21 A2994 RMK AO2=
KHVS 081115Z AUTO 00000KT 10SM CLR 23/21 A2998 RMK AO2=
KMAO 081115Z AUTO 32003KT 10SM CLR 24/20 A2994 RMK AO2=
KNQA 081115Z COR 00000KT 10SM FEW250 23/23 A3008 RMK=
KRCE 081115Z AUTO 04006KT 3/4SM BR OVC002 22/22 A3008 RMK AO2=
KSMS 081115Z AUTO 34004KT 10SM CLR 24/20 A2999 RMK AO2=
KSRR 081115Z AUTO 00000KT 10SM BKN017 OVC110 13/13 A3036 RMK
     AO2=
KFPK 081116Z AUTO 00000KT 5SM BR CLR 22/21 A3003 RMK AO2=
KMOP 081115Z AUTO 23004KT 10SM OVC085 23/22 A3002 RMK AO2=
KCAD 081114Z AUTO 23005KT 10SM SCT070 BKN085 OVC110 22/21 A3003
     RMK AO2=
KMGN 081115Z AUTO 27003KT 7SM RA SCT029 SCT050 OVC110 22/20 A2997
     RMK AO2=
KHAI 081115Z AUTO 00000KT 5SM BR CLR 22/21 A3005 RMK AO2=
KLWA 081116Z AUTO 00000KT 10SM BKN044 OVC055 23/21 A3003 RMK
     AO2=
KDRM 081116Z AUTO 17003KT 1 1/2SM BR OVC002 20/20 A2996 RMK
     AO2=
KVLL 081114Z AUTO 24003KT 10SM CLR 25/21 A3006 RMK AO2=
KCFS 081115Z AUTO 22005KT 7SM SCT060 SCT070 23/22 A3003 RMK
     AO2=
KOZW 081115Z AUTO 00000KT 7SM CLR 23/21 A3005 RMK AO2=
KRNP 081115Z AUTO 31003KT 7SM CLR 24/21 A3003 RMK AO2=
KDUH 081114Z AUTO 00000KT 7SM CLR 23/18 A3005 RMK AO2=
KJYM 081115Z AUTO 00000KT 5SM BR CLR 21/19 A3007 RMK AO2=
KBAX 081115Z AUTO 00000KT 4SM BR CLR 23/22 A3000 RMK AO2=
KIRS 081115Z AUTO 00000KT 4SM BR CLR 22/20 A3005 RMK AO2=
KACB 081115Z AUTO 00000KT 7SM RA SCT023 OVC080 23/21 A3000 RMK
     AO2=
KRQB 081115Z AUTO 00000KT 7SM -RA BKN075 22/21 A3003 RMK AO2=
KOEB 081115Z AUTO 00000KT 3SM BR CLR 22/21 A3006 RMK AO2=
K4I3 081116Z AUTO 00000KT 7SM SCT060 21/19 A3010 RMK AO2=
KAUM 081115Z AUTO 31003KT 5SM BR CLR 17/16 A3010 RMK AO2=
KFFX 081115Z AUTO 00000KT 3SM BR OVC090 22/22 A3002 RMK AO2=
KCNB 081117Z AUTO 24008KT 10SM CLR 17/13 A3014 RMK AO2
     T01650131=
KCKN 081115Z AUTO 22004KT 10SM CLR 13/12 A3006 RMK AO2=
KCFE 081115Z AUTO 00000KT 10SM CLR 17/16 A3012 RMK AO2
     T01730158=
KCQM 081117Z AUTO 00000KT 10SM CLR 15/14 A3003 RMK AO2=
KDTL 081115Z AUTO 27003KT 10SM CLR 16/11 A3010 RMK AO2=
KBDH 081115Z AUTO 00000KT 5SM BR CLR 14/14 A3013 RMK AO2=
KCBG 081115Z AUTO 00000KT 10SM CLR 16/14 A3008 RMK AO2=
KADC 081117Z AUTO 25004KT 10SM CLR 13/12 A3009 RMK AO2=
KHAF 081110Z AUTO 00000KT 10SM OVC006 12/11 A2993 RMK AO2=
KCKC 081115Z AUTO 29004KT 10SM CLR 16/13 A3004 RMK AO2=
KJYG 081115Z AUTO 00000KT 10SM CLR 16/16 A3015 RMK AO2=
KCOQ 081116Z AUTO 28006KT 10SM CLR 15/15 A3006 RMK AO2=
KACQ 081119Z AUTO 30005KT 4SM BR CLR 16/15 A3013 RMK AO2=
KRGK 081115Z AUTO 30003KT 10SM CLR 18/17 A3008 RMK AO2=
KFSE 081114Z AUTO 19004KT 10SM CLR 11/11 A3006 RMK AO2=
KY70 081115Z AUTO 16003KT 1 3/4SM BR SCT002 SCT070 BKN110 23/22
     A3003 RMK AO2 T02270220=
KUKT 081110Z AUTO 00000KT 5SM CLR 23/21 A3005 RMK AO1=
K04W 081114Z AUTO 00000KT 10SM CLR 16/15 A3007 RMK AO2
     T01550151=
KC29 081115Z AUTO 28006KT 10SM BKN009 OVC013 21/20 A3004 RMK AO2
     T02140196=
KD39 081114Z AUTO 25005KT 10SM CLR 16/15 A3011 RMK AO2
     T01620150=
KDLL 081114Z AUTO 00000KT 4SM BR OVC002 21/21 A3004 RMK AO2=
KJWG 081115Z AUTO 03005KT 7SM OVC004 22/22 A3010 RMK AO2=
KY51 081115Z AUTO 31005KT 1SM OVC003 19/19 A3005 RMK AO1
     T01920191=
####018000383####
SPUS99 KWBC 081118
SPECI
KCNU 081115Z AUTO 01004KT 1SM BR OVC001 22/21 A3006 RMK AO2=
KILN 081115Z AUTO 00000KT 3SM BR CLR 22/20 A3009 RMK AO2=
KMKG 081115Z 15004KT 4SM -RA BR SCT043 BKN060 OVC100 23/22 A3002
     RMK AO2 RAB02 P0002 $=
KPSF 081115Z AUTO 00000KT 3SM BR CLR 22/20 A3009 RMK AO2=
KNBG 081109Z 04003KT 6SM BR FEW010 BKN250 25/23 A3002 RMK AO2
     $=
####018000103####
SAMX55 MMMY 081118
METAR MMTC 081113Z RTD 04006KT 10SM SCT080 SCT200 22/17 A3000
      RMK 8/032=
####018002435####
SAUS99 KWBC 081118 RRB
METAR
PABL 081116Z AUTO 00000KT 10SM CLR 08/05 A3016 RMK AO1 PNO=
PABV 081116Z AUTO 15003KT 10SM CLR 11/07 RMK AO1 PNO=
PADK 081116Z 03010KT 10SM BKN011 BKN018 OVC033 07/06 A2954 RMK AO1
     PNO=
PADL 081116Z 31007KT 10SM OVC047 10/08 A2998 RMK AO1 PNO TSNO=
PAEM 081116Z AUTO 00000KT 10SM OVC070 12/08 A3004 RMK AO1 PNO=
PAFE 081116Z AUTO 07005KT 10SM CLR 10/08 A3018 RMK AO1 PNO=
PAFM 081116Z AUTO 31004KT 10SM CLR 14/08 A3010 RMK AO1 PNO=
PAGL 081116Z AUTO 33005KT 10SM CLR 15/07 A3013 RMK AO1 PNO=
PAGS 081116Z AUTO 00000KT 10SM CLR 08/07 A3019 RMK AO1 PNO=
PAHP 081116Z AUTO 35009KT 10SM CLR 09/07 A3005 RMK AO1 PNO
     TSNO=
PAHY 081116Z AUTO 36003KT 10SM CLR 16/10 A3011 RMK AO1 PNO=
PAII 081116Z AUTO 36004KT 10SM FEW042 SCT065 OVC080 10/08 A2997
     RMK AO1 PNO=
PAIN 081116Z AUTO 22004KT 10SM CLR 08/06 A3008 RMK AO1 PNO=
PAJC 081116Z AUTO 00000KT 10SM OVC017 08/04 A2993 RMK AO1 PNO=
PAKK 081116Z AUTO 01013KT 10SM CLR 13/07 A3005 RMK AO1 PNO=
PAKP 081116Z AUTO 00000KT 10SM SCT035 09/03 A3012 RMK AO1=
PAMD 081116Z AUTO 09016KT 8SM SCT007 BKN016 OVC028 09/08 A3003 RMK
     AO1 PNO=
PAMH 081116Z 00000KT 10SM CLR 14/04 A2999 RMK AO1 PNO=
PAMM 081116Z AUTO 00000KT 10SM CLR 17/11 A3009 RMK AO1 PNO=
PAMY 081116Z 28008KT 1/2SM OVC002 04/03 A3006 RMK AO1=
PANI 081116Z AUTO 00000KT 10SM FEW070 09/08 A3001 RMK AO1 PNO=
PANV 081116Z AUTO 29003KT 10SM OVC075 13/08 A2998 RMK AO1 PNO=
PAPG 081116Z 05005KT 10SM CLR 12/09 A3013 RMK AO1 PNO=
PAPH 081116Z AUTO 00000KT 8SM OVC060 06/04 A2995 RMK AO1 PNO=
PARC 081116Z AUTO 30004KT 10SM CLR 09/01 A3005 RMK AO1 PNO=
PASA 081116Z AUTO 00000KT 10SM CLR 05/03 A3019 RMK AO1 PNO=
PASD 081116Z AUTO 00000KT 10SM FEW027 SCT039 07/05 A2994 RMK AO1
     PNO=
PASH 081116Z AUTO 00000KT 8SM CLR 06/04 A3017 RMK AO1 PNO=
PASK 081116Z 26008KT 10SM CLR 13/07 A3011 RMK AO1 PNO=
PASL 081116Z AUTO 00000KT 10SM OVC095 12/08 A3001 RMK AO1 PNO=
PASM 081116Z AUTO 05004KT 10SM SCT070 OVC110 10/08 A3004 RMK AO1
     PNO=
PAUN 081116Z AUTO 08004KT 10SM CLR 12/04 A3002 RMK AO1 PNO=
PAVD 081116Z 00000KT 10SM OVC080 11/08 A3008 RMK AO1 PNO=
PAWG 081116Z AUTO 30006KT 10SM CLR 12/09 A3013 RMK AO1 PNO=
PAWN 081116Z AUTO 00000KT 10SM CLR 07/03 A3015 RMK AO1 PNO=
PAWS 081116Z AUTO 16003KT 10SM SCT090 11/09 A2997 RMK AO1 PNO=
PAZK 081116Z AUTO 08011KT 10SM FEW060 09/03 A3008 RMK AO1 PNO=
####018000095####
SACN86 KWBC 081118
METAR CWLS 081100Z AUTO 18004KT 23/18 RMK AO1 SLP173 T02320183
55000=
####018000243####
SACN92 KWBC 081118
METAR CWKG 081100Z AUTO 24001KT 19/19 RMK AO1 SLP221 T01920190
51013=
METAR CWMQ 081100Z AUTO 00000KT 09/08 RMK AO1 SLP216 T00930079
53003=
METAR CWMQ 081100Z AUTO 00000KT 09/08 RMK AO1 SLP216 T00930079
53003=
####018000302####
SACN94 KWBC 081118
METAR CWSG 081100Z AUTO 36003KT 12/12 RMK AO1 SLP173 T01200118
53006=
METAR CWSL 081100Z AUTO 20003KT 12/08 RMK AO1 SLP189 T01230083
53011=
METAR CWSR 081100Z AUTO 24010KT 12/11 RMK AO1 SLP174 T01190112
56009=
METAR CWSK 081115Z AUTO 36002KT 16/10 RMK AO1 T01560103=
####018000539####
SACN91 KWBC 081118
METAR CWGX 081100Z AUTO 22004KT 11/09 RMK AO1 SLP086 T01050089
56002=
METAR CWID 081100Z AUTO 33001KT 12/10 RMK AO1 SLP148 T01180102
56001=
METAR CWIY 081100Z AUTO 16005KT 23/20 RMK AO1 SLP163 T02300204
53009=
METAR CWJH 081100Z AUTO 26003KT 10/07 RMK AO1 SLP132 T00960070
58001=
METAR CWID 081100Z AUTO 33001KT 12/10 RMK AO1 SLP148 T01180102
56001=
METAR CWIY 081100Z AUTO 16005KT 23/20 RMK AO1 SLP163 T02300204
53009=
METAR CWJH 081100Z AUTO 26003KT 10/07 RMK AO1 SLP132 T00960070
58001=
####018000687####
SACN85 KWBC 081118
METAR CWSS 081100Z AUTO 13003KT 21/18 RMK AO1 SLP191 T02070182
53007=
METAR CWSS 081100Z AUTO 13003KT 21/18 RMK AO1 SLP191 T02070182
53007=
METAR CWSS 081100Z AUTO 13003KT 21/18 RMK AO1 SLP191 T02070182
53007=
METAR CWSS 081100Z AUTO 13003KT 21/18 RMK AO1 SLP191 T02070182
53007=
METAR CWSS 081100Z AUTO 13003KT 21/18 RMK AO1 SLP191 T02070182
53007=
METAR CWSS 081100Z AUTO 13003KT 21/18 RMK AO1 SLP191 T02070182
53007=
METAR CWSS 081100Z AUTO 13003KT 21/18 RMK AO1 SLP191 T02070182
53007=
METAR CWSS 081100Z AUTO 13003KT 21/18 RMK AO1 SLP191 T02070182
53007=
METAR CWNH 081100Z AUTO 36003KT 13/12 RMK AO1 SLP161 T01280121
53004=
####018000183####
SAAF31 KWBC 081100 RRC
METAR
DNAA 081100Z 27008KT 9999 BKN013 28/22 Q1014 NOSIG=
DNIL 081100Z 21009KT 9999 BKN010 28/23 Q1013=
DNMA 081100Z 21007KT 9999 SCT012 30/24 Q1012=
####018000094####
SAXX60 KWBC 081100 RRK
METAR
KDOV 081055Z 11007KT 10SM CLR 25/25 A3001 RMK AO2A SLP164=
####018003744####
SAUS70 KWBC 081118
METAR
K20V 081116Z AUTO 00000KT 10SM SCT019 06/03 A3042 RMK AO2=
K5SM 081113Z AUTO 15003KT 10SM CLR 08/01 A3056 RMK AO2=
K7BM 081116Z AUTO 00000KT 10SM CLR 08/05 A3054 RMK AO2=
KBDU 081117Z AUTO 00000KT 10SM BKN038 14/12 A3032 RMK AO2=
KBJC 081117Z AUTO 35007KT 5SM BR SCT001 SCT006 SCT028 12/11 A3034
     RMK AO2=
KCCU 081116Z AUTO 18021KT 10SM SCT110 06/02 A3062 RMK AO2=
KGTU 081115Z 07005KT 10SM SCT006 BKN012 OVC070 24/22 A3001 RMK
     AO1=
KHYI 081115Z AUTO 05006KT 7SM BKN014 25/24 A2994 RMK AO1=
KILE 081115Z 09005KT 10SM SCT012 BKN026 OVC045 24/22 A2998 RMK
     AO1=
KMYP 081016Z AUTO 09003KT M1/4SM -SN OVC001 03/02 A3075 RMK
     AO2=
KOCH 081115Z AUTO 09006KT 10SM CLR 24/19 A3002 RMK AO1=
KPRX 081115Z 12005KT 5SM SCT004 BKN013 OVC026 24/22 A3004 RMK
     AO1=
KPWG 081115Z AUTO 07004KT 10SM BKN010 OVC120 25/22 A3000 RMK
     AO1=
KTPL 081115Z 08005KT 10SM SCT006 OVC013 24/23 A2999 RMK AO1=
KVTP 081120Z AUTO 06005KT 3/4SM BKN001 BKN120 05/04 A3055 RMK
     AO2=
KWYS 081110Z AUTO 00000KT 10SM CLR 00/M02 A3037 RMK AO2=
K0A9 081115Z AUTO 00000KT 7SM SCT085 21/18 A3013 RMK=
KBBG 081115Z AUTO 00000KT 7SM BKN080 22/22 A3008 RMK AO2=
KBBP 081115Z AUTO 00000KT 10SM CLR 23/19 A2996 RMK AO2=
KBKN 081115Z AUTO 02004KT 10SM CLR 22/21 A3004 RMK AO2=
KCIC 081115Z AUTO 00000KT 10SM CLR 20/13 A2982 RMK AO1=
KCMR 081115Z AUTO 16006KT 10SM CLR 16/02 A3025 RMK AO1=
KGGE 081115Z AUTO 28006KT 10SM BKN100 24/21 A2994 RMK AO2=
KHVS 081115Z AUTO 00000KT 10SM CLR 23/21 A2998 RMK AO2=
KMAO 081115Z AUTO 32003KT 10SM CLR 24/20 A2994 RMK AO2=
KNQA 081115Z COR 00000KT 10SM FEW250 23/23 A3008 RMK=
KRCE 081115Z AUTO 04006KT 3/4SM BR OVC002 22/22 A3008 RMK AO2=
KSRR 081115Z AUTO 00000KT 10SM BKN017 OVC110 13/13 A3036 RMK
     AO2=
K04W 081114Z AUTO 00000KT 10SM CLR 16/15 A3007 RMK AO2
     T01550151=
KC29 081115Z AUTO 28006KT 10SM BKN009 OVC013 21/20 A3004 RMK AO2
     T02140196=
KD39 081114Z AUTO 25005KT 10SM CLR 16/15 A3011 RMK AO2
     T01620150=
KDLL 081114Z AUTO 00000KT 4SM BR OVC002 21/21 A3004 RMK AO2=
KJWG 081115Z AUTO 03005KT 7SM OVC004 22/22 A3010 RMK AO2=
KY51 081115Z AUTO 31005KT 1SM OVC003 19/19 A3005 RMK AO1
     T01920191=
PAAK 081116Z AUTO 07017G24KT 10SM BKN013 BKN026 OVC070 07/04 A2958
     RMK AO1 PNO=
PAHP 081116Z AUTO 35009KT 10SM CLR 09/07 A3005 RMK AO1 PNO
     TSNO=
PAAK 081116Z AUTO 07017G24KT 10SM BKN013 BKN026 OVC070 07/04 A2958
     RMK AO1 PNO=
PABL 081116Z AUTO 00000KT 10SM CLR 08/05 A3016 RMK AO1 PNO=
PABV 081116Z AUTO 15003KT 10SM CLR 11/07 RMK AO1 PNO=
PADL 081116Z 31007KT 10SM OVC047 10/08 A2998 RMK AO1 PNO TSNO=
PAEM 081116Z AUTO 00000KT 10SM OVC070 12/08 A3004 RMK AO1 PNO=
PAFE 081116Z AUTO 07005KT 10SM CLR 10/08 A3018 RMK AO1 PNO=
PAFM 081116Z AUTO 31004KT 10SM CLR 14/08 A3010 RMK AO1 PNO=
PAGL 081116Z AUTO 33005KT 10SM CLR 15/07 A3013 RMK AO1 PNO=
PAGS 081116Z AUTO 00000KT 10SM CLR 08/07 A3019 RMK AO1 PNO=
PAHP 081116Z AUTO 35009KT 10SM CLR 09/07 A3005 RMK AO1 PNO
     TSNO=
PAHY 081116Z AUTO 36003KT 10SM CLR 16/10 A3011 RMK AO1 PNO=
PAII 081116Z AUTO 36004KT 10SM FEW042 SCT065 OVC080 10/08 A2997
     RMK AO1 PNO=
PAIN 081116Z AUTO 22004KT 10SM CLR 08/06 A3008 RMK AO1 PNO=
PAJC 081116Z AUTO 00000KT 10SM OVC017 08/04 A2993 RMK AO1 PNO=
PAKK 081116Z AUTO 01013KT 10SM CLR 13/07 A3005 RMK AO1 PNO=
PAKP 081116Z AUTO 00000KT 10SM SCT035 09/03 A3012 RMK AO1=
PAMD 081116Z AUTO 09016KT 8SM SCT007 BKN016 OVC028 09/08 A3003 RMK
     AO1 PNO=
PAMH 081116Z 00000KT 10SM CLR 14/04 A2999 RMK AO1 PNO=
PAMM 081116Z AUTO 00000KT 10SM CLR 17/11 A3009 RMK AO1 PNO=
PAMY 081116Z 28008KT 1/2SM OVC002 04/03 A3006 RMK AO1=
####018000094####
SAAF34 KWBC 081100 RRD
METAR
FEFF 081100Z 26004KT 9999 FEW023 BKN300 30/21 Q1013 NOSIG=
####018001415####
SACN97 KWBC 081118
METAR CXKT 081100Z AUTO 24005KT 21/19 RMK AO1 T02080185=
METAR CXKT 081100Z AUTO 24005KT 21/19 RMK AO1 T02080185=
METAR CXKT 081100Z AUTO 24005KT 21/19 RMK AO1 T02080185=
METAR CXKT 081100Z AUTO 24005KT 21/19 RMK AO1 T02080185=
METAR CXKT 081100Z AUTO 24005KT 21/19 RMK AO1 T02080185=
METAR CXKT 081100Z AUTO 24005KT 21/19 RMK AO1 T02080185=
METAR CXKT 081100Z AUTO 24005KT 21/19 RMK AO1 T02080185=
METAR CXKT 081100Z AUTO 24005KT 21/19 RMK AO1 T02080185=
METAR CXKT 081100Z AUTO 24005KT 21/19 RMK AO1 T02080185=
METAR CXKT 081100Z AUTO 24005KT 21/19 RMK AO1 T02080185=
METAR CXKT 081100Z AUTO 24005KT 21/19 RMK AO1 T02080185=
METAR CXKT 081100Z AUTO 24005KT 21/19 RMK AO1 T02080185=
METAR CXDW 081100Z AUTO 29007KT 14/11 RMK AO1 T01350114=
METAR CXEA 081100Z AUTO 24002KT 13/12 RMK AO1 SLP136 T01310120
53002=
METAR CXGH 081100Z AUTO 29004KT 14/14 RMK AO1 T01440144=
METAR CXMD 081100Z AUTO 30006KT 15/12 RMK AO1 SLP158 T01450120
53012=
METAR CXMM 081100Z AUTO 11/09 RMK AO1 T01110091=
METAR CXWN 081100Z AUTO 32004KT 16/12 RMK AO1 SLP156 T01580119
53009=
METAR CXKT 081100Z AUTO 24005KT 21/19 RMK AO1 T02080185=
METAR CXKT 081100Z AUTO 24005KT 21/19 RMK AO1 T02080185=
METAR CXKT 081100Z AUTO 24005KT 21/19 RMK AO1 T02080185=
METAR CXKT 081100Z AUTO 24005KT 21/19 RMK AO1 T02080185=
METAR CXKT 081100Z AUTO 24005KT 21/19 RMK AO1 T02080185=
####018000084####
SAUS80 KWBC 081100 RRE
METAR
KMWS 081100Z 14007G10KT 19/M05 RMK SNOW DEPTH M=
####018000113####
SACN89 KWBC 081118
METAR CWCF 081100Z AUTO 29011KT 16/12 RMK AO1 PK WND 29017/1051
SLP133 T01630118 53006=
####018000310####
SPUS80 KWBC 081118
SPECI
KCLL 081115Z AUTO 07007KT 10SM SCT009 25/23 A2996 RMK AO2=
KCNU 081115Z AUTO 01004KT 1SM BR OVC001 22/21 A3006 RMK AO2=
KMKG 081115Z 15004KT 4SM -RA BR SCT043 BKN060 OVC100 23/22 A3002
     RMK AO2 RAB02 P0002 $=
KNUI 081116Z AUTO 07004KT 3SM BR CLR 26/24 A2999 RMK AO2=
####018000080####
SACN90 KWBC 081118
METAR CWFQ 081100Z AUTO 00000KT 24/23 RMK AO1 T02400226=
####018001180####
SACN93 KWBC 081118
METAR CWNK 081100Z AUTO 30006KT 14/12 RMK AO1 T01390120=
METAR CWNM 081100Z AUTO 12/11 RMK AO1 SLP200 T01150113 51007=
METAR CWNQ 081100Z AUTO 17003KT 25/22 RMK AO1 SLP151 T02450224
51007=
METAR CWPF 081100Z AUTO 05003KT 15/12 RMK AO1 SLP140 T01540118
50003=
METAR CWPZ 081100Z AUTO 30001KT 05/04 RMK AO1 SLP199 T00520040
53006=
METAR CWPF 081100Z AUTO 05003KT 15/12 RMK AO1 SLP140 T01540118
50003=
METAR CWPZ 081100Z AUTO 30001KT 05/04 RMK AO1 SLP199 T00520040
53006=
METAR CWPF 081100Z AUTO 05003KT 15/12 RMK AO1 SLP140 T01540118
50003=
METAR CWPZ 081100Z AUTO 30001KT 05/04 RMK AO1 SLP199 T00520040
53006=
METAR CWPF 081100Z AUTO 05003KT 15/12 RMK AO1 SLP140 T01540118
50003=
METAR CWPZ 081100Z AUTO 30001KT 05/04 RMK AO1 SLP199 T00520040
53006=
METAR CWPZ 081100Z AUTO 30001KT 05/04 RMK AO1 SLP199 T00520040
53006=
METAR CWPZ 081100Z AUTO 30001KT 05/04 RMK AO1 SLP199 T00520040
53006=
METAR CWPZ 081100Z AUTO 30001KT 05/04 RMK AO1 SLP199 T00520040
53006=
METAR CWPZ 081100Z AUTO 30001KT 05/04 RMK AO1 SLP199 T00520040
53006=
METAR CWPZ 081100Z AUTO 30001KT 05/04 RMK AO1 SLP199 T00520040
53006=
####018000465####
SACN95 KWBC 081118
METAR CWUS 081100Z AUTO 29008KT 16/06 RMK AO1 SLP183 T01610059
51009=
METAR CWVN 081100Z AUTO 34001KT 09/08 RMK AO1 SLP217 T00930079
53003=
METAR CWWF 081100Z AUTO 30004KT 11/10 RMK AO1 SLP198 T01140103
53005=
METAR CWUS 081100Z AUTO 29008KT 16/06 RMK AO1 SLP183 T01610059
51009=
METAR CWVN 081100Z AUTO 34001KT 09/08 RMK AO1 SLP217 T00930079
53003=
METAR CWWF 081100Z AUTO 30004KT 11/10 RMK AO1 SLP198 T01140103
53005=
####018003129####
SACN88 KWBC 081118
METAR CWAR 081100Z AUTO 26007KT 11/10 RMK AO1 SLP242 T01070097
53004=
METAR CXNP 081100Z AUTO 19010KT 19/18 RMK AO1 SLP192 T01930176
52005=
METAR CZDB 081100Z AUTO 21003KT 18/17 RMK AO1 SLP205 T01760171
53008=
METAR CWAR 081100Z AUTO 26007KT 11/10 RMK AO1 SLP242 T01070097
53004=
METAR CXNP 081100Z AUTO 19010KT 19/18 RMK AO1 SLP192 T01930176
52005=
METAR CZDB 081100Z AUTO 21003KT 18/17 RMK AO1 SLP205 T01760171
53008=
METAR CWAR 081100Z AUTO 26007KT 11/10 RMK AO1 SLP242 T01070097
53004=
METAR CXNP 081100Z AUTO 19010KT 19/18 RMK AO1 SLP192 T01930176
52005=
METAR CZDB 081100Z AUTO 21003KT 18/17 RMK AO1 SLP205 T01760171
53008=
METAR CWAR 081100Z AUTO 26007KT 11/10 RMK AO1 SLP242 T01070097
53004=
METAR CXNP 081100Z AUTO 19010KT 19/18 RMK AO1 SLP192 T01930176
52005=
METAR CZDB 081100Z AUTO 21003KT 18/17 RMK AO1 SLP205 T01760171
53008=
METAR CWAR 081100Z AUTO 26007KT 11/10 RMK AO1 SLP242 T01070097
53004=
METAR CXNP 081100Z AUTO 19010KT 19/18 RMK AO1 SLP192 T01930176
52005=
METAR CZDB 081100Z AUTO 21003KT 18/17 RMK AO1 SLP205 T01760171
53008=
METAR CWAR 081100Z AUTO 26007KT 11/10 RMK AO1 SLP242 T01070097
53004=
METAR CXNP 081100Z AUTO 19010KT 19/18 RMK AO1 SLP192 T01930176
52005=
METAR CZDB 081100Z AUTO 21003KT 18/17 RMK AO1 SLP205 T01760171
53008=
METAR CWAR 081100Z AUTO 26007KT 11/10 RMK AO1 SLP242 T01070097
53004=
METAR CXNP 081100Z AUTO 19010KT 19/18 RMK AO1 SLP192 T01930176
52005=
METAR CZDB 081100Z AUTO 21003KT 18/17 RMK AO1 SLP205 T01760171
53008=
METAR CWAR 081100Z AUTO 26007KT 11/10 RMK AO1 SLP242 T01070097
53004=
METAR CXNP 081100Z AUTO 19010KT 19/18 RMK AO1 SLP192 T01930176
52005=
METAR CZDB 081100Z AUTO 21003KT 18/17 RMK AO1 SLP205 T01760171
53008=
METAR CXNP 081100Z AUTO 19010KT 19/18 RMK AO1 SLP192 T01930176
52005=
METAR CZDB 081100Z AUTO 21003KT 18/17 RMK AO1 SLP205 T01760171
53008=
METAR CXNP 081100Z AUTO 19010KT 19/18 RMK AO1 SLP192 T01930176
52005=
METAR CZDB 081100Z AUTO 21003KT 18/17 RMK AO1 SLP205 T01760171
53008=
METAR CXNP 081100Z AUTO 19010KT 19/18 RMK AO1 SLP192 T01930176
52005=
METAR CZDB 081100Z AUTO 21003KT 18/17 RMK AO1 SLP205 T01760171
53008=
METAR CXNP 081100Z AUTO 19010KT 19/18 RMK AO1 SLP192 T01930176
52005=
METAR CZDB 081100Z AUTO 21003KT 18/17 RMK AO1 SLP205 T01760171
53008=
METAR CXNP 081100Z AUTO 19010KT 19/18 RMK AO1 SLP192 T01930176
52005=
METAR CZDB 081100Z AUTO 21003KT 18/17 RMK AO1 SLP205 T01760171
53008=
METAR CXNP 081100Z AUTO 19010KT 19/18 RMK AO1 SLP192 T01930176
52005=
METAR CZDB 081100Z AUTO 21003KT 18/17 RMK AO1 SLP205 T01760171
53008=
METAR CXNP 081100Z AUTO 19010KT 19/18 RMK AO1 SLP192 T01930176
52005=
METAR CZDB 081100Z AUTO 21003KT 18/17 RMK AO1 SLP205 T01760171
53008=
METAR CXNP 081100Z AUTO 19010KT 19/18 RMK AO1 SLP192 T01930176
52005=
METAR CZDB 081100Z AUTO 21003KT 18/17 RMK AO1 SLP205 T01760171
53008=
METAR CXNP 081100Z AUTO 19010KT 19/18 RMK AO1 SLP192 T01930176
52005=
METAR CZDB 081100Z AUTO 21003KT 18/17 RMK AO1 SLP205 T01760171
53008=
####018000115####
SACN78 KWBC 081118
METAR CTNK 081100Z AUTO 00000KT 18/18 RMK AO1 3PAST HR 7002 SLP171
P0001 T01840176 50003=
####018000248####
SACN96 KWBC 081118
METAR CWYY 081100Z AUTO 00000KT 14/12 RMK AO1 1008 SLP175
T01380115 50018=
METAR CWZS 081100Z AUTO 32004KT 18/17 RMK AO1 SLP159 T01800173
53013=
METAR CXKA 081100Z AUTO 26005KT 18/15 RMK AO1 SLP122 T01750154
53004=
####018000103####
SPXX60 KWBC 081118
SPECI
KNBG 081109Z 04003KT 6SM BR FEW010 BKN250 25/23 A3002 RMK AO2
     $=
####018000155####
SAAF32 KWBC 081100 RRD
METAR
FKKR 081100Z 08004KT 9999 SCT020 BKN130 26/23 Q1013 NOSIG=
FPST 081100Z 15014KT 9999 FEW020 SCT110 28/22 Q1015 NOSIG=
####018000227####
SAUS80 KWBC 081118
METAR
K4BM 081114Z AUTO 22006KT 1/4SM -SN 05/04 A3062 RMK AO2=
KSMS 081115Z AUTO 34004KT 10SM CLR 24/20 A2999 RMK AO2=
PADK 081116Z 03010KT 10SM BKN011 BKN018 OVC033 07/06 A2954 RMK AO1
     PNO=
####018001125####
SAUS70 KWBC 081118 RRA
METAR
PANI 081116Z AUTO 00000KT 10SM FEW070 09/08 A3001 RMK AO1 PNO=
PANV 081116Z AUTO 29003KT 10SM OVC075 13/08 A2998 RMK AO1 PNO=
PAPG 081116Z 05005KT 10SM CLR 12/09 A3013 RMK AO1 PNO=
PAPH 081116Z AUTO 00000KT 8SM OVC060 06/04 A2995 RMK AO1 PNO=
PARC 081116Z AUTO 30004KT 10SM CLR 09/01 A3005 RMK AO1 PNO=
PASA 081116Z AUTO 00000KT 10SM CLR 05/03 A3019 RMK AO1 PNO=
PASD 081116Z AUTO 00000KT 10SM FEW027 SCT039 07/05 A2994 RMK AO1
     PNO=
PASH 081116Z AUTO 00000KT 8SM CLR 06/04 A3017 RMK AO1 PNO=
PASK 081116Z 26008KT 10SM CLR 13/07 A3011 RMK AO1 PNO=
PASL 081116Z AUTO 00000KT 10SM OVC095 12/08 A3001 RMK AO1 PNO=
PASM 081116Z AUTO 05004KT 10SM SCT070 OVC110 10/08 A3004 RMK AO1
     PNO=
PAUN 081116Z AUTO 08004KT 10SM CLR 12/04 A3002 RMK AO1 PNO=
PAVD 081116Z 00000KT 10SM OVC080 11/08 A3008 RMK AO1 PNO=
PAWG 081116Z AUTO 30006KT 10SM CLR 12/09 A3013 RMK AO1 PNO=
PAWN 081116Z AUTO 00000KT 10SM CLR 07/03 A3015 RMK AO1 PNO=
PAWS 081116Z AUTO 16003KT 10SM SCT090 11/09 A2997 RMK AO1 PNO=
PAZK 081116Z AUTO 08011KT 10SM FEW060 09/03 A3008 RMK AO1 PNO=
####018000212####
SPUS70 KWBC 081118
SPECI
KFTW 081115Z 11006KT 10SM SCT012 BKN019 25/23 A3001 RMK AO2=
KILN 081115Z AUTO 00000KT 3SM BR CLR 22/20 A3009 RMK AO2=
KPSF 081115Z AUTO 00000KT 3SM BR CLR 22/20 A3009 RMK AO2=
####018001589####
SAUS20 KNKA 081117
METAR K1P1 081115Z AUTO 00000KT 2SM BR BKN003 23/22 A3007 RMK AO2 
     T02310219=
SPECI KBGM 081116Z 00000KT 3SM HZ CLR 23/19 A3012 RMK AO2=
METAR KBVU 081115Z AUTO 33004KT 10SM CLR 24/01 A2986 RMK AO2 =
METAR KE80 081115Z AUTO 20005KT 10SM CLR 18/12 A3025 RMK AO2 
     T01830115=
METAR KEDC 081115Z AUTO 05005KT BKN005 BKN070 24/24 A2996 RMK AO2 
     =
METAR KEIK 081115Z AUTO 00000KT 7SM OVC004 12/11 A3032 RMK AO2=
METAR KEOE 081115Z AUTO 23003KT 10SM CLR 22/20 A3005 RMK AO2=
SPECI KFLD 081116Z AUTO 19003KT 6SM BR SCT009 SCT015 21/20 A3001 RMK 
    AO2=
METAR KFMH 081115Z AUTO 14006KT 10SM SCT009 BKN019 23/21 A3011 RMK 
     AO2 =
METAR KIFP 081115Z AUTO 00000KT 10SM CLR 27/00 A2975 RMK AO2 =
METAR KMAN 081115Z AUTO 11005KT 10SM CLR 12/07 A3005 RMK AO1 =
METAR KPVF 081115Z AUTO 10005KT 10SM FEW044 21/12 A2993 RMK AO1 =
METAR KRBW 081115Z AUTO 27003KT 10SM CLR 22/20 A2998 RMK AO2=
METAR KRCM 081115Z AUTO 00000KT 7SM OVC004 22/22 A3005 RMK AO2 LTG 
     DSNT SE=
SPECI KSET 081116Z AUTO 24003KT 6SM BR FEW006 BKN010 OVC047 24/24 
    A3003 RMK AO2 CIG 008V017=
METAR KSNC 081115Z AUTO 14004KT 3SM  BR OVC002 22/ A3009 RMK AO2 =
METAR KTME 081115Z AUTO 04008KT 5SM 25/25 A2993 RMK AO1 =
SPECI KTVR 081116Z AUTO 00000KT 3SM BR CLR 22/21 A3005 RMK AO2 $=
METAR KUOX 081115Z AUTO 00000KT 9SM CLR 22/20 A3010 RMK AO2 =
SPECI KVPZ 081116Z AUTO 06004KT 2SM -RA BR FEW028 BKN070 OVC080 
    23/22 A3004 RMK AO2 LTG DSNT E TSE16RAB1054 P0006=
SPECI KVTA 081116Z AUTO 00000KT 3SM BR FEW065 21/19 A3009 RMK AO2=
####018000112####
SAAS33 KWBC 081105 RRB
METAR
VTSS 081100Z 00000KT 9999 FEW016CB BKN300 26/22 Q1008 A2978 CB
     SE,NW=
####018000079####
SAIQ31 KWBC 081100 RRB
METAR
ORER 081100Z 16006KT 9000 SKC 43/M03 Q1004=
####018000157####
SAAF11 LFPW 081100 RRB
METAR FKKR 081100Z 08004KT 9999 SCT020 BKN130 26/23 Q1013 NOSIG=
METAR FPST 081100Z 15014KT 9999 FEW020 SCT110 28/22 Q1015 NOSIG=
####018000075####
SASD44 KWBC 081100 RRB
METAR
OETR 081100Z 00000KT CAVOK 39/04 Q1010=
####018000091####
SAAM31 FCBB 081100 RRC
METAR FEFF 081100Z 26004KT 9999 FEW023 BKN300 30/21 Q1013 NOSIG=
####018000072####
SASD20 OEJD 081100 RRA
METAR OETR 081100Z 00000KT CAVOK 39/04 Q1010=
####018001745####
SAIY40 LIIB 081100
METAR LIMG 081050Z 07008KT 9999 SCT080 30/24 Q1021 RMK VIS MIN 9999=
METAR LIMK 081055Z 34003KT 9999 BKN025 20/13 Q1023 RMK BKN VAL NIL
      VIS MIN 9999=
METAR LIMN 081055Z /////KT 9999 FEW030 27/15 Q1021 RMK FEW VIS MIN
      9999 BLU=
METAR LIMP 081050Z 06004KT 330V120 CAVOK 28/14 Q1022 RMK VIS MIN
9999=
METAR LIMS 081055Z 12009KT 060V150 CAVOK 28/15 Q1021 RMK SKC VIS MIN
      9999 WIND THR30 10006KT BLU=
METAR LIMZ 081050Z 35005KT 8000 FEW025 BKN045 25/17 Q1024 RMK VIS
MIN 8000=
METAR LIPA 081055Z 21008KT 9999 FEW060 25/18 Q1022 RMK FEW VIS MIN
      9999 A3019 BLU=
METAR LIPB 081050Z 17011KT CAVOK 28/12 Q1021 RMK MON LIB VIS MIN
9999=
METAR LIPC 081055Z 11010KT CAVOK 28/14 Q1022 RMK FEW FEW200 VIS MIN
      9999 WIND THR12 11009KT BLU=
METAR LIPF 081055Z 27002KT 9999 FEW050 27/19 Q1021 RMK FEW VIS MIN
      9999=
METAR LIPH 081045Z 16004KT 9999 SCT025 27/20 Q1023 RMK SCT VIS MIN
      9999 WIND THR07 /////KT BLU=
METAR LIPI 081055Z 20005KT 9999 FEW030 26/19 Q1021 RMK FEW VIS MIN
     9999 WIND THR06 18004KT BLU=
METAR LIPL 081055Z 14004KT 9999 FEW035 27/18 Q1022 RMK SCT VIS MIN
      9999 BLU=
METAR LIPO 081050Z 20004KT 100V230 9999 FEW065 28/14 Q1021 RMK VIS
MIN 9999=
METAR LIPQ 081050Z VRB03KT CAVOK 26/15 Q1022=
METAR LIPR 081045Z 08011KT CAVOK 28/17 Q1021 RMK SKC VIS MIN 9999
      WIND THR31 09011KT BLU=
METAR LIPS 081055Z 20003KT 9999 FEW025 29/18 Q1022 RMK FEW VIS MIN
     9999 BLU=
METAR LIPX 081045Z 12003KT 9999 FEW040 29/13 Q1021 RMK FEW VIS MIN
      9999 BLU=
METAR LIPY 081050Z 06008KT 010V090 CAVOK 27/14 Q1021 RMK VIS MIN
9999=
METAR LIVC 081055Z 00000KT 9999 SCT000 14/11 Q1030 RMK SCT MON CLD
      CIME CUF VAL CLD SCT ELEV VIS MIN 9999=
####018000098####
SAUS44 KSHV 081118
MTRDNK
SPECI KDNK 081116Z AUTO 07004KT 6SM BR SCT014 24/22 A3002 RMK AO2
####018000086####
SAEM31 KWBC 081100 RRC
METAR
LOWZ 081100Z 00000KT 40KM SKC 22/06 Q1023 RMK SKC=
####018000091####
SAAM31 FCBB 081100 RRB
METAR FPST 081100Z 15014KT 9999 FEW020 SCT110 28/22 Q1015 NOSIG=
####018000125####
SAMX41 KWBC 081145
METAR
MMMA 081109Z RTD 31005KT 6SM -RA BKN010 OVC012 26/25 A2980 RMK
     60208 8/5// BINOVC RTS=
####018000091####
SAAF14 LFPW 081100 RRB
METAR FEFF 081100Z 26004KT 9999 FEW023 BKN300 30/21 Q1013 NOSIG=
####018000099####
SAXX99 KWBC 081100 CCF
METAR
EGXT 081050Z 23012KT 9999 FEW025 SCT120 BKN250 20/07 Q1018 BLU=
####018000141####
SAXX61 KWBC 081100 RRC
METAR
KQHT 081055Z 30007G12KT 9999 SCT150 SCT200 34/-08 A2993 RMK SLP096
     WND DATA ESTMD ALSTG/SLP ESTMD=
####018000647####
SAXX99 KWBC 081100 RRN
METAR
CYBX 081100Z 05004KT 15SM BKN030 BKN150 10/09 A3011 RMK SC5AC2
     SLP197=
CYGW 081100Z 35002KT 15SM FEW025 SCT040 BKN080 17/14 A2987 RMK
     CU1SC2AC3 TCU ASOCTD VIA YQB FIC SLP117=
CYHH 081100Z 07003KT 15SM BKN080 BKN120 19/14 A2994 RMK AC5AC2 VIA
     YQB FIC SLP145=
CYRJ 081100Z 00000KT 12SM FEW045 FEW200 25/21 A2998 RMK SC1CI0
     SLP152=
DNEN 081100Z 27005KT 9999 BKN011 28/23 Q1014=
DNIB 081100Z 28008KT 9999 SCT015 28/23 Q1015=
MMIT 081100Z RTD 14010KT 5SM HZ OVC010 26/24 A2976 RMK 8/6//=
VTUD 081100Z 19006KT 150V240 9999 FEW035 BKN300 34/21 Q1004 A2966
     INFO M RWY30=
####018000084####
SPUS42 KWBC 081118
SPECI
KFTW 081115Z 11006KT 10SM SCT012 BKN019 25/23 A3001=
####018000129####
SAIY43 KWBC 081050 RRB
METAR
LIQC 081055Z 00000KT CAVOK 28/12 Q1020 RMK SKC QUK 1 QUL 0 VIS MAR
     12 KM VIS MIN 9999=
####018000128####
SAUS41 KWBC 081100 RRB
METAR
KDOV 081055Z 11007KT 10SM CLR 25/25 A3001=
KPQI 081115Z AUTO 15007KT 10SM CLR 22/18 A3000=
####018000135####
SAUS43 KWBC 081100 RRE
METAR
KCIU 081115Z AUTO 30005KT 3SM OVC002 19/18 A2997=
KELO 081113Z AUTO 22005KT 10SM CLR 14/13 A3002=
####018000083####
SAUS44 KWBC 081100 RRD
METAR
KGDV 081115Z AUTO 00000KT 10SM CLR 12/07 A3017=
####018000072####
SALY31 HLLT 081130
METAR HLLT 081120Z 36006KT 8000 SKC 31/19 Q1019=
####018000082####
SPUS52 KWBC 081118
SPECI
KCLL 081115Z AUTO 07007KT 10SM SCT009 25/23 A2996=
####018000432####
SAUS53 KWBC 081100 RRE
METAR
KANW 081110Z AUTO 23004KT 10SM CLR 16/15 A3024=
KBIE 081110Z AUTO 00000KT 10SM SCT017 18/17 A3015=
KDVL 081115Z AUTO 28005KT 10SM CLR 14/12 A3008=
KEAR 081115Z AUTO 34007KT 10SM CLR 15/13 A3025=
KGPZ 081115Z AUTO 25006KT 10SM CLR 17/14 A3005=
KJAC 081115Z AUTO 35003KT 10SM CLR 05/M02 A3036=
KONL 081110Z AUTO 30003KT 10SM CLR 17/15 A3021=
KUDG 081115Z 32004KT 10SM CLR 24/18 A2997=
####018000223####
SAUS54 KWBC 081100 RRB
METAR
KIZA 081111Z AUTO 00000KT 10SM OVC009 13/11 A2991=
KMWS 081100Z 14007G10KT 19/M05=
KSOW 081110Z AUTO 14006KT 10SM FEW100 19/03 A3025=
KTRK 081110Z AUTO 00000KT 10SM CLR 09/08 A3015=
####018000082####
SPUS72 KWBC 081118
SPECI
KCLL 081115Z AUTO 07007KT 10SM SCT009 25/23 A2996=
####018000084####
SPUS72 KWBC 081118
SPECI
KFTW 081115Z 11006KT 10SM SCT012 BKN019 25/23 A3001=
####018000092####
SAUS17 KAWN 081100 RRE
METAR KDOV 081055Z 11007KT 10SM CLR 25/25 A3001 RMK AO2A SLP164=
####018000291####
SPNA14 KAWN 081118 RRB
SPECI KRIV 081115Z 31003KT 2 1/2SM BR OVC003 13/12 A2990 RMK AO2A SLP119=
SPECI KRND 081115Z AUTO 04006KT 10SM SCT007 BKN060 25/24 A2994 RMK
      AO2 CIG 007 RWY32R SLP128=
SPECI KWRI 081112Z AUTO 17003KT 2SM BR FEW001 24/24 A3001 RMK AO2 SLP164
      $=
####018000111####
SPNA35 KAWN 081118 RRA
SPECI KWRI 081112Z AUTO 17003KT 2SM BR FEW001 24/24 A3001 RMK AO2 SLP164
      $=
####018000199####
SASA KAWN 081100 RRF
METAR SBPV 081100Z 00000KT 9999 FEW020 24/22 Q1012=
METAR SBTT 081100Z 06002KT 9999 FEW006 BKN070 24/24 Q1011=
METAR SKMD 081100Z 00000KT 6000 BKN030 SCT080 18/16 A3008=
####018000093####
SPCN47 CWAO 081117
SPECI CYMO 081117Z AUTO 26007KT 5SM -RA OVC019 OVC093 19/17 A2988=

####018000075####
SACN50 CWAO 081115
VOC SA 1115 AUTO8 M M M M/11/09/0000/M/M M 35MM=

####018000084####
SPCN47 CWAO 081117
SPECI CYAM 081117Z 22002KT 3SM BR OVC005 RMK SF8 CIG RAG=

####018000090####
SPCN47 CWAO 081117
SPECI CYYY 081117Z 00000KT 3/4SM R06/2800FT/N BR VV003 RMK FG8=

####018000083####
SAUS72 KWBC 081100 RRF
METAR
KLRU 081111Z AUTO 36003KT 10SM CLR 20/15 A3016=
####018000362####
SAUS73 KWBC 081100 RRE
METAR
KBJC 081117Z AUTO 35007KT 5SM BR SCT001 SCT006 SCT028 12/11
     A3034=
KCIU 081115Z AUTO 30005KT 3SM OVC002 19/18 A2997=
KEGE 081115Z 00000KT 10SM CLR 10/08 A3037=
KELO 081113Z AUTO 22005KT 10SM CLR 14/13 A3002=
KJAC 081115Z AUTO 35003KT 10SM CLR 05/M02 A3036=
KLBL 081115Z 03006KT 10SM BKN034 OVC041 19/17 A3022=
####018000082####
SPUS81 KWBC 081118
SPECI
KCLL 081115Z AUTO 07007KT 10SM SCT009 25/23 A2996=
####018000081####
SAUS74 KWBC 081100 RRC
METAR
KOTH 081115Z 31004KT 10SM OVC006 10/08 A3000=
####018000081####
SPUS81 KWBC 081118
SPECI
KNUI 081116Z AUTO 07004KT 3SM BR CLR 26/24 A2999=
####018000080####
SPEW35 LEMM 081118
SPECI LEVS 081118Z 11009G22KT 080V140 CAVOK 30/12 Q1020=
####018001264####
SACO20 SKBO 081100
METAR
SKAR 081100Z NIL=
SKBG 081100Z NIL=
SKBO 081100Z VRB02KT 1200 PRFG BKN010 11/10 A3031=
SKBQ 081100Z 22004KT 2000 BR SCT004 25/25 A2987=
SKCC 081100Z 36004KT 9999 SCT015 SCT090 XX/XX A2997=
SKCG 081100Z VRB02KT 9999 FEW012TCU 26/25 A2986=
SKCL 081100Z 00000KT 9999 BKN020 BKN080 21/19 A3000=
SKEJ 081100Z 00000KT 2000SW BCFG BKN010 24/24 A2988=
SKIB 081100Z NIL=
SKIP 081100Z 00000KT 5000 BCFG BKN016 SCT070 10/09 A3037=
SKLC 081100Z 00000KT 9999 MIFG FEW015 24/24 A2986=
SKLT 081100Z 00000KT 9999 SCT015 BKN080 24/24 A2988=
SKMD 081100Z 00000KT 6000 BKN030 SCT080 18/16 A3008=
SKMR 081100Z 00000KT 9999 FEW015 SCT080 24/23 A2984=
SKMZ 081100Z NIL=
SKNV 081100Z 00000KT 9999 FEW007 OVC090 23/22 A2992=
SKPC 081100Z NIL=
SKPE 081100Z VRB02KT 9999 FEW015 BKN080 18/16 A3010=
SKPS 081100Z 19004KT 5000N 9999S VCFG OVC020 15/14 A3018=
SKPV 081100Z NIL=
SKRG 081100Z 00000KT 2500 BCFG BKN003 BKN080 14/14 A3028=
SKRH 081100Z 07004KT 9999 TSRA FEW020CB OVC090 23/22 A2988=
SKSM 081100Z NIL=
SKSP 081100Z 08006KT 9999 SCT015 28/25 A2982=
SKUC 081100Z NIL=
SKUI 081100Z NIL=
SKVP 081100Z 03006KT 9000 BKN010 SCT080 23/23 A2994=
SKVV 081100Z 00000KT 9999 SCT023 BKN080 XX/XX A2993=
NNNN
####018000983####
SAUS99 KWBC 081119
METAR
K1P1 081115Z AUTO 00000KT 2SM BR BKN003 23/22 A3007 RMK AO2
     T02310219=
KBVU 081115Z AUTO 33004KT 10SM CLR 24/01 A2986 RMK AO2=
KE80 081115Z AUTO 20005KT 10SM CLR 18/12 A3025 RMK AO2
     T01830115=
KEDC 081115Z AUTO 05005KT BKN005 BKN070 24/24 A2996 RMK AO2=
KEIK 081115Z AUTO 00000KT 7SM OVC004 12/11 A3032 RMK AO2=
KEOE 081115Z AUTO 23003KT 10SM CLR 22/20 A3005 RMK AO2=
KFMH 081115Z AUTO 14006KT 10SM SCT009 BKN019 23/21 A3011 RMK
     AO2=
KIFP 081115Z AUTO 00000KT 10SM CLR 27/00 A2975 RMK AO2=
KMAN 081115Z AUTO 11005KT 10SM CLR 12/07 A3005 RMK AO1=
KPVF 081115Z AUTO 10005KT 10SM FEW044 21/12 A2993 RMK AO1=
KRBW 081115Z AUTO 27003KT 10SM CLR 22/20 A2998 RMK AO2=
KRCM 081115Z AUTO 00000KT 7SM OVC004 22/22 A3005 RMK AO2 LTG DSNT
     SE=
KSNC 081115Z AUTO 14004KT 3SM BR OVC002 22/ A3009 RMK AO2=
KTME 081115Z AUTO 04008KT 5SM 25/25 A2993 RMK AO1=
KUOX 081115Z AUTO 00000KT 9SM CLR 22/20 A3010 RMK AO2=
####018000500####
SPUS99 KWBC 081119
SPECI
KBGM 081116Z 00000KT 3SM HZ CLR 23/19 A3012 RMK AO2=
KFLD 081116Z AUTO 19003KT 6SM BR SCT009 SCT015 21/20 A3001 RMK
     AO2=
KSET 081116Z AUTO 24003KT 6SM BR FEW006 BKN010 OVC047 24/24 A3003
     RMK AO2 CIG 008V017=
KTVR 081116Z AUTO 00000KT 3SM BR CLR 22/21 A3005 RMK AO2 $=
KVPZ 081116Z AUTO 06004KT 2SM -RA BR FEW028 BKN070 OVC080 23/22
     A3004 RMK AO2 LTG DSNT E TSE16RAB1054 P0006=
KVTA 081116Z AUTO 00000KT 3SM BR FEW065 21/19 A3009 RMK AO2=
####018000096####
SAUK51 EGGY 081050 CCA
METAR COR EGXT 081050Z 23012KT 9999 FEW025 SCT120 BKN250 20/07 Q1018=
####018000079####
SPEW35 LEMM 081118
SPECI LEVS 081118Z 11009G22KT 080V140 CAVOK 30/12 Q1020=
####018002982####
SAUS20 KNKA 081118
METAR K1A6 081115Z AUTO 00000KT 1/4SM FG OVC003 21/21 A3012 RMK 
     AO2=
METAR K21D 081118Z AUTO 00000KT 10SM CLR 16/15 A3009 RMK AO2=
METAR K29G 081114Z AUTO 00000KT 5SM CLR 21/19 A3010 RMK AO2
     T02080193 PWINO=
METAR K4I3 081116Z AUTO 00000KT 7SM SCT060 21/19 A3010 RMK AO2=
SPECI KAAO 081117Z AUTO 34005KT 10SM BKN006 21/20 A3008 RMK AO2=
METAR KACB 081115Z AUTO 00000KT 7SM RA SCT023 OVC080 23/21 A3000
     RMK AO2=
METAR KACQ 081119Z AUTO 30005KT 4SM BR CLR 16/15 A3013 RMK AO2=
METAR KADC 081117Z AUTO 25004KT 10SM CLR 13/12 A3009 RMK AO2=
METAR KAEL 081111Z AUTO 00000KT 7SM CLR 17/16 A3011 RMK AO2=
METAR KAIG 081115Z AUTO 33003KT 2SM BR OVC001 18/17 A3002 RMK AO2=
METAR KAIT 081113Z AUTO 24004KT 10SM CLR 14/13 A3007 RMK AO2=
METAR KANE 081115Z AUTO 00000KT 1SM BR 16/14 A3010 RMK AO2 VIS
     1/4V4=
SPECI KARR 081117Z AUTO 19004KT 2 1/2SM -RA BR BKN065 OVC080 22/22 
    A3003 RMK AO2 P0000 $=
METAR KARV 081112Z AUTO 00000KT 10SM CLR 17/15 A3005 RMK AO2 
     T01660153=
METAR KAUM 081115Z AUTO 31003KT 5SM BR CLR 17/16 A3010 RMK AO2=
METAR KBAX 081115Z AUTO 00000KT 4SM BR CLR 23/22 A3000 RMK AO2=
METAR KBBB 081113Z AUTO 00000KT 1 1/4SM BR VV007 13/13 A3012 RMK
     AO2 VIS 1/2V5=
METAR KBDH 081115Z AUTO 00000KT 5SM BR CLR 14/14 A3013 RMK AO2=
METAR KBJI 081114Z AUTO 25007KT 10SM CLR 15/13 A3006 RMK AO2=
METAR KBWP 081111Z AUTO 28003KT 7SM CLR 14/13 A3010 RMK AO1 
     T01360127=
METAR KCAD 081114Z AUTO 23005KT 10SM SCT070 BKN085 OVC110 22/21
     A3003 RMK AO2=
METAR KCBG 081115Z AUTO 00000KT 10SM CLR 16/14 A3008 RMK AO2=
METAR KCFE 081115Z AUTO 00000KT 10SM CLR 17/16 A3012 RMK AO2
     T01730158=
METAR KCFS 081115Z AUTO 22005KT 7SM SCT060 SCT070 23/22 A3003 RMK
     AO2=
METAR KCKC 081115Z AUTO 29004KT 10SM CLR 16/13 A3004 RMK AO2=
METAR KCKN 081115Z AUTO 22004KT 10SM CLR 13/12 A3006 RMK AO2=
METAR KCLI 081115Z AUTO 00000KT 2 1/2SM BR BKN005 OVC010 22/21 
     A3000 RMK AO2=
METAR KCMY 081115Z AUTO 00000KT 7SM BKN011 19/18 A3005 RMK AO2 
     T01910182=
METAR KCNB 081117Z AUTO 24008KT 10SM CLR 17/13 A3014 RMK AO2
     T01650131=
METAR KCOQ 081116Z AUTO 28006KT 10SM CLR 15/15 A3006 RMK AO2=
METAR KCQM 081117Z AUTO 00000KT 10SM CLR 15/14 A3003 RMK AO2=
METAR KCVH 081110Z AUTO 26003KT 8SM OVC006 13/11 A2992 RMK AO1=
METAR KDRM 081116Z AUTO 17003KT 1 1/2SM BR OVC002 20/20 A2996 RMK
     AO2=
SPECI KDRT 081117Z AUTO 07003KT 10SM BKN022 BKN029 24/22 A2995 RMK 
    AO2=
METAR KDTL 081115Z AUTO 27003KT 10SM CLR 16/11 A3010 RMK AO2=
METAR KDUH 081114Z AUTO 00000KT 7SM CLR 23/18 A3005 RMK AO2=
METAR KDVK 081117Z AUTO 00000KT 3SM 21/19 A3010 RMK AO1=
METAR KDXX 081114Z AUTO 00000KT 10SM CLR 14/14 A3011 RMK AO2=
METAR KDYT 081109Z AUTO 20007KT 10SM CLR 17/15 A3004 RMK AO2=
SPECI KECG 081117Z 07009KT 10SM SCT009 SCT100 26/23 A2997 RMK AO2=
METAR KEFK 081115Z AUTO 21003KT 4SM BR CLR 22/20 A3006 RMK AO2=
####018002767####
SAUS20 KNKA 081118
METAR KMOX 081110Z AUTO 26003KT 10SM CLR 15/14 A3009 RMK AO2=
METAR KMRT 081113Z AUTO 00000KT 2 1/2SM CLR 21/19 A3012 RMK AO2
     T02090193=
METAR KMVE 081114Z AUTO 28003KT 10SM CLR 16/14 A3011 RMK AO2=
METAR KMWM 081113Z AUTO 00000KT 5SM BR CLR 13/13 A3015 RMK AO2=
METAR KMWO 081115Z AUTO 00000KT 2SM BR CLR 20/20 A3009 RMK AO2=
METAR KOEB 081115Z AUTO 00000KT 3SM BR CLR 22/21 A3006 RMK AO2=
METAR KONA 081110Z AUTO 30003KT 10SM CLR 20/17 A3005 RMK AO2=
METAR KOVL 081113Z AUTO 25003KT 7SM CLR 13/11 A3012 RMK AO2
     T01250111=
METAR KOZW 081115Z AUTO 00000KT 7SM CLR 23/21 A3005 RMK AO2=
METAR KPEX 081113Z AUTO 26005KT 5SM BR CLR 13/13 A3012 RMK AO2
     T01320131=
METAR KPNM 081113Z AUTO 00000KT 3SM BR CLR 14/13 A3009 RMK AO2=
METAR KPQN 081113Z AUTO 33003KT 10SM CLR 17/14 A3017 RMK AO2=
METAR KPVB 081113Z AUTO 00000KT 1SM OVC002 21/20 A3006 RMK AO1 
     T02070200=
METAR KPWC 081113Z AUTO 00000KT 1/4SM FG OVC001 10/09 A3009 RMK
     AO2=
METAR KRGK 081115Z AUTO 30003KT 10SM CLR 18/17 A3008 RMK AO2=
METAR KRNP 081115Z AUTO 31003KT 7SM CLR 24/21 A3003 RMK AO2=
METAR KROS 081115Z AUTO 00000KT 10SM CLR 15/14 A3008 RMK AO2
     T01480141=
METAR KROX 081114Z AUTO 23004KT 10SM SCT095 14/12 A3001 RMK
     AO2=
METAR KRQB 081115Z AUTO 00000KT 7SM -RA BKN075 22/21 A3003 RMK
     AO2=
METAR KRRT 081114Z AUTO 23006KT 10SM CLR 13/11 A3001 RMK AO2=
METAR KRZN 081114Z AUTO 00000KT 10SM CLR 15/15 A3008 RMK AO2 
     T01540147=
METAR KSAZ 081114Z AUTO 24004KT 10SM CLR 16/16 A3009 RMK AO2=
METAR KSGS 081113Z AUTO 26003KT 10SM CLR 18/16 A3009 RMK AO2
     T01800162=
METAR KSME 081115Z AUTO 00000KT 2 1/2SM BR 21/19 A3010 RMK AO2=
METAR KSYN 081130Z AUTO 00000KT 7SM CLR 17/15 A3009 RMK AO2
     T01670154=
METAR KTEW 081113Z AUTO 00000KT 7SM CLR 22/20 A3005 RMK AO2=
METAR KTKC 081113Z AUTO 26005KT 10SM CLR 16/13 A3014 RMK AO2
     T01570128=
METAR KTOB 081114Z AUTO 00000KT 10SM CLR 17/16 A3010 RMK AO2=
METAR KTWM 081113Z AUTO 29003KT 10SM CLR 16/13 A3002 RMK AO2=
METAR KTZR 081117Z AUTO 00000KT 4SM BR CLR 21/19 A3009 RMK AO2=
METAR KUKT 081110Z AUTO 00000KT 5SM CLR 23/21 A3005 RMK AO1=
METAR KULM 081115Z AUTO 00000KT 7SM CLR 13/12 A3013 RMK AO2=
METAR KUNI 081115Z AUTO 00000KT 4SM HZ CLR 22/17 A3009 RMK AO2 
     T02180170=
METAR KVES 081114Z AUTO 12003KT 2 1/2SM BR CLR 20/20 A3009 RMK 
     AO2 T02020195=
SPECI KVIH 081117Z AUTO 30007KT 6SM BR FEW001 BKN016 BKN021 23/22 
    A3006 RMK AO2=
METAR KVLL 081114Z AUTO 24003KT 10SM CLR 25/21 A3006 RMK AO2=
METAR KVVV 081116Z AUTO 27005KT 10SM CLR 17/14 A3012 RMK AO2=
METAR KY70 081115Z AUTO 16003KT 1 3/4SM BR SCT002 SCT070 BKN110
     23/22 A3003 RMK AO2 T02270220=
####018002967####
SAUS20 KNKA 081118
METAR KEFT 081115Z AUTO 27007KT 10SM CLR 21/18 A3004 RMK AO2 
     T02100182=
METAR KEGV 081112Z AUTO 00000KT 10SM CLR 18/18 A3003 RMK AO2 
     T01750175=
METAR KELO 081113Z AUTO 22005KT 10SM CLR 14/13 A3002 RMK AO2=
METAR KETB 081112Z AUTO 00000KT 3SM BR SCT003 OVC015 22/21 A3001 
     RMK AO2 T02160209=
METAR KEVM 081112Z AUTO 00000KT 7SM CLR 13/12 A3002 RMK AO1=
METAR KFBL 081114Z AUTO 29004KT 10SM CLR 17/15 A3011 RMK AO2=
METAR KFFM 081113Z AUTO 00000KT 10SM CLR 14/14 A3009 RMK AO2=
METAR KFFX 081115Z AUTO 00000KT 3SM BR OVC090 22/22 A3002 RMK
     AO2=
METAR KFGN 081114Z AUTO 26007KT 1/4SM -DZ VV002 16/13 A2998 RMK
     AO2=
METAR KFPK 081116Z AUTO 00000KT 5SM BR CLR 22/21 A3003 RMK AO2=
METAR KFSE 081114Z AUTO 19004KT 10SM CLR 11/11 A3006 RMK AO2=
METAR KFSO 081118Z AUTO 00000KT 5SM BR BKN060 BKN075 OVC090 24/22
     A3002 RMK AO2=
METAR KGDB 081113Z AUTO 25004KT 10SM CLR 14/13 A3015 RMK AO2
     T01350129=
METAR KGHW 081114Z AUTO 25005KT 10SM CLR 15/13 A3015 RMK AO2=
METAR KGLW 081113Z AUTO 00000KT 4SM BR CLR 21/20 A3008 RMK AO2 
     T02060196=
METAR KGYL 081114Z AUTO 00000KT 10SM CLR 15/14 A3011 RMK AO2
     T01520143=
METAR KHAF 081110Z AUTO 00000KT 10SM OVC006 12/11 A2993 RMK
     AO2=
METAR KHAI 081115Z AUTO 00000KT 5SM BR CLR 22/21 A3005 RMK AO2=
METAR KHCD 081112Z AUTO 25003KT 3SM BR CLR 13/12 A3012 RMK AO2
     T01270118=
METAR KHCO 081114Z AUTO 21004KT 10SM BKN100 13/13 A3006 RMK
     AO2=
METAR KHFJ 081115Z AUTO 00000KT 7SM SCT016 BKN060 BKN075 22/22 
     A3005 RMK AO1=
METAR KHZX 081111Z AUTO 00000KT 10SM CLR 13/12 A3007 RMK AO2=
METAR KIKW 081113Z AUTO 00000KT 7SM SCT080 OVC100 23/21 A3001 RMK
     AO2 T02300211=
METAR KIRS 081115Z AUTO 00000KT 4SM BR CLR 22/20 A3005 RMK AO2=
METAR KIWA 081116Z AUTO 00000KT 10SM CLR 31/04 A2980 RMK AO2=
METAR KJKJ 081114Z AUTO 22004KT 10SM CLR 16/14 A3007 RMK AO2=
METAR KJMR 081118Z AUTO 00000KT 10SM CLR 13/12 A3009 RMK AO2=
METAR KJYG 081115Z AUTO 00000KT 10SM CLR 16/16 A3015 RMK AO2=
METAR KJYM 081115Z AUTO 00000KT 5SM BR CLR 21/19 A3007 RMK AO2=
METAR KLCK 081115Z AUTO 00000KT 4SM BR CLR 22/21 A3008 RMK AO2 
     T02210209=
METAR KLJF 081112Z AUTO 26003KT 10SM CLR 17/16 A3012 RMK AO2=
METAR KLVN 081108Z AUTO 27004KT 10SM CLR 16/16 A3011 RMK AO2=
METAR KLWA 081116Z AUTO 00000KT 10SM BKN044 OVC055 23/21 A3003 RMK
     AO2=
METAR KLXL 081114Z AUTO 00000KT 1 1/4SM BR VV007 12/12 A3008 RMK
     AO2=
METAR KLYV 081118Z AUTO 00000KT 10SM CLR 13/11 A3017 RMK AO2=
METAR KMDS 081105Z AUTO 24004KT M1/4SM FG VV000 14/14 A3018 RMK
     AO2=
METAR KMGG 081115Z AUTO 27004KT 10SM CLR 17/15 A3011 RMK AO2
     T01660150=
METAR KMGN 081115Z AUTO 27003KT 7SM RA SCT029 SCT050 OVC110 22/20
     A2997 RMK AO2=
METAR KMJQ 081112Z AUTO 25003KT 7SM CLR 15/14 A3016 RMK AO2=
METAR KMOP 081115Z AUTO 23004KT 10SM OVC085 23/22 A3002 RMK
     AO2=
####018000082####
SPSP31 KWBC 081119
SPECI
LEVS 081118Z 11009G22KT 080V140 CAVOK 30/12 Q1020=
####018000096####
SAGB20 GBYD 081108

SPECI GBYD 081108 25006KT 9000 -TSRA SCT012 FEWCB018 S-NW 31/26
Q1013=
####018000111####
SAUS44 KFWD 081118
MTRNQI
SPECI KNQI 081117Z AUTO 01004KT 10SM -RA FEW026 27/25 A2982 RMK AO2 
P0004 $
####018000084####
SPUS53 KWBC 081119
SPECI
KCNU 081115Z AUTO 01004KT 1SM BR OVC001 22/21 A3006=
####018000097####
SPUS53 KWBC 081119
SPECI
KMKG 081115Z 15004KT 4SM -RA BR SCT043 BKN060 OVC100 23/22 A3002=
####018000051####
SAMP31 LMMM 081100 RRB
METAR HLLB 081100Z NIL=
####018000074####
SALY31 HLLT 081130
METAR HLLT 081120Z 
36006KT 8000 SKC 31/19 Q1019=
####018000291####
SABC40 FBSK 081100
METAR FBSK 081100Z 06008KT 9999 BKN020 19/08 Q1031 NOSIG=
METAR FBFT 081100Z 10015KT 9999 BKN015 20/10 Q1030=
METAR FBMN 081100Z 09012KT CAVOK 23/06 Q1027=
METAR FBKE 081100Z /////KT 9999 FEW020 22/07 Q1027=
METAR FBSP 081100Z /////KT 9999 BKN020 18/09 Q1030=
####018000141####
SAYE20 OYSN 081000 CCA
METAR COR OYDM 081000Z 06015KT 6000 SCT030 29/02 Q////=
METAR COR OYAR 081000Z 04006KT 5000 DU NSC 29/01 Q////=
####018000097####
SPUS73 KWBC 081119
SPECI
KMKG 081115Z 15004KT 4SM -RA BR SCT043 BKN060 OVC100 23/22 A3002=
####018000084####
SPUS81 KWBC 081119
SPECI
KCNU 081115Z AUTO 01004KT 1SM BR OVC001 22/21 A3006=
####018000097####
SPUS81 KWBC 081119
SPECI
KMKG 081115Z 15004KT 4SM -RA BR SCT043 BKN060 OVC100 23/22 A3002=
####018000305####
SAXX70 KAWN 081100 RRO
METAR KQHT 081055Z COR 30007KT 9999 SCT150 SCT200 34/M08 A2993 RMK
      SLP096 WND DATA ESTMD ALSTG/SLP ESTMD=
METAR KQM1 081058Z AUTO VRB05KT 9999 CLR 39/14 A2990 RMK AO2 SLP051
      T03880140 $=
METAR KQFT 081110Z AUTO 14002KT 2SM -RA BR OVC010 24/21 A2984 RMK A02=
####018000090####
SAUS43 KMKX 081119
MTRMSN
SPECI KMSN 081117Z VRB03KT 9SM OVC013 21/20 A3002 RMK AO2
####018001585####
SPZZ40 KAWN 081119 RRC
SPECI CYAM 081117Z 22002KT 3SM BR OVC005 RMK SF8 CIG RAG=
SPECI CYBC 081114Z AUTO 00000KT 2 1/8SM OVC002 13/13 A3003=
SPECI CYGQ 081114Z 24005KT 15SM FEW009 BKN025 BKN110 RMK SF2SC2AC2=
SPECI CYMO 081117Z AUTO 26007KT 5SM -RA OVC019 OVC093 19/17 A2988=
SPECI CYUS 081116Z AUTO ///// 9SM FEW092 11/ A2979=
SPECI CYYY 081117Z 00000KT 3/4SM R06/2800FT/N BR VV003 RMK FG8=
SPECI CZBF 081115Z 00000KT 1/2SM FG OVC003 RMK FG6SF2=
SPECI EHDL 081112Z AUTO 22009KT 9999NDV NCD 29/12 Q1019 BLU=
SPECI EKKA 081112Z 20006KT 170V230 2800 SHRA SCT018CB BKN030 17/16
      Q1018 TEMPO 6000 -SHRA=
SPECI KRIV 081115Z 31003KT 2 1/2SM BR OVC003 13/12 A2990 RMK AO2A SLP119=
SPECI KRND 081115Z AUTO 04006KT 10SM SCT007 BKN060 25/24 A2994 RMK
      AO2 CIG 007 RWY32R SLP128=
SPECI KRND 081118Z AUTO 04005KT 10SM -DZ SCT009 BKN060 25/24 A2994
      RMK AO2 DZB1118 SLP128=
SPECI LEVS 081118Z 11009G22KT 080V140 CAVOK 30/12 Q1020=
SPECI MHSC 081110Z AUTO 12003KT 9999 -RA BKN065 22/19 A2994 RMK AO2
      RAB1110 SLP099 $=
PACZ SP 1115 AWOS MM 10 51/48/0512/004=
PAIM SP 1115 AWOS CLR BLO 120 10 51/45/1504/008=
PALU SP 1115 AWOS CLR BLO 120 10 54/35/2122/008=
PASV SP 1115 AWOS 70 SCT 10 48/45/0000/996=
PATL SP 1115 AWOS CLR BLO 120 10 59/44/0404/999=
SPECI PGUA 081117Z 09021G26KT 9SM BKN018 BKN026 27/26 A2992 RMK AO2A=
SPECI SBPP 081115Z 00000KT CAVOK 20/10 Q1018=
SPECI SBTF 081115Z 00000KT 9999 SCT010 BKN100 25/24 Q1012=
SPECI WBSB 081100Z 14003KT 8000 -SHRA FEW014 FEW016CB BKN140 25/25
      Q1009 RETS TEMPO SHRA=
####018000074####
SACN50 CWAO 081115
VOJ SA 1115 AUTO8 M M M M/17/M/0505/M/M M 1MMM=

####018000934####
SAUS20 KNKA 081119
METAR KRCX 081115Z AUTO 33006KT 10SM CLR 18/16 A3007 RMK AO2 
     T01780164=
METAR KRNH 081116Z AUTO 00000KT 10SM CLR 17/16 A3009 RMK AO2 
     T01650160=
METAR KRPD 081114Z AUTO 00000KT 10SM CLR 18/17 A3008 RMK AO2 
     T01750165=
METAR KRRL 081115Z AUTO 00000KT 1SM BR OVC002 18/17 A3005 RMK AO2 
     T01770173=
METAR KRYV 081115Z AUTO 00000KT 5SM BR BKN005 22/20 A3002 RMK AO2=
METAR KSCF 081120Z AUTO 14019KT 6SM HZ FEW015 FEW021 28/25 A2990
     RMK A01=
METAR KSPF 081115Z AUTO 00000KT 10SM CLR 11/08 A3029 RMK AO2 =
METAR KSTE 081115Z AUTO 33004KT 10SM OVC005 20/19 A3004 RMK AO2=
METAR KSUW 081115Z AUTO 22005KT 10SM CLR 16/14 A3003 RMK AO2=
METAR KVBS 081115Z AUTO 12024KT 10SM SCT021 BKN028 BKN042 29/25
     A2993 RMK A01=
METAR KVNP 081115Z AUTO 13007G17KT 8SM 28/25 A2997 RMK A01=
METAR KY63 081120Z AUTO 22003KT 10SM CLR 14/14 A3011 RMK AO2 
     T01400135=
####018000107####
SAAK41 KNKA 081119
SPECI PAKI 081115Z AUTO 36003KT 1SM BR CLR 08/08 A3002 RMK AO2 PWINO 
    TSNO $=
####018002998####
SAUS20 KNKA 081119
METAR K14Y 081119Z AUTO 21004KT 7SM CLR 15/15 A3011 RMK AO2 
     T01520146=
METAR K4M9 081115Z AUTO 18004KT 5SM BR CLR 24/24 A3006 RMK AO2 =
METAR KAEJ 081115Z AUTO 00000KT 10SM CLR 08/07 A3045 RMK AO2=
METAR KBBF 081215Z AUTO 13020KT 10SM FEW043 SCT060 SCT100 29/26
     A2981 RMK A01=
SPECI KBMQ 081118Z AUTO 00000KT 10SM SCT011 SCT016 BKN023 23/22 
    A3002 RMK AO2 $=
METAR KBQX 081115Z AUTO 11009G14KT 4SM BR 27/25 A2985 RMK A01=
METAR KBUU 081116Z AUTO 00000KT 5SM BR SCT006 BKN013 OVC025 21/21 
     A3002 RMK AO2=
SPECI KDGW 081118Z AUTO 00000KT 1 1/4SM BR FEW001 SCT010 05/04 A3035 
    RMK AO2 $=
METAR KDLP 081115Z AUTO 10012KT 9SM FEW016 28/25 A2999 RMK A01=
METAR KEDU 081115Z AUTO 00000KT 10SM CLR 13/10 A2982 RMK AO1=
METAR KEHC 081115Z AUTO 12025KT 7SM CLR 29/25 A2992 RMK A01=
METAR KEIR 081115Z AUTO VRB07G16KT 8SM CLR 28/25 A2996 RMK A01=
SPECI KEKQ 081117Z AUTO 00000KT 1 1/4SM BR CLR 19/18 A3012 RMK AO2 =
METAR KEMK 081115Z AUTO 14018KT 8SM FEW043 SCT065 BKN085 28/25
     A2988 RMK A01=
METAR KEZS 081115Z AUTO 25003KT 5SM BR SCT009 SCT014 SCT028 23/22 
     A3000 RMK AO2 T02260216=
METAR KGBK 081115Z AUTO 09013G20KT 070V130 10SM FEW017 FEW022
     29/25 A2991 RMK A01=
METAR KGVX 081115Z AUTO 11026KT 9SM SCT026 SCT048 BKN065 M40/
     A2990 RMK A01=
METAR KHQI 081115Z AUTO 10022G29KT 8SM FEW020 FEW060 SCT110 29/26
     A2990 RMK A01=
METAR KHXD 081115Z AUTO 24005KT 10SM CLR 24/21 A2999 RMK AO2 P0000 
     =
METAR KHYW 081115Z AUTO 00000KT 5SM BR CLR 24/22 A2994 RMK AO2=
METAR KIPN 081115Z AUTO 10013KT 10SM SCT022 SCT030 /54 A3000 RMK
     A01=
METAR KJZI 081115Z AUTO 30007KT 10SM CLR 25/23 A2997 RMK A02 P000 
     =
METAR KLNL 081115Z AUTO 00000KT 10SM CLR 17/15 A3005 RMK AO2 
     T01670148=
METAR KLUM 081115Z AUTO 28006KT 10SM CLR 18/17 A3007 RMK AO2=
METAR KMCJ 081115Z AUTO 05008KT 5SM SCT023 BKN031 25/24 A2989 RMK 
     AO1 =
METAR KMDJ 081115Z AUTO 12011KT 10SM FEW020 28/24 A3000 RMK A01=
METAR KMDZ 081115Z AUTO 33005KT 3/4SM BR OVC002 19/18 A3005 RMK 
     AO2=
METAR KMHR 081115Z AUTO 14006KT 10SM CLR 12/10 A2985 RMK AO1=
METAR KMIU 081115Z AUTO 13017G23KT 2SM BR FEW003 SCT022 BKN032
     27/25 A2980 RMK A01=
METAR KMRJ 081115Z AUTO 00000KT M1/4SM FG OVC003 21/20 A3005 RMK 
     AO2 T02110196=
METAR KMWC 081115Z AUTO 23004KT 7SM BKN027 BKN090 OVC110 21/20 
     A3002 RMK AO2=
METAR KMYT 081115Z AUTO 12013KT 10SM SCT019 28/24 A2997 RMK A01=
METAR KMZG 081115Z AUTO 00000KT 9SM FEW019 SCT075 BKN090 28/25
     A2982 RMK A01=
METAR KOEO 081115Z AUTO 00000KT 10SM CLR 16/16 A3010 RMK AO2=
METAR KPBH 081115Z AUTO 00000KT 10SM CLR 19/17 A3007 RMK AO2=
METAR KPCZ 081115Z AUTO 27003KT 3SM BR SCT010 SCT016 22/21 A3000 
     RMK AO2 T02200205=
METAR KPDC 081113Z AUTO 29004KT 7SM CLR 22/21 A3004 RMK AO2 
     T02170205=
SPECI KPLN 081118Z AUTO 00000KT 10SM -RA BKN011 OVC095 22/21 A2998 
    RMK AO2 P0000=
####018001272####
SACI51 RJTD 081100
METAR ZBAA 081100Z 18006G12MPS 160V220 CAVOK 34/11 Q1003 NOSIG=
METAR ZBTJ 081100Z 16006MPS CAVOK 29/17 Q1005 NOSIG=
METAR ZBYN 081100Z 10005MPS CAVOK 29/14 Q1008 NOSIG=
METAR ZGGG 081100Z 14005MPS 9999 FEW050TCU SCT050 33/26 Q1004 NOSIG=
METAR ZGKL 081100Z 21002MPS CAVOK 32/25 Q1003 NOSIG=
METAR ZGNN 081100Z 14005MPS 100V160 CAVOK 32/25 Q1002 RETS NOSIG=
METAR ZGOW 081100Z 19005MPS 9999 FEW020 30/26 Q1006 NOSIG=
METAR ZGSZ 081100Z 17008MPS 9999 FEW020 31/25 Q1006 NOSIG=
METAR ZLXY 081100Z 06003MPS 030V100 1800 BR OVC050 23/21 Q1007
           NOSIG=
METAR ZPPP 081100Z 19004MPS 9999 FEW026 BKN050 23/16 Q1014 NOSIG=
METAR ZSAM 081100Z 18007MPS CAVOK 31/24 Q1005 NOSIG=
METAR ZSHC 081100Z 00000MPS 8000 -SHRA BKN020 FEW033CB 26/24 Q1005
           TEMPO -TSRA FEW033CB=
METAR ZSNJ 081100Z 15004MPS 110V200 2500 HZ BKN030 28/22 Q1004 TEMPO
           -SHRA FEW030CB=
METAR ZSQD 081100Z 17005MPS CAVOK 25/19 Q1007 NOSIG=
METAR ZSSS 081100Z 11005G10MPS 070V140 9999 BKN016 27/23 Q1005 BECMG
           BKN011 OVC040=
METAR ZWWW 081100Z 29002MPS 9999 FEW040CB 31/10 Q1011 NOSIG=
METAR ZYTL 081100Z 25002MPS 210V270 9999 SCT033 26/18 Q1006 NOSIG=
METAR ZYTX 081100Z VRB01MPS 9999 FEW030 22/19 Q1007 NOSIG=
####018000158####
SPUS90 KWBC 081120
SPECI KDNK 081116Z AUTO 07004KT 6SM BR SCT014 24/22 A3002 RMK
     AO2=
SPECI KMSN 081117Z VRB03KT 9SM OVC013 21/20 A3002 RMK AO2=
####018000075####
SALY31 HLLB 081100
METAR HLLB 081050Z 33020KT 9999 FEW025 31/17 Q1016=
####018003702####
SAUS99 KWBC 081120 RRA
METAR
KRZN 081114Z AUTO 00000KT 10SM CLR 15/15 A3008 RMK AO2
     T01540147=
KSAZ 081114Z AUTO 24004KT 10SM CLR 16/16 A3009 RMK AO2=
KSGS 081113Z AUTO 26003KT 10SM CLR 18/16 A3009 RMK AO2
     T01800162=
KSME 081115Z AUTO 00000KT 2 1/2SM BR 21/19 A3010 RMK AO2=
KSYN 081130Z AUTO 00000KT 7SM CLR 17/15 A3009 RMK AO2
     T01670154=
KTEW 081113Z AUTO 00000KT 7SM CLR 22/20 A3005 RMK AO2=
KTKC 081113Z AUTO 26005KT 10SM CLR 16/13 A3014 RMK AO2
     T01570128=
KTOB 081114Z AUTO 00000KT 10SM CLR 17/16 A3010 RMK AO2=
KTWM 081113Z AUTO 29003KT 10SM CLR 16/13 A3002 RMK AO2=
KTZR 081117Z AUTO 00000KT 4SM BR CLR 21/19 A3009 RMK AO2=
KUKT 081110Z AUTO 00000KT 5SM CLR 23/21 A3005 RMK AO1=
KULM 081115Z AUTO 00000KT 7SM CLR 13/12 A3013 RMK AO2=
KUNI 081115Z AUTO 00000KT 4SM HZ CLR 22/17 A3009 RMK AO2
     T02180170=
KVES 081114Z AUTO 12003KT 2 1/2SM BR CLR 20/20 A3009 RMK AO2
     T02020195=
KVLL 081114Z AUTO 24003KT 10SM CLR 25/21 A3006 RMK AO2=
KVVV 081116Z AUTO 27005KT 10SM CLR 17/14 A3012 RMK AO2=
KY70 081115Z AUTO 16003KT 1 3/4SM BR SCT002 SCT070 BKN110 23/22
     A3003 RMK AO2 T02270220=
KEFT 081115Z AUTO 27007KT 10SM CLR 21/18 A3004 RMK AO2
     T02100182=
KEGV 081112Z AUTO 00000KT 10SM CLR 18/18 A3003 RMK AO2
     T01750175=
KELO 081113Z AUTO 22005KT 10SM CLR 14/13 A3002 RMK AO2=
KETB 081112Z AUTO 00000KT 3SM BR SCT003 OVC015 22/21 A3001 RMK AO2
     T02160209=
KEVM 081112Z AUTO 00000KT 7SM CLR 13/12 A3002 RMK AO1=
KFBL 081114Z AUTO 29004KT 10SM CLR 17/15 A3011 RMK AO2=
KFFM 081113Z AUTO 00000KT 10SM CLR 14/14 A3009 RMK AO2=
KFFX 081115Z AUTO 00000KT 3SM BR OVC090 22/22 A3002 RMK AO2=
KFGN 081114Z AUTO 26007KT 1/4SM -DZ VV002 16/13 A2998 RMK AO2=
KFPK 081116Z AUTO 00000KT 5SM BR CLR 22/21 A3003 RMK AO2=
KFSE 081114Z AUTO 19004KT 10SM CLR 11/11 A3006 RMK AO2=
KFSO 081118Z AUTO 00000KT 5SM BR BKN060 BKN075 OVC090 24/22 A3002
     RMK AO2=
KGDB 081113Z AUTO 25004KT 10SM CLR 14/13 A3015 RMK AO2
     T01350129=
KGHW 081114Z AUTO 25005KT 10SM CLR 15/13 A3015 RMK AO2=
KGLW 081113Z AUTO 00000KT 4SM BR CLR 21/20 A3008 RMK AO2
     T02060196=
KGYL 081114Z AUTO 00000KT 10SM CLR 15/14 A3011 RMK AO2
     T01520143=
KHAF 081110Z AUTO 00000KT 10SM OVC006 12/11 A2993 RMK AO2=
KHAI 081115Z AUTO 00000KT 5SM BR CLR 22/21 A3005 RMK AO2=
KHCD 081112Z AUTO 25003KT 3SM BR CLR 13/12 A3012 RMK AO2
     T01270118=
KHCO 081114Z AUTO 21004KT 10SM BKN100 13/13 A3006 RMK AO2=
KHFJ 081115Z AUTO 00000KT 7SM SCT016 BKN060 BKN075 22/22 A3005 RMK
     AO1=
KHZX 081111Z AUTO 00000KT 10SM CLR 13/12 A3007 RMK AO2=
KIKW 081113Z AUTO 00000KT 7SM SCT080 OVC100 23/21 A3001 RMK AO2
     T02300211=
KIRS 081115Z AUTO 00000KT 4SM BR CLR 22/20 A3005 RMK AO2=
KIWA 081116Z AUTO 00000KT 10SM CLR 31/04 A2980 RMK AO2=
KJKJ 081114Z AUTO 22004KT 10SM CLR 16/14 A3007 RMK AO2=
KJMR 081118Z AUTO 00000KT 10SM CLR 13/12 A3009 RMK AO2=
KJYG 081115Z AUTO 00000KT 10SM CLR 16/16 A3015 RMK AO2=
KJYM 081115Z AUTO 00000KT 5SM BR CLR 21/19 A3007 RMK AO2=
KLCK 081115Z AUTO 00000KT 4SM BR CLR 22/21 A3008 RMK AO2
     T02210209=
KLJF 081112Z AUTO 26003KT 10SM CLR 17/16 A3012 RMK AO2=
KLVN 081108Z AUTO 27004KT 10SM CLR 16/16 A3011 RMK AO2=
KLWA 081116Z AUTO 00000KT 10SM BKN044 OVC055 23/21 A3003 RMK
     AO2=
KLXL 081114Z AUTO 00000KT 1 1/4SM BR VV007 12/12 A3008 RMK AO2=
KLYV 081118Z AUTO 00000KT 10SM CLR 13/11 A3017 RMK AO2=
KMDS 081105Z AUTO 24004KT M1/4SM FG VV000 14/14 A3018 RMK AO2=
KMGG 081115Z AUTO 27004KT 10SM CLR 17/15 A3011 RMK AO2
     T01660150=
KMGN 081115Z AUTO 27003KT 7SM RA SCT029 SCT050 OVC110 22/20 A2997
     RMK AO2=
####018003706####
SAUS99 KWBC 081120
METAR
K1A6 081115Z AUTO 00000KT 1/4SM FG OVC003 21/21 A3012 RMK AO2=
K21D 081118Z AUTO 00000KT 10SM CLR 16/15 A3009 RMK AO2=
K29G 081114Z AUTO 00000KT 5SM CLR 21/19 A3010 RMK AO2 T02080193
     PWINO=
K4I3 081116Z AUTO 00000KT 7SM SCT060 21/19 A3010 RMK AO2=
KACB 081115Z AUTO 00000KT 7SM RA SCT023 OVC080 23/21 A3000 RMK
     AO2=
KACQ 081119Z AUTO 30005KT 4SM BR CLR 16/15 A3013 RMK AO2=
KADC 081117Z AUTO 25004KT 10SM CLR 13/12 A3009 RMK AO2=
KAEL 081111Z AUTO 00000KT 7SM CLR 17/16 A3011 RMK AO2=
KAIG 081115Z AUTO 33003KT 2SM BR OVC001 18/17 A3002 RMK AO2=
KAIT 081113Z AUTO 24004KT 10SM CLR 14/13 A3007 RMK AO2=
KANE 081115Z AUTO 00000KT 1SM BR 16/14 A3010 RMK AO2 VIS 1/4V4=
KARV 081112Z AUTO 00000KT 10SM CLR 17/15 A3005 RMK AO2
     T01660153=
KAUM 081115Z AUTO 31003KT 5SM BR CLR 17/16 A3010 RMK AO2=
KBAX 081115Z AUTO 00000KT 4SM BR CLR 23/22 A3000 RMK AO2=
KBBB 081113Z AUTO 00000KT 1 1/4SM BR VV007 13/13 A3012 RMK AO2 VIS
     1/2V5=
KBDH 081115Z AUTO 00000KT 5SM BR CLR 14/14 A3013 RMK AO2=
KBJI 081114Z AUTO 25007KT 10SM CLR 15/13 A3006 RMK AO2=
KBWP 081111Z AUTO 28003KT 7SM CLR 14/13 A3010 RMK AO1
     T01360127=
KCAD 081114Z AUTO 23005KT 10SM SCT070 BKN085 OVC110 22/21 A3003
     RMK AO2=
KCBG 081115Z AUTO 00000KT 10SM CLR 16/14 A3008 RMK AO2=
KCFE 081115Z AUTO 00000KT 10SM CLR 17/16 A3012 RMK AO2
     T01730158=
KCFS 081115Z AUTO 22005KT 7SM SCT060 SCT070 23/22 A3003 RMK
     AO2=
KCKC 081115Z AUTO 29004KT 10SM CLR 16/13 A3004 RMK AO2=
KCKN 081115Z AUTO 22004KT 10SM CLR 13/12 A3006 RMK AO2=
KCLI 081115Z AUTO 00000KT 2 1/2SM BR BKN005 OVC010 22/21 A3000 RMK
     AO2=
KCMY 081115Z AUTO 00000KT 7SM BKN011 19/18 A3005 RMK AO2
     T01910182=
KCNB 081117Z AUTO 24008KT 10SM CLR 17/13 A3014 RMK AO2
     T01650131=
KCOQ 081116Z AUTO 28006KT 10SM CLR 15/15 A3006 RMK AO2=
KCQM 081117Z AUTO 00000KT 10SM CLR 15/14 A3003 RMK AO2=
KCVH 081110Z AUTO 26003KT 8SM OVC006 13/11 A2992 RMK AO1=
KDRM 081116Z AUTO 17003KT 1 1/2SM BR OVC002 20/20 A2996 RMK
     AO2=
KDTL 081115Z AUTO 27003KT 10SM CLR 16/11 A3010 RMK AO2=
KDUH 081114Z AUTO 00000KT 7SM CLR 23/18 A3005 RMK AO2=
KDVK 081117Z AUTO 00000KT 3SM 21/19 A3010 RMK AO1=
KDXX 081114Z AUTO 00000KT 10SM CLR 14/14 A3011 RMK AO2=
KDYT 081109Z AUTO 20007KT 10SM CLR 17/15 A3004 RMK AO2=
KEFK 081115Z AUTO 21003KT 4SM BR CLR 22/20 A3006 RMK AO2=
KMOX 081110Z AUTO 26003KT 10SM CLR 15/14 A3009 RMK AO2=
KMRT 081113Z AUTO 00000KT 2 1/2SM CLR 21/19 A3012 RMK AO2
     T02090193=
KMVE 081114Z AUTO 28003KT 10SM CLR 16/14 A3011 RMK AO2=
KMWM 081113Z AUTO 00000KT 5SM BR CLR 13/13 A3015 RMK AO2=
KMWO 081115Z AUTO 00000KT 2SM BR CLR 20/20 A3009 RMK AO2=
KOEB 081115Z AUTO 00000KT 3SM BR CLR 22/21 A3006 RMK AO2=
KONA 081110Z AUTO 30003KT 10SM CLR 20/17 A3005 RMK AO2=
KOVL 081113Z AUTO 25003KT 7SM CLR 13/11 A3012 RMK AO2
     T01250111=
KOZW 081115Z AUTO 00000KT 7SM CLR 23/21 A3005 RMK AO2=
KPEX 081113Z AUTO 26005KT 5SM BR CLR 13/13 A3012 RMK AO2
     T01320131=
KPNM 081113Z AUTO 00000KT 3SM BR CLR 14/13 A3009 RMK AO2=
KPQN 081113Z AUTO 33003KT 10SM CLR 17/14 A3017 RMK AO2=
KPVB 081113Z AUTO 00000KT 1SM OVC002 21/20 A3006 RMK AO1
     T02070200=
KPWC 081113Z AUTO 00000KT 1/4SM FG OVC001 10/09 A3009 RMK AO2=
KRGK 081115Z AUTO 30003KT 10SM CLR 18/17 A3008 RMK AO2=
KRNP 081115Z AUTO 31003KT 7SM CLR 24/21 A3003 RMK AO2=
KROS 081115Z AUTO 00000KT 10SM CLR 15/14 A3008 RMK AO2
     T01480141=
KROX 081114Z AUTO 23004KT 10SM SCT095 14/12 A3001 RMK AO2=
KRQB 081115Z AUTO 00000KT 7SM -RA BKN075 22/21 A3003 RMK AO2=
KRRT 081114Z AUTO 23006KT 10SM CLR 13/11 A3001 RMK AO2=
####018000801####
SPUS99 KWBC 081120
SPECI
KAAO 081117Z AUTO 34005KT 10SM BKN006 21/20 A3008 RMK AO2=
KARR 081117Z AUTO 19004KT 2 1/2SM -RA BR BKN065 OVC080 22/22 A3003
     RMK AO2 P0000 $=
KDRT 081117Z AUTO 07003KT 10SM BKN022 BKN029 24/22 A2995 RMK
     AO2=
KECG 081117Z 07009KT 10SM SCT009 SCT100 26/23 A2997 RMK AO2=
KVIH 081117Z AUTO 30007KT 6SM BR FEW001 BKN016 BKN021 23/22 A3006
     RMK AO2=
PAKI 081115Z AUTO 36003KT 1SM BR CLR 08/08 A3002 RMK AO2 PWINO
     TSNO $=
KBMQ 081118Z AUTO 00000KT 10SM SCT011 SCT016 BKN023 23/22 A3002
     RMK AO2 $=
KDGW 081118Z AUTO 00000KT 1 1/4SM BR FEW001 SCT010 05/04 A3035 RMK
     AO2 $=
KEKQ 081117Z AUTO 00000KT 1 1/4SM BR CLR 19/18 A3012 RMK AO2=
KPLN 081118Z AUTO 00000KT 10SM -RA BKN011 OVC095 22/21 A2998 RMK
     AO2 P0000=
####018003377####
SAUS99 KWBC 081120 RRB
METAR
KMJQ 081112Z AUTO 25003KT 7SM CLR 15/14 A3016 RMK AO2=
KMOP 081115Z AUTO 23004KT 10SM OVC085 23/22 A3002 RMK AO2=
K14Y 081119Z AUTO 21004KT 7SM CLR 15/15 A3011 RMK AO2
     T01520146=
K4M9 081115Z AUTO 18004KT 5SM BR CLR 24/24 A3006 RMK AO2=
KAEJ 081115Z AUTO 00000KT 10SM CLR 08/07 A3045 RMK AO2=
KBBF 081215Z AUTO 13020KT 10SM FEW043 SCT060 SCT100 29/26 A2981
     RMK A01=
KBQX 081115Z AUTO 11009G14KT 4SM BR 27/25 A2985 RMK A01=
KBUU 081116Z AUTO 00000KT 5SM BR SCT006 BKN013 OVC025 21/21 A3002
     RMK AO2=
KDLP 081115Z AUTO 10012KT 9SM FEW016 28/25 A2999 RMK A01=
KEDU 081115Z AUTO 00000KT 10SM CLR 13/10 A2982 RMK AO1=
KEHC 081115Z AUTO 12025KT 7SM CLR 29/25 A2992 RMK A01=
KEIR 081115Z AUTO VRB07G16KT 8SM CLR 28/25 A2996 RMK A01=
KEMK 081115Z AUTO 14018KT 8SM FEW043 SCT065 BKN085 28/25 A2988 RMK
     A01=
KEZS 081115Z AUTO 25003KT 5SM BR SCT009 SCT014 SCT028 23/22 A3000
     RMK AO2 T02260216=
KGBK 081115Z AUTO 09013G20KT 070V130 10SM FEW017 FEW022 29/25
     A2991 RMK A01=
KGVX 081115Z AUTO 11026KT 9SM SCT026 SCT048 BKN065 M40/ A2990 RMK
     A01=
KHQI 081115Z AUTO 10022G29KT 8SM FEW020 FEW060 SCT110 29/26 A2990
     RMK A01=
KHXD 081115Z AUTO 24005KT 10SM CLR 24/21 A2999 RMK AO2 P0000=
KHYW 081115Z AUTO 00000KT 5SM BR CLR 24/22 A2994 RMK AO2=
KIPN 081115Z AUTO 10013KT 10SM SCT022 SCT030 /54 A3000 RMK A01=
KJZI 081115Z AUTO 30007KT 10SM CLR 25/23 A2997 RMK A02 P000=
KLNL 081115Z AUTO 00000KT 10SM CLR 17/15 A3005 RMK AO2
     T01670148=
KLUM 081115Z AUTO 28006KT 10SM CLR 18/17 A3007 RMK AO2=
KMCJ 081115Z AUTO 05008KT 5SM SCT023 BKN031 25/24 A2989 RMK
     AO1=
KMDJ 081115Z AUTO 12011KT 10SM FEW020 28/24 A3000 RMK A01=
KMDZ 081115Z AUTO 33005KT 3/4SM BR OVC002 19/18 A3005 RMK AO2=
KMHR 081115Z AUTO 14006KT 10SM CLR 12/10 A2985 RMK AO1=
KMIU 081115Z AUTO 13017G23KT 2SM BR FEW003 SCT022 BKN032 27/25
     A2980 RMK A01=
KMRJ 081115Z AUTO 00000KT M1/4SM FG OVC003 21/20 A3005 RMK AO2
     T02110196=
KMWC 081115Z AUTO 23004KT 7SM BKN027 BKN090 OVC110 21/20 A3002 RMK
     AO2=
KMYT 081115Z AUTO 12013KT 10SM SCT019 28/24 A2997 RMK A01=
KMZG 081115Z AUTO 00000KT 9SM FEW019 SCT075 BKN090 28/25 A2982 RMK
     A01=
KOEO 081115Z AUTO 00000KT 10SM CLR 16/16 A3010 RMK AO2=
KPBH 081115Z AUTO 00000KT 10SM CLR 19/17 A3007 RMK AO2=
KPCZ 081115Z AUTO 27003KT 3SM BR SCT010 SCT016 22/21 A3000 RMK AO2
     T02200205=
KPDC 081113Z AUTO 29004KT 7SM CLR 22/21 A3004 RMK AO2
     T02170205=
KRCX 081115Z AUTO 33006KT 10SM CLR 18/16 A3007 RMK AO2
     T01780164=
KRNH 081116Z AUTO 00000KT 10SM CLR 17/16 A3009 RMK AO2
     T01650160=
KRPD 081114Z AUTO 00000KT 10SM CLR 18/17 A3008 RMK AO2
     T01750165=
KRRL 081115Z AUTO 00000KT 1SM BR OVC002 18/17 A3005 RMK AO2
     T01770173=
KRYV 081115Z AUTO 00000KT 5SM BR BKN005 22/20 A3002 RMK AO2=
KSCF 081120Z AUTO 14019KT 6SM HZ FEW015 FEW021 28/25 A2990 RMK
     A01=
KSPF 081115Z AUTO 00000KT 10SM CLR 11/08 A3029 RMK AO2=
KSTE 081115Z AUTO 33004KT 10SM OVC005 20/19 A3004 RMK AO2=
KSUW 081115Z AUTO 22005KT 10SM CLR 16/14 A3003 RMK AO2=
KVBS 081115Z AUTO 12024KT 10SM SCT021 BKN028 BKN042 29/25 A2993
     RMK A01=
KVNP 081115Z AUTO 13007G17KT 8SM 28/25 A2997 RMK A01=
KY63 081120Z AUTO 22003KT 10SM CLR 14/14 A3011 RMK AO2
     T01400135=
####018000122####
SAMX51 MMMX 081122
METAR MMOX 081116Z RTD 00000KT 3SM RA SCT005 BKN012 OVC080 16/14 A3008 RMK 8/72/
      LWR VIS S=
####018000129####
SAAP32 FAPR 081100 RRA
METAR FVHA 081100Z 12012KT CAVOK 17/05 Q1029 NOSIG=
METAR FYWH 081100Z 01010G25KT CAVOK 19/M01 Q1029=
####018000106####
SAUS41 KAKQ 081119
MTRAKQ
SPECI KAKQ 081115Z AUTO 00000KT 2SM BR FEW015 24/22 A2999 RMK AO2 
TSNO
####018000086####
SANM40 FYWW 081100 RRA
METAR FYOA 081100Z AUTO 03012KT //// // ////// 24/01 Q1022=
####018000184####
SAAF05 LFPW 081100 RRB
METAR DNEN 081100Z 27005KT 9999 BKN011 28/23 Q1014=
METAR DNIB 081100Z 28008KT 9999 SCT015 28/23 Q1015=
METAR DNMA 081100Z 21007KT 9999 SCT012 30/24 Q1012=
####018000101####
SPNK31 MNMG 081115
SPECI
SPECI MNMG 081115Z 31012KT 7000 -DZ FEW020CB BKN020
CB/W/NW/N/NE/E/SE=
####018000251####
SAXX60 KWBC 081120
METAR
KMRT 081113Z AUTO 00000KT 2 1/2SM CLR 21/19 A3012 RMK AO2
     T02090193=
KGBK 081115Z AUTO 09013G20KT 070V130 10SM FEW017 FEW022 29/25
     A2991 RMK A01=
KMHR 081115Z AUTO 14006KT 10SM CLR 12/10 A2985 RMK AO1=
####018003685####
SAUS70 KWBC 081120 RRA
METAR
KPQN 081113Z AUTO 33003KT 10SM CLR 17/14 A3017 RMK AO2=
KPVB 081113Z AUTO 00000KT 1SM OVC002 21/20 A3006 RMK AO1
     T02070200=
KPWC 081113Z AUTO 00000KT 1/4SM FG OVC001 10/09 A3009 RMK AO2=
KRGK 081115Z AUTO 30003KT 10SM CLR 18/17 A3008 RMK AO2=
KRNP 081115Z AUTO 31003KT 7SM CLR 24/21 A3003 RMK AO2=
KROX 081114Z AUTO 23004KT 10SM SCT095 14/12 A3001 RMK AO2=
KRQB 081115Z AUTO 00000KT 7SM -RA BKN075 22/21 A3003 RMK AO2=
KRRT 081114Z AUTO 23006KT 10SM CLR 13/11 A3001 RMK AO2=
KRZN 081114Z AUTO 00000KT 10SM CLR 15/15 A3008 RMK AO2
     T01540147=
KSAZ 081114Z AUTO 24004KT 10SM CLR 16/16 A3009 RMK AO2=
KSGS 081113Z AUTO 26003KT 10SM CLR 18/16 A3009 RMK AO2
     T01800162=
KSME 081115Z AUTO 00000KT 2 1/2SM BR 21/19 A3010 RMK AO2=
KTEW 081113Z AUTO 00000KT 7SM CLR 22/20 A3005 RMK AO2=
KTOB 081114Z AUTO 00000KT 10SM CLR 17/16 A3010 RMK AO2=
KTWM 081113Z AUTO 29003KT 10SM CLR 16/13 A3002 RMK AO2=
KTZR 081117Z AUTO 00000KT 4SM BR CLR 21/19 A3009 RMK AO2=
KUKT 081110Z AUTO 00000KT 5SM CLR 23/21 A3005 RMK AO1=
KULM 081115Z AUTO 00000KT 7SM CLR 13/12 A3013 RMK AO2=
KUNI 081115Z AUTO 00000KT 4SM HZ CLR 22/17 A3009 RMK AO2
     T02180170=
KVES 081114Z AUTO 12003KT 2 1/2SM BR CLR 20/20 A3009 RMK AO2
     T02020195=
KVLL 081114Z AUTO 24003KT 10SM CLR 25/21 A3006 RMK AO2=
KVVV 081116Z AUTO 27005KT 10SM CLR 17/14 A3012 RMK AO2=
KY70 081115Z AUTO 16003KT 1 3/4SM BR SCT002 SCT070 BKN110 23/22
     A3003 RMK AO2 T02270220=
KEFT 081115Z AUTO 27007KT 10SM CLR 21/18 A3004 RMK AO2
     T02100182=
KEGV 081112Z AUTO 00000KT 10SM CLR 18/18 A3003 RMK AO2
     T01750175=
KELO 081113Z AUTO 22005KT 10SM CLR 14/13 A3002 RMK AO2=
KETB 081112Z AUTO 00000KT 3SM BR SCT003 OVC015 22/21 A3001 RMK AO2
     T02160209=
KEVM 081112Z AUTO 00000KT 7SM CLR 13/12 A3002 RMK AO1=
KFBL 081114Z AUTO 29004KT 10SM CLR 17/15 A3011 RMK AO2=
KFFM 081113Z AUTO 00000KT 10SM CLR 14/14 A3009 RMK AO2=
KFFX 081115Z AUTO 00000KT 3SM BR OVC090 22/22 A3002 RMK AO2=
KFGN 081114Z AUTO 26007KT 1/4SM -DZ VV002 16/13 A2998 RMK AO2=
KFPK 081116Z AUTO 00000KT 5SM BR CLR 22/21 A3003 RMK AO2=
KFSE 081114Z AUTO 19004KT 10SM CLR 11/11 A3006 RMK AO2=
KFSO 081118Z AUTO 00000KT 5SM BR BKN060 BKN075 OVC090 24/22 A3002
     RMK AO2=
KGDB 081113Z AUTO 25004KT 10SM CLR 14/13 A3015 RMK AO2
     T01350129=
KGHW 081114Z AUTO 25005KT 10SM CLR 15/13 A3015 RMK AO2=
KGLW 081113Z AUTO 00000KT 4SM BR CLR 21/20 A3008 RMK AO2
     T02060196=
KGYL 081114Z AUTO 00000KT 10SM CLR 15/14 A3011 RMK AO2
     T01520143=
KHAF 081110Z AUTO 00000KT 10SM OVC006 12/11 A2993 RMK AO2=
KHAI 081115Z AUTO 00000KT 5SM BR CLR 22/21 A3005 RMK AO2=
KHCD 081112Z AUTO 25003KT 3SM BR CLR 13/12 A3012 RMK AO2
     T01270118=
KHCO 081114Z AUTO 21004KT 10SM BKN100 13/13 A3006 RMK AO2=
KHFJ 081115Z AUTO 00000KT 7SM SCT016 BKN060 BKN075 22/22 A3005 RMK
     AO1=
KHZX 081111Z AUTO 00000KT 10SM CLR 13/12 A3007 RMK AO2=
KIRS 081115Z AUTO 00000KT 4SM BR CLR 22/20 A3005 RMK AO2=
KIWA 081116Z AUTO 00000KT 10SM CLR 31/04 A2980 RMK AO2=
KJKJ 081114Z AUTO 22004KT 10SM CLR 16/14 A3007 RMK AO2=
KJMR 081118Z AUTO 00000KT 10SM CLR 13/12 A3009 RMK AO2=
KJYG 081115Z AUTO 00000KT 10SM CLR 16/16 A3015 RMK AO2=
KJYM 081115Z AUTO 00000KT 5SM BR CLR 21/19 A3007 RMK AO2=
KLCK 081115Z AUTO 00000KT 4SM BR CLR 22/21 A3008 RMK AO2
     T02210209=
KLJF 081112Z AUTO 26003KT 10SM CLR 17/16 A3012 RMK AO2=
KLVN 081108Z AUTO 27004KT 10SM CLR 16/16 A3011 RMK AO2=
KLWA 081116Z AUTO 00000KT 10SM BKN044 OVC055 23/21 A3003 RMK
     AO2=
KLXL 081114Z AUTO 00000KT 1 1/4SM BR VV007 12/12 A3008 RMK AO2=
####018000095####
SPNK31 MNMG 081115
SPECI
MNMG 081115Z 31012KT 7000 -DZ FEW020CB BKN020
CB/W/NW/N/NE/E/SE=
####018000159####
SPUS80 KWBC 081120
SPECI
KDRT 081117Z AUTO 07003KT 10SM BKN022 BKN029 24/22 A2995 RMK
     AO2=
KMSN 081117Z VRB03KT 9SM OVC013 21/20 A3002 RMK AO2=
####018000808####
SAUS80 KWBC 081120
METAR
KSNC 081115Z AUTO 14004KT 3SM BR OVC002 22/ A3009 RMK AO2=
K29G 081114Z AUTO 00000KT 5SM CLR 21/19 A3010 RMK AO2 T02080193
     PWINO=
KCLI 081115Z AUTO 00000KT 2 1/2SM BR BKN005 OVC010 22/21 A3000 RMK
     AO2=
KDVK 081117Z AUTO 00000KT 3SM 21/19 A3010 RMK AO1=
KROS 081115Z AUTO 00000KT 10SM CLR 15/14 A3008 RMK AO2
     T01480141=
KSYN 081130Z AUTO 00000KT 7SM CLR 17/15 A3009 RMK AO2
     T01670154=
KTKC 081113Z AUTO 26005KT 10SM CLR 16/13 A3014 RMK AO2
     T01570128=
KIKW 081113Z AUTO 00000KT 7SM SCT080 OVC100 23/21 A3001 RMK AO2
     T02300211=
KLYV 081118Z AUTO 00000KT 10SM CLR 13/11 A3017 RMK AO2=
KMYT 081115Z AUTO 12013KT 10SM SCT019 28/24 A2997 RMK A01=
KSCF 081120Z AUTO 14019KT 6SM HZ FEW015 FEW021 28/25 A2990 RMK
     A01=
####018003734####
SAUS70 KWBC 081120
METAR
K1P1 081115Z AUTO 00000KT 2SM BR BKN003 23/22 A3007 RMK AO2
     T02310219=
KBVU 081115Z AUTO 33004KT 10SM CLR 24/01 A2986 RMK AO2=
KE80 081115Z AUTO 20005KT 10SM CLR 18/12 A3025 RMK AO2
     T01830115=
KEDC 081115Z AUTO 05005KT BKN005 BKN070 24/24 A2996 RMK AO2=
KEIK 081115Z AUTO 00000KT 7SM OVC004 12/11 A3032 RMK AO2=
KEOE 081115Z AUTO 23003KT 10SM CLR 22/20 A3005 RMK AO2=
KFMH 081115Z AUTO 14006KT 10SM SCT009 BKN019 23/21 A3011 RMK
     AO2=
KIFP 081115Z AUTO 00000KT 10SM CLR 27/00 A2975 RMK AO2=
KMAN 081115Z AUTO 11005KT 10SM CLR 12/07 A3005 RMK AO1=
KPVF 081115Z AUTO 10005KT 10SM FEW044 21/12 A2993 RMK AO1=
KRBW 081115Z AUTO 27003KT 10SM CLR 22/20 A2998 RMK AO2=
KRCM 081115Z AUTO 00000KT 7SM OVC004 22/22 A3005 RMK AO2 LTG DSNT
     SE=
KTME 081115Z AUTO 04008KT 5SM 25/25 A2993 RMK AO1=
KUOX 081115Z AUTO 00000KT 9SM CLR 22/20 A3010 RMK AO2=
K1A6 081115Z AUTO 00000KT 1/4SM FG OVC003 21/21 A3012 RMK AO2=
K21D 081118Z AUTO 00000KT 10SM CLR 16/15 A3009 RMK AO2=
K4I3 081116Z AUTO 00000KT 7SM SCT060 21/19 A3010 RMK AO2=
KACB 081115Z AUTO 00000KT 7SM RA SCT023 OVC080 23/21 A3000 RMK
     AO2=
KACQ 081119Z AUTO 30005KT 4SM BR CLR 16/15 A3013 RMK AO2=
KADC 081117Z AUTO 25004KT 10SM CLR 13/12 A3009 RMK AO2=
KAEL 081111Z AUTO 00000KT 7SM CLR 17/16 A3011 RMK AO2=
KAIG 081115Z AUTO 33003KT 2SM BR OVC001 18/17 A3002 RMK AO2=
KAIT 081113Z AUTO 24004KT 10SM CLR 14/13 A3007 RMK AO2=
KANE 081115Z AUTO 00000KT 1SM BR 16/14 A3010 RMK AO2 VIS 1/4V4=
KARV 081112Z AUTO 00000KT 10SM CLR 17/15 A3005 RMK AO2
     T01660153=
KAUM 081115Z AUTO 31003KT 5SM BR CLR 17/16 A3010 RMK AO2=
KBAX 081115Z AUTO 00000KT 4SM BR CLR 23/22 A3000 RMK AO2=
KBBB 081113Z AUTO 00000KT 1 1/4SM BR VV007 13/13 A3012 RMK AO2 VIS
     1/2V5=
KBDH 081115Z AUTO 00000KT 5SM BR CLR 14/14 A3013 RMK AO2=
KBJI 081114Z AUTO 25007KT 10SM CLR 15/13 A3006 RMK AO2=
KBWP 081111Z AUTO 28003KT 7SM CLR 14/13 A3010 RMK AO1
     T01360127=
KCAD 081114Z AUTO 23005KT 10SM SCT070 BKN085 OVC110 22/21 A3003
     RMK AO2=
KCBG 081115Z AUTO 00000KT 10SM CLR 16/14 A3008 RMK AO2=
KCFE 081115Z AUTO 00000KT 10SM CLR 17/16 A3012 RMK AO2
     T01730158=
KCFS 081115Z AUTO 22005KT 7SM SCT060 SCT070 23/22 A3003 RMK
     AO2=
KCKC 081115Z AUTO 29004KT 10SM CLR 16/13 A3004 RMK AO2=
KCKN 081115Z AUTO 22004KT 10SM CLR 13/12 A3006 RMK AO2=
KCMY 081115Z AUTO 00000KT 7SM BKN011 19/18 A3005 RMK AO2
     T01910182=
KCNB 081117Z AUTO 24008KT 10SM CLR 17/13 A3014 RMK AO2
     T01650131=
KCOQ 081116Z AUTO 28006KT 10SM CLR 15/15 A3006 RMK AO2=
KCQM 081117Z AUTO 00000KT 10SM CLR 15/14 A3003 RMK AO2=
KCVH 081110Z AUTO 26003KT 8SM OVC006 13/11 A2992 RMK AO1=
KDRM 081116Z AUTO 17003KT 1 1/2SM BR OVC002 20/20 A2996 RMK
     AO2=
KDTL 081115Z AUTO 27003KT 10SM CLR 16/11 A3010 RMK AO2=
KDUH 081114Z AUTO 00000KT 7SM CLR 23/18 A3005 RMK AO2=
KDXX 081114Z AUTO 00000KT 10SM CLR 14/14 A3011 RMK AO2=
KDYT 081109Z AUTO 20007KT 10SM CLR 17/15 A3004 RMK AO2=
KEFK 081115Z AUTO 21003KT 4SM BR CLR 22/20 A3006 RMK AO2=
KMOX 081110Z AUTO 26003KT 10SM CLR 15/14 A3009 RMK AO2=
KMVE 081114Z AUTO 28003KT 10SM CLR 16/14 A3011 RMK AO2=
KMWM 081113Z AUTO 00000KT 5SM BR CLR 13/13 A3015 RMK AO2=
KMWO 081115Z AUTO 00000KT 2SM BR CLR 20/20 A3009 RMK AO2=
KOEB 081115Z AUTO 00000KT 3SM BR CLR 22/21 A3006 RMK AO2=
KONA 081110Z AUTO 30003KT 10SM CLR 20/17 A3005 RMK AO2=
KOVL 081113Z AUTO 25003KT 7SM CLR 13/11 A3012 RMK AO2
     T01250111=
KOZW 081115Z AUTO 00000KT 7SM CLR 23/21 A3005 RMK AO2=
KPEX 081113Z AUTO 26005KT 5SM BR CLR 13/13 A3012 RMK AO2
     T01320131=
KPNM 081113Z AUTO 00000KT 3SM BR CLR 14/13 A3009 RMK AO2=
####018000094####
SAXX60 KWBC 081100 RRL
METAR
KDOV 081055Z 11007KT 10SM CLR 25/25 A3001 RMK AO2A SLP164=
####018001134####
SPUS70 KWBC 081120
SPECI
KBGM 081116Z 00000KT 3SM HZ CLR 23/19 A3012 RMK AO2=
KFLD 081116Z AUTO 19003KT 6SM BR SCT009 SCT015 21/20 A3001 RMK
     AO2=
KSET 081116Z AUTO 24003KT 6SM BR FEW006 BKN010 OVC047 24/24 A3003
     RMK AO2 CIG 008V017=
KTVR 081116Z AUTO 00000KT 3SM BR CLR 22/21 A3005 RMK AO2 $=
KVPZ 081116Z AUTO 06004KT 2SM -RA BR FEW028 BKN070 OVC080 23/22
     A3004 RMK AO2 LTG DSNT E TSE16RAB1054 P0006=
KVTA 081116Z AUTO 00000KT 3SM BR FEW065 21/19 A3009 RMK AO2=
KAAO 081117Z AUTO 34005KT 10SM BKN006 21/20 A3008 RMK AO2=
KARR 081117Z AUTO 19004KT 2 1/2SM -RA BR BKN065 OVC080 22/22 A3003
     RMK AO2 P0000 $=
KVIH 081117Z AUTO 30007KT 6SM BR FEW001 BKN016 BKN021 23/22 A3006
     RMK AO2=
PAKI 081115Z AUTO 36003KT 1SM BR CLR 08/08 A3002 RMK AO2 PWINO
     TSNO $=
KBMQ 081118Z AUTO 00000KT 10SM SCT011 SCT016 BKN023 23/22 A3002
     RMK AO2 $=
KDGW 081118Z AUTO 00000KT 1 1/4SM BR FEW001 SCT010 05/04 A3035 RMK
     AO2 $=
KEKQ 081117Z AUTO 00000KT 1 1/4SM BR CLR 19/18 A3012 RMK AO2=
KPLN 081118Z AUTO 00000KT 10SM -RA BKN011 OVC095 22/21 A2998 RMK
     AO2 P0000=
####018003261####
SAUS70 KWBC 081120 RRB
METAR
KMDS 081105Z AUTO 24004KT M1/4SM FG VV000 14/14 A3018 RMK AO2=
KMGG 081115Z AUTO 27004KT 10SM CLR 17/15 A3011 RMK AO2
     T01660150=
KMGN 081115Z AUTO 27003KT 7SM RA SCT029 SCT050 OVC110 22/20 A2997
     RMK AO2=
KMJQ 081112Z AUTO 25003KT 7SM CLR 15/14 A3016 RMK AO2=
KMOP 081115Z AUTO 23004KT 10SM OVC085 23/22 A3002 RMK AO2=
K14Y 081119Z AUTO 21004KT 7SM CLR 15/15 A3011 RMK AO2
     T01520146=
K4M9 081115Z AUTO 18004KT 5SM BR CLR 24/24 A3006 RMK AO2=
KAEJ 081115Z AUTO 00000KT 10SM CLR 08/07 A3045 RMK AO2=
KBBF 081215Z AUTO 13020KT 10SM FEW043 SCT060 SCT100 29/26 A2981
     RMK A01=
KBQX 081115Z AUTO 11009G14KT 4SM BR 27/25 A2985 RMK A01=
KBUU 081116Z AUTO 00000KT 5SM BR SCT006 BKN013 OVC025 21/21 A3002
     RMK AO2=
KDLP 081115Z AUTO 10012KT 9SM FEW016 28/25 A2999 RMK A01=
KEHC 081115Z AUTO 12025KT 7SM CLR 29/25 A2992 RMK A01=
KEIR 081115Z AUTO VRB07G16KT 8SM CLR 28/25 A2996 RMK A01=
KEMK 081115Z AUTO 14018KT 8SM FEW043 SCT065 BKN085 28/25 A2988 RMK
     A01=
KEZS 081115Z AUTO 25003KT 5SM BR SCT009 SCT014 SCT028 23/22 A3000
     RMK AO2 T02260216=
KGVX 081115Z AUTO 11026KT 9SM SCT026 SCT048 BKN065 M40/ A2990 RMK
     A01=
KHQI 081115Z AUTO 10022G29KT 8SM FEW020 FEW060 SCT110 29/26 A2990
     RMK A01=
KHXD 081115Z AUTO 24005KT 10SM CLR 24/21 A2999 RMK AO2 P0000=
KHYW 081115Z AUTO 00000KT 5SM BR CLR 24/22 A2994 RMK AO2=
KIPN 081115Z AUTO 10013KT 10SM SCT022 SCT030 /54 A3000 RMK A01=
KJZI 081115Z AUTO 30007KT 10SM CLR 25/23 A2997 RMK A02 P000=
KLNL 081115Z AUTO 00000KT 10SM CLR 17/15 A3005 RMK AO2
     T01670148=
KLUM 081115Z AUTO 28006KT 10SM CLR 18/17 A3007 RMK AO2=
KMCJ 081115Z AUTO 05008KT 5SM SCT023 BKN031 25/24 A2989 RMK
     AO1=
KMDJ 081115Z AUTO 12011KT 10SM FEW020 28/24 A3000 RMK A01=
KMDZ 081115Z AUTO 33005KT 3/4SM BR OVC002 19/18 A3005 RMK AO2=
KMIU 081115Z AUTO 13017G23KT 2SM BR FEW003 SCT022 BKN032 27/25
     A2980 RMK A01=
KMRJ 081115Z AUTO 00000KT M1/4SM FG OVC003 21/20 A3005 RMK AO2
     T02110196=
KMWC 081115Z AUTO 23004KT 7SM BKN027 BKN090 OVC110 21/20 A3002 RMK
     AO2=
KMZG 081115Z AUTO 00000KT 9SM FEW019 SCT075 BKN090 28/25 A2982 RMK
     A01=
KOEO 081115Z AUTO 00000KT 10SM CLR 16/16 A3010 RMK AO2=
KPBH 081115Z AUTO 00000KT 10SM CLR 19/17 A3007 RMK AO2=
KPCZ 081115Z AUTO 27003KT 3SM BR SCT010 SCT016 22/21 A3000 RMK AO2
     T02200205=
KPDC 081113Z AUTO 29004KT 7SM CLR 22/21 A3004 RMK AO2
     T02170205=
KRCX 081115Z AUTO 33006KT 10SM CLR 18/16 A3007 RMK AO2
     T01780164=
KRNH 081116Z AUTO 00000KT 10SM CLR 17/16 A3009 RMK AO2
     T01650160=
KRPD 081114Z AUTO 00000KT 10SM CLR 18/17 A3008 RMK AO2
     T01750165=
KRRL 081115Z AUTO 00000KT 1SM BR OVC002 18/17 A3005 RMK AO2
     T01770173=
KRYV 081115Z AUTO 00000KT 5SM BR BKN005 22/20 A3002 RMK AO2=
KSPF 081115Z AUTO 00000KT 10SM CLR 11/08 A3029 RMK AO2=
KSTE 081115Z AUTO 33004KT 10SM OVC005 20/19 A3004 RMK AO2=
KSUW 081115Z AUTO 22005KT 10SM CLR 16/14 A3003 RMK AO2=
KVBS 081115Z AUTO 12024KT 10SM SCT021 BKN028 BKN042 29/25 A2993
     RMK A01=
KVNP 081115Z AUTO 13007G17KT 8SM 28/25 A2997 RMK A01=
KY63 081120Z AUTO 22003KT 10SM CLR 14/14 A3011 RMK AO2
     T01400135=
####018000899####
SPXX60 KWBC 081120
SPECI
KDNK 081116Z AUTO 07004KT 6SM BR SCT014 24/22 A3002 RMK AO2=
KECG 081117Z 07009KT 10SM SCT009 SCT100 26/23 A2997 RMK AO2=
KNQI 081117Z AUTO 01004KT 10SM -RA FEW026 27/25 A2982 RMK AO2
     P0004 $=
KRIV 081115Z 31003KT 2 1/2SM BR OVC003 13/12 A2990 RMK AO2A
     SLP119=
KRND 081115Z AUTO 04006KT 10SM SCT007 BKN060 25/24 A2994 RMK AO2
     CIG 007 RWY32R SLP128=
KRND 081118Z AUTO 04005KT 10SM -DZ SCT009 BKN060 25/24 A2994 RMK
     AO2 DZB1118 SLP128=
MHSC 081110Z AUTO 12003KT 9999 -RA BKN065 22/19 A2994 RMK AO2
     RAB1110 SLP099 $=
PACZ SP 1115 AWOS MM 10 51/48/0512/004=
PAIM SP 1115 AWOS CLR BLO 120 10 51/45/1504/008=
PALU SP 1115 AWOS CLR BLO 120 10 54/35/2122/008=
PASV SP 1115 AWOS 70 SCT 10 48/45/0000/996=
PATL SP 1115 AWOS CLR BLO 120 10 59/44/0404/999=
PGUA 081117Z 09021G26KT 9SM BKN018 BKN026 27/26 A2992 RMK AO2A=
####018000107####
SAAO33 KWBC 081100 RRB
METAR
GBYD 081108 25006KT 9000 -TSRA SCT012 FEWCB018 S-NW 31/26
     Q1013=
####018000071####
SPAK32 KWBC 081120
SPECI
PACZ SP 1115 AWOS MM 10 51/48/0512/004=
####018000101####
SAAF35 KWBC 081100 RRB
METAR
HLLB 081100Z NIL=
HLLB 081050Z 33020KT 9999 FEW025 31/17 Q1016=
####018000187####
SPAU31 AMMC 081120
SPECI YSSY 081116Z 23010KT 7000 SHRA FEW006 SCT020 BKN055 12/11 Q1027
     FM1140 22010KT 9999 -SHRA SCT025 BKN040
     INTER 1140/1416 5000 SHRA BKN010=


####018000080####
SPAK32 KWBC 081120
SPECI
PALU SP 1115 AWOS CLR BLO 120 10 54/35/2122/008=
####018000075####
SPAK32 KWBC 081120
SPECI
PASV SP 1115 AWOS 70 SCT 10 48/45/0000/996=
####018000081####
SAAW33 KWBC 081000 CCA
METAR
OYAR 081000Z 04006KT 5000 DU NSC 29/01 Q////=
####018000080####
SPAK32 KWBC 081120
SPECI
PAIM SP 1115 AWOS CLR BLO 120 10 51/45/1504/008=
####018000080####
SPAK32 KWBC 081120
SPECI
PATL SP 1115 AWOS CLR BLO 120 10 59/44/0404/999=
####018000028####
SAAW34 KWBC 081115
NIL=
####018000118####
SPDN31 KWBC 081120
SPECI
EKKA 081112Z 20006KT 170V230 2800 SHRA SCT018CB BKN030 17/16 Q1018
TEMPO 6000 -SHRA=
####018000086####
SPPA41 KWBC 081120
SPECI
PGUA 081117Z 09021G26KT 9SM BKN018 BKN026 27/26 A2992=
####018000117####
SPIO31 KWBC 081120
SPECI
WBSB 081100Z 14003KT 8000 -SHRA FEW014 FEW016CB BKN140 25/25 Q1009
RETS TEMPO SHRA=
####018000028####
SADL33 KWBC 081115
NIL=
####018000086####
SPNL31 KWBC 081120
SPECI
EHDL 081112Z AUTO 22009KT 9999NDV NCD 29/12 Q1019 BLU=
####018000095####
SPPA31 KWBC 081120
SPECI
PGUA 081117Z 09021G26KT 9SM BKN018 BKN026 27/26 A2992 RMK AO2A=
####018000181####
SPAU31 AMMC 081120
SPECI YSSY 081116Z 23010KT 7000 SHRA FEW006 SCT020 BKN055 12/11 Q1027
     FM1140 22010KT 9999 -SHRA SCT025 BKN040
     INTER 1140/1416 5000 SHRA BKN010=
####018000142####
SAXX61 KWBC 081100 RRD
METAR
KQHT 081055Z COR 30007KT 9999 SCT150 SCT200 34/M08 A2993 RMK
     SLP096 WND DATA ESTMD ALSTG/SLP ESTMD=
####018000081####
SAXX99 KWBC 081000 CCF
METAR
OYDM 081000Z 06015KT 6000 SCT030 29/02 Q////=
####018000095####
SAXX99 KWBC 081100 CCG
METAR
EGXT 081050Z 23012KT 9999 FEW025 SCT120 BKN250 20/07 Q1018=
####018000437####
SAXX99 KWBC 081100 RRO
METAR
CZEV 081100Z AUTO 32007KT 06/03 RMK AO1 PK WND 31017/1019 SLP184
     T00610029 51008=
CZFS 081100Z AUTO 32004KT 13/12 RMK AO1 SLP157 T01250122 58001=
CZHY 081100Z AUTO 31005KT 15/12 RMK AO1 SLP143 T01490123 53003=
CZSM 081100Z AUTO 24002KT 10/07 RMK AO1 SLP131 T00950074 51001=
SKEJ 081100Z 00000KT 2000SW BCFG BKN010 24/24 A2988=
SKPS 081100Z 19004KT 5000N 9999S VCFG OVC020 15/14 A3018=
####018000076####
SPUS51 KWBC 081120
SPECI
KBGM 081116Z 00000KT 3SM HZ CLR 23/19 A3012=
####018000076####
SPUS53 KWBC 081120
SPECI
KMSN 081117Z VRB03KT 9SM OVC013 21/20 A3002=
####018000091####
SAEW36 LEMM 081100 CCA
METAR COR GCLA 081100Z 02012KT 340V050 9999 SCT020 25/18 Q1019=
####018000076####
SPUS73 KWBC 081120
SPECI
KMSN 081117Z VRB03KT 9SM OVC013 21/20 A3002=
