####018000087####
SPUS73 KWBC 081335
SPECI
KSUS 081332Z 00000KT 7SM -RA SCT014 BKN030 24/23 A3004=
####018000395####
SPUS17 KAWN 081335 RRE
SPECI KCEF 081329Z 18004KT 7SM OVC013 25/22 A3008 RMK AO2A SLP185 $=
SPECI KHLR 081330Z AUTO 06005KT 9SM FEW009 BKN013 OVC034 26/ A3002
      RMK AO2 RAE04 P0000 T0261 $=
SPECI KLTS 081328Z AUTO 35003KT 9SM R35L/5500VP6000FT RA SCT005 23/22
      A3009 RMK AO2 RAB1322DZB1313E1322 SLP173 $=
SPECI KNFW 081327Z 13007KT 10SM SCT012 BKN024 27/22 A3008 RMK AO2=
####018001882####
SAEW KAWN 081300 RRM
METAR EBBE 081325Z 22005KT 9999 FEW250 31/09 Q1019 BLU BLU=
METAR EBBL 081325Z 33004KT 9999 FEW050 SCT220 33/10 Q1018 BLU BLU=
METAR EBCV 081325Z AUTO 20005KT 9999 // SKC 30/11 Q1019 BLU=
METAR EBDT 081325Z 14008KT 9999 FEW070 BKN220 32/10 Q1019 BLU=
METAR EBFN 081325Z 35004KT 9999 FEW042 BKN200 24/16 Q1019 BLU BLU=
METAR EBFS 081325Z VRB02KT 9999 SCT250 30/08 Q1020 BLU BLU=
METAR EBLB 081325Z 27005KT 9999 FEW060 28/08 Q1021 BLU BLU=
METAR LFBC 081330Z AUTO 07008KT 030V110 9999NDV NSC 38/12 Q1014=
METAR LFBF 081330Z AUTO 11010KT 080V140 7000NDV // NSC 35/16 Q1017=
METAR LFBG 081330Z AUTO 14005KT 060V200 9999NDV NSC 35/13 Q1016=
METAR LFBM 081330Z AUTO 13009KT 090V160 0600NDV R27///// FG NSC 36/17
      Q1015=
METAR LFKS 081330Z AUTO 11006KT 060V180 9999NDV NSC 30/23 Q1019=
METAR LFMI 081330Z AUTO 20012KT 160V220 9999NDV NSC 33/16 Q1019=
METAR LFMO 081330Z 15005KT 070V230 CAVOK 35/15 Q1019=
METAR LFMY 081330Z 21008KT 180V240 CAVOK 34/15 Q1019=
METAR LFOA 081330Z AUTO 17007KT 070V240 9999NDV NSC 32/10 Q1018=
METAR LFOC 081330Z AUTO 22005KT 100V270 9999NDV NSC 33/10 Q1018=
METAR LFOE 081330Z 20006KT 140V240 CAVOK 32/08 Q1018=
METAR LFOJ 081330Z VRB03KT CAVOK 32/12 Q1018=
METAR LFPC 081330Z 11004KT 040V210 CAVOK 31/11 Q1018=
METAR LFPV 081330Z AUTO 23005KT 140V270 9999NDV NSC 30/09 Q1019=
METAR LFQI 081330Z VRB06KT CAVOK 31/11 Q1018=
METAR LFSD 081330Z AUTO 17006KT 120V210 9999NDV NSC 31/11 Q1020=
METAR LFSF 081330Z AUTO VRB06KT 9999NDV NSC 32/09 Q1019=
METAR LFSI 081330Z AUTO 11005KT 090V160 9999NDV NSC 33/08 Q1019=
METAR LFSL 081330Z AUTO 12007KT 090V180 9999NDV NSC 32/11 Q1019=
METAR LFSO 081330Z AUTO 26005KT 210V300 9999NDV NSC 32/12 Q1020=
METAR LFSR 081330Z AUTO 02006KT 330V060 9999NDV NSC 33/11 Q1018=
METAR LFSX 081330Z AUTO 11004KT 050V200 9999NDV NSC 31/11 Q1020=
####018000082####
SPUS81 KWBC 081335
SPECI
KNUI 081333Z AUTO 09006KT 10SM SCT015 28/23 A3001=
####018000087####
SPUS81 KWBC 081335
SPECI
KSUS 081332Z 00000KT 7SM -RA SCT014 BKN030 24/23 A3004=
####018000098####
SAMG20 FMMI 081330
METAR FMMI 081330Z 14008KT 110V170 9999 SCT020 BKN023 16/13 Q1025
NOSIG=
####018000850####
SAUS20 KNKA 081335
METAR KBDN 081335Z AUTO 00000KT 10SM CLR 14/03 A3012 RMK AO2 =
METAR KCGC 081335Z AUTO 00000KT 10SM CLR 27/22 A3002 RMK=
METAR KDYB 081335Z AUTO 31004KT 10SM CLR 28/21 A2997 RMK AO1=
METAR KFTN 081335Z AUTO 04006KT 10SM BKN008 OVC017 25/23 A2993 RMK 
     AO1 =
SPECI KMLC 081334Z AUTO VRB05KT 10SM SCT009 BKN027 OVC060 24/23 
    A3006 RMK AO2=
METAR KMNI 081335Z AUTO 33007KT 10SM CLR 31/24 A2997 RMK AO2=
SPECI KRKP 081334Z AUTO 11011G15KT 1 1/4SM +RA FEW012 BKN037 OVC055 
    A2988 RMK AO2 RAE05B32 PRESRR P0015 FZRANO $=
METAR KRKR 081334Z AUTO 20003KT 10SM -RA SCT046 BKN090 29/26 
     A3006 RMK AO2=
METAR KSPA 081335Z AUTO 35005KT 10SM CLR 30/23 A3004 RMK AO2=
METAR KSPL 081335Z AUTO 35004KT TS 28/25 A2976 RMK AO2 PWINO PNO =
METAR KUTA 081335Z AUTO 00000KT 10SM CLR 28/22 A3009 RMK AO2=
####018001780####
SAEU KAWN 081300 RRX
METAR LEXJ 081330Z 26007KT 210V330 9999 FEW018 26/19 Q1016=
METAR LFCR 081330Z AUTO 17007KT 100V210 9999NDV NSC 33/06 Q1021=
METAR LFGJ 081330Z AUTO 21006KT 140V280 9999NDV NSC 31/12 Q1020=
METAR LFJL 081330Z AUTO VRB04KT 9999NDV NSC 31/07 Q1020=
METAR LFKB 081330Z 10005KT 060V140 9999 FEW026 29/21 Q1019 NOSIG=
METAR LFKJ 081330Z 19010KT 9999 FEW030 FEW046TCU 31/23 Q1019 NOSIG=
METAR LFLL 081330Z 21006KT 160V260 CAVOK 33/13 Q1019 NOSIG=
METAR LFMD 081330Z AUTO 16005KT 110V210 9999NDV NSC 30/21 Q1020=
METAR LFMN 081330Z 12005KT 9999 FEW016 29/23 Q1020 NOSIG=
METAR LFMU 081330Z AUTO 14007KT 090V190 9999NDV NSC 30/14 Q1020=
METAR LFOH 081330Z AUTO 35011KT 9999NDV NSC 22/15 Q1019=
METAR LFOT 081330Z AUTO VRB04KT 9999NDV NSC 33/08 Q1018=
METAR LFPB 081330Z VRB05KT CAVOK 32/09 Q1018 NOSIG=
METAR LFPG 081330Z VRB05KT CAVOK 31/08 Q1018 NOSIG=
METAR LFPO 081330Z VRB03KT CAVOK 32/10 Q1018 NOSIG=
METAR LFQQ 081330Z 18008KT 140V260 CAVOK 31/11 Q1018 NOSIG=
METAR LFRC 081330Z AUTO 01007KT 310V030 9999NDV FEW018 21/16 Q1020=
METAR LFRJ 081330Z AUTO 34005KT 280V030 9999NDV SCT029/// 24/18 Q1019=
METAR LFSL 081330Z AUTO 12007KT 090V180 9999NDV NSC 32/11 Q1019=
METAR LJMB 081330Z 18006KT 9999 FEW040 26/09 Q1022=
METAR LJPZ 081330Z 30008KT CAVOK 26/11 Q1021=
METAR LQBK 081330Z 32005KT 9999 SCT040 24/11 Q1021 NOSIG=
METAR LRBS 081330Z 28004KT 250V310 9999 FEW030 22/15 Q1016 TEMPO 5000
      RA=
METAR LRCK 081330Z 01010KT 320V050 9999 SCT038 26/16 Q1014 BECMG FEW035CB
      BKN040=
METAR LROP 081330Z 26004KT 220V280 9999 SCT040CB 21/15 Q1016 880///95
      NOSIG=
METAR LRSB 081330Z 36006KT 320V030 9999 SCT033 OVC086 18/13 Q1020=
METAR LRTR 081330Z 34010KT 310V040 9999 SCT045 25/13 Q1020=
####018000096####
SAUK39 EGRR 081250 RRP
METAR EGUW 081250Z 23009KT 9999 FEW035 BKN280 24/14 Q1018 BLU NOSIG=
####018002938####
SAUS20 KNKA 081335
METAR KHEZ 081335Z AUTO 09004KT 10SM CLR 26/24 A3008 RMK AO1=
METAR KHNB 081335Z AUTO 26004KT 10SM CLR 28/23 A3007 RMK AO1=
METAR KHYI 081335Z AUTO 05008KT 6SM OVC009 25/24 A2997 RMK AO1=
METAR KHYS 081335Z AUTO 02010KT 10SM OVC037 19/16 A3021 RMK AO1=
METAR KILE 081335Z 07008KT 8SM BKN008 OVC013 25/23 A3001 RMK AO1=
METAR KIWD 081335Z AUTO 33007KT 10SM CLR 20/16 A3003 RMK AO1=
METAR KJHW 081335Z AUTO 00000KT 10SM CLR 26/20 A3011 RMK AO1=
SPECI KJLN 081334Z 25004KT 2 1/2SM VCTS BR BKN004 BKN017 OVC033 
    22/22 A3009 RMK AO2 P0018=
METAR KKLS 081335Z AUTO 31003KT 10SM CLR 14/13 A2995 RMK AO1=
SPECI KLBB 081334Z 06009KT 10SM SCT006 SCT037 OVC110 20/18 A3017 RMK 
    AO2=
METAR KLBL 081335Z 36013KT 7SM OVC005 19/17 A3024 RMK AO1 P0001=
METAR KLCI 081335Z AUTO 24005KT 4SM OVC017 26/21 A3008 RMK AO1=
METAR KLEW 081335Z 15004KT 4SM OVC005 22/21 A3012 RMK AO1=
METAR KLGD 081335Z AUTO 00000KT 10SM CLR 13/07 A3008 RMK AO1=
SPECI KLIC 081334Z AUTO 13006KT 10SM FEW004 14/14 A3035 RMK AO2=
METAR KLKV 081335Z AUTO 30006KT 10SM CLR 14/02 A3013 RMK AO1=
METAR KLPC 081335Z AUTO 33003KT 6SM OVC008 13/11 A2994 RMK AO1 PNO=
METAR KMBL 081335Z AUTO 27004KT 5SM OVC005 22/20 A3003 RMK AO1=
METAR KMJX 081335Z AUTO 14004KT BKN010 OVC060 25/22 A3004 RMK AO1=
METAR KMKT 081335Z 30004KT 10SM CLR 19/17 A3013 RMK AO1=
METAR KMML 081335Z AUTO 28009KT 10SM CLR 21/16 A3015 RMK AO1=
METAR KMNM 081335Z AUTO 35005KT 10SM OVC015 22/19 A3000 RMK AO1=
METAR KMRF 081335Z AUTO 01006KT 10SM CLR 20/16 A3021 RMK AO1=
METAR KMSV 081335Z AUTO 12003KT 10SM CLR 28/19 A3010 RMK AO1=
METAR KMTW 081335Z 24004KT 7SM BKN008 OVC014 23/21 A3001 RMK AO1=
METAR KMVN 081335Z AUTO 19005KT 10SM SCT060 29/23 A3007 RMK AO1=
METAR KOCH 081335Z AUTO 10008KT 10SM FEW011 OVC110 26/20 A3004 RMK 
    AO1=
METAR KOKK 081335Z AUTO 23005KT 5SM BKN060 OVC080 26/19 A3005 RMK 
    AO1=
METAR KOLU 081335Z AUTO 03003KT 10SM CLR 20/16 A3020 RMK AO1=
METAR KOTG 081335Z AUTO 31005KT 10SM CLR 21/16 A3017 RMK AO1=
METAR KOTH 081335Z 29003KT 10SM SCT005 10/08 A3000 RMK AO1=
METAR KPIB 081335Z AUTO 03006KT 10SM CLR 28/23 A3008 RMK AO1=
METAR KPQI 081335Z AUTO 13007KT 10SM CLR 26/21 A2999 RMK AO1=
METAR KPRX 081335Z 15007KT 7SM SCT009 BKN018 OVC050 26/23 A3006 RMK 
    AO1=
METAR KPTN 081335Z AUTO 09010KT 10SM FEW010 28/M06 A3005 RMK AO1=
METAR KPTV 081335Z AUTO 16003KT 10SM CLR 17/11 A2987 RMK AO1=
METAR KPVC 081335Z 19011G16KT 10SM FEW015 26/21 A3011 RMK AO1=
METAR KPWG 081335Z AUTO 08005KT 9SM BKN011 OVC017 26/23 A3003 RMK 
    AO1=
METAR KPWT 081335Z AUTO 04009KT 10SM CLR 22/07 A2999 RMK AO1=
METAR KRKD 081335Z AUTO 22008KT 8SM OVC003 20/19 A3013 RMK AO1=
METAR KRUT 081335Z AUTO 28003KT 7SM CLR 28/22 A3005 RMK AO1=
METAR KSDY 081335Z AUTO 00000KT 10SM BKN100 17/11 A3018 RMK AO1=
METAR KSFM 081335Z 21005KT 8SM BKN010 OVC036 24/19 A3011 RMK AO1=
####018002946####
SAUS20 KNKA 081335
METAR KAFJ 081335Z AUTO 00000KT 7SM FEW060 26/21 A3012 RMK AO1=
METAR KAIZ 081335Z AUTO 05003KT 10SM SCT013 BKN055 OVC075 23/22 
    A3008 RMK AO1 P0001=
METAR KARG 081335Z AUTO 21005KT 10SM OVC095 26/23 A3008 RMK AO1=
METAR KAUO 081335Z AUTO 02003KT 10SM CLR 30/21 A3005 RMK AO1=
METAR KAWO 081335Z AUTO 00000KT 10SM CLR 14/14 A2998 RMK AO1=
METAR KBHB 081335Z AUTO 19010KT 5SM OVC002 19/19 A3014 RMK AO1=
METAR KBID 081335Z AUTO 08006KT 10SM OVC004 23/22 A3009 RMK AO1=
METAR KBKX 081335Z AUTO 00000KT 10SM CLR 21/16 A3017 RMK AO1=
METAR KBLM 081335Z AUTO 11006KT 10SM FEW012 BKN080 BKN095 25/20 
    A3008 RMK AO1=
METAR KBTP 081335Z AUTO 00000KT 7SM CLR 26/19 A3011 RMK AO1=
METAR KBVX 081335Z AUTO 24005KT 10SM OVC110 26/23 A3009 RMK AO1=
SPECI KCEF 081329Z 18004KT 7SM OVC013 25/22 A3008 RMK AO2A SLP185 $=
METAR KCGZ 081335Z AUTO 00000KT 10SM CLR 27/01 A2983 RMK AO1=
METAR KCIU 081335Z AUTO 34007KT 10SM SCT008 OVC012 21/18 A2999 RMK 
    AO1=
METAR KCOD 081335Z 26003KT 10SM CLR 12/03 A3033 RMK AO1=
METAR KCOE 081335Z AUTO 06009KT 10SM CLR 16/09 A3011 RMK AO1=
METAR KCVN 081335Z AUTO 03014KT 10SM SCT008 18/14 A3026 RMK AO1=
METAR KCVO 081335Z AUTO 27004KT 10SM CLR 13/09 A2995 RMK AO1=
METAR KCWI 081335Z 35005KT 10SM BKN005 A3006 RMK AO1=
METAR KDVL 081335Z AUTO 33010KT 10SM CLR 18/11 A3010 RMK AO1=
METAR KDYR 081335Z AUTO 26005KT 10SM CLR 28/21 A3009 RMK AO1=
METAR KEAR 081335Z AUTO 36006KT 10SM CLR 18/15 A3025 RMK AO1=
METAR KEEN 081335Z AUTO 18007KT 10SM BKN046 BKN060 BKN070 27/22 
    A3008 RMK AO1=
METAR KEHR 081335Z AUTO 24004KT 10SM CLR 30/22 A3007 RMK AO1=
METAR KENV 081335Z 00000KT 10SM CLR 19/01 A3012 RMK AO1=
METAR KESC 081335Z AUTO 34006KT 10SM OVC006 21/17 A2999 RMK AO1=
METAR KEUL 081335Z AUTO 13003KT 10SM CLR 13/07 A3010 RMK AO1=
METAR KEWK 081335Z AUTO 01008G14KT 10SM OVC006 22/19 A3011 RMK AO1=
METAR KFAM 081335Z AUTO 19004KT 8SM OVC090 25/23 A3011 RMK AO1=
METAR KFKL 081335Z 08004KT 10SM CLR 27/19 A3014 RMK AO1=
METAR KFLP 081335Z AUTO 00000KT 10SM FEW070 BKN080 BKN110 24/22 
    A3008 RMK AO1=
METAR KFNL 081335Z AUTO 01005KT 7SM FEW005 BKN016 OVC049 15/14 A3033 
    RMK AO1=
METAR KFOD 081335Z AUTO 01006KT 10SM CLR 20/17 A3015 RMK AO1=
METAR KFRM 081335Z AUTO 10SM CLR 21/17 A3017 RMK AO1=
METAR KGAD 081335Z AUTO 36006KT 10SM CLR 27/20 A3007 RMK AO1=
METAR KGAI 081335Z 00000KT 6SM CLR 29/23 A3005 RMK AO1 
     =
METAR KGBD 081335Z AUTO 02010KT 10SM OVC008 19/18 A3018 RMK AO1=
METAR KGDV 081335Z AUTO 17003KT 10SM FEW090 16/09 A3019 RMK AO1=
METAR KGPZ 081335Z AUTO 30010KT 10SM CLR 19/14 A3007 RMK AO1=
METAR KGUC 081335Z AUTO 00000KT 10SM CLR 09/04 A3047 RMK AO1=
METAR KGXY 081335Z AUTO 05005KT 8SM FEW008 BKN016 OVC020 16/13 A3033 
    RMK AO1=
METAR KHDN 081335Z 10006KT 10SM OVC120 11/06 A3035 RMK AO1=
METAR KHEF 081335Z AUTO 00000KT 6SM CLR 29/23 A3002 RMK AO1=
####018001034####
SAUS20 KNKA 081335
METAR KSFZ 081335Z AUTO 16004KT 10SM CLR 25/20 A3010 RMK AO1=
METAR KSGT 081335Z 18004KT 10SM CLR A3008 RMK AO1=
METAR KSGU 081335Z AUTO 00000KT 10SM CLR 22/02 A3000 RMK AO1=
METAR KSKX 081335Z AUTO 35009KT 10SM CLR 14/07 A3041 RMK AO1=
METAR KSLG 081335Z AUTO 14003KT 10SM OVC015 23/21 A3009 RMK AO1=
METAR KSMN 081335Z AUTO 00000KT 10SM CLR 09/04 A3028 RMK AO1=
METAR KSQI 081335Z 29005KT 9SM FEW006 OVC017 24/22 A3006 RMK AO1=
METAR KSUE 081335Z AUTO 33007KT 8SM FEW004 SCT011 BKN018 22/21 A3001 
    RMK AO1=
METAR KTPL 081335Z 08007KT 7SM BKN007 OVC013 25/23 A3002 RMK AO1 
     =
METAR KTVF 081335Z AUTO 27009KT 10SM CLR 18/13 A3006 RMK AO1=
METAR KVBT 081335Z AUTO 00000KT 10SM OVC018 24/21 A3006 RMK AO1=
METAR KVIS 081335Z AUTO 30003KT 10SM CLR 18/11 A2984 RMK AO1=
METAR KWVL 081335Z AUTO 17004KT 5SM OVC005 22/20 A3007 RMK AO1=
METAR KWWD 081335Z AUTO 10SM SCT060 BKN070 OVC100 24/24 A3005 RMK 
    AO1=
METAR KYKN 081335Z AUTO 23004KT 10SM CLR 21/16 A3020 RMK AO1=
####018000109####
SPUS90 KWBC 081336
SPECI KGDP 081333Z AUTO 05021KT 3SM BR BKN004 BKN120 17/16 A3025
     RMK AO2 TSNO=
####018000166####
SAUS90 KWBC 081336
METAR KU78 081236Z 14008KT 20SM FEW120 12/09 A3027 RMK SLPNO
     NOSPECI=
METAR K77M 081241Z 00000KT 25SM FEW130 07/02 RMK SLPNO NOSPECI=
####018000104####
SAUS45 KPIH 081335
MTR77M

METAR K77M 081241Z 00000KT 25SM FEW130 07/02 RMK SLPNO NOSPECI


####018003720####
SAUS99 KWBC 081336
METAR
KBDN 081335Z AUTO 00000KT 10SM CLR 14/03 A3012 RMK AO2=
KCGC 081335Z AUTO 00000KT 10SM CLR 27/22 A3002 RMK=
KDYB 081335Z AUTO 31004KT 10SM CLR 28/21 A2997 RMK AO1=
KFTN 081335Z AUTO 04006KT 10SM BKN008 OVC017 25/23 A2993 RMK
     AO1=
KMNI 081335Z AUTO 33007KT 10SM CLR 31/24 A2997 RMK AO2=
KRKR 081334Z AUTO 20003KT 10SM -RA SCT046 BKN090 29/26 A3006 RMK
     AO2=
KSPA 081335Z AUTO 35005KT 10SM CLR 30/23 A3004 RMK AO2=
KSPL 081335Z AUTO 35004KT TS 28/25 A2976 RMK AO2 PWINO PNO=
KUTA 081335Z AUTO 00000KT 10SM CLR 28/22 A3009 RMK AO2=
KHEZ 081335Z AUTO 09004KT 10SM CLR 26/24 A3008 RMK AO1=
KHNB 081335Z AUTO 26004KT 10SM CLR 28/23 A3007 RMK AO1=
KHYI 081335Z AUTO 05008KT 6SM OVC009 25/24 A2997 RMK AO1=
KHYS 081335Z AUTO 02010KT 10SM OVC037 19/16 A3021 RMK AO1=
KILE 081335Z 07008KT 8SM BKN008 OVC013 25/23 A3001 RMK AO1=
KIWD 081335Z AUTO 33007KT 10SM CLR 20/16 A3003 RMK AO1=
KJHW 081335Z AUTO 00000KT 10SM CLR 26/20 A3011 RMK AO1=
KKLS 081335Z AUTO 31003KT 10SM CLR 14/13 A2995 RMK AO1=
KLBL 081335Z 36013KT 7SM OVC005 19/17 A3024 RMK AO1 P0001=
KLCI 081335Z AUTO 24005KT 4SM OVC017 26/21 A3008 RMK AO1=
KLEW 081335Z 15004KT 4SM OVC005 22/21 A3012 RMK AO1=
KLGD 081335Z AUTO 00000KT 10SM CLR 13/07 A3008 RMK AO1=
KLKV 081335Z AUTO 30006KT 10SM CLR 14/02 A3013 RMK AO1=
KLPC 081335Z AUTO 33003KT 6SM OVC008 13/11 A2994 RMK AO1 PNO=
KMBL 081335Z AUTO 27004KT 5SM OVC005 22/20 A3003 RMK AO1=
KMJX 081335Z AUTO 14004KT BKN010 OVC060 25/22 A3004 RMK AO1=
KMKT 081335Z 30004KT 10SM CLR 19/17 A3013 RMK AO1=
KMML 081335Z AUTO 28009KT 10SM CLR 21/16 A3015 RMK AO1=
KMNM 081335Z AUTO 35005KT 10SM OVC015 22/19 A3000 RMK AO1=
KMRF 081335Z AUTO 01006KT 10SM CLR 20/16 A3021 RMK AO1=
KMSV 081335Z AUTO 12003KT 10SM CLR 28/19 A3010 RMK AO1=
KMTW 081335Z 24004KT 7SM BKN008 OVC014 23/21 A3001 RMK AO1=
KMVN 081335Z AUTO 19005KT 10SM SCT060 29/23 A3007 RMK AO1=
KOCH 081335Z AUTO 10008KT 10SM FEW011 OVC110 26/20 A3004 RMK
     AO1=
KOKK 081335Z AUTO 23005KT 5SM BKN060 OVC080 26/19 A3005 RMK
     AO1=
KOLU 081335Z AUTO 03003KT 10SM CLR 20/16 A3020 RMK AO1=
KOTG 081335Z AUTO 31005KT 10SM CLR 21/16 A3017 RMK AO1=
KOTH 081335Z 29003KT 10SM SCT005 10/08 A3000 RMK AO1=
KPIB 081335Z AUTO 03006KT 10SM CLR 28/23 A3008 RMK AO1=
KPQI 081335Z AUTO 13007KT 10SM CLR 26/21 A2999 RMK AO1=
KPRX 081335Z 15007KT 7SM SCT009 BKN018 OVC050 26/23 A3006 RMK
     AO1=
KPTN 081335Z AUTO 09010KT 10SM FEW010 28/M06 A3005 RMK AO1=
KPTV 081335Z AUTO 16003KT 10SM CLR 17/11 A2987 RMK AO1=
KPVC 081335Z 19011G16KT 10SM FEW015 26/21 A3011 RMK AO1=
KPWG 081335Z AUTO 08005KT 9SM BKN011 OVC017 26/23 A3003 RMK
     AO1=
KPWT 081335Z AUTO 04009KT 10SM CLR 22/07 A2999 RMK AO1=
KRKD 081335Z AUTO 22008KT 8SM OVC003 20/19 A3013 RMK AO1=
KRUT 081335Z AUTO 28003KT 7SM CLR 28/22 A3005 RMK AO1=
KSDY 081335Z AUTO 00000KT 10SM BKN100 17/11 A3018 RMK AO1=
KSFM 081335Z 21005KT 8SM BKN010 OVC036 24/19 A3011 RMK AO1=
KAFJ 081335Z AUTO 00000KT 7SM FEW060 26/21 A3012 RMK AO1=
KAIZ 081335Z AUTO 05003KT 10SM SCT013 BKN055 OVC075 23/22 A3008
     RMK AO1 P0001=
KARG 081335Z AUTO 21005KT 10SM OVC095 26/23 A3008 RMK AO1=
KAUO 081335Z AUTO 02003KT 10SM CLR 30/21 A3005 RMK AO1=
KAWO 081335Z AUTO 00000KT 10SM CLR 14/14 A2998 RMK AO1=
KBHB 081335Z AUTO 19010KT 5SM OVC002 19/19 A3014 RMK AO1=
KBID 081335Z AUTO 08006KT 10SM OVC004 23/22 A3009 RMK AO1=
KBKX 081335Z AUTO 00000KT 10SM CLR 21/16 A3017 RMK AO1=
KBLM 081335Z AUTO 11006KT 10SM FEW012 BKN080 BKN095 25/20 A3008
     RMK AO1=
KBTP 081335Z AUTO 00000KT 7SM CLR 26/19 A3011 RMK AO1=
KBVX 081335Z AUTO 24005KT 10SM OVC110 26/23 A3009 RMK AO1=
####018000525####
SPUS99 KWBC 081336
SPECI
KMLC 081334Z AUTO VRB05KT 10SM SCT009 BKN027 OVC060 24/23 A3006
     RMK AO2=
KRKP 081334Z AUTO 11011G15KT 1 1/4SM +RA FEW012 BKN037 OVC055
     A2988 RMK AO2 RAE05B32 PRESRR P0015 FZRANO $=
KJLN 081334Z 25004KT 2 1/2SM VCTS BR BKN004 BKN017 OVC033 22/22
     A3009 RMK AO2 P0018=
KLBB 081334Z 06009KT 10SM SCT006 SCT037 OVC110 20/18 A3017 RMK
     AO2=
KLIC 081334Z AUTO 13006KT 10SM FEW004 14/14 A3035 RMK AO2=
KCEF 081329Z 18004KT 7SM OVC013 25/22 A3008 RMK AO2A SLP185 $=
####018002836####
SAUS99 KWBC 081336 RRA
METAR
KCGZ 081335Z AUTO 00000KT 10SM CLR 27/01 A2983 RMK AO1=
KCIU 081335Z AUTO 34007KT 10SM SCT008 OVC012 21/18 A2999 RMK
     AO1=
KCOD 081335Z 26003KT 10SM CLR 12/03 A3033 RMK AO1=
KCOE 081335Z AUTO 06009KT 10SM CLR 16/09 A3011 RMK AO1=
KCVN 081335Z AUTO 03014KT 10SM SCT008 18/14 A3026 RMK AO1=
KCVO 081335Z AUTO 27004KT 10SM CLR 13/09 A2995 RMK AO1=
KCWI 081335Z 35005KT 10SM BKN005 A3006 RMK AO1=
KDVL 081335Z AUTO 33010KT 10SM CLR 18/11 A3010 RMK AO1=
KDYR 081335Z AUTO 26005KT 10SM CLR 28/21 A3009 RMK AO1=
KEAR 081335Z AUTO 36006KT 10SM CLR 18/15 A3025 RMK AO1=
KEEN 081335Z AUTO 18007KT 10SM BKN046 BKN060 BKN070 27/22 A3008
     RMK AO1=
KEHR 081335Z AUTO 24004KT 10SM CLR 30/22 A3007 RMK AO1=
KENV 081335Z 00000KT 10SM CLR 19/01 A3012 RMK AO1=
KESC 081335Z AUTO 34006KT 10SM OVC006 21/17 A2999 RMK AO1=
KEUL 081335Z AUTO 13003KT 10SM CLR 13/07 A3010 RMK AO1=
KEWK 081335Z AUTO 01008G14KT 10SM OVC006 22/19 A3011 RMK AO1=
KFAM 081335Z AUTO 19004KT 8SM OVC090 25/23 A3011 RMK AO1=
KFKL 081335Z 08004KT 10SM CLR 27/19 A3014 RMK AO1=
KFLP 081335Z AUTO 00000KT 10SM FEW070 BKN080 BKN110 24/22 A3008
     RMK AO1=
KFNL 081335Z AUTO 01005KT 7SM FEW005 BKN016 OVC049 15/14 A3033 RMK
     AO1=
KFOD 081335Z AUTO 01006KT 10SM CLR 20/17 A3015 RMK AO1=
KFRM 081335Z AUTO 10SM CLR 21/17 A3017 RMK AO1=
KGAD 081335Z AUTO 36006KT 10SM CLR 27/20 A3007 RMK AO1=
KGAI 081335Z 00000KT 6SM CLR 29/23 A3005 RMK AO1=
KGBD 081335Z AUTO 02010KT 10SM OVC008 19/18 A3018 RMK AO1=
KGDV 081335Z AUTO 17003KT 10SM FEW090 16/09 A3019 RMK AO1=
KGPZ 081335Z AUTO 30010KT 10SM CLR 19/14 A3007 RMK AO1=
KGUC 081335Z AUTO 00000KT 10SM CLR 09/04 A3047 RMK AO1=
KGXY 081335Z AUTO 05005KT 8SM FEW008 BKN016 OVC020 16/13 A3033 RMK
     AO1=
KHDN 081335Z 10006KT 10SM OVC120 11/06 A3035 RMK AO1=
KHEF 081335Z AUTO 00000KT 6SM CLR 29/23 A3002 RMK AO1=
KSFZ 081335Z AUTO 16004KT 10SM CLR 25/20 A3010 RMK AO1=
KSGT 081335Z 18004KT 10SM CLR A3008 RMK AO1=
KSGU 081335Z AUTO 00000KT 10SM CLR 22/02 A3000 RMK AO1=
KSKX 081335Z AUTO 35009KT 10SM CLR 14/07 A3041 RMK AO1=
KSLG 081335Z AUTO 14003KT 10SM OVC015 23/21 A3009 RMK AO1=
KSMN 081335Z AUTO 00000KT 10SM CLR 09/04 A3028 RMK AO1=
KSQI 081335Z 29005KT 9SM FEW006 OVC017 24/22 A3006 RMK AO1=
KSUE 081335Z AUTO 33007KT 8SM FEW004 SCT011 BKN018 22/21 A3001 RMK
     AO1=
KTPL 081335Z 08007KT 7SM BKN007 OVC013 25/23 A3002 RMK AO1=
KTVF 081335Z AUTO 27009KT 10SM CLR 18/13 A3006 RMK AO1=
KVBT 081335Z AUTO 00000KT 10SM OVC018 24/21 A3006 RMK AO1=
KVIS 081335Z AUTO 30003KT 10SM CLR 18/11 A2984 RMK AO1=
KWVL 081335Z AUTO 17004KT 5SM OVC005 22/20 A3007 RMK AO1=
KWWD 081335Z AUTO 10SM SCT060 BKN070 OVC100 24/24 A3005 RMK
     AO1=
KYKN 081335Z AUTO 23004KT 10SM CLR 21/16 A3020 RMK AO1=
####018000161####
SANM40 FYWW 081330
METAR FYWB 081330Z 03013KT 9999 R09/M0050VP1500D VV/// 34/03 Q1014 =
METAR FYWB 081330Z 03013KT 9999 R09/M0050VP1500D VV/// 34/03 Q1014 =
####018000388####
SARO32 LROM 081330
METAR LRAR 081330Z 35008KT 330V070 9999 BKN045 24/13 Q1020=
METAR LRBM 081330Z 27006KT 230V320 9999 FEW043 BKN049 23/14 Q1019=
METAR LRCL 081330Z 29006KT 9999 SCT045 19/13 Q1020 0821//95=
METAR LROD 081330Z 36010KT 330V040 CAVOK 23/12 Q1020=
METAR LRSM 081330Z 34006KT 290V010 9999 BKN043 22/13 Q1020=
METAR LRTM 081330Z 25006KT 9999 FEW030 BKN036 18/15 Q1020=
####018000326####
SARO33 LROM 081330
METAR LRBC 081330Z 35016KT 9999 FEW022 BKN040 22/17 Q1017=
METAR LRCV 081330Z VRB04KT 9999 FEW039 SCT045 24/15 Q1017=
METAR LRIA 081330Z 31010G23KT 280V350 9999 SCT021 SCT026 22/17
Q1017=
METAR LRSV 081330Z 32017KT 9999 SCT012 BKN048 17/14 Q1019=
METAR LRTC 081330Z 36012KT 9999 BKN040 24/17 Q1014=
####018000095####
SANO32 ENMI 081320 CCA
METAR COR ENTC 081320Z 01010KT 9999 FEW065 SCT082 18/09 Q1010 NOSIG=
####018000096####
SAAF31 KWBC 081300 RRF
METAR
DNMM 081330Z 25013KT 9999 BKN012 FEW020CB 29/26 Q1014 NOSIG=
####018000097####
SAAF34 KWBC 081300 RRB
METAR
FYWB 081330Z 03013KT 9999 R09/M0050VP1500D VV/// 34/03 Q1014=
####018000381####
SAUS80 KWBC 081336
METAR
KCBE 081332Z AUTO 00000KT 7SM CLR 27/20 A3010 RMK AO1=
KSOW 081330Z AUTO 18004KT 10SM BKN120 19/04 A3027 RMK AO2=
KDVL 081335Z AUTO 33010KT 10SM CLR 18/11 A3010 RMK AO1=
KEAR 081335Z AUTO 36006KT 10SM CLR 18/15 A3025 RMK AO1=
KGPZ 081335Z AUTO 30010KT 10SM CLR 19/14 A3007 RMK AO1=
K77M 081241Z 00000KT 25SM FEW130 07/02 RMK SLPNO NOSPECI=
####018000094####
SPXX60 KWBC 081336
SPECI
KCEF 081329Z 18004KT 7SM OVC013 25/22 A3008 RMK AO2A SLP185 $=
####018003707####
SAUS70 KWBC 081336
METAR
K2G4 081330Z AUTO 00000KT 7SM CLR 25/14 A3020 RMK AO1=
K2W6 081332Z AUTO 11006KT 10SM BKN016 27/23 A3003 RMK AO1=
KPMV 081330Z AUTO 34003KT 10SM CLR 22/20 A3016 RMK AO2
     T02170197=
KCGS 081335Z AUTO 00000KT 7SM CLR 30/23 A3002 RMK AO1=
KFDK 081332Z AUTO 00000KT 7SM CLR 33/22 A3005 RMK AO2=
KHDE 081330Z AUTO 01005KT 10SM SCT095 18/15 A3023 RMK AO2
     T01800154=
KHJH 081330Z AUTO 34004KT 10SM OVC033 20/18 A3018 RMK AO2
     T02000177=
KIBM 081330Z AUTO 00000KT 10SM BKN035 BKN065 OVC080 13/11 A3033
     RMK AO2 T01320112=
KJYR 081330Z AUTO 01006KT 10SM CLR 19/17 A3019 RMK AO2=
KLCG 081330Z AUTO 33003KT 10SM CLR 19/17 A3019 RMK AO2
     T01890168=
KLHM 081331Z AUTO 13005KT 10SM CLR 15/11 A2984 RMK AO1
     T01520111=
KLXN 081330Z AUTO 00000KT 10SM SCT065 SCT100 19/17 A3025 RMK AO2
     T01860166=
KMLE 081330Z AUTO 01004KT 10SM SCT023 21/17 A3016 RMK AO2
     T02090166=
KMMH 081330Z AUTO 00000KT 10SM CLR 07/01 A3023 RMK AO1=
KOGA 081330Z AUTO 00000KT 10SM SCT080 OVC110 17/15 A3029 RMK AO2
     T01690153=
KONL 081330Z AUTO 00000KT 10SM CLR 19/16 A3024 RMK AO2
     T01910158=
KPNA 081330Z AUTO 30007KT 10SM SCT100 09/02 A3041 RMK AO2
     T00860017=
KPTT 081330Z AUTO 01010KT 4SM -RA OVC006 20/19 A3017 RMK AO2=
KSZT 081330Z AUTO 00000KT 10SM CLR 12/10 A3012 RMK AO2=
KTIF 081330Z AUTO 30003KT 10SM BKN120 19/15 A3028 RMK AO2
     T01850153=
KTRK 081330Z AUTO 00000KT 10SM CLR 07/06 A3017 RMK AO2=
KW29 081332Z AUTO 12005KT 5SM SCT012 27/23 A3002 RMK AO1=
KU78 081236Z 14008KT 20SM FEW120 12/09 A3027 RMK SLPNO NOSPECI=
KBDN 081335Z AUTO 00000KT 10SM CLR 14/03 A3012 RMK AO2=
KCGC 081335Z AUTO 00000KT 10SM CLR 27/22 A3002 RMK=
KDYB 081335Z AUTO 31004KT 10SM CLR 28/21 A2997 RMK AO1=
KFTN 081335Z AUTO 04006KT 10SM BKN008 OVC017 25/23 A2993 RMK
     AO1=
KMNI 081335Z AUTO 33007KT 10SM CLR 31/24 A2997 RMK AO2=
KRKR 081334Z AUTO 20003KT 10SM -RA SCT046 BKN090 29/26 A3006 RMK
     AO2=
KSPA 081335Z AUTO 35005KT 10SM CLR 30/23 A3004 RMK AO2=
KSPL 081335Z AUTO 35004KT TS 28/25 A2976 RMK AO2 PWINO PNO=
KUTA 081335Z AUTO 00000KT 10SM CLR 28/22 A3009 RMK AO2=
KHEZ 081335Z AUTO 09004KT 10SM CLR 26/24 A3008 RMK AO1=
KHNB 081335Z AUTO 26004KT 10SM CLR 28/23 A3007 RMK AO1=
KHYI 081335Z AUTO 05008KT 6SM OVC009 25/24 A2997 RMK AO1=
KHYS 081335Z AUTO 02010KT 10SM OVC037 19/16 A3021 RMK AO1=
KILE 081335Z 07008KT 8SM BKN008 OVC013 25/23 A3001 RMK AO1=
KIWD 081335Z AUTO 33007KT 10SM CLR 20/16 A3003 RMK AO1=
KJHW 081335Z AUTO 00000KT 10SM CLR 26/20 A3011 RMK AO1=
KKLS 081335Z AUTO 31003KT 10SM CLR 14/13 A2995 RMK AO1=
KLBL 081335Z 36013KT 7SM OVC005 19/17 A3024 RMK AO1 P0001=
KLCI 081335Z AUTO 24005KT 4SM OVC017 26/21 A3008 RMK AO1=
KLEW 081335Z 15004KT 4SM OVC005 22/21 A3012 RMK AO1=
KLGD 081335Z AUTO 00000KT 10SM CLR 13/07 A3008 RMK AO1=
KLKV 081335Z AUTO 30006KT 10SM CLR 14/02 A3013 RMK AO1=
KLPC 081335Z AUTO 33003KT 6SM OVC008 13/11 A2994 RMK AO1 PNO=
KMBL 081335Z AUTO 27004KT 5SM OVC005 22/20 A3003 RMK AO1=
KMJX 081335Z AUTO 14004KT BKN010 OVC060 25/22 A3004 RMK AO1=
KMKT 081335Z 30004KT 10SM CLR 19/17 A3013 RMK AO1=
KMML 081335Z AUTO 28009KT 10SM CLR 21/16 A3015 RMK AO1=
KMNM 081335Z AUTO 35005KT 10SM OVC015 22/19 A3000 RMK AO1=
KMRF 081335Z AUTO 01006KT 10SM CLR 20/16 A3021 RMK AO1=
KMSV 081335Z AUTO 12003KT 10SM CLR 28/19 A3010 RMK AO1=
KMTW 081335Z 24004KT 7SM BKN008 OVC014 23/21 A3001 RMK AO1=
KMVN 081335Z AUTO 19005KT 10SM SCT060 29/23 A3007 RMK AO1=
KOCH 081335Z AUTO 10008KT 10SM FEW011 OVC110 26/20 A3004 RMK
     AO1=
KOKK 081335Z AUTO 23005KT 5SM BKN060 OVC080 26/19 A3005 RMK
     AO1=
####018000646####
SPUS70 KWBC 081336
SPECI
KBOK 081334Z AUTO 00000KT 3/4SM BR OVC002 09/09 A2998 RMK AO2
     $=
KRWL 081333Z AUTO 06008KT 10SM FEW009 11/07 A3040 RMK AO2=
KS58 081330Z 09017KT 15SM BKN015 29/25 A3000 RMK ST28 SEAS 4-6=
KSNY 081333Z AUTO 03005KT 9SM FEW001 SCT042 BKN095 17/15 A3033 RMK
     AO2=
KUIN 081333Z AUTO 31003KT 10SM FEW006 SCT110 23/22 A3007 RMK
     AO2=
KUUU 081333Z AUTO 12006KT 10SM BKN005 23/21 A3010 RMK AO2=
KMLC 081334Z AUTO VRB05KT 10SM SCT009 BKN027 OVC060 24/23 A3006
     RMK AO2=
KRKP 081334Z AUTO 11011G15KT 1 1/4SM +RA FEW012 BKN037 OVC055
     A2988 RMK AO2 RAE05B32 PRESRR P0015 FZRANO $=
####018000607####
SAUS70 KWBC 081336 RRB
METAR
KSQI 081335Z 29005KT 9SM FEW006 OVC017 24/22 A3006 RMK AO1=
KSUE 081335Z AUTO 33007KT 8SM FEW004 SCT011 BKN018 22/21 A3001 RMK
     AO1=
KTPL 081335Z 08007KT 7SM BKN007 OVC013 25/23 A3002 RMK AO1=
KTVF 081335Z AUTO 27009KT 10SM CLR 18/13 A3006 RMK AO1=
KVBT 081335Z AUTO 00000KT 10SM OVC018 24/21 A3006 RMK AO1=
KVIS 081335Z AUTO 30003KT 10SM CLR 18/11 A2984 RMK AO1=
KWVL 081335Z AUTO 17004KT 5SM OVC005 22/20 A3007 RMK AO1=
KWWD 081335Z AUTO 10SM SCT060 BKN070 OVC100 24/24 A3005 RMK
     AO1=
KYKN 081335Z AUTO 23004KT 10SM CLR 21/16 A3020 RMK AO1=
####018000481####
SPUS80 KWBC 081336
SPECI
KPIA 081333Z 30003KT 10SM FEW003 SCT009 OVC014 23/22 A3006 RMK
     AO2=
KNUI 081333Z AUTO 09006KT 10SM SCT015 28/23 A3001 RMK AO2=
KGDP 081333Z AUTO 05021KT 3SM BR BKN004 BKN120 17/16 A3025 RMK AO2
     TSNO=
KJLN 081334Z 25004KT 2 1/2SM VCTS BR BKN004 BKN017 OVC033 22/22
     A3009 RMK AO2 P0018=
KLBB 081334Z 06009KT 10SM SCT006 SCT037 OVC110 20/18 A3017 RMK
     AO2=
KLIC 081334Z AUTO 13006KT 10SM FEW004 14/14 A3035 RMK AO2=
####018003707####
SAUS70 KWBC 081336 RRA
METAR
KOLU 081335Z AUTO 03003KT 10SM CLR 20/16 A3020 RMK AO1=
KOTG 081335Z AUTO 31005KT 10SM CLR 21/16 A3017 RMK AO1=
KOTH 081335Z 29003KT 10SM SCT005 10/08 A3000 RMK AO1=
KPIB 081335Z AUTO 03006KT 10SM CLR 28/23 A3008 RMK AO1=
KPQI 081335Z AUTO 13007KT 10SM CLR 26/21 A2999 RMK AO1=
KPRX 081335Z 15007KT 7SM SCT009 BKN018 OVC050 26/23 A3006 RMK
     AO1=
KPTN 081335Z AUTO 09010KT 10SM FEW010 28/M06 A3005 RMK AO1=
KPTV 081335Z AUTO 16003KT 10SM CLR 17/11 A2987 RMK AO1=
KPVC 081335Z 19011G16KT 10SM FEW015 26/21 A3011 RMK AO1=
KPWG 081335Z AUTO 08005KT 9SM BKN011 OVC017 26/23 A3003 RMK
     AO1=
KPWT 081335Z AUTO 04009KT 10SM CLR 22/07 A2999 RMK AO1=
KRKD 081335Z AUTO 22008KT 8SM OVC003 20/19 A3013 RMK AO1=
KRUT 081335Z AUTO 28003KT 7SM CLR 28/22 A3005 RMK AO1=
KSDY 081335Z AUTO 00000KT 10SM BKN100 17/11 A3018 RMK AO1=
KSFM 081335Z 21005KT 8SM BKN010 OVC036 24/19 A3011 RMK AO1=
KAFJ 081335Z AUTO 00000KT 7SM FEW060 26/21 A3012 RMK AO1=
KAIZ 081335Z AUTO 05003KT 10SM SCT013 BKN055 OVC075 23/22 A3008
     RMK AO1 P0001=
KARG 081335Z AUTO 21005KT 10SM OVC095 26/23 A3008 RMK AO1=
KAUO 081335Z AUTO 02003KT 10SM CLR 30/21 A3005 RMK AO1=
KAWO 081335Z AUTO 00000KT 10SM CLR 14/14 A2998 RMK AO1=
KBHB 081335Z AUTO 19010KT 5SM OVC002 19/19 A3014 RMK AO1=
KBID 081335Z AUTO 08006KT 10SM OVC004 23/22 A3009 RMK AO1=
KBKX 081335Z AUTO 00000KT 10SM CLR 21/16 A3017 RMK AO1=
KBLM 081335Z AUTO 11006KT 10SM FEW012 BKN080 BKN095 25/20 A3008
     RMK AO1=
KBTP 081335Z AUTO 00000KT 7SM CLR 26/19 A3011 RMK AO1=
KBVX 081335Z AUTO 24005KT 10SM OVC110 26/23 A3009 RMK AO1=
KCGZ 081335Z AUTO 00000KT 10SM CLR 27/01 A2983 RMK AO1=
KCIU 081335Z AUTO 34007KT 10SM SCT008 OVC012 21/18 A2999 RMK
     AO1=
KCOD 081335Z 26003KT 10SM CLR 12/03 A3033 RMK AO1=
KCOE 081335Z AUTO 06009KT 10SM CLR 16/09 A3011 RMK AO1=
KCVN 081335Z AUTO 03014KT 10SM SCT008 18/14 A3026 RMK AO1=
KCVO 081335Z AUTO 27004KT 10SM CLR 13/09 A2995 RMK AO1=
KCWI 081335Z 35005KT 10SM BKN005 A3006 RMK AO1=
KDYR 081335Z AUTO 26005KT 10SM CLR 28/21 A3009 RMK AO1=
KEEN 081335Z AUTO 18007KT 10SM BKN046 BKN060 BKN070 27/22 A3008
     RMK AO1=
KEHR 081335Z AUTO 24004KT 10SM CLR 30/22 A3007 RMK AO1=
KENV 081335Z 00000KT 10SM CLR 19/01 A3012 RMK AO1=
KESC 081335Z AUTO 34006KT 10SM OVC006 21/17 A2999 RMK AO1=
KEUL 081335Z AUTO 13003KT 10SM CLR 13/07 A3010 RMK AO1=
KEWK 081335Z AUTO 01008G14KT 10SM OVC006 22/19 A3011 RMK AO1=
KFAM 081335Z AUTO 19004KT 8SM OVC090 25/23 A3011 RMK AO1=
KFKL 081335Z 08004KT 10SM CLR 27/19 A3014 RMK AO1=
KFLP 081335Z AUTO 00000KT 10SM FEW070 BKN080 BKN110 24/22 A3008
     RMK AO1=
KFNL 081335Z AUTO 01005KT 7SM FEW005 BKN016 OVC049 15/14 A3033 RMK
     AO1=
KFOD 081335Z AUTO 01006KT 10SM CLR 20/17 A3015 RMK AO1=
KFRM 081335Z AUTO 10SM CLR 21/17 A3017 RMK AO1=
KGAD 081335Z AUTO 36006KT 10SM CLR 27/20 A3007 RMK AO1=
KGAI 081335Z 00000KT 6SM CLR 29/23 A3005 RMK AO1=
KGBD 081335Z AUTO 02010KT 10SM OVC008 19/18 A3018 RMK AO1=
KGDV 081335Z AUTO 17003KT 10SM FEW090 16/09 A3019 RMK AO1=
KGUC 081335Z AUTO 00000KT 10SM CLR 09/04 A3047 RMK AO1=
KGXY 081335Z AUTO 05005KT 8SM FEW008 BKN016 OVC020 16/13 A3033 RMK
     AO1=
KHDN 081335Z 10006KT 10SM OVC120 11/06 A3035 RMK AO1=
KHEF 081335Z AUTO 00000KT 6SM CLR 29/23 A3002 RMK AO1=
KSFZ 081335Z AUTO 16004KT 10SM CLR 25/20 A3010 RMK AO1=
KSGT 081335Z 18004KT 10SM CLR A3008 RMK AO1=
KSGU 081335Z AUTO 00000KT 10SM CLR 22/02 A3000 RMK AO1=
KSKX 081335Z AUTO 35009KT 10SM CLR 14/07 A3041 RMK AO1=
KSLG 081335Z AUTO 14003KT 10SM OVC015 23/21 A3009 RMK AO1=
KSMN 081335Z AUTO 00000KT 10SM CLR 09/04 A3028 RMK AO1=
####018000789####
SAAO31 KWBC 081330
METAR
GCFV 081330Z 05016KT 9999 FEW020 23/19 Q1017=
GCHI NIL=
GCLA 081330Z 01013KT 340V050 9999 FEW020 26/18 Q1019=
GCLP 081330Z 02026KT 9999 FEW020 25/17 Q1017 NOSIG=
GCRR 081330Z 36018KT 9999 FEW020 26/18 Q1017=
GCTS 081330Z 11017KT 080V140 CAVOK 25/17 Q1017 NOSIG=
GCXO 081330Z 29011KT 260V320 9999 FEW005 23/17 Q1020 NOSIG=
GEML 081330Z 09008KT 050V130 CAVOK 27/21 Q1016=
GMAA NIL=
GMAT NIL=
GMFF 081330Z NIL=
GMFO NIL=
GMME 081330Z 34008KT 310V050 6000 SCT010 BKN016 26/19 Q1016
     NOSIG=
GMMN 081330Z 01009KT 340V040 CAVOK 29/19 Q1016 NOSIG=
GMMX 081330Z 34006KT 290V030 8000 FEW026 37/15 Q1016 NOSIG=
GMOY NIL=
GMTA NIL=
GMTN NIL=
GMTT 081330Z 28008KT 250V310 8000 FEW016 SCT100 27/19 Q1016
     NOSIG=
GSAI NIL=
####018000028####
SAAS31 KWBC 081330
NIL=
####018000213####
SAAS32 KWBC 081330
METAR
RKPC NIL=
RKPK NIL=
RKSS NIL=
VHHH 081330Z 19005KT 080V230 9999 FEW020 31/25 Q1008 NOSIG=
VMMC 081330Z 19010KT 180V260 9999 FEW020 29/27 Q1007 NOSIG=
ZJSY NIL=
ZKPY NIL=
####018000390####
SAAS33 KWBC 081330
METAR
VBRR NIL=
VDPP NIL=
VDSR NIL=
VLVT NIL=
VTBA NIL=
VTBD NIL=
VTBU NIL=
VTCC NIL=
VTSP NIL=
VTSS NIL=
VVDN NIL=
VVGL NIL=
VVNB NIL=
VVTS NIL=
WBGG NIL=
WBKK NIL=
WMAM NIL=
WMKJ NIL=
WMKK NIL=
WMKP NIL=
WMSA NIL=
WPDL NIL=
WPEC NIL=
WSAP NIL=
WSSL NIL=
WSSS 081330Z 22003KT 9999 FEW016 SCT280 28/24 Q1010 NOSIG=
####018000100####
SAKY31 RUMS 081330
METAR UAFM 081330Z 24005MPS CAVOK 31/07 Q1012 NOSIG=
METAR UAFO 081330Z NIL=
####018000351####
SAPO31 LPMG 081330
METAR LPFR 081330Z 24010KT 210V270 CAVOK 25/20 Q1016=
METAR LPMA 081330Z VRB05G16KT 9999 FEW016 25/17 Q1020 RS18007KT
0521006KT 2301014KT=
METAR LPPR 081330Z 00000KT 7000 SCT006 23/18 Q1016=
METAR LPPS 081330Z 02011KT 340V060 9999 FEW016 SCT030 22/15 Q1021=
METAR LPPT 081330Z 28007KT 220V320 9999 FEW030 28/19 Q1016 NOSIG=
####018000028####
SAAW32 KWBC 081330
NIL=
####018000028####
SAAW31 KWBC 081330
NIL=
####018000028####
SAAW33 KWBC 081330
NIL=
####018000122####
SAUS44 KSJT 081335
MTRJCT
SPECI KJCT 081334Z AUTO 03003KT 9SM BKN008 OVC022 24/22 A3004 RMK 
AO2 CIG 005V011 TSNO
####018000684####
SAEE31 KWBC 081330
METAR
EPGD 081330Z 07009KT 050V110 9999 FEW040 24/13 Q1021=
EPKK 081330Z 33006KT 280V030 CAVOK 24/06 Q1022=
EPKT 081330Z 34006KT CAVOK 23/07 Q1022=
EPPO 081330Z 32004KT 230V020 CAVOK 26/07 Q1021=
EPQT NIL=
EPRZ 081330Z 33008KT 280V010 9999 FEW046 23/09 Q1021=
EPSC 081330Z 00000KT CAVOK 25/11 Q1021=
EPWA 081330Z 28011KT 250V310 CAVOK 24/12 Q1020 NOSIG=
EYSA NIL=
UKBB 081330Z 31003MPS 270V340 9999 BKN040 26/17 Q1014 88CLRD95
     NOSIG=
UKKK NIL=
UKLL 081330Z 29003MPS 220V350 9999 SCT034 BKN100 21/12 Q1021
     31210365 NOSIG=
UKOO 081330Z 34005MPS 300V020 CAVOK 27/14 Q1014 34090070 NOSIG=
UMII NIL=
UMMM NIL=
UMMS NIL=
####018000810####
SAEE32 KWBC 081330
METAR
LBBG 081330Z 23005MPS 180V290 9000 RA BKN025 BKN041 17/16 Q1015
     NOSIG=
LBBG 081330Z 23005MPS 180V290 9000 RA SCT024 OVC040 17/16 Q1015
     NOSIG=
LBPD 081330Z 26005MPS 9999 -RA OVC035 17/14 Q1017 NOSIG=
LBSF 081330Z 28006MPS 9999 BKN040 18/11 Q1018 NOSIG=
LBWN 081330Z 29007MPS 280V340 9999 FEW030 SCT045 22/16 Q1013
     NOSIG=
LHBP 081330Z 30008KT CAVOK 24/11 Q1021 NOSIG=
LHTA NIL=
LRAR NIL=
LRBS 081330Z 28004KT 250V310 9999 FEW030 22/15 Q1016 TEMPO 5000
     RA=
LRCK 081330Z 01010KT 320V050 9999 SCT038 26/16 Q1014 BECMG
     FEW035CB BKN040=
LROP 081330Z 26004KT 220V280 9999 SCT040CB 21/15 Q1016 880///95
     NOSIG=
LRTC NIL=
LRTM NIL=
LRTR 081330Z 34010KT 310V040 9999 SCT045 25/13 Q1020=
LUCC NIL=
LUKK NIL=
LURN NIL=
####018001719####
SAEM31 KWBC 081330
METAR
KQLA NIL=
KQLH NIL=
KQLX NIL=
LATI 081330Z 01016G26KT 340V050 9999 FEW060 27/13 Q1016 NOSIG=
LDDU 081330Z 27015KT 230V300 9999 FEW045 26/12 Q1018 NOSIG=
LDDV NIL=
LDKT NIL=
LDOS 081330Z VRB05KT 9999 FEW033 25/08 Q1021=
LDPL 081330Z 26009KT 220V300 9999 FEW058 26/11 Q1021 NOSIG=
LDRI 081330Z 28005KT 210V330 9999 FEW047 27/10 Q1021 NOSIG=
LDSP 081330Z 23009KT 190V270 CAVOK 29/08 Q1019 NOSIG=
LDZA 081330Z VRB02KT CAVOK 26/11 Q1021 NOSIG=
LDZD 081330Z 31014KT 270V360 CAVOK 28/07 Q1020=
LJLJ NIL=
LJMB 081330Z 18006KT 9999 FEW040 26/09 Q1022=
LJPZ 081330Z 30008KT CAVOK 26/11 Q1021=
LKIB NIL=
LKMT 081330Z 05006KT 330V100 CAVOK 22/11 Q1022 NOSIG=
LKPR 081330Z VRB04KT CAVOK 25/09 Q1022 NOSIG=
LKTB 081330Z VRB02KT CAVOK 25/07 Q1022 NOSIG=
LKTT NIL=
LOAV NIL=
LOIH NIL=
LOIJ NIL=
LOLW NIL=
LOWG NIL=
LOWH NIL=
LOWI NIL=
LOWK NIL=
LOWL NIL=
LOWS NIL=
LOWW NIL=
LOWZ NIL=
LQSA 081330Z 29006KT 220V350 9999 SCT600 23/12 Q1023 NOSIG=
LWOH 081330Z 34007KT 9999 FEW040 BKN050 19/09 Q1019=
LWSK 081330Z 01014KT 9999 BKN040 19/11 Q1020 NOSIG=
LYBE 081330Z 34011KT CAVOK 24/12 Q1021 NOSIG=
LYDU NIL=
LYLJ NIL=
LYMB NIL=
LYNI 081330Z 31010KT 9999 FEW020 BKN026 18/13 Q1021 NOSIG=
LYOH NIL=
LYOS NIL=
LYPG 081330Z 02018KT 330V060 9999 SCT040 28/09 Q1017 NOSIG=
LYPL NIL=
LYPR 081330Z NIL=
LYPZ NIL=
LYRI NIL=
LYSA NIL=
LYSK NIL=
LYSP NIL=
LYTI NIL=
LYTV 081330Z 04003G13KT 9999 FEW053 30/10 Q1017 NOSIG=
LYZA NIL=
LYZD NIL=
LZIB 081330Z 34011KT 300V010 CAVOK 25/08 Q1021=
LZKZ 081330Z 02008KT 350V070 CAVOK 24/07 Q1020 NOSIG=
LZTT 081330Z 07011KT 040V110 9999 FEW053 21/07 Q1022 NOSIG=
####018000300####
SAEW31 KWBC 081330
METAR
LPAZ NIL=
LPFR 081330Z 24010KT 210V270 CAVOK 25/20 Q1016=
LPFU NIL=
LPPD NIL=
LPPR 081330Z 00000KT 7000 SCT006 23/18 Q1016=
LPPS 081330Z 02011KT 340V060 9999 FEW016 SCT030 22/15 Q1021=
LPPT 081330Z 28007KT 220V320 9999 FEW030 28/19 Q1016 NOSIG=
LXGB NIL=
####018000094####
SAEN31 KWBC 081320 CCA
METAR
ENTC 081320Z 01010KT 9999 FEW065 SCT082 18/09 Q1010 NOSIG=
####018000681####
SAFR31 KWBC 081330
METAR
LFAC NIL=
LFAT NIL=
LFBD 081330Z NIL=
LFBH 081330Z AUTO 30011KT 1900NDV BR NSC 31/14 Q1017=
LFBI 081330Z NIL=
LFBO 081330Z 11011KT 070V140 CAVOK 35/11 Q1017 NOSIG=
LFBP 081330Z NIL=
LFBT 081330Z NIL=
LFBZ 081330Z NIL=
LFGJ 081330Z AUTO 21006KT 140V280 9999NDV NSC 31/12 Q1020=
LFKB 081330Z 10005KT 060V140 9999 FEW026 29/21 Q1019 NOSIG=
LFKC 081330Z NIL=
LFKJ 081330Z 19010KT 9999 FEW030 FEW046TCU 31/23 Q1019 NOSIG=
LFLB 081330Z NIL=
LFLC 081330Z NIL=
LFLL 081330Z 21006KT 160V260 CAVOK 33/13 Q1019 NOSIG=
LFLS 081330Z NIL=
LFLY 081330Z NIL=
LFMD 081330Z AUTO 16005KT 110V210 9999NDV NSC 30/21 Q1020=
LFMH NIL=
####018001159####
SAFR32 KWBC 081330
METAR
LFML 081330Z 21010KT CAVOK 33/18 Q1019 NOSIG=
LFMN 081330Z 12005KT 9999 FEW016 29/23 Q1020 NOSIG=
LFMP 081330Z NIL=
LFMT 081330Z NIL=
LFOB 081330Z NIL=
LFOH 081330Z AUTO 35011KT 9999NDV NSC 22/15 Q1019=
LFOT 081330Z AUTO VRB04KT 9999NDV NSC 33/08 Q1018=
LFPB 081330Z VRB05KT CAVOK 32/09 Q1018 NOSIG=
LFPG 081330Z VRB05KT CAVOK 31/08 Q1018 NOSIG=
LFPN NIL=
LFPO 081330Z VRB03KT CAVOK 32/10 Q1018 NOSIG=
LFQQ 081330Z 18008KT 140V260 CAVOK 31/11 Q1018 NOSIG=
LFRB 081330Z NIL=
LFRC 081330Z AUTO 01007KT 310V030 9999NDV FEW018 21/16 Q1020=
LFRD 081330Z AUTO 34008KT 310V030 9999NDV NSC 23/15 Q1019=
LFRG NIL=
LFRK NIL=
LFRN 081330Z AUTO VRB05KT 9999NDV NSC 31/12 Q1017=
LFRO 081330Z AUTO 36007KT 320V050 9999NDV NSC 21/16 Q1019=
LFRQ NIL=
LFRS 081330Z NIL=
LFRT NIL=
LFRZ 081330Z AUTO 23009KT 190V260 9999NDV NSC 32/07 Q1018=
LFSB 081330Z 27003KT 190V340 CAVOK 32/11 Q1020 NOSIG=
LFSF 081330Z AUTO VRB06KT 9999NDV NSC 32/09 Q1019=
LFSN 081330Z NIL=
LFSR 081330Z AUTO 02006KT 330V060 9999NDV NSC 33/11 Q1018=
LFST 081330Z VRB03KT CAVOK 31/10 Q1019 NOSIG=
LFTW NIL=
LFVP NIL=
####018000076####
SPUS41 KWBC 081336
SPECI
KCEF 081329Z 18004KT 7SM OVC013 25/22 A3008=
####018000914####
SAFR41 KWBC 081330
METAR
LFAF NIL=
LFBA NIL=
LFBC 081330Z AUTO 07008KT 030V110 9999NDV NSC 38/12 Q1014=
LFBL 081330Z NIL=
LFBM 081330Z AUTO 13009KT 090V160 0600NDV R27///// FG NSC 36/17
     Q1015=
LFKF 081330Z NIL=
LFLD NIL=
LFLV NIL=
LFOE 081330Z 20006KT 140V240 CAVOK 32/08 Q1018=
LFOP 081330Z NIL=
LFPB 081330Z VRB05KT CAVOK 32/09 Q1018 NOSIG=
LFPG 081330Z VRB05KT CAVOK 31/08 Q1018 NOSIG=
LFPV 081330Z AUTO 23005KT 140V270 9999NDV NSC 30/09 Q1019=
LFQB NIL=
LFQQ 081330Z 18008KT 140V260 CAVOK 31/11 Q1018 NOSIG=
LFRH NIL=
LFRM NIL=
LFSC NIL=
LFSD 081330Z AUTO 17006KT 120V210 9999NDV NSC 31/11 Q1020=
LFSI 081330Z AUTO 11005KT 090V160 9999NDV NSC 33/08 Q1019=
LFSL 081330Z AUTO 12007KT 090V180 9999NDV NSC 32/11 Q1019=
LFSO 081330Z AUTO 26005KT 210V300 9999NDV NSC 32/12 Q1020=
LFSX 081330Z AUTO 11004KT 050V200 9999NDV NSC 31/11 Q1020=
LFTH 081330Z NIL=
####018000028####
SAHA31 KWBC 081330
NIL=
####018000381####
SAIE31 KWBC 081330
METAR
EICK 081330Z 20009KT 9000 -RA BKN006 BKN012 BKN020 13/13 Q1016
     TEMPO 2000=
EIDB NIL=
EIDW 081330Z 23012KT 210V270 9999 FEW022 SCT040 BKN100 17/10 Q1015
     NOSIG=
EIKN 081330Z 22006KT 180V270 9999 FEW012 FEW018CB SCT028 BKN038
     13/12 Q1013 NOSIG=
EINN 081330Z 23010KT 9999 -RADZ FEW016 SCT035 BKN050 15/13 Q1015
     NOSIG=
####018000109####
SAIO31 KWBC 081300 RRE
METAR
FMMI 081330Z 14008KT 110V170 9999 SCT020 BKN023 16/13 Q1025
     NOSIG=
####018000028####
SAIQ31 KWBC 081330
NIL=
####018000028####
SAIQ32 KWBC 081330
NIL=
####018000028####
SAJP31 KWBC 081330
NIL=
####018000028####
SAJP41 KWBC 081330
NIL=
####018000028####
SAJP43 KWBC 081330
NIL=
####018000028####
SAJP42 KWBC 081330
NIL=
####018000028####
SAJP44 KWBC 081330
NIL=
####018000028####
SAJP45 KWBC 081330
NIL=
####018000082####
SAUS41 KWBC 081300 RRG
METAR
KFDK 081332Z AUTO 00000KT 7SM CLR 33/22 A3005=
####018000195####
SAMM31 KWBC 081330
METAR
LCEN NIL=
LCLK 081330Z 20016KT 9999 FEW030 30/23 Q1007 NOSIG=
LCNC 081330Z NIL=
LCPH 081330Z 25007KT 220V290 9999 FEW030 29/23 Q1008=
LCRA NIL=
LMML NIL=
####018000094####
SAKO31 KWBC 081300 RRA
METAR
RKSI 081330Z 29005KT 8000 FEW030 OVC110 22/19 Q1009 NOSIG=
####018000088####
SANT31 KWBC 081300 RRB
METAR
BIKF 081330Z 03023KT 9999 SCT018 BKN100 12/06 Q0995=
####018001606####
SPZZ40 KAWN 081335 RRF
SPECI CYSJ 081333Z 21009G15KT 3/4SM R23/P6000FT/U BR OVC002 17/ RMK
      SF8=
SPECI KCEF 081329Z 18004KT 7SM OVC013 25/22 A3008 RMK AO2A SLP185 $=
SPECI KHLR 081330Z AUTO 06005KT 9SM FEW009 BKN013 OVC034 26/ A3002
      RMK AO2 RAE04 P0000 T0261 $=
SPECI KLTS 081328Z AUTO 35003KT 9SM R35L/5500VP6000FT RA SCT005 23/22
      A3009 RMK AO2 RAB1322DZB1313E1322 SLP173 $=
SPECI KLTS 081332Z AUTO 34004KT 9SM R35L/5500FT RA BKN005 23/23 A3009
      RMK AO2 RAB1322DZB1313E1322 SLP173 $=
SPECI KNQI 081330Z 02007KT 10SM SCT016CB BKN120 BKN280 28/24 A2984
      RMK AO2 CB DSNT NE AND E-SE AND NW-N $=
SPECI KSKF 081335Z 06009KT 4SM -SHRA BR FEW002 BKN010 OVC014 25/ A2995
      RMK AO2A VIS NW 2 $=
SPECI KSZL 081328Z 03006KT 10SM SCT007 BKN040 24/23 A3007 RMK AO2A
      DZE1324 SLP178 $=
PACZ SP 1335 AWOS MM 10 50/47/0410/003=
PAEH SP 1335 AWOS M60 OVC 10 50/-19/1404/998=
PATL SP 1335 AWOS CLR BLO 120 10 54/44/0000/000=
SPECI PGUA 081333Z AUTO 11011KT 9SM R06R/5000VP6000FT R06L/5000VP6000FT
      -RA SCT014 BKN022 26/ A2991 RMK AO2 RAB1325 CIG 011 RWY24L
      SLP109 VISNO RWY24L $=
SPECI RJCC 081322Z VRB02KT 1100 R19R/P1800N R01R/1500VP1800N -DZ BR
      BKN002 17/17 Q1011 RMK 7ST002 A2985=
SPECI RJTJ 081326Z 15005KT 9999 FEW130 SCT/// 24/21 Q1010 RMK 1AC130
      A2985=
SPECI RODN 081334Z AUTO 18009KT 9999 SCT016 BKN024 BKN200 29/26 A2987
      RMK AO2 SLP115=
SPECI SEGU 081330Z 20005KT -DZ 8000S 9999N 23/19 Q1012 NOSIG=
SPECI SLTR 081324Z 14010KT 6000 -TSRA FEW006 SCT015 FEW020CB OVC070
      22/21 Q1015=
####018000344####
SAPO31 KWBC 081300 RRD
METAR
LPFR 081330Z 24010KT 210V270 CAVOK 25/20 Q1016=
LPMA 081330Z VRB05G16KT 9999 FEW016 25/17 Q1020 RS18007KT
     0521006KT 2301014KT=
LPPR 081330Z 00000KT 7000 SCT006 23/18 Q1016=
LPPS 081330Z 02011KT 340V060 9999 FEW016 SCT030 22/15 Q1021=
LPPT 081330Z 28007KT 220V320 9999 FEW030 28/19 Q1016 NOSIG=
####018000250####
SARA31 KWBC 081300 RRH
METAR
UBBG 081330Z 08014KT 9999 FEW083 36/16 Q1009 NOSIG RMK
     R12L/CLRD70=
UTNU 081330Z 04003MPS 8000 FEW100 SCT166 38/21 Q1006 R13/CLRD60
     NOSIG=
UTST 081330Z VRB01MPS CAVOK 39/16 Q1004 R88/CLRD70 NOSIG=
####018001593####
SASP31 KWBC 081330
METAR
LEAL 081330Z 08010KT 060V120 CAVOK 30/17 Q1019 NOSIG=
LEAM 081330Z 09017KT 9999 FEW050 37/06 Q1015=
LEAS 081330Z 09004KT 050V130 9999 FEW015 25/20 Q1016 TEMPO TSRA
     SCT025CB=
LEBB 081330Z 31008KT 260V350 8000 SCT025 26/20 Q1017 TEMPO
     SCT030CB=
LEBL 081330Z 20015KT CAVOK 28/20 Q1019 NOSIG=
LECO 081330Z 31007KT 280V020 CAVOK 24/20 Q1015=
LEGE 081330Z 18006KT 120V240 CAVOK 33/18 Q1019=
LEGR 081330Z 16013KT 130V190 9999 FEW060 39/06 Q1017=
LEIB 081330Z 09007KT 020V140 CAVOK 30/21 Q1020 NOSIG=
LEJR 081330Z 23007KT 140V260 CAVOK 32/16 Q1015=
LELC 081330Z NIL=
LELL 081330Z 14009KT 110V170 CAVOK 31/13 Q1019=
LEMD 081330Z 09005KT 030V160 9999 FEW060CB 32/11 Q1017 WS ALL RWY
     NOSIG=
LEMG 081330Z 15008KT 110V200 9999 FEW040 29/15 Q1017 NOSIG=
LEMH 081330Z 09004KT 030V200 CAVOK 29/18 Q1020=
LEPA 081330Z 23013KT CAVOK 31/15 Q1020 NOSIG=
LEPP 081330Z 18012KT 140V230 9999 FEW064 37/14 Q1017=
LERS 081330Z 22008KT 170V250 CAVOK 29/14 Q1019=
LESO 081330Z 33004KT 260V050 CAVOK 27/21 Q1015=
LEST 081330Z 12003KT 030V200 9999 FEW025 29/19 Q1015 NOSIG=
LETO NIL=
LEVC 081330Z 13010KT 100V160 CAVOK 32/14 Q1018 NOSIG=
LEVD 081330Z 17012G23KT 140V210 CAVOK 35/07 Q1018=
LEVS 081330Z 10005KT 010V130 CAVOK 32/11 Q1018=
LEVT 081330Z 14003KT 110V190 9999 FEW050 33/19 Q1017=
LEVX 081330Z VRB05KT 8000 FEW030 24/19 Q1016=
LEXJ 081330Z 26007KT 210V330 9999 FEW018 26/19 Q1016=
LEZG 081330Z 07008KT 040V110 9999 FEW035 FEW040TCU 39/12 Q1017=
LEZL 081330Z 23007KT 170V290 9999 FEW025 33/14 Q1015 NOSIG=
####018000289####
SATS31 KWBC 081330
METAR
DTMB 081330Z 04012KT CAVOK 30/18 Q1018 NOSIG=
DTTA 081330Z 36011KT 330V050 CAVOK 29/20 Q1019 NOSIG=
DTTB NIL=
DTTD NIL=
DTTG NIL=
DTTJ 081330Z 09012KT CAVOK 30/20 Q1017 NOSIG=
DTTK NIL=
DTTL NIL=
DTTN NIL=
DTTR NIL=
DTTX NIL=
DTTZ NIL=
####018000091####
SPUS43 KWBC 081336
SPECI
KPIA 081333Z 30003KT 10SM FEW003 SCT009 OVC014 23/22 A3006=
####018001021####
SAXX99 KWBC 081300 RRX
METAR
EGUW 081250Z 23009KT 9999 FEW035 BKN280 24/14 Q1018 BLU NOSIG=
EPLL 081330Z 32004KT 280V350 CAVOK 24/06 Q1022=
EPWR 081330Z VRB03KT CAVOK 26/10 Q1022=
LESA 081330Z 16013KT 130V200 9999 FEW048 36/14 Q1018=
LFBG 081330Z AUTO 14005KT 060V200 9999NDV NSC 35/13 Q1016=
LFCR 081330Z AUTO 17007KT 100V210 9999NDV NSC 33/06 Q1021=
LFJL 081330Z AUTO VRB04KT 9999NDV NSC 31/07 Q1020=
LFLX 081330Z NIL=
LFMI 081330Z AUTO 20012KT 160V220 9999NDV NSC 33/16 Q1019=
LFMK 081330Z AUTO 08017KT 9999NDV NSC 34/13 Q1018=
LFMO 081330Z 15005KT 070V230 CAVOK 35/15 Q1019=
LFMU 081330Z AUTO 14007KT 090V190 9999NDV NSC 30/14 Q1020=
LFMV 081330Z AUTO 29004KT 210V020 9999NDV NSC 35/14 Q1019=
LFOA 081330Z AUTO 17007KT 070V240 9999NDV NSC 32/10 Q1018=
LFOJ 081330Z VRB03KT CAVOK 32/12 Q1018=
LFOK 081330Z AUTO VRB02KT 9999NDV NSC 32/08 Q1019=
LFQI 081330Z VRB06KT CAVOK 31/11 Q1018=
LKKV 081330Z VRB03KT CAVOK 25/08 Q1023=
LQBK 081330Z 32005KT 9999 SCT040 24/11 Q1021 NOSIG=
####018000092####
SAXX99 KWBC 081100 CCJ
METAR
EGXG 081050Z 23009KT 9999 FEW038 BKN200 20/08 Q1016 BLU=
####018000091####
SPUS52 KWBC 081336
SPECI
KGDP 081333Z AUTO 05021KT 3SM BR BKN004 BKN120 17/16 A3025=
####018000082####
SAUS51 KWBC 081300 RRC
METAR
KCBE 081332Z AUTO 00000KT 7SM CLR 27/20 A3010=
####018000089####
SPUS53 KWBC 081336
SPECI
KUIN 081333Z AUTO 31003KT 10SM FEW006 SCT110 23/22 A3007=
####018000228####
SAUS53 KWBC 081300 RRH
METAR
KANW 081330Z AUTO 28004KT 10SM CLR 18/15 A3026=
KBIE 081330Z AUTO 02005KT 10SM CLR 20/18 A3016=
KONL 081330Z AUTO 00000KT 10SM CLR 19/16 A3024=
KUDG 081335Z 34005KT 10SM CLR 29/20 A2999=
####018000087####
SPCN51 CWAO 081335
SPECI CZCP 081335Z AUTO 28021KT 9SM OVC006 OVC027 03/ A2987=

####018000085####
SALJ32 LJLJ 081330
METAR LJCE 081330Z 16004KT 050V210 CAVOK 26/10 Q1022 RMK BLU=
####018000357####
SAPO31 LPMG 081330
METAR LPFR 081330Z 24010KT 210V270 CAVOK 25/20 Q1016=
METAR LPMA 081330Z VRB05G16KT 9999 FEW016 25/17 Q1020 RS18007KT
0521006KT 2301014KT=
METAR LPPR 081330Z 00000KT 7000 SCT006 23/18 Q1016=
METAR LPPS 081330Z 02011KT 340V060 9999 FEW016 SCT030 22/15 Q1021=
METAR LPPT 081330Z 28007KT 220V320 9999 FEW030 28/19 Q1016 NOSIG=
####018000191####
SALJ31 LJLJ 081330
METAR LJLJ 081330Z 07004KT 360V120 9999 FEW043 25/10 Q1022 NOSIG=
METAR LJMB 081330Z 18006KT 9999 FEW040 26/09 Q1022=
METAR LJPZ 081330Z 30008KT CAVOK 26/11 Q1021=
####018000242####
SATS40 DTTA 081330
METAR DTMB 081330Z 04012KT CAVOK 30/18 Q1018 NOSIG=
METAR DTNZ 081330Z AUTO 11013KT CAVOK 30/17 Q1018=
METAR DTTA 081330Z 36011KT 330V050 CAVOK 29/20 Q1019  NOSIG=
METAR DTTJ 081330Z 09012KT CAVOK 30/20 Q1017 NOSIG=
####018000332####
SARO33 LROM 081330
METAR LRBC 081330Z 35016KT 9999 FEW022 BKN040 22/17 Q1017=
METAR LRCV 081330Z VRB04KT 9999 FEW039 SCT045 24/15 Q1017=
METAR LRIA 081330Z 31010G23KT 280V350 9999 SCT021 SCT026 22/17
Q1017=
METAR LRSV 081330Z 32017KT 9999 SCT012 BKN048 17/14 Q1019=
METAR LRTC 081330Z 36012KT 9999 BKN040 24/17 Q1014=
####018000189####
SATA31 RUMS 081330
METAR UTDD 081330Z 00000MPS 9999 SKC 35/13 Q1008 09CLRD70 NOSIG RMK
QFE689/0918=
METAR UTDL 081330Z 27004MPS 9999 FEW053 37/09 Q1008 NOSIG RMK QFE719
8809//70=
####018000101####
SAUZ31 UTTW 081330
METAR UTSS 081330Z 08006MPS 050V110 9999 NSC 33/12 Q1010 
R88/CLRD70 NOSIG=
####018000166####
SAAY31 RUMS 081330
METAR UDYZ 081330Z 16003MPS 9999 FEW050 38/12 Q1007 09010070 NOSIG=
METAR UDSG 081330Z 07011MPS 9999 SCT050TCU 28/14 Q1015 02CLRD70
NOSIG=
####018000394####
SARO32 LROM 081330
METAR LRAR 081330Z 35008KT 330V070 9999 BKN045 24/13 Q1020=
METAR LRBM 081330Z 27006KT 230V320 9999 FEW043 BKN049 23/14 Q1019=
METAR LRCL 081330Z 29006KT 9999 SCT045 19/13 Q1020 0821//95=
METAR LROD 081330Z 36010KT 330V040 CAVOK 23/12 Q1020=
METAR LRSM 081330Z 34006KT 290V010 9999 BKN043 22/13 Q1020=
METAR LRTM 081330Z 25006KT 9999 FEW030 BKN036 18/15 Q1020=
####018000212####
SATR31 RUMS 081330
METAR UTAA 081330Z 10001MPS 9999 SKC 43/04 Q1007 NOSIG=
METAR UTAK 081330Z NIL=
METAR UTAM 081330Z 01004MPS CAVOK 41/07 Q1004 NOSIG=
METAR UTAT 081330Z NIL=
METAR UTAV 081330Z NIL=
####018000102####
SAKY31 RUMS 081330
METAR UAFM 081330Z 24005MPS CAVOK 31/07 Q1012 NOSIG=
METAR UAFO 081330Z NIL=
####018000688####
SAKZ31 RUMS 081330
METAR UAAA 081330Z 28003MPS 9999 SCT050CB BKN100 26/09 Q1013 88CLRD65
TEMPO TS=
METAR UACC 081330Z 32007MPS CAVOK 23/02 Q1008 220/0070 NOSIG RMK
QFE725/0967=
METAR UAKK 081330Z 12005MPS 080V140 9999 SCT050CB BKN/// 22/07 Q1007
230///70 TEMPO TSRA RMK QFE709/0946=
METAR UAOO 081330Z NIL=
METAR UARR 081330Z NIL=
METAR UATE 081330Z 03007MPS CAVOK 39/07 Q1009 300///70 NOSIG RMK
QFE755/1007=
METAR UATG 081330Z 35006G09MPS CAVOK 39/08 Q1008 32CLRD70 NOSIG RMK
QFE758/1011 =
METAR UATT 081330Z 03005MPS 9999 NSC 33/02 Q1010 13CLRD70 NOSIG RMK
QFE738/0984=
METAR UAUU 081330Z 35008G13MPS CAVOK 25/M04 Q1012 33CLRD70 NOSIG RMK
QFE743/0991=
####018000102####
SPAU32 YBBN 081334
SPECI YPGV 081330Z AUTO 16009KT 9999NDV // SCT009 SCT015 OVC035 24/22
Q1014=
####018000189####
SAUS54 KWBC 081300 RRF
METAR
KIZA 081329Z AUTO 00000KT 10SM OVC007 13/11 A2992=
KSOW 081330Z AUTO 18004KT 10SM BKN120 19/04 A3027=
KTRK 081330Z AUTO 00000KT 10SM CLR 07/06 A3017=
####018000637####
SACI31 ZBBB 081330
METAR ZBAA 081330Z 18005MPS CAVOK 30/18 Q1005 NOSIG=
ZBSJ NIL=
METAR ZBTJ 081330Z 14003MPS CAVOK 26/18 Q1006 NOSIG=
METAR ZBYN 081330Z 08005MPS CAVOK 27/15 Q1009 NOSIG=
METAR ZGGG 081330Z 16004MPS 9999 SCT033 32/26 Q1007 NOSIG=
METAR ZSHC 081330Z 24002MPS 6000 -RA SCT007 26/23 Q1005 NOSIG=
METAR ZSPD 081330Z 12006MPS 9999 SCT009 26/24 Q1006 NOSIG=
METAR ZSSS 081330Z 11005MPS 9999 SCT016 27/23 Q1005 NOSIG=
ZWSH NIL=
METAR ZWWW 081330Z 21005MPS 9999 FEW033CB 29/09 Q1011 NOSIG=
METAR ZYTL 081330Z 32003MPS 5000 BR NSC 23/20 Q1007 NOSIG=
METAR ZYTX 081330Z VRB01MPS CAVOK 19/18 Q1007 NOSIG=
####018000087####
SADL41 EGRR 081250 CCA
METAR COR ETUO 081250Z 25005KT CAVOK 31/10 Q1019 BLU NOSIG=
####018000086####
SAUS72 KWBC 081300 RRG
METAR
KLRU 081331Z AUTO 02010G14KT 10SM CLR 22/14 A3019=
####018000091####
SPUS73 KWBC 081336
SPECI
KPIA 081333Z 30003KT 10SM FEW003 SCT009 OVC014 23/22 A3006=
####018000089####
SPUS73 KWBC 081336
SPECI
KUIN 081333Z AUTO 31003KT 10SM FEW006 SCT110 23/22 A3007=
####018000091####
SPUS81 KWBC 081336
SPECI
KGDP 081333Z AUTO 05021KT 3SM BR BKN004 BKN120 17/16 A3025=
####018000091####
SPUS81 KWBC 081336
SPECI
KPIA 081333Z 30003KT 10SM FEW003 SCT009 OVC014 23/22 A3006=
####018001912####
SAEU KAWN 081300 RRX
METAR EGUW 081250Z 23009KT 9999 FEW035 BKN280 24/14 Q1018 BLU NOSIG=
METAR COR ENTC 081320Z 01010KT 9999 FEW065 SCT082 18/09 Q1010 NOSIG=
METAR LELO 081330Z 08008KT 040V110 9999 FEW050 33/16 Q1016=
METAR LFBO 081330Z 11011KT 070V140 CAVOK 35/11 Q1017 NOSIG=
METAR LFLN 081330Z AUTO VRB04KT 9999NDV NSC 33/12 Q1019=
METAR LFMK 081330Z AUTO 08017KT 9999NDV NSC 34/13 Q1018=
METAR LFML 081330Z 21010KT CAVOK 33/18 Q1019 NOSIG=
METAR LFRD 081330Z AUTO 34008KT 310V030 9999NDV NSC 23/15 Q1019=
METAR LFRN 081330Z AUTO VRB05KT 9999NDV NSC 31/12 Q1017=
METAR LFRO 081330Z AUTO 36007KT 320V050 9999NDV NSC 21/16 Q1019=
METAR LFRZ 081330Z AUTO 23009KT 190V260 9999NDV NSC 32/07 Q1018=
METAR LFSB 081330Z 27003KT 190V340 CAVOK 32/11 Q1020 NOSIG=
METAR LFST 081330Z VRB03KT CAVOK 31/10 Q1019 NOSIG=
METAR LFTW 081330Z AUTO 21007KT 170V260 9999NDV NSC 32/15 Q1020=
METAR LJLJ 081330Z 07004KT 360V120 9999 FEW043 25/10 Q1022 NOSIG=
METAR LKKV 081330Z VRB03KT CAVOK 25/08 Q1023 RMK REG QNH 1020=
METAR LPFR 081330Z 24010KT 210V270 CAVOK 25/20 Q1016=
METAR LPPR 081330Z 00000KT 7000 SCT006 23/18 Q1016=
METAR LPPS 081330Z 02011KT 340V060 9999 FEW016 SCT030 22/15 Q1021=
METAR LPPT 081330Z 28007KT 220V320 9999 FEW030 28/19 Q1016 NOSIG=
METAR LRAR 081330Z 35008KT 330V070 9999 BKN045 24/13 Q1020=
METAR LRBC 081330Z 35016KT 9999 FEW022 BKN040 22/17 Q1017=
METAR LRBM 081330Z 27006KT 230V320 9999 FEW043 BKN049 23/14 Q1019=
METAR LRCL 081330Z 29006KT 9999 SCT045 19/13 Q1020 0821//95=
METAR LRCV 081330Z VRB04KT 9999 FEW039 SCT045 24/15 Q1017=
METAR LRIA 081330Z 31010G23KT 280V350 9999 SCT021 SCT026 22/17 Q1017=
METAR LROD 081330Z 36010KT 330V040 CAVOK 23/12 Q1020=
METAR LRSM 081330Z 34006KT 290V010 9999 BKN043 22/13 Q1020=
METAR LRSV 081330Z 32017KT 9999 SCT012 BKN048 17/14 Q1019=
METAR LRTM 081330Z 25006KT 9999 FEW030 BKN036 18/15 Q1020=
####018000145####
SASA KAWN 081300 RRJ
METAR SGAS 081330Z 14007KT 9000 BKN010 OVC015 17/15 Q1016=
METAR SGES 081330Z 15008KT 9999 FEW030 BKN080 19/17 Q1016=
####018000182####
SAXX70 KAWN 081300 RRT
METAR KQFW 081320Z AUTO 14002KT 7SM -SHRA OVC025 22/19 A2993 RMK A02=
METAR KQEX 081330Z AUTO 17003KT 5SM -DZ FEW041 FEW110 25/20 A2978 RMK
      A02=
####018000634####
SAZZ40 KAWN 081300 RRU
METAR BIKF 081330Z 03023KT 9999 SCT018 BKN100 12/06 Q0995=
METAR DAAJ 081300Z 04006KT CAVOK 36/04 Q1018=
METAR LKKV 081330Z VRB03KT CAVOK 25/08 Q1023 RMK REG QNH 1020=
METAR LQBK 081330Z 32005KT 9999 SCT040 24/11 Q1021 NOSIG=
METAR NTAA 081330Z AUTO 09004KT 9999NDV FEW050/// BKN120/// 24/22 Q1015=
METAR TNCA 081300Z 07019KT 9999 FEW018 31/25 Q1012 NOSIG=
METAR TNCB 081300Z AUTO /////KT //// ////// 30/25 Q1013=
METAR TNCC 081300Z 08012KT 9999 FEW018 30/26 Q1013 NOSIG=
METAR TNCE 081300Z 06013KT 9999 FEW018 30/25 Q1016=
METAR WSSS 081330Z 22003KT 9999 FEW016 SCT280 28/24 Q1010 NOSIG=
####018001108####
SAXN17 KAWN 081300 RRI
METAR NTAA 081330Z AUTO 09004KT 9999NDV FEW050/// BKN120/// 24/22 Q1015=
METAR NWWW 081330Z AUTO 19003KT 9999NDV NCD 16/14 Q1015=
METAR RCKH 081330Z 27007KT 9999 FEW013 BKN300 30/26 Q1010 NOSIG=
METAR RCTP 081330Z 18008KT 150V220 9999 FEW025 SCT150 29/25 Q1007 NOSIG=
METAR RJAA 081330Z 17007KT 9999 FEW015 BKN020 23/22 Q1011 NOSIG RMK
      1CU015 6CU020 A2987=
METAR RJCC 081330Z 18004KT 1200 R01L/P1800N R01R/1000V1500D -DZ BR
      BKN002 17/17 Q1010 RMK 7ST002 A2985=
METAR RJFF 081330Z VRB01KT 8000 FEW020 BKN/// 25/21 Q1009 RMK 1CU020
      A2979=
METAR RJTT 081330Z 18011KT 9999 FEW006 SCT010 BKN/// 25/23 Q1010 RMK
      1ST006 3CU010 A2984=
METAR ROAH 081330Z 19015KT 9999 FEW008 SCT010 BKN180 29/27 Q1011 RMK
      1ST008 3CU010 6AC180 A2986=
METAR TNCA 081300Z 07019KT 9999 FEW018 31/25 Q1012 NOSIG=
METAR TNCB 081300Z AUTO /////KT //// ////// 30/25 Q1013=
METAR TNCC 081300Z 08012KT 9999 FEW018 30/26 Q1013 NOSIG=
METAR TNCE 081300Z 06013KT 9999 FEW018 30/25 Q1016=
METAR VHHH 081330Z 19005KT 080V230 9999 FEW020 31/25 Q1008 NOSIG=
####018000285####
SAPO32 LPMG 081330
METAR LPAZ 081330Z 24006KT 9999 BKN016 BKN030 21/20 Q1025=
METAR LPFL 081330Z 20007KT 170V240 9999 FEW022TCU BKN040 24/17 Q1022=
METAR LPHR 081330Z 21005KT 170V240 9999 FEW015 23/18 Q1023=
METAR LPPD 081330Z 23005KT 200V260 9999 FEW015 BKN030 21/16 Q1024=
####018002000####
SAUS20 KNKA 081336
METAR K04W 081334Z AUTO 28005KT 10SM CLR 22/18 A3009 RMK AO2 
     T02180175=
METAR K0A9 081335Z AUTO 00000KT 10SM CLR 26/19 A3012 RMK=
METAR K4BM 081333Z AUTO 23007KT M1/4SM -SN 04/03 A3062 RMK AO2=
METAR K5SM 081333Z AUTO 00000KT 10SM CLR 11/02 A3058 RMK AO2=
METAR K7BM 081336Z AUTO 00000KT 7SM SCT002 08/07 A3054 RMK AO2=
SPECI KACV 081335Z AUTO 00000KT 4SM BR OVC001 10/09 A2995 RMK AO2=
METAR KAEG 081335Z AUTO 14009KT 10SM CLR 18/08 A3031 RMK AO1  =
METAR KBDU 081337Z AUTO 00000KT 10SM SCT015 OVC032 17/12 A3034 RMK
     AO2=
METAR KBKN 081335Z AUTO 03008KT 10SM SCT013 23/22 A3008 RMK AO2 =
METAR KC29 081335Z AUTO 28003KT 4SM OVC004 23/21 A3005 RMK AO2 
     T02250206=
METAR KCCU 081336Z AUTO 19011KT 10SM CLR 08/01 A3064 RMK AO2=
SPECI KCDW 081335Z 13005KT 5SM HZ SCT031 28/23 A3005 RMK AO2=
METAR KCIC 081335Z AUTO 14007KT 10SM CLR 19/12 A2985 RMK AO1 =
METAR KD39 081334Z AUTO 28006KT 10SM CLR 21/18 A3011 RMK AO2 
     T02140178=
METAR KDLL 081334Z AUTO 30006KT 10SM OVC011 22/20 A3005 RMK AO2=
METAR KGGE 081335Z AUTO 33006KT 10SM CLR 28/21 A2994 RMK AO2=
SPECI KHQM 081335Z AUTO 26006KT 1/2SM FG 13/13 A2997 RMK AO2 $=
METAR KLUX 081335Z AUTO 35003KT 10SM CLR 28/24 A3004 RMK AO2=
METAR KMAO 081335Z AUTO 01005KT 7SM CLR 28/20 A2995 RMK AO2=
METAR KMER 081335Z AUTO 31007KT 10SM CLR 16/12 A2984 RMK AO1 =
METAR KMYP 081236Z AUTO 20011KT 10SM CLR 04/02 A3075 RMK AO2=
SPECI KPIL 081335Z AUTO 31006KT 5SM -RA BR FEW014 SCT022 BKN029 
    28/26 A2977 RMK AO2 RAB24 P0002=
METAR KRCE 081335Z AUTO 32005KT 6SM BR BKN004 23/22 A3009 RMK AO2 
     =
METAR KSMS 081335Z AUTO 33005KT 10SM CLR 29/21 A2999 RMK AO2 =
METAR KVTP 081340Z AUTO 00000KT 10SM CLR 09/03 A3055 RMK AO2=
METAR KWYS 081330Z AUTO 00000KT 10SM CLR 05/00 A3038 RMK AO2=
METAR KX40 081335Z AUTO 00000KT 10SM SCT016 28/22 A3003 RMK AO2 
     T02840222=
METAR KY51 081335Z AUTO 32008KT 10SM BKN009 22/20 A3008 RMK AO1 
     T02190195=
####018000193####
SAAK41 KNKA 081336
SPECI PAKF 081334Z AUTO VRB03KT 10SM BKN012 OVC018 08/07 A2988 RMK 
    AO2=
SPECI PAKI 081332Z AUTO 36005KT M1/4SM FG VV004 06/06 A3001 RMK AO2 
    PWINO TSNO $=
####018000080####
SACN88 CWAO 081331
WDA SA 1331 AUTO8 M M M 179/10/09/1010/M/M 8021 99MM=

####018000075####
SACN95 CWAO 081331
WTM SA 1331 AUTO8 M M M M/11/09/1710/M/M M 08MM=

####018000101####
SPCN46 CWAO 081334
SPECI CYPL 081334Z 25002KT 15SM TS BKN040CB BKN100 BKN270 RMK
CB5AC2CI0=

####018001024####
SAAE31 VTBB 081330
METAR VTBS 081330Z 18004KT 9999 FEW020TCU SCT120 BKN300 30/25 Q1008
            TCU W NOSIG=
METAR VTBD 081330Z 15006KT 9999 FEW020 SCT120 BKN300 30/24 Q1007
           NOSIG=
METAR VTCC 081330Z 07007KT 9999 FEW025CB SCT035 BKN300 29/21 Q1009
           A2980 CB E,SE=
METAR VTBU 081330Z 17004KT 9999 FEW020 BKN300 31/26 Q1008 A2977=
METAR VTSS 081330Z NIL=
METAR VTSP 081330Z 33005KT 9000 FEW020 BKN300 29/24 Q1010 A2985
           NOSIG=
METAR VLVT 081330Z NIL=
METAR VYYY 081330Z NIL=
METAR VVTS 081330Z VRB02KT 9999 TS FEW015CB SCT017 27/22 Q1009
           TEMPO            TL1400   3000 TSRA=
METAR VVNB 081330Z 11004KT 060V160 CAVOK 30/23 Q1003 NOSIG=
METAR VDPP 081330Z 28003KT 9000 SCT015 FEW017CB SCT040 29/22 Q1008
           CB: NW.NE=
METAR VVDN 081330Z 23007KT 9999 FEW017 SCT300 25/21 Q1008 NOSIG=
METAR VYMD 081330Z NIL=
METAR VDSR 081330Z VRB01KT 8000 SCT017 SCT130 27/23 Q1008=
METAR VVPB 081330Z 19008KT 9999 FEW026 BKN300 28/21 Q1007 NOSIG=
####018000470####
SPUS99 KWBC 081337
SPECI
PAKF 081334Z AUTO VRB03KT 10SM BKN012 OVC018 08/07 A2988 RMK
     AO2=
PAKI 081332Z AUTO 36005KT M1/4SM FG VV004 06/06 A3001 RMK AO2
     PWINO TSNO $=
KACV 081335Z AUTO 00000KT 4SM BR OVC001 10/09 A2995 RMK AO2=
KCDW 081335Z 13005KT 5SM HZ SCT031 28/23 A3005 RMK AO2=
KHQM 081335Z AUTO 26006KT 1/2SM FG 13/13 A2997 RMK AO2 $=
KPIL 081335Z AUTO 31006KT 5SM -RA BR FEW014 SCT022 BKN029 28/26
     A2977 RMK AO2 RAB24 P0002=
####018001541####
SAUS99 KWBC 081337
METAR
K04W 081334Z AUTO 28005KT 10SM CLR 22/18 A3009 RMK AO2
     T02180175=
K0A9 081335Z AUTO 00000KT 10SM CLR 26/19 A3012 RMK=
K4BM 081333Z AUTO 23007KT M1/4SM -SN 04/03 A3062 RMK AO2=
K5SM 081333Z AUTO 00000KT 10SM CLR 11/02 A3058 RMK AO2=
K7BM 081336Z AUTO 00000KT 7SM SCT002 08/07 A3054 RMK AO2=
KAEG 081335Z AUTO 14009KT 10SM CLR 18/08 A3031 RMK AO1=
KBDU 081337Z AUTO 00000KT 10SM SCT015 OVC032 17/12 A3034 RMK
     AO2=
KBKN 081335Z AUTO 03008KT 10SM SCT013 23/22 A3008 RMK AO2=
KC29 081335Z AUTO 28003KT 4SM OVC004 23/21 A3005 RMK AO2
     T02250206=
KCCU 081336Z AUTO 19011KT 10SM CLR 08/01 A3064 RMK AO2=
KCIC 081335Z AUTO 14007KT 10SM CLR 19/12 A2985 RMK AO1=
KD39 081334Z AUTO 28006KT 10SM CLR 21/18 A3011 RMK AO2
     T02140178=
KDLL 081334Z AUTO 30006KT 10SM OVC011 22/20 A3005 RMK AO2=
KGGE 081335Z AUTO 33006KT 10SM CLR 28/21 A2994 RMK AO2=
KLUX 081335Z AUTO 35003KT 10SM CLR 28/24 A3004 RMK AO2=
KMAO 081335Z AUTO 01005KT 7SM CLR 28/20 A2995 RMK AO2=
KMER 081335Z AUTO 31007KT 10SM CLR 16/12 A2984 RMK AO1=
KMYP 081236Z AUTO 20011KT 10SM CLR 04/02 A3075 RMK AO2=
KRCE 081335Z AUTO 32005KT 6SM BR BKN004 23/22 A3009 RMK AO2=
KSMS 081335Z AUTO 33005KT 10SM CLR 29/21 A2999 RMK AO2=
KVTP 081340Z AUTO 00000KT 10SM CLR 09/03 A3055 RMK AO2=
KWYS 081330Z AUTO 00000KT 10SM CLR 05/00 A3038 RMK AO2=
KX40 081335Z AUTO 00000KT 10SM SCT016 28/22 A3003 RMK AO2
     T02840222=
KY51 081335Z AUTO 32008KT 10SM BKN009 22/20 A3008 RMK AO1
     T02190195=
####018000208####
SATR31 RUMS 081330
METAR UTAA 081330Z 10001MPS 9999 SKC 43/04 Q1007 NOSIG=
METAR UTAK 081330Z NIL=
METAR UTAM 081330Z 01004MPS CAVOK 41/07 Q1004 NOSIG=
METAR UTAT 081330Z NIL=
METAR UTAV 081330Z NIL=
####018000334####
SAAL31 DAAA 081330
METAR DAAG 081330Z 04015KT CAVOK 34/15 Q1018=
METAR DAAT 081330Z NIL=
METAR DABB 081330Z 02013KT CAVOK 28/21 Q1019=
METAR DABC 081330Z 36012KT CAVOK 34/05 Q1022=
METAR DAON 081330Z 00000KT 9999 FEW026 38/20 Q1016=
METAR DAOO 081330Z 36010KT CAVOK 33/22 Q1015=
METAR DAUH 081330Z 04012KT CAVOK 40/20 Q1017=
####018000096####
SAMG20 FMMI 081330
METAR FMMI 081330Z 14008KT 110V170 9999 SCT020 BKN023 16/13 Q1025
NOSIG=
####018000086####
SANL33 EHDB 081325 RRC
METAR EHSA 081325Z AUTO 21008G09KT 9999 17/16 Q1019 W16/S2=
####018000086####
SANL33 EHDB 081325 RRB
METAR EHSC 081325Z AUTO 18004G04KT 9999 18/16 Q1019 W///S2=
####018000672####
SAKZ31 RUMS 081330
METAR UAAA 081330Z 28003MPS 9999 SCT050CB BKN100 26/09 Q1013 88CLRD65
TEMPO TS=
METAR UACC 081330Z 32007MPS CAVOK 23/02 Q1008 220/0070 NOSIG RMK
QFE725/0967=
METAR UAKK 081330Z 12005MPS 080V140 9999 SCT050CB BKN/// 22/07 Q1007
230///70 TEMPO TSRA RMK QFE709/0946=
METAR UAOO 081330Z NIL=
METAR UARR 081330Z NIL=
METAR UATE 081330Z 03007MPS CAVOK 39/07 Q1009 300///70 NOSIG RMK
QFE755/1007=
METAR UATG 081330Z 35006G09MPS CAVOK 39/08 Q1008 32CLRD70 NOSIG RMK
QFE758/1011 =
METAR UATT 081330Z 03005MPS 9999 NSC 33/02 Q1010 13CLRD70 NOSIG RMK
QFE738/0984=
METAR UAUU 081330Z 35008G13MPS CAVOK 25/M04 Q1012 33CLRD70 NOSIG RMK
QFE743/0991=
####018000281####
SAPO32 LPMG 081330
METAR LPAZ 081330Z 24006KT 9999 BKN016 BKN030 21/20 Q1025=
METAR LPFL 081330Z 20007KT 170V240 9999 FEW022TCU BKN040 24/17 Q1022=
METAR LPHR 081330Z 21005KT 170V240 9999 FEW015 23/18 Q1023=
METAR LPPD 081330Z 23005KT 200V260 9999 FEW015 BKN030 21/16 Q1024=
####018000163####
SAAY31 RUMS 081330
METAR UDYZ 081330Z 16003MPS 9999 FEW050 38/12 Q1007 09010070 NOSIG=
METAR UDSG 081330Z 07011MPS 9999 SCT050TCU 28/14 Q1015 02CLRD70
NOSIG=
####018000090####
SACY42 EGRR 081250
METAR LCRA 081250Z 23011KT 9999 FEW020 FEW040TCU 28/21 Q1008 NOSIG=
####018000735####
SAUR31 UKMS 081330
METAR UKLR 081330Z 32005MPS 9999 SCT030 BKN100 22/14
         Q1018 30090070 NOSIG=
METAR UKLI 081330Z 31003MPS 270V010 9999 SCT021CB
         BKN026 18/15 Q1020 28290565 NOSIG=
METAR UKON 081330Z 32003MPS 290V350 9999 VCTS
         FEW033CB  OVC200 28/18 Q1013 05090075 NOSIG=
METAR UKCM 081330Z 13003MPS 100V170 CAVOK 29/14 Q1013
          20010065 NOSIG=
METAR UKCW 081330Z VRB02MPS 9999 BKN040 29/17 Q1014
         2709//70 NOSIG=
METAR UKLU NIL=
METAR UKKK 081330Z 28004MPS 250V310 CAVOK 26/17 Q1015
         26CLRD70  NOSIG=
METAR UKKM 081330Z 28003MPS CAVOK 26/17 Q1015
         33CLRD70  NOSIG=
METAR UKLN 081330Z 28004MPS 210V310 9999 BKN014
         BKN033CB 16/14 Q1020 3319//65 NOSIG=
####018000086####
SANL33 EHDB 081325 RRA
METAR EHJR 081325Z AUTO 25008G08KT //// 16/15 Q1019 W16/S2=
####018000098####
SAUZ31 UTTW 081330
METAR UTSS 081330Z 08006MPS 050V110 9999 NSC 33/12 Q1010
R88/CLRD70 NOSIG=
####018000091####
SAUK51 EGGY 081250 RRE
METAR EGVN 081250Z 24006KT 9999 FEW045 BKN200 23/07 Q1018 NOSIG=
####018000625####
SACI31 ZBBB 081330
METAR ZBAA 081330Z 18005MPS CAVOK 30/18 Q1005 NOSIG=
ZBSJ NIL=
METAR ZBTJ 081330Z 14003MPS CAVOK 26/18 Q1006 NOSIG=
METAR ZBYN 081330Z 08005MPS CAVOK 27/15 Q1009 NOSIG=
METAR ZGGG 081330Z 16004MPS 9999 SCT033 32/26 Q1007 NOSIG=
METAR ZSHC 081330Z 24002MPS 6000 -RA SCT007 26/23 Q1005 NOSIG=
METAR ZSPD 081330Z 12006MPS 9999 SCT009 26/24 Q1006 NOSIG=
METAR ZSSS 081330Z 11005MPS 9999 SCT016 27/23 Q1005 NOSIG=
ZWSH NIL=
METAR ZWWW 081330Z 21005MPS 9999 FEW033CB 29/09 Q1011 NOSIG=
METAR ZYTL 081330Z 32003MPS 5000 BR NSC 23/20 Q1007 NOSIG=
METAR ZYTX 081330Z VRB01MPS CAVOK 19/18 Q1007 NOSIG=
####018000077####
SPAK32 KWBC 081337
SPECI
PAEH SP 1335 AWOS M60 OVC 10 50/-19/1404/998=
####018000071####
SPAK32 KWBC 081337
SPECI
PACZ SP 1335 AWOS MM 10 50/47/0410/003=
####018000080####
SPAK32 KWBC 081337
SPECI
PATL SP 1335 AWOS CLR BLO 120 10 54/44/0000/000=
####018000128####
SPPA41 KWBC 081337
SPECI
PGUA 081333Z AUTO 11011KT 9SM R06R/5000VP6000FT R06L/5000VP6000FT
-RA SCT014 BKN022 26/ A2991=
####018000098####
SPCN31 KWBC 081337
SPECI
CYPL 081334Z 25002KT 15SM TS BKN040CB BKN100 BKN270 RMK CB5AC2CI0=
####018000132####
SPJP31 KWBC 081337
SPECI
RJCC 081322Z VRB02KT 1100 R19R/P1800N R01R/1500VP1800N -DZ BR
BKN002 17/17 Q1011 RMK 7ST002 A2985=
####018000113####
SPJP31 KWBC 081337
SPECI
RODN 081334Z AUTO 18009KT 9999 SCT016 BKN024 BKN200 29/26 A2987
RMK AO2 SLP115=
####018000103####
SPJP45 KWBC 081337
SPECI
RJTJ 081326Z 15005KT 9999 FEW130 SCT/// 24/21 Q1010 RMK 1AC130
A2985=
####018000183####
SPPA31 KWBC 081337
SPECI
PGUA 081333Z AUTO 11011KT 9SM R06R/5000VP6000FT R06L/5000VP6000FT
-RA SCT014 BKN022 26/ A2991 RMK AO2 RAB1325 CIG 011 RWY24L SLP109
VISNO RWY24L $=
####018000113####
SPXX62 KWBC 081337
SPECI
RODN 081334Z AUTO 18009KT 9999 SCT016 BKN024 BKN200 29/26 A2987
RMK AO2 SLP115=
####018000110####
SAUK39 EGRR 081250 RRQ
METAR EGOV 081250Z 19015KT 9999 -RA FEW017 BKN080 BKN100 17/13 Q1017
 BLU NOSIG=
####018000082####
SAER32 OMAE 081300 RRA
METAR OMAD 081300Z 34010KT 9000 NSC 40/23 Q0998 A2947=
####018000096####
SAUK39 EGRR 081250 RRR
METAR EGXC 081250Z 24008KT 9999 FEW045 BKN250 22/07 Q1017 BLU NOSIG=
####018000752####
SAUR31 UKMS 081330
METAR UKLR 081330Z 32005MPS 9999 SCT030 BKN100 22/14
         Q1018 30090070 NOSIG=
METAR UKLI 081330Z 31003MPS 270V010 9999 SCT021CB
         BKN026 18/15 Q1020 28290565 NOSIG=
METAR UKON 081330Z 32003MPS 290V350 9999 VCTS
         FEW033CB  OVC200 28/18 Q1013 05090075 NOSIG=
METAR UKCM 081330Z 13003MPS 100V170 CAVOK 29/14 Q1013
          20010065 NOSIG=
METAR UKCW 081330Z VRB02MPS 9999 BKN040 29/17 Q1014
         2709//70 NOSIG=
METAR UKLU NIL=
METAR UKKK 081330Z 28004MPS 250V310 CAVOK 26/17 Q1015
         26CLRD70  NOSIG=
METAR UKKM 081330Z 28003MPS CAVOK 26/17 Q1015
         33CLRD70  NOSIG=
METAR UKLN 081330Z 28004MPS 210V310 9999 BKN014
         BKN033CB 16/14 Q1020 3319//65 NOSIG=
####018000102####
SAKY31 RUMS 081330 RRA
METAR UAFO 081330Z 03002MPS 9999 FEW050CB 33/13 Q1018 NOSIG RMK
QFEM684=
####018000100####
SAUZ31 UTTW 081330
METAR UTSS 081330Z 08006MPS 050V110 9999 NSC 33/12 Q1010
R88/CLRD70 NOSIG=
####018000091####
SPUS44 KWBC 081337
SPECI
KLBB 081334Z 06009KT 10SM SCT006 SCT037 OVC110 20/18 A3017=
####018000088####
SPUS52 KWBC 081337
SPECI
KJCT 081334Z AUTO 03003KT 9SM BKN008 OVC022 24/22 A3004=
####018000096####
SPUS52 KWBC 081337
SPECI
KMLC 081334Z AUTO VRB05KT 10SM SCT009 BKN027 OVC060 24/23 A3006=
####018000104####
SPUS53 KWBC 081337
SPECI
KJLN 081334Z 25004KT 2 1/2SM VCTS BR BKN004 BKN017 OVC033 22/22
A3009=
####018000091####
SPUS72 KWBC 081337
SPECI
KLBB 081334Z 06009KT 10SM SCT006 SCT037 OVC110 20/18 A3017=
####018000096####
SPUS72 KWBC 081337
SPECI
KMLC 081334Z AUTO VRB05KT 10SM SCT009 BKN027 OVC060 24/23 A3006=
####018000104####
SPUS73 KWBC 081337
SPECI
KJLN 081334Z 25004KT 2 1/2SM VCTS BR BKN004 BKN017 OVC033 22/22
A3009=
####018000087####
SANL33 EHDB 081325 RRA
METAR EHJR 081325Z AUTO 25008G08KT //// 16/15 Q1019 W16/S2=
####018000087####
SANL33 EHDB 081325 RRC
METAR EHSA 081325Z AUTO 21008G09KT 9999 17/16 Q1019 W16/S2=
####018000087####
SANL33 EHDB 081325 RRB
METAR EHSC 081325Z AUTO 18004G04KT 9999 18/16 Q1019 W///S2=
####018000341####
SAAL31 DAAA 081330
METAR DAAG 081330Z 04015KT CAVOK 34/15 Q1018=
METAR DAAT 081330Z NIL=
METAR DABB 081330Z 02013KT CAVOK 28/21 Q1019=
METAR DABC 081330Z 36012KT CAVOK 34/05 Q1022=
METAR DAON 081330Z 00000KT 9999 FEW026 38/20 Q1016=
METAR DAOO 081330Z 36010KT CAVOK 33/22 Q1015=
METAR DAUH 081330Z 04012KT CAVOK 40/20 Q1017=
####018002572####
SAUS20 KNKA 081337
METAR K1A6 081335Z AUTO 00000KT 4SM BR CLR 26/24 A3013 RMK AO2=
METAR K1P1 081335Z AUTO 00000KT 10SM OVC020 27/22 A3008 RMK AO2 
     T02700221=
METAR K21D 081338Z AUTO 28005KT 10SM CLR 21/17 A3011 RMK AO2=
METAR KAIG 081335Z AUTO 35003KT 10SM SCT008 21/18 A3004 RMK AO2=
METAR KARV 081332Z AUTO 33006KT 10SM SCT049 20/17 A3007 RMK AO2 
     T01950165=
METAR KBBP 081335Z AUTO 35003KT 10SM CLR 30/20 A2997 RMK AO2=
METAR KBJI 081334Z AUTO 25006KT 10SM CLR 19/13 A3007 RMK AO2=
METAR KBUU 081334Z AUTO 28005KT 10SM SCT027 22/19 A3004 RMK AO2=
METAR KBWP 081331Z AUTO 29007KT 10SM CLR 20/16 A3010 RMK AO1 
     T01950158=
METAR KCLI 081335Z AUTO 35004KT 10SM CLR 23/19 A3002 RMK AO2=
METAR KCMR 081335Z AUTO 16007KT 10SM CLR 17/02 A3027 RMK AO1 =
METAR KCMY 081335Z AUTO 30006KT 10SM BKN015 22/18 A3007 RMK AO2 
     T02240180=
METAR KDVK 081337Z AUTO 18003KT 7SM 29/21 A3010 RMK AO1=
METAR KE80 081335Z AUTO 22003KT 10SM CLR 19/12 A3028 RMK AO2 
     T01880121=
METAR KEDC 081335Z AUTO 07006KT 25/25 A2999 RMK AO2 =
METAR KEIK 081335Z AUTO 31004KT 10SM SCT007 OVC012 13/12 A3033 RMK 
     AO2=
METAR KEOE 081335Z AUTO 00000KT 10SM CLR 30/20 A3005 RMK AO2=
METAR KFMH 081335Z AUTO 15011KT 10SM BKN014 OVC019 25/21 A3011 RMK 
     AO2 =
METAR KHVS 081335Z AUTO 00000KT 10SM CLR 30/20 A2999 RMK AO2=
METAR KIFP 081335Z AUTO 00000KT 10SM CLR 27/00 A2978 RMK AO2 =
METAR KLCK 081335Z AUTO 00000KT 7SM CLR 28/22 A3008 RMK AO2 
     T02800215=
SPECI KMAF 081335Z 04008KT 10SM SCT007 BKN013 OVC018 22/20 A3013 RMK 
    AO2=
METAR KMAN 081335Z AUTO 12004KT 10SM CLR 15/03 A3009 RMK AO1 =
METAR KMWO 081335Z AUTO 00000KT 5SM HZ CLR 27/22 A3008 RMK AO2=
METAR KNQA 081335Z COR 27004KT 10SM FEW150 30/24 A3009 RMK=
METAR KPVB 081333Z AUTO 29003KT 7SM BKN009 BKN014 23/21 A3007 RMK 
     AO1 T02250208=
METAR KPVF 081335Z AUTO 08007KT 10SM CLR 22/10 A2994 RMK AO1 =
SPECI KRKP 081336Z AUTO 15008G15KT 3/4SM +RA SCT015 SCT024 OVC037 
    A2988 RMK AO2 RAE05B32 P0019 FZRANO $=
METAR KRZN 081334Z AUTO 27006KT 10SM CLR 21/17 A3009 RMK AO2 
     T02080165=
METAR KSME 081335Z AUTO 00000KT 5SM HZ 28/21 A3010 RMK AO2=
METAR KSRR 081335Z AUTO 00000KT 10SM OVC005 13/13 A3038 RMK AO2 =
METAR KTME 081335Z AUTO 05009KT 8SM CLR 25/25 A2997 RMK AO1 =
METAR KUOX 081335Z AUTO 00000KT 10SM CLR 27/22 A3010 RMK AO2 =
METAR PAAK 081336Z AUTO 07022G32KT 7SM BKN026 BKN075 OVC100 07/03 
    A2950 RMK AO1 PNO=
METAR PAHP 081336Z AUTO 33006KT 10SM CLR 08/07 A3003 RMK AO1 PNO 
    TSNO=
####018000104####
SPUS81 KWBC 081337
SPECI
KJLN 081334Z 25004KT 2 1/2SM VCTS BR BKN004 BKN017 OVC033 22/22
A3009=
####018000091####
SPUS81 KWBC 081337
SPECI
KLBB 081334Z 06009KT 10SM SCT006 SCT037 OVC110 20/18 A3017=
####018000082####
SPUS81 KWBC 081337
SPECI
KLIC 081334Z AUTO 13006KT 10SM FEW004 14/14 A3035=
####018001079####
SACN60 CWAO 081300 RRA
PAF SA 1300 AUTO8 M M M M/17/12/MMMM/M/ M 59MM=
PBB SA 1300 AUTO8 M M M M/13/11/MMMM/M/ M 87MM=
PBN SA 1300 AUTO8 M M M M/15/12/2002/M/ M 00MM=
PDB SA 1300 AUTO8 M M M M/15/12/MMMM/M/ M 85MM=
PEL SA 1300 AUTO8 M M M M/14/12/2205/M/ M 50MM=
PFA SA 1300 AUTO8 M M M M/14/11/MMMM/M/ M 62MM=
PFB SA 1300 AUTO8 M M M M/12/09/MMMM/M/ M 32MM=
PGC SA 1300 AUTO8 M M M M/14/11/0202/M/ M 27MM=
PHA SA 1300 AUTO8 M M M M/14/11/MMMM/M/ M 76MM=
PHW SA 1300 AUTO8 M M M M/18/09/3006/M/ M 80MM=
PJT SA 1300 AUTO8 M M M M/16/11/2204/M/ M 93MM=
PLC SA 1300 AUTO8 M M M M/16/13/3502/M/ M 63MM=
PLG SA 1300 AUTO8 M M M M/14/11/3503/M/M M 95MM=
PNS SA 1300 AUTO8 M M M M/15/11/MMMM/M/ M 70MM=
PRF SA 1300 AUTO8 M M M M/12/10/2005/M/ M 80MM=
PRW SA 1300 AUTO8 M M M M/14/12/MMMM/M/ M 32MM=
PSH SA 1300 AUTO8 M M M M/14/11/MMMM/M/ M 53MM=
PSW SA 1300 AUTO8 M M M M/11/09/2304/M/ M 90MM=
PTA SA 1300 AUTO8 M M M M/16/12/MMMM/M/ M 84MM=
PTC SA 1300 AUTO8 M M M M/13/10/MMMM/M/ M 70MM=
PWT SA 1300 AUTO8 M M M M/14/11/MMMM/M/ M 67MM=

####018000209####
SACN88 CWAO 081300 RRD
ABF SA 1300 AUTO8 M M M 212/12/12/1012/M/ PK WND 1017 1201Z 8001
88MM=
WDA SA 1300 AUTO8 M M M 183/10/09/1010/M/ 8017 03MM=
WZF SA 1300 AUTO8 M M M M/25/21/1604/M/M M 75MM=

####018000133####
SACN98 CWAO 081300 RRF
XCD SA 1300 AUTO8 M M M M/14/12/2302/M/ M 15MM=
XYH SA 1300 AUTO8 M M M 138/12/11/3302/M/ 8008 62MM=

####018000147####
SACN82 CWAO 081300 RRB
MQK SA 1300 AUTO8 M M M M/07/M/0302/M/M M 9MMM=
MQP SA 1300 AUTO8 M M M M/07/07/2217/M/M PK WND 2321 1245Z M 21MM=

####018000083####
SACN94 CWAO 081300 RRF
WSL SA 1300 AUTO8 M M M 198/12/09/1803/M/ 1013 07MM=

####018000083####
SACN78 CWAO 081300 RRE
WKK SA 1300 AUTO8 M M M 139/19/16/1904/M/ 8004 13MM=

####018000083####
SACN93 CWAO 081300 RRD
WOI SA 1300 AUTO8 M M M 187/07/07/2402/M/ 0005 09MM=

####018000139####
SACN95 CWAO 081300 RRD
WTM SA 1300 AUTO8 M M M 230/10/09/1708/M/M 1004 35MM=
WTX SA 1300 AUTO8 M M M 155/18/15/2803/M/ 3007 88MM=

####018000528####
SACN59 CWAO 081300 RRF
PAH SA 1300 AUTO8 M M M M/14/12/MMMM/M/ M 17MM=
PBL SA 1300 AUTO8 M M M M/16/11/2503/M/ M 63MM=
PBV SA 1300 AUTO8 M M M M/12/10/MMMM/M/ M 15MM=
PGL SA 1300 AUTO8 M M M M/13/11/1804/M/ M 97MM=
PST SA 1300 AUTO8 M M M M/12/11/2107/M/0005 PCPN 0.5MM PAST HR M
15MM=
PTH SA 1300 AUTO8 M M M M/16/12/MMMM/M/ M 66MM=
PVA SA 1300 AUTO8 M M M M/13/11/MMMM/M/ M 81MM=
XHP SA 1300 AUTO8 M M M M/15/12/1604/M/0006 PCPN 0.6MM PAST HR M
14MM=
XMG SA 1300 AUTO8 M M M M/16/12/2606/M/ M 25MM=

####018000079####
SACN89 CWAO 081300 RRC
WAF SA 1300 AUTO8 M M M M/11/10/1004/M/M M 64MM=

####018000083####
SACN91 CWAO 081300 RRD
WIJ SA 1300 AUTO8 M M M 141/10/07/3206/M/ 7002 32MM=

####018000288####
SABY31 UMMN 081330
UMBB NIL=
METAR UMGG 081330Z VRB02MPS 9999 SCT050CB BKN100 26/17 Q1014
R28/290550 NOSIG=
METAR UMMM 081330Z 26006G09MPS 6000 OVC012CB 18/15 Q1015
R30/CLRD// NOSIG RMK QFE742=
METAR UMMS 081330Z 28004MPS 250V310 9999 BKN014 17/15 Q1015
R31/CLRD// NOSIG=
####018000193####
SAUK KAWN 081100 RRN
METAR COR EGDM 081050Z 21004KT 9999 SCT018 SCT130 BKN250 19/15 Q1019
      WHT BECMG BKN025 BLU=
METAR COR EGXG 081050Z 23009KT 9999 FEW038 BKN200 20/08 Q1016 BLU=
####018000193####
SAEU KAWN 081100 RRX
METAR COR EGDM 081050Z 21004KT 9999 SCT018 SCT130 BKN250 19/15 Q1019
      WHT BECMG BKN025 BLU=
METAR COR EGXG 081050Z 23009KT 9999 FEW038 BKN200 20/08 Q1016 BLU=
####018000541####
SAJP51 RJTD 081330
METAR RJAA 081330Z 17007KT 9999 FEW015 BKN020 23/22 Q1011 NOSIG=
METAR RJBB 081330Z 23007KT 9999 FEW045 SCT060 BKN/// 25/23 Q1009
           NOSIG=
METAR RJCC 081330Z 18004KT 1200 R01L/P1800N R01R/1000V1500D -DZ BR
           BKN002 17/17 Q1010=
METAR RJFF 081330Z VRB01KT 8000 FEW020 BKN/// 25/21 Q1009=
METAR RJGG 081330Z 13005KT 9999 FEW010 BKN/// 25/23 Q1010 NOSIG=
METAR RJTT 081330Z 18011KT 9999 FEW006 SCT010 BKN/// 25/23 Q1010=
METAR ROAH 081330Z 19015KT 9999 FEW008 SCT010 BKN180 29/27 Q1011=
####018002731####
SAAK41 KNKA 081337
METAR PAAK 081336Z AUTO 07022G32KT 7SM BKN026 BKN075 OVC100 07/03 
    A2950 RMK AO1 PNO=
METAR PABL 081336Z AUTO 00000KT 1/4SM VV002 04/03 A3014 RMK AO1 PNO=
METAR PABV 081336Z AUTO 00000KT 10SM FEW065 FEW070 BKN090 11/08 RMK 
    AO1 PNO=
METAR PADK 081336Z 03012G17KT 8SM FEW006 OVC015 06/06 A2947 RMK AO1 
    PNO=
METAR PADL 081336Z 30005KT 10SM SCT039 BKN080 09/08 A2996 RMK AO1 
    PNO TSNO=
METAR PAEM 081336Z AUTO 31006KT 10SM OVC075 12/09 A3001 RMK AO1 PNO=
METAR PAFE 081336Z AUTO 06004KT 10SM CLR 11/09 A3017 RMK AO1 PNO=
METAR PAFM 081336Z AUTO 00000KT 10SM CLR 11/08 A3010 RMK AO1 PNO=
METAR PAGL 081336Z AUTO 10SM CLR RMK AO1 PNO=
METAR PAGS 081336Z AUTO 00000KT 10SM CLR 08/07 A3017 RMK AO1 PNO=
METAR PAHP 081336Z AUTO 33006KT 10SM CLR 08/07 A3003 RMK AO1 PNO 
    TSNO=
METAR PAHY 081336Z AUTO 00000KT 10SM CLR 14/09 A3012 RMK AO1 PNO=
METAR PAII 081336Z AUTO 36004KT 10SM CLR 09/07 A2997 RMK AO1 PNO=
METAR PAIN 081336Z AUTO 00000KT 10SM CLR 06/05 A3006 RMK AO1 PNO=
METAR PAJC 081336Z AUTO 00000KT 10SM FEW010 OVC017 09/03 A2992 RMK 
    AO1 PNO=
METAR PAKK 081336Z AUTO 01009KT 10SM CLR 12/06 A3004 RMK AO1 PNO=
METAR PAKP 081336Z AUTO 03003KT 10SM CLR 09/02 A3011 RMK AO1=
METAR PAMD 081336Z AUTO 08017KT 2SM BKN003 OVC010 09/08 A3004 RMK 
    AO1 PNO=
METAR PAMH 081336Z 00000KT 10SM CLR 13/05 A2998 RMK AO1 PNO=
METAR PAMM 081336Z AUTO 33007KT 10SM CLR 16/11 A3010 RMK AO1 PNO=
METAR PAMY 081336Z 29004KT 1/4SM OVC001 03/02 A3005 RMK AO1=
METAR PANI 081336Z AUTO 00000KT 4SM CLR 06/04 A3000 RMK AO1 PNO=
METAR PANV 081336Z AUTO 07005KT 10SM CLR 13/08 A2998 RMK AO1 PNO=
METAR PAPG 081336Z 02004KT 10SM CLR 12/10 A3014 RMK AO1 
      PNO=
METAR PAPH 081336Z AUTO 14003KT 1SM BKN002 03/01 A2994 RMK AO1 PNO=
METAR PARC 081336Z AUTO 28003KT 10SM CLR 08/02 A3005 RMK AO1 PNO=
METAR PASA 081336Z AUTO 31004KT 1/2SM OVC002 04/02 A3018 RMK AO1 PNO=
METAR PASD 081336Z AUTO 00000KT 10SM BKN029 06/06 A2991 RMK AO1 PNO=
METAR PASH 081336Z AUTO 00000KT 10SM CLR 07/05 A3016 RMK AO1 PNO=
METAR PASK 081336Z 27008KT 10SM CLR 12/09 A3010 RMK AO1 PNO=
METAR PASL 081336Z AUTO 00000KT 10SM BKN090 BKN120 11/08 A3000 RMK 
    AO1 PNO=
METAR PASM 081336Z AUTO 03004KT 10SM OVC100 10/09 A3002 RMK AO1 PNO=
METAR PAUN 081336Z AUTO 07009KT 10SM CLR 12/04 A3001 RMK AO1 PNO=
METAR PAVD 081336Z 00000KT 10SM OVC090 11/08 A3008 RMK AO1 
      PNO=
METAR PAWG 081336Z AUTO 00000KT 10SM CLR 12/10 A3014 RMK AO1 PNO=
METAR PAWN 081336Z AUTO 34005KT 10SM CLR 07/01 A3014 RMK AO1 PNO=
METAR PAWS 081336Z AUTO 17004KT 10SM CLR 11/08 A2998 RMK AO1 PNO=
METAR PAZK 081336Z AUTO 03006KT 10SM CLR 07/03 A3007 RMK AO1 PNO=
####018000103####
SAUK39 EGRR 081250 CCA
METAR COR EGQK 081250Z 22020KT 9999 FEW027 BKN050 18/07 Q1009 BLU
 NOSIG=
####018000085####
SAEW32 LEMM 081330 CCA
METAR LEST 081330Z VRB03KT 9999 FEW025 29/19 Q1016 NOSIG=
####018000080####
SPCN48 CWAO 081333
SPECI CYPX 081333Z 24019KT 6SM -DZ BR OVC005 RMK ST8=

####018000574####
SAUS20 KNKA 081337
SPECI KBGD 081336Z AUTO 02005KT 10SM BKN014 20/17 A3021 RMK AO2=
SPECI KCNO 081336Z AUTO 23003KT 3SM HZ OVC009 16/13 A2993 RMK AO2=
SPECI KCYS 081336Z 00000KT 10SM SCT016 BKN040 14/12 A3037 RMK AO2=
SPECI KDMO 081336Z AUTO 00000KT 10SM SCT005 BKN014 OVC047 25/22 
    A3009 RMK AO2=
SPECI KGLD 081336Z AUTO 00000KT 10SM FEW005 OVC040 17/16 A3032 RMK 
    AO2=
SPECI KSGF 081336Z 25003KT 10SM SCT007 OVC015 24/23 A3009 RMK AO2=
SPECI KVPZ 081336Z AUTO 16004KT 2 1/2SM -RA BR SCT027 BKN050 BKN075 
    23/23 A3004 RMK AO2 RAB14 P0000=
####018000102####
SAUS90 KWBC 081400
METAR KSYN 081350Z AUTO 30006KT 10SM CLR 21/18 A3011 RMK AO2
     T02100175=
####018003705####
SAUS90 KWBC 081338
METAR KFDK 081332Z AUTO 00000KT 7SM CLR 33/22 A3005=
METAR KPQN 081333Z AUTO 33007KT 10SM CLR 21/14 A3017 RMK AO2=
METAR KFGN 081334Z AUTO 28007KT 1SM HZ OVC070 17/14 A2999 RMK AO2
     VIS 1/2V1 1/2=
METAR KPNM 081333Z AUTO 26007KT 10SM CLR 21/16 A3011 RMK AO2=
METAR KPWC 081333Z AUTO 00000KT 10SM CLR 19/15 A3009 RMK AO2=
METAR KFFM 081333Z AUTO 00000KT 10SM CLR 18/16 A3009 RMK AO2=
METAR KGDB 081333Z AUTO 24005KT 10SM CLR 20/16 A3015 RMK AO2
     T01950164=
METAR KAIT 081333Z AUTO 24004KT 10SM CLR 21/19 A3007 RMK AO2=
METAR KGHW 081333Z AUTO 29007KT 10SM CLR 20/14 A3014 RMK AO2=
METAR KMWM 081333Z AUTO 30007KT 10SM CLR 21/16 A3015 RMK AO2=
METAR KULM 081335Z AUTO 31006KT 10SM CLR 20/16 A3014 RMK AO2=
METAR KBBB 081333Z AUTO 27004KT 10SM CLR 20/17 A3012 RMK AO2=
METAR KTWM 081333Z AUTO 26007KT 241V321 10SM CLR 21/15 A3003 RMK
     AO2=
METAR KMGG 081335Z AUTO 28006KT 10SM CLR 21/17 A3013 RMK AO2
     T02100168=
METAR KMOX 081330Z AUTO 26005KT 10SM CLR 22/17 A3008 RMK AO2=
METAR KTEW 081333Z AUTO 16003KT 10SM CLR 26/21 A3004 RMK AO2=
METAR KCVH 081330Z AUTO 00000KT 8SM OVC008 13/11 A2994 RMK AO1=
METAR KFSO 081338Z AUTO 00000KT 7SM SCT060 27/24 A3001 RMK AO2=
METAR KFBL 081334Z AUTO 29005KT 10SM CLR 20/16 A3014 RMK AO2=
METAR KLYV 081338Z AUTO 00000KT 10SM CLR 19/16 A3018 RMK AO2=
METAR KEFK 081335Z AUTO 20004KT 7SM CLR 27/22 A3006 RMK AO2=
METAR KRRT 081334Z AUTO 26009KT 10SM CLR 17/14 A3003 RMK AO2=
METAR KTOB 081334Z AUTO 35003KT 10SM CLR 19/17 A3013 RMK AO2=
METAR KLXL 081334Z AUTO 27005KT 10SM CLR 20/14 A3009 RMK AO2=
METAR KEVM 081332Z AUTO 26004KT 10SM CLR 18/15 A3003 RMK AO1=
METAR KELO 081333Z AUTO 22006KT 10SM CLR 19/15 A3003 RMK AO2=
METAR KROX 081334Z AUTO 27008KT 10SM CLR 18/15 A3003 RMK AO2=
METAR KVVV 081336Z AUTO 25005KT 10SM CLR 21/16 A3012 RMK AO2=
METAR KROS 081335Z AUTO 27005KT 10SM CLR 21/16 A3010 RMK AO2
     T02050159=
METAR KHCD 081332Z AUTO 27005KT 10SM CLR 20/16 A3013 RMK AO2
     T01950157=
METAR KSGS 081333Z AUTO 32004KT 10SM CLR 22/16 A3011 RMK AO2
     T02150163=
METAR KMJQ 081332Z AUTO 31007KT 10SM CLR 19/16 A3018 RMK AO2=
METAR KHCO 081334Z AUTO 32009KT 10SM CLR 18/16 A3009 RMK AO2=
METAR KLVN 081328Z AUTO 30005KT 10SM CLR 21/17 A3012 RMK AO2=
METAR KPEX 081333Z AUTO 26007KT 10SM CLR 20/17 A3012 RMK AO2
     T02030166=
METAR KJMR 081338Z AUTO 26003KT 10SM CLR 21/16 A3011 RMK AO2=
METAR KJKJ 081334Z AUTO 28004KT 10SM CLR 19/17 A3008 RMK AO2=
METAR KMVE 081334Z AUTO 29004KT 10SM CLR 20/17 A3012 RMK AO2=
METAR KTKC 081333Z AUTO 27003KT 10SM CLR 21/15 A3016 RMK AO2
     T02050152=
METAR KGYL 081335Z AUTO 28008KT 10SM CLR 20/16 A3012 RMK AO2
     T02010160=
METAR KDXX 081334Z AUTO 00000KT 10SM CLR 20/19 A3012 RMK AO2=
METAR KHZX 081331Z AUTO 26004KT 10SM CLR 20/16 A3008 RMK AO2=
METAR KSAZ 081334Z AUTO 26005KT 10SM CLR 20/19 A3010 RMK AO2=
METAR KONA 081330Z AUTO 31008KT 10SM SCT015 22/17 A3008 RMK
     AO2=
METAR KOVL 081334Z AUTO 28005KT 10SM CLR 20/15 A3013 RMK AO2
     T01950150=
METAR KLJF 081332Z AUTO 28007KT 10SM CLR 21/17 A3013 RMK AO2=
METAR KAEL 081331Z AUTO 33004KT 10SM CLR 19/17 A3014 RMK AO2=
METAR K29G 081334Z AUTO 00000KT 10SM CLR 27/19 A3009 RMK AO2
     T02700188 PWINO=
METAR KMRT 081333Z AUTO 27003KT 10SM CLR 28/20 A3012 RMK AO2
     T02820196=
METAR KIKW 081333Z AUTO 26003KT 10SM BKN070 OVC080 24/21 A3002 RMK
     AO2 T02380210=
METAR KMDS 081325Z AUTO 28005KT 10SM CLR 20/16 A3018 RMK AO2=
METAR KFPK 081336Z AUTO 00000KT 10SM CLR 26/21 A3002 RMK AO2=
METAR KMOP 081335Z AUTO 28005KT 10SM RA SCT033 SCT046 OVC060 23/23
     A3002 RMK AO2=
####018000118####
SPUS90 KWBC 081338
SPECI KJCT 081334Z AUTO 03003KT 9SM BKN008 OVC022 24/22 A3004 RMK
     AO2 CIG 005V011 TSNO=
####018002603####
SAUS90 KWBC 081338 RRA
METAR KCAD 081334Z AUTO 25004KT 7SM -RA SCT006 BKN044 OVC060 22/21
     A3004 RMK AO2=
METAR KMGN 081335Z AUTO 26003KT 2SM RA SCT002 OVC008 21/20 A3000
     RMK AO2=
METAR KHAI 081335Z AUTO 00000KT 10SM SCT060 SCT075 SCT110 26/22
     A3004 RMK AO2=
METAR KLWA 081336Z AUTO 00000KT 10SM BKN060 OVC075 24/21 A3003 RMK
     AO2=
METAR KDRM 081336Z AUTO 24007KT 4SM RA BKN004 BKN032 OVC040 21/21
     A2999 RMK AO2=
METAR KVLL 081334Z AUTO 28005KT 10SM CLR 30/19 A3005 RMK AO2=
METAR KCFS 081335Z AUTO 28004KT 10SM SCT060 27/21 A3002 RMK
     AO2=
METAR KOZW 081335Z AUTO 00000KT 10SM CLR 28/20 A3004 RMK AO2=
METAR KRNP 081335Z AUTO 21005KT 10SM CLR 27/21 A3003 RMK AO2=
METAR KDUH 081335Z AUTO 22003KT 10SM CLR 30/20 A3004 RMK AO2=
METAR KJYM 081335Z AUTO 00000KT 10SM CLR 27/21 A3006 RMK AO2=
METAR KBAX 081335Z AUTO 26004KT 10SM SCT095 27/23 A3001 RMK
     AO2=
METAR KIRS 081335Z AUTO 10005KT 10SM CLR 27/22 A3003 RMK AO2=
METAR KACB 081335Z AUTO 21003KT 7SM -RA SCT009 23/22 A3000 RMK
     AO2=
METAR KRQB 081335Z AUTO 00000KT 5SM -DZ SCT005 BKN048 OVC060 22/22
     A3003 RMK AO2=
METAR KOEB 081335Z AUTO 10004KT 10SM CLR 27/22 A3005 RMK AO2=
METAR K4I3 081336Z AUTO 00000KT 10SM CLR 27/22 A3010 RMK AO2=
METAR KAUM 081335Z AUTO 34005KT 10SM CLR 21/17 A3012 RMK AO2=
METAR KFFX 081335Z AUTO 21003KT 10SM RA SCT007 BKN048 OVC070 23/22
     A3002 RMK AO2=
METAR KCNB 081338Z AUTO 24007KT 10SM CLR 22/15 A3015 RMK AO2
     T02150147=
METAR KCKN 081335Z AUTO 29004KT 10SM SCT060 18/14 A3008 RMK
     AO2=
METAR KCFE 081335Z AUTO 25005KT 10SM CLR 21/17 A3013 RMK AO2
     T02090166=
METAR KCQM 081337Z AUTO 26005KT 10SM CLR 19/15 A3005 RMK AO2=
METAR KDTL 081335Z AUTO 29006KT 10SM CLR 20/11 A3011 RMK AO2=
METAR KBDH 081335Z AUTO 28005KT 10SM CLR 19/16 A3014 RMK AO2=
METAR KCBG 081335Z AUTO 26006KT 10SM CLR 21/17 A3010 RMK AO2=
METAR KADC 081337Z AUTO 25004KT 10SM CLR 18/15 A3009 RMK AO2=
METAR KHAF 081330Z AUTO 34003KT 7SM OVC006 12/10 A2995 RMK AO2=
METAR KCKC 081335Z AUTO 26007KT 10SM CLR 21/14 A3005 RMK AO2=
METAR KJYG 081335Z AUTO 29007KT 10SM CLR 21/19 A3016 RMK AO2=
METAR KCOQ 081336Z AUTO 27006KT 10SM CLR 20/18 A3007 RMK AO2=
METAR KACQ 081339Z AUTO 32005KT 10SM CLR 20/17 A3016 RMK AO2=
METAR KRGK 081335Z AUTO 30005KT 10SM CLR 22/18 A3009 RMK AO2=
METAR KFSE 081334Z AUTO 23004KT 10SM CLR 17/14 A3007 RMK AO2=
METAR KY70 081335Z AUTO 00000KT 5SM HZ SCT047 BKN120 25/22 A3002
     RMK AO2 T02520223=
METAR KUKT 081335Z AUTO 00000KT 9SM CLR 28/22 A3006 RMK AO1=
####018003732####
SAUS99 KWBC 081338 RRA
METAR
KSYN 081350Z AUTO 30006KT 10SM CLR 21/18 A3011 RMK AO2
     T02100175=
KVVV 081336Z AUTO 25005KT 10SM CLR 21/16 A3012 RMK AO2=
KROS 081335Z AUTO 27005KT 10SM CLR 21/16 A3010 RMK AO2
     T02050159=
KHCD 081332Z AUTO 27005KT 10SM CLR 20/16 A3013 RMK AO2
     T01950157=
KSGS 081333Z AUTO 32004KT 10SM CLR 22/16 A3011 RMK AO2
     T02150163=
KMJQ 081332Z AUTO 31007KT 10SM CLR 19/16 A3018 RMK AO2=
KHCO 081334Z AUTO 32009KT 10SM CLR 18/16 A3009 RMK AO2=
KLVN 081328Z AUTO 30005KT 10SM CLR 21/17 A3012 RMK AO2=
KPEX 081333Z AUTO 26007KT 10SM CLR 20/17 A3012 RMK AO2
     T02030166=
KJMR 081338Z AUTO 26003KT 10SM CLR 21/16 A3011 RMK AO2=
KJKJ 081334Z AUTO 28004KT 10SM CLR 19/17 A3008 RMK AO2=
KMVE 081334Z AUTO 29004KT 10SM CLR 20/17 A3012 RMK AO2=
KTKC 081333Z AUTO 27003KT 10SM CLR 21/15 A3016 RMK AO2
     T02050152=
KGYL 081335Z AUTO 28008KT 10SM CLR 20/16 A3012 RMK AO2
     T02010160=
KDXX 081334Z AUTO 00000KT 10SM CLR 20/19 A3012 RMK AO2=
KHZX 081331Z AUTO 26004KT 10SM CLR 20/16 A3008 RMK AO2=
KSAZ 081334Z AUTO 26005KT 10SM CLR 20/19 A3010 RMK AO2=
KONA 081330Z AUTO 31008KT 10SM SCT015 22/17 A3008 RMK AO2=
KOVL 081334Z AUTO 28005KT 10SM CLR 20/15 A3013 RMK AO2
     T01950150=
KLJF 081332Z AUTO 28007KT 10SM CLR 21/17 A3013 RMK AO2=
KAEL 081331Z AUTO 33004KT 10SM CLR 19/17 A3014 RMK AO2=
K29G 081334Z AUTO 00000KT 10SM CLR 27/19 A3009 RMK AO2 T02700188
     PWINO=
KMRT 081333Z AUTO 27003KT 10SM CLR 28/20 A3012 RMK AO2
     T02820196=
KIKW 081333Z AUTO 26003KT 10SM BKN070 OVC080 24/21 A3002 RMK AO2
     T02380210=
KMDS 081325Z AUTO 28005KT 10SM CLR 20/16 A3018 RMK AO2=
KFPK 081336Z AUTO 00000KT 10SM CLR 26/21 A3002 RMK AO2=
KMOP 081335Z AUTO 28005KT 10SM RA SCT033 SCT046 OVC060 23/23 A3002
     RMK AO2=
KCAD 081334Z AUTO 25004KT 7SM -RA SCT006 BKN044 OVC060 22/21 A3004
     RMK AO2=
KMGN 081335Z AUTO 26003KT 2SM RA SCT002 OVC008 21/20 A3000 RMK
     AO2=
KHAI 081335Z AUTO 00000KT 10SM SCT060 SCT075 SCT110 26/22 A3004
     RMK AO2=
KLWA 081336Z AUTO 00000KT 10SM BKN060 OVC075 24/21 A3003 RMK
     AO2=
KDRM 081336Z AUTO 24007KT 4SM RA BKN004 BKN032 OVC040 21/21 A2999
     RMK AO2=
KVLL 081334Z AUTO 28005KT 10SM CLR 30/19 A3005 RMK AO2=
KCFS 081335Z AUTO 28004KT 10SM SCT060 27/21 A3002 RMK AO2=
KOZW 081335Z AUTO 00000KT 10SM CLR 28/20 A3004 RMK AO2=
KRNP 081335Z AUTO 21005KT 10SM CLR 27/21 A3003 RMK AO2=
KDUH 081335Z AUTO 22003KT 10SM CLR 30/20 A3004 RMK AO2=
KJYM 081335Z AUTO 00000KT 10SM CLR 27/21 A3006 RMK AO2=
KBAX 081335Z AUTO 26004KT 10SM SCT095 27/23 A3001 RMK AO2=
KIRS 081335Z AUTO 10005KT 10SM CLR 27/22 A3003 RMK AO2=
KACB 081335Z AUTO 21003KT 7SM -RA SCT009 23/22 A3000 RMK AO2=
KRQB 081335Z AUTO 00000KT 5SM -DZ SCT005 BKN048 OVC060 22/22 A3003
     RMK AO2=
KOEB 081335Z AUTO 10004KT 10SM CLR 27/22 A3005 RMK AO2=
K4I3 081336Z AUTO 00000KT 10SM CLR 27/22 A3010 RMK AO2=
KAUM 081335Z AUTO 34005KT 10SM CLR 21/17 A3012 RMK AO2=
KFFX 081335Z AUTO 21003KT 10SM RA SCT007 BKN048 OVC070 23/22 A3002
     RMK AO2=
KCNB 081338Z AUTO 24007KT 10SM CLR 22/15 A3015 RMK AO2
     T02150147=
KCKN 081335Z AUTO 29004KT 10SM SCT060 18/14 A3008 RMK AO2=
KCFE 081335Z AUTO 25005KT 10SM CLR 21/17 A3013 RMK AO2
     T02090166=
KCQM 081337Z AUTO 26005KT 10SM CLR 19/15 A3005 RMK AO2=
KDTL 081335Z AUTO 29006KT 10SM CLR 20/11 A3011 RMK AO2=
KBDH 081335Z AUTO 28005KT 10SM CLR 19/16 A3014 RMK AO2=
KCBG 081335Z AUTO 26006KT 10SM CLR 21/17 A3010 RMK AO2=
KADC 081337Z AUTO 25004KT 10SM CLR 18/15 A3009 RMK AO2=
KHAF 081330Z AUTO 34003KT 7SM OVC006 12/10 A2995 RMK AO2=
KCKC 081335Z AUTO 26007KT 10SM CLR 21/14 A3005 RMK AO2=
####018003749####
SAUS99 KWBC 081338
METAR
K1A6 081335Z AUTO 00000KT 4SM BR CLR 26/24 A3013 RMK AO2=
K1P1 081335Z AUTO 00000KT 10SM OVC020 27/22 A3008 RMK AO2
     T02700221=
K21D 081338Z AUTO 28005KT 10SM CLR 21/17 A3011 RMK AO2=
KAIG 081335Z AUTO 35003KT 10SM SCT008 21/18 A3004 RMK AO2=
KARV 081332Z AUTO 33006KT 10SM SCT049 20/17 A3007 RMK AO2
     T01950165=
KBBP 081335Z AUTO 35003KT 10SM CLR 30/20 A2997 RMK AO2=
KBJI 081334Z AUTO 25006KT 10SM CLR 19/13 A3007 RMK AO2=
KBUU 081334Z AUTO 28005KT 10SM SCT027 22/19 A3004 RMK AO2=
KBWP 081331Z AUTO 29007KT 10SM CLR 20/16 A3010 RMK AO1
     T01950158=
KCLI 081335Z AUTO 35004KT 10SM CLR 23/19 A3002 RMK AO2=
KCMR 081335Z AUTO 16007KT 10SM CLR 17/02 A3027 RMK AO1=
KCMY 081335Z AUTO 30006KT 10SM BKN015 22/18 A3007 RMK AO2
     T02240180=
KDVK 081337Z AUTO 18003KT 7SM 29/21 A3010 RMK AO1=
KE80 081335Z AUTO 22003KT 10SM CLR 19/12 A3028 RMK AO2
     T01880121=
KEDC 081335Z AUTO 07006KT 25/25 A2999 RMK AO2=
KEIK 081335Z AUTO 31004KT 10SM SCT007 OVC012 13/12 A3033 RMK
     AO2=
KEOE 081335Z AUTO 00000KT 10SM CLR 30/20 A3005 RMK AO2=
KFMH 081335Z AUTO 15011KT 10SM BKN014 OVC019 25/21 A3011 RMK
     AO2=
KHVS 081335Z AUTO 00000KT 10SM CLR 30/20 A2999 RMK AO2=
KIFP 081335Z AUTO 00000KT 10SM CLR 27/00 A2978 RMK AO2=
KLCK 081335Z AUTO 00000KT 7SM CLR 28/22 A3008 RMK AO2
     T02800215=
KMAN 081335Z AUTO 12004KT 10SM CLR 15/03 A3009 RMK AO1=
KMWO 081335Z AUTO 00000KT 5SM HZ CLR 27/22 A3008 RMK AO2=
KNQA 081335Z COR 27004KT 10SM FEW150 30/24 A3009 RMK=
KPVB 081333Z AUTO 29003KT 7SM BKN009 BKN014 23/21 A3007 RMK AO1
     T02250208=
KPVF 081335Z AUTO 08007KT 10SM CLR 22/10 A2994 RMK AO1=
KRZN 081334Z AUTO 27006KT 10SM CLR 21/17 A3009 RMK AO2
     T02080165=
KSME 081335Z AUTO 00000KT 5SM HZ 28/21 A3010 RMK AO2=
KSRR 081335Z AUTO 00000KT 10SM OVC005 13/13 A3038 RMK AO2=
KTME 081335Z AUTO 05009KT 8SM CLR 25/25 A2997 RMK AO1=
KUOX 081335Z AUTO 00000KT 10SM CLR 27/22 A3010 RMK AO2=
PAAK 081336Z AUTO 07022G32KT 7SM BKN026 BKN075 OVC100 07/03 A2950
     RMK AO1 PNO=
PAHP 081336Z AUTO 33006KT 10SM CLR 08/07 A3003 RMK AO1 PNO
     TSNO=
KPQN 081333Z AUTO 33007KT 10SM CLR 21/14 A3017 RMK AO2=
KFGN 081334Z AUTO 28007KT 1SM HZ OVC070 17/14 A2999 RMK AO2 VIS
     1/2V1 1/2=
KPNM 081333Z AUTO 26007KT 10SM CLR 21/16 A3011 RMK AO2=
KPWC 081333Z AUTO 00000KT 10SM CLR 19/15 A3009 RMK AO2=
KFFM 081333Z AUTO 00000KT 10SM CLR 18/16 A3009 RMK AO2=
KGDB 081333Z AUTO 24005KT 10SM CLR 20/16 A3015 RMK AO2
     T01950164=
KAIT 081333Z AUTO 24004KT 10SM CLR 21/19 A3007 RMK AO2=
KGHW 081333Z AUTO 29007KT 10SM CLR 20/14 A3014 RMK AO2=
KMWM 081333Z AUTO 30007KT 10SM CLR 21/16 A3015 RMK AO2=
KULM 081335Z AUTO 31006KT 10SM CLR 20/16 A3014 RMK AO2=
KBBB 081333Z AUTO 27004KT 10SM CLR 20/17 A3012 RMK AO2=
KTWM 081333Z AUTO 26007KT 241V321 10SM CLR 21/15 A3003 RMK AO2=
KMGG 081335Z AUTO 28006KT 10SM CLR 21/17 A3013 RMK AO2
     T02100168=
KMOX 081330Z AUTO 26005KT 10SM CLR 22/17 A3008 RMK AO2=
KTEW 081333Z AUTO 16003KT 10SM CLR 26/21 A3004 RMK AO2=
KCVH 081330Z AUTO 00000KT 8SM OVC008 13/11 A2994 RMK AO1=
KFSO 081338Z AUTO 00000KT 7SM SCT060 27/24 A3001 RMK AO2=
KFBL 081334Z AUTO 29005KT 10SM CLR 20/16 A3014 RMK AO2=
KLYV 081338Z AUTO 00000KT 10SM CLR 19/16 A3018 RMK AO2=
KEFK 081335Z AUTO 20004KT 7SM CLR 27/22 A3006 RMK AO2=
KRRT 081334Z AUTO 26009KT 10SM CLR 17/14 A3003 RMK AO2=
KTOB 081334Z AUTO 35003KT 10SM CLR 19/17 A3013 RMK AO2=
KLXL 081334Z AUTO 27005KT 10SM CLR 20/14 A3009 RMK AO2=
KEVM 081332Z AUTO 26004KT 10SM CLR 18/15 A3003 RMK AO1=
KELO 081333Z AUTO 22006KT 10SM CLR 19/15 A3003 RMK AO2=
KROX 081334Z AUTO 27008KT 10SM CLR 18/15 A3003 RMK AO2=
####018000725####
SPUS99 KWBC 081338
SPECI
KMAF 081335Z 04008KT 10SM SCT007 BKN013 OVC018 22/20 A3013 RMK
     AO2=
KRKP 081336Z AUTO 15008G15KT 3/4SM +RA SCT015 SCT024 OVC037 A2988
     RMK AO2 RAE05B32 P0019 FZRANO $=
KBGD 081336Z AUTO 02005KT 10SM BKN014 20/17 A3021 RMK AO2=
KCNO 081336Z AUTO 23003KT 3SM HZ OVC009 16/13 A2993 RMK AO2=
KCYS 081336Z 00000KT 10SM SCT016 BKN040 14/12 A3037 RMK AO2=
KDMO 081336Z AUTO 00000KT 10SM SCT005 BKN014 OVC047 25/22 A3009
     RMK AO2=
KGLD 081336Z AUTO 00000KT 10SM FEW005 OVC040 17/16 A3032 RMK
     AO2=
KSGF 081336Z 25003KT 10SM SCT007 OVC015 24/23 A3009 RMK AO2=
KVPZ 081336Z AUTO 16004KT 2 1/2SM -RA BR SCT027 BKN050 BKN075
     23/23 A3004 RMK AO2 RAB14 P0000=
####018000243####
SACN88 KWBC 081338
METAR CWDA 081331Z AUTO 10010KT 10/09 RMK AO1 SLP179 T00990089
58021=
METAR CWDA 081300Z AUTO 10010KT 10/09 RMK AO1 SLP183 T01000093
58017=
METAR CWDA 081300Z AUTO 10010KT 10/09 RMK AO1 SLP183 T01000093
58017=
####018000080####
SACN89 KWBC 081338
METAR CWAF 081300Z AUTO 10004KT 11/10 RMK AO1 T01060104=
####018000095####
SACN94 KWBC 081338
METAR CWSL 081300Z AUTO 18003KT 12/09 RMK AO1 SLP198 T01200087
51013=
####018000095####
SACN91 KWBC 081338
METAR CWIJ 081300Z AUTO 32006KT 10/07 RMK AO1 SLP141 T01030072
57002=
####018000095####
SACN78 KWBC 081338
METAR CWKK 081300Z AUTO 19004KT 19/16 RMK AO1 SLP139 T01910163
58004=
####018002931####
SAUS99 KWBC 081338 RRB
METAR
KJYG 081335Z AUTO 29007KT 10SM CLR 21/19 A3016 RMK AO2=
KCOQ 081336Z AUTO 27006KT 10SM CLR 20/18 A3007 RMK AO2=
KACQ 081339Z AUTO 32005KT 10SM CLR 20/17 A3016 RMK AO2=
KRGK 081335Z AUTO 30005KT 10SM CLR 22/18 A3009 RMK AO2=
KFSE 081334Z AUTO 23004KT 10SM CLR 17/14 A3007 RMK AO2=
KY70 081335Z AUTO 00000KT 5SM HZ SCT047 BKN120 25/22 A3002 RMK AO2
     T02520223=
KUKT 081335Z AUTO 00000KT 9SM CLR 28/22 A3006 RMK AO1=
PAAK 081336Z AUTO 07022G32KT 7SM BKN026 BKN075 OVC100 07/03 A2950
     RMK AO1 PNO=
PABL 081336Z AUTO 00000KT 1/4SM VV002 04/03 A3014 RMK AO1 PNO=
PABV 081336Z AUTO 00000KT 10SM FEW065 FEW070 BKN090 11/08 RMK AO1
     PNO=
PADK 081336Z 03012G17KT 8SM FEW006 OVC015 06/06 A2947 RMK AO1
     PNO=
PADL 081336Z 30005KT 10SM SCT039 BKN080 09/08 A2996 RMK AO1 PNO
     TSNO=
PAEM 081336Z AUTO 31006KT 10SM OVC075 12/09 A3001 RMK AO1 PNO=
PAFE 081336Z AUTO 06004KT 10SM CLR 11/09 A3017 RMK AO1 PNO=
PAFM 081336Z AUTO 00000KT 10SM CLR 11/08 A3010 RMK AO1 PNO=
PAGL 081336Z AUTO 10SM CLR RMK AO1 PNO=
PAGS 081336Z AUTO 00000KT 10SM CLR 08/07 A3017 RMK AO1 PNO=
PAHP 081336Z AUTO 33006KT 10SM CLR 08/07 A3003 RMK AO1 PNO
     TSNO=
PAHY 081336Z AUTO 00000KT 10SM CLR 14/09 A3012 RMK AO1 PNO=
PAII 081336Z AUTO 36004KT 10SM CLR 09/07 A2997 RMK AO1 PNO=
PAIN 081336Z AUTO 00000KT 10SM CLR 06/05 A3006 RMK AO1 PNO=
PAJC 081336Z AUTO 00000KT 10SM FEW010 OVC017 09/03 A2992 RMK AO1
     PNO=
PAKK 081336Z AUTO 01009KT 10SM CLR 12/06 A3004 RMK AO1 PNO=
PAKP 081336Z AUTO 03003KT 10SM CLR 09/02 A3011 RMK AO1=
PAMD 081336Z AUTO 08017KT 2SM BKN003 OVC010 09/08 A3004 RMK AO1
     PNO=
PAMH 081336Z 00000KT 10SM CLR 13/05 A2998 RMK AO1 PNO=
PAMM 081336Z AUTO 33007KT 10SM CLR 16/11 A3010 RMK AO1 PNO=
PAMY 081336Z 29004KT 1/4SM OVC001 03/02 A3005 RMK AO1=
PANI 081336Z AUTO 00000KT 4SM CLR 06/04 A3000 RMK AO1 PNO=
PANV 081336Z AUTO 07005KT 10SM CLR 13/08 A2998 RMK AO1 PNO=
PAPG 081336Z 02004KT 10SM CLR 12/10 A3014 RMK AO1 PNO=
PAPH 081336Z AUTO 14003KT 1SM BKN002 03/01 A2994 RMK AO1 PNO=
PARC 081336Z AUTO 28003KT 10SM CLR 08/02 A3005 RMK AO1 PNO=
PASA 081336Z AUTO 31004KT 1/2SM OVC002 04/02 A3018 RMK AO1 PNO=
PASD 081336Z AUTO 00000KT 10SM BKN029 06/06 A2991 RMK AO1 PNO=
PASH 081336Z AUTO 00000KT 10SM CLR 07/05 A3016 RMK AO1 PNO=
PASK 081336Z 27008KT 10SM CLR 12/09 A3010 RMK AO1 PNO=
PASL 081336Z AUTO 00000KT 10SM BKN090 BKN120 11/08 A3000 RMK AO1
     PNO=
PASM 081336Z AUTO 03004KT 10SM OVC100 10/09 A3002 RMK AO1 PNO=
PAUN 081336Z AUTO 07009KT 10SM CLR 12/04 A3001 RMK AO1 PNO=
PAVD 081336Z 00000KT 10SM OVC090 11/08 A3008 RMK AO1 PNO=
PAWG 081336Z AUTO 00000KT 10SM CLR 12/10 A3014 RMK AO1 PNO=
PAWN 081336Z AUTO 34005KT 10SM CLR 07/01 A3014 RMK AO1 PNO=
PAWS 081336Z AUTO 17004KT 10SM CLR 11/08 A2998 RMK AO1 PNO=
PAZK 081336Z AUTO 03006KT 10SM CLR 07/03 A3007 RMK AO1 PNO=
####018000100####
SAKY31 RUMS 081330 RRA
METAR UAFO 081330Z 03002MPS 9999 FEW050CB 33/13 Q1018 NOSIG RMK
QFEM684=
####018000281####
SABY31 UMMN 081330
UMBB NIL=
METAR UMGG 081330Z VRB02MPS 9999 SCT050CB BKN100 26/17 Q1014
R28/290550 NOSIG=
METAR UMMM 081330Z 26006G09MPS 6000 OVC012CB 18/15 Q1015
R30/CLRD// NOSIG RMK QFE742=
METAR UMMS 081330Z 28004MPS 250V310 9999 BKN014 17/15 Q1015
R31/CLRD// NOSIG=
####018001019####
SPXX60 KWBC 081338
SPECI
KCEF 081329Z 18004KT 7SM OVC013 25/22 A3008 RMK AO2A SLP185 $=
KHLR 081330Z AUTO 06005KT 9SM FEW009 BKN013 OVC034 26/ A3002 RMK
     AO2 RAE04 P0000 T0261 $=
KLTS 081328Z AUTO 35003KT 9SM R35L/5500VP6000FT RA SCT005 23/22
     A3009 RMK AO2 RAB1322DZB1313E1322 SLP173 $=
KLTS 081332Z AUTO 34004KT 9SM R35L/5500FT RA BKN005 23/23 A3009
     RMK AO2 RAB1322DZB1313E1322 SLP173 $=
KNQI 081330Z 02007KT 10SM SCT016CB BKN120 BKN280 28/24 A2984 RMK
     AO2 CB DSNT NE AND E-SE AND NW-N $=
KSKF 081335Z 06009KT 4SM -SHRA BR FEW002 BKN010 OVC014 25/ A2995
     RMK AO2A VIS NW 2 $=
KSZL 081328Z 03006KT 10SM SCT007 BKN040 24/23 A3007 RMK AO2A
     DZE1324 SLP178 $=
PACZ SP 1335 AWOS MM 10 50/47/0410/003=
PAEH SP 1335 AWOS M60 OVC 10 50/-19/1404/998=
PATL SP 1335 AWOS CLR BLO 120 10 54/44/0000/000=
PGUA 081333Z AUTO 11011KT 9SM R06R/5000VP6000FT R06L/5000VP6000FT
     -RA SCT014 BKN022 26/ A2991 RMK AO2 RAB1325 CIG 011 RWY24L
     SLP109 VISNO RWY24L $=
####018003686####
SAUS70 KWBC 081338
METAR
K04W 081334Z AUTO 28005KT 10SM CLR 22/18 A3009 RMK AO2
     T02180175=
K0A9 081335Z AUTO 00000KT 10SM CLR 26/19 A3012 RMK=
K5SM 081333Z AUTO 00000KT 10SM CLR 11/02 A3058 RMK AO2=
K7BM 081336Z AUTO 00000KT 7SM SCT002 08/07 A3054 RMK AO2=
KAEG 081335Z AUTO 14009KT 10SM CLR 18/08 A3031 RMK AO1=
KBDU 081337Z AUTO 00000KT 10SM SCT015 OVC032 17/12 A3034 RMK
     AO2=
KBKN 081335Z AUTO 03008KT 10SM SCT013 23/22 A3008 RMK AO2=
KC29 081335Z AUTO 28003KT 4SM OVC004 23/21 A3005 RMK AO2
     T02250206=
KCCU 081336Z AUTO 19011KT 10SM CLR 08/01 A3064 RMK AO2=
KCIC 081335Z AUTO 14007KT 10SM CLR 19/12 A2985 RMK AO1=
KD39 081334Z AUTO 28006KT 10SM CLR 21/18 A3011 RMK AO2
     T02140178=
KDLL 081334Z AUTO 30006KT 10SM OVC011 22/20 A3005 RMK AO2=
KGGE 081335Z AUTO 33006KT 10SM CLR 28/21 A2994 RMK AO2=
KLUX 081335Z AUTO 35003KT 10SM CLR 28/24 A3004 RMK AO2=
KMAO 081335Z AUTO 01005KT 7SM CLR 28/20 A2995 RMK AO2=
KMER 081335Z AUTO 31007KT 10SM CLR 16/12 A2984 RMK AO1=
KMYP 081236Z AUTO 20011KT 10SM CLR 04/02 A3075 RMK AO2=
KRCE 081335Z AUTO 32005KT 6SM BR BKN004 23/22 A3009 RMK AO2=
KVTP 081340Z AUTO 00000KT 10SM CLR 09/03 A3055 RMK AO2=
KWYS 081330Z AUTO 00000KT 10SM CLR 05/00 A3038 RMK AO2=
KX40 081335Z AUTO 00000KT 10SM SCT016 28/22 A3003 RMK AO2
     T02840222=
KY51 081335Z AUTO 32008KT 10SM BKN009 22/20 A3008 RMK AO1
     T02190195=
K1A6 081335Z AUTO 00000KT 4SM BR CLR 26/24 A3013 RMK AO2=
K1P1 081335Z AUTO 00000KT 10SM OVC020 27/22 A3008 RMK AO2
     T02700221=
K21D 081338Z AUTO 28005KT 10SM CLR 21/17 A3011 RMK AO2=
KAIG 081335Z AUTO 35003KT 10SM SCT008 21/18 A3004 RMK AO2=
KARV 081332Z AUTO 33006KT 10SM SCT049 20/17 A3007 RMK AO2
     T01950165=
KBBP 081335Z AUTO 35003KT 10SM CLR 30/20 A2997 RMK AO2=
KBJI 081334Z AUTO 25006KT 10SM CLR 19/13 A3007 RMK AO2=
KBUU 081334Z AUTO 28005KT 10SM SCT027 22/19 A3004 RMK AO2=
KBWP 081331Z AUTO 29007KT 10SM CLR 20/16 A3010 RMK AO1
     T01950158=
KCMR 081335Z AUTO 16007KT 10SM CLR 17/02 A3027 RMK AO1=
KCMY 081335Z AUTO 30006KT 10SM BKN015 22/18 A3007 RMK AO2
     T02240180=
KE80 081335Z AUTO 22003KT 10SM CLR 19/12 A3028 RMK AO2
     T01880121=
KEDC 081335Z AUTO 07006KT 25/25 A2999 RMK AO2=
KEIK 081335Z AUTO 31004KT 10SM SCT007 OVC012 13/12 A3033 RMK
     AO2=
KEOE 081335Z AUTO 00000KT 10SM CLR 30/20 A3005 RMK AO2=
KFMH 081335Z AUTO 15011KT 10SM BKN014 OVC019 25/21 A3011 RMK
     AO2=
KHVS 081335Z AUTO 00000KT 10SM CLR 30/20 A2999 RMK AO2=
KIFP 081335Z AUTO 00000KT 10SM CLR 27/00 A2978 RMK AO2=
KLCK 081335Z AUTO 00000KT 7SM CLR 28/22 A3008 RMK AO2
     T02800215=
KMAN 081335Z AUTO 12004KT 10SM CLR 15/03 A3009 RMK AO1=
KMWO 081335Z AUTO 00000KT 5SM HZ CLR 27/22 A3008 RMK AO2=
KNQA 081335Z COR 27004KT 10SM FEW150 30/24 A3009 RMK=
KPVB 081333Z AUTO 29003KT 7SM BKN009 BKN014 23/21 A3007 RMK AO1
     T02250208=
KPVF 081335Z AUTO 08007KT 10SM CLR 22/10 A2994 RMK AO1=
KRZN 081334Z AUTO 27006KT 10SM CLR 21/17 A3009 RMK AO2
     T02080165=
KSME 081335Z AUTO 00000KT 5SM HZ 28/21 A3010 RMK AO2=
KSRR 081335Z AUTO 00000KT 10SM OVC005 13/13 A3038 RMK AO2=
KTME 081335Z AUTO 05009KT 8SM CLR 25/25 A2997 RMK AO1=
KUOX 081335Z AUTO 00000KT 10SM CLR 27/22 A3010 RMK AO2=
PAAK 081336Z AUTO 07022G32KT 7SM BKN026 BKN075 OVC100 07/03 A2950
     RMK AO1 PNO=
PAHP 081336Z AUTO 33006KT 10SM CLR 08/07 A3003 RMK AO1 PNO
     TSNO=
PAAK 081336Z AUTO 07022G32KT 7SM BKN026 BKN075 OVC100 07/03 A2950
     RMK AO1 PNO=
PABL 081336Z AUTO 00000KT 1/4SM VV002 04/03 A3014 RMK AO1 PNO=
PABV 081336Z AUTO 00000KT 10SM FEW065 FEW070 BKN090 11/08 RMK AO1
     PNO=
####018000334####
SAUS80 KWBC 081338
METAR
K4BM 081333Z AUTO 23007KT M1/4SM -SN 04/03 A3062 RMK AO2=
KSMS 081335Z AUTO 33005KT 10SM CLR 29/21 A2999 RMK AO2=
KCLI 081335Z AUTO 35004KT 10SM CLR 23/19 A3002 RMK AO2=
KDVK 081337Z AUTO 18003KT 7SM 29/21 A3010 RMK AO1=
PADK 081336Z 03012G17KT 8SM FEW006 OVC015 06/06 A2947 RMK AO1
     PNO=
####018001182####
SPUS70 KWBC 081338
SPECI
KJCT 081334Z AUTO 03003KT 9SM BKN008 OVC022 24/22 A3004 RMK AO2
     CIG 005V011 TSNO=
PAKI 081332Z AUTO 36005KT M1/4SM FG VV004 06/06 A3001 RMK AO2
     PWINO TSNO $=
KACV 081335Z AUTO 00000KT 4SM BR OVC001 10/09 A2995 RMK AO2=
KCDW 081335Z 13005KT 5SM HZ SCT031 28/23 A3005 RMK AO2=
KHQM 081335Z AUTO 26006KT 1/2SM FG 13/13 A2997 RMK AO2 $=
KPIL 081335Z AUTO 31006KT 5SM -RA BR FEW014 SCT022 BKN029 28/26
     A2977 RMK AO2 RAB24 P0002=
KMAF 081335Z 04008KT 10SM SCT007 BKN013 OVC018 22/20 A3013 RMK
     AO2=
KRKP 081336Z AUTO 15008G15KT 3/4SM +RA SCT015 SCT024 OVC037 A2988
     RMK AO2 RAE05B32 P0019 FZRANO $=
KBGD 081336Z AUTO 02005KT 10SM BKN014 20/17 A3021 RMK AO2=
KCNO 081336Z AUTO 23003KT 3SM HZ OVC009 16/13 A2993 RMK AO2=
KCYS 081336Z 00000KT 10SM SCT016 BKN040 14/12 A3037 RMK AO2=
KDMO 081336Z AUTO 00000KT 10SM SCT005 BKN014 OVC047 25/22 A3009
     RMK AO2=
KGLD 081336Z AUTO 00000KT 10SM FEW005 OVC040 17/16 A3032 RMK
     AO2=
KSGF 081336Z 25003KT 10SM SCT007 OVC015 24/23 A3009 RMK AO2=
KVPZ 081336Z AUTO 16004KT 2 1/2SM -RA BR SCT027 BKN050 BKN075
     23/23 A3004 RMK AO2 RAB14 P0000=
####018002188####
SAUS70 KWBC 081338 RRA
METAR
PADL 081336Z 30005KT 10SM SCT039 BKN080 09/08 A2996 RMK AO1 PNO
     TSNO=
PAEM 081336Z AUTO 31006KT 10SM OVC075 12/09 A3001 RMK AO1 PNO=
PAFE 081336Z AUTO 06004KT 10SM CLR 11/09 A3017 RMK AO1 PNO=
PAFM 081336Z AUTO 00000KT 10SM CLR 11/08 A3010 RMK AO1 PNO=
PAGL 081336Z AUTO 10SM CLR RMK AO1 PNO=
PAGS 081336Z AUTO 00000KT 10SM CLR 08/07 A3017 RMK AO1 PNO=
PAHP 081336Z AUTO 33006KT 10SM CLR 08/07 A3003 RMK AO1 PNO
     TSNO=
PAHY 081336Z AUTO 00000KT 10SM CLR 14/09 A3012 RMK AO1 PNO=
PAII 081336Z AUTO 36004KT 10SM CLR 09/07 A2997 RMK AO1 PNO=
PAIN 081336Z AUTO 00000KT 10SM CLR 06/05 A3006 RMK AO1 PNO=
PAJC 081336Z AUTO 00000KT 10SM FEW010 OVC017 09/03 A2992 RMK AO1
     PNO=
PAKK 081336Z AUTO 01009KT 10SM CLR 12/06 A3004 RMK AO1 PNO=
PAKP 081336Z AUTO 03003KT 10SM CLR 09/02 A3011 RMK AO1=
PAMD 081336Z AUTO 08017KT 2SM BKN003 OVC010 09/08 A3004 RMK AO1
     PNO=
PAMH 081336Z 00000KT 10SM CLR 13/05 A2998 RMK AO1 PNO=
PAMM 081336Z AUTO 33007KT 10SM CLR 16/11 A3010 RMK AO1 PNO=
PAMY 081336Z 29004KT 1/4SM OVC001 03/02 A3005 RMK AO1=
PANI 081336Z AUTO 00000KT 4SM CLR 06/04 A3000 RMK AO1 PNO=
PANV 081336Z AUTO 07005KT 10SM CLR 13/08 A2998 RMK AO1 PNO=
PAPG 081336Z 02004KT 10SM CLR 12/10 A3014 RMK AO1 PNO=
PAPH 081336Z AUTO 14003KT 1SM BKN002 03/01 A2994 RMK AO1 PNO=
PARC 081336Z AUTO 28003KT 10SM CLR 08/02 A3005 RMK AO1 PNO=
PASA 081336Z AUTO 31004KT 1/2SM OVC002 04/02 A3018 RMK AO1 PNO=
PASD 081336Z AUTO 00000KT 10SM BKN029 06/06 A2991 RMK AO1 PNO=
PASH 081336Z AUTO 00000KT 10SM CLR 07/05 A3016 RMK AO1 PNO=
PASK 081336Z 27008KT 10SM CLR 12/09 A3010 RMK AO1 PNO=
PASL 081336Z AUTO 00000KT 10SM BKN090 BKN120 11/08 A3000 RMK AO1
     PNO=
PASM 081336Z AUTO 03004KT 10SM OVC100 10/09 A3002 RMK AO1 PNO=
PAUN 081336Z AUTO 07009KT 10SM CLR 12/04 A3001 RMK AO1 PNO=
PAVD 081336Z 00000KT 10SM OVC090 11/08 A3008 RMK AO1 PNO=
PAWG 081336Z AUTO 00000KT 10SM CLR 12/10 A3014 RMK AO1 PNO=
PAWN 081336Z AUTO 34005KT 10SM CLR 07/01 A3014 RMK AO1 PNO=
PAWS 081336Z AUTO 17004KT 10SM CLR 11/08 A2998 RMK AO1 PNO=
PAZK 081336Z AUTO 03006KT 10SM CLR 07/03 A3007 RMK AO1 PNO=
####018000311####
SAAL31 KWBC 081300 RRD
METAR
DAAG 081330Z 04015KT CAVOK 34/15 Q1018=
DAAT 081330Z NIL=
DABB 081330Z 02013KT CAVOK 28/21 Q1019=
DABC 081330Z 36012KT CAVOK 34/05 Q1022=
DAON 081330Z 00000KT 9999 FEW026 38/20 Q1016=
DAOO 081330Z 36010KT CAVOK 33/22 Q1015=
DAUH 081330Z 04012KT CAVOK 40/20 Q1017=
####018000117####
SAAS31 KWBC 081330 RRA
METAR
VTBS 081330Z 18004KT 9999 FEW020TCU SCT120 BKN300 30/25 Q1008 TCU
     W NOSIG=
####018000711####
SAAS33 KWBC 081330 RRA
METAR
VDPP 081330Z 28003KT 9000 SCT015 FEW017CB SCT040 29/22 Q1008 CB:
     NW.NE=
VDSR 081330Z VRB01KT 8000 SCT017 SCT130 27/23 Q1008=
VLVT 081330Z NIL=
VTBD 081330Z 15006KT 9999 FEW020 SCT120 BKN300 30/24 Q1007
     NOSIG=
VTBU 081330Z 17004KT 9999 FEW020 BKN300 31/26 Q1008 A2977=
VTCC 081330Z 07007KT 9999 FEW025CB SCT035 BKN300 29/21 Q1009 A2980
     CB E,SE=
VTSP 081330Z 33005KT 9000 FEW020 BKN300 29/24 Q1010 A2985
     NOSIG=
VTSS 081330Z NIL=
VVDN 081330Z 23007KT 9999 FEW017 SCT300 25/21 Q1008 NOSIG=
VVNB 081330Z 11004KT 060V160 CAVOK 30/23 Q1003 NOSIG=
VVTS 081330Z VRB02KT 9999 TS FEW015CB SCT017 27/22 Q1009 TEMPO
     TL1400 3000 TSRA=
####018000084####
SAAW42 KWBC 081300 RRC
METAR
OMAD 081300Z 34010KT 9000 NSC 40/23 Q0998 A2947=
####018000842####
SAAW34 KWBC 081315 RRB
METAR
UAAA 081330Z 28003MPS 9999 SCT050CB BKN100 26/09 Q1013 88CLRD65
     TEMPO TS=
UACC 081330Z 32007MPS CAVOK 23/02 Q1008 220/0070 NOSIG RMK
     QFE725/0967=
UAKK 081330Z 12005MPS 080V140 9999 SCT050CB BKN/// 22/07 Q1007
     230///70 TEMPO TSRA RMK QFE709/0946=
UAOO 081330Z NIL=
UARR 081330Z NIL=
UATE 081330Z 03007MPS CAVOK 39/07 Q1009 300///70 NOSIG RMK
     QFE755/1007=
UATG 081330Z 35006G09MPS CAVOK 39/08 Q1008 32CLRD70 NOSIG RMK
     QFE758/1011=
UATT 081330Z 03005MPS 9999 NSC 33/02 Q1010 13CLRD70 NOSIG RMK
     QFE738/0984=
UAUU 081330Z 35008G13MPS CAVOK 25/M04 Q1012 33CLRD70 NOSIG RMK
     QFE743/0991=
UTDD 081330Z 00000MPS 9999 SKC 35/13 Q1008 09CLRD70 NOSIG RMK
     QFE689/0918=
UTSS 081330Z 08006MPS 050V110 9999 NSC 33/12 Q1010 R88/CLRD70
     NOSIG=
####018000242####
SACA33 KWBC 081300 RRD
METAR
TNCA 081300Z 07019KT 9999 FEW018 31/25 Q1012 NOSIG=
TNCB 081300Z AUTO /////KT //// ////// 30/25 Q1013=
TNCC 081300Z 08012KT 9999 FEW018 30/26 Q1013 NOSIG=
TNCE 081300Z 06013KT 9999 FEW018 30/25 Q1016=
####018000516####
SACI32 KWBC 081300 RRC
METAR
ZBAA 081330Z 18005MPS CAVOK 30/18 Q1005 NOSIG=
ZBTJ 081330Z 14003MPS CAVOK 26/18 Q1006 NOSIG=
ZBYN 081330Z 08005MPS CAVOK 27/15 Q1009 NOSIG=
ZGGG 081330Z 16004MPS 9999 SCT033 32/26 Q1007 NOSIG=
ZSHC 081330Z 24002MPS 6000 -RA SCT007 26/23 Q1005 NOSIG=
ZSPD 081330Z 12006MPS 9999 SCT009 26/24 Q1006 NOSIG=
ZSSS 081330Z 11005MPS 9999 SCT016 27/23 Q1005 NOSIG=
ZWWW 081330Z 21005MPS 9999 FEW033CB 29/09 Q1011 NOSIG=
ZYTL 081330Z 32003MPS 5000 BR NSC 23/20 Q1007 NOSIG=
####018000269####
SAEE31 KWBC 081330 RRA
METAR
UKKK 081330Z 28004MPS 250V310 CAVOK 26/17 Q1015 26CLRD70 NOSIG=
UMMM 081330Z 26006G09MPS 6000 OVC012CB 18/15 Q1015 R30/CLRD//
     NOSIG RMK QFE742=
UMMS 081330Z 28004MPS 250V310 9999 BKN014 17/15 Q1015 R31/CLRD//
     NOSIG=
####018000144####
SAEE32 KWBC 081330 RRA
METAR
LRAR 081330Z 35008KT 330V070 9999 BKN045 24/13 Q1020=
LRTM 081330Z 25006KT 9999 FEW030 BKN036 18/15 Q1020=
####018000095####
SAEM31 KWBC 081330 RRA
METAR
LJLJ 081330Z 07004KT 360V120 9999 FEW043 25/10 Q1022 NOSIG=
####018000094####
SAFR32 KWBC 081330 RRA
METAR
LFTW 081330Z AUTO 21007KT 170V260 9999NDV NSC 32/15 Q1020=
####018000151####
SAEW31 KWBC 081330 RRA
METAR
LPAZ 081330Z 24006KT 9999 BKN016 BKN030 21/20 Q1025=
LPPD 081330Z 23005KT 200V260 9999 FEW015 BKN030 21/16 Q1024=
####018000073####
SAIO31 KWBC 081300 RRF
METAR
VYMD 081330Z NIL=
VYYY 081330Z NIL=
####018000538####
SAJP31 KWBC 081330 RRA
METAR
RJAA 081330Z 17007KT 9999 FEW015 BKN020 23/22 Q1011 NOSIG=
RJAA 081330Z 17007KT 9999 FEW015 BKN020 23/22 Q1011 NOSIG RMK
     1CU015 6CU020 A2987=
RJCC 081330Z 18004KT 1200 R01L/P1800N R01R/1000V1500D -DZ BR
     BKN002 17/17 Q1010=
RJCC 081330Z 18004KT 1200 R01L/P1800N R01R/1000V1500D -DZ BR
     BKN002 17/17 Q1010 RMK 7ST002 A2985=
RJTT 081330Z 18011KT 9999 FEW006 SCT010 BKN/// 25/23 Q1010=
RJTT 081330Z 18011KT 9999 FEW006 SCT010 BKN/// 25/23 Q1010 RMK
     1ST006 3CU010 A2984=
####018000097####
SAMM31 KWBC 081230 RRC
METAR
LCRA 081250Z 23011KT 9999 FEW020 FEW040TCU 28/21 Q1008 NOSIG=
####018000086####
SAPA32 KWBC 081300 RRB
METAR
NWWW 081330Z AUTO 19003KT 9999NDV NCD 16/14 Q1015=
####018000273####
SAPO31 KWBC 081300 RRE
METAR
LPAZ 081330Z 24006KT 9999 BKN016 BKN030 21/20 Q1025=
LPFL 081330Z 20007KT 170V240 9999 FEW022TCU BKN040 24/17 Q1022=
LPHR 081330Z 21005KT 170V240 9999 FEW015 23/18 Q1023=
LPPD 081330Z 23005KT 200V260 9999 FEW015 BKN030 21/16 Q1024=
####018001239####
SARA31 KWBC 081300 RRI
METAR
UAAA 081330Z 28003MPS 9999 SCT050CB BKN100 26/09 Q1013 88CLRD65
     TEMPO TS=
UACC 081330Z 32007MPS CAVOK 23/02 Q1008 220/0070 NOSIG RMK
     QFE725/0967=
UAFM 081330Z 24005MPS CAVOK 31/07 Q1012 NOSIG=
UAFO 081330Z 03002MPS 9999 FEW050CB 33/13 Q1018 NOSIG RMK
     QFEM684=
UAFO 081330Z NIL=
UAOO 081330Z NIL=
UARR 081330Z NIL=
UATE 081330Z 03007MPS CAVOK 39/07 Q1009 300///70 NOSIG RMK
     QFE755/1007=
UATG 081330Z 35006G09MPS CAVOK 39/08 Q1008 32CLRD70 NOSIG RMK
     QFE758/1011=
UATT 081330Z 03005MPS 9999 NSC 33/02 Q1010 13CLRD70 NOSIG RMK
     QFE738/0984=
UMGG 081330Z VRB02MPS 9999 SCT050CB BKN100 26/17 Q1014 R28/290550
     NOSIG=
UMMM 081330Z 26006G09MPS 6000 OVC012CB 18/15 Q1015 R30/CLRD//
     NOSIG RMK QFE742=
UMMS 081330Z 28004MPS 250V310 9999 BKN014 17/15 Q1015 R31/CLRD//
     NOSIG=
UTAA 081330Z 10001MPS 9999 SKC 43/04 Q1007 NOSIG=
UTAK 081330Z NIL=
UTAT 081330Z NIL=
UTAV 081330Z NIL=
UTDD 081330Z 00000MPS 9999 SKC 35/13 Q1008 09CLRD70 NOSIG RMK
     QFE689/0918=
UTDL 081330Z 27004MPS 9999 FEW053 37/09 Q1008 NOSIG RMK QFE719
     8809//70=
UTSS 081330Z 08006MPS 050V110 9999 NSC 33/12 Q1010 R88/CLRD70
     NOSIG=
####018000082####
SARS31 KWBC 081300 RRC
METAR
UTAM 081330Z 01004MPS CAVOK 41/07 Q1004 NOSIG=
####018000087####
SASP31 KWBC 081330 CCA
METAR
LEST 081330Z VRB03KT 9999 FEW025 29/19 Q1016 NOSIG=
####018000116####
SAUK42 KWBC 081250 RRE
METAR
EGOV 081250Z 19015KT 9999 -RA FEW017 BKN080 BKN100 17/13 Q1017 BLU
     NOSIG=
####018000568####
SAUR31 KWBC 081250 RRB
METAR
UKCW 081330Z VRB02MPS 9999 BKN040 29/17 Q1014 2709//70 NOSIG=
UKKK 081330Z 28004MPS 250V310 CAVOK 26/17 Q1015 26CLRD70 NOSIG=
UKKM 081330Z 28003MPS CAVOK 26/17 Q1015 33CLRD70 NOSIG=
UKLI 081330Z 31003MPS 270V010 9999 SCT021CB BKN026 18/15 Q1020
     28290565 NOSIG=
UKLN 081330Z 28004MPS 210V310 9999 BKN014 BKN033CB 16/14 Q1020
     3319//65 NOSIG=
UKLR 081330Z 32005MPS 9999 SCT030 BKN100 22/14 Q1018 30090070
     NOSIG=
UKON 081330Z 32003MPS 290V350 9999 VCTS FEW033CB OVC200 28/18
     Q1013 05090075 NOSIG=
####018000467####
SAXX99 KWBC 081300 RRX
METAR
EGVN 081250Z 24006KT 9999 FEW045 BKN200 23/07 Q1018 NOSIG=
EGXC 081250Z 24008KT 9999 FEW045 BKN250 22/07 Q1017 BLU NOSIG=
LKKV 081330Z VRB03KT CAVOK 25/08 Q1023 RMK REG QNH 1020=
RJBB 081330Z 23007KT 9999 FEW045 SCT060 BKN/// 25/23 Q1009
     NOSIG=
RJGG 081330Z 13005KT 9999 FEW010 BKN/// 25/23 Q1010 NOSIG=
UDYZ 081330Z 16003MPS 9999 FEW050 38/12 Q1007 09010070 NOSIG=
ZYTX 081330Z VRB01MPS CAVOK 19/18 Q1007 NOSIG=
####018000085####
SAXX99 KWBC 081300 CCE
METAR
ETUO 081250Z 25005KT CAVOK 31/10 Q1019 BLU NOSIG=
####018000079####
SPUS44 KWBC 081338
SPECI
KHQM 081335Z AUTO 26006KT 1/2SM FG 13/13 A2997=
####018000415####
SAAL40 DAMM 081330
METAR DAAG 081330Z 04015KT CAVOK 34/15 Q1018=
METAR DAAT 081330Z NIL=
METAR DABB 081330Z 02013KT CAVOK 28/21 Q1019=
METAR DABC 081330Z 36012KT CAVOK 34/05 Q1022=
METAR DABS 081330Z 34010KT CAVOK 35/06 Q1023=
METAR DAON 081330Z 00000KT 9999 FEW026 38/20 Q1016=
METAR DAOO 081330Z 36010KT CAVOK 33/22 Q1015=
METAR DAUH 081330Z 04012KT CAVOK 40/20 Q1017=
METAR DAUZ 081330Z NIL=
####018000075####
SAEG31 HECA 081330
METAR HECA 081330Z 33009KT CAVOK 33/18 Q1010 NOSIG=
####018000084####
SPUS74 KWBC 081338
SPECI
KACV 081335Z AUTO 00000KT 4SM BR OVC001 10/09 A2995=
####018000079####
SPUS74 KWBC 081338
SPECI
KHQM 081335Z AUTO 26006KT 1/2SM FG 13/13 A2997=
####018000080####
SACN88 CWAO 081331
WNS SA 1331 AUTO8 M M M 197/27/18/MMMM/M/M 8004 94MM=

####018000089####
SAPK31 OPKC 081330
METAR OPKC 081325Z 24012KTS 8000 SCT030 SCT100 33/24 Q1002 NOSIG=
####018000100####
SPCN52 CWAO 081335
SPECI CZFM 081335Z 18005KT 35SM -RA FEW020 BKN040 BKN070 RMK
SF0SC3AC3=

####018000106####
SAUK39 EGRR 081250 RRS
METAR EGDR 081250Z 22006KT 9999 FEW022 BKN100 BKN220 18/14 Q1019 BLU
 NOSIG=
####018000093####
SAUK39 EGRR 081250 RRT
METAR EGUB 081250Z AUTO 21009KT 9999NDV // SCT039/// 24/19 Q1018=
####018000610####
SPNA14 KAWN 081338 RRE
SPECI KNQI 081330Z 02007KT 10SM SCT016CB BKN120 BKN280 28/24 A2984
      RMK AO2 CB DSNT NE AND E-SE AND NW-N $=
SPECI KSKF 081335Z COR 06009KT 4SM -SHRA BR FEW002 BKN010 OVC014 25/25
      A2995 RMK AO2A VIS NW 2 COR 1336 $=
SPECI KSKF 081335Z 06009KT 4SM -SHRA BR FEW002 BKN010 OVC014 25/ A2995
      RMK AO2A VIS NW 2 $=
SPECI KSZL 081328Z 03006KT 10SM SCT007 BKN040 24/23 A3007 RMK AO2A
      DZE1324 SLP178 $=
SPECI KTBN 081336Z 00000KT 10SM -RA SCT005 OVC033 25/21 A3009 RMK AO2A
      SLP173 $=
SPECI KVOK 081335Z 33007KT 10SM BKN010 21/21 A3006 RMK AO2A=
####018000131####
SAAK41 KNKA 081338
SPECI PASO 081336Z AUTO 00000KT 10SM BKN004 BKN085 OVC120 09/09 
    A2992 RMK AO2 RAB1254E06 P0001 TSNO=
####018000114####
SAUK39 EGRR 081250 CCB
METAR COR EGOV 081250Z 19015KT 9999 -RA FEW017 BKN080 BKN100 17/13
 Q1017 BLU NOSIG=
####018000083####
SPCN52 CWAO 081334
SPECI CWSA 081334Z AUTO 22007KT 1/2SM VV001 18/18 A3022=

####018002974####
SAUS20 KNKA 081338
METAR K14Y 081339Z AUTO 26007KT 10SM CLR 21/16 A3011 RMK AO2 
     T02050158=
METAR K29G 081334Z AUTO 00000KT 10SM CLR 27/19 A3009 RMK AO2
     T02700188 PWINO=
METAR K4I3 081336Z AUTO 00000KT 10SM CLR 27/22 A3010 RMK AO2=
METAR K4M9 081335Z AUTO 24006KT 10SM CLR 27/25 A3008 RMK AO2 =
METAR KACB 081335Z AUTO 21003KT 7SM -RA SCT009 23/22 A3000 RMK
     AO2=
METAR KACQ 081339Z AUTO 32005KT 10SM CLR 20/17 A3016 RMK AO2=
METAR KADC 081337Z AUTO 25004KT 10SM CLR 18/15 A3009 RMK AO2=
METAR KAEJ 081335Z AUTO 33003KT 10SM BKN016 10/08 A3045 RMK AO2=
METAR KAEL 081331Z AUTO 33004KT 10SM CLR 19/17 A3014 RMK AO2=
METAR KAIT 081333Z AUTO 24004KT 10SM CLR 21/19 A3007 RMK AO2=
METAR KAUM 081335Z AUTO 34005KT 10SM CLR 21/17 A3012 RMK AO2=
METAR KBAX 081335Z AUTO 26004KT 10SM SCT095 27/23 A3001 RMK
     AO2=
METAR KBBB 081333Z AUTO 27004KT 10SM CLR 20/17 A3012 RMK AO2=
METAR KBDH 081335Z AUTO 28005KT 10SM CLR 19/16 A3014 RMK AO2=
METAR KBVU 081335Z AUTO 31004KT 10SM CLR 24/00 A2990 RMK AO2 =
METAR KCAD 081334Z AUTO 25004KT 7SM -RA SCT006 BKN044 OVC060 22/21
     A3004 RMK AO2=
METAR KCBG 081335Z AUTO 26006KT 10SM CLR 21/17 A3010 RMK AO2=
SPECI KCEC 081337Z AUTO 00000KT 2 1/2SM BR OVC001 10/09 A2998 RMK 
    AO2=
METAR KCFE 081335Z AUTO 25005KT 10SM CLR 21/17 A3013 RMK AO2
     T02090166=
METAR KCFS 081335Z AUTO 28004KT 10SM SCT060 27/21 A3002 RMK
     AO2=
METAR KCKC 081335Z AUTO 26007KT 10SM CLR 21/14 A3005 RMK AO2=
METAR KCKN 081335Z AUTO 29004KT 10SM SCT060 18/14 A3008 RMK
     AO2=
METAR KCNB 081338Z AUTO 24007KT 10SM CLR 22/15 A3015 RMK AO2
     T02150147=
METAR KCOQ 081336Z AUTO 27006KT 10SM CLR 20/18 A3007 RMK AO2=
METAR KCQM 081337Z AUTO 26005KT 10SM CLR 19/15 A3005 RMK AO2=
METAR KCVH 081330Z AUTO 00000KT 8SM OVC008 13/11 A2994 RMK AO1=
METAR KDCM 081335Z AUTO 01005KT 5SM HZ CLR 29/24 A3002 RMK AO2=
METAR KDRM 081336Z AUTO 24007KT 4SM RA BKN004 BKN032 OVC040 21/21
     A2999 RMK AO2=
METAR KDTL 081335Z AUTO 29006KT 10SM CLR 20/11 A3011 RMK AO2=
METAR KDUH 081335Z AUTO 22003KT 10SM CLR 30/20 A3004 RMK AO2=
METAR KDXX 081334Z AUTO 00000KT 10SM CLR 20/19 A3012 RMK AO2=
METAR KEFK 081335Z AUTO 20004KT 7SM CLR 27/22 A3006 RMK AO2=
METAR KEFT 081335Z AUTO 32007KT 10SM BKN004 BKN010 BKN014 23/20 
     A3006 RMK AO2 T02250202=
METAR KELO 081333Z AUTO 22006KT 10SM CLR 19/15 A3003 RMK AO2=
METAR KETB 081332Z AUTO 28005KT 10SM BKN009 OVC032 23/21 A3003 
     RMK AO2 T02290206=
METAR KEVM 081332Z AUTO 26004KT 10SM CLR 18/15 A3003 RMK AO1=
METAR KEZS 081335Z AUTO 01004KT 10SM CLR 24/21 A3001 RMK AO2 
     T02400206=
METAR KFBL 081334Z AUTO 29005KT 10SM CLR 20/16 A3014 RMK AO2=
METAR KFFM 081333Z AUTO 00000KT 10SM CLR 18/16 A3009 RMK AO2=
METAR KFFX 081335Z AUTO 21003KT 10SM RA SCT007 BKN048 OVC070 23/22
     A3002 RMK AO2=
METAR KFGN 081334Z AUTO 28007KT 1SM HZ OVC070 17/14 A2999 RMK AO2
     VIS 1/2V1 1/2=
####018003000####
SAUS20 KNKA 081338
METAR KFPK 081336Z AUTO 00000KT 10SM CLR 26/21 A3002 RMK AO2=
METAR KFSE 081334Z AUTO 23004KT 10SM CLR 17/14 A3007 RMK AO2=
METAR KFSO 081338Z AUTO 00000KT 7SM SCT060 27/24 A3001 RMK AO2=
METAR KGDB 081333Z AUTO 24005KT 10SM CLR 20/16 A3015 RMK AO2
     T01950164=
METAR KGHW 081333Z AUTO 29007KT 10SM CLR 20/14 A3014 RMK AO2=
METAR KGLW 081333Z AUTO 00000KT 10SM CLR 29/21 A3009 RMK AO2 
     T02900207=
METAR KGYL 081335Z AUTO 28008KT 10SM CLR 20/16 A3012 RMK AO2
     T02010160=
METAR KHAF 081330Z AUTO 34003KT 7SM OVC006 12/10 A2995 RMK AO2=
METAR KHAI 081335Z AUTO 00000KT 10SM SCT060 SCT075 SCT110 26/22
     A3004 RMK AO2=
METAR KHCD 081332Z AUTO 27005KT 10SM CLR 20/16 A3013 RMK AO2
     T01950157=
METAR KHCO 081334Z AUTO 32009KT 10SM CLR 18/16 A3009 RMK AO2=
METAR KHFJ 081335Z AUTO 00000KT 10SM SCT034 BKN050 BKN095 24/23 
     A3006 RMK AO1=
METAR KHYW 081335Z AUTO 01006KT 5SM HZ CLR 29/23 A2995 RMK AO2=
METAR KHZX 081331Z AUTO 26004KT 10SM CLR 20/16 A3008 RMK AO2=
METAR KIKW 081333Z AUTO 26003KT 10SM BKN070 OVC080 24/21 A3002 RMK
     AO2 T02380210=
METAR KIRS 081335Z AUTO 10005KT 10SM CLR 27/22 A3003 RMK AO2=
SPECI KJCT 081334Z AUTO 03003KT 9SM BKN008 OVC022 24/22 A3004 RMK
     AO2 CIG 005V011 TSNO=
METAR KJKJ 081334Z AUTO 28004KT 10SM CLR 19/17 A3008 RMK AO2=
METAR KJMR 081338Z AUTO 26003KT 10SM CLR 21/16 A3011 RMK AO2=
METAR KJYG 081335Z AUTO 29007KT 10SM CLR 21/19 A3016 RMK AO2=
METAR KJYM 081335Z AUTO 00000KT 10SM CLR 27/21 A3006 RMK AO2=
METAR KLJF 081332Z AUTO 28007KT 10SM CLR 21/17 A3013 RMK AO2=
METAR KLNL 081335Z AUTO 34005KT 10SM OVC050 19/15 A3008 RMK AO2 
     T01900149=
METAR KLUM 081335Z AUTO 31007KT 10SM CLR 21/16 A3010 RMK AO2=
METAR KLVN 081328Z AUTO 30005KT 10SM CLR 21/17 A3012 RMK AO2=
METAR KLWA 081336Z AUTO 00000KT 10SM BKN060 OVC075 24/21 A3003 RMK
     AO2=
METAR KLXL 081334Z AUTO 27005KT 10SM CLR 20/14 A3009 RMK AO2=
METAR KLYV 081338Z AUTO 00000KT 10SM CLR 19/16 A3018 RMK AO2=
METAR KMCJ 081335Z AUTO 08010KT 5SM FEW030 24/23 A2994 RMK AO1 
     P0001 =
METAR KMDS 081325Z AUTO 28005KT 10SM CLR 20/16 A3018 RMK AO2=
METAR KMDZ 081335Z AUTO 33005KT 10SM CLR 21/18 A3007 RMK AO2=
SPECI KMFI 081337Z AUTO 35005KT 10SM SCT007 OVC013 22/19 A3006 RMK 
    AO2=
METAR KMGG 081335Z AUTO 28006KT 10SM CLR 21/17 A3013 RMK AO2
     T02100168=
METAR KMGN 081335Z AUTO 26003KT 2SM RA SCT002 OVC008 21/20 A3000
     RMK AO2=
METAR KMJQ 081332Z AUTO 31007KT 10SM CLR 19/16 A3018 RMK AO2=
METAR KMOP 081335Z AUTO 28005KT 10SM RA SCT033 SCT046 OVC060 23/23
     A3002 RMK AO2=
METAR KMOX 081330Z AUTO 26005KT 10SM CLR 22/17 A3008 RMK AO2=
METAR KMRJ 081335Z AUTO 33003KT 7SM BKN007 24/21 A3007 RMK AO2 
     T02360205=
METAR KMRT 081333Z AUTO 27003KT 10SM CLR 28/20 A3012 RMK AO2
     T02820196=
METAR KMVE 081334Z AUTO 29004KT 10SM CLR 20/17 A3012 RMK AO2=
METAR KMWM 081333Z AUTO 30007KT 10SM CLR 21/16 A3015 RMK AO2=
####018003705####
SAUS99 KWBC 081339
METAR
K14Y 081339Z AUTO 26007KT 10SM CLR 21/16 A3011 RMK AO2
     T02050158=
K29G 081334Z AUTO 00000KT 10SM CLR 27/19 A3009 RMK AO2 T02700188
     PWINO=
K4I3 081336Z AUTO 00000KT 10SM CLR 27/22 A3010 RMK AO2=
K4M9 081335Z AUTO 24006KT 10SM CLR 27/25 A3008 RMK AO2=
KACB 081335Z AUTO 21003KT 7SM -RA SCT009 23/22 A3000 RMK AO2=
KACQ 081339Z AUTO 32005KT 10SM CLR 20/17 A3016 RMK AO2=
KADC 081337Z AUTO 25004KT 10SM CLR 18/15 A3009 RMK AO2=
KAEJ 081335Z AUTO 33003KT 10SM BKN016 10/08 A3045 RMK AO2=
KAEL 081331Z AUTO 33004KT 10SM CLR 19/17 A3014 RMK AO2=
KAIT 081333Z AUTO 24004KT 10SM CLR 21/19 A3007 RMK AO2=
KAUM 081335Z AUTO 34005KT 10SM CLR 21/17 A3012 RMK AO2=
KBAX 081335Z AUTO 26004KT 10SM SCT095 27/23 A3001 RMK AO2=
KBBB 081333Z AUTO 27004KT 10SM CLR 20/17 A3012 RMK AO2=
KBDH 081335Z AUTO 28005KT 10SM CLR 19/16 A3014 RMK AO2=
KBVU 081335Z AUTO 31004KT 10SM CLR 24/00 A2990 RMK AO2=
KCAD 081334Z AUTO 25004KT 7SM -RA SCT006 BKN044 OVC060 22/21 A3004
     RMK AO2=
KCBG 081335Z AUTO 26006KT 10SM CLR 21/17 A3010 RMK AO2=
KCFE 081335Z AUTO 25005KT 10SM CLR 21/17 A3013 RMK AO2
     T02090166=
KCFS 081335Z AUTO 28004KT 10SM SCT060 27/21 A3002 RMK AO2=
KCKC 081335Z AUTO 26007KT 10SM CLR 21/14 A3005 RMK AO2=
KCKN 081335Z AUTO 29004KT 10SM SCT060 18/14 A3008 RMK AO2=
KCNB 081338Z AUTO 24007KT 10SM CLR 22/15 A3015 RMK AO2
     T02150147=
KCOQ 081336Z AUTO 27006KT 10SM CLR 20/18 A3007 RMK AO2=
KCQM 081337Z AUTO 26005KT 10SM CLR 19/15 A3005 RMK AO2=
KCVH 081330Z AUTO 00000KT 8SM OVC008 13/11 A2994 RMK AO1=
KDCM 081335Z AUTO 01005KT 5SM HZ CLR 29/24 A3002 RMK AO2=
KDRM 081336Z AUTO 24007KT 4SM RA BKN004 BKN032 OVC040 21/21 A2999
     RMK AO2=
KDTL 081335Z AUTO 29006KT 10SM CLR 20/11 A3011 RMK AO2=
KDUH 081335Z AUTO 22003KT 10SM CLR 30/20 A3004 RMK AO2=
KDXX 081334Z AUTO 00000KT 10SM CLR 20/19 A3012 RMK AO2=
KEFK 081335Z AUTO 20004KT 7SM CLR 27/22 A3006 RMK AO2=
KEFT 081335Z AUTO 32007KT 10SM BKN004 BKN010 BKN014 23/20 A3006
     RMK AO2 T02250202=
KELO 081333Z AUTO 22006KT 10SM CLR 19/15 A3003 RMK AO2=
KETB 081332Z AUTO 28005KT 10SM BKN009 OVC032 23/21 A3003 RMK AO2
     T02290206=
KEVM 081332Z AUTO 26004KT 10SM CLR 18/15 A3003 RMK AO1=
KEZS 081335Z AUTO 01004KT 10SM CLR 24/21 A3001 RMK AO2
     T02400206=
KFBL 081334Z AUTO 29005KT 10SM CLR 20/16 A3014 RMK AO2=
KFFM 081333Z AUTO 00000KT 10SM CLR 18/16 A3009 RMK AO2=
KFFX 081335Z AUTO 21003KT 10SM RA SCT007 BKN048 OVC070 23/22 A3002
     RMK AO2=
KFGN 081334Z AUTO 28007KT 1SM HZ OVC070 17/14 A2999 RMK AO2 VIS
     1/2V1 1/2=
KFPK 081336Z AUTO 00000KT 10SM CLR 26/21 A3002 RMK AO2=
KFSE 081334Z AUTO 23004KT 10SM CLR 17/14 A3007 RMK AO2=
KFSO 081338Z AUTO 00000KT 7SM SCT060 27/24 A3001 RMK AO2=
KGDB 081333Z AUTO 24005KT 10SM CLR 20/16 A3015 RMK AO2
     T01950164=
KGHW 081333Z AUTO 29007KT 10SM CLR 20/14 A3014 RMK AO2=
KGLW 081333Z AUTO 00000KT 10SM CLR 29/21 A3009 RMK AO2
     T02900207=
KGYL 081335Z AUTO 28008KT 10SM CLR 20/16 A3012 RMK AO2
     T02010160=
KHAF 081330Z AUTO 34003KT 7SM OVC006 12/10 A2995 RMK AO2=
KHAI 081335Z AUTO 00000KT 10SM SCT060 SCT075 SCT110 26/22 A3004
     RMK AO2=
KHCD 081332Z AUTO 27005KT 10SM CLR 20/16 A3013 RMK AO2
     T01950157=
KHCO 081334Z AUTO 32009KT 10SM CLR 18/16 A3009 RMK AO2=
KHFJ 081335Z AUTO 00000KT 10SM SCT034 BKN050 BKN095 24/23 A3006
     RMK AO1=
KHYW 081335Z AUTO 01006KT 5SM HZ CLR 29/23 A2995 RMK AO2=
KHZX 081331Z AUTO 26004KT 10SM CLR 20/16 A3008 RMK AO2=
KIKW 081333Z AUTO 26003KT 10SM BKN070 OVC080 24/21 A3002 RMK AO2
     T02380210=
KIRS 081335Z AUTO 10005KT 10SM CLR 27/22 A3003 RMK AO2=
####018001511####
SAUS99 KWBC 081339 RRA
METAR
KJKJ 081334Z AUTO 28004KT 10SM CLR 19/17 A3008 RMK AO2=
KJMR 081338Z AUTO 26003KT 10SM CLR 21/16 A3011 RMK AO2=
KJYG 081335Z AUTO 29007KT 10SM CLR 21/19 A3016 RMK AO2=
KJYM 081335Z AUTO 00000KT 10SM CLR 27/21 A3006 RMK AO2=
KLJF 081332Z AUTO 28007KT 10SM CLR 21/17 A3013 RMK AO2=
KLNL 081335Z AUTO 34005KT 10SM OVC050 19/15 A3008 RMK AO2
     T01900149=
KLUM 081335Z AUTO 31007KT 10SM CLR 21/16 A3010 RMK AO2=
KLVN 081328Z AUTO 30005KT 10SM CLR 21/17 A3012 RMK AO2=
KLWA 081336Z AUTO 00000KT 10SM BKN060 OVC075 24/21 A3003 RMK
     AO2=
KLXL 081334Z AUTO 27005KT 10SM CLR 20/14 A3009 RMK AO2=
KLYV 081338Z AUTO 00000KT 10SM CLR 19/16 A3018 RMK AO2=
KMCJ 081335Z AUTO 08010KT 5SM FEW030 24/23 A2994 RMK AO1 P0001=
KMDS 081325Z AUTO 28005KT 10SM CLR 20/16 A3018 RMK AO2=
KMDZ 081335Z AUTO 33005KT 10SM CLR 21/18 A3007 RMK AO2=
KMGG 081335Z AUTO 28006KT 10SM CLR 21/17 A3013 RMK AO2
     T02100168=
KMGN 081335Z AUTO 26003KT 2SM RA SCT002 OVC008 21/20 A3000 RMK
     AO2=
KMJQ 081332Z AUTO 31007KT 10SM CLR 19/16 A3018 RMK AO2=
KMOP 081335Z AUTO 28005KT 10SM RA SCT033 SCT046 OVC060 23/23 A3002
     RMK AO2=
KMOX 081330Z AUTO 26005KT 10SM CLR 22/17 A3008 RMK AO2=
KMRJ 081335Z AUTO 33003KT 7SM BKN007 24/21 A3007 RMK AO2
     T02360205=
KMRT 081333Z AUTO 27003KT 10SM CLR 28/20 A3012 RMK AO2
     T02820196=
KMVE 081334Z AUTO 29004KT 10SM CLR 20/17 A3012 RMK AO2=
KMWM 081333Z AUTO 30007KT 10SM CLR 21/16 A3015 RMK AO2=
####018000373####
SPUS99 KWBC 081339
SPECI
PASO 081336Z AUTO 00000KT 10SM BKN004 BKN085 OVC120 09/09 A2992
     RMK AO2 RAB1254E06 P0001 TSNO=
KCEC 081337Z AUTO 00000KT 2 1/2SM BR OVC001 10/09 A2998 RMK
     AO2=
KJCT 081334Z AUTO 03003KT 9SM BKN008 OVC022 24/22 A3004 RMK AO2
     CIG 005V011 TSNO=
KMFI 081337Z AUTO 35005KT 10SM SCT007 OVC013 22/19 A3006 RMK
     AO2=
####018000116####
SAUS45 KPUB 081338
MTRLXV
SPECI KLXV 081337Z AUTO 09004KT 10SM OVC006 06/05 A3053 RMK AO2 CIG 
004V010 TSNO
####018000406####
SAAL40 DAMM 081330
METAR DAAG 081330Z 04015KT CAVOK 34/15 Q1018=
METAR DAAT 081330Z NIL=
METAR DABB 081330Z 02013KT CAVOK 28/21 Q1019=
METAR DABC 081330Z 36012KT CAVOK 34/05 Q1022=
METAR DABS 081330Z 34010KT CAVOK 35/06 Q1023=
METAR DAON 081330Z 00000KT 9999 FEW026 38/20 Q1016=
METAR DAOO 081330Z 36010KT CAVOK 33/22 Q1015=
METAR DAUH 081330Z 04012KT CAVOK 40/20 Q1017=
METAR DAUZ 081330Z NIL=
####018000088####
SABY31 UMMN 081330 RRA
METAR UMBB 081330Z 32004G07MPS 8000 SCT030 24/13 Q1019 NOSIG=
####018000626####
SARA36 RUMS 081330
METAR UWUU 081330Z 36005MPS CAVOK 29/10 Q1014 82010060 NOSIG RMK
QFE750/1000=
METAR USCC 081330Z 36006G09MPS CAVOK 25/02 Q1013 NOSIG RMK QFE740
27000070=
METAR USDD 081330Z 04008G12MPS CAVOK 16/01 Q1015 NOSIG RMK
QFE755/1007 SC060=
METAR USMU 081330Z 01005MPS 9999 FEW036CB BKN066 15/13 Q1006 NOSIG
RMK QFE749 09250345=
METAR USNN 081330Z 15003MPS P6000 SCT026 BKN200 17/11 Q1004 NOSIG RMK
QFE748 SC065=
METAR USRK 081330Z NIL=
METAR USRR 081330Z 33003MPS 7000 OVC012 13/11 Q1005 TEMPO BKN007 RMK
QFE748 25////60=
METAR USSS 081330Z 35007G10MPS CAVOK 25/00 Q1014 NOSIG RMK QFE740
260///70=
####018000307####
SARA33 RUMS 081330
METAR UIAA 081330Z NIL=
METAR UIBB 081330Z 05003MPS 9999 BKN200 23/13 Q1006 NOSIG RMK
QFE712/0949 30CLRD60=
METAR UIII 081330Z 17004MPS CAVOK 17/10 Q1006 NOSIG RMK QFE713/0950
12CLRD60=
METAR UIUU 081330Z 00000MPS 9999 SCT033CB OVC100 21/14 Q1008 NOSIG
RMK QFE712/0949 26CLRD60=
####018000455####
SARS33 RUMS 081330
METAR ULLI 081330Z 23002MPS 200V270 9999 BKN040CB BKN066 BKN200 28/19
Q1013 TEMPO TSRA=
METAR UUDD 081330Z 16005MPS 120V180 9999 FEW050TCU BKN100 29/15 Q1015
TEMPO VRB12MPS TSRA=
METAR UUEE 081330Z 17005MPS 120V190 9999 SCT050CB BKN200 29/13 Q1014
NOSIG=
METAR UUEM 081330Z NIL=
METAR UUWW 081330Z 17003MPS 130V210 CAVOK 27/16 Q1015 24000070 NOSIG=
METAR UUMO 081330Z VRB02MPS CAVOK 27/16 Q1015 NOSIG RMK QFE746/0995
SC060=
####018000208####
SARA35 RUMS 081330
METAR ULDD 081330Z NIL=
METAR UOHH 081330Z NIL=
METAR UOII 081330Z NIL=
METAR UOOO 081330Z NIL=
METAR USCM 081330Z 04003MPS 360V070 9999 SKC 27/01 Q1014 NOSIG
01090065 RMK QFE722=
####018000393####
SARA32 RUMS 081330
METAR UHHH 081330Z 04002MPS 9999 SCT026CB OVC100 16/15 Q1011 NOSIG
RMK QFE752/1002 55090060=
METAR UHMA 081330Z NIL=
METAR UHMM 081330Z NIL=
METAR UHMP 081330Z NIL=
METAR UHNN 081330Z NIL=
METAR UHPP 081330Z NIL=
METAR UHSH 081330Z NIL=
METAR UHSS 081330Z NIL=
METAR UHWW 081330Z 19002MPS 9999 SCT013 BKN023CB OVC100 16/15 Q1011
NOSIG RMK QFE757/1010 75CLRD70=
####018000369####
SARA31 RUMS 081330
METAR UEEE 081330Z 00000MPS 9999 -SHRA BKN040CB OVC100 16/15 Q1008
NOSIG RMK QFE748 23290150=
METAR UELL 081330Z VRB01MPS 0600 FG FEW030 BKN200 12/11 Q1012 TEMPO
0400 VV002 RMK QFE685 08290050=
METAR UERP 081330Z NIL=
METAR UERR 081330Z VRB02MPS CAVOK 14/14 Q1012 NOSIG RMK QFE728
24CLRD60=
METAR UESO 081330Z NIL=
METAR UEST 081330Z NIL=
####018000669####
SARS31 RUMS 081330
METAR ULAA 081330Z 30004MPS 260V350 9999 FEW033 27/18 Q1016 TEMPO
VRB14MPS TSRA RMK QFE760/1014 SC070=
METAR ULKK 081330Z NIL=
METAR ULMM 081330Z 04002G09MPS 010V100 9999 BKN026 17/09 Q1017 NOSIG
RMK QFE756 32190060=
METAR ULOL 081330Z NIL=
METAR ULOO 081330Z 30004MPS P6000 TS SCT033CB BKN040 BKN200 28/19
Q1012 TEMPO VRB14MPS SQ RMK QFE755=
METAR ULWW 081330Z NIL=
METAR UMKK 081330Z NIL=
METAR UUBP 081330Z NIL=
METAR UUOB 081330Z NIL=
METAR UUOK 081330Z NIL=
METAR UUOO 081330Z 00000MPS 9999 SCT033CB BKN100 28/12 Q1014 NOSIG
RMK 13090070=
METAR UWGG 081330Z 11002MPS 080V150 8000 FEW033 34/08 Q1015 NOSIG RMK
QFE754 18090070=
####018000861####
SARA34 RUMS 081330
METAR UNAA 081330Z VRB02MPS 9999 -SHRA SCT030CB BKN100 17/14 Q1012
NOSIG RMK QFE736 022///55=
METAR UNBB 081330Z 15003MPS 9999 SCT040 SCT100 14/11 Q1009 NOSIG RMK
QFE735=
METAR UNEE 081330Z 20005MPS 9999 SCT026CB BKN066 OVC200 19/09 Q1009
NOSIG RMK QFE734 23CLRD60=
METAR UNKL 081330Z 28003MPS 9999 -SHRA BKN023CB OVC083 13/12 Q1011
NOSIG RMK QFE732 29////55=
METAR UNNT 081330Z 26003MPS 9999 BKN055CB BKN100 18/05 Q1007 NOSIG
RMK QFE745/0994 25090070=
METAR UNOO 081330Z 30005MPS 9999 BKN030CB 14/09 Q1008 NOSIG 25CLRD06
RMK QFE747=
METAR UNWW 081330Z 12001MPS 9999 SCT026CB OVC130 14/09 Q1011 NOSIG
RMK QFE731 1929//60=
METAR USTR 081330Z 28001MPS 9999 SCT046 20/06 Q1012 NOSIG RMK
QFE750/1000 30CLRD65=
METAR USHH 081330Z 35003G08MPS 300V030 7000 -SHRA BKN009CB OVC080
10/09 Q1009 TEMPO 3000 BR BKN006 RMK QFE753 SC06=
####018000816####
SARS35 RUMS 081330
METAR USPP 081330Z 36004MPS CAVOK 28/10 Q1015 NOSIG RMK QFE750/1000
21090060=
METAR UWKD 081330Z 28003MPS 240V320 9999 FEW050CB SCT070 32/12 Q1014
TEMPO VRB15MPS 3000 TSRA RMK QFE750/1000 79CLRD70=
METAR UWKE 081330Z 09003MPS 9999 FEW040 31/10 Q1015 NOSIG RMK
QFE744/0992 04090070=
METAR UWKS 081330Z 00000MPS 9999 BKN033CB 27/17 Q1016 NOSIG RMK
QFE747 SC0.60=
METAR UWLL 081330Z 08003MPS 9999 SCT050CB 32/09 Q1014 NOSIG RMK
QFE748/0998 SC065=
METAR UWLW 081330Z NIL=
METAR UWOR 081330Z NIL=
METAR UWOO 081330Z NIL=
METAR UWPP 081330Z 13004MPS 9999 SCT0033 BKN100 33/09 Q1013 NOSIG RMK
QFE745 11090060=
METAR UWSS 081330Z 05004MPS CAVOK 31/09 Q1014 NOSIG RMK QFE748
120///60=
METAR UWWW 081330Z 05006MPS 9999 FEW033 BKN200 32/07 Q1014 NOSIG RMK
QFE748/0997 05CLRD60 15//99//=
####018000173####
SAUK51 EGGY 081250 RRF
METAR EGOV 081250Z 19015KT 9999 -RA FEW017 BKN080 BKN100 17/13
    Q1017 NOSIG=
METAR EGXC 081250Z 24008KT 9999 FEW045 BKN250 22/07 Q1017 NOSIG=
####018000840####
SARS32 RUMS 081330
METAR URKA 081330Z 05005MPS 9999 SCT026 29/20 Q1011 NOSIG RMK  065=
METAR URKK 081330Z 06006MPS 9999 BKN043 31/20 Q1011 NOSIG RMK QFE755
SC070=
METAR URKM 081330Z NIL=
METAR URML 081330Z 09006MPS 9999 FEW100 31/20 Q1011 NOSIG RMK QFE758
/ 07=
METAR URMM 081330Z 11005G07MPS 9999 BKN046 30/19 Q1012 NOSIG RMK 
 0M-200 / SC070=
METAR URMN 081330Z 09003MPS 9999 BKN033CB BKN110 28/19 Q1013 NOSIG
RMK / QFE723 SC07=
METAR URMT 081330Z 06005G08MPS 9999 SCT026CB BKN100 28/17 Q1014 NOSIG
RMK QFE720 SC07=
METAR URRR 081330Z 00000MPS 9999 FEW036 31/15 Q1013 NOSIG RMK SC070=
METAR URSS 081330Z 28004G07MPS 9999 FEW040 28/21 Q1008 NOSIG RMK /
QFE755 06CLRD70=
METAR URWA 081330Z 27002MPS CAVOK 37/11 Q1010 NOSIG RMK SC07=
METAR URWI 081330Z NIL=
METAR URWW 081330Z 31004MPS CAVOK 31/13 Q1014 NOSIG RMK SC070=
####018000273####
SARS34 RUMS 081330
METAR UUYH 081330Z 18001MPS CAVOK 27/11 Q1016 NOSIG RMK QFE 750
18CLRD60=
METAR UUYS 081330Z 17003MPS CAVOK 20/07 Q1015 NOSIG RMK QFE754
14CLRD60=
METAR UUYY 081330Z 22003MPS 190V260 9999 FEW036 OVC200 30/15 Q1015
NOSIG 19CLRD61 RMK QFE752/1003=
####018000131####
SAAK31 KWBC 081300 RRB
METAR
PAVD 081336Z 00000KT 10SM OVC090 11/08 A3008=
PAWG 081336Z AUTO 00000KT 10SM CLR 12/10 A3014=
####018000145####
SAAK32 KWBC 081300 RRB
METAR
PADK 081336Z 03012G17KT 8SM FEW006 OVC015 06/06 A2947=
PADL 081336Z 30005KT 10SM SCT039 BKN080 09/08 A2996=
####018001662####
SARS18 KAWN 081300 RRI
METAR BIKF 081330Z 03023KT 9999 SCT018 BKN100 12/06 Q0995=
METAR UAAA 081330Z 28003MPS 9999 SCT050CB BKN100 26/09 Q1013 88CLRD65
      TEMPO TS=
METAR UACC 081330Z 32007MPS CAVOK 23/02 Q1008 220/0070 NOSIG RMK QFE725/0967=
METAR UAFM 081330Z 24005MPS CAVOK 31/07 Q1012 NOSIG=
METAR UATE 081330Z 03007MPS CAVOK 39/07 Q1009 300///70 NOSIG RMK QFE755/1007=
METAR UATT 081330Z 03005MPS 9999 NSC 33/02 Q1010 13CLRD70 NOSIG RMK
      QFE738/0984=
METAR UKKK 081330Z 28004MPS 250V310 CAVOK 26/17 Q1015 26CLRD70 NOSIG=
METAR UMGG 081330Z VRB02MPS 9999 SCT050CB BKN100 26/17 Q1014 R28/290550
      NOSIG=
METAR UMMM 081330Z 26006G09MPS 6000 OVC012CB 18/15 Q1015 R30/D NOSIG
      RMK QFE742=
METAR UMMS 081330Z 28004MPS 250V310 9999 BKN014 17/15 Q1015 R31/D NOSIG=
METAR URKA 081330Z 05005MPS 9999 SCT026 29/20 Q1011 NOSIG RMK 065=
METAR URMM 081330Z 11005G07MPS 9999 BKN046 30/19 Q1012 NOSIG RMK 0M-200
      / SC070=
METAR UTAA 081330Z 10001MPS 9999 SKC 43/04 Q1007 NOSIG=
METAR UTDD 081330Z 00000MPS 9999 SKC 35/13 Q1008 09CLRD70 NOSIG RMK
      QFE689/0918=
METAR UTSS 081330Z 08006MPS 050V110 9999 NSC 33/12 Q1010 R88/70D NOSIG=
METAR UUWW 081330Z 17003MPS 130V210 CAVOK 27/16 Q1015 24000070 NOSIG=
METAR UWGG 081330Z 11002MPS 080V150 8000 FEW033 34/08 Q1015 NOSIG RMK
      QFE754 18090070=
METAR UWKD 081330Z 28003MPS 240V320 9999 FEW050CB SCT070 32/12 Q1014
      TEMPO VRB15MPS 3000 TSRA RMK QFE750/1000 79CLRD70=
METAR UWPP 081330Z 13004MPS 9999 SCT0033 BKN100 33/09 Q1013 NOSIG RMK
      QFE745 11090060=
METAR VTBD 081330Z 15006KT 9999 FEW020 SCT120 BKN300 30/24 Q1007 NOSIG=
####018000091####
SPUS42 KWBC 081339
SPECI
KMAF 081335Z 04008KT 10SM SCT007 BKN013 OVC018 22/20 A3013=
####018000084####
SPUS43 KWBC 081339
SPECI
KSGF 081336Z 25003KT 10SM SCT007 OVC015 24/23 A3009=
####018000083####
SAUS41 KWBC 081300 RRH
METAR
KPQI 081335Z AUTO 13007KT 10SM CLR 26/21 A2999=
####018002666####
SAUS20 KNKA 081338
METAR KOEB 081335Z AUTO 10004KT 10SM CLR 27/22 A3005 RMK AO2=
METAR KOEO 081335Z AUTO 00000KT 10SM CLR 21/17 A3012 RMK AO2=
METAR KONA 081330Z AUTO 31008KT 10SM SCT015 22/17 A3008 RMK
     AO2=
METAR KOVL 081334Z AUTO 28005KT 10SM CLR 20/15 A3013 RMK AO2
     T01950150=
METAR KOZW 081335Z AUTO 00000KT 10SM CLR 28/20 A3004 RMK AO2=
METAR KPBH 081335Z AUTO 34003KT 10SM SCT048 21/17 A3009 RMK AO2=
METAR KPCZ 081335Z AUTO 31005KT 10SM SCT008 24/20 A3002 RMK AO2 
     T02370201=
METAR KPDC 081333Z AUTO 30005KT 10SM OVC010 23/20 A3007 RMK AO2 
     T02250202=
METAR KPEX 081333Z AUTO 26007KT 10SM CLR 20/17 A3012 RMK AO2
     T02030166=
METAR KPNM 081333Z AUTO 26007KT 10SM CLR 21/16 A3011 RMK AO2=
METAR KPQN 081333Z AUTO 33007KT 10SM CLR 21/14 A3017 RMK AO2=
METAR KPWC 081333Z AUTO 00000KT 10SM CLR 19/15 A3009 RMK AO2=
METAR KRCM 081335Z AUTO 00000KT 10SM SCT006 OVC011 23/23 A3009 RMK 
     AO2=
METAR KRCX 081335Z AUTO 34007KT 10SM CLR 20/17 A3009 RMK AO2 
     T02030170=
METAR KRGK 081335Z AUTO 30005KT 10SM CLR 22/18 A3009 RMK AO2=
METAR KRNP 081335Z AUTO 21005KT 10SM CLR 27/21 A3003 RMK AO2=
METAR KROS 081335Z AUTO 27005KT 10SM CLR 21/16 A3010 RMK AO2
     T02050159=
METAR KROX 081334Z AUTO 27008KT 10SM CLR 18/15 A3003 RMK AO2=
METAR KRQB 081335Z AUTO 00000KT 5SM -DZ SCT005 BKN048 OVC060 22/22
     A3003 RMK AO2=
METAR KRRT 081334Z AUTO 26009KT 10SM CLR 17/14 A3003 RMK AO2=
METAR KSAZ 081334Z AUTO 26005KT 10SM CLR 20/19 A3010 RMK AO2=
METAR KSGS 081333Z AUTO 32004KT 10SM CLR 22/16 A3011 RMK AO2
     T02150163=
METAR KSNC 081335Z AUTO 15003KT 10SM BKN009 BKN014 OVC023 24/24 
     A3010 RMK AO2 =
METAR KSYN 081350Z AUTO 30006KT 10SM CLR 21/18 A3011 RMK AO2
     T02100175=
METAR KTEW 081333Z AUTO 16003KT 10SM CLR 26/21 A3004 RMK AO2=
METAR KTKC 081333Z AUTO 27003KT 10SM CLR 21/15 A3016 RMK AO2
     T02050152=
METAR KTOB 081334Z AUTO 35003KT 10SM CLR 19/17 A3013 RMK AO2=
METAR KTWM 081333Z AUTO 26007KT 241V321 10SM CLR 21/15 A3003 RMK
     AO2=
METAR KUKT 081335Z AUTO 00000KT 9SM CLR 28/22 A3006 RMK AO1=
METAR KULM 081335Z AUTO 31006KT 10SM CLR 20/16 A3014 RMK AO2=
METAR KUNI 081335Z AUTO 00000KT 10SM CLR 29/18 A3009 RMK AO2 
     T02860180=
METAR KVES 081334Z AUTO 17003KT 10SM CLR 27/21 A3008 RMK AO2 
     T02690211=
METAR KVLL 081334Z AUTO 28005KT 10SM CLR 30/19 A3005 RMK AO2=
METAR KVVV 081336Z AUTO 25005KT 10SM CLR 21/16 A3012 RMK AO2=
METAR KY63 081340Z AUTO 28004KT 10SM CLR 19/17 A3011 RMK AO2 
     T01900165=
METAR KY70 081335Z AUTO 00000KT 5SM HZ SCT047 BKN120 25/22 A3002
     RMK AO2 T02520223=
####018000084####
SPUS53 KWBC 081339
SPECI
KCYS 081336Z 00000KT 10SM SCT016 BKN040 14/12 A3037=
####018000089####
SPUS53 KWBC 081339
SPECI
KGLD 081336Z AUTO 00000KT 10SM FEW005 OVC040 17/16 A3032=
####018000074####
SPCN47 CWAO 081338
SPECI CYAM 081338Z 27007KT 10SM OVC003 RMK SF8=

####018000143####
SAUS43 KWBC 081300 RRI
METAR
KCIU 081335Z AUTO 34007KT 10SM SCT008 OVC012 21/18 A2999=
KELO 081333Z AUTO 22006KT 10SM CLR 19/15 A3003=
####018000086####
SAUS44 KWBC 081300 RRF
METAR
KGDV 081335Z AUTO 17003KT 10SM FEW090 16/09 A3019=
####018000378####
SARA31 RUMS 081330
METAR UEEE 081330Z 00000MPS 9999 -SHRA BKN040CB OVC100 16/15 Q1008
NOSIG RMK QFE748 23290150=
METAR UELL 081330Z VRB01MPS 0600 FG FEW030 BKN200 12/11 Q1012 TEMPO
0400 VV002 RMK QFE685 08290050=
METAR UERP 081330Z NIL=
METAR UERR 081330Z VRB02MPS CAVOK 14/14 Q1012 NOSIG RMK QFE728
24CLRD60=
METAR UESO 081330Z NIL=
METAR UEST 081330Z NIL=
####018000404####
SARA32 RUMS 081330
METAR UHHH 081330Z 04002MPS 9999 SCT026CB OVC100 16/15 Q1011 NOSIG
RMK QFE752/1002 55090060=
METAR UHMA 081330Z NIL=
METAR UHMM 081330Z NIL=
METAR UHMP 081330Z NIL=
METAR UHNN 081330Z NIL=
METAR UHPP 081330Z NIL=
METAR UHSH 081330Z NIL=
METAR UHSS 081330Z NIL=
METAR UHWW 081330Z 19002MPS 9999 SCT013 BKN023CB OVC100 16/15 Q1011
NOSIG RMK QFE757/1010 75CLRD70=
####018000279####
SARS34 RUMS 081330
METAR UUYH 081330Z 18001MPS CAVOK 27/11 Q1016 NOSIG RMK QFE 750
18CLRD60=
METAR UUYS 081330Z 17003MPS CAVOK 20/07 Q1015 NOSIG RMK QFE754
14CLRD60=
METAR UUYY 081330Z 22003MPS 190V260 9999 FEW036 OVC200 30/15 Q1015
NOSIG 19CLRD61 RMK QFE752/1003=
####018000213####
SARA35 RUMS 081330
METAR ULDD 081330Z NIL=
METAR UOHH 081330Z NIL=
METAR UOII 081330Z NIL=
METAR UOOO 081330Z NIL=
METAR USCM 081330Z 04003MPS 360V070 9999 SKC 27/01 Q1014 NOSIG
01090065 RMK QFE722=
####018000686####
SARS31 RUMS 081330
METAR ULAA 081330Z 30004MPS 260V350 9999 FEW033 27/18 Q1016 TEMPO
VRB14MPS TSRA RMK QFE760/1014 SC070=
METAR ULKK 081330Z NIL=
METAR ULMM 081330Z 04002G09MPS 010V100 9999 BKN026 17/09 Q1017 NOSIG
RMK QFE756 32190060=
METAR ULOL 081330Z NIL=
METAR ULOO 081330Z 30004MPS P6000 TS SCT033CB BKN040 BKN200 28/19
Q1012 TEMPO VRB14MPS SQ RMK QFE755=
METAR ULWW 081330Z NIL=
METAR UMKK 081330Z NIL=
METAR UUBP 081330Z NIL=
METAR UUOB 081330Z NIL=
METAR UUOK 081330Z NIL=
METAR UUOO 081330Z 00000MPS 9999 SCT033CB BKN100 28/12 Q1014 NOSIG
RMK 13090070=
METAR UWGG 081330Z 11002MPS 080V150 8000 FEW033 34/08 Q1015 NOSIG RMK
QFE754 18090070=
####018000089####
SABY31 UMMN 081330 RRA
METAR UMBB 081330Z 32004G07MPS 8000 SCT030 24/13 Q1019 NOSIG=
####018000835####
SARS35 RUMS 081330
METAR USPP 081330Z 36004MPS CAVOK 28/10 Q1015 NOSIG RMK QFE750/1000
21090060=
METAR UWKD 081330Z 28003MPS 240V320 9999 FEW050CB SCT070 32/12 Q1014
TEMPO VRB15MPS 3000 TSRA RMK QFE750/1000 79CLRD70=
METAR UWKE 081330Z 09003MPS 9999 FEW040 31/10 Q1015 NOSIG RMK
QFE744/0992 04090070=
METAR UWKS 081330Z 00000MPS 9999 BKN033CB 27/17 Q1016 NOSIG RMK
QFE747 SC0.60=
METAR UWLL 081330Z 08003MPS 9999 SCT050CB 32/09 Q1014 NOSIG RMK
QFE748/0998 SC065=
METAR UWLW 081330Z NIL=
METAR UWOR 081330Z NIL=
METAR UWOO 081330Z NIL=
METAR UWPP 081330Z 13004MPS 9999 SCT0033 BKN100 33/09 Q1013 NOSIG RMK
QFE745 11090060=
METAR UWSS 081330Z 05004MPS CAVOK 31/09 Q1014 NOSIG RMK QFE748
120///60=
METAR UWWW 081330Z 05006MPS 9999 FEW033 BKN200 32/07 Q1014 NOSIG RMK
QFE748/0997 05CLRD60 15//99//=
####018000641####
SARA36 RUMS 081330
METAR UWUU 081330Z 36005MPS CAVOK 29/10 Q1014 82010060 NOSIG RMK
QFE750/1000=
METAR USCC 081330Z 36006G09MPS CAVOK 25/02 Q1013 NOSIG RMK QFE740
27000070=
METAR USDD 081330Z 04008G12MPS CAVOK 16/01 Q1015 NOSIG RMK
QFE755/1007 SC060=
METAR USMU 081330Z 01005MPS 9999 FEW036CB BKN066 15/13 Q1006 NOSIG
RMK QFE749 09250345=
METAR USNN 081330Z 15003MPS P6000 SCT026 BKN200 17/11 Q1004 NOSIG RMK
QFE748 SC065=
METAR USRK 081330Z NIL=
METAR USRR 081330Z 33003MPS 7000 OVC012 13/11 Q1005 TEMPO BKN007 RMK
QFE748 25////60=
METAR USSS 081330Z 35007G10MPS CAVOK 25/00 Q1014 NOSIG RMK QFE740
260///70=
####018000314####
SARA33 RUMS 081330
METAR UIAA 081330Z NIL=
METAR UIBB 081330Z 05003MPS 9999 BKN200 23/13 Q1006 NOSIG RMK
QFE712/0949 30CLRD60=
METAR UIII 081330Z 17004MPS CAVOK 17/10 Q1006 NOSIG RMK QFE713/0950
12CLRD60=
METAR UIUU 081330Z 00000MPS 9999 SCT033CB OVC100 21/14 Q1008 NOSIG
RMK QFE712/0949 26CLRD60=
####018000879####
SARA34 RUMS 081330
METAR UNAA 081330Z VRB02MPS 9999 -SHRA SCT030CB BKN100 17/14 Q1012
NOSIG RMK QFE736 022///55=
METAR UNBB 081330Z 15003MPS 9999 SCT040 SCT100 14/11 Q1009 NOSIG RMK
QFE735=
METAR UNEE 081330Z 20005MPS 9999 SCT026CB BKN066 OVC200 19/09 Q1009
NOSIG RMK QFE734 23CLRD60=
METAR UNKL 081330Z 28003MPS 9999 -SHRA BKN023CB OVC083 13/12 Q1011
NOSIG RMK QFE732 29////55=
METAR UNNT 081330Z 26003MPS 9999 BKN055CB BKN100 18/05 Q1007 NOSIG
RMK QFE745/0994 25090070=
METAR UNOO 081330Z 30005MPS 9999 BKN030CB 14/09 Q1008 NOSIG 25CLRD06
RMK QFE747=
METAR UNWW 081330Z 12001MPS 9999 SCT026CB OVC130 14/09 Q1011 NOSIG
RMK QFE731 1929//60=
METAR USTR 081330Z 28001MPS 9999 SCT046 20/06 Q1012 NOSIG RMK
QFE750/1000 30CLRD65=
METAR USHH 081330Z 35003G08MPS 300V030 7000 -SHRA BKN009CB OVC080
10/09 Q1009 TEMPO 3000 BR BKN006 RMK QFE753 SC06=
####018000465####
SARS33 RUMS 081330
METAR ULLI 081330Z 23002MPS 200V270 9999 BKN040CB BKN066 BKN200 28/19
Q1013 TEMPO TSRA=
METAR UUDD 081330Z 16005MPS 120V180 9999 FEW050TCU BKN100 29/15 Q1015
TEMPO VRB12MPS TSRA=
METAR UUEE 081330Z 17005MPS 120V190 9999 SCT050CB BKN200 29/13 Q1014
NOSIG=
METAR UUEM 081330Z NIL=
METAR UUWW 081330Z 17003MPS 130V210 CAVOK 27/16 Q1015 24000070 NOSIG=
METAR UUMO 081330Z VRB02MPS CAVOK 27/16 Q1015 NOSIG RMK QFE746/0995
SC060=
####018000858####
SARS32 RUMS 081330
METAR URKA 081330Z 05005MPS 9999 SCT026 29/20 Q1011 NOSIG RMK  065=
METAR URKK 081330Z 06006MPS 9999 BKN043 31/20 Q1011 NOSIG RMK QFE755
SC070=
METAR URKM 081330Z NIL=
METAR URML 081330Z 09006MPS 9999 FEW100 31/20 Q1011 NOSIG RMK QFE758
/ 07=
METAR URMM 081330Z 11005G07MPS 9999 BKN046 30/19 Q1012 NOSIG RMK 
 0M-200 / SC070=
METAR URMN 081330Z 09003MPS 9999 BKN033CB BKN110 28/19 Q1013 NOSIG
RMK / QFE723 SC07=
METAR URMT 081330Z 06005G08MPS 9999 SCT026CB BKN100 28/17 Q1014 NOSIG
RMK QFE720 SC07=
METAR URRR 081330Z 00000MPS 9999 FEW036 31/15 Q1013 NOSIG RMK SC070=
METAR URSS 081330Z 28004G07MPS 9999 FEW040 28/21 Q1008 NOSIG RMK /
QFE755 06CLRD70=
METAR URWA 081330Z 27002MPS CAVOK 37/11 Q1010 NOSIG RMK SC07=
METAR URWI 081330Z NIL=
METAR URWW 081330Z 31004MPS CAVOK 31/13 Q1014 NOSIG RMK SC070=
####018000518####
SAAO32 GOOY 081330
METAR GABS 081330Z 22005KT 140V270 9999 SCT030 33/21 Q1014 NOSIG=
METAR GGOV 081330Z NIL=
METAR GOOY 081330Z 16008KT 120V210 9999 SCT013 31/25 Q1012 NOSIG=
METAR DIAP 081330Z 21007KT 180V260 8000 SCT012 BKN020 29/25 Q1014
NOSIG=
METAR GQNN 081330Z 20013KT 170V240 6000 NSC 32/21 Q1012 NOSIG=
METAR GQPP 081330Z NIL=
METAR GUCY 081330Z NIL=
METAR GVAC 081330Z NIL=
METAR GFLL 081330Z NIL=
METAR GBYD 081330Z NIL=
METAR GLRB 081330Z 21005KT 9999 BKN020 30/25 Q1013 NOSIG=

####018000091####
SPUS72 KWBC 081339
SPECI
KMAF 081335Z 04008KT 10SM SCT007 BKN013 OVC018 22/20 A3013=
####018000084####
SPUS73 KWBC 081339
SPECI
KCYS 081336Z 00000KT 10SM SCT016 BKN040 14/12 A3037=
####018000878####
SARS32 RUMS 081330
METAR URKA 081330Z 05005MPS 9999 SCT026 29/20 Q1011 NOSIG RMK  065=
METAR URKK 081330Z 06006MPS 9999 BKN043 31/20 Q1011 NOSIG RMK QFE755
SC070=
METAR URKM 081330Z NIL=
METAR URML 081330Z 09006MPS 9999 FEW100 31/20 Q1011 NOSIG RMK QFE758
/ 07=
METAR URMM 081330Z 11005G07MPS 9999 BKN046 30/19 Q1012 NOSIG RMK 
 0M-200 / SC070=
METAR URMN 081330Z 09003MPS 9999 BKN033CB BKN110 28/19 Q1013 NOSIG
RMK / QFE723 SC07=
METAR URMT 081330Z 06005G08MPS 9999 SCT026CB BKN100 28/17 Q1014 NOSIG
RMK QFE720 SC07=
METAR URRR 081330Z 00000MPS 9999 FEW036 31/15 Q1013 NOSIG RMK SC070=
METAR URSS 081330Z 28004G07MPS 9999 FEW040 28/21 Q1008 NOSIG RMK /
QFE755 06CLRD70=
METAR URWA 081330Z 27002MPS CAVOK 37/11 Q1010 NOSIG RMK SC07=
METAR URWI 081330Z NIL=
METAR URWW 081330Z 31004MPS CAVOK 31/13 Q1014 NOSIG RMK SC070=
####018000183####
SAUS53 KWBC 081300 RRI
METAR
KDVL 081335Z AUTO 33010KT 10SM CLR 18/11 A3010=
KEAR 081335Z AUTO 36006KT 10SM CLR 18/15 A3025=
KGPZ 081335Z AUTO 30010KT 10SM CLR 19/14 A3007=
####018000084####
SPUS73 KWBC 081339
SPECI
KSGF 081336Z 25003KT 10SM SCT007 OVC015 24/23 A3009=
####018000857####
SARS32 RUMS 081330
METAR URKA 081330Z 05005MPS 9999 SCT026 29/20 Q1011 NOSIG RMK  065=
METAR URKK 081330Z 06006MPS 9999 BKN043 31/20 Q1011 NOSIG RMK QFE755
SC070=
METAR URKM 081330Z NIL=
METAR URML 081330Z 09006MPS 9999 FEW100 31/20 Q1011 NOSIG RMK QFE758
/ 07=
METAR URMM 081330Z 11005G07MPS 9999 BKN046 30/19 Q1012 NOSIG RMK
 0M-200 / SC070=
METAR URMN 081330Z 09003MPS 9999 BKN033CB BKN110 28/19 Q1013 NOSIG
RMK / QFE723 SC07=
METAR URMT 081330Z 06005G08MPS 9999 SCT026CB BKN100 28/17 Q1014 NOSIG
RMK QFE720 SC07=
METAR URRR 081330Z 00000MPS 9999 FEW036 31/15 Q1013 NOSIG RMK SC070=
METAR URSS 081330Z 28004G07MPS 9999 FEW040 28/21 Q1008 NOSIG RMK /
QFE755 06CLRD70=
METAR URWA 081330Z 27002MPS CAVOK 37/11 Q1010 NOSIG RMK SC07=
METAR URWI 081330Z NIL=
METAR URWW 081330Z 31004MPS CAVOK 31/13 Q1014 NOSIG RMK SC070=
####018000190####
SAUS73 KWBC 081300 RRF
METAR
KCIU 081335Z AUTO 34007KT 10SM SCT008 OVC012 21/18 A2999=
KELO 081333Z AUTO 22006KT 10SM CLR 19/15 A3003=
KLBL 081335Z 36013KT 7SM OVC005 19/17 A3024=
####018000515####
SAAO32 GOOY 081330
METAR GABS 081330Z 22005KT 140V270 9999 SCT030 33/21 Q1014 NOSIG=
METAR GGOV 081330Z NIL=
METAR GOOY 081330Z 16008KT 120V210 9999 SCT013 31/25 Q1012 NOSIG=
METAR DIAP 081330Z 21007KT 180V260 8000 SCT012 BKN020 29/25 Q1014
NOSIG=
METAR GQNN 081330Z 20013KT 170V240 6000 NSC 32/21 Q1012 NOSIG=
METAR GQPP 081330Z NIL=
METAR GUCY 081330Z NIL=
METAR GVAC 081330Z NIL=
METAR GFLL 081330Z NIL=
METAR GBYD 081330Z NIL=
METAR GLRB 081330Z 21005KT 9999 BKN020 30/25 Q1013 NOSIG=
####018000186####
SAUS75 KWBC 081300 RRB
METAR
PADL 081336Z 30005KT 10SM SCT039 BKN080 09/08 A2996=
PAUN 081336Z AUTO 07009KT 10SM CLR 12/04 A3001=
PAVD 081336Z 00000KT 10SM OVC090 11/08 A3008=
####018001834####
SAEW KAWN 081300 RRN
METAR COR ETUO 081250Z 25005KT CAVOK 31/10 Q1019 BLU NOSIG=
METAR LFBO 081330Z 11011KT 070V140 CAVOK 35/11 Q1017 NOSIG=
METAR LFCR 081330Z AUTO 17007KT 100V210 9999NDV NSC 33/06 Q1021=
METAR LFGJ 081330Z AUTO 21006KT 140V280 9999NDV NSC 31/12 Q1020=
METAR LFJL 081330Z AUTO VRB04KT 9999NDV NSC 31/07 Q1020=
METAR LFKB 081330Z 10005KT 060V140 9999 FEW026 29/21 Q1019 NOSIG=
METAR LFKJ 081330Z 19010KT 9999 FEW030 FEW046TCU 31/23 Q1019 NOSIG=
METAR LFLL 081330Z 21006KT 160V260 CAVOK 33/13 Q1019 NOSIG=
METAR LFLN 081330Z AUTO VRB04KT 9999NDV NSC 33/12 Q1019=
METAR LFMD 081330Z AUTO 16005KT 110V210 9999NDV NSC 30/21 Q1020=
METAR LFMK 081330Z AUTO 08017KT 9999NDV NSC 34/13 Q1018=
METAR LFML 081330Z 21010KT CAVOK 33/18 Q1019 NOSIG=
METAR LFMN 081330Z 12005KT 9999 FEW016 29/23 Q1020 NOSIG=
METAR LFMU 081330Z AUTO 14007KT 090V190 9999NDV NSC 30/14 Q1020=
METAR LFOH 081330Z AUTO 35011KT 9999NDV NSC 22/15 Q1019=
METAR LFOT 081330Z AUTO VRB04KT 9999NDV NSC 33/08 Q1018=
METAR LFPB 081330Z VRB05KT CAVOK 32/09 Q1018 NOSIG=
METAR LFPG 081330Z VRB05KT CAVOK 31/08 Q1018 NOSIG=
METAR LFPO 081330Z VRB03KT CAVOK 32/10 Q1018 NOSIG=
METAR LFQQ 081330Z 18008KT 140V260 CAVOK 31/11 Q1018 NOSIG=
METAR LFRC 081330Z AUTO 01007KT 310V030 9999NDV FEW018 21/16 Q1020=
METAR LFRD 081330Z AUTO 34008KT 310V030 9999NDV NSC 23/15 Q1019=
METAR LFRJ 081330Z AUTO 34005KT 280V030 9999NDV SCT029/// 24/18 Q1019=
METAR LFRN 081330Z AUTO VRB05KT 9999NDV NSC 31/12 Q1017=
METAR LFRO 081330Z AUTO 36007KT 320V050 9999NDV NSC 21/16 Q1019=
METAR LFRZ 081330Z AUTO 23009KT 190V260 9999NDV NSC 32/07 Q1018=
METAR LFSB 081330Z 27003KT 190V340 CAVOK 32/11 Q1020 NOSIG=
METAR LFST 081330Z VRB03KT CAVOK 31/10 Q1019 NOSIG=
METAR LFTW 081330Z AUTO 21007KT 170V260 9999NDV NSC 32/15 Q1020=
####018000092####
SAUK KAWN 081000 RRL
METAR COR EGXG 080950Z 22009KT 9999 FEW028 BKN150 19/10 Q1016 BLU=
####018000125####
SAXX60 KAWN 081300 RRD
METAR RJTT 081330Z 18011KT 9999 FEW006 SCT010 BKN/// 25/23 Q1010 RMK
      1ST006 3CU010 A2984=
####018000081####
SAUS74 KWBC 081300 RRD
METAR
KOTH 081335Z 29003KT 10SM SCT005 10/08 A3000=
####018000092####
SAEU KAWN 081000 RRX
METAR COR EGXG 080950Z 22009KT 9999 FEW028 BKN150 19/10 Q1016 BLU=
####018000084####
SAGL KAWN 081300 RRC
METAR BIKF 081330Z 03023KT 9999 SCT018 BKN100 12/06 Q0995=
####018000946####
SAUK KAWN 081300 RRH
METAR EGDR 081250Z 22006KT 9999 FEW022 BKN100 BKN220 18/14 Q1019 BLU
      NOSIG=
METAR COR EGOV 081250Z 19015KT 9999 -RA FEW017 BKN080 BKN100 17/13
      Q1017 BLU NOSIG=
METAR EGOV 081250Z 19015KT 9999 -RA FEW017 BKN080 BKN100 17/13 Q1017
      BLU NOSIG=
METAR COR EGQK 081250Z 22020KT 9999 FEW027 BKN050 18/07 Q1009 BLU NOSIG=
METAR EGUB 081250Z AUTO 21009KT 9999NDV // SCT039/// 24/19 Q1018=
METAR EGUW 081250Z 23009KT 9999 FEW035 BKN280 24/14 Q1018 BLU NOSIG=
METAR EGXC 081250Z 24008KT 9999 FEW045 BKN250 22/07 Q1017 BLU NOSIG=
METAR EICK 081330Z 20009KT 9000 -RA BKN006 BKN012 BKN020 13/13 Q1016
      TEMPO 2000=
METAR EIDW 081330Z 23012KT 210V270 9999 FEW022 SCT040 BKN100 17/10
      Q1015 NOSIG=
METAR EIKN 081330Z 22006KT 180V270 9999 FEW012 FEW018CB SCT028 BKN038
      13/12 Q1013 NOSIG=
METAR EINN 081330Z 23010KT 9999 -RADZ FEW016 SCT035 BKN050 15/13 Q1015
      NOSIG=
####018000197####
SAAK41 KNKA 081339
SPECI PAHC 081337Z AUTO 24004KT 4SM BR CLR 07/07 A2998 RMK AO2 TSNO 
    $=
SPECI PAYA 081337Z 00000KT 10SM BKN007 OVC095 12/10 A3018 RMK AO2 
    BAY TWR WND 090MMKT=
####018001738####
SPZZ40 KAWN 081339 RRG
SPECI CWSA 081334Z AUTO 22007KT 1/2SM VV001 18/18 A3022=
SPECI CYPL 081334Z 25002KT 15SM TS BKN040CB BKN100 BKN270 RMK CB5AC2CI0=
SPECI CYPX 081333Z 24019KT 6SM -DZ BR OVC005 RMK ST8=
SPECI CZFM 081335Z 18005KT 35SM -RA FEW020 BKN040 BKN070 RMK SF0SC3AC3=
SPECI EGUN 081334Z AUTO 26006KT 9999 BKN041 BKN140 24/15 A3006 RMK
      AO2 SLP168=
SPECI KBKF 081337Z 36004KT 3SM BR BKN002 OVC010 14/14 A3034=
SPECI KSKF 081335Z COR 06009KT 4SM -SHRA BR FEW002 BKN010 OVC014 25/25
      A2995 RMK AO2A VIS NW 2 COR 1336 $=
SPECI KTBN 081336Z 00000KT 10SM -RA SCT005 OVC033 25/21 A3009 RMK AO2A
      SLP173 $=
SPECI KVOK 081335Z 33007KT 10SM BKN010 21/21 A3006 RMK AO2A=
SPECI PAED 081334Z AUTO 00000KT 10SM -DZ FEW060 BKN075 BKN100 12/10
      A2999 RMK AO2 RAE1256B1316E1325DZB1256E1258B1325 SLP157 $=
PASV SP 1335 AWOS CLR BLO 120 10 48/44/0000/994=
SPECI PGUA 081335Z AUTO 11011KT 10SM R06R/5500VP6000FT R06L/5000VP6000FT
      SCT014 BKN021 26/ A2991 RMK AO2 RAB1325E1335 SLP109 VISNO
      RWY24L $=
SPECI PGUA 081338Z AUTO 10009KT 10SM SCT014 SCT021 25/ A2991 RMK AO2
      RAB1325E1335 SLP111 VISNO RWY24L $=
SPECI RJNY 081328Z 03002KT 9999 FEW010 SCT015 24/23 Q1010 RMK 1CU010
      3CU015 A2984 LIGHTNING SE=
SPECI RJST 081332Z 02003KT 7000 FEW002 SCT005 BKN008 21/20 Q1011 RMK
      1ST002 3ST005 5ST008 A2986 1ST002 SE 3ST005 OVR FLD=
SPECI RKSO 081333Z AUTO 00000KT 9999 CLR 23/23 A2981 RMK AO2 RAB1254E1329DZE1254B1310E1312B1329E1333
      SLP094 $=
SPECI RODN 081337Z AUTO 18009KT 9999 SCT016 SCT023 BKN200 29/26 A2987
      RMK AO2 SLP115=
SPECI RODN 081338Z AUTO 18009KT 9999 SCT016 BKN023 BKN200 29/26 A2987
      RMK AO2 BKN023 V SCT SLP115=
####018000137####
SPCN47 CWAO 081339
SPECI CYZE 081339Z AUTO 19007KT 180V250 9SM FEW007 BKN076 OVC098
 21/20 A2998 RMK SLP155 DENSITY ALT 1400FT=

####018000112####
SPUS90 KWBC 081340
SPECI KLXV 081337Z AUTO 09004KT 10SM OVC006 06/05 A3053 RMK AO2
     CIG 004V010 TSNO=
####018002437####
SAUS99 KWBC 081340
METAR
KOEB 081335Z AUTO 10004KT 10SM CLR 27/22 A3005 RMK AO2=
KOEO 081335Z AUTO 00000KT 10SM CLR 21/17 A3012 RMK AO2=
KONA 081330Z AUTO 31008KT 10SM SCT015 22/17 A3008 RMK AO2=
KOVL 081334Z AUTO 28005KT 10SM CLR 20/15 A3013 RMK AO2
     T01950150=
KOZW 081335Z AUTO 00000KT 10SM CLR 28/20 A3004 RMK AO2=
KPBH 081335Z AUTO 34003KT 10SM SCT048 21/17 A3009 RMK AO2=
KPCZ 081335Z AUTO 31005KT 10SM SCT008 24/20 A3002 RMK AO2
     T02370201=
KPDC 081333Z AUTO 30005KT 10SM OVC010 23/20 A3007 RMK AO2
     T02250202=
KPEX 081333Z AUTO 26007KT 10SM CLR 20/17 A3012 RMK AO2
     T02030166=
KPNM 081333Z AUTO 26007KT 10SM CLR 21/16 A3011 RMK AO2=
KPQN 081333Z AUTO 33007KT 10SM CLR 21/14 A3017 RMK AO2=
KPWC 081333Z AUTO 00000KT 10SM CLR 19/15 A3009 RMK AO2=
KRCM 081335Z AUTO 00000KT 10SM SCT006 OVC011 23/23 A3009 RMK
     AO2=
KRCX 081335Z AUTO 34007KT 10SM CLR 20/17 A3009 RMK AO2
     T02030170=
KRGK 081335Z AUTO 30005KT 10SM CLR 22/18 A3009 RMK AO2=
KRNP 081335Z AUTO 21005KT 10SM CLR 27/21 A3003 RMK AO2=
KROS 081335Z AUTO 27005KT 10SM CLR 21/16 A3010 RMK AO2
     T02050159=
KROX 081334Z AUTO 27008KT 10SM CLR 18/15 A3003 RMK AO2=
KRQB 081335Z AUTO 00000KT 5SM -DZ SCT005 BKN048 OVC060 22/22 A3003
     RMK AO2=
KRRT 081334Z AUTO 26009KT 10SM CLR 17/14 A3003 RMK AO2=
KSAZ 081334Z AUTO 26005KT 10SM CLR 20/19 A3010 RMK AO2=
KSGS 081333Z AUTO 32004KT 10SM CLR 22/16 A3011 RMK AO2
     T02150163=
KSNC 081335Z AUTO 15003KT 10SM BKN009 BKN014 OVC023 24/24 A3010
     RMK AO2=
KSYN 081350Z AUTO 30006KT 10SM CLR 21/18 A3011 RMK AO2
     T02100175=
KTEW 081333Z AUTO 16003KT 10SM CLR 26/21 A3004 RMK AO2=
KTKC 081333Z AUTO 27003KT 10SM CLR 21/15 A3016 RMK AO2
     T02050152=
KTOB 081334Z AUTO 35003KT 10SM CLR 19/17 A3013 RMK AO2=
KTWM 081333Z AUTO 26007KT 241V321 10SM CLR 21/15 A3003 RMK AO2=
KUKT 081335Z AUTO 00000KT 9SM CLR 28/22 A3006 RMK AO1=
KULM 081335Z AUTO 31006KT 10SM CLR 20/16 A3014 RMK AO2=
KUNI 081335Z AUTO 00000KT 10SM CLR 29/18 A3009 RMK AO2
     T02860180=
KVES 081334Z AUTO 17003KT 10SM CLR 27/21 A3008 RMK AO2
     T02690211=
KVLL 081334Z AUTO 28005KT 10SM CLR 30/19 A3005 RMK AO2=
KVVV 081336Z AUTO 25005KT 10SM CLR 21/16 A3012 RMK AO2=
KY63 081340Z AUTO 28004KT 10SM CLR 19/17 A3011 RMK AO2
     T01900165=
KY70 081335Z AUTO 00000KT 5SM HZ SCT047 BKN120 25/22 A3002 RMK AO2
     T02520223=
####018000193####
SPUS99 KWBC 081340
SPECI
PAHC 081337Z AUTO 24004KT 4SM BR CLR 07/07 A2998 RMK AO2 TSNO
     $=
PAYA 081337Z 00000KT 10SM BKN007 OVC095 12/10 A3018 RMK AO2 BAY
     TWR WND 090MMKT=
####018003713####
SAUS70 KWBC 081340
METAR
K14Y 081339Z AUTO 26007KT 10SM CLR 21/16 A3011 RMK AO2
     T02050158=
K4I3 081336Z AUTO 00000KT 10SM CLR 27/22 A3010 RMK AO2=
K4M9 081335Z AUTO 24006KT 10SM CLR 27/25 A3008 RMK AO2=
KACB 081335Z AUTO 21003KT 7SM -RA SCT009 23/22 A3000 RMK AO2=
KACQ 081339Z AUTO 32005KT 10SM CLR 20/17 A3016 RMK AO2=
KADC 081337Z AUTO 25004KT 10SM CLR 18/15 A3009 RMK AO2=
KAEJ 081335Z AUTO 33003KT 10SM BKN016 10/08 A3045 RMK AO2=
KAEL 081331Z AUTO 33004KT 10SM CLR 19/17 A3014 RMK AO2=
KAIT 081333Z AUTO 24004KT 10SM CLR 21/19 A3007 RMK AO2=
KAUM 081335Z AUTO 34005KT 10SM CLR 21/17 A3012 RMK AO2=
KBAX 081335Z AUTO 26004KT 10SM SCT095 27/23 A3001 RMK AO2=
KBBB 081333Z AUTO 27004KT 10SM CLR 20/17 A3012 RMK AO2=
KBDH 081335Z AUTO 28005KT 10SM CLR 19/16 A3014 RMK AO2=
KBVU 081335Z AUTO 31004KT 10SM CLR 24/00 A2990 RMK AO2=
KCAD 081334Z AUTO 25004KT 7SM -RA SCT006 BKN044 OVC060 22/21 A3004
     RMK AO2=
KCBG 081335Z AUTO 26006KT 10SM CLR 21/17 A3010 RMK AO2=
KCFE 081335Z AUTO 25005KT 10SM CLR 21/17 A3013 RMK AO2
     T02090166=
KCFS 081335Z AUTO 28004KT 10SM SCT060 27/21 A3002 RMK AO2=
KCKC 081335Z AUTO 26007KT 10SM CLR 21/14 A3005 RMK AO2=
KCKN 081335Z AUTO 29004KT 10SM SCT060 18/14 A3008 RMK AO2=
KCNB 081338Z AUTO 24007KT 10SM CLR 22/15 A3015 RMK AO2
     T02150147=
KCOQ 081336Z AUTO 27006KT 10SM CLR 20/18 A3007 RMK AO2=
KCQM 081337Z AUTO 26005KT 10SM CLR 19/15 A3005 RMK AO2=
KCVH 081330Z AUTO 00000KT 8SM OVC008 13/11 A2994 RMK AO1=
KDCM 081335Z AUTO 01005KT 5SM HZ CLR 29/24 A3002 RMK AO2=
KDRM 081336Z AUTO 24007KT 4SM RA BKN004 BKN032 OVC040 21/21 A2999
     RMK AO2=
KDTL 081335Z AUTO 29006KT 10SM CLR 20/11 A3011 RMK AO2=
KDUH 081335Z AUTO 22003KT 10SM CLR 30/20 A3004 RMK AO2=
KDXX 081334Z AUTO 00000KT 10SM CLR 20/19 A3012 RMK AO2=
KEFK 081335Z AUTO 20004KT 7SM CLR 27/22 A3006 RMK AO2=
KEFT 081335Z AUTO 32007KT 10SM BKN004 BKN010 BKN014 23/20 A3006
     RMK AO2 T02250202=
KELO 081333Z AUTO 22006KT 10SM CLR 19/15 A3003 RMK AO2=
KETB 081332Z AUTO 28005KT 10SM BKN009 OVC032 23/21 A3003 RMK AO2
     T02290206=
KEVM 081332Z AUTO 26004KT 10SM CLR 18/15 A3003 RMK AO1=
KEZS 081335Z AUTO 01004KT 10SM CLR 24/21 A3001 RMK AO2
     T02400206=
KFBL 081334Z AUTO 29005KT 10SM CLR 20/16 A3014 RMK AO2=
KFFM 081333Z AUTO 00000KT 10SM CLR 18/16 A3009 RMK AO2=
KFFX 081335Z AUTO 21003KT 10SM RA SCT007 BKN048 OVC070 23/22 A3002
     RMK AO2=
KFGN 081334Z AUTO 28007KT 1SM HZ OVC070 17/14 A2999 RMK AO2 VIS
     1/2V1 1/2=
KFPK 081336Z AUTO 00000KT 10SM CLR 26/21 A3002 RMK AO2=
KFSE 081334Z AUTO 23004KT 10SM CLR 17/14 A3007 RMK AO2=
KFSO 081338Z AUTO 00000KT 7SM SCT060 27/24 A3001 RMK AO2=
KGDB 081333Z AUTO 24005KT 10SM CLR 20/16 A3015 RMK AO2
     T01950164=
KGHW 081333Z AUTO 29007KT 10SM CLR 20/14 A3014 RMK AO2=
KGLW 081333Z AUTO 00000KT 10SM CLR 29/21 A3009 RMK AO2
     T02900207=
KGYL 081335Z AUTO 28008KT 10SM CLR 20/16 A3012 RMK AO2
     T02010160=
KHAF 081330Z AUTO 34003KT 7SM OVC006 12/10 A2995 RMK AO2=
KHAI 081335Z AUTO 00000KT 10SM SCT060 SCT075 SCT110 26/22 A3004
     RMK AO2=
KHCD 081332Z AUTO 27005KT 10SM CLR 20/16 A3013 RMK AO2
     T01950157=
KHCO 081334Z AUTO 32009KT 10SM CLR 18/16 A3009 RMK AO2=
KHFJ 081335Z AUTO 00000KT 10SM SCT034 BKN050 BKN095 24/23 A3006
     RMK AO1=
KHYW 081335Z AUTO 01006KT 5SM HZ CLR 29/23 A2995 RMK AO2=
KHZX 081331Z AUTO 26004KT 10SM CLR 20/16 A3008 RMK AO2=
KIRS 081335Z AUTO 10005KT 10SM CLR 27/22 A3003 RMK AO2=
KJKJ 081334Z AUTO 28004KT 10SM CLR 19/17 A3008 RMK AO2=
KJMR 081338Z AUTO 26003KT 10SM CLR 21/16 A3011 RMK AO2=
KJYG 081335Z AUTO 29007KT 10SM CLR 21/19 A3016 RMK AO2=
####018000503####
SAAO32 GOOY 081330
METAR GABS 081330Z 22005KT 140V270 9999 SCT030 33/21 Q1014 NOSIG=
METAR GGOV 081330Z NIL=
METAR GOOY 081330Z 16008KT 120V210 9999 SCT013 31/25 Q1012 NOSIG=
METAR DIAP 081330Z 21007KT 180V260 8000 SCT012 BKN020 29/25 Q1014
NOSIG=
METAR GQNN 081330Z 20013KT 170V240 6000 NSC 32/21 Q1012 NOSIG=
METAR GQPP 081330Z NIL=
METAR GUCY 081330Z NIL=
METAR GVAC 081330Z NIL=
METAR GFLL 081330Z NIL=
METAR GBYD 081330Z NIL=
METAR GLRB 081330Z 21005KT 9999 BKN020 30/25 Q1013 NOSIG=
####018000083####
SAFR36 LFPW 081330 RRA
METAR LFJR 081330Z AUTO VRB04KT 9999NDV NCD 34/10 Q1017=
####018000111####
SAUK51 EGGY 081250 CCA
METAR COR EGOV 081250Z 19015KT 9999 -RA FEW017 BKN080 BKN100 17/13
    Q1017 NOSIG=
####018003305####
SAUS70 KWBC 081340 RRA
METAR
KJYM 081335Z AUTO 00000KT 10SM CLR 27/21 A3006 RMK AO2=
KLJF 081332Z AUTO 28007KT 10SM CLR 21/17 A3013 RMK AO2=
KLNL 081335Z AUTO 34005KT 10SM OVC050 19/15 A3008 RMK AO2
     T01900149=
KLUM 081335Z AUTO 31007KT 10SM CLR 21/16 A3010 RMK AO2=
KLVN 081328Z AUTO 30005KT 10SM CLR 21/17 A3012 RMK AO2=
KLWA 081336Z AUTO 00000KT 10SM BKN060 OVC075 24/21 A3003 RMK
     AO2=
KLXL 081334Z AUTO 27005KT 10SM CLR 20/14 A3009 RMK AO2=
KMCJ 081335Z AUTO 08010KT 5SM FEW030 24/23 A2994 RMK AO1 P0001=
KMDS 081325Z AUTO 28005KT 10SM CLR 20/16 A3018 RMK AO2=
KMDZ 081335Z AUTO 33005KT 10SM CLR 21/18 A3007 RMK AO2=
KMGG 081335Z AUTO 28006KT 10SM CLR 21/17 A3013 RMK AO2
     T02100168=
KMGN 081335Z AUTO 26003KT 2SM RA SCT002 OVC008 21/20 A3000 RMK
     AO2=
KMJQ 081332Z AUTO 31007KT 10SM CLR 19/16 A3018 RMK AO2=
KMOP 081335Z AUTO 28005KT 10SM RA SCT033 SCT046 OVC060 23/23 A3002
     RMK AO2=
KMOX 081330Z AUTO 26005KT 10SM CLR 22/17 A3008 RMK AO2=
KMRJ 081335Z AUTO 33003KT 7SM BKN007 24/21 A3007 RMK AO2
     T02360205=
KMVE 081334Z AUTO 29004KT 10SM CLR 20/17 A3012 RMK AO2=
KMWM 081333Z AUTO 30007KT 10SM CLR 21/16 A3015 RMK AO2=
KOEB 081335Z AUTO 10004KT 10SM CLR 27/22 A3005 RMK AO2=
KOEO 081335Z AUTO 00000KT 10SM CLR 21/17 A3012 RMK AO2=
KONA 081330Z AUTO 31008KT 10SM SCT015 22/17 A3008 RMK AO2=
KOVL 081334Z AUTO 28005KT 10SM CLR 20/15 A3013 RMK AO2
     T01950150=
KOZW 081335Z AUTO 00000KT 10SM CLR 28/20 A3004 RMK AO2=
KPBH 081335Z AUTO 34003KT 10SM SCT048 21/17 A3009 RMK AO2=
KPCZ 081335Z AUTO 31005KT 10SM SCT008 24/20 A3002 RMK AO2
     T02370201=
KPDC 081333Z AUTO 30005KT 10SM OVC010 23/20 A3007 RMK AO2
     T02250202=
KPEX 081333Z AUTO 26007KT 10SM CLR 20/17 A3012 RMK AO2
     T02030166=
KPNM 081333Z AUTO 26007KT 10SM CLR 21/16 A3011 RMK AO2=
KPQN 081333Z AUTO 33007KT 10SM CLR 21/14 A3017 RMK AO2=
KPWC 081333Z AUTO 00000KT 10SM CLR 19/15 A3009 RMK AO2=
KRCM 081335Z AUTO 00000KT 10SM SCT006 OVC011 23/23 A3009 RMK
     AO2=
KRCX 081335Z AUTO 34007KT 10SM CLR 20/17 A3009 RMK AO2
     T02030170=
KRGK 081335Z AUTO 30005KT 10SM CLR 22/18 A3009 RMK AO2=
KRNP 081335Z AUTO 21005KT 10SM CLR 27/21 A3003 RMK AO2=
KROX 081334Z AUTO 27008KT 10SM CLR 18/15 A3003 RMK AO2=
KRQB 081335Z AUTO 00000KT 5SM -DZ SCT005 BKN048 OVC060 22/22 A3003
     RMK AO2=
KRRT 081334Z AUTO 26009KT 10SM CLR 17/14 A3003 RMK AO2=
KSAZ 081334Z AUTO 26005KT 10SM CLR 20/19 A3010 RMK AO2=
KSGS 081333Z AUTO 32004KT 10SM CLR 22/16 A3011 RMK AO2
     T02150163=
KTEW 081333Z AUTO 16003KT 10SM CLR 26/21 A3004 RMK AO2=
KTOB 081334Z AUTO 35003KT 10SM CLR 19/17 A3013 RMK AO2=
KTWM 081333Z AUTO 26007KT 241V321 10SM CLR 21/15 A3003 RMK AO2=
KUKT 081335Z AUTO 00000KT 9SM CLR 28/22 A3006 RMK AO1=
KULM 081335Z AUTO 31006KT 10SM CLR 20/16 A3014 RMK AO2=
KUNI 081335Z AUTO 00000KT 10SM CLR 29/18 A3009 RMK AO2
     T02860180=
KVES 081334Z AUTO 17003KT 10SM CLR 27/21 A3008 RMK AO2
     T02690211=
KVLL 081334Z AUTO 28005KT 10SM CLR 30/19 A3005 RMK AO2=
KVVV 081336Z AUTO 25005KT 10SM CLR 21/16 A3012 RMK AO2=
KY63 081340Z AUTO 28004KT 10SM CLR 19/17 A3011 RMK AO2
     T01900165=
KY70 081335Z AUTO 00000KT 5SM HZ SCT047 BKN120 25/22 A3002 RMK AO2
     T02520223=
####018000104####
SAXX60 KWBC 081340
METAR
KMRT 081333Z AUTO 27003KT 10SM CLR 28/20 A3012 RMK AO2
     T02820196=
####018000777####
SPXX60 KWBC 081340
SPECI
KBKF 081337Z 36004KT 3SM BR BKN002 OVC010 14/14 A3034=
KSKF 081335Z COR 06009KT 4SM -SHRA BR FEW002 BKN010 OVC014 25/25
     A2995 RMK AO2A VIS NW 2 COR 1336 $=
KTBN 081336Z 00000KT 10SM -RA SCT005 OVC033 25/21 A3009 RMK AO2A
     SLP173 $=
KVOK 081335Z 33007KT 10SM BKN010 21/21 A3006 RMK AO2A=
PAED 081334Z AUTO 00000KT 10SM -DZ FEW060 BKN075 BKN100 12/10
     A2999 RMK AO2 RAE1256B1316E1325DZB1256E1258B1325 SLP157 $=
PASV SP 1335 AWOS CLR BLO 120 10 48/44/0000/994=
PGUA 081335Z AUTO 11011KT 10SM R06R/5500VP6000FT R06L/5000VP6000FT
     SCT014 BKN021 26/ A2991 RMK AO2 RAB1325E1335 SLP109 VISNO
     RWY24L $=
PGUA 081338Z AUTO 10009KT 10SM SCT014 SCT021 25/ A2991 RMK AO2
     RAB1325E1335 SLP111 VISNO RWY24L $=
####018000204####
SPUS80 KWBC 081340
SPECI
KLXV 081337Z AUTO 09004KT 10SM OVC006 06/05 A3053 RMK AO2 CIG
     004V010 TSNO=
PAYA 081337Z 00000KT 10SM BKN007 OVC095 12/10 A3018 RMK AO2 BAY
     TWR WND 090MMKT=
####018000485####
SAUS80 KWBC 081340
METAR
K29G 081334Z AUTO 00000KT 10SM CLR 27/19 A3009 RMK AO2 T02700188
     PWINO=
KIKW 081333Z AUTO 26003KT 10SM BKN070 OVC080 24/21 A3002 RMK AO2
     T02380210=
KLYV 081338Z AUTO 00000KT 10SM CLR 19/16 A3018 RMK AO2=
KROS 081335Z AUTO 27005KT 10SM CLR 21/16 A3010 RMK AO2
     T02050159=
KSNC 081335Z AUTO 15003KT 10SM BKN009 BKN014 OVC023 24/24 A3010
     RMK AO2=
KTKC 081333Z AUTO 27003KT 10SM CLR 21/15 A3016 RMK AO2
     T02050152=
####018000447####
SPUS70 KWBC 081340
SPECI
PASO 081336Z AUTO 00000KT 10SM BKN004 BKN085 OVC120 09/09 A2992
     RMK AO2 RAB1254E06 P0001 TSNO=
KCEC 081337Z AUTO 00000KT 2 1/2SM BR OVC001 10/09 A2998 RMK
     AO2=
KJCT 081334Z AUTO 03003KT 9SM BKN008 OVC022 24/22 A3004 RMK AO2
     CIG 005V011 TSNO=
KMFI 081337Z AUTO 35005KT 10SM SCT007 OVC013 22/19 A3006 RMK
     AO2=
PAHC 081337Z AUTO 24004KT 4SM BR CLR 07/07 A2998 RMK AO2 TSNO
     $=
####018000102####
SPAK31 KWBC 081340
SPECI
PAED 081334Z AUTO 00000KT 10SM -DZ FEW060 BKN075 BKN100 12/10
A2999=
####018000081####
SAAF35 KWBC 081300 RRE
METAR
HECA 081330Z 33009KT CAVOK 33/18 Q1010 NOSIG=
####018000104####
SAUS80 KWBC 081400
METAR
KSYN 081350Z AUTO 30006KT 10SM CLR 21/18 A3011 RMK AO2
     T02100175=
####018000095####
SAAL31 KWBC 081300 RRE
METAR
DABS 081330Z 34010KT CAVOK 35/06 Q1023=
DAUZ 081330Z NIL=
####018000115####
SAAO32 KWBC 081300 RRC
METAR
GABS 081330Z 22005KT 140V270 9999 SCT030 33/21 Q1014 NOSIG=
GQPP 081330Z NIL=
####018000167####
SAAO33 KWBC 081300 RRD
METAR
GBYD 081330Z NIL=
GFLL 081330Z NIL=
GGOV 081330Z NIL=
GLRB 081330Z 21005KT 9999 BKN020 30/25 Q1013 NOSIG=
GUCY 081330Z NIL=
####018000053####
SANT31 KWBC 081300 RRC
METAR
GVAC 081330Z NIL=
####018000125####
SPPA41 KWBC 081340
SPECI
PGUA 081335Z AUTO 11011KT 10SM R06R/5500VP6000FT R06L/5000VP6000FT
SCT014 BKN021 26/ A2991=
####018000080####
SPAK32 KWBC 081340
SPECI
PASV SP 1335 AWOS CLR BLO 120 10 48/44/0000/994=
####018001236####
SARA31 KWBC 081300 RRJ
METAR
UEEE 081330Z 00000MPS 9999 -SHRA BKN040CB OVC100 16/15 Q1008 NOSIG
     RMK QFE748 23290150=
UHHH 081330Z 04002MPS 9999 SCT026CB OVC100 16/15 Q1011 NOSIG RMK
     QFE752/1002 55090060=
UHMA 081330Z NIL=
UHMM 081330Z NIL=
UHMP 081330Z NIL=
UHPP 081330Z NIL=
UHSS 081330Z NIL=
UHWW 081330Z 19002MPS 9999 SCT013 BKN023CB OVC100 16/15 Q1011
     NOSIG RMK QFE757/1010 75CLRD70=
UIAA 081330Z NIL=
UIBB 081330Z 05003MPS 9999 BKN200 23/13 Q1006 NOSIG RMK
     QFE712/0949 30CLRD60=
UIII 081330Z 17004MPS CAVOK 17/10 Q1006 NOSIG RMK QFE713/0950
     12CLRD60=
UIUU 081330Z 00000MPS 9999 SCT033CB OVC100 21/14 Q1008 NOSIG RMK
     QFE712/0949 26CLRD60=
ULAA 081330Z 30004MPS 260V350 9999 FEW033 27/18 Q1016 TEMPO
     VRB14MPS TSRA RMK QFE760/1014 SC070=
UMBB 081330Z 32004G07MPS 8000 SCT030 24/13 Q1019 NOSIG=
UNAA 081330Z VRB02MPS 9999 -SHRA SCT030CB BKN100 17/14 Q1012 NOSIG
     RMK QFE736 022///55=
UNNT 081330Z 26003MPS 9999 BKN055CB BKN100 18/05 Q1007 NOSIG RMK
     QFE745/0994 25090070=
USNN 081330Z 15003MPS P6000 SCT026 BKN200 17/11 Q1004 NOSIG RMK
     QFE748 SC065=
UUEE 081330Z 17005MPS 120V190 9999 SCT050CB BKN200 29/13 Q1014
     NOSIG=
####018000087####
SPPA41 KWBC 081340
SPECI
PGUA 081338Z AUTO 10009KT 10SM SCT014 SCT021 25/ A2991=
####018000639####
SARS31 KWBC 081300 RRD
METAR
UELL 081330Z VRB01MPS 0600 FG FEW030 BKN200 12/11 Q1012 TEMPO 0400
     VV002 RMK QFE685 08290050=
UEST 081330Z NIL=
ULLI 081330Z 23002MPS 200V270 9999 BKN040CB BKN066 BKN200 28/19
     Q1013 TEMPO TSRA=
ULMM 081330Z 04002G09MPS 010V100 9999 BKN026 17/09 Q1017 NOSIG RMK
     QFE756 32190060=
UOHH 081330Z NIL=
UOOO 081330Z NIL=
UUDD 081330Z 16005MPS 120V180 9999 FEW050TCU BKN100 29/15 Q1015
     TEMPO VRB12MPS TSRA=
UUEE 081330Z 17005MPS 120V190 9999 SCT050CB BKN200 29/13 Q1014
     NOSIG=
UUEM 081330Z NIL=
UUWW 081330Z 17003MPS 130V210 CAVOK 27/16 Q1015 24000070 NOSIG=
####018000727####
SARS33 KWBC 081300 RRC
METAR
USCC 081330Z 36006G09MPS CAVOK 25/02 Q1013 NOSIG RMK QFE740
     27000070=
USDD 081330Z 04008G12MPS CAVOK 16/01 Q1015 NOSIG RMK QFE755/1007
     SC060=
USMU 081330Z 01005MPS 9999 FEW036CB BKN066 15/13 Q1006 NOSIG RMK
     QFE749 09250345=
USNN 081330Z 15003MPS P6000 SCT026 BKN200 17/11 Q1004 NOSIG RMK
     QFE748 SC065=
USPP 081330Z 36004MPS CAVOK 28/10 Q1015 NOSIG RMK QFE750/1000
     21090060=
USRK 081330Z NIL=
USRR 081330Z 33003MPS 7000 OVC012 13/11 Q1005 TEMPO BKN007 RMK
     QFE748 25////60=
USSS 081330Z 35007G10MPS CAVOK 25/00 Q1014 NOSIG RMK QFE740
     260///70=
USTR 081330Z 28001MPS 9999 SCT046 20/06 Q1012 NOSIG RMK
     QFE750/1000 30CLRD65=
####018000112####
SAUK41 KWBC 081250 RRD
METAR
EGDR 081250Z 22006KT 9999 FEW022 BKN100 BKN220 18/14 Q1019 BLU
     NOSIG=
####018001089####
SARS32 KWBC 081300 RRE
METAR
URKA 081330Z 05005MPS 9999 SCT026 29/20 Q1011 NOSIG RMK  065=
URKA 081330Z 05005MPS 9999 SCT026 29/20 Q1011 NOSIG RMK 065=
URKK 081330Z 06006MPS 9999 BKN043 31/20 Q1011 NOSIG RMK QFE755
     SC070=
URKM 081330Z NIL=
URMM 081330Z 11005G07MPS 9999 BKN046 30/19 Q1012 NOSIG RMK 
      0M-200 / SC070=
URMM 081330Z 11005G07MPS 9999 BKN046 30/19 Q1012 NOSIG RMK 0M-200
     / SC070=
URMN 081330Z 09003MPS 9999 BKN033CB BKN110 28/19 Q1013 NOSIG RMK
     / QFE723 SC07=
URMN 081330Z 09003MPS 9999 BKN033CB BKN110 28/19 Q1013 NOSIG RMK /
     QFE723 SC07=
URMT 081330Z 06005G08MPS 9999 SCT026CB BKN100 28/17 Q1014 NOSIG
     RMK QFE720 SC07=
URRR 081330Z 00000MPS 9999 FEW036 31/15 Q1013 NOSIG RMK SC070=
URSS 081330Z 28004G07MPS 9999 FEW040 28/21 Q1008 NOSIG RMK /
     QFE755 06CLRD70=
URSS 081330Z 28004G07MPS 9999 FEW040 28/21 Q1008 NOSIG RMK /
     QFE755 06CLRD70=
URWA 081330Z 27002MPS CAVOK 37/11 Q1010 NOSIG RMK SC07=
URWI 081330Z NIL=
URWW 081330Z 31004MPS CAVOK 31/13 Q1014 NOSIG RMK SC070=
####018001247####
SARS41 KWBC 081300 RRC
METAR
UUBP 081330Z NIL=
UUEE 081330Z 17005MPS 120V190 9999 SCT050CB BKN200 29/13 Q1014
     NOSIG=
UUEM 081330Z NIL=
UUOO 081330Z 00000MPS 9999 SCT033CB BKN100 28/12 Q1014 NOSIG RMK
     13090070=
UUWW 081330Z 17003MPS 130V210 CAVOK 27/16 Q1015 24000070 NOSIG=
UUYH 081330Z 18001MPS CAVOK 27/11 Q1016 NOSIG RMK QFE 750
     18CLRD60=
UUYS 081330Z 17003MPS CAVOK 20/07 Q1015 NOSIG RMK QFE754
     14CLRD60=
UUYY 081330Z 22003MPS 190V260 9999 FEW036 OVC200 30/15 Q1015 NOSIG
     19CLRD61 RMK QFE752/1003=
UWGG 081330Z 11002MPS 080V150 8000 FEW033 34/08 Q1015 NOSIG RMK
     QFE754 18090070=
UWKD 081330Z 28003MPS 240V320 9999 FEW050CB SCT070 32/12 Q1014
     TEMPO VRB15MPS 3000 TSRA RMK QFE750/1000 79CLRD70=
UWKE 081330Z 09003MPS 9999 FEW040 31/10 Q1015 NOSIG RMK
     QFE744/0992 04090070=
UWLW 081330Z NIL=
UWOO 081330Z NIL=
UWPP 081330Z 13004MPS 9999 SCT0033 BKN100 33/09 Q1013 NOSIG RMK
     QFE745 11090060=
UWSS 081330Z 05004MPS CAVOK 31/09 Q1014 NOSIG RMK QFE748
     120///60=
UWUU 081330Z 36005MPS CAVOK 29/10 Q1014 82010060 NOSIG RMK
     QFE750/1000=
UWWW 081330Z 05006MPS 9999 FEW033 BKN200 32/07 Q1014 NOSIG RMK
     QFE748/0997 05CLRD60 15//99//=
####018000112####
SAUK42 KWBC 081250 RRF
METAR
EGOV 081250Z 19015KT 9999 -RA FEW017 BKN080 BKN100 17/13 Q1017
     NOSIG=
####018000126####
SPJP31 KWBC 081340
SPECI
RODN 081338Z AUTO 18009KT 9999 SCT016 BKN023 BKN200 29/26 A2987
RMK AO2 BKN023 V SCT SLP115=
####018000113####
SPJP31 KWBC 081340
SPECI
RODN 081337Z AUTO 18009KT 9999 SCT016 SCT023 BKN200 29/26 A2987
RMK AO2 SLP115=
####018000149####
SPJP44 KWBC 081340
SPECI
RJST 081332Z 02003KT 7000 FEW002 SCT005 BKN008 21/20 Q1011 RMK
1ST002 3ST005 5ST008 A2986 1ST002 SE 3ST005 OVR FLD=
####018000123####
SPJP43 KWBC 081340
SPECI
RJNY 081328Z 03002KT 9999 FEW010 SCT015 24/23 Q1010 RMK 1CU010
3CU015 A2984 LIGHTNING SE=
####018001253####
SAXX99 KWBC 081300 RRX
METAR
EGUB 081250Z AUTO 21009KT 9999NDV // SCT039/// 24/19 Q1018=
EGXC 081250Z 24008KT 9999 FEW045 BKN250 22/07 Q1017 NOSIG=
UERP 081330Z NIL=
UERR 081330Z VRB02MPS CAVOK 14/14 Q1012 NOSIG RMK QFE728
     24CLRD60=
UESO 081330Z NIL=
UHNN 081330Z NIL=
UHSH 081330Z NIL=
ULDD 081330Z NIL=
ULKK 081330Z NIL=
ULOL 081330Z NIL=
ULOO 081330Z 30004MPS P6000 TS SCT033CB BKN040 BKN200 28/19 Q1012
     TEMPO VRB14MPS SQ RMK QFE755=
ULWW 081330Z NIL=
UMKK 081330Z NIL=
UNBB 081330Z 15003MPS 9999 SCT040 SCT100 14/11 Q1009 NOSIG RMK
     QFE735=
UNEE 081330Z 20005MPS 9999 SCT026CB BKN066 OVC200 19/09 Q1009
     NOSIG RMK QFE734 23CLRD60=
UNKL 081330Z 28003MPS 9999 -SHRA BKN023CB OVC083 13/12 Q1011 NOSIG
     RMK QFE732 29////55=
UNOO 081330Z 30005MPS 9999 BKN030CB 14/09 Q1008 NOSIG 25CLRD06 RMK
     QFE747=
UNWW 081330Z 12001MPS 9999 SCT026CB OVC130 14/09 Q1011 NOSIG RMK
     QFE731 1929//60=
UOII 081330Z NIL=
URML 081330Z 09006MPS 9999 FEW100 31/20 Q1011 NOSIG RMK QFE758 /
     07=
URML 081330Z 09006MPS 9999 FEW100 31/20 Q1011 NOSIG RMK QFE758 /
     07=
UWLL 081330Z 08003MPS 9999 SCT050CB 32/09 Q1014 NOSIG RMK
     QFE748/0998 SC065=
UWOR 081330Z NIL=
####018000168####
SPPA31 KWBC 081340
SPECI
PGUA 081335Z AUTO 11011KT 10SM R06R/5500VP6000FT R06L/5000VP6000FT
SCT014 BKN021 26/ A2991 RMK AO2 RAB1325E1335 SLP109 VISNO RWY24L $=
####018000132####
SPPA31 KWBC 081340
SPECI
PGUA 081338Z AUTO 10009KT 10SM SCT014 SCT021 25/ A2991 RMK AO2
RAB1325E1335 SLP111 VISNO RWY24L $=
####018002765####
SAUS20 KNKA 081339
SPECI KAJO 081337Z AUTO 00000KT 4SM BR BKN011 15/14 A2993 RMK AO2 
    BKN V SCT $=
METAR KBBF 081435Z AUTO 13016KT 8SM CLR 28/26 A2984 RMK A01=
SPECI KBIV 081338Z AUTO 31003KT 1 1/4SM +RA BR OVC001 24/22 A3004 
    RMK AO2 RAB15 P0009=
METAR KBQX 081335Z AUTO 12017KT 8SM FEW024 SCT033 BKN042 29/26
     A2988 RMK A01=
SPECI KBRO 081338Z 31006KT 10SM SCT005 BKN060 26/25 A2978 RMK AO2=
SPECI KCNM 081338Z AUTO 34008KT 6SM -RA BR SCT013 OVC100 19/19 A3017 
    RMK AO2 P0005=
METAR KDLP 081335Z AUTO 10012KT 9SM FEW020 SCT026 29/25 A3002 RMK
     A01=
SPECI KDPA 081338Z 25005KT 5SM BR FEW006 BKN019 OVC046 24/22 A3004 
    RMK AO2 RAB03E23 P0002=
METAR KEDU 081335Z AUTO 00000KT 10SM CLR 13/10 A2984 RMK AO1=
METAR KEGV 081333Z AUTO 35007KT 10SM BKN046 20/17 A3006 RMK AO2 
     T02020171=
METAR KEHC 081335Z AUTO 12020KT 6SM HZ FEW016 SCT022 SCT030 29/26
     A2996 RMK A01=
METAR KEMK 081335Z AUTO 13023KT 7SM FEW023 SCT031 BKN049 29/25
     A2990 RMK A01=
METAR KGBK 081335Z AUTO 09013G20KT 10SM FEW018 FEW024 FEW029 29/25
     A2995 RMK A01=
METAR KGVX 081335Z AUTO 13026KT 8SM FEW021 FEW040 BKN070 M40/
     A2993 RMK A01=
METAR KHQI 081335Z AUTO 11022G30KT 3SM HZ SCT021 SCT031 BKN050
     29/25 A2992 RMK A01=
METAR KIPN 081335Z AUTO 07013G18KT 10SM FEW026 58/51 A3001 RMK A01=
METAR KMDJ 081335Z AUTO 11014KT 10SM FEW023 FEW032 29/23 A3003 RMK
     A01=
METAR KMHR 081335Z AUTO 15005KT 9SM CLR 12/10 A2986 RMK AO1=
METAR KMIU 081335Z AUTO 12021G30KT 1 1/2SM HZ SCT018 SCT030 BKN043
     28/25 A2983 RMK A01=
SPECI KMKG 081338Z 20007KT 2SM RA BR BKN007 BKN019 OVC055 23/22 
    A3003 RMK AO2 RAB03 P0003=
METAR KMYT 081335Z AUTO 11017KT 10SM FEW023 29/23 A2999 RMK A01=
METAR KMZG 081335Z AUTO 00000KT 9SM SCT020 BKN024 BKN033 29/25
     A2984 RMK A01=
METAR KRNH 081336Z AUTO 00000KT 10SM CLR 20/17 A3011 RMK AO2 
     T02030169=
METAR KRPD 081334Z AUTO 31003KT 10SM CLR 21/16 A3011 RMK AO2 
     T02070163=
METAR KRRL 081335Z AUTO 33004KT 10SM CLR 21/19 A3007 RMK AO2 
     T02120187=
METAR KRYV 081335Z AUTO 28004KT 7SM OVC007 23/21 A3004 RMK AO2=
METAR KSCF 081340Z AUTO 13019KT 8SM 29/25 A2994 RMK A01=
METAR KSTE 081335Z AUTO 31004KT 10SM BKN011 22/19 A3004 RMK AO2=
METAR KSUW 081335Z AUTO 24006KT 10SM CLR 21/16 A3004 RMK AO2=
SPECI KTCC 081338Z AUTO 05006KT 10SM SCT018 OVC085 18/15 A3026 RMK 
    AO2=
METAR KTKV 081335Z AUTO 33005KT 10SM CLR 20/16 A3006 RMK AO2 
     T01970161=
METAR KUNU 081332Z AUTO 25006KT 10SM BKN007 BKN013 23/20 A3004 
     RMK AO2 T02300197=
METAR KVBS 081335Z AUTO 11023KT 10SM FEW019 29/25 A2996 RMK A01=
METAR KVNP 081335Z AUTO 09012G17KT 7SM SCT020 BKN026 28/26 A3000
     RMK A01=
####018000126####
SPXX62 KWBC 081340
SPECI
RODN 081338Z AUTO 18009KT 9999 SCT016 BKN023 BKN200 29/26 A2987
RMK AO2 BKN023 V SCT SLP115=
####018000113####
SPXX62 KWBC 081340
SPECI
RODN 081337Z AUTO 18009KT 9999 SCT016 SCT023 BKN200 29/26 A2987
RMK AO2 SLP115=
####018000138####
SPXX62 KWBC 081340
SPECI
RKSO 081333Z AUTO 00000KT 9999 CLR 23/23 A2981 RMK AO2
RAB1254E1329DZE1254B1310E1312B1329E1333 SLP094 $=
####018000106####
SPXX61 KWBC 081340
SPECI
EGUN 081334Z AUTO 26006KT 9999 BKN041 BKN140 24/15 A3006 RMK AO2
SLP168=
####018000082####
SPUS53 KWBC 081340
SPECI
KLXV 081337Z AUTO 09004KT 10SM OVC006 06/05 A3053=
####018002684####
SAUS20 KNKA 081340
METAR KAWG 081335Z AUTO 02006KT 10SM CLR 23/20 A3008 RMK AO2=
METAR KAXA 081335Z AUTO 35006KT 10SM CLR 21/17 A3015 RMK AO2=
METAR KBNW 081335Z AUTO 35010G21KT 10SM CLR 22/18 A3014 RMK AO2=
METAR KBWD 081335Z AUTO 11005KT 9SM BKN018 OVC050 24/23 A3005 RMK 
     AO2 =
METAR KCAV 081335Z AUTO 35004KT 10SM CLR 22/17 A3014 RMK AO2=
METAR KCBF 081335Z AUTO 36008KT 10SM CLR 21/16 A3016 RMK AO2=
METAR KCCY 081335Z AUTO 33008KT 10SM CLR 22/17 A3012 RMK AO2=
METAR KCIN 081335Z AUTO 35007KT 10SM CLR 21/16 A3016 RMK AO2=
METAR KCNC 081335Z AUTO 01008KT 10SM CLR 22/19 A3011 RMK AO2=
METAR KCSQ 081335Z AUTO 36010KT 10SM CLR 22/20 A3013 RMK AO2=
METAR KDEH 081335Z AUTO 36007KT 10SM CLR 23/17 A3012 RMK AO2=
METAR KDNS 081335Z AUTO 36005KT 10SM CLR 21/16 A3019 RMK AO2=
METAR KEOK 081335Z AUTO 00000KT 10SM BKN007 25/20 A3007 RMK AO2=
METAR KFFL 081335Z AUTO 01004KT 10SM CLR 23/21 A3008 RMK AO2=
METAR KFSW 081335Z AUTO 33005KT 7SM OVC006 24/21 A3007 RMK AO2=
METAR KFXY 081335Z AUTO 35007KT 10SM CLR 20/16 A3014 RMK AO2=
METAR KGGI 081335Z AUTO 34009KT 10SM SCT008 23/21 A3011 RMK AO2=
METAR KHNR 081335Z AUTO 01007KT 10SM CLR 20/17 A3018 RMK AO2=
METAR KI75 081335Z AUTO 34007KT 7SM CLR 21/18 A3011 RMK AO2=
SPECI KIAH 081339Z 08006KT 5SM -TSRA BR SCT004 BKN025CB OVC070 24/24 
    A2998 RMK AO2 OCNL LTGIC VC NW-NE-E TS VC NN-NE-E MOV NW P0017=
METAR KICL 081335Z AUTO 03007KT 10SM CLR 22/18 A3013 RMK AO2=
METAR KIFA 081335Z AUTO 34007KT 10SM SCT010 SCT100 SCT120 23/20 
     A3014 RMK AO2=
METAR KIIB 081335Z AUTO 35007KT 10SM CLR 22/20 A3009 RMK AO1=
METAR KIKV 081335Z AUTO 01008KT 10SM CLR 22/19 A3012 RMK AO2=
METAR KJZI 081335Z AUTO 30007KT 9SM CLR 30/24 A2997 RMK A02 P000 =
METAR KLRJ 081335Z AUTO 00000KT 10SM CLR 20/17 A3018 RMK AO2=
METAR KMPZ 081335Z AUTO 34007KT 10SM BKN007 22/20 A3008 RMK AO2=
METAR KMUT 081335Z AUTO 36005KT 10SM SCT009 24/22 A3006 RMK AO2=
METAR KMXO 081335Z AUTO 35004KT 7SM BKN009 22/20 A3006 RMK AO2=
METAR KORC 081335Z AUTO 33005KT 10SM CLR 21/18 A3018 RMK AO2=
METAR KOXV 081335Z AUTO 35006KT 10SM CLR 23/20 A3010 RMK AO2=
METAR KPEA 081335Z AUTO 34008KT 10SM CLR 23/20 A3010 RMK AO2=
SPECI KRBD 081339Z 11006KT 10SM SCT006 OVC060 25/24 A3004 RMK AO2=
METAR KRDK 081335Z AUTO 00000KT 10SM CLR 23/19 A3014 RMK AO2=
METAR KSDA 081335Z AUTO 04006KT 10SM CLR 23/18 A3013 RMK AO2=
METAR KSHL 081335Z AUTO 33003KT 10SM CLR 20/17 A3020 RMK AO2=
METAR KSPF 081335Z AUTO 00000KT 10SM CLR 15/11 A3030 RMK AO2 =
METAR KTNU 081335Z AUTO 35010KT 10SM CLR 23/21 A3011 RMK AO2=
METAR KVTI 081335Z AUTO 34007KT 10SM SCT009 SCT013 25/21 A3009 
     RMK AO2=
