####018000761####
SAUS90 KWBC 080800 CCA
METAR KDAB 080753Z 00000KT 10SM CLR 21/19 A2999 RMK AO2 SLP154
     T02060194 $=
METAR KBTR 080753Z 00000KT 9SM FEW013 SCT200 24/23 A3000 RMK AO2
     SLP157 T02390228 $=
METAR KMGM 080753Z 00000KT 10SM SCT070 25/23 A3002 RMK AO2 SLP160
     T02500228=
METAR KTUP 080753Z AUTO 00000KT 10SM CLR 25/22 A3004 RMK AO2
     SLP168 T02500222=
METAR KSMP 080756Z AUTO 00000KT 10SM CLR 17/04 A3016 RMK AO2
     SLP180 T01720039 402440100 TSNO $=
METAR KALK 080756Z AUTO 09008KT 10SM FEW110 24/08 A3007 RMK AO2
     SLP077 T02390078=
METAR KLOR 080753Z AUTO 00000KT 9SM CLR 22/20 A3001 RMK AO2 SLP159
     T02170200 TSNO $=
METAR KMCN 080753Z AUTO 00000KT 10SM CLR 21/19 A3002 RMK AO2
     SLP161 T02110194 TSNO=
####018002720####
SAUS90 KWBC 080800
METAR KNXP 080756Z AUTO 28008KT CLR 27/00 A2989 RMK AO2 SLP082
     T02670000 403830194 $=
METAR KP28 080756Z AUTO 03005KT 22/21 A3010 RMK AO2 SLP176
     T02170206 PWINO TSNO=
METAR KGNR 080756Z AUTO 12005KT 19/19 A3006 RMK AO1 SLP174
     T01940189=
METAR KCDJ 080756Z AUTO 00000KT 21/21 A3006 RMK AO2 SLP166
     T02110206 PWINO TSNO=
METAR KGFA 080756Z AUTO 00000KT 10SM CLR 12/06 A3022 RMK AO2
     SLP246 T01220056 $=
METAR KMHS 080756Z AUTO 00000KT 10SM CLR 17/08 A3000 RMK AO2
     SLP140 T01670078 403330094 TSNO=
METAR KWMC 080756Z AUTO 05018G25KT 10SM CLR 22/M06 A3004 RMK AO2
     SLP118 T02171056 403280139=
METAR KSXT 080756Z AUTO 34004KT 9SM CLR 20/11 A3003 RMK AO2 SLP103
     T02000106 403110183 TSNO=
METAR KNTU 080756Z 11004KT 8SM CLR 25/24 A2994 RMK AO2 SLP142
     T02500239 CHINO RWY 05R $=
METAR KNUQ 080756Z AUTO 03005KT 10SM OVC013 16/12 A2993 RMK AO2
     SLP138 T01560122 402220156 TSNO=
METAR KMEH 080756Z AUTO 00000KT 10SM CLR 08/07 A3011 RMK AO2
     SLP176 T00830072 402780017 TSNO=
METAR KLWS 080756Z AUTO 14003KT 10SM CLR 18/05 A3001 RMK AO2
     SLP152 T01830050 403280122=
METAR KP53 080756Z AUTO 00000KT 19/18 A2995 RMK AO2 SLP140
     T01890183 PWINO TSNO=
METAR KNRS 080756Z AUTO 30008KT 10SM OVC018 17/13 A2991 RMK AO2
     SLP128 T01720128 401940156 TSNO $=
METAR K9L2 080756Z AUTO 18008KT 10SM CLR 21/03 A2987 RMK AO2
     SLP091 T02110033 $=
METAR KGNA 080756Z AUTO 00000KT 18/16 A2997 RMK AO2 SLP142
     T01780161 PWINO TSNO=
METAR KSPD 080756Z AUTO 35003KT 16/14 A3028 RMK AO2 SLP201
     T01560139 PWINO TSNO=
METAR KINS 080756Z VRB03KT 10SM CLR 23/M11 A2991 RMK AO2 SLP070
     T02281106 $=
METAR KAKQ 080754Z AUTO 00000KT 2 1/2SM BR CLR 23/21 A2996 RMK AO2
     SLP145 T02280211 TSNO=
METAR KFSD 080756Z 00000KT 10SM CLR 17/14 A3015 RMK AO2 SLP207 BKN
     ABV 120 T01670144=
METAR KROA 080754Z 25003KT 7SM OVC080 26/19 A3007 RMK AO2 SLP166
     T02560189=
METAR KALK 080756Z AUTO 09008KT 10SM FEW110 24/08 A3007 RMK AO2
     SLP077 T02390078=
METAR KWAL 080754Z AUTO 10005KT 9SM OVC095 25/23 A2999 RMK AO2
     RAB44E54 SLP151 P0000 T02500228 TSNO=
METAR PACZ 080755Z AUTO 09010KT 10SM 11/08 A3007 RMK AO1
     T01110084=
METAR PALU 080755Z AUTO 21023G26KT 10SM CLR 13/01 A3009 RMK AO1
     T01330012=
METAR PAIM 080755Z AUTO 31003KT 10SM CLR 14/08 A3008 RMK AO1
     T01440078=
METAR PATL 080755Z AUTO 04005KT 10SM SCT110 17/06 A3000 RMK AO1
     T01670056=
METAR PAEH 080755Z AUTO 00000KT 10SM BKN009 OVC020 09/M28 A3001
     RMK AO1 T00941283=
METAR PASV 080755Z AUTO 00000KT 10SM SCT090 SCT100 10/09 A2997 RMK
     AO1 T01000095=
####018000106####
SAUS90 KWBC 080900
METAR K3A6 080850Z AUTO 36003KT 11/10 A2990 RMK AO1 SLP144
     T01110098 52009=
####018000055####
SAUS90 KWBC 080700 RRH
METAR K8S0 080655Z 27007KT=
####018000428####
SAUS99 KWBC 080800 RRA
METAR
KUNU 080752Z AUTO 14003KT 7SM -RA SCT110 21/20 A3000 RMK AO2 P0001
     T02080195=
KVBS 080755Z AUTO 12023G29KT 10SM BKN020 BKN027 BKN048 29/25 A2992
     RMK A01=
KVNP 080755Z AUTO 11010G16KT 7SM 28/26 A2996 RMK A01=
KWRB 080755Z 00000KT 10SM CLR 21/21 A3002 RMK AO2A SLP162
     T02130212=
KY50 080756Z AUTO 23005KT 5SM BR OVC002 22/22 A2998 RMK AO2
     T02220222 SLP144 $=
####018000204####
SPUS99 KWBC 080800
SPECI
KFAF 080754Z 14005KT 9SM RA BKN080 26/26 A2995 RMK AO2A RAB0754
     SLP142=
KGRR 080758Z AUTO 25008KT 2SM +RA BR SCT011 BKN029 OVC060 24/22
     A3006 RMK AO2 P0011=
####018003731####
SAUS70 KWBC 080800 RRA
METAR
KVLL 080754Z AUTO 00000KT 10SM CLR 26/21 A3006 RMK AO2=
KVVV 080756Z AUTO 00000KT 10SM CLR 17/14 A3011 RMK AO2=
KY63 080800Z AUTO 22005KT 10SM CLR 16/15 A3009 RMK AO2
     T01550146=
KY70 080754Z AUTO 00000KT 10SM SCT055 SCT065 BKN110 24/21 A3002
     RMK AO2 T02380210=
PACM 080756Z AUTO 00000KT 2SM RA FEW012 SCT028 BKN044 12/08 A3010
     RMK AO2 TSNO T01160083 P0016 SLP189 $=
PAGN 080756Z AUTO 00000KT CLR RMK AO2 PWINO TSNO SLPNO $=
PATQ 080756Z AUTO 27014KT 10SM CLR 11/03 A3003 RMK AO2 TSNO
     T01050027 SLP174 $=
PACM 080756Z AUTO 00000KT 2SM RA FEW012 SCT028 BKN044 12/08 A3010
     RMK AO2 TSNO T01160083 P0016 SLP189 $=
PAGN 080756Z AUTO 00000KT CLR RMK AO2 PWINO TSNO SLPNO $=
PAHC 080756Z AUTO 31008KT 10SM FEW055 SCT080 BKN110 13/09 A2998
     RMK AO2 TSNO T01330088 RAE0658B22E46 P0000 SLP155 $=
PAIG 080756Z AUTO 00000KT 10SM BKN035 OVC047 09/08 A2994 RMK AO2
     PWINO TSNO T00940083 SLP142 $=
PAMO 080756Z AUTO 28006KT 10SM OVC100 11/09 A3007 RMK AO2 TSNO
     T01050088 RAE0657 SLP180 $=
PAOH 080756Z AUTO 11003KT 10SM CLR 11/11 A3021 RMK AO2 TSNO
     T01050105 402000105 SLP232=
PAPM 080756Z AUTO 32007KT RA BKN060 10/09 A3000 RMK AO2 TSNO
     T01000088 401270077 P0000 SLP160 $=
PARS 080756Z AUTO 33006KT 10SM SCT070 SCT085 13/09 A3001 RMK AO2
     TSNO T01270094 SLP168 $=
PATQ 080756Z AUTO 27014KT 10SM CLR 11/03 A3003 RMK AO2 TSNO
     T01050027 SLP174 $=
K14Y 080758Z AUTO 00000KT 7SM CLR 15/15 A3010 RMK AO2
     T01460145=
K4I3 080755Z AUTO 00000KT 10SM CLR 21/19 A3010 RMK AO2=
KACB 080755Z AUTO 00000KT 10SM SCT120 24/21 A2998 RMK AO2=
KACQ 080758Z AUTO 31004KT 10SM CLR 17/16 A3011 RMK AO2=
KADC 080757Z AUTO 23004KT 10SM CLR 13/12 A3008 RMK AO2=
KAEL 080751Z AUTO 31004KT 10SM BKN029 18/17 A3008 RMK AO2=
KAIT 080753Z AUTO 00000KT 3SM BR CLR 12/11 A3007 RMK AO2=
KAJO 080756Z AUTO 00000KT 6SM BR CLR 13/12 A2992 RMK AO2 T01270116
     402440127 SLP127 $=
KANE 080755Z AUTO 28005KT 10SM 18/17 A3007 RMK AO2=
KAUM 080755Z AUTO 32005KT 10SM CLR 19/17 A3006 RMK AO2=
KBAX 080755Z AUTO 00000KT 4SM BR CLR 21/21 A3001 RMK AO2=
KBBB 080753Z AUTO 00000KT 1/2SM FG VV005 14/14 A3011 RMK AO2=
KBDH 080755Z AUTO 00000KT 10SM CLR 16/14 A3012 RMK AO2=
KCAD 080754Z AUTO 23005KT 10SM SCT090 22/21 A3003 RMK AO2=
KCBG 080755Z AUTO 00000KT 10SM CLR 16/14 A3007 RMK AO2=
KCFE 080754Z AUTO 00000KT 10SM CLR 18/16 A3009 RMK AO2
     T01800162=
KCFS 080755Z AUTO 00000KT 3SM BR CLR 21/21 A3002 RMK AO2=
KCKC 080755Z AUTO 29004KT 10SM CLR 16/13 A3003 RMK AO2=
KCKN 080755Z AUTO 25003KT 10SM CLR 15/12 A3004 RMK AO2=
KCNB 080757Z AUTO 24005KT 10SM CLR 16/13 A3013 RMK AO2
     T01600130=
KCOQ 080756Z AUTO 29004KT 10SM CLR 14/14 A3005 RMK AO2=
KCQM 080757Z AUTO 00000KT 10SM CLR 14/14 A3004 RMK AO2=
KCVH 080750Z AUTO 00000KT 10SM BKN012 12/11 A2993 RMK AO1=
KCWA 080755Z AUTO 30004KT 10SM SCT006 20/20 A3001 RMK AO2
     T01950195=
KDIJ 080756Z AUTO VRB03KT 10SM CLR 08/02 A3028 RMK AO2 T00770022
     SLP184 $=
KDRM 080756Z AUTO 13004KT 7SM CLR 20/20 A2997 RMK AO2=
KDTL 080755Z AUTO 26005KT 10SM CLR 18/12 A3009 RMK AO2=
KDUH 080754Z AUTO 00000KT 7SM CLR 22/18 A3004 RMK AO2=
KDXX 080754Z AUTO 00000KT 10SM CLR 15/15 A3011 RMK AO2=
KDYT 080754Z AUTO 30007KT 10SM SCT060 21/16 A3003 RMK AO2=
KEFK 080756Z AUTO 20003KT 5SM BR CLR 20/19 A3005 RMK AO2=
KEFT 080755Z AUTO 22004KT 10SM SCT080 BKN090 BKN120 21/20 A3000
     RMK AO2 T02080198=
KMDZ 080755Z AUTO 29005KT 1 1/4SM BR OVC001 20/19 A3002 RMK
     AO2=
KMGG 080755Z AUTO 28003KT 10SM CLR 15/15 A3009 RMK AO2
     T01500145=
KMGN 080754Z AUTO 00000KT 7SM SCT110 21/20 A2997 RMK AO2=
####018003737####
SAUS70 KWBC 080800
METAR
KGFA 080756Z AUTO 00000KT 10SM CLR 12/06 A3022 RMK AO2 SLP246
     T01220056 $=
KSDF 080756Z 00000KT 8SM CLR 27/21 A3005 RMK AO2 SLP170
     T02720206=
K1P1 080755Z AUTO 00000KT 1 1/2SM BR VV007 22/21 A3005 RMK AO2
     T02190208=
KART 080756Z AUTO 17003KT 7SM CLR 23/20 A3002 RMK AO2 SLP159
     T02280200=
KBED 080756Z AUTO 19006KT 3SM BR OVC009 24/22 A3004 RMK AO2 SLP180
     T02390217=
KBJJ 080756Z AUTO 00000KT 3SM BR CLR 18/18 A3010 RMK AO2 SLP182
     T01830178=
KBVU 080755Z AUTO 32004KT 10SM CLR 27/00 A2985 RMK AO2=
KCTB 080756Z AUTO 26004KT 10SM CLR 12/06 A3024 RMK AO2 SLP219
     T01220061=
KCXY 080756Z AUTO 00000KT 6SM HZ CLR 23/19 A3001 RMK AO2 SLP158
     T02330194=
KDAY 080756Z 00000KT 9SM CLR 24/18 A3009 RMK AO2 SLP178 T02440183
     $=
KE80 080755Z AUTO 29005KT 10SM CLR 19/10 A3023 RMK AO2
     T01940103=
KEDC 080755Z AUTO 06004KT OVC012 25/24 A2996 RMK AO2=
KEED 080756Z AUTO 24006KT 10SM CLR 31/M03 A2973 RMK AO2 SLP030
     T03111033 404220250 TSNO=
KEIK 080755Z AUTO 18005KT 10SM OVC095 14/12 A3028 RMK AO2=
KELZ 080756Z AUTO 00000KT 4SM BR CLR 19/18 A3016 RMK AO2 SLP196
     T01940183=
KEOE 080755Z AUTO 00000KT 10SM CLR 22/20 A3003 RMK AO2=
KFMH 080755Z AUTO 16005KT 3SM BR OVC003 21/21 A3007 RMK AO2=
KGON 080756Z AUTO 00000KT 10SM BKN011 OVC070 23/21 A3003 RMK AO2
     SLP169 T02330211=
KHFF 080755Z AUTO 00000KT 10SM CLR 22/18 A2997 RMK AO2 SLP145
     T02210176 $=
KHPN 080756Z 00000KT 4SM BR BKN100 23/21 A3002 RMK AO2 SLP159
     T02330211=
KHWV 080756Z AUTO 15004KT 2SM BR OVC002 24/24 A3003 RMK AO2 SLP168
     T02390239=
KHYA 080756Z AUTO 18004KT 3SM BR OVC001 21/21 A3007 RMK AO2 SLP182
     T02110206=
KIFP 080755Z AUTO 04003KT 10SM CLR 31/M02 A2972 RMK AO2=
KIGX 080756Z AUTO 30003KT 7SM CLR 24/18 A2998 RMK AO2 SLP143
     T02440183 $=
KISP 080756Z 14005KT 4SM HZ SCT005 BKN060 BKN100 OVC130 26/23
     A3000 RMK AO2 SLP159 T02560228=
KITH 080756Z AUTO 08004KT 5SM BR CLR 21/19 A3010 RMK AO2 T02050188
     SLP184=
KJXN 080756Z 00000KT 8SM CLR 22/21 A3005 RMK AO2 SLP167
     T02220211=
KLAS 080756Z 22009KT 10SM CLR 30/M05 A2980 RMK AO2 SLP059
     T03001050 403940256=
KMDT 080756Z 00000KT 5SM HZ CLR 24/19 A3000 RMK AO2 SLP154
     T02440194=
KPVF 080755Z AUTO 00000KT 10SM CLR 20/11 A2994 RMK AO1=
KRBW 080755Z AUTO 28005KT 10SM CLR 23/20 A2998 RMK AO2=
KRCM 080755Z AUTO 00000KT 7SM SCT003 BKN060 OVC090 22/22 A3004 RMK
     AO2=
KSGH 080756Z AUTO 00000KT 5SM BR CLR 21/21 A3010 RMK AO2 T02050205
     SLP181=
KSGJ 080758Z AUTO 28003KT 10SM CLR 22/20 A3001 RMK AO2 SLP161
     T02170200=
KTME 080755Z AUTO 04006KT 5SM 25/25 A2993 RMK AO1=
KUKI 080756Z AUTO 18004KT 10SM CLR 15/11 A2991 RMK AO2 SLP121
     T01500111 403220117=
KUOX 080755Z AUTO 00000KT 10SM CLR 22/21 A3007 RMK AO2=
KWJF 080756Z 28008KT 10SM CLR 19/02 A2989 RMK AO2 SLP100 T01940022
     403560150=
PHJR 080753Z VRB04KT 10SM FEW050 24/18 A3005 RMK AO2 SLP180
     T02390183=
PHMK 080754Z AUTO 05010KT 10SM CLR 22/19 A3005 RMK AO2 SLP176
     T02220189 TSNO=
KTTS 080755Z 33001KT 10SM FEW030 FEW290 21/20 A2998 RMK SLP152 1CU
     /0/ 1CI /0/=
KFMH 080755Z AUTO 16005KT 3SM BR OVC003 21/21 A3007 RMK AO2=
KSGH 080756Z AUTO 00000KT 5SM BR CLR 21/21 A3010 RMK AO2 T02050205
     SLP181=
KWJF 080756Z 28008KT 10SM CLR 19/02 A2989 RMK AO2 SLP100 T01940022
     403560150=
KUKT 080750Z AUTO 00000KT 5SM CLR 22/20 A3003 RMK AO1=
KULM 080754Z AUTO 27005KT 10SM CLR 14/13 A3011 RMK AO2=
KUNI 080755Z AUTO 00000KT 3SM HZ CLR 22/18 A3007 RMK AO2
     T02220176=
KVES 080754Z AUTO 00000KT 5SM BR CLR 21/20 A3007 RMK AO2
     T02050195=
####018000299####
SAPQ50 KWBC 080800
METAR
PGSN 080754Z 08013KT 10SM FEW023 28/24 A2987 RMK AO2 SLP111
     T02780244=
PGUM 080754Z 08010KT 10SM SCT020 SCT026 BKN031 29/24 A2986 RMK AO2
     SLP104 T02940244=
PTKK 080752Z 06008KT 15SM FEW012 BKN120 OVC280 25/23 A2981 RMK
     RAE40 SLP098 T02530232=
####018003709####
SAUS70 KWBC 080800 RRB
METAR
KMIA 080753Z COR 00000KT 10SM FEW030 SCT250 27/24 A2992 RMK AO2
     SLP133 98672 T02720244=
KMJQ 080752Z AUTO 30003KT 10SM CLR 15/14 A3013 RMK AO2=
KMOP 080754Z AUTO 00000KT 7SM SCT060 BKN120 22/22 A3001 RMK
     AO2=
KMOX 080750Z AUTO 23005KT 10SM CLR 17/15 A3007 RMK AO2=
KMRJ 080755Z AUTO 00000KT 10SM SCT120 21/19 A3001 RMK AO2
     T02050188=
KMVE 080754Z AUTO 28004KT 10SM CLR 18/16 A3010 RMK AO2=
KMWC 080755Z AUTO 22003KT 10SM BKN070 21/20 A3001 RMK AO2
     P0001=
KMWM 080753Z AUTO 28005KT 10SM CLR 15/14 A3012 RMK AO2=
KOEB 080755Z AUTO 00000KT 10SM CLR 23/20 A3005 RMK AO2=
KOEO 080755Z AUTO 00000KT 10SM CLR 19/17 A3008 RMK AO2=
KONA 080751Z AUTO 00000KT 7SM CLR 20/18 A3002 RMK AO2=
KOVL 080754Z AUTO 00000KT 7SM CLR 14/13 A3011 RMK AO2
     T01400125=
KOZW 080755Z AUTO 00000KT 7SM CLR 22/21 A3004 RMK AO2=
KPEX 080753Z AUTO 25005KT 7SM CLR 13/13 A3011 RMK AO2
     T01290125=
KPNM 080753Z AUTO 00000KT 10SM CLR 15/14 A3008 RMK AO2=
KPQN 080753Z AUTO 32003KT 10SM CLR 17/15 A3015 RMK AO2=
KPWC 080753Z AUTO 00000KT 1/2SM FG BKN001 11/10 A3008 RMK AO2=
KRGK 080755Z AUTO 28004KT 10SM CLR 20/18 A3003 RMK AO2=
KRNP 080755Z AUTO 00000KT 10SM CLR 22/21 A3002 RMK AO2=
KROG 080757Z AUTO 10SM CLR 23/22 A3007 RMK AO2 SLP167
     T02330222=
KROX 080755Z AUTO 26005KT 10SM CLR 17/14 A3000 RMK AO2=
KRQB 080754Z AUTO 25008KT 10SM DZ BKN090 OVC110 23/21 A3004 RMK
     AO2=
KRRT 080754Z AUTO 24005KT 10SM CLR 16/13 A3000 RMK AO2=
KRZN 080754Z AUTO 30005KT 10SM OVC047 19/16 A3005 RMK AO2
     T01910162=
KSAZ 080754Z AUTO 00000KT 10SM CLR 15/15 A3008 RMK AO2=
KSGS 080753Z AUTO 31004KT 10SM CLR 20/17 A3006 RMK AO2
     T02000167=
KTEW 080752Z AUTO 00000KT 7SM CLR 21/20 A3004 RMK AO2=
KTOB 080755Z AUTO 00000KT 10SM CLR 19/17 A3008 RMK AO2=
KTWM 080753Z AUTO 00000KT 10SM BKN050 17/14 A3000 RMK AO2=
KEGV 080752Z AUTO 28003KT 2 1/2SM BR OVC002 19/19 A3001 RMK AO2
     T01900190=
KEKQ 080756Z AUTO 00000KT 2SM BR CLR 19/19 A3010 RMK AO2 T01940188
     SLP188=
KELO 080753Z AUTO 00000KT 7SM CLR 13/12 A3003 RMK AO2=
KETB 080753Z AUTO 00000KT 10SM -RA SCT120 22/21 A3000 RMK AO2
     P0001 T02200206=
KEVM 080752Z AUTO 27004KT 7SM CLR 13/12 A3002 RMK AO1=
KEZS 080755Z AUTO 24003KT 10SM OVC005 22/22 A2997 RMK AO2 P0002
     T02230215=
KFBL 080754Z AUTO 30006KT 10SM CLR 18/16 A3008 RMK AO2=
KFFM 080753Z AUTO 17003KT 10SM CLR 15/14 A3007 RMK AO2=
KFFX 080754Z AUTO 00000KT 7SM BKN060 OVC075 22/22 A3002 RMK
     AO2=
KFGN 080753Z AUTO 26009KT 1/2SM DZ VV005 18/13 A2996 RMK AO2=
KFPK 080755Z AUTO 00000KT 4SM BR CLR 21/20 A3002 RMK AO2=
KFSE 080754Z AUTO 20003KT 10SM CLR 13/12 A3004 RMK AO2=
KFSO 080758Z AUTO 00000KT 4SM BR CLR 23/22 A2999 RMK AO2=
KGDB 080752Z AUTO 24005KT 10SM CLR 15/14 A3013 RMK AO2
     T01450142=
KGHW 080753Z AUTO 22004KT 10SM CLR 14/13 A3013 RMK AO2=
KGLW 080753Z AUTO 00000KT 7SM CLR 21/20 A3007 RMK AO2
     T02130198=
KGYL 080754Z AUTO 00000KT 10SM CLR 16/15 A3009 RMK AO2
     T01580148=
KHAF 080750Z AUTO 00000KT 8SM OVC008 12/10 A2995 RMK AO2=
KHAI 080755Z AUTO 00000KT 5SM BR CLR 22/21 A3004 RMK AO2=
KHCD 080752Z AUTO 27003KT 10SM CLR 14/13 A3010 RMK AO2
     T01400129=
KHCO 080754Z AUTO 00000KT 10SM CLR 13/13 A3004 RMK AO2=
KHFJ 080755Z AUTO 00000KT 10SM SCT029 23/23 A3003 RMK AO1=
KHZX 080751Z AUTO 00000KT 4SM CLR 12/12 A3007 RMK AO2=
KIRS 080755Z AUTO 00000KT 10SM CLR 22/19 A3004 RMK AO2=
KJKJ 080754Z AUTO 22005KT 10SM CLR 16/15 A3006 RMK AO2=
KJMR 080758Z AUTO 31004KT 10SM CLR 15/13 A3007 RMK AO2=
KJVL 080755Z AUTO 17004KT 10SM OVC060 22/20 A2999 RMK AO2
     T02230201=
####018002116####
SAXX60 KWBC 080800 RRA
METAR
KNID 080756Z AUTO 19009KT CLR 27/02 A2983 RMK AO2 SLP073 T02720022
     403830178 TSNO $=
KCVS 080755Z 02007KT 10SM SCT060 BKN200 18/15 A3020 RMK AO2A
     SLP186 T01760150 $=
KFAF 080755Z 14005KT 8SM -RA SCT065 BKN080 26/26 A2994 RMK AO2A
     RAB0754 SLP141 P0000 T02610261=
KFCS 080755Z AUTO 23006KT 10SM OVC055 14/11 A3039 RMK AO2 SLP219
     T01370111=
KFRI 080755Z AUTO 02004KT 10SM SCT100 BKN150 22/21 A3009 RMK AO2
     SLP177 T02160213=
KHLR 080756Z AUTO 10005KT 10SM BKN017 26/ A2998 RMK AO2 SLP143
     T0256 $=
KNYG 080756Z AUTO 30004KT CLR 26/22 A2997 RMK AO2 SLP151
     T02610222=
KNYL 080755Z 00000KT 10SM CLR 29/02 A2971 RMK AO2 SLP056
     T02890022=
KPSM 080755Z 15003KT 2SM BR BKN003 OVC006 21/21 A3004 RMK AO2A
     SLP173 T02120206=
PGUA 080755Z AUTO 08012KT 10SM FEW016 28/ A2987 RMK AO2 SLP096
     T0275 VISNO RWY24L $=
KMRT 080753Z AUTO 00000KT 5SM CLR 21/19 A3011 RMK AO2
     T02080190=
KGBK 080755Z AUTO 09017G28KT 10SM FEW032 FEW038 FEW045 29/25 A2989
     RMK A01=
KGTB 080755Z AUTO 21004KT 10SM R33/5500VP6000FT CLR 22/20 A3003
     RMK AO2 SLP168 T02230201=
KMHR 080755Z AUTO 17006KT 10SM CLR 14/10 A2984 RMK AO1=
KNQX 080753Z AUTO 05003KT 10SM CLR 28/25 A2992 RMK AO2 SLP131
     T02830250 $=
KNRB 080752Z AUTO 00000KT 10SM CLR 24/21 A3000 RMK AO2 SLP159
     T02390206=
KPAM 080755Z AUTO 35005KT 10SM CLR 24/24 A3000 RMK AO2 SLP161
     T02380237=
KPSM 080755Z 15003KT 2SM BR BKN003 OVC006 21/21 A3004 RMK AO2A
     SLP173 T02120206=
KWRB 080755Z 00000KT 10SM CLR 21/21 A3002 RMK AO2A SLP162
     T02130212=
PACZ 080755Z AUTO 09010KT 10SM 11/08 A3007 RMK AO1 T01110084=
PALU 080755Z AUTO 21023G26KT 10SM CLR 13/01 A3009 RMK AO1
     T01330012=
PAIM 080755Z AUTO 31003KT 10SM CLR 14/08 A3008 RMK AO1
     T01440078=
PATL 080755Z AUTO 04005KT 10SM SCT110 17/06 A3000 RMK AO1
     T01670056=
PAEH 080755Z AUTO 00000KT 10SM BKN009 OVC020 09/M28 A3001 RMK AO1
     T00941283=
PASV 080755Z AUTO 00000KT 10SM SCT090 SCT100 10/09 A2997 RMK AO1
     T01000095=
####018000121####
SAXX60 KWBC 080800 CCA
METAR
KLOR 080753Z AUTO 00000KT 9SM CLR 22/20 A3001 RMK AO2 SLP159
     T02170200 TSNO $=
####018003728####
SAXX60 KWBC 080800
METAR
KNLC 080756Z AUTO 33007KT 10SM CLR 19/12 A2982 RMK AO2 SLP096
     T01940117 403560150 TSNO $=
KNXP 080756Z AUTO 28008KT CLR 27/00 A2989 RMK AO2 SLP082 T02670000
     403830194 $=
KNUW 080756Z 00000KT 10SM CLR 15/11 A2996 RMK AO2 SLP150 T01500111
     402280100 $=
KNBC 080756Z AUTO 25003KT 10SM CLR 24/18 A2998 RMK AO2 SLP151
     T02390183=
KBIX 080755Z AUTO 05004KT 10SM CLR 25/25 A3000 RMK AO2 SLP161
     T02540251=
KLFI 080755Z 09005KT 8SM R08/5500FT BKN008 BKN150 26/24 A2996 RMK
     AO2A BKN008 V SCT SLP145 T02560235 $=
KLUF 080755Z 10005KT 10SM CLR 29/07 A2975 RMK AO2A SLP042
     T02940065 $=
KMCF 080755Z AUTO 07005KT 10SM CLR 25/23 A2999 RMK AO2 SLP157
     T02470230=
KNFL 080756Z AUTO 00000KT 10SM CLR 22/01 A2995 RMK AO2 PK WND
     21030/0718 SLP115 T02170006 403560133 TSNO=
KNTU 080756Z 11004KT 8SM CLR 25/24 A2994 RMK AO2 SLP142 T02500239
     CHINO RWY 05R $=
KNUQ 080756Z AUTO 03005KT 10SM OVC013 16/12 A2993 RMK AO2 SLP138
     T01560122 402220156 TSNO=
KNXF 080756Z AUTO 30005KT 7SM OVC015 17/13 A2991 RMK AO2 SLP213
     T01670128 401890156 TSNO=
KBAN 080756Z AUTO 00000KT 10SM OVC110 10/02 A3019 RMK AO2 SLP123
     T01000017 402780039 TSNO=
KNCA 080756Z AUTO 04003KT 10SM CLR 25/22 A2991 RMK AO2 SLP128
     T02500217=
KNRS 080756Z AUTO 30008KT 10SM OVC018 17/13 A2991 RMK AO2 SLP128
     T01720128 401940156 TSNO $=
K9L2 080756Z AUTO 18008KT 10SM CLR 21/03 A2987 RMK AO2 SLP091
     T02110033 $=
KNXX 080756Z AUTO 13004KT 6SM HZ CLR 24/19 A3002 RMK AO2 SLP170
     T02390194 $=
KMXF 080755Z AUTO 22003KT 10SM CLR 26/25 A3001 RMK AO2 SLP161
     T02590246=
PMDY 080756Z AUTO 00000KT 10SM CLR 26/20 A3011 RMK AO2 TSNO
     T02550200 SLP505=
KNTD 080756Z AUTO 28006KT 10SM OVC013 15/13 A2990 RMK AO2 SLP127
     T01500128 401890144 TSNO PNO VISNO N $=
KINS 080756Z VRB03KT 10SM CLR 23/M11 A2991 RMK AO2 SLP070
     T02281106 $=
PGUA 080755Z AUTO 08012KT 10SM FEW016 28/ A2987 RMK AO2 SLP096
     T0275 VISNO RWY24L $=
PHHI 080755Z AUTO 07004KT 10SM CLR 21/19 A3006 RMK AO2
     RAB0716E0729DZB0729E0732 SLP169 P0000 T02130185=
PHNL 080753Z 05008KT 10SM FEW032 SCT045 25/18 A3004 RMK AO2 SLP170
     T02500178=
PWAK 080751Z 08013KT 7SM HZ CLR 28/24 A2997 RMK AO2A=
KGTB 080755Z AUTO 21004KT 10SM R33/5500VP6000FT CLR 22/20 A3003
     RMK AO2 SLP168 T02230201=
KNIP 080753Z 25004KT 10SM CLR 23/21 A3001 RMK AO2 SLP158
     T02330211=
KNKT 080754Z AUTO 05006KT 8SM CLR 26/21 A2991 RMK AO2 SLP125
     T02610211 $=
KNQX 080753Z AUTO 05003KT 10SM CLR 28/25 A2992 RMK AO2 SLP131
     T02830250 $=
KNRB 080752Z AUTO 00000KT 10SM CLR 24/21 A3000 RMK AO2 SLP159
     T02390206=
KNYG 080756Z AUTO 30004KT CLR 26/22 A2997 RMK AO2 SLP151
     T02610222=
KPAM 080755Z AUTO 35005KT 10SM CLR 24/24 A3000 RMK AO2 SLP161
     T02380237=
KPSM 080755Z 15003KT 2SM BR BKN003 OVC006 21/21 A3004 RMK AO2A
     SLP173 T02120206=
KSKA 080755Z AUTO 05007KT 10SM CLR 18/08 A3006 RMK AO2 SLP167
     T01830077 402740113=
KSLI 080755Z AUTO 00000KT 10SM OVC017 16/14 A2991 RMK AO2 SLP131
     T01620136 402180147=
KTBN 080755Z AUTO 00000KT 10SM BKN200 23/ A3005 RMK AO2 SLP156
     T0226 $=
KTCM 080755Z AUTO 00000KT 10SM CLR 16/13 A2994 RMK AO2 SLP139
     T01590126 403140090=
KTIK 080755Z AUTO 02005KT 10SM BKN019 OVC024 24/23 A3004 RMK AO2
     CIG 019V023 BKN V OVC SLP159 T02370226 $=
KVOK 080755Z 00000KT 9SM R27/5000VP6000FT BKN012 BKN019 21/21
     A3000 RMK AO2A CIG 010V016 SLP154 T02140214=
KVPS 080755Z 33001KT 10SM SKC 24/24 A3002 RMK SLP166 T02430238=
KWRB 080755Z 00000KT 10SM CLR 21/21 A3002 RMK AO2A SLP162
     T02130212=
####018000199####
SPUS70 KWBC 080800
SPECI
KIJD 080756Z AUTO 14003KT 1 1/2SM BR OVC003 22/22 A3005 RMK AO2
     CIG 001V005=
KBMQ 080757Z AUTO 08004KT 10SM FEW008 BKN013 OVC033 24/22 A3001
     RMK AO2 $=
####018003692####
SAUS70 KWBC 080800 RRC
METAR
KJYG 080754Z AUTO 00000KT 10SM CLR 17/17 A3012 RMK AO2=
KJYM 080755Z AUTO 00000KT 7SM CLR 22/20 A3006 RMK AO2=
KLJF 080752Z AUTO 30003KT 10SM CLR 17/16 A3011 RMK AO2=
KLNL 080755Z AUTO 00000KT 7SM SCT004 SCT050 19/19 A3002 RMK AO2
     T01900185=
KLRD 080756Z AUTO 00000KT 10SM FEW011 26/24 A2990 RMK AO2
     T02610244 SLP111 $=
KLUM 080755Z AUTO 28005KT 10SM CLR 20/18 A3003 RMK AO2=
KLVN 080749Z AUTO 30005KT 10SM CLR 18/17 A3007 RMK AO2=
KLWA 080756Z AUTO 00000KT 10SM SCT055 OVC110 23/21 A3003 RMK
     AO2=
KLXL 080754Z AUTO 00000KT 5SM BR CLR 12/12 A3008 RMK AO2=
KM89 080756Z AUTO 00000KT 5SM BR OVC004 24/24 A3004 RMK AO2
     T02440238 SLP185=
KMDS 080745Z AUTO 29005KT 10SM CLR 14/14 A3016 RMK AO2=
PAFS 080756Z AUTO 06004KT 10SM CLR 17/06 A3000 RMK AO2 TSNO
     T01720055 402220033 SLP165 $=
PAMB 080756Z AUTO 36006KT 10SM BKN055 11/08 A2993 RMK AO2 PWINO
     TSNO T01050077 BKN V SCT SLP138 $=
PPIZ 080756Z AUTO 20012KT 10SM CLR 06/02 A3010 RMK AO2 TSNO
     T00610022 SLP197 $=
K4M9 080755Z AUTO 18005KT 8SM CLR 24/24 A3004 RMK AO2=
KAEJ 080755Z AUTO 00000KT 10SM OVC044 10/08 A3046 RMK AO2=
KBQX 080755Z AUTO 12017G29KT 10SM FEW023 FEW034 OVC047 29/26 A2984
     RMK A01=
KDCM 080755Z AUTO 29003KT 10SM CLR 23/21 A3000 RMK AO2 LTG DSNT
     SE=
KDLP 080755Z AUTO 13011KT 10SM BKN017 BKN050 29/25 A2998 RMK
     A01=
KEHC 080755Z AUTO 12027KT 7SM FEW018 FEW026 29/25 A2991 RMK
     A01=
KEIR 080755Z AUTO VRB05G14KT 10SM FEW017 28/25 A2996 RMK A01=
KEMK 080755Z AUTO 14025KT 7SM CLR 29/25 A2985 RMK A01=
KGYH 080755Z AUTO 30004KT 10SM CLR 24/19 A3003 RMK AO2=
KHQI 080755Z AUTO 11029KT 4SM HZ FEW003 BKN055 OVC075 27/24 A2989
     RMK A01=
KHXD 080755Z AUTO 23005KT 10SM CLR 24/21 A2998 RMK AO2 P0000=
KHYW 080755Z AUTO 00000KT 10SM BKN095 BKN120 25/23 A2994 RMK
     AO2=
KIPN 080755Z AUTO 10011KT 10SM CLR /58 A2998 RMK A01=
KJZI 080755Z AUTO 28009KT 10SM CLR 24/23 A2996 RMK A02 P000=
KMCJ 080755Z AUTO 12008G16KT 10SM CLR 27/24 A2989 RMK AO1=
KMDJ 080755Z AUTO 13016KT 10SM BKN019 BKN065 29/25 A2998 RMK
     A01=
KMEI 080758Z AUTO 00000KT 10SM CLR 23/22 A3003 RMK AO2 SLP167
     P0002 T02280222=
KMIU 080755Z AUTO 12017KT 10SM FEW038 SCT046 BKN060 29/25 A2981
     RMK A01=
KMZG 080755Z AUTO 00000KT 8SM FEW019 FEW026 SCT031 29/25 A2981 RMK
     A01=
KPBH 080755Z AUTO 00000KT 3/4SM BR OVC001 21/20 A3003 RMK AO2=
KPCZ 080755Z AUTO 00000KT 7SM OVC004 22/21 A2997 RMK AO2
     T02220208=
KPDC 080753Z AUTO 00000KT 7SM OVC006 23/21 A3001 RMK AO2
     T02250212=
KRCX 080755Z AUTO 00000KT 10SM CLR 19/18 A3003 RMK AO2
     T01910182=
KRNH 080756Z AUTO 31004KT 10SM BKN044 18/17 A3006 RMK AO2
     T01810168=
KRPD 080754Z AUTO 29003KT 10SM CLR 19/17 A3005 RMK AO2
     T01850172=
KRRL 080755Z AUTO 00000KT 7SM CLR 19/18 A3002 RMK AO2
     T01850180=
KRYV 080755Z AUTO 15003KT 10SM BKN012 BKN060 BKN090 23/20 A2999
     RMK AO2=
KSPF 080755Z AUTO 00000KT 10SM CLR 11/08 A3028 RMK AO2=
KSTE 080755Z AUTO 22004KT 4SM -RA OVC014 22/21 A3000 RMK AO2
     P0001=
KSUW 080755Z AUTO 29005KT 10SM CLR 18/14 A3001 RMK AO2=
KTTS 080755Z 33001KT 10SM FEW030 FEW290 21/20 A2998 RMK SLP152 1CU
     /0/ 1CI /0/=
KUES 080755Z AUTO 00000KT 7SM BKN055 OVC070 21/20 A3002 RMK AO2
     T02110196=
KUNU 080752Z AUTO 14003KT 7SM -RA SCT110 21/20 A3000 RMK AO2 P0001
     T02080195=
KVBS 080755Z AUTO 12023G29KT 10SM BKN020 BKN027 BKN048 29/25 A2992
     RMK A01=
KVNP 080755Z AUTO 11010G16KT 7SM 28/26 A2996 RMK A01=
KY50 080756Z AUTO 23005KT 5SM BR OVC002 22/22 A2998 RMK AO2
     T02220222 SLP144 $=
####018000633####
SAUS80 KWBC 080800 CCA
METAR
KDAB 080753Z 00000KT 10SM CLR 21/19 A2999 RMK AO2 SLP154 T02060194
     $=
KBTR 080753Z 00000KT 9SM FEW013 SCT200 24/23 A3000 RMK AO2 SLP157
     T02390228 $=
KMGM 080753Z 00000KT 10SM SCT070 25/23 A3002 RMK AO2 SLP160
     T02500228=
KTUP 080753Z AUTO 00000KT 10SM CLR 25/22 A3004 RMK AO2 SLP168
     T02500222=
KSMP 080756Z AUTO 00000KT 10SM CLR 17/04 A3016 RMK AO2 SLP180
     T01720039 402440100 TSNO $=
KALK 080756Z AUTO 09008KT 10SM FEW110 24/08 A3007 RMK AO2 SLP077
     T02390078=
KMCN 080753Z AUTO 00000KT 10SM CLR 21/19 A3002 RMK AO2 SLP161
     T02110194 TSNO=
####018000202####
SPUS80 KWBC 080800
SPECI
PHLI 080757Z 06011KT 10SM FEW023 BKN049 OVC070 24/19 A3007 RMK AO2
     $=
KGRR 080758Z AUTO 25008KT 2SM +RA BR SCT011 BKN029 OVC060 24/22
     A3006 RMK AO2 P0011=
####018003419####
SAUS80 KWBC 080800
METAR
KP28 080756Z AUTO 03005KT 22/21 A3010 RMK AO2 SLP176 T02170206
     PWINO TSNO=
KGNR 080756Z AUTO 12005KT 19/19 A3006 RMK AO1 SLP174 T01940189=
KCDJ 080756Z AUTO 00000KT 21/21 A3006 RMK AO2 SLP166 T02110206
     PWINO TSNO=
KMHS 080756Z AUTO 00000KT 10SM CLR 17/08 A3000 RMK AO2 SLP140
     T01670078 403330094 TSNO=
KWMC 080756Z AUTO 05018G25KT 10SM CLR 22/M06 A3004 RMK AO2 SLP118
     T02171056 403280139=
KBZN 080756Z AUTO 18005KT 10SM CLR 11/04 A3026 RMK AO2 SLPNO
     T01110044=
KSXT 080756Z AUTO 34004KT 9SM CLR 20/11 A3003 RMK AO2 SLP103
     T02000106 403110183 TSNO=
KMEH 080756Z AUTO 00000KT 10SM CLR 08/07 A3011 RMK AO2 SLP176
     T00830072 402780017 TSNO=
KLWS 080756Z AUTO 14003KT 10SM CLR 18/05 A3001 RMK AO2 SLP152
     T01830050 403280122=
KP53 080756Z AUTO 00000KT 19/18 A2995 RMK AO2 SLP140 T01890183
     PWINO TSNO=
KGNA 080756Z AUTO 00000KT 18/16 A2997 RMK AO2 SLP142 T01780161
     PWINO TSNO=
KSNC 080755Z AUTO 00000KT 3/4SM BR OVC001 22/ A3006 RMK AO2=
TJSJ 080756Z 10003KT 10SM CLR 27/24 A2998 RMK AO2 SLP150
     T02720244=
KSPD 080756Z AUTO 35003KT 16/14 A3028 RMK AO2 SLP201 T01560139
     PWINO TSNO=
KAKQ 080754Z AUTO 00000KT 2 1/2SM BR CLR 23/21 A2996 RMK AO2
     SLP145 T02280211 TSNO=
PHKO 080753Z 17004KT 10SM CLR 24/18 A2999 RMK AO2 SLP155
     T02390178=
PHOG 080754Z 04010KT 10SM FEW030 SCT050 24/18 A3004 RMK AO2 SLP177
     T02440178=
PHTO 080753Z 09003KT 10SM OVC065 23/17 A3005 RMK AO2 SLP174
     T02330172=
KFSD 080756Z 00000KT 10SM CLR 17/14 A3015 RMK AO2 SLP207 BKN ABV
     120 T01670144=
KROA 080754Z 25003KT 7SM OVC080 26/19 A3007 RMK AO2 SLP166
     T02560189=
TJSJ 080756Z 10003KT 10SM CLR 27/24 A2998 RMK AO2 SLP150
     T02720244=
KALK 080756Z AUTO 09008KT 10SM FEW110 24/08 A3007 RMK AO2 SLP077
     T02390078=
KTYS 080753Z 03003KT 9SM CLR 24/19 A3005 RMK AO2 SLP162
     T02440189=
KABQ 080756Z 10017G23KT 10SM BKN130 OVC200 19/10 A3025 RMK AO2 PK
     WND 10028/0722 SLP151 T01890100=
KJAX 080756Z 00000KT 10SM CLR 21/19 A3000 RMK AO2 SLP159
     T02060194=
K29G 080754Z AUTO 00000KT 7SM BKN060 20/18 A3009 RMK AO2 T02010182
     PWINO=
KAVP 080754Z 11005KT 7SM CLR 21/18 A3005 RMK AO2 SLP163 T02110178
     $=
KCAE 080756Z 26003KT 10SM CLR 24/19 A2998 RMK AO2 SLP149
     T02440189=
KCHS 080756Z 29009KT 10SM CLR 25/19 A2996 RMK AO2 SLP144
     T02500194=
KRFD 080754Z 15004KT 9SM -RA BKN008 OVC013 22/21 A3003 RMK AO2 CIG
     004V011 SLP162 P0001 T02220211=
KROS 080755Z AUTO 30003KT 10SM CLR 17/15 A3006 RMK AO2
     T01650151=
KSHV 080756Z 11003KT 10SM SCT180 BKN280 25/24 A3000 RMK AO2 SLP155
     T02500239=
KSYN 080810Z AUTO 00000KT 10SM CLR 19/17 A3005 RMK AO2
     T01860170=
KTKC 080753Z AUTO 25005KT 10SM CLR 16/14 A3014 RMK AO2
     T01550139=
KTRI 080753Z 00000KT 6SM HZ CLR 22/19 A3009 RMK AO2 SLP169
     T02170189 $=
KIKW 080754Z AUTO 00000KT 7SM CLR 22/21 A3001 RMK AO2
     T02180207=
KLYV 080758Z AUTO 00000KT 10SM CLR 15/13 A3016 RMK AO2=
KWAL 080754Z AUTO 10005KT 9SM OVC095 25/23 A2999 RMK AO2 RAB44E54
     SLP151 P0000 T02500228 TSNO=
KMYT 080755Z AUTO 14016KT 10SM FEW020 28/24 A2995 RMK A01=
KSCF 080800Z AUTO 15019KT 8SM FEW017 SCT023 SCT029 29/26 A2990 RMK
     A01=
KTKV 080755Z AUTO 00000KT 1 1/2SM BR VV007 17/16 A3003 RMK AO2
     T01710164=
####018000110####
SPXX60 KWBC 080800
SPECI
KFAF 080754Z 14005KT 9SM RA BKN080 26/26 A2995 RMK AO2A RAB0754
     SLP142=
####018000106####
SAUS70 KWBC 080900
METAR
KBBF 080855Z AUTO VRB07G16KT 8SM SCT023 SCT029 30/27 A2980 RMK
     A01=
####018000108####
SAUS80 KWBC 080900
METAR
K3A6 080850Z AUTO 36003KT 11/10 A2990 RMK AO1 SLP144 T01110098
     52009=
####018000119####
SAUS44 KBMX 080759
MTREUF
METAR KEUF 080758Z AUTO 00000KT 10SM CLR 21/19 A3002 RMK AO2 SLP159 
T02110189 PNO $
####018000144####
SADL33 KWBC 080745 RRC
METAR
EDNY 080750Z VRB01KT CAVOK 23/12 Q1022 RMK ATIS J=
EDXW 080750Z 20012KT CAVOK 22/13 Q1018 RMK ATIS INFO O=
####018000230####
SADL32 KWBC 080750 RRA
METAR
EDLN 080750Z VRB03KT CAVOK 25/14 Q1019 RMK ATIS G=
EDLP 080750Z 19007KT 140V220 CAVOK 26/11 Q1020 RMK RWY24 TRL60 JP
     ATIS L=
EDLW 080750Z 20009KT 170V240 CAVOK 26/10 Q1020 RMK ATIS J=
####018000089####
SADL31 KWBC 080750 RRA
METAR
EDHL 080750Z 17006KT 130V190 CAVOK 24/16 Q1020 RMK H=
####018000429####
SAGR41 KWBC 080750 RRA
METAR
LGKP 080750Z 32019KT CAVOK 28/16 Q1008=
LGKZ 080750Z 33018KT 9999 SCT020 SCT070 18/07 Q1017=
LGMK 080750Z 01027G40KT 9999 FEW012 24/18 Q1012=
LGPZ 080750Z 28015KT 9999 FEW025 28/19 Q1013 NOSIG=
LGPZ 080750Z 28015KT 9999 FEW025 28/19 Q1013 NOSIG BLU=
LGRX 080750Z 27007KT 9999 FEW025 28/20 Q1012 NOSIG=
LGRX 080750Z NIL=
LGSK 080750Z NIL=
LGZA 080750Z 35008KT CAVOK 30/15 Q1013=
####018000875####
SAGR31 KWBC 080750 RRA
METAR
LGAD 080750Z 32012KT 9999 FEW020 27/19 Q1013=
LGAL 080750Z NIL=
LGAL 080750Z 08009KT 6000 -RA SCT006 FEW020TCU BKN025 BKN080 15/14
     Q1015=
LGAV 080750Z 03017KT 9999 FEW020 SCT030 27/13 Q1012 NOSIG=
LGEL 080750Z 01015G25KT 9999 FEW025 SCT080 26/18 Q1012=
LGIR 080750Z 04004KT CAVOK 29/19 Q1010 NOSIG=
LGKF 080750Z 34015KT 9999 FEW025 27/16 Q1013=
LGKL 080750Z 33007KT 9999 FEW030 30/15 Q1011=
LGKO 080750Z 31016KT CAVOK 28/17 Q1009=
LGKR 080750Z 30016KT CAVOK 27/12 Q1012 NOSIG=
LGKV 080750Z 12008KT 9999 SCT020TCU 19/16 Q1013=
LGLM 080750Z NIL=
LGMT 080750Z 01011KT 9999 FEW020 SCT130 28/17 Q1010=
LGRP 080750Z 24015KT CAVOK 29/20 Q1007 NOSIG=
LGSA 080750Z 29008KT CAVOK 31/16 Q1011=
LGSM 080750Z NIL=
LGSR 080750Z 35014KT CAVOK 29/15 Q1010 NOSIG=
LGTS 080750Z 33021KT 9999 FEW025 22/12 Q1016 NOSIG=
####018000367####
SANL31 KWBC 080750 RRB
METAR
EHAM 080755Z 24007KT 210V300 CAVOK 22/15 Q1019 NOSIG=
EHBK 080755Z AUTO 20006KT 160V250 9999NDV NCD 25/12 Q1019
     NOSIG=
EHGG 080755Z AUTO 23007KT 190V270 9999NDV NCD 25/13 Q1018
     NOSIG=
EHKD 080755Z AUTO 23010KT 9999NDV OVC100/// 20/15 Q1018 BLU
     BLU=
EHRD 080755Z 26006KT 210V290 CAVOK 23/15 Q1019 NOSIG=
####018000081####
SAMF20 TFFR 080800
METAR TFFR 080800Z 10001KT 9999 FEW021 26/24 Q1014 NOSIG=
####018000093####
SABE31 TXKF 080755
METAR TXKF 080755Z 17012KT 9999 FEW015 SCT130 BKN300 26/23
Q1017
####018000223####
SAUK32 KWBC 080750 RRB
METAR
EGPA 080750Z 20014KT 9999 SCT030 BKN045 16/11 Q1006=
EGPC 080750Z 19011KT 9999 FEW024 SCT041 14/11 Q1007=
EGSH 080750Z 25008KT 220V290 9999 -RA FEW011 BKN029 20/16 Q1018
     NOSIG=
####018000354####
SAUK42 KWBC 080750 RRB
METAR
EGPC 080750Z 19011KT 9999 FEW024 SCT041 14/11 Q1007=
EGPE 080750Z 22014G25KT 9999 FEW022 SCT048 16/10 Q1008=
EGPL 080750Z 22021KT 9999 FEW018 14/11 Q1006=
EGPM 080750Z NIL=
EGPN 080750Z NIL=
EGPO 080750Z 22018G29KT 9999 -SHRA FEW014CB BKN035 12/10 Q1004
     RESHRA=
EGPU 080750Z NIL=
EGSC 080750Z NIL=
####018000294####
SAUK41 KWBC 080750 RRB
METAR
EGAE 080750Z 21010KT 9999 FEW015 SCT050 14/10 Q1011=
EGBE 080750Z NIL=
EGBJ 080750Z 23003KT 9999 FEW020 17/11 Q1018=
EGDL 080750Z 25004KT 9999 FEW012 SCT100 BKN150 16/13 Q1019 TEMPO
     SCT020=
EGNC 080750Z 23011KT 200V260 9999 SCT035 15/11 Q1014=
####018000133####
SAUK31 KWBC 080750 RRA
METAR
EGNH 080750Z 22012KT 9999 FEW022 17/11 Q1016=
EGNJ 080750Z 22010KT 9999 -RA SCT025 16/12 Q1017=
####018000057####
SAXX99 KWBC 080700 RRX
METAR
K8S0 080655Z 27007KT=
####018000125####
SAUS45 KFGZ 080800 COR
MTRFLG
METAR KFLG 080756Z AUTO 00000KT 10SM FEW080 15/01 A3025 RMK AO2 
SLP129 T01500011 TSNO
####018000081####
SPCN46 CWAO 080759
SPECI CYBN 080759Z AUTO 00000KT 5/8SM CLR 20/18 A3003=

####018000103####
SPCN47 CWAO 080758
SPECI CYPQ 080758Z AUTO ///// 1/2SM CLR 20/20 A3003 RMK VSBY VRBL
0.2V6.0=

####018000075####
SAAT31 TAPA 080759
METAR TAPA 080800Z 07010KT 9999  FEW020 28/23 Q1014=

####018000072####
SAYE20 OYRN 080800
METAR OYRN 080800Z 16010KT 7000 NSC 31/24 Q1003=
####018000098####
SAUZ31 UTTT 080800
METAR UTTT 080800Z 27003MPS 180V350 CAVOK 38/09 Q1011
R08R/CLRD70 NOSIG=
####018000080####
SARE03 FMEE 080800
METAR
FMEP 080800Z 12025G35KT 9999 FEW020 25/15 Q1022=
####018000091####
SAAJ31 UBBB 080800
METAR UBBB 080800Z 34024KT CAVOK 32/27 Q1011 NOSIG RMK
R88CLRD70=
####018000137####
SAHW31 KMSC 080759
METAR PHNY 080756Z AUTO 10006KT 10SM FEW038 22/16 A3009 RMK AO2 TSNO 
    T02160155 PK WND 05027/0705 SLP168 $=
####018000117####
SAUS41 KLWX 080800
MTRRYT
METAR KRYT 080753Z AUTO 00000KT 6SM HZ CLR 23/17 A3003 RMK AO2 
SLP149 T02280172 $
####018000083####
SANO37 ENMI 080750 RRA
METAR ENSN 080750Z 12004KT 6000 -RA BKN008 15/14 Q1015=
####018000380####
SPZZ40 KAWN 080800 RRM
SPECI CYHZ 080753Z 18003KT 1/2SM R23/P6000FT/D FG VV001 17/ RMK FG8=
SPECI CYPH 080755Z AUTO 24019KT 5/8SM VV001 05/05 A2977=
SPECI CYTL 080756Z AUTO 21004KT 9SM FEW043 BKN078 17/14 A2982=
SPECI KFAF 080754Z 14005KT 9SM RA BKN080 26/26 A2995 RMK AO2A RAB0754
      SLP142=
SPECI YSNF 080755Z 12009KT 5000 -DZ SCT010 BKN018 BKN100 14/12 Q1017=
####018000473####
SAXX70 KAWN 080800 RRE
METAR KQFT 080750Z AUTO 15003KT 6SM BR FEW034 SCT048 28/18 A2981 RMK
      A02=
METAR KQAQ 080755Z 02012G17KT 8000 HZ CLR 42/06 A2964 RMK SLP032 PA
      +384 DA +3519=
METAR KQL5 080755Z 07006KT 9999 SKC 38/14 A2970 RMK AO2A SLP010 WND
      DATA ESTMD ALSTG/SLP ESTMD=
METAR KQPV 080755Z AUTO 25009G15KT 9999 FEW210 40/08 A2970 RMK AO2
      SLP049 T03970076=
METAR KQSL 080755Z 33012KT 9999 CLR 41/05 A2968 RMK SLP037 Q1005MB=
####018000086####
SANO36 ENMI 080750 RRA
METAR ENHK 080750Z 09014KT 9999 FEW035 BKN080 15/08 Q1012=
####018000120####
SAUS45 KPSR 080800 COR
MTRALK
METAR KALK 080756Z AUTO 09008KT 10SM FEW110 24/08 A3007 RMK AO2 
SLP077 T02390078
####018000139####
SAUS45 KGJT 080800 COR
MTRRIL
METAR KRIL 080753Z AUTO 08008KT 10SM FEW110 16/09 A3026 RMK AO2 
RAE0658 SLP169 P0000 T01610089 TSNO
####018000739####
SANL33 EHDB 080755
METAR EHAK 080755Z AUTO 21015KT 9999NDV SCT034/// SCT043/// 17/15
Q1016=
METAR EHDV 080755Z NIL=
METAR EHFD 080755Z AUTO 22014KT 9999NDV FEW023/// SCT030/// 16/15
Q1017=
METAR EHFZ 080755Z AUTO 22012KT 9999NDV FEW039/// 17/15 Q1017=
METAR EHJA 080755Z AUTO 25018KT 8000NDV DZ FEW025/// SCT030///
BKN036/// 16/15 Q1017=
METAR EHJR 080755Z NIL=
METAR EHKV 080755Z AUTO 26017KT 9999NDV BKN033/// 16/15 Q1018=
METAR EHMA 080755Z AUTO 22010KT 9999NDV 21/16 Q1018=
METAR EHMG 080755Z AUTO 23015KT 9999NDV BKN039/// 17/15 Q1017=
METAR EHPG 080755Z AUTO 25016KT 9999NDV ///////// 16/15 Q1018=
METAR EHQE 080755Z AUTO 23013KT 9999NDV 16/14 Q1018=
METAR EHSA 080755Z NIL=
METAR EHSC 080755Z NIL=
####018000191####
SARW20 HRYR 080800
METAR
HRYR 080800Z 17012KT 9999 FEW026 22/12 Q1023 NOSIG=
HRZA 080800Z 24006KT 9999 SCT023 20/14 Q1024 NOSIG=
HRYG 080800Z 18006KT 9000 FEW025 22/15 Q1023 NOSIG=
####018000313####
SAPK31 OPKC 080800
METAR OPGD 080800Z NIL=
METAR OPKC 080800Z 09012KTS 9000 BKN030 35/24 Q.1003 NOSIG=
METAR OPLA 080755Z 12007KT 6000 SCT040 38/23 Q1005 NOSIG=
METAR OPNH 080800Z NIL=
METAR OPPS 080800Z NIL=
METAR OPRN 080800Z NIL=
METAR OPSK 080755Z 05006KT 6000 HZ SCT100 39/25 QNH1003 RH45PC=
####018000060####
SAUS45 KTFX 080800
MTR8S0
METAR K8S0 080655Z 27007KT 
####018000127####
SAUY SUMU 080800
METAR SUMU 080800Z 34004KT CAVOK 04/03 Q1017 NOSIG=
METAR SULS 080800Z 29009KT 9999 FEW023 08/05 Q1016=
####018000129####
SAUY59 SUMU 080800
METAR SUMU 080800Z 34004KT CAVOK 04/03 Q1017 NOSIG=
METAR SULS 080800Z 29009KT 9999 FEW023 08/05 Q1016=
####018001475####
SAUS17 KAWN 080800 RRC
METAR KADW 080755Z AUTO 08005KT 10SM CLR 26/23 A2998 RMK AO2 SLP152
      T02580230 $=
METAR KCVS 080755Z 02007KT 10SM SCT060 BKN200 18/15 A3020 RMK AO2A
      SLP186 T01760150 $=
METAR KDMA 080755Z AUTO 07003KT 10SM FEW180 30/08 A2986 RMK AO2 CLDS
      LWR RWY30 SLP035 T02950081 $=
METAR KFAF 080755Z 14005KT 8SM -RA SCT065 BKN080 26/26 A2994 RMK AO2A
      RAB0754 SLP141 P0000 T02610261=
METAR KFCS 080755Z AUTO 23006KT 10SM OVC055 14/11 A3039 RMK AO2 SLP219
      T01370111=
METAR KFFO 080757Z 00000KT 8SM CLR 22/20 A3007 RMK AO2A SLP177=
METAR KFMH 080755Z AUTO 16005KT 3SM BR OVC003 21/21 A3007 RMK AO2=
METAR KFRI 080755Z AUTO 02004KT 10SM SCT100 BKN150 22/21 A3009 RMK
      AO2 SLP177 T02160213=
METAR KHLR 080756Z AUTO 10005KT 10SM BKN017 26/ A2998 RMK AO2 SLP143
      T0256 $=
METAR KHOP 080755Z AUTO 00000KT 10SM CLR 23/22 A3006 RMK AO2 SLP174
      T02320224=
METAR KIWA 080756Z AUTO 35004KT 10SM CLR 31/03 A2979 RMK AO2=
METAR KNBC 080756Z AUTO 25003KT 10SM CLR 24/18 A2998 RMK AO2 SLP151
      T02390183=
METAR KNBG 080755Z AUTO 00000KT 7SM CLR 24/23 A3000 RMK AO2 SLP158
      T02440233 PWINO $=
METAR KNCA 080756Z AUTO 04003KT 10SM CLR 25/22 A2991 RMK AO2 SLP128
      T02500217=
METAR KNJK 080756Z AUTO 34003KT 10SM CLR 27/09 A2967 RMK AO2 SLP063
      T02670094 404110206 TSNO=
METAR PPIZ 080756Z AUTO 20012KT 10SM CLR 06/02 A3010 RMK AO2 TSNO T00610022
      SLP197 $=
####018001526####
SANA14 KAWN 080800 RRB
METAR KNFL 080756Z AUTO 00000KT 10SM CLR 22/01 A2995 RMK AO2 PK WND
      21030/0718 SLP115 T02170006 403560133 TSNO=
METAR KNGP 080756Z AUTO 09009KT 10SM SCT036 BKN046 29/26 A2981 RMK
      AO2 RAB18E32 SLP095 P0000 T02890261 $=
METAR KNID 080756Z AUTO 19009KT CLR 27/02 A2983 RMK AO2 SLP073 T02720022
      403830178 TSNO $=
METAR KNKX 080755Z 33004KT 10SM OVC014 16/14 A2991 RMK AO2 SLP123 T01610139
      401890150=
METAR KNLC 080756Z AUTO 33007KT 10SM CLR 19/12 A2982 RMK AO2 SLP096
      T01940117 403560150 TSNO $=
METAR KNMM 080756Z AUTO 28003KT 10SM CLR 23/21 A3004 RMK AO2 SLP177
      T02280211 $=
METAR KNQI 080756Z AUTO 35004KT 9SM FEW021 27/25 A2983 RMK AO2 SLP097
      T02720250 $=
METAR KNTD 080756Z AUTO 28006KT 10SM OVC013 15/13 A2990 RMK AO2 SLP127
      T01500128 401890144 TSNO PNO VISNO N $=
METAR KNTU 080756Z 11004KT 8SM CLR 25/24 A2994 RMK AO2 SLP142 T02500239
      CHINO RWY 05R $=
METAR KNUW 080756Z 00000KT 10SM CLR 15/11 A2996 RMK AO2 SLP150 T01500111
      402280100 $=
METAR KNXX 080756Z AUTO 13004KT 6SM HZ CLR 24/19 A3002 RMK AO2 SLP170
      T02390194 $=
METAR KNYL 080755Z 00000KT 10SM CLR 29/02 A2971 RMK AO2 SLP056 T02890022=
METAR KPOE 080755Z AUTO 12005KT 10SM CLR 24/23 A3000 RMK AO2 SLP158
      T02440228=
METAR KSGH 080756Z AUTO 00000KT 5SM BR CLR 21/21 A3010 RMK AO2 T02050205
      SLP181=
METAR KVBG 080755Z AUTO 00000KT 10SM CLR 13/11 A2993 RMK AO2 CIG 008
      RWY12 SLP126 T01280111 TSNO $=
####018000090####
SABE31 TXKF 080755
METAR TXKF 080755Z 17012KT 9999 FEW015 SCT130 BKN300 26/23
Q1017
####018001469####
SAZZ40 KAWN 080800 RRI
METAR KDMA 080755Z AUTO 07003KT 10SM FEW180 30/08 A2986 RMK AO2 CLDS
      LWR RWY30 SLP035 T02950081 $=
METAR KFFO 080757Z 00000KT 8SM CLR 22/20 A3007 RMK AO2A SLP177=
METAR KHOP 080755Z AUTO 00000KT 10SM CLR 23/22 A3006 RMK AO2 SLP174
      T02320224=
METAR KNBG 080755Z AUTO 00000KT 7SM CLR 24/23 A3000 RMK AO2 SLP158
      T02440233 PWINO $=
METAR KNGP 080756Z AUTO 09009KT 10SM SCT036 BKN046 29/26 A2981 RMK
      AO2 RAB18E32 SLP095 P0000 T02890261 $=
METAR KNJK 080756Z AUTO 34003KT 10SM CLR 27/09 A2967 RMK AO2 SLP063
      T02670094 404110206 TSNO=
METAR KNKX 080755Z 33004KT 10SM OVC014 16/14 A2991 RMK AO2 SLP123 T01610139
      401890150=
METAR KNMM 080756Z AUTO 28003KT 10SM CLR 23/21 A3004 RMK AO2 SLP177
      T02280211 $=
METAR KNQI 080756Z AUTO 35004KT 9SM FEW021 27/25 A2983 RMK AO2 SLP097
      T02720250 $=
METAR KNTU 080756Z 11004KT 8SM CLR 25/24 A2994 RMK AO2 SLP142 T02500239
      CHINO RWY 05R $=
METAR KPOE 080755Z AUTO 12005KT 10SM CLR 24/23 A3000 RMK AO2 SLP158
      T02440228=
METAR KVBG 080755Z AUTO 00000KT 10SM CLR 13/11 A2993 RMK AO2 CIG 008
      RWY12 SLP126 T01280111 TSNO $=
METAR PASY 080756Z AUTO 03019KT 10SM BKN006 OVC017 A2973 RMK AO2 SLPNO
      TSNO PNO=
METAR PMDY 080756Z AUTO 00000KT 10SM CLR 26/20 A3011 RMK AO2 TSNO T02550200
      SLP505=
METAR ROTM 080758Z 22009G17KT 9999 BKN020 BKN100 BKN180 27/27 A2982
      RMK SLP083 T02720267=
####018000089####
SASG20 GOOY 080800
METAR GOOY 080800Z 16005KT 140V200 9999 FEW013 28/24 Q1011 NOSIG=
####018000863####
SAAK41 KNKA 080800
METAR PADM 080801Z AUTO 05005KT 10SM CLR 10/09 A3007 RMK AO2 TSNO 
    T01000088 SLP172 $=
METAR PADU 080758Z AUTO 13008KT 10SM -RA BKN021 OVC038 09/06 A2986 
    RMK AO2 RAB0659 SLP115 P0000 T00890061=
METAR PAGA 080758Z AUTO 01003KT 10SM CLR 19/07 A3006 RMK AO2 SLP223 
    T01890067=
METAR PAJZ 080756Z AUTO 00000KT 10SM OVC070 11/09 A3001 RMK AO2 
    PWINO TSNO T01050094 SLP153 $=
METAR PAKI 080756Z AUTO 36006KT 10SM CLR 09/09 A3002 RMK AO2 PWINO 
    TSNO T00940094 SLP167 $=
METAR PALG 080756Z AUTO 00000KT 10SM FEW037 BKN070 BKN085 12/11 
    A3001 RMK AO2 TSNO T01220105 SLP164=
METAR PARY 080756Z AUTO 31003KT 10SM CLR 18/07 A3006 RMK AO2 PWINO 
    TSNO T01770066 SLP182=
SPECI PATO 080758Z AUTO 14008G24KT 090V180 2 1/2SM RA BR FEW021 
    BKN028 OVC034 12/11 A3001 RMK AO2 P0002 T01170106 TSNO=
####018002920####
SAUS20 KNKA 080800
METAR KAWG 080755Z AUTO 29003KT 5SM SCT003 22/20 A3003 RMK AO2=
METAR KAXA 080755Z AUTO 32005KT 10SM CLR 18/17 A3010 RMK AO2=
METAR KBNW 080755Z AUTO 36007KT 10SM CLR 21/18 A3008 RMK AO2=
METAR KBTR 080753Z 00000KT 9SM FEW013 SCT200 24/23 A3000 RMK AO2
     SLP157 T02390228 $=
METAR KCAV 080755Z AUTO 33003KT 10SM BKN027 21/19 A3009 RMK AO2=
METAR KCBF 080755Z AUTO 35007KT 10SM CLR 20/16 A3011 RMK AO2=
METAR KCCY 080755Z AUTO 29004KT 7SM BKN030 20/18 A3007 RMK AO2=
METAR KCIN 080755Z AUTO 33004KT 7SM CLR 20/17 A3012 RMK AO2=
METAR KCNC 080755Z AUTO 00000KT 10SM SCT025 21/18 A3006 RMK AO2=
METAR KCSQ 080755Z AUTO 00000KT 10SM CLR 21/20 A3008 RMK AO2=
METAR KDAB 080753Z 00000KT 10SM CLR 21/19 A2999 RMK AO2 SLP154
     T02060194 $=
METAR KDEH 080755Z AUTO 29003KT 10SM CLR 21/18 A3007 RMK AO2=
METAR KDNS 080755Z AUTO 00000KT 7SM OVC027 21/17 A3015 RMK AO2=
METAR KEOK 080755Z AUTO 00000KT 10SM SCT065 22/19 A3002 RMK AO2=
METAR KFFL 080755Z AUTO 27004KT 3/4SM OVC002 22/21 A3003 RMK AO2=
METAR KFSD 080756Z 00000KT 10SM CLR 17/14 A3015 RMK AO2 SLP207 BKN
     ABV 120 T01670144=
METAR KFSW 080755Z AUTO 00000KT 7SM CLR 23/21 A3002 RMK AO2=
METAR KFXY 080755Z AUTO 33006KT 10SM CLR 18/17 A3009 RMK AO2=
METAR KGGI 080755Z AUTO 00000KT 10SM CLR 22/20 A3006 RMK AO2=
METAR KHNR 080755Z AUTO 35005KT 5SM CLR 18/18 A3014 RMK AO2=
METAR KI75 080755Z AUTO 00000KT 7SM CLR 20/20 A3006 RMK AO2=
METAR KICL 080755Z AUTO 00000KT 10SM CLR 22/19 A3007 RMK AO2=
METAR KIFA 080755Z AUTO 31003KT 10SM SCT075 SCT110 20/20 A3008 
     RMK AO2=
METAR KIIB 080755Z AUTO 26003KT 2 1/2SM BKN002 20/19 A3003 RMK AO1=
METAR KIKV 080755Z AUTO 35006KT 10SM CLR 21/20 A3007 RMK AO2=
METAR KLRJ 080755Z AUTO 00000KT 7SM CLR 16/15 A3014 RMK AO2=
SPECI KLWC 080759Z AUTO 32005KT 10SM FEW020 BKN100 OVC110 22/21 
    A3007 RMK AO2 LTG DSNT NE=
METAR KMPZ 080755Z AUTO 25003KT 7SM CLR 22/21 A3002 RMK AO2=
METAR KMUT 080755Z AUTO 31003KT 3 1/2SM BKN007 23/22 A3001 RMK AO2=
METAR KMXO 080755Z AUTO 29004KT 3 1/2SM CLR 21/19 A3002 RMK AO2=
METAR KNTU 080756Z 11004KT 8SM CLR 25/24 A2994 RMK AO2 SLP142
     T02500239 CHINO RWY 05R $=
METAR KORC 080755Z AUTO 00000KT 10SM CLR 17/17 A3015 RMK AO2=
METAR KOXV 080755Z AUTO 00000KT 7SM CLR 21/20 A3006 RMK AO2=
METAR KPEA 080755Z AUTO 35003KT 5SM SCT001 SCT005 22/22 A3006 RMK 
     AO2=
METAR KRDK 080755Z AUTO 36005KT 7SM CLR 21/18 A3009 RMK AO2=
METAR KROA 080754Z 25003KT 7SM OVC080 26/19 A3007 RMK AO2 SLP166
     T02560189=
METAR KSDA 080755Z AUTO 36004KT 7SM CLR 21/19 A3009 RMK AO2=
METAR KSHL 080755Z AUTO 00000KT 3 1/2SM CLR 16/15 A3016 RMK AO2=
METAR KTNU 080755Z AUTO 36004KT 10SM CLR 22/20 A3006 RMK AO2=
SPECI KUIN 080759Z AUTO 21004KT 2 1/2SM RA BR FEW016 BKN038 OVC046 
    23/22 A3004 RMK AO2 P0002=
METAR KVTI 080755Z AUTO 00000KT 10SM CLR 21/21 A3003 RMK AO2=
####018000156####
SAZA42 FAJS 080800 RRB
METAR FAWK 080800Z 10012KT 9999 FEW030 12/// Q1038=
METAR FASK 080800Z 12010KT 8000 NSC 13/// Q1036=
METAR FALM 080800Z NIL=
####018000120####
SAMH31 PKWA 080800
METAR PKWA 080800Z AUTO 08012KT 4SM RA SCT006 BKN016 OVC025 25/23 A2985 RMK AO2 P0022 T02520232=
####018001684####
SAEU KAWN 080800 RRI
METAR EGAE 080750Z 21010KT 9999 FEW015 SCT050 14/10 Q1011=
METAR EGBJ 080750Z 23003KT 9999 FEW020 17/11 Q1018=
METAR EGEC 080750Z 22011KT 9999 FEW025 15/10 Q1012=
METAR EGNC 080750Z 23011KT 200V260 9999 SCT035 15/11 Q1014=
METAR EGNH 080750Z 22012KT 9999 FEW022 17/11 Q1016=
METAR EGNJ 080750Z 22010KT 9999 -RA SCT025 16/12 Q1017=
METAR EGPA 080750Z 20014KT 9999 SCT030 BKN045 16/11 Q1006=
METAR EGPC 080750Z 19011KT 9999 FEW024 SCT041 14/11 Q1007=
METAR EGPE 080750Z 22014G25KT 9999 FEW022 SCT048 16/10 Q1008=
METAR EGPL 080750Z 22021KT 9999 FEW018 14/11 Q1006=
METAR EGPO 080750Z 22018G29KT 9999 -SHRA FEW014CB BKN035 12/10 Q1004
      RESHRA=
METAR COR EGSH 080750Z 25008KT 220V290 9999 -RA FEW011 BKN029 20/16
      Q1018 NOSIG=
METAR EGVN 080750Z 27004KT 9999 FEW022 SCT120 BKN150 17/11 Q1019 NOSIG=
METAR EHKD 080755Z AUTO 23010KT 9999NDV OVC100/// 20/15 Q1018 BLU BLU=
METAR LGAL 080750Z 08009KT 6000 -RA SCT006 FEW020TCU BKN025 BKN080
      15/14 Q1015=
METAR LGHI 080750Z 06003KT 9999 FEW020 SCT030 29/18 Q1010=
METAR LGKF 080750Z 34015KT 9999 FEW025 27/16 Q1013=
METAR LGKP 080750Z 32019KT CAVOK 28/16 Q1008=
METAR LGKZ 080750Z 33018KT 9999 SCT020 SCT070 18/07 Q1017=
METAR LGMK 080750Z 01027G40KT 9999 FEW012 24/18 Q1012=
METAR LGRX 080750Z 27007KT 9999 FEW025 28/20 Q1012 NOSIG BLU=
METAR LGSO 080750Z 01010KT CAVOK 28/17 Q1011=
METAR LGSR 080750Z 35014KT CAVOK 29/15 Q1010 NOSIG BLU=
METAR LGSY 080750Z 01014KT 8000 -RA SCT008 SCT015TCU BKN018 21/16 Q1013
      NOSIG RMK BKN080 BLU=
METAR LGZA 080750Z 35008KT CAVOK 30/15 Q1013=
METAR LWSK 080800Z 01002KT 9999 BKN050 17/12 Q1019 NOSIG=
####018001688####
SAXN17 KAWN 080800 RRB
METAR MHLC 080800Z 00000KT 9999 FEW026 SCT200 25/24 Q1009 A2980 NOSIG=
METAR MMGL 080753Z 00000KT 7SM RA OVC080 19/17 A3003 RMK 6//// 8/07/
      RAB45=
METAR MMLO 080745Z 04004KT 6SM -DZ BKN025 OVC070 18/18 A3012 RMK 60095
      8/77/=
METAR MMML 080746Z 18006KT 10SM SKC 25/14 A2966=
METAR MMMM 080745Z 00000KT 4SM BKN015 OVC070 17/16 A3008 RMK 8/46/=
METAR MMMX 080748Z 00000KT 5SM -RA BKN025 OVC080 15/14 A3020 NOSIG
      RMK 60125 8/46/ -RA INTMT=
METAR MMMZ 080751Z 00000KT 10SM SCT220 26/22 A2977 RMK 8/002=
METAR MMPB 080745Z 15005KT 3SM TSRA SCT020CB OVC080 15/14 A3020 RMK
      6//// 8/96/ TSRAB39=
METAR MMSP 080747Z 00000KT 10SM SCT010 BKN020 BKN080 17/17 A3014 RMK
      8/530 MSGTX MMZC=
METAR MMTJ 080749Z 00000KT 6SM OVC017 16/14 A2994 RMK 8/5// HZY=
METAR MMTO 080745Z 00000KT 3SM RA BKN010CB OVC070 12/11 A3025 RMK 8/96/=
METAR MUGM 080756Z 35004KT 9999 FEW035 26/23 A2995 RMK SLP141 T02610228=
METAR NFFN 080800Z 12004KT 40KM SCT028 SCT048 23/19 Q1013 NOSIG RMK
      RR NIL=
METAR PACZ 080755Z AUTO 09010KT 10SM 11/08 A3007 RMK AO1 T01110084=
METAR PAEH 080755Z AUTO 00000KT 10SM BKN009 OVC020 09/M28 A3001 RMK
      AO1 T00941283=
METAR PALU 080755Z AUTO 21023G26KT 10SM CLR 13/01 A3009 RMK AO1 T01330012=
METAR PASV 080755Z AUTO 00000KT 10SM SCT090 SCT100 10/09 A2997 RMK
      AO1 T01000095=
METAR PASY 080756Z AUTO 03019KT 10SM BKN006 OVC017 A2973 RMK AO2 SLPNO
      TSNO PNO=
METAR PATL 080755Z AUTO 04005KT 10SM SCT110 17/06 A3000 RMK AO1 T01670056=
METAR TFFR 080800Z 10001KT 9999 FEW021 26/24 Q1014 NOSIG=
METAR TXKF 080755Z 17012KT 9999 FEW015 SCT130 BKN300 26/23 Q1017=
####018001408####
SAUS99 KWBC 080801 RRA
METAR
KFXY 080755Z AUTO 33006KT 10SM CLR 18/17 A3009 RMK AO2=
KGGI 080755Z AUTO 00000KT 10SM CLR 22/20 A3006 RMK AO2=
KHNR 080755Z AUTO 35005KT 5SM CLR 18/18 A3014 RMK AO2=
KI75 080755Z AUTO 00000KT 7SM CLR 20/20 A3006 RMK AO2=
KICL 080755Z AUTO 00000KT 10SM CLR 22/19 A3007 RMK AO2=
KIFA 080755Z AUTO 31003KT 10SM SCT075 SCT110 20/20 A3008 RMK
     AO2=
KIIB 080755Z AUTO 26003KT 2 1/2SM BKN002 20/19 A3003 RMK AO1=
KIKV 080755Z AUTO 35006KT 10SM CLR 21/20 A3007 RMK AO2=
KLRJ 080755Z AUTO 00000KT 7SM CLR 16/15 A3014 RMK AO2=
KMPZ 080755Z AUTO 25003KT 7SM CLR 22/21 A3002 RMK AO2=
KMUT 080755Z AUTO 31003KT 3 1/2SM BKN007 23/22 A3001 RMK AO2=
KMXO 080755Z AUTO 29004KT 3 1/2SM CLR 21/19 A3002 RMK AO2=
KNTU 080756Z 11004KT 8SM CLR 25/24 A2994 RMK AO2 SLP142 T02500239
     CHINO RWY 05R $=
KORC 080755Z AUTO 00000KT 10SM CLR 17/17 A3015 RMK AO2=
KOXV 080755Z AUTO 00000KT 7SM CLR 21/20 A3006 RMK AO2=
KPEA 080755Z AUTO 35003KT 5SM SCT001 SCT005 22/22 A3006 RMK
     AO2=
KRDK 080755Z AUTO 36005KT 7SM CLR 21/18 A3009 RMK AO2=
KROA 080754Z 25003KT 7SM OVC080 26/19 A3007 RMK AO2 SLP166
     T02560189=
KSDA 080755Z AUTO 36004KT 7SM CLR 21/19 A3009 RMK AO2=
KSHL 080755Z AUTO 00000KT 3 1/2SM CLR 16/15 A3016 RMK AO2=
KTNU 080755Z AUTO 36004KT 10SM CLR 22/20 A3006 RMK AO2=
KVTI 080755Z AUTO 00000KT 10SM CLR 21/21 A3003 RMK AO2=
####018003711####
SAUS99 KWBC 080801
METAR
KCVX 080755Z AUTO 00000KT 7SM SCT120 21/20 A2999 RMK AO2=
KFKS 080755Z AUTO 21006KT 10SM BKN110 23/18 A2999 RMK AO2=
KSLH 080755Z AUTO 00000KT 10SM BKN110 21/21 A2996 RMK AO2=
KSJX 080755Z AUTO 18004KT 10SM SCT120 20/18 A2997 RMK AO2=
KLDM 080755Z AUTO 25003KT 10SM BKN090 BKN110 22/21 A3001 RMK
     AO2=
KSAW 080759Z AUTO 28005KT 10SM OVC003 18/17 A2997 RMK AO2=
KGOV 080755Z AUTO 00000KT 1 1/4SM BR BKN110 20/20 A3002 RMK
     AO2=
KPZQ 080755Z AUTO 21006KT 7SM CLR 22/22 A2999 RMK AO2=
KHYX 080755Z AUTO 16005KT 10SM CLR 22/20 A3001 RMK AO2=
KPHN 080755Z AUTO 00000KT 3SM BR SCT100 21/20 A3003 RMK AO2=
KONZ 080757Z AUTO 00000KT 10SM CLR 26/21 A3002 RMK AO2=
KISQ 080755Z AUTO 19006KT 10SM BKN004 OVC009 19/18 A2996 RMK
     AO2=
KRMY 080755Z AUTO 00000KT 10SM CLR 22/20 A3004 RMK AO2=
KOSC 080754Z AUTO 00000KT 7SM CLR 19/17 A3001 RMK AO2=
KTTF 080753Z AUTO 00000KT 10SM CLR 23/22 A3002 RMK AO2=
KAMN 080755Z AUTO 00000KT 4SM BR CLR 21/21 A3001 RMK AO2=
KMCD 080756Z AUTO 16003KT 10SM BKN110 21/18 A2997 RMK AO2=
KERY 080755Z AUTO 00000KT 10SM SCT090 19/19 A2996 RMK AO2=
KDVP 080757Z AUTO 27004KT 10SM CLR 15/13 A3017 RMK AO2
     T01460130=
KCDD 080751Z AUTO 00000KT 10SM CLR 14/14 A3003 RMK AO2=
KFOZ 080753Z AUTO 00000KT 1/2SM FG BKN016 13/12 A3005 RMK AO2=
KAQP 080753Z AUTO 22003KT 10SM CLR 15/15 A3010 RMK AO2=
KETH 080754Z AUTO 22005KT 10SM CLR 15/14 A3010 RMK AO2=
KXVG 080756Z AUTO 00000KT 7SM CLR 11/11 A3005 RMK AO2=
KORB 080754Z AUTO 00000KT 10SM CLR 14/13 A3001 RMK AO2=
KMZH 080751Z AUTO 00000KT 10SM BKN100 14/13 A3004 RMK AO2=
KBFW 080753Z AUTO 00000KT 10SM SCT055 18/15 A2999 RMK AO2=
KVWU 080751Z AUTO 00000KT 10SM CLR 14/14 A3001 RMK AO2=
KOWA 080754Z AUTO 29004KT 10SM CLR 18/17 A3007 RMK AO2=
KCDA 080755Z AUTO 00000KT 4SM BR SCT055 20/18 A3008 RMK AO2=
KFKA 080803Z AUTO 31005KT 5SM BR CLR 19/19 A3006 RMK AO2
     T01920186=
PADM 080801Z AUTO 05005KT 10SM CLR 10/09 A3007 RMK AO2 TSNO
     T01000088 SLP172 $=
PADU 080758Z AUTO 13008KT 10SM -RA BKN021 OVC038 09/06 A2986 RMK
     AO2 RAB0659 SLP115 P0000 T00890061=
PAGA 080758Z AUTO 01003KT 10SM CLR 19/07 A3006 RMK AO2 SLP223
     T01890067=
PAJZ 080756Z AUTO 00000KT 10SM OVC070 11/09 A3001 RMK AO2 PWINO
     TSNO T01050094 SLP153 $=
PAKI 080756Z AUTO 36006KT 10SM CLR 09/09 A3002 RMK AO2 PWINO TSNO
     T00940094 SLP167 $=
PALG 080756Z AUTO 00000KT 10SM FEW037 BKN070 BKN085 12/11 A3001
     RMK AO2 TSNO T01220105 SLP164=
PARY 080756Z AUTO 31003KT 10SM CLR 18/07 A3006 RMK AO2 PWINO TSNO
     T01770066 SLP182=
KAWG 080755Z AUTO 29003KT 5SM SCT003 22/20 A3003 RMK AO2=
KAXA 080755Z AUTO 32005KT 10SM CLR 18/17 A3010 RMK AO2=
KBNW 080755Z AUTO 36007KT 10SM CLR 21/18 A3008 RMK AO2=
KBTR 080753Z 00000KT 9SM FEW013 SCT200 24/23 A3000 RMK AO2 SLP157
     T02390228 $=
KCAV 080755Z AUTO 33003KT 10SM BKN027 21/19 A3009 RMK AO2=
KCBF 080755Z AUTO 35007KT 10SM CLR 20/16 A3011 RMK AO2=
KCCY 080755Z AUTO 29004KT 7SM BKN030 20/18 A3007 RMK AO2=
KCIN 080755Z AUTO 33004KT 7SM CLR 20/17 A3012 RMK AO2=
KCNC 080755Z AUTO 00000KT 10SM SCT025 21/18 A3006 RMK AO2=
KCSQ 080755Z AUTO 00000KT 10SM CLR 21/20 A3008 RMK AO2=
KDAB 080753Z 00000KT 10SM CLR 21/19 A2999 RMK AO2 SLP154 T02060194
     $=
KDEH 080755Z AUTO 29003KT 10SM CLR 21/18 A3007 RMK AO2=
KDNS 080755Z AUTO 00000KT 7SM OVC027 21/17 A3015 RMK AO2=
KEOK 080755Z AUTO 00000KT 10SM SCT065 22/19 A3002 RMK AO2=
KFFL 080755Z AUTO 27004KT 3/4SM OVC002 22/21 A3003 RMK AO2=
KFSD 080756Z 00000KT 10SM CLR 17/14 A3015 RMK AO2 SLP207 BKN ABV
     120 T01670144=
KFSW 080755Z AUTO 00000KT 7SM CLR 23/21 A3002 RMK AO2=
####018000343####
SPUS99 KWBC 080801
SPECI
PATO 080758Z AUTO 14008G24KT 090V180 2 1/2SM RA BR FEW021 BKN028
     OVC034 12/11 A3001 RMK AO2 P0002 T01170106 TSNO=
KLWC 080759Z AUTO 32005KT 10SM FEW020 BKN100 OVC110 22/21 A3007
     RMK AO2 LTG DSNT NE=
KUIN 080759Z AUTO 21004KT 2 1/2SM RA BR FEW016 BKN038 OVC046 23/22
     A3004 RMK AO2 P0002=
####018001711####
SAUK KAWN 080800 RRB
METAR EGAE 080750Z 21010KT 9999 FEW015 SCT050 14/10 Q1011=
METAR EGBJ 080750Z 23003KT 9999 FEW020 17/11 Q1018=
METAR EGEC 080750Z 22011KT 9999 FEW025 15/10 Q1012=
METAR EGNC 080750Z 23011KT 200V260 9999 SCT035 15/11 Q1014=
METAR EGNH 080750Z 22012KT 9999 FEW022 17/11 Q1016=
METAR EGNJ 080750Z 22010KT 9999 -RA SCT025 16/12 Q1017=
METAR EGOS 080750Z 19007KT 9999 FEW015 BKN100 15/10 Q1017 BLU NOSIG=
METAR EGPA 080750Z 20014KT 9999 SCT030 BKN045 16/11 Q1006=
METAR EGPC 080750Z 19011KT 9999 FEW024 SCT041 14/11 Q1007=
METAR EGPE 080750Z 22014G25KT 9999 FEW022 SCT048 16/10 Q1008=
METAR EGPL 080750Z 22021KT 9999 FEW018 14/11 Q1006=
METAR EGPO 080750Z 22018G29KT 9999 -SHRA FEW014CB BKN035 12/10 Q1004
      RESHRA=
METAR EGPU 080750Z 23016KT 9999 VCSH SCT048 14/12 Q1008=
METAR EGQL 080750Z 25018KT 9999 FEW023 BKN050 15/09 Q1011 BLU NOSIG=
METAR COR EGSH 080750Z 25008KT 220V290 9999 -RA FEW011 BKN029 20/16
      Q1018 NOSIG=
METAR EGUB 080750Z 27004KT 9999 FEW010 OVC026 17/13 Q1019 BLU NOSIG=
METAR EGVN 080750Z 27004KT 9999 FEW022 SCT120 BKN150 17/11 Q1019 NOSIG=
METAR EGVP 080750Z 31006KT 5000 -DZ SCT011 OVC017 15/14 Q1019 GRN BECMG
      9999 NSW BKN018 WHT=
METAR EGWU 080750Z 28007KT 4500 RADZ FEW004 BKN007 OVC014 16/16 Q1019
      GRN BECMG 6000 -RADZ GRN=
METAR EGXD 080750Z 22007KT 9999 FEW020 BKN100 16/11 Q1016 BLU NOSIG=
METAR EGXE 080750Z 20006KT 9999 FEW020 BKN100 16/12 Q1016 BLU NOSIG=
METAR EGXU 080750Z 22007KT 9999 FEW020 SCT090 OVC120 16/10 Q1016 BLU
      NOSIG=
METAR EGYD 080750Z 24012KT CAVOK 16/10 Q1018 BLU NOSIG=
METAR EGYM 080750Z 26010KT 9999 FEW012 BKN028 OVC130 18/13 Q1018 BLU
      NOSIG=
####018000068####
SABZ18 SBGR 080800
METAR SBGR 080800Z 07006KT CAVOK 12/11 Q1020=
####018000068####
SABZ19 SBMA 080800
METAR SBMA 080800Z 25004KT CAVOK ///// Q1012=
####018000120####
SAUS41 KAKQ 080800
MTRNGU
METAR KNGU 080759Z 10003KT 5SM BR FEW080 BKN130 26/24 A2996 RMK AO2 
SLP146 T02610239
####018000081####
SABZ24 SBPA 080800
METAR SBPA 080800Z 19004KT 9999 BKN023 OVC045 17/14 Q1017=
####018000068####
SABZ20 SBPV 080800
METAR SBPV 080800Z 00000KT CAVOK 24/23 Q1011=
####018000081####
SABZ21 SBNT 080800
METAR SBNT 080800Z 17003KT 9999 SCT020 SCT070 22/21 Q1014=
####018000068####
SABZ18 SBSP 080800
METAR SBSP 080800Z 06003KT CAVOK 16/10 Q1020=
####018000081####
SABZ21 SBRF 080800
METAR SBRF 080800Z 00000KT 9999 SCT020 BKN070 23/21 Q1015=
####018000081####
SABZ21 SBSV 080800
METAR SBSV 080800Z 10010KT 9999 SCT017 SCT070 21/20 Q1016=
####018000068####
SABZ23 SBGL 080800
METAR SBGL 080800Z 00000KT CAVOK 15/13 Q1018=
####018000092####
SASG20 GOOY 080800
METAR GOOY 080800Z 16005KT 140V200 9999 FEW013 28/24 Q1011 NOSIG=

####018000104####
SPUS43 KWBC 080801
SPECI
KGRR 080758Z AUTO 25008KT 2SM +RA BR SCT011 BKN029 OVC060 24/22
A3006=
####018000088####
SAHK31 VHHH 080800
METAR VHHH 080800Z 20014KT 9999 FEW020 SCT030 34/24 Q1006 NOSIG=
####018000123####
SAHW40 PHFO 080801
MTRBKH
METAR PHBK 080756Z AUTO 14004KT 10SM OVC060 26/18 A3002 RMK AO2 
SLP168 T02560183 TSNO $
####018000757####
SAUS20 KNKA 080801
METAR KBWD 080755Z AUTO 00000KT 9SM FEW016 SCT044 23/23 A3000 RMK 
     AO2 =
METAR KDMA 080755Z AUTO 07003KT 10SM FEW180 30/08 A2986 RMK AO2 CLDS
      LWR RWY30 SLP035 T02950081 $=
METAR KFAF 080755Z 14005KT 8SM -RA SCT065 BKN080 26/26 A2994 RMK AO2A
      RAB0754 SLP141 P0000 T02610261=
METAR KNBG 080755Z AUTO 00000KT 7SM CLR 24/23 A3000 RMK AO2 SLP158
      T02440233 PWINO $=
METAR KNCA 080756Z AUTO 04003KT 10SM CLR 25/22 A2991 RMK AO2 SLP128
      T02500217=
METAR KNMM 080756Z AUTO 28003KT 10SM CLR 23/21 A3004 RMK AO2 SLP177
      T02280211 $=
METAR KNXX 080756Z AUTO 13004KT 6SM HZ CLR 24/19 A3002 RMK AO2 SLP170
      T02390194 $=
METAR KO22 080755Z AUTO 00000KT 10SM CLR 17/11 A2991 RMK AO1 =
####018000104####
SPUS73 KWBC 080801
SPECI
KGRR 080758Z AUTO 25008KT 2SM +RA BR SCT011 BKN029 OVC060 24/22
A3006=
####018000069####
SABZ24 SBFL 080800
METAR SBFL 080800Z 20003KT CAVOK 19/18 Q1014=
####018000082####
SAYE20 OYAG 080800
METAR OYAG 080800Z 11012KT 9999 SCT025 BKN070 30/24 Q1003=
####018000386####
SASD31 OEJD 080800
METAR OEDF 080800Z 36012KT 8000 NSC 43/07 Q1000 NOSIG=
METAR OEDR 080800Z 36012KT 7000 SKC 44/09 Q0999 NOSIG=
METAR OEJN 080800Z 30010KT CAVOK 36/25 Q1002 NOSIG=
METAR OEMA 080800Z 12008KT CAVOK 44/00 Q1007 NOSIG=
METAR OERK 080800Z 02014KT CAVOK 41/00 Q1008 NOSIG=
METAR OERY 080800Z 06012G22KT 5000 DU NSC 42/02 Q1009 NOSIG=
METAR OYSN 080800Z NIL=
####018000094####
SAIY41 LIIB 080700 RRA
METAR LIVE 080655Z 18002KT CAVOK 13/09 Q1025 RMK SKC VIS MIN 9999=
####018000092####
SAPF20 NTAA 080800
METAR NTAA 080800Z 09002KT 9999 FEW023 25/22 Q1015 WS ALL RWY NOSIG=
####018000104####
SPUS81 KWBC 080801
SPECI
KGRR 080758Z AUTO 25008KT 2SM +RA BR SCT011 BKN029 OVC060 24/22
A3006=
####018000091####
SAAJ31 UBBB 080800
METAR UBBL 080800Z 13007KT 9999 NSC 34/15 Q1012 NOSIG RMK G/O SC07=
####018000114####
SAUS41 KAKQ 080801 COR
MTRRIC
METAR KRIC 080754Z 00000KT 7SM FEW120 26/20 A2997 RMK AO2 SLP150 
T02610200
####018000183####
SAEU KAWN 080700 RRX
METAR ENGM 080740Z 20008KT 9999 FEW009 SCT012 BKN019 16/14 Q1015 TEMPO
      BKN012=
METAR LGLR 080720Z 33007KT 9999 FEW035 SCT080 23/08 Q1015 NOSIG BLU=
####018000086####
SANC01 NWWW 080800
METAR NWWW 080800Z AUTO 04002KT 9999NDV FEW046/// 19/16 Q1016=
####018000104####
SAUS90 KWBC 080802
METAR KFKA 080803Z AUTO 31005KT 5SM BR CLR 19/19 A3006 RMK AO2
     T01920186=
####018000055####
SAUS90 KWBC 080700 RRI
METAR K8S0 080655Z 27007KT=
####018000407####
SAUS90 KWBC 080800 CCB
METAR KFLG 080756Z AUTO 00000KT 10SM FEW080 15/01 A3025 RMK AO2
     SLP129 T01500011 TSNO=
METAR KALK 080756Z AUTO 09008KT 10SM FEW110 24/08 A3007 RMK AO2
     SLP077 T02390078=
METAR KRIL 080753Z AUTO 08008KT 10SM FEW110 16/09 A3026 RMK AO2
     RAE0658 SLP169 P0000 T01610089 TSNO=
METAR KRIC 080754Z 00000KT 7SM FEW120 26/20 A2997 RMK AO2 SLP150
     T02610200=
####018002225####
SAUS90 KWBC 080800 RRA
METAR KEUF 080758Z AUTO 00000KT 10SM CLR 21/19 A3002 RMK AO2
     SLP159 T02110189 PNO $=
METAR KCVX 080755Z AUTO 00000KT 7SM SCT120 21/20 A2999 RMK AO2=
METAR KFKS 080755Z AUTO 21006KT 10SM BKN110 23/18 A2999 RMK
     AO2=
METAR KSLH 080755Z AUTO 00000KT 10SM BKN110 21/21 A2996 RMK
     AO2=
METAR KSJX 080755Z AUTO 18004KT 10SM SCT120 20/18 A2997 RMK
     AO2=
METAR KLDM 080755Z AUTO 25003KT 10SM BKN090 BKN110 22/21 A3001 RMK
     AO2=
METAR KSAW 080759Z AUTO 28005KT 10SM OVC003 18/17 A2997 RMK
     AO2=
METAR KGOV 080755Z AUTO 00000KT 1 1/4SM BR BKN110 20/20 A3002 RMK
     AO2=
METAR KPZQ 080755Z AUTO 21006KT 7SM CLR 22/22 A2999 RMK AO2=
METAR KHYX 080755Z AUTO 16005KT 10SM CLR 22/20 A3001 RMK AO2=
METAR KPHN 080755Z AUTO 00000KT 3SM BR SCT100 21/20 A3003 RMK
     AO2=
METAR KONZ 080757Z AUTO 00000KT 10SM CLR 26/21 A3002 RMK AO2=
METAR KISQ 080755Z AUTO 19006KT 10SM BKN004 OVC009 19/18 A2996 RMK
     AO2=
METAR KRMY 080755Z AUTO 00000KT 10SM CLR 22/20 A3004 RMK AO2=
METAR KOSC 080754Z AUTO 00000KT 7SM CLR 19/17 A3001 RMK AO2=
METAR KTTF 080753Z AUTO 00000KT 10SM CLR 23/22 A3002 RMK AO2=
METAR KAMN 080755Z AUTO 00000KT 4SM BR CLR 21/21 A3001 RMK AO2=
METAR KMCD 080756Z AUTO 16003KT 10SM BKN110 21/18 A2997 RMK
     AO2=
METAR KERY 080755Z AUTO 00000KT 10SM SCT090 19/19 A2996 RMK
     AO2=
METAR KDVP 080757Z AUTO 27004KT 10SM CLR 15/13 A3017 RMK AO2
     T01460130=
METAR KCDD 080751Z AUTO 00000KT 10SM CLR 14/14 A3003 RMK AO2=
METAR KFOZ 080753Z AUTO 00000KT 1/2SM FG BKN016 13/12 A3005 RMK
     AO2=
METAR KAQP 080753Z AUTO 22003KT 10SM CLR 15/15 A3010 RMK AO2=
METAR KETH 080754Z AUTO 22005KT 10SM CLR 15/14 A3010 RMK AO2=
METAR KXVG 080756Z AUTO 00000KT 7SM CLR 11/11 A3005 RMK AO2=
METAR KORB 080754Z AUTO 00000KT 10SM CLR 14/13 A3001 RMK AO2=
METAR KMZH 080751Z AUTO 00000KT 10SM BKN100 14/13 A3004 RMK
     AO2=
METAR KBFW 080753Z AUTO 00000KT 10SM SCT055 18/15 A2999 RMK
     AO2=
METAR KVWU 080751Z AUTO 00000KT 10SM CLR 14/14 A3001 RMK AO2=
METAR KOWA 080754Z AUTO 29004KT 10SM CLR 18/17 A3007 RMK AO2=
METAR KCDA 080755Z AUTO 00000KT 4SM BR SCT055 20/18 A3008 RMK
     AO2=
####018000398####
SABU31 LBSM 080800
METAR LBSF 080800Z 28006MPS 9999 BKN040 15/10 Q1018 NOSIG=
METAR LBWN 080800Z 29007MPS 250V330 9999 -RA BKN023 19/14 Q1014
 NOSIG=
METAR LBBG 080800Z 25006MPS 9999 -RA FEW048 SCT066 BKN110 17/15
 Q1015 NOSIG=
METAR LBPD 080800Z 26005MPS 240V300 9999 -RA OVC050 16/12 Q1016
 NOSIG=
METAR LBGO 080800Z 23001MPS 9999 -RA FEW017 BKN033 OVC070 16/14
 Q1017 NOSIG=
####018000073####
SARH32 LDZM 080800
METAR LDLO 080800Z NIL=
METAR LDSB 080800Z NIL=
####018000090####
SASN33 ESWI 080750 RRA
METAR ESNK 080750Z AUTO 17009KT 9999NDV FEW063/// 19/14 Q1013=
####018000080####
SAPK31 OPKC 080800 RRA
METAR OPRN 080800Z 23016KT 9999 FEW040 37/20 1007.7=
####018000385####
SATU32 LTAA 080750
METAR LTAN 080750Z 01008KT CAVOK 28/14 Q1012 NOSIG=
METAR LTAU 080750Z VRB02KT 9999 FEW040 27/15 Q1013 NOSIG=
METAR LTBR 080750Z 30009KT 9999 FEW035 SCT100 26/14 Q1012 NOSIG=
METAR LTBU 080750Z 34014KT 9999 SCT030 BKN100 22/11 Q1014=
METAR LTCC 080750Z 08005KT 010V130 CAVOK 36/06 Q1007 NOSIG=
METAR LTCE 080750Z 07011KT 9999 FEW030 26/11 Q1018 NOSIG=
####018000092####
SARM31 LUKK 080800
METAR LUKK 080800Z 33008KT 9999 SCT016 20/15 Q1015 08CLRD65
NOSIG=
####018000084####
SAUK38 EGGY 080750 RRA
METAR EGPU 080750Z 23016KT 9999 VCSH SCT048 14/12 Q1008=
####018000105####
SAUK36 EGGY 080750 RRA
METAR EGVN 080750Z 27004KT 9999 FEW022 SCT120 BKN150 17/11 Q1019
    NOSIG=
####018000130####
SAIV20 DIAP 080800
METAR DIAP 080800Z 00000KT 5000 -RA FEW005 BKN012 BKN080 26/25 Q1015
TEMPO 3000 RA BKN005 BKN012 OVC080=
####018000958####
SATU31 LTAA 080750
METAR LTAC 080750Z 02014KT 360V060 9999 SCT040 25/16 Q1014 NOSIG=
METAR LTAF 080750Z /////KT 5000 2000S HZ SCT035 BKN100 29/21 Q1008 
BECMG TL0850 9999 NSW=
METAR LTAI 080750Z 14005KT 090V180 8000 SCT030 27/22 Q1008 NOSIG=
METAR LTAJ 080750Z 20005KT 200V010 CAVOK 33/13 Q1009 NOSIG=
METAR LTAZ 080750Z VRB04KT CAVOK 28/14 Q1012=
METAR LTBA 080750Z 35022KT 9999 SCT035 24/13 Q1012 NOSIG=
METAR LTBJ 080750Z 01014KT CAVOK 29/12 Q1009 NOSIG=
METAR LTBS 080750Z 22011KT 9999 FEW030 28/22 Q1008 NOSIG=
METAR LTCF 080750Z 02010KT 360V060 CAVOK 26/13 Q1020=
METAR LTCG 080750Z 08006KT 9999 SCT035 SCT100 27/22 Q1011 NOSIG=
METAR LTCI 080750Z 27006KT CAVOK 25/16 Q1017 NOSIG=
METAR LTCS 080750Z 15008KT 090V190 CAVOK 35/09 Q1010=
METAR LTFE 080750Z 28009KT 240V310 CAVOK 31/16 Q1008 NOSIG=
METAR LTFH 080750Z 29012KT 9999 SCT036 BKN100 25/22 Q1011 NOSIG=
METAR LTFJ 080750Z 01015KT 9999 BKN030 23/17 Q1012 NOSIG=
####018000078####
SAZB40 FLLS 080801
METAR FLLS 080800Z 08028KT 9999 BKN020 16/06 Q1029=

####018000075####
SAMY20 FMCZ 080800
METAR FMCZ 080800Z 15015KT 9999 BKN025 26/19 Q1019=
####018000205####
SASQ41 LZIB 080800
METAR LZPP 080800Z 01006KT 320V060 9999 FEW030 20/12
Q1023=
METAR LZSL 080800Z 11004KT 050V210 CAVOK 22/08 Q1021=
METAR LZZI 080800Z 03009KT 280V070 9999 FEW050 20/08
Q1023=
####018000183####
SAJD31 OJAI 080800
METAR OJAI 080800Z 32003KT CAVOK 29/07 Q1012 NOSIG=
METAR OJAM 080800Z 27008KT 5000 HZ NSC 30/07 Q1012 NOSIG=
METAR OJAQ 080800Z 36016KT CAVOK 33/25 Q1008=
####018000442####
SARH31 LDZM 080800
METAR LDSP 080800Z 34005KT 270V080 CAVOK 25/04 Q1020 NOSIG =
METAR LDPL 080800Z 07010KT 050V110 CAVOK 24/09 Q1022 NOSIG =
METAR LDDU 080800Z 01013KT 320V050 9999 FEW040 24/05 Q1019 NOSIG =
METAR LDZA 080800Z VRB01KT CAVOK 23/09 Q1023 NOSIG =
METAR LDZD 080800Z VRB03KT CAVOK 25/06 Q1021 NOSIG =
METAR LDRI 080800Z 26005KT 210V320 CAVOK 23/10 Q1022 NOSIG=
METAR LDOS 080800Z 03004KT CAVOK 22/11 Q1022 NOSIG=
####018000267####
SASQ51 LZIB 080800
METAR LZKC 080800Z 36009KT 320V080 9999 SCT036 20/12
Q1021=
METAR LZLU 080800Z 23002KT 9999 FEW036 21/13 Q1021=
METAR LZNI 080800Z 34011KT 310V050 9999 FEW043 22/09
Q1022=
METAR LZPE 080800Z 34006KT 300V060 9999 FEW036 21/08
Q1022=
####018000205####
SASQ31 LZIB 080800
METAR LZIB 080800Z 04010KT 350V080 CAVOK 23/05 Q1023=
METAR LZKZ 080800Z 01010KT 340V060 9999 FEW043 20/10 Q1021 NOSIG=
METAR LZTT 080800Z VRB02KT 9999 FEW040 18/07 Q1022 NOSIG=
####018000102####
SAFG20 SOCA 080800
METAR SOCA 080800Z 23001KT 9999 FEW011 SCT026 BKN040 25/24 Q1012
RERA NOSIG=
####018000089####
SAHU31 LHBM 080800
METAR LHBP 080800Z 20005KT 130V280 9999 FEW043 21/10 Q1021 NOSIG=
####018001613####
SAZZ40 KAWN 080800 RRJ
METAR KHRT 080755Z AUTO 00000KT 10SM CLR 24/24 A3000 RMK AO2 SLP163
      T02360236 $=
METAR KNBC 080756Z AUTO 25003KT 10SM CLR 24/18 A2998 RMK AO2 SLP151
      T02390183=
METAR KNCA 080756Z AUTO 04003KT 10SM CLR 25/22 A2991 RMK AO2 SLP128
      T02500217=
METAR KNFL 080756Z AUTO 00000KT 10SM CLR 22/01 A2995 RMK AO2 PK WND
      21030/0718 SLP115 T02170006 403560133 TSNO=
METAR KNID 080756Z AUTO 19009KT CLR 27/02 A2983 RMK AO2 SLP073 T02720022
      403830178 TSNO $=
METAR KNLC 080756Z AUTO 33007KT 10SM CLR 19/12 A2982 RMK AO2 SLP096
      T01940117 403560150 TSNO $=
METAR KNRS 080756Z AUTO 30008KT 10SM OVC018 17/13 A2991 RMK AO2 SLP128
      T01720128 401940156 TSNO $=
METAR KNTD 080756Z AUTO 28006KT 10SM OVC013 15/13 A2990 RMK AO2 SLP127
      T01500128 401890144 TSNO PNO VISNO N $=
METAR KNUQ 080756Z AUTO 03005KT 10SM OVC013 16/12 A2993 RMK AO2 SLP138
      T01560122 402220156 TSNO=
METAR KNUW 080756Z 00000KT 10SM CLR 15/11 A2996 RMK AO2 SLP150 T01500111
      402280100 $=
METAR KNXP 080756Z AUTO 28008KT CLR 27/00 A2989 RMK AO2 SLP082 T02670000
      403830194 $=
METAR KNXX 080756Z AUTO 13004KT 6SM HZ CLR 24/19 A3002 RMK AO2 SLP170
      T02390194 $=
METAR KSVN 080755Z 26004KT 10SM SKC 22/20 A2998 RMK SLP155=
METAR MUHA 080755Z 08003KT 8000 SCT020 25/24 Q1014=
METAR MUVR 080752Z 00000KT 8000 FEW018CB FEW020 BKN200 25/23 Q1014=
METAR TAPA 080800Z 07010KT 9999 FEW020 28/23 Q1014=
METAR TFFR 080800Z 10001KT 9999 FEW021 26/24 Q1014 NOSIG=
METAR TXKF 080755Z 17012KT 9999 FEW015 SCT130 BKN300 26/23 Q1017=
####018000151####
SATD31 TTPP 080800
METAR
TTPP 080800Z 00000KT 9999 FEW016 BKN280 26/25 Q1011 NOSIG=
TTCP 080800Z 07004KT 9999 FEW016 SCT280 25/23 Q1012 NOSIG=
####018000124####
SAUS44 KMOB 080801 COR
MTR79J
METAR K79J 080756Z AUTO 00000KT 10SM CLR 25/22 A3002 RMK AO2 SLP160 
T02500222 TSNO $
####018000121####
SAUS44 KMOB 080801 COR
MTRNSE
METAR KNSE 080756Z AUTO 00000KT 4SM BR CLR 23/22 A3002 RMK AO2 
SLP150 T02330217 $
####018000115####
SAUS42 KRAH 080801
MTRNJM
METAR KNJM 080757Z AUTO 36004KT 10SM CLR 26/19 A2991 RMK AO2 SLP130 
T02610189 $
####018000107####
SATU33 LTAA 080750
METAR LCEN 080750Z 28003KT 9999 FEW025 31/16 Q1008 NOSIG=
METAR LCGK 080750Z NIL=
####018000115####
SARA31 UHHH 080800
METAR 080800Z
METAR METAR UHHH 080800Z 03005MPS 9999 BKN030CB OVC100 18/14 Q1010
NOSIG=
####018000908####
SAHK31 VHHH 080800
METAR VHHH 080800Z 20014KT 9999 FEW020 SCT030 34/24 Q1006 NOSIG=
METAR RCTP 080730Z 25018KT 9999 FEW025 SCT150 32/26 Q1007
NOSIG=
METAR RCKH 080800Z 25013KT 200V280 9999 FEW013 BKN120 32/26
Q1008 NOSIG RMK 29013KT/RWY09=
METAR RCSS 080800Z 32008KT 280V010 9999 FEW020 BKN035 BKN080 32/24
Q1006 NOSIG=
METAR VMMC 080800Z 19013G23KT 180V260 9999 FEW015 SCT030 BKN090
     31/27 Q1006 NOSIG=
METAR RPLL 080800Z 11007KT 9999 SCT025 BKN300 33/26 Q1007 NOSIG
           RMK A2974=
METAR RPVM 080800Z 06006KT 9999 FEW020 BKN090 OVC250 32/27 Q1008
           A2977=
METAR RPMD 080800Z
18005KT 9999 FEW015CB SCT290 31/26 1007 CB NE/SW=
METAR RPLB 080800 22009KT 9999 FEW020 SCT080 BKN300 32/24 Q1008=
METAR RPLI 080800Z
27008KT 9999 SCT019CB SCT100 31/27 Q1007 RETS=
METAR RPMZ 080800Z 16004KT 9999 SCT018CB BKN120 32/26 Q1009
           CB N, W, S, OVHD=
####018000089####
SATG20 DXXX 080800
METAR DXXX 080800Z 25005KT 210V300 8000 FEW010 26/24 Q1015 NOSIG=
####018000122####
SAGW20 GGOV 080800
METAR GGOV 080800Z 20003KT 160V240 9999 FEW009 BKN014TCU FEW020CB
           27/25 Q1012  NOSIG=
####018000081####
SAMT20 GQNN 080800
METAR GQNN 080800Z 19006KT 6000 FEW010 27/23 Q1011 NOSIG=
####018000078####
SAZB40 FLLS 080800
METAR FLLS 080800Z 08028KT 9999 BKN020 16/06 Q1029=

####018000075####
SACN50 CWAO 080745
VOY SA 0745 AUTO8 M M M M/13/07/0000/M/M M 12MM=

####018000709####
SAUS99 KWBC 080802
METAR
KBWD 080755Z AUTO 00000KT 9SM FEW016 SCT044 23/23 A3000 RMK
     AO2=
KDMA 080755Z AUTO 07003KT 10SM FEW180 30/08 A2986 RMK AO2 CLDS LWR
     RWY30 SLP035 T02950081 $=
KFAF 080755Z 14005KT 8SM -RA SCT065 BKN080 26/26 A2994 RMK AO2A
     RAB0754 SLP141 P0000 T02610261=
KNBG 080755Z AUTO 00000KT 7SM CLR 24/23 A3000 RMK AO2 SLP158
     T02440233 PWINO $=
KNCA 080756Z AUTO 04003KT 10SM CLR 25/22 A2991 RMK AO2 SLP128
     T02500217=
KNMM 080756Z AUTO 28003KT 10SM CLR 23/21 A3004 RMK AO2 SLP177
     T02280211 $=
KNXX 080756Z AUTO 13004KT 6SM HZ CLR 24/19 A3002 RMK AO2 SLP170
     T02390194 $=
KO22 080755Z AUTO 00000KT 10SM CLR 17/11 A2991 RMK AO1=
####018000074####
SABZ23 SBVT 080800
METAR SBVT 080800Z 28002KT 9999 FEW020 17/16 Q1020=
####018000068####
SABZ23 SBCF 080800
METAR SBCF 080800Z 18001KT CAVOK 10/08 Q1022=
####018000068####
SABZ20 SBBE 080800
METAR SBBE 080800Z 11005KT CAVOK 25/22 Q1012=
####018000068####
SABZ22 SBGO 080800
METAR SBGO 080800Z 10004KT CAVOK 15/09 Q1020=
####018000081####
SABZ21 SBMO 080800
METAR SBMO 080800Z 00000KT 9999 SCT020 BKN100 21/21 Q1016=
####018000068####
SABZ24 SBCT 080800
METAR SBCT 080800Z 06001KT CAVOK 11/10 Q1020=
####018000068####
SABZ24 SBFL 080800
METAR SBFL 080800Z 20003KT CAVOK 19/18 Q1014=
####018000082####
SABZ21 SBJP 080800
METAR SBJP 080800Z 23005KT 9999 FEW020 BKN070 22/21 Q1014 =
####018000081####
SABZ21 SBTE 080800
METAR SBTE 080800Z 27001KT 9999 FEW020 BKN100 25/24 Q1013=
####018000068####
SABZ19 SBSN 080800
METAR SBSN 080800Z 00000KT CAVOK 24/22 Q1011=
####018000100####
SAFJ31 NFFN 080800
METAR NFFN 080800Z 12004KT 40KM SCT028 SCT048 23/19 Q1013 NOSIG RMK
RR NIL=
####018000081####
SABZ20 SBCZ 080800
METAR SBCZ 080800Z 00000KT 8000 FEW003 SCT020 23/23 Q1011=
####018000152####
SAPQ50 KWBC 080800 RRA
METAR
PTYA 080754Z 07010KT 12SM FEW016 SCT030 BKN130 OVC300 26/23 A2980
     RMK SHRAB10E25 CB VC NE-E SLP093 T02610225=
####018000140####
SAKA31 PTYA 080800
METAR PTYA 080754Z 07010KT 12SM FEW016 SCT030 BKN130 OVC300 26/23
A2980 RMK SHRAB10E25 CB VC NE-E SLP093 T02610225=
####018002301####
SAXX60 KWBC 080800 RRC
METAR
PASY 080756Z AUTO 03019KT 10SM BKN006 OVC017 A2973 RMK AO2 SLPNO
     TSNO PNO=
PMDY 080756Z AUTO 00000KT 10SM CLR 26/20 A3011 RMK AO2 TSNO
     T02550200 SLP505=
KNTU 080756Z 11004KT 8SM CLR 25/24 A2994 RMK AO2 SLP142 T02500239
     CHINO RWY 05R $=
KNGU 080759Z 10003KT 5SM BR FEW080 BKN130 26/24 A2996 RMK AO2
     SLP146 T02610239=
PHBK 080756Z AUTO 14004KT 10SM OVC060 26/18 A3002 RMK AO2 SLP168
     T02560183 TSNO $=
KDMA 080755Z AUTO 07003KT 10SM FEW180 30/08 A2986 RMK AO2 CLDS LWR
     RWY30 SLP035 T02950081 $=
KFAF 080755Z 14005KT 8SM -RA SCT065 BKN080 26/26 A2994 RMK AO2A
     RAB0754 SLP141 P0000 T02610261=
KNBG 080755Z AUTO 00000KT 7SM CLR 24/23 A3000 RMK AO2 SLP158
     T02440233 PWINO $=
KNCA 080756Z AUTO 04003KT 10SM CLR 25/22 A2991 RMK AO2 SLP128
     T02500217=
KNMM 080756Z AUTO 28003KT 10SM CLR 23/21 A3004 RMK AO2 SLP177
     T02280211 $=
KNXX 080756Z AUTO 13004KT 6SM HZ CLR 24/19 A3002 RMK AO2 SLP170
     T02390194 $=
KHRT 080755Z AUTO 00000KT 10SM CLR 24/24 A3000 RMK AO2 SLP163
     T02360236 $=
KNBC 080756Z AUTO 25003KT 10SM CLR 24/18 A2998 RMK AO2 SLP151
     T02390183=
KNCA 080756Z AUTO 04003KT 10SM CLR 25/22 A2991 RMK AO2 SLP128
     T02500217=
KNFL 080756Z AUTO 00000KT 10SM CLR 22/01 A2995 RMK AO2 PK WND
     21030/0718 SLP115 T02170006 403560133 TSNO=
KNID 080756Z AUTO 19009KT CLR 27/02 A2983 RMK AO2 SLP073 T02720022
     403830178 TSNO $=
KNLC 080756Z AUTO 33007KT 10SM CLR 19/12 A2982 RMK AO2 SLP096
     T01940117 403560150 TSNO $=
KNRS 080756Z AUTO 30008KT 10SM OVC018 17/13 A2991 RMK AO2 SLP128
     T01720128 401940156 TSNO $=
KNTD 080756Z AUTO 28006KT 10SM OVC013 15/13 A2990 RMK AO2 SLP127
     T01500128 401890144 TSNO PNO VISNO N $=
KNUQ 080756Z AUTO 03005KT 10SM OVC013 16/12 A2993 RMK AO2 SLP138
     T01560122 402220156 TSNO=
KNUW 080756Z 00000KT 10SM CLR 15/11 A2996 RMK AO2 SLP150 T01500111
     402280100 $=
KNXP 080756Z AUTO 28008KT CLR 27/00 A2989 RMK AO2 SLP082 T02670000
     403830194 $=
KNXX 080756Z AUTO 13004KT 6SM HZ CLR 24/19 A3002 RMK AO2 SLP170
     T02390194 $=
KSVN 080755Z 26004KT 10SM SKC 22/20 A2998 RMK SLP155=
KNJM 080757Z AUTO 36004KT 10SM CLR 26/19 A2991 RMK AO2 SLP130
     T02610189 $=
####018000536####
SAUS80 KWBC 080800 RRA
METAR
PHNY 080756Z AUTO 10006KT 10SM FEW038 22/16 A3009 RMK AO2 TSNO
     T02160155 PK WND 05027/0705 SLP168 $=
KBTR 080753Z 00000KT 9SM FEW013 SCT200 24/23 A3000 RMK AO2 SLP157
     T02390228 $=
KDAB 080753Z 00000KT 10SM CLR 21/19 A2999 RMK AO2 SLP154 T02060194
     $=
KFSD 080756Z 00000KT 10SM CLR 17/14 A3015 RMK AO2 SLP207 BKN ABV
     120 T01670144=
KROA 080754Z 25003KT 7SM OVC080 26/19 A3007 RMK AO2 SLP166
     T02560189=
KVTI 080755Z AUTO 00000KT 10SM CLR 21/21 A3003 RMK AO2=
####018000223####
SAUS70 KWBC 080800 CCA
METAR
KRIL 080753Z AUTO 08008KT 10SM FEW110 16/09 A3026 RMK AO2 RAE0658
     SLP169 P0000 T01610089 TSNO=
KNSE 080756Z AUTO 00000KT 4SM BR CLR 23/22 A3002 RMK AO2 SLP150
     T02330217 $=
####018000343####
SPUS70 KWBC 080802
SPECI
PATO 080758Z AUTO 14008G24KT 090V180 2 1/2SM RA BR FEW021 BKN028
     OVC034 12/11 A3001 RMK AO2 P0002 T01170106 TSNO=
KLWC 080759Z AUTO 32005KT 10SM FEW020 BKN100 OVC110 22/21 A3007
     RMK AO2 LTG DSNT NE=
KUIN 080759Z AUTO 21004KT 2 1/2SM RA BR FEW016 BKN038 OVC046 23/22
     A3004 RMK AO2 P0002=
####018000406####
SAAW31 KWBC 080730 RRB
METAR
LTAC 080750Z 02014KT 360V060 9999 SCT040 25/16 Q1014 NOSIG=
LTAF 080750Z /////KT 5000 2000S HZ SCT035 BKN100 29/21 Q1008 BECMG
     TL0850 9999 NSW=
LTAI 080750Z 14005KT 090V180 8000 SCT030 27/22 Q1008 NOSIG=
LTBA 080750Z 35022KT 9999 SCT035 24/13 Q1012 NOSIG=
LTBJ 080750Z 01014KT CAVOK 29/12 Q1009 NOSIG=
LTBS 080750Z 22011KT 9999 FEW030 28/22 Q1008 NOSIG=
####018000466####
SAAW41 KWBC 080750 RRD
METAR
LTAJ 080750Z 20005KT 200V010 CAVOK 33/13 Q1009 NOSIG=
LTAN 080750Z 01008KT CAVOK 28/14 Q1012 NOSIG=
LTAU 080750Z VRB02KT 9999 FEW040 27/15 Q1013 NOSIG=
LTCC 080750Z 08005KT 010V130 CAVOK 36/06 Q1007 NOSIG=
LTCE 080750Z 07011KT 9999 FEW030 26/11 Q1018 NOSIG=
LTCG 080750Z 08006KT 9999 SCT035 SCT100 27/22 Q1011 NOSIG=
LTCI 080750Z 27006KT CAVOK 25/16 Q1017 NOSIG=
LTFE 080750Z 28009KT 240V310 CAVOK 31/16 Q1008 NOSIG=
####018000069####
SABZ24 SBLO 080800
METAR SBLO 080800Z 00000KT CAVOK 17/13 Q1018 =
####018000081####
SABZ20 SBMN 080800
METAR SBMN 080800Z 03005KT 9999 FEW010 BKN100 26/24 Q1011=
####018000122####
SAXX60 KWBC 080800 CCB
METAR
K79J 080756Z AUTO 00000KT 10SM CLR 25/22 A3002 RMK AO2 SLP160
     T02500222 TSNO $=
####018003734####
SAXX60 KWBC 080800 RRB
METAR
KEUF 080758Z AUTO 00000KT 10SM CLR 21/19 A3002 RMK AO2 SLP159
     T02110189 PNO $=
KRYT 080753Z AUTO 00000KT 6SM HZ CLR 23/17 A3003 RMK AO2 SLP149
     T02280172 $=
KADW 080755Z AUTO 08005KT 10SM CLR 26/23 A2998 RMK AO2 SLP152
     T02580230 $=
KCVS 080755Z 02007KT 10SM SCT060 BKN200 18/15 A3020 RMK AO2A
     SLP186 T01760150 $=
KDMA 080755Z AUTO 07003KT 10SM FEW180 30/08 A2986 RMK AO2 CLDS LWR
     RWY30 SLP035 T02950081 $=
KFAF 080755Z 14005KT 8SM -RA SCT065 BKN080 26/26 A2994 RMK AO2A
     RAB0754 SLP141 P0000 T02610261=
KFCS 080755Z AUTO 23006KT 10SM OVC055 14/11 A3039 RMK AO2 SLP219
     T01370111=
KFFO 080757Z 00000KT 8SM CLR 22/20 A3007 RMK AO2A SLP177=
KFRI 080755Z AUTO 02004KT 10SM SCT100 BKN150 22/21 A3009 RMK AO2
     SLP177 T02160213=
KHLR 080756Z AUTO 10005KT 10SM BKN017 26/ A2998 RMK AO2 SLP143
     T0256 $=
KHOP 080755Z AUTO 00000KT 10SM CLR 23/22 A3006 RMK AO2 SLP174
     T02320224=
KNBC 080756Z AUTO 25003KT 10SM CLR 24/18 A2998 RMK AO2 SLP151
     T02390183=
KNBG 080755Z AUTO 00000KT 7SM CLR 24/23 A3000 RMK AO2 SLP158
     T02440233 PWINO $=
KNCA 080756Z AUTO 04003KT 10SM CLR 25/22 A2991 RMK AO2 SLP128
     T02500217=
KNJK 080756Z AUTO 34003KT 10SM CLR 27/09 A2967 RMK AO2 SLP063
     T02670094 404110206 TSNO=
KNFL 080756Z AUTO 00000KT 10SM CLR 22/01 A2995 RMK AO2 PK WND
     21030/0718 SLP115 T02170006 403560133 TSNO=
KNGP 080756Z AUTO 09009KT 10SM SCT036 BKN046 29/26 A2981 RMK AO2
     RAB18E32 SLP095 P0000 T02890261 $=
KNID 080756Z AUTO 19009KT CLR 27/02 A2983 RMK AO2 SLP073 T02720022
     403830178 TSNO $=
KNKX 080755Z 33004KT 10SM OVC014 16/14 A2991 RMK AO2 SLP123
     T01610139 401890150=
KNLC 080756Z AUTO 33007KT 10SM CLR 19/12 A2982 RMK AO2 SLP096
     T01940117 403560150 TSNO $=
KNMM 080756Z AUTO 28003KT 10SM CLR 23/21 A3004 RMK AO2 SLP177
     T02280211 $=
KNQI 080756Z AUTO 35004KT 9SM FEW021 27/25 A2983 RMK AO2 SLP097
     T02720250 $=
KNTD 080756Z AUTO 28006KT 10SM OVC013 15/13 A2990 RMK AO2 SLP127
     T01500128 401890144 TSNO PNO VISNO N $=
KNTU 080756Z 11004KT 8SM CLR 25/24 A2994 RMK AO2 SLP142 T02500239
     CHINO RWY 05R $=
KNUW 080756Z 00000KT 10SM CLR 15/11 A2996 RMK AO2 SLP150 T01500111
     402280100 $=
KNXX 080756Z AUTO 13004KT 6SM HZ CLR 24/19 A3002 RMK AO2 SLP170
     T02390194 $=
KNYL 080755Z 00000KT 10SM CLR 29/02 A2971 RMK AO2 SLP056
     T02890022=
KPOE 080755Z AUTO 12005KT 10SM CLR 24/23 A3000 RMK AO2 SLP158
     T02440228=
KVBG 080755Z AUTO 00000KT 10SM CLR 13/11 A2993 RMK AO2 CIG 008
     RWY12 SLP126 T01280111 TSNO $=
KDMA 080755Z AUTO 07003KT 10SM FEW180 30/08 A2986 RMK AO2 CLDS LWR
     RWY30 SLP035 T02950081 $=
KFFO 080757Z 00000KT 8SM CLR 22/20 A3007 RMK AO2A SLP177=
KHOP 080755Z AUTO 00000KT 10SM CLR 23/22 A3006 RMK AO2 SLP174
     T02320224=
KNBG 080755Z AUTO 00000KT 7SM CLR 24/23 A3000 RMK AO2 SLP158
     T02440233 PWINO $=
KNGP 080756Z AUTO 09009KT 10SM SCT036 BKN046 29/26 A2981 RMK AO2
     RAB18E32 SLP095 P0000 T02890261 $=
KNJK 080756Z AUTO 34003KT 10SM CLR 27/09 A2967 RMK AO2 SLP063
     T02670094 404110206 TSNO=
KNKX 080755Z 33004KT 10SM OVC014 16/14 A2991 RMK AO2 SLP123
     T01610139 401890150=
KNMM 080756Z AUTO 28003KT 10SM CLR 23/21 A3004 RMK AO2 SLP177
     T02280211 $=
KNQI 080756Z AUTO 35004KT 9SM FEW021 27/25 A2983 RMK AO2 SLP097
     T02720250 $=
KNTU 080756Z 11004KT 8SM CLR 25/24 A2994 RMK AO2 SLP142 T02500239
     CHINO RWY 05R $=
KPOE 080755Z AUTO 12005KT 10SM CLR 24/23 A3000 RMK AO2 SLP158
     T02440228=
KVBG 080755Z AUTO 00000KT 10SM CLR 13/11 A2993 RMK AO2 CIG 008
     RWY12 SLP126 T01280111 TSNO $=
####018000110####
SPXX60 KWBC 080802
SPECI
KFAF 080754Z 14005KT 9SM RA BKN080 26/26 A2995 RMK AO2A RAB0754
     SLP142=
####018000118####
SAUS70 KWBC 080802
METAR
PADM 080801Z AUTO 05005KT 10SM CLR 10/09 A3007 RMK AO2 TSNO
     T01000088 SLP172 $=
####018000080####
SAZA42 FAJS 080800
METAR FAJS 080800Z 08012KT 9000 SCT006 10/09 Q1037 NOSIG=
####018000555####
SAGR31 LGAT 080750
METAR LGAD 080750Z 32012KT 9999 FEW020 27/19 Q1013=
METAR LGAV 080750Z 03017KT 9999 FEW020 SCT030 27/13 Q1012 NOSIG=
METAR LGIR 080750Z 04004KT CAVOK 29/19 Q1010 NOSIG=
METAR LGKL 080750Z 33007KT 9999 FEW030 30/15 Q1011=
METAR LGKO 080750Z 31016KT CAVOK 28/17 Q1009=
METAR LGKR 080750Z 30016KT CAVOK 27/12 Q1012 NOSIG=
METAR LGLM 080750Z NIL=
METAR LGRP 080750Z 24015KT CAVOK 29/20 Q1007 NOSIG=
METAR LGSA 080750Z 29008KT CAVOK 31/16 Q1011=
METAR LGSM 080750Z NIL=
METAR LGTS 080750Z 33021KT 9999 FEW025 22/12 Q1016 NOSIG=
####018000287####
SAUS80 KWBC 080800 CCB
METAR
KFLG 080756Z AUTO 00000KT 10SM FEW080 15/01 A3025 RMK AO2 SLP129
     T01500011 TSNO=
KALK 080756Z AUTO 09008KT 10SM FEW110 24/08 A3007 RMK AO2 SLP077
     T02390078=
KRIC 080754Z 00000KT 7SM FEW120 26/20 A2997 RMK AO2 SLP150
     T02610200=
####018000292####
SAAW34 KWBC 080745 RRD
METAR
OPGD 080800Z NIL=
OPLA 080755Z 12007KT 6000 SCT040 38/23 Q1005 NOSIG=
OPNH 080800Z NIL=
OPPS 080800Z NIL=
OPRN 080800Z 23016KT 9999 FEW040 37/20 1007.7=
OPRN 080800Z NIL=
UTTT 080800Z 27003MPS 180V350 CAVOK 38/09 Q1011 R08R/CLRD70
     NOSIG=
####018000268####
SAZA42 FAJS 080800
METAR FAVV 080800Z AUTO 06005KT //// // ////// 10/07 Q1034=
METAR FAJB 080800Z AUTO 07005KT //// // ////// 13/06 Q1035=
METAR FASI 080800Z AUTO 09006KT //// // ////// 12/05 Q1035=
METAR FAGC 080800Z AUTO 07011KT //// // ////// 11/06 Q1036=
####018002959####
SAUS70 KWBC 080800 RRD
METAR
KFMH 080755Z AUTO 16005KT 3SM BR OVC003 21/21 A3007 RMK AO2=
KIWA 080756Z AUTO 35004KT 10SM CLR 31/03 A2979 RMK AO2=
PPIZ 080756Z AUTO 20012KT 10SM CLR 06/02 A3010 RMK AO2 TSNO
     T00610022 SLP197 $=
KSGH 080756Z AUTO 00000KT 5SM BR CLR 21/21 A3010 RMK AO2 T02050205
     SLP181=
PADU 080758Z AUTO 13008KT 10SM -RA BKN021 OVC038 09/06 A2986 RMK
     AO2 RAB0659 SLP115 P0000 T00890061=
PAGA 080758Z AUTO 01003KT 10SM CLR 19/07 A3006 RMK AO2 SLP223
     T01890067=
PAJZ 080756Z AUTO 00000KT 10SM OVC070 11/09 A3001 RMK AO2 PWINO
     TSNO T01050094 SLP153 $=
PAKI 080756Z AUTO 36006KT 10SM CLR 09/09 A3002 RMK AO2 PWINO TSNO
     T00940094 SLP167 $=
PALG 080756Z AUTO 00000KT 10SM FEW037 BKN070 BKN085 12/11 A3001
     RMK AO2 TSNO T01220105 SLP164=
PARY 080756Z AUTO 31003KT 10SM CLR 18/07 A3006 RMK AO2 PWINO TSNO
     T01770066 SLP182=
KAWG 080755Z AUTO 29003KT 5SM SCT003 22/20 A3003 RMK AO2=
KAXA 080755Z AUTO 32005KT 10SM CLR 18/17 A3010 RMK AO2=
KBNW 080755Z AUTO 36007KT 10SM CLR 21/18 A3008 RMK AO2=
KCAV 080755Z AUTO 33003KT 10SM BKN027 21/19 A3009 RMK AO2=
KCBF 080755Z AUTO 35007KT 10SM CLR 20/16 A3011 RMK AO2=
KCCY 080755Z AUTO 29004KT 7SM BKN030 20/18 A3007 RMK AO2=
KCIN 080755Z AUTO 33004KT 7SM CLR 20/17 A3012 RMK AO2=
KCNC 080755Z AUTO 00000KT 10SM SCT025 21/18 A3006 RMK AO2=
KCSQ 080755Z AUTO 00000KT 10SM CLR 21/20 A3008 RMK AO2=
KDEH 080755Z AUTO 29003KT 10SM CLR 21/18 A3007 RMK AO2=
KDNS 080755Z AUTO 00000KT 7SM OVC027 21/17 A3015 RMK AO2=
KEOK 080755Z AUTO 00000KT 10SM SCT065 22/19 A3002 RMK AO2=
KFFL 080755Z AUTO 27004KT 3/4SM OVC002 22/21 A3003 RMK AO2=
KFSW 080755Z AUTO 00000KT 7SM CLR 23/21 A3002 RMK AO2=
KFXY 080755Z AUTO 33006KT 10SM CLR 18/17 A3009 RMK AO2=
KGGI 080755Z AUTO 00000KT 10SM CLR 22/20 A3006 RMK AO2=
KHNR 080755Z AUTO 35005KT 5SM CLR 18/18 A3014 RMK AO2=
KICL 080755Z AUTO 00000KT 10SM CLR 22/19 A3007 RMK AO2=
KIFA 080755Z AUTO 31003KT 10SM SCT075 SCT110 20/20 A3008 RMK
     AO2=
KIIB 080755Z AUTO 26003KT 2 1/2SM BKN002 20/19 A3003 RMK AO1=
KIKV 080755Z AUTO 35006KT 10SM CLR 21/20 A3007 RMK AO2=
KLRJ 080755Z AUTO 00000KT 7SM CLR 16/15 A3014 RMK AO2=
KMPZ 080755Z AUTO 25003KT 7SM CLR 22/21 A3002 RMK AO2=
KMUT 080755Z AUTO 31003KT 3 1/2SM BKN007 23/22 A3001 RMK AO2=
KMXO 080755Z AUTO 29004KT 3 1/2SM CLR 21/19 A3002 RMK AO2=
KORC 080755Z AUTO 00000KT 10SM CLR 17/17 A3015 RMK AO2=
KOXV 080755Z AUTO 00000KT 7SM CLR 21/20 A3006 RMK AO2=
KPEA 080755Z AUTO 35003KT 5SM SCT001 SCT005 22/22 A3006 RMK
     AO2=
KRDK 080755Z AUTO 36005KT 7SM CLR 21/18 A3009 RMK AO2=
KSDA 080755Z AUTO 36004KT 7SM CLR 21/19 A3009 RMK AO2=
KSHL 080755Z AUTO 00000KT 3 1/2SM CLR 16/15 A3016 RMK AO2=
KTNU 080755Z AUTO 36004KT 10SM CLR 22/20 A3006 RMK AO2=
KBWD 080755Z AUTO 00000KT 9SM FEW016 SCT044 23/23 A3000 RMK
     AO2=
KO22 080755Z AUTO 00000KT 10SM CLR 17/11 A2991 RMK AO1=
####018000289####
SANL31 EHDB 080755
METAR EHAM 080755Z 24007KT 210V300 CAVOK 22/15 Q1019 NOSIG=
METAR EHBK 080755Z AUTO 20006KT 160V250 9999NDV NCD 25/12 Q1019
NOSIG=
METAR EHGG 080755Z AUTO 23007KT 190V270 9999NDV NCD 25/13 Q1018
NOSIG=
METAR EHRD 080755Z 26006KT 210V290 CAVOK 23/15 Q1019 NOSIG=
####018000198####
SASW39 LSSW 080750 RRA
METAR LSMA 080750Z 02003KT 340V080 CAVOK 21/14 Q1022 RMK BLU=
METAR LSMD 080750Z VRB01KT CAVOK 21/13 Q1022 RMK BLU=
METAR LSME 080750Z VRB02KT CAVOK 21/13 Q1022 RMK BLU=
####018000091####
SAGR41 KWBC 080750 RRB
METAR
LGRX 080750Z 27007KT 9999 FEW025 28/20 Q1012 NOSIG BLU=
####018000096####
SAIY43 KWBC 080650 RRF
METAR
LIVE 080655Z 18002KT CAVOK 13/09 Q1025 RMK SKC VIS MIN 9999=
####018000085####
SAGR31 KWBC 080750 RRB
METAR
LGSR 080750Z 35014KT CAVOK 29/15 Q1010 NOSIG BLU=
####018000087####
SAMM31 KWBC 080730 RRC
METAR
LCEN 080750Z 28003KT 9999 FEW025 31/16 Q1008 NOSIG=
####018000112####
SAMX31 KWBC 080745 RRC
METAR
MMGL 080753Z 00000KT 7SM RA OVC080 19/17 A3003 RMK 6//// 8/07/
     RAB45=
####018000123####
SAMX42 KWBC 080745 RRB
METAR
MMSP 080747Z 00000KT 10SM SCT010 BKN020 BKN080 17/17 A3014 RMK
     8/530 MSGTX MMZC=
####018000176####
SAMX41 KWBC 080745 RRB
METAR
MMGL 080753Z 00000KT 7SM RA OVC080 19/17 A3003 RMK 6//// 8/07/
     RAB45=
MMMM 080745Z 00000KT 4SM BKN015 OVC070 17/16 A3008 RMK 8/46/=
####018000085####
SANO42 KWBC 080750 RRA
METAR
ENSN 080750Z 12004KT 6000 -RA BKN008 15/14 Q1015=
####018000086####
SAUK42 KWBC 080750 RRC
METAR
EGPU 080750Z 23016KT 9999 VCSH SCT048 14/12 Q1008=
####018000921####
SAUK39 EGRR 080750 RRA
METAR EGDX 080750Z 23003KT 9999 FEW017 SCT021 BKN100 17/12 Q1019
WHT=
METAR EGDY 080750Z 26001KT 9999 FEW010 BKN130 18/15 Q1018 BLU NOSIG=
METAR EGOM 080750Z 23011KT 9999 BKN012 SCT060 13/10 Q1014 GRN=
METAR EGOP 080750Z 24007KT 9999 FEW018 BKN090 17/14 Q1018 BLU=
METAR EGOV 080750Z 21013KT 9999 FEW012 SCT060 BKN220 15/12 Q1016 BLU
 NOSIG=
METAR EGVN 080750Z 27004KT 9999 FEW022 SCT120 BKN150 17/11 Q1019 BLU
 NOSIG=
METAR EGVO 080750Z 23006KT 5000 -RADZ FEW003 OVC004 17/16 Q1019 YLO2
 BECMG BKN012 GRN=
METAR EGWC 080750Z 22008KT 9999 FEW020 BKN090 15/10 Q1018 BLU=
METAR EGXG 080750Z 22007KT CAVOK 17/10 Q1016 BLU=
METAR EGXT 080750Z 24009KT CAVOK 16/10 Q1018 BLU NOSIG=
METAR EGXW 080750Z 25009KT 9999 -RA FEW020 BKN120 16/10 Q1017 BLU
 NOSIG=
METAR EGXX 080750Z AUTO 22009KT 9999NDV // NCD ///// Q////=
METAR EGXZ 080750Z 19004KT CAVOK 16/11 Q1016 BLU=
####018000115####
SASR31 WSSS 080800
METAR WSSS 080800Z 19004KT 160V260 9999 FEW017 FEW020TCU SCT150
BKN270 30/25 Q1009 NOSIG=
####018000114####
SAXX99 KWBC 080700 RRX
METAR
MMLO 080745Z 04004KT 6SM -DZ BKN025 OVC070 18/18 A3012 RMK 60095
     8/77/=
####018000127####
SAUS41 KPHI 080801
MTRNEL
METAR KNEL 080800Z AUTO 00000KT 3SM BR FEW080 BKN110 22/20 A3001 RMK 
AO2 SLP159 T02220200 $
####018000123####
SAUS46 KLOX 080801
MTRNFG
METAR KNFG 080756Z 00000KT 5SM BR OVC015 16/13 A2991 RMK AO2 SLP127 
T01610133 401830144
####018000127####
SAUS43 KAPX 080801
MTRHTL
SPECI KHTL 080800Z AUTO 26004KT 10SM FEW010 BKN060 OVC100 24/22 
A3004 RMK AO2 RAE0758 P0000
####018000088####
SASR31 WSAP 080800
METAR WSAP 080800Z 08002KT 9999 
FEW018TCU BKN150 31/25 Q1008=
####018000107####
SPUS53 KWBC 080802
SPECI
KUIN 080759Z AUTO 21004KT 2 1/2SM RA BR FEW016 BKN038 OVC046 23/22
A3004=
####018000094####
SAUZ31 UTTW 080700 CCA
METAR UTSA 080800Z 01007MPS 9999 NSC 39/05 Q1009 R88/CLRD70 NOSIG=
####018000269####
SAUS20 KNKA 080801
SPECI KLEB 080800Z AUTO 00000KT 1 3/4SM BR CLR 22/21 A3004 RMK AO2=
SPECI KRVS 080800Z 00000KT 2SM +TSRA BR FEW005 BKN019 OVC028 23/23 
    A3002 RMK AO2 LTG DSNT SW P0006=
SPECI KZZV 080800Z AUTO 00000KT 4SM BR BKN065 20/19 A3008 RMK AO2=
####018000107####
SPUS73 KWBC 080802
SPECI
KUIN 080759Z AUTO 21004KT 2 1/2SM RA BR FEW016 BKN038 OVC046 23/22
A3004=
####018000095####
SPAU31 AMMC 080802
SPECI YSNF 080800Z 11010KT 3000 -DZ BR SCT010 BKN017 14/12 Q1017=


####018000078####
SAMZ40 FQMA 080800
METAR FQQL 080800Z 20003KT 9999 FEW020 25/20 Q1026=

####018000080####
SAMZ40 FQMA 080800
METAR
FQLC 080800Z 13010KT 9999 SCT014 15/10 Q1028=

####018000073####
SAAT31 TAPA 080759
METAR TAPA 080800Z 07010KT 9999  FEW020 28/23 Q1014=####018000109####
SASR31 WSSL 080800
METAR WSSL 080800Z 30004KT 260V320 9999 FEW020 BKN260 30/24 Q1008 RMK
0730Z Q1009 =
####018000380####
SATU32 LTAA 080750
METAR LTAN 080750Z 01008KT CAVOK 28/14 Q1012 NOSIG=
METAR LTAU 080750Z VRB02KT 9999 FEW040 27/15 Q1013 NOSIG=
METAR LTBR 080750Z 30009KT 9999 FEW035 SCT100 26/14 Q1012 NOSIG=
METAR LTBU 080750Z 34014KT 9999 SCT030 BKN100 22/11 Q1014=
METAR LTCC 080750Z 08005KT 010V130 CAVOK 36/06 Q1007 NOSIG=
METAR LTCE 080750Z 07011KT 9999 FEW030 26/11 Q1018 NOSIG=
####018000478####
SACN60 CWAO 080700 RRF
PCC SA 0700 AUTO8 M M M M/14/10/1403/M/ M 64MM=
PDU SA 0700 AUTO8 M M M M/12/11/MMMM/M/ M 26MM=
PEB SA 0700 AUTO8 M M M M/12/10/MMMM/M/ M 19MM=
PGI SA 0700 AUTO8 M M M M/12/10/1603/M/ M 31MM=
PHR SA 0700 AUTO8 M M M M/10/08/2401/M/ M 52MM=
PKI SA 0700 AUTO8 M M M M/13/11/MMMM/M/ M 66MM=
PLF SA 0700 AUTO8 M M M M/13/10/MMMM/M/ M 08MM=
PMN SA 0700 AUTO8 M M M M/11/10/MMMM/M/ M 76MM=
PSL SA 0700 AUTO8 M M M M/16/12/MMMM/M/ M 00MM=

####018000078####
SACN91 CWAO 080700 RRF
WHI SA 0700 AUTO8 M M M M/13/10/2109/M/ M 86MM=

####018000078####
SACN93 CWAO 080700 RRG
WOV SA 0700 AUTO8 M M M M/15/10/1404/M/ M 58MM=

####018000084####
SACN92 CWAO 080700 RRF
WLG SA 0700 AUTO8 M M M 170/11/09/3406/M/M 1018 35MM=

####018000106####
SATU33 LTAA 080750
METAR LCEN 080750Z 28003KT 9999 FEW025 31/16 Q1008 NOSIG=
METAR LCGK 080750Z NIL=
####018000183####
SAJD20 OJAM 080800
METAR OJAI 080800Z 32003KT CAVOK 29/07 Q1012 NOSIG=
METAR OJAM 080800Z 27008KT 5000 HZ NSC 30/07 Q1012 NOSIG=
METAR OJAQ 080800Z 36016KT CAVOK 33/25 Q1008=
####018000089####
SPAU31 AMMC 080802
SPECI YSNF 080800Z 11010KT 3000 -DZ BR SCT010 BKN017 14/12 Q1017=
####018000078####
SACN98 CWAO 080700 RRG
XBW SA 0700 AUTO8 M M M M/12/10/2602/M/ M 91MM=

####018000076####
SAAT31 TAPA 080759
METAR TAPA 080800Z 07010KT 9999  FEW020 28/23 Q1014=
####018000083####
SACN95 CWAO 080700 RRE
WTD SA 0700 AUTO8 M M M 116/07/07/3610/M/ 2005 33MM=

####018000957####
SATU31 LTAA 080750
METAR LTAC 080750Z 02014KT 360V060 9999 SCT040 25/16 Q1014 NOSIG=
METAR LTAF 080750Z /////KT 5000 2000S HZ SCT035 BKN100 29/21 Q1008
BECMG TL0850 9999 NSW=
METAR LTAI 080750Z 14005KT 090V180 8000 SCT030 27/22 Q1008 NOSIG=
METAR LTAJ 080750Z 20005KT 200V010 CAVOK 33/13 Q1009 NOSIG=
METAR LTAZ 080750Z VRB04KT CAVOK 28/14 Q1012=
METAR LTBA 080750Z 35022KT 9999 SCT035 24/13 Q1012 NOSIG=
METAR LTBJ 080750Z 01014KT CAVOK 29/12 Q1009 NOSIG=
METAR LTBS 080750Z 22011KT 9999 FEW030 28/22 Q1008 NOSIG=
METAR LTCF 080750Z 02010KT 360V060 CAVOK 26/13 Q1020=
METAR LTCG 080750Z 08006KT 9999 SCT035 SCT100 27/22 Q1011 NOSIG=
METAR LTCI 080750Z 27006KT CAVOK 25/16 Q1017 NOSIG=
METAR LTCS 080750Z 15008KT 090V190 CAVOK 35/09 Q1010=
METAR LTFE 080750Z 28009KT 240V310 CAVOK 31/16 Q1008 NOSIG=
METAR LTFH 080750Z 29012KT 9999 SCT036 BKN100 25/22 Q1011 NOSIG=
METAR LTFJ 080750Z 01015KT 9999 BKN030 23/17 Q1012 NOSIG=
####018000328####
SACN59 CWAO 080700 RRJ
PEA SA 0700 AUTO8 M M M M/12/12/MMMM/M/ M 11MM=
PGE SA 0700 AUTO8 M M M M/13/11/1403/M/ M 32MM=
PSD SA 0700 AUTO8 M M M M/12/10/MMMM/M/ M 49MM=
PSP SA 0700 AUTO8 M M M M/10/09/MMMM/M/ M 41MM=
PTU SA 0700 AUTO8 M M M M/10/09/MMMM/M/ M 27MM=
PWB SA 0700 AUTO8 M M M M/11/09/MMMM/M/ M 00MM=

####018000116####
SAMR20 TFFF 080800
METAR TFFF 080800Z AUTO 06010KT 030V110 9999NDV FEW010///
BKN023/// BKN029/// 28/25 Q1013=
####018000084####
SACN90 CWAO 080700 RRF
WFX SA 0700 AUTO8 M M M 124/11/09/1805/M/M 8004 42MM=

####018000075####
SAMA20 FIMP 080800
METAR FIMP 080800Z 13018KT 9999 SCT016 25/17 Q1023=
####018000398####
SAMC31 GMMC 080800
METAR GMFF 080800Z 33002KT 8000 FEW033 23/20 Q1017 NOSIG=
METAR GMME 080800Z 34003KT 300V080 6000 OVC010 22/19 Q1015 NOSIG=
METAR GMMN 080800Z 04005KT 010V090 6000 SCT010 BKN026 22/19 Q1016
NOSIG=
METAR GMMX 080800Z 24004KT 200V280 6000 FEW026 24/18 Q1016 NOSIG=
METAR GMTT 080800Z 29005KT 260V330 8000  FEW010 SCT016 23/20 Q1016
NOSIG=
METAR GMAD 080800Z NIL=
####018000521####
SAMC32 GMMC 080800
METAR GMFF 080800Z 33002KT 8000 FEW033 23/20 Q1017 NOSIG=
METAR GMFM 080800Z 00000KT 1500 BR SKC 23/19 Q1017=
METAR GMFO 080800Z 23006KT 190V280 9999 FEW030 SCT100 33/14 Q1018
NOSIG=
METAR GMMH 080800Z 02019KT 6000 BKN010 19/17 Q1014=
METAR GMML 080800Z 03015KT 8000 OVC016 19/15 Q1015=
METAR GMMZ 080800Z VRB02KT 6000 FEW040 FEW050TCU SCT100 30/01 Q1023=
METAR GMFK 080800Z NIL=
METAR GMMC 080800Z NIL=
METAR GMMW 080800Z NIL=
METAR GMTA 080800Z NIL=
METAR GMTN 080800Z NIL=
####018000080####
SANC01 NWWL 080800
METAR NWWL 080800Z AUTO 00000KT 9999NDV NCD 18/16 Q1015=
####018000108####
SANC01 NWWU 080800
METAR NWWU 080800Z AUTO 19003KT 9999NDV FEW031/// BKN038///
BKN046/// 21/17 Q1015=
####018000080####
SANC01 NWWM 080800
METAR NWWM 080800Z AUTO 00000KT 9999NDV NCD 20/16 Q1015=
####018000968####
SASA KAWN 080800 RRA
METAR SBCY 080800Z 32004KT CAVOK 21/14 Q1014=
METAR SBEG 080800Z 00000KT 9999 FEW010 SCT100 25/22 Q1011=
METAR SBFI 080800Z 21004KT 9999 FEW020 SCT100 16/13 Q1014=
METAR SBFL 080800Z 20003KT CAVOK 19/18 Q1014=
METAR SBGL 080800Z 00000KT CAVOK 15/13 Q1018=
METAR SBGR 080800Z 07006KT CAVOK 12/11 Q1020=
METAR SBKP 080800Z 08005KT CAVOK 11/08 Q1020=
METAR SBMA 080800Z 25004KT CAVOK ///// Q1012=
METAR SBNT 080800Z 17003KT 9999 SCT020 SCT070 22/21 Q1014=
METAR SBPA 080800Z 19004KT 9999 BKN023 OVC045 17/14 Q1017=
METAR SBPV 080800Z 00000KT CAVOK 24/23 Q1011=
METAR SBRF 080800Z 00000KT 9999 SCT020 BKN070 23/21 Q1015=
METAR SBSP 080800Z 06003KT CAVOK 16/10 Q1020=
METAR SBSV 080800Z 10010KT 9999 SCT017 SCT070 21/20 Q1016=
METAR SOCA 080800Z 23001KT 9999 FEW011 SCT026 BKN040 25/24 Q1012 RERA
      NOSIG=
METAR SULS 080800Z 29009KT 9999 FEW023 08/05 Q1016=
METAR SUMU 080800Z 34004KT CAVOK 04/03 Q1017 NOSIG=
####018000344####
SAXN17 KAWN 080700 RRL
METAR MMAA 080743Z 36004KT 8SM SCT020TCU SCT090 BKN300 27/23 A2978
      RMK 8/232=
METAR MMCL 080741Z 00000KT 10SM SCT030 BKN100 27/23 A2980 RMK 8/520=
METAR MMPR 080743Z 00000KT 12SM SCT025 SCT070 25/23 A2981 RMK 8/430=
METAR MMZC 080744Z 11006KT 8SM BKN020 OVC090 16/12 A3019 RMK 8/76/
      OCNL DROPS=
####018001068####
SAXX70 KAWN 080800 RRF
METAR KQBS 080755Z 33013G23KT 5000 BLDU FEW000 BKN019 46/M01 A2950
      RMK PK WND 33026/43 DU FEW000 BKN019 SLP996
      WND/ALSTG/SLP/QNH ESTMD QNH999=
METAR KQD9 080755Z 14004KT 9999 FEW050 FEW170 33/16 A2995 RMK SLP060
      WND DATA ESTMD ALSTG/SLP ESTMD=
METAR KQGV 080755Z 31026G34KT 8000 BLDU CLR 45/M02 A2959 RMK PK WND
      33036/42 SLP009=
METAR KQL5 080755Z 07006KT 9999 FEW150 38/14 A2970 RMK AO2A SLP010
      WND DATA ESTMD ALSTG/SLP ESTMD=
METAR KQQY 080755Z AUTO RMK AO2 SLPNO $=
METAR KQRY 080755Z AUTO VRB06KT 9999 CLR 30/05 A3016 RMK AO2 SLP073
      T03000051 PWINO $=
METAR KQTO 080755Z 30012KT 9999 CLR 42/04 A2962 RMK SLP026=
METAR KQW3 080755Z AUTO 12007G12KT 9999 CLR 37/15 A2983 RMK AO2 SLP017=
METAR KQA7 080756Z AUTO 27008KT 8000 DU HZ FEW200 40/00 A2997 RMK AO2
      SLP021 T04021001=
METAR KQXF 080756Z AUTO 32009KT 9999 CLR 43/M02 A2962 RMK AO2 SLP019
      T04311024 $=
METAR KQAJ 080758Z 34009KT 9999 CLR 36/00 A2973 RMK SLP054 WND DATA
      ESTMD ALSTG/SLP ESTMD=
####018000136####
SAXX70 KAWN 080700 RRX
METAR KQD9 080655Z VRB04KT 9999 FEW045 FEW170 32/16 A2999 RMK SLP073
      WND DATA ESTMD ALSTG/SLP ESTMD=
####018000206####
SAAK41 KNKA 080802
METAR PAIW 080757Z AUTO 22003KT 10SM CLR 08/06 A3018 RMK AO2 SLP316 
    T00830061=
METAR PAVC 080756Z AUTO 04003KT 10SM 07/06 A2997 RMK AO2 PWINO TSNO 
    T00720061 SLP149 $=
####018000099####
SAAJ31 UBBB 080800
METAR UBBY 080800Z 14006KT 9999 NSC 31/17 Q1016 NOSIG
RMK R33/CLRD70 G/O=
####018000477####
SAER32 OMAE 080800
METAR OMAA 080800Z 16008KT 110V220 CAVOK 41/18 Q1000 A2954 NOSIG=
METAR OMAD 080800Z NIL=
METAR OMAL 080800Z 22005KT 080V350 8000 NSC 40/26 Q1003 A2962=
METAR OMDB 080800Z VRB02KT CAVOK 42/19 Q1000 BECMG 34010KT=
METAR OMDW 080800Z VRB03KT CAVOK 41/19 Q1001 BECMG 34010KT=
METAR OMFJ 080800Z 05009KT 020V120 6000 FEW020 35/26 Q1002 A2960=
METAR OMRK 080800Z 33009KT CAVOK 41/29 Q0999 A2952=
METAR OMSJ 080800Z VRB03KT 6000 NSC 43/19 Q1000=
####018001558####
SAZZ40 KAWN 080800 RRK
METAR BGTL 080755Z AUTO 00000KT M0400 FG VV001 04/04 A2985 RMK AO2
      SLP111 T00420040=
METAR K79J 080756Z AUTO 00000KT 10SM CLR 25/22 A3002 RMK AO2 SLP160
      T02500222 TSNO $=
METAR KHUA 080755Z AUTO RMK AO2 SLPNO $=
METAR KNSE 080756Z AUTO 00000KT 4SM BR CLR 23/22 A3002 RMK AO2 SLP150
      T02330217 $=
METAR KRCA 080755Z 00000KT 7SM CLR 12/09 A3023 RMK AO2A SLP227 T01220087
      $=
METAR KSZL 080755Z 00000KT 10SM BKN035 BKN048 23/22 A3004 RMK AO2A
      RAE0704B0721E0735DZB0704E0738 SLP166 T02330225 $=
METAR MUCM 080750Z 14004KT 9000 FEW020 23/21 Q1014=
METAR MUHG 080750Z 17006KT 140V220 CAVOK 24/21 Q1015=
METAR NTAA 080800Z 09002KT 9999 FEW023 25/22 Q1015 WS ALL RWY NOSIG=
METAR OEDR 080800Z 36012KT 7000 SKC 44/09 Q0999 NOSIG=
METAR OEMA 080800Z 12008KT CAVOK 44/00 Q1007 NOSIG=
METAR OERK 080800Z 02014KT CAVOK 41/00 Q1008 NOSIG=
METAR OERY 080800Z 06012G22KT 5000 DU NSC 42/02 Q1009 NOSIG=
METAR OJAI 080800Z 32003KT CAVOK 29/07 Q1012 NOSIG=
METAR OJAM 080800Z 27008KT 5000 HZ NSC 30/07 Q1012 NOSIG=
METAR OJAQ 080800Z 36016KT CAVOK 33/25 Q1008=
METAR PAGA 080758Z AUTO 01003KT 10SM CLR 19/07 A3006 RMK AO2 SLP223
      T01890067=
METAR PHBK 080756Z AUTO 14004KT 10SM OVC060 26/18 A3002 RMK AO2 SLP168
      T02560183 TSNO $=
METAR TTCP 080800Z 07004KT 9999 FEW016 SCT280 25/23 Q1012 NOSIG=
METAR TTPP 080800Z 00000KT 9999 FEW016 BKN280 26/25 Q1011 NOSIG=
METAR WSSS 080800Z 19004KT 160V260 9999 FEW017 FEW020TCU SCT150 BKN270
      30/25 Q1009 NOSIG=
####018000101####
SABA31 MYNN 080801
METAR MYNN 080800Z 00000KT 9999 FEW015 SCT040 27/27 A2993=


NNNN


####018000106####
SAZS31 NSTU 080800
METAR NSTU 080759Z 08009KT 10SM SCT014 BKN045 28/26 A2988 RMK SLP119 
 T02790262=
####018001721####
SAEU KAWN 080800 RRJ
METAR EBBL 080755Z 20004KT 9999 FEW220 28/11 Q1019 BLU BLU=
METAR EBFN 080755Z 27005KT 9999 FEW042 SCT130 BKN190 21/15 Q1019 BLU
      BLU=
METAR EBFS 080755Z 20008KT 9999 SCT250 24/12 Q1021 BLU BLU=
METAR EGOM 080750Z 23011KT 9999 BKN012 SCT060 13/10 Q1014 GRN=
METAR EGPU 080750Z 23016KT 9999 VCSH SCT048 14/12 Q1008=
METAR ENHK 080750Z 09014KT 9999 FEW035 BKN080 15/08 Q1012=
METAR ENSN 080750Z 12004KT 6000 -RA BKN008 15/14 Q1015=
METAR EPKK 080800Z 35006KT 300V030 CAVOK 20/09 Q1023=
METAR EPRZ 080800Z 32012KT 9999 FEW030 19/10 Q1021=
METAR EPWA 080800Z 28008KT 250V340 CAVOK 18/13 Q1021 NOSIG=
METAR LBBG 080800Z 25006MPS 9999 -RA FEW048 SCT066 BKN110 17/15 Q1015
      NOSIG=
METAR LBGO 080800Z 23001MPS 9999 -RA FEW017 BKN033 OVC070 16/14 Q1017
      NOSIG=
METAR LBPD 080800Z 26005MPS 240V300 9999 -RA OVC050 16/12 Q1016 NOSIG=
METAR LBSF 080800Z 28006MPS 9999 BKN040 15/10 Q1018 NOSIG=
METAR LBWN 080800Z 29007MPS 250V330 9999 -RA BKN023 19/14 Q1014 NOSIG=
METAR LDDU 080800Z 01013KT 320V050 9999 FEW040 24/05 Q1019 NOSIG=
METAR LDPL 080800Z 07010KT 050V110 CAVOK 24/09 Q1022 NOSIG=
METAR LDRI 080800Z 26005KT 210V320 CAVOK 23/10 Q1022 NOSIG=
METAR LDSP 080800Z 34005KT 270V080 CAVOK 25/04 Q1020 NOSIG=
METAR LDZA 080800Z VRB01KT CAVOK 23/09 Q1023 NOSIG=
METAR LDZD 080800Z VRB03KT CAVOK 25/06 Q1021 NOSIG=
METAR LFOW 080800Z 15004KT 120V210 CAVOK 24/14 Q1019=
METAR LHBP 080800Z 20005KT 130V280 9999 FEW043 21/10 Q1021 NOSIG=
METAR LIYW 080755Z AUTO 00000KT 9999 OVC055 23/12 A3021 RMK AO2 SLP226
      T02330125=
METAR LZIB 080800Z 04010KT 350V080 CAVOK 23/05 Q1023=
METAR LZTT 080800Z VRB02KT 9999 FEW040 18/07 Q1022 NOSIG=
####018000069####
SALY31 HLLB 080800
METAR HLLB 080750Z 33018KT CAVOK 29/17 Q1016=
####018000093####
SAUK39 EGRR 080750 RRB
METAR EGXJ 080750Z AUTO 25009KT 9999NDV // BKN080/// 16/10 Q1017=
####018002988####
SAUS20 KNKA 080802
METAR KRIC 080754Z 00000KT 7SM FEW120 26/20 A2997 RMK AO2 SLP150
     T02610200=
METAR KAMN 080755Z AUTO 00000KT 4SM BR CLR 21/21 A3001 RMK AO2=
METAR KAQP 080753Z AUTO 22003KT 10SM CLR 15/15 A3010 RMK AO2=
METAR KASJ 080757Z AUTO 00000KT 5SM HZ CLR 24/21 A2995 RMK AO2=
METAR KBFW 080753Z AUTO 00000KT 10SM SCT055 18/15 A2999 RMK
     AO2=
SPECI KBIV 080801Z AUTO 00000KT 7SM -RA SCT001 SCT024 BKN090 24/22 
    A3003 RMK AO2 P0000=
SPECI KBRL 080801Z AUTO 1/2SM FG VV001 23/22 A3002 RMK AO2 $=
METAR KCDA 080755Z AUTO 00000KT 4SM BR SCT055 20/18 A3008 RMK
     AO2=
METAR KCDD 080751Z AUTO 00000KT 10SM CLR 14/14 A3003 RMK AO2=
METAR KCTZ 080800Z AUTO 00000KT 7SM CLR 23/22 A2992 RMK AO2=
METAR KCVX 080755Z AUTO 00000KT 7SM SCT120 21/20 A2999 RMK AO2=
SPECI KDHT 080801Z AUTO 32007KT 9SM BKN013 BKN025 OVC045 19/16 A3026 
    RMK AO2=
SPECI KDVN 080801Z AUTO 00000KT 2SM BR FEW007 22/21 A3001 RMK AO2=
METAR KDVP 080757Z AUTO 27004KT 10SM CLR 15/13 A3017 RMK AO2
     T01460130=
METAR KEBS 080755Z AUTO 34004KT 10SM SCT026 20/18 A3008 RMK AO2=
METAR KERY 080755Z AUTO 00000KT 10SM SCT090 19/19 A2996 RMK
     AO2=
METAR KETH 080754Z AUTO 22005KT 10SM CLR 15/14 A3010 RMK AO2=
METAR KFKA 080803Z AUTO 31005KT 5SM BR CLR 19/19 A3006 RMK AO2
     T01920186=
METAR KFKS 080755Z AUTO 21006KT 10SM BKN110 23/18 A2999 RMK
     AO2=
METAR KFOZ 080753Z AUTO 00000KT 1/2SM FG BKN016 13/12 A3005 RMK
     AO2=
METAR KFQD 080759Z AUTO 32004KT 10SM CLR 22/17 A3003 RMK AO2=
METAR KGOV 080755Z AUTO 00000KT 1 1/4SM BR BKN110 20/20 A3002 RMK
     AO2=
METAR KHYX 080755Z AUTO 16005KT 10SM CLR 22/20 A3001 RMK AO2=
METAR KISQ 080755Z AUTO 19006KT 10SM BKN004 OVC009 19/18 A2996 RMK
     AO2=
METAR KLDM 080755Z AUTO 25003KT 10SM BKN090 BKN110 22/21 A3001 RMK
     AO2=
METAR KMCD 080756Z AUTO 16003KT 10SM BKN110 21/18 A2997 RMK
     AO2=
METAR KMZH 080751Z AUTO 00000KT 10SM BKN100 14/13 A3004 RMK
     AO2=
METAR KONZ 080757Z AUTO 00000KT 10SM CLR 26/21 A3002 RMK AO2=
METAR KORB 080754Z AUTO 00000KT 10SM CLR 14/13 A3001 RMK AO2=
METAR KOSC 080754Z AUTO 00000KT 7SM CLR 19/17 A3001 RMK AO2=
METAR KOWA 080754Z AUTO 29004KT 10SM CLR 18/17 A3007 RMK AO2=
METAR KPHN 080755Z AUTO 00000KT 3SM BR SCT100 21/20 A3003 RMK
     AO2=
METAR KPZQ 080755Z AUTO 21006KT 7SM CLR 22/22 A2999 RMK AO2=
METAR KRHP 080801Z AUTO 00000KT 4SM BR CLR 18/17 A3012 RMK AO2=
METAR KRIL 080753Z AUTO 08008KT 10SM FEW110 16/09 A3026 RMK AO2
     RAE0658 SLP169 P0000 T01610089 TSNO=
METAR KRMY 080755Z AUTO 00000KT 10SM CLR 22/20 A3004 RMK AO2=
METAR KSAW 080759Z AUTO 28005KT 10SM OVC003 18/17 A2997 RMK
     AO2=
METAR KSJX 080755Z AUTO 18004KT 10SM SCT120 20/18 A2997 RMK
     AO2=
METAR KSLH 080755Z AUTO 00000KT 10SM BKN110 21/21 A2996 RMK
     AO2=
SPECI KSSF 080801Z AUTO 06007KT 10SM OVC013 26/23 A2992 RMK AO2=
METAR KTTF 080753Z AUTO 00000KT 10SM CLR 23/22 A3002 RMK AO2=
####018000277####
SAUS20 KNKA 080802
METAR KTVK 080755Z AUTO 00000KT 5SM CLR 20/20 A3007 RMK AO2=
SPECI KTYR 080801Z AUTO 14005KT 9SM SCT006 24/24 A3002 RMK AO2=
METAR KVWU 080751Z AUTO 00000KT 10SM CLR 14/14 A3001 RMK AO2=
METAR KXVG 080756Z AUTO 00000KT 7SM CLR 11/11 A3005 RMK AO2=
####018000075####
SACN50 CWAO 080745
VOP SA 0745 AUTO8 M M M M/21/11/1401/M/M M 87MM=

####018000075####
SACN50 CWAO 080715
VOM SA 0715 AUTO8 M M M M/22/10/3103/M/M M 46MM=

####018000075####
SACN50 CWAO 080715
VOP SA 0715 AUTO8 M M M M/19/11/1002/M/M M 14MM=

####018000075####
SACN50 CWAO 080730
VOM SA 0730 AUTO8 M M M M/22/10/3303/M/M M 25MM=

####018000075####
SACN50 CWAO 080745
VOM SA 0745 AUTO8 M M M M/22/10/3401/M/M M 15MM=

####018002664####
SAUS99 KWBC 080803
METAR
PAIW 080757Z AUTO 22003KT 10SM CLR 08/06 A3018 RMK AO2 SLP316
     T00830061=
PAVC 080756Z AUTO 04003KT 10SM 07/06 A2997 RMK AO2 PWINO TSNO
     T00720061 SLP149 $=
KRIC 080754Z 00000KT 7SM FEW120 26/20 A2997 RMK AO2 SLP150
     T02610200=
KAMN 080755Z AUTO 00000KT 4SM BR CLR 21/21 A3001 RMK AO2=
KAQP 080753Z AUTO 22003KT 10SM CLR 15/15 A3010 RMK AO2=
KASJ 080757Z AUTO 00000KT 5SM HZ CLR 24/21 A2995 RMK AO2=
KBFW 080753Z AUTO 00000KT 10SM SCT055 18/15 A2999 RMK AO2=
KCDA 080755Z AUTO 00000KT 4SM BR SCT055 20/18 A3008 RMK AO2=
KCDD 080751Z AUTO 00000KT 10SM CLR 14/14 A3003 RMK AO2=
KCTZ 080800Z AUTO 00000KT 7SM CLR 23/22 A2992 RMK AO2=
KCVX 080755Z AUTO 00000KT 7SM SCT120 21/20 A2999 RMK AO2=
KDVP 080757Z AUTO 27004KT 10SM CLR 15/13 A3017 RMK AO2
     T01460130=
KEBS 080755Z AUTO 34004KT 10SM SCT026 20/18 A3008 RMK AO2=
KERY 080755Z AUTO 00000KT 10SM SCT090 19/19 A2996 RMK AO2=
KETH 080754Z AUTO 22005KT 10SM CLR 15/14 A3010 RMK AO2=
KFKA 080803Z AUTO 31005KT 5SM BR CLR 19/19 A3006 RMK AO2
     T01920186=
KFKS 080755Z AUTO 21006KT 10SM BKN110 23/18 A2999 RMK AO2=
KFOZ 080753Z AUTO 00000KT 1/2SM FG BKN016 13/12 A3005 RMK AO2=
KFQD 080759Z AUTO 32004KT 10SM CLR 22/17 A3003 RMK AO2=
KGOV 080755Z AUTO 00000KT 1 1/4SM BR BKN110 20/20 A3002 RMK
     AO2=
KHYX 080755Z AUTO 16005KT 10SM CLR 22/20 A3001 RMK AO2=
KISQ 080755Z AUTO 19006KT 10SM BKN004 OVC009 19/18 A2996 RMK
     AO2=
KLDM 080755Z AUTO 25003KT 10SM BKN090 BKN110 22/21 A3001 RMK
     AO2=
KMCD 080756Z AUTO 16003KT 10SM BKN110 21/18 A2997 RMK AO2=
KMZH 080751Z AUTO 00000KT 10SM BKN100 14/13 A3004 RMK AO2=
KONZ 080757Z AUTO 00000KT 10SM CLR 26/21 A3002 RMK AO2=
KORB 080754Z AUTO 00000KT 10SM CLR 14/13 A3001 RMK AO2=
KOSC 080754Z AUTO 00000KT 7SM CLR 19/17 A3001 RMK AO2=
KOWA 080754Z AUTO 29004KT 10SM CLR 18/17 A3007 RMK AO2=
KPHN 080755Z AUTO 00000KT 3SM BR SCT100 21/20 A3003 RMK AO2=
KPZQ 080755Z AUTO 21006KT 7SM CLR 22/22 A2999 RMK AO2=
KRHP 080801Z AUTO 00000KT 4SM BR CLR 18/17 A3012 RMK AO2=
KRIL 080753Z AUTO 08008KT 10SM FEW110 16/09 A3026 RMK AO2 RAE0658
     SLP169 P0000 T01610089 TSNO=
KRMY 080755Z AUTO 00000KT 10SM CLR 22/20 A3004 RMK AO2=
KSAW 080759Z AUTO 28005KT 10SM OVC003 18/17 A2997 RMK AO2=
KSJX 080755Z AUTO 18004KT 10SM SCT120 20/18 A2997 RMK AO2=
KSLH 080755Z AUTO 00000KT 10SM BKN110 21/21 A2996 RMK AO2=
KTTF 080753Z AUTO 00000KT 10SM CLR 23/22 A3002 RMK AO2=
KTVK 080755Z AUTO 00000KT 5SM CLR 20/20 A3007 RMK AO2=
KVWU 080751Z AUTO 00000KT 10SM CLR 14/14 A3001 RMK AO2=
KXVG 080756Z AUTO 00000KT 7SM CLR 11/11 A3005 RMK AO2=
####018000673####
SPUS99 KWBC 080803
SPECI
KLEB 080800Z AUTO 00000KT 1 3/4SM BR CLR 22/21 A3004 RMK AO2=
KRVS 080800Z 00000KT 2SM +TSRA BR FEW005 BKN019 OVC028 23/23 A3002
     RMK AO2 LTG DSNT SW P0006=
KZZV 080800Z AUTO 00000KT 4SM BR BKN065 20/19 A3008 RMK AO2=
KBIV 080801Z AUTO 00000KT 7SM -RA SCT001 SCT024 BKN090 24/22 A3003
     RMK AO2 P0000=
KBRL 080801Z AUTO 1/2SM FG VV001 23/22 A3002 RMK AO2 $=
KDHT 080801Z AUTO 32007KT 9SM BKN013 BKN025 OVC045 19/16 A3026 RMK
     AO2=
KDVN 080801Z AUTO 00000KT 2SM BR FEW007 22/21 A3001 RMK AO2=
KSSF 080801Z AUTO 06007KT 10SM OVC013 26/23 A2992 RMK AO2=
KTYR 080801Z AUTO 14005KT 9SM SCT006 24/24 A3002 RMK AO2=
####018000434####
SAGR32 LGAT 080750
METAR LGAL 080750Z NIL=
METAR LGEL 080750Z 01015G25KT 9999 FEW025 SCT080 26/18 Q1012=
METAR LGKV 080750Z 12008KT 9999 SCT020TCU 19/16 Q1013=
METAR LGMT 080750Z 01011KT 9999 FEW020 SCT130 28/17 Q1010=
METAR LGPZ 080750Z 28015KT 9999 FEW025 28/19 Q1013 NOSIG=
METAR LGRX 080750Z NIL=
METAR LGSK 080750Z NIL=
METAR LGSR 080750Z 35014KT CAVOK 29/15 Q1010 NOSIG=
METAR LGZA 080750Z 35008KT CAVOK 30/15 Q1013=
####018000113####
SAGR32 LGAT 080750 RRA
METAR LGAL 080750Z 08009KT 6000 -RA SCT006 FEW020TCU BKN025 BKN080
      15/14 Q1015=
####018000472####
SAGR33 LGAT 080750
METAR LGHI 080750Z 06003KT 9999 FEW020 SCT030 29/18 Q1010=
METAR LGKC 080750Z NIL=
METAR LGKF 080750Z 34015KT 9999 FEW025 27/16 Q1013=
METAR LGKP 080750Z 32019KT CAVOK 28/16 Q1008=
METAR LGKZ 080750Z 33018KT 9999 SCT020 SCT070 18/07 Q1017=
METAR LGMK 080750Z 01027G40KT 9999 FEW012 24/18 Q1012=
METAR LGNX 080750Z 36014G24KT 9999 FEW020 26/20 Q1011=
METAR LGPA 080750Z 01018KT CAVOK 28/20 Q1011=
METAR LGSO 080750Z 01010KT CAVOK 28/17 Q1011=
####018000163####
SANL32 EHDB 080755
METAR EHEH 080755Z AUTO 26004KT 9999NDV NCD 26/13 Q1019 
BLU BLU=
METAR EHKD 080755Z AUTO 23010KT 9999NDV OVC100/// 20/15 Q1018 
BLU BLU=
####018000082####
SABZ24 SBFI 080800
METAR SBFI 080800Z 21004KT 9999 FEW020 SCT100 16/13 Q1014 =
####018000341####
SAMX34 MMMX 080800
METAR MMMD 080750Z 11005KT 7SM  OVC070 22/22 A2982 RMK 8/06/=
METAR MMCZ 080742Z 08010KT 6SM  SCT080 BKN200 26/24 A2987 
      RMK 8/058 SC HZY=
METAR MMTP 080740Z 00000KT 10SM BKN020 BKN100 25/22 A2988
      RMK 8/170=
METAR MMUN 080749Z 12007KT 6SM  FEW015 SCT090 SCT300 27/24 A2987 
      RMK 8/538 HZY=
####018000084####
SAGR32 LGAT 080750 RRB
METAR LGRX 080750Z 27007KT 9999 FEW025 28/20 Q1012 NOSIG=
####018000082####
SAVN24 SVMG 080800

METAR SVMG 080800Z 09008KT 9999 FEW010 26/25 Q1012 NOSIG=
####018000074####
SABZ20 SBSL 080800
METAR SBSL 080800Z 12003KT 9999 SCT017 26/24 Q1012=
####018000454####
SAUK37 EGGY 080750
METAR EGAE 080750Z 21010KT 9999 FEW015 SCT050 14/10 Q1011=
METAR EGNC 080750Z 23011KT 200V260 9999 SCT035 15/11 Q1014=
METAR EGNH 080750Z 22012KT 9999 FEW022 17/11 Q1016=
METAR EGNJ 080750Z 22010KT 9999 -RA SCT025 16/12 Q1017=
METAR EGNR 080750Z 19007KT 150V240 9999 FEW025 16/12 Q1017=
METAR EGPE 080750Z 22014G25KT 9999 FEW022 SCT048 16/10 Q1008=
METAR EGPI 080750Z 21015KT 9999 FEW018 14/10 Q1012=
METAR EGPN 080750Z NIL=
####018000380####
SAUK38 EGGY 080750
METAR EGEC 080750Z 22011KT 9999 FEW025 15/10 Q1012=
METAR EGPA 080750Z 20014KT 9999 SCT030 BKN045 16/11 Q1006=
METAR EGPC 080750Z 19011KT 9999 FEW024 SCT041 14/11 Q1007=
METAR EGPL 080750Z 22021KT 9999 FEW018 14/11 Q1006=
METAR EGPM 080750Z NIL=
METAR EGPO 080750Z 22018G29KT 9999 -SHRA FEW014CB BKN035 12/10
    Q1004 RESHRA=
METAR EGPU 080750Z NIL=
####018000089####
SAAJ31 UBBB 080800
METAR UBBB 080800Z 34024KT CAVOK 32/27 Q1011 NOSIG RMK
R88CLRD70=
####018000306####
SAPK31 OPKC 080800
METAR OPGD 080800Z NIL=
METAR OPKC 080800Z 09012KTS 9000 BKN030 35/24 Q.1003 NOSIG=
METAR OPLA 080755Z 12007KT 6000 SCT040 38/23 Q1005 NOSIG=
METAR OPNH 080800Z NIL=
METAR OPPS 080800Z NIL=
METAR OPRN 080800Z NIL=
METAR OPSK 080755Z 05006KT 6000 HZ SCT100 39/25 QNH1003 RH45PC=
####018000080####
SAMF20 TFFR 080800
METAR TFFR 080800Z 10001KT 9999 FEW021 26/24 Q1014 NOSIG=
####018000538####
SAUK36 EGGY 080750
METAR EGBE 080750Z NIL=
METAR EGBJ 080750Z 23003KT 9999 FEW020 17/11 Q1018=
METAR EGCN 080750Z 23011KT 9999 FEW035 17/11 Q1017=
METAR EGDL 080750Z 25004KT 9999 FEW012 SCT100 BKN150 16/13 Q1019
    TEMPO SCT020=
METAR EGSC 080750Z NIL=
METAR COR EGSD 080750Z 24008KT 9999 FEW012 SCT030 21/17 Q1018 NOSIG=
METAR COR EGSH 080750Z 25008KT 220V290 9999 -RA FEW011 BKN029 20/16
    Q1018 NOSIG=
METAR EGVN 080750Z NIL=
METAR EGWU 080750Z 28007KT 4500 RADZ FEW004 BKN007 OVC014 16/16
    Q1019 BECMG 6000 -RADZ=
####018000074####
SAEW LEJR 080800
METAR LEJR 080800Z 28003KT 230V330 CAVOK 24/20 Q1015=
####018000723####
SANL33 EHDB 080755
METAR EHAK 080755Z AUTO 21015KT 9999NDV SCT034/// SCT043/// 17/15
Q1016=
METAR EHDV 080755Z NIL=
METAR EHFD 080755Z AUTO 22014KT 9999NDV FEW023/// SCT030/// 16/15
Q1017=
METAR EHFZ 080755Z AUTO 22012KT 9999NDV FEW039/// 17/15 Q1017=
METAR EHJA 080755Z AUTO 25018KT 8000NDV DZ FEW025/// SCT030///
BKN036/// 16/15 Q1017=
METAR EHJR 080755Z NIL=
METAR EHKV 080755Z AUTO 26017KT 9999NDV BKN033/// 16/15 Q1018=
METAR EHMA 080755Z AUTO 22010KT 9999NDV 21/16 Q1018=
METAR EHMG 080755Z AUTO 23015KT 9999NDV BKN039/// 17/15 Q1017=
METAR EHPG 080755Z AUTO 25016KT 9999NDV ///////// 16/15 Q1018=
METAR EHQE 080755Z AUTO 23013KT 9999NDV 16/14 Q1018=
METAR EHSA 080755Z NIL=
METAR EHSC 080755Z NIL=
####018000091####
SPAU31 KWBC 080803
SPECI
YSNF 080800Z 11010KT 3000 -DZ BR SCT010 BKN017 14/12 Q1017=
####018000103####
SAUK36 EGGY 080750 RRA
METAR EGVN 080750Z 27004KT 9999 FEW022 SCT120 BKN150 17/11 Q1019
    NOSIG=
####018000096####
SAUZ31 UTTT 080800
METAR UTTT 080800Z 27003MPS 180V350 CAVOK 38/09 Q1011
R08R/CLRD70 NOSIG=
####018000302####
SAUK51 EGGY 080750 RRA
METAR EGDM 080750Z 25002KT 9999 FEW007 SCT014 BKN022 16/14 Q1019
    BECMG FEW015 BKN022=
METAR EGUB 080750Z 27004KT 9999 FEW010 OVC026 17/13 Q1019 NOSIG=
METAR EGXC 080750Z 24008KT 9999 FEW020 BKN120 17/10 Q1017 NOSIG=
METAR EGYD 080750Z 24012KT CAVOK 16/10 Q1018 NOSIG=
####018000283####
SAPH RPLL 080800
METAR RPLL 080800Z 11007KT 9999 SCT025 BKN300 33/26 Q1007 NOSIG
           RMK A2974=
METAR RPVM 080800Z 06006KT 9999 FEW020 BKN090 OVC250 32/27 Q1008
           A2977=
METAR RPMZ 080800Z 16004KT 9999 SCT018CB BKN120 32/26 Q1009
           CB N, W, S, OVHD=
####018000400####
SAUK51 EGGY 080750
METAR EGDL 080750Z 25004KT 9999 FEW012 SCT100 BKN150 16/13 Q1019
    TEMPO SCT020=
METAR EGDM 080750Z NIL=
METAR EGDY 080750Z NIL=
METAR EGOV 080750Z NIL=
METAR EGUB 080750Z NIL=
METAR EGVN 080750Z NIL=
METAR EGWU 080750Z 28007KT 4500 RADZ FEW004 BKN007 OVC014 16/16
    Q1019 BECMG 6000 -RADZ=
METAR EGXC 080750Z NIL=
METAR EGXT 080750Z NIL=
METAR EGYD 080750Z NIL=
####018000103####
SAUK51 EGGY 080750 RRB
METAR EGVN 080750Z 27004KT 9999 FEW022 SCT120 BKN150 17/11 Q1019
    NOSIG=
####018000089####
SACO20 SKBO 080758
METAR SKBQ 080800Z 29004KT 2000 BRFG BKN002 25/25 A2987 RMK APRSM=
####018000068####
SABZ19 SBMQ 080800
METAR SBMQ 080800Z 36003KT CAVOK 25/25 Q1012=
####018000285####
SACO20 SKBO 080758
METAR SKBO NIL=
METAR SKBQ 080800Z 29004KT 2000 BRFG BKN002 25/25 A2987 RMK APRSM=
METAR SKCL 080700Z VRB02KT 9999 FEW025 BKN100 21/18 A3000=
METAR SKCG NIL=
METAR SKCC NIL=
METAR SKLT NIL=
METAR SKRG NIL=
METAR SKSP NIL=
METAR SKBG NIL=
METAR SKPE NIL=
####018000083####
SAUK38 EGGY 080750 RRA
METAR EGPU 080750Z 23016KT 9999 VCSH SCT048 14/12 Q1008=
####018000046####
SAVN26 SVMC 080800
METAR SVMC 080800Z NIL=
####018000125####
SAUY SUMU 080800
METAR SUMU 080800Z 34004KT CAVOK 04/03 Q1017 NOSIG=
METAR SULS 080800Z 29009KT 9999 FEW023 08/05 Q1016=
####018000100####
SAUS43 KMKX 080802
MTRMSN
SPECI KMSN 080802Z 00000KT 5SM BR FEW007 OVC110 21/21 A2999 RMK AO2
####018000066####
SAOR01 ORSU 080800
ORSU 080800Z VRB03KT 8000 SKC 39/M01 Q1010
####018000096####
SPUS53 KWBC 080803
SPECI
KHTL 080800Z AUTO 26004KT 10SM FEW010 BKN060 OVC100 24/22 A3004=
####018000127####
SAUS45 KRIW 080803 COR
MTRP60
METAR KP60 080756Z AUTO 31003KT 02/M01 A3043 RMK AO2 SLP258 
T00221006 PWINO FZRANO TSNO
####018000096####
SPUS81 KWBC 080803
SPECI
KHTL 080800Z AUTO 26004KT 10SM FEW010 BKN060 OVC100 24/22 A3004=
####018000077####
SAUK39 EGRR 080750 RRC
METAR EGXP 080750Z 23011KT CAVOK 15/11 Q1017 BLU=
####018000090####
SAUK39 EGRR 080750 RRD
METAR EGOW 080750Z 22008KT 9999 FEW025 BKN150 17/10 Q1016 BLU=
####018000514####
SAEW KAWN 080800 RRC
METAR EBBL 080755Z 20004KT 9999 FEW220 28/11 Q1019 BLU BLU=
METAR EBFN 080755Z 27005KT 9999 FEW042 SCT130 BKN190 21/15 Q1019 BLU
      BLU=
METAR EBFS 080755Z 20008KT 9999 SCT250 24/12 Q1021 BLU BLU=
METAR EDLP 080750Z 19007KT 140V220 CAVOK 26/11 Q1020 RMK RWY24 TRL60
      JP ATIS L=
METAR EDXW 080750Z 20012KT CAVOK 22/13 Q1018 RMK ATIS INFO O=
METAR EHKD 080755Z AUTO 23010KT 9999NDV OVC100/// 20/15 Q1018 BLU BLU=
METAR LFOW 080800Z 15004KT 120V210 CAVOK 24/14 Q1019=
####018001245####
SANA35 KAWN 080800 RRC
METAR KCHS 080756Z 29009KT 10SM CLR 25/19 A2996 RMK AO2 SLP144 T02500194=
METAR KDAB 080753Z 00000KT 10SM CLR 21/19 A2999 RMK AO2 SLP154 T02060194
      $=
METAR KDAB 080753Z 00000KT 10SM CLR 21/19 A2999 RMK AO2 SLP154 T02060194
      $=
METAR KNBC 080756Z AUTO 25003KT 10SM CLR 24/18 A2998 RMK AO2 SLP151
      T02390183=
METAR KNBG 080755Z AUTO 00000KT 7SM CLR 24/23 A3000 RMK AO2 SLP158
      T02440233 PWINO $=
METAR KNCA 080756Z AUTO 04003KT 10SM CLR 25/22 A2991 RMK AO2 SLP128
      T02500217=
METAR KNGP 080756Z AUTO 09009KT 10SM SCT036 BKN046 29/26 A2981 RMK
      AO2 RAB18E32 SLP095 P0000 T02890261 $=
METAR KNGU 080759Z 10003KT 5SM BR FEW080 BKN130 26/24 A2996 RMK AO2
      SLP146 T02610239=
METAR KNJM 080757Z AUTO 36004KT 10SM CLR 26/19 A2991 RMK AO2 SLP130
      T02610189 $=
METAR KNTU 080756Z 11004KT 8SM CLR 25/24 A2994 RMK AO2 SLP142 T02500239
      CHINO RWY 05R $=
METAR TFFF 080800Z AUTO 06010KT 030V110 9999NDV FEW010/// BKN023///
      BKN029/// 28/25 Q1013=
METAR TFFR 080800Z 10001KT 9999 FEW021 26/24 Q1014 NOSIG=
METAR TTPP 080800Z 00000KT 9999 FEW016 BKN280 26/25 Q1011 NOSIG=
METAR TXKF 080755Z 17012KT 9999 FEW015 SCT130 BKN300 26/23 Q1017=
####018000552####
SAXX60 KAWN 080800 RRA
METAR KHLR 080756Z AUTO 10005KT 10SM BKN017 26/ A2998 RMK AO2 SLP143
      T0256 $=
METAR PHBK 080756Z AUTO 14004KT 10SM OVC060 26/18 A3002 RMK AO2 SLP168
      T02560183 TSNO $=
METAR PHNY 080756Z AUTO 10006KT 10SM FEW038 22/16 A3009 RMK AO2 TSNO
      T02160155 PK WND 05027/0705 SLP168 $=
METAR RJSM 080800Z 09004KT 8000 FEW005 BKN040 BKN080 21/18 Q1008 RMK
      1ST005 5SC040 5AC080 A2978 WIND BY EQPT/10 FCST 0814 TEMPO
      0813 3000 BR SCT001ST BKN003ST BECMG 1314 4000 BR SCT001ST
      BKN003ST=
####018000105####
SPXX70 KAWN 080800
SPECI KQMG 080758Z AUTO 03014KT 12SM FEW032 20/15 A3016 RMK AO2 SLP140
      $=
####018000201####
SPUS90 KWBC 080804
SPECI KHTL 080800Z AUTO 26004KT 10SM FEW010 BKN060 OVC100 24/22
     A3004 RMK AO2 RAE0758 P0000=
SPECI KMSN 080802Z 00000KT 5SM BR FEW007 OVC110 21/21 A2999 RMK
     AO2=
####018000127####
SAUS90 KWBC 080800 RRB
METAR KNEL 080800Z AUTO 00000KT 3SM BR FEW080 BKN110 22/20 A3001
     RMK AO2 SLP159 T02220200 $=
####018000123####
SAUS90 KWBC 080800 CCC
METAR KP60 080756Z AUTO 31003KT 02/M01 A3043 RMK AO2 SLP258
     T00221006 PWINO FZRANO TSNO=
####018000825####
SAUR30 UKMS 080800
METAR UKBB 080800Z 29003MPS 260V330 9999 BKN016 23/18
         Q1014 88CLRD95    NOSIG=
METAR UKHH 080800Z 21003MPS 130V290 9999 SCT040
         BKN200  28/16 Q1014 080///65 NOSIG=
METAR UKOO 080800Z 01004MPS 320V030 CAVOK 23/16 Q1014
          34090070 NOSIG=
METAR UKDE 080800Z VRB02MPS 9999 BKN050TCU 27/20
         Q1014  20CLRD70 NOSIG=
METAR UKDD 080800Z VRB01MPS 9999 BKN033CB 26/19 Q1014
          08090070 NOSIG=
METAR UKFF 080800Z VRB01MPS 9999 FEW033 27/18 Q1013 
         19010070 NOSIG=
METAR UKLL 080800Z 30005MPS 230V350 9999 SCT033CB 
         BKN033 17/12 Q1020 31210365 NOSIG=
METAR UKCC 080800Z 23002MPS 200V260 CAVOK 28/17 Q1015
          08090070 NOSIG=
METAR UKDR 080800Z 26003MPS 220V280 9999 SCT033
         OVC200  27/20 Q1013 1809//70 NOSIG=
####018000561####
SAAK41 KNKA 080803
METAR PABA 080801Z AUTO 24006KT 10SM -RA OVC005 03/03 A3005 RMK AO2 
    UPE0726RAB0707E0708B0726 SLP176 P0000 T00330033=
METAR PAIK 080801Z AUTO 22003KT 10SM CLR 16/08 A3013 RMK AO2 SLP243 
    T01560083=
METAR PAKF 080801Z AUTO VRB03KT 10SM FEW022 SCT027 BKN043 08/07 
    A2994 RMK AO2 SLP233 T00780067=
METAR PANW 080756Z AUTO 36004KT OVC060 10/09 A2998 RMK AO2 PWINO 
    TSNO T01000094 401330066 SLP131 $=
SPECI PAWD 080801Z AUTO 00000KT 3SM BR BKN003 OVC050 11/09 A2998 RMK 
    AO2 RAE00 CIG 001V007 P0000 TSNO=
####018002838####
SAUS20 KNKA 080803
METAR K0R3 080759Z AUTO 00000KT 10SM CLR 25/25 A2998 RMK AO2=
METAR K1A5 080800Z AUTO 00000KT 3SM BR 17/16 A3015 RMK AO2 SKY 
     OBSCURED T01710160=
METAR K3I2 080800Z AUTO 00000KT 4SM BR SCT001 19/18 A3008 RMK AO2=
METAR K3J7 080800Z AUTO 00000KT 10SM CLR 24/21 A2999 RMK AO2=
METAR K47A 080800Z AUTO 00000KT 7SM CLR 21/18 A3006 RMK AO2 
     T02060183=
SPECI KACK 080802Z AUTO 12006KT 7SM SCT001 19/18 A3006 RMK AO2 TSNO=
METAR KACP 080759Z AUTO 00000KT 4SM BR CLR 23/23 A2999 RMK AO2=
METAR KAVC 080800Z AUTO 35005KT 7SM SCT090 120 26/19 A3002 RMK AO2=
METAR KAYS 080800Z AUTO 00000KT 10SM CLR 23/21 A3001 RMK AO1=
METAR KBCB 080800Z AUTO 00000KT 5SM BR CLR 21/21 A3014 RMK AO2=
METAR KBGE 080800Z AUTO 00000KT 10SM CLR 21/20 A3002 RMK AO2=
METAR KBIJ 080800Z AUTO 00000KT 10SM CLR 19/ A3002 RMK AO2=
METAR KBQK 080757Z AUTO 00000KT 10SM CLR 22/22 A3000 RMK AO1 
     T02200216 PNO=
METAR KBQP 080807Z AUTO 00000KT 4SM BR CLR 24/24 A3003 RMK AO2=
METAR KCTJ 080800Z AUTO 00000KT 10SM CLR 21/20 A3006 RMK AO2 
     T02100197=
METAR KDPL 080800Z AUTO 02004KT 7SM CLR 23/22 A2993 RMK AO2=
METAR KEDE 080756Z AUTO 03003KT 3SM BR CLR 23/22 A2994 RMK AO2=
METAR KEMV 080757Z AUTO 00000KT 7SM CLR 25/21 A2996 RMK AO2=
METAR KEXX 080759Z AUTO 00000KT 10SM CLR 21/17 A2999 RMK AO2=
METAR KEZF 080758Z AUTO 00000KT 7SM BKN120 27/25 A2996 RMK AO2 
     T02650245=
METAR KFYJ 080801Z AUTO 00000KT 5SM BKN120 26/24 A2997 RMK AO1=
METAR KGEV 080801Z AUTO 00000KT 10SM CLR 24/17 A3019 RMK AO2=
SPECI KHAO 080802Z AUTO 00000KT 2 1/2SM BR CLR 21/20 A3007 RMK AO2=
METAR KHBI 080801Z AUTO 00000KT 10SM CLR 23/17 A3001 RMK AO2=
METAR KHRJ 080801Z AUTO 00000KT 7SM CLR 26/21 A2994 RMK AO2=
SPECI KISW 080802Z AUTO 00000KT 10SM FEW007 BKN015 21/20 A3000 RMK 
    AO2 TSNO=
SPECI KIWI 080802Z AUTO 00000KT 8SM BKN003 OVC012 21/19 A3008 RMK 
    AO2=
METAR KJNX 080759Z AUTO 00000KT 3SM CLR 22/22 A2993 RMK AO2=
METAR KJYL 080801Z AUTO 00000KT 10SM CLR 23/21 A3000 RMK AO2=
METAR KMLJ 080802Z AUTO 00000KT 10SM CLR 22/22 A3001 RMK AO2=
METAR KMQI 080756Z AUTO 06006KT 10SM CLR 26/24 A2993 RMK AO2=
METAR KMWK 080802Z AUTO 00000KT 7SM CLR 24/19 A3004 RMK AO2=
SPECI KRHI 080802Z AUTO 29004KT 7SM SCT001 BKN007 OVC100 19/18 A3003 
    RMK AO2=
SPECI KSLK 080802Z AUTO 00000KT 1 3/4SM BR CLR 17/16 A3009 RMK AO2=
METAR KTSP 080755Z AUTO 00000KT 10SM CLR 15/07 A3003 RMK AO2 =
METAR KUKF 080801Z AUTO 00000KT 10SM CLR 22/18 A3006 RMK AO1=
METAR KUNV 080800Z AUTO 00000KT 7SM CLR 21/18 A3009 RMK AO2 
     T02070184=
SPECI KVAY 080802Z AUTO 00000KT 1/2SM FG BKN003 OVC006 23/23 A3001 
    RMK AO2=
METAR KW99 080759Z AUTO 00000KT 7SM BKN085 21/17 A3009 RMK AO2=
SPECI KWST 080802Z AUTO 00000KT 9SM BKN013 BKN090 22/21 A3005 RMK 
    AO2=
####018000075####
SAAB31 LATI 080800
METAR LATI 080800Z 00000KT CAVOK 25/10 Q1016 NOSIG=
####018000415####
SAME31 OLBA 080800
METAR OLBA 080800Z 24008KT 210V270 8000 FEW080 28/18 Q1011
     NOSIG=
METAR OSDI 080800Z 21016KT CAVOK 31/06 Q1010=
METAR OSAP 080800Z 27017KT CAVOK 30/18 Q1007=
METAR OSLK 080800Z 23004KT 9999 FEW026 SCT030 28/19 Q1009=
METAR OJAI 080800Z 32003KT CAVOK 29/07 Q1012 NOSIG=
METAR OJAM 080800Z 27008KT 5000 HZ NSC 30/07 Q1012 NOSIG=
METAR OJAQ 080800Z 36016KT CAVOK 33/25 Q1008=
####018000075####
SAMP31 LMMM 080800 RRA
METAR HLLB 080750Z
33018KT CAVOK 29/17 Q1016=
####018000075####
SAMP31 LMMM 080800 RRA
METAR HLLB 080750Z 
33018KT CAVOK 29/17 Q1016=
####018000101####
SAAJ31 UBBB 080800
UBBN 080800Z 07004KT 9999 NSC 35/11 Q1010 R14R/CLRD60 NOSIG
RMK G/O QFE683=
####018000081####
SACV20 GVNP 080800
METAR GVNP 080800Z 04009KT 9999 BKN020 24/20 Q1013 NOSIG=
####018000089####
SPAU32 YBBN 080802
SPECI YSNF 080800Z 11010KT 3000 -DZ BR SCT010 BKN017 14/12 Q1017=
####018000071####
SALY31 HLLB 080800
METAR HLLB 080750Z 
33018KT CAVOK 29/17 Q1016=
####018000074####
SAMP31 LMMM 080800 RRA
METAR HLLB 080750Z
33018KT CAVOK 29/17 Q1016=
####018000259####
SACZ31 LKPW 080800
METAR LKKV 080800Z VRB01KT CAVOK 18/11 Q1024=
METAR LKMT 080800Z VRB02KT 9999 FEW036 19/11 Q1023 NOSIG=
METAR LKPR 080800Z 15004KT 060V180 CAVOK 20/09 Q1024 NOSIG=
METAR LKTB 080800Z 01008KT 340V050 9999 FEW046 21/07 Q1023 NOSIG=
####018000279####
SAIL31 BICC 080800
METAR BIAR 080800Z 35018KT 9999 RA BKN019 08/06 Q0994=
METAR BIEG 080800Z 01014KT 2000 VCSH BR VV002 08/08 Q0989=
METAR BIKF 080800Z 02021KT 9999 FEW014 SCT027 BKN032 09/05 Q0993=
METAR BIRK 080800Z 36017G27KT 270V110 9999 FEW018 SCT040 09/05 Q0991=
####018000550####
SAYG31 LYBM 080800
METAR LYBE 080800Z 29009KT CAVOK 17/14 Q1022 NOSIG=
METAR LYBT 080800Z 27008KT CAVOK 17/17 Q1021 NOSIG=
METAR LYKV 080800Z 32005KT 290V350 9999 SCT035 16/16 Q1022 NOSIG=
METAR LYNI 080800Z 33007KT 9999 SCT013 OVC033 15/13 Q1020 NOSIG=
METAR LYPG 080800Z 36014G24KT 9999 FEW040 26/07 Q1018 NOSIG=
METAR LYPR 080800Z NIL=
METAR LYTV 080800Z 36004KT 9999 FEW053 26/08 Q1018 NOSIG=
METAR LYUZ 080800Z 31008KT 260V360 9999 BKN020 12/10 Q1023 NOSIG=
METAR LYVR 080800Z 06003KT 030V090 9999 FEW020 BKN040 17/14 Q1021=
####018000823####
SAUR30 UKMS 080800
METAR UKBB 080800Z 29003MPS 260V330 9999 BKN016 23/18
         Q1014 88CLRD95    NOSIG=
METAR UKHH 080800Z 21003MPS 130V290 9999 SCT040
         BKN200  28/16 Q1014 080///65 NOSIG=
METAR UKOO 080800Z 01004MPS 320V030 CAVOK 23/16 Q1014
          34090070 NOSIG=
METAR UKDE 080800Z VRB02MPS 9999 BKN050TCU 27/20
         Q1014  20CLRD70 NOSIG=
METAR UKDD 080800Z VRB01MPS 9999 BKN033CB 26/19 Q1014
          08090070 NOSIG=
METAR UKFF 080800Z VRB01MPS 9999 FEW033 27/18 Q1013
         19010070 NOSIG=
METAR UKLL 080800Z 30005MPS 230V350 9999 SCT033CB
         BKN033 17/12 Q1020 31210365 NOSIG=
METAR UKCC 080800Z 23002MPS 200V260 CAVOK 28/17 Q1015
          08090070 NOSIG=
METAR UKDR 080800Z 26003MPS 220V280 9999 SCT033
         OVC200  27/20 Q1013 1809//70 NOSIG=
####018000100####
SAAJ31 UBBB 080800
METAR UBBG 080800Z 08006KT 9999 FEW100 33/17 Q1012
NOSIG RMK R30R/CLRD70 =
####018000828####
SAUR31 UKMS 080800
METAR UKLR 080800Z 31004MPS 250V340 9999 SCT023
         BKN100  19/15 Q1017 30090070 NOSIG=
METAR UKLI 080800Z /////MPS 9999 -SHRA BKN009
         BKN020CB  15/14 Q1020 28290565 NOSIG=
METAR UKON 080800Z 35003MPS 310V040 9999 FEW033
         OVC200  25/19 Q1013 05090075 NOSIG=
METAR UKCM 080800Z 13004MPS 100V170 CAVOK 28/17 Q1014
          02010065 NOSIG=
METAR UKCW 080800Z 00000MPS 9999 BKN040 29/16 Q1014
         2709//70 NOSIG=
METAR UKLU 080800Z 36005MPS 9999 SCT040 21/11 Q1021
         10290060 NOSIG=
METAR UKKK 080800Z 32003MPS 9999 BKN014 21/18 Q1014
         26CLRD70  NOSIG=
METAR UKKM 080800Z 29003MPS 250V330 8000 BKN016 22/18
         Q1014  33CLRD70 NOSIG=
METAR UKLN 080800Z 30006MPS 250V340 9999 BKN010
         BKN033CB 15/14 Q1019 3309//70 NOSIG=
####018000497####
SAHU41 LHBM 080800
METAR LHDC 080745Z 01009KT 9999 FEW026 20/13 Q1021 NOSIG=
METAR LHKE 080745Z 06004MPS 9999 FEW045 23/12 Q1021 BECMG NSC RMK
     BLU=
METAR LHPA 080745Z 34004MPS CAVOK 21/11 Q1024 NOSIG RMK BLU=
METAR LHPP 080745Z 01008KT CAVOK 20/12 Q1023 NOSIG=
METAR LHPR 080745Z 34010KT CAVOK 21/11 Q1023=
METAR LHSM 080745Z 32008KT 9999 FEW040 21/11 Q1023 NOSIG=
METAR LHSN 080745Z 04004MPS CAVOK 22/12 Q1021 NOSIG RMK BLU=
METAR LHUD 080745Z 35005KT CAVOK 20/15 Q1022=
####018000562####
SAAU69 AMMC 080800
METAR YSTW 080800Z AUTO 17010KT 9999NDV // BKN058 12/06 Q1023=
METAR YSWG 080800Z AUTO 00000KT 9999NDV // NCD 09/03 Q1026=
METAR YTEF 080800Z AUTO 04011KT //// // ////// 22/15 Q1011=
METAR YTNK 080800Z AUTO 10007KT 9999NDV // NCD 19/12 Q1017=
METAR YTRE 080800Z AUTO 24007KT //// // ////// 13/12 Q1024=
METAR YWGT 080800Z AUTO 33002KT //// // ////// 08/06 Q1027=
METAR YWHA 080800Z AUTO 13005KT 9999NDV // NCD 12/04 Q1023=
METAR YWLM 080800Z 25007KT 9999 SCT020 BKN040 13/12 Q1025
     INTER 0800/1000 4000 SHRA BKN010=

####018000666####
SACH10 SCSC 080800
METAR
SCAR 080800Z 28003KT 230V330 9999 OVC023 15/09 Q1016=
SCDA 080800Z 01009KT 9999 OVC026 15/08 Q1017=
SCFA 080800Z 00000KT 9999 OVC015 13/09 Q1016=
SCIP 080800Z 11002KT 9999 SCT012 BKN020 18/17 Q1024 TEMPO 5000
-SHRA=
SCSE 080800Z 00000KT CAVOK 07/06 Q1017 NEFO PLAYA SKC=
SCEL 080800Z VRB02KT 4000 BR SCT130 03/02 Q1021 NOSIG=
SCIE 080800Z 30014KT 9999 BKN006 OVC010 13/11 Q1019=
SCTC 080800Z 01006KT 320V040 9999 FEW015 OVC025 11/09 Q1013=
SCTE 080800Z 35010KT 6000 VCSH SCT025 SCT050 07/07 Q1007 NOSIG=
SCBA 080800Z AUTO 27010KT 240V300 CAVOK M01/M02 Q0998=
SCCI 080800Z 02007KT 9999 FEW025 M03/M05 Q0988 NOSIG=
####018000460####
SACH71 SCSC 080800
METAR
SCAR 080800Z 28003KT 230V330 9999 OVC023 15/09 Q1016=
SCDA 080800Z 01009KT 9999 OVC026 15/08 Q1017=
SCFA 080800Z 00000KT 9999 OVC015 13/09 Q1016=
SCIP 080800Z 11002KT 9999 SCT012 BKN020 18/17 Q1024 TEMPO 5000
-SHRA=
SCAT NIL=
SCSE 080800Z 00000KT CAVOK 07/06 Q1017 NEFO PLAYA SKC=
SCER NIL=
SCEL 080800Z VRB02KT 4000 BR SCT130 03/02 Q1021 NOSIG=
SCRG NIL=
SCIE 080800Z 30014KT 9999 BKN006 OVC010 13/11 Q1019=
####018000475####
SACH72 SCSC 080800
METAR
SCEL 080800Z VRB02KT 4000 BR SCT130 03/02 Q1021 NOSIG=
SCIE 080800Z 30014KT 9999 BKN006 OVC010 13/11 Q1019=
SCTC 080800Z 01006KT 320V040 9999 FEW015 OVC025 11/09 Q1013=
SCTE 080800Z 35010KT 6000 VCSH SCT025 SCT050 07/07 Q1007 NOSIG=
SCMK NIL=
SCON NIL=
SCFT 080800Z AUTO 00000KT 9999 RA ///015 02/01 Q1003=
SCBA 080800Z AUTO 27010KT 240V300 CAVOK M01/M02 Q0998=
SCCI 080800Z 02007KT 9999 FEW025 M03/M05 Q0988 NOSIG=
SCRM NIL=
####018000716####
SPUS99 KWBC 080804
SPECI
PAWD 080801Z AUTO 00000KT 3SM BR BKN003 OVC050 11/09 A2998 RMK AO2
     RAE00 CIG 001V007 P0000 TSNO=
KACK 080802Z AUTO 12006KT 7SM SCT001 19/18 A3006 RMK AO2 TSNO=
KHAO 080802Z AUTO 00000KT 2 1/2SM BR CLR 21/20 A3007 RMK AO2=
KISW 080802Z AUTO 00000KT 10SM FEW007 BKN015 21/20 A3000 RMK AO2
     TSNO=
KIWI 080802Z AUTO 00000KT 8SM BKN003 OVC012 21/19 A3008 RMK
     AO2=
KRHI 080802Z AUTO 29004KT 7SM SCT001 BKN007 OVC100 19/18 A3003 RMK
     AO2=
KSLK 080802Z AUTO 00000KT 1 3/4SM BR CLR 17/16 A3009 RMK AO2=
KVAY 080802Z AUTO 00000KT 1/2SM FG BKN003 OVC006 23/23 A3001 RMK
     AO2=
KWST 080802Z AUTO 00000KT 9SM BKN013 BKN090 22/21 A3005 RMK
     AO2=
####018000080####
SACN91 KWBC 080804
METAR CWHI 080700Z AUTO 21009KT 13/10 RMK AO1 T01280096=
####018002422####
SAUS99 KWBC 080804
METAR
PABA 080801Z AUTO 24006KT 10SM -RA OVC005 03/03 A3005 RMK AO2
     UPE0726RAB0707E0708B0726 SLP176 P0000 T00330033=
PAIK 080801Z AUTO 22003KT 10SM CLR 16/08 A3013 RMK AO2 SLP243
     T01560083=
PAKF 080801Z AUTO VRB03KT 10SM FEW022 SCT027 BKN043 08/07 A2994
     RMK AO2 SLP233 T00780067=
PANW 080756Z AUTO 36004KT OVC060 10/09 A2998 RMK AO2 PWINO TSNO
     T01000094 401330066 SLP131 $=
K0R3 080759Z AUTO 00000KT 10SM CLR 25/25 A2998 RMK AO2=
K1A5 080800Z AUTO 00000KT 3SM BR 17/16 A3015 RMK AO2 SKY OBSCURED
     T01710160=
K3I2 080800Z AUTO 00000KT 4SM BR SCT001 19/18 A3008 RMK AO2=
K3J7 080800Z AUTO 00000KT 10SM CLR 24/21 A2999 RMK AO2=
K47A 080800Z AUTO 00000KT 7SM CLR 21/18 A3006 RMK AO2
     T02060183=
KACP 080759Z AUTO 00000KT 4SM BR CLR 23/23 A2999 RMK AO2=
KAVC 080800Z AUTO 35005KT 7SM SCT090 120 26/19 A3002 RMK AO2=
KAYS 080800Z AUTO 00000KT 10SM CLR 23/21 A3001 RMK AO1=
KBCB 080800Z AUTO 00000KT 5SM BR CLR 21/21 A3014 RMK AO2=
KBGE 080800Z AUTO 00000KT 10SM CLR 21/20 A3002 RMK AO2=
KBIJ 080800Z AUTO 00000KT 10SM CLR 19/ A3002 RMK AO2=
KBQK 080757Z AUTO 00000KT 10SM CLR 22/22 A3000 RMK AO1 T02200216
     PNO=
KBQP 080807Z AUTO 00000KT 4SM BR CLR 24/24 A3003 RMK AO2=
KCTJ 080800Z AUTO 00000KT 10SM CLR 21/20 A3006 RMK AO2
     T02100197=
KDPL 080800Z AUTO 02004KT 7SM CLR 23/22 A2993 RMK AO2=
KEDE 080756Z AUTO 03003KT 3SM BR CLR 23/22 A2994 RMK AO2=
KEMV 080757Z AUTO 00000KT 7SM CLR 25/21 A2996 RMK AO2=
KEXX 080759Z AUTO 00000KT 10SM CLR 21/17 A2999 RMK AO2=
KEZF 080758Z AUTO 00000KT 7SM BKN120 27/25 A2996 RMK AO2
     T02650245=
KFYJ 080801Z AUTO 00000KT 5SM BKN120 26/24 A2997 RMK AO1=
KGEV 080801Z AUTO 00000KT 10SM CLR 24/17 A3019 RMK AO2=
KHBI 080801Z AUTO 00000KT 10SM CLR 23/17 A3001 RMK AO2=
KHRJ 080801Z AUTO 00000KT 7SM CLR 26/21 A2994 RMK AO2=
KJNX 080759Z AUTO 00000KT 3SM CLR 22/22 A2993 RMK AO2=
KJYL 080801Z AUTO 00000KT 10SM CLR 23/21 A3000 RMK AO2=
KMLJ 080802Z AUTO 00000KT 10SM CLR 22/22 A3001 RMK AO2=
KMQI 080756Z AUTO 06006KT 10SM CLR 26/24 A2993 RMK AO2=
KMWK 080802Z AUTO 00000KT 7SM CLR 24/19 A3004 RMK AO2=
KTSP 080755Z AUTO 00000KT 10SM CLR 15/07 A3003 RMK AO2=
KUKF 080801Z AUTO 00000KT 10SM CLR 22/18 A3006 RMK AO1=
KUNV 080800Z AUTO 00000KT 7SM CLR 21/18 A3009 RMK AO2
     T02070184=
KW99 080759Z AUTO 00000KT 7SM BKN085 21/17 A3009 RMK AO2=
####018000082####
SANO37 ENMI 080750 RRA
METAR ENSN 080750Z 12004KT 6000 -RA BKN008 15/14 Q1015=
####018000079####
SAPK31 OPKC 080800 RRA
METAR OPRN 080800Z 23016KT 9999 FEW040 37/20 1007.7=
####018000090####
SARM31 LUKK 080800
METAR LUKK 080800Z 33008KT 9999 SCT016 20/15 Q1015 08CLRD65
NOSIG=
####018000225####
SAUS70 KWBC 080800 RRF
METAR
KTSP 080755Z AUTO 00000KT 10SM CLR 15/07 A3003 RMK AO2=
KUNV 080800Z AUTO 00000KT 7SM CLR 21/18 A3009 RMK AO2
     T02070184=
KW99 080759Z AUTO 00000KT 7SM BKN085 21/17 A3009 RMK AO2=
####018003733####
SAUS70 KWBC 080800 RRE
METAR
PAIW 080757Z AUTO 22003KT 10SM CLR 08/06 A3018 RMK AO2 SLP316
     T00830061=
KNSE 080756Z AUTO 00000KT 4SM BR CLR 23/22 A3002 RMK AO2 SLP150
     T02330217 $=
PAGA 080758Z AUTO 01003KT 10SM CLR 19/07 A3006 RMK AO2 SLP223
     T01890067=
KAMN 080755Z AUTO 00000KT 4SM BR CLR 21/21 A3001 RMK AO2=
KAQP 080753Z AUTO 22003KT 10SM CLR 15/15 A3010 RMK AO2=
KASJ 080757Z AUTO 00000KT 5SM HZ CLR 24/21 A2995 RMK AO2=
KBFW 080753Z AUTO 00000KT 10SM SCT055 18/15 A2999 RMK AO2=
KCDA 080755Z AUTO 00000KT 4SM BR SCT055 20/18 A3008 RMK AO2=
KCDD 080751Z AUTO 00000KT 10SM CLR 14/14 A3003 RMK AO2=
KCTZ 080800Z AUTO 00000KT 7SM CLR 23/22 A2992 RMK AO2=
KCVX 080755Z AUTO 00000KT 7SM SCT120 21/20 A2999 RMK AO2=
KDVP 080757Z AUTO 27004KT 10SM CLR 15/13 A3017 RMK AO2
     T01460130=
KEBS 080755Z AUTO 34004KT 10SM SCT026 20/18 A3008 RMK AO2=
KERY 080755Z AUTO 00000KT 10SM SCT090 19/19 A2996 RMK AO2=
KETH 080754Z AUTO 22005KT 10SM CLR 15/14 A3010 RMK AO2=
KFKS 080755Z AUTO 21006KT 10SM BKN110 23/18 A2999 RMK AO2=
KFOZ 080753Z AUTO 00000KT 1/2SM FG BKN016 13/12 A3005 RMK AO2=
KFQD 080759Z AUTO 32004KT 10SM CLR 22/17 A3003 RMK AO2=
KGOV 080755Z AUTO 00000KT 1 1/4SM BR BKN110 20/20 A3002 RMK
     AO2=
KHYX 080755Z AUTO 16005KT 10SM CLR 22/20 A3001 RMK AO2=
KISQ 080755Z AUTO 19006KT 10SM BKN004 OVC009 19/18 A2996 RMK
     AO2=
KLDM 080755Z AUTO 25003KT 10SM BKN090 BKN110 22/21 A3001 RMK
     AO2=
KMCD 080756Z AUTO 16003KT 10SM BKN110 21/18 A2997 RMK AO2=
KMZH 080751Z AUTO 00000KT 10SM BKN100 14/13 A3004 RMK AO2=
KONZ 080757Z AUTO 00000KT 10SM CLR 26/21 A3002 RMK AO2=
KORB 080754Z AUTO 00000KT 10SM CLR 14/13 A3001 RMK AO2=
KOSC 080754Z AUTO 00000KT 7SM CLR 19/17 A3001 RMK AO2=
KOWA 080754Z AUTO 29004KT 10SM CLR 18/17 A3007 RMK AO2=
KPHN 080755Z AUTO 00000KT 3SM BR SCT100 21/20 A3003 RMK AO2=
KRIL 080753Z AUTO 08008KT 10SM FEW110 16/09 A3026 RMK AO2 RAE0658
     SLP169 P0000 T01610089 TSNO=
KRMY 080755Z AUTO 00000KT 10SM CLR 22/20 A3004 RMK AO2=
KSAW 080759Z AUTO 28005KT 10SM OVC003 18/17 A2997 RMK AO2=
KSJX 080755Z AUTO 18004KT 10SM SCT120 20/18 A2997 RMK AO2=
KSLH 080755Z AUTO 00000KT 10SM BKN110 21/21 A2996 RMK AO2=
KTTF 080753Z AUTO 00000KT 10SM CLR 23/22 A3002 RMK AO2=
KTVK 080755Z AUTO 00000KT 5SM CLR 20/20 A3007 RMK AO2=
KVWU 080751Z AUTO 00000KT 10SM CLR 14/14 A3001 RMK AO2=
KXVG 080756Z AUTO 00000KT 7SM CLR 11/11 A3005 RMK AO2=
PANW 080756Z AUTO 36004KT OVC060 10/09 A2998 RMK AO2 PWINO TSNO
     T01000094 401330066 SLP131 $=
K0R3 080759Z AUTO 00000KT 10SM CLR 25/25 A2998 RMK AO2=
K1A5 080800Z AUTO 00000KT 3SM BR 17/16 A3015 RMK AO2 SKY OBSCURED
     T01710160=
K3I2 080800Z AUTO 00000KT 4SM BR SCT001 19/18 A3008 RMK AO2=
K3J7 080800Z AUTO 00000KT 10SM CLR 24/21 A2999 RMK AO2=
K47A 080800Z AUTO 00000KT 7SM CLR 21/18 A3006 RMK AO2
     T02060183=
KACP 080759Z AUTO 00000KT 4SM BR CLR 23/23 A2999 RMK AO2=
KAVC 080800Z AUTO 35005KT 7SM SCT090 120 26/19 A3002 RMK AO2=
KBCB 080800Z AUTO 00000KT 5SM BR CLR 21/21 A3014 RMK AO2=
KBGE 080800Z AUTO 00000KT 10SM CLR 21/20 A3002 RMK AO2=
KBIJ 080800Z AUTO 00000KT 10SM CLR 19/ A3002 RMK AO2=
KBQK 080757Z AUTO 00000KT 10SM CLR 22/22 A3000 RMK AO1 T02200216
     PNO=
KCTJ 080800Z AUTO 00000KT 10SM CLR 21/20 A3006 RMK AO2
     T02100197=
KDPL 080800Z AUTO 02004KT 7SM CLR 23/22 A2993 RMK AO2=
KEDE 080756Z AUTO 03003KT 3SM BR CLR 23/22 A2994 RMK AO2=
KEMV 080757Z AUTO 00000KT 7SM CLR 25/21 A2996 RMK AO2=
KEXX 080759Z AUTO 00000KT 10SM CLR 21/17 A2999 RMK AO2=
KEZF 080758Z AUTO 00000KT 7SM BKN120 27/25 A2996 RMK AO2
     T02650245=
KMQI 080756Z AUTO 06006KT 10SM CLR 26/24 A2993 RMK AO2=
####018000557####
SAPR82 SPIM 080800
METAR
SPHI 080800Z 17009KT CAVOK 15/13 Q1014 RMK PP000=
METAR
SPIM 080800Z 00000KT 7000 OVC022 16/14 Q1013 NOSIG RMK PP000=
METAR
SPQT 080800Z ///// CAVOK 24/23 Q1011 NOSIG RMK PP000=
METAR
SPQU 080800Z 07005KT 010V080 CAVOK 07/M08 Q1024 RMK PP000=
METAR
SPRU 080800Z 16008KT 6000 OVC016 16/13 Q1013 RMK BIRD HAZARD RWY20
PP000=
METAR
SPSO 080800Z 22003KT 8000 BKN020 13/11 Q1014 RMK PP000=
METAR
SPTN 080800Z 00000KT 9999 SCT007 OVC012 11/09 Q1014 RMK PP000=
METAR
SPZO 080800Z 29003KT 9999 SKC 05/02 Q1031 RMK PP000=
####018000087####
SAMX55 MMIO 080800
METAR MMIO 080740Z RTD 00000KT 10SM SKC 17/14 A3012 RMK HZY SC= 
####018000629####
SAUS80 KWBC 080800 RRB
METAR
KRIC 080754Z 00000KT 7SM FEW120 26/20 A2997 RMK AO2 SLP150
     T02610200=
KPZQ 080755Z AUTO 21006KT 7SM CLR 22/22 A2999 RMK AO2=
KCHS 080756Z 29009KT 10SM CLR 25/19 A2996 RMK AO2 SLP144
     T02500194=
KDAB 080753Z 00000KT 10SM CLR 21/19 A2999 RMK AO2 SLP154 T02060194
     $=
KDAB 080753Z 00000KT 10SM CLR 21/19 A2999 RMK AO2 SLP154 T02060194
     $=
PHNY 080756Z AUTO 10006KT 10SM FEW038 22/16 A3009 RMK AO2 TSNO
     T02160155 PK WND 05027/0705 SLP168 $=
KAYS 080800Z AUTO 00000KT 10SM CLR 23/21 A3001 RMK AO1=
KJNX 080759Z AUTO 00000KT 3SM CLR 22/22 A2993 RMK AO2=
####018000190####
SPUS80 KWBC 080804
SPECI
KHTL 080800Z AUTO 26004KT 10SM FEW010 BKN060 OVC100 24/22 A3004
     RMK AO2 RAE0758 P0000=
KMSN 080802Z 00000KT 5SM BR FEW007 OVC110 21/21 A2999 RMK AO2=
####018001360####
SPUS70 KWBC 080804
SPECI
KLEB 080800Z AUTO 00000KT 1 3/4SM BR CLR 22/21 A3004 RMK AO2=
KRVS 080800Z 00000KT 2SM +TSRA BR FEW005 BKN019 OVC028 23/23 A3002
     RMK AO2 LTG DSNT SW P0006=
KZZV 080800Z AUTO 00000KT 4SM BR BKN065 20/19 A3008 RMK AO2=
KBIV 080801Z AUTO 00000KT 7SM -RA SCT001 SCT024 BKN090 24/22 A3003
     RMK AO2 P0000=
KBRL 080801Z AUTO 1/2SM FG VV001 23/22 A3002 RMK AO2 $=
KDHT 080801Z AUTO 32007KT 9SM BKN013 BKN025 OVC045 19/16 A3026 RMK
     AO2=
KDVN 080801Z AUTO 00000KT 2SM BR FEW007 22/21 A3001 RMK AO2=
KSSF 080801Z AUTO 06007KT 10SM OVC013 26/23 A2992 RMK AO2=
KTYR 080801Z AUTO 14005KT 9SM SCT006 24/24 A3002 RMK AO2=
PAWD 080801Z AUTO 00000KT 3SM BR BKN003 OVC050 11/09 A2998 RMK AO2
     RAE00 CIG 001V007 P0000 TSNO=
KACK 080802Z AUTO 12006KT 7SM SCT001 19/18 A3006 RMK AO2 TSNO=
KHAO 080802Z AUTO 00000KT 2 1/2SM BR CLR 21/20 A3007 RMK AO2=
KISW 080802Z AUTO 00000KT 10SM FEW007 BKN015 21/20 A3000 RMK AO2
     TSNO=
KIWI 080802Z AUTO 00000KT 8SM BKN003 OVC012 21/19 A3008 RMK
     AO2=
KRHI 080802Z AUTO 29004KT 7SM SCT001 BKN007 OVC100 19/18 A3003 RMK
     AO2=
KSLK 080802Z AUTO 00000KT 1 3/4SM BR CLR 17/16 A3009 RMK AO2=
KVAY 080802Z AUTO 00000KT 1/2SM FG BKN003 OVC006 23/23 A3001 RMK
     AO2=
KWST 080802Z AUTO 00000KT 9SM BKN013 BKN090 22/21 A3005 RMK
     AO2=
####018000090####
SAAJ31 UBBB 080800
METAR UBBL 080800Z 13007KT 9999 NSC 34/15 Q1012 NOSIG RMK G/O SC07=
####018000341####
SACU31 MUHA 080800
METAR
MUHA 080755Z 08003KT 8000 SCT020 25/24 Q1014=
MUVR 080752Z 00000KT 8000 FEW018CB FEW020 BKN200 25/23 Q1014=
MUCL  NIL=
MUCF  NIL=
MUSC  NIL=
MUCC 080754Z 00000KT 9000 FEW020 26/23 Q1014=
MUCM 080750Z 14004KT 9000 FEW020 23/21 Q1014=
MUMZ  NIL=
MUHG 080750Z 17006KT 140V220 CAVOK 24/21 Q1015=
MUCU  NIL=
####018000155####
SAZA42 FAJS 080800 RRB
METAR FAWK 080800Z 10012KT 9999 FEW030 12/// Q1038=
METAR FASK 080800Z 12010KT 8000 NSC 13/// Q1036=
METAR FALM 080800Z NIL=
####018000341####
SAMX44 MMMD 080800
METAR MMCZ 080742Z 08010KT 6SM  SCT080 BKN200 26/24 A2987 
      RMK 8/058 SC HZY=
METAR MMMD 080750Z 11005KT 7SM  OVC070 22/22 A2982 RMK 8/06/=
METAR MMTP 080740Z 00000KT 10SM BKN020 BKN100 25/22 A2988
      RMK 8/170=
METAR MMUN 080749Z 12007KT 6SM  FEW015 SCT090 SCT300 27/24 A2987 
      RMK 8/538 HZY=
####018000085####
SANO36 ENMI 080750 RRA
METAR ENHK 080750Z 09014KT 9999 FEW035 BKN080 15/08 Q1012=
####018000091####
SAPF20 NTAA 080800
METAR NTAA 080800Z 09002KT 9999 FEW023 25/22 Q1015 WS ALL RWY NOSIG=
####018000093####
SAIY41 LIIB 080700 RRA
METAR LIVE 080655Z 18002KT CAVOK 13/09 Q1025 RMK SKC VIS MIN 9999=
####018001560####
SAXX60 KWBC 080800 RRD
METAR
KNEL 080800Z AUTO 00000KT 3SM BR FEW080 BKN110 22/20 A3001 RMK AO2
     SLP159 T02220200 $=
KNFG 080756Z 00000KT 5SM BR OVC015 16/13 A2991 RMK AO2 SLP127
     T01610133 401830144=
K79J 080756Z AUTO 00000KT 10SM CLR 25/22 A3002 RMK AO2 SLP160
     T02500222 TSNO $=
KHUA 080755Z AUTO RMK AO2 SLPNO $=
KRCA 080755Z 00000KT 7SM CLR 12/09 A3023 RMK AO2A SLP227 T01220087
     $=
KSZL 080755Z 00000KT 10SM BKN035 BKN048 23/22 A3004 RMK AO2A
     RAE0704B0721E0735DZB0704E0738 SLP166 T02330225 $=
PHBK 080756Z AUTO 14004KT 10SM OVC060 26/18 A3002 RMK AO2 SLP168
     T02560183 TSNO $=
TTPP 080800Z 00000KT 9999 FEW016 BKN280 26/25 Q1011 NOSIG=
KNBC 080756Z AUTO 25003KT 10SM CLR 24/18 A2998 RMK AO2 SLP151
     T02390183=
KNBG 080755Z AUTO 00000KT 7SM CLR 24/23 A3000 RMK AO2 SLP158
     T02440233 PWINO $=
KNCA 080756Z AUTO 04003KT 10SM CLR 25/22 A2991 RMK AO2 SLP128
     T02500217=
KNGP 080756Z AUTO 09009KT 10SM SCT036 BKN046 29/26 A2981 RMK AO2
     RAB18E32 SLP095 P0000 T02890261 $=
KNGU 080759Z 10003KT 5SM BR FEW080 BKN130 26/24 A2996 RMK AO2
     SLP146 T02610239=
KNJM 080757Z AUTO 36004KT 10SM CLR 26/19 A2991 RMK AO2 SLP130
     T02610189 $=
KNTU 080756Z 11004KT 8SM CLR 25/24 A2994 RMK AO2 SLP142 T02500239
     CHINO RWY 05R $=
TTPP 080800Z 00000KT 9999 FEW016 BKN280 26/25 Q1011 NOSIG=
KHLR 080756Z AUTO 10005KT 10SM BKN017 26/ A2998 RMK AO2 SLP143
     T0256 $=
PHBK 080756Z AUTO 14004KT 10SM OVC060 26/18 A3002 RMK AO2 SLP168
     T02560183 TSNO $=
####018000125####
SAUS80 KWBC 080800 CCC
METAR
KP60 080756Z AUTO 31003KT 02/M01 A3043 RMK AO2 SLP258 T00221006
     PWINO FZRANO TSNO=
####018000892####
SAUS70 KWBC 080804
METAR
KFKA 080803Z AUTO 31005KT 5SM BR CLR 19/19 A3006 RMK AO2
     T01920186=
KRHP 080801Z AUTO 00000KT 4SM BR CLR 18/17 A3012 RMK AO2=
PABA 080801Z AUTO 24006KT 10SM -RA OVC005 03/03 A3005 RMK AO2
     UPE0726RAB0707E0708B0726 SLP176 P0000 T00330033=
PAIK 080801Z AUTO 22003KT 10SM CLR 16/08 A3013 RMK AO2 SLP243
     T01560083=
KBQP 080807Z AUTO 00000KT 4SM BR CLR 24/24 A3003 RMK AO2=
KFYJ 080801Z AUTO 00000KT 5SM BKN120 26/24 A2997 RMK AO1=
KGEV 080801Z AUTO 00000KT 10SM CLR 24/17 A3019 RMK AO2=
KHBI 080801Z AUTO 00000KT 10SM CLR 23/17 A3001 RMK AO2=
KHRJ 080801Z AUTO 00000KT 7SM CLR 26/21 A2994 RMK AO2=
KJYL 080801Z AUTO 00000KT 10SM CLR 23/21 A3000 RMK AO2=
KMLJ 080802Z AUTO 00000KT 10SM CLR 22/22 A3001 RMK AO2=
KMWK 080802Z AUTO 00000KT 7SM CLR 24/19 A3004 RMK AO2=
KUKF 080801Z AUTO 00000KT 10SM CLR 22/18 A3006 RMK AO1=
####018000084####
SAAG SAWG 080800
METAR SAWG 080800Z  29008KT 9999  SCT030 SCT100
M03/M04 Q0990=
####018000389####
SABU31 LBSM 080800
METAR LBSF 080800Z 28006MPS 9999 BKN040 15/10 Q1018 NOSIG=
METAR LBWN 080800Z 29007MPS 250V330 9999 -RA BKN023 19/14 Q1014
 NOSIG=
METAR LBBG 080800Z 25006MPS 9999 -RA FEW048 SCT066 BKN110 17/15
 Q1015 NOSIG=
METAR LBPD 080800Z 26005MPS 240V300 9999 -RA OVC050 16/12 Q1016
 NOSIG=
METAR LBGO 080800Z 23001MPS 9999 -RA FEW017 BKN033 OVC070 16/14
 Q1017 NOSIG=
####018000089####
SASN33 ESWI 080750 RRA
METAR ESNK 080750Z AUTO 17009KT 9999NDV FEW063/// 19/14 Q1013=
####018000128####
SAIV20 DIAP 080800
METAR DIAP 080800Z 00000KT 5000 -RA FEW005 BKN012 BKN080 26/25 Q1015
TEMPO 3000 RA BKN005 BKN012 OVC080=
####018000151####
SATD31 TTPP 080800
METAR
TTPP 080800Z 00000KT 9999 FEW016 BKN280 26/25 Q1011 NOSIG=
TTCP 080800Z 07004KT 9999 FEW016 SCT280 25/23 Q1012 NOSIG=
 
####018000379####
SASD31 OEJD 080800
METAR OEDF 080800Z 36012KT 8000 NSC 43/07 Q1000 NOSIG=
METAR OEDR 080800Z 36012KT 7000 SKC 44/09 Q0999 NOSIG=
METAR OEJN 080800Z 30010KT CAVOK 36/25 Q1002 NOSIG=
METAR OEMA 080800Z 12008KT CAVOK 44/00 Q1007 NOSIG=
METAR OERK 080800Z 02014KT CAVOK 41/00 Q1008 NOSIG=
METAR OERY 080800Z 06012G22KT 5000 DU NSC 42/02 Q1009 NOSIG=
METAR OYSN 080800Z NIL=
####018000071####
SAPR94 SPIM 080800
METAR SPJL 080800Z NIL=
METAR SPME 080800Z NIL=
####018000222####
SABX31 KWBC 080750 RRA
METAR
EBBL 080755Z 20004KT 9999 FEW220 28/11 Q1019 BLU BLU=
EBFN 080755Z 27005KT 9999 FEW042 SCT130 BKN190 21/15 Q1019 BLU
     BLU=
EBFS 080755Z 20008KT 9999 SCT250 24/12 Q1021 BLU BLU=
####018000068####
SABZ18 SBRP 080800
METAR SBRP 080800Z 16003KT CAVOK 11/09 Q1019=
####018000100####
SAFG20 SOCA 080800
METAR SOCA 080800Z 23001KT 9999 FEW011 SCT026 BKN040 25/24 Q1012
RERA NOSIG=
####018000099####
SPIQ31 KWBC 080804
SPECI
KQMG 080758Z AUTO 03014KT 12SM FEW032 20/15 A3016 RMK AO2 SLP140 $=
####018000380####
SAMX31 KWBC 080745 RRD
METAR
MMCZ 080742Z 08010KT 6SM SCT080 BKN200 26/24 A2987 RMK 8/058 SC
     HZY=
MMMD 080750Z 11005KT 7SM OVC070 22/22 A2982 RMK 8/06/=
MMPR 080743Z 00000KT 12SM SCT025 SCT070 25/23 A2981 RMK 8/430=
MMTP 080740Z 00000KT 10SM BKN020 BKN100 25/22 A2988 RMK 8/170=
MMUN 080749Z 12007KT 6SM FEW015 SCT090 SCT300 27/24 A2987 RMK
     8/538 HZY=
####018000115####
SAMX42 KWBC 080745 RRC
METAR
MMZC 080744Z 11006KT 8SM BKN020 OVC090 16/12 A3019 RMK 8/76/ OCNL
     DROPS=
####018000088####
SASA31 KWBC 080700 RRC
METAR
SKCL 080700Z VRB02KT 9999 FEW025 BKN100 21/18 A3000=
####018000227####
SAUK41 KWBC 080750 RRC
METAR
EGDM 080750Z 25002KT 9999 FEW007 SCT014 BKN022 16/14 Q1019 BECMG
     FEW015 BKN022=
EGDM 080750Z NIL=
EGDY 080750Z NIL=
EGDY 080750Z 26001KT 9999 FEW010 BKN130 18/15 Q1018 BLU NOSIG=
####018000132####
SAUK42 KWBC 080750 RRD
METAR
EGOV 080750Z NIL=
EGOV 080750Z 21013KT 9999 FEW012 SCT060 BKN220 15/12 Q1016 BLU
     NOSIG=
####018000308####
SAXX99 KWBC 080700 RRX
METAR
LHDC 080745Z 01009KT 9999 FEW026 20/13 Q1021 NOSIG=
LHKE 080745Z 06004MPS 9999 FEW045 23/12 Q1021 BECMG NSC RMK
     BLU=
LHPP 080745Z 01008KT CAVOK 20/12 Q1023 NOSIG=
LHSN 080745Z 04004MPS CAVOK 22/12 Q1021 NOSIG RMK BLU=
LHUD 080745Z 35005KT CAVOK 20/15 Q1022=
####018000105####
SPCN47 CWAO 080802
SPECI CYPQ 080802Z AUTO ///// 1 1/4SM CLR 20/20 A3003 RMK VSBY VRBL
0.3V7.0=

####018000095####
SPUS52 KWBC 080804
SPECI
KDHT 080801Z AUTO 32007KT 9SM BKN013 BKN025 OVC045 19/16 A3026=
####018000077####
SPUS53 KWBC 080804
SPECI
KBRL 080801Z AUTO 1/2SM FG VV001 23/22 A3002=
####018000084####
SAMZ40 FQMA 080800
METAR FQMA 080800Z 21005KT 9999 BKN020 22/17 Q1031 NOSIG=

####018000086####
SPUS53 KWBC 080804
SPECI
KMSN 080802Z 00000KT 5SM BR FEW007 OVC110 21/21 A2999=
####018001722####
SAEU KAWN 080800 RRK
METAR EGDX 080750Z 23003KT 9999 FEW017 SCT021 BKN100 17/12 Q1019 WHT=
METAR EGDY 080750Z 26001KT 9999 FEW010 BKN130 18/15 Q1018 BLU NOSIG=
METAR EGOP 080750Z 24007KT 9999 FEW018 BKN090 17/14 Q1018 BLU=
METAR EGOV 080750Z 21013KT 9999 FEW012 SCT060 BKN220 15/12 Q1016 BLU
      NOSIG=
METAR EGVN 080750Z 27004KT 9999 FEW022 SCT120 BKN150 17/11 Q1019 BLU
      NOSIG=
METAR EGVO 080750Z 23006KT 5000 -RADZ FEW003 OVC004 17/16 Q1019 YLO2
      BECMG BKN012 GRN=
METAR EGWC 080750Z 22008KT 9999 FEW020 BKN090 15/10 Q1018 BLU=
METAR EGXG 080750Z 22007KT CAVOK 17/10 Q1016 BLU=
METAR EGXJ 080750Z AUTO 25009KT 9999NDV // BKN080/// 16/10 Q1017=
METAR EGXT 080750Z 24009KT CAVOK 16/10 Q1018 BLU NOSIG=
METAR EGXW 080750Z 25009KT 9999 -RA FEW020 BKN120 16/10 Q1017 BLU NOSIG=
METAR EGXX 080750Z AUTO 22009KT 9999NDV // NCD ///// Q////=
METAR EGXZ 080750Z 19004KT CAVOK 16/11 Q1016 BLU=
METAR EPGD 080800Z 31012KT CAVOK 20/11 Q1021=
METAR EPKT 080800Z 32011KT CAVOK 19/08 Q1023=
METAR EPPO 080800Z 22002KT CAVOK 20/10 Q1023=
METAR EPWR 080800Z 23003KT 140V300 CAVOK 21/11 Q1024=
METAR LATI 080800Z 00000KT CAVOK 25/10 Q1016 NOSIG=
METAR LEJR 080800Z 28003KT 230V330 CAVOK 24/20 Q1015=
METAR LKKV 080800Z VRB01KT CAVOK 18/11 Q1024=
METAR LKMT 080800Z VRB02KT 9999 FEW036 19/11 Q1023 NOSIG=
METAR LKTB 080800Z 01008KT 340V050 9999 FEW046 21/07 Q1023 NOSIG=
METAR LQBK 080800Z 35004KT 9999 FEW033 21/11 Q1022 NOSIG=
METAR LYBE 080800Z 29009KT CAVOK 17/14 Q1022 NOSIG=
METAR LYNI 080800Z 33007KT 9999 SCT013 OVC033 15/13 Q1020 NOSIG=
METAR LYPG 080800Z 36014G24KT 9999 FEW040 26/07 Q1018 NOSIG=
METAR LYTV 080800Z 36004KT 9999 FEW053 26/08 Q1018 NOSIG=
####018000081####
SPUS72 KWBC 080804
SPECI
KTYR 080801Z AUTO 14005KT 9SM SCT006 24/24 A3002=
####018000077####
SPUS73 KWBC 080804
SPECI
KBRL 080801Z AUTO 1/2SM FG VV001 23/22 A3002=
####018000573####
SAEW31 LEMM 080800
METAR LEMD 080800Z 06004KT 010V110 CAVOK 27/14 Q1019 NOSIG=
METAR LEBL 080800Z NIL=
METAR LEPA 080800Z VRB01KT CAVOK 29/14 Q1020 NOSIG=
METAR LEZL 080800Z 27004KT 230V320 CAVOK 27/18 Q1015 NOSIG=
METAR LEMG 080800Z 17004KT 130V230 9999 FEW035 27/17 Q1016 NOSIG=
METAR LEVC 080800Z VRB01KT CAVOK 28/19 Q1019 NOSIG=
METAR LEAL 080800Z 08005KT 040V120 CAVOK 29/16 Q1019 NOSIG=
METAR LEIB 080800Z 08008KT CAVOK 27/22 Q1020 NOSIG=
METAR LELC 080800Z 00000KT CAVOK 27/14 Q1019 NOSIG=
METAR LEVX 080800Z VRB01KT 7000 VCFG NSC 20/19 Q1014=
####018000333####
SATS41 DTTA 080800
METAR DTTB 080800Z 33010KT 9999 SCT020 27/19 Q1020=
METAR DTTD 080800Z 09004KT 9999 FEW020 25/17 Q1021=
METAR DTTG 080800Z 09012KT 9999 FEW020 27/18 Q1019 NOSIG=
METAR DTTK 080800Z 36004KT CAVOK 29/19 Q1019=
METAR DTTL 080800Z 31006KT CAVOK 27/19 Q1019=
METAR DTTN 080800Z 22004KT CAVOK 27/16 Q1019=
####018000788####
SAEW32 LEMM 080800
METAR LEAS 080800Z VRB01KT 9999 4000S SCT015 SCT020TCU 19/18 
Q1017 NOSIG=
METAR LEBB 080800Z VRB01KT 7000 FEW015 25/20 Q1016 NOSIG=
METAR LECO 080800Z VRB04KT 4000 1500S TS -RA SCT003 FEW005CB 
BKN006 19/19 Q1016=
METAR LEGE 080800Z VRB01KT CAVOK 28/20 Q1019=
METAR LEST 080800Z 10008KT 070V130 8000 FEW018 17/16 Q1016 NOSIG=
METAR LEZG 080800Z 09009KT 060V120 CAVOK 27/17 Q1019=
METAR LESO 080800Z 04003KT CAVOK 24/19 Q1016=
METAR LEVT 080800Z VRB01KT 9999 FEW035 24/20 Q1019=
METAR LERS 080800Z VRB01KT 9999 FEW045 27/18 Q1019=
METAR LEMH 080800Z VRB01KT CAVOK 29/21 Q1020=
METAR LEAM 080800Z 14005KT 110V180 CAVOK 32/11 Q1017=
METAR LEGR 080800Z 04004KT 350V080 9999 SCT060 28/13 Q1018=
METAR LERL 080800Z 07008KT CAVOK 28/12 Q1018=
####018000343####
SAEW33 LEMM 080800
METAR GCLP 080800Z 01020KT 9999 BKN016 22/18 Q1017 NOSIG=
METAR GCXO 080800Z 29014KT 0100 R30/0200N R12/0150N FG OVC000 
16/16 Q1020 NOSIG=
METAR GCTS 080800Z 07014KT 9999 BKN014 21/18 Q1017 NOSIG=
METAR GCRR 080800Z 01017KT 340V040 9000 SCT015 22/18 Q1016=
METAR GCFV 080800Z 03009KT 9999 BKN015 22/18 Q1016=
####018000401####
SAEW35 LEMM 080800
METAR LEAB 080800Z 14006KT 110V170 CAVOK 27/11 Q1022 NOSIG=
METAR LEBZ 080800Z 12002KT CAVOK 27/15 Q1015=
METAR LELN 080800Z 08007KT 050V110 CAVOK 25/12 Q1020=
METAR LESA 080800Z VRB01KT CAVOK 26/17 Q1019=
METAR LETO 080800Z 09004KT 050V120 CAVOK 26/14 Q1019 NOSIG=
METAR LEVD 080800Z 12006KT 070V170 CAVOK 26/13 Q1019=
METAR LEVS 080800Z VRB03KT CAVOK 27/12 Q1020=
####018000086####
SPUS73 KWBC 080804
SPECI
KMSN 080802Z 00000KT 5SM BR FEW007 OVC110 21/21 A2999=
####018000200####
SAEW36 LEMM 080800
METAR GCHI 080800Z 01015KT 330V050 9999 SCT013 OVC022 21/18 Q1018=
METAR GCLA 080800Z 01012KT 9999 BKN020 22/18 Q1019=
METAR GEML 080800Z 08005KT 020V120 CAVOK 25/21 Q1017=
####018000322####
SAEW34 LEMM 080800
METAR LEBA 080800Z VRB02KT 9999 FEW050 27/14 Q1015=
METAR LEDA 080800Z NIL=
METAR LEJR 080800Z 28003KT 230V330 CAVOK 24/20 Q1015=
METAR LELL 080800Z 27003KT 210V330 CAVOK 26/15 Q1019=
METAR LEPP 080800Z 00000KT CAVOK 26/15 Q1020=
METAR LEXJ 080800Z VRB02KT 6000 SCT014 SCT020 23/19 Q1016=
####018000086####
SPUS81 KWBC 080804
SPECI
KMSN 080802Z 00000KT 5SM BR FEW007 OVC110 21/21 A2999=
####018000127####
SAUS45 KRIW 080804 COR
MTRP60
METAR KP60 080756Z AUTO 31003KT 02/M01 A3043 RMK AO2 SLP258 
T00221006 PWINO FZRANO TSNO
####018000260####
SAGG31 UGTB 080800
METAR UGKO 080800Z 00000KT 9999 SCT033CB BKN100 30/22 Q1012
           NOSIG=
METAR UGSB 080800Z 27008KT 9999 SCT023CB SCT070 27/23 Q1011 NOSIG=
METAR UGTB 080800Z 00000KT 9999 SCT050 BKN100 31/19 Q1015 NOSIG RMK
      31CLRD80=
####018000536####
SATS40 DTTA 080800
METAR DTKA 080800Z 29010KT 9999 FEW023 27/17 Q1020 NOSIG=
METAR DTMB 080800Z 33006KT 9999 FEW020 26/18 Q1019 NOSIG=
METAR DTNZ 080800Z 05003KT 340V120 CAVOK 28/13 Q1019=
METAR DTTA 080800Z 28005KT 240V340 9999 FEW026 27/17 Q1019  NOSIG=
METAR DTTF 080800Z 03002KT CAVOK 28/15 Q1019 NOSIG=
METAR DTTJ 080800Z 11004KT 8000 FEW020 28/23 Q1019 NOSIG=
METAR DTTR 080800Z 08010KT CAVOK 25/15 Q1020=
METAR DTTX 080800Z 07004KT CAVOK 28/19 Q1019 NOSIG=
METAR DTTZ 080800Z 08012KT CAVOK 29/23 Q1019 NOSIG=
####018000169####
SACY31 LCLK 080800
METAR LCLK 080800Z 21014KT 9999 FEW010 29/23 Q1008 NOSIG=
METAR LCPH 080800Z 19006KT 140V240 9999 FEW020 28/22 Q1009=
METAR LCNC 080800Z NIL=
####018000134####
SAGR31 LGAT 080750 RRA
METAR LGLM 080750Z 05010KT 9999 FEW008 SCT020 21/18 Q1013=
METAR LGSM 080750Z 01011KT CAVOK 28/15 Q1010=
####018000077####
SAEO32 EETN 080750
METAR EEKE 080750Z 34009KT 290V360 CAVOK 21/12 Q1016=
####018000347####
SAIE31 EIDB 080800
METAR EIDW 080800Z 24013KT 200V270 9999 FEW023 BKN180 15/10 Q1015
     NOSIG=
METAR EINN 080800Z 19011KT 9999 FEW012 SCT040 BKN080 14/11 Q1015
     NOSIG=
METAR EICK 080800Z 21009KT 9999 FEW008 SCT050 BKN080 14/12 Q1016
     NOSIG=
METAR EIKN 080800Z 19008KT 160V220 9999 FEW015 SCT045 13/10 Q1013
     NOSIG=
####018000651####
SAMS31 WMKK 080800
METAR 080800Z
METAR WBGG 080800Z 27005KT 8000 -SHRA FEW015CB BKN020 BKN150 26/24 
Q1007
     NOSIG=
METAR WBKK 080800Z 10010KT 9000 -TSRA FEW013 FEW016CB SCT035 OVC260 
25/24
     Q1008 NOSIG=
METAR WBSB 080800Z 26009KT 9999 SCT015 FEW016CB SCT140 BKN300 30/24 
Q1007
     NOSIG=
METAR WMKK 080800Z 22004KT 160V280 9999 SCT018 BKN140 BKN280 31/26 
Q1008
     NOSIG=
METAR WMKP 080800Z 21010KT 9999 FEW020 BKN300 31/25 Q1008 NOSIG=
METAR WSSL 080800Z 30004KT 260V320 9999 FEW020 BKN260 30/24 Q1008=
METAR WSSS 080800Z 19004KT 160V260 9999 FEW017 FEW020TCU SCT150 
BKN270
     30/25 Q1009 NOSIG=
####018000075####
SACN50 CWAO 080730
WGP SA 0730 AUTO8 M M M M/15/12/MMMM/M/M M 94MM=

####018000075####
SACN50 CWAO 080745
WGP SA 0745 AUTO8 M M M M/15/12/MMMM/M/M M 51MM=

####018000074####
SACN50 CWAO 080745
WPN SA 0745 AUTO8 M M M M/15/M/0000/M/M M 1MMM=

####018000782####
SARS18 KAWN 080800 RRB
METAR BIKF 080800Z 02021KT 9999 FEW014 SCT027 BKN032 09/05 Q0993=
METAR LUKK 080800Z 33008KT 9999 SCT016 20/15 Q1015 08CLRD65 NOSIG=
METAR UBBB 080800Z 34024KT CAVOK 32/27 Q1011 NOSIG RMK R88CLRD70=
METAR UHHH 080800Z METAR 03005MPS 9999 BKN030CB OVC100 18/14 Q1010
      NOSIG=
METAR UKBB 080800Z 29003MPS 260V330 9999 BKN016 23/18 Q1014 88CLRD95
      NOSIG=
METAR UKFF 080800Z VRB01MPS 9999 FEW033 27/18 Q1013 19010070 NOSIG=
METAR UKKK 080800Z 32003MPS 9999 BKN014 21/18 Q1014 26CLRD70 NOSIG=
METAR UKLL 080800Z 30005MPS 230V350 9999 SCT033CB BKN033 17/12 Q1020
      31210365 NOSIG=
METAR UKOO 080800Z 01004MPS 320V030 CAVOK 23/16 Q1014 34090070 NOSIG=
METAR UTTT 080800Z 27003MPS 180V350 CAVOK 38/09 Q1011 R08R/CLRD70 NOSIG=
####018000889####
SAXX70 KAWN 080800 RRG
METAR KQEJ 080750Z AUTO 20006KT 7SM CLR 27/18 A2990 RMK A02=
METAR KQAE 080755Z 32007G14KT 9000 HZ CLR 41/09 A2965 RMK SLP037=
METAR KQLT 080755Z AUTO VRB04KT 9999 36/04 A2995 RMK AO2 SLP008 T03630041
      $=
METAR KQQS 080755Z AUTO 36011G18KT 320V060 9999 CLR 28/08 A3018 RMK
      AO2 SLP082 T02830081 $=
METAR KQEL 080800Z AUTO 24002KT 7SM CLR 27/19 A2970 RMK A02=
METAR KQEN 080800Z AUTO 09002KT 7SM FEW003 BKN021 BKN070 18/17 A3039
      RMK A02=
METAR KQEP 080800Z AUTO 21001KT 7SM CLR 29/16 A2983 RMK A02=
METAR KQEQ 080800Z AUTO 28001KT 7SM CLR 25/20 A2980 RMK A02=
METAR KQES 080800Z AUTO 31003KT 6SM BR FEW100 22/18 A2983 RMK A02=
METAR KQEW 080800Z AUTO 34003KT 7SM CLR 27/19 A2981 RMK A02=
METAR KQEY 080800Z AUTO 29003KT 7SM CLR 28/15 A2957 RMK A02=
METAR KQFB 080800Z AUTO 08003KT 5SM -SHRA BKN036 24/21 A2990 RMK A02=
####018000132####
SAUS46 KPDT 080804
MTRHMS
METAR KHMS 080750Z 29006KT 15SM SKC 21/06 A2994 RMK SLP135 T02060063
     403540148 RSNK 21/04020
####018001673####
SAXN17 KAWN 080800 RRC
METAR MMMD 080750Z 11005KT 7SM OVC070 22/22 A2982 RMK 8/06/=
METAR MMUN 080749Z 12007KT 6SM FEW015 SCT090 SCT300 27/24 A2987 RMK
      8/538 HZY=
METAR MUHA 080755Z 08003KT 8000 SCT020 25/24 Q1014=
METAR MYNN 080800Z 00000KT 9999 FEW015 SCT040 27/27 A2993=
METAR NSTU 080759Z 08009KT 10SM SCT014 BKN045 28/26 A2988 RMK SLP119
      T02790262=
METAR NTAA 080800Z 09002KT 9999 FEW023 25/22 Q1015 WS ALL RWY NOSIG=
METAR NWWW 080800Z AUTO 04002KT 9999NDV FEW046/// 19/16 Q1016=
METAR PAGA 080758Z AUTO 01003KT 10SM CLR 19/07 A3006 RMK AO2 SLP223
      T01890067=
METAR PKWA 080800Z AUTO 08012KT 4SM RA SCT006 BKN016 OVC025 25/23 A2985
      RMK AO2 P0022 T02520232=
METAR PTYA 080754Z 07010KT 12SM FEW016 SCT030 BKN130 OVC300 26/23 A2980
      RMK SHRAB10E25 CB VC NE-E SLP093 T02610225=
METAR RCKH 080800Z 25013KT 200V280 9999 FEW013 BKN120 32/26 Q1008 NOSIG
      RMK 29013KT/RWY09=
METAR RJOI 080800Z 14005KT 9000 HZ FEW120 BKN230 28/22 A2977 RMK SLP079
      T02780217=
METAR RKSS 080800Z 29005KT 9999 FEW030 OVC120 26/16 Q1008 NOSIG=
METAR SKBQ 080800Z 29004KT 2000 BRFG BKN002 25/25 A2987 RMK APRSM=
METAR SOCA 080800Z 23001KT 9999 FEW011 SCT026 BKN040 25/24 Q1012 RERA
      NOSIG=
METAR SVMG 080800Z 09008KT 9999 FEW010 26/25 Q1012 NOSIG=
METAR TAPA 080800Z 07010KT 9999 FEW020 28/23 Q1014=
METAR TFFF 080800Z AUTO 06010KT 030V110 9999NDV FEW010/// BKN023///
      BKN029/// 28/25 Q1013=
METAR TTCP 080800Z 07004KT 9999 FEW016 SCT280 25/23 Q1012 NOSIG=
METAR TTPP 080800Z 00000KT 9999 FEW016 BKN280 26/25 Q1011 NOSIG=
METAR VHHH 080800Z 20014KT 9999 FEW020 SCT030 34/24 Q1006 NOSIG=
####018000081####
SPNI20 DNMM 080753
SPECI DNMM 080753Z 00000KT 6000 SCT010 26/25 Q1015 NOSIG=
####018001731####
SASA KAWN 080800 RRB
METAR SBBE 080800Z 11005KT CAVOK 25/22 Q1012=
METAR SBCF 080800Z 18001KT CAVOK 10/08 Q1022=
METAR SBCT 080800Z 06001KT CAVOK 11/10 Q1020=
METAR SBCZ 080800Z 00000KT 8000 FEW003 SCT020 23/23 Q1011=
METAR SBGO 080800Z 10004KT CAVOK 15/09 Q1020=
METAR SBJP 080800Z 23005KT 9999 FEW020 BKN070 22/21 Q1014=
METAR SBLO 080800Z 00000KT CAVOK 17/13 Q1018=
METAR SBMN 080800Z 03005KT 9999 FEW010 BKN100 26/24 Q1011=
METAR SBMO 080800Z 00000KT 9999 SCT020 BKN100 21/21 Q1016=
METAR SBMQ 080800Z 36003KT CAVOK 25/25 Q1012=
METAR SBSL 080800Z 12003KT 9999 SCT017 26/24 Q1012=
METAR SBSN 080800Z 00000KT CAVOK 24/22 Q1011=
METAR SBTE 080800Z 27001KT 9999 FEW020 BKN100 25/24 Q1013=
METAR SBVT 080800Z 28002KT 9999 FEW020 17/16 Q1020=
METAR SCAR 080800Z 28003KT 230V330 9999 OVC023 15/09 Q1016=
METAR SCDA 080800Z 01009KT 9999 OVC026 15/08 Q1017=
METAR SCEL 080800Z VRB02KT 4000 BR SCT130 03/02 Q1021 NOSIG=
METAR SCFA 080800Z 00000KT 9999 OVC015 13/09 Q1016=
METAR SCIE 080800Z 30014KT 9999 BKN006 OVC010 13/11 Q1019=
METAR SCSE 080800Z 00000KT CAVOK 07/06 Q1017 NEFO PLAYA SKC=
METAR SKBQ 080800Z 29004KT 2000 BRFG BKN002 25/25 A2987 RMK APRSM=
METAR SPHI 080800Z 17009KT CAVOK 15/13 Q1014 RMK PP000=
METAR SPQT 080800Z ///// CAVOK 24/23 Q1011 NOSIG RMK PP000=
METAR SPQU 080800Z 07005KT 010V080 CAVOK 07/M08 Q1024 RMK PP000=
METAR SPRU 080800Z 16008KT 6000 OVC016 16/13 Q1013 RMK BIRD HAZARD
      RWY20 PP000=
METAR SPSO 080800Z 22003KT 8000 BKN020 13/11 Q1014 RMK PP000=
METAR SPTN 080800Z 00000KT 9999 SCT007 OVC012 11/09 Q1014 RMK PP000=
METAR SPZO 080800Z 29003KT 9999 SKC 05/02 Q1031 RMK PP000=
METAR SVMG 080800Z 09008KT 9999 FEW010 26/25 Q1012 NOSIG=
####018001617####
SAZZ40 KAWN 080800 RRL
METAR BIAR 080800Z 35018KT 9999 RA BKN019 08/06 Q0994=
METAR BIEG 080800Z 01014KT 2000 VCSH BR VV002 08/08 Q0989=
METAR BIKF 080800Z 02021KT 9999 FEW014 SCT027 BKN032 09/05 Q0993=
METAR BIRK 080800Z 36017G27KT 270V110 9999 FEW018 SCT040 09/05 Q0991=
METAR K79J 080756Z AUTO 00000KT 10SM CLR 25/22 A3002 RMK AO2 SLP160
      T02500222 TSNO $=
METAR KNFG 080756Z 00000KT 5SM BR OVC015 16/13 A2991 RMK AO2 SLP127
      T01610133 401830144=
METAR KNGU 080759Z 10003KT 5SM BR FEW080 BKN130 26/24 A2996 RMK AO2
      SLP146 T02610239=
METAR LKKV 080800Z VRB01KT CAVOK 18/11 Q1024=
METAR LQBK 080800Z 35004KT 9999 FEW033 21/11 Q1022 NOSIG=
METAR MYNN 080800Z 00000KT 9999 FEW015 SCT040 27/27 A2993=
METAR NSTU 080759Z 08009KT 10SM SCT014 BKN045 28/26 A2988 RMK SLP119
      T02790262=
METAR OLBA 080800Z 24008KT 210V270 8000 FEW080 28/18 Q1011 NOSIG=
METAR ORSU 080800Z VRB03KT 8000 SKC 39/M01 Q1010=
METAR PABA 080801Z AUTO 24006KT 10SM -RA OVC005 03/03 A3005 RMK AO2
      UPE0726RAB0707E0708B0726 SLP176 P0000 T00330033=
METAR RJAW 080800Z 10010KT 9999 SCT015 BKN250 29/25 Q1014 RMK 3CU015
      A2997=
METAR RJSM 080800Z 09004KT 8000 FEW005 BKN040 BKN080 21/18 Q1008 RMK
      1ST005 5SC040 5AC080 A2978 WIND BY EQPT/10 FCST 0814 TEMPO
      0813 3000 BR SCT001ST BKN003ST BECMG 1314 4000 BR SCT001ST
      BKN003ST=
METAR SCSE 080800Z 00000KT CAVOK 07/06 Q1017 NEFO PLAYA SKC=
METAR TFFF 080800Z AUTO 06010KT 030V110 9999NDV FEW010/// BKN023///
      BKN029/// 28/25 Q1013=
METAR WSAP 080800Z 08002KT 9999 FEW018TCU BKN150 31/25 Q1008=
####018000075####
SAEG31 HECA 080800
METAR HECA 080800Z 33006KT CAVOK 29/18 Q1011 NOSIG=
####018000415####
SAMG20 FMMI 080800
METAR 080800Z
METAR FMMT 080800Z 22016KT 9999 VCSH FEW007 SCT017 23/20 Q1023=
METAR FMNM 080800Z ///10KT CAVOK 28/15 Q1019=
METAR FMNA 080800Z 14023KT 9999 FEW020 29/15 Q1017=
METAR FMSD 080800Z VRB02KT 8000 -RA SCT017 BKN033 20/18 Q1027=
METAR FMMI 080800Z 14009KT 090V180 9999 BKN016 SCT020 18/12 Q1027
 NOSIG=
METAR FMCH 080800Z 23012KT 9999 FEW023 SCT030 27/20 Q1020 NOSIG=
####018000396####
SAIR31 OIII 080800
METAR OIAW 080800Z 21008KT CAVOK 43/09 Q0999 A2950=
METAR OIFM 080800Z NIL=
METAR OIII 080800Z NIL=
METAR OIKB 080800Z NIL=
METAR OIKK 080800Z 36006KT CAVOK 33/02 Q1018 A3008=
METAR OIMM 080800Z 07014KT CAVOK 38/M01 Q1015 A2998=
METAR OISS 080800Z 12006KT CAVOK 37/06 Q1014 A2996=
METAR OITT 080800Z 10014KT CAVOK 33/02 Q1015 A2999=
METAR OIZH 080800Z NIL=
####018000399####
SAMG20 FMMI 080800
METAR FMMT 080800Z 22016KT 9999 VCSH FEW007 SCT017 23/20 Q1023=
METAR FMNM 080800Z ///10KT CAVOK 28/15 Q1019=
METAR FMNA 080800Z 14023KT 9999 FEW020 29/15 Q1017=
METAR FMSD 080800Z VRB02KT 8000 -RA SCT017 BKN033 20/18 Q1027=
METAR FMMI 080800Z 14009KT 090V180 9999 BKN016 SCT020 18/12 Q1027
 NOSIG=
METAR FMCH 080800Z 23012KT 9999 FEW023 SCT030 27/20 Q1020 NOSIG=
####018002930####
SAUS20 KNKA 080804
METAR K3A1 080800Z AUTO 00000KT 10SM CLR 22/22 A3009 RMK AO2 
     T02170218=
METAR K4A9 080800Z AUTO 00000KT 10SM CLR 21/19 A3005 RMK AO2 
     T02050185=
METAR K4R4 080800Z AUTO 00000KT 1 1/4SM BR VV007 24/23 A3001 RMK 
     AO2 T02390231=
METAR K8A0 080759Z AUTO 00000KT 10SM CLR 24/22 A3006 RMK AO2=
METAR KAFP 080800Z AUTO 00000KT 10SM CLR 22/18 A2997 RMK AO2 
     T02150177=
METAR KALX 080800Z AUTO 00000KT 10SM CLR 24/22 A3004 RMK AO1=
METAR KCCO 080800Z AUTO 00000KT 5SM CLR 21/21 A3004 RMK AO1=
METAR KCDH 080800Z AUTO 00000KT 1/2SM FG OVC001 23/23 A3003 RMK 
     AO2=
METAR KCPC 080800Z AUTO 00000KT 10SM CLR 27/19 A2992 RMK AO2 
     T02690193=
METAR KCWF 080800Z AUTO 07005KT 7SM CLR 24/24 A2997 RMK AO2=
METAR KCWV 080805Z AUTO 00000KT 10SM CLR 21/21 A3000 RMK AO2 
     T02120213=
METAR KDBN 080800Z AUTO 29003KT 10SM CLR 23/19 A3000 RMK AO1=
SPECI KDEN 080803Z 18005KT 5SM BR BKN004 BKN021 BKN028 15/14 A3032 
    RMK AO2 CIG 004V009 $=
METAR KDNN 080758Z AUTO 00000KT 10SM CLR 20/20 A3004 RMK AO2=
METAR KDQH 080800Z AUTO 00000KT 10SM CLR 23/20 A3001 RMK AO1=
METAR KDRI 080800Z AUTO 09004KT 10SM SCT014 SCT022 SCT032 23/23 
     A3001 RMK AO2=
METAR KEHO 080800Z AUTO 00000KT 10SM CLR 21/19 A3001 RMK AO2 
     T02060185=
SPECI KEKN 080803Z AUTO 00000KT 3SM BR SCT080 17/17 A3015 RMK AO2 
    TSNO=
METAR KEYF 080800Z AUTO 30004KT 10SM CLR 27/19 A2992 RMK AO2 
     T02680185=
METAR KF24 080759Z AUTO 10SM CLR 25/23 A3006 RMK AO2 T02460234=
METAR KFFA 080758Z AUTO 08004KT 10SM CLR 25/24 A2994 RMK AO2 
     T02480235=
METAR KFKN 080800Z AUTO 00000KT 5SM 23/22 A2995 RMK AO1=
SPECI KGAG 080803Z AUTO 05006KT 10SM SCT030 22/19 A3013 RMK AO2=
SPECI KGFL 080803Z AUTO 00000KT 1 3/4SM BR CLR 21/21 A3001 RMK AO2=
METAR KGHG 080800Z AUTO 15003KT 10SM CLR 21/20 A3007 RMK AO2=
SPECI KGLH 080803Z AUTO 00000KT 1 3/4SM BR CLR 22/22 A3004 RMK AO2 
    VIS 3/4V5=
METAR KGWW 080800Z AUTO 00000KT 10SM CLR 24/21 A2993 RMK AO2 
     T02400207=
METAR KHDC 080803Z AUTO 07003KT 10SM CLR 26/26 A3002 RMK AO2=
METAR KHNZ 080800Z AUTO 00000KT 5SM HZ SCT100 23/19 A2997 RMK AO2 
     T02290189=
METAR KHOE 080759Z AUTO 28003KT 10SM CLR 21/ A3002 RMK AO2 T0212=
METAR KHSP 080800Z AUTO 07006KT 10SM CLR 23/15 A3026 RMK AO2=
METAR KHUM 080800Z AUTO 7SM CLR 25/25 A2998 RMK AO2=
METAR KHWY 080800Z AUTO 00000KT 5SM HZ CLR 23/20 A2998 RMK AO2=
SPECI KHYA 080803Z AUTO VRB03KT 2 1/2SM BR OVC001 21/21 A3007 RMK 
    AO2=
METAR KIDI 080800Z AUTO 00000KT 5SM CLR 19/19 A3010 RMK AO2=
METAR KIPJ 080800Z AUTO 00000KT 10SM CLR 20/18 A3001 RMK AO2 
     T02030179=
METAR KISO 080800Z AUTO 00000KT 10SM CLR 23/20 A2992 RMK AO2 
     T02330198=
METAR KIXA 080800Z AUTO 00000KT 7SM CLR 23/19 A2993 RMK AO2 
     T02340189=
METAR KJES 080800Z AUTO 00000KT 10SM CLR 21/21 A3000 RMK AO2 
     T02080209=
####018002913####
SAUS20 KNKA 080804
METAR KJGG 080800Z AUTO 20003KT 5SM SCT085 BKN110 28/24 A2996 RMK 
     AO1=
METAR KJKA 080800Z AUTO 00000KT 4SM BR CLR 26/25 A3001 RMK AO2 
     T02600251=
METAR KJQF 080800Z AUTO 00000KT 10SM CLR 23/18 A3000 RMK AO2 
     T02270180=
METAR KJYO 080800Z AUTO 33003KT 7SM CLR 28/19 A3000 RMK AO2=
METAR KLGC 080755Z AUTO 00000KT 7SM CLR 22/ A3002 RMK AO1=
SPECI KLHQ 080803Z AUTO 00000KT 3SM BR CLR 19/18 A3008 RMK AO2=
METAR KLKU 080800Z AUTO 32004KT 7SM SCT110 25/21 A2999 RMK AO2=
METAR KLNP 080758Z AUTO 00000KT 7SM CLR 21/19 A3018 RMK AO1=
METAR KLOM 080800Z AUTO 00000KT 5SM CLR 22/20 A3001 RMK AO1 
     T02180202=
SPECI KLUK 080803Z AUTO 00000KT 1 3/4SM BR CLR 22/21 A3007 RMK AO2=
METAR KLWB 080801Z AUTO 00000KT 5SM BR BKN060 20/18 A3015 RMK AO2=
SPECI KLWM 080803Z AUTO 19003KT 5SM BR BKN008 23/22 A3006 RMK AO2=
METAR KMDQ 080800Z AUTO 00000KT 7SM CLR 22/22 A3006 RMK AO2 
     T02220215=
METAR KMFV 080802Z AUTO 13003KT 3SM BR SCT110 25/24 A2997 RMK AO2=
METAR KMGR 080800Z AUTO 00000KT 10SM CLR 22/20 A3002 RMK AO2=
METAR KMMU 080800Z AUTO 00000KT 5SM BR CLR 21/21 RMK AO2 T02110209=
METAR KMQS 080800Z AUTO 00000KT 8SM CLR 24/22 A3004 RMK AO2 PWINO 
     PNO=
METAR KMRN 080800Z AUTO 00000KT 7SM CLR 18/17 A3010 RMK AO2=
SPECI KMSN 080802Z 00000KT 5SM BR FEW007 OVC110 21/21 A2999 RMK
     AO2=
METAR KOBE 080801Z AUTO 00000KT 10SM CLR 23/22 A2996 RMK AO2=
METAR KONX 080800Z AUTO 00000KT 7SM CLR 26/24 A2995 RMK AO2 
     T02600235=
METAR KOPN 080800Z AUTO 00000KT 10SM CLR 25/22 A3004 RMK AO1=
METAR KPCM 080800Z AUTO 00000KT 10SM CLR 23/22 A3001 RMK AO2=
METAR KPGV 080801Z AUTO 00000KT 7SM CLR 24/20 A2994 RMK AO2=
METAR KPSK 080802Z AUTO 31003KT 7SM CLR 25/17 A3014 RMK AO2=
METAR KPTB 080802Z AUTO 00000KT 4SM BR CLR 22/21 A2996 RMK AO2=
METAR KRUQ 080801Z AUTO 00000KT 10SM CLR 21/20 A3000 RMK AO2=
METAR KSIF 080800Z AUTO 00000KT 7SM SCT090 SCT110 22/21 A3000 RMK 
     AO2=
SPECI KSTC 080803Z AUTO 00000KT 2 1/2SM BR CLR 14/13 A3009 RMK AO2=
METAR KSVH 080800Z AUTO 00000KT 10SM CLR 22/16 A3003 RMK AO2 
     T02160155=
SPECI KSWO 080803Z AUTO 03007KT 10SM SCT029 BKN050 OVC095 23/22 
    A3003 RMK AO2=
METAR KTDF 080802Z AUTO 00000KT 2 1/2SM CLR 21/20 A2999 RMK AO1=
METAR KTNB 080802Z AUTO 00000KT 10SM CLR 16/14 A3020 RMK AO2=
METAR KTPF 080800Z AUTO 07003KT 10SM CLR 24/23 A2999 RMK AO2=
METAR KTVI 080800Z AUTO 00000KT 10SM CLR 22/21 A3002 RMK AO2 
     T02170207=
SPECI KUUU 080803Z AUTO 12006KT 1/2SM FG OVC002 21/21 A3006 RMK AO2=
METAR KVDI 080802Z AUTO 25004KT 10SM CLR 23/21 A3001 RMK AO1=
METAR KVJI 080802Z AUTO 00000KT 5SM BR CLR 22/19 A3013 RMK AO2=
METAR KVUJ 080758Z AUTO 00000KT 10SM BKN090 21/18 A2997 RMK AO2=
METAR KVVG 080755Z AUTO 00000KT 21/21 A3000 RMK AO2=
METAR KW45 080800Z AUTO 00000KT 7SM CLR 23/19 A3004 RMK AO2 
     T02310193=
####018001823####
SAEU KAWN 080800 RRL
METAR EICK 080800Z 21009KT 9999 FEW008 SCT050 BKN080 14/12 Q1016 NOSIG=
METAR EIDW 080800Z 24013KT 200V270 9999 FEW023 BKN180 15/10 Q1015 NOSIG=
METAR EIKN 080800Z 19008KT 160V220 9999 FEW015 SCT045 13/10 Q1013 NOSIG=
METAR EINN 080800Z 19011KT 9999 FEW012 SCT040 BKN080 14/11 Q1015 NOSIG=
METAR LEAS 080800Z VRB01KT 9999 4000S SCT015 SCT020TCU 19/18 Q1017
      NOSIG=
METAR LEBB 080800Z VRB01KT 7000 FEW015 25/20 Q1016 NOSIG=
METAR LEBZ 080800Z 12002KT CAVOK 27/15 Q1015=
METAR LEGR 080800Z 04004KT 350V080 9999 SCT060 28/13 Q1018=
METAR LEMG 080800Z 17004KT 130V230 9999 FEW035 27/17 Q1016 NOSIG=
METAR LESO 080800Z 04003KT CAVOK 24/19 Q1016=
METAR LEST 080800Z 10008KT 070V130 8000 FEW018 17/16 Q1016 NOSIG=
METAR LETO 080800Z 09004KT 050V120 CAVOK 26/14 Q1019 NOSIG=
METAR LEVC 080800Z VRB01KT CAVOK 28/19 Q1019 NOSIG=
METAR LEVT 080800Z VRB01KT 9999 FEW035 24/20 Q1019=
METAR LEZG 080800Z 09009KT 060V120 CAVOK 27/17 Q1019=
METAR LGLM 080750Z 05010KT 9999 FEW008 SCT020 21/18 Q1013=
METAR LGSM 080750Z 01011KT CAVOK 28/15 Q1010=
METAR LHDC 080745Z 01009KT 9999 FEW026 20/13 Q1021 NOSIG=
METAR LHKE 080745Z 06004MPS 9999 FEW045 23/12 Q1021 BECMG NSC RMK BLU=
METAR LHPA 080745Z 34004MPS CAVOK 21/11 Q1024 NOSIG RMK BLU=
METAR LHPP 080745Z 01008KT CAVOK 20/12 Q1023 NOSIG=
METAR LHSN 080745Z 04004MPS CAVOK 22/12 Q1021 NOSIG RMK BLU=
METAR LHUD 080745Z 35005KT CAVOK 20/15 Q1022=
METAR LKCV 080800Z VRB01KT 9999 FEW039 20/09 Q1024 NOSIG RMK BLU+ BLU+=
METAR LKNA 080800Z 02005KT 290V110 9999 FEW041 18/07 Q1024 NOSIG RMK
      BLU+ BLU+=
METAR LKPD 080800Z VRB01KT CAVOK 20/08 Q1024 NOSIG RMK BLU+ BLU+=
METAR LKPO 080800Z VRB02KT 9999 FEW035 18/10 Q1023 NOSIG RMK BLU+ BLU+=
METAR LKPR 080800Z 15004KT 060V180 CAVOK 20/09 Q1024 NOSIG=
####018003732####
SAUS99 KWBC 080805
METAR
KJGG 080800Z AUTO 20003KT 5SM SCT085 BKN110 28/24 A2996 RMK
     AO1=
KJKA 080800Z AUTO 00000KT 4SM BR CLR 26/25 A3001 RMK AO2
     T02600251=
KJQF 080800Z AUTO 00000KT 10SM CLR 23/18 A3000 RMK AO2
     T02270180=
KJYO 080800Z AUTO 33003KT 7SM CLR 28/19 A3000 RMK AO2=
KLGC 080755Z AUTO 00000KT 7SM CLR 22/ A3002 RMK AO1=
KLKU 080800Z AUTO 32004KT 7SM SCT110 25/21 A2999 RMK AO2=
KLNP 080758Z AUTO 00000KT 7SM CLR 21/19 A3018 RMK AO1=
KLOM 080800Z AUTO 00000KT 5SM CLR 22/20 A3001 RMK AO1
     T02180202=
KLWB 080801Z AUTO 00000KT 5SM BR BKN060 20/18 A3015 RMK AO2=
KMDQ 080800Z AUTO 00000KT 7SM CLR 22/22 A3006 RMK AO2
     T02220215=
KMFV 080802Z AUTO 13003KT 3SM BR SCT110 25/24 A2997 RMK AO2=
KMGR 080800Z AUTO 00000KT 10SM CLR 22/20 A3002 RMK AO2=
KMMU 080800Z AUTO 00000KT 5SM BR CLR 21/21 RMK AO2 T02110209=
KMQS 080800Z AUTO 00000KT 8SM CLR 24/22 A3004 RMK AO2 PWINO
     PNO=
KMRN 080800Z AUTO 00000KT 7SM CLR 18/17 A3010 RMK AO2=
KOBE 080801Z AUTO 00000KT 10SM CLR 23/22 A2996 RMK AO2=
KONX 080800Z AUTO 00000KT 7SM CLR 26/24 A2995 RMK AO2
     T02600235=
KOPN 080800Z AUTO 00000KT 10SM CLR 25/22 A3004 RMK AO1=
KPCM 080800Z AUTO 00000KT 10SM CLR 23/22 A3001 RMK AO2=
KPGV 080801Z AUTO 00000KT 7SM CLR 24/20 A2994 RMK AO2=
KPSK 080802Z AUTO 31003KT 7SM CLR 25/17 A3014 RMK AO2=
KPTB 080802Z AUTO 00000KT 4SM BR CLR 22/21 A2996 RMK AO2=
KRUQ 080801Z AUTO 00000KT 10SM CLR 21/20 A3000 RMK AO2=
KSIF 080800Z AUTO 00000KT 7SM SCT090 SCT110 22/21 A3000 RMK
     AO2=
KSVH 080800Z AUTO 00000KT 10SM CLR 22/16 A3003 RMK AO2
     T02160155=
KTDF 080802Z AUTO 00000KT 2 1/2SM CLR 21/20 A2999 RMK AO1=
KTNB 080802Z AUTO 00000KT 10SM CLR 16/14 A3020 RMK AO2=
KTPF 080800Z AUTO 07003KT 10SM CLR 24/23 A2999 RMK AO2=
KTVI 080800Z AUTO 00000KT 10SM CLR 22/21 A3002 RMK AO2
     T02170207=
KVDI 080802Z AUTO 25004KT 10SM CLR 23/21 A3001 RMK AO1=
KVJI 080802Z AUTO 00000KT 5SM BR CLR 22/19 A3013 RMK AO2=
KVUJ 080758Z AUTO 00000KT 10SM BKN090 21/18 A2997 RMK AO2=
KVVG 080755Z AUTO 00000KT 21/21 A3000 RMK AO2=
KW45 080800Z AUTO 00000KT 7SM CLR 23/19 A3004 RMK AO2
     T02310193=
K3A1 080800Z AUTO 00000KT 10SM CLR 22/22 A3009 RMK AO2
     T02170218=
K4A9 080800Z AUTO 00000KT 10SM CLR 21/19 A3005 RMK AO2
     T02050185=
K4R4 080800Z AUTO 00000KT 1 1/4SM BR VV007 24/23 A3001 RMK AO2
     T02390231=
K8A0 080759Z AUTO 00000KT 10SM CLR 24/22 A3006 RMK AO2=
KAFP 080800Z AUTO 00000KT 10SM CLR 22/18 A2997 RMK AO2
     T02150177=
KALX 080800Z AUTO 00000KT 10SM CLR 24/22 A3004 RMK AO1=
KCCO 080800Z AUTO 00000KT 5SM CLR 21/21 A3004 RMK AO1=
KCDH 080800Z AUTO 00000KT 1/2SM FG OVC001 23/23 A3003 RMK AO2=
KCPC 080800Z AUTO 00000KT 10SM CLR 27/19 A2992 RMK AO2
     T02690193=
KCWF 080800Z AUTO 07005KT 7SM CLR 24/24 A2997 RMK AO2=
KCWV 080805Z AUTO 00000KT 10SM CLR 21/21 A3000 RMK AO2
     T02120213=
KDBN 080800Z AUTO 29003KT 10SM CLR 23/19 A3000 RMK AO1=
KDNN 080758Z AUTO 00000KT 10SM CLR 20/20 A3004 RMK AO2=
KDQH 080800Z AUTO 00000KT 10SM CLR 23/20 A3001 RMK AO1=
KDRI 080800Z AUTO 09004KT 10SM SCT014 SCT022 SCT032 23/23 A3001
     RMK AO2=
KEHO 080800Z AUTO 00000KT 10SM CLR 21/19 A3001 RMK AO2
     T02060185=
KEYF 080800Z AUTO 30004KT 10SM CLR 27/19 A2992 RMK AO2
     T02680185=
KF24 080759Z AUTO 10SM CLR 25/23 A3006 RMK AO2 T02460234=
KFFA 080758Z AUTO 08004KT 10SM CLR 25/24 A2994 RMK AO2
     T02480235=
KFKN 080800Z AUTO 00000KT 5SM 23/22 A2995 RMK AO1=
KGHG 080800Z AUTO 15003KT 10SM CLR 21/20 A3007 RMK AO2=
KGWW 080800Z AUTO 00000KT 10SM CLR 24/21 A2993 RMK AO2
     T02400207=
KHDC 080803Z AUTO 07003KT 10SM CLR 26/26 A3002 RMK AO2=
####018000698####
SAUS99 KWBC 080805 RRA
METAR
KHNZ 080800Z AUTO 00000KT 5SM HZ SCT100 23/19 A2997 RMK AO2
     T02290189=
KHOE 080759Z AUTO 28003KT 10SM CLR 21/ A3002 RMK AO2 T0212=
KHSP 080800Z AUTO 07006KT 10SM CLR 23/15 A3026 RMK AO2=
KHUM 080800Z AUTO 7SM CLR 25/25 A2998 RMK AO2=
KHWY 080800Z AUTO 00000KT 5SM HZ CLR 23/20 A2998 RMK AO2=
KIDI 080800Z AUTO 00000KT 5SM CLR 19/19 A3010 RMK AO2=
KIPJ 080800Z AUTO 00000KT 10SM CLR 20/18 A3001 RMK AO2
     T02030179=
KISO 080800Z AUTO 00000KT 10SM CLR 23/20 A2992 RMK AO2
     T02330198=
KIXA 080800Z AUTO 00000KT 7SM CLR 23/19 A2993 RMK AO2
     T02340189=
KJES 080800Z AUTO 00000KT 10SM CLR 21/21 A3000 RMK AO2
     T02080209=
####018000088####
SAHU31 LHBM 080800
METAR LHBP 080800Z 20005KT 130V280 9999 FEW043 21/10 Q1021 NOSIG=
####018000114####
SAMR20 TFFF 080800
METAR TFFF 080800Z AUTO 06010KT 030V110 9999NDV FEW010///
BKN023/// BKN029/// 28/25 Q1013=
####018000940####
SPUS99 KWBC 080805
SPECI
KLHQ 080803Z AUTO 00000KT 3SM BR CLR 19/18 A3008 RMK AO2=
KLUK 080803Z AUTO 00000KT 1 3/4SM BR CLR 22/21 A3007 RMK AO2=
KLWM 080803Z AUTO 19003KT 5SM BR BKN008 23/22 A3006 RMK AO2=
KMSN 080802Z 00000KT 5SM BR FEW007 OVC110 21/21 A2999 RMK AO2=
KSTC 080803Z AUTO 00000KT 2 1/2SM BR CLR 14/13 A3009 RMK AO2=
KSWO 080803Z AUTO 03007KT 10SM SCT029 BKN050 OVC095 23/22 A3003
     RMK AO2=
KUUU 080803Z AUTO 12006KT 1/2SM FG OVC002 21/21 A3006 RMK AO2=
KDEN 080803Z 18005KT 5SM BR BKN004 BKN021 BKN028 15/14 A3032 RMK
     AO2 CIG 004V009 $=
KEKN 080803Z AUTO 00000KT 3SM BR SCT080 17/17 A3015 RMK AO2
     TSNO=
KGAG 080803Z AUTO 05006KT 10SM SCT030 22/19 A3013 RMK AO2=
KGFL 080803Z AUTO 00000KT 1 3/4SM BR CLR 21/21 A3001 RMK AO2=
KGLH 080803Z AUTO 00000KT 1 3/4SM BR CLR 22/22 A3004 RMK AO2 VIS
     3/4V5=
KHYA 080803Z AUTO VRB03KT 2 1/2SM BR OVC001 21/21 A3007 RMK
     AO2=
####018000097####
SAAJ31 UBBB 080800
METAR UBBY 080800Z 14006KT 9999 NSC 31/17 Q1016 NOSIG
RMK R33/CLRD70 G/O=
####018000085####
SANC01 NWWW 080800
METAR NWWW 080800Z AUTO 04002KT 9999NDV FEW046/// 19/16 Q1016=
####018000888####
SAHK31 VHHH 080800
METAR VHHH 080800Z 20014KT 9999 FEW020 SCT030 34/24 Q1006 NOSIG=
METAR RCTP 080730Z 25018KT 9999 FEW025 SCT150 32/26 Q1007
NOSIG=
METAR RCKH 080800Z 25013KT 200V280 9999 FEW013 BKN120 32/26
Q1008 NOSIG RMK 29013KT/RWY09=
METAR RCSS 080800Z 32008KT 280V010 9999 FEW020 BKN035 BKN080 32/24
Q1006 NOSIG=
METAR VMMC 080800Z 19013G23KT 180V260 9999 FEW015 SCT030 BKN090
     31/27 Q1006 NOSIG=
METAR RPLL 080800Z 11007KT 9999 SCT025 BKN300 33/26 Q1007 NOSIG
           RMK A2974=
METAR RPVM 080800Z 06006KT 9999 FEW020 BKN090 OVC250 32/27 Q1008
           A2977=
METAR RPMD 080800Z
18005KT 9999 FEW015CB SCT290 31/26 1007 CB NE/SW=
METAR RPLB 080800 22009KT 9999 FEW020 SCT080 BKN300 32/24 Q1008=
METAR RPLI 080800Z
27008KT 9999 SCT019CB SCT100 31/27 Q1007 RETS=
METAR RPMZ 080800Z 16004KT 9999 SCT018CB BKN120 32/26 Q1009
           CB N, W, S, OVHD=
####018000088####
SPAU32 YBBN 080802
SPECI YSNF 080800Z 11010KT 3000 -DZ BR SCT010 BKN017 14/12 Q1017=
####018000509####
SAMC32 GMMC 080800
METAR GMFF 080800Z 33002KT 8000 FEW033 23/20 Q1017 NOSIG=
METAR GMFM 080800Z 00000KT 1500 BR SKC 23/19 Q1017=
METAR GMFO 080800Z 23006KT 190V280 9999 FEW030 SCT100 33/14 Q1018
NOSIG=
METAR GMMH 080800Z 02019KT 6000 BKN010 19/17 Q1014=
METAR GMML 080800Z 03015KT 8000 OVC016 19/15 Q1015=
METAR GMMZ 080800Z VRB02KT 6000 FEW040 FEW050TCU SCT100 30/01 Q1023=
METAR GMFK 080800Z NIL=
METAR GMMC 080800Z NIL=
METAR GMMW 080800Z NIL=
METAR GMTA 080800Z NIL=
METAR GMTN 080800Z NIL=
####018000074####
SAZB40 FLLS 080800
METAR FLLS 080800Z 08028KT 9999 BKN020 16/06 Q1029=
####018000080####
SAQB31 LQBK 080800
METAR LQBK 080800Z 35004KT 9999 FEW033 21/11 Q1022 NOSIG=
####018000066####
SAAG SARE 080800
METAR SARE 080800Z 16005KT CAVOK 09/08 Q1018=
####018000113####
SASR31 WSSS 080800
METAR WSSS 080800Z 19004KT 160V260 9999 FEW017 FEW020TCU SCT150
BKN270 30/25 Q1009 NOSIG=
####018000067####
SAAG SARI 080800
METAR SARI 080800Z  00000KT CAVOK 15/14 Q1018=
####018000083####
SPAF31 KWBC 080805
SPECI
DNMM 080753Z 00000KT 6000 SCT010 26/25 Q1015 NOSIG=
####018000266####
SAZW40 FVHA 080800
METAR FVBU 080800Z NIL=
METAR FVCZ 080800Z NIL=
METAR FVFA 080800Z NIL=
METAR FVHA 080800Z 13014KT 9999 BKN025 13/05 Q1032 NOSIG=
METAR FVKB 080800Z NIL=
METAR FVMV 080800Z NIL=
METAR FVTL 080800Z NIL=
METAR FVWN 080800Z NIL=

####018000174####
SABC40 FBSK 080800
METAR FBFT 080800Z 10013KT 9999 SCT015 17/11 Q1033=
METAR FBKE 080800Z 09014KT CAVOK 18/07 Q1028=
METAR FBMN 080800Z 09022KT CAVOK 18/05 Q1029=

####018000120####
SAGW20 GGOV 080800
METAR GGOV 080800Z 20003KT 160V240 9999 FEW009 BKN014TCU FEW020CB
           27/25 Q1012  NOSIG=
####018000714####
SAZA31 FAPR 080800
METAR FABL 080800Z 03011KT CAVOK 12/06 Q1034 NOSIG=
METAR FACT 080800Z VRB01KT CAVOK 13/06 Q1021 NOSIG=
METAR FAGG 080800Z 36003KT 320V030 CAVOK 12/07 Q1023=
METAR FAJS 080800Z 08012KT 9000 SCT006 10/09 Q1037 NOSIG=
METAR FAKN 080800Z 22004KT 9000 SCT015 16/12 Q1035 NOSIG=
METAR FALA 080800Z 07009KT 020V110 9999 FEW025 14/08 Q1036 NOSIG=
METAR FALE 080800Z 09007KT CAVOK 19/12 Q1031 NOSIG=
METAR FAMM 080800Z 02013KT CAVOK 15/05 Q1034 NOSIG=
METAR FAPE 080800Z 36009KT CAVOK 12/10 Q1027 NOSIG=
METAR FAPN 080800Z AUTO 13003KT //// // ////// 15/07 Q1034=
METAR FAPP 080800Z 09008KT 9999 BKN025 14/07 Q1033 NOSIG=
METAR FAUP 080800Z 01023KT CAVOK 19/02 Q1028 NOSIG=

####018000390####
SAMC31 GMMC 080800
METAR GMFF 080800Z 33002KT 8000 FEW033 23/20 Q1017 NOSIG=
METAR GMME 080800Z 34003KT 300V080 6000 OVC010 22/19 Q1015 NOSIG=
METAR GMMN 080800Z 04005KT 010V090 6000 SCT010 BKN026 22/19 Q1016
NOSIG=
METAR GMMX 080800Z 24004KT 200V280 6000 FEW026 24/18 Q1016 NOSIG=
METAR GMTT 080800Z 29005KT 260V330 8000  FEW010 SCT016 23/20 Q1016
NOSIG=
METAR GMAD 080800Z NIL=
####018000093####
SAUZ31 UTTW 080700 CCA
METAR UTSA 080800Z 01007MPS 9999 NSC 39/05 Q1009 R88/CLRD70 NOSIG=
####018000700####
SANM40 FYWW 080800
METAR FYGF 080800Z 08007KT CAVOK 18/15 Q////=
METAR FYKB 080800Z AUTO 03012G78KT //// // ////// 22/01 Q1025=
METAR FYKT 080800Z AUTO 01009KT //// // ////// 20/02 Q1027=
METAR FYKX 080800Z AUTO 14014KT //// // ////// ///// Q1025=
METAR FYML 080800Z AUTO 04004KT //// // ////// 14/M02 Q1029=
METAR FYOA 080800Z 05016KT CAVOK 19/03 Q1024=
METAR FYOT 080800Z AUTO 06010KT //// // ////// 18/03 Q////=
METAR FYRU 080800Z 09010KT CAVOK 16/06 Q1026=
METAR FYWB 080800Z 08021KT 9999 VV/// 27/04 Q1017 =
METAR FYWB 080800Z 08021KT 9999 VV/// 27/04 Q1017 =
METAR FYWH 080800Z 03009KT CAVOK 15/00 Q1031=
METAR FYWW 080800Z AUTO /////KT //// // ////// ///// Q////=

