####018000504####
SAUS20 KNKA 080910
METAR KT65 080905Z AUTO 02004KT 7SM RA SCT004 BKN007 OVC060 26/25 
     A2979 RMK AO2 P0001 T02580250=
METAR KT82 080905Z AUTO 09003KT 23/22 A3002 RMK AO1 T02310220=
METAR KTAZ 080905Z AUTO 00000KT 5SM BR CLR 23/23 A3003 RMK AO2=
METAR KUVA 080905Z AUTO 04003KT 10SM SCT020 BKN028 24/23 A2995 
     RMK AO2 T02410230=
SPECI KVSF 080909Z AUTO 00000KT 3SM BR BKN002 21/20 A3006 RMK AO2 $=
METAR KXBP 080905Z AUTO 13003KT 10SM CLR 24/22 A3002 RMK AO2 
     T02390221=
####018002937####
SAUS20 KNKA 080910
SPECI KAKO 080909Z AUTO 14006KT 6SM BR OVC004 14/14 A3031 RMK AO2 
    CIG 003V009 TSNO=
SPECI KAQW 080909Z AUTO 00000KT 3SM BR CLR 19/18 A3005 RMK AO2=
METAR KCCA 080915Z AUTO 00000KT 7SM BKN002 22/22 A3006 RMK AO2 =
METAR KCDN 080915Z AUTO 26003KT 10SM CLR 24/22 A2998 RMK A02 P000 
     =
METAR KCKI 080915Z AUTO 00000KT 7SM SCT110 22/21 A2995 RMK AO2=
SPECI KELZ 080909Z AUTO 00000KT 1/4SM FG CLR 18/18 A3016 RMK AO2=
SPECI KFRG 080909Z AUTO 13005KT 5SM BR BKN009 26/24 A3003 RMK AO2 
    CIG 005V014=
SPECI KLEB 080909Z AUTO 00000KT 2SM BR FEW001 22/19 A3005 RMK AO2=
METAR KLIT 080853Z COR 00000KT 7SM FEW007 BKN150 24/23 A3005 RMK AO2 
    SLP175 T02440228 50004=
METAR KLRO 080915Z AUTO 00000KT 10SM CLR 24/19 A2995 RMK AO2 =
METAR KLUD 080905Z AUTO 15005KT 10SM SCT026 SCT060 25/22 A3001 
     RMK AO2 T02470220=
METAR KMDD 080900Z AUTO 36004KT 10SM CLR 22/21 A3008 RMK AO2 
     T02220206=
METAR KMKN 080900Z AUTO 00000KT 10SM 24/23 A3002 RMK AO2=
METAR KMKS 080915Z AUTO 00000KT 10SM CLR 23/20 A2995 RMK AO2 TSNO=
METAR KMNZ 080910Z AUTO 13006KT 10SM CLR 24/24 A3000 RMK AO2 
     T02420237=
METAR KMQB 080905Z AUTO 23003KT 10SM OVC004 23/23 A3003 RMK AO2 
     T02310230=
METAR KMWA 080905Z AUTO 00000KT 10SM CLR 25/24 A3005 RMK AO2 
     T02450237=
METAR KOSA 080904Z AUTO 08003KT 7SM CLR 25/24 A3004 RMK AO1 
     T02450240=
METAR KPEZ 080905Z AUTO 03005KT 10SM OVC009 25/23 A2992 RMK AO2 
     T02530230=
METAR KPKV 080906Z AUTO 09017G21KT 10SM RA SCT017 BKN036 OVC060 
     25/23 A2986 RMK AO2 T02540229=
METAR KPPA 080905Z AUTO 02008KT 10SM -DZ SCT023 SCT065 OVC120 
     17/16 A3019 RMK AO2=
METAR KPSN 080905Z AUTO 09003KT 7SM 24/24 A3001 RMK AO2 T02420235=
METAR KPYX 080910Z AUTO 05007KT 5SM SCT006 BKN034 OVC050 19/18 
     A3017 RMK AO2 P0001 T01920182=
METAR KRAS 080905Z AUTO 12009KT 7SM FEW020 28/26 A2984 RMK AO2=
METAR KRBO 080905Z AUTO 35005KT 10SM SCT019 SCT055 26/25 A2983 
     RMK AO2 LTG DSNT E T02600251=
METAR KRFI 080905Z AUTO 00000KT 7SM CLR 24/23 A3001 RMK AO2 
     T02400231=
METAR KRPH 080905Z AUTO 00000KT 10SM CLR 23/21 A3000 RMK AO2 
     T02260212=
METAR KRWV 080900Z AUTO 00000KT 8SM SCT008 SCT023 BKN030 24/24 
     A2998 RMK AO2=
METAR KRYW 080905Z AUTO 06003KT 4SM BR SCT008 SCT014 BKN021 24/23 
     A2999 RMK AO2=
METAR KSAR 080905Z AUTO 18004KT 7SM OVC055 26/23 A3004 RMK AO2=
METAR KSEP 080905Z AUTO 00000KT 10SM SCT011 SCT015 BKN021 23/21 
     A3002 RMK AO1=
METAR KSLO 080900Z AUTO 20003KT 10SM CLR 24/22 A3004 RMK AO2 
     T02380215=
METAR KSLR 080902Z AUTO 13004KT 10SM SCT024 BKN031 25/23 A3004 
     RMK AO2 T02500232=
METAR KSNK 080906Z AUTO 34003KT 7SM -DZ CLR 21/20 A3007 RMK AO2 
     T02080200=
METAR KSOA 080900Z AUTO 02003KT 9SM 23/22 A3006 RMK AO2=
METAR KSWW 080905Z AUTO 01004KT 10SM CLR 22/20 A3008 RMK AO1 
     T02160203=
####018000073####
SAIN31 EGGY 080900
METAR VOBG 080900Z NIL=
METAR VOCI 080900Z NIL=
####018000119####
SPCN46 CWAO 080910
SPECI CYQA 080910Z AUTO 00000KT 2 1/2SM BR CLR 19/19 A3003 RMK SLP170
 DENSITY ALT 1400FT=

####018002781####
SAUS99 KWBC 080911
METAR
KMZZ 080855Z AUTO 00000KT 7SM CLR 20/19 A3007 RMK AO2=
KT65 080905Z AUTO 02004KT 7SM RA SCT004 BKN007 OVC060 26/25 A2979
     RMK AO2 P0001 T02580250=
KT82 080905Z AUTO 09003KT 23/22 A3002 RMK AO1 T02310220=
KTAZ 080905Z AUTO 00000KT 5SM BR CLR 23/23 A3003 RMK AO2=
KUVA 080905Z AUTO 04003KT 10SM SCT020 BKN028 24/23 A2995 RMK AO2
     T02410230=
KXBP 080905Z AUTO 13003KT 10SM CLR 24/22 A3002 RMK AO2
     T02390221=
KCCA 080915Z AUTO 00000KT 7SM BKN002 22/22 A3006 RMK AO2=
KCDN 080915Z AUTO 26003KT 10SM CLR 24/22 A2998 RMK A02 P000=
KCKI 080915Z AUTO 00000KT 7SM SCT110 22/21 A2995 RMK AO2=
KLIT 080853Z COR 00000KT 7SM FEW007 BKN150 24/23 A3005 RMK AO2
     SLP175 T02440228 50004=
KLRO 080915Z AUTO 00000KT 10SM CLR 24/19 A2995 RMK AO2=
KLUD 080905Z AUTO 15005KT 10SM SCT026 SCT060 25/22 A3001 RMK AO2
     T02470220=
KMDD 080900Z AUTO 36004KT 10SM CLR 22/21 A3008 RMK AO2
     T02220206=
KMKN 080900Z AUTO 00000KT 10SM 24/23 A3002 RMK AO2=
KMKS 080915Z AUTO 00000KT 10SM CLR 23/20 A2995 RMK AO2 TSNO=
KMNZ 080910Z AUTO 13006KT 10SM CLR 24/24 A3000 RMK AO2
     T02420237=
KMQB 080905Z AUTO 23003KT 10SM OVC004 23/23 A3003 RMK AO2
     T02310230=
KMWA 080905Z AUTO 00000KT 10SM CLR 25/24 A3005 RMK AO2
     T02450237=
KOSA 080904Z AUTO 08003KT 7SM CLR 25/24 A3004 RMK AO1
     T02450240=
KPEZ 080905Z AUTO 03005KT 10SM OVC009 25/23 A2992 RMK AO2
     T02530230=
KPKV 080906Z AUTO 09017G21KT 10SM RA SCT017 BKN036 OVC060 25/23
     A2986 RMK AO2 T02540229=
KPPA 080905Z AUTO 02008KT 10SM -DZ SCT023 SCT065 OVC120 17/16
     A3019 RMK AO2=
KPSN 080905Z AUTO 09003KT 7SM 24/24 A3001 RMK AO2 T02420235=
KPYX 080910Z AUTO 05007KT 5SM SCT006 BKN034 OVC050 19/18 A3017 RMK
     AO2 P0001 T01920182=
KRAS 080905Z AUTO 12009KT 7SM FEW020 28/26 A2984 RMK AO2=
KRBO 080905Z AUTO 35005KT 10SM SCT019 SCT055 26/25 A2983 RMK AO2
     LTG DSNT E T02600251=
KRFI 080905Z AUTO 00000KT 7SM CLR 24/23 A3001 RMK AO2
     T02400231=
KRPH 080905Z AUTO 00000KT 10SM CLR 23/21 A3000 RMK AO2
     T02260212=
KRWV 080900Z AUTO 00000KT 8SM SCT008 SCT023 BKN030 24/24 A2998 RMK
     AO2=
KRYW 080905Z AUTO 06003KT 4SM BR SCT008 SCT014 BKN021 24/23 A2999
     RMK AO2=
KSAR 080905Z AUTO 18004KT 7SM OVC055 26/23 A3004 RMK AO2=
KSEP 080905Z AUTO 00000KT 10SM SCT011 SCT015 BKN021 23/21 A3002
     RMK AO1=
KSLO 080900Z AUTO 20003KT 10SM CLR 24/22 A3004 RMK AO2
     T02380215=
KSLR 080902Z AUTO 13004KT 10SM SCT024 BKN031 25/23 A3004 RMK AO2
     T02500232=
KSNK 080906Z AUTO 34003KT 7SM -DZ CLR 21/20 A3007 RMK AO2
     T02080200=
KSOA 080900Z AUTO 02003KT 9SM 23/22 A3006 RMK AO2=
KSWW 080905Z AUTO 01004KT 10SM CLR 22/20 A3008 RMK AO1
     T02160203=
####018000448####
SPUS99 KWBC 080911
SPECI
KVSF 080909Z AUTO 00000KT 3SM BR BKN002 21/20 A3006 RMK AO2 $=
KAKO 080909Z AUTO 14006KT 6SM BR OVC004 14/14 A3031 RMK AO2 CIG
     003V009 TSNO=
KAQW 080909Z AUTO 00000KT 3SM BR CLR 19/18 A3005 RMK AO2=
KELZ 080909Z AUTO 00000KT 1/4SM FG CLR 18/18 A3016 RMK AO2=
KFRG 080909Z AUTO 13005KT 5SM BR BKN009 26/24 A3003 RMK AO2 CIG
     005V014=
KLEB 080909Z AUTO 00000KT 2SM BR FEW001 22/19 A3005 RMK AO2=
####018000452####
SAAL40 DAMM 080900
METAR DAAG 080900Z 35003KT 290V030 CAVOK 31/16 Q1019=
METAR DAAT 080900Z 13018KT CAVOK 32/03 Q1022=
METAR DABB 080900Z 01007KT CAVOK 29/14 Q1019=
METAR DABC 080900Z 00000KT CAVOK 28/11 Q1023=
METAR DABS 080900Z 34010KT CAVOK 29/10 Q1023=
METAR DAON 080900Z 36004KT CAVOK 34/20 Q1017=
METAR DAOO 080900Z 36012KT CAVOK 29/21 Q1016=
METAR DAUH 080900Z 10014KT CAVOK 35/20 Q1018=
METAR DAUZ 080900Z 14014KT CAVOK 35/07 Q1017=
####018001496####
SAIY43 LIIB 080900
METAR LIBA 080855Z /////KT 9999 FEW040 27/11 Q1019 RMK FEW VIS MIN
      9999 WIND THR29 30009KT BLU=
METAR LIBC 080850Z 03020KT CAVOK 26/12 Q1018 RMK VIS MIN 9999=
METAR LIBD 080850Z 36011KT 9999 FEW030 25/12 Q1020 RMK VIS MIN 9999=
METAR LIBG 080850Z 36018KT 330V040 CAVOK 26/08 Q1018 RMK VIS MIN
9999=
METAR LIBN 080855Z 36016G26KT 9999 FEW030 25/12 Q1017 RMK FEW VIS MIN
      9999 WIND THR14 36017KT BLU=
METAR LIBP 080850Z VRB03KT CAVOK 25/07 Q1022 RMK VIS MIN 9999=
METAR LIBQ 080855Z 06007KT 9999 FEW009 15/11 Q1024 RMK FEW MON LIB
      VAL NIL VIS MIN 9999=
METAR LIBR 080845Z /////KT CAVOK 25/15 Q1017 NOSIG RMK SKC VIS MIN
      9999 WIND THR13 WIND THR31 33021KT BLU=
METAR LIBV 080855Z 36017KT 9999 FEW030 24/12 Q1017 RMK FEW VIS MIN
      9999 WIND THR14 36015KT BLU=
METAR LICA 080850Z 22009KT 9999 FEW020 SCT060 27/23 Q1017 RMK VIS
MIN 9999=
METAR LICC 080850Z 09005KT CAVOK 29/20 Q1018 RMK VIS MIN 9999=
METAR LICD 080850Z 36011KT 220V360 CAVOK 26/21 Q1019 RMK VIS MIN
9999=
METAR LICG 080855Z 32008KT 9999 SCT020 23/20 Q1019 RMK SCT VIS MIN
      9999 WIND THR08 32005KT WIND THR21 VRB07KT BLU=
METAR LICJ 080850Z 04015KT CAVOK 27/22 Q1018 RMK VIS MIN 9999=
METAR LICR 080850Z 35010KT 9999 FEW020 SCT040 30/19 Q1018 RMK VIS
MIN 9999=
METAR LICT 080855Z 33007KT CAVOK 30/22 Q1018 RMK SKC VIS MIN 9999
      WIND THR13 33007KT BLU=
METAR LICZ 080855Z 10011KT CAVOK 30/18 Q1018 RMK SKC VIS MIN 9999
      WIND THR28 //////KT BLU=
####018001261####
SAAL41 DAMM 080900
METAR DAAD 080900Z 00000KT CAVOK 32/14 Q1022=
METAR DAAE 080900Z NIL=
METAR DAAJ 080900Z 09012KT CAVOK 33/07 Q1021=
METAR DAAP 080900Z 16016KT CAVOK 38/10 Q1016=
METAR DAAS 080900Z 20003KT CAVOK 29/12 Q1025=
METAR DAAV 080900Z NIL=
METAR DAAY 080900Z 00000KT 9999 FEW033 31/13 Q1025=
METAR DABT 080900Z NIL=
METAR DAFH 080900Z 15012KT CAVOK 32/17 Q1023=
METAR DAMH 080900Z 06010KT CAVOK 34/13 Q1016=
METAR DAOB 080900Z 24003KT CAVOK 33/10 Q1023=
METAR DAOF 080900Z 15004KT 3500 HZ NSC 36/07 Q1013=
METAR DAOI 080900Z 10003KT CAVOK 31/17 Q1018=
METAR DAOL 080900Z 34006KT CAVOK 33/22 Q1016=
METAR DAOR 080900Z 18004KT CAVOK 35/04 Q1023=
METAR DAOV 080900Z 18004KT CAVOK 34/12 Q1019=
METAR DATF 080900Z 05014KT CAVOK 35/08 Q1017=
METAR DATG 080900Z NIL=
METAR DATM 080900Z 14013KT CAVOK 37/M01 Q1012=
METAR DAUA 080900Z 02030KT 0700 BLSA NSC 39/07 Q1014=
METAR DAUB 080900Z NIL=
METAR DAUE 080900Z 05012KT CAVOK 34/12 Q1020=
METAR DAUG 080900Z 00000KT CAVOK 34/12 Q1021=
METAR DAUI 080900Z 06031KT 0300 BLSA VV/// 39/07 Q1013=
METAR DAUK 080900Z 14006KT CAVOK 32/18 Q1017=
METAR DAUL 080900Z NIL=
METAR DAUO 080900Z 13008KT CAVOK 32/16 Q1018=
METAR DAUT 080900Z NIL=
METAR DAUU 080900Z 11012KT CAVOK 35/18 Q1018=
####018000661####
SARA32 RUMS 080900
METAR UHHH 080900Z 03003MPS 9999 BKN030CB OVC100 18/15 Q1010 NOSIG
RMK QFE751/1001 55090060=
METAR UHMA 080900Z NIL=
METAR UHMM 080900Z 25003MPS 9999 BKN006 OVC026 13/11 Q1016 RMK QFE747
88010070 MT OBSC=
METAR UHMP 080900Z NIL=
METAR UHNN 080900Z 07004MPS 9999 -SHRA FEW010 BKN025CB OVC070 12/11
Q1012 RMK QFE754=
METAR UHPP 080900Z 19004MPS 9999 FEW010 10/06 Q1017 NOSIG RMK QBB300
QFE759/1012 MT OBS SC070=
METAR UHSH 080900Z NIL=
METAR UHSS 080900Z 16003MPS 9999 BKN021 14/12 Q1011 NOSIG RMK MT OBSC
QFE757/1009 19CLRD70=
METAR UHWW 080900Z 22005MPS 190V260 9999 BKN015 OVC070 19/16 Q1009
NOSIG RMK QFE756/1008 75CLRD70=
####018000868####
SAHK31 VHHH 080900
METAR VHHH 080900Z 22013KT 9999 FEW020 SCT030 33/24 Q1006 NOSIG=
METAR RCTP 080900Z 24017KT 9999 FEW025 BKN100 BKN200 30/25
Q1006 NOSIG=
METAR RCKH 080900Z 27009KT 210V310 9999 FEW013 SCT020 BKN200 32/26
Q1008 NOSIG=
METAR RCSS 080900Z 31006KT 280V010 9999 FEW020 BKN035 BKN080 32/23
Q1006 NOSIG=
METAR VMMC 080900Z 19014KT 170V260 9999 FEW015 SCT030 BKN090
     31/27 Q1006 NOSIG=
METAR RPLL 080900Z 13004KT 9999 FEW023CB FEW025 BKN300 33/25 Q1008
           NOSIG RMK CB SSW A2977=
METAR RPVM 080900Z 06004KT 9999 FEW018CB OVC250 31/26 Q1008 A2978
           CB SSE=
METAR RPMD 080900Z
20008KT 9999 FEW015CB SCT290 31/26 1007 CB NW/SE=
METAR RPLB 080900 23009KT 9999 FEW020 OVC280 31/24 Q1008=
METAR RPLI 080900Z 25004KT 9999 FEW019CB BKN100 31/27 Q1008 NOSIG=
METAR RPMZ 080900Z 16004KT 9999 FEW018CB SCT350 32/26 Q1009 CB N=
####018000938####
SARS31 RUMS 080900
METAR ULAA 080900Z 32003G06MPS 260V020 9999 FEW030TCU FEW/// 27/20
Q1015 NOSIG RMK QFE760/1013 SC070=
METAR ULKK 080900Z VRB01MPS 6000 SCT033 SCT099 31/16 Q1015 NOSIG RMK
QFE757=
METAR ULMM 080900Z 35003MPS 320V030 9999 BKN018 14/08 Q1017 NOSIG RMK
QFE756 32190060=
METAR ULOL 080900Z NIL=
METAR ULOO 080900Z VRB01MPS P6000 SCT035 BKN200 27/17 Q1012 NOSIG RMK
QFE755=
METAR ULWW 080900Z 15004G07MPS 9999 FEW050 BKN/// 31/17 Q1016 NOSIG
RMK QFE751 15CLRD60=
METAR UMKK 080900Z 30005MPS P8000 SCT200 23/13 Q1019 NOSIG RMK QFE
763 SC07=
METAR UUBP 080900Z 19002MPS 9999 SCT033CB BKN/// 26/18 Q1013 NOSIG=
METAR UUOB 080900Z 20003MPS 9999 SCT040 BKN200 27/17 Q1014 NOSIG RMK
SC065=
METAR UUOK 080900Z VRB02MPS 9999 BKN040 28/18 Q1012 NOSIG=
METAR UUOO 080900Z VRB02MPS 9999 SCT033 28/14 Q1014 NOSIG RMK
13090070=
METAR UWGG 080900Z 14004MPS 090V180 8000 FEW033 33/08 Q1016 NOSIG RMK
QFE755 18090070=
####018001535####
SAIY40 LIIB 080900
METAR LIMG 080850Z 03007KT 9999 BKN080 30/25 Q1020 RMK VIS MIN 9999=
METAR LIMK 080855Z 35003KT 9999 BKN025 19/13 Q1023 RMK OVC SCT080 VAL
      NIL VIS MIN 9999=
METAR LIMN 080855Z /////KT 9999 FEW050 26/15 Q1022 RMK SCT SCT080 VIS
      MIN 9999 BLU=
METAR LIMP 080850Z 10007KT 040V130 CAVOK 26/16 Q1022 RMK VIS MIN
9999=
METAR LIMS 080855Z 11009KT 040V150 CAVOK 26/17 Q1021 RMK FEW FEW200
      VIS MIN 9999 WIND THR30 09005KT BLU=
METAR LIMZ 080850Z 34004KT 8000 SCT015 BKN045 22/19 Q1023 RMK VIS
MIN 8000=
METAR LIPA 080855Z 23006KT 9999 SCT045 24/16 Q1022 RMK SCT VIS MIN
      9999 A3020 BLU=
METAR LIPB 080850Z 16008KT 9999 FEW060 26/12 Q1022 RMK MON LIB VIS
MIN 9999=
METAR LIPC 080855Z 16007KT CAVOK 27/12 Q1021 RMK FEW FEW200 VIS MIN
      9999 WIND THR12 13006KT BLU=
METAR LIPF 080855Z 10003KT 9999 FEW050 25/19 Q1021 RMK FEW VIS MIN
      9999=
METAR LIPH 080845Z 01002KT 9999 SCT035 BKN070 24/18 Q1022 RMK BKN VIS
      MIN 9999 WIND THR07 /////KT BLU=
METAR LIPI 080855Z 12006KT 9999 FEW030 SCT050 25/17 Q1022 RMK BKN
     VIS MIN 9999 WIND THR06 16005KT BLU=
METAR LIPL 080855Z 11006KT 060V180 9999 SCT060 26/20 Q1022 RMK BKN
      VIS MIN 9999 BLU=
METAR LIPO 080850Z 07006KT 040V140 9999 BKN065 25/16 Q1022 RMK VIS
MIN 9999=
METAR LIPQ 080850Z VRB02KT 9999 FEW030 BKN050 25/14 Q1023=
METAR LIPR 080845Z 12006KT CAVOK 27/16 Q1021 RMK SKC VIS MIN 9999
      WIND THR31 13005KT BLU=
METAR LIPS 080855Z 02004KT 9999 BKN060 24/16 Q1022 RMK BKN VIS MIN
      9999 BLU=
####018001505####
SAIY42 LIIB 080900
METAR LIBF 080850Z 32013KT 9999 FEW050 26/09 Q1020 RMK VIS MIN 9999=
METAR LIEA 080850Z 03004KT 300V110 CAVOK 29/21 Q1019 RMK VIS MIN
9999=
METAR LIED 080855Z 16006KT CAVOK 31/12 Q1018 RMK SKC VIS MIN 9999
      BLU=
METAR LIEO 080850Z 03007KT 350V070 9999 FEW030 30/15 Q1020 RMK VIS
MIN 9999=
METAR LIMA 080850Z 00000KT 9999 SCT040 23/16 Q1023 RMK VIS MIN 9999=
METAR LIQN 080850Z 00000KT CAVOK 25/16 Q1021 RMK VIS MIN 9999=
METAR LIQO 080855Z 00000KT CAVOK 23/14 Q1021 RMK FEW FEW200 VAL NIL
      NC VIS MIN 9999=
METAR LIQW 080855Z 13004KT CAVOK 28/19 Q1020 RMK SKC VIS MIN 9999
      BLU=
METAR LIRE 080855Z 21008KT 9999 FEW020 27/18 Q1019 RMK SCT VIS MIN
      9999 WIND THR31 20009KT BLU=
METAR LIRG 080855Z 25002KT 9999 FEW035 29/19 Q1019 RMK SCT MON NE
     LIB NC VIS MIN 9999 BLU=
METAR LIRH 080855Z 16002KT 9999 FEW035 26/18 Q1020 RMK FEW MON LIB NC
      VIS MIN 9999 WIND THR16 14003KT BLU=
METAR LIRI 080850Z 04013KT CAVOK 28/11 Q1019 RMK VIS MIN 9999=
METAR LIRK 080855Z 14007KT CAVOK 16/12 Q1026 RMK SKC MON NE LIB NC
      VAL NIL NC VIS MIN 9999=
METAR LIRL 080855Z 27004KT 9999 FEW020 28/21 Q1018 RMK FEW MON LIB NC
      VIS MIN 9999 BLU=
METAR LIRM 080855Z 06011KT CAVOK 28/16 Q1019 RMK SKC VIS MIN 9999
      WIND THR06 04011KT BLU=
METAR LIRS 080855Z 21002KT CAVOK 30/10 Q1019 RMK FEW FEW200 VIS MIN
      9999 WIND THR21 /////KT BLU=
METAR LIRT 080855Z 36007KT 9999 FEW013 16/07 Q1023 RMK FEW MON LIB
      VAL NIL VIS MIN 9999=
####018000091####
SPPA41 KWBC 080911
SPECI
PGUM 080907Z 09009KT 10SM SCT021 BKN027 BKN037 28/24 A2988=
####018000091####
SPPQ31 KWBC 080911
SPECI
PGUM 080907Z 09009KT 10SM SCT021 BKN027 BKN037 28/24 A2988=
####018000121####
SPNT31 KWBC 080911
SPECI
TXKF 080906Z 17017KT 8000 -SHRA BKN013TCU BKN042 BKN170 BKN300
25/23 Q1018 RMK TCU W-N=
####018000099####
SPPA31 KWBC 080911
SPECI
PGUM 080907Z 09009KT 10SM SCT021 BKN027 BKN037 28/24 A2988 RMK AO2=
####018000336####
SAAL31 DAAA 080900
METAR DAAG 080900Z 35003KT 290V030 CAVOK 31/16 Q1019=
METAR DAAT 080900Z NIL=
METAR DABB 080900Z 01007KT CAVOK 29/14 Q1019=
METAR DABC 080900Z 00000KT CAVOK 28/11 Q1023=
METAR DAON 080900Z 36004KT CAVOK 34/20 Q1017=
METAR DAOO 080900Z 36012KT CAVOK 29/21 Q1016=
METAR DAUH 080900Z 10014KT CAVOK 35/20 Q1018=
####018000440####
SARA35 RUMS 080900
METAR ULDD 080900Z 08009MPS CAVOK 06/02 Q1018 NOSIG RMK QFE763=
METAR UOHH 080900Z 02002MPS 9999 FEW030 SCT/// 12/03 Q1023 NOSIG RMK
QFE761 06090060=
METAR UOII 080900Z 13004MPS 9999 FEW033CB BKN040 29/17 Q1005 TEMPO
-TSRA RMK QFE751 30////60=
METAR UOOO 080900Z 03007G09MPS CAVOK 23/10 Q1010 NOSIG RMK QFE743
010///60=
METAR USCM 080900Z 03003G08MPS 350V070 9999 FEW050 25/01 Q1015 NOSIG
01090065 RMK QFE723=
####018000858####
SARA34 RUMS 080900
METAR UNAA 080900Z 02005MPS 9999 SCT026CB BKN100 17/13 Q1010 TEMPO
34010G15MPS 2000 TSRA RMK QFE735 202///55=
METAR UNBB 080900Z 18008MPS 9999 BKN033CB 18/07 Q1009 NOSIG RMK
QFE734=
METAR UNEE 080900Z 26007MPS 9999 SCT026 BKN200 19/11 Q1008 NOSIG RMK
QFE733 23CLRD60=
METAR UNKL 080900Z VRB02MPS 9999 -SHRA SCT010 BKN020CB OVC083 16/14
Q1008 NOSIG RMK QFE731 29////55=
METAR UNNT 080900Z 23004MPS 190V260 9999 BKN050CB BKN100 21/04 Q1007
NOSIG RMK QFE745/0994 25090070=
METAR UNOO 080900Z 30006MPS 9999 BKN023 14/09 Q1007 NOSIG 25CLRD06
RMK QFE747=
METAR UNWW 080900Z 29004MPS 9999 BKN026CB OVC130 20/10 Q1009 NOSIG
RMK QFE730 19CLRD70=
METAR USTR 080900Z 32008G11MPS CAVOK 20/03 Q1011 NOSIG RMK
QFE749/0998 30CLRD65=
METAR USHH 080900Z 33003G08MPS 250V020 6000 -SHRA BKN018CB OVC080
10/09 Q1009 NOSIG RMK QFE753 SC06=
####018000924####
SARS32 RUMS 080900
METAR URKA 080900Z 05005MPS 9999 SCT026 28/18 Q1013 NOSIG RMK  065=
METAR URKK 080900Z 08005G08MPS 040V110 9999 SCT030 SCT300 28/17 Q1013
NOSIG RMK QFE756 SC070=
METAR URKM 080900Z 10002MPS 9999 SCT040 BKN100 20/18 Q1013 NOSIG RMK
QFE741=
METAR URML 080900Z 03004G09MPS 9999 SKC 31/21 Q1013 NOSIG RMK QFE759
/ 07=
METAR URMM 080900Z 09004G07MPS 9999 BKN040 29/20 Q1013 NOSIG RMK /
SC070=
METAR URMN 080900Z 10004MPS 9999 SCT026 BKN110 27/20 Q1014 NOSIG RMK
/ QFE724 SC07=
METAR URMT 080900Z 08006G09MPS 9999 SCT020 27/17 Q1015 NOSIG RMK
QFE721 SC07=
METAR URRR 080900Z 10003G06MPS 9999 FEW026 29/15 Q1014 NOSIG RMK
SC070=
METAR URSS 080900Z 30002MPS 9999 FEW040 28/21 Q1011 NOSIG RMK /
QFE757 06CLRD70=
METAR URWA 01003MPS CAVOK 36/10 Q1011 NOSIG RMK SC07=
METAR URWI 080900Z 00000MPS CAVOK 29/16 Q1014 NOSIG RMK SC065=
METAR URWW 080900Z 35003MPS CAVOK 28/18 Q1014 NOSIG RMK SC070=
####018000116####
SAIY41 LIIB 080900 CCA
METAR LIMT 080855Z /////KT 8000 BKN012 14/12 Q1024 RMK BKN MON LIB VAL NIL VIS MIN 8000=
####018000328####
SANG31 YBBN 080900
METAR AYPY 080900Z 18015KT 9999 SCT040 BKN140 26/23 Q1009 RMKS: HZ IN
AREA=
METAR AYWK 080900Z NIL=
METAR AYVN 080900Z NIL=
METAR AYNZ 080900Z NIL=
METAR AYMH 080900Z NIL=
METAR AYGN 080900Z NIL=
METAR AYMO 080900Z NIL=
METAR AGGH 080900Z 00000KT 9999 HZ FEW015 SCT030 OVC300 25/24 Q1009=
####018000131####
SACZ41 LKPW 080900
METAR LKKU 080900Z 35001KT 9999 FEW043 22/10 Q1022=
METAR LKLB 080900Z 29006KT 210V350 CAVOK 22/06 Q1024=
####018000081####
SAID31 EGGY 080900
METAR WALL 080900Z 10004KT 9999 FEQ020 30/26 Q1007 NOSIG=
####018001659####
SATU20 LTAA 080850
METAR LTAB 080850Z 05011KT 030V090 9999 SCT040 28/15 Q1011 TEMPO
FM1000 -TSRA RMK RWY06 04009KT 350V080=
METAR LTAD 080850Z 06010KT 020V120 9999 FEW040 SCT100 29/16 Q1011 
NOSIG RMK RWY29 06008KT 340V120=
METAR LTAE 080850Z 01006KT 9999 FEW040 29/16 Q1011 NOSIG RMK RWY21 
03009KT=
METAR LTAG 080850Z 20009KT 9999 BKN035 29/20 Q1008 NOSIG=
METAR LTAH 080850Z VRB03KT 9999 SCT040 27/11 Q1012  RMK RWY13 
VRB03KT=
METAR LTAN 080850Z 03006KT 9999 FEW040 29/14 Q1012 NOSIG RMK RWY19 
34004KT=
METAR LTAP 080850Z 01014KT 9999 SCT040 BKN100 29/17 Q1011 NOSIG RMK 
RWY23 02014KT=
METAR LTAT 080850Z 04006KT 9999 FEW040 34/08 Q1009 NOSIG RMK RWY03 
07006KT=
METAR LTAU 080850Z 10003KT 050V160 9999 FEW040 29/14 Q1012 NOSIG RMK 
RWY07 VRB04KT=
METAR LTBF 080850Z 33015KT 300V360 9999 SCT035 25/17 Q1011 NOSIG RMK 
RWY18 34013G24KT 290V010=
METAR LTBG 080850Z 36017G27KT 9999 SCT034 BKN100 23/15 Q1012 NOSIG 
RMK RWY18 36018G28KT=
METAR LTBI 080850Z VRB02KT 9999 SCT035 SCT100 26/11 Q1012 NOSIG RMK 
RWY09 07004KT 020V120=
METAR LTBL 080850Z 31013KT 290V350 CAVOK 30/12 Q1010 NOSIG RMK RWY17 
32012KT=
METAR LTBQ 080850Z 06006KT 020V100 9999 SCT035 27/19 Q1011 TEMPO 
33012KT RMK RWY09 07005KT 020V100=
METAR LTBR 080850Z 36009KT 9999 FEW035 SCT100 27/15 Q1011 NOSIG RMK 
RWY07 31009KT=
METAR LTBU 080850Z 34013KT 9999 SCT030 BKN100 21/10 Q1014  RMK RWY23 
33012KT=
METAR LTCC 080850Z VRB06KT CAVOK 39/M01 Q1007 NOSIG RMK RWY16 
VRB06KT=
METAR LTCE 080850Z 07009KT 040V110 9999 SCT025 28/13 Q1018 NOSIG RMK 
RWY08R 05007KT 010V080 RWY26R 06008KT 030V110 RWY08L 08007KT 020V140=
####018000443####
SAID31 WIII 080900
METAR WIMM 080900Z 02007KT 7000 SCT017 32/24 Q1007 NOSIG= 
METAR WADD 080900Z 00000KT 9999 SCT017 29/25 Q1008 NOSIG= 
METAR WAAA 080900Z 12005KT 9999 FEW019CB SCT020 28/26 Q1008= 
METAR WIDD 080900Z 22005KT 9999 FEW017 29/24 Q1008= 
METAR WARR 080900Z VRB02KT 9999 FEW020 29/23 Q1008 NSG= 
METAR WIII 080900Z 00000KT 500 RA FEW018CB SCT020 25/22Q1009 RMK CB T
O S NOSIG= 
METAR WIHH NIL=
METAR WABB NIL=
####018001307####
SAAU32 YBBN 080900
METAR YAMB 080900Z 18009KT 9999 SCT050 BKN075 17/10 Q1021=
METAR YMAV 080900Z AUTO 16004KT 9999NDV // OVC050 10/07 Q1028=
METAR YBRM 080900Z 05007KT 9999 VCSH SCT031 BKN060 26/21 Q1010=
METAR YCIN 080900Z AUTO 10006KT //// // ////// 24/19 Q1012=
METAR YSDU 080900Z AUTO 12009KT 9999NDV // NCD 10/05 Q1024=
METAR YFRT 080900Z AUTO 05013KT //// // ////// 16/03 Q1014=
METAR YGEL 080900Z 30017KT 6000 4000N -SHRA FEW024 BKN048 17/15
Q1003=
METAR YPGV 080900Z 15010KT 9999 BKN022 BKN350 24/21 Q1013=
METAR YBHM 080900Z AUTO 15018KT //// // ////// 18/15 Q1017=
METAR YMHB 080900Z 00000KT CAVOK 05/02 Q1030=
METAR YPKG 080900Z AUTO 34007KT 9999NDV // SCT069 OVC090 19/04 Q1005=
METAR YMLT 080900Z AUTO 00000KT 9999NDV // BKN037 04/02 Q1030=
METAR YBMA 080900Z AUTO 16009KT 9999NDV // ////// 13/10 Q1019=
METAR YSNF 080900Z 12008KT 9999 FEW015 BKN030 15/11 Q1017=
METAR YPEA 080900Z 36013KT 9999 VCSH BKN015 BKN034 15/13 Q0999
RMK USE TAF FOR ARRIVALS=
METAR YPPD 080900Z NIL=
METAR YSRI 080900Z NIL=
METAR YBRK 080900Z 00000KT 9999 FEW006 BKN030 13/13 Q1019=
METAR YWLM 080900Z 23007KT 9999 SCT020 BKN045 12/12 Q1025
RMK USE TAF FOR ARRIVALS AFTER 1000Z
INTER 0900/1000 SHRA BKN010=
METAR YPWR 080900Z AUTO 06005KT 9999NDV // NCD 10/M01 Q1023=
####018000073####
SAAL31 DAAA 080900 RRA
METAR DAAT 080900Z 13018KT CAVOK 32/03 Q1022=
####018000385####
SAEE31 LOWM 080900
METAR UACK 080900Z 30009G13MPS 9999 BKN053 SCT067 19/02 Q1011
02010070 NOSIG RMK QFE734=
METAR UACP 080900Z NIL=
METAR UAII 080900Z NIL=
METAR UADD 080900Z 34004MPS 290V360 9999 NSC 34/03 Q1013
NOSIG RMK QFE703/0937=
METAR UASK 080900Z 34003MPS 9999 SCT040 BKN100 22/11 Q1012
                   300/0060 NOSIG RMK QFE734=
METAR UASP 080900Z NIL=
####018000507####
SAID32 WIII 080900
METAR WIPT 080900Z 00000KT 9999 FEW020 29/23 Q1009= 
METAR WIOO 080900Z 27008KT 9999 SCT012 29/25 Q1009 NOSIG = 
METAR WIPP 080900Z 00000KT 9999 FEW015 27/23 Q1009= 
METAR WAOO 080900Z 17006KT 9999 FEW017 29/24 Q1008 NOSIG= 
METAR WADA 080900Z 34006KT 9999 HZ SCT016 33/25 Q1008= 
METAR WALL 080900Z 10004KT 9999 FEQ020 30/26 Q1007 NOSIG= 
METAR WAMM 080900Z 00000KT 9999 FEW025 29/23 Q1008 NOSIG= 
METAR WIBB 080900Z 00000KT 9999 SCT015 31/23 Q1007= 
METAR WIKN NIL=
####018000202####
SAID33 WIII 080900
METAR WATT 080900Z 30004KT 9999 SCT017 28/25 Q1010= 
METAR WABP NIL=
METAR WAJJ NIL=
METAR WAKK NIL=
METAR WAPP NIL=
METAR WARS NIL=
METAR WIAT NIL=
METAR WALR NIL=
####018001487####
SAAU31 YBBN 080900
METAR YPAD 080900Z 09005KT CAVOK 09/07 Q1025=
METAR YBAS 080900Z AUTO 09007KT 9999NDV // NCD 12/06 Q1019=
METAR YBBN 080900Z 19009KT CAVOK 18/10 Q1020
RMK 7SC080
NOSIG=
METAR YBCS 080900Z 16008KT 9999 FEW024 BKN050 23/19 Q1015=
METAR YSCB 080900Z NIL=
METAR YPXM 080900Z AUTO 19004KT 9999NDV // SCT018 25/21 Q////=
METAR YPCC 080900Z NIL=
METAR YCFS 080900Z AUTO 23013KT 9999NDV // SCT038 SCT045 OVC115 14/11
Q1023=
METAR YPDN 080900Z 03011KT CAVOK 27/20 Q1011=
METAR YBCG 080900Z AUTO 19011KT 9999NDV // SCT023 BKN035 OVC049 15/13
Q1021=
METAR YHID 080900Z AUTO 11019KT 4500NDV // SCT011 BKN017 OVC035 24/22
Q1012=
METAR YPJT 080900Z AUTO 33010KT 9999NDV // SCT061 SCT072 15/11 Q0999=
METAR YPKU 080900Z AUTO 13005KT 9999NDV // NCD 26/15 Q1013=
METAR YPLM 080900Z AUTO 14003KT 9999NDV // OVC021 21/17 Q1008=
METAR YMML 080900Z 16005KT 9999 FEW030 BKN042 09/05 Q1028
NOSIG=
METAR YPPH 080900Z 29011KT 8000 SHRA FEW018 SCT042 BKN065 FEW023TCU
15/14 Q0999
RMK SHRA TO W AND SE
FM0900 33018G28KT 9999 -SHRA BKN020
INTER 0900/1200 27025G35KT 3000 +SHRA BKN010=
METAR YSSY 080900Z 23012KT 7000 SHRA FEW006 SCT020 BKN035 12/12
Q1027
RMK VIS REDUCED TO NORTH
FM0900 19015KT 9999 -SHRA SCT025 BKN040
INTER 0900/1200 5000 SHRA BKN010=
METAR YSTW 080900Z AUTO 15008KT 9999NDV // NCD 10/06 Q1024=
METAR YPTN 080900Z 10006KT CAVOK 26/15 Q1013=
METAR YBTL 080900Z 10005KT 9999 FEW030 SCT050 BKN170 22/20 Q1016=
####018001720####
SASD20 OEJD 080900
METAR OEAB 080900Z 03016KT 8000 FEW020 SCT200 32/M01 Q1021 NOSIG=
METAR OEAH 080900Z 03012KT CAVOK 44/08 Q1001 NOSIG=
METAR OEBA 080900Z 10007KT 8000 SKC 34/04 Q1017 NOSIG=
METAR OEBH 080900Z 03012KT CAVOK 39/04 Q1012 NOSIG=
METAR OEDF 080900Z 36014KT 8000 NSC 45/03 Q1000 NOSIG=
METAR OEDM 080900Z 05010KT CAVOK 41/05 Q1010=
METAR OEDR 080900Z 01012KT 8000 SKC 44/09 Q0999 NOSIG=
METAR OEGN 080900Z 21008KT CAVOK 37/28 Q1002 NOSIG=
METAR OEGS 080900Z 09010KT CAVOK 44/08 Q1009=
METAR OEGT 080900Z 31005KT CAVOK 34/M03 Q1011=
METAR OEHL 080900Z 09008KT CAVOK 42/02 Q1013=
METAR OEJN 080900Z 31012KT CAVOK 37/25 Q1001 NOSIG=
METAR OEKB 080900Z 16010KT CAVOK 44/23=
METAR OEKJ 080900Z 02020KT 7000 SKC 44/M01 Q1007=
METAR OEKK 080900Z 05010KT CAVOK 44/12 Q1006=
METAR OEKM 080900Z 09022KT 8000 SKC 31/05 Q1020 NOSIG=
METAR OEMA 080900Z 10008KT CAVOK 45/00 Q1006 NOSIG=
METAR OEMH 080900Z NIL=
METAR OEMK 080900Z 30002KT CAVOK 43/23 Q1001=
METAR OENG 080900Z 06008KT 5000 DU SKC 39/00 Q1012 NOSIG=
METAR OEPA 080900Z NIL=
METAR OERF 080900Z 11003KT CAVOK 42/11 Q1007=
METAR OERK 080900Z 02017KT 5000 BLDU SKC 42/M01 Q1008 NOSIG=
METAR OERR 080900Z 14011KT CAVOK 43/11 Q1007=
METAR OERY 080900Z 04018KT 5000 SA NSC 43/01 Q1008 NOSIG=
METAR OESH 080900Z 03014KT 4000 BLDU SKC 42/14 Q1003 NOSIG=
METAR OESK 080900Z 27006KT CAVOK 41/00 Q1009=
METAR OETB 080900Z 17003KT CAVOK 36/06 Q1011 NOSIG=
METAR OETF 080900Z 11010KT CAVOK 37/03 Q1016 NOSIG=
METAR OETR 080900Z 00000KT CAVOK 36/04 Q1011=
METAR OEWD 080900Z 06018KT 6000 SKC 43/11 Q1005=
METAR OEWJ 080900Z 30023KT CAVOK 34/26 Q1004=
METAR OEYN 080900Z 26006KT CAVOK 41/11 Q1000 NOSIG=
####018000261####
SABC40 FBSK 080900
METAR FBSK 080900Z 08016KT 9999 BKN020 17/09 Q1033 NOSIG=
METAR FBFT 080900Z 10015KT 9999 BKN015 19/11 Q1032=
METAR FBMN 080900Z 09015KT CAVOK 21/06 Q1029=
METAR FBKE 080900Z 09017KT CAVOK 20/07 Q1028= 
METAR FBSP 080900Z NIL=

####018000088####
SAGH20 DGAA 080900
METAR DGAA 080900Z 26010KT 9999 SCT015 BKN100 28/23 Q1015 NOSIG=
####018000979####
SAAM20 FCBB 080900
METAR FCBB 080900Z 24005KT 200V300 6000  BKN014 25/19 Q1016 NOSIG=
METAR FCPP 080900Z 16006KT 7000 SCT013 BKN026 24/21 Q1015 NOSIG=
METAR FKKD 080900Z 12003KT 8000 TS BKN013 FEW016CB BKN120 27/25 Q1015
           BECMG NSW BKN016 FEW020CB BKN120=
METAR FKYS NIL=
METAR FKKR NIL=
METAR FKKN NIL=
METAR FKKL NIL=
METAR FEFT NIL=
METAR FEFG NIL=
METAR FEFF 080900Z VRB03KT 9999 SCT020 SCT300 27/24 Q1015 NOSIG=
METAR FOOL 080900Z 15006KT 120V190 8000 SCT010 OVC040 26/21 Q1016
NOSIG=
METAR FOON NIL=
METAR FOOG NIL=
METAR FGBT NIL=
METAR FGSL 080900Z VRB01KT 9999 SCT013 FEW020CB BKN130 27/26
           Q1015 NOSIG=
METAR FZRF NIL=
METAR FZOS NIL=
METAR FZAA 080900Z 24004KT 4000 BR FEW016 25/19 Q1014 BECMG 6000=
METAR FZIC NIL=
METAR FZFK NIL=
METAR FZQA NIL=
METAR FNHU NIL=
METAR FNLU 080900Z VRB03KT 8000 SCT018 BKN020 23/19 Q1015 NSG=
METAR FPST 080900Z 16006KT 9999 FEW025 BKN100 27/21 Q1015 NOSIG=
####018000674####
SABN32 OBBI 080900
METAR OMAA 080900Z 21004KT CAVOK 43/17 Q0999 A2952 NOSIG=
METAR OMAD 080900Z 21004KT 120V260 CAVOK 42/18 Q0999 A2953=
METAR OMAL 080900Z 27007KT 180V360 8000 NSC 41/26 Q1002 A2960=
METAR OMDB 080900Z 33010KT 8000 NSC 43/22 Q1000 NOSIG=
METAR OMDW 080900Z 02004KT 270V080 CAVOK 43/19 Q1001 BECMG 34010KT=
METAR OMFJ 080900Z 09008KT 040V130 7000 FEW020 34/27 Q1002 A2959=
METAR OMRK 080900Z 16009KT CAVOK 42/30 Q0999 A2950=
METAR OMSJ 080900Z 31010KT 280V010 6000 NSC 42/24 Q1000=
METAR OOMS 080900Z 06007KT 020V090 6000 BKN025 BKN120
32/29 Q1001 NOSIG=
METAR OOSA 080900Z 13009KT 100V160 8000 SCT010 OVC020
28/24 Q1003 NOSIG  05=
####018000075####
SASD32 OEJD 080900
METAR OETF 080900Z 11010KT CAVOK 37/03 Q1016 NOSIG=
####018000690####
SAEW KAWN 080900 RRG
METAR LFBA 080900Z 11008KT CAVOK 26/16 Q1018 NOSIG=
METAR LFBE 080900Z 06007KT 030V090 CAVOK 26/18 Q1018 NOSIG=
METAR LFGJ 080900Z AUTO 22005KT 160V280 9999NDV NSC 25/15 Q1021=
METAR LFLX 080900Z 12005KT 080V170 CAVOK 27/14 Q1019 NOSIG=
METAR LFMD 080900Z AUTO 17006KT 130V200 9999NDV NSC 29/21 Q1020=
METAR LFMH 080900Z 15004KT 090V220 CAVOK 26/13 Q1021 NOSIG=
METAR LFOI 080905Z VRB02KT CAVOK 24/10 Q1019=
METAR LFOT 080900Z AUTO 11004KT 050V160 9999NDV NSC 28/11 Q1019=
METAR LFPN 080900Z VRB05KT CAVOK 28/12 Q1019 NOSIG=
METAR LFRC 080900Z AUTO VRB03KT 9999NDV BKN014 19/15 Q1019=
METAR LFRK 080900Z 32005KT 260V030 CAVOK 24/14 Q1019 NOSIG=
####018000189####
SANA35 KAWN 080900 RRD
METAR SAZS 080900Z 32017KT 4000 +RA BKN008 02/01 Q1005=
METAR TXKF 080855Z 16013KT 9999 VCSH SCT013TCU BKN042 BKN170 BKN300
      25/22 Q1018 RMK TCU W-NW /=
####018000127####
SAUS17 KAWN 080900 RRE
METAR K79J 080856Z AUTO 00000KT 10SM CLR 24/22 A3002 RMK AO2 SLP159
      T02440217 56005 TSNO $=
####018000524####
SPNA14 KAWN 080911
SPECI KNHK 080907Z AUTO 11004KT 5SM BR FEW009 26/24 A2998 RMK AO2=
SPECI KNSE 080903Z AUTO 00000KT 3/4SM BR CLR 23/21 A3002 RMK AO2 $=
SPECI KRND 080909Z AUTO 04004KT 10SM BKN010 OVC016 25/23 A2994 RMK
      AO2 SLP127=
SPECI KSKF 080909Z 07007KT 10SM -RA OVC013 26/ A2992 RMK AO2A RAB0909
      CIG 011V016 SLP123 $=
SPECI KSZL 080904Z 31003KT 9SM -RA BKN050 23/23 A3004 RMK AO2A RAB0904
      SLP164 $=
SPECI KVBG 080906Z AUTO 00000KT 10SM SCT006 12/11 A2993 RMK AO2 TSNO
      $=
####018000155####
SAMC32 GMMC 080900 RRA
METAR GMMZ 080900Z 13004KT 6000 FEW040 FEW050TCU SCT120 33/06 Q1024=
METAR GMTN 080900Z 04006KT 350V070 8000 NSC 25/19 Q1016=
####018000088####
SAUS90 KWBC 080900 RRF
METAR KMZZ 080855Z AUTO 00000KT 7SM CLR 20/19 A3007 RMK AO2=
####018000101####
SAUS90 KWBC 080912
METAR KEHA 080908Z AUTO 36003KT 18/17 RMK AO1 PK WND 05 008
     T01830167=
####018000158####
SAZA42 FAJS 080900 RRB
METAR FAWK 080900Z 09010KT  9999 FEW060  13/// Q1038=
METAR FASK 080900Z 10010KT 9000 NSC 16/// Q1035=
METAR FALM 080900Z NIL=
####018000257####
SABC40 FBSK 080900
METAR FBSK 080900Z 08016KT 9999 BKN020 17/09 Q1033 NOSIG=
METAR FBFT 080900Z 10015KT 9999 BKN015 19/11 Q1032=
METAR FBMN 080900Z 09015KT CAVOK 21/06 Q1029=
METAR FBKE 080900Z 09017KT CAVOK 20/07 Q1028=
METAR FBSP 080900Z NIL=
####018001520####
SAZZ40 KAWN 080900 RRO
METAR DAAP 080900Z 16016KT CAVOK 38/10 Q1016=
METAR DAAY 080900Z 00000KT 9999 FEW033 31/13 Q1025=
METAR DAOB 080900Z 24003KT CAVOK 33/10 Q1023=
METAR DAOF 080900Z 15004KT 3500 HZ NSC 36/07 Q1013=
METAR DAOR 080900Z 18004KT CAVOK 35/04 Q1023=
METAR DAUA 080900Z 02030KT 0700 BLSA NSC 39/07 Q1014=
METAR DAUE 080900Z 05012KT CAVOK 34/12 Q1020=
METAR DAUG 080900Z 00000KT CAVOK 34/12 Q1021=
METAR DAUI 080900Z 06031KT 0300 BLSA VV/// 39/07 Q1013=
METAR DAUK 080900Z 14006KT CAVOK 32/18 Q1017=
METAR DAUO 080900Z 13008KT CAVOK 32/16 Q1018=
METAR DAUU 080900Z 11012KT CAVOK 35/18 Q1018=
METAR FKKD 080900Z 12003KT 8000 TS BKN013 FEW016CB BKN120 27/25 Q1015
      BECMG NSW BKN016 FEW020CB BKN120=
METAR OAKN 080850Z 31005KT 9000 HZ FEW120 41/09 Q1009 BLU NOSIG RMK
      A2979 DA7100=
METAR OEAH 080900Z 03012KT CAVOK 44/08 Q1001 NOSIG=
METAR OEGS 080900Z 09010KT CAVOK 44/08 Q1009=
METAR OEGT 080900Z 31005KT CAVOK 34/M03 Q1011=
METAR OEHL 080900Z 09008KT CAVOK 42/02 Q1013=
METAR OEKK 080900Z 05010KT CAVOK 44/12 Q1006=
METAR OERF 080900Z 11003KT CAVOK 42/11 Q1007=
METAR OERR 080900Z 14011KT CAVOK 43/11 Q1007=
METAR OESK 080900Z 27006KT CAVOK 41/00 Q1009=
METAR OETB 080900Z 17003KT CAVOK 36/06 Q1011 NOSIG=
METAR OETR 080900Z 00000KT CAVOK 36/04 Q1011=
METAR OEWJ 080900Z 30023KT CAVOK 34/26 Q1004=
METAR SADF 080900Z 00000KT CAVOK 03/02 Q1019=
METAR UUYY 080900Z VRB01MPS 9999 SCT030 29/12 Q1016 NOSIG 01CLRD61
      RMK QFE753/1004=
####018001011####
SAUS20 KNKA 080911
SPECI KBJJ 080910Z AUTO 00000KT 3/4SM BR FEW060 18/17 A3010 RMK AO2=
METAR KBNL 080915Z AUTO 29004KT 10SM CLR 24/18 A2999 RMK AO2 =
METAR KCQW 080915Z AUTO 00000KT 7SM CLR 22/18 A2997 RMK AO2 =
SPECI KFZY 080910Z AUTO 00000KT 2SM BR CLR 20/19 A3004 RMK AO2=
SPECI KHAO 080910Z AUTO 00000KT 3/4SM BR CLR 21/20 A3007 RMK AO2=
METAR KIGQ 080900Z AUTO 00000KT 7SM -RA SCT018 BKN090 23/22 A3003 
     RMK AO2=
METAR KLKR 080915Z AUTO 00000KT 7SM CLR 19/19 A2999 RMK AO2 =
METAR KOLV 080915Z AUTO 00000KT 8SM CLR 23/23 A3007 RMK A01 P000 =
SPECI KSLN 080910Z AUTO 32005KT 6SM BR BKN015 21/20 A3011 RMK AO2=
METAR KTFP 080905Z AUTO 11005KT 10SM SCT018 SCT041 BKN049 27/26 
     A2981 RMK AO2 LTG DSNT W T02730256=
METAR KTIP 080905Z AUTO 00000KT 10SM SCT047 SCT055 SCT120 24/23 
     A3004 RMK AO2 T02400227=
METAR KTYQ 080905Z AUTO 00000KT 7SM OVC095 22/21 A3006 RMK AO2=
METAR KVYS 080905Z AUTO 16003KT 5SM BR SCT003 OVC012 23/22 A3002 
     RMK AO2 T02300215=
####018000096####
SAUS98 KWBC 080912
METAR KEHA 080908Z AUTO 36003KT 18/17 RMK AO1 PK WND 05 008
T01830167=
####018000683####
SAUS99 KWBC 080912
METAR
KBNL 080915Z AUTO 29004KT 10SM CLR 24/18 A2999 RMK AO2=
KCQW 080915Z AUTO 00000KT 7SM CLR 22/18 A2997 RMK AO2=
KIGQ 080900Z AUTO 00000KT 7SM -RA SCT018 BKN090 23/22 A3003 RMK
     AO2=
KLKR 080915Z AUTO 00000KT 7SM CLR 19/19 A2999 RMK AO2=
KOLV 080915Z AUTO 00000KT 8SM CLR 23/23 A3007 RMK A01 P000=
KTFP 080905Z AUTO 11005KT 10SM SCT018 SCT041 BKN049 27/26 A2981
     RMK AO2 LTG DSNT W T02730256=
KTIP 080905Z AUTO 00000KT 10SM SCT047 SCT055 SCT120 24/23 A3004
     RMK AO2 T02400227=
KTYQ 080905Z AUTO 00000KT 7SM OVC095 22/21 A3006 RMK AO2=
KVYS 080905Z AUTO 16003KT 5SM BR SCT003 OVC012 23/22 A3002 RMK AO2
     T02300215=
####018000279####
SPUS99 KWBC 080912
SPECI
KBJJ 080910Z AUTO 00000KT 3/4SM BR FEW060 18/17 A3010 RMK AO2=
KFZY 080910Z AUTO 00000KT 2SM BR CLR 20/19 A3004 RMK AO2=
KHAO 080910Z AUTO 00000KT 3/4SM BR CLR 21/20 A3007 RMK AO2=
KSLN 080910Z AUTO 32005KT 6SM BR BKN015 21/20 A3011 RMK AO2=
####018000186####
SAAF20 LFPW 080900 RRA
METAR FABL 080900Z 34012KT CAVOK 15/05 Q1034 NOSIG=
METAR FAEL 080900Z 04008KT 010V080 CAVOK 19/09 Q1028=
METAR FAGG 080900Z VRB01KT 9999 FEW040 15/05 Q1023=
####018000095####
SAAF18 LFPW 080900 RRA
METAR FMEE 080900Z 13021KT 9999 FEW023 24/17 Q1022 TEMPO 13028G38KT=
####018001007####
SARS35 RUMS 080900
METAR USPP 080900Z 33003MPS 280V360 CAVOK 26/10 Q1016 NOSIG RMK
QFE751/1001 21090060=
METAR UWKD 080900Z 13009G12MPS 9999 VCTS -SHRA BKN033CB BKN070 28/12
Q1015 TEMPO VRB15MPS 3000 TSRA RMK QFE752/1003 112/0350=
METAR UWKE 080900Z 12002MPS 9999 FEW040 30/11 Q1016 NOSIG RMK
QFE745/0993 22090070=
METAR UWKS 080900Z 31002MPS 170V050 CAVOK 32/12 Q1016 NOSIG RMK
QFE747 SC0.60=
METAR UWLL 080900Z 11002MPS CAVOK 31/10 Q1016 NOSIG RMK QFE749/0999
SC065=
METAR UWLW 080900Z 02003MPS 8000 FEW040 32/14 Q1015 NOSIG 02CLRD60
RMK QFE755=
METAR UWOR 080900Z 05010MPS CAVOK 28/03 Q1014 07CLRD65 NOSIG RMK
QFE735/0981=
METAR UWOO 080900Z 05006MPS P5000 SCT070 31/04 Q1012 08LRD65 NOSIG
RMK QFE749/0998=
METAR UWPP 080900Z 13004MPS 9999 SCT033 BKN100 30/09 Q1014 NOSIG RMK
QFE746 11090060=
METAR UWSS 080900Z 05006MPS 9999 FEW050TCU BKN066 30/13 Q1015 NOSIG
RMK QFE749 120///60=
METAR UWWW 080900Z 06005G08MPS 010V120 CAVOK 31/09 Q1016 NOSIG RMK
QFE749/0998 05CLRD60 15//99//=
####018000397####
SARS33 RUMS 080900
METAR ULLI 080900Z 10002MPS 040V150 CAVOK 30/19 Q1013 NOSIG=
METAR UUDD 080900Z 15004MPS 130V190 CAVOK 27/15 Q1015 NOSIG=
METAR UUEE 080900Z 12004MPS 080V170 9999 SCT050TCU BKN200 28/14 Q1015
NOSIG=
METAR UUEM 080900Z NIL=
METAR UUWW 080900Z 13003MPS CAVOK 24/17 Q1015 06000070 NOSIG=
METAR UUMO 080900Z 12003MPS 070V180 CAVOK 25/16 Q1015 NOSIG RMK
QFE746/0995 SC060=
####018000324####
SAAF21 LFPW 080900 RRA
METAR FAJS 080900Z 07011KT 040V110 9999 SCT012 13/07 Q1037 NOSIG=
METAR FALA 080900Z 07006KT 040V120 9999 SCT030 15/07 Q1035 NOSIG=
METAR FAMM 080900Z 02014KT 9999 FEW040 17/05 Q1033 NOSIG=
METAR FAPE 080900Z 02009KT CAVOK 14/11 Q1026 NOSIG=
METAR FAUP 080900Z 01020KT CAVOK 21/03 Q1028 NOSIG=
####018000722####
SARA36 RUMS 080900
METAR UWUU 080900Z 01004G08MPS CAVOK 27/08 Q1016 82010060 NOSIG RMK
QFE751/1001 MOD TURB 500-1600=
METAR USCC 080900Z 34008G12MPS 9999 SCT040 25/02 Q1014 NOSIG RMK
QFE740 27000070=
METAR USDD 080900Z 05008G11MPS CAVOK 17/01 Q1016 NOSIG RMK
QFE756/1008 SC060=
METAR USMU 080900Z 01006G11MPS 9999 SCT024CB OVC066 12/10 Q1005 NOSIG
RMK QFE748 09250345=
METAR USNN 080900Z 16006MPS P6000 SCT026 BKN200 18/11 Q1002 NOSIG RMK
QFE747 SC065=
METAR USRK 080900Z 34004MPS 6000 BKN016 OVC066 13/11 Q1002 NOSIG RMK
QFE746 351///55=
METAR USRR 080900Z 34004G07MPS 7000 OVC010 12/10 Q1004 TEMPO BKN005
RMK QFE747 25////60=
METAR USSS 080900Z 33007G10MPS CAVOK 24/02 Q1015 NOSIG RMK QFE740
260///70=
####018000387####
SARA33 RUMS 080900
METAR UIAA 080900Z 03006MPS 9999 VCTS BKN043CB OVC200 25/10 Q1006
NOSIG RMK     QFE696 29CLRD70=
METAR UIBB 080900Z 07004MPS 9999 FEW033 BKN200 28/12 Q1005 NOSIG RMK
QFE711/0948 30CLRD60=
METAR UIII 080900Z 16004MPS CAVOK 22/13 Q1006 NOSIG RMK QFE712/0950
12CLRD60=
METAR UIUU 080900Z 25004MPS 210V280 9999 SCT040CB OVC100 22/14 Q1007
NOSIG RMK QFE711/0948=
####018000258####
SARS34 RUMS 080900
METAR UUYH 080900Z 25002MPS CAVOK 25/08 Q1017 NOSIG RMK QFE 751
18CLRD60=
METAR UUYS 080900Z 16003MPS CAVOK 21/07 Q1017 NOSIG RMK QFE756
14CLRD60=
METAR UUYY 080900Z VRB01MPS 9999 SCT030 29/12 Q1016 NOSIG 01CLRD61
RMK QFE753/1004=
####018000539####
SARA31 RUMS 080900
METAR UEEE 080900Z 00000MPS 9999 SCT050CB BKN100 24/08 Q1008 NOSIG
RMK QFE747 2309//60=
METAR UELL 080900Z 33006MPS 9999 -TSRA BKN024CB CB OVC200 16/15 Q1010
NOSIG RMK QFE683 08CLRD70=
METAR UERP 080900Z 03005MPS 9999 SCT033CB BKN100 16/06 Q1014 NOSIG
RMK QFE716 35090065=
METAR UERR 080900Z 32004MPS 9999 BKN020CB 14/14 Q1011 NOSIG RMK
QFE727 24290255=
METAR UESO 080900Z 26009G13MPS 9999 OVC008 07/05 Q1004 NOSIG RMK
QFE751 SC060=
METAR UEST 080900Z 14003MPS CAVOK 07/02 Q1016 NOSIG RMK QFE761
21000060=
####018000709####
SAAM31 FCBB 080900
METAR FCBB 080900Z 24005KT 200V300 6000  BKN014 25/19 Q1016 NOSIG=
METAR FCPP 080900Z 16006KT 7000 SCT013 BKN026 24/21 Q1015 NOSIG=
METAR FKKD 080900Z 12003KT 8000 TS BKN013 FEW016CB BKN120 27/25 Q1015
           BECMG NSW BKN016 FEW020CB BKN120=
METAR FEFF 080900Z VRB03KT 9999 SCT020 SCT300 27/24 Q1015 NOSIG=
METAR FOOL 080900Z 15006KT 120V190 8000 SCT010 OVC040 26/21 Q1016
           NOSIG=
METAR FGSL 080900Z VRB01KT 9999 SCT013 FEW020CB BKN130 27/26
           Q1015 NOSIG=
METAR FZAA 080900Z 24004KT 4000 BR FEW016 25/19 Q1014 BECMG 6000=
METAR FNLU 080900Z VRB03KT 8000 SCT018 BKN020 23/19 Q1015 NSG =
METAR FPST 080900Z 16006KT 9999 FEW025 BKN100 27/21 Q1015 NOSIG=
####018001486####
SAAU31 YBBN 080900
METAR YPAD 080900Z 09005KT CAVOK 09/07 Q1025=
METAR YBAS 080900Z AUTO 09007KT 9999NDV // NCD 12/06 Q1019=
METAR YBBN 080900Z 19009KT CAVOK 18/10 Q1020
RMK 7SC080
NOSIG=
METAR YBCS 080900Z 16008KT 9999 FEW024 BKN050 23/19 Q1015=
METAR YSCB 080900Z NIL=
METAR YPXM 080900Z AUTO 19004KT 9999NDV // SCT018 25/21 Q////=
METAR YPCC 080900Z NIL=
METAR YCFS 080900Z AUTO 23013KT 9999NDV // SCT038 SCT045 OVC115 14/11
Q1023=
METAR YPDN 080900Z 03011KT CAVOK 27/20 Q1011=
METAR YBCG 080900Z AUTO 19011KT 9999NDV // SCT023 BKN035 OVC049 15/13
Q1021=
METAR YHID 080900Z AUTO 11019KT 4500NDV // SCT011 BKN017 OVC035 24/22
Q1012=
METAR YPJT 080900Z AUTO 33010KT 9999NDV // SCT061 SCT072 15/11 Q0999=
METAR YPKU 080900Z AUTO 13005KT 9999NDV // NCD 26/15 Q1013=
METAR YPLM 080900Z AUTO 14003KT 9999NDV // OVC021 21/17 Q1008=
METAR YMML 080900Z 16005KT 9999 FEW030 BKN042 09/05 Q1028
NOSIG=
METAR YPPH 080900Z 29011KT 8000 SHRA FEW018 SCT042 BKN065 FEW023TCU
15/14 Q0999
RMK SHRA TO W AND SE
FM0900 33018G28KT 9999 -SHRA BKN020
INTER 0900/1200 27025G35KT 3000 +SHRA BKN010=
METAR YSSY 080900Z 23012KT 7000 SHRA FEW006 SCT020 BKN035 12/12
Q1027
RMK VIS REDUCED TO NORTH
FM0900 19015KT 9999 -SHRA SCT025 BKN040
INTER 0900/1200 5000 SHRA BKN010=
METAR YSTW 080900Z AUTO 15008KT 9999NDV // NCD 10/06 Q1024=
METAR YPTN 080900Z 10006KT CAVOK 26/15 Q1013=
METAR YBTL 080900Z 10005KT 9999 FEW030 SCT050 BKN170 22/20 Q1016=
####018000322####
SAUS80 KWBC 080912
METAR
KPSN 080905Z AUTO 09003KT 7SM 24/24 A3001 RMK AO2 T02420235=
KRFI 080905Z AUTO 00000KT 7SM CLR 24/23 A3001 RMK AO2
     T02400231=
KSEP 080905Z AUTO 00000KT 10SM SCT011 SCT015 BKN021 23/21 A3002
     RMK AO1=
KEHA 080908Z AUTO 36003KT 18/17 RMK AO1 PK WND 05 008
     T01830167=
####018000092####
SAEW31 LEMM 080900 RRA
METAR LEZL 080900Z 28006KT 230V330 9999 SCT020 28/17 Q1016 NOSIG=
####018002647####
SAUS70 KWBC 080912
METAR
KT65 080905Z AUTO 02004KT 7SM RA SCT004 BKN007 OVC060 26/25 A2979
     RMK AO2 P0001 T02580250=
KT82 080905Z AUTO 09003KT 23/22 A3002 RMK AO1 T02310220=
KTAZ 080905Z AUTO 00000KT 5SM BR CLR 23/23 A3003 RMK AO2=
KUVA 080905Z AUTO 04003KT 10SM SCT020 BKN028 24/23 A2995 RMK AO2
     T02410230=
KXBP 080905Z AUTO 13003KT 10SM CLR 24/22 A3002 RMK AO2
     T02390221=
KCCA 080915Z AUTO 00000KT 7SM BKN002 22/22 A3006 RMK AO2=
KCDN 080915Z AUTO 26003KT 10SM CLR 24/22 A2998 RMK A02 P000=
KCKI 080915Z AUTO 00000KT 7SM SCT110 22/21 A2995 RMK AO2=
KLRO 080915Z AUTO 00000KT 10SM CLR 24/19 A2995 RMK AO2=
KLUD 080905Z AUTO 15005KT 10SM SCT026 SCT060 25/22 A3001 RMK AO2
     T02470220=
KMKS 080915Z AUTO 00000KT 10SM CLR 23/20 A2995 RMK AO2 TSNO=
KMNZ 080910Z AUTO 13006KT 10SM CLR 24/24 A3000 RMK AO2
     T02420237=
KMQB 080905Z AUTO 23003KT 10SM OVC004 23/23 A3003 RMK AO2
     T02310230=
KMWA 080905Z AUTO 00000KT 10SM CLR 25/24 A3005 RMK AO2
     T02450237=
KOSA 080904Z AUTO 08003KT 7SM CLR 25/24 A3004 RMK AO1
     T02450240=
KPEZ 080905Z AUTO 03005KT 10SM OVC009 25/23 A2992 RMK AO2
     T02530230=
KPKV 080906Z AUTO 09017G21KT 10SM RA SCT017 BKN036 OVC060 25/23
     A2986 RMK AO2 T02540229=
KPPA 080905Z AUTO 02008KT 10SM -DZ SCT023 SCT065 OVC120 17/16
     A3019 RMK AO2=
KPYX 080910Z AUTO 05007KT 5SM SCT006 BKN034 OVC050 19/18 A3017 RMK
     AO2 P0001 T01920182=
KRAS 080905Z AUTO 12009KT 7SM FEW020 28/26 A2984 RMK AO2=
KRBO 080905Z AUTO 35005KT 10SM SCT019 SCT055 26/25 A2983 RMK AO2
     LTG DSNT E T02600251=
KRPH 080905Z AUTO 00000KT 10SM CLR 23/21 A3000 RMK AO2
     T02260212=
KRYW 080905Z AUTO 06003KT 4SM BR SCT008 SCT014 BKN021 24/23 A2999
     RMK AO2=
KSAR 080905Z AUTO 18004KT 7SM OVC055 26/23 A3004 RMK AO2=
KSLR 080902Z AUTO 13004KT 10SM SCT024 BKN031 25/23 A3004 RMK AO2
     T02500232=
KSNK 080906Z AUTO 34003KT 7SM -DZ CLR 21/20 A3007 RMK AO2
     T02080200=
KSWW 080905Z AUTO 01004KT 10SM CLR 22/20 A3008 RMK AO1
     T02160203=
KBNL 080915Z AUTO 29004KT 10SM CLR 24/18 A2999 RMK AO2=
KCQW 080915Z AUTO 00000KT 7SM CLR 22/18 A2997 RMK AO2=
KLKR 080915Z AUTO 00000KT 7SM CLR 19/19 A2999 RMK AO2=
KOLV 080915Z AUTO 00000KT 8SM CLR 23/23 A3007 RMK A01 P000=
KTFP 080905Z AUTO 11005KT 10SM SCT018 SCT041 BKN049 27/26 A2981
     RMK AO2 LTG DSNT W T02730256=
KTIP 080905Z AUTO 00000KT 10SM SCT047 SCT055 SCT120 24/23 A3004
     RMK AO2 T02400227=
KTYQ 080905Z AUTO 00000KT 7SM OVC095 22/21 A3006 RMK AO2=
KVYS 080905Z AUTO 16003KT 5SM BR SCT003 OVC012 23/22 A3002 RMK AO2
     T02300215=
####018000638####
SPUS70 KWBC 080912
SPECI
KVSF 080909Z AUTO 00000KT 3SM BR BKN002 21/20 A3006 RMK AO2 $=
KAKO 080909Z AUTO 14006KT 6SM BR OVC004 14/14 A3031 RMK AO2 CIG
     003V009 TSNO=
KAQW 080909Z AUTO 00000KT 3SM BR CLR 19/18 A3005 RMK AO2=
KELZ 080909Z AUTO 00000KT 1/4SM FG CLR 18/18 A3016 RMK AO2=
KFRG 080909Z AUTO 13005KT 5SM BR BKN009 26/24 A3003 RMK AO2 CIG
     005V014=
KLEB 080909Z AUTO 00000KT 2SM BR FEW001 22/19 A3005 RMK AO2=
KBJJ 080910Z AUTO 00000KT 3/4SM BR FEW060 18/17 A3010 RMK AO2=
KHAO 080910Z AUTO 00000KT 3/4SM BR CLR 21/20 A3007 RMK AO2=
KSLN 080910Z AUTO 32005KT 6SM BR BKN015 21/20 A3011 RMK AO2=
####018000053####
SAAF34 KWBC 080900 RRC
METAR
FBSP 080900Z NIL=
####018000053####
SAAL31 KWBC 080900 RRB
METAR
DAAT 080900Z NIL=
####018000073####
SAAS31 KWBC 080905 RRA
METAR
VOBG 080900Z NIL=
VOCI 080900Z NIL=
####018000112####
SAAW33 KWBC 080900 RRA
METAR
OOSA 080900Z 13009KT 100V160 8000 SCT010 OVC020 28/24 Q1003 NOSIG
     05=
####018000328####
SANG31 YBBN 080900
METAR AYPY 080900Z 18015KT 9999 SCT040 BKN140 26/23 Q1009 RMKS: HZ IN
AREA=
METAR AYWK 080900Z NIL=
METAR AYVN 080900Z NIL=
METAR AYNZ 080900Z NIL=
METAR AYMH 080900Z NIL=
METAR AYGN 080900Z NIL=
METAR AYMO 080900Z NIL=
METAR AGGH 080900Z 00000KT 9999 HZ FEW015 SCT030 OVC300 25/24 Q1009==
####018000105####
SAAH10 OAKN 080900
METAR OAKN 080850Z 31005KT 9000 HZ FEW120 41/09 Q1009 BLU NOSIG RMK
A2979 DA7100=
####018000129####
SACZ41 LKPW 080900
METAR LKKU 080900Z 35001KT 9999 FEW043 22/10 Q1022=
METAR LKLB 080900Z 29006KT 210V350 CAVOK 22/06 Q1024=
####018000072####
SAAL31 DAAA 080900 RRA
METAR DAAT 080900Z 13018KT CAVOK 32/03 Q1022=
####018001110####
SAAG05 SABM 080900
METAR SAAR 080900Z  00000KT CAVOK 01/M00 Q1019=
METAR SABE 080900Z  27010KT CAVOK 09/M02 Q1019=
METAR SACO 080900Z  36009KT CAVOK 09/M01 Q1019=
METAR SADF 080900Z  00000KT CAVOK 03/02 Q1019=
METAR SAEZ 080900Z NIL=
METAR SAME 080900Z 00000KT CAVOK 00/M04 Q1014=
METAR SANT 080900Z  32006KT 9999  08/05 Q1019=
METAR SAOC 080900Z NIL=
METAR SARC 080900Z 14008KT 9999 BKN007 10/08 Q1018=
METAR SARE 080900Z  16005KT CAVOK 09/08 Q1018=
METAR SARF 080900Z  18009KT 9999  OVC007  14/13
Q1017=
METAR SARI 080900Z  23004KT 8000  SKC  15/15 Q1018=
METAR SARL 080900Z  16008KT 9999  07/06 Q1020=
METAR SARP 080900Z  11002KT 9999  BKN005 OVC015
14/13 Q1017=
METAR SASA 080900Z 36004KT 9999 FEW025 BKN100 11/08 Q 1020=
METAR SASJ 080900Z  32003KT 9999  FEW040  09/07
Q1018=
METAR SAVC 080900Z  27011KT CAVOK 05/M02 Q0998=
METAR SAWE 080900Z NIL=
METAR SAWG 080900Z NIL=
METAR SAWH 080900Z  25004KT 9999  FEW040 BKN100
01/M01 Q0985=
METAR SAZM 080900Z NIL=
METAR SAZN 080900Z 16002KT 9999 SCT050 SCT100 04/02 Q1011=
METAR SAZS 080900Z  32017KT 4000 +RA BKN008  02/01
Q1005=
####018000081####
SAAF35 KWBC 080900 RRA
METAR
HSSS 080900Z 09010KT CAVOK 38/10 Q1019 NOSIG=
####018000376####
SAEE31 LOWM 080900
METAR UACK 080900Z 30009G13MPS 9999 BKN053 SCT067 19/02 Q1011
02010070 NOSIG RMK QFE734=
METAR UACP 080900Z NIL=
METAR UAII 080900Z NIL=
METAR UADD 080900Z 34004MPS 290V360 9999 NSC 34/03 Q1013
NOSIG RMK QFE703/0937=
METAR UASK 080900Z 34003MPS 9999 SCT040 BKN100 22/11 Q1012
                   300/0060 NOSIG RMK QFE734=
METAR UASP 080900Z NIL=
####018001277####
SAAW41 KWBC 080850 RRE
METAR
LTAD 080850Z 06010KT 020V120 9999 FEW040 SCT100 29/16 Q1011 NOSIG
     RMK RWY29 06008KT 340V120=
LTAG 080850Z 20009KT 9999 BKN035 29/20 Q1008 NOSIG=
LTAH 080850Z VRB03KT 9999 SCT040 27/11 Q1012 RMK RWY13 VRB03KT=
LTAN 080850Z 03006KT 9999 FEW040 29/14 Q1012 NOSIG RMK RWY19
     34004KT=
LTAP 080850Z 01014KT 9999 SCT040 BKN100 29/17 Q1011 NOSIG RMK
     RWY23 02014KT=
LTAT 080850Z 04006KT 9999 FEW040 34/08 Q1009 NOSIG RMK RWY03
     07006KT=
LTAU 080850Z 10003KT 050V160 9999 FEW040 29/14 Q1012 NOSIG RMK
     RWY07 VRB04KT=
LTBF 080850Z 33015KT 300V360 9999 SCT035 25/17 Q1011 NOSIG RMK
     RWY18 34013G24KT 290V010=
LTBG 080850Z 36017G27KT 9999 SCT034 BKN100 23/15 Q1012 NOSIG RMK
     RWY18 36018G28KT=
LTBI 080850Z VRB02KT 9999 SCT035 SCT100 26/11 Q1012 NOSIG RMK
     RWY09 07004KT 020V120=
LTBL 080850Z 31013KT 290V350 CAVOK 30/12 Q1010 NOSIG RMK RWY17
     32012KT=
LTBQ 080850Z 06006KT 020V100 9999 SCT035 27/19 Q1011 TEMPO 33012KT
     RMK RWY09 07005KT 020V100=
LTCC 080850Z VRB06KT CAVOK 39/M01 Q1007 NOSIG RMK RWY16
     VRB06KT=
LTCE 080850Z 07009KT 040V110 9999 SCT025 28/13 Q1018 NOSIG RMK
     RWY08R 05007KT 010V080 RWY26R 06008KT 030V110 RWY08L 08007KT
     020V140=
####018001521####
SAAU31 KWBC 080900 RRA
METAR
YBAS 080900Z AUTO 09007KT 9999NDV // NCD 12/06 Q1019=
YBBN 080900Z 19009KT CAVOK 18/10 Q1020 RMK 7SC080 NOSIG=
YBCG 080900Z AUTO 19011KT 9999NDV // SCT023 BKN035 OVC049 15/13
     Q1021=
YBCS 080900Z 16008KT 9999 FEW024 BKN050 23/19 Q1015=
YBMA 080900Z AUTO 16009KT 9999NDV // ////// 13/10 Q1019=
YBRK 080900Z 00000KT 9999 FEW006 BKN030 13/13 Q1019=
YBRM 080900Z 05007KT 9999 VCSH SCT031 BKN060 26/21 Q1010=
YBTL 080900Z 10005KT 9999 FEW030 SCT050 BKN170 22/20 Q1016=
YMHB 080900Z 00000KT CAVOK 05/02 Q1030=
YMML 080900Z 16005KT 9999 FEW030 BKN042 09/05 Q1028 NOSIG=
YPAD 080900Z 09005KT CAVOK 09/07 Q1025=
YPCC 080900Z NIL=
YPDN 080900Z 03011KT CAVOK 27/20 Q1011=
YPEA 080900Z 36013KT 9999 VCSH BKN015 BKN034 15/13 Q0999 RMK USE
     TAF FOR ARRIVALS=
YPLM 080900Z AUTO 14003KT 9999NDV // OVC021 21/17 Q1008=
YPPD 080900Z NIL=
YPPH 080900Z 29011KT 8000 SHRA FEW018 SCT042 BKN065 FEW023TCU
     15/14 Q0999 RMK SHRA TO W AND SE FM0900 33018G28KT 9999 -SHRA
     BKN020 INTER 0900/1200 27025G35KT 3000 +SHRA BKN010=
YPTN 080900Z 10006KT CAVOK 26/15 Q1013=
YPXM 080900Z AUTO 19004KT 9999NDV // SCT018 25/21 Q////=
YSCB 080900Z NIL=
YSDU 080900Z AUTO 12009KT 9999NDV // NCD 10/05 Q1024=
YSNF 080900Z 12008KT 9999 FEW015 BKN030 15/11 Q1017=
YSRI 080900Z NIL=
YSSY 080900Z 23012KT 7000 SHRA FEW006 SCT020 BKN035 12/12 Q1027
     RMK VIS REDUCED TO NORTH FM0900 19015KT 9999 -SHRA SCT025
     BKN040 INTER 0900/1200 5000 SHRA BKN010=
####018000086####
SAAO31 KWBC 080900 RRA
METAR
GMTN 080900Z 04006KT 350V070 8000 NSC 25/19 Q1016=
####018000128####
SAXX60 KWBC 080900 RRH
METAR
K79J 080856Z AUTO 00000KT 10SM CLR 24/22 A3002 RMK AO2 SLP159
     T02440217 56005 TSNO $=
####018000171####
SAAG31 KWBC 080900 RRA
METAR
SABE 080900Z 27010KT CAVOK 09/M02 Q1019=
SAME 080900Z 00000KT CAVOK 00/M04 Q1014=
SAZS 080900Z 32017KT 4000 +RA BKN008 02/01 Q1005=
####018000342####
SAUS70 KWBC 080900 RRK
METAR
KMDD 080900Z AUTO 36004KT 10SM CLR 22/21 A3008 RMK AO2
     T02220206=
KRWV 080900Z AUTO 00000KT 8SM SCT008 SCT023 BKN030 24/24 A2998 RMK
     AO2=
KSLO 080900Z AUTO 20003KT 10SM CLR 24/22 A3004 RMK AO2
     T02380215=
KIGQ 080900Z AUTO 00000KT 7SM -RA SCT018 BKN090 23/22 A3003 RMK
     AO2=
####018000261####
SAAW34 KWBC 080845 RRF
METAR
OAKN 080850Z 31005KT 9000 HZ FEW120 41/09 Q1009 BLU NOSIG RMK
     A2979 DA7100=
UACP 080900Z NIL=
UADD 080900Z 34004MPS 290V360 9999 NSC 34/03 Q1013 NOSIG RMK
     QFE703/0937=
UAII 080900Z NIL=
UASP 080900Z NIL=
####018000089####
SPXX60 KWBC 080912
SPECI
KFZY 080910Z AUTO 00000KT 2SM BR CLR 20/19 A3004 RMK AO2=
####018000236####
SAUS80 KWBC 080900 RRD
METAR
KLIT 080853Z COR 00000KT 7SM FEW007 BKN150 24/23 A3005 RMK AO2
     SLP175 T02440228 50004=
KMKN 080900Z AUTO 00000KT 10SM 24/23 A3002 RMK AO2=
KSOA 080900Z AUTO 02003KT 9SM 23/22 A3006 RMK AO2=
####018000228####
SAID31 KWBC 080900 RRA
METAR
WAAA 080900Z 12005KT 9999 FEW019CB SCT020 28/26 Q1008=
WIII 080900Z 00000KT 500 RA FEW018CB SCT020 25/22Q1009 RMK CB T O
     S NOSIG=
WIMM 080900Z 02007KT 7000 SCT017 32/24 Q1007 NOSIG=
####018000108####
SAIY43 KWBC 080850 RRB
METAR
LIVC 080855Z 03007KT 9999 FEW000 13/11 Q1030 RMK FEW MON LIB
     VAL=
####018000117####
SAMX31 KWBC 080945
METAR
MMMX 080906Z 00000KT 2SM -RA SCT008 BKN020 OVC070 15/14 A3018
     NOSIG RMK 8/47/=
####018001306####
SAAU32 YBBN 080900
METAR YAMB 080900Z 18009KT 9999 SCT050 BKN075 17/10 Q1021=
METAR YMAV 080900Z AUTO 16004KT 9999NDV // OVC050 10/07 Q1028=
METAR YBRM 080900Z 05007KT 9999 VCSH SCT031 BKN060 26/21 Q1010=
METAR YCIN 080900Z AUTO 10006KT //// // ////// 24/19 Q1012=
METAR YSDU 080900Z AUTO 12009KT 9999NDV // NCD 10/05 Q1024=
METAR YFRT 080900Z AUTO 05013KT //// // ////// 16/03 Q1014=
METAR YGEL 080900Z 30017KT 6000 4000N -SHRA FEW024 BKN048 17/15
Q1003=
METAR YPGV 080900Z 15010KT 9999 BKN022 BKN350 24/21 Q1013=
METAR YBHM 080900Z AUTO 15018KT //// // ////// 18/15 Q1017=
METAR YMHB 080900Z 00000KT CAVOK 05/02 Q1030=
METAR YPKG 080900Z AUTO 34007KT 9999NDV // SCT069 OVC090 19/04 Q1005=
METAR YMLT 080900Z AUTO 00000KT 9999NDV // BKN037 04/02 Q1030=
METAR YBMA 080900Z AUTO 16009KT 9999NDV // ////// 13/10 Q1019=
METAR YSNF 080900Z 12008KT 9999 FEW015 BKN030 15/11 Q1017=
METAR YPEA 080900Z 36013KT 9999 VCSH BKN015 BKN034 15/13 Q0999
RMK USE TAF FOR ARRIVALS=
METAR YPPD 080900Z NIL=
METAR YSRI 080900Z NIL=
METAR YBRK 080900Z 00000KT 9999 FEW006 BKN030 13/13 Q1019=
METAR YWLM 080900Z 23007KT 9999 SCT020 BKN045 12/12 Q1025
RMK USE TAF FOR ARRIVALS AFTER 1000Z
INTER 0900/1000 SHRA BKN010=
METAR YPWR 080900Z AUTO 06005KT 9999NDV // NCD 10/M01 Q1023=
####018000129####
SARA31 KWBC 080900 RRC
METAR
UIAA 080900Z 03006MPS 9999 VCTS BKN043CB OVC200 25/10 Q1006 NOSIG
     RMK QFE696 29CLRD70=
####018000344####
SARS32 KWBC 080900 RRB
METAR
URKA 080900Z 05005MPS 9999 SCT026 28/18 Q1013 NOSIG RMK 065=
URMM 080900Z 09004G07MPS 9999 BKN040 29/20 Q1013 NOSIG RMK /
     SC070=
URMN 080900Z 10004MPS 9999 SCT026 BKN110 27/20 Q1014 NOSIG RMK /
     QFE724 SC07=
URSS 080900Z 30002MPS 9999 FEW040 28/21 Q1011 NOSIG RMK / QFE757
     06CLRD70=
####018000120####
SARS41 KWBC 080900 RRB
METAR
UWOO 080900Z 05006MPS P5000 SCT070 31/04 Q1012 08LRD65 NOSIG RMK
     QFE749/0998=
####018000290####
SASD41 KWBC 080900 RRA
METAR
OEAB 080900Z 03016KT 8000 FEW020 SCT200 32/M01 Q1021 NOSIG=
OEAH 080900Z 03012KT CAVOK 44/08 Q1001 NOSIG=
OEBA 080900Z 10007KT 8000 SKC 34/04 Q1017 NOSIG=
OEBH 080900Z 03012KT CAVOK 39/04 Q1012 NOSIG=
OEGN 080900Z 21008KT CAVOK 37/28 Q1002 NOSIG=
####018000306####
SASD44 KWBC 080900 RRA
METAR
OETB 080900Z 17003KT CAVOK 36/06 Q1011 NOSIG=
OETF 080900Z 11010KT CAVOK 37/03 Q1016 NOSIG=
OETR 080900Z 00000KT CAVOK 36/04 Q1011=
OEWD 080900Z 06018KT 6000 SKC 43/11 Q1005=
OEWJ 080900Z 30023KT CAVOK 34/26 Q1004=
OEYN 080900Z 26006KT CAVOK 41/11 Q1000 NOSIG=
####018000331####
SASD43 KWBC 080900 RRA
METAR
OEMK 080900Z 30002KT CAVOK 43/23 Q1001=
OENG 080900Z 06008KT 5000 DU SKC 39/00 Q1012 NOSIG=
OEPA 080900Z NIL=
OERF 080900Z 11003KT CAVOK 42/11 Q1007=
OERR 080900Z 14011KT CAVOK 43/11 Q1007=
OESH 080900Z 03014KT 4000 BLDU SKC 42/14 Q1003 NOSIG=
OESK 080900Z 27006KT CAVOK 41/00 Q1009=
####018000309####
SASD42 KWBC 080900 RRA
METAR
OEGS 080900Z 09010KT CAVOK 44/08 Q1009=
OEGT 080900Z 31005KT CAVOK 34/M03 Q1011=
OEHL 080900Z 09008KT CAVOK 42/02 Q1013=
OEKB 080900Z 16010KT CAVOK 44/23=
OEKK 080900Z 05010KT CAVOK 44/12 Q1006=
OEKM 080900Z 09022KT 8000 SKC 31/05 Q1020 NOSIG=
OEMH 080900Z NIL=
####018000081####
SASP31 KWBC 080900 RRB
METAR
LEVT 080900Z 22001KT 9999 FEW035 29/18 Q1018=
####018000091####
SAUS31 KWBC 080900 RRB
METAR
KLIT 080853Z COR 00000KT 7SM FEW007 BKN150 24/23 A3005=
####018000087####
SAXX61 KWBC 080900 RRB
METAR
LTAG 080850Z 20009KT 9999 BKN035 29/20 Q1008 NOSIG=
####018002363####
SAXX99 KWBC 080900 RRK
METAR
GMMZ 080900Z 13004KT 6000 FEW040 FEW050TCU SCT120 33/06 Q1024=
LKKU 080900Z 35001KT 9999 FEW043 22/10 Q1022=
LKLB 080900Z 29006KT 210V350 CAVOK 22/06 Q1024=
LTAB 080850Z 05011KT 030V090 9999 SCT040 28/15 Q1011 TEMPO FM1000
     -TSRA RMK RWY06 04009KT 350V080=
LTAE 080850Z 01006KT 9999 FEW040 29/16 Q1011 NOSIG RMK RWY21
     03009KT=
LTBR 080850Z 36009KT 9999 FEW035 SCT100 27/15 Q1011 NOSIG RMK
     RWY07 31009KT=
LTBU 080850Z 34013KT 9999 SCT030 BKN100 21/10 Q1014 RMK RWY23
     33012KT=
OEDM 080900Z 05010KT CAVOK 41/05 Q1010=
OEKJ 080900Z 02020KT 7000 SKC 44/M01 Q1007=
SADF 080900Z 00000KT CAVOK 03/02 Q1019=
UACK 080900Z 30009G13MPS 9999 BKN053 SCT067 19/02 Q1011 02010070
     NOSIG RMK QFE734=
URML 080900Z 03004G09MPS 9999 SKC 31/21 Q1013 NOSIG RMK QFE759 /
     07=
VTBO 080900Z NIL=
VTBO 080900Z 16004KT 8000 SCT020 BKN100 28/25 Q1007=
VTPP 080900Z 22006KT 9999 FEW025 36/23 Q1004=
VTSB 080900Z 22006KT 9999 SCT020TCU 33/23 Q1007 A2974 TCU SW=
VTUD 080900Z VRB04KT 9999 SCT035 BKN300 35/21 Q1004 A2966 INFO K
     RWY30=
VTUI 080900Z NIL=
VTUJ 080900Z NIL=
VTUK 080900Z 18003KT 110V260 9999 FEW018 CB SCT022 35/22 Q1004
     A2967 CB N RWY21 INFO K=
VTUL 080900Z NIL=
VTUO 080900Z 23002KT 9999 FEW016 SCT300 35/23 Q1004 A2968 INFO J
     RWY 22=
VTUQ 080900Z NIL=
VTUU 080900Z 26006KT 9999 FEW025 BKN300 36/22 Q1004 A2966
     NOSIG=
VTUV 080900Z NIL=
VTUW 080900Z VRB03KT 9999 FEW020CB FEW024 SCT300 34/23 Q1005 A2969
     CB S RWY15=
WADD 080900Z 00000KT 9999 SCT017 29/25 Q1008 NOSIG=
WALL 080900Z 10004KT 9999 FEQ020 30/26 Q1007 NOSIG=
WARR 080900Z VRB02KT 9999 FEW020 29/23 Q1008 NSG=
YAMB 080900Z 18009KT 9999 SCT050 BKN075 17/10 Q1021=
YBHM 080900Z AUTO 15018KT //// // ////// 18/15 Q1017=
YCIN 080900Z AUTO 10006KT //// // ////// 24/19 Q1012=
YFRT 080900Z AUTO 05013KT //// // ////// 16/03 Q1014=
YMAV 080900Z AUTO 16004KT 9999NDV // OVC050 10/07 Q1028=
YMLT 080900Z AUTO 00000KT 9999NDV // BKN037 04/02 Q1030=
YPGV 080900Z 15010KT 9999 BKN022 BKN350 24/21 Q1013=
YPKG 080900Z AUTO 34007KT 9999NDV // SCT069 OVC090 19/04 Q1005=
YPKU 080900Z AUTO 13005KT 9999NDV // NCD 26/15 Q1013=
YWLM 080900Z 23007KT 9999 SCT020 BKN045 12/12 Q1025 RMK USE TAF
     FOR ARRIVALS AFTER 1000Z INTER 0900/1000 SHRA BKN010=
####018000113####
SAUS45 KCYS 080912
MTRECS
SAUS70 KECS 080906
METAR KECS 080859Z AUTO 08004KT 10SM CLR 13/09 A3030 RMK

####018000113####
SAUS45 KCYS 080912
MTRW43
SAUS70 KW43 080904
METAR KW43 080855Z AUTO 21004KT 10SM CLR 10/07 A3029 RMK

####018001517####
SAUS43 KWBC 080900 RRB
METAR
K1H2 080905Z AUTO 00000KT 7SM CLR 24/23 A3004=
KAAA 080903Z AUTO 00000KT 2 1/2SM BR SCT043 SCT055 SCT070 23/22
     A3003=
KC09 080904Z AUTO 00000KT 2 1/2SM BR CLR 21/21 A3002=
KC75 080903Z AUTO 00000KT 5SM BR SCT014 SCT047 BKN065 24/24
     A3001=
KDKB 080901Z AUTO 16003KT 5SM BR OVC013 21/21 A3002=
KDNV 080905Z AUTO 00000KT 7SM SCT065 BKN100 23/21 A3001=
KENL 080904Z AUTO 18003KT 10SM CLR 24/16 A3004=
KFEP 080905Z AUTO 31004KT 5SM BR BKN003 BKN075 OVC085 22/20
     A3001=
KFOA 080905Z AUTO 00000KT 7SM CLR 25/25 A3004=
KFWC 080905Z AUTO 00000KT 7SM CLR 23/22 A3004=
KGBG 080905Z AUTO 27003KT 5SM BR OVC002 23/22 A3001=
KHSB 080905Z AUTO 00000KT 5SM BR CLR 22/21 A3004=
KIJX 080905Z AUTO 00000KT 2SM +RA SCT001 SCT007 OVC026 24/23
     A3003=
KIKK 080905Z AUTO 36005KT 4SM -RA SCT055 BKN075 BKN100 26/23
     A3002=
KJOT 080906Z AUTO 00000KT 3SM BR 23/22 A3001=
KLOT 080901Z AUTO 00000KT 3SM BR BKN080 22/22 A3001=
KMQB 080905Z AUTO 23003KT 10SM OVC004 23/23 A3003=
KMWA 080905Z AUTO 00000KT 10SM CLR 25/24 A3005=
KOLY 080903Z AUTO 00000KT 5SM BR CLR 23/22 A3003=
KPNT 080905Z AUTO 00000KT 2 1/2SM BR SCT029 BKN036 OVC085 23/22
     A3002=
KPPQ 080905Z AUTO 00000KT 2 1/2SM RA SCT023 BKN033 OVC050 23/23
     A3004=
KPRG 080905Z AUTO 00000KT 4SM BR CLR 22/21 A3004=
KSAR 080905Z AUTO 18004KT 7SM OVC055 26/23 A3004=
KSLO 080900Z AUTO 20003KT 10SM CLR 24/22 A3004=
KTAZ 080905Z AUTO 00000KT 5SM BR CLR 23/23 A3003=
####018000212####
SAUS44 KWBC 080900 RRB
METAR
K11R 080904Z AUTO 06005KT 7SM CLR 25/24 A2994=
KBPG 080905Z AUTO 32005KT 10SM CLR 22/20 A3009=
KBYY 080906Z AUTO 10012G19KT 5SM -RA SCT018 BKN034 OVC065 27/26
     A2987=
####018000107####
SAUS52 KWBC 080900 RRB
METAR
KSEP 080905Z AUTO 00000KT 10SM SCT011 SCT015 BKN021 23/21
     A3002=
####018000086####
SAUS53 KWBC 080900 RRC
METAR
KLNC 080905Z AUTO 00000KT 10SM BKN012 24/24 A3000=
####018000434####
SAUS20 KNKA 080912
METAR K1F0 080907Z AUTO 00000KT 10SM SCT075 24/24 A3001 RMK AO2=
METAR K36U 080915Z AUTO 00000KT 10SM CLR 10/05 A3021 RMK AO2=
METAR KDUC 080912Z AUTO 07003KT 10SM CLR 22/22 A3004 RMK AO2=
METAR KMZZ 080855Z AUTO 00000KT 7SM CLR 20/19 A3007 RMK AO2=
SPECI KNSE 080903Z AUTO 00000KT 3/4SM BR CLR 23/21 A3002 RMK AO2 $=
METAR KONM 080907Z AUTO 16003KT 10SM SCT060 19/13 A3022 RMK AO2 
     T01910132=
####018000094####
SAIY41 LIIB 080900 RRB
METAR LIVE 080855Z 19005KT CAVOK 18/10 Q1025 RMK SKC VIS MIN 9999=
####018001609####
SATU20 LTAA 080850
METAR LTAB 080850Z 05011KT 030V090 9999 SCT040 28/15 Q1011 TEMPO FM1000 -TSRA RMK RWY06 04009KT 350V080=
METAR LTAD 080850Z 06010KT 020V120 9999 FEW040 SCT100 29/16 Q1011 NOSIG RMK RWY29 06008KT 340V120=
METAR LTAE 080850Z 01006KT 9999 FEW040 29/16 Q1011 NOSIG RMK RWY21 03009KT=
METAR LTAG 080850Z 20009KT 9999 BKN035 29/20 Q1008 NOSIG=
METAR LTAH 080850Z VRB03KT 9999 SCT040 27/11 Q1012  RMK RWY13 VRB03KT=
METAR LTAN 080850Z 03006KT 9999 FEW040 29/14 Q1012 NOSIG RMK RWY19 34004KT=
METAR LTAP 080850Z 01014KT 9999 SCT040 BKN100 29/17 Q1011 NOSIG RMK RWY23 02014KT=
METAR LTAT 080850Z 04006KT 9999 FEW040 34/08 Q1009 NOSIG RMK RWY03 07006KT=
METAR LTAU 080850Z 10003KT 050V160 9999 FEW040 29/14 Q1012 NOSIG RMK RWY07 VRB04KT=
METAR LTBF 080850Z 33015KT 300V360 9999 SCT035 25/17 Q1011 NOSIG RMK RWY18 34013G24KT 290V010=
METAR LTBG 080850Z 36017G27KT 9999 SCT034 BKN100 23/15 Q1012 NOSIG RMK RWY18 36018G28KT=
METAR LTBI 080850Z VRB02KT 9999 SCT035 SCT100 26/11 Q1012 NOSIG RMK RWY09 07004KT 020V120=
METAR LTBL 080850Z 31013KT 290V350 CAVOK 30/12 Q1010 NOSIG RMK RWY17 32012KT=
METAR LTBQ 080850Z 06006KT 020V100 9999 SCT035 27/19 Q1011 TEMPO 33012KT RMK RWY09 07005KT 020V100=
METAR LTBR 080850Z 36009KT 9999 FEW035 SCT100 27/15 Q1011 NOSIG RMK RWY07 31009KT=
METAR LTBU 080850Z 34013KT 9999 SCT030 BKN100 21/10 Q1014  RMK RWY23 33012KT=
METAR LTCC 080850Z VRB06KT CAVOK 39/M01 Q1007 NOSIG RMK RWY16 VRB06KT=
METAR LTCE 080850Z 07009KT 040V110 9999 SCT025 28/13 Q1018 NOSIG RMK RWY08R 05007KT 010V080 RWY26R 06008KT 030V110 RWY08L 08007KT 020V140=
####018000082####
SACN85 CWAO 080900 RRA
WWE SA 0900 AUTO8 M M M 210/16/M/2503/M/ 3008 7MMM=

####018000298####
SACN93 CWAO 080900 RRA
WNK SA 0900 AUTO8 M M M M/14/12/2805/M/ M 42MM=
WOJ SA 0900 AUTO8 M M M 152/14/11/0204/M/ 1008 24MM=
WPD SA 0900 AUTO8 M M M 133/18/18/2002/M/ 5001 99MM=
WPE SA 0900 AUTO8 M M M 194/13/12/1803/M/ 3003 63MM=
WPL SA 0900 AUTO8 M M M 125/16/13/2505/M/ 6009 78MM=

####018000083####
SACN89 CWAO 080800 RRH
WBY SA 0800 AUTO8 M M M 159/10/10/0710/M/ 3002 11MM=

####018000097####
SACN44 CWAO 080300 RRA
METAR CYUX 080300Z AUTO 19004KT 9SM OVC075 07/05 A2988 RMK SLP120=

####018000083####
SACN59 CWAO 080900 RRA
WLB SA 0900 AUTO8 M M M 176/15/12/2506/M/ 8003 86MM=

####018000097####
SACN44 CWAO 080700 RRA
METAR CYUX 080700Z AUTO 00000KT 9SM OVC079 08/06 A2985 RMK SLP108=

####018000109####
SACN41 CWAO 080900 RRA
METAR CYYE 080900Z 00000KT 15SM FEW180 FEW210 14/06 A3003 RMK AC1CI0
SLP172=

####018000097####
SACN48 CWAO 080900 RRA
METAR CYMT 080900Z 26002KT 15SM FEW070 17/17 A3000 RMK AC2 SLP159=

####018000097####
SACN47 CWAO 080900 RRA
METAR CYRJ 080900Z 25006KT 12SM BKN045 22/19 A2998 RMK SC6 SLP150=

####018000303####
SACN78 CWAO 080900 RRA
TAG SA 0900 AUTO8 M M M 160/15/13/2403/M/ 8006 52MM=
TBO SA 0900 AUTO8 M M M 156/21/20/1802/M/ 5002 90MM=
WLS SA 0900 AUTO8 M M M 172/22/19/1902/M/ 7004 04MM=
XBI SA 0900 AUTO8 M M M 166/20/18/2901/M/ 5004 63MM=
XRG SA 0900 AUTO8 M M M 171/24/21/1604/M/ 6007 69MM=

####018000569####
SACN94 CWAO 080900 RRA
WQF SA 0900 AUTO8 M M M M/12/08/2002/M/ M 53MM=
WQH SA 0900 AUTO8 M M M M/23/22/2001/M/ M 75MM=
WQP SA 0900 AUTO8 M M M 162/22/21/2306/M/ 5002 18MM=
WQY SA 0900 AUTO8 M M M 106/09/09/3610/M/0002 2003 29MM=
WRA SA 0900 AUTO8 M 3.0 M 241/08/08/0605/M/ 3013 99MM=
WRJ SA 0900 AUTO8 M M M 195/12/12/2002/M/ 6001 30MM=
WRK SA 0900 AUTO8 M M M 173/18/18/0000/M/ 5003 40MM=
WSR SA 0900 AUTO8 M M M 181/12/11/2306/M/ 8004 58MM=
WST SA 0900 AUTO8 M M M M/15/14/3503/M/ M 88MM=
WSU SA 0900 AUTO8 M M M 155/13/12/2403/M/ 6001 16MM=

####018000097####
SACN44 CWAO 080900 RRA
METAR CYUX 080900Z AUTO 01003KT 9SM OVC081 08/07 A2984 RMK SLP104=

####018000097####
SACN44 CWAO 080500 RRA
METAR CYUX 080500Z AUTO 21002KT 9SM OVC077 08/06 A2987 RMK SLP113=

####018000250####
SACN90 CWAO 080900 RRA
WEA SA 0900 AUTO8 M M M 143/14/13/2001/M/ 0000 44MM=
WFP SA 0900 AUTO8 M M M 117/07/06/0902/M/M 8018 87MM=
WGD SA 0900 AUTO8 M M M 157/24/20/1505/M/ 7006 07MM=
WGN SA 0900 AUTO8 M M M 153/15/13/2404/M/M 6001 16MM=

####018000097####
SACN44 CWAO 080800 RRA
METAR CYUX 080800Z AUTO 36002KT 9SM OVC079 08/06 A2984 RMK SLP104=

####018000124####
SACN31 CWAO 080900 RRA
METAR CYUL 080900Z 25004KT 12SM FEW080 25/21 A2999 RMK AC2 TCU ASOCTD
E VIA YQB FIC SLP155=

####018000737####
SACN89 CWAO 080900 RRA
WAG SA 0900 AUTO8 M M M 203/09/09/1602/M/M 5003 18MM=
WAQ SA 0900 AUTO8 M M M M/10/09/2903/M/ M 09MM=
WAV SA 0900 AUTO8 M M M 223/07/06/0000/M/ 7004 05MM=
WBL SA 0900 AUTO8 M M M 153/15/10/2912/M/M 0001 94MM=
WBM SA 0900 AUTO8 M M M 168/15/09/0901/M/ 8004 25MM=
WBO SA 0900 AUTO8 M M M 216/10/10/1802/M/ 6001 88MM=
WBY SA 0900 AUTO8 M M M 161/11/11/0711/M/ 3006 55MM=
WCH SA 0900 AUTO8 M M M 158/12/11/0000/M/ 7009 92MM=
WDJ SA 0900 AUTO8 M M M 195/12/10/0106/M/ 3003 47MM=
WDQ SA 0900 AUTO8 M M M 154/20/19/2001/M/M 2001 86MM=
WDU SA 0900 AUTO8 M M M M/13/08/1907/M/M M 73MM=
WDW SA 0900 AUTO8 M M M 189/07/07/MMMM/M/ 8007 35MM=
WDZ SA 0900 AUTO8 M M M 206/11/09/1502/M/ 0000 04MM=

####018000078####
SACN95 CWAO 080800 RRG
WUK SA 0800 AUTO8 M M M M/17/17/0000/M/ M 06MM=

####018000097####
SACN44 CWAO 080400 RRA
METAR CYUX 080400Z AUTO 20004KT 9SM OVC075 08/05 A2987 RMK SLP116=

####018000090####
SACN42 CWAO 080900 RRA
METAR CYXC 080900Z 25002KT 25SM SKC 14/06 A3018 RMK SLP206=

####018000083####
SACN82 CWAO 080900 RRA
MFM SA 0900 AUTO8 M M M 169/18/17/0000/M/ 3001 69MM=

####018000407####
SACN92 CWAO 080900 RRA
WJI SA 0900 AUTO8 M M M 203/12/11/2803/M/ 1003 77MM=
WJL SA 0900 AUTO8 M M M 158/16/12/0507/M/ 1014 24MM=
WJX SA 0900 AUTO8 M M M 213/11/10/2404/M/ 2004 11MM=
WKA SA 0900 AUTO8 M M M M/M/M/3004/M/M M MMMM=
WLV SA 0900 AUTO8 M M M 185/08/06/2202/M/ 7003 43MM=
WMJ SA 0900 AUTO8 M M M 161/18/18/3101/M/ 5003 33MM=
WMQ SA 0900 AUTO8 M M M 213/11/09/2105/M/ 5001 87MM=

####018000596####
SACN88 CWAO 080900 RRA
ABR SA 0900 AUTO7 M M M 209/17/17/1603/M/ 3011 39MM=
ABT SA 0900 AUTO8 M M M M/20/18/2210+15/M/ M 26MM=
AFY SA 0900 AUTO7 M M M M/15/15/MMMM/M/ M 26MM=
AHK SA 0900 AUTO7 M M M 198/16/16/2204/M/M 3014 19MM=
AOH SA 0900 AUTO8 M M M 191/18/17/2702/M/ 0002 02MM=
AOS SA 0900 AUTO7 M M M M/15/15/2009/M/M M 22MM=
APR SA 0900 AUTO8 M M M 195/16/15/1501/M/ 1006 82MM=
AWR SA 0900 AUTO8 M M M 181/21/17/1115+22/M/ PK WND 1122 0858Z 8008
08MM=
ERM SA 0900 AUTO8 M M M 151/21/20/0000/M/0003 5004 80MM=
WHO SA 0900 AUTO8 M M M 119/09/08/2210/M/M 8030 36MM=

####018000119####
SACN49 CWAO 080900 RRA
METAR CYYG 080900Z 22008KT 15SM FEW012 FEW170 BKN240 19/17 A3008 RMK
SF1AC2CI1 SLP185=

####018000349####
SACN91 CWAO 080900 RRA
WGX SA 0900 AUTO8 M M M 087/11/10/2405/M/ 6005 36MM=
WGY SA 0900 AUTO8 M M M 215/11/10/2708/M/ 3003 30MM=
WHQ SA 0900 AUTO7 M M M M/21/20/0904/M/M M 05MM=
WIW SA 0900 AUTO8 M M M 197/10/09/2806/M/ 5001 32MM=
WIZ SA 0900 AUTO7 M M M M/24/21/1902/M/ M 54MM=
WJH SA 0900 AUTO8 M M M 134/11/07/2703/M/ 6003 72MM=

####018000097####
SACN44 CWAO 080600 RRA
METAR CYUX 080600Z AUTO 00000KT 9SM OVC077 08/06 A2985 RMK SLP109=

####018000188####
SACN98 CWAO 080900 RRA
XPC SA 0900 AUTO8 M M M 146/21/21/1301/M/ 6007 28MM=
ZKD SA 0900 AUTO8 M M M M/12/09/2805/M/ M 81MM=
ZMJ SA 0900 AUTO8 M M M 206/12/10/3503/M/ 3006 83MM=

####018000590####
SACN96 CWAO 080900 RRA
WXL SA 0900 AUTO8 M M M M/11/09/1503/M/ M 20MM=
WXS SA 0900 AUTO8 M M M 152/18/17/1802/M/ 3004 62MM=
WYH SA 0900 AUTO8 M M M 147/12/12/0000/M/M 6003 17MM=
WYY SA 0900 AUTO8 M M M 171/15/13/0602/M/0018 PCPN 0.2MM PAST HR
1015 30MM=
WZA SA 0900 AUTO8 M M M 150/21/14/0602/M/ 2012 33MM=
WZL SA 0900 AUTO8 M M M 181/24/07/3009/M/ 8001 67MM=
XFV SA 0900 AUTO8 M M M M/15/14/0502/M/ M 52MM=
XPT SA 0900 AUTO8 M M M M/26/22/MMMM/M/M M 77MM=
ZPK SA 0900 AUTO8 M M M 116/09/08/1603/M/ 6006 96MM=
ZWN SA 0900 AUTO8 M M M 203/13/12/2306/M/ 8001 67MM=

####018000128####
SACN94 CWAO 080800 RRH
WQH SA 0800 AUTO8 M M M M/22/21/1701/M/ M 43MM=
WST SA 0800 AUTO8 M M M M/16/16/0603/M/ M 36MM=

####018000133####
SACN70 CWAO 080900 RRA
WOO SA 0900 AUTO8 M M M M/11/08/2807/M/ M 42MM=
XWG SA 0900 AUTO8 M M M 140/14/12/2706/M/ 5000 52MM=

####018000873####
SACN95 CWAO 080900 RRA
WTG SA 0900 AUTO8 M M M 163/12/M/0413/M/ PK WND 0419 0803Z 1009
3MMM=
WTS SA 0900 AUTO8 M M M 185/09/09/1902/M/ 5000 25MM=
WTT SA 0900 AUTO8 M M M M/24/24/2302/M/M M 05MM=
WUK SA 0900 AUTO8 M M M M/17/16/0000/M/ M 72MM=
WUT SA 0900 AUTO8 M M M 178/08/08/3004/M/M 3001 36MM=
WVC SA 0900 AUTO8 M M M 210/12/10/2408/M/ 3002 30MM=
WVI SA 0900 AUTO8 M M M 183/13/11/2405/M/ 8003 92MM=
WVN SA 0900 AUTO8 M M M 210/11/09/0000/M/ 0001 42MM=
WVP SA 0900 AUTO8 M M M 221/09/07/3301/M/ 1002 47MM=
WVQ SA 0900 AUTO8 M M M M/24/22/2704/M/ M 06MM=
WVU SA 0900 AUTO8 M M M 200/15/15/1712/M/ PK WND 1717 0817Z 3003
96MM=
WWC SA 0900 AUTO8 M M M 120/10/08/MM04/M/ 7004 08MM=
WWF SA 0900 AUTO8 M M M 191/12/11/2702/M/ 0001 27MM=
WXB SA 0900 AUTO8 M M M M/06/05/3003/M/ M 48MM=
WXG SA 0900 AUTO8 M M M 195/09/M/2905/M/ 0000 0MMM=

####018000083####
SACN86 CWAO 080900 RRA
WPO SA 0900 AUTO8 M M M 181/13/11/2805/M/ 5000 31MM=

####018000453####
SACN97 CWAO 080900 RRA
XBO SA 0900 AUTO8 M M M M/18/17/0609/M/ M 09MM=
XCH SA 0900 AUTO7 M M M M/19/18/MMMM/M/ M 75MM=
XET SA 0900 AUTO8 M M M 165/20/19/3003/M/ 6005 80MM=
XHA SA 0900 AUTO8 M M M 151/26/22/2103/M/ 6006 78MM=
XHF SA 0900 AUTO8 M M M M/19/18/MMMM/M/ M 72MM=
XHI SA 0900 AUTO8 M M M 121/04/01/3202/M/ 8003 71MM=
XTL SA 0900 AUTO8 M M M 214/08/06/3601/M/ 1009 18MM=
XWN SA 0900 AUTO8 M M M 145/18/13/2704/M/ 7001 66MM=

####018000091####
SAUS72 KWBC 080900 RRD
METAR
KLIT 080853Z COR 00000KT 7SM FEW007 BKN150 24/23 A3005=
####018000184####
SAUS73 KWBC 080900 RRD
METAR
KALN 080903Z AUTO 00000KT 10SM SCT033 SCT043 BKN070 25/24
     A3002=
KIKK 080905Z AUTO 36005KT 4SM -RA SCT055 BKN075 BKN100 26/23
     A3002=
####018000087####
SAFR32 LFPW 080900 RRB
METAR LFBT 080900Z 04004KT 340V090 CAVOK 30/17 Q1018 NOSIG=
####018000118####
SAIY41 LIIB 080900 CCA
METAR LIMT 080855Z /////KT 8000 BKN012 14/12 Q1024 RMK BKN MON LIB
VAL NIL VIS MIN 8000=
####018000811####
SAUZ31 UTTW 080900
METAR UTFN 080900Z 19003MPS 9999 SCT050CB 35/13 Q1010 R28/CLRD70
NOSIG=
METAR UTNN 080900Z 21005MPS 180V240 CAVOK 42/10 Q1007 R15/CLRD70
NOSIG=
METAR UTNU 080900Z 22002MPS 150V250 CAVOK 42/11 Q1008 R13/CLRD60
NOSIG=
METAR UTSA 080900Z 02007MPS 9999 FEW190 40/04 Q1008 R88/CLRD70 NOSIG=
METAR UTSB 080900Z 36007MPS CAVOK 40/05 Q1008 R01/CLRD70 TEMPO
01008MPS=
METAR UTSH 080900Z 24002MPS 9999 NSC 39/11 Q1014 R99/CLRD070=
METAR UTSK 080900Z 20002MPS CAVOK 40/12 Q1007 R16/CLRD70=
METAR UTSS 080900Z 07004MPS 020V130 9999 NSC 35/11 Q1010 R88/CLRD70
NOSIG=
METAR UTST 080900Z VRB01MPS CAVOK 41/05 Q1006 R88/CLRD70 NOSIG=
METAR UTTT 080900Z 29003MPS 230V360 CAVOK 38/08 Q1010 R08R/CLRD70
NOSIG=
METAR UTTP 080900Z 320031MPS CAVOK 37/10 Q1011 R88/CLRD70 NOSIG=
####018000086####
SAGR31 LGAT 080850 RRA
METAR LGLM 080850Z 05009KT 9999 FEW008 BKN020 21/17 Q1013=
####018000303####
SAPS31 NZKL 080900
METAR NCRG 080900Z 07003KT 9999 SCT014 BKN290 25/24 Q1018=
METAR NFTF 080900Z 19004KT 9999 FEW015 20/19 Q1015=
METAR NGFU 080900Z 08005KT 50KM FEW020 29/25 Q1010=
METAR NIUE 080900Z AUTO 14005KT //// ////// 25/23 Q1014=
METAR NSFA 080900Z 08006KT 45KM FEW020 26/24 Q1012=
####018000610####
SAXX70 KAWN 080900 RRJ
METAR KQFU 080850Z AUTO 09002KT 7SM OVC005 25/18 A2988 RMK A02=
METAR KQEI 080910Z AUTO 14003KT 7SM FEW035 25/19 A2992 RMK A02=
METAR KQEN 080910Z AUTO 29005KT 7SM CLR 21/16 A3039 RMK A02=
METAR KQEP 080910Z AUTO 04002KT 7SM CLR 28/18 A2984 RMK A02=
METAR KQER 080910Z AUTO 10001KT 7SM CLR 24/18 A2986 RMK A02=
METAR KQES 080910Z AUTO 06001KT 7SM -SHRA BKN070 22/19 A2983 RMK A02=
METAR KQEY 080910Z AUTO 24002KT 7SM CLR 28/15 A2958 RMK A02=
METAR KQFV 080910Z AUTO 05002KT 7SM OVC030 24/18 A3000 RMK A02=
METAR KQEV 080920Z AUTO 23002KT 7SM CLR 28/18 A2976 RMK A02=
####018000845####
SAXN17 KAWN 080900 RRE
METAR AYPY 080900Z 18015KT 9999 SCT040 BKN140 26/23 Q1009 RMKS/ HZ
      IN AREA=
METAR RCKH 080900Z 27009KT 210V310 9999 FEW013 SCT020 BKN200 32/26
      Q1008 NOSIG=
METAR RCTP 080900Z 24017KT 9999 FEW025 BKN100 BKN200 30/25 Q1006 NOSIG=
METAR RJAA 080900Z 20006KT 160V230 9999 FEW025 BKN/// 27/22 Q1009 NOSIG
      RMK 1CU025 A2981=
METAR RJCC 080900Z 15006KT 2200 -DZ BR BKN002 18/17 Q1009 RMK 7ST002
      A2982=
METAR RJFF 080900Z 32009KT 5000 BR NSC 26/21 Q1008 RMK 2AC130 A2977=
METAR RJOO 080900Z 22007KT 170V260 9999 FEW030 BKN/// 29/19 Q1007 RMK
      1CU030 A2975=
METAR ROAH 080900Z 20011KT 9999 FEW010 SCT080 BKN/// 29/27 Q1009 RMK
      1CU010 4AC080 A2980=
METAR TGPY 080900Z 08007KT 9999 FEW021 28/25 Q1012=
METAR YBBN 080900Z 19009KT CAVOK 18/10 Q1020 RMK 7SC080 NOSIG=
####018000145####
SACN99 CQCM 080900
METAR CQCM 080900Z  12006KT 8SM  FEW250 45/17 A2954 RMK
WND/ALTM ESTD CI1 T04450168 LAST OBS/NEXT OBS 081300 UTC=


####018000260####
SPNA35 KAWN 080912 RRA
SPECI KBOS 080905Z 16004KT 10SM SCT019 22/19 A3007 RMK AO2=
SPECI KNHK 080907Z AUTO 11004KT 5SM BR FEW009 26/24 A2998 RMK AO2=
SPECI TXKF 080906Z 17017KT 8000 -SHRA BKN013TCU BKN042 BKN170 BKN300
      25/23 Q1018 RMK TCU W-N=
####018000119####
SPCN46 CWAO 080912
SPECI CYQA 080912Z AUTO 00000KT 2 1/4SM BR CLR 19/19 A3003 RMK SLP170
 DENSITY ALT 1400FT=

####018000383####
SAUS20 KNKA 080912
SPECI KARB 080911Z AUTO 00000KT 2SM BR CLR 20/19 A3004 RMK AO2=
SPECI KCNK 080911Z AUTO 01007KT 10SM SCT016 OVC025 20/19 A3014 RMK 
    AO2=
SPECI KEMP 080911Z AUTO 00000KT 5SM BR SCT005 OVC085 22/20 A3007 RMK 
    AO2=
SPECI KGNV 080910Z AUTO 00000KT 8SM FEW001 20/19 A3000 RMK AO2=
SPECI KOVS 080911Z AUTO 00000KT 8SM OVC004 22/21 A3001 RMK AO2=
####018000341####
SAUS99 KWBC 080913
METAR
K1F0 080907Z AUTO 00000KT 10SM SCT075 24/24 A3001 RMK AO2=
K36U 080915Z AUTO 00000KT 10SM CLR 10/05 A3021 RMK AO2=
KDUC 080912Z AUTO 07003KT 10SM CLR 22/22 A3004 RMK AO2=
KMZZ 080855Z AUTO 00000KT 7SM CLR 20/19 A3007 RMK AO2=
KONM 080907Z AUTO 16003KT 10SM SCT060 19/13 A3022 RMK AO2
     T01910132=
####018000425####
SPUS99 KWBC 080913
SPECI
KNSE 080903Z AUTO 00000KT 3/4SM BR CLR 23/21 A3002 RMK AO2 $=
KARB 080911Z AUTO 00000KT 2SM BR CLR 20/19 A3004 RMK AO2=
KCNK 080911Z AUTO 01007KT 10SM SCT016 OVC025 20/19 A3014 RMK
     AO2=
KEMP 080911Z AUTO 00000KT 5SM BR SCT005 OVC085 22/20 A3007 RMK
     AO2=
KGNV 080910Z AUTO 00000KT 8SM FEW001 20/19 A3000 RMK AO2=
KOVS 080911Z AUTO 00000KT 8SM OVC004 22/21 A3001 RMK AO2=
####018000434####
SAID31 WIII 080900
METAR WIMM 080900Z 02007KT 7000 SCT017 32/24 Q1007 NOSIG= 
METAR WADD 080900Z 00000KT 9999 SCT017 29/25 Q1008 NOSIG= 
METAR WAAA 080900Z 12005KT 9999 FEW019CB SCT020 28/26 Q1008= 
METAR WIDD 080900Z 22005KT 9999 FEW017 29/24 Q1008= 
METAR WARR 080900Z VRB02KT 9999 FEW020 29/23 Q1008 NSG= 
METAR WIII 080900Z 00000KT 500 RA FEW018CB SCT020 25/22Q1009 RMK CB T
O S NOSIG= 
METAR WIHH NIL=
METAR WABB NIL=
####018000483####
SAAL32 DAAA 080900
METAR DAAS 080900Z 20003KT CAVOK 29/12 Q1025=
METAR DABS 080900Z 34010KT CAVOK 29/10 Q1023=
METAR DAOB 080900Z 24003KT CAVOK 33/10 Q1023=
METAR DAOF 080900Z 15004KT 3500 HZ NSC 36/07 Q1013=
METAR DAOR 080900Z 18004KT CAVOK 35/04 Q1023=
METAR DAUA 080900Z 02030KT 0700 BLSA NSC 39/07 Q1014=
METAR DAUB 080900Z NIL=
METAR DAUG 080900Z 00000KT CAVOK 34/12 Q1021=
METAR DAUU 080900Z 11012KT CAVOK 35/18 Q1018=
METAR DAUZ 080900Z 14014KT CAVOK 35/07 Q1017=
####018001687####
SASD20 OEJD 080900
METAR OEAB 080900Z 03016KT 8000 FEW020 SCT200 32/M01 Q1021 NOSIG=
METAR OEAH 080900Z 03012KT CAVOK 44/08 Q1001 NOSIG=
METAR OEBA 080900Z 10007KT 8000 SKC 34/04 Q1017 NOSIG=
METAR OEBH 080900Z 03012KT CAVOK 39/04 Q1012 NOSIG=
METAR OEDF 080900Z 36014KT 8000 NSC 45/03 Q1000 NOSIG=
METAR OEDM 080900Z 05010KT CAVOK 41/05 Q1010=
METAR OEDR 080900Z 01012KT 8000 SKC 44/09 Q0999 NOSIG=
METAR OEGN 080900Z 21008KT CAVOK 37/28 Q1002 NOSIG=
METAR OEGS 080900Z 09010KT CAVOK 44/08 Q1009=
METAR OEGT 080900Z 31005KT CAVOK 34/M03 Q1011=
METAR OEHL 080900Z 09008KT CAVOK 42/02 Q1013=
METAR OEJN 080900Z 31012KT CAVOK 37/25 Q1001 NOSIG=
METAR OEKB 080900Z 16010KT CAVOK 44/23=
METAR OEKJ 080900Z 02020KT 7000 SKC 44/M01 Q1007=
METAR OEKK 080900Z 05010KT CAVOK 44/12 Q1006=
METAR OEKM 080900Z 09022KT 8000 SKC 31/05 Q1020 NOSIG=
METAR OEMA 080900Z 10008KT CAVOK 45/00 Q1006 NOSIG=
METAR OEMH 080900Z NIL=
METAR OEMK 080900Z 30002KT CAVOK 43/23 Q1001=
METAR OENG 080900Z 06008KT 5000 DU SKC 39/00 Q1012 NOSIG=
METAR OEPA 080900Z NIL=
METAR OERF 080900Z 11003KT CAVOK 42/11 Q1007=
METAR OERK 080900Z 02017KT 5000 BLDU SKC 42/M01 Q1008 NOSIG=
METAR OERR 080900Z 14011KT CAVOK 43/11 Q1007=
METAR OERY 080900Z 04018KT 5000 SA NSC 43/01 Q1008 NOSIG=
METAR OESH 080900Z 03014KT 4000 BLDU SKC 42/14 Q1003 NOSIG=
METAR OESK 080900Z 27006KT CAVOK 41/00 Q1009=
METAR OETB 080900Z 17003KT CAVOK 36/06 Q1011 NOSIG=
METAR OETF 080900Z 11010KT CAVOK 37/03 Q1016 NOSIG=
METAR OETR 080900Z 00000KT CAVOK 36/04 Q1011=
METAR OEWD 080900Z 06018KT 6000 SKC 43/11 Q1005=
METAR OEWJ 080900Z 30023KT CAVOK 34/26 Q1004=
METAR OEYN 080900Z 26006KT CAVOK 41/11 Q1000 NOSIG=
####018000072####
SAAL33 DAAA 080900 RRA
METAR DAAD 080900Z 00000KT CAVOK 32/14 Q1022=
####018000116####
SAIY41 LIIB 080900 CCA
METAR LIMT 080855Z /////KT 8000 BKN012 14/12 Q1024 RMK BKN MON LIB
VAL NIL VIS MIN 8000=
####018000558####
SAAL33 DAAA 080900
METAR DAAD 080900Z NIL=
METAR DAAE 080900Z NIL=
METAR DAAJ 080900Z 09012KT CAVOK 33/07 Q1021=
METAR DAAP 080900Z 16016KT CAVOK 38/10 Q1016=
METAR DAAV 080900Z NIL=
METAR DABT 080900Z NIL=
METAR DAFH 080900Z 15012KT CAVOK 32/17 Q1023=
METAR DATG 080900Z NIL=
METAR DATM 080900Z 14013KT CAVOK 37/M01 Q1012=
METAR DAUE 080900Z 05012KT CAVOK 34/12 Q1020=
METAR DAUI 080900Z 06031KT 0300 BLSA VV/// 39/07 Q1013=
METAR DAUK 080900Z 14006KT CAVOK 32/18 Q1017=
METAR DAUO 080900Z 13008KT CAVOK 32/16 Q1018=
METAR DAUT 080900Z NIL=
####018000130####
SAGW20 GGOV 080900
METAR GGOV 080900Z 18005KT 140V220 9999 SCT015TCU FEW020CB SCT100    
               28/25 Q1013 TEMPO TS=
####018000085####
SAGR31 LGAT 080850 RRA
METAR LGLM 080850Z 05009KT 9999 FEW008 BKN020 21/17 Q1013=
####018000780####
SAAO32 GOOY 080900
METAR GABS 080900Z 23005KT CAVOK 28/23 Q1016 NOSIG=
METAR GGOV 080900Z 18005KT 140V220 9999 SCT015TCU FEW020CB SCT100
               28/25 Q1013 TEMPO TS=
METAR GOOY 080900Z 16006KT 140V200 9999 SCT013 29/24 Q1012 NOSIG=
METAR DIAP 080900Z VRB02KT 6000 SCT005 BKN012 BKN080 26/25 Q1015
TEMPO BKN012 BKN070=
METAR GQNN 080900Z 20009KT 6000 SCT010 28/23 Q1012 NOSIG=
METAR GQPP 080900Z 35010KT 8000 NSC 23/20 Q1012 NOSIG=
METAR GUCY 080900Z 09010KT 9999 SCT015 BKN116 27/24 Q1014=
METAR GVAC 080900Z 06008KT 9999 SCT014 BKN016 24/19 Q1013 NOSIG=
METAR GFLL 080900Z 09008KT 9999 SCT011 FEW028CB 24/23 Q1014 CB-NE=
METAR GBYD 080900Z VRB03KT 9999 SCT011 SCT120 28/25 Q1012=
METAR GLRB 080900Z 00000KT 9999 SCT014 FEW025CB BKN100 26/23 Q1015
 CB-SW=
####018000261####
SASG21 GOOY 080900
METAR GOTT 080900Z 18012KT6 9999 BKN013 29/26 Q1013=
METAR GOGG 080900Z 16006KT 9999 BKN016 SCT130 28/26 Q1014=
METAR GOGS 080900Z 20008KT 9999 BKN016 28/25 Q1013=
METAR GOSS 080900Z 22008KT 180V250 9999 FEW013 BKN230 29/26 QA1012=
####018000094####
SPCN49 CWAO 080911
SPECI CYSJ 080911Z 19006KT 1/4SM R23/2600FT/N FG VV001 15/ RMK FG8=

####018000079####
SPCN43 CWAO 080911
SPECI CYPY 080911Z AUTO 26003KT 4SM CLR 12/12 A2992=

####018000087####
SAGH20 DGAA 080900
METAR DGAA 080900Z 26010KT 9999 SCT015 BKN100 28/23 Q1015 NOSIG=
####018000074####
SASD32 OEJD 080900
METAR OETF 080900Z 11010KT CAVOK 37/03 Q1016 NOSIG=
####018000952####
SAAM20 FCBB 080900
METAR FCBB 080900Z 24005KT 200V300 6000  BKN014 25/19 Q1016 NOSIG=
METAR FCPP 080900Z 16006KT 7000 SCT013 BKN026 24/21 Q1015 NOSIG=
METAR FKKD 080900Z 12003KT 8000 TS BKN013 FEW016CB BKN120 27/25 Q1015
           BECMG NSW BKN016 FEW020CB BKN120=
METAR FKYS NIL=
METAR FKKR NIL=
METAR FKKN NIL=
METAR FKKL NIL=
METAR FEFT NIL=
METAR FEFG NIL=
METAR FEFF 080900Z VRB03KT 9999 SCT020 SCT300 27/24 Q1015 NOSIG=
METAR FOOL 080900Z 15006KT 120V190 8000 SCT010 OVC040 26/21 Q1016
NOSIG=
METAR FOON NIL=
METAR FOOG NIL=
METAR FGBT NIL=
METAR FGSL 080900Z VRB01KT 9999 SCT013 FEW020CB BKN130 27/26
           Q1015 NOSIG=
METAR FZRF NIL=
METAR FZOS NIL=
METAR FZAA 080900Z 24004KT 4000 BR FEW016 25/19 Q1014 BECMG 6000=
METAR FZIC NIL=
METAR FZFK NIL=
METAR FZQA NIL=
METAR FNHU NIL=
METAR FNLU 080900Z VRB03KT 8000 SCT018 BKN020 23/19 Q1015 NSG=
METAR FPST 080900Z 16006KT 9999 FEW025 BKN100 27/21 Q1015 NOSIG=
####018000087####
SAKN61 HKJK 080900
METAR HKJK 080900Z 17005KT 9999 BKN090 OVC100 17/14 Q1025 NOSIG=
####018000079####
SAID31 WIII 080900
METAR WABB 080900Z 00000KT 9999 SCT018 26/24 Q1008 NSG=
####018000084####
SPUS53 KWBC 080913
SPECI
KSLN 080910Z AUTO 32005KT 6SM BR BKN015 21/20 A3011=
####018000084####
SPUS73 KWBC 080913
SPECI
KSLN 080910Z AUTO 32005KT 6SM BR BKN015 21/20 A3011=
####018000725####
SAEU KAWN 080900 RRX
METAR LEVT 080900Z 22001KT 9999 FEW035 29/18 Q1018=
METAR LFBT 080900Z 04004KT 340V090 CAVOK 30/17 Q1018 NOSIG=
METAR LFOI 080905Z VRB02KT CAVOK 24/10 Q1019=
METAR LGBL 080850Z 33007KT 9999 FEW030 SCT080 27/12 Q1015 NOSIG BLU=
METAR LGLM 080850Z 05009KT 9999 FEW008 BKN020 21/17 Q1013=
METAR LIEB 080855Z 06008KT 9999 FEW020 28/25 Q1018 RMK FEW QUK 2 QUL
      0 VIS MAR 15 KM MON INVIS VIS MIN 8000W=
METAR LIMT 080855Z /////KT 8000 BKN012 14/12 Q1024 RMK BKN MON LIB
      VAL NIL VIS MIN 8000=
METAR LIVE 080855Z 19005KT CAVOK 18/10 Q1025 RMK SKC VIS MIN 9999=
METAR LOIH 080900Z 00000KT 35KM SKC 25/13 Q1021 RMK SKC=
METAR LOWZ 080900Z VRB02KT 40KM SKC 18/07 Q1024 RMK SKC=
####018000559####
SAMS34 WMKK 080900
METAR 080900Z
METAR WBGB 080900Z 24003KT 9999 TS FEW015CB SCT016 BKN150 27/25 Q1008=
METAR WBGR 080900Z 23002KT 9999 SCT014 FEW015CB BKN150 28/26 Q1007=
METAR WBGS 080900Z 24001KT 9999 FEW015CB SCT016 BKN150 26/24 Q1008=
METAR WBGY 080900Z 00000KT 9999 FEW015CB SCT023 BKN150 28/26 Q1007 RETS=
METAR WBKL 080900Z 29002KT 9999 TS FEW012 FEW015CB SCT130 BKN280 30/26
     Q1008=
METAR WBKS 080900Z 05003KT 9999 FEW016 SCT140 BKN300 30/25 Q1007=
METAR WBKT 080900Z 05004KT 9999 SCT016 BKN280 30/26 Q1007=
METAR WBKW NIL=
####018000264####
SASG21 GOOY 080900
METAR GOTT 080900Z 18012KT6 9999 BKN013 29/26 Q1013=
METAR GOGG 080900Z 16006KT 9999 BKN016 SCT130 28/26 Q1014=
METAR GOGS 080900Z 20008KT 9999 BKN016 28/25 Q1013=
METAR GOSS 080900Z 22008KT 180V250 9999 FEW013 BKN230 29/26 QA1012=

####018000092####
SPCN51 CWAO 080912
SPECI CWZZ 080912Z AUTO ///// 0SM OVC023 OVC037 OVC069 10/ A2980=

####018000763####
SACO20 SKBO 080900
METAR
SKAR 080900Z NIL=
SKBG 080900Z NIL=
SKBO 080900Z 00000KT 6000 HZ BKN012 12/11 A3028=
SKBQ 080900Z 15004KT 3000 BR SCT002 25/25 A2987=
SKCC 080900Z NIL=
SKCG 080900Z VRB02KT 9999 FEW012 BKN070 26/25 A2987=
SKCL 080900Z 00000KT 9999 FEW025 BKN090 20/19 A2999=
SKEJ 080900Z NIL=
SKIB 080900Z NIL=
SKIP 080900Z NIL=
SKLC 080900Z NIL=
SKLT 080900Z NIL=
SKMD 080900Z NIL=
SKMR 080900Z NIL=
SKMZ 080900Z NIL=
SKNV 080900Z NIL=
SKPC 080900Z NIL=
SKPE 080900Z NIL=
SKPS 080900Z NIL=
SKPV 080900Z NIL=
SKRG 080900Z 00000KT 6000 BKN006 BKN080 14/14 A3028=
SKRH 080900Z NIL=
SKSM 080900Z NIL=
SKSP 080900Z NIL=
SKUC 080900Z NIL=
SKUI 080900Z NIL=
SKVP 080900Z NIL=
SKVV 080900Z NIL=
NNNN
####018001557####
SPZZ40 KAWN 080913 RRB
SPECI CWZZ 080901Z AUTO ///// 1/8SM OVC023 OVC037 OVC069 10/ A2980=
SPECI CYPY 080911Z AUTO 26003KT 4SM CLR 12/12 A2992=
SPECI CYQA 080910Z AUTO 00000KT 2 1/2SM BR CLR 19/19 A3003 RMK SLP170
      DENSITY ALT 1400FT=
SPECI CYQA 080912Z AUTO 00000KT 2 1/4SM BR CLR 19/19 A3003 RMK SLP170
      DENSITY ALT 1400FT=
SPECI CYSJ 080911Z 19006KT 1/4SM R23/2600FT/N FG VV001 15/ RMK FG8=
SPECI CYUS 080904Z AUTO ///// 9SM CLR 10/ A2980=
SPECI KNHK 080907Z AUTO 11004KT 5SM BR FEW009 26/24 A2998 RMK AO2=
SPECI KNSE 080903Z AUTO 00000KT 3/4SM BR CLR 23/21 A3002 RMK AO2 $=
SPECI KNSE 080903Z AUTO 00000KT 3/4SM BR CLR 23/21 A3002 RMK AO2 $=
SPECI KPSM 080908Z 14007KT 3SM BR OVC006 22/21 A3006 RMK AO2A=
SPECI KRND 080909Z AUTO 04004KT 10SM BKN010 OVC016 25/23 A2994 RMK
      AO2 SLP127=
SPECI KRND 080911Z AUTO 04004KT 10SM BKN009 OVC015 25/23 A2994 RMK
      AO2 SLP127=
SPECI KSKF 080909Z 07007KT 10SM -RA OVC013 26/ A2992 RMK AO2A RAB0909
      CIG 011V016 SLP123 $=
SPECI KTIK 080910Z AUTO 33006KT 10SM BKN011 BKN023 OVC055 24/23 A3004
      RMK AO2 SLP159 $=
SPECI KVBG 080906Z AUTO 00000KT 10SM SCT006 12/11 A2993 RMK AO2 TSNO
      $=
SPECI MMMX 080906Z 00000KT 2SM -RA SCT008 BKN020 OVC070 15/14 A3018
      NOSIG RMK 8/47/=
PATC SP 0915 AWOS CLR BLO 120 10 47/44/0206/016=
SPECI PGUA 080908Z AUTO 09013KT 10SM SCT018 SCT032 27/ A2989 RMK AO2
      SLP102 VISNO RWY24L $=
SPECI TXKF 080906Z 17017KT 8000 -SHRA BKN013TCU BKN042 BKN170 BKN300
      25/23 Q1018 RMK TCU W-N=
####018000513####
SAUS20 KNKA 080913
METAR KPVJ 080907Z AUTO 00000KT 10SM SCT008 24/23 A3003 RMK AO2=
METAR KSRE 080910Z AUTO 00000KT 4SM BR 24/24 A3002 RMK AO2=
METAR KSVC 080910Z AUTO 07006KT 10SM FEW090 17/14 A3021 RMK AO2=
METAR KTEX 080911Z AUTO 00000KT 10SM CLR 13/03 A3045 RMK AO2=
METAR KTMK 080913Z AUTO 14004KT 10SM OVC006 13/12 A2996 RMK AO2=
SPECI KUIN 080912Z AUTO 00000KT 9SM BKN001 BKN034 23/22 A3003 RMK 
    AO2=
METAR KWWR 080909Z AUTO 04006KT 10SM SCT110 22/21 A3014 RMK AO2 
     T02220209=
####018002990####
SAUS20 KNKA 080913
METAR K4O4 080908Z AUTO 09004KT 7SM SCT001 BKN010 23/22 A3004 RMK 
     AO2=
METAR KADH 080910Z AUTO 22003KT 7SM SCT006 BKN025 BKN040 23/22 
     A3002 RMK AO2=
METAR KADM 080910Z AUTO 00000KT 10SM SCT029 BKN040 OVC047 23/23 
     A3001 RMK AO2=
SPECI KAFW 080913Z 00000KT 10SM FEW019 SCT026 26/23 A3000 RMK AO2=
METAR KAIK 080915Z AUTO 28004KT 10SM CLR 23/22 A3003 RMK AO2 PNO=
METAR KALM 080910Z AUTO 00000KT 10SM CLR 20/13 A3013 RMK AO2=
METAR KARW 080915Z AUTO 26005KT 10SM CLR 24/18 A2997 RMK AO2=
METAR KATS 080910Z AUTO 35008KT 8SM -RA SCT002 BKN039 OVC050 
     18/17 A3015 RMK AO2=
METAR KAXS 080910Z AUTO 04003KT 10SM -RA BKN033 OVC120 24/22 
     A3007 RMK AO2 T02350215=
METAR KAXX 080910Z AUTO 12003KT 10SM CLR 05/04 A3047 RMK AO2=
METAR KBDN 080915Z AUTO 00000KT 10SM CLR 15/02 A3010 RMK AO2 =
SPECI KBMI 080913Z AUTO 00000KT 10SM TS BKN021 23/22 A3004 RMK AO2 
    PWINO BKN V SCT TSB07 $=
METAR KBVS 080910Z AUTO 03009KT 10SM CLR 21/13 A2997 RMK A01 P000=
METAR KCHK 080911Z AUTO 00000KT 10SM SCT090 23/23 A3004 RMK AO2=
METAR KCLK 080913Z AUTO 04005KT 10SM CLR 22/20 A3007 RMK AO2=
METAR KCQB 080910Z AUTO 01005KT 3SM +RA 23/23 A3003 RMK AO2 TSNO=
METAR KCUH 080910Z AUTO 00000KT 10SM SCT018 BKN042 OVC070 24/23 
     A3003 RMK AO2=
SPECI KDAW 080912Z AUTO 00000KT 2SM BR OVC003 22/21 A3006 RMK AO2 $=
METAR KDUA 080917Z AUTO 15003KT 10SM SCT065 25/23 A3002 RMK AO2=
SPECI KEKQ 080911Z AUTO 00000KT 1 3/4SM BR CLR 19/18 A3010 RMK AO2 =
METAR KFDW 080915Z AUTO 27004KT 10SM CLR 25/17 A3000 RMK AO1=
METAR KFET 080910Z AUTO 34003KT 10SM CLR 18/17 A3014 RMK AO2=
METAR KGCD 080910Z AUTO 12011KT 10SM CLR 15/04 A3010 RMK AO2 
     T01500042=
METAR KGCM 080915Z AUTO 00000KT 23/23 A3005 RMK AO2 P0001 PWINO=
METAR KGLY 080915Z AUTO 00000KT 9SM FEW023 23/23 A3004 RMK AO2 =
METAR KGMJ 080914Z AUTO 00000KT 26/26 A3003 RMK AO2 P0001 PWINO=
METAR KIDP 080910Z AUTO 00000KT 10SM BKN055 21/20 A3003 RMK AO2=
METAR KIZA 080909Z AUTO 00000KT 10SM OVC009 13/11 A2991 RMK AO2=
METAR KLAM 080910Z AUTO 19006KT 10SM SCT120 14/09 A3037 RMK AO2=
METAR KLRU 080911Z AUTO 05008KT 10SM SCT120 19/15 A3016 RMK AO2=
METAR KMEZ 080915Z AUTO 00000KT 10SM BKN014 BKN020 OVC033 26/23 
     A3006 RMK AO2=
SPECI KOAK 080912Z 30008KT 10SM OVC009 15/11 A2994 RMK AO2 CIG 
    008V013=
METAR KOJA 080910Z AUTO 01003KT 10SM SCT032 BKN055 OVC070 22/21 
     A3008 RMK AO2=
METAR KOKM 080911Z AUTO 00000KT 10SM BKN005 OVC011 24/24 A3002 
     RMK AO1 LTG DSNT N=
METAR KONP 080910Z AUTO 20007KT 7SM OVC004 11/10 A2999 RMK AO1=
METAR KORS 080910Z AUTO 19004KT 10SM CLR 16/12 A2994 RMK AO2=
METAR KOUN 080912Z AUTO 00000KT 10SM OVC013 26/23 A3004 RMK AO2=
METAR KPLU 080910Z AUTO 00000KT 10SM FEW039 SCT070 BKN110 14/13 
     A2993 RMK AO2=
METAR KPSO 080915Z AUTO 00000KT 10SM CLR 11/05 A3038 RMK AO2=
METAR KPTS 080910Z AUTO 00000KT 10SM CLR 22/22 A3003 RMK AO2 
     T02200221=
####018000465####
SPUS99 KWBC 080914
SPECI
KUIN 080912Z AUTO 00000KT 9SM BKN001 BKN034 23/22 A3003 RMK
     AO2=
KAFW 080913Z 00000KT 10SM FEW019 SCT026 26/23 A3000 RMK AO2=
KBMI 080913Z AUTO 00000KT 10SM TS BKN021 23/22 A3004 RMK AO2 PWINO
     BKN V SCT TSB07 $=
KDAW 080912Z AUTO 00000KT 2SM BR OVC003 22/21 A3006 RMK AO2 $=
KEKQ 080911Z AUTO 00000KT 1 3/4SM BR CLR 19/18 A3010 RMK AO2=
KOAK 080912Z 30008KT 10SM OVC009 15/11 A2994 RMK AO2 CIG
     008V013=
####018000080####
SAAF18 LFPW 080900 RRB
METAR FIMR  080900Z 12018KT 9999 SCT020  26/17 Q1020=
####018000243####
SACN78 KWBC 080914
METAR CXBI 080900Z AUTO 29001KT 20/18 RMK AO1 SLP166 T01960183
55004=
METAR CXBI 080900Z AUTO 29001KT 20/18 RMK AO1 SLP166 T01960183
55004=
METAR CXBI 080900Z AUTO 29001KT 20/18 RMK AO1 SLP166 T01960183
55004=
####018002999####
SACN95 KWBC 080914
METAR CWTG 080900Z AUTO 04013KT 12/ RMK AO1 PK WND 04019/0803
SLP163 T0123 51009=
METAR CWTT 080900Z AUTO 23002KT 24/24 RMK AO1 T02400235=
METAR CWVI 080900Z AUTO 24005KT 13/11 RMK AO1 SLP183 T01290112
58003=
METAR CWVN 080900Z AUTO 00000KT 11/09 RMK AO1 SLP210 T01140092
50001=
METAR CWVP 080900Z AUTO 33001KT 09/07 RMK AO1 SLP221 T00940067
51002=
METAR CWVQ 080900Z AUTO 27004KT 24/22 RMK AO1 T02400216=
METAR CWVU 080900Z AUTO 17012KT 15/15 RMK AO1 PK WND 17017/0817
SLP200 T01490146 53003=
METAR CWWF 080900Z AUTO 27002KT 12/11 RMK AO1 SLP191 T01220107
50001=
METAR CWVN 080900Z AUTO 00000KT 11/09 RMK AO1 SLP210 T01140092
50001=
METAR CWVP 080900Z AUTO 33001KT 09/07 RMK AO1 SLP221 T00940067
51002=
METAR CWVQ 080900Z AUTO 27004KT 24/22 RMK AO1 T02400216=
METAR CWVU 080900Z AUTO 17012KT 15/15 RMK AO1 PK WND 17017/0817
SLP200 T01490146 53003=
METAR CWWF 080900Z AUTO 27002KT 12/11 RMK AO1 SLP191 T01220107
50001=
METAR CWVN 080900Z AUTO 00000KT 11/09 RMK AO1 SLP210 T01140092
50001=
METAR CWVP 080900Z AUTO 33001KT 09/07 RMK AO1 SLP221 T00940067
51002=
METAR CWVQ 080900Z AUTO 27004KT 24/22 RMK AO1 T02400216=
METAR CWVU 080900Z AUTO 17012KT 15/15 RMK AO1 PK WND 17017/0817
SLP200 T01490146 53003=
METAR CWWF 080900Z AUTO 27002KT 12/11 RMK AO1 SLP191 T01220107
50001=
METAR CWVN 080900Z AUTO 00000KT 11/09 RMK AO1 SLP210 T01140092
50001=
METAR CWVP 080900Z AUTO 33001KT 09/07 RMK AO1 SLP221 T00940067
51002=
METAR CWVQ 080900Z AUTO 27004KT 24/22 RMK AO1 T02400216=
METAR CWVU 080900Z AUTO 17012KT 15/15 RMK AO1 PK WND 17017/0817
SLP200 T01490146 53003=
METAR CWWF 080900Z AUTO 27002KT 12/11 RMK AO1 SLP191 T01220107
50001=
METAR CWVN 080900Z AUTO 00000KT 11/09 RMK AO1 SLP210 T01140092
50001=
METAR CWVP 080900Z AUTO 33001KT 09/07 RMK AO1 SLP221 T00940067
51002=
METAR CWVQ 080900Z AUTO 27004KT 24/22 RMK AO1 T02400216=
METAR CWVU 080900Z AUTO 17012KT 15/15 RMK AO1 PK WND 17017/0817
SLP200 T01490146 53003=
METAR CWWF 080900Z AUTO 27002KT 12/11 RMK AO1 SLP191 T01220107
50001=
METAR CWVN 080900Z AUTO 00000KT 11/09 RMK AO1 SLP210 T01140092
50001=
METAR CWVP 080900Z AUTO 33001KT 09/07 RMK AO1 SLP221 T00940067
51002=
METAR CWVQ 080900Z AUTO 27004KT 24/22 RMK AO1 T02400216=
METAR CWVU 080900Z AUTO 17012KT 15/15 RMK AO1 PK WND 17017/0817
SLP200 T01490146 53003=
METAR CWWF 080900Z AUTO 27002KT 12/11 RMK AO1 SLP191 T01220107
50001=
METAR CWVN 080900Z AUTO 00000KT 11/09 RMK AO1 SLP210 T01140092
50001=
METAR CWVP 080900Z AUTO 33001KT 09/07 RMK AO1 SLP221 T00940067
51002=
METAR CWVQ 080900Z AUTO 27004KT 24/22 RMK AO1 T02400216=
METAR CWVU 080900Z AUTO 17012KT 15/15 RMK AO1 PK WND 17017/0817
SLP200 T01490146 53003=
METAR CWWF 080900Z AUTO 27002KT 12/11 RMK AO1 SLP191 T01220107
50001=
METAR CWWF 080900Z AUTO 27002KT 12/11 RMK AO1 SLP191 T01220107
50001=
METAR CWWF 080900Z AUTO 27002KT 12/11 RMK AO1 SLP191 T01220107
50001=
####018000095####
SACN87 KWBC 080914
METAR CWLB 080900Z AUTO 25006KT 15/12 RMK AO1 SLP176 T01480116
58003=
####018000179####
SACN88 KWBC 080914
METAR CERM 080900Z AUTO 00000KT 21/20 RMK AO1 5004 SLP151
T02080200 50003=
METAR CERM 080900Z AUTO 00000KT 21/20 RMK AO1 5004 SLP151
T02080200 50003=
####018000322####
SACN96 KWBC 080914
METAR CWXL 080900Z AUTO 15003KT 11/09 RMK AO1 T01120090=
METAR CWYY 080900Z AUTO 06002KT 15/13 RMK AO1 2PAST HR 1015 SLP171
P0001 T01530130 50018=
METAR CWZA 080900Z AUTO 06002KT 21/14 RMK AO1 SLP150 T02130143
52012=
METAR CWZL 080900Z AUTO 30009KT 24/07 RMK AO1 SLP181 T02360067
58001=
####018000553####
SACN94 KWBC 080914
METAR CWQH 080900Z AUTO 20001KT 23/22 RMK AO1 T02270215=
METAR CWQP 080900Z AUTO 23006KT 22/21 RMK AO1 SLP162 T02210208
55002=
METAR CWRJ 080900Z AUTO 20002KT 12/12 RMK AO1 SLP195 T01230120
56001=
METAR CWRK 080900Z AUTO 00000KT 18/18 RMK AO1 SLP173 T01840180
55003=
METAR CWSR 080900Z AUTO 23006KT 12/11 RMK AO1 SLP181 T01150108
58004=
METAR CWST 080900Z AUTO 35003KT 15/14 RMK AO1 T01480138=
METAR CWQH 080800Z AUTO 17001KT 22/21 RMK AO1 T02240213=
METAR CWST 080800Z AUTO 06003KT 16/16 RMK AO1 T01630156=
####018000228####
SACN93 KWBC 080914
METAR CWNK 080900Z AUTO 28005KT 14/12 RMK AO1 T01440122=
METAR CWPD 080900Z AUTO 20002KT 18/18 RMK AO1 SLP133 T01790179
55001=
METAR CWPE 080900Z AUTO 18003KT 13/12 RMK AO1 SLP194 T01260123
53003=
####018000091####
SAAF14 LFPW 080900 RRA
METAR FEFF 080900Z VRB03KT 9999 SCT020 SCT300 27/24 Q1015 NOSIG=
####018000087####
SAKN64 HKMO 080900
METAR HKJK 080900Z 17005KT 9999 BKN090 OVC100 17/14 Q1025 NOSIG=
####018000157####
SAZA42 FAJS 080900 RRB
METAR FAWK 080900Z 09010KT  9999 FEW060  13/// Q1038=
METAR FASK 080900Z 10010KT 9000 NSC 16/// Q1035=
METAR FALM 080900Z NIL=
####018002757####
SAUS99 KWBC 080914
METAR
KPVJ 080907Z AUTO 00000KT 10SM SCT008 24/23 A3003 RMK AO2=
KSRE 080910Z AUTO 00000KT 4SM BR 24/24 A3002 RMK AO2=
KSVC 080910Z AUTO 07006KT 10SM FEW090 17/14 A3021 RMK AO2=
KTEX 080911Z AUTO 00000KT 10SM CLR 13/03 A3045 RMK AO2=
KTMK 080913Z AUTO 14004KT 10SM OVC006 13/12 A2996 RMK AO2=
KWWR 080909Z AUTO 04006KT 10SM SCT110 22/21 A3014 RMK AO2
     T02220209=
K4O4 080908Z AUTO 09004KT 7SM SCT001 BKN010 23/22 A3004 RMK
     AO2=
KADH 080910Z AUTO 22003KT 7SM SCT006 BKN025 BKN040 23/22 A3002 RMK
     AO2=
KADM 080910Z AUTO 00000KT 10SM SCT029 BKN040 OVC047 23/23 A3001
     RMK AO2=
KAIK 080915Z AUTO 28004KT 10SM CLR 23/22 A3003 RMK AO2 PNO=
KALM 080910Z AUTO 00000KT 10SM CLR 20/13 A3013 RMK AO2=
KARW 080915Z AUTO 26005KT 10SM CLR 24/18 A2997 RMK AO2=
KATS 080910Z AUTO 35008KT 8SM -RA SCT002 BKN039 OVC050 18/17 A3015
     RMK AO2=
KAXS 080910Z AUTO 04003KT 10SM -RA BKN033 OVC120 24/22 A3007 RMK
     AO2 T02350215=
KAXX 080910Z AUTO 12003KT 10SM CLR 05/04 A3047 RMK AO2=
KBDN 080915Z AUTO 00000KT 10SM CLR 15/02 A3010 RMK AO2=
KBVS 080910Z AUTO 03009KT 10SM CLR 21/13 A2997 RMK A01 P000=
KCHK 080911Z AUTO 00000KT 10SM SCT090 23/23 A3004 RMK AO2=
KCLK 080913Z AUTO 04005KT 10SM CLR 22/20 A3007 RMK AO2=
KCQB 080910Z AUTO 01005KT 3SM +RA 23/23 A3003 RMK AO2 TSNO=
KCUH 080910Z AUTO 00000KT 10SM SCT018 BKN042 OVC070 24/23 A3003
     RMK AO2=
KDUA 080917Z AUTO 15003KT 10SM SCT065 25/23 A3002 RMK AO2=
KFDW 080915Z AUTO 27004KT 10SM CLR 25/17 A3000 RMK AO1=
KFET 080910Z AUTO 34003KT 10SM CLR 18/17 A3014 RMK AO2=
KGCD 080910Z AUTO 12011KT 10SM CLR 15/04 A3010 RMK AO2
     T01500042=
KGCM 080915Z AUTO 00000KT 23/23 A3005 RMK AO2 P0001 PWINO=
KGLY 080915Z AUTO 00000KT 9SM FEW023 23/23 A3004 RMK AO2=
KGMJ 080914Z AUTO 00000KT 26/26 A3003 RMK AO2 P0001 PWINO=
KIDP 080910Z AUTO 00000KT 10SM BKN055 21/20 A3003 RMK AO2=
KIZA 080909Z AUTO 00000KT 10SM OVC009 13/11 A2991 RMK AO2=
KLAM 080910Z AUTO 19006KT 10SM SCT120 14/09 A3037 RMK AO2=
KLRU 080911Z AUTO 05008KT 10SM SCT120 19/15 A3016 RMK AO2=
KMEZ 080915Z AUTO 00000KT 10SM BKN014 BKN020 OVC033 26/23 A3006
     RMK AO2=
KOJA 080910Z AUTO 01003KT 10SM SCT032 BKN055 OVC070 22/21 A3008
     RMK AO2=
KOKM 080911Z AUTO 00000KT 10SM BKN005 OVC011 24/24 A3002 RMK AO1
     LTG DSNT N=
KONP 080910Z AUTO 20007KT 7SM OVC004 11/10 A2999 RMK AO1=
KORS 080910Z AUTO 19004KT 10SM CLR 16/12 A2994 RMK AO2=
KOUN 080912Z AUTO 00000KT 10SM OVC013 26/23 A3004 RMK AO2=
KPLU 080910Z AUTO 00000KT 10SM FEW039 SCT070 BKN110 14/13 A2993
     RMK AO2=
KPSO 080915Z AUTO 00000KT 10SM CLR 11/05 A3038 RMK AO2=
KPTS 080910Z AUTO 00000KT 10SM CLR 22/22 A3003 RMK AO2
     T02200221=
####018000274####
SAAF11 LFPW 080900 RRA
METAR FCPP 080900Z 16006KT 7000 SCT013 BKN026 24/21 Q1015 NOSIG=
METAR FKKD 080900Z 12003KT 8000 TS BKN013 FEW016CB BKN120 27/25 Q1015
           BECMG NSW BKN016 FEW020CB BKN120=
METAR FPST 080900Z 16006KT 9999 FEW025 BKN100 27/21 Q1015 NOSIG=
####018000404####
SACN97 KWBC 080914
METAR CXBO 080900Z AUTO 06009KT 18/17 RMK AO1 T01800169=
METAR CXCH 080900Z AUTO 19/18 RMK AO1 T01870175=
METAR CXET 080900Z AUTO 30003KT 20/19 RMK AO1 SLP165 T01980190
56005=
METAR CXHA 080900Z AUTO 21003KT 26/22 RMK AO1 SLP151 T02570218
56006=
METAR CXHF 080900Z AUTO 19/18 RMK AO1 T01870182=
METAR CXWN 080900Z AUTO 27004KT 18/13 RMK AO1 SLP145 T01760126
57001=
####018000153####
SAMC32 GMMC 080900 RRA
METAR GMMZ 080900Z 13004KT 6000 FEW040 FEW050TCU SCT120 33/06 Q1024=
METAR GMTN 080900Z 04006KT 350V070 8000 NSC 25/19 Q1016=
####018000401####
SAAF13 LFPW 080900 RRA
METAR GBYD 080900Z VRB03KT 9999 SCT011 SCT120 28/25 Q1012=
METAR GFLL 080900Z 09008KT 9999 SCT011 FEW028CB 24/23 Q1014 CB-NE=
METAR GGOV 080900Z 18005KT 140V220 9999 SCT015TCU FEW020CB SCT100
               28/25 Q1013 TEMPO TS=
METAR GLRB 080900Z 00000KT 9999 SCT014 FEW025CB BKN100 26/23 Q1015
 CB-SW=
METAR GVAC 080900Z 06008KT 9999 SCT014 BKN016 24/19 Q1013 NOSIG=
####018000539####
SACN86 KWBC 080914
METAR CWLS 080900Z AUTO 19002KT 22/19 RMK AO1 SLP172 T02200194
57004=
METAR CWLS 080900Z AUTO 19002KT 22/19 RMK AO1 SLP172 T02200194
57004=
METAR CWLS 080900Z AUTO 19002KT 22/19 RMK AO1 SLP172 T02200194
57004=
METAR CWDQ 080900Z AUTO 20001KT 20/19 RMK AO1 SLP154 T01980186
52001=
METAR CWDQ 080900Z AUTO 20001KT 20/19 RMK AO1 SLP154 T01980186
52001=
METAR CWDQ 080900Z AUTO 20001KT 20/19 RMK AO1 SLP154 T01980186
52001=
METAR CWPO 080900Z AUTO 28005KT 13/11 RMK AO1 SLP181 T01330111
55000=
####018001175####
SACN89 KWBC 080914
METAR CWAQ 080900Z AUTO 29003KT 10/09 RMK AO1 T01000089=
METAR CWAV 080900Z AUTO 00000KT 07/06 RMK AO1 SLP223 T00700055
57004=
METAR CWBO 080900Z AUTO 18002KT 10/10 RMK AO1 SLP216 T00980098
56001=
METAR CWDJ 080900Z AUTO 01006KT 12/10 RMK AO1 SLP195 T01240097
53003=
METAR CWDZ 080900Z AUTO 15002KT 11/09 RMK AO1 SLP206 T01100094
50000=
METAR CWAQ 080900Z AUTO 29003KT 10/09 RMK AO1 T01000089=
METAR CWAV 080900Z AUTO 00000KT 07/06 RMK AO1 SLP223 T00700055
57004=
METAR CWBO 080900Z AUTO 18002KT 10/10 RMK AO1 SLP216 T00980098
56001=
METAR CWDJ 080900Z AUTO 01006KT 12/10 RMK AO1 SLP195 T01240097
53003=
METAR CWDZ 080900Z AUTO 15002KT 11/09 RMK AO1 SLP206 T01100094
50000=
METAR CWBO 080900Z AUTO 18002KT 10/10 RMK AO1 SLP216 T00980098
56001=
METAR CWDJ 080900Z AUTO 01006KT 12/10 RMK AO1 SLP195 T01240097
53003=
METAR CWDZ 080900Z AUTO 15002KT 11/09 RMK AO1 SLP206 T01100094
50000=
METAR CWDZ 080900Z AUTO 15002KT 11/09 RMK AO1 SLP206 T01100094
50000=
METAR CWDZ 080900Z AUTO 15002KT 11/09 RMK AO1 SLP206 T01100094
50000=
METAR CWDZ 080900Z AUTO 15002KT 11/09 RMK AO1 SLP206 T01100094
50000=
####018000687####
SACN92 KWBC 080914
METAR CWJI 080900Z AUTO 28003KT 12/11 RMK AO1 SLP203 T01170107
51003=
METAR CWJX 080900Z AUTO 24004KT 11/10 RMK AO1 SLP213 T01110101
52004=
METAR CWMJ 080900Z AUTO 31001KT 18/18 RMK AO1 SLP161 T01830183
55003=
METAR CWMQ 080900Z AUTO 21005KT 11/09 RMK AO1 SLP213 T01080087
55001=
METAR CWMQ 080900Z AUTO 21005KT 11/09 RMK AO1 SLP213 T01080087
55001=
METAR CWMQ 080900Z AUTO 21005KT 11/09 RMK AO1 SLP213 T01080087
55001=
METAR CWMQ 080900Z AUTO 21005KT 11/09 RMK AO1 SLP213 T01080087
55001=
METAR CWMQ 080900Z AUTO 21005KT 11/09 RMK AO1 SLP213 T01080087
55001=
METAR CWMQ 080900Z AUTO 21005KT 11/09 RMK AO1 SLP213 T01080087
55001=
####018000078####
SAAF08 LFPW 080900 RRA
METAR GABS 080900Z 23005KT CAVOK 28/23 Q1016 NOSIG=
####018000435####
SACN91 KWBC 080914
METAR CWGX 080900Z AUTO 24005KT 11/10 RMK AO1 SLP087 T01130096
56005=
METAR CWGY 080900Z AUTO 27008KT 11/10 RMK AO1 SLP215 T01130100
53003=
METAR CWHQ 080900Z AUTO 09004KT 21/20 RMK AO1 T02100195=
METAR CWIW 080900Z AUTO 28006KT 10/09 RMK AO1 SLP197 T01030092
55001=
METAR CWIZ 080900Z AUTO 19002KT 24/21 RMK AO1 T02350214=
METAR CWJH 080900Z AUTO 27003KT 11/07 RMK AO1 SLP134 T01070072
56003=
####018000609####
SACN85 KWBC 080914
METAR CWWE 080900Z AUTO 25003KT 16/ RMK AO1 SLP210 T0157 53008=
METAR CWBY 080900Z AUTO 07011KT 11/11 RMK AO1 SLP161 T01050105
53006=
METAR CWBY 080900Z AUTO 07011KT 11/11 RMK AO1 SLP161 T01050105
53006=
METAR CWBY 080900Z AUTO 07011KT 11/11 RMK AO1 SLP161 T01050105
53006=
METAR CWRA 080900Z AUTO 3SM M01/M01 RMK AO1 24108/08/0605/3013
T10111011=
METAR CWHO 080900Z AUTO 22010KT 09/08 RMK AO1 SLP119 T00930076
58030=
METAR CWHO 080900Z AUTO 22010KT 09/08 RMK AO1 SLP119 T00930076
58030=
METAR CWBY 080800Z AUTO 07010KT 10/10 RMK AO1 SLP159 T01010101
53002=
####018000095####
SACN90 KWBC 080914
METAR CWGD 080900Z AUTO 15005KT 24/20 RMK AO1 SLP157 T02400197
57006=
####018000722####
SPXX60 KWBC 080914
SPECI
KNHK 080907Z AUTO 11004KT 5SM BR FEW009 26/24 A2998 RMK AO2=
KPSM 080908Z 14007KT 3SM BR OVC006 22/21 A3006 RMK AO2A=
KRND 080909Z AUTO 04004KT 10SM BKN010 OVC016 25/23 A2994 RMK AO2
     SLP127=
KRND 080911Z AUTO 04004KT 10SM BKN009 OVC015 25/23 A2994 RMK AO2
     SLP127=
KSKF 080909Z 07007KT 10SM -RA OVC013 26/ A2992 RMK AO2A RAB0909
     CIG 011V016 SLP123 $=
KTIK 080910Z AUTO 33006KT 10SM BKN011 BKN023 OVC055 24/23 A3004
     RMK AO2 SLP159 $=
KVBG 080906Z AUTO 00000KT 10SM SCT006 12/11 A2993 RMK AO2 TSNO
     $=
PATC SP 0915 AWOS CLR BLO 120 10 47/44/0206/016=
PGUA 080908Z AUTO 09013KT 10SM SCT018 SCT032 27/ A2989 RMK AO2
     SLP102 VISNO RWY24L $=
####018002876####
SAUS70 KWBC 080914
METAR
K1F0 080907Z AUTO 00000KT 10SM SCT075 24/24 A3001 RMK AO2=
K36U 080915Z AUTO 00000KT 10SM CLR 10/05 A3021 RMK AO2=
KDUC 080912Z AUTO 07003KT 10SM CLR 22/22 A3004 RMK AO2=
KONM 080907Z AUTO 16003KT 10SM SCT060 19/13 A3022 RMK AO2
     T01910132=
KPVJ 080907Z AUTO 00000KT 10SM SCT008 24/23 A3003 RMK AO2=
KSRE 080910Z AUTO 00000KT 4SM BR 24/24 A3002 RMK AO2=
KSVC 080910Z AUTO 07006KT 10SM FEW090 17/14 A3021 RMK AO2=
KTEX 080911Z AUTO 00000KT 10SM CLR 13/03 A3045 RMK AO2=
KTMK 080913Z AUTO 14004KT 10SM OVC006 13/12 A2996 RMK AO2=
KWWR 080909Z AUTO 04006KT 10SM SCT110 22/21 A3014 RMK AO2
     T02220209=
K4O4 080908Z AUTO 09004KT 7SM SCT001 BKN010 23/22 A3004 RMK
     AO2=
KADH 080910Z AUTO 22003KT 7SM SCT006 BKN025 BKN040 23/22 A3002 RMK
     AO2=
KADM 080910Z AUTO 00000KT 10SM SCT029 BKN040 OVC047 23/23 A3001
     RMK AO2=
KAIK 080915Z AUTO 28004KT 10SM CLR 23/22 A3003 RMK AO2 PNO=
KALM 080910Z AUTO 00000KT 10SM CLR 20/13 A3013 RMK AO2=
KARW 080915Z AUTO 26005KT 10SM CLR 24/18 A2997 RMK AO2=
KATS 080910Z AUTO 35008KT 8SM -RA SCT002 BKN039 OVC050 18/17 A3015
     RMK AO2=
KAXS 080910Z AUTO 04003KT 10SM -RA BKN033 OVC120 24/22 A3007 RMK
     AO2 T02350215=
KAXX 080910Z AUTO 12003KT 10SM CLR 05/04 A3047 RMK AO2=
KBDN 080915Z AUTO 00000KT 10SM CLR 15/02 A3010 RMK AO2=
KBVS 080910Z AUTO 03009KT 10SM CLR 21/13 A2997 RMK A01 P000=
KCHK 080911Z AUTO 00000KT 10SM SCT090 23/23 A3004 RMK AO2=
KCLK 080913Z AUTO 04005KT 10SM CLR 22/20 A3007 RMK AO2=
KCQB 080910Z AUTO 01005KT 3SM +RA 23/23 A3003 RMK AO2 TSNO=
KCUH 080910Z AUTO 00000KT 10SM SCT018 BKN042 OVC070 24/23 A3003
     RMK AO2=
KDUA 080917Z AUTO 15003KT 10SM SCT065 25/23 A3002 RMK AO2=
KFDW 080915Z AUTO 27004KT 10SM CLR 25/17 A3000 RMK AO1=
KFET 080910Z AUTO 34003KT 10SM CLR 18/17 A3014 RMK AO2=
KGCD 080910Z AUTO 12011KT 10SM CLR 15/04 A3010 RMK AO2
     T01500042=
KGCM 080915Z AUTO 00000KT 23/23 A3005 RMK AO2 P0001 PWINO=
KGLY 080915Z AUTO 00000KT 9SM FEW023 23/23 A3004 RMK AO2=
KGMJ 080914Z AUTO 00000KT 26/26 A3003 RMK AO2 P0001 PWINO=
KIDP 080910Z AUTO 00000KT 10SM BKN055 21/20 A3003 RMK AO2=
KLAM 080910Z AUTO 19006KT 10SM SCT120 14/09 A3037 RMK AO2=
KLRU 080911Z AUTO 05008KT 10SM SCT120 19/15 A3016 RMK AO2=
KMEZ 080915Z AUTO 00000KT 10SM BKN014 BKN020 OVC033 26/23 A3006
     RMK AO2=
KOJA 080910Z AUTO 01003KT 10SM SCT032 BKN055 OVC070 22/21 A3008
     RMK AO2=
KOKM 080911Z AUTO 00000KT 10SM BKN005 OVC011 24/24 A3002 RMK AO1
     LTG DSNT N=
KONP 080910Z AUTO 20007KT 7SM OVC004 11/10 A2999 RMK AO1=
KORS 080910Z AUTO 19004KT 10SM CLR 16/12 A2994 RMK AO2=
KOUN 080912Z AUTO 00000KT 10SM OVC013 26/23 A3004 RMK AO2=
KPLU 080910Z AUTO 00000KT 10SM FEW039 SCT070 BKN110 14/13 A2993
     RMK AO2=
KPSO 080915Z AUTO 00000KT 10SM CLR 11/05 A3038 RMK AO2=
####018000837####
SPUS70 KWBC 080914
SPECI
KNSE 080903Z AUTO 00000KT 3/4SM BR CLR 23/21 A3002 RMK AO2 $=
KARB 080911Z AUTO 00000KT 2SM BR CLR 20/19 A3004 RMK AO2=
KGNV 080910Z AUTO 00000KT 8SM FEW001 20/19 A3000 RMK AO2=
KOVS 080911Z AUTO 00000KT 8SM OVC004 22/21 A3001 RMK AO2=
KNSE 080903Z AUTO 00000KT 3/4SM BR CLR 23/21 A3002 RMK AO2 $=
KNSE 080903Z AUTO 00000KT 3/4SM BR CLR 23/21 A3002 RMK AO2 $=
KUIN 080912Z AUTO 00000KT 9SM BKN001 BKN034 23/22 A3003 RMK
     AO2=
KAFW 080913Z 00000KT 10SM FEW019 SCT026 26/23 A3000 RMK AO2=
KBMI 080913Z AUTO 00000KT 10SM TS BKN021 23/22 A3004 RMK AO2 PWINO
     BKN V SCT TSB07 $=
KDAW 080912Z AUTO 00000KT 2SM BR OVC003 22/21 A3006 RMK AO2 $=
KEKQ 080911Z AUTO 00000KT 1 3/4SM BR CLR 19/18 A3010 RMK AO2=
KOAK 080912Z 30008KT 10SM OVC009 15/11 A2994 RMK AO2 CIG
     008V013=
####018000078####
SAID31 WIII 080900
METAR WABB 080900Z 00000KT 9999 SCT018 26/24 Q1008 NSG=
####018000068####
SABZ20 SBEG 080900
METAR SBMA 080900Z 26004KT CAVOK ///// Q1012=
####018000089####
SPDR31 MDSD 080910
SPECI
MDST 080910 VRB03KT 3000 BR SCT016 22/22 Q1014 BR/ALL QDS==
####018000261####
SAAF13 LFPW 080900 RRB
METAR GOGG 080900Z 16006KT 9999 BKN016 SCT130 28/26 Q1014=
METAR GOGS 080900Z 20008KT 9999 BKN016 28/25 Q1013=
METAR GOSS 080900Z 22008KT 180V250 9999 FEW013 BKN230 29/26 QA1012=
METAR GOTT 080900Z 18012KT6 9999 BKN013 29/26 Q1013=
####018000170####
SAAG41 KWBC 080900 RRA
METAR
SANT 080900Z 32006KT 9999 08/05 Q1019=
SARL 080900Z 16008KT 9999 07/06 Q1020=
SAZN 080900Z 16002KT 9999 SCT050 SCT100 04/02 Q1011=
####018000111####
SAAW34 KWBC 080845 RRG
METAR
UTSS 080900Z 07004MPS 020V130 9999 NSC 35/11 Q1010 R88/CLRD70
     NOSIG=
####018000238####
SAAF27 LFPW 080900 RRA
METAR DGAA 080900Z 26010KT 9999 SCT015 BKN100 28/23 Q1015 NOSIG=
METAR FGSL 080900Z VRB01KT 9999 SCT013 FEW020CB BKN130 27/26
           Q1015 NOSIG=
METAR GUCY 080900Z 09010KT 9999 SCT015 BKN116 27/24 Q1014=
####018000072####
SAAL41 DAMM 080900 RRA
METAR DAAE 080900Z 10006KT CAVOK 27/21 Q1019=
####018000072####
SAAL33 DAAA 080900 RRB
METAR DAAE 080900Z 10006KT CAVOK 27/21 Q1019=
####018000794####
SAUZ31 UTTW 080900
METAR UTFN 080900Z 19003MPS 9999 SCT050CB 35/13 Q1010 R28/CLRD70
NOSIG=
METAR UTNN 080900Z 21005MPS 180V240 CAVOK 42/10 Q1007 R15/CLRD70
NOSIG=
METAR UTNU 080900Z 22002MPS 150V250 CAVOK 42/11 Q1008 R13/CLRD60
NOSIG=
METAR UTSA 080900Z 02007MPS 9999 FEW190 40/04 Q1008 R88/CLRD70 NOSIG=
METAR UTSB 080900Z 36007MPS CAVOK 40/05 Q1008 R01/CLRD70 TEMPO
01008MPS=
METAR UTSH 080900Z 24002MPS 9999 NSC 39/11 Q1014 R99/CLRD070=
METAR UTSK 080900Z 20002MPS CAVOK 40/12 Q1007 R16/CLRD70=
METAR UTSS 080900Z 07004MPS 020V130 9999 NSC 35/11 Q1010 R88/CLRD70
NOSIG=
METAR UTST 080900Z VRB01MPS CAVOK 41/05 Q1006 R88/CLRD70 NOSIG=
METAR UTTT 080900Z 29003MPS 230V360 CAVOK 38/08 Q1010 R08R/CLRD70
NOSIG=
METAR UTTP 080900Z 320031MPS CAVOK 37/10 Q1011 R88/CLRD70 NOSIG=
####018000093####
SAIY41 LIIB 080900 RRB
METAR LIVE 080855Z 19005KT CAVOK 18/10 Q1025 RMK SKC VIS MIN 9999=
####018000090####
SAUS70 KWBC 080900 RRL
METAR
KMZZ 080855Z AUTO 00000KT 7SM CLR 20/19 A3007 RMK AO2=
####018000181####
SPUS80 KWBC 080914
SPECI
KCNK 080911Z AUTO 01007KT 10SM SCT016 OVC025 20/19 A3014 RMK
     AO2=
KEMP 080911Z AUTO 00000KT 5SM BR SCT005 OVC085 22/20 A3007 RMK
     AO2=
####018000260####
SAAG31 KWBC 080900 RRB
METAR
SAAR 080900Z 00000KT CAVOK 01/M00 Q1019=
SAEZ 080900Z NIL=
SARC 080900Z 14008KT 9999 BKN007 10/08 Q1018=
SASA 080900Z 36004KT 9999 FEW025 BKN100 11/08 Q 1020=
SAWE 080900Z NIL=
SAWG 080900Z NIL=
SAZM 080900Z NIL=
####018000080####
SPAK32 KWBC 080914
SPECI
PATC SP 0915 AWOS CLR BLO 120 10 47/44/0206/016=
####018000249####
SAAO33 KWBC 080900 RRC
METAR
GOGG 080900Z 16006KT 9999 BKN016 SCT130 28/26 Q1014=
GOGS 080900Z 20008KT 9999 BKN016 28/25 Q1013=
GOSS 080900Z 22008KT 180V250 9999 FEW013 BKN230 29/26 QA1012=
GOTT 080900Z 18012KT6 9999 BKN013 29/26 Q1013=
####018000165####
SAUS80 KWBC 080914
METAR
KIZA 080909Z AUTO 00000KT 10SM OVC009 13/11 A2991 RMK AO2=
KPTS 080910Z AUTO 00000KT 10SM CLR 22/22 A3003 RMK AO2
     T02200221=
####018000128####
SACN31 KWBC 080900 RRB
METAR
CYUL 080900Z 25004KT 12SM FEW080 25/21 A2999 RMK AC2 TCU ASOCTD E
     VIA YQB FIC SLP155=
####018000093####
SPCN31 KWBC 080914
SPECI
CYSJ 080911Z 19006KT 1/4SM R23/2600FT/N FG VV001 15/ RMK FG8=
####018000087####
SPPA41 KWBC 080914
SPECI
PGUA 080908Z AUTO 09013KT 10SM SCT018 SCT032 27/ A2989=
####018000139####
SAEM31 KWBC 080900 RRC
METAR
LOIH 080900Z 00000KT 35KM SKC 25/13 Q1021 RMK SKC=
LOWZ 080900Z VRB02KT 40KM SKC 18/07 Q1024 RMK SKC=
####018000085####
SAID31 KWBC 080900 RRB
METAR
WABB 080900Z 00000KT 9999 SCT018 26/24 Q1008 NSG=
####018000089####
SAFR31 KWBC 080900 RRB
METAR
LFBT 080900Z 04004KT 340V090 CAVOK 30/17 Q1018 NOSIG=
####018000088####
SAGR31 KWBC 080850 RRC
METAR
LGLM 080850Z 05009KT 9999 FEW008 BKN020 21/17 Q1013=
####018000073####
SAAL41 DAMM 080900 RRA
METAR DAAE 080900Z 10006KT CAVOK 27/21 Q1019=
####018000146####
SAIY41 KWBC 080850 RRD
METAR
LIEB 080855Z 06008KT 9999 FEW020 28/25 Q1018 RMK FEW QUK 2 QUL 0
     VIS MAR 15 KM MON INVIS VIS MIN 8000W=
####018000205####
SAJP31 KWBC 080900 RRC
METAR
RJAA 080900Z 20006KT 160V230 9999 FEW025 BKN/// 27/22 Q1009 NOSIG
     RMK 1CU025 A2981=
RJCC 080900Z 15006KT 2200 -DZ BR BKN002 18/17 Q1009 RMK 7ST002
     A2982=
####018000096####
SAIY43 KWBC 080850 RRC
METAR
LIVE 080855Z 19005KT CAVOK 18/10 Q1025 RMK SKC VIS MIN 9999=
####018000112####
SPMX31 KWBC 080914
SPECI
MMMX 080906Z 00000KT 2SM -RA SCT008 BKN020 OVC070 15/14 A3018
NOSIG RMK 8/47/=
####018000119####
SPPA31 KWBC 080914
SPECI
PGUA 080908Z AUTO 09013KT 10SM SCT018 SCT032 27/ A2989 RMK AO2
SLP102 VISNO RWY24L $=
####018000112####
SAPA31 KWBC 080900 RRC
METAR
AYPY 080900Z 18015KT 9999 SCT040 BKN140 26/23 Q1009 RMKS/ HZ IN
     AREA=
####018000517####
SARA31 KWBC 080900 RRD
METAR
UTNN 080900Z 21005MPS 180V240 CAVOK 42/10 Q1007 R15/CLRD70
     NOSIG=
UTNU 080900Z 22002MPS 150V250 CAVOK 42/11 Q1008 R13/CLRD60
     NOSIG=
UTSA 080900Z 02007MPS 9999 FEW190 40/04 Q1008 R88/CLRD70 NOSIG=
UTSB 080900Z 36007MPS CAVOK 40/05 Q1008 R01/CLRD70 TEMPO
     01008MPS=
UTSK 080900Z 20002MPS CAVOK 40/12 Q1007 R16/CLRD70=
UTSS 080900Z 07004MPS 020V130 9999 NSC 35/11 Q1010 R88/CLRD70
     NOSIG=
UTST 080900Z VRB01MPS CAVOK 41/05 Q1006 R88/CLRD70 NOSIG=
####018000190####
SASA31 KWBC 080900 RRC
METAR
SKBO 080900Z 00000KT 6000 HZ BKN012 12/11 A3028=
SKBQ 080900Z 15004KT 3000 BR SCT002 25/25 A2987=
SKRG 080900Z 00000KT 6000 BKN006 BKN080 14/14 A3028=
####018000096####
SAXX99 KWBC 080600 RRX
METAR
CYUX 080600Z AUTO 00000KT 9SM OVC077 08/06 A2985 RMK SLP109=
####018001140####
SAXX99 KWBC 080900 RRL
METAR
CQCM 080900Z 12006KT 8SM FEW250 45/17 A2954 RMK WND/ALTM ESTD CI1
     T04450168 LAST OBS/NEXT OBS 081300 UTC=
CYMT 080900Z 26002KT 15SM FEW070 17/17 A3000 RMK AC2 SLP159=
CYRJ 080900Z 25006KT 12SM BKN045 22/19 A2998 RMK SC6 SLP150=
CYUX 080900Z AUTO 01003KT 9SM OVC081 08/07 A2984 RMK SLP104=
CYXC 080900Z 25002KT 25SM SKC 14/06 A3018 RMK SLP206=
CYYE 080900Z 00000KT 15SM FEW180 FEW210 14/06 A3003 RMK AC1CI0
     SLP172=
CYYG 080900Z 22008KT 15SM FEW012 FEW170 BKN240 19/17 A3008 RMK
     SF1AC2CI1 SLP185=
DAAD 080900Z NIL=
SAOC 080900Z NIL=
UTTP 080900Z 320031MPS CAVOK 37/10 Q1011 R88/CLRD70 NOSIG=
WBGB 080900Z 24003KT 9999 TS FEW015CB SCT016 BKN150 27/25
     Q1008=
WBGR 080900Z 23002KT 9999 SCT014 FEW015CB BKN150 28/26 Q1007=
WBGS 080900Z 24001KT 9999 FEW015CB SCT016 BKN150 26/24 Q1008=
WBGY 080900Z 00000KT 9999 FEW015CB SCT023 BKN150 28/26 Q1007
     RETS=
WBKL 080900Z 29002KT 9999 TS FEW012 FEW015CB SCT130 BKN280 30/26
     Q1008=
WBKS 080900Z 05003KT 9999 FEW016 SCT140 BKN300 30/25 Q1007=
WBKT 080900Z 05004KT 9999 SCT016 BKN280 30/26 Q1007=
####018000096####
SAXX99 KWBC 080400 RRX
METAR
CYUX 080400Z AUTO 20004KT 9SM OVC075 08/05 A2987 RMK SLP116=
####018000096####
SAXX99 KWBC 080800 RRX
METAR
CYUX 080800Z AUTO 36002KT 9SM OVC079 08/06 A2984 RMK SLP104=
####018000096####
SAXX99 KWBC 080700 RRX
METAR
CYUX 080700Z AUTO 00000KT 9SM OVC079 08/06 A2985 RMK SLP108=
####018000096####
SAXX99 KWBC 080500 RRX
METAR
CYUX 080500Z AUTO 21002KT 9SM OVC077 08/06 A2987 RMK SLP113=
####018000096####
SAXX99 KWBC 080300 RRX
METAR
CYUX 080300Z AUTO 19004KT 9SM OVC075 07/05 A2988 RMK SLP120=
####018000067####
SAAG SAEZ 080900
METAR SAEZ 080900Z 28005KT CAVOK 03/M00 Q1018=
####018000079####
SPUS41 KWBC 080914
SPECI
KPSM 080908Z 14007KT 3SM BR OVC006 22/21 A3006=
####018000079####
SPUS51 KWBC 080914
SPECI
KPSM 080908Z 14007KT 3SM BR OVC006 22/21 A3006=
####018000087####
SPCN48 CWAO 080912
SPECI CYPH 080912Z AUTO 24015G21KT 5/8SM OVC002 05/05 A2979=

####018000089####
SPUS53 KWBC 080914
SPECI
KCNK 080911Z AUTO 01007KT 10SM SCT016 OVC025 20/19 A3014=
####018000093####
SPAU31 AMMC 080914
SPECI YPPD 080914Z AUTO 05017KT 9999NDV // SCT012 OVC120 23/20 Q1008=
####018000099####
SPAU31 AMMC 080914
SPECI YPPD 080914Z AUTO 05017KT 9999NDV // SCT012 OVC120 23/20 Q1008=


####018000081####
SPUS72 KWBC 080914
SPECI
KGNV 080910Z AUTO 00000KT 8SM FEW001 20/19 A3000=
####018000339####
SAUS20 KNKA 080914
METAR KMYR 080915Z AUTO 29008KT 10SM CLR 26/19 A2995 RMK AO1=
METAR KOAJ 080915Z AUTO 00000KT 10SM CLR 22/21 A2993 RMK AO1=
METAR KOCF 080915Z AUTO 00000KT 10SM CLR 21/21 A3000 RMK AO1=
METAR KSOP 080915Z AUTO 00000KT 10SM CLR 24/17 A2996 RMK AO1=
METAR KUDG 080915Z 34004KT 10SM FEW090 24/18 A2998 RMK AO1=
####018000089####
SPUS81 KWBC 080914
SPECI
KCNK 080911Z AUTO 01007KT 10SM SCT016 OVC025 20/19 A3014=
####018000091####
SPUS81 KWBC 080914
SPECI
KEMP 080911Z AUTO 00000KT 5SM BR SCT005 OVC085 22/20 A3007=
####018000955####
SASA KAWN 080900 RRD
METAR SAAR 080900Z 00000KT CAVOK 01/M00 Q1019=
METAR SABE 080900Z 27010KT CAVOK 09/M02 Q1019=
METAR SADF 080900Z 00000KT CAVOK 03/02 Q1019=
METAR SAME 080900Z 00000KT CAVOK 00/M04 Q1014=
METAR SANT 080900Z 32006KT 9999 08/05 Q1019=
METAR SARC 080900Z 14008KT 9999 BKN007 10/08 Q1018=
METAR SARI 080900Z 23004KT 8000 SKC 15/15 Q1018=
METAR SARL 080900Z 16008KT 9999 07/06 Q1020=
METAR SASA 080900Z 36004KT 9999 FEW025 BKN100 11/08 Q 1020=
METAR SASJ 080900Z 32003KT 9999 FEW040 09/07 Q1018=
METAR SAVC 080900Z 27011KT CAVOK 05/M02 Q0998=
METAR SAZN 080900Z 16002KT 9999 SCT050 SCT100 04/02 Q1011=
METAR SAZS 080900Z 32017KT 4000 +RA BKN008 02/01 Q1005=
METAR SKCG 080900Z VRB02KT 9999 FEW012 BKN070 26/25 A2987=
METAR SKCL 080900Z 00000KT 9999 FEW025 BKN090 20/19 A2999=
METAR SLTR 080900Z 36008KT 6000 -TSRA BKN010 FEW017CB OVC070 23/23
      Q1013=
METAR SVBC 080900Z 00000KT CAVOK 24/22 Q1012=
####018000087####
SAMZ40 FQMA 080900
METAR
FQNP 080900Z 18009KT 9999 BKN020 SCT100 26/15 Q1025=

####018000800####
SARS18 KAWN 080900 RRE
METAR UHHH 080900Z 03003MPS 9999 BKN030CB OVC100 18/15 Q1010 NOSIG
      RMK QFE751/1001 55090060=
METAR UHMM 080900Z 25003MPS 9999 BKN006 OVC026 13/11 Q1016 RMK QFE747
      88010070 MT OBSC=
METAR UHNN 080900Z 07004MPS 9999 -SHRA FEW010 BKN025CB OVC070 12/11
      Q1012 RMK QFE754=
METAR ULLI 080900Z 10002MPS 040V150 CAVOK 30/19 Q1013 NOSIG=
METAR UTSS 080900Z 07004MPS 020V130 9999 NSC 35/11 Q1010 R88/70D NOSIG=
METAR UUDD 080900Z 15004MPS 130V190 CAVOK 27/15 Q1015 NOSIG=
METAR UUEE 080900Z 12004MPS 080V170 9999 SCT050TCU BKN200 28/14 Q1015
      NOSIG=
METAR UWOO 080900Z 05006MPS P5000 SCT070 31/04 Q1012 08/LRD65 NOSIG
      RMK QFE749/0998=
METAR UWPP 080900Z 13004MPS 9999 SCT033 BKN100 30/09 Q1014 NOSIG RMK
      QFE746 11090060=
####018000552####
SAXX70 KAWN 080900 RRK
METAR KQD2 080855Z AUTO 24007KT 9999 CLR 33/09 A3002 RMK AO2 SLP047
      T03280085 57018 $=
METAR KQCC 080856Z AUTO VRB04KT 9999 FEW240 40/14 A2980 RMK AO2 SLP017
      T04040143 57025 $=
METAR KQEJ 080900Z AUTO 10001KT 7SM CLR 26/18 A2990 RMK A02=
METAR KQEL 080910Z AUTO 01001KT 7SM FEW100 26/20 A2970 RMK A02=
METAR KQEQ 080910Z AUTO 33001KT 7SM SCT100 24/20 A2979 RMK A02=
METAR KQEW 080910Z AUTO 00000KT 7SM FEW080 27/20 A2982 RMK A02=
METAR KQFB 080910Z AUTO 13005KT 5SM BR FEW043 25/22 A2991 RMK A02=
####018000449####
SAMG20 FMMI 080900
METAR 080900Z
FMNM 080900Z ///10KT CAVOK 29/14 Q1018=
FMMT 080900Z 22014KT 9999 SCT017 SCT033 24/20 Q1022=
FMCH 080900Z 23014KT 9999 FEW023 SCT030 28/19 Q1019 NOSIG=
FMMI 080900Z 12010KT 080V160 9999 BKN020 18/12 Q1027 NOSIG=
FMNA 080900Z 12023KT 9999 FEW020 29/15 Q1017=
FMMS 080900Z 22021KT 9999 BKN017=
FMSD 080900Z 08008KT 6000 VCSH SCT017 BKN033 19/17 Q1027=
FMNN 080900Z 22008KT 9999 BKN100 28/16 Q1018=
####018000597####
SAYE20 OYSC 080900 RRA
METAR OYAA NIL=
METAR OYAG 080900Z 12008KT 9999 SCT025 BKN070 29/24 Q1002=
METAR OYAM NIL=
METAR OYAR NIL=
METAR OYAS 080900Z 18006KT 5000 DU NSC 34/24 Q1006=
METAR OYAT 080900Z VRB02KT CAVOK 37/13 Q1001=
METAR OYDM NIL=
METAR OYHD NIL=
METAR OYIB NIL=
METAR OYKD NIL=
METAR OYMB 080900Z 04025KT 6000 FEW030 40/M02 Q1006=
METAR OYMK NIL=
METAR OYMT NIL=
METAR OYRN 080900Z 16012KT 7000 NSC 30/25 Q1002=
METAR OYSD NIL=
METAR OYSH NIL=
METAR OYSN NIL=
METAR OYSQ NIL=
METAR OYSY 080900Z VRB03KT 7000 NSC 42/07 Q1003=
METAR OYTZ NIL=
####018000439####
SAMG20 FMMI 080900
METAR FMNM 080900Z ///10KT CAVOK 29/14 Q1018=
FMMT 080900Z 22014KT 9999 SCT017 SCT033 24/20 Q1022=
FMCH 080900Z 23014KT 9999 FEW023 SCT030 28/19 Q1019 NOSIG=
FMMI 080900Z 12010KT 080V160 9999 BKN020 18/12 Q1027 NOSIG=
FMNA 080900Z 12023KT 9999 FEW020 29/15 Q1017=
FMMS 080900Z 22021KT 9999 BKN017=
FMSD 080900Z 08008KT 6000 VCSH SCT017 BKN033 19/17 Q1027=
FMNN 080900Z 22008KT 9999 BKN100 28/16 Q1018=
####018000994####
SAKO51 RJTD 080900
METAR RKPC 080900Z 07012KT 4500 BR SCT030 BKN150 24/21 Q1008 NOSIG=
METAR RKPC 080900Z 07012KT 4500 BR SCT030 BKN150 24/21 Q1008 NOSIG=
METAR RKPK 080900Z 12007KT 9999 SCT030 BKN200 25/17 Q1009 NOSIG=
METAR RKPK 080900Z 12007KT 9999 SCT030 BKN200 25/17 Q1009 NOSIG=
METAR RKSI 080900Z 25003KT 9999 FEW040 OVC120 24/18 Q1008 TEMPO -RA=
METAR RKSM 080900Z 15003KT 9999 FEW030 SCT100 BKN200 26/20 A2977=
METAR RKSS 080900Z 32003KT 9999 FEW030 OVC120 25/17 Q1008 TEMPO RA=
METAR RKSS 080900Z 32003KT 9999 FEW030 OVC120 25/17 Q1008 TEMPO RA=
METAR RKTN 080900Z 24003KT 9000 -TSRA FEW025CB BKN040 OVC200 26/22
           Q1007 NOSIG RMK OCNL LTGCC TS SW MOV SE=
METAR RKTN 080900Z 24003KT 9000 -TSRA FEW025CB BKN040 OVC200 26/22
           Q1007 NOSIG RMK OCNL LTGCC TS SW MOV SE=
METAR RKTU 080900Z 29004KT 9000 SCT030 SCT100 BKN200 28/19 Q1008
           NOSIG=
METAR RKTU 080900Z 29004KT 9000 SCT030 SCT100 BKN200 28/19 Q1008
           NOSIG=
####018000090####
SACH10 SCSC 080900 RRA
METAR
SCSE 080900Z 14002KT CAVOK 06/05 Q1017 NEFO PLAYA SKC=
####018000084####
SPCN42 CWAO 080913
SPECI CYUA 080913Z AUTO 27006KT 3SM -UP OVC006 05/ A3008=

####018002251####
SAUS20 KNKA 080914
METAR KPMV 080910Z AUTO 32005KT 10SM CLR 20/19 A3012 RMK AO2 
     T01960187=
METAR KAFK 080910Z AUTO 36007KT 7SM CLR 20/19 A3011 RMK AO2 
     T02000189=
SPECI KAMA 080913Z 04009KT 1SM -RA SCT020 BKN055 OVC100 17/16 A3018 
    RMK AO2 SFC VIS 10 P0001 $=
METAR KANW 080910Z AUTO 23003KT 10SM OVC110 17/15 A3023 RMK AO2 
     T01660151=
METAR KAUH 080910Z AUTO 35006KT 10SM CLR 16/15 A3018 RMK AO2 
     T01560145=
METAR KAUN 080910Z AUTO 00000KT 10SM CLR 21/13 A2988 RMK AO1=
METAR KBIE 080910Z AUTO 36006KT 10SM CLR 19/18 A3013 RMK AO2 
     T01870176=
SPECI KBOK 080914Z AUTO 00000KT 1/4SM FG OVC002 09/09 A2997 RMK AO2 
    $=
METAR KBTA 080910Z AUTO 36005KT 10SM CLR 19/17 A3012 RMK AO2 
     T01920171=
METAR KBVN 080910Z AUTO 33003KT 10SM OVC090 16/15 A3018 RMK AO2 
     T01570147=
SPECI KCEW 080913Z AUTO 00000KT 1 1/4SM BR CLR 21/21 A3003 RMK AO2=
METAR KDVO 080910Z AUTO 00000KT 10SM OVC012 12/11 A2994 RMK AO2=
SPECI KELM 080913Z AUTO 00000KT 3/4SM BR VV002 18/17 A3009 RMK AO2 
    RVRNO=
METAR KHDE 080910Z AUTO 00000KT 10SM CLR 16/14 A3021 RMK AO2 
     T01550141=
METAR KHJH 080910Z AUTO 01005KT 10SM OVC025 19/18 A3015 RMK AO2 
     T01940177=
METAR KIBM 080910Z AUTO 14003KT 10SM BKN020 OVC042 13/12 A3031 
     RMK AO2 T01250115=
METAR KJYR 080910Z AUTO 35003KT 10SM CLR 16/15 A3016 RMK AO2=
METAR KLCG 080910Z AUTO 00000KT 10SM SCT110 15/14 A3016 RMK AO2 
     T01530144=
METAR KLHM 080911Z AUTO 16008KT 10SM CLR 17/11 A2982 RMK AO1 
     T01730110=
METAR KLXN 080910Z AUTO 00000KT 10SM OVC049 16/15 A3023 RMK AO2 
     T01610153=
METAR KMLE 080910Z AUTO 35003KT 10SM CLR 20/17 A3011 RMK AO2 
     T02000168=
METAR KMMH 080910Z AUTO 00000KT 10SM CLR 12/02 A3021 RMK AO1=
METAR KOGA 080910Z AUTO 00000KT 7SM SCT090 16/15 A3027 RMK AO2 
     T01550145=
METAR KONL 080910Z AUTO 27003KT 10SM SCT090 OVC110 16/15 A3021 
     RMK AO2 T01590146=
METAR KRKR 080913Z AUTO 19004KT 10SM BKN031 27/25 A3003 RMK AO2=
METAR KSNL 080912Z AUTO 33003KT 10SM OVC008 24/23 A3004 RMK AO2 
     LTG DSNT NE=
METAR KTQH 080915Z AUTO 14003KT 10SM OVC020 23/23 A3004 RMK AO2=
METAR KWDG 080910Z AUTO 36003KT 10SM CLR 22/21 A3008 RMK AO2=
####018002048####
SAUS99 KWBC 080915
METAR
KMYR 080915Z AUTO 29008KT 10SM CLR 26/19 A2995 RMK AO1=
KOAJ 080915Z AUTO 00000KT 10SM CLR 22/21 A2993 RMK AO1=
KOCF 080915Z AUTO 00000KT 10SM CLR 21/21 A3000 RMK AO1=
KSOP 080915Z AUTO 00000KT 10SM CLR 24/17 A2996 RMK AO1=
KUDG 080915Z 34004KT 10SM FEW090 24/18 A2998 RMK AO1=
KPMV 080910Z AUTO 32005KT 10SM CLR 20/19 A3012 RMK AO2
     T01960187=
KAFK 080910Z AUTO 36007KT 7SM CLR 20/19 A3011 RMK AO2
     T02000189=
KANW 080910Z AUTO 23003KT 10SM OVC110 17/15 A3023 RMK AO2
     T01660151=
KAUH 080910Z AUTO 35006KT 10SM CLR 16/15 A3018 RMK AO2
     T01560145=
KAUN 080910Z AUTO 00000KT 10SM CLR 21/13 A2988 RMK AO1=
KBIE 080910Z AUTO 36006KT 10SM CLR 19/18 A3013 RMK AO2
     T01870176=
KBTA 080910Z AUTO 36005KT 10SM CLR 19/17 A3012 RMK AO2
     T01920171=
KBVN 080910Z AUTO 33003KT 10SM OVC090 16/15 A3018 RMK AO2
     T01570147=
KDVO 080910Z AUTO 00000KT 10SM OVC012 12/11 A2994 RMK AO2=
KHDE 080910Z AUTO 00000KT 10SM CLR 16/14 A3021 RMK AO2
     T01550141=
KHJH 080910Z AUTO 01005KT 10SM OVC025 19/18 A3015 RMK AO2
     T01940177=
KIBM 080910Z AUTO 14003KT 10SM BKN020 OVC042 13/12 A3031 RMK AO2
     T01250115=
KJYR 080910Z AUTO 35003KT 10SM CLR 16/15 A3016 RMK AO2=
KLCG 080910Z AUTO 00000KT 10SM SCT110 15/14 A3016 RMK AO2
     T01530144=
KLHM 080911Z AUTO 16008KT 10SM CLR 17/11 A2982 RMK AO1
     T01730110=
KLXN 080910Z AUTO 00000KT 10SM OVC049 16/15 A3023 RMK AO2
     T01610153=
KMLE 080910Z AUTO 35003KT 10SM CLR 20/17 A3011 RMK AO2
     T02000168=
KMMH 080910Z AUTO 00000KT 10SM CLR 12/02 A3021 RMK AO1=
KOGA 080910Z AUTO 00000KT 7SM SCT090 16/15 A3027 RMK AO2
     T01550145=
KONL 080910Z AUTO 27003KT 10SM SCT090 OVC110 16/15 A3021 RMK AO2
     T01590146=
KRKR 080913Z AUTO 19004KT 10SM BKN031 27/25 A3003 RMK AO2=
KSNL 080912Z AUTO 33003KT 10SM OVC008 24/23 A3004 RMK AO2 LTG DSNT
     NE=
KTQH 080915Z AUTO 14003KT 10SM OVC020 23/23 A3004 RMK AO2=
KWDG 080910Z AUTO 36003KT 10SM CLR 22/21 A3008 RMK AO2=
####018000343####
SPUS99 KWBC 080915
SPECI
KAMA 080913Z 04009KT 1SM -RA SCT020 BKN055 OVC100 17/16 A3018 RMK
     AO2 SFC VIS 10 P0001 $=
KBOK 080914Z AUTO 00000KT 1/4SM FG OVC002 09/09 A2997 RMK AO2
     $=
KCEW 080913Z AUTO 00000KT 1 1/4SM BR CLR 21/21 A3003 RMK AO2=
KELM 080913Z AUTO 00000KT 3/4SM BR VV002 18/17 A3009 RMK AO2
     RVRNO=
####018000100####
SPBU40 LBSM 080913
SPECI LBGO 080913Z 00000MPS 3700 RA SCT015 BKN025 OVC040 15/14
 Q1017 NOSIG=
####018000100####
SPBU40 LBSM 080915
SPECI LBPD 080915Z 26004MPS 9999 RA SCT035 SCT050 OVC060 17/13
 Q1017 NOSIG=
####018000092####
SPAU32 YBBN 080914
SPECI YPPD 080914Z AUTO 05017KT 9999NDV // SCT012 OVC120 23/20 Q1008=
####018000440####
SAMG20 FMMI 080900
METAR 080900Z
FMNM 080900Z ///10KT CAVOK 29/14 Q1018=
FMMT 080900Z 22014KT 9999 SCT017 SCT033 24/20 Q1022=
FMCH 080900Z 23014KT 9999 FEW023 SCT030 28/19 Q1019 NOSIG=
FMMI 080900Z 12010KT 080V160 9999 BKN020 18/12 Q1027 NOSIG=
FMNA 080900Z 12023KT 9999 FEW020 29/15 Q1017=
FMMS 080900Z 22021KT 9999 BKN017=
FMSD 080900Z 08008KT 6000 VCSH SCT017 BKN033 19/17 Q1027=
FMNN 080900Z 22008KT 9999 BKN100 28/16 Q1018=
####018000072####
SASD20 OEJD 080900 RRA
METAR OEPA 080900Z 33008KT CAVOK 44/04 Q1004=
####018000088####
SACH10 SCSC 080900 RRA
METAR
SCSE 080900Z 14002KT CAVOK 06/05 Q1017 NEFO PLAYA SKC=
####018000095####
SPAU31 KWBC 080915
SPECI
YPPD 080914Z AUTO 05017KT 9999NDV // SCT012 OVC120 23/20 Q1008=
####018000090####
SPCA32 KWBC 080915
SPECI
MDST 080910 VRB03KT 3000 BR SCT016 22/22 Q1014 BR/ALL QDS=
####018000088####
SAZA31 FAPR 080900 RRA
METAR FAKN 080900Z 18005KT 9999 BKN020 17/12 Q1034 NOSIG=

####018000431####
SAMG20 FMMI 080900
METAR FMNM 080900Z ///10KT CAVOK 29/14 Q1018=
FMMT 080900Z 22014KT 9999 SCT017 SCT033 24/20 Q1022=
FMCH 080900Z 23014KT 9999 FEW023 SCT030 28/19 Q1019 NOSIG=
FMMI 080900Z 12010KT 080V160 9999 BKN020 18/12 Q1027 NOSIG=
FMNA 080900Z 12023KT 9999 FEW020 29/15 Q1017=
FMMS 080900Z 22021KT 9999 BKN017=
FMSD 080900Z 08008KT 6000 VCSH SCT017 BKN033 19/17 Q1027=
FMNN 080900Z 22008KT 9999 BKN100 28/16 Q1018=
####018000074####
SAAG01 SABM 080900 RRC
METAR SAEZ 080900Z 28005KT CAVOK 03/M00 Q1018=
####018000077####
SPUS31 KWBC 080915
SPECI
KOAK 080912Z 30008KT 10SM OVC009 15/11 A2994=
####018001311####
SAAU32 AMMC 080900
METAR YAMB 080900Z 18009KT 9999 SCT050 BKN075 17/10 Q1021=
METAR YBCG 080900Z AUTO 19011KT 9999NDV // SCT023 BKN035 OVC049 15/13 Q1021=
METAR YBHM 080900Z AUTO 15018KT //// // ////// 18/15 Q1017=
METAR YBMA 080900Z AUTO 16009KT 9999NDV // ////// 13/10 Q1019=
METAR YBRK 080900Z 00000KT 9999 FEW006 BKN030 13/13 Q1019=
METAR YBRM 080900Z 05007KT 9999 VCSH SCT031 BKN060 26/21 Q1010=
METAR YCIN 080900Z AUTO 10006KT //// // ////// 24/19 Q1012=
METAR YFRT 080900Z AUTO 05013KT //// // ////// 16/03 Q1014=
METAR YMAV 080900Z AUTO 16004KT 9999NDV // OVC050 10/07 Q1028=
METAR YMHB 080900Z 00000KT CAVOK 05/02 Q1030=
METAR YMLT 080900Z AUTO 00000KT 9999NDV // BKN037 04/02 Q1030=
METAR YPEA 080900Z 36013KT 9999 VCSH BKN015 BKN034 15/13 Q0999=
METAR YPGV 080900Z 15010KT 9999 BKN022 BKN350 24/21 Q1013=
METAR YPKG 080900Z AUTO 34007KT 9999NDV // SCT069 OVC090 19/04 Q1005=
METAR YPPD 080902Z AUTO 04015KT 9999NDV // BKN012 BKN025 OVC120 23/20 Q1008=
METAR YSCB NIL=
METAR YSDU 080900Z AUTO 12009KT 9999NDV // NCD 10/05 Q1024=
METAR YSNF 080900Z 12008KT 9999 FEW015 BKN030 15/11 Q1017=
METAR YSRI 080900Z AUTO 20003KT 9999NDV // BKN029 BKN037 OVC045 12/11 Q1027=
METAR YWLM 080900Z 23007KT 9999 SCT020 BKN045 12/12 Q1025
     INTER 0900/1000 SHRA BKN010=
####018001098####
SAAU31 AMMC 080900
METAR YBAS 080900Z AUTO 09007KT 9999NDV // NCD 12/06 Q1019=
METAR YBBN 080900Z 19009KT CAVOK 18/10 Q1020
     NOSIG=
METAR YBCS 080900Z 16008KT 9999 FEW024 BKN050 23/19 Q1015
     NOSIG=
METAR YBTL 080900Z 10005KT 9999 FEW030 SCT050 BKN170 22/20 Q1016
     NOSIG=
METAR YMML 080900Z 16005KT 9999 FEW030 BKN042 09/05 Q1028
     NOSIG=
METAR YPAD 080900Z 09005KT CAVOK 09/07 Q1025
     NOSIG=
METAR YPCC NIL=
METAR YPDN 080900Z 03011KT CAVOK 27/20 Q1011
     NOSIG=
METAR YPKU 080900Z AUTO 13005KT 9999NDV // NCD 26/15 Q1013=
METAR YPLM 080900Z AUTO 14003KT 9999NDV // OVC021 21/17 Q1008=
METAR YPPH 080900Z 29011KT 8000 SHRA FEW018 SCT042 BKN065 FEW023TCU 15/14
     Q0999
     FM0900 33018G28KT 9999 -SHRA BKN020
     INTER 0900/1200 27025G35KT 3000 +SHRA BKN010=
METAR YPTN 080900Z 10006KT CAVOK 26/15 Q1013=
METAR YPXM 080900Z AUTO 19004KT 9999NDV // SCT018 25/21 Q////=
METAR YSSY 080900Z 23012KT 7000 SHRA FEW006 SCT020 BKN035 12/12 Q1027
     FM0900 19015KT 9999 -SHRA SCT025 BKN040
     INTER 0900/1200 5000 SHRA BKN010=
####018001314####
SAAU32 AMMC 080900
METAR YAMB 080900Z 18009KT 9999 SCT050 BKN075 17/10 Q1021=
METAR YBCG 080900Z AUTO 19011KT 9999NDV // SCT023 BKN035 OVC049 15/13 Q1021=
METAR YBHM 080900Z AUTO 15018KT //// // ////// 18/15 Q1017=
METAR YBMA 080900Z AUTO 16009KT 9999NDV // ////// 13/10 Q1019=
METAR YBRK 080900Z 00000KT 9999 FEW006 BKN030 13/13 Q1019=
METAR YBRM 080900Z 05007KT 9999 VCSH SCT031 BKN060 26/21 Q1010=
METAR YCIN 080900Z AUTO 10006KT //// // ////// 24/19 Q1012=
METAR YFRT 080900Z AUTO 05013KT //// // ////// 16/03 Q1014=
METAR YMAV 080900Z AUTO 16004KT 9999NDV // OVC050 10/07 Q1028=
METAR YMHB 080900Z 00000KT CAVOK 05/02 Q1030=
METAR YMLT 080900Z AUTO 00000KT 9999NDV // BKN037 04/02 Q1030=
METAR YPEA 080900Z 36013KT 9999 VCSH BKN015 BKN034 15/13 Q0999=
METAR YPGV 080900Z 15010KT 9999 BKN022 BKN350 24/21 Q1013=
METAR YPKG 080900Z AUTO 34007KT 9999NDV // SCT069 OVC090 19/04 Q1005=
METAR YPPD 080902Z AUTO 04015KT 9999NDV // BKN012 BKN025 OVC120 23/20 Q1008=
METAR YSCB NIL=
METAR YSDU 080900Z AUTO 12009KT 9999NDV // NCD 10/05 Q1024=
METAR YSNF 080900Z 12008KT 9999 FEW015 BKN030 15/11 Q1017=
METAR YSRI 080900Z AUTO 20003KT 9999NDV // BKN029 BKN037 OVC045 12/11 Q1027=
METAR YWLM 080900Z 23007KT 9999 SCT020 BKN045 12/12 Q1025
     INTER 0900/1000 SHRA BKN010=

####018001101####
SAAU31 AMMC 080900
METAR YBAS 080900Z AUTO 09007KT 9999NDV // NCD 12/06 Q1019=
METAR YBBN 080900Z 19009KT CAVOK 18/10 Q1020
     NOSIG=
METAR YBCS 080900Z 16008KT 9999 FEW024 BKN050 23/19 Q1015
     NOSIG=
METAR YBTL 080900Z 10005KT 9999 FEW030 SCT050 BKN170 22/20 Q1016
     NOSIG=
METAR YMML 080900Z 16005KT 9999 FEW030 BKN042 09/05 Q1028
     NOSIG=
METAR YPAD 080900Z 09005KT CAVOK 09/07 Q1025
     NOSIG=
METAR YPCC NIL=
METAR YPDN 080900Z 03011KT CAVOK 27/20 Q1011
     NOSIG=
METAR YPKU 080900Z AUTO 13005KT 9999NDV // NCD 26/15 Q1013=
METAR YPLM 080900Z AUTO 14003KT 9999NDV // OVC021 21/17 Q1008=
METAR YPPH 080900Z 29011KT 8000 SHRA FEW018 SCT042 BKN065 FEW023TCU 15/14
     Q0999
     FM0900 33018G28KT 9999 -SHRA BKN020
     INTER 0900/1200 27025G35KT 3000 +SHRA BKN010=
METAR YPTN 080900Z 10006KT CAVOK 26/15 Q1013=
METAR YPXM 080900Z AUTO 19004KT 9999NDV // SCT018 25/21 Q////=
METAR YSSY 080900Z 23012KT 7000 SHRA FEW006 SCT020 BKN035 12/12 Q1027
     FM0900 19015KT 9999 -SHRA SCT025 BKN040
     INTER 0900/1200 5000 SHRA BKN010=

####018000101####
SAUS46 KLOX 080915
MTRNFG
SPECI KNFG 080913Z AUTO 00000KT 10SM OVC013 16/13 A2990 RMK AO2 TSNO
####018000106####
SAUS46 KLOX 080915
MTRVBG
SPECI KVBG 080913Z AUTO 34004KT 10SM BKN006 12/11 A2993 RMK AO2 TSNO 
$
####018000232####
SAUS43 KWBC 080900 RRC
METAR
KIGQ 080900Z AUTO 00000KT 7SM -RA SCT018 BKN090 23/22 A3003=
KTIP 080905Z AUTO 00000KT 10SM SCT047 SCT055 SCT120 24/23
     A3004=
KVYS 080905Z AUTO 16003KT 5SM BR SCT003 OVC012 23/22 A3002=
####018000082####
SAUS44 KWBC 080900 RRC
METAR
KOLV 080915Z AUTO 00000KT 8SM CLR 23/23 A3007=
####018000088####
SPUS53 KWBC 080915
SPECI
KUIN 080912Z AUTO 00000KT 9SM BKN001 BKN034 23/22 A3003=
####018000068####
SAUS53 KWBC 080900 RRD
METAR
KEHA 080908Z AUTO 36003KT 18/17=
####018000086####
SAUS54 KWBC 080900 RRB
METAR
KIZA 080909Z AUTO 00000KT 10SM OVC009 13/11 A2991=
####018000084####
SPUS72 KWBC 080915
SPECI
KAFW 080913Z 00000KT 10SM FEW019 SCT026 26/23 A3000=
####018000086####
SAUS72 KWBC 080900 RRE
METAR
KLRU 080911Z AUTO 05008KT 10SM SCT120 19/15 A3016=
####018000088####
SPUS73 KWBC 080915
SPECI
KUIN 080912Z AUTO 00000KT 9SM BKN001 BKN034 23/22 A3003=
####018000077####
SPUS74 KWBC 080915
SPECI
KOAK 080912Z 30008KT 10SM OVC009 15/11 A2994=
####018000115####
SAUS44 KEWX 080915
MTRATT
SPECI KATT 080913Z AUTO 10004KT 10SM BKN012 BKN022 OVC030 26/23 
A2997 RMK AO2 $
####018000102####
SPBU40 LBSM 080915
SPECI LBPD 080915Z 26004MPS 9999 RA SCT035 SCT050 OVC060 17/13
 Q1017 NOSIG=
####018000073####
SASD20 OEJD 080900 RRA
METAR OEPA 080900Z 33008KT CAVOK 44/04 Q1004=
####018000112####
SAIY40 LIIB 080900 RRA
METAR LIPX 080845Z 10007KT 9999 SCT080 27/14 Q1021 RMK SCT VIS MIN
      9999 BLU=
####018000090####
SAIY40 LIIB 080900 RRB
METAR LIPY 080850Z VRB05KT CAVOK 26/10 Q1021 RMK VIS MIN 9999=
####018000102####
SPBU40 LBSM 080913
SPECI LBGO 080913Z 00000MPS 3700 RA SCT015 BKN025 OVC040 15/14
 Q1017 NOSIG=
####018000133####
SAMC32 GMMC 080900 RRB
METAR GMMH 080900Z 02019KT 6000 BKN010 20/17 Q1014=
METAR GMML 080900Z 02016KT 8000 BKN016 21/15 Q1015=
####018000073####
SAAL41 DAMM 080900 RRB
METAR DAUB 080900Z 13013KT CAVOK 33/15 Q1018=
