####018000084####
SPCN42 CWAO 080838
SPECI CYUA 080838Z AUTO 30009KT 9SM -UP OVC003 05/ A3008=

####018001145####
SAUS20 KNKA 080839
METAR KOEO 080835Z AUTO 29003KT 10SM SCT042 18/17 A3007 RMK AO2=
METAR KPBH 080835Z AUTO 00000KT 1/4SM FG OVC001 21/19 A3003 RMK 
     AO2=
METAR KPCZ 080835Z AUTO 27003KT 4SM BR OVC004 23/21 A2998 RMK AO2 
     T02250210=
METAR KPDC 080833Z AUTO 27004KT 10SM OVC006 22/21 A3001 RMK AO2 
     T02240211=
SPECI KPKB 080838Z AUTO 00000KT 2 1/2SM BR CLR 21/19 A3010 RMK AO2 
    TSNO=
METAR KRCX 080835Z AUTO 31003KT 10SM CLR 19/18 A3003 RMK AO2 
     T01910183=
METAR KRNH 080836Z AUTO 29003KT 10SM CLR 18/17 A3006 RMK AO2 
     T01770167=
SPECI KRSL 080838Z AUTO 36005KT 9SM OVC016 19/18 A3014 RMK AO2=
SPECI KRVS 080838Z 00000KT 1 3/4SM +TSRA BR OVC017 23/23 A3001 RMK 
    AO2 LTG DSNT NE AND SW P0042=
METAR KSCF 080840Z AUTO 14019KT 8SM SCT018 BKN023 29/26 A2990 RMK
     A01=
METAR KSPF 080835Z AUTO 00000KT 10SM CLR 12/08 A3028 RMK AO2 =
METAR KVBS 080835Z AUTO 12023G29KT 10SM SCT020 BKN027 BKN038 29/25
     A2992 RMK A01=
METAR KVNP 080835Z AUTO 12007G18KT 070V160 8SM 28/25 A2996 RMK A01=
METAR KY63 080840Z AUTO 22005KT 10SM CLR 15/14 A3010 RMK AO2 
     T01480141=
####018002960####
SAUS20 KNKA 080839
METAR K14Y 080838Z AUTO 00000KT 7SM CLR 14/14 A3010 RMK AO2 
     T01440142=
METAR K4M9 080835Z AUTO 21004KT 8SM CLR 24/24 A3004 RMK AO2 =
METAR KAEJ 080835Z AUTO 00000KT 10SM OVC046 10/09 A3046 RMK AO2=
METAR KBBF 080935Z AUTO 13023G31KT 8SM SCT024 BKN039 BKN055 29/26
     A2980 RMK A01=
METAR KBQX 080835Z AUTO 12021KT 8SM FEW024 SCT049 BKN055 28/26
     A2983 RMK A01=
METAR KDCM 080835Z AUTO 28004KT 7SM CLR 24/22 A2999 RMK AO2=
METAR KDLP 080835Z AUTO 130KT 10SM SCT017 29/25 A2998 RMK A01=
METAR KEDU 080835Z AUTO 18006KT 10SM CLR 15/10 A2981 RMK AO1=
METAR KEGV 080832Z AUTO 29005KT 10SM SCT002 SCT011 19/19 A3001 
     RMK AO2 T01860187=
METAR KEHC 080835Z AUTO 12025KT 7SM FEW042 29/26 A2991 RMK A01=
METAR KEIR 080835Z AUTO VRB06G13KT 10SM FEW019 28/25 A2995 RMK A01=
METAR KEMK 080835Z AUTO 14028G35KT 3SM BR FEW017 SCT032 BKN050
     28/26 A2985 RMK A01=
METAR KETB 080832Z AUTO 00000KT 7SM SCT080 SCT095 SCT120 22/21 
     A2999 RMK AO2 T02150206=
METAR KEZS 080835Z AUTO 25005KT 10SM OVC005 23/22 A2996 RMK AO2 
     T02250215=
METAR KGBK 080835Z AUTO 09011G20KT 10SM CLR 29/25 A2989 RMK A01=
METAR KGLW 080833Z AUTO 00000KT 5SM BR CLR 20/19 A3007 RMK AO2 
     T02040194=
METAR KGYH 080835Z AUTO 00000KT 10SM CLR 24/19 A3001 RMK AO2=
METAR KHFJ 080835Z AUTO 00000KT 10SM SCT020 BKN040 OVC050 23/22 
     A3003 RMK AO1=
METAR KHQI 080835Z AUTO 10025KT 6SM HZ FEW031 BKN075 OVC110 27/24
     A2988 RMK A01=
METAR KHXD 080835Z AUTO 23006KT 10SM CLR 24/21 A2998 RMK AO2 P0000 
     =
SPECI KHYA 080838Z AUTO 15004KT 2SM BR OVC001 21/21 A3007 RMK AO2=
METAR KHYW 080835Z AUTO 00000KT 7SM BKN095 BKN120 24/23 A2993 RMK 
     AO2=
METAR KIPN 080835Z AUTO 09012KT 10SM /59 A2998 RMK A01=
SPECI KISW 080838Z AUTO 27004KT 10SM BKN005 21/20 A3000 RMK AO2 TSNO=
METAR KIWA 080837Z AUTO 01004KT 10SM CLR 32/04 A2979 RMK AO2=
METAR KJVL 080835Z AUTO 21004KT 10SM -DZ OVC080 22/20 A2999 RMK 
     AO2 T02220200=
METAR KJZI 080835Z AUTO 29008KT 10SM CLR 24/23 A2996 RMK A02 P000 
     =
METAR KLNL 080835Z AUTO 00000KT 10SM SCT012 BKN025 BKN031 19/18 
     A3003 RMK AO2 T01890182=
METAR KLUM 080835Z AUTO 28006KT 10SM CLR 19/18 A3003 RMK AO2=
METAR KMCJ 080835Z AUTO 11010KT 10SM CLR 27/24 A2989 RMK AO1 =
METAR KMDJ 080835Z AUTO 13015KT 10SM FEW019 OVC065 29/25 A2998 RMK
     A01=
METAR KMDZ 080835Z AUTO 00000KT 1 1/4SM BR BKN001 BKN006 19/18 
     A3001 RMK AO2=
METAR KMHR 080835Z AUTO 16005KT 10SM CLR 14/10 A2984 RMK AO1=
METAR KMIU 080835Z AUTO 12014KT 10SM FEW022 FEW036 SCT075 29/26
     A2980 RMK A01=
METAR KMRJ 080835Z AUTO 00000KT 10SM CLR 21/19 A3002 RMK AO2 
     T02050187=
METAR KMWC 080835Z AUTO 17005KT 7SM -RA SCT060 BKN090 OVC110 
     21/20 A3001 RMK AO2=
METAR KMYT 080835Z AUTO 15016KT 9SM CLR 28/24 A2995 RMK A01=
METAR KMZG 080835Z AUTO 00000KT 7SM FEW036 BKN047 BKN055 28/25
     A2981 RMK A01=
####018001589####
SARS18 KAWN 080800 RRI
METAR UAAA 080830Z 36004MPS 9999 FEW050CB BKN100 30/09 Q1013 WS RWY05
      88CLRD65 TEMPO TS=
METAR UACC 080830Z 30005MPS 250V360 CAVOK 23/03 Q1010 220/0070 NOSIG
      RMK QFE726/0968=
METAR UAFM 080830Z 32003MPS CAVOK 34/06 Q1013 NOSIG=
METAR UATE 080830Z 30005MPS 270V330 CAVOK 35/17 Q1010 300///70 NOSIG
      RMK QFE756/1008=
METAR UATT 080830Z 06010MPS 9999 NSC 32/04 Q1010 13CLRD70 NOSIG RMK
      QFE738/0984=
METAR UKKK 080830Z 29003MPS 9999 BKN015 22/18 Q1015 26CLRD70 NOSIG=
METAR UMGG 080830Z VRB02MPS 9999 SCT028 BKN100 24/18 Q1013 R28/190055
      NOSIG=
METAR UMMM 080830Z 29005MPS 9999 OVC016 18/15 Q1014 R30/290050 NOSIG
      RMK QFE741=
METAR UMMS 080830Z 28004MPS 260V320 9999 BKN012 19/16 Q1014 R31/D NOSIG=
METAR URKA 080830Z 05004MPS 9999 SCT026 27/18 Q1013 NOSIG RMK 065=
METAR URMM 080830Z 09004MPS 050V120 9999 SCT040 28/19 Q1013 NOSIG RMK
      / SC070=
METAR URSS 080830Z 28002MPS 240V310 9999 FEW040 27/21 Q1011 NOSIG RMK
      / QFE757 06CLRD70=
METAR UTAA 080830Z 11005MPS 060V150 9999 SKC 44/02 Q1008 NOSIG=
METAR UTDD 080830Z 14002MPS 9999 FEW066 36/01 Q1010 09CLRD70 NOSIG
      RMK QFE690/0920=
METAR UTSS 080830Z 08003MPS 9999 NSC 35/10 Q1011 R88/70D NOSIG=
METAR UUDD 080830Z 15004G10MPS 120V200 9999 SCT040 BKN200 27/16 Q1015
      NOSIG=
METAR UUEE 080830Z 17003MPS 100V230 9999 SCT050TCU BKN200 27/15 Q1015
      NOSIG=
METAR UUWW 080830Z 10002MPS 070V150 CAVOK 23/16 Q1015 06000070 NOSIG=
METAR VTBD 080830Z 27007KT 9999 FEW020CB BKN300 35/22 Q1005 CB SE NOSIG=
####018003735####
SAUS99 KWBC 080840
METAR
KELO 080833Z AUTO 00000KT 10SM CLR 13/13 A3002 RMK AO2=
KEVM 080832Z AUTO 27004KT 10SM CLR 15/13 A3002 RMK AO1=
KFBL 080834Z AUTO 30004KT 10SM CLR 18/16 A3009 RMK AO2=
KFFM 080833Z AUTO 20004KT 10SM CLR 15/14 A3008 RMK AO2=
KFFX 080835Z AUTO 19005KT 5SM BR BKN065 OVC075 22/22 A3002 RMK
     AO2=
KFGN 080834Z AUTO 26009KT 1SM DZ VV007 17/13 A2996 RMK AO2=
KFPK 080836Z AUTO 19003KT 7SM CLR 21/20 A3002 RMK AO2=
KFSE 080834Z AUTO 00000KT 10SM CLR 12/12 A3004 RMK AO2=
KFSO 080838Z AUTO 00000KT 5SM BR CLR 23/22 A3000 RMK AO2=
KGDB 080833Z AUTO 24005KT 10SM CLR 15/14 A3013 RMK AO2
     T01450142=
KGHW 080833Z AUTO 22006KT 10SM CLR 14/13 A3013 RMK AO2=
KGYL 080835Z AUTO 00000KT 10SM CLR 16/15 A3009 RMK AO2
     T01560146=
KHAF 080830Z AUTO 00000KT 7SM OVC008 12/10 A2995 RMK AO2=
KHAI 080835Z AUTO 00000KT 5SM BR SCT060 BKN065 22/21 A3004 RMK
     AO2=
KHCD 080832Z AUTO 27004KT 7SM CLR 14/13 A3010 RMK AO2
     T01380128=
KHCO 080834Z AUTO 19004KT 10SM CLR 12/12 A3004 RMK AO2=
KHZX 080831Z AUTO 00000KT 5SM CLR 13/12 A3007 RMK AO2=
KIKW 080834Z AUTO 3SM BR SCT065 22/21 A3000 RMK AO2 T02160205=
KIRS 080835Z AUTO 00000KT 7SM CLR 22/19 A3004 RMK AO2=
KJKJ 080834Z AUTO 23004KT 10SM CLR 16/15 A3006 RMK AO2=
KJMR 080838Z AUTO 31004KT 10SM CLR 15/13 A3008 RMK AO2=
KJYG 080835Z AUTO 00000KT 10SM CLR 17/17 A3013 RMK AO2=
KJYM 080835Z AUTO 00000KT 7SM CLR 21/19 A3006 RMK AO2=
KLCK 080835Z AUTO 00000KT 5SM BR CLR 22/21 A3006 RMK AO2
     T02240207=
KLJF 080832Z AUTO 28004KT 10SM CLR 18/17 A3011 RMK AO2=
KLVN 080829Z AUTO 30004KT 10SM CLR 18/17 A3007 RMK AO2=
KLWA 080836Z AUTO 25004KT 10SM SCT037 BKN050 BKN080 23/21 A3005
     RMK AO2=
KLXL 080834Z AUTO 00000KT 4SM BR CLR 12/11 A3008 RMK AO2=
KLYV 080838Z AUTO 00000KT 10SM CLR 14/13 A3016 RMK AO2=
KMDS 080825Z AUTO 28005KT 10SM CLR 15/14 A3016 RMK AO2=
KMGG 080835Z AUTO 28004KT 10SM CLR 16/16 A3010 RMK AO2
     T01610155=
KMGN 080835Z AUTO 00000KT 10SM SCT120 21/20 A2997 RMK AO2=
KMJQ 080832Z AUTO 28005KT 10SM CLR 15/14 A3014 RMK AO2=
KMOP 080834Z AUTO 27003KT 10SM SCT060 OVC120 23/23 A3001 RMK
     AO2=
KMOX 080830Z AUTO 25004KT 10SM CLR 16/14 A3007 RMK AO2=
KMRT 080833Z AUTO 00000KT 5SM CLR 21/19 A3011 RMK AO2
     T02060189=
KMVE 080834Z AUTO 30005KT 10SM CLR 17/16 A3010 RMK AO2=
KMWM 080833Z AUTO 26004KT 10SM CLR 14/14 A3013 RMK AO2=
KMWO 080835Z AUTO 00000KT 3SM BR CLR 20/20 A3008 RMK AO2=
KOEB 080835Z AUTO 00000KT 7SM CLR 23/20 A3005 RMK AO2=
KONA 080831Z AUTO 30003KT 7SM CLR 20/19 A3002 RMK AO2=
KOVL 080834Z AUTO 00000KT 7SM CLR 13/12 A3010 RMK AO2
     T01300115=
KOZW 080835Z AUTO 00000KT 7SM CLR 22/21 A3004 RMK AO2=
KPEX 080832Z AUTO 25004KT 7SM CLR 13/13 A3011 RMK AO2
     T01300129=
KPNM 080833Z AUTO 28003KT 10SM CLR 15/14 A3008 RMK AO2=
KPQN 080833Z AUTO 32004KT 10SM CLR 18/15 A3016 RMK AO2=
KPVB 080833Z AUTO 00000KT 7SM BKN003 20/19 A3003 RMK AO1
     T01990191=
KPWC 080833Z AUTO 00000KT 1/2SM FG OVC001 11/10 A3008 RMK AO2=
KRGK 080836Z AUTO 27003KT 10SM CLR 19/18 A3004 RMK AO2=
KRNP 080835Z AUTO 00000KT 10SM CLR 21/21 A3002 RMK AO2=
KROS 080835Z AUTO 28003KT 10SM CLR 16/15 A3007 RMK AO2
     T01560146=
KROX 080835Z AUTO 25005KT 10SM CLR 16/13 A3000 RMK AO2=
KRQB 080835Z AUTO 25005KT 10SM BKN080 OVC085 23/21 A3003 RMK
     AO2=
KRRT 080834Z AUTO 25005KT 10SM CLR 15/13 A3000 RMK AO2=
KRZN 080834Z AUTO 29004KT 10SM SCT047 18/16 A3005 RMK AO2
     T01810160=
KSAZ 080834Z AUTO 00000KT 10SM CLR 14/14 A3008 RMK AO2=
KSGS 080833Z AUTO 32006KT 10SM CLR 20/17 A3006 RMK AO2
     T01970165=
KSYN 080850Z AUTO 00000KT 10SM CLR 19/17 A3006 RMK AO2
     T01850167=
####018003735####
SAUS99 KWBC 080840 RRA
METAR
KTEW 080832Z AUTO 00000KT 7SM CLR 21/20 A3003 RMK AO2=
KTKC 080833Z AUTO 24006KT 10SM CLR 15/14 A3014 RMK AO2
     T01540135=
KTOB 080835Z AUTO 00000KT 10SM CLR 18/17 A3007 RMK AO2=
KTWM 080833Z AUTO 29003KT 10SM SCT060 17/14 A3000 RMK AO2=
KUKT 080830Z AUTO 00000KT 5SM CLR 21/20 A3003 RMK AO1=
KULM 080835Z AUTO 29005KT 10SM CLR 15/13 A3011 RMK AO2=
KUNI 080835Z AUTO 00000KT 5SM HZ CLR 22/17 A3007 RMK AO2
     T02170170=
KVES 080834Z AUTO 00000KT 5SM BR CLR 20/19 A3007 RMK AO2
     T02030192=
KVLL 080834Z AUTO 00000KT 10SM CLR 26/20 A3005 RMK AO2=
KVVV 080836Z AUTO 27004KT 10SM CLR 16/14 A3011 RMK AO2=
KY70 080835Z AUTO 29012G20KT 4SM RA SCT024 BKN049 OVC070 23/22
     A3004 RMK AO2 P0010 T02340218=
KOEO 080835Z AUTO 29003KT 10SM SCT042 18/17 A3007 RMK AO2=
KPBH 080835Z AUTO 00000KT 1/4SM FG OVC001 21/19 A3003 RMK AO2=
KPCZ 080835Z AUTO 27003KT 4SM BR OVC004 23/21 A2998 RMK AO2
     T02250210=
KPDC 080833Z AUTO 27004KT 10SM OVC006 22/21 A3001 RMK AO2
     T02240211=
KRCX 080835Z AUTO 31003KT 10SM CLR 19/18 A3003 RMK AO2
     T01910183=
KRNH 080836Z AUTO 29003KT 10SM CLR 18/17 A3006 RMK AO2
     T01770167=
KSCF 080840Z AUTO 14019KT 8SM SCT018 BKN023 29/26 A2990 RMK
     A01=
KSPF 080835Z AUTO 00000KT 10SM CLR 12/08 A3028 RMK AO2=
KVBS 080835Z AUTO 12023G29KT 10SM SCT020 BKN027 BKN038 29/25 A2992
     RMK A01=
KVNP 080835Z AUTO 12007G18KT 070V160 8SM 28/25 A2996 RMK A01=
KY63 080840Z AUTO 22005KT 10SM CLR 15/14 A3010 RMK AO2
     T01480141=
K14Y 080838Z AUTO 00000KT 7SM CLR 14/14 A3010 RMK AO2
     T01440142=
K4M9 080835Z AUTO 21004KT 8SM CLR 24/24 A3004 RMK AO2=
KAEJ 080835Z AUTO 00000KT 10SM OVC046 10/09 A3046 RMK AO2=
KBBF 080935Z AUTO 13023G31KT 8SM SCT024 BKN039 BKN055 29/26 A2980
     RMK A01=
KBQX 080835Z AUTO 12021KT 8SM FEW024 SCT049 BKN055 28/26 A2983 RMK
     A01=
KDCM 080835Z AUTO 28004KT 7SM CLR 24/22 A2999 RMK AO2=
KDLP 080835Z AUTO 130KT 10SM SCT017 29/25 A2998 RMK A01=
KEDU 080835Z AUTO 18006KT 10SM CLR 15/10 A2981 RMK AO1=
KEGV 080832Z AUTO 29005KT 10SM SCT002 SCT011 19/19 A3001 RMK AO2
     T01860187=
KEHC 080835Z AUTO 12025KT 7SM FEW042 29/26 A2991 RMK A01=
KEIR 080835Z AUTO VRB06G13KT 10SM FEW019 28/25 A2995 RMK A01=
KEMK 080835Z AUTO 14028G35KT 3SM BR FEW017 SCT032 BKN050 28/26
     A2985 RMK A01=
KETB 080832Z AUTO 00000KT 7SM SCT080 SCT095 SCT120 22/21 A2999 RMK
     AO2 T02150206=
KEZS 080835Z AUTO 25005KT 10SM OVC005 23/22 A2996 RMK AO2
     T02250215=
KGBK 080835Z AUTO 09011G20KT 10SM CLR 29/25 A2989 RMK A01=
KGLW 080833Z AUTO 00000KT 5SM BR CLR 20/19 A3007 RMK AO2
     T02040194=
KGYH 080835Z AUTO 00000KT 10SM CLR 24/19 A3001 RMK AO2=
KHFJ 080835Z AUTO 00000KT 10SM SCT020 BKN040 OVC050 23/22 A3003
     RMK AO1=
KHQI 080835Z AUTO 10025KT 6SM HZ FEW031 BKN075 OVC110 27/24 A2988
     RMK A01=
KHXD 080835Z AUTO 23006KT 10SM CLR 24/21 A2998 RMK AO2 P0000=
KHYW 080835Z AUTO 00000KT 7SM BKN095 BKN120 24/23 A2993 RMK
     AO2=
KIPN 080835Z AUTO 09012KT 10SM /59 A2998 RMK A01=
KIWA 080837Z AUTO 01004KT 10SM CLR 32/04 A2979 RMK AO2=
KJVL 080835Z AUTO 21004KT 10SM -DZ OVC080 22/20 A2999 RMK AO2
     T02220200=
KJZI 080835Z AUTO 29008KT 10SM CLR 24/23 A2996 RMK A02 P000=
KLNL 080835Z AUTO 00000KT 10SM SCT012 BKN025 BKN031 19/18 A3003
     RMK AO2 T01890182=
KLUM 080835Z AUTO 28006KT 10SM CLR 19/18 A3003 RMK AO2=
KMCJ 080835Z AUTO 11010KT 10SM CLR 27/24 A2989 RMK AO1=
KMDJ 080835Z AUTO 13015KT 10SM FEW019 OVC065 29/25 A2998 RMK
     A01=
KMDZ 080835Z AUTO 00000KT 1 1/4SM BR BKN001 BKN006 19/18 A3001 RMK
     AO2=
KMHR 080835Z AUTO 16005KT 10SM CLR 14/10 A2984 RMK AO1=
####018000413####
SAUS99 KWBC 080840 RRB
METAR
KMIU 080835Z AUTO 12014KT 10SM FEW022 FEW036 SCT075 29/26 A2980
     RMK A01=
KMRJ 080835Z AUTO 00000KT 10SM CLR 21/19 A3002 RMK AO2
     T02050187=
KMWC 080835Z AUTO 17005KT 7SM -RA SCT060 BKN090 OVC110 21/20 A3001
     RMK AO2=
KMYT 080835Z AUTO 15016KT 9SM CLR 28/24 A2995 RMK A01=
KMZG 080835Z AUTO 00000KT 7SM FEW036 BKN047 BKN055 28/25 A2981 RMK
     A01=
####018000458####
SPUS99 KWBC 080840
SPECI
KIJD 080837Z AUTO 00000KT 1/4SM FG VV001 23/23 A3005 RMK AO2=
KPKB 080838Z AUTO 00000KT 2 1/2SM BR CLR 21/19 A3010 RMK AO2
     TSNO=
KRSL 080838Z AUTO 36005KT 9SM OVC016 19/18 A3014 RMK AO2=
KRVS 080838Z 00000KT 1 3/4SM +TSRA BR OVC017 23/23 A3001 RMK AO2
     LTG DSNT NE AND SW P0042=
KHYA 080838Z AUTO 15004KT 2SM BR OVC001 21/21 A3007 RMK AO2=
KISW 080838Z AUTO 27004KT 10SM BKN005 21/20 A3000 RMK AO2 TSNO=
####018000677####
SARA36 RUMS 080830
METAR UWUU 080830Z 03003G08MPS 020V130 CAVOK 27/08 Q1016 82010060
NOSIG RMK QFE751/1001 MOD TURB 500-1600=
METAR USCC 080830Z 34007G11MPS 9999 SCT040 24/02 Q1014 NOSIG RMK
QFE740 27000070=
METAR USDD 080830Z 04009G12MPS CAVOK 17/02 Q1016 NOSIG RMK
QFE756/1008 SC060=
METAR USMU 080830Z 01006MPS 9999 -SHRA SCT022CB OVC066 11/10 Q1005
NOSIG RMK QFE748 09250345=
METAR USNN 080830Z 16005MPS P6000 SCT026 BKN200 18/11 Q1002 NOSIG RMK
QFE747 SC065=
METAR USRK 080830Z 34005MPS 6000 BKN013 OVC066 13/10 Q1002 NOSIG RMK
QFE746 351///55=
METAR USRR 080830Z 34004MPS 7000 OVC010 12/10 Q1003 TEMPO BKN005 RMK
QFE747 25////60=
METAR USSS 080830Z NIL=
####018000378####
SARA33 RUMS 080830
METAR UIAA 080830Z 15003MPS 9999 BKN050CB OVC200 29/08 Q1005 NOSIG
RMK QFE696 29CLRD70=
METAR UIBB 080830Z 06005MPS 9999 FEW033 BKN200 28/12 Q1005 NOSIG RMK
QFE711/0948 30CLRD60=
METAR UIII 080830Z 16004MPS CAVOK 21/13 Q1006 NOSIG RMK QFE712/0950
12CLRD60=
METAR UIUU 080830Z 21004MPS 160V280 9999 SCT040CB OVC100 23/13 Q1007
NOSIG RMK QFE711/0948=
####018000709####
SARS35 RUMS 080830
METAR USPP 080830Z 03003MPS 010V080 CAVOK 27/09 Q1016 NOSIG RMK
QFE751/1002 21090060=
METAR UWKD 080830Z NIL=
METAR UWKE 080830Z 00000MPS CAVOK 29/11 Q1016 NOSIG RMK QFE745/0993
22090070=
METAR UWKS 080830Z VRB02MPS CAVOK 33/11 Q1016 NOSIG RMK QFE747
SC0.60=
METAR UWLL 080830Z 09003MPS CAVOK 30/10 Q1016 NOSIG RMK QFE749/0999
SC065=
METAR UWLW 080830Z NIL=
METAR UWOR 080830Z NIL=
METAR UWOO 080830Z NIL=
METAR UWPP 080830Z 12004MPS 9999 SCT033CB BKN100 28/09 Q1014 NOSIG
RMK QFE746 11090060=
METAR UWSS 080830Z 03003MPS 9999 FEW050TCU BKN066 27/13 Q1015 NOSIG
RMK QFE749 120///60=
METAR UWWW 080830Z 04006MPS CAVOK 30/09 Q1016 NOSIG RMK QFE749/0998
05CLRD60 15//99//=
####018000483####
SARA31 RUMS 080830
METAR UEEE 080830Z 34002MPS 9999 SCT050CB BKN100 24/08 Q1007 NOSIG
RMK QFE747 2309//60=
METAR UELL 080830Z VRB02MPS 9999 VCTS BKN025CB OVC200 18/14 Q1010
NOSIG RMK QFE683 08CLRD70=
METAR UERP 080830Z 02005MPS 9999 SCT033CB BKN045 Q1014 NOSIG RMK
QFE716 35090065=
METAR UERR 080830Z 33004G07MPS 9999 FEW013 OVC018CB 14/14 Q1011 NOSIG
RMK QFE727 24290255=
METAR UESO 080830Z NIL=
METAR UEST 080830Z 12003MPS CAVOK 08/02 Q1016 NOSIG RMK QFE761
21000060=
####018000884####
SARS32 RUMS 080830
METAR URKA 080830Z 05004MPS 9999 SCT026 27/18 Q1013 NOSIG RMK  065=
METAR URKK 080830Z 07005G10MPS 040V100 9999 SCT030 SCT100 28/18 Q1013
NOSIG RMK QFE756 SC070=
METAR URKM 080830Z NIL=
METAR URML 080830Z 01004G09MPS 9999 SKC 31/20 Q1013 NOSIG RMK QFE759
/ 07=
METAR URMM 080830Z 09004MPS 050V120 9999 SCT040 28/19 Q1013 NOSIG RMK
/ SC070=
METAR URMN 080830Z 05001MPS 9999 SCT026 BKN110 27/20 Q1014 NOSIG RMK
/ QFE724 SC07=
METAR URMT 080830Z 07007MPS 9999 SCT020 26/17 Q1015 NOSIG RMK QFE721
SC07=
METAR URRR 080830Z 13003MPS 9999 FEW026 29/17 Q1014 NOSIG RMK SC070=
METAR URSS 080830Z 28002MPS 240V310 9999 FEW040 27/21 Q1011 NOSIG RMK
/ QFE757 06CLRD70=
METAR URWA 080830Z 02004MPS CAVOK 35/13 Q1011 NOSIG RMK SC07=
METAR URWI 080830Z 33001MPS CAVOK 29/17 Q1014 NOSIG RMK SC065=
METAR URWW 080830Z 31004MPS CAVOK 28/17 Q1014 NOSIG RMK SC070=
####018000531####
SARA32 RUMS 080830
METAR UHHH 080830Z 03004MPS 9999 BKN030CB OVC100 18/15 Q1010 NOSIG
RMK QFE751/1001 55090060=
METAR UHMA 080830Z NIL=
METAR UHMM 080830Z 24003MPS 9999 BKN008 OVC027 13/11 Q1016 TEMPO
BKN010 RMK QFE747 88010070 MT OBSC=
METAR UHMP 080830Z NIL=
METAR UHNN 080830Z NIL=
METAR UHPP 080830Z NIL=
METAR UHSH 080830Z NIL=
METAR UHSS 080830Z 16003MPS 9999 BKN021 14/12 Q1010 NOSIG RMK MT OBSC
QFE756/1009 19CLRD70=
METAR UHWW 080830Z 24005MPS 9999 BKN021 OVC070 19/16 Q1009 NOSIG RMK
QFE756/1008 75CLRD70=
####018000414####
SARS33 RUMS 080830
METAR ULLI 080830Z 12002MPS 070V150 CAVOK 30/17 Q1013 NOSIG=
METAR UUDD 080830Z 15004G10MPS 120V200 9999 SCT040 BKN200 27/16 Q1015
NOSIG=
METAR UUEE 080830Z 17003MPS 100V230 9999 SCT050TCU BKN200 27/15 Q1015
NOSIG=
METAR UUEM 080830Z NIL=
METAR UUWW 080830Z 10002MPS 070V150 CAVOK 23/16 Q1015 06000070 NOSIG=
METAR UUMO 080830Z VRB02MPS CAVOK 25/16 Q1015 NOSIG RMK QFE746/0995
SC060=
####018000685####
SARS31 RUMS 080830
METAR ULAA 080830Z 30003MPS 230V360 9999 FEW030TCU FEW/// 27/20 Q1015
NOSIG RMK QFE760/1013 SC070=
METAR ULKK 080830Z NIL=
METAR ULMM 080830Z 33004MPS 9999 BKN017CB 13/08 Q1017 NOSIG RMK
QFE756 32190060=
METAR ULOL 080830Z NIL=
METAR ULOO 080830Z VRB02MPS P6000 SCT033 BKN200 27/19 Q1012 NOSIG RMK
QFE755=
METAR ULWW 080830Z NIL=
METAR UMKK 080830Z 31005MPS P8000 SCT200 22/15 Q1019 NOSIG RMK QFE
763 SC07=
METAR UUBP 080830Z NIL=
METAR UUOB 080830Z NIL=
METAR UUOK 080830Z NIL=
METAR UUOO 080830Z 17002G05MPS 110V270 9999 SCT033 27/16 Q1014 NOSIG
RMK 13090070=
METAR UWGG 080830Z 09003MPS 060V140 8000 SKC 33/09 Q1016 NOSIG RMK
QFE755 18090070=
####018003726####
SAUS70 KWBC 080840
METAR
K1P1 080835Z AUTO 00000KT 1/2SM FG VV005 22/21 A3005 RMK AO2
     T02160205=
KBVU 080835Z AUTO 34005KT 10SM CLR 25/01 A2985 RMK AO2=
KE80 080835Z AUTO 28006KT 10SM CLR 19/10 A3023 RMK AO2
     T01910100=
KEDC 080835Z AUTO 09004KT BKN012 OVC017 25/24 A2996 RMK AO2=
KEIK 080835Z AUTO 20005KT 10SM CLR 13/12 A3030 RMK AO2=
KEOE 080835Z AUTO 21003KT 10SM CLR 22/21 A3003 RMK AO2=
KMAN 080835Z AUTO 13003KT 10SM CLR 15/08 A3003 RMK AO1=
KPVF 080835Z AUTO 00000KT 10SM CLR 22/12 A2994 RMK AO1=
KRBW 080835Z AUTO 27004KT 10SM CLR 23/20 A2997 RMK AO2=
KRCM 080835Z AUTO 00000KT 7SM SCT001 SCT008 OVC060 22/22 A3004 RMK
     AO2=
KSRR 080835Z AUTO 22005KT 10SM FEW047 13/12 A3035 RMK AO2=
KTME 080835Z AUTO 04006KT 5SM 25/25 A2992 RMK AO1=
KUOX 080835Z AUTO 00000KT 10SM CLR 22/21 A3008 RMK AO2=
K1A6 080835Z AUTO 00000KT 4SM BR CLR 21/21 A3009 RMK AO2=
K21D 080838Z AUTO 31004KT 10SM CLR 18/17 A3006 RMK AO2=
K4I3 080836Z AUTO 00000KT 10SM SCT060 20/19 A3009 RMK AO2=
KACB 080835Z AUTO 00000KT 10SM CLR 24/21 A2998 RMK AO2=
KACQ 080839Z AUTO 33003KT 7SM CLR 17/16 A3011 RMK AO2=
KADC 080837Z AUTO 24005KT 10SM CLR 13/12 A3008 RMK AO2=
KAEL 080831Z AUTO 32003KT 10SM CLR 18/17 A3008 RMK AO2=
KAIG 080835Z AUTO 30003KT 10SM SCT003 18/18 A2999 RMK AO2=
KAIT 080833Z AUTO 00000KT 3/4SM BR VV005 12/11 A3006 RMK AO2=
KANE 080835Z AUTO 00000KT 10SM 18/17 A3008 RMK AO2=
KARV 080832Z AUTO 32003KT 10SM SCT028 BKN036 19/18 A3002 RMK AO2
     T01870177=
KATW 080835Z AUTO 22008KT 7SM CLR 22/21 A2997 RMK AO2=
KAUM 080835Z AUTO 31004KT 10SM CLR 18/17 A3007 RMK AO2=
KBAX 080835Z AUTO 00000KT 4SM BR CLR 21/21 A3000 RMK AO2=
KBBB 080833Z AUTO 00000KT 10SM CLR 14/14 A3011 RMK AO2=
KBDH 080835Z AUTO 27004KT 10SM CLR 15/14 A3012 RMK AO2=
KBJI 080834Z AUTO 25008KT 10SM CLR 15/13 A3004 RMK AO2=
KBUU 080834Z AUTO 16003KT 7SM DZ OVC065 21/21 A3000 RMK AO2=
KBWP 080831Z AUTO 00000KT 10SM CLR 15/14 A3009 RMK AO1
     T01490135=
KCAD 080835Z AUTO 23007KT 10SM SCT100 22/20 A3003 RMK AO2=
KCBG 080835Z AUTO 00000KT 10SM CLR 16/14 A3007 RMK AO2=
KCFE 080835Z AUTO 27003KT 10SM CLR 18/16 A3009 RMK AO2
     T01760162=
KCFS 080835Z AUTO 00000KT 1/2SM FG VV005 21/21 A3001 RMK AO2=
KCKC 080835Z AUTO 30004KT 10SM CLR 16/13 A3003 RMK AO2=
KCKN 080835Z AUTO 27003KT 10SM CLR 14/12 A3004 RMK AO2=
KCMY 080834Z AUTO 00000KT 10SM CLR 20/19 A3002 RMK AO2
     T02000190=
KCNB 080838Z AUTO 24004KT 10SM CLR 16/13 A3013 RMK AO2
     T01570130=
KCOQ 080836Z AUTO 29004KT 10SM CLR 14/14 A3005 RMK AO2=
KCQM 080837Z AUTO 00000KT 10SM CLR 14/14 A3004 RMK AO2=
KCVH 080830Z AUTO 00000KT 10SM OVC012 12/11 A2993 RMK AO1=
KCWA 080835Z AUTO 33005KT 10SM CLR 19/19 A3000 RMK AO2
     T01920191=
KDRM 080836Z AUTO 16004KT 10SM OVC110 20/20 A2996 RMK AO2=
KDTL 080835Z AUTO 27006KT 10SM CLR 17/11 A3008 RMK AO2=
KDUH 080835Z AUTO 00000KT 7SM CLR 22/18 A3004 RMK AO2=
KDXX 080834Z AUTO 00000KT 10SM CLR 14/14 A3011 RMK AO2=
KDYT 080834Z AUTO 27007KT 10SM CLR 20/16 A3003 RMK AO2=
KEFK 080836Z AUTO 19003KT 4SM BR SCT055 SCT070 20/19 A3005 RMK
     AO2=
KEFT 080835Z AUTO 26005KT 10SM SCT070 OVC100 21/19 A3002 RMK AO2
     T02080193=
KELO 080833Z AUTO 00000KT 10SM CLR 13/13 A3002 RMK AO2=
KEVM 080832Z AUTO 27004KT 10SM CLR 15/13 A3002 RMK AO1=
KFBL 080834Z AUTO 30004KT 10SM CLR 18/16 A3009 RMK AO2=
KFFM 080833Z AUTO 20004KT 10SM CLR 15/14 A3008 RMK AO2=
KFFX 080835Z AUTO 19005KT 5SM BR BKN065 OVC075 22/22 A3002 RMK
     AO2=
KFGN 080834Z AUTO 26009KT 1SM DZ VV007 17/13 A2996 RMK AO2=
KFPK 080836Z AUTO 19003KT 7SM CLR 21/20 A3002 RMK AO2=
KFSE 080834Z AUTO 00000KT 10SM CLR 12/12 A3004 RMK AO2=
####018002942####
SAUS70 KWBC 080840 RRB
METAR
KPCZ 080835Z AUTO 27003KT 4SM BR OVC004 23/21 A2998 RMK AO2
     T02250210=
KPDC 080833Z AUTO 27004KT 10SM OVC006 22/21 A3001 RMK AO2
     T02240211=
KRCX 080835Z AUTO 31003KT 10SM CLR 19/18 A3003 RMK AO2
     T01910183=
KRNH 080836Z AUTO 29003KT 10SM CLR 18/17 A3006 RMK AO2
     T01770167=
KSPF 080835Z AUTO 00000KT 10SM CLR 12/08 A3028 RMK AO2=
KVBS 080835Z AUTO 12023G29KT 10SM SCT020 BKN027 BKN038 29/25 A2992
     RMK A01=
KVNP 080835Z AUTO 12007G18KT 070V160 8SM 28/25 A2996 RMK A01=
KY63 080840Z AUTO 22005KT 10SM CLR 15/14 A3010 RMK AO2
     T01480141=
K14Y 080838Z AUTO 00000KT 7SM CLR 14/14 A3010 RMK AO2
     T01440142=
K4M9 080835Z AUTO 21004KT 8SM CLR 24/24 A3004 RMK AO2=
KAEJ 080835Z AUTO 00000KT 10SM OVC046 10/09 A3046 RMK AO2=
KBBF 080935Z AUTO 13023G31KT 8SM SCT024 BKN039 BKN055 29/26 A2980
     RMK A01=
KBQX 080835Z AUTO 12021KT 8SM FEW024 SCT049 BKN055 28/26 A2983 RMK
     A01=
KDCM 080835Z AUTO 28004KT 7SM CLR 24/22 A2999 RMK AO2=
KDLP 080835Z AUTO 130KT 10SM SCT017 29/25 A2998 RMK A01=
KEGV 080832Z AUTO 29005KT 10SM SCT002 SCT011 19/19 A3001 RMK AO2
     T01860187=
KEHC 080835Z AUTO 12025KT 7SM FEW042 29/26 A2991 RMK A01=
KEIR 080835Z AUTO VRB06G13KT 10SM FEW019 28/25 A2995 RMK A01=
KEMK 080835Z AUTO 14028G35KT 3SM BR FEW017 SCT032 BKN050 28/26
     A2985 RMK A01=
KETB 080832Z AUTO 00000KT 7SM SCT080 SCT095 SCT120 22/21 A2999 RMK
     AO2 T02150206=
KEZS 080835Z AUTO 25005KT 10SM OVC005 23/22 A2996 RMK AO2
     T02250215=
KGLW 080833Z AUTO 00000KT 5SM BR CLR 20/19 A3007 RMK AO2
     T02040194=
KGYH 080835Z AUTO 00000KT 10SM CLR 24/19 A3001 RMK AO2=
KHFJ 080835Z AUTO 00000KT 10SM SCT020 BKN040 OVC050 23/22 A3003
     RMK AO1=
KHQI 080835Z AUTO 10025KT 6SM HZ FEW031 BKN075 OVC110 27/24 A2988
     RMK A01=
KHXD 080835Z AUTO 23006KT 10SM CLR 24/21 A2998 RMK AO2 P0000=
KHYW 080835Z AUTO 00000KT 7SM BKN095 BKN120 24/23 A2993 RMK
     AO2=
KIPN 080835Z AUTO 09012KT 10SM /59 A2998 RMK A01=
KIWA 080837Z AUTO 01004KT 10SM CLR 32/04 A2979 RMK AO2=
KJVL 080835Z AUTO 21004KT 10SM -DZ OVC080 22/20 A2999 RMK AO2
     T02220200=
KJZI 080835Z AUTO 29008KT 10SM CLR 24/23 A2996 RMK A02 P000=
KLNL 080835Z AUTO 00000KT 10SM SCT012 BKN025 BKN031 19/18 A3003
     RMK AO2 T01890182=
KLUM 080835Z AUTO 28006KT 10SM CLR 19/18 A3003 RMK AO2=
KMCJ 080835Z AUTO 11010KT 10SM CLR 27/24 A2989 RMK AO1=
KMDJ 080835Z AUTO 13015KT 10SM FEW019 OVC065 29/25 A2998 RMK
     A01=
KMDZ 080835Z AUTO 00000KT 1 1/4SM BR BKN001 BKN006 19/18 A3001 RMK
     AO2=
KMIU 080835Z AUTO 12014KT 10SM FEW022 FEW036 SCT075 29/26 A2980
     RMK A01=
KMRJ 080835Z AUTO 00000KT 10SM CLR 21/19 A3002 RMK AO2
     T02050187=
KMWC 080835Z AUTO 17005KT 7SM -RA SCT060 BKN090 OVC110 21/20 A3001
     RMK AO2=
KMZG 080835Z AUTO 00000KT 7SM FEW036 BKN047 BKN055 28/25 A2981 RMK
     A01=
####018000713####
SAUS80 KWBC 080840
METAR
KSNC 080835Z AUTO 00000KT M1/4SM FG OVC001 22/ A3006 RMK AO2 VSBY
     M1/4V5=
K29G 080834Z AUTO 00000KT 10SM BKN060 21/18 A3009 RMK AO2
     T02100184 PWINO=
KCLI 080835Z AUTO 22005KT 7SM OVC005 22/21 A2997 RMK AO2=
KDVK 080837Z AUTO 00000KT 5SM 21/19 A3008 RMK AO1=
KIKW 080834Z AUTO 3SM BR SCT065 22/21 A3000 RMK AO2 T02160205=
KLYV 080838Z AUTO 00000KT 10SM CLR 14/13 A3016 RMK AO2=
KROS 080835Z AUTO 28003KT 10SM CLR 16/15 A3007 RMK AO2
     T01560146=
KTKC 080833Z AUTO 24006KT 10SM CLR 15/14 A3014 RMK AO2
     T01540135=
KSCF 080840Z AUTO 14019KT 8SM SCT018 BKN023 29/26 A2990 RMK
     A01=
KMYT 080835Z AUTO 15016KT 9SM CLR 28/24 A2995 RMK A01=
####018000222####
SAXX60 KWBC 080840
METAR
KMRT 080833Z AUTO 00000KT 5SM CLR 21/19 A3011 RMK AO2
     T02060189=
KGBK 080835Z AUTO 09011G20KT 10SM CLR 29/25 A2989 RMK A01=
KMHR 080835Z AUTO 16005KT 10SM CLR 14/10 A2984 RMK AO1=
####018000610####
SPUS70 KWBC 080840
SPECI
KNSE 080829Z AUTO 00000KT 1/2SM FG VV004 23/21 A3002 RMK AO2 $=
KBRO 080837Z 34003KT 10SM -RA BKN016 BKN022 27/26 A2978 RMK AO2
     RAB08 P0000=
KIJD 080837Z AUTO 00000KT 1/4SM FG VV001 23/23 A3005 RMK AO2=
KPKB 080838Z AUTO 00000KT 2 1/2SM BR CLR 21/19 A3010 RMK AO2
     TSNO=
KRSL 080838Z AUTO 36005KT 9SM OVC016 19/18 A3014 RMK AO2=
KRVS 080838Z 00000KT 1 3/4SM +TSRA BR OVC017 23/23 A3001 RMK AO2
     LTG DSNT NE AND SW P0042=
KHYA 080838Z AUTO 15004KT 2SM BR OVC001 21/21 A3007 RMK AO2=
KISW 080838Z AUTO 27004KT 10SM BKN005 21/20 A3000 RMK AO2 TSNO=
####018000863####
SARA34 RUMS 080830
METAR UNAA 080830Z 01008MPS 9999 TS SCT026CB BKN100 16/13 Q1010 TEMPO
34010G15MPS 2000 TSRA RMK QFE735 202///55=
METAR UNBB 080830Z 18007MPS 9999 BKN030CB 17/07 Q1009 NOSIG RMK
QFE734=
METAR UNEE 080830Z 26008MPS 9999 SCT026 BKN200 19/08 Q1008 NOSIG RMK
QFE733 23CLRD60=
METAR UNKL 080830Z VRB02MPS 9999 -SHRA SCT010 BKN020CB OVC083 17/14
Q1009 NOSIG RMK QFE731 29////55=
METAR UNNT 080830Z 21003MPS 190V260 9999 BKN050CB BKN100 20/04 Q1007
NOSIG RMK QFE745/0994 25090070=
METAR UNOO 080830Z 29005MPS 9999 BKN023CB 14/09 Q1007 NOSIG 25CLRD06
RMK QFE747=
METAR UNWW 080830Z 29006MPS 9999 BKN026CB OVC130 21/09 Q1009 NOSIG
RMK QFE730 19CLRD70=
METAR USTR 080830Z 33008G11MPS CAVOK 21/02 Q1011 NOSIG RMK
QFE749/0998 30CLRD65=
METAR USHH 080830Z 33003G08MPS 280V010 8000 -SHRA BKN019CB OVC080
11/09 Q1008 NOSIG RMK QFE752 SC06=
####018000550####
SAAO32 GOOY 080830
METAR GABS 080830Z 23005KT CAVOK 27/23 Q1015 NOSIG=
METAR GGOV 080830Z NIL=
METAR GOOY 080830Z 16006KT 130V190 9999 SCT013 28/24 Q1012 NOSIG=
METAR DIAP 080830Z 27004KT 240V310 4000 -RA SCT005 BKN012 BKN080
25/24 Q1015 TEMPO 2000 RA BKN005 BKN012 OVC080=
METAR GQNN 080830Z 20009KT 180V240 6000 FEW010 27/23 Q1011 NOSIG=
METAR GQPP 080830Z NIL=
METAR GUCY 080830Z NIL=
METAR GVAC 080830Z NIL=
METAR GFLL 080830Z NIL=
METAR GBYD 080830Z NIL=
METAR GLRB 080830Z 04003KT 9999 SCT013 FEW024CB BKN100 25/23 Q1015
 CB-SW=
####018003696####
SAUS70 KWBC 080840 RRA
METAR
KFSO 080838Z AUTO 00000KT 5SM BR CLR 23/22 A3000 RMK AO2=
KGDB 080833Z AUTO 24005KT 10SM CLR 15/14 A3013 RMK AO2
     T01450142=
KGHW 080833Z AUTO 22006KT 10SM CLR 14/13 A3013 RMK AO2=
KGYL 080835Z AUTO 00000KT 10SM CLR 16/15 A3009 RMK AO2
     T01560146=
KHAF 080830Z AUTO 00000KT 7SM OVC008 12/10 A2995 RMK AO2=
KHAI 080835Z AUTO 00000KT 5SM BR SCT060 BKN065 22/21 A3004 RMK
     AO2=
KHCD 080832Z AUTO 27004KT 7SM CLR 14/13 A3010 RMK AO2
     T01380128=
KHCO 080834Z AUTO 19004KT 10SM CLR 12/12 A3004 RMK AO2=
KHZX 080831Z AUTO 00000KT 5SM CLR 13/12 A3007 RMK AO2=
KIRS 080835Z AUTO 00000KT 7SM CLR 22/19 A3004 RMK AO2=
KJKJ 080834Z AUTO 23004KT 10SM CLR 16/15 A3006 RMK AO2=
KJMR 080838Z AUTO 31004KT 10SM CLR 15/13 A3008 RMK AO2=
KJYG 080835Z AUTO 00000KT 10SM CLR 17/17 A3013 RMK AO2=
KJYM 080835Z AUTO 00000KT 7SM CLR 21/19 A3006 RMK AO2=
KLCK 080835Z AUTO 00000KT 5SM BR CLR 22/21 A3006 RMK AO2
     T02240207=
KLJF 080832Z AUTO 28004KT 10SM CLR 18/17 A3011 RMK AO2=
KLVN 080829Z AUTO 30004KT 10SM CLR 18/17 A3007 RMK AO2=
KLWA 080836Z AUTO 25004KT 10SM SCT037 BKN050 BKN080 23/21 A3005
     RMK AO2=
KLXL 080834Z AUTO 00000KT 4SM BR CLR 12/11 A3008 RMK AO2=
KMDS 080825Z AUTO 28005KT 10SM CLR 15/14 A3016 RMK AO2=
KMGG 080835Z AUTO 28004KT 10SM CLR 16/16 A3010 RMK AO2
     T01610155=
KMGN 080835Z AUTO 00000KT 10SM SCT120 21/20 A2997 RMK AO2=
KMJQ 080832Z AUTO 28005KT 10SM CLR 15/14 A3014 RMK AO2=
KMOP 080834Z AUTO 27003KT 10SM SCT060 OVC120 23/23 A3001 RMK
     AO2=
KMOX 080830Z AUTO 25004KT 10SM CLR 16/14 A3007 RMK AO2=
KMVE 080834Z AUTO 30005KT 10SM CLR 17/16 A3010 RMK AO2=
KMWM 080833Z AUTO 26004KT 10SM CLR 14/14 A3013 RMK AO2=
KMWO 080835Z AUTO 00000KT 3SM BR CLR 20/20 A3008 RMK AO2=
KOEB 080835Z AUTO 00000KT 7SM CLR 23/20 A3005 RMK AO2=
KONA 080831Z AUTO 30003KT 7SM CLR 20/19 A3002 RMK AO2=
KOVL 080834Z AUTO 00000KT 7SM CLR 13/12 A3010 RMK AO2
     T01300115=
KOZW 080835Z AUTO 00000KT 7SM CLR 22/21 A3004 RMK AO2=
KPEX 080832Z AUTO 25004KT 7SM CLR 13/13 A3011 RMK AO2
     T01300129=
KPNM 080833Z AUTO 28003KT 10SM CLR 15/14 A3008 RMK AO2=
KPQN 080833Z AUTO 32004KT 10SM CLR 18/15 A3016 RMK AO2=
KPVB 080833Z AUTO 00000KT 7SM BKN003 20/19 A3003 RMK AO1
     T01990191=
KPWC 080833Z AUTO 00000KT 1/2SM FG OVC001 11/10 A3008 RMK AO2=
KRGK 080836Z AUTO 27003KT 10SM CLR 19/18 A3004 RMK AO2=
KRNP 080835Z AUTO 00000KT 10SM CLR 21/21 A3002 RMK AO2=
KROX 080835Z AUTO 25005KT 10SM CLR 16/13 A3000 RMK AO2=
KRQB 080835Z AUTO 25005KT 10SM BKN080 OVC085 23/21 A3003 RMK
     AO2=
KRRT 080834Z AUTO 25005KT 10SM CLR 15/13 A3000 RMK AO2=
KRZN 080834Z AUTO 29004KT 10SM SCT047 18/16 A3005 RMK AO2
     T01810160=
KSAZ 080834Z AUTO 00000KT 10SM CLR 14/14 A3008 RMK AO2=
KSGS 080833Z AUTO 32006KT 10SM CLR 20/17 A3006 RMK AO2
     T01970165=
KTEW 080832Z AUTO 00000KT 7SM CLR 21/20 A3003 RMK AO2=
KTOB 080835Z AUTO 00000KT 10SM CLR 18/17 A3007 RMK AO2=
KTWM 080833Z AUTO 29003KT 10SM SCT060 17/14 A3000 RMK AO2=
KUKT 080830Z AUTO 00000KT 5SM CLR 21/20 A3003 RMK AO1=
KULM 080835Z AUTO 29005KT 10SM CLR 15/13 A3011 RMK AO2=
KUNI 080835Z AUTO 00000KT 5SM HZ CLR 22/17 A3007 RMK AO2
     T02170170=
KVES 080834Z AUTO 00000KT 5SM BR CLR 20/19 A3007 RMK AO2
     T02030192=
KVLL 080834Z AUTO 00000KT 10SM CLR 26/20 A3005 RMK AO2=
KVVV 080836Z AUTO 27004KT 10SM CLR 16/14 A3011 RMK AO2=
KY70 080835Z AUTO 29012G20KT 4SM RA SCT024 BKN049 OVC070 23/22
     A3004 RMK AO2 P0010 T02340218=
KOEO 080835Z AUTO 29003KT 10SM SCT042 18/17 A3007 RMK AO2=
KPBH 080835Z AUTO 00000KT 1/4SM FG OVC001 21/19 A3003 RMK AO2=
####018000104####
SAUS80 KWBC 080900
METAR
KSYN 080850Z AUTO 00000KT 10SM CLR 19/17 A3006 RMK AO2
     T01850167=
####018000090####
SAUZ31 UTTW 080830
METAR UTSS 080830Z 08003MPS 9999 NSC 35/10 Q1011
R88/CLRD70 NOSIG=
####018000090####
SAAF36 KWBC 080800 RRF
METAR
HKMO 080830Z 18014KT 9999 SCT024TCU 28/21 Q1019 NOSIG=
####018000095####
SAAL31 KWBC 080800 RRC
METAR
DABS 080830Z 32004KT CAVOK 27/13 Q1023=
DAUZ 080830Z NIL=
####018000190####
SAAO33 KWBC 080800 RRD
METAR
GBYD 080830Z NIL=
GFLL 080830Z NIL=
GGOV 080830Z NIL=
GLRB 080830Z 04003KT 9999 SCT013 FEW024CB BKN100 25/23 Q1015
     CB-SW=
GUCY 080830Z NIL=
####018000101####
SAAO32 KWBC 080800 RRD
METAR
GABS 080830Z 23005KT CAVOK 27/23 Q1015 NOSIG=
GQPP 080830Z NIL=
####018000096####
SAAW34 KWBC 080815 RRD
METAR
UTSS 080830Z 08003MPS 9999 NSC 35/10 Q1011 R88/CLRD70 NOSIG=
####018000240####
SAEE31 KWBC 080830 RRB
METAR
EPSC 080830Z 00000KT CAVOK 21/12 Q1022=
UMMM 080830Z 29005MPS 9999 OVC016 18/15 Q1014 R30/290050 NOSIG RMK
     QFE741=
UMMS 080830Z 28004MPS 260V320 9999 BKN012 19/16 Q1014 R31/CLRD//
     NOSIG=
####018000053####
SANT31 KWBC 080800 RRD
METAR
GVAC 080830Z NIL=
####018001860####
SARA31 KWBC 080800 RRH
METAR
UAFO 080830Z 29004MPS 9999 FEW050TCU 34/20 Q1018 NOSIG RMK
     QFEM685=
UEEE 080830Z 34002MPS 9999 SCT050CB BKN100 24/08 Q1007 NOSIG RMK
     QFE747 2309//60=
UHHH 080830Z 03004MPS 9999 BKN030CB OVC100 18/15 Q1010 NOSIG RMK
     QFE751/1001 55090060=
UHMA 080830Z NIL=
UHMM 080830Z 24003MPS 9999 BKN008 OVC027 13/11 Q1016 TEMPO BKN010
     RMK QFE747 88010070 MT OBSC=
UHMP 080830Z NIL=
UHPP 080830Z NIL=
UHSS 080830Z 16003MPS 9999 BKN021 14/12 Q1010 NOSIG RMK MT OBSC
     QFE756/1009 19CLRD70=
UHWW 080830Z 24005MPS 9999 BKN021 OVC070 19/16 Q1009 NOSIG RMK
     QFE756/1008 75CLRD70=
UIAA 080830Z 15003MPS 9999 BKN050CB OVC200 29/08 Q1005 NOSIG RMK
     QFE696 29CLRD70=
UIBB 080830Z 06005MPS 9999 FEW033 BKN200 28/12 Q1005 NOSIG RMK
     QFE711/0948 30CLRD60=
UIII 080830Z 16004MPS CAVOK 21/13 Q1006 NOSIG RMK QFE712/0950
     12CLRD60=
UIUU 080830Z 21004MPS 160V280 9999 SCT040CB OVC100 23/13 Q1007
     NOSIG RMK QFE711/0948=
ULAA 080830Z 30003MPS 230V360 9999 FEW030TCU FEW/// 27/20 Q1015
     NOSIG RMK QFE760/1013 SC070=
UMBB 080830Z 28003MPS 8000 NSC 18/12 Q1018 NOSIG=
UMGG 080830Z VRB02MPS 9999 SCT028 BKN100 24/18 Q1013 R28/190055
     NOSIG=
UMMM 080830Z 29005MPS 9999 OVC016 18/15 Q1014 R30/290050 NOSIG RMK
     QFE741=
UMMS 080830Z 28004MPS 260V320 9999 BKN012 19/16 Q1014 R31/CLRD//
     NOSIG=
UNAA 080830Z 01008MPS 9999 TS SCT026CB BKN100 16/13 Q1010 TEMPO
     34010G15MPS 2000 TSRA RMK QFE735 202///55=
UNNT 080830Z 21003MPS 190V260 9999 BKN050CB BKN100 20/04 Q1007
     NOSIG RMK QFE745/0994 25090070=
USNN 080830Z 16005MPS P6000 SCT026 BKN200 18/11 Q1002 NOSIG RMK
     QFE747 SC065=
UTSS 080830Z 08003MPS 9999 NSC 35/10 Q1011 R88/CLRD70 NOSIG=
UUEE 080830Z 17003MPS 100V230 9999 SCT050TCU BKN200 27/15 Q1015
     NOSIG=
####018000760####
SARS31 KWBC 080800 RRD
METAR
UELL 080830Z VRB02MPS 9999 VCTS BKN025CB OVC200 18/14 Q1010 NOSIG
     RMK QFE683 08CLRD70=
UEST 080830Z 12003MPS CAVOK 08/02 Q1016 NOSIG RMK QFE761
     21000060=
ULLI 080830Z 12002MPS 070V150 CAVOK 30/17 Q1013 NOSIG=
ULMM 080830Z 33004MPS 9999 BKN017CB 13/08 Q1017 NOSIG RMK QFE756
     32190060=
UOHH 080830Z 09002MPS 9999 FEW030 SCT/// 11/03 Q1023 NOSIG RMK
     QFE761 06090060=
UOOO 080830Z 02007G08MPS CAVOK 23/09 Q1010 NOSIG RMK QFE743
     010///60=
UUDD 080830Z 15004G10MPS 120V200 9999 SCT040 BKN200 27/16 Q1015
     NOSIG=
UUEE 080830Z 17003MPS 100V230 9999 SCT050TCU BKN200 27/15 Q1015
     NOSIG=
UUEM 080830Z NIL=
UUWW 080830Z 10002MPS 070V150 CAVOK 23/16 Q1015 06000070 NOSIG=
####018000802####
SARS32 KWBC 080800 RRB
METAR
URKA 080830Z 05004MPS 9999 SCT026 27/18 Q1013 NOSIG RMK уг 065=
URKK 080830Z 07005G10MPS 040V100 9999 SCT030 SCT100 28/18 Q1013
     NOSIG RMK QFE756 SC070=
URKM 080830Z NIL=
URMM 080830Z 09004MPS 050V120 9999 SCT040 28/19 Q1013 NOSIG RMK
     з/п SC070=
URMN 080830Z 05001MPS 9999 SCT026 BKN110 27/20 Q1014 NOSIG RMK з/п
     QFE724 SC07=
URMT 080830Z 07007MPS 9999 SCT020 26/17 Q1015 NOSIG RMK QFE721
     SC07=
URRR 080830Z 13003MPS 9999 FEW026 29/17 Q1014 NOSIG RMK SC070=
URSS 080830Z 28002MPS 240V310 9999 FEW040 27/21 Q1011 NOSIG RMK
     з/п QFE757 06CLRD70=
URWA 080830Z 02004MPS CAVOK 35/13 Q1011 NOSIG RMK SC07=
URWI 080830Z 33001MPS CAVOK 29/17 Q1014 NOSIG RMK SC065=
URWW 080830Z 31004MPS CAVOK 28/17 Q1014 NOSIG RMK SC070=
####018000754####
SARS33 KWBC 080800 RRB
METAR
USCC 080830Z 34007G11MPS 9999 SCT040 24/02 Q1014 NOSIG RMK QFE740
     27000070=
USDD 080830Z 04009G12MPS CAVOK 17/02 Q1016 NOSIG RMK QFE756/1008
     SC060=
USMU 080830Z 01006MPS 9999 -SHRA SCT022CB OVC066 11/10 Q1005 NOSIG
     RMK QFE748 09250345=
USNN 080830Z 16005MPS P6000 SCT026 BKN200 18/11 Q1002 NOSIG RMK
     QFE747 SC065=
USPP 080830Z 03003MPS 010V080 CAVOK 27/09 Q1016 NOSIG RMK
     QFE751/1002 21090060=
USRK 080830Z 34005MPS 6000 BKN013 OVC066 13/10 Q1002 NOSIG RMK
     QFE746 351///55=
USRR 080830Z 34004MPS 7000 OVC010 12/10 Q1003 TEMPO BKN005 RMK
     QFE747 25////60=
USSS 080830Z NIL=
USTR 080830Z 33008G11MPS CAVOK 21/02 Q1011 NOSIG RMK QFE749/0998
     30CLRD65=
####018001157####
SARS41 KWBC 080800 RRB
METAR
UUBP 080830Z NIL=
UUEE 080830Z 17003MPS 100V230 9999 SCT050TCU BKN200 27/15 Q1015
     NOSIG=
UUEM 080830Z NIL=
UUOO 080830Z 17002G05MPS 110V270 9999 SCT033 27/16 Q1014 NOSIG RMK
     13090070=
UUWW 080830Z 10002MPS 070V150 CAVOK 23/16 Q1015 06000070 NOSIG=
UUYH 0080830Z 24002MPS CAVOK 24/07 Q1017 NOSIG RMK QFE 751
     18CLRD60=
UUYS 080830Z 16003MPS CAVOK 20/07 Q1017 NOSIG RMK QFE756
     14CLRD60=
UUYY 080830Z VRB01MPS 9999 SCT026 29/15 Q1016 NOSIG 19CLRD61 RMK
     QFE753/1004=
UWGG 080830Z 09003MPS 060V140 8000 SKC 33/09 Q1016 NOSIG RMK
     QFE755 18090070=
UWKD 080830Z NIL=
UWKE 080830Z 00000MPS CAVOK 29/11 Q1016 NOSIG RMK QFE745/0993
     22090070=
UWLW 080830Z NIL=
UWOO 080830Z NIL=
UWPP 080830Z 12004MPS 9999 SCT033CB BKN100 28/09 Q1014 NOSIG RMK
     QFE746 11090060=
UWSS 080830Z 03003MPS 9999 FEW050TCU BKN066 27/13 Q1015 NOSIG RMK
     QFE749 120///60=
UWUU 080830Z 03003G08MPS 020V130 CAVOK 27/08 Q1016 82010060 NOSIG
     RMK QFE751/1001 MOD TURB 500-1600=
UWWW 080830Z 04006MPS CAVOK 30/09 Q1016 NOSIG RMK QFE749/0998
     05CLRD60 15//99//=
####018001343####
SAXX99 KWBC 080800 RRX
METAR
CZSM 080800Z AUTO 23002KT 11/08 RMK AO1 SLP130 T01080079 56005=
EPLL 080830Z 30006KT 270V330 9999 FEW043 19/08 Q1022=
UERP 080830Z 02005MPS 9999 SCT033CB BKN045 Q1014 NOSIG RMK QFE716
     35090065=
UERR 080830Z 33004G07MPS 9999 FEW013 OVC018CB 14/14 Q1011 NOSIG
     RMK QFE727 24290255=
UESO 080830Z NIL=
UHNN 080830Z NIL=
UHSH 080830Z NIL=
ULDD 080830Z NIL=
ULKK 080830Z NIL=
ULOL 080830Z NIL=
ULOO 080830Z VRB02MPS P6000 SCT033 BKN200 27/19 Q1012 NOSIG RMK
     QFE755=
ULWW 080830Z NIL=
UMKK 080830Z 31005MPS P8000 SCT200 22/15 Q1019 NOSIG RMK QFE 763
     SC07=
UNBB 080830Z 18007MPS 9999 BKN030CB 17/07 Q1009 NOSIG RMK
     QFE734=
UNEE 080830Z 26008MPS 9999 SCT026 BKN200 19/08 Q1008 NOSIG RMK
     QFE733 23CLRD60=
UNKL 080830Z VRB02MPS 9999 -SHRA SCT010 BKN020CB OVC083 17/14
     Q1009 NOSIG RMK QFE731 29////55=
UNOO 080830Z 29005MPS 9999 BKN023CB 14/09 Q1007 NOSIG 25CLRD06 RMK
     QFE747=
UNWW 080830Z 29006MPS 9999 BKN026CB OVC130 21/09 Q1009 NOSIG RMK
     QFE730 19CLRD70=
UOII 080830Z 11005MPS 9999 BKN040TCU 28/16 Q1005 NOSIG RMK QFE751
     30////60=
URML 080830Z 01004G09MPS 9999 SKC 31/20 Q1013 NOSIG RMK QFE759 з/п
     уг07=
UWLL 080830Z 09003MPS CAVOK 30/10 Q1016 NOSIG RMK QFE749/0999
     SC065=
UWOR 080830Z NIL=
####018000088####
SPUS42 KWBC 080840
SPECI
KBRO 080837Z 34003KT 10SM -RA BKN016 BKN022 27/26 A2978=
####018000101####
SAUS45 KPUB 080840
MTRLXV
SPECI KLXV 080838Z AUTO 00000KT 10SM OVC029 07/06 A3053 RMK AO2 TSNO
####018000092####
SAFR36 LFPW 080830 RRA
METAR LFJR 080830Z AUTO 16003KT 100V220 9999NDV NCD 27/13 Q1018=
####018000092####
SAUZ31 UTTW 080830
METAR UTSS 080830Z 08003MPS 9999 NSC 35/10 Q1011
R88/CLRD70 NOSIG=
####018000079####
SAUK34 EGGY 080820 RRD
METAR EGHQ 080820Z 21006KT 9999 FEW015 16/13 Q1019=
####018000089####
SAUK34 EGGY 080820 CCA
METAR COR EGHK 080820Z 14003KT 9999 FEW020 17/15 Q1018 NOSIG=
####018000902####
SARS32 RUMS 080830
METAR URKA 080830Z 05004MPS 9999 SCT026 27/18 Q1013 NOSIG RMK  065=
METAR URKK 080830Z 07005G10MPS 040V100 9999 SCT030 SCT100 28/18 Q1013
NOSIG RMK QFE756 SC070=
METAR URKM 080830Z NIL=
METAR URML 080830Z 01004G09MPS 9999 SKC 31/20 Q1013 NOSIG RMK QFE759
/ 07=
METAR URMM 080830Z 09004MPS 050V120 9999 SCT040 28/19 Q1013 NOSIG RMK
/ SC070=
METAR URMN 080830Z 05001MPS 9999 SCT026 BKN110 27/20 Q1014 NOSIG RMK
/ QFE724 SC07=
METAR URMT 080830Z 07007MPS 9999 SCT020 26/17 Q1015 NOSIG RMK QFE721
SC07=
METAR URRR 080830Z 13003MPS 9999 FEW026 29/17 Q1014 NOSIG RMK SC070=
METAR URSS 080830Z 28002MPS 240V310 9999 FEW040 27/21 Q1011 NOSIG RMK
/ QFE757 06CLRD70=
METAR URWA 080830Z 02004MPS CAVOK 35/13 Q1011 NOSIG RMK SC07=
METAR URWI 080830Z 33001MPS CAVOK 29/17 Q1014 NOSIG RMK SC065=
METAR URWW 080830Z 31004MPS CAVOK 28/17 Q1014 NOSIG RMK SC070=
####018000088####
SPUS72 KWBC 080840
SPECI
KBRO 080837Z 34003KT 10SM -RA BKN016 BKN022 27/26 A2978=
####018000087####
SAAL41 DAMM 080800 CCA
METAR COR DAUI 080800Z 06028KT 0400 BLSA VV/// 37/08 Q1012=
####018001321####
SAEU KAWN 080800 RRX
METAR LFRJ 080830Z AUTO VRB01KT 9999NDV OVC008/// 18/16 Q1019=
METAR LFST 080834Z VRB02KT CAVOK 25/12 Q1020 NOSIG=
METAR LIRX 080755Z 09004KT CAVOK 23/10 Q1018 RMK SKC VIS MIN 9999E
      VIS MAR 20 KM=
METAR LKTB 080830Z 33008KT 260V010 CAVOK 21/08 Q1023 NOSIG RMK REG
      QNH 1021=
METAR LPAZ 080830Z 28003KT 9999 FEW008 BKN016 BKN030 19/18 Q1024=
METAR LPFL 080830Z 21003KT 190V250 9999 SCT023 BKN045 22/17 Q1022=
METAR LPHR 080830Z 19003KT 9999 SCT015 SCT035 22/18 Q1023=
METAR LPPD 080830Z 27005KT 9999 FEW017 BKN027 20/15 Q1024=
METAR LRAR 080830Z 36008KT 330V050 9999 SCT024 19/15 Q1020=
METAR LRBC 080830Z 35010G25KT 330V030 9999 SCT031 22/15 Q1016=
METAR LRBM 080830Z VRB02KT 9999 FEW007 BKN011 16/16 Q1019 1019//95=
METAR LRCL 080830Z 27004KT 240V310 9999 SCT011 BKN015 OVC020 15/12
      Q1020 0821//95=
METAR LRCV 080830Z 36004KT 9999 SCT038 19/14 Q1017=
METAR LRIA 080830Z 33006KT 280V010 9999 FEW016 SCT034 22/16 Q1017=
METAR LROD 080830Z 03010KT 360V060 CAVOK 20/14 Q1020=
METAR LRSM 080830Z 02010KT 9999 SCT015 19/14 Q1020=
METAR LRSV 080830Z 32014KT 9999 BKN007 15/14 Q1018=
METAR LRTC 080830Z 35012KT 320V020 9999 FEW030CB BKN040 21/16 Q1014=
METAR LRTM 080830Z 24006KT 220V280 9999 SCT007 BKN016 BKN023 16/14
      Q1020 0719//95=
####018000475####
SPUS17 KAWN 080840 RRD
SPECI KDOV 080837Z AUTO 00000KT 2SM R01/5000VP6000FT BR CLR 24/24 A2998
      RMK AO2 VIS 3/4 RWY19 SLP155=
SPECI KDOV 080838Z AUTO 00000KT 1 3/4SM R01/5000VP6000FT BR CLR 24/24
      A2998 RMK AO2 VIS 1/2 RWY19 SLP155=
SPECI KHST 080833Z AUTO 07006KT 8SM -RA FEW006 SCT016 BKN023 27/25
      A2993 RMK AO2 RAB0822 FEW V SCT SLP136 $=
SPECI KLFI 080832Z 12005KT 9SM R08/5500VP6000FT BKN008 OVC150 26/24
      A2995 RMK AO2A SLP144 $=
####018000568####
SPNA35 KAWN 080840 RRD
SPECI KBRO 080837Z 34003KT 10SM -RA BKN016 BKN022 27/26 A2978 RMK AO2
      RAB08 P0000=
SPECI KDOV 080837Z AUTO 00000KT 2SM R01/5000VP6000FT BR CLR 24/24 A2998
      RMK AO2 VIS 3/4 RWY19 SLP155=
SPECI KDOV 080838Z AUTO 00000KT 1 3/4SM R01/5000VP6000FT BR CLR 24/24
      A2998 RMK AO2 VIS 1/2 RWY19 SLP155=
SPECI KHST 080833Z AUTO 07006KT 8SM -RA FEW006 SCT016 BKN023 27/25
      A2993 RMK AO2 RAB0822 FEW V SCT SLP136 $=
SPECI KLFI 080832Z 12005KT 9SM R08/5500VP6000FT BKN008 OVC150 26/24
      A2995 RMK AO2A SLP144 $=
####018001616####
SPZZ40 KAWN 080840 RRJ
SPECI CWSA 080829Z AUTO 23006KT 1/8SM BKN005 16/16 A3018=
SPECI CWSA 080832Z AUTO 22006KT 1/8SM BKN001 OVC005 16/16 A3018=
SPECI CWZZ 080836Z AUTO ///// 9SM OVC014 OVC069 11/ A2981=
SPECI CYPH 080834Z AUTO 24017KT 4SM OVC002 05/05 A2978=
SPECI CYPH 080836Z AUTO 24016KT 2 1/8SM OVC001 05/05 A2978 RMK VSBY
      VRBL 0.8V9.0=
SPECI CYPH 080838Z AUTO 24017KT 1 3/8SM VV001 05/05 A2978=
SPECI CYQA 080838Z AUTO 14002KT 2 1/4SM BR CLR 19/19 A3003 RMK SLP170
      DENSITY ALT 1400FT=
SPECI CYUA 080838Z AUTO 30009KT 9SM -UP OVC003 05/ A3008=
SPECI KDOV 080837Z AUTO 00000KT 2SM R01/5000VP6000FT BR CLR 24/24 A2998
      RMK AO2 VIS 3/4 RWY19 SLP155=
SPECI KDOV 080838Z AUTO 00000KT 1 3/4SM R01/5000VP6000FT BR CLR 24/24
      A2998 RMK AO2 VIS 1/2 RWY19 SLP155=
SPECI KEGI 080835Z AUTO 00000KT 1 3/4SM R18/1600V5500FT BR CLR 22/22
      A3002 RMK AO2 SLP165 $=
SPECI KEGI 080838Z AUTO 00000KT 1 1/4SM R18/1600V5500FT BR CLR 22/22
      A3002 RMK AO2 VIS 3/4V5 SLP165 $=
SPECI KLFI 080832Z 12005KT 9SM R08/5500VP6000FT BKN008 OVC150 26/24
      A2995 RMK AO2A SLP144 $=
SPECI KNSE 080829Z AUTO 00000KT 1/2SM FG VV004 23/21 A3002 RMK AO2
      $=
SPECI KNSE 080829Z AUTO 00000KT 1/2SM FG VV004 23/21 A3002 RMK AO2
      $=
PASV SP 0835 AWOS M90 BKN 10 49/48/0000/997=
SPECI PGUA 080835Z AUTO 09011KT 10SM BKN017 27/ A2988 RMK AO2 CIG 017V021
      BKN V SCT SLP099 VISNO RWY24L $=
SPECI SBFI 080836Z 18004KT 3000 1000S R14/P2000 BR FEW020 SCT100 15/14
      Q1015=
SPECI SBFI 080837Z 18004KT 1000 R14/1400 BR FEW020 SCT100 15/14 Q1015=
####018000140####
SAAK41 KNKA 080840
SPECI PAWD 080838Z AUTO 00000KT 2SM BR SCT003 BKN010 OVC055 10/09 
    A2997 RMK AO2 RAE00 CIG 007V011 P0000 TSNO=
####018000106####
SAIN90 VECC 080630
METAR VEBS 080630Z 19012KT 5000 HZ FEW020 FEW030CB SCT100 32/26 Q1007
    NOSIG=
####018000101####
SAUS46 KLOX 080840
MTR3A6
METAR K3A6 080930Z AUTO 36002KT 11/10 A2990 RMK AO1 SLP145 T01130102
####018000121####
SAMH31 PKWA 080840
METAR PKWA 080840Z AUTO 10015KT 3SM +RA SCT007 BKN013 OVC021 25/23 A2986 RMK AO2 P0012 T02520233=
####018000091####
SAFR36 LFPW 080830 RRA
METAR LFJR 080830Z AUTO 16003KT 100V220 9999NDV NCD 27/13 Q1018=
####018001976####
SAUS99 KWBC 080841
METAR
KFKA 080843Z AUTO 31005KT 4SM BR SCT033 19/19 A3007 RMK AO2
     T01900185=
KCVX 080835Z AUTO 18004KT 10SM SCT120 21/20 A2998 RMK AO2=
KFKS 080835Z AUTO 22006KT 10SM -DZ SCT085 BKN110 22/19 A2998 RMK
     AO2=
KSLH 080835Z AUTO 00000KT 10SM BKN120 21/21 A2996 RMK AO2=
KSJX 080836Z AUTO 23007KT 7SM SCT070 21/20 A2996 RMK AO2=
KLDM 080836Z AUTO 22005KT 10SM BKN110 22/21 A3000 RMK AO2=
KSAW 080839Z AUTO 31003KT 1SM BR OVC001 18/17 A2997 RMK AO2=
KGOV 080835Z AUTO 00000KT 4SM BR CLR 20/20 A3002 RMK AO2=
KPZQ 080835Z AUTO 23003KT 7SM CLR 22/22 A2998 RMK AO2=
KHYX 080835Z AUTO 18004KT 10SM CLR 22/20 A3000 RMK AO2=
KPHN 080836Z AUTO 00000KT 1/2SM FG VV005 20/19 A3002 RMK AO2=
KONZ 080837Z AUTO 00000KT 10SM SCT075 26/20 A3002 RMK AO2=
KISQ 080836Z AUTO 21006KT 1SM -RA OVC002 19/18 A2995 RMK AO2=
KRMY 080835Z AUTO 00000KT 10SM CLR 22/19 A3004 RMK AO2=
KOSC 080834Z AUTO 00000KT 7SM CLR 19/18 A3000 RMK AO2=
KTTF 080833Z AUTO 00000KT 10SM CLR 23/22 A3002 RMK AO2=
KAMN 080836Z AUTO 00000KT 5SM BR SCT065 BKN075 22/22 A3001 RMK
     AO2=
KMCD 080835Z AUTO 18003KT 7SM BKN110 21/18 A2997 RMK AO2=
KERY 080836Z AUTO 21003KT 10SM SCT019 BKN026 BKN090 19/19 A2996
     RMK AO2=
KDVP 080837Z AUTO 27003KT 10SM CLR 16/13 A3017 RMK AO2
     T01550132=
KCDD 080831Z AUTO 18003KT 7SM CLR 14/14 A3003 RMK AO2=
KFOZ 080833Z AUTO 00000KT 1/4SM FG OVC001 12/12 A3005 RMK AO2=
KAQP 080833Z AUTO 22003KT 10SM CLR 14/14 A3010 RMK AO2=
KETH 080834Z AUTO 23005KT 10SM CLR 16/14 A3010 RMK AO2=
KXVG 080836Z AUTO 00000KT 7SM CLR 12/11 A3005 RMK AO2=
KORB 080834Z AUTO 00000KT 10SM CLR 15/13 A3001 RMK AO2=
KMZH 080831Z AUTO 29004KT 10SM SCT100 15/14 A3004 RMK AO2=
KBFW 080833Z AUTO 00000KT 10SM SCT055 17/15 A3000 RMK AO2=
KVWU 080831Z AUTO 00000KT 10SM CLR 14/13 A3002 RMK AO2=
KOWA 080833Z AUTO 30003KT 10SM CLR 17/17 A3007 RMK AO2=
KCDA 080835Z AUTO 00000KT 4SM BR CLR 20/18 A3009 RMK AO2=
####018000088####
SAUK34 EGGY 080820 CCA
METAR COR EGHK 080820Z 14003KT 9999 FEW020 17/15 Q1018 NOSIG=
####018000086####
SAAL41 DAMM 080800 CCA
METAR COR DAUI 080800Z 06028KT 0400 BLSA VV/// 37/08 Q1012=
####018000142####
SPUS99 KWBC 080841
SPECI
PAWD 080838Z AUTO 00000KT 2SM BR SCT003 BKN010 OVC055 10/09 A2997
     RMK AO2 RAE00 CIG 007V011 P0000 TSNO=
####018000368####
SAEE31 LOWM 080830
METAR UACK 080830Z 32007G11MPS 9999 BKN053 FEW067 18/03 Q1011
02010070 NOSIG RMK QFE734=
METAR UACP 080830Z NIL=
METAR UAII 080830Z NIL=
METAR UADD 080830Z VRB03MPS 9999 NSC 33/03 Q1013 NOSIG RMK
QFE703/0938=
METAR UASK 080830Z 29004MPS 9999 SCT036 BKN100 22/11 Q1012
                   300/0060 NOSIG RMK QFE734=
METAR UASP 080830Z NIL=
####018000458####
SAID31 WIII 080830
METAR WIMM 080830Z 02007KT 7000 SCT017 33/23 Q1008 NOSIG= 
METAR WADD 080830Z 11003KT 9999 SCT018 29/25 Q1008 NOSIG= 
METAR WAAA 080830Z 18005KT 9999 SCT020 29/25 Q1008= 
METAR WIDD 080830Z 00000KT 9999 SCT017 30/24 Q1008= 
METAR WIII 080830Z 19006KT 160V240 8000 FEW019CB SCT02027/22 Q1009 RM
K VC PREC TO S AND CB TO SW NOSIG= 
METAR WARR 080830Z VRB02KT 9999 FEW020 FEW020CB 29/23 Q1008 NSG= 
METAR WIHH NIL=
METAR WABB NIL=
####018000078####
SAUK34 EGGY 080820 RRD
METAR EGHQ 080820Z 21006KT 9999 FEW015 16/13 Q1019=
####018001464####
SAAU31 YBBN 080830
METAR YPAD 080830Z 10005KT 9999 FEW045 11/08 Q1025=
METAR YBAS 080830Z AUTO 11008KT 9999NDV // NCD 14/07 Q1019=
METAR YBBN 080830Z 19008KT 9999 FEW040 BKN077 18/10 Q1020
NOSIG=
METAR YBCS 080830Z 16008KT 9999 FEW024 BKN045 24/20 Q1015=
METAR YSCB 080830Z 00000KT 9999 FEW050 07/03 Q1027
RMK USE TAF FOR ARRIVALS AFTER 0900Z
NOSIG=
METAR YPXM 080830Z NIL=
METAR YPCC 080830Z NIL=
METAR YCFS 080830Z AUTO 23011KT 9999NDV // SCT043 SCT058 OVC097 14/11
Q1022=
METAR YPDN 080830Z 03011KT CAVOK 28/20 Q1011=
METAR YBCG 080830Z NIL=
METAR YHID 080830Z AUTO 14012KT 9999NDV // SCT033 SCT039 BKN061 26/22
Q1012=
METAR YPJT 080830Z AUTO 31010KT 9999NDV // SCT029 SCT039 BKN054 16/12
Q0999=
METAR YPKU 080830Z AUTO 13005KT 9999NDV // NCD 27/15 Q1013=
METAR YPLM 080830Z AUTO 07002KT 9999NDV // OVC021 21/17 Q1008=
METAR YMML 080830Z 17005KT 9999 FEW030 BKN042 10/05 Q1028
NOSIG=
METAR YPPH 080830Z 36011KT 9000 VCSH FEW013 SCT042 FEW024TCU
15/14 Q0999
FM0830 33018G28KT 9999 -SHRA BKN020
INTER 0830/1130 27025G35KT 3000 +SHRA BKN010=
METAR YSSY 080830Z 21015KT 5000 SHRA FEW008 SCT020 BKN050 13/12
Q1026
RMK VIS REDUCED TO EAST AND SOUTH
FM0830 19015KT 9999 -SHRA SCT025 BKN040
INTER 0830/1130 5000 SHRA BKN010=
METAR YSTW 080830Z AUTO 17010KT 9999NDV // SCT043 BKN052 11/06 Q1023=
METAR YPTN 080830Z 11006KT CAVOK 27/15 Q1013=
METAR YBTL 080830Z 07007KT 9999 FEW030 BKN170 22/20 Q1016=
####018000385####
SARA35 RUMS 080830
METAR ULDD 080830Z NIL=
METAR UOHH 080830Z 09002MPS 9999 FEW030 SCT/// 11/03 Q1023 NOSIG RMK
QFE761 06090060=
METAR UOII 080830Z 11005MPS 9999 BKN040TCU 28/16 Q1005 NOSIG RMK
QFE751 30////60=
METAR UOOO 080830Z 02007G08MPS CAVOK 23/09 Q1010 NOSIG RMK QFE743
010///60=
METAR USCM 080830Z 35003MPS 230V050 9999 FEW050 25/02 Q1015 NOSIG
01090065 RMK QFE723=
####018000101####
SPAU32 YBBN 080839
SPECI YBCG 080839Z AUTO 20013KT 6000NDV // SCT024 BKN033 OVC105 15/13
Q1021=
####018001270####
SAAU32 YBBN 080830
METAR YAMB 080830Z 18009KT 9999 SCT050 BKN075 17/10 Q1021=
METAR YMAV 080830Z AUTO 13004KT 9999NDV // OVC050 10/07 Q1028=
METAR YBRM 080830Z 05007KT 9999 VCSH SCT037 BKN058 27/21 Q1010=
METAR YCIN 080830Z AUTO 10005KT //// // ////// 25/19 Q1011=
METAR YSDU 080830Z AUTO 11008KT 9999NDV // ////// 10/05 Q1025=
METAR YFRT 080830Z NIL=
METAR YGEL 080830Z 28021KT 3000 -SHRA BKN024 16/15 Q1003 RESHRA=
METAR YPGV 080830Z 14012KT 9999 BKN020 BKN350 25/21 Q1013=
METAR YBHM 080830Z NIL=
METAR YMHB 080830Z 00000KT CAVOK 04/02 Q1030=
METAR YPKG 080830Z AUTO 35010KT 9999NDV // SCT073 OVC088 19/04 Q1005=
METAR YMLT 080830Z AUTO 00000KT 9999NDV // OVC037 06/03 Q1029=
METAR YBMA 080830Z AUTO 14006KT 9999NDV // ////// 13/10 Q1019=
METAR YSNF 080830Z 10012KT 6000 -RA SCT010 BKN017 14/12 Q1017=
METAR YPEA 080830Z NIL=
METAR YPPD 080830Z AUTO 04014KT 9999NDV // BKN024 BKN030 OVC058 24/20
Q1009=
METAR YSRI 080830Z AUTO 00000KT 9999NDV // OVC045 12/11 Q1027=
METAR YBRK 080830Z 24003KT 9999 VCSH FEW005 BKN030 13/13 Q1019=
METAR YWLM 080830Z 23007KT 9999 SCT020 BKN045 12/11 Q1025
RMK USE TAF FOR ARRIVALS AFTER 1000Z
INTER 0830/1000 4000 SHRA BKN010=
METAR YPWR 080830Z AUTO 07006KT 9999NDV // NCD 11/M01 Q1023=
####018000086####
SAAL33 DAAA 080800 CCA
METAR COR DAUI 080800Z 06028KT 0400 BLSA VV/// 37/08 Q1012=
####018000076####
SPAK32 KWBC 080841
SPECI
PASV SP 0835 AWOS M90 BKN 10 49/48/0000/997=
####018000080####
SPPA41 KWBC 080841
SPECI
PGUA 080835Z AUTO 09011KT 10SM BKN017 27/ A2988=
####018000134####
SPPA31 KWBC 080841
SPECI
PGUA 080835Z AUTO 09011KT 10SM BKN017 27/ A2988 RMK AO2 CIG
017V021 BKN V SCT SLP099 VISNO RWY24L $=
####018000104####
SPUS41 KWBC 080841
SPECI
KDOV 080838Z AUTO 00000KT 1 3/4SM R01/5000VP6000FT BR CLR 24/24
A2998=
####018000098####
SPUS41 KWBC 080841
SPECI
KDOV 080837Z AUTO 00000KT 2SM R01/5000VP6000FT BR CLR 24/24 A2998=
####018000821####
SAUS20 KNKA 080840
SPECI KBED 080839Z AUTO 16004KT 5SM BR OVC015 24/22 A3004 RMK AO2=
SPECI KFWN 080839Z AUTO 00000KT 2 1/2SM BR CLR 21/20 A3003 RMK AO2=
METAR KRPD 080834Z AUTO 30003KT 10SM CLR 19/17 A3004 RMK AO2 
     T01850171=
METAR KRRL 080835Z AUTO 00000KT 5SM BR CLR 18/17 A3002 RMK AO2 
     T01750171=
METAR KRYV 080835Z AUTO 00000KT 10SM -RA SCT012 OVC090 23/21 
     A3000 RMK AO2=
METAR KSTE 080835Z AUTO 26003KT 7SM BKN006 BKN009 22/21 A2999 RMK 
     AO2=
METAR KSUW 080835Z AUTO 27004KT 10SM CLR 18/15 A3002 RMK AO2=
METAR KTKV 080835Z AUTO 28003KT 1/4SM FG OVC001 17/17 A3002 RMK 
     AO2 T01710165=
METAR KUES 080835Z AUTO 16006KT 7SM -RA OVC095 21/20 A3000 RMK 
     AO2 T02120198=
METAR KUNU 080832Z AUTO 19004KT 7SM RA BKN008 21/20 A3001 RMK AO2 
     T02100196=
####018000081####
SPUS52 KWBC 080841
SPECI
KRSL 080838Z AUTO 36005KT 9SM OVC016 19/18 A3014=
####018000082####
SPUS53 KWBC 080841
SPECI
KLXV 080838Z AUTO 00000KT 10SM OVC029 07/06 A3053=
####018000075####
SPCN44 CWAO 080840
SPECI CYUS 080840Z AUTO ///// 9SM CLR 11/ A2980=

####018000082####
SPUS81 KWBC 080841
SPECI
KLXV 080838Z AUTO 00000KT 10SM OVC029 07/06 A3053=
####018000321####
SAUS20 KNKA 080841
METAR KBWD 080835Z AUTO 00000KT 10SM CLR 23/22 A3000 RMK AO2 =
SPECI KLFI 080832Z 12005KT 9SM R08/5500VP6000FT BKN008 OVC150 26/24
      A2995 RMK AO2A SLP144 $=
METAR KO22 080835Z AUTO 00000KT 10SM CLR 17/12 A2991 RMK AO1 =
SPECI KTKI 080838Z AUTO 18007KT 10SM SCT019 26/23 A3000 RMK AO2=
####018000089####
SPCN48 CWAO 080839
SPECI CYMH 080839Z AUTO 18005KT 9SM FEW003 FEW034 07/06 A3011=

####018001465####
SAAU31 YBBN 080830
METAR YPAD 080830Z 10005KT 9999 FEW045 11/08 Q1025=
METAR YBAS 080830Z AUTO 11008KT 9999NDV // NCD 14/07 Q1019=
METAR YBBN 080830Z 19008KT 9999 FEW040 BKN077 18/10 Q1020
NOSIG=
METAR YBCS 080830Z 16008KT 9999 FEW024 BKN045 24/20 Q1015=
METAR YSCB 080830Z 00000KT 9999 FEW050 07/03 Q1027
RMK USE TAF FOR ARRIVALS AFTER 0900Z
NOSIG=
METAR YPXM 080830Z NIL=
METAR YPCC 080830Z NIL=
METAR YCFS 080830Z AUTO 23011KT 9999NDV // SCT043 SCT058 OVC097 14/11
Q1022=
METAR YPDN 080830Z 03011KT CAVOK 28/20 Q1011=
METAR YBCG 080830Z NIL=
METAR YHID 080830Z AUTO 14012KT 9999NDV // SCT033 SCT039 BKN061 26/22
Q1012=
METAR YPJT 080830Z AUTO 31010KT 9999NDV // SCT029 SCT039 BKN054 16/12
Q0999=
METAR YPKU 080830Z AUTO 13005KT 9999NDV // NCD 27/15 Q1013=
METAR YPLM 080830Z AUTO 07002KT 9999NDV // OVC021 21/17 Q1008=
METAR YMML 080830Z 17005KT 9999 FEW030 BKN042 10/05 Q1028
NOSIG=
METAR YPPH 080830Z 36011KT 9000 VCSH FEW013 SCT042 FEW024TCU
15/14 Q0999
FM0830 33018G28KT 9999 -SHRA BKN020
INTER 0830/1130 27025G35KT 3000 +SHRA BKN010=
METAR YSSY 080830Z 21015KT 5000 SHRA FEW008 SCT020 BKN050 13/12
Q1026
RMK VIS REDUCED TO EAST AND SOUTH
FM0830 19015KT 9999 -SHRA SCT025 BKN040
INTER 0830/1130 5000 SHRA BKN010=
METAR YSTW 080830Z AUTO 17010KT 9999NDV // SCT043 BKN052 11/06 Q1023=
METAR YPTN 080830Z 11006KT CAVOK 27/15 Q1013=
METAR YBTL 080830Z 07007KT 9999 FEW030 BKN170 22/20 Q1016=
####018000377####
SAEE31 LOWM 080830
METAR UACK 080830Z 32007G11MPS 9999 BKN053 FEW067 18/03 Q1011
02010070 NOSIG RMK QFE734=
METAR UACP 080830Z NIL=
METAR UAII 080830Z NIL=
METAR UADD 080830Z VRB03MPS 9999 NSC 33/03 Q1013 NOSIG RMK
QFE703/0938=
METAR UASK 080830Z 29004MPS 9999 SCT036 BKN100 22/11 Q1012
                   300/0060 NOSIG RMK QFE734=
METAR UASP 080830Z NIL=
####018000165####
SAID33 WIII 080830
METAR WABP NIL=
METAR WAJJ NIL=
METAR WAKK NIL=
METAR WAPP NIL=
METAR WARS NIL=
METAR WIAT NIL=
METAR WATT NIL=
METAR WALR NIL=
####018000353####
SAID32 WIII 080830
METAR WAMM 080830Z 35003KT 9999 FEW025 28/24 Q1008 NOSIG= 
METAR WIPT 080830Z VRB02KT 9999 FEW020TCU 29/23 Q1009= 
METAR WIOO 080830Z 26005KT 9999 SCT012 29/25 Q1009 NOSIG = 
METAR WALL 080830Z 00000KT 9999 FEW020 31/27 Q1007 NOSIG= 
METAR WIBB NIL=
METAR WIKN NIL=
METAR WIPP NIL=
METAR WAOO NIL=
METAR WADA NIL=
####018000467####
SAID31 WIII 080830
METAR WIMM 080830Z 02007KT 7000 SCT017 33/23 Q1008 NOSIG= 
METAR WADD 080830Z 11003KT 9999 SCT018 29/25 Q1008 NOSIG= 
METAR WAAA 080830Z 18005KT 9999 SCT020 29/25 Q1008= 
METAR WIDD 080830Z 00000KT 9999 SCT017 30/24 Q1008= 
METAR WIII 080830Z 19006KT 160V240 8000 FEW019CB SCT02027/22 Q1009 RM
K VC PREC TO S AND CB TO SW NOSIG= 
METAR WARR 080830Z VRB02KT 9999 FEW020 FEW020CB 29/23 Q1008 NSG= 
METAR WIHH NIL=
METAR WABB NIL=
####018000102####
SPAU32 YBBN 080839
SPECI YBCG 080839Z AUTO 20013KT 6000NDV // SCT024 BKN033 OVC105 15/13
Q1021=
####018001271####
SAAU32 YBBN 080830
METAR YAMB 080830Z 18009KT 9999 SCT050 BKN075 17/10 Q1021=
METAR YMAV 080830Z AUTO 13004KT 9999NDV // OVC050 10/07 Q1028=
METAR YBRM 080830Z 05007KT 9999 VCSH SCT037 BKN058 27/21 Q1010=
METAR YCIN 080830Z AUTO 10005KT //// // ////// 25/19 Q1011=
METAR YSDU 080830Z AUTO 11008KT 9999NDV // ////// 10/05 Q1025=
METAR YFRT 080830Z NIL=
METAR YGEL 080830Z 28021KT 3000 -SHRA BKN024 16/15 Q1003 RESHRA=
METAR YPGV 080830Z 14012KT 9999 BKN020 BKN350 25/21 Q1013=
METAR YBHM 080830Z NIL=
METAR YMHB 080830Z 00000KT CAVOK 04/02 Q1030=
METAR YPKG 080830Z AUTO 35010KT 9999NDV // SCT073 OVC088 19/04 Q1005=
METAR YMLT 080830Z AUTO 00000KT 9999NDV // OVC037 06/03 Q1029=
METAR YBMA 080830Z AUTO 14006KT 9999NDV // ////// 13/10 Q1019=
METAR YSNF 080830Z 10012KT 6000 -RA SCT010 BKN017 14/12 Q1017=
METAR YPEA 080830Z NIL=
METAR YPPD 080830Z AUTO 04014KT 9999NDV // BKN024 BKN030 OVC058 24/20
Q1009=
METAR YSRI 080830Z AUTO 00000KT 9999NDV // OVC045 12/11 Q1027=
METAR YBRK 080830Z 24003KT 9999 VCSH FEW005 BKN030 13/13 Q1019=
METAR YWLM 080830Z 23007KT 9999 SCT020 BKN045 12/11 Q1025
RMK USE TAF FOR ARRIVALS AFTER 1000Z
INTER 0830/1000 4000 SHRA BKN010=
METAR YPWR 080830Z AUTO 07006KT 9999NDV // NCD 11/M01 Q1023=
####018000492####
SAZZ40 KAWN 080800 RRT
METAR COR DAUI 080800Z 06028KT 0400 BLSA VV/// 37/08 Q1012=
METAR KFMH 080835Z AUTO 16008KT 5SM BR OVC002 21/21 A3008 RMK AO2=
METAR UACC 080830Z 30005MPS 250V360 CAVOK 23/03 Q1010 220/0070 NOSIG
      RMK QFE726/0968=
METAR UAFM 080830Z 32003MPS CAVOK 34/06 Q1013 NOSIG=
METAR UATT 080830Z 06010MPS 9999 NSC 32/04 Q1010 13CLRD70 NOSIG RMK
      QFE738/0984=
METAR UUYY 080830Z VRB01MPS 9999 SCT026 29/15 Q1016 NOSIG 19CLRD61
      RMK QFE753/1004=
####018000271####
SAXN17 KAWN 080800 RRH
METAR PKWA 080840Z AUTO 10015KT 3SM +RA SCT007 BKN013 OVC021 25/23
      A2986 RMK AO2 P0012 T02520233=
METAR YBBN 080830Z 19008KT 9999 FEW040 BKN077 18/10 Q1020 NOSIG=
METAR ZGGG 080830Z 15005MPS 9999 FEW050TCU SCT050 36/26 Q1004 NOSIG=
####018000218####
SPUS90 KWBC 080842
SPECI KLXV 080838Z AUTO 00000KT 10SM OVC029 07/06 A3053 RMK AO2
     TSNO=
SPECI KNGP 080840Z AUTO 09009G18KT 3SM RA BR FEW016 SCT035 BKN055
     28/27 A2981 RMK AO2 TSB18E34RAB37 P0001 $=
####018002303####
SAUS90 KWBC 080842
METAR KFKA 080843Z AUTO 31005KT 4SM BR SCT033 19/19 A3007 RMK AO2
     T01900185=
METAR KCVX 080835Z AUTO 18004KT 10SM SCT120 21/20 A2998 RMK
     AO2=
METAR KFKS 080835Z AUTO 22006KT 10SM -DZ SCT085 BKN110 22/19 A2998
     RMK AO2=
METAR KSLH 080835Z AUTO 00000KT 10SM BKN120 21/21 A2996 RMK
     AO2=
METAR KSJX 080836Z AUTO 23007KT 7SM SCT070 21/20 A2996 RMK AO2=
METAR KLDM 080836Z AUTO 22005KT 10SM BKN110 22/21 A3000 RMK
     AO2=
METAR KSAW 080839Z AUTO 31003KT 1SM BR OVC001 18/17 A2997 RMK
     AO2=
METAR KGOV 080835Z AUTO 00000KT 4SM BR CLR 20/20 A3002 RMK AO2=
METAR KPZQ 080835Z AUTO 23003KT 7SM CLR 22/22 A2998 RMK AO2=
METAR KHYX 080835Z AUTO 18004KT 10SM CLR 22/20 A3000 RMK AO2=
METAR KPHN 080836Z AUTO 00000KT 1/2SM FG VV005 20/19 A3002 RMK
     AO2=
METAR KONZ 080837Z AUTO 00000KT 10SM SCT075 26/20 A3002 RMK
     AO2=
METAR KISQ 080836Z AUTO 21006KT 1SM -RA OVC002 19/18 A2995 RMK
     AO2=
METAR KRMY 080835Z AUTO 00000KT 10SM CLR 22/19 A3004 RMK AO2=
METAR KOSC 080834Z AUTO 00000KT 7SM CLR 19/18 A3000 RMK AO2=
METAR KTTF 080833Z AUTO 00000KT 10SM CLR 23/22 A3002 RMK AO2=
METAR KAMN 080836Z AUTO 00000KT 5SM BR SCT065 BKN075 22/22 A3001
     RMK AO2=
METAR KMCD 080835Z AUTO 18003KT 7SM BKN110 21/18 A2997 RMK AO2=
METAR KERY 080836Z AUTO 21003KT 10SM SCT019 BKN026 BKN090 19/19
     A2996 RMK AO2=
METAR KDVP 080837Z AUTO 27003KT 10SM CLR 16/13 A3017 RMK AO2
     T01550132=
METAR KCDD 080831Z AUTO 18003KT 7SM CLR 14/14 A3003 RMK AO2=
METAR KFOZ 080833Z AUTO 00000KT 1/4SM FG OVC001 12/12 A3005 RMK
     AO2=
METAR KAQP 080833Z AUTO 22003KT 10SM CLR 14/14 A3010 RMK AO2=
METAR KETH 080834Z AUTO 23005KT 10SM CLR 16/14 A3010 RMK AO2=
METAR KXVG 080836Z AUTO 00000KT 7SM CLR 12/11 A3005 RMK AO2=
METAR KORB 080834Z AUTO 00000KT 10SM CLR 15/13 A3001 RMK AO2=
METAR KMZH 080831Z AUTO 29004KT 10SM SCT100 15/14 A3004 RMK
     AO2=
METAR KBFW 080833Z AUTO 00000KT 10SM SCT055 17/15 A3000 RMK
     AO2=
METAR KVWU 080831Z AUTO 00000KT 10SM CLR 14/13 A3002 RMK AO2=
METAR KOWA 080833Z AUTO 30003KT 10SM CLR 17/17 A3007 RMK AO2=
METAR KCDA 080835Z AUTO 00000KT 4SM BR CLR 20/18 A3009 RMK AO2=
METAR K3A6 080930Z AUTO 36002KT 11/10 A2990 RMK AO1 SLP145
     T01130102=
####018000075####
SAMA21 FIMP 080800
METAR FIMR 080800Z 12018KT 9999 SCT018 26/17 Q1021=
####018000069####
SAYE20 OYAT 080800
METAR OYAT 080800Z 13007KT CAVOK 35/15 Q1002=
####018000143####
SAUS44 KCRP 080841
MTRNGP
SPECI KNGP 080840Z AUTO 09009G18KT 3SM RA BR FEW016 SCT035 BKN055 
28/27 A2981 RMK AO2 TSB18E34RAB37 P0001 $
####018000751####
SAUS99 KWBC 080842
METAR
KRPD 080834Z AUTO 30003KT 10SM CLR 19/17 A3004 RMK AO2
     T01850171=
KRRL 080835Z AUTO 00000KT 5SM BR CLR 18/17 A3002 RMK AO2
     T01750171=
KRYV 080835Z AUTO 00000KT 10SM -RA SCT012 OVC090 23/21 A3000 RMK
     AO2=
KSTE 080835Z AUTO 26003KT 7SM BKN006 BKN009 22/21 A2999 RMK
     AO2=
KSUW 080835Z AUTO 27004KT 10SM CLR 18/15 A3002 RMK AO2=
KTKV 080835Z AUTO 28003KT 1/4SM FG OVC001 17/17 A3002 RMK AO2
     T01710165=
KUES 080835Z AUTO 16006KT 7SM -RA OVC095 21/20 A3000 RMK AO2
     T02120198=
KUNU 080832Z AUTO 19004KT 7SM RA BKN008 21/20 A3001 RMK AO2
     T02100196=
KBWD 080835Z AUTO 00000KT 10SM CLR 23/22 A3000 RMK AO2=
KO22 080835Z AUTO 00000KT 10SM CLR 17/12 A2991 RMK AO1=
####018000313####
SPUS99 KWBC 080842
SPECI
KBED 080839Z AUTO 16004KT 5SM BR OVC015 24/22 A3004 RMK AO2=
KFWN 080839Z AUTO 00000KT 2 1/2SM BR CLR 21/20 A3003 RMK AO2=
KLFI 080832Z 12005KT 9SM R08/5500VP6000FT BKN008 OVC150 26/24
     A2995 RMK AO2A SLP144 $=
KTKI 080838Z AUTO 18007KT 10SM SCT019 26/23 A3000 RMK AO2=
####018000083####
SASN33 ESWI 080820 RRA
METAR ESNG 080820Z 15009KT 9999 FEW056 19/09 Q1014 RERA=
####018000095####
SPUS80 KWBC 080842
SPECI
KLXV 080838Z AUTO 00000KT 10SM OVC029 07/06 A3053 RMK AO2 TSNO=
####018000704####
SPXX60 KWBC 080842
SPECI
KDOV 080837Z AUTO 00000KT 2SM R01/5000VP6000FT BR CLR 24/24 A2998
     RMK AO2 VIS 3/4 RWY19 SLP155=
KDOV 080838Z AUTO 00000KT 1 3/4SM R01/5000VP6000FT BR CLR 24/24
     A2998 RMK AO2 VIS 1/2 RWY19 SLP155=
KLFI 080832Z 12005KT 9SM R08/5500VP6000FT BKN008 OVC150 26/24
     A2995 RMK AO2A SLP144 $=
PASV SP 0835 AWOS M90 BKN 10 49/48/0000/997=
PGUA 080835Z AUTO 09011KT 10SM BKN017 27/ A2988 RMK AO2 CIG
     017V021 BKN V SCT SLP099 VISNO RWY24L $=
KLFI 080832Z 12005KT 9SM R08/5500VP6000FT BKN008 OVC150 26/24
     A2995 RMK AO2A SLP144 $=
KNGP 080840Z AUTO 09009G18KT 3SM RA BR FEW016 SCT035 BKN055 28/27
     A2981 RMK AO2 TSB18E34RAB37 P0001 $=
####018000462####
SPUS70 KWBC 080842
SPECI
KNSE 080829Z AUTO 00000KT 1/2SM FG VV004 23/21 A3002 RMK AO2 $=
KNSE 080829Z AUTO 00000KT 1/2SM FG VV004 23/21 A3002 RMK AO2 $=
PAWD 080838Z AUTO 00000KT 2SM BR SCT003 BKN010 OVC055 10/09 A2997
     RMK AO2 RAE00 CIG 007V011 P0000 TSNO=
KBED 080839Z AUTO 16004KT 5SM BR OVC015 24/22 A3004 RMK AO2=
KFWN 080839Z AUTO 00000KT 2 1/2SM BR CLR 21/20 A3003 RMK AO2=
KTKI 080838Z AUTO 18007KT 10SM SCT019 26/23 A3000 RMK AO2=
####018000177####
SAUS80 KWBC 080842
METAR
K3A6 080930Z AUTO 36002KT 11/10 A2990 RMK AO1 SLP145 T01130102=
KTKV 080835Z AUTO 28003KT 1/4SM FG OVC001 17/17 A3002 RMK AO2
     T01710165=
####018000732####
SAUS70 KWBC 080842
METAR
KRPD 080834Z AUTO 30003KT 10SM CLR 19/17 A3004 RMK AO2
     T01850171=
KRRL 080835Z AUTO 00000KT 5SM BR CLR 18/17 A3002 RMK AO2
     T01750171=
KRYV 080835Z AUTO 00000KT 10SM -RA SCT012 OVC090 23/21 A3000 RMK
     AO2=
KSTE 080835Z AUTO 26003KT 7SM BKN006 BKN009 22/21 A2999 RMK
     AO2=
KSUW 080835Z AUTO 27004KT 10SM CLR 18/15 A3002 RMK AO2=
KUES 080835Z AUTO 16006KT 7SM -RA OVC095 21/20 A3000 RMK AO2
     T02120198=
KUNU 080832Z AUTO 19004KT 7SM RA BKN008 21/20 A3001 RMK AO2
     T02100196=
KBWD 080835Z AUTO 00000KT 10SM CLR 23/22 A3000 RMK AO2=
KO22 080835Z AUTO 00000KT 10SM CLR 17/12 A2991 RMK AO1=
KFMH 080835Z AUTO 16008KT 5SM BR OVC002 21/21 A3008 RMK AO2=
####018001521####
SAAU31 KWBC 080800 RRC
METAR
YBAS 080830Z AUTO 11008KT 9999NDV // NCD 14/07 Q1019=
YBBN 080830Z 19008KT 9999 FEW040 BKN077 18/10 Q1020 NOSIG=
YBCG 080830Z NIL=
YBCS 080830Z 16008KT 9999 FEW024 BKN045 24/20 Q1015=
YBMA 080830Z AUTO 14006KT 9999NDV // ////// 13/10 Q1019=
YBRK 080830Z 24003KT 9999 VCSH FEW005 BKN030 13/13 Q1019=
YBRM 080830Z 05007KT 9999 VCSH SCT037 BKN058 27/21 Q1010=
YBTL 080830Z 07007KT 9999 FEW030 BKN170 22/20 Q1016=
YMHB 080830Z 00000KT CAVOK 04/02 Q1030=
YMML 080830Z 17005KT 9999 FEW030 BKN042 10/05 Q1028 NOSIG=
YPAD 080830Z 10005KT 9999 FEW045 11/08 Q1025=
YPCC 080830Z NIL=
YPDN 080830Z 03011KT CAVOK 28/20 Q1011=
YPEA 080830Z NIL=
YPLM 080830Z AUTO 07002KT 9999NDV // OVC021 21/17 Q1008=
YPPD 080830Z AUTO 04014KT 9999NDV // BKN024 BKN030 OVC058 24/20
     Q1009=
YPPH 080830Z 36011KT 9000 VCSH FEW013 SCT042 FEW024TCU 15/14 Q0999
     FM0830 33018G28KT 9999 -SHRA BKN020 INTER 0830/1130
     27025G35KT 3000 +SHRA BKN010=
YPTN 080830Z 11006KT CAVOK 27/15 Q1013=
YPXM 080830Z NIL=
YSCB 080830Z 00000KT 9999 FEW050 07/03 Q1027 RMK USE TAF FOR
     ARRIVALS AFTER 0900Z NOSIG=
YSDU 080830Z AUTO 11008KT 9999NDV // ////// 10/05 Q1025=
YSNF 080830Z 10012KT 6000 -RA SCT010 BKN017 14/12 Q1017=
YSRI 080830Z AUTO 00000KT 9999NDV // OVC045 12/11 Q1027=
YSSY 080830Z 21015KT 5000 SHRA FEW008 SCT020 BKN050 13/12 Q1026
     RMK VIS REDUCED TO EAST AND SOUTH FM0830 19015KT 9999 -SHRA
     SCT025 BKN040 INTER 0830/1130 5000 SHRA BKN010=
####018000168####
SAAW34 KWBC 080815 RRE
METAR
UACP 080830Z NIL=
UADD 080830Z VRB03MPS 9999 NSC 33/03 Q1013 NOSIG RMK
     QFE703/0938=
UAII 080830Z NIL=
UASP 080830Z NIL=
####018000240####
SAEE32 KWBC 080830 RRA
METAR
LRAR 080830Z 36008KT 330V050 9999 SCT024 19/15 Q1020=
LRTC 080830Z 35012KT 320V020 9999 FEW030CB BKN040 21/16 Q1014=
LRTM 080830Z 24006KT 220V280 9999 SCT007 BKN016 BKN023 16/14 Q1020
     0719//95=
####018000113####
SAEM31 KWBC 080830 RRA
METAR
LKTB 080830Z 33008KT 260V010 CAVOK 21/08 Q1023 NOSIG RMK REG QNH
     1021=
####018000088####
SPCN31 KWBC 080842
SPECI
CYMH 080839Z AUTO 18005KT 9SM FEW003 FEW034 07/06 A3011=
####018000081####
SAIO31 KWBC 080800 RRF
METAR
FIMR 080800Z 12018KT 9999 SCT018 26/17 Q1021=
####018000243####
SAID31 KWBC 080800 RRB
METAR
WAAA 080830Z 18005KT 9999 SCT020 29/25 Q1008=
WIII 080830Z 19006KT 160V240 8000 FEW019CB SCT02027/22 Q1009 RM K
     VC PREC TO S AND CB TO SW NOSIG=
WIMM 080830Z 02007KT 7000 SCT017 33/23 Q1008 NOSIG=
####018000110####
SAPA41 KWBC 080800 RRB
METAR
PKWA 080840Z AUTO 10015KT 3SM +RA SCT007 BKN013 OVC021 25/23
     A2986=
####018000134####
SAPA31 KWBC 080800 RRF
METAR
PKWA 080840Z AUTO 10015KT 3SM +RA SCT007 BKN013 OVC021 25/23 A2986
     RMK AO2 P0012 T02520233=
####018000110####
SAPQ31 KWBC 080800 RRC
METAR
PKWA 080840Z AUTO 10015KT 3SM +RA SCT007 BKN013 OVC021 25/23
     A2986=
####018000357####
SARS32 KWBC 080800 RRC
METAR
URKA 080830Z 05004MPS 9999 SCT026 27/18 Q1013 NOSIG RMK 065=
URMM 080830Z 09004MPS 050V120 9999 SCT040 28/19 Q1013 NOSIG RMK /
     SC070=
URMN 080830Z 05001MPS 9999 SCT026 BKN110 27/20 Q1014 NOSIG RMK /
     QFE724 SC07=
URSS 080830Z 28002MPS 240V310 9999 FEW040 27/21 Q1011 NOSIG RMK /
     QFE757 06CLRD70=
####018000111####
SARS41 KWBC 080800 RRC
METAR
UUYH 0080830Z 24002MPS CAVOK 24/07 Q1017 NOSIG RMK QFE 751
     18CLRD60=
####018000134####
SAXX62 KWBC 080800 RRC
METAR
PKWA 080840Z AUTO 10015KT 3SM +RA SCT007 BKN013 OVC021 25/23 A2986
     RMK AO2 P0012 T02520233=
####018001020####
SAXX99 KWBC 080800 RRX
METAR
KGYH 080835Z AUTO 00000KT 10SM CLR 24/19 A3001 RMK AO2=
UACK 080830Z 32007G11MPS 9999 BKN053 FEW067 18/03 Q1011 02010070
     NOSIG RMK QFE734=
URML 080830Z 01004G09MPS 9999 SKC 31/20 Q1013 NOSIG RMK QFE759 /
     07=
WADD 080830Z 11003KT 9999 SCT018 29/25 Q1008 NOSIG=
WARR 080830Z VRB02KT 9999 FEW020 FEW020CB 29/23 Q1008 NSG=
YAMB 080830Z 18009KT 9999 SCT050 BKN075 17/10 Q1021=
YBHM 080830Z NIL=
YCIN 080830Z AUTO 10005KT //// // ////// 25/19 Q1011=
YFRT 080830Z NIL=
YMAV 080830Z AUTO 13004KT 9999NDV // OVC050 10/07 Q1028=
YMLT 080830Z AUTO 00000KT 9999NDV // OVC037 06/03 Q1029=
YPGV 080830Z 14012KT 9999 BKN020 BKN350 25/21 Q1013=
YPKG 080830Z AUTO 35010KT 9999NDV // SCT073 OVC088 19/04 Q1005=
YPKU 080830Z AUTO 13005KT 9999NDV // NCD 27/15 Q1013=
YSTW 080830Z AUTO 17010KT 9999NDV // SCT043 BKN052 11/06 Q1023=
YWLM 080830Z 23007KT 9999 SCT020 BKN045 12/11 Q1025 RMK USE TAF
     FOR ARRIVALS AFTER 1000Z INTER 0830/1000 4000 SHRA BKN010=
####018000139####
SAXX99 KWBC 080800 CCB
METAR
DAUI 080800Z 06028KT 0400 BLSA VV/// 37/08 Q1012=
EGHK 080820Z 14003KT 9999 FEW020 17/15 Q1018 NOSIG=
####018002656####
SAUS20 KNKA 080841
SPECI KACV 080840Z AUTO 00000KT 3SM BR OVC001 10/10 A2996 RMK AO2=
METAR KAWG 080835Z AUTO 00000KT 5SM BKN003 22/20 A3003 RMK AO2=
METAR KAXA 080835Z AUTO 31004KT 10SM CLR 18/17 A3011 RMK AO2=
SPECI KBDR 080840Z AUTO 09007KT 3/4SM BR OVC002 24/23 A3003 RMK AO2=
METAR KBNW 080835Z AUTO 33005KT 10SM SCT023 21/18 A3010 RMK AO2=
SPECI KBVY 080840Z 16005KT 8SM OVC011 22/20 A3005 RMK AO2 PNO=
METAR KCAV 080835Z AUTO 32005KT 10SM OVC027 21/19 A3009 RMK AO2=
METAR KCBF 080835Z AUTO 35007KT 10SM CLR 20/16 A3011 RMK AO2=
METAR KCCY 080835Z AUTO 31006KT 7SM CLR 20/17 A3006 RMK AO2=
METAR KCIN 080835Z AUTO 33004KT 7SM CLR 19/16 A3012 RMK AO2=
METAR KCNC 080835Z AUTO 30004KT 10SM BKN033 21/18 A3006 RMK AO2=
METAR KCSQ 080835Z AUTO 01005KT 10SM CLR 20/19 A3009 RMK AO2=
METAR KDEH 080835Z AUTO 31003KT 10SM SCT007 21/18 A3006 RMK AO2=
METAR KDNS 080835Z AUTO 00000KT 7SM OVC029 20/17 A3015 RMK AO2=
METAR KEOK 080835Z AUTO 00000KT 7SM SCT001 22/19 A3003 RMK AO2=
METAR KFFL 080835Z AUTO 27004KT 1/2SM FG OVC002 22/21 A3004 RMK 
     AO2=
METAR KFSW 080835Z AUTO 00000KT 7SM CLR 22/21 A3002 RMK AO2=
METAR KFXY 080835Z AUTO 32006KT 10SM CLR 18/16 A3009 RMK AO2=
METAR KGGI 080835Z AUTO 31003KT 10SM CLR 21/20 A3006 RMK AO2=
METAR KHNR 080835Z AUTO 00000KT 4SM CLR 18/18 A3014 RMK AO2=
METAR KI75 080835Z AUTO 29003KT 5SM CLR 20/19 A3006 RMK AO2=
METAR KICL 080835Z AUTO 36005KT 10SM CLR 22/19 A3008 RMK AO2=
METAR KIFA 080835Z AUTO 32007KT 10SM SCT085 SCT110 20/20 A3009 
     RMK AO2=
METAR KIIB 080835Z AUTO 31003KT 7SM CLR 20/19 A3004 RMK AO1=
METAR KIKV 080835Z AUTO 36006KT 10SM CLR 21/19 A3007 RMK AO2=
METAR KLRJ 080835Z AUTO 00000KT 10SM CLR 16/15 A3014 RMK AO2=
METAR KMPZ 080835Z AUTO 27003KT 7SM CLR 22/21 A3003 RMK AO2=
METAR KMUT 080835Z AUTO 29004KT 4SM BKN004 OVC012 24/22 A3001 RMK 
     AO2=
METAR KMXO 080835Z AUTO 00000KT 5SM SCT011 21/19 A3001 RMK AO2=
METAR KORC 080835Z AUTO 32003KT 10SM CLR 17/17 A3015 RMK AO2=
METAR KOXV 080835Z AUTO 34003KT 7SM CLR 22/21 A3006 RMK AO2=
METAR KPEA 080835Z AUTO 00000KT 10SM CLR 21/21 A3006 RMK AO2=
METAR KRDK 080835Z AUTO 01004KT 10SM SCT060 21/18 A3009 RMK AO2=
METAR KSDA 080835Z AUTO 02003KT 10SM CLR 21/19 A3009 RMK AO2=
SPECI KSET 080840Z AUTO 25003KT 4SM -RA BR FEW007 BKN018 OVC049 
    25/24 A3002 RMK AO2 RAB34 P0001=
METAR KSHL 080835Z AUTO 00000KT 2 1/2SM CLR 15/15 A3016 RMK AO2=
METAR KTNU 080835Z AUTO 35004KT 10SM CLR 21/19 A3006 RMK AO2=
SPECI KVTA 080840Z AUTO 00000KT 2 1/2SM BR BKN065 19/18 A3008 RMK 
    AO2=
METAR KVTI 080835Z AUTO 29003KT 10SM CLR 21/21 A3003 RMK AO2=
####018000144####
SAUS43 KWBC 080800 RRJ
METAR
KPHN 080836Z AUTO 00000KT 1/2SM FG VV005 20/19 A3002=
KSAW 080839Z AUTO 31003KT 1SM BR OVC001 18/17 A2997=
####018000096####
SPCN31 CWAO 080840
SPECI CYBG 080840Z 07003KT 2SM BR FEW045 SCT075 SCT240 RMK SC1AC2CI1=

####018000078####
SACN60 CWAO 080800 RRC
PVI SA 0800 AUTO8 M M M M/13/11/MMMM/M/ M 13MM=

####018000084####
SACN95 CWAO 080800 RRE
WTE SA 0800 AUTO8 M M M 164/16/13/0204/M/M 3008 20MM=

####018000078####
SACN59 CWAO 080800 RRG
XVW SA 0800 AUTO8 M M M M/13/10/1509/M/ M 09MM=

####018000083####
SACN88 CWAO 080800 RRF
WNS SA 0800 AUTO8 M M M 200/16/16/MMMM/M/ 3002 30MM=

####018000106####
SPUS72 KWBC 080842
SPECI
KNGP 080840Z AUTO 09009G18KT 3SM RA BR FEW016 SCT035 BKN055 28/27
A2981=
####018000110####
SPCN31 CWAO 080839
SPECI CYQM 080839Z 20007KT 15SM FEW008 FEW075 FEW130 SCT260 17/ RMK
SF1AC1AC1CI1=

####018000088####
SAUS73 KWBC 080800 RRJ
METAR
KSAW 080839Z AUTO 31003KT 1SM BR OVC001 18/17 A2997=
####018000083####
SAUS74 KWBC 080800 RRF
METAR
KIWA 080837Z AUTO 01004KT 10SM CLR 32/04 A2979=
####018000158####
SAUS17 KAWN 080800 RRF
METAR KFMH 080835Z AUTO 16008KT 5SM BR OVC002 21/21 A3008 RMK AO2=
METAR KIWA 080837Z AUTO 01004KT 10SM CLR 32/04 A2979 RMK AO2=
####018000727####
SAUS20 KNKA 080842
METAR K3J7 080839Z AUTO 00000KT 10SM CLR 22/21 A2999 RMK AO2=
METAR KBQP 080847Z AUTO 00000KT 4SM BR CLR 24/24 A3003 RMK AO2=
METAR KEBS 080835Z AUTO 34004KT 10SM CLR 19/18 A3010 RMK AO2=
METAR KFQD 080839Z AUTO 31004KT 10SM CLR 21/17 A3003 RMK AO2=
SPECI KGFL 080841Z AUTO 00000KT 3/4SM BR FEW100 21/21 A3002 RMK AO2=
SPECI KLUK 080841Z AUTO 00000KT 1 3/4SM R21L/2000V5500FT BR CLR 
    22/21 A3006 RMK AO2=
METAR KLWB 080840Z AUTO 00000KT 4SM BR SCT060 OVC090 20/18 A3015 
     RMK AO2=
METAR KRHP 080842Z AUTO 00000KT 5SM BR CLR 18/17 A3011 RMK AO2=
METAR KTVK 080835Z AUTO 30003KT 5SM CLR 20/20 A3007 RMK AO2=
SPECI KUCP 080842Z AUTO 00000KT 1/2SM FG CLR 18/18 A3009 RMK AO2 $=
####018000079####
SACN88 CWAO 080831
WXI SA 0831 AUTO8 M M M 184/09/M/0507/M/M 8004 9MMM=

####018002487####
SAUS99 KWBC 080843
METAR
KAWG 080835Z AUTO 00000KT 5SM BKN003 22/20 A3003 RMK AO2=
KAXA 080835Z AUTO 31004KT 10SM CLR 18/17 A3011 RMK AO2=
KBNW 080835Z AUTO 33005KT 10SM SCT023 21/18 A3010 RMK AO2=
KCAV 080835Z AUTO 32005KT 10SM OVC027 21/19 A3009 RMK AO2=
KCBF 080835Z AUTO 35007KT 10SM CLR 20/16 A3011 RMK AO2=
KCCY 080835Z AUTO 31006KT 7SM CLR 20/17 A3006 RMK AO2=
KCIN 080835Z AUTO 33004KT 7SM CLR 19/16 A3012 RMK AO2=
KCNC 080835Z AUTO 30004KT 10SM BKN033 21/18 A3006 RMK AO2=
KCSQ 080835Z AUTO 01005KT 10SM CLR 20/19 A3009 RMK AO2=
KDEH 080835Z AUTO 31003KT 10SM SCT007 21/18 A3006 RMK AO2=
KDNS 080835Z AUTO 00000KT 7SM OVC029 20/17 A3015 RMK AO2=
KEOK 080835Z AUTO 00000KT 7SM SCT001 22/19 A3003 RMK AO2=
KFFL 080835Z AUTO 27004KT 1/2SM FG OVC002 22/21 A3004 RMK AO2=
KFSW 080835Z AUTO 00000KT 7SM CLR 22/21 A3002 RMK AO2=
KFXY 080835Z AUTO 32006KT 10SM CLR 18/16 A3009 RMK AO2=
KGGI 080835Z AUTO 31003KT 10SM CLR 21/20 A3006 RMK AO2=
KHNR 080835Z AUTO 00000KT 4SM CLR 18/18 A3014 RMK AO2=
KI75 080835Z AUTO 29003KT 5SM CLR 20/19 A3006 RMK AO2=
KICL 080835Z AUTO 36005KT 10SM CLR 22/19 A3008 RMK AO2=
KIFA 080835Z AUTO 32007KT 10SM SCT085 SCT110 20/20 A3009 RMK
     AO2=
KIIB 080835Z AUTO 31003KT 7SM CLR 20/19 A3004 RMK AO1=
KIKV 080835Z AUTO 36006KT 10SM CLR 21/19 A3007 RMK AO2=
KLRJ 080835Z AUTO 00000KT 10SM CLR 16/15 A3014 RMK AO2=
KMPZ 080835Z AUTO 27003KT 7SM CLR 22/21 A3003 RMK AO2=
KMUT 080835Z AUTO 29004KT 4SM BKN004 OVC012 24/22 A3001 RMK
     AO2=
KMXO 080835Z AUTO 00000KT 5SM SCT011 21/19 A3001 RMK AO2=
KORC 080835Z AUTO 32003KT 10SM CLR 17/17 A3015 RMK AO2=
KOXV 080835Z AUTO 34003KT 7SM CLR 22/21 A3006 RMK AO2=
KPEA 080835Z AUTO 00000KT 10SM CLR 21/21 A3006 RMK AO2=
KRDK 080835Z AUTO 01004KT 10SM SCT060 21/18 A3009 RMK AO2=
KSDA 080835Z AUTO 02003KT 10SM CLR 21/19 A3009 RMK AO2=
KSHL 080835Z AUTO 00000KT 2 1/2SM CLR 15/15 A3016 RMK AO2=
KTNU 080835Z AUTO 35004KT 10SM CLR 21/19 A3006 RMK AO2=
KVTI 080835Z AUTO 29003KT 10SM CLR 21/21 A3003 RMK AO2=
K3J7 080839Z AUTO 00000KT 10SM CLR 22/21 A2999 RMK AO2=
KBQP 080847Z AUTO 00000KT 4SM BR CLR 24/24 A3003 RMK AO2=
KEBS 080835Z AUTO 34004KT 10SM CLR 19/18 A3010 RMK AO2=
KFQD 080839Z AUTO 31004KT 10SM CLR 21/17 A3003 RMK AO2=
KLWB 080840Z AUTO 00000KT 4SM BR SCT060 OVC090 20/18 A3015 RMK
     AO2=
KRHP 080842Z AUTO 00000KT 5SM BR CLR 18/17 A3011 RMK AO2=
KTVK 080835Z AUTO 30003KT 5SM CLR 20/20 A3007 RMK AO2=
####018000607####
SPUS99 KWBC 080843
SPECI
KACV 080840Z AUTO 00000KT 3SM BR OVC001 10/10 A2996 RMK AO2=
KBDR 080840Z AUTO 09007KT 3/4SM BR OVC002 24/23 A3003 RMK AO2=
KBVY 080840Z 16005KT 8SM OVC011 22/20 A3005 RMK AO2 PNO=
KSET 080840Z AUTO 25003KT 4SM -RA BR FEW007 BKN018 OVC049 25/24
     A3002 RMK AO2 RAB34 P0001=
KVTA 080840Z AUTO 00000KT 2 1/2SM BR BKN065 19/18 A3008 RMK
     AO2=
KGFL 080841Z AUTO 00000KT 3/4SM BR FEW100 21/21 A3002 RMK AO2=
KLUK 080841Z AUTO 00000KT 1 3/4SM R21L/2000V5500FT BR CLR 22/21
     A3006 RMK AO2=
KUCP 080842Z AUTO 00000KT 1/2SM FG CLR 18/18 A3009 RMK AO2 $=
####018000088####
SPAU32 YBBN 080842
SPECI YSNF 080840Z 12009KT 9999 SCT008 SCT014 BKN018 14/12 Q1017=
####018000081####
SPCN48 CWAO 080841
SPECI CYPH 080841Z AUTO 23016KT 1SM VV001 05/05 A2978=

####018000122####
SPCN47 CWAO 080840
SPECI CYYY 080840Z 00000KT 2SM R06/3000VP6000FT/U BR BKN004 OVC010
RMK SF6SF2 VIS 3/4 N QUAD=

####018000095####
SPCN31 KWBC 080843
SPECI
CYBG 080840Z 07003KT 2SM BR FEW045 SCT075 SCT240 RMK SC1AC2CI1=
####018000109####
SPCN31 KWBC 080843
SPECI
CYQM 080839Z 20007KT 15SM FEW008 FEW075 FEW130 SCT260 17/ RMK
SF1AC1AC1CI1=
####018000084####
SPUS41 KWBC 080843
SPECI
KBED 080839Z AUTO 16004KT 5SM BR OVC015 24/22 A3004=
####018000085####
SAYG31 LYBM 080830 RRA
METAR LYPG 080830Z 36016KT 9999 FEW040 26/07 Q1017 NOSIG=
####018000084####
SASN33 ESWI 080820 RRA
METAR ESNG 080820Z 15009KT 9999 FEW056 19/09 Q1014 RERA=
####018000075####
SACN96 CWAO 080840
WZQ SA 0840 AUTO8 M M M M/22/16/1708/M/M M 81MM=

####018000448####
SPNA14 KAWN 080843 RRE
SPECI KEGI 080838Z AUTO 00000KT 1 1/4SM R18/1600V5500FT BR CLR 22/22
      A3002 RMK AO2 VIS 3/4V5 SLP165 $=
SPECI KNGP 080840Z AUTO 09009G18KT 3SM RA BR FEW016 SCT035 BKN055 28/27
      A2981 RMK AO2 TSB18E34RAB37 P0001 $=
SPECI KNSE 080829Z AUTO 00000KT 1/2SM FG VV004 23/21 A3002 RMK AO2
      $=
SPECI KRND 080842Z AUTO 05005KT 10SM BKN015 OVC019 25/23 A2994 RMK
      AO2 CIG 011V019 OVC V BKN SLP128=
####018000570####
SAMS31 WMKK 080830
METAR 080830Z
METAR WBGG 080830Z 25005KT 9999 SCT020 BKN150 27/24 Q1008 RESH NOSIG=
METAR WBKK 080830Z 09008KT 9999 -TSRA FEW013 FEW016CB SCT035 OVC260 
25/23
     Q1009 NOSIG=
METAR WBSB 080830Z 28007KT 9999 SCT015 FEW016CB BKN140 30/24 Q1007
     TEMPO 6000 SHRA=
METAR WMKK 080830Z 19006KT 150V230 9999 SCT018 SCT140 BKN280 31/26 
Q1008
     NOSIG=
METAR WMKP 080830Z 21010KT 9999 FEW020 BKN300 31/25 Q1008 NOSIG=
METAR WSSL NIL=
METAR WSSS 080830Z 21003KT 170V260 9999 FEW017 SCT150 BKN270 29/25 
Q1008
     NOSIG=
####018000093####
SAAH10 OAKB 080850
METAR OAKB 080850Z VRB02KT 9999 FEW070 34/06 Q1016 NOSIG RMK BLU BLU=
####018002759####
SAUS20 KNKA 080843
METAR KHDC 080842Z AUTO 07003KT 10SM CLR 26/26 A3002 RMK AO2=
METAR KHLX 080841Z AUTO 00000KT 7SM CLR 24/21 A3016 RMK AO2=
METAR KHOE 080839Z AUTO 00000KT 10SM CLR 21/ A3001 RMK AO2 T0210=
METAR KHRJ 080841Z AUTO 00000KT 7SM CLR 25/21 A2994 RMK AO2=
METAR KHYX 080835Z AUTO 18004KT 10SM CLR 22/20 A3000 RMK AO2=
METAR KIPJ 080840Z AUTO 00000KT 10SM CLR 20/18 A3001 RMK AO2 
     T01980176=
METAR KISQ 080836Z AUTO 21006KT 1SM -RA OVC002 19/18 A2995 RMK
     AO2=
METAR KJES 080840Z AUTO 00000KT 7SM CLR 19/19 A3000 RMK AO2 
     T01870188=
SPECI KJLN 080842Z 00000KT 1 3/4SM +RA BR FEW010 OVC028 23/22 A3004 
    RMK AO2 RAB27 P0007=
METAR KJNX 080839Z AUTO 00000KT 5SM CLR 21/21 A2993 RMK AO2=
METAR KJYL 080841Z AUTO 00000KT 10SM CLR 22/21 A3000 RMK AO2=
METAR KLDM 080836Z AUTO 22005KT 10SM BKN110 22/21 A3000 RMK
     AO2=
SPECI KLXV 080838Z AUTO 00000KT 10SM OVC029 07/06 A3053 RMK AO2
     TSNO=
METAR KMCD 080835Z AUTO 18003KT 7SM BKN110 21/18 A2997 RMK AO2=
METAR KMFV 080842Z AUTO 08005KT 3SM -RA SCT006 BKN110 25/24 A2998 
     RMK AO2=
SPECI KMTH 080842Z AUTO 02005KT 10SM SCT020 BKN025 A2991 RMK AO2 LTG 
    DSNT SW FZRANO $=
METAR KMZH 080831Z AUTO 29004KT 10SM SCT100 15/14 A3004 RMK
     AO2=
SPECI KOAK 080842Z 29007KT 10SM OVC011 15/11 A2994 RMK AO2=
METAR KONZ 080837Z AUTO 00000KT 10SM SCT075 26/20 A3002 RMK
     AO2=
METAR KORB 080834Z AUTO 00000KT 10SM CLR 15/13 A3001 RMK AO2=
METAR KOSC 080834Z AUTO 00000KT 7SM CLR 19/18 A3000 RMK AO2=
METAR KOWA 080833Z AUTO 30003KT 10SM CLR 17/17 A3007 RMK AO2=
METAR KPHN 080836Z AUTO 00000KT 1/2SM FG VV005 20/19 A3002 RMK
     AO2=
METAR KPSK 080842Z AUTO 00000KT 7SM CLR 24/17 A3014 RMK AO2=
METAR KPZQ 080835Z AUTO 23003KT 7SM CLR 22/22 A2998 RMK AO2=
METAR KRMY 080835Z AUTO 00000KT 10SM CLR 22/19 A3004 RMK AO2=
METAR KSAW 080839Z AUTO 31003KT 1SM BR OVC001 18/17 A2997 RMK
     AO2=
METAR KSIF 080840Z AUTO 00000KT 5SM BR BKN090 22/21 A3000 RMK AO2=
METAR KSJX 080836Z AUTO 23007KT 7SM SCT070 21/20 A2996 RMK AO2=
METAR KSLH 080835Z AUTO 00000KT 10SM BKN120 21/21 A2996 RMK
     AO2=
METAR KTPF 080840Z AUTO 05004KT 10SM CLR 24/23 A2998 RMK AO2=
METAR KTSP 080835Z AUTO 00000KT 10SM CLR 14/07 A3003 RMK AO2 =
METAR KTTF 080833Z AUTO 00000KT 10SM CLR 23/22 A3002 RMK AO2=
METAR KUKF 080841Z AUTO 00000KT 10SM SCT090 22/17 A3006 RMK AO1=
METAR KUNV 080840Z AUTO 00000KT 7SM CLR 20/18 A3009 RMK AO2 
     T02020182=
METAR KVDI 080842Z AUTO 24003KT 10SM CLR 23/21 A3000 RMK AO1=
METAR KVWU 080831Z AUTO 00000KT 10SM CLR 14/13 A3002 RMK AO2=
METAR KW99 080839Z AUTO 00000KT 7SM SCT085 21/17 A3009 RMK AO2=
METAR KXVG 080836Z AUTO 00000KT 7SM CLR 12/11 A3005 RMK AO2=
####018000081####
SPNI20 DNMM 080838
SPECI DNMM 080838Z 00000KT 9999 BKN010 26/25 Q1015 NOSIG=
####018000140####
SAAK41 KNKA 080843
SPECI PAWD 080841Z AUTO 00000KT 3SM BR BKN003 BKN010 OVC055 10/09 
    A2998 RMK AO2 RAE00 CIG 001V006 P0000 TSNO=
####018002945####
SAUS20 KNKA 080843
METAR K0R3 080839Z AUTO 06003KT 10SM CLR 25/25 A2998 RMK AO2=
METAR K1A5 080840Z AUTO 00000KT 2 1/2SM BR 17/16 A3015 RMK AO2 
     SKY OBSCURED T01690156=
METAR K3I2 080840Z AUTO 00000KT 1/2SM FG OVC001 18/18 A3007 RMK 
     AO2=
METAR K47A 080840Z AUTO 00000KT 10SM CLR 21/19 A3006 RMK AO2 
     T02070185=
METAR KACP 080839Z AUTO 00000KT 5SM BR SCT020 23/23 A3000 RMK AO2=
METAR KAMN 080836Z AUTO 00000KT 5SM BR SCT065 BKN075 22/22 A3001
     RMK AO2=
METAR KAQP 080833Z AUTO 22003KT 10SM CLR 14/14 A3010 RMK AO2=
METAR KAVC 080840Z AUTO 00000KT 7SM SCT110 26/19 A3002 RMK AO2=
METAR KAYS 080840Z AUTO 00000KT 10SM CLR 22/21 A3000 RMK AO1=
METAR KBCB 080840Z AUTO 00000KT 5SM BR BKN085 21/21 A3015 RMK AO2=
METAR KBFW 080833Z AUTO 00000KT 10SM SCT055 17/15 A3000 RMK
     AO2=
METAR KBGE 080840Z AUTO 00000KT 10SM CLR 21/20 A3001 RMK AO2=
METAR KBIJ 080840Z AUTO 00000KT 10SM CLR 19/ A3002 RMK AO2=
METAR KBQK 080837Z AUTO 25005KT 10SM CLR 22/22 A3000 RMK AO1 
     T02220216 PNO=
SPECI KBRL 080842Z AUTO 7SM SCT001 23/22 A3002 RMK AO2 $=
METAR KCCO 080840Z AUTO 00000KT 4SM CLR 21/20 A3004 RMK AO1=
METAR KCDA 080835Z AUTO 00000KT 4SM BR CLR 20/18 A3009 RMK AO2=
METAR KCDD 080831Z AUTO 18003KT 7SM CLR 14/14 A3003 RMK AO2=
METAR KCDH 080840Z AUTO 00000KT 3/4SM BR OVC001 22/22 A3003 RMK 
     AO2=
METAR KCTJ 080840Z AUTO 00000KT 10SM CLR 21/19 A3006 RMK AO2 
     T02070190=
METAR KCTZ 080842Z AUTO 00000KT 7SM CLR 24/22 A2992 RMK AO2=
METAR KCVX 080835Z AUTO 18004KT 10SM SCT120 21/20 A2998 RMK
     AO2=
METAR KCWV 080845Z AUTO 28003KT 7SM CLR 21/21 A3000 RMK AO2 
     T02100210=
METAR KDBN 080840Z AUTO 30003KT 10SM CLR 24/19 A3000 RMK AO1=
METAR KDNN 080838Z AUTO 00000KT 7SM CLR 20/20 A3004 RMK AO2=
METAR KDPL 080840Z AUTO 00000KT 7SM CLR 23/22 A2992 RMK AO2=
METAR KDVP 080837Z AUTO 27003KT 10SM CLR 16/13 A3017 RMK AO2
     T01550132=
METAR KEDE 080836Z AUTO 00000KT 3SM BR CLR 23/22 A2994 RMK AO2=
METAR KEMV 080837Z AUTO 35004KT 5SM HZ CLR 23/21 A2997 RMK AO2=
METAR KERY 080836Z AUTO 21003KT 10SM SCT019 BKN026 BKN090 19/19
     A2996 RMK AO2=
METAR KETH 080834Z AUTO 23005KT 10SM CLR 16/14 A3010 RMK AO2=
METAR KEXX 080839Z AUTO 00000KT 10SM CLR 22/18 A2999 RMK AO2=
METAR KEZF 080838Z AUTO 00000KT 7SM CLR 27/25 A2996 RMK AO2 
     T02660245=
METAR KF24 080839Z AUTO 7SM CLR 25/23 A3006 RMK AO2 T02450232=
METAR KFKA 080843Z AUTO 31005KT 4SM BR SCT033 19/19 A3007 RMK AO2
     T01900185=
METAR KFKN 080840Z AUTO 00000KT 5SM 24/22 A2996 RMK AO1=
METAR KFKS 080835Z AUTO 22006KT 10SM -DZ SCT085 BKN110 22/19 A2998
     RMK AO2=
METAR KFOZ 080833Z AUTO 00000KT 1/4SM FG OVC001 12/12 A3005 RMK
     AO2=
METAR KGEV 080841Z AUTO 00000KT 10SM CLR 23/17 A3018 RMK AO2=
METAR KGHG 080840Z AUTO 16003KT 10SM OVC005 21/21 A3008 RMK AO2=
METAR KGOV 080835Z AUTO 00000KT 4SM BR CLR 20/20 A3002 RMK AO2=
####018001584####
SPZZ40 KAWN 080843 RRK
SPECI CYBG 080840Z 07003KT 2SM BR FEW045 SCT075 SCT240 RMK SC1AC2CI1=
SPECI CYMH 080839Z AUTO 18005KT 9SM FEW003 FEW034 07/06 A3011=
SPECI CYPH 080841Z AUTO 23016KT 1SM VV001 05/05 A2978=
SPECI CYQM 080839Z 20007KT 15SM FEW008 FEW075 FEW130 SCT260 17/ RMK
      SF1AC1AC1CI1=
SPECI CYUS 080840Z AUTO ///// 9SM CLR 11/ A2980=
SPECI CYYY 080840Z 00000KT 2SM R06/3000VP6000FT/U BR BKN004 OVC010
      RMK SF6SF2 VIS 3/4 N QUAD=
SPECI EGVA 080839Z AUTO 00000KT 9999 -RA FEW090 17/12 A3007 RMK AO2
      RAB0839 SLP183=
SPECI KEGI 080842Z AUTO 00000KT 1 1/2SM R18/1600V5500FT BR CLR 22/22
      A3002 RMK AO2 SLP165 $=
SPECI KFCS 080838Z AUTO 21007KT 10SM -DZ SCT022 OVC055 14/11 A3038
      RMK AO2 DZB0838 SLP218=
SPECI KFCS 080839Z AUTO 22007KT 10SM -DZ BKN022 OVC055 14/11 A3038
      RMK AO2 DZB0838 BKN V SCT SLP217=
SPECI KHST 080838Z AUTO 08004KT 10SM -RA FEW006 SCT014 SCT021 27/25
      A2993 RMK AO2 RAB0822 FEW V SCT SLP135 $=
SPECI KNGP 080840Z AUTO 09009G18KT 3SM RA BR FEW016 SCT035 BKN055 28/27
      A2981 RMK AO2 TSB18E34RAB37 P0001 $=
SPECI KRND 080842Z AUTO 05005KT 10SM BKN015 OVC019 25/23 A2994 RMK
      AO2 CIG 011V019 OVC V BKN SLP128=
SPECI PAED 080841Z AUTO 00000KT 10SM BKN080 13/10 A3000 RMK AO2 DZB0827E0841
      SLP158 $=
SPECI RJCC 080834Z 17006KT 140V210 1800 -DZ BR BKN002 18/17 Q1009 RMK
      7ST002 A2981=
SPECI RJSS 080832Z 14009KT 9999 FEW010 SCT040 BKN/// 25/21 Q1009 RMK
      1ST010 4CU040 A2981=
SPECI YSNF 080840Z 12009KT 9999 SCT008 SCT014 BKN018 14/12 Q1017=
####018003710####
SAUS99 KWBC 080844
METAR
KHDC 080842Z AUTO 07003KT 10SM CLR 26/26 A3002 RMK AO2=
KHLX 080841Z AUTO 00000KT 7SM CLR 24/21 A3016 RMK AO2=
KHOE 080839Z AUTO 00000KT 10SM CLR 21/ A3001 RMK AO2 T0210=
KHRJ 080841Z AUTO 00000KT 7SM CLR 25/21 A2994 RMK AO2=
KHYX 080835Z AUTO 18004KT 10SM CLR 22/20 A3000 RMK AO2=
KIPJ 080840Z AUTO 00000KT 10SM CLR 20/18 A3001 RMK AO2
     T01980176=
KISQ 080836Z AUTO 21006KT 1SM -RA OVC002 19/18 A2995 RMK AO2=
KJES 080840Z AUTO 00000KT 7SM CLR 19/19 A3000 RMK AO2
     T01870188=
KJNX 080839Z AUTO 00000KT 5SM CLR 21/21 A2993 RMK AO2=
KJYL 080841Z AUTO 00000KT 10SM CLR 22/21 A3000 RMK AO2=
KLDM 080836Z AUTO 22005KT 10SM BKN110 22/21 A3000 RMK AO2=
KMCD 080835Z AUTO 18003KT 7SM BKN110 21/18 A2997 RMK AO2=
KMFV 080842Z AUTO 08005KT 3SM -RA SCT006 BKN110 25/24 A2998 RMK
     AO2=
KMZH 080831Z AUTO 29004KT 10SM SCT100 15/14 A3004 RMK AO2=
KONZ 080837Z AUTO 00000KT 10SM SCT075 26/20 A3002 RMK AO2=
KORB 080834Z AUTO 00000KT 10SM CLR 15/13 A3001 RMK AO2=
KOSC 080834Z AUTO 00000KT 7SM CLR 19/18 A3000 RMK AO2=
KOWA 080833Z AUTO 30003KT 10SM CLR 17/17 A3007 RMK AO2=
KPHN 080836Z AUTO 00000KT 1/2SM FG VV005 20/19 A3002 RMK AO2=
KPSK 080842Z AUTO 00000KT 7SM CLR 24/17 A3014 RMK AO2=
KPZQ 080835Z AUTO 23003KT 7SM CLR 22/22 A2998 RMK AO2=
KRMY 080835Z AUTO 00000KT 10SM CLR 22/19 A3004 RMK AO2=
KSAW 080839Z AUTO 31003KT 1SM BR OVC001 18/17 A2997 RMK AO2=
KSIF 080840Z AUTO 00000KT 5SM BR BKN090 22/21 A3000 RMK AO2=
KSJX 080836Z AUTO 23007KT 7SM SCT070 21/20 A2996 RMK AO2=
KSLH 080835Z AUTO 00000KT 10SM BKN120 21/21 A2996 RMK AO2=
KTPF 080840Z AUTO 05004KT 10SM CLR 24/23 A2998 RMK AO2=
KTSP 080835Z AUTO 00000KT 10SM CLR 14/07 A3003 RMK AO2=
KTTF 080833Z AUTO 00000KT 10SM CLR 23/22 A3002 RMK AO2=
KUKF 080841Z AUTO 00000KT 10SM SCT090 22/17 A3006 RMK AO1=
KUNV 080840Z AUTO 00000KT 7SM CLR 20/18 A3009 RMK AO2
     T02020182=
KVDI 080842Z AUTO 24003KT 10SM CLR 23/21 A3000 RMK AO1=
KVWU 080831Z AUTO 00000KT 10SM CLR 14/13 A3002 RMK AO2=
KW99 080839Z AUTO 00000KT 7SM SCT085 21/17 A3009 RMK AO2=
KXVG 080836Z AUTO 00000KT 7SM CLR 12/11 A3005 RMK AO2=
K0R3 080839Z AUTO 06003KT 10SM CLR 25/25 A2998 RMK AO2=
K1A5 080840Z AUTO 00000KT 2 1/2SM BR 17/16 A3015 RMK AO2 SKY
     OBSCURED T01690156=
K3I2 080840Z AUTO 00000KT 1/2SM FG OVC001 18/18 A3007 RMK AO2=
K47A 080840Z AUTO 00000KT 10SM CLR 21/19 A3006 RMK AO2
     T02070185=
KACP 080839Z AUTO 00000KT 5SM BR SCT020 23/23 A3000 RMK AO2=
KAMN 080836Z AUTO 00000KT 5SM BR SCT065 BKN075 22/22 A3001 RMK
     AO2=
KAQP 080833Z AUTO 22003KT 10SM CLR 14/14 A3010 RMK AO2=
KAVC 080840Z AUTO 00000KT 7SM SCT110 26/19 A3002 RMK AO2=
KAYS 080840Z AUTO 00000KT 10SM CLR 22/21 A3000 RMK AO1=
KBCB 080840Z AUTO 00000KT 5SM BR BKN085 21/21 A3015 RMK AO2=
KBFW 080833Z AUTO 00000KT 10SM SCT055 17/15 A3000 RMK AO2=
KBGE 080840Z AUTO 00000KT 10SM CLR 21/20 A3001 RMK AO2=
KBIJ 080840Z AUTO 00000KT 10SM CLR 19/ A3002 RMK AO2=
KBQK 080837Z AUTO 25005KT 10SM CLR 22/22 A3000 RMK AO1 T02220216
     PNO=
KCCO 080840Z AUTO 00000KT 4SM CLR 21/20 A3004 RMK AO1=
KCDA 080835Z AUTO 00000KT 4SM BR CLR 20/18 A3009 RMK AO2=
KCDD 080831Z AUTO 18003KT 7SM CLR 14/14 A3003 RMK AO2=
KCDH 080840Z AUTO 00000KT 3/4SM BR OVC001 22/22 A3003 RMK AO2=
KCTJ 080840Z AUTO 00000KT 10SM CLR 21/19 A3006 RMK AO2
     T02070190=
KCTZ 080842Z AUTO 00000KT 7SM CLR 24/22 A2992 RMK AO2=
KCVX 080835Z AUTO 18004KT 10SM SCT120 21/20 A2998 RMK AO2=
KCWV 080845Z AUTO 28003KT 7SM CLR 21/21 A3000 RMK AO2
     T02100210=
KDBN 080840Z AUTO 30003KT 10SM CLR 24/19 A3000 RMK AO1=
KDNN 080838Z AUTO 00000KT 7SM CLR 20/20 A3004 RMK AO2=
####018001072####
SAUS99 KWBC 080844 RRA
METAR
KDPL 080840Z AUTO 00000KT 7SM CLR 23/22 A2992 RMK AO2=
KDVP 080837Z AUTO 27003KT 10SM CLR 16/13 A3017 RMK AO2
     T01550132=
KEDE 080836Z AUTO 00000KT 3SM BR CLR 23/22 A2994 RMK AO2=
KEMV 080837Z AUTO 35004KT 5SM HZ CLR 23/21 A2997 RMK AO2=
KERY 080836Z AUTO 21003KT 10SM SCT019 BKN026 BKN090 19/19 A2996
     RMK AO2=
KETH 080834Z AUTO 23005KT 10SM CLR 16/14 A3010 RMK AO2=
KEXX 080839Z AUTO 00000KT 10SM CLR 22/18 A2999 RMK AO2=
KEZF 080838Z AUTO 00000KT 7SM CLR 27/25 A2996 RMK AO2
     T02660245=
KF24 080839Z AUTO 7SM CLR 25/23 A3006 RMK AO2 T02450232=
KFKA 080843Z AUTO 31005KT 4SM BR SCT033 19/19 A3007 RMK AO2
     T01900185=
KFKN 080840Z AUTO 00000KT 5SM 24/22 A2996 RMK AO1=
KFKS 080835Z AUTO 22006KT 10SM -DZ SCT085 BKN110 22/19 A2998 RMK
     AO2=
KFOZ 080833Z AUTO 00000KT 1/4SM FG OVC001 12/12 A3005 RMK AO2=
KGEV 080841Z AUTO 00000KT 10SM CLR 23/17 A3018 RMK AO2=
KGHG 080840Z AUTO 16003KT 10SM OVC005 21/21 A3008 RMK AO2=
KGOV 080835Z AUTO 00000KT 4SM BR CLR 20/20 A3002 RMK AO2=
####018000500####
SPUS99 KWBC 080844
SPECI
KJLN 080842Z 00000KT 1 3/4SM +RA BR FEW010 OVC028 23/22 A3004 RMK
     AO2 RAB27 P0007=
KLXV 080838Z AUTO 00000KT 10SM OVC029 07/06 A3053 RMK AO2 TSNO=
KMTH 080842Z AUTO 02005KT 10SM SCT020 BKN025 A2991 RMK AO2 LTG
     DSNT SW FZRANO $=
KOAK 080842Z 29007KT 10SM OVC011 15/11 A2994 RMK AO2=
KBRL 080842Z AUTO 7SM SCT001 23/22 A3002 RMK AO2 $=
PAWD 080841Z AUTO 00000KT 3SM BR BKN003 BKN010 OVC055 10/09 A2998
     RMK AO2 RAE00 CIG 001V006 P0000 TSNO=
####018000087####
SACN88 KWBC 080844
METAR CWXI 080831Z AUTO 05007KT 09/ RMK AO1 SLP184 T0089 58004=
####018000080####
SACN96 KWBC 080844
METAR CWZQ 080840Z AUTO 17008KT 22/16 RMK AO1 T02180161=
####018000646####
SPXX60 KWBC 080844
SPECI
KFCS 080838Z AUTO 21007KT 10SM -DZ SCT022 OVC055 14/11 A3038 RMK
     AO2 DZB0838 SLP218=
KFCS 080839Z AUTO 22007KT 10SM -DZ BKN022 OVC055 14/11 A3038 RMK
     AO2 DZB0838 BKN V SCT SLP217=
KHST 080838Z AUTO 08004KT 10SM -RA FEW006 SCT014 SCT021 27/25
     A2993 RMK AO2 RAB0822 FEW V SCT SLP135 $=
KNGP 080840Z AUTO 09009G18KT 3SM RA BR FEW016 SCT035 BKN055 28/27
     A2981 RMK AO2 TSB18E34RAB37 P0001 $=
KRND 080842Z AUTO 05005KT 10SM BKN015 OVC019 25/23 A2994 RMK AO2
     CIG 011V019 OVC V BKN SLP128=
PAED 080841Z AUTO 00000KT 10SM BKN080 13/10 A3000 RMK AO2
     DZB0827E0841 SLP158 $=
####018003732####
SAUS70 KWBC 080844
METAR
KAWG 080835Z AUTO 00000KT 5SM BKN003 22/20 A3003 RMK AO2=
KAXA 080835Z AUTO 31004KT 10SM CLR 18/17 A3011 RMK AO2=
KBNW 080835Z AUTO 33005KT 10SM SCT023 21/18 A3010 RMK AO2=
KCAV 080835Z AUTO 32005KT 10SM OVC027 21/19 A3009 RMK AO2=
KCBF 080835Z AUTO 35007KT 10SM CLR 20/16 A3011 RMK AO2=
KCCY 080835Z AUTO 31006KT 7SM CLR 20/17 A3006 RMK AO2=
KCIN 080835Z AUTO 33004KT 7SM CLR 19/16 A3012 RMK AO2=
KCNC 080835Z AUTO 30004KT 10SM BKN033 21/18 A3006 RMK AO2=
KCSQ 080835Z AUTO 01005KT 10SM CLR 20/19 A3009 RMK AO2=
KDEH 080835Z AUTO 31003KT 10SM SCT007 21/18 A3006 RMK AO2=
KDNS 080835Z AUTO 00000KT 7SM OVC029 20/17 A3015 RMK AO2=
KEOK 080835Z AUTO 00000KT 7SM SCT001 22/19 A3003 RMK AO2=
KFFL 080835Z AUTO 27004KT 1/2SM FG OVC002 22/21 A3004 RMK AO2=
KFSW 080835Z AUTO 00000KT 7SM CLR 22/21 A3002 RMK AO2=
KFXY 080835Z AUTO 32006KT 10SM CLR 18/16 A3009 RMK AO2=
KGGI 080835Z AUTO 31003KT 10SM CLR 21/20 A3006 RMK AO2=
KHNR 080835Z AUTO 00000KT 4SM CLR 18/18 A3014 RMK AO2=
KICL 080835Z AUTO 36005KT 10SM CLR 22/19 A3008 RMK AO2=
KIFA 080835Z AUTO 32007KT 10SM SCT085 SCT110 20/20 A3009 RMK
     AO2=
KIIB 080835Z AUTO 31003KT 7SM CLR 20/19 A3004 RMK AO1=
KIKV 080835Z AUTO 36006KT 10SM CLR 21/19 A3007 RMK AO2=
KLRJ 080835Z AUTO 00000KT 10SM CLR 16/15 A3014 RMK AO2=
KMPZ 080835Z AUTO 27003KT 7SM CLR 22/21 A3003 RMK AO2=
KMUT 080835Z AUTO 29004KT 4SM BKN004 OVC012 24/22 A3001 RMK
     AO2=
KMXO 080835Z AUTO 00000KT 5SM SCT011 21/19 A3001 RMK AO2=
KORC 080835Z AUTO 32003KT 10SM CLR 17/17 A3015 RMK AO2=
KOXV 080835Z AUTO 34003KT 7SM CLR 22/21 A3006 RMK AO2=
KPEA 080835Z AUTO 00000KT 10SM CLR 21/21 A3006 RMK AO2=
KRDK 080835Z AUTO 01004KT 10SM SCT060 21/18 A3009 RMK AO2=
KSDA 080835Z AUTO 02003KT 10SM CLR 21/19 A3009 RMK AO2=
KSHL 080835Z AUTO 00000KT 2 1/2SM CLR 15/15 A3016 RMK AO2=
KTNU 080835Z AUTO 35004KT 10SM CLR 21/19 A3006 RMK AO2=
KFMH 080835Z AUTO 16008KT 5SM BR OVC002 21/21 A3008 RMK AO2=
KIWA 080837Z AUTO 01004KT 10SM CLR 32/04 A2979 RMK AO2=
K3J7 080839Z AUTO 00000KT 10SM CLR 22/21 A2999 RMK AO2=
KEBS 080835Z AUTO 34004KT 10SM CLR 19/18 A3010 RMK AO2=
KFQD 080839Z AUTO 31004KT 10SM CLR 21/17 A3003 RMK AO2=
KLWB 080840Z AUTO 00000KT 4SM BR SCT060 OVC090 20/18 A3015 RMK
     AO2=
KRHP 080842Z AUTO 00000KT 5SM BR CLR 18/17 A3011 RMK AO2=
KTVK 080835Z AUTO 30003KT 5SM CLR 20/20 A3007 RMK AO2=
KHDC 080842Z AUTO 07003KT 10SM CLR 26/26 A3002 RMK AO2=
KHLX 080841Z AUTO 00000KT 7SM CLR 24/21 A3016 RMK AO2=
KHOE 080839Z AUTO 00000KT 10SM CLR 21/ A3001 RMK AO2 T0210=
KHRJ 080841Z AUTO 00000KT 7SM CLR 25/21 A2994 RMK AO2=
KHYX 080835Z AUTO 18004KT 10SM CLR 22/20 A3000 RMK AO2=
KIPJ 080840Z AUTO 00000KT 10SM CLR 20/18 A3001 RMK AO2
     T01980176=
KISQ 080836Z AUTO 21006KT 1SM -RA OVC002 19/18 A2995 RMK AO2=
KJES 080840Z AUTO 00000KT 7SM CLR 19/19 A3000 RMK AO2
     T01870188=
KJYL 080841Z AUTO 00000KT 10SM CLR 22/21 A3000 RMK AO2=
KLDM 080836Z AUTO 22005KT 10SM BKN110 22/21 A3000 RMK AO2=
KMCD 080835Z AUTO 18003KT 7SM BKN110 21/18 A2997 RMK AO2=
KMFV 080842Z AUTO 08005KT 3SM -RA SCT006 BKN110 25/24 A2998 RMK
     AO2=
KMZH 080831Z AUTO 29004KT 10SM SCT100 15/14 A3004 RMK AO2=
KONZ 080837Z AUTO 00000KT 10SM SCT075 26/20 A3002 RMK AO2=
KORB 080834Z AUTO 00000KT 10SM CLR 15/13 A3001 RMK AO2=
KOSC 080834Z AUTO 00000KT 7SM CLR 19/18 A3000 RMK AO2=
KOWA 080833Z AUTO 30003KT 10SM CLR 17/17 A3007 RMK AO2=
KPHN 080836Z AUTO 00000KT 1/2SM FG VV005 20/19 A3002 RMK AO2=
KPSK 080842Z AUTO 00000KT 7SM CLR 24/17 A3014 RMK AO2=
KRMY 080835Z AUTO 00000KT 10SM CLR 22/19 A3004 RMK AO2=
KSAW 080839Z AUTO 31003KT 1SM BR OVC001 18/17 A2997 RMK AO2=
####018000163####
SAUS70 KWBC 080900
METAR
KBQP 080847Z AUTO 00000KT 4SM BR CLR 24/24 A3003 RMK AO2=
KCWV 080845Z AUTO 28003KT 7SM CLR 21/21 A3000 RMK AO2
     T02100210=
####018000091####
SPAU31 KWBC 080844
SPECI
YSNF 080840Z 12009KT 9999 SCT008 SCT014 BKN018 14/12 Q1017=
####018000317####
SAUS80 KWBC 080844
METAR
KVTI 080835Z AUTO 29003KT 10SM CLR 21/21 A3003 RMK AO2=
KJNX 080839Z AUTO 00000KT 5SM CLR 21/21 A2993 RMK AO2=
KPZQ 080835Z AUTO 23003KT 7SM CLR 22/22 A2998 RMK AO2=
KAYS 080840Z AUTO 00000KT 10SM CLR 22/21 A3000 RMK AO1=
KDBN 080840Z AUTO 30003KT 10SM CLR 24/19 A3000 RMK AO1=
####018000083####
SPAF31 KWBC 080844
SPECI
DNMM 080838Z 00000KT 9999 BKN010 26/25 Q1015 NOSIG=
####018000082####
SPAK31 KWBC 080844
SPECI
PAED 080841Z AUTO 00000KT 10SM BKN080 13/10 A3000=
####018000855####
SPUS70 KWBC 080844
SPECI
KACV 080840Z AUTO 00000KT 3SM BR OVC001 10/10 A2996 RMK AO2=
KBVY 080840Z 16005KT 8SM OVC011 22/20 A3005 RMK AO2 PNO=
KSET 080840Z AUTO 25003KT 4SM -RA BR FEW007 BKN018 OVC049 25/24
     A3002 RMK AO2 RAB34 P0001=
KVTA 080840Z AUTO 00000KT 2 1/2SM BR BKN065 19/18 A3008 RMK
     AO2=
KGFL 080841Z AUTO 00000KT 3/4SM BR FEW100 21/21 A3002 RMK AO2=
KLUK 080841Z AUTO 00000KT 1 3/4SM R21L/2000V5500FT BR CLR 22/21
     A3006 RMK AO2=
KUCP 080842Z AUTO 00000KT 1/2SM FG CLR 18/18 A3009 RMK AO2 $=
KMTH 080842Z AUTO 02005KT 10SM SCT020 BKN025 A2991 RMK AO2 LTG
     DSNT SW FZRANO $=
KOAK 080842Z 29007KT 10SM OVC011 15/11 A2994 RMK AO2=
KBRL 080842Z AUTO 7SM SCT001 23/22 A3002 RMK AO2 $=
PAWD 080841Z AUTO 00000KT 3SM BR BKN003 BKN010 OVC055 10/09 A2998
     RMK AO2 RAE00 CIG 001V006 P0000 TSNO=
####018000078####
SAAF18 LFPW 080800 RRB
METAR FIMR 080800Z 12018KT 9999 SCT018 26/17 Q1021=
####018000252####
SPUS80 KWBC 080844
SPECI
KBDR 080840Z AUTO 09007KT 3/4SM BR OVC002 24/23 A3003 RMK AO2=
KJLN 080842Z 00000KT 1 3/4SM +RA BR FEW010 OVC028 23/22 A3004 RMK
     AO2 RAB27 P0007=
KLXV 080838Z AUTO 00000KT 10SM OVC029 07/06 A3053 RMK AO2 TSNO=
####018003150####
SAUS70 KWBC 080844 RRA
METAR
KSIF 080840Z AUTO 00000KT 5SM BR BKN090 22/21 A3000 RMK AO2=
KSJX 080836Z AUTO 23007KT 7SM SCT070 21/20 A2996 RMK AO2=
KSLH 080835Z AUTO 00000KT 10SM BKN120 21/21 A2996 RMK AO2=
KTPF 080840Z AUTO 05004KT 10SM CLR 24/23 A2998 RMK AO2=
KTSP 080835Z AUTO 00000KT 10SM CLR 14/07 A3003 RMK AO2=
KTTF 080833Z AUTO 00000KT 10SM CLR 23/22 A3002 RMK AO2=
KUKF 080841Z AUTO 00000KT 10SM SCT090 22/17 A3006 RMK AO1=
KUNV 080840Z AUTO 00000KT 7SM CLR 20/18 A3009 RMK AO2
     T02020182=
KVDI 080842Z AUTO 24003KT 10SM CLR 23/21 A3000 RMK AO1=
KVWU 080831Z AUTO 00000KT 10SM CLR 14/13 A3002 RMK AO2=
KW99 080839Z AUTO 00000KT 7SM SCT085 21/17 A3009 RMK AO2=
KXVG 080836Z AUTO 00000KT 7SM CLR 12/11 A3005 RMK AO2=
K0R3 080839Z AUTO 06003KT 10SM CLR 25/25 A2998 RMK AO2=
K1A5 080840Z AUTO 00000KT 2 1/2SM BR 17/16 A3015 RMK AO2 SKY
     OBSCURED T01690156=
K3I2 080840Z AUTO 00000KT 1/2SM FG OVC001 18/18 A3007 RMK AO2=
K47A 080840Z AUTO 00000KT 10SM CLR 21/19 A3006 RMK AO2
     T02070185=
KACP 080839Z AUTO 00000KT 5SM BR SCT020 23/23 A3000 RMK AO2=
KAMN 080836Z AUTO 00000KT 5SM BR SCT065 BKN075 22/22 A3001 RMK
     AO2=
KAQP 080833Z AUTO 22003KT 10SM CLR 14/14 A3010 RMK AO2=
KAVC 080840Z AUTO 00000KT 7SM SCT110 26/19 A3002 RMK AO2=
KBCB 080840Z AUTO 00000KT 5SM BR BKN085 21/21 A3015 RMK AO2=
KBFW 080833Z AUTO 00000KT 10SM SCT055 17/15 A3000 RMK AO2=
KBGE 080840Z AUTO 00000KT 10SM CLR 21/20 A3001 RMK AO2=
KBIJ 080840Z AUTO 00000KT 10SM CLR 19/ A3002 RMK AO2=
KBQK 080837Z AUTO 25005KT 10SM CLR 22/22 A3000 RMK AO1 T02220216
     PNO=
KCCO 080840Z AUTO 00000KT 4SM CLR 21/20 A3004 RMK AO1=
KCDA 080835Z AUTO 00000KT 4SM BR CLR 20/18 A3009 RMK AO2=
KCDD 080831Z AUTO 18003KT 7SM CLR 14/14 A3003 RMK AO2=
KCDH 080840Z AUTO 00000KT 3/4SM BR OVC001 22/22 A3003 RMK AO2=
KCTJ 080840Z AUTO 00000KT 10SM CLR 21/19 A3006 RMK AO2
     T02070190=
KCTZ 080842Z AUTO 00000KT 7SM CLR 24/22 A2992 RMK AO2=
KCVX 080835Z AUTO 18004KT 10SM SCT120 21/20 A2998 RMK AO2=
KDNN 080838Z AUTO 00000KT 7SM CLR 20/20 A3004 RMK AO2=
KDPL 080840Z AUTO 00000KT 7SM CLR 23/22 A2992 RMK AO2=
KDVP 080837Z AUTO 27003KT 10SM CLR 16/13 A3017 RMK AO2
     T01550132=
KEDE 080836Z AUTO 00000KT 3SM BR CLR 23/22 A2994 RMK AO2=
KEMV 080837Z AUTO 35004KT 5SM HZ CLR 23/21 A2997 RMK AO2=
KERY 080836Z AUTO 21003KT 10SM SCT019 BKN026 BKN090 19/19 A2996
     RMK AO2=
KETH 080834Z AUTO 23005KT 10SM CLR 16/14 A3010 RMK AO2=
KEXX 080839Z AUTO 00000KT 10SM CLR 22/18 A2999 RMK AO2=
KEZF 080838Z AUTO 00000KT 7SM CLR 27/25 A2996 RMK AO2
     T02660245=
KF24 080839Z AUTO 7SM CLR 25/23 A3006 RMK AO2 T02450232=
KFKA 080843Z AUTO 31005KT 4SM BR SCT033 19/19 A3007 RMK AO2
     T01900185=
KFKN 080840Z AUTO 00000KT 5SM 24/22 A2996 RMK AO1=
KFKS 080835Z AUTO 22006KT 10SM -DZ SCT085 BKN110 22/19 A2998 RMK
     AO2=
KFOZ 080833Z AUTO 00000KT 1/4SM FG OVC001 12/12 A3005 RMK AO2=
KGEV 080841Z AUTO 00000KT 10SM CLR 23/17 A3018 RMK AO2=
KGHG 080840Z AUTO 16003KT 10SM OVC005 21/21 A3008 RMK AO2=
KGOV 080835Z AUTO 00000KT 4SM BR CLR 20/20 A3002 RMK AO2=
####018000333####
SAAS33 KWBC 080830 RRB
METAR
WBGG 080830Z 25005KT 9999 SCT020 BKN150 27/24 Q1008 RESH NOSIG=
WBKK 080830Z 09008KT 9999 -TSRA FEW013 FEW016CB SCT035 OVC260
     25/23 Q1009 NOSIG=
WMKK 080830Z 19006KT 150V230 9999 SCT018 SCT140 BKN280 31/26 Q1008
     NOSIG=
WMKP 080830Z 21010KT 9999 FEW020 BKN300 31/25 Q1008 NOSIG=
####018000117####
SPJP31 KWBC 080844
SPECI
RJSS 080832Z 14009KT 9999 FEW010 SCT040 BKN/// 25/21 Q1009 RMK
1ST010 4CU040 A2981=
####018000111####
SPJP31 KWBC 080844
SPECI
RJCC 080834Z 17006KT 140V210 1800 -DZ BR BKN002 18/17 Q1009 RMK
7ST002 A2981=
####018000276####
SAIO31 KWBC 080800 RRG
METAR
WBGG 080830Z 25005KT 9999 SCT020 BKN150 27/24 Q1008 RESH NOSIG=
WBKK 080830Z 09008KT 9999 -TSRA FEW013 FEW016CB SCT035 OVC260
     25/23 Q1009 NOSIG=
WBSB 080830Z 28007KT 9999 SCT015 FEW016CB BKN140 30/24 Q1007 TEMPO
     6000 SHRA=
####018000087####
SAEM31 KWBC 080830 RRB
METAR
LYPG 080830Z 36016KT 9999 FEW040 26/07 Q1017 NOSIG=
####018000076####
SPUS41 KWBC 080844
SPECI
KBVY 080840Z 16005KT 8SM OVC011 22/20 A3005=
####018000111####
SPXX61 KWBC 080844
SPECI
EGVA 080839Z AUTO 00000KT 9999 -RA FEW090 17/12 A3007 RMK AO2
RAB0839 SLP183=
####018000086####
SPUS41 KWBC 080844
SPECI
KBDR 080840Z AUTO 09007KT 3/4SM BR OVC002 24/23 A3003=
####018000104####
SPUS41 KWBC 080844
SPECI
KLUK 080841Z AUTO 00000KT 1 3/4SM R21L/2000V5500FT BR CLR 22/21
A3006=
####018000086####
SAXX99 KWBC 080800 RRX
METAR
ESNG 080820Z 15009KT 9999 FEW056 19/09 Q1014 RERA=
####018000084####
SPCN47 CWAO 080843
SPECI CYAM 080843Z 09003KT 12SM BKN006 OVC120 RMK SF7AC1=

####018000086####
SPUS51 KWBC 080844
SPECI
KGFL 080841Z AUTO 00000KT 3/4SM BR FEW100 21/21 A3002=
####018000080####
SACN90 CWAO 080840
WEF SA 0840 AUTO8 M M M 179/12/12/1315/M/M 2004 06MM=

####018000084####
SPUS74 KWBC 080844
SPECI
KACV 080840Z AUTO 00000KT 3SM BR OVC001 10/10 A2996=
####018000089####
SPAU32 YBBN 080842
SPECI YSNF 080840Z 12009KT 9999 SCT008 SCT014 BKN018 14/12 Q1017=
####018000086####
SPUS81 KWBC 080844
SPECI
KBDR 080840Z AUTO 09007KT 3/4SM BR OVC002 24/23 A3003=
####018001276####
SARS18 KAWN 080800 RRJ
METAR UELL 080830Z VRB02MPS 9999 VCTS BKN025CB OVC200 18/14 Q1010 NOSIG
      RMK QFE683 08CLRD70=
METAR UHHH 080830Z 03004MPS 9999 BKN030CB OVC100 18/15 Q1010 NOSIG
      RMK QFE751/1001 55090060=
METAR UHMM 080830Z 24003MPS 9999 BKN008 OVC027 13/11 Q1016 TEMPO BKN010
      RMK QFE747 88010070 MT OBSC=
METAR UHSS 080830Z 16003MPS 9999 BKN021 14/12 Q1010 NOSIG RMK MT OBSC
      QFE756/1009 19CLRD70=
METAR UHWW 080830Z 24005MPS 9999 BKN021 OVC070 19/16 Q1009 NOSIG RMK
      QFE756/1008 75CLRD70=
METAR UIAA 080830Z 15003MPS 9999 BKN050CB OVC200 29/08 Q1005 NOSIG
      RMK QFE696 29CLRD70=
METAR UIBB 080830Z 06005MPS 9999 FEW033 BKN200 28/12 Q1005 NOSIG RMK
      QFE711/0948 30CLRD60=
METAR UIII 080830Z 16004MPS CAVOK 21/13 Q1006 NOSIG RMK QFE712/0950
      12CLRD60=
METAR UIUU 080830Z 21004MPS 160V280 9999 SCT040CB OVC100 23/13 Q1007
      NOSIG RMK QFE711/0948=
METAR ULLI 080830Z 12002MPS 070V150 CAVOK 30/17 Q1013 NOSIG=
METAR UMKK 080830Z 31005MPS P8000 SCT200 22/15 Q1019 NOSIG RMK QFE
      763 SC07=
METAR UWGG 080830Z 09003MPS 060V140 8000 SKC 33/09 Q1016 NOSIG RMK
      QFE755 18090070=
METAR UWPP 080830Z 12004MPS 9999 SCT033CB BKN100 28/09 Q1014 NOSIG
      RMK QFE746 11090060=
####018000631####
SAXX70 KAWN 080800 RRU
METAR KQEJ 080830Z AUTO 21005KT 7SM CLR 27/18 A2990 RMK A02=
METAR KQEL 080840Z AUTO 00002KT 7SM -SHRA FEW038 SCT100 25/20 A2970
      RMK A02=
METAR KQEN 080840Z AUTO 28003KT 7SM CLR 21/16 A3039 RMK A02=
METAR KQEP 080840Z AUTO 20003KT 7SM CLR 28/17 A2984 RMK A02=
METAR KQEQ 080840Z AUTO 18001KT 7SM FEW110 25/20 A2979 RMK A02=
METAR KQEW 080840Z AUTO 10002KT 7SM CLR 28/19 A2981 RMK A02=
METAR KQEY 080840Z AUTO 27004KT 7SM CLR 28/15 A2959 RMK A02=
METAR KQFB 080840Z AUTO 06003KT 6SM BR CLR 25/22 A2991 RMK A02=
METAR KQFV 080840Z AUTO 01002KT 7SM -SHRA OVC030 25/17 A3000 RMK A02=
####018000111####
SAUS44 KMOB 080844 COR
MTRNSE
SPECI KNSE 080839Z AUTO 00000KT 1 1/4SM BR FEW004 23/22 A3002 RMK 
AO2 $
####018000118####
SAUS44 KMAF 080844
MTRGDP
SPECI KGDP 080843Z AUTO 05023KT 3SM BR OVC004 17/17 A3021 RMK AO2 
RAE34 P0000 TSNO
####018000127####
SPCN46 CWAO 080844
SPECI CYKF 080844Z AUTO 00000KT 2SM BR CLR 19/19 A3005 RMK SLP173
 DENSITY ALT 1600FT VIS VRB 1-3=

####018000092####
SAAH10 OAKB 080850
METAR OAKB 080850Z VRB02KT 9999 FEW070 34/06 Q1016 NOSIG RMK BLU BLU=
####018002984####
SAUS20 KNKA 080844
METAR K3A1 080840Z AUTO 00000KT 10SM CLR 22/22 A3009 RMK AO2 
     T02210220=
METAR K4A9 080840Z AUTO 00000KT 7SM CLR 20/18 A3005 RMK AO2 
     T02000181=
METAR K4R4 080840Z AUTO 00000KT 1/4SM FG BKN003 OVC008 24/23 
     A3001 RMK AO2 T02410233=
METAR K8A0 080839Z AUTO 01003KT 10SM CLR 25/22 A3006 RMK AO2=
METAR KAFP 080840Z AUTO 00000KT 10SM CLR 21/18 A2997 RMK AO2 
     T02060179=
METAR KALX 080840Z AUTO 00000KT 10SM CLR 22/21 A3004 RMK AO1=
METAR KASJ 080839Z AUTO 00000KT 5SM HZ CLR 24/21 A2995 RMK AO2=
METAR KCPC 080840Z AUTO 27004KT 10SM CLR 27/19 A2991 RMK AO2 
     T02660194=
METAR KCWF 080840Z AUTO 07005KT 7SM CLR 24/24 A2998 RMK AO2=
METAR KDRI 080840Z AUTO 09003KT 10SM BKN014 BKN022 23/23 A3001 
     RMK AO2=
METAR KEHO 080840Z AUTO 04004KT 7SM CLR 19/18 A3001 RMK AO2 
     T01910180=
METAR KEYF 080840Z AUTO 30004KT 10SM CLR 27/19 A2991 RMK AO2 
     T02660186=
METAR KFFA 080838Z AUTO 07006KT 10SM SCT008 25/24 A2994 RMK AO2 
     T02500235=
METAR KFYJ 080842Z AUTO 00000KT 5SM OVC120 27/24 A2998 RMK AO1=
METAR KGAO 080840Z AUTO 08004KT 10SM CLR 27/25 A2999 RMK AO2=
METAR KGWW 080840Z AUTO 03004KT 10SM CLR 24/20 A2993 RMK AO2 
     T02410202=
METAR KHBI 080842Z AUTO 00000KT CLR 22/17 A3001 RMK AO2 PWINO=
METAR KHNZ 080840Z AUTO 00000KT 7SM SCT095 24/19 A2998 RMK AO2 
     T02390190=
METAR KHQU 080842Z AUTO 00000KT 10SM CLR 21/19 A3005 RMK AO1=
METAR KHSP 080840Z AUTO 07004KT 10SM CLR 23/15 A3026 RMK AO2=
SPECI KHTS 080843Z 00000KT 2 1/2SM BR CLR 22/21 A3007 RMK AO2=
METAR KHUM 080840Z AUTO 7SM CLR 25/25 A2998 RMK AO2 P0001=
METAR KHWY 080840Z AUTO 00000KT 7SM CLR 22/19 A2998 RMK AO2=
METAR KIDI 080840Z AUTO 00000KT 4SM CLR 18/18 A3010 RMK AO2=
METAR KISO 080840Z AUTO 03004KT 7SM CLR 24/21 A2993 RMK AO2 
     T02440205=
METAR KIXA 080840Z AUTO 35004KT 7SM CLR 22/19 A2994 RMK AO2 
     T02150191=
METAR KJGG 080840Z AUTO 00000KT 5SM BKN120 27/24 A2996 RMK AO1=
METAR KJKA 080840Z AUTO 00000KT 7SM CLR 26/25 A3001 RMK AO2 
     T02560247=
METAR KJQF 080840Z AUTO 00000KT 10SM CLR 23/18 A2999 RMK AO2 
     T02260180=
METAR KJYO 080840Z AUTO 00000KT 7SM SCT100 27/19 A3000 RMK AO2=
METAR KLDJ 080840Z AUTO 00000KT 3SM BR BKN002 25/23 A3001 RMK AO2 
     T02450232=
METAR KLGC 080835Z AUTO 00000KT 10SM CLR 21/ A3003 RMK AO1=
METAR KLHZ 080840Z AUTO 31003KT 7SM SCT100 SCT120 22/19 A2996 RMK 
     AO2 T02200190=
METAR KLKU 080840Z AUTO 35003KT 7SM CLR 27/19 A2999 RMK AO2=
METAR KLNP 080838Z AUTO 00000KT 7SM CLR 21/18 A3018 RMK AO1=
METAR KLOM 080840Z AUTO 00000KT 5SM CLR 22/21 A3001 RMK AO1 
     T02180205=
SPECI KLWC 080843Z AUTO 35004KT 10SM SCT025 OVC095 22/21 A3007 RMK 
    AO2 RAB11E28 P0000=
METAR KMDQ 080840Z AUTO 00000KT 7SM CLR 22/21 A3006 RMK AO2 
     T02210214=
METAR KMGR 080840Z AUTO 00000KT 10SM CLR 22/20 A3002 RMK AO2=
METAR KMKJ 080840Z AUTO 00000KT 1 1/2SM CLR 18/08 A3021 RMK AO1=
####018001750####
SAUS20 KNKA 080844
METAR KMMU 080840Z AUTO 00000KT 5SM BR SCT110 21/21 RMK AO2 
     T02090205=
METAR KMQI 080837Z AUTO 06007KT 10SM SCT120 26/24 A2994 RMK AO2=
METAR KMQS 080840Z AUTO 10003KT 7SM CLR 24/22 A3005 RMK AO2 PWINO 
     PNO=
METAR KMRN 080840Z AUTO 00000KT 7SM CLR 18/17 A3010 RMK AO2=
METAR KMTV 080840Z AUTO 00000KT 7SM CLR 22/21 A3004 RMK AO2=
METAR KMWK 080843Z AUTO 00000KT 7SM CLR 23/19 A3004 RMK AO2=
METAR KOBE 080841Z AUTO 36003KT 10SM CLR 23/22 A2996 RMK AO2=
METAR KOKV 080840Z AUTO 00000KT 7SM CLR 24/19 A3003 RMK AO2 
     T02370190=
METAR KOMH 080840Z AUTO 00000KT 10SM CLR 27/20 A3002 RMK AO2 
     T02660202=
METAR KONX 080840Z AUTO 00000KT 10SM RA SCT090 OVC110 26/24 A2995 
     RMK AO2 T02600235=
METAR KOPN 080840Z AUTO 00000KT 10SM CLR 24/22 A3004 RMK AO1=
METAR KPCM 080840Z AUTO 00000KT 5SM BR CLR 22/21 A3000 RMK AO2=
METAR KPGV 080841Z AUTO 00000KT 7SM CLR 24/20 A2994 RMK AO2=
METAR KPTB 080842Z AUTO 00000KT 5SM BR CLR 23/21 A2998 RMK AO2=
METAR KRCZ 080840Z AUTO 00000KT 10SM CLR 25/19 A2996 RMK AO2 
     T02470187=
METAR KRUQ 080841Z AUTO 00000KT 10SM SCT090 21/21 A3000 RMK AO2=
METAR KSVH 080840Z AUTO 00000KT 10SM CLR 21/16 A3003 RMK AO2 
     T02120157=
METAR KTBR 080840Z AUTO 23003KT 10SM CLR 23/20 A2999 RMK AO2 
     T02290201=
METAR KTDF 080842Z AUTO 00000KT 5SM CLR 21/20 A3000 RMK AO1=
METAR KTVI 080840Z AUTO 00000KT 10SM CLR 22/21 A3002 RMK AO2 
     T02180211=
METAR KVJI 080842Z AUTO 00000KT 5SM BR SCT075 21/19 A3013 RMK AO2=
METAR KVUJ 080839Z AUTO 00000KT 10SM OVC090 22/19 A2997 RMK AO2=
METAR KVVG 080835Z AUTO 00000KT 21/21 A3000 RMK AO2=
METAR KW45 080840Z AUTO 00000KT 7SM CLR 23/19 A3004 RMK AO2 
     T02290191=
####018000077####
SPUS31 KWBC 080845
SPECI
KOAK 080842Z 29007KT 10SM OVC011 15/11 A2994=
