####018000108####
SPUS81 KWBC 081135
SPECI
KVCT 081132Z AUTO 33003KT 1 1/2SM +RA BR BKN005 BKN014 OVC023
25/24 A2989=
####018001870####
SAEW KAWN 081100 RRM
METAR ETGY 081120Z 25003KT 9999 FEW080 BKN250 30/10 Q1019 BLU/=
METAR ETSI 081120Z 13005KT 9999 25/07 Q1022 BLU/BLU/=
METAR LFBC 081130Z AUTO 12010KT 080V160 9999NDV NSC 35/11 Q1015=
METAR LFBF 081130Z AUTO 11011KT 9999NDV // NSC 33/17 Q1018=
METAR LFBG 081130Z AUTO 09008KT 070V130 9999NDV NSC 33/13 Q1017=
METAR LFBM 081130Z AUTO 11011KT 9999NDV NSC 34/17 Q1016=
METAR LFCR 081130Z AUTO 18006KT 120V240 9999NDV NSC 32/06 Q1021=
METAR LFJL 081130Z AUTO VRB04KT 9999NDV NSC 30/07 Q1020=
METAR LFKS 081130Z AUTO 10006KT 060V160 9999NDV NSC 30/21 Q1020=
METAR LFLL 081130Z 22005KT 150V310 CAVOK 30/15 Q1020 NOSIG=
METAR LFMI 081130Z AUTO 23006KT 180V280 9999NDV NSC 33/15 Q1020=
METAR LFMN 081130Z 11006KT 9999 FEW023 29/22 Q1020 NOSIG=
METAR LFMO 081130Z AUTO VRB04KT 9999NDV NSC 34/14 Q1020=
METAR LFMU 081130Z AUTO 14008KT 110V180 9999NDV NSC 30/13 Q1020=
METAR LFMY 081130Z 24005KT 130V300 CAVOK 33/14 Q1020=
METAR LFOA 081130Z AUTO VRB03KT 9999NDV NSC 30/15 Q1019=
METAR LFOC 081130Z AUTO 22006KT 180V260 9999NDV NSC 31/10 Q1018=
METAR LFOE 081130Z 20006KT 120V260 CAVOK 31/09 Q1018=
METAR LFOH 081130Z AUTO 35011KT 9999NDV NSC 22/13 Q1019=
METAR LFOJ 081130Z VRB02KT CAVOK 30/12 Q1019=
METAR LFPB 081130Z VRB03KT CAVOK 31/10 Q1018 NOSIG=
METAR LFPC 081130Z VRB04KT CAVOK 30/12 Q1018=
METAR LFPV 081130Z AUTO VRB02KT 9999NDV NSC 29/11 Q1019=
METAR LFQQ 081130Z 21007KT 130V280 CAVOK 29/13 Q1018 NOSIG=
METAR LFSD 081130Z AUTO 15005KT 080V220 9999NDV NSC 30/10 Q1020=
METAR LFSF 081130Z AUTO 29004KT 240V330 9999NDV NSC 30/09 Q1020=
METAR LFSI 081130Z AUTO 21003KT 140V290 9999NDV NSC 31/09 Q1020=
METAR LFSO 081130Z AUTO 28004KT 180V340 9999NDV NSC 30/11 Q1020=
METAR LFSR 081130Z AUTO 36003KT 290V090 9999NDV NSC 31/11 Q1019=
METAR LFSX 081130Z AUTO VRB05KT 9999NDV NSC 30/12 Q1020=
####018001798####
SAEU KAWN 081100 RRX
METAR LFCR 081130Z AUTO 18006KT 120V240 9999NDV NSC 32/06 Q1021=
METAR LFJL 081130Z AUTO VRB04KT 9999NDV NSC 30/07 Q1020=
METAR LFKB 081130Z 10006KT 070V140 9999 FEW021 29/20 Q1020 NOSIG=
METAR LFKJ 081130Z 22009KT 9999 FEW030 29/23 Q1019 NOSIG=
METAR LFLL 081130Z 22005KT 150V310 CAVOK 30/15 Q1020 NOSIG=
METAR LFMN 081130Z 11006KT 9999 FEW023 29/22 Q1020 NOSIG=
METAR LFMU 081130Z AUTO 14008KT 110V180 9999NDV NSC 30/13 Q1020=
METAR LFOA 081130Z AUTO VRB03KT 9999NDV NSC 30/15 Q1019=
METAR LFOC 081130Z AUTO 22006KT 180V260 9999NDV NSC 31/10 Q1018=
METAR LFOE 081130Z 20006KT 120V260 CAVOK 31/09 Q1018=
METAR LFOH 081130Z AUTO 35011KT 9999NDV NSC 22/13 Q1019=
METAR LFOJ 081130Z VRB02KT CAVOK 30/12 Q1019=
METAR LFPB 081130Z VRB03KT CAVOK 31/10 Q1018 NOSIG=
METAR LFPC 081130Z VRB04KT CAVOK 30/12 Q1018=
METAR LFPG 081130Z 10004KT 040V180 CAVOK 30/09 Q1019 NOSIG=
METAR LFPO 081130Z 22003KT 180V260 CAVOK 30/11 Q1019 NOSIG=
METAR LFPV 081130Z AUTO VRB02KT 9999NDV NSC 29/11 Q1019=
METAR LFQQ 081130Z 21007KT 130V280 CAVOK 29/13 Q1018 NOSIG=
METAR LFSF 081130Z AUTO 29004KT 240V330 9999NDV NSC 30/09 Q1020=
METAR LFSI 081130Z AUTO 21003KT 140V290 9999NDV NSC 31/09 Q1020=
METAR LFSO 081130Z AUTO 28004KT 180V340 9999NDV NSC 30/11 Q1020=
METAR LFSR 081130Z AUTO 36003KT 290V090 9999NDV NSC 31/11 Q1019=
METAR LFSX 081130Z AUTO VRB05KT 9999NDV NSC 30/12 Q1020=
METAR LRBS 081130Z 31004KT 260V350 9999 FEW020 21/14 Q1017 NOSIG=
METAR LRCK 081130Z 36011KT 340V040 9999 FEW035 25/15 Q1015 NOSIG=
METAR LROP 081130Z 28003KT 230V320 9999 FEW045CB 21/14 Q1016 880///95
      NOSIG=
METAR LRSB 081130Z 36004KT 310V040 9999 FEW019 SCT040 OVC090 17/12
      Q1020=
METAR LRTR 081130Z 01009KT 330V050 9999 FEW034 24/14 Q1020=
####018002995####
SAUS20 KNKA 081135
METAR KAFJ 081135Z AUTO 00000KT 1 3/4SM SCT060 19/19 A3012 RMK AO1=
METAR KAIZ 081135Z AUTO 00000KT 8SM FEW004 OVC015 22/21 A3007 RMK 
    AO1 LTG DSNT SW=
METAR KARG 081135Z AUTO 20004KT 10SM CLR 24/22 A3007 RMK AO1=
METAR KAUO 081135Z AUTO 31005KT 10SM CLR 25/22 A3004 RMK AO1=
METAR KAWO 081135Z AUTO 00000KT 8SM CLR 13/13 A2998 RMK AO1=
METAR KBHB 081135Z AUTO 20007KT 7SM OVC002 18/18 A3013 RMK AO1=
METAR KBID 081135Z AUTO 11006KT 1/4SM OVC002 21/21 A3009 RMK AO1=
METAR KBKX 081135Z AUTO 15004KT 10SM CLR 13/12 A3017 RMK AO1=
METAR KBLM 081135Z AUTO 16003KT 10SM SCT008 OVC090 24/20 A3007 RMK 
    AO1=
METAR KBTP 081135Z AUTO 00000KT 2SM CLR 21/19 A3011 RMK AO1=
METAR KBVX 081135Z AUTO 15004KT 10SM CLR 23/22 A3007 RMK AO1=
METAR KCGZ 081135Z AUTO 00000KT 10SM CLR 27/01 A2981 RMK AO1=
METAR KCIU 081135Z AUTO 31005KT 3SM OVC002 20/18 A2998 RMK AO1=
METAR KCOD 081135Z 09005KT 10SM CLR 11/02 A3033 RMK AO1=
METAR KCOE 081135Z AUTO 07008KT 10SM CLR 13/08 A3009 RMK AO1=
METAR KCVN 081135Z AUTO 01005KT 10SM BKN005 BKN009 16/14 A3023 RMK 
    AO1=
METAR KCVO 081135Z AUTO 28008KT 10SM CLR 13/09 A2993 RMK AO1=
METAR KCWI 081135Z 27004KT 3SM OVC006 A3006 RMK AO1=
METAR KDVL 081135Z AUTO 29005KT 10SM CLR 14/12 A3008 RMK AO1=
METAR KDYR 081135Z AUTO 00000KT 10SM CLR 24/20 A3008 RMK AO1=
METAR KEAR 081135Z AUTO 34006KT 10SM CLR 15/13 A3024 RMK AO1=
METAR KEEN 081135Z AUTO 19004KT 10SM FEW020 SCT120 24/22 A3008 RMK 
    AO1=
METAR KEGE 081135Z 00000KT 10SM CLR 09/08 A3038 RMK AO1=
METAR KEHR 081135Z AUTO 00000KT 8SM CLR 23/19 A3006 RMK AO1=
SPECI KEKQ 081133Z AUTO 00000KT 1SM BR CLR 21/19 A3012 RMK AO2 =
METAR KENV 081135Z 00000KT 10SM CLR 17/01 A3010 RMK AO1=
METAR KESC 081135Z AUTO 29005KT 6SM OVC021 19/16 A2998 RMK AO1=
METAR KEUL 081135Z AUTO 00000KT 10SM CLR 12/06 A3007 RMK AO1=
METAR KEWK 081135Z AUTO 01007KT 10SM OVC004 21/19 A3007 RMK AO1=
METAR KFAM 081135Z AUTO 24003KT 10SM OVC080 23/22 A3009 RMK AO1=
METAR KFKL 081135Z 00000KT 4SM CLR 20/18 A3015 RMK AO1=
METAR KFLP 081135Z AUTO 11003KT 9SM BKN065 23/21 A3006 RMK AO1=
METAR KFNL 081135Z AUTO 05003KT 8SM OVC006 14/13 A3032 RMK AO1=
METAR KFOD 081135Z AUTO 33003KT 10SM CLR 17/16 A3013 RMK AO1=
METAR KFRM 081135Z AUTO 10SM CLR 16/14 A3015 RMK AO1=
METAR KGAD 081135Z AUTO 30003KT 10SM CLR 22/19 A3007 RMK AO1=
METAR KGAI 081135Z 09003KT 5SM SCT080 25/22 A3005 RMK AO1 
     =
METAR KGBD 081135Z AUTO 36008KT 10SM OVC008 19/18 A3017 RMK AO1=
METAR KGDV 081135Z AUTO 00000KT 10SM CLR 12/07 A3017 RMK AO1=
METAR KGPZ 081135Z AUTO 24005KT 10SM CLR 17/14 A3006 RMK AO1=
METAR KGTU 081135Z 09003KT 8SM BKN005 OVC012 24/22 A3002 RMK AO1=
METAR KGUC 081135Z AUTO 36004KT 10SM CLR 07/M09 A3045 RMK AO1=
METAR KGXY 081135Z AUTO 06004KT 7SM BKN011 OVC049 15/12 A3032 RMK 
    AO1=
METAR KHDN 081135Z 12009KT 10SM CLR 08/05 A3032 RMK AO1=
METAR KHEF 081135Z AUTO 34003KT 6SM OVC100 26/21 A3002 RMK AO1=
####018000075####
SAEG31 HECA 081130
METAR HECA 081130Z 30011KT CAVOK 33/16 Q1010 NOSIG=
####018001081####
SAUS20 KNKA 081135
METAR KSFZ 081135Z AUTO 16003KT 10SM SCT008 SCT013 22/21 A3009 RMK 
    AO1=
METAR KSGT 081135Z 00000KT 10SM CLR 23/22 A3008 RMK AO1=
METAR KSGU 081135Z AUTO 00000KT 10SM CLR 23/01 A2996 RMK AO1=
METAR KSKX 081135Z AUTO 33006KT 10SM CLR 11/06 A3039 RMK AO1=
METAR KSLG 081135Z AUTO 13003KT 10SM OVC021 23/21 A3008 RMK AO1=
METAR KSMN 081135Z AUTO 00000KT 10SM CLR 07/02 A3026 RMK AO1=
METAR KSQI 081135Z 00000KT 3SM SCT004 OVC012 23/22 A3006 RMK AO1=
METAR KSUE 081135Z AUTO 24004KT 10SM OVC009 21/21 A2999 RMK AO1=
METAR KTPL 081135Z 06004KT 10SM OVC009 24/23 A2999 RMK AO1 
     =
METAR KTVF 081135Z AUTO 22004KT 10SM CLR 14/11 A3005 RMK AO1=
METAR KVBT 081135Z AUTO 00000KT 10SM OVC022 23/21 A3005 RMK AO1=
METAR KVIS 081135Z AUTO 29003KT 10SM CLR 18/12 A2981 RMK AO1=
METAR KWVL 081135Z AUTO 18005KT 3SM OVC003 21/19 A3006 RMK AO1=
METAR KWWD 081135Z AUTO 10SM BKN080 24/23 A3004 RMK AO1=
SPECI KY50 081132Z AUTO 31004KT 6SM BR OVC005 21/21 A3003 RMK AO2 $=
METAR KYKN 081135Z AUTO 17003KT 10SM CLR 17/15 A3019 RMK AO1=
####018002962####
SAUS20 KNKA 081135
METAR KHEZ 081135Z AUTO 00000KT 5SM CLR 21/21 A3005 RMK AO1=
METAR KHNB 081135Z AUTO 00000KT 5SM CLR 23/22 A3007 RMK AO1=
METAR KHYI 081135Z AUTO 04006KT 6SM OVC018 A2995 RMK AO1=
METAR KHYS 081135Z AUTO 01007KT 10SM BKN018 OVC026 18/16 A3020 RMK 
    AO1=
METAR KILE 081135Z 09005KT 10SM FEW006 OVC016 24/23 A2998 RMK AO1=
METAR KIWD 081135Z AUTO 31006KT 10SM FEW050 16/15 A3001 RMK AO1=
METAR KJAC 081135Z AUTO 02004KT 10SM CLR 05/M01 A3037 RMK AO1=
METAR KJHW 081135Z AUTO 00000KT 5SM CLR 20/19 A3012 RMK AO1=
METAR KKLS 081135Z AUTO 36003KT 10SM CLR 16/13 A2993 RMK AO1=
METAR KLBL 081135Z 01006KT 9SM SCT009 BKN037 OVC110 19/17 A3022 RMK 
    AO1=
METAR KLCI 081135Z AUTO 23004KT 8SM SCT025 BKN045 OVC110 24/20 A3007 
    RMK AO1=
METAR KLEW 081135Z 17005KT 2 1/2SM OVC003 21/19 A3011 RMK AO1=
METAR KLGD 081135Z AUTO 00000KT 10SM CLR 11/05 A3006 RMK AO1=
METAR KLKV 081135Z AUTO 32006KT 10SM CLR 11/00 A3011 RMK AO1=
METAR KLPC 081135Z AUTO 00000KT 10SM OVC008 13/11 A2992 RMK AO1 PNO=
SPECI KM89 081133Z AUTO 00000KT 3SM BR OVC002 24/24 A3007 RMK AO2 =
METAR KMBL 081135Z AUTO 00000KT 5SM SCT008 OVC048 22/20 A3002 RMK 
    AO1 P0001=
SPECI KMCI 081134Z 33005KT 8SM SCT004 BKN110 22/21 A3007 RMK AO2 $=
METAR KMJX 081135Z AUTO 14003KT 8SM BKN065 24/22 A3004 RMK AO1=
METAR KMKT 081135Z 31003KT 10SM CLR 16/15 A3012 RMK AO1=
METAR KMML 081135Z AUTO 28008KT 10SM CLR 16/12 A3014 RMK AO1=
METAR KMNM 081135Z AUTO 28003KT 5SM OVC004 21/19 A2999 RMK AO1=
METAR KMRF 081135Z AUTO 03007KT 10SM BKN120 17/14 A3018 RMK AO1=
METAR KMSV 081135Z AUTO 00000KT 7SM CLR 23/19 A3011 RMK AO1=
METAR KMTW 081135Z 00000KT 4SM SCT008 21/21 A3000 RMK AO1=
METAR KMVN 081135Z AUTO 00000KT 5SM CLR 23/22 A3006 RMK AO1=
METAR KOCH 081135Z AUTO 09005KT 9SM CLR 24/19 A3002 RMK AO1=
METAR KOKK 081135Z AUTO 00000KT 3SM BKN060 BKN075 OVC080 23/18 A3005 
    RMK AO1=
METAR KOLU 081135Z AUTO 34003KT 10SM OVC090 17/14 A3020 RMK AO1=
METAR KOTG 081135Z AUTO 27007KT 10SM CLR 15/13 A3017 RMK AO1=
METAR KOTH 081135Z 32003KT 10SM OVC006 10/08 A2999 RMK AO1=
METAR KPIB 081135Z AUTO 00000KT 7SM CLR 23/21 A3006 RMK AO1=
METAR KPQI 081135Z AUTO 14007KT 10SM CLR 22/19 A3001 RMK AO1=
METAR KPRX 081135Z 13006KT 5SM BKN004 OVC028 24/22 A3004 RMK AO1=
METAR KPTN 081135Z AUTO 07005KT 10SM CLR 24/M08 A3002 RMK AO1=
METAR KPTV 081135Z AUTO 17005KT 10SM CLR 17/11 A2985 RMK AO1=
METAR KPVC 081135Z 16008KT 10SM FEW009 23/21 A3011 RMK AO1=
METAR KPVU 081135Z 31003KT 10SM CLR 17/07 A3014 RMK AO1=
METAR KPWG 081135Z AUTO 08005KT 10SM BKN010 25/22 A3000 RMK AO1=
METAR KPWT 081135Z AUTO 03007KT 10SM CLR 21/07 A2998 RMK AO1=
METAR KRKD 081135Z AUTO 21005KT 1/4SM OVC002 19/18 A3012 RMK AO1=
METAR KRUT 081135Z AUTO 14004KT 6SM CLR 24/20 A3006 RMK AO1=
METAR KSDY 081135Z AUTO 19005KT 10SM FEW080 11/08 A3015 RMK AO1=
METAR KSFM 081135Z 21004KT 4SM OVC006 23/19 A3010 RMK AO1=
####018000127####
SPUS90 KWBC 081136 CCA
SPECI KBTR 081130Z 06004KT 2SM BR MIFG BKN003 24/23 A3001 RMK AO2
     TWR VIS 2 1/2 BKN V SCT $=
####018000976####
SAUS90 KWBC 081136
METAR KPQN 081133Z AUTO 00000KT 10SM CLR 16/14 A3017 RMK AO2=
METAR KFGN 081134Z AUTO 24006KT 1/2SM -DZ VV005 16/13 A2997 RMK
     AO2=
METAR KPNM 081133Z AUTO 00000KT 10SM CLR 14/14 A3010 RMK AO2=
METAR KPWC 081133Z AUTO 00000KT 1/2SM FG BKN001 11/10 A3009 RMK
     AO2=
METAR KFFM 081133Z AUTO 00000KT 10SM CLR 15/14 A3009 RMK AO2=
METAR KGDB 081133Z AUTO 25003KT 10SM CLR 14/13 A3014 RMK AO2
     T01400133=
METAR KAIT 081133Z AUTO 24003KT 10SM CLR 16/15 A3006 RMK AO2=
METAR KGHW 081133Z AUTO 24005KT 7SM CLR 15/13 A3014 RMK AO2=
METAR KMWM 081133Z AUTO 27003KT 7SM CLR 14/13 A3015 RMK AO2=
METAR KULM 081135Z AUTO 26004KT 10SM CLR 14/13 A3013 RMK AO2=
METAR KBBB 081133Z AUTO 00000KT 7SM CLR 13/13 A3012 RMK AO2=
METAR KTWM 081133Z AUTO 00000KT 10SM CLR 16/13 A3002 RMK AO2=
METAR KMGG 081135Z AUTO 27004KT 10SM CLR 17/15 A3011 RMK AO2
     T01700151=
METAR KMOX 081130Z AUTO 26004KT 10SM CLR 16/14 A3009 RMK AO2=
####018000220####
SPUS90 KWBC 081136
SPECI KVCT 081132Z AUTO 33003KT 1 1/2SM +RA BR BKN005 BKN014
     OVC023 25/24 A2989 RMK AO2 P0091=
SPECI KLXV 081133Z AUTO 00000KT 2 1/2SM BR BKN004 05/05 A3052 RMK
     AO2 VIS 3/4V5 TSNO=
####018003700####
SAUS99 KWBC 081136
METAR
KBDN 081135Z AUTO 20004KT 10SM CLR 12/03 A3011 RMK AO2=
KCGC 081135Z AUTO 00000KT 10SM CLR 22/21 A3000 RMK=
KDYB 081135Z AUTO 00000KT 10SM CLR 21/21 A2996 RMK AO1=
KFTN 081135Z AUTO 06004KT 10SM BKN008 BKN012 OVC021 25/23 A2992
     RMK AO1=
KMNI 081135Z AUTO 34003KT 10SM BKN095 25/22 A2997 RMK AO2=
KSPA 081135Z AUTO 36006KT 10SM CLR 25/22 A3003 RMK AO2=
KSPL 081135Z AUTO 01010KT 28/26 A2976 RMK AO2 PWINO PNO=
KUTA 081135Z AUTO 00000KT 10SM CLR 23/22 A3007 RMK AO2=
KPQN 081133Z AUTO 00000KT 10SM CLR 16/14 A3017 RMK AO2=
KFGN 081134Z AUTO 24006KT 1/2SM -DZ VV005 16/13 A2997 RMK AO2=
KPNM 081133Z AUTO 00000KT 10SM CLR 14/14 A3010 RMK AO2=
KPWC 081133Z AUTO 00000KT 1/2SM FG BKN001 11/10 A3009 RMK AO2=
KFFM 081133Z AUTO 00000KT 10SM CLR 15/14 A3009 RMK AO2=
KGDB 081133Z AUTO 25003KT 10SM CLR 14/13 A3014 RMK AO2
     T01400133=
KAIT 081133Z AUTO 24003KT 10SM CLR 16/15 A3006 RMK AO2=
KGHW 081133Z AUTO 24005KT 7SM CLR 15/13 A3014 RMK AO2=
KMWM 081133Z AUTO 27003KT 7SM CLR 14/13 A3015 RMK AO2=
KULM 081135Z AUTO 26004KT 10SM CLR 14/13 A3013 RMK AO2=
KBBB 081133Z AUTO 00000KT 7SM CLR 13/13 A3012 RMK AO2=
KTWM 081133Z AUTO 00000KT 10SM CLR 16/13 A3002 RMK AO2=
KMGG 081135Z AUTO 27004KT 10SM CLR 17/15 A3011 RMK AO2
     T01700151=
KMOX 081130Z AUTO 26004KT 10SM CLR 16/14 A3009 RMK AO2=
KAFJ 081135Z AUTO 00000KT 1 3/4SM SCT060 19/19 A3012 RMK AO1=
KAIZ 081135Z AUTO 00000KT 8SM FEW004 OVC015 22/21 A3007 RMK AO1
     LTG DSNT SW=
KARG 081135Z AUTO 20004KT 10SM CLR 24/22 A3007 RMK AO1=
KAUO 081135Z AUTO 31005KT 10SM CLR 25/22 A3004 RMK AO1=
KAWO 081135Z AUTO 00000KT 8SM CLR 13/13 A2998 RMK AO1=
KBHB 081135Z AUTO 20007KT 7SM OVC002 18/18 A3013 RMK AO1=
KBID 081135Z AUTO 11006KT 1/4SM OVC002 21/21 A3009 RMK AO1=
KBKX 081135Z AUTO 15004KT 10SM CLR 13/12 A3017 RMK AO1=
KBLM 081135Z AUTO 16003KT 10SM SCT008 OVC090 24/20 A3007 RMK
     AO1=
KBTP 081135Z AUTO 00000KT 2SM CLR 21/19 A3011 RMK AO1=
KBVX 081135Z AUTO 15004KT 10SM CLR 23/22 A3007 RMK AO1=
KCGZ 081135Z AUTO 00000KT 10SM CLR 27/01 A2981 RMK AO1=
KCIU 081135Z AUTO 31005KT 3SM OVC002 20/18 A2998 RMK AO1=
KCOD 081135Z 09005KT 10SM CLR 11/02 A3033 RMK AO1=
KCOE 081135Z AUTO 07008KT 10SM CLR 13/08 A3009 RMK AO1=
KCVN 081135Z AUTO 01005KT 10SM BKN005 BKN009 16/14 A3023 RMK
     AO1=
KCVO 081135Z AUTO 28008KT 10SM CLR 13/09 A2993 RMK AO1=
KCWI 081135Z 27004KT 3SM OVC006 A3006 RMK AO1=
KDVL 081135Z AUTO 29005KT 10SM CLR 14/12 A3008 RMK AO1=
KDYR 081135Z AUTO 00000KT 10SM CLR 24/20 A3008 RMK AO1=
KEAR 081135Z AUTO 34006KT 10SM CLR 15/13 A3024 RMK AO1=
KEEN 081135Z AUTO 19004KT 10SM FEW020 SCT120 24/22 A3008 RMK
     AO1=
KEGE 081135Z 00000KT 10SM CLR 09/08 A3038 RMK AO1=
KEHR 081135Z AUTO 00000KT 8SM CLR 23/19 A3006 RMK AO1=
KENV 081135Z 00000KT 10SM CLR 17/01 A3010 RMK AO1=
KESC 081135Z AUTO 29005KT 6SM OVC021 19/16 A2998 RMK AO1=
KEUL 081135Z AUTO 00000KT 10SM CLR 12/06 A3007 RMK AO1=
KEWK 081135Z AUTO 01007KT 10SM OVC004 21/19 A3007 RMK AO1=
KFAM 081135Z AUTO 24003KT 10SM OVC080 23/22 A3009 RMK AO1=
KFKL 081135Z 00000KT 4SM CLR 20/18 A3015 RMK AO1=
KFLP 081135Z AUTO 11003KT 9SM BKN065 23/21 A3006 RMK AO1=
KFNL 081135Z AUTO 05003KT 8SM OVC006 14/13 A3032 RMK AO1=
KFOD 081135Z AUTO 33003KT 10SM CLR 17/16 A3013 RMK AO1=
KFRM 081135Z AUTO 10SM CLR 16/14 A3015 RMK AO1=
KGAD 081135Z AUTO 30003KT 10SM CLR 22/19 A3007 RMK AO1=
KGAI 081135Z 09003KT 5SM SCT080 25/22 A3005 RMK AO1=
KGBD 081135Z AUTO 36008KT 10SM OVC008 19/18 A3017 RMK AO1=
KGDV 081135Z AUTO 00000KT 10SM CLR 12/07 A3017 RMK AO1=
KGPZ 081135Z AUTO 24005KT 10SM CLR 17/14 A3006 RMK AO1=
####018003725####
SAUS99 KWBC 081136 RRA
METAR
KGTU 081135Z 09003KT 8SM BKN005 OVC012 24/22 A3002 RMK AO1=
KGUC 081135Z AUTO 36004KT 10SM CLR 07/M09 A3045 RMK AO1=
KGXY 081135Z AUTO 06004KT 7SM BKN011 OVC049 15/12 A3032 RMK
     AO1=
KHDN 081135Z 12009KT 10SM CLR 08/05 A3032 RMK AO1=
KHEF 081135Z AUTO 34003KT 6SM OVC100 26/21 A3002 RMK AO1=
KSFZ 081135Z AUTO 16003KT 10SM SCT008 SCT013 22/21 A3009 RMK
     AO1=
KSGT 081135Z 00000KT 10SM CLR 23/22 A3008 RMK AO1=
KSGU 081135Z AUTO 00000KT 10SM CLR 23/01 A2996 RMK AO1=
KSKX 081135Z AUTO 33006KT 10SM CLR 11/06 A3039 RMK AO1=
KSLG 081135Z AUTO 13003KT 10SM OVC021 23/21 A3008 RMK AO1=
KSMN 081135Z AUTO 00000KT 10SM CLR 07/02 A3026 RMK AO1=
KSQI 081135Z 00000KT 3SM SCT004 OVC012 23/22 A3006 RMK AO1=
KSUE 081135Z AUTO 24004KT 10SM OVC009 21/21 A2999 RMK AO1=
KTPL 081135Z 06004KT 10SM OVC009 24/23 A2999 RMK AO1=
KTVF 081135Z AUTO 22004KT 10SM CLR 14/11 A3005 RMK AO1=
KVBT 081135Z AUTO 00000KT 10SM OVC022 23/21 A3005 RMK AO1=
KVIS 081135Z AUTO 29003KT 10SM CLR 18/12 A2981 RMK AO1=
KWVL 081135Z AUTO 18005KT 3SM OVC003 21/19 A3006 RMK AO1=
KWWD 081135Z AUTO 10SM BKN080 24/23 A3004 RMK AO1=
KYKN 081135Z AUTO 17003KT 10SM CLR 17/15 A3019 RMK AO1=
KHEZ 081135Z AUTO 00000KT 5SM CLR 21/21 A3005 RMK AO1=
KHNB 081135Z AUTO 00000KT 5SM CLR 23/22 A3007 RMK AO1=
KHYI 081135Z AUTO 04006KT 6SM OVC018 A2995 RMK AO1=
KHYS 081135Z AUTO 01007KT 10SM BKN018 OVC026 18/16 A3020 RMK
     AO1=
KILE 081135Z 09005KT 10SM FEW006 OVC016 24/23 A2998 RMK AO1=
KIWD 081135Z AUTO 31006KT 10SM FEW050 16/15 A3001 RMK AO1=
KJAC 081135Z AUTO 02004KT 10SM CLR 05/M01 A3037 RMK AO1=
KJHW 081135Z AUTO 00000KT 5SM CLR 20/19 A3012 RMK AO1=
KKLS 081135Z AUTO 36003KT 10SM CLR 16/13 A2993 RMK AO1=
KLBL 081135Z 01006KT 9SM SCT009 BKN037 OVC110 19/17 A3022 RMK
     AO1=
KLCI 081135Z AUTO 23004KT 8SM SCT025 BKN045 OVC110 24/20 A3007 RMK
     AO1=
KLEW 081135Z 17005KT 2 1/2SM OVC003 21/19 A3011 RMK AO1=
KLGD 081135Z AUTO 00000KT 10SM CLR 11/05 A3006 RMK AO1=
KLKV 081135Z AUTO 32006KT 10SM CLR 11/00 A3011 RMK AO1=
KLPC 081135Z AUTO 00000KT 10SM OVC008 13/11 A2992 RMK AO1 PNO=
KMBL 081135Z AUTO 00000KT 5SM SCT008 OVC048 22/20 A3002 RMK AO1
     P0001=
KMJX 081135Z AUTO 14003KT 8SM BKN065 24/22 A3004 RMK AO1=
KMKT 081135Z 31003KT 10SM CLR 16/15 A3012 RMK AO1=
KMML 081135Z AUTO 28008KT 10SM CLR 16/12 A3014 RMK AO1=
KMNM 081135Z AUTO 28003KT 5SM OVC004 21/19 A2999 RMK AO1=
KMRF 081135Z AUTO 03007KT 10SM BKN120 17/14 A3018 RMK AO1=
KMSV 081135Z AUTO 00000KT 7SM CLR 23/19 A3011 RMK AO1=
KMTW 081135Z 00000KT 4SM SCT008 21/21 A3000 RMK AO1=
KMVN 081135Z AUTO 00000KT 5SM CLR 23/22 A3006 RMK AO1=
KOCH 081135Z AUTO 09005KT 9SM CLR 24/19 A3002 RMK AO1=
KOKK 081135Z AUTO 00000KT 3SM BKN060 BKN075 OVC080 23/18 A3005 RMK
     AO1=
KOLU 081135Z AUTO 34003KT 10SM OVC090 17/14 A3020 RMK AO1=
KOTG 081135Z AUTO 27007KT 10SM CLR 15/13 A3017 RMK AO1=
KOTH 081135Z 32003KT 10SM OVC006 10/08 A2999 RMK AO1=
KPIB 081135Z AUTO 00000KT 7SM CLR 23/21 A3006 RMK AO1=
KPQI 081135Z AUTO 14007KT 10SM CLR 22/19 A3001 RMK AO1=
KPRX 081135Z 13006KT 5SM BKN004 OVC028 24/22 A3004 RMK AO1=
KPTN 081135Z AUTO 07005KT 10SM CLR 24/M08 A3002 RMK AO1=
KPTV 081135Z AUTO 17005KT 10SM CLR 17/11 A2985 RMK AO1=
KPVC 081135Z 16008KT 10SM FEW009 23/21 A3011 RMK AO1=
KPVU 081135Z 31003KT 10SM CLR 17/07 A3014 RMK AO1=
KPWG 081135Z AUTO 08005KT 10SM BKN010 25/22 A3000 RMK AO1=
KPWT 081135Z AUTO 03007KT 10SM CLR 21/07 A2998 RMK AO1=
KRKD 081135Z AUTO 21005KT 1/4SM OVC002 19/18 A3012 RMK AO1=
KRUT 081135Z AUTO 14004KT 6SM CLR 24/20 A3006 RMK AO1=
KSDY 081135Z AUTO 19005KT 10SM FEW080 11/08 A3015 RMK AO1=
####018000088####
SAUS99 KWBC 081136 RRB
METAR
KSFM 081135Z 21004KT 4SM OVC006 23/19 A3010 RMK AO1=
####018000439####
SPUS99 KWBC 081136
SPECI
KMAF 081133Z 01007KT 6SM BR BKN005 21/20 A3008 RMK AO2=
KPIL 081134Z AUTO 02009KT 10SM -RA SCT018 BKN027 BKN037 28/26
     A2977 RMK AO2 RAB31 P0000 $=
KEKQ 081133Z AUTO 00000KT 1SM BR CLR 21/19 A3012 RMK AO2=
KY50 081132Z AUTO 31004KT 6SM BR OVC005 21/21 A3003 RMK AO2 $=
KM89 081133Z AUTO 00000KT 3SM BR OVC002 24/24 A3007 RMK AO2=
KMCI 081134Z 33005KT 8SM SCT004 BKN110 22/21 A3007 RMK AO2 $=
####018000118####
SAUS44 KFWD 081135
MTRNQI
SPECI KNQI 081134Z AUTO 02005KT 10SM TS CLR 27/24 A2983 RMK AO2 
TSB28RAE19 P0006 $
####018003695####
SAUS70 KWBC 081136
METAR
KPMV 081130Z AUTO 00000KT 7SM CLR 19/19 A3014 RMK AO2
     T01910185=
KHJH 081130Z AUTO 36004KT 10SM OVC029 19/18 A3017 RMK AO2
     T01920176=
KIBM 081130Z AUTO 00000KT 10SM OVC080 13/12 A3032 RMK AO2
     T01250115=
KJYR 081130Z AUTO 00000KT 10SM CLR 16/15 A3018 RMK AO2=
KL35 081132Z AUTO 00000KT 10SM CLR 06/M04 A3018 RMK AO2=
KLCG 081130Z AUTO 00000KT 10SM CLR 14/13 A3019 RMK AO2
     T01410133=
KLHM 081131Z AUTO 15007KT 10SM CLR 16/11 A2983 RMK AO1
     T01580110=
KLXN 081130Z AUTO 00000KT 10SM OVC050 17/16 A3024 RMK AO2
     T01720160=
KMLE 081130Z AUTO 00000KT 10SM CLR 19/17 A3015 RMK AO2
     T01920168=
KMMH 081130Z AUTO 32004KT 10SM CLR 08/01 A3022 RMK AO1=
KOGA 081130Z AUTO 00000KT 10SM SCT085 BKN110 15/14 A3028 RMK AO2
     T01510141=
KONL 081130Z AUTO 00000KT 10SM CLR 17/15 A3022 RMK AO2
     T01650150=
KPNA 081130Z AUTO 29005KT 10SM CLR 04/01 A3040 RMK AO2
     T00380008=
KPTT 081130Z AUTO 02009KT 3SM BR OVC002 20/20 A3014 RMK AO2=
KSUN 081131Z AUTO 33010KT 10SM CLR 10/00 A3024 RMK AO2=
KSZT 081130Z AUTO 00000KT 10SM CLR 09/08 A3011 RMK AO2=
KTIF 081130Z AUTO 00000KT 10SM SCT120 15/14 A3026 RMK AO2
     T01470138=
KTRK 081130Z AUTO 00000KT 10SM CLR 10/08 A3016 RMK AO2=
KBDN 081135Z AUTO 20004KT 10SM CLR 12/03 A3011 RMK AO2=
KCGC 081135Z AUTO 00000KT 10SM CLR 22/21 A3000 RMK=
KDYB 081135Z AUTO 00000KT 10SM CLR 21/21 A2996 RMK AO1=
KFTN 081135Z AUTO 06004KT 10SM BKN008 BKN012 OVC021 25/23 A2992
     RMK AO1=
KMNI 081135Z AUTO 34003KT 10SM BKN095 25/22 A2997 RMK AO2=
KSPA 081135Z AUTO 36006KT 10SM CLR 25/22 A3003 RMK AO2=
KSPL 081135Z AUTO 01010KT 28/26 A2976 RMK AO2 PWINO PNO=
KUTA 081135Z AUTO 00000KT 10SM CLR 23/22 A3007 RMK AO2=
KAFJ 081135Z AUTO 00000KT 1 3/4SM SCT060 19/19 A3012 RMK AO1=
KAIZ 081135Z AUTO 00000KT 8SM FEW004 OVC015 22/21 A3007 RMK AO1
     LTG DSNT SW=
KARG 081135Z AUTO 20004KT 10SM CLR 24/22 A3007 RMK AO1=
KAUO 081135Z AUTO 31005KT 10SM CLR 25/22 A3004 RMK AO1=
KAWO 081135Z AUTO 00000KT 8SM CLR 13/13 A2998 RMK AO1=
KBHB 081135Z AUTO 20007KT 7SM OVC002 18/18 A3013 RMK AO1=
KBID 081135Z AUTO 11006KT 1/4SM OVC002 21/21 A3009 RMK AO1=
KBKX 081135Z AUTO 15004KT 10SM CLR 13/12 A3017 RMK AO1=
KBLM 081135Z AUTO 16003KT 10SM SCT008 OVC090 24/20 A3007 RMK
     AO1=
KBTP 081135Z AUTO 00000KT 2SM CLR 21/19 A3011 RMK AO1=
KBVX 081135Z AUTO 15004KT 10SM CLR 23/22 A3007 RMK AO1=
KCGZ 081135Z AUTO 00000KT 10SM CLR 27/01 A2981 RMK AO1=
KCIU 081135Z AUTO 31005KT 3SM OVC002 20/18 A2998 RMK AO1=
KCOD 081135Z 09005KT 10SM CLR 11/02 A3033 RMK AO1=
KCOE 081135Z AUTO 07008KT 10SM CLR 13/08 A3009 RMK AO1=
KCVN 081135Z AUTO 01005KT 10SM BKN005 BKN009 16/14 A3023 RMK
     AO1=
KCVO 081135Z AUTO 28008KT 10SM CLR 13/09 A2993 RMK AO1=
KCWI 081135Z 27004KT 3SM OVC006 A3006 RMK AO1=
KDYR 081135Z AUTO 00000KT 10SM CLR 24/20 A3008 RMK AO1=
KEEN 081135Z AUTO 19004KT 10SM FEW020 SCT120 24/22 A3008 RMK
     AO1=
KEGE 081135Z 00000KT 10SM CLR 09/08 A3038 RMK AO1=
KEHR 081135Z AUTO 00000KT 8SM CLR 23/19 A3006 RMK AO1=
KENV 081135Z 00000KT 10SM CLR 17/01 A3010 RMK AO1=
KESC 081135Z AUTO 29005KT 6SM OVC021 19/16 A2998 RMK AO1=
KEUL 081135Z AUTO 00000KT 10SM CLR 12/06 A3007 RMK AO1=
KEWK 081135Z AUTO 01007KT 10SM OVC004 21/19 A3007 RMK AO1=
KFAM 081135Z AUTO 24003KT 10SM OVC080 23/22 A3009 RMK AO1=
KFKL 081135Z 00000KT 4SM CLR 20/18 A3015 RMK AO1=
KFLP 081135Z AUTO 11003KT 9SM BKN065 23/21 A3006 RMK AO1=
KFNL 081135Z AUTO 05003KT 8SM OVC006 14/13 A3032 RMK AO1=
KFOD 081135Z AUTO 33003KT 10SM CLR 17/16 A3013 RMK AO1=
KFRM 081135Z AUTO 10SM CLR 16/14 A3015 RMK AO1=
####018000129####
SPUS80 KWBC 081136 CCA
SPECI
KBTR 081130Z 06004KT 2SM BR MIFG BKN003 24/23 A3001 RMK AO2 TWR
     VIS 2 1/2 BKN V SCT $=
####018000264####
SAUS80 KWBC 081136
METAR
KSOW 081130Z AUTO 16005KT 10SM FEW100 19/03 A3025 RMK AO2=
KDVL 081135Z AUTO 29005KT 10SM CLR 14/12 A3008 RMK AO1=
KEAR 081135Z AUTO 34006KT 10SM CLR 15/13 A3024 RMK AO1=
KGPZ 081135Z AUTO 24005KT 10SM CLR 17/14 A3006 RMK AO1=
####018000439####
SPUS70 KWBC 081136
SPECI
KMAF 081133Z 01007KT 6SM BR BKN005 21/20 A3008 RMK AO2=
KPIL 081134Z AUTO 02009KT 10SM -RA SCT018 BKN027 BKN037 28/26
     A2977 RMK AO2 RAB31 P0000 $=
KEKQ 081133Z AUTO 00000KT 1SM BR CLR 21/19 A3012 RMK AO2=
KY50 081132Z AUTO 31004KT 6SM BR OVC005 21/21 A3003 RMK AO2 $=
KM89 081133Z AUTO 00000KT 3SM BR OVC002 24/24 A3007 RMK AO2=
KMCI 081134Z 33005KT 8SM SCT004 BKN110 22/21 A3007 RMK AO2 $=
####018000326####
SAUS70 KWBC 081136 RRB
METAR
KPWT 081135Z AUTO 03007KT 10SM CLR 21/07 A2998 RMK AO1=
KRKD 081135Z AUTO 21005KT 1/4SM OVC002 19/18 A3012 RMK AO1=
KRUT 081135Z AUTO 14004KT 6SM CLR 24/20 A3006 RMK AO1=
KSDY 081135Z AUTO 19005KT 10SM FEW080 11/08 A3015 RMK AO1=
KSFM 081135Z 21004KT 4SM OVC006 23/19 A3010 RMK AO1=
####018000422####
SPUS80 KWBC 081136
SPECI
KVCT 081132Z AUTO 33003KT 1 1/2SM +RA BR BKN005 BKN014 OVC023
     25/24 A2989 RMK AO2 P0091=
KBDL 081133Z 14004KT 2 1/2SM HZ BKN008 OVC010 24/22 A3007 RMK
     AO2=
KCRP 081132Z 02012KT 8SM TSRA SCT016CB BKN021 BKN050 26/25 A2983
     RMK AO2 TSB32RAB27 OCNL LTGIC SE-S TS SE-S MOV W P0000=
KLXV 081133Z AUTO 00000KT 2 1/2SM BR BKN004 05/05 A3052 RMK AO2
     VIS 3/4V5 TSNO=
####018003719####
SAUS70 KWBC 081136 RRA
METAR
KGAD 081135Z AUTO 30003KT 10SM CLR 22/19 A3007 RMK AO1=
KGAI 081135Z 09003KT 5SM SCT080 25/22 A3005 RMK AO1=
KGBD 081135Z AUTO 36008KT 10SM OVC008 19/18 A3017 RMK AO1=
KGDV 081135Z AUTO 00000KT 10SM CLR 12/07 A3017 RMK AO1=
KGTU 081135Z 09003KT 8SM BKN005 OVC012 24/22 A3002 RMK AO1=
KGUC 081135Z AUTO 36004KT 10SM CLR 07/M09 A3045 RMK AO1=
KGXY 081135Z AUTO 06004KT 7SM BKN011 OVC049 15/12 A3032 RMK
     AO1=
KHDN 081135Z 12009KT 10SM CLR 08/05 A3032 RMK AO1=
KHEF 081135Z AUTO 34003KT 6SM OVC100 26/21 A3002 RMK AO1=
KSFZ 081135Z AUTO 16003KT 10SM SCT008 SCT013 22/21 A3009 RMK
     AO1=
KSGT 081135Z 00000KT 10SM CLR 23/22 A3008 RMK AO1=
KSGU 081135Z AUTO 00000KT 10SM CLR 23/01 A2996 RMK AO1=
KSKX 081135Z AUTO 33006KT 10SM CLR 11/06 A3039 RMK AO1=
KSLG 081135Z AUTO 13003KT 10SM OVC021 23/21 A3008 RMK AO1=
KSMN 081135Z AUTO 00000KT 10SM CLR 07/02 A3026 RMK AO1=
KSQI 081135Z 00000KT 3SM SCT004 OVC012 23/22 A3006 RMK AO1=
KSUE 081135Z AUTO 24004KT 10SM OVC009 21/21 A2999 RMK AO1=
KTPL 081135Z 06004KT 10SM OVC009 24/23 A2999 RMK AO1=
KTVF 081135Z AUTO 22004KT 10SM CLR 14/11 A3005 RMK AO1=
KVBT 081135Z AUTO 00000KT 10SM OVC022 23/21 A3005 RMK AO1=
KVIS 081135Z AUTO 29003KT 10SM CLR 18/12 A2981 RMK AO1=
KWVL 081135Z AUTO 18005KT 3SM OVC003 21/19 A3006 RMK AO1=
KWWD 081135Z AUTO 10SM BKN080 24/23 A3004 RMK AO1=
KYKN 081135Z AUTO 17003KT 10SM CLR 17/15 A3019 RMK AO1=
KHEZ 081135Z AUTO 00000KT 5SM CLR 21/21 A3005 RMK AO1=
KHNB 081135Z AUTO 00000KT 5SM CLR 23/22 A3007 RMK AO1=
KHYI 081135Z AUTO 04006KT 6SM OVC018 A2995 RMK AO1=
KHYS 081135Z AUTO 01007KT 10SM BKN018 OVC026 18/16 A3020 RMK
     AO1=
KILE 081135Z 09005KT 10SM FEW006 OVC016 24/23 A2998 RMK AO1=
KIWD 081135Z AUTO 31006KT 10SM FEW050 16/15 A3001 RMK AO1=
KJAC 081135Z AUTO 02004KT 10SM CLR 05/M01 A3037 RMK AO1=
KJHW 081135Z AUTO 00000KT 5SM CLR 20/19 A3012 RMK AO1=
KKLS 081135Z AUTO 36003KT 10SM CLR 16/13 A2993 RMK AO1=
KLBL 081135Z 01006KT 9SM SCT009 BKN037 OVC110 19/17 A3022 RMK
     AO1=
KLCI 081135Z AUTO 23004KT 8SM SCT025 BKN045 OVC110 24/20 A3007 RMK
     AO1=
KLEW 081135Z 17005KT 2 1/2SM OVC003 21/19 A3011 RMK AO1=
KLGD 081135Z AUTO 00000KT 10SM CLR 11/05 A3006 RMK AO1=
KLKV 081135Z AUTO 32006KT 10SM CLR 11/00 A3011 RMK AO1=
KLPC 081135Z AUTO 00000KT 10SM OVC008 13/11 A2992 RMK AO1 PNO=
KMBL 081135Z AUTO 00000KT 5SM SCT008 OVC048 22/20 A3002 RMK AO1
     P0001=
KMJX 081135Z AUTO 14003KT 8SM BKN065 24/22 A3004 RMK AO1=
KMKT 081135Z 31003KT 10SM CLR 16/15 A3012 RMK AO1=
KMML 081135Z AUTO 28008KT 10SM CLR 16/12 A3014 RMK AO1=
KMNM 081135Z AUTO 28003KT 5SM OVC004 21/19 A2999 RMK AO1=
KMRF 081135Z AUTO 03007KT 10SM BKN120 17/14 A3018 RMK AO1=
KMSV 081135Z AUTO 00000KT 7SM CLR 23/19 A3011 RMK AO1=
KMTW 081135Z 00000KT 4SM SCT008 21/21 A3000 RMK AO1=
KMVN 081135Z AUTO 00000KT 5SM CLR 23/22 A3006 RMK AO1=
KOCH 081135Z AUTO 09005KT 9SM CLR 24/19 A3002 RMK AO1=
KOKK 081135Z AUTO 00000KT 3SM BKN060 BKN075 OVC080 23/18 A3005 RMK
     AO1=
KOLU 081135Z AUTO 34003KT 10SM OVC090 17/14 A3020 RMK AO1=
KOTG 081135Z AUTO 27007KT 10SM CLR 15/13 A3017 RMK AO1=
KOTH 081135Z 32003KT 10SM OVC006 10/08 A2999 RMK AO1=
KPIB 081135Z AUTO 00000KT 7SM CLR 23/21 A3006 RMK AO1=
KPQI 081135Z AUTO 14007KT 10SM CLR 22/19 A3001 RMK AO1=
KPRX 081135Z 13006KT 5SM BKN004 OVC028 24/22 A3004 RMK AO1=
KPTN 081135Z AUTO 07005KT 10SM CLR 24/M08 A3002 RMK AO1=
KPTV 081135Z AUTO 17005KT 10SM CLR 17/11 A2985 RMK AO1=
KPVC 081135Z 16008KT 10SM FEW009 23/21 A3011 RMK AO1=
KPVU 081135Z 31003KT 10SM CLR 17/07 A3014 RMK AO1=
KPWG 081135Z AUTO 08005KT 10SM BKN010 25/22 A3000 RMK AO1=
####018000579####
SAEW31 LEMM 081130
METAR LEMD 081130Z 16005KT 130V210 9999 FEW070TCU 32/12 Q1020
NOSIG=
METAR LEBL 081130Z 20015KT CAVOK 26/21 Q1019 NOSIG=
METAR LEPA 081130Z 22008KT CAVOK 31/11 Q1020 NOSIG=
METAR LEZL 081130Z 26005KT 9999 SCT025 31/17 Q1015 NOSIG=
METAR LEMG 081130Z 15012KT 120V210 9999 FEW035 30/12 Q1017 NOSIG=
METAR LEVC 081130Z 09007KT 040V120 CAVOK 32/21 Q1019 NOSIG=
METAR LEAL 081130Z 08010KT 050V120 CAVOK 31/15 Q1019 NOSIG=
METAR LEIB 081130Z 08008KT 050V120 CAVOK 29/20 Q1020 NOSIG=
METAR LELC 081130Z NIL=
METAR LEVX 081130Z 27011KT CAVOK 25/19 Q1015=
####018000415####
SARO32 LROM 081130
METAR LRAR 081130Z 02006KT 320V080 9999 SCT036 23/14 Q1020=
METAR LRBM 081130Z 25004KT 210V310 9999 BKN041 20/17 Q1019=
METAR LRCL 081130Z 36004KT 330V040 9999 FEW019 OVC030 17/13 Q1021
0821//95=
METAR COR LROD 081130Z 36010KT 330V030 9999 SCT045 22/13 Q1021=
METAR LRSM 081130Z VRB06KT 9999 SCT041 22/13 Q1020=
METAR LRTM 081130Z 22006KT 190V260 9999 FEW016 SCT026 BKN031 18/14
Q1020=
####018000143####
SAEW36 LEMM 081130
METAR GCLA 081130Z 01012KT 340V040 9999 SCT020 25/17 Q1019=
METAR GEML 081130Z 07011KT 050V110 9999 FEW013 26/21 Q1017=
####018000314####
SARO33 LROM 081130
METAR LRBC 081130Z 01012KT 330V040 9999 BKN024 23/17 Q1017=
METAR LRCV 081130Z VRB02KT 9999 SCT039 23/14 Q1017=
METAR LRIA 081130Z 30014KT 9999 FEW022 22/17 Q1017=
METAR COR LRSV 081130Z 31013KT 9999 BKN012 OVC028 16/14 Q1019=
METAR LRTC 081130Z 34012KT 9999 FEW030CB BKN040 23/17 Q1015=
####018000087####
SADL36 EDZO 081120 RRA
METAR ETSI 081120Z 13005KT 9999 25/07 Q1022
      BLU+BLU+=
####018000081####
SAAF35 KWBC 081100 RRF
METAR
HECA 081130Z 30011KT CAVOK 33/16 Q1010 NOSIG=
####018000081####
SPBZ24 SBPA 081135
SPECI SBPA 081135Z 21004KT 7000 BKN010 OVC020 15/13 Q1020=
####018000028####
SAAS31 KWBC 081130
NIL=
####018000110####
SAUK51 EGGY 081050 RRE
METAR EGDM 081050Z 21005KT 9999 SCT018 SCT130 BKN250 20/15 Q1019
    BECMG BKN025=
####018000082####
SPBZ24 SBPA 081135
SPECI SBPA 081135Z 21004KT 7000 BKN010 OVC020 15/13 Q1020=
####018000096####
SAMG20 FMMI 081130
METAR FMMI 081130Z 13008KT 100V190 9999 BKN020 SCT023 19/13 Q1025
NOSIG=
####018000294####
SAEW34 LEMM 081130
METAR LEDA 081130Z 12006KT 060V170 CAVOK 35/11 Q1019=
METAR LEJR 081130Z 21005KT 150V270 CAVOK 30/17 Q1016=
METAR LELL 081130Z 13009KT 090V170 CAVOK 30/16 Q1019=
METAR LEPP 081130Z 19006KT 150V250 CAVOK 34/14 Q1018=
METAR LEXJ 081130Z 28010KT 9999 FEW018 25/19 Q1017=
####018000805####
SAAO31 KWBC 081130
METAR
GCFV 081130Z 06014KT 9999 FEW018 24/19 Q1017=
GCHI NIL=
GCLA 081130Z 01012KT 340V040 9999 SCT020 25/17 Q1019=
GCLP 081130Z 02028KT 9999 FEW020 25/18 Q1017 NOSIG=
GCRR 081130Z 35016KT 9999 FEW020 26/18 Q1017=
GCTS 081130Z 08015KT 9999 FEW018 25/17 Q1017 NOSIG=
GCXO 081130Z 29011KT 9999 FEW005 21/17 Q1020 NOSIG=
GEML 081130Z 07011KT 050V110 9999 FEW013 26/21 Q1017=
GMAA NIL=
GMAT NIL=
GMFF 081130Z NIL=
GMFO NIL=
GMME 081130Z 34007KT 310V010 6000 SCT010 BKN015 25/19 Q1016
     NOSIG=
GMMN 081130Z 35011KT 300V040 9999 SCT016 BKN023 26/19 Q1017
     NOSIG=
GMMX 081130Z 33005KT 260V030 8000 FEW026 33/16 Q1017 NOSIG=
GMOY NIL=
GMTA NIL=
GMTN NIL=
GMTT 081130Z 28008KT 250V320 8000 SCT016 BKN230 25/20 Q1016
     NOSIG=
GSAI NIL=
####018000097####
SAAF34 KWBC 081100 RRE
METAR
FYWB 081130Z 08017KT 9999 R09/M0050VP1500D VV/// 33/03 Q1016=
####018000409####
SAAS33 KWBC 081130
METAR
VBRR NIL=
VDPP NIL=
VDSR NIL=
VLVT NIL=
VTBA NIL=
VTBD NIL=
VTBU NIL=
VTCC NIL=
VTSP NIL=
VTSS NIL=
VVDN NIL=
VVGL NIL=
VVNB NIL=
VVTS NIL=
WBGG NIL=
WBKK NIL=
WMAM NIL=
WMKJ NIL=
WMKK NIL=
WMKP NIL=
WMSA NIL=
WPDL NIL=
WPEC NIL=
WSAP NIL=
WSSL NIL=
WSSS 081130Z 20004KT 180V240 9999 -RA FEW016 BKN180 28/25 Q1009
     NOSIG=
####018000908####
SAAW32 KWBC 081130
METAR
OEDF NIL=
OEDR NIL=
OEJN NIL=
OEMA NIL=
OERK NIL=
OIAA NIL=
OIAW 081130Z 24008KT CAVOK 48/08 Q0997 A2945=
OIBB NIL=
OIBK NIL=
OICC NIL=
OICK NIL=
OICS NIL=
OIFM 081130Z 18006KT CAVOK 39/07 Q1015 A3000=
OIFP NIL=
OIGG NIL=
OIHH NIL=
OIII 081130Z 12012KT CAVOK 40/M04 Q1012 A2990 877.9=
OIIM NIL=
OIIP NIL=
OIIX NIL=
OIKB 081130Z NIL=
OIKK 081130Z NIL=
OIMM 081130Z 05010KT CAVOK 38/M02 Q1013 A2994=
OINN NIL=
OINR NIL=
OINZ NIL=
OISM NIL=
OISS 081130Z NIL=
OITL NIL=
OITR NIL=
OITT 081130Z 05014KT CAVOK 38/03 Q1014 A2993=
OIYY NIL=
OIZH 081130Z 07010KT 9999 FEW045 38/M02 Q1012 A2989=
OKBK 081130Z 34020KT 7000 -BLDU SKC 48/M08 Q0999 NOSIG=
ORBI NIL=
ORBS NIL=
ORMM NIL=
OSAP NIL=
OSDI NIL=
OSLK NIL=
OTBD 081130Z 03007KT 360V070 6000 HZ NSC 37/29 Q0999 NOSIG=
OTBH NIL=
OTMA NIL=
OTMS NIL=
####018000187####
SAEW35 LEMM 081130
METAR LESA 081130Z 28003KT 230V320 9999 FEW048 34/15 Q1019=
METAR LEVD 081130Z 20005KT CAVOK 33/10 Q1019=
METAR LEVS 081130Z 08013G23KT 040V120 CAVOK 30/12 Q1019=
####018000121####
SAUK39 EGRR 080950 CCK
METAR COR EGDM 080950Z 23003KT 9999 FEW016 SCT033 BKN120 19/14 Q1019
 BLU TEMPO SCT018 WHT=
####018000161####
SANM40 FYWW 081130
METAR FYWB 081130Z 08017KT 9999 R09/M0050VP1500D VV/// 33/03 Q1016 =
METAR FYWB 081130Z 08017KT 9999 R09/M0050VP1500D VV/// 33/03 Q1016 =
####018001495####
SPZZ40 KAWN 081135 RRH
SPECI CYAM 081132Z 26004KT 1 1/2SM -RA BR OVC004 RMK FG1SF7=
SPECI CYBC 081131Z AUTO 00000KT 3SM OVC002 13/13 A3003=
SPECI CYEK 081133Z AUTO 08003KT 3/8SM BKN001 BKN018 BKN025 07/07 A2960=
SPECI CYGV 081133Z AUTO 12003KT 2 1/2SM OVC000 14/13 A3003=
SPECI CYOY 081133Z AUTO 12003KT 050V190 9SM OVC009 20/17 A3000=
SPECI CYPH 081132Z AUTO 25014KT 9SM OVC004 06/06 A2981=
SPECI CYYY 081132Z 31004KT 1SM R06/3500V5500FT/U BR VV003 RMK FG8=
SPECI EGUN 081132Z AUTO 22009KT 9999 OVC030 21/17 A3007 RMK AO2 SLP171=
SPECI KEGI 081134Z AUTO 00000KT 1SM R18/1800VP6000FT BR CLR 22/21 A3003
      RMK AO2 SLP169 $=
SPECI KRND 081134Z AUTO 03004KT 9SM BKN012 25/24 A2994 RMK AO2 DZB1118E1134
      SLP129=
PACZ SP 1135 AWOS MM 10 52/49/0712/004=
SPECI PAED 081133Z AUTO 00000KT 10SM -RA OVC080 12/10 A2998 RMK AO2
      RAB1133 SLP154 $=
PAEH SP 1135 AWOS CLR BLO 120 10 48/-20/0000/999=
PAIM SP 1135 AWOS CLR BLO 120 10 50/44/3003/008=
PALU SP 1135 AWOS CLR BLO 120 10 54/34/2025/007=
PATL SP 1135 AWOS CLR BLO 120 10 56/43/0204/999=
SPECI RKJK 081132Z 09008KT 6000 R36/1000V1400 -RA BR BKN065 23/23 A2979
      RMK AO2A RAB1116DZB1103E1116 CLDS LWR RWY18 SLP090 $=
SPECI SKBO 081133Z VRB02KT 9999 5000NW BR SCT015 BKN070 12/11 A3031
      NOSIG=
SPECI YSSY 081130Z 22013KT 9000 -SHRA FEW006 SCT020 BKN065 12/11 Q1027
      RMK VIS REDUCED TO NORTH FM1150 22010KT 9999 -SHRA SCT025
      BKN040 INTER 1150/1430 5000 SHRA BKN010=
####018000241####
SAAS32 KWBC 081130
METAR
RKPC NIL=
RKPK NIL=
RKSS NIL=
VHHH 081130Z 19009KT 150V210 9999 FEW015 SCT025 31/25 Q1006
     NOSIG=
VMMC 081130Z 19013KT 180V260 9999 FEW025 SCT090 29/26 Q1006
     NOSIG=
ZJSY NIL=
ZKPY NIL=
####018000028####
SAAW31 KWBC 081130
NIL=
####018000028####
SAAW33 KWBC 081130
NIL=
####018000282####
SAPO32 LPMG 081130
METAR LPAZ 081130Z 24004KT 9999 BKN016 BKN030 21/19 Q1025=
METAR LPFL 081130Z 20008KT 150V250 9999 SCT023 24/17 Q1022=
METAR LPHR 081130Z 23005KT 200V260 9999 SCT013 BKN035 23/19 Q1023=
METAR LPPD 081130Z 27004KT 230V300 9999 FEW017 BKN030 20/16 Q1024=
####018000715####
SAEE32 KWBC 081130
METAR
LBBG 081130Z 31006MPS 280V340 9999 -DZ BKN026 BKN034 19/15 Q1015
     NOSIG=
LBPD 081130Z 26005MPS 9999 -RA FEW033 SCT050 BKN070 17/14 Q1017
     NOSIG=
LBSF 081130Z 28004MPS 9999 FEW026 BKN040 18/12 Q1018 NOSIG=
LBWN 081130Z 26005MPS 240V300 9999 BKN032 19/16 Q1014 NOSIG=
LHBP 081130Z 23008KT 200V290 CAVOK 24/10 Q1021 NOSIG=
LHTA NIL=
LRAR NIL=
LRBS 081130Z 31004KT 260V350 9999 FEW020 21/14 Q1017 NOSIG=
LRCK 081130Z 36011KT 340V040 9999 FEW035 25/15 Q1015 NOSIG=
LROP 081130Z 28003KT 230V320 9999 FEW045CB 21/14 Q1016 880///95
     NOSIG=
LRTC NIL=
LRTM NIL=
LRTR 081130Z 01009KT 330V050 9999 FEW034 24/14 Q1020=
LUCC NIL=
LUKK NIL=
LURN NIL=
####018000610####
SAEE31 KWBC 081130
METAR
EPGD 081130Z VRB04KT CAVOK 24/09 Q1021=
EPKK 081130Z 29004KT 240V330 9999 FEW053 23/08 Q1022=
EPKT 081130Z 35008KT CAVOK 22/08 Q1023=
EPPO 081130Z VRB05KT CAVOK 24/08 Q1022=
EPQT NIL=
EPRZ 081130Z 33008KT 270V010 9999 SCT043 22/11 Q1021=
EPSC NIL=
EPWA 081130Z 31011KT CAVOK 23/12 Q1021 NOSIG=
EYSA NIL=
UKBB 081130Z 30003MPS 250V350 9999 BKN032 26/18 Q1014 88CLRD95
     NOSIG=
UKKK NIL=
UKLL 081130Z 31003MPS 230V360 CAVOK 19/11 Q1021 31210365 NOSIG=
UKOO 081130Z 35003MPS 290V030 CAVOK 28/16 Q1014 34090070 NOSIG=
UMII NIL=
UMMM NIL=
UMMS NIL=
####018001684####
SAEM31 KWBC 081130
METAR
KQLA NIL=
KQLH NIL=
KQLX NIL=
LATI 081130Z 04012G24KT 350V080 9999 FEW050 27/13 Q1016 NOSIG=
LDDU 081130Z 27010KT 230V300 9999 FEW043 26/08 Q1018 NOSIG=
LDDV NIL=
LDKT NIL=
LDOS 081130Z 34004KT 9999 FEW033 24/08 Q1022 NOSIG=
LDPL 081130Z 10004KT 090V260 CAVOK 26/09 Q1022 NOSIG=
LDRI 081130Z 27005KT 240V300 9999 FEW047 25/10 Q1022 NOSIG=
LDSP 081130Z 23010KT 180V260 CAVOK 28/06 Q1020 NOSIG=
LDZA 081130Z VRB04KT CAVOK 25/08 Q1022 NOSIG=
LDZD 081130Z 26011KT 230V290 CAVOK 27/07 Q1021 NOSIG=
LJLJ NIL=
LJMB NIL=
LJPZ NIL=
LKIB NIL=
LKMT 081130Z VRB05KT CAVOK 21/10 Q1023 NOSIG=
LKPR 081130Z 33005KT 290V040 CAVOK 24/09 Q1023 NOSIG=
LKTB 081130Z 32005KT 260V020 CAVOK 24/08 Q1022 NOSIG=
LKTT NIL=
LOAV NIL=
LOIH NIL=
LOIJ NIL=
LOLW NIL=
LOWG NIL=
LOWH NIL=
LOWI NIL=
LOWK NIL=
LOWL NIL=
LOWS NIL=
LOWW NIL=
LOWZ NIL=
LQSA 081130Z 30007KT 260V350 9999 FEW050 BKN065 21/11 Q1023
     NOSIG=
LWOH 081130Z 34009KT 9999 FEW040 BKN047 19/09 Q1019=
LWSK 081130Z 00000KT 9999 BKN036 18/11 Q1020 NOSIG=
LYBE 081130Z 32014KT 9999 SCT040 23/12 Q1021 NOSIG=
LYDU NIL=
LYLJ NIL=
LYMB NIL=
LYNI 081130Z 31011KT 9999 SCT020 BKN026 17/13 Q1021 NOSIG=
LYOH NIL=
LYOS NIL=
LYPG 081130Z 02015KT 330V050 9999 FEW040 27/08 Q1018 NOSIG=
LYPL NIL=
LYPR 081130Z NIL=
LYPZ NIL=
LYRI NIL=
LYSA NIL=
LYSK NIL=
LYSP NIL=
LYTI NIL=
LYTV 081130Z 34008KT 9999 FEW053 28/09 Q1017 NOSIG=
LYZA NIL=
LYZD NIL=
LZIB 081130Z 32007KT 250V050 CAVOK 24/08 Q1022=
LZKZ 081130Z 35009KT 320V030 CAVOK 23/07 Q1021 NOSIG=
LZTT 081130Z 08010KT 040V130 9999 FEW040 21/09 Q1022 NOSIG=
####018000317####
SAEW31 KWBC 081130
METAR
LPAZ NIL=
LPFR 081130Z 25008KT 210V280 9999 SCT011 BKN012 24/19 Q1016=
LPFU NIL=
LPPD NIL=
LPPR 081130Z 23008KT 4000 BR FEW003 BKN004 20/18 Q1015=
LPPS 081130Z 02010KT 340V050 9999 FEW016 SCT030 22/15 Q1021=
LPPT 081130Z 29007KT 250V320 CAVOK 27/19 Q1016 NOSIG=
LXGB NIL=
####018000598####
SAFR31 KWBC 081130
METAR
LFAC NIL=
LFAT NIL=
LFBD 081130Z 10010KT 060V130 CAVOK 33/12 Q1016 NOSIG=
LFBH 081130Z AUTO 31008KT 9999NDV NSC 30/12 Q1017=
LFBI 081130Z NIL=
LFBO 081130Z 11011KT CAVOK 34/13 Q1018 NOSIG=
LFBP 081130Z NIL=
LFBT 081130Z NIL=
LFBZ 081130Z NIL=
LFGJ NIL=
LFKB 081130Z 10006KT 070V140 9999 FEW021 29/20 Q1020 NOSIG=
LFKC 081130Z NIL=
LFKJ 081130Z 22009KT 9999 FEW030 29/23 Q1019 NOSIG=
LFLB 081130Z NIL=
LFLC 081130Z NIL=
LFLL 081130Z 22005KT 150V310 CAVOK 30/15 Q1020 NOSIG=
LFLS 081130Z NIL=
LFLY 081130Z NIL=
LFMD NIL=
LFMH NIL=
####018001054####
SAFR32 KWBC 081130
METAR
LFML 081130Z 27008KT CAVOK 32/18 Q1020 NOSIG=
LFMN 081130Z 11006KT 9999 FEW023 29/22 Q1020 NOSIG=
LFMP 081130Z NIL=
LFMT 081130Z NIL=
LFOB 081130Z NIL=
LFOH 081130Z AUTO 35011KT 9999NDV NSC 22/13 Q1019=
LFOT NIL=
LFPB 081130Z VRB03KT CAVOK 31/10 Q1018 NOSIG=
LFPG 081130Z 10004KT 040V180 CAVOK 30/09 Q1019 NOSIG=
LFPN NIL=
LFPO 081130Z 22003KT 180V260 CAVOK 30/11 Q1019 NOSIG=
LFQQ 081130Z 21007KT 130V280 CAVOK 29/13 Q1018 NOSIG=
LFRB 081130Z NIL=
LFRC NIL=
LFRD 081130Z AUTO 01005KT 320V090 9999NDV NSC 21/15 Q1019=
LFRG NIL=
LFRK NIL=
LFRN 081130Z AUTO VRB04KT 9999NDV NSC 28/14 Q1018=
LFRO 081130Z AUTO 03006KT 340V090 9999NDV NSC 21/16 Q1019=
LFRQ NIL=
LFRS 081130Z NIL=
LFRT NIL=
LFRZ 081130Z AUTO 19003KT 140V290 9999NDV NSC 31/09 Q1017=
LFSB 081130Z NIL=
LFSF 081130Z AUTO 29004KT 240V330 9999NDV NSC 30/09 Q1020=
LFSN 081130Z NIL=
LFSR 081130Z AUTO 36003KT 290V090 9999NDV NSC 31/11 Q1019=
LFST 081130Z VRB04KT CAVOK 29/10 Q1020 NOSIG=
LFTW NIL=
LFVP NIL=
####018000879####
SAFR41 KWBC 081130
METAR
LFAF NIL=
LFBA NIL=
LFBC 081130Z AUTO 12010KT 080V160 9999NDV NSC 35/11 Q1015=
LFBL 081130Z NIL=
LFBM 081130Z AUTO 11011KT 9999NDV NSC 34/17 Q1016=
LFKF 081130Z NIL=
LFLD NIL=
LFLV NIL=
LFOE 081130Z 20006KT 120V260 CAVOK 31/09 Q1018=
LFOP 081130Z NIL=
LFPB 081130Z VRB03KT CAVOK 31/10 Q1018 NOSIG=
LFPG 081130Z 10004KT 040V180 CAVOK 30/09 Q1019 NOSIG=
LFPV 081130Z AUTO VRB02KT 9999NDV NSC 29/11 Q1019=
LFQB NIL=
LFQQ 081130Z 21007KT 130V280 CAVOK 29/13 Q1018 NOSIG=
LFRH NIL=
LFRM NIL=
LFSC NIL=
LFSD 081130Z AUTO 15005KT 080V220 9999NDV NSC 30/10 Q1020=
LFSI 081130Z AUTO 21003KT 140V290 9999NDV NSC 31/09 Q1020=
LFSL 081130Z AUTO 13006KT 090V180 9999NDV NSC 30/14 Q1020=
LFSO 081130Z AUTO 28004KT 180V340 9999NDV NSC 30/11 Q1020=
LFSX 081130Z AUTO VRB05KT 9999NDV NSC 30/12 Q1020=
LFTH 081130Z NIL=
####018000028####
SAHA31 KWBC 081130
NIL=
####018000355####
SAIE31 KWBC 081130
METAR
EICK 081130Z 21009KT 9999 -RA SCT008 BKN012 BKN030 14/12 Q1016
     NOSIG=
EIDB NIL=
EIDW 081130Z 24014KT 9999 FEW026 SCT050 BKN130 16/10 Q1015
     NOSIG=
EIKN 081130Z 23013KT 190V250 9999 FEW018CB SCT024 BKN048 15/09
     Q1013 NOSIG=
EINN 081130Z 20007KT 9999 FEW017 SCT025 BKN060 16/12 Q1015
     NOSIG=
####018000028####
SAIQ31 KWBC 081130
NIL=
####018000109####
SAIO31 KWBC 081100 RRC
METAR
FMMI 081130Z 13008KT 100V190 9999 BKN020 SCT023 19/13 Q1025
     NOSIG=
####018000028####
SAIQ32 KWBC 081130
NIL=
####018000090####
SPUS41 KWBC 081136
SPECI
KBDL 081133Z 14004KT 2 1/2SM HZ BKN008 OVC010 24/22 A3007=
####018000028####
SAJP31 KWBC 081130
NIL=
####018000028####
SAJP41 KWBC 081130
NIL=
####018000028####
SAJP42 KWBC 081130
NIL=
####018000028####
SAJP43 KWBC 081130
NIL=
####018000028####
SAJP44 KWBC 081130
NIL=
####018000028####
SAJP45 KWBC 081130
NIL=
####018000113####
SAKO31 KWBC 081100 RRA
METAR
RKSI 081130Z 33005KT 220V010 9000 -RA FEW040 OVC110 23/19 Q1009
     NOSIG=
####018000195####
SAMM31 KWBC 081130
METAR
LCEN NIL=
LCLK 081130Z 19017KT 9999 FEW025 30/22 Q1007 NOSIG=
LCNC 081130Z NIL=
LCPH 081130Z 24007KT 200V280 9999 FEW030 29/23 Q1008=
LCRA NIL=
LMML NIL=
####018000095####
SANT31 KWBC 081100 RRB
METAR
BIKF 081130Z 03019KT 9999 FEW018 BKN035 BKN120 11/05 Q0994=
####018000366####
SAPO31 KWBC 081100 RRD
METAR
LPFR 081130Z 25008KT 210V280 9999 SCT011 BKN012 24/19 Q1016=
LPMA 081130Z 18006KT 130V230 9999 FEW016 23/18 Q1020 RS16007KT
     0518006KT 2324006KT=
LPPR 081130Z 23008KT 4000 BR FEW003 BKN004 20/18 Q1015=
LPPS 081130Z 02010KT 340V050 9999 FEW016 SCT030 22/15 Q1021=
LPPT 081130Z 29007KT 250V320 CAVOK 27/19 Q1016 NOSIG=
####018000108####
SASA32 KWBC 081100 RRB
METAR
SGAS 081130Z 16010KT 8000 BKN008 OVC012 17/15 Q1015=
SGES 081130Z NIL=
####018000088####
SPUS42 KWBC 081136 CCA
SPECI
KBTR 081130Z 06004KT 2SM BR MIFG BKN003 24/23 A3001=
####018001470####
SASP31 KWBC 081130
METAR
LEAL 081130Z 08010KT 050V120 CAVOK 31/15 Q1019 NOSIG=
LEAM 081130Z 08013KT 050V110 CAVOK 38/07 Q1016=
LEAS 081130Z VRB02KT 9999 FEW006 SCT014 22/20 Q1018 TEMPO 4000
     BR=
LEBB 081130Z 29011KT 250V310 8000 FEW020 26/21 Q1016 NOSIG=
LEBL 081130Z 20015KT CAVOK 26/21 Q1019 NOSIG=
LECO 081130Z 01006KT CAVOK 25/21 Q1015=
LEGE 081130Z 14005KT CAVOK 34/18 Q1019=
LEGR 081130Z 15017G28KT 120V180 9999 FEW060 38/05 Q1017=
LEIB 081130Z 08008KT 050V120 CAVOK 29/20 Q1020 NOSIG=
LEJR 081130Z 21005KT 150V270 CAVOK 30/17 Q1016=
LELC 081130Z NIL=
LELL 081130Z 13009KT 090V170 CAVOK 30/16 Q1019=
LEMD 081130Z 16005KT 130V210 9999 FEW070TCU 32/12 Q1020 NOSIG=
LEMG 081130Z 15012KT 120V210 9999 FEW035 30/12 Q1017 NOSIG=
LEMH 081130Z 19006KT 140V240 CAVOK 29/20 Q1020=
LEPA 081130Z 22008KT CAVOK 31/11 Q1020 NOSIG=
LEPP 081130Z 19006KT 150V250 CAVOK 34/14 Q1018=
LERS 081130Z 19007KT 110V240 CAVOK 29/17 Q1019=
LESO 081130Z 03006KT CAVOK 26/20 Q1015=
LEST 081130Z 13008KT 080V160 CAVOK 26/20 Q1015 NOSIG=
LETO NIL=
LEVC 081130Z 09007KT 040V120 CAVOK 32/21 Q1019 NOSIG=
LEVD 081130Z 20005KT CAVOK 33/10 Q1019=
LEVS 081130Z 08013G23KT 040V120 CAVOK 30/12 Q1019=
LEVT 081130Z 18008KT 120V210 CAVOK 33/16 Q1018=
LEVX 081130Z 27011KT CAVOK 25/19 Q1015=
LEXJ 081130Z 28010KT 9999 FEW018 25/19 Q1017=
LEZG 081130Z 09009KT 040V130 CAVOK 35/13 Q1017=
LEZL 081130Z 26005KT 9999 SCT025 31/17 Q1015 NOSIG=
####018000028####
SATS31 KWBC 081130
NIL=
####018000112####
SAUK41 KWBC 081050 RRF
METAR
EGDR 081050Z 23006KT 9999 FEW022 SCT100 BKN220 18/12 Q1019 BLU
     NOSIG=
####018000991####
SAXX99 KWBC 081100 RRW
METAR
EPWR 081130Z VRB03KT CAVOK 24/09 Q1023=
ETGY 081120Z 25003KT 9999 FEW080 BKN250 30/10 Q1019 BLU/=
ETGY 081120Z 25003KT 9999 FEW080 BKN250 30/10 Q1019 BLU+=
ETSI 081120Z 13005KT 9999 25/07 Q1022 BLU/BLU/=
LESA 081130Z 28003KT 230V320 9999 FEW048 34/15 Q1019=
LFBG 081130Z AUTO 09008KT 070V130 9999NDV NSC 33/13 Q1017=
LFCR 081130Z AUTO 18006KT 120V240 9999NDV NSC 32/06 Q1021=
LFJL 081130Z AUTO VRB04KT 9999NDV NSC 30/07 Q1020=
LFLX 081130Z NIL=
LFMI 081130Z AUTO 23006KT 180V280 9999NDV NSC 33/15 Q1020=
LFMK 081130Z AUTO 09015KT 060V130 9999NDV NSC 33/14 Q1019=
LFMO 081130Z AUTO VRB04KT 9999NDV NSC 34/14 Q1020=
LFMU 081130Z AUTO 14008KT 110V180 9999NDV NSC 30/13 Q1020=
LFMV 081130Z AUTO 24005KT 180V330 9999NDV NSC 33/13 Q1020=
LFOA 081130Z AUTO VRB03KT 9999NDV NSC 30/15 Q1019=
LFOJ 081130Z VRB02KT CAVOK 30/12 Q1019=
LFOK 081130Z AUTO 24004KT 180V290 9999NDV NSC 30/09 Q1020=
LKKV 081130Z VRB05KT CAVOK 23/10 Q1023=
####018000271####
SAXX99 KWBC 081000 CCG
METAR
EGUW 080950Z 27007KT 9999 FEW006 BKN015 18/14 Q1019 WHT BECMG
     FEW020 BKN035 BLU=
EGVN 080950Z 24004KT 9999 FEW025 BKN110 18/12 Q1019 BLU NOSIG=
EGWU 080950Z 29004KT 9999 BKN015 BKN028 18/14 Q1019 WHT BECMG
     SCT025 BLU=
####018000077####
SALJ32 LJLJ 081130
METAR LJCE 081130Z VRB02KT CAVOK 25/10 Q1023 RMK BLU=
####018000779####
SAEW32 LEMM 081130
METAR LEAS 081130Z VRB02KT 9999 FEW006 SCT014 22/20 Q1018 TEMPO
4000 BR=
METAR LEBB 081130Z 29011KT 250V310 8000 FEW020 26/21 Q1016 NOSIG=
METAR LECO 081130Z 01006KT CAVOK 25/21 Q1015=
METAR LEGE 081130Z 14005KT CAVOK 34/18 Q1019=
METAR LEST 081130Z 13008KT 080V160 CAVOK 26/20 Q1015 NOSIG=
METAR LEZG 081130Z 09009KT 040V130 CAVOK 35/13 Q1017=
METAR LESO 081130Z 03006KT CAVOK 26/20 Q1015=
METAR LEVT 081130Z 18008KT 120V210 CAVOK 33/16 Q1018=
METAR LERS 081130Z 19007KT 110V240 CAVOK 29/17 Q1019=
METAR LEMH 081130Z 19006KT 140V240 CAVOK 29/20 Q1020=
METAR LEAM 081130Z 08013KT 050V110 CAVOK 38/07 Q1016=
METAR LEGR 081130Z 15017G28KT 120V180 9999 FEW060 38/05 Q1017=
METAR LERL 081130Z 04007KT 340V100 9999 FEW050 35/09 Q1018=
####018000253####
SATS40 DTTA 081130
METAR DTMB 081130Z 03008KT 350V050 CAVOK 30/13 Q1019 NOSIG=
METAR DTNZ 081130Z AUTO 10014KT CAVOK 29/14 Q1018=
METAR DTTA 081130Z 05008KT 330V090 CAVOK 29/20 Q1019  NOSIG=
METAR DTTJ 081130Z 07008KT CAVOK 29/21 Q1018 NOSIG=
####018000423####
SARO32 LROM 081130
METAR LRAR 081130Z 02006KT 320V080 9999 SCT036 23/14 Q1020=
METAR LRBM 081130Z 25004KT 210V310 9999 BKN041 20/17 Q1019=
METAR LRCL 081130Z 36004KT 330V040 9999 FEW019 OVC030 17/13 Q1021
0821//95=
METAR COR LROD 081130Z 36010KT 330V030 9999 SCT045 22/13 Q1021=
METAR LRSM 081130Z VRB06KT 9999 SCT041 22/13 Q1020=
METAR LRTM 081130Z 22006KT 190V260 9999 FEW016 SCT026 BKN031 18/14
Q1020=
####018000379####
SAPO31 LPMG 081130
METAR LPFR 081130Z 25008KT 210V280 9999 SCT011 BKN012 24/19 Q1016=
METAR LPMA 081130Z 18006KT 130V230 9999 FEW016 23/18 Q1020 RS16007KT
0518006KT 2324006KT=
METAR LPPR 081130Z 23008KT 4000 BR FEW003 BKN004 20/18 Q1015=
METAR LPPS 081130Z 02010KT 340V050 9999 FEW016 SCT030 22/15 Q1021=
METAR LPPT 081130Z 29007KT 250V320 CAVOK 27/19 Q1016 NOSIG=
####018000590####
SAEW31 LEMM 081130
METAR LEMD 081130Z 16005KT 130V210 9999 FEW070TCU 32/12 Q1020
NOSIG=
METAR LEBL 081130Z 20015KT CAVOK 26/21 Q1019 NOSIG=
METAR LEPA 081130Z 22008KT CAVOK 31/11 Q1020 NOSIG=
METAR LEZL 081130Z 26005KT 9999 SCT025 31/17 Q1015 NOSIG=
METAR LEMG 081130Z 15012KT 120V210 9999 FEW035 30/12 Q1017 NOSIG=
METAR LEVC 081130Z 09007KT 040V120 CAVOK 32/21 Q1019 NOSIG=
METAR LEAL 081130Z 08010KT 050V120 CAVOK 31/15 Q1019 NOSIG=
METAR LEIB 081130Z 08008KT 050V120 CAVOK 29/20 Q1020 NOSIG=
METAR LELC 081130Z NIL=
METAR LEVX 081130Z 27011KT CAVOK 25/19 Q1015=
####018000319####
SARO33 LROM 081130
METAR LRBC 081130Z 01012KT 330V040 9999 BKN024 23/17 Q1017=
METAR LRCV 081130Z VRB02KT 9999 SCT039 23/14 Q1017=
METAR LRIA 081130Z 30014KT 9999 FEW022 22/17 Q1017=
METAR COR LRSV 081130Z 31013KT 9999 BKN012 OVC028 16/14 Q1019=
METAR LRTC 081130Z 34012KT 9999 FEW030CB BKN040 23/17 Q1015=
####018000699####
SACI31 ZBBB 081130
METAR ZBAA 081130Z 17004MPS CAVOK 32/11 Q1004 NOSIG=
ZBSJ NIL=
METAR ZBTJ 081130Z 16005MPS CAVOK 28/16 Q1005 NOSIG=
METAR ZBYN 081130Z 11006MPS CAVOK 29/14 Q1008 NOSIG=
METAR ZGGG 081130Z 14004MPS 9999 SCT046 33/26 Q1005 NOSIG=
METAR ZSHC 081130Z 23001MPS 7000 -SHRA BKN020 FEW033CB 26/24 Q1005
 TEMPO -TSRA
 FEW033CB=
METAR ZSPD 081130Z 11006MPS 9999 BKN009 26/24 Q1006 NOSIG=
METAR ZSSS 081130Z 12004MPS 9999 BKN016 27/23 Q1005 BECMG BKN011
 OVC040=
ZWSH NIL=
METAR ZWWW 081130Z 27004MPS 9999 FEW033CB BKN040 31/09 Q1011 NOSIG=
METAR ZYTL 081130Z 25002MPS 9999 SCT033 26/18 Q1007 NOSIG=
METAR ZYTX 081130Z VRB01MPS 9999 FEW030 21/19 Q1007 NOSIG=
####018000191####
SALJ31 LJLJ 081130
METAR LJLJ 081130Z 17004KT 100V240 9999 FEW040 24/09 Q1023 NOSIG=
METAR LJMB 081130Z VRB03KT 9999 FEW040 24/08 Q1023=
METAR LJPZ 081130Z 30008KT CAVOK 26/12 Q1022=
####018000088####
SPUS53 KWBC 081136
SPECI
KLXV 081133Z AUTO 00000KT 2 1/2SM BR BKN004 05/05 A3052=
####018000238####
SAUS53 KWBC 081100 RRH
METAR
KANW 081130Z AUTO 00000KT 10SM CLR 15/15 A3024=
KBIE 081130Z AUTO 36005KT 10SM SCT019 SCT030 18/17 A3015=
KONL 081130Z AUTO 00000KT 10SM CLR 17/15 A3022=
KUDG 081135Z 33005KT 10SM CLR 25/18 A2998=
####018000189####
SAUS54 KWBC 081100 RRD
METAR
KIZA 081129Z AUTO 00000KT 10SM OVC009 13/11 A2991=
KSOW 081130Z AUTO 16005KT 10SM FEW100 19/03 A3025=
KTRK 081130Z AUTO 00000KT 10SM CLR 10/08 A3016=
####018002295####
SAUS20 KNKA 081136
METAR K04W 081134Z AUTO 00000KT 10SM CLR 16/16 A3008 RMK AO2 
     T01600156=
METAR K0A9 081135Z AUTO 00000KT 8SM SCT085 21/18 A3013 RMK=
METAR K20V 081136Z AUTO 00000KT 10SM CLR 05/03 A3042 RMK AO2=
METAR K4BM 081133Z AUTO 21007KT 1/2SM FG 04/04 A3061 RMK AO2=
METAR K5SM 081133Z AUTO 00000KT 10SM CLR 08/01 A3056 RMK AO2=
METAR K7BM 081136Z AUTO 27003KT 10SM CLR 08/05 A3054 RMK AO2=
METAR KAEG 081135Z AUTO 00000KT 10SM SCT120 15/08 A3029 RMK AO1  =
METAR KBBG 081135Z AUTO 00000KT 9SM OVC080 22/21 A3009 RMK AO2 LTG 
     DSNT W =
METAR KBBP 081135Z AUTO 00000KT 10SM CLR 24/19 A2997 RMK AO2=
METAR KBDU 081137Z AUTO 00000KT 10SM BKN034 OVC041 14/12 A3032 RMK
     AO2=
METAR KBJC 081137Z AUTO 35010KT 10SM BKN025 12/11 A3033 RMK AO2=
METAR KBKN 081135Z AUTO 01005KT 8SM CLR 22/21 A3004 RMK AO2 LTG 
     DSNT E =
SPECI KBOW 081130Z 03004KT 10SM FEW250 22/22 A3000 RMK FIRST=
SPECI KBRL 081135Z AUTO 2 1/2SM BR OVC002 22/21 A3005 RMK AO2 $=
METAR KC29 081135Z AUTO 28005KT 10SM BKN006 OVC011 22/20 A3004 
     RMK AO2 T02150197=
METAR KCCU 081136Z AUTO 20016G20KT 10SM CLR 07/01 A3062 RMK AO2=
METAR KCIC 081135Z AUTO 18003KT 10SM CLR 20/13 A2983 RMK AO1 =
METAR KD39 081134Z AUTO 26004KT 10SM CLR 17/15 A3011 RMK AO2 
     T01680154=
METAR KGGE 081135Z AUTO 28004KT 10SM SCT100 24/21 A2994 RMK AO2=
METAR KLUX 081135Z AUTO 00000KT 10SM CLR 23/23 A3004 RMK AO2=
METAR KMAO 081135Z AUTO 00000KT 10SM CLR 25/19 A2994 RMK AO2=
METAR KMER 081135Z AUTO 32008KT 10SM CLR 16/11 A2983 RMK AO1 =
METAR KMYP 081036Z AUTO 15006KT 1/4SM -SN OVC001 02/02 A3074 RMK
     AO2=
SPECI KPIA 081135Z 24004KT 2 1/2SM BR FEW004 BKN014 OVC023 23/22 
    A3004 RMK AO2=
METAR KRCE 081135Z AUTO 03006KT 4SM BR OVC002 22/22 A3008 RMK AO2 
     =
SPECI KRKP 081135Z AUTO 12009KT 6SM -RA FEW015 SCT024 OVC048 A2984 
    RMK AO2 LTG DSNT NW RAB1056 P0015 FZRANO $=
METAR KSMS 081135Z AUTO 32005KT 10SM CLR 25/20 A2999 RMK AO2 =
METAR KVTP 081140Z AUTO 10004KT 1/2SM BKN001 05/04 A3054 RMK AO2=
METAR KWYS 081130Z AUTO 00000KT 10SM CLR M01/M02 A3038 RMK AO2=
METAR KX40 081135Z AUTO 00000KT 10SM CLR 23/22 A3001 RMK AO2 
     T02250220=
METAR KY51 081135Z AUTO 32006KT 2SM OVC003 20/20 A3006 RMK AO1 
     T01970196=
####018000088####
SPUS72 KWBC 081136 CCA
SPECI
KBTR 081130Z 06004KT 2SM BR MIFG BKN003 24/23 A3001=
####018000083####
SAUS72 KWBC 081100 RRH
METAR
KLRU 081131Z AUTO 00000KT 10SM CLR 20/15 A3016=
####018001787####
SAEU KAWN 081100 RRX
METAR LFBD 081130Z 10010KT 060V130 CAVOK 33/12 Q1016 NOSIG=
METAR LFBO 081130Z 11011KT CAVOK 34/13 Q1018 NOSIG=
METAR LFGJ 081130Z AUTO VRB04KT 9999NDV NSC 29/11 Q1020=
METAR LFLN 081130Z AUTO VRB03KT 9999NDV NSC 31/13 Q1020=
METAR LFMD 081130Z AUTO 16007KT 130V190 9999NDV NSC 29/22 Q1020=
METAR LFMK 081130Z AUTO 09015KT 060V130 9999NDV NSC 33/14 Q1019=
METAR LFML 081130Z 27008KT CAVOK 32/18 Q1020 NOSIG=
METAR LFOT 081130Z AUTO VRB05KT 9999NDV NSC 31/11 Q1018=
METAR LFPM 081130Z VRB02KT CAVOK 31/10 Q1019=
METAR LFRC 081130Z AUTO 36005KT 330V050 9999NDV FEW016 21/16 Q1019=
METAR LFRD 081130Z AUTO 01005KT 320V090 9999NDV NSC 21/15 Q1019=
METAR LFRJ 081130Z AUTO 02003KT 320V100 9999NDV BKN023/// BKN029///
      BKN190/// 23/16 Q1019=
METAR LFRN 081130Z AUTO VRB04KT 9999NDV NSC 28/14 Q1018=
METAR LFRO 081130Z AUTO 03006KT 340V090 9999NDV NSC 21/16 Q1019=
METAR LFRZ 081130Z AUTO 19003KT 140V290 9999NDV NSC 31/09 Q1017=
METAR LFSL 081130Z AUTO 13006KT 090V180 9999NDV NSC 30/14 Q1020=
METAR LFST 081130Z VRB04KT CAVOK 29/10 Q1020 NOSIG=
METAR LFTW 081130Z AUTO 17005KT 060V230 9999NDV NSC 32/15 Q1020=
METAR LJLJ 081130Z 17004KT 100V240 9999 FEW040 24/09 Q1023 NOSIG=
METAR LJMB 081130Z VRB03KT 9999 FEW040 24/08 Q1023=
METAR LJPZ 081130Z 30008KT CAVOK 26/12 Q1022=
METAR LPFR 081130Z 25008KT 210V280 9999 SCT011 BKN012 24/19 Q1016=
METAR LPPR 081130Z 23008KT 4000 BR FEW003 BKN004 20/18 Q1015=
METAR LPPS 081130Z 02010KT 340V050 9999 FEW016 SCT030 22/15 Q1021=
METAR LPPT 081130Z 29007KT 250V320 CAVOK 27/19 Q1016 NOSIG=
METAR LRBM 081130Z 25004KT 210V310 9999 BKN041 20/17 Q1019=
METAR COR LROD 081130Z 36010KT 330V030 9999 SCT045 22/13 Q1021=
METAR LRSM 081130Z VRB06KT 9999 SCT041 22/13 Q1020=
####018000131####
SAZZ40 KAWN 080600 RRW
METAR KGUS 080555Z COR 19004KT 10SM CLR 24/21 A3006 RMK AO2 SLP172
      T02400208 10313 20240 58003=
####018000157####
SAXX70 KAWN 081100 RRT
METAR KQFW 081120Z AUTO 19002KT 7SM CLR 25/19 A2990 RMK A02=
METAR KQEX 081130Z AUTO 14003KT 4SM BR SCT130 26/20 A2975 RMK A02=
####018000131####
SAUS17 KAWN 080600 RRI
METAR KGUS 080555Z COR 19004KT 10SM CLR 24/21 A3006 RMK AO2 SLP172
      T02400208 10313 20240 58003=
####018000567####
SAZZ40 KAWN 081100 RRS
METAR BIKF 081130Z 03019KT 9999 FEW018 BKN035 BKN120 11/05 Q0994=
METAR LKKV 081130Z VRB05KT CAVOK 23/10 Q1023=
METAR OIAW 081130Z 24008KT CAVOK 48/08 Q0997 A2945=
METAR OIFM 081130Z 18006KT CAVOK 39/07 Q1015 A3000=
METAR OIII 081130Z 12012KT CAVOK 40/M04 Q1012 A2990 877/9=
METAR OIMM 081130Z 05010KT CAVOK 38/M02 Q1013 A2994=
METAR OITT 081130Z 05014KT CAVOK 38/03 Q1014 A2993=
METAR OIZH 081130Z 07010KT 9999 FEW045 38/M02 Q1012 A2989=
METAR WSSS 081130Z 20004KT 180V240 9999 -RA FEW016 BKN180 28/25 Q1009
      NOSIG=
####018000090####
SPUS81 KWBC 081136
SPECI
KBDL 081133Z 14004KT 2 1/2SM HZ BKN008 OVC010 24/22 A3007=
####018000088####
SPUS81 KWBC 081136 CCA
SPECI
KBTR 081130Z 06004KT 2SM BR MIFG BKN003 24/23 A3001=
####018000080####
SACN88 CWAO 081131
WDA SA 1131 AUTO8 M M M 196/09/09/1108/M/M 8005 11MM=

####018000075####
SACN95 CWAO 081131
WTM SA 1131 AUTO8 M M M M/10/09/1906/M/M M 15MM=

####018000088####
SPUS81 KWBC 081136
SPECI
KLXV 081133Z AUTO 00000KT 2 1/2SM BR BKN004 05/05 A3052=
####018000122####
SPXX70 KAWN 081100 RRB
SPECI KQDM 081131Z AUTO VRB06KT 9SM CLR 29/10 A3018 RMK AO2 LTG DSNT
      N SLP099 PWINO $=
####018000080####
SPCN51 CWAO 081135
SPECI CZCP 081135Z AUTO 28022KT 4SM OVC017 04/ A2986=

####018000100####
SAUS46 KSGX 081136
MTRNXF
SPECI KNXF 081135Z AUTO 33004KT 7SM OVC015 16/13 A2989 RMK AO2 TSNO
####018000373####
SAPO31 LPMG 081130
METAR LPFR 081130Z 25008KT 210V280 9999 SCT011 BKN012 24/19 Q1016=
METAR LPMA 081130Z 18006KT 130V230 9999 FEW016 23/18 Q1020 RS16007KT
0518006KT 2324006KT=
METAR LPPR 081130Z 23008KT 4000 BR FEW003 BKN004 20/18 Q1015=
METAR LPPS 081130Z 02010KT 340V050 9999 FEW016 SCT030 22/15 Q1021=
METAR LPPT 081130Z 29007KT 250V320 CAVOK 27/19 Q1016 NOSIG=
####018000345####
SPUS99 KWBC 081137
SPECI
KBOW 081130Z 03004KT 10SM FEW250 22/22 A3000 RMK FIRST=
KBRL 081135Z AUTO 2 1/2SM BR OVC002 22/21 A3005 RMK AO2 $=
KPIA 081135Z 24004KT 2 1/2SM BR FEW004 BKN014 OVC023 23/22 A3004
     RMK AO2=
KRKP 081135Z AUTO 12009KT 6SM -RA FEW015 SCT024 OVC048 A2984 RMK
     AO2 LTG DSNT NW RAB1056 P0015 FZRANO $=
####018001775####
SAUS99 KWBC 081137
METAR
K04W 081134Z AUTO 00000KT 10SM CLR 16/16 A3008 RMK AO2
     T01600156=
K0A9 081135Z AUTO 00000KT 8SM SCT085 21/18 A3013 RMK=
K20V 081136Z AUTO 00000KT 10SM CLR 05/03 A3042 RMK AO2=
K4BM 081133Z AUTO 21007KT 1/2SM FG 04/04 A3061 RMK AO2=
K5SM 081133Z AUTO 00000KT 10SM CLR 08/01 A3056 RMK AO2=
K7BM 081136Z AUTO 27003KT 10SM CLR 08/05 A3054 RMK AO2=
KAEG 081135Z AUTO 00000KT 10SM SCT120 15/08 A3029 RMK AO1=
KBBG 081135Z AUTO 00000KT 9SM OVC080 22/21 A3009 RMK AO2 LTG DSNT
     W=
KBBP 081135Z AUTO 00000KT 10SM CLR 24/19 A2997 RMK AO2=
KBDU 081137Z AUTO 00000KT 10SM BKN034 OVC041 14/12 A3032 RMK
     AO2=
KBJC 081137Z AUTO 35010KT 10SM BKN025 12/11 A3033 RMK AO2=
KBKN 081135Z AUTO 01005KT 8SM CLR 22/21 A3004 RMK AO2 LTG DSNT
     E=
KC29 081135Z AUTO 28005KT 10SM BKN006 OVC011 22/20 A3004 RMK AO2
     T02150197=
KCCU 081136Z AUTO 20016G20KT 10SM CLR 07/01 A3062 RMK AO2=
KCIC 081135Z AUTO 18003KT 10SM CLR 20/13 A2983 RMK AO1=
KD39 081134Z AUTO 26004KT 10SM CLR 17/15 A3011 RMK AO2
     T01680154=
KGGE 081135Z AUTO 28004KT 10SM SCT100 24/21 A2994 RMK AO2=
KLUX 081135Z AUTO 00000KT 10SM CLR 23/23 A3004 RMK AO2=
KMAO 081135Z AUTO 00000KT 10SM CLR 25/19 A2994 RMK AO2=
KMER 081135Z AUTO 32008KT 10SM CLR 16/11 A2983 RMK AO1=
KMYP 081036Z AUTO 15006KT 1/4SM -SN OVC001 02/02 A3074 RMK AO2=
KRCE 081135Z AUTO 03006KT 4SM BR OVC002 22/22 A3008 RMK AO2=
KSMS 081135Z AUTO 32005KT 10SM CLR 25/20 A2999 RMK AO2=
KVTP 081140Z AUTO 10004KT 1/2SM BKN001 05/04 A3054 RMK AO2=
KWYS 081130Z AUTO 00000KT 10SM CLR M01/M02 A3038 RMK AO2=
KX40 081135Z AUTO 00000KT 10SM CLR 23/22 A3001 RMK AO2
     T02250220=
KY51 081135Z AUTO 32006KT 2SM OVC003 20/20 A3006 RMK AO1
     T01970196=
####018000766####
SAUR31 UKMS 081130
METAR UKLR 081130Z 31005MPS 260V360 9999 SCT023
         BKN100  21/15 Q1018 30090070 NOSIG=
METAR UKLI 081130Z 30002MPS 240V020 9999 SCT023CB
         BKN027 17/14 Q1020 28290565 NOSIG=
METAR UKON 081130Z 30002MPS 250V340 9999 FEW033TCU
         OVC200 28/17 Q1013 05090075 NOSIG=
METAR UKCM 081130Z 14003MPS 100V210 CAVOK 28/18 Q1014
          02010065 NOSIG=
METAR UKCW 081130Z VRB02MPS 9999 BKN040 30/15 Q1014
         2709//70 NOSIG=
METAR UKLU NIL=
METAR UKKK 081130Z 31003MPS 280V350 9999 BKN033 25/18
         Q1015  26CLRD70 NOSIG=
METAR UKKM 081130Z 33004MPS 280V010 9999 BKN030 24/17
         Q1015  33CLRD70 NOSIG=
METAR UKLN 081130Z 29006MPS 220V320 9999 -SHRA BKN013
          BKN033CB 15/14 Q1020 3319//65 NOSIG=
####018000086####
SANL33 EHDB 081125 RRA
METAR EHJR 081125Z AUTO 26009G10KT //// 17/15 Q1019 W15/S3=
####018000086####
SANL33 EHDB 081125 RRC
METAR EHSA 081125Z AUTO 21007G08KT 9999 17/15 Q1019 W16/S2=
####018000101####
SPAU32 YBBN 081136
SPECI YPPD 081136Z AUTO 30006KT 0500NDV // BKN010 BKN024 OVC072 21/20
Q1010=
####018000086####
SPAK31 KWBC 081137
SPECI
PAED 081133Z AUTO 00000KT 10SM -RA OVC080 12/10 A2998=
####018000086####
SANL33 EHDB 081125 RRB
METAR EHSC 081125Z AUTO 23005G05KT 9999 18/16 Q1020 W///S2=
####018000278####
SAPO32 LPMG 081130
METAR LPAZ 081130Z 24004KT 9999 BKN016 BKN030 21/19 Q1025=
METAR LPFL 081130Z 20008KT 150V250 9999 SCT023 24/17 Q1022=
METAR LPHR 081130Z 23005KT 200V260 9999 SCT013 BKN035 23/19 Q1023=
METAR LPPD 081130Z 27004KT 230V300 9999 FEW017 BKN030 20/16 Q1024=
####018000366####
SAAL31 DAAA 081130
METAR DAAG 081130Z 02008KT 350V060 CAVOK 34/18 Q1019=
METAR DAAT 081130Z 10008KT 040V150 CAVOK 33/03 Q1022=
METAR DABB 081130Z 01013KT CAVOK 28/20 Q1019=
METAR DABC 081130Z 34008KT CAVOK 33/07 Q1023=
METAR DAON 081130Z 36008KT CAVOK 35/21 Q1017=
METAR DAOO 081130Z 34015KT CAVOK 29/22 Q1016=
METAR DAUH 081130Z 10014KT CAVOK 38/21 Q1018=
####018000071####
SPAK32 KWBC 081137
SPECI
PACZ SP 1135 AWOS MM 10 52/49/0712/004=
####018000081####
SPAK32 KWBC 081137
SPECI
PAEH SP 1135 AWOS CLR BLO 120 10 48/-20/0000/999=
####018000199####
SPAU31 KWBC 081137
SPECI
YSSY 081130Z 22013KT 9000 -SHRA FEW006 SCT020 BKN065 12/11 Q1027
RMK VIS REDUCED TO NORTH FM1150 22010KT 9999 -SHRA SCT025 BKN040
INTER 1150/1430 5000 SHRA BKN010=
####018000080####
SPAK32 KWBC 081137
SPECI
PAIM SP 1135 AWOS CLR BLO 120 10 50/44/3003/008=
####018000080####
SPAK32 KWBC 081137
SPECI
PALU SP 1135 AWOS CLR BLO 120 10 54/34/2025/007=
####018000084####
SPBZ31 KWBC 081137
SPECI
SBPA 081135Z 21004KT 7000 BKN010 OVC020 15/13 Q1020=
####018000080####
SPAK32 KWBC 081137
SPECI
PATL SP 1135 AWOS CLR BLO 120 10 56/43/0204/999=
####018000083####
SPUS31 KWBC 081137
SPECI
KMCI 081134Z 33005KT 8SM SCT004 BKN110 22/21 A3007=
####018000097####
SPXX61 KWBC 081137
SPECI
EGUN 081132Z AUTO 22009KT 9999 OVC030 21/17 A3007 RMK AO2 SLP171=
####018000153####
SPXX62 KWBC 081137
SPECI
RKJK 081132Z 09008KT 6000 R36/1000V1400 -RA BR BKN065 23/23 A2979
RMK AO2A RAB1116DZB1103E1116 CLDS LWR RWY18 SLP090 $=
####018001263####
SAUS20 KNKA 081136
SPECI KAFN 081135Z AUTO 18004KT 6SM BR SCT009 BKN048 BKN080 23/21 
    A3012 RMK AO2=
METAR KAIT 081133Z AUTO 24003KT 10SM CLR 16/15 A3006 RMK AO2=
METAR KBBB 081133Z AUTO 00000KT 7SM CLR 13/13 A3012 RMK AO2=
SPECI KBTR 081130Z 06004KT 2SM BR MIFG BKN003 24/23 A3001 RMK AO2
     TWR VIS 2 1/2 BKN V SCT $=
METAR KFFM 081133Z AUTO 00000KT 10SM CLR 15/14 A3009 RMK AO2=
METAR KFGN 081134Z AUTO 24006KT 1/2SM -DZ VV005 16/13 A2997 RMK
     AO2=
METAR KGDB 081133Z AUTO 25003KT 10SM CLR 14/13 A3014 RMK AO2
     T01400133=
METAR KGHW 081133Z AUTO 24005KT 7SM CLR 15/13 A3014 RMK AO2=
SPECI KLXV 081133Z AUTO 00000KT 2 1/2SM BR BKN004 05/05 A3052 RMK
     AO2 VIS 3/4V5 TSNO=
METAR KMGG 081135Z AUTO 27004KT 10SM CLR 17/15 A3011 RMK AO2
     T01700151=
METAR KMOX 081130Z AUTO 26004KT 10SM CLR 16/14 A3009 RMK AO2=
METAR KMWM 081133Z AUTO 27003KT 7SM CLR 14/13 A3015 RMK AO2=
METAR KPNM 081133Z AUTO 00000KT 10SM CLR 14/14 A3010 RMK AO2=
METAR KPQN 081133Z AUTO 00000KT 10SM CLR 16/14 A3017 RMK AO2=
METAR KPWC 081133Z AUTO 00000KT 1/2SM FG BKN001 11/10 A3009 RMK
     AO2=
METAR KTWM 081133Z AUTO 00000KT 10SM CLR 16/13 A3002 RMK AO2=
METAR KULM 081135Z AUTO 26004KT 10SM CLR 14/13 A3013 RMK AO2=
####018000079####
SPUS42 KWBC 081137
SPECI
KMAF 081133Z 01007KT 6SM BR BKN005 21/20 A3008=
####018000783####
SAUR31 UKMS 081130
METAR UKLR 081130Z 31005MPS 260V360 9999 SCT023
         BKN100  21/15 Q1018 30090070 NOSIG=
METAR UKLI 081130Z 30002MPS 240V020 9999 SCT023CB
         BKN027 17/14 Q1020 28290565 NOSIG=
METAR UKON 081130Z 30002MPS 250V340 9999 FEW033TCU
         OVC200 28/17 Q1013 05090075 NOSIG=
METAR UKCM 081130Z 14003MPS 100V210 CAVOK 28/18 Q1014
          02010065 NOSIG=
METAR UKCW 081130Z VRB02MPS 9999 BKN040 30/15 Q1014
         2709//70 NOSIG=
METAR UKLU NIL=
METAR UKKK 081130Z 31003MPS 280V350 9999 BKN033 25/18
         Q1015  26CLRD70 NOSIG=
METAR UKKM 081130Z 33004MPS 280V010 9999 BKN030 24/17
         Q1015  33CLRD70 NOSIG=
METAR UKLN 081130Z 29006MPS 220V320 9999 -SHRA BKN013
          BKN033CB 15/14 Q1020 3319//65 NOSIG=
####018000684####
SACI31 ZBBB 081130
METAR ZBAA 081130Z 17004MPS CAVOK 32/11 Q1004 NOSIG=
ZBSJ NIL=
METAR ZBTJ 081130Z 16005MPS CAVOK 28/16 Q1005 NOSIG=
METAR ZBYN 081130Z 11006MPS CAVOK 29/14 Q1008 NOSIG=
METAR ZGGG 081130Z 14004MPS 9999 SCT046 33/26 Q1005 NOSIG=
METAR ZSHC 081130Z 23001MPS 7000 -SHRA BKN020 FEW033CB 26/24 Q1005
 TEMPO -TSRA
 FEW033CB=
METAR ZSPD 081130Z 11006MPS 9999 BKN009 26/24 Q1006 NOSIG=
METAR ZSSS 081130Z 12004MPS 9999 BKN016 27/23 Q1005 BECMG BKN011
 OVC040=
ZWSH NIL=
METAR ZWWW 081130Z 27004MPS 9999 FEW033CB BKN040 31/09 Q1011 NOSIG=
METAR ZYTL 081130Z 25002MPS 9999 SCT033 26/18 Q1007 NOSIG=
METAR ZYTX 081130Z VRB01MPS 9999 FEW030 21/19 Q1007 NOSIG=
####018000079####
SPUS72 KWBC 081137
SPECI
KMAF 081133Z 01007KT 6SM BR BKN005 21/20 A3008=
####018001149####
SACN60 CWAO 081100 RRB
PAF SA 1100 AUTO8 M M M M/16/11/MMMM/M/ M 64MM=
PBB SA 1100 AUTO8 M M M M/12/10/MMMM/M/ M 87MM=
PBN SA 1100 AUTO8 M M M M/15/11/0107/M/0008 M 02MM=
PDB SA 1100 AUTO8 M M M M/13/11/MMMM/M/0007 M 33MM=
PEL SA 1100 AUTO8 M M M M/15/13/1304/M/0013 M 88MM=
PFA SA 1100 AUTO8 M M M M/11/09/MMMM/M/ M 93MM=
PFB SA 1100 AUTO8 M M M M/12/09/MMMM/M/ M 21MM=
PGC SA 1100 AUTO8 M M M M/14/10/2203/M/ M 29MM=
PHA SA 1100 AUTO8 M M M M/10/08/MMMM/M/0007 M 72MM=
PHW SA 1100 AUTO8 M M M M/15/09/2603/M/ M 17MM=
PJT SA 1100 AUTO8 M M M M/14/11/2102/M/0004 M 46MM=
PLC SA 1100 AUTO8 M M M M/13/11/2602/M/ M 64MM=
PLG SA 1100 AUTO8 M M M M/12/09/2301/M/M M 11MM=
PNS SA 1100 AUTO8 M M M M/13/10/MMMM/M/ M 81MM=
PRF SA 1100 AUTO8 M M M M/10/09/2402/M/ M 15MM=
PRW SA 1100 AUTO8 M M M M/13/11/MMMM/M/ M 13MM=
PSH SA 1100 AUTO8 M M M M/13/11/MMMM/M/ M 41MM=
PSW SA 1100 AUTO8 M M M M/10/07/0302/M/ M 84MM=
PTA SA 1100 AUTO8 M M M M/16/11/MMMM/M/ M 61MM=
PTC SA 1100 AUTO8 M M M M/13/10/MMMM/M/ M 00MM=
PVI SA 1100 AUTO8 M M M M/13/11/MMMM/M/ M 92MM=
PWT SA 1100 AUTO8 M M M M/11/09/MMMM/M/ M 54MM=

####018000078####
SACN98 CWAO 081100 RRF
XCD SA 1100 AUTO8 M M M M/10/09/2904/M/ M 43MM=

####018000078####
SACN97 CWAO 081100 RRF
XEG SA 1100 AUTO8 M M M M/11/11/MMMM/M/ M 00MM=

####018000378####
SACN59 CWAO 081100 RRE
PAH SA 1100 AUTO8 M M M M/11/10/MMMM/M/ M 49MM=
PBV SA 1100 AUTO8 M M M M/10/08/MMMM/M/ M 13MM=
PGL SA 1100 AUTO8 M M M M/09/08/1202/M/ M 70MM=
PTH SA 1100 AUTO8 M M M M/14/10/MMMM/M/ M 82MM=
PVA SA 1100 AUTO8 M M M M/11/10/MMMM/M/ M 42MM=
XHP SA 1100 AUTO8 M M M M/16/11/3602/M/ M 56MM=
XMG SA 1100 AUTO8 M M M M/15/12/2408/M/ M 45MM=

####018000083####
SACN93 CWAO 081100 RRE
WOI SA 1100 AUTO8 M M M 184/07/06/0000/M/ 3002 11MM=

####018000087####
SACN78 CWAO 081100 RRE
WKK SA 1100 AUTO8 M M M 144/17/16/2204/M/0009 6001 10MM=

####018000193####
SACN94 CWAO 081100 RRE
WRM SA 1100 AUTO8 M M M 210/06/05/3001/M/ 6005 80MM=
WRV SA 1100 AUTO8 M M M 188/14/12/2205/M/ 8006 87MM=
WRY SA 1100 AUTO8 M M M 220/11/08/2907/M/ 8002 59MM=

####018000139####
SACN95 CWAO 081100 RRC
WTM SA 1100 AUTO8 M M M 230/10/08/1907/M/M 3007 72MM=
WTX SA 1100 AUTO8 M M M 151/16/14/2506/M/ 3004 06MM=

####018000138####
SACN88 CWAO 081100 RRD
WDA SA 1100 AUTO8 M M M 198/09/09/1008/M/ 6006 77MM=
ZCR SA 1100 AUTO8 M M M 162/18/17/0402/M/ 3012 93MM=

####018000083####
SACN91 CWAO 081100 RRD
WIJ SA 1100 AUTO8 M M M 142/08/07/3501/M/ 7001 95MM=

####018000083####
SPUS73 KWBC 081137
SPECI
KMCI 081134Z 33005KT 8SM SCT004 BKN110 22/21 A3007=
####018000087####
SANL33 EHDB 081125 RRA
METAR EHJR 081125Z AUTO 26009G10KT //// 17/15 Q1019 W15/S3=
####018000373####
SAAL31 DAAA 081130
METAR DAAG 081130Z 02008KT 350V060 CAVOK 34/18 Q1019=
METAR DAAT 081130Z 10008KT 040V150 CAVOK 33/03 Q1022=
METAR DABB 081130Z 01013KT CAVOK 28/20 Q1019=
METAR DABC 081130Z 34008KT CAVOK 33/07 Q1023=
METAR DAON 081130Z 36008KT CAVOK 35/21 Q1017=
METAR DAOO 081130Z 34015KT CAVOK 29/22 Q1016=
METAR DAUH 081130Z 10014KT CAVOK 38/21 Q1018=
####018000087####
SANL33 EHDB 081125 RRB
METAR EHSC 081125Z AUTO 23005G05KT 9999 18/16 Q1020 W///S2=
####018000087####
SANL33 EHDB 081125 RRC
METAR EHSA 081125Z AUTO 21007G08KT 9999 17/15 Q1019 W16/S2=
####018000102####
SPAU32 YBBN 081136
SPECI YPPD 081136Z AUTO 30006KT 0500NDV // BKN010 BKN024 OVC072 21/20
Q1010=
####018000617####
SAKZ31 RUMS 081130
METAR UAAA 081130Z 18005MPS 140V210 9999 BKN050CB OVC100 26/09 Q1014
88CLRD65 TEMPO TS=
METAR UACC 081130Z 33005MPS 290V360 CAVOK 25/01 Q1008 220/0070 NOSIG
RMK QFE725/0967=
METAR UAKK 081130Z NIL=
METAR UAOO 081130Z NIL=
METAR UARR 081130Z NIL=
METAR UATE 081130Z 01006MPS CAVOK 39/07 Q1009 300///70 NOSIG RMK
QFE755/1007=
METAR UATG 081130Z 32005G09MPS CAVOK 39/09 Q1008 32CLRD70 NOSIG RMK
QFE758/1011 =
METAR UATT 081130Z 05008MPS 9999 NSC 33/02 Q1010 13CLRD70 NOSIG RMK
QFE738/0984=
METAR UAUU 081130Z 33010MPS CAVOK 26/M03 Q1012 33CLRD70 NOSIG RMK
QFE743/0991=
####018000776####
SARA34 RUMS 081130
METAR UNAA 081130Z VRB02MPS 9999 SCT030CB BKN100 19/12 Q1011 RMK
QFE736 202///55=
METAR UNBB 081130Z NIL=
METAR UNEE 081130Z 26005MPS 9999 SCT026CB BKN200 18/13 Q1009 NOSIG
RMK QFE734 23CLRD60=
METAR UNKL 081130Z VRB01MPS 9999 SCT023CB OVC083 18/13 Q1010 NOSIG
RMK QFE732 29////60=
METAR UNNT 081130Z 23004MPS 9999 BKN060CB OVC100 19/02 Q1007 NOSIG
RMK QFE745/0994 25090070=
METAR UNOO 081130Z 32003MPS 9999 BKN026CB 14/10 Q1008 NOSIG 25CLRD06
RMK QFE748=
METAR UNWW 081130Z 23002MPS 9999 BKN026CB OVC100 15/09 Q1010 NOSIG
RMK QFE731 1929//60=
METAR USTR 081130Z 36005MPS 9999 SCT046 19/06 Q1012 NOSIG RMK
QFE749/0999 30CLRD65=
METAR USHH 081130Z VRB02G05MPS 7000 -SHRA SCT016CB OVC080 10/09 Q1009
NOSIG RMK QFE753 SC06=
####018000271####
SARS34 RUMS 081130
METAR UUYH 081130Z 00000MPS CAVOK 27/08 Q1016 NOSIG RMK QFE 750
18CLRD60=
METAR UUYS 081130Z 16003MPS CAVOK 21/06 Q1016 NOSIG RMK QFE755
14CLRD60=
METAR UUYY 081130Z VRB01MPS 9999 FEW033 OVC200 30/15 Q1016 NOSIG
01CLRD61 RMK QFE752/1003=
####018000288####
SARA35 RUMS 081130
METAR ULDD 081130Z NIL=
METAR UOHH 081130Z NIL=
METAR UOII 081130Z 15006MPS 9999 BKN033CB BKN100 24/14 Q1006 TEMPO
-TSRA RMK QFE752 30////60=
METAR UOOO 081130Z NIL=
METAR USCM 081130Z 08002MPS 050V130 9999 FEW050 26/00 Q1014 NOSIG
01090065 RMK QFE722=
####018000704####
SARS35 RUMS 081130
METAR USPP 081130Z 34002G05MPS 290V360 CAVOK 28/09 Q1015 NOSIG RMK
QFE751/1001 21090060=
METAR UWKD 081130Z NIL=
METAR UWKE 081130Z NIL=
METAR UWKS 081130Z 33002MPS 280V010 9999 VCTS -SHRA BKN033CB 30/13
Q1016 NOSIG RMK QFE747 SC0.60=
METAR UWLL 081130Z 09003MPS 9999 SCT050CB 32/11 Q1015 NOSIG RMK
QFE749/0999 SC065=
METAR UWLW 081130Z NIL=
METAR UWOR 081130Z NIL=
METAR UWOO 081130Z NIL=
METAR UWPP 081130Z 11004MPS 9999 SCT033 BKN100 32/09 Q1014 NOSIG RMK
QFE746 11090060=
METAR UWSS 081130Z 07004MPS CAVOK 31/09 Q1014 NOSIG RMK QFE749
120///60=
METAR UWWW 081130Z 07007MPS 9999 SCT033 BKN200 32/08 Q1015 NOSIG RMK
QFE748/0997 05CLRD60 15//99//=
####018000192####
SATA31 RUMS 081130
METAR UTDD 081130Z VRB01MPS 9999 FEW066 37/05 Q1009 09CLRD70 NOSIG
RMK QFE689/0919=
METAR UTDL 081130Z 25005MPS 9999 FEW053 38/07 Q1009 NOSIG RMK QFE719
8809//70=
####018000848####
SAUR30 UKMS 081130
METAR UKBB 081130Z 30003MPS 250V350 9999 BKN032 26/18
         Q1014 88CLRD95    NOSIG=
METAR UKHH 081130Z 19002MPS 120V270 9999 SCT040
         BKN200  30/15 Q1014 260///65 NOSIG=
METAR UKOO 081130Z 35003MPS 290V030 CAVOK 28/16 Q1014
          34090070 NOSIG=
METAR UKDE 081130Z 25002MPS 170V300 9999 SCT050 29/17
          Q1014 20CLRD70 NOSIG=
METAR UKDD 081130Z 17003MPS 9999 SCT033CB BKN200
         30/18  Q1014 08090070 TEMPO VRB10G15MPS -TSRA
         SQ BKN020CB=
METAR UKFF 081130Z 06002MPS 340V100 CAVOK 28/15 Q1013
          01010070 NOSIG=
METAR UKLL 081130Z 31003MPS 230V360 CAVOK 19/11 Q1021
          31210365 NOSIG=
METAR UKCC 081130Z VRB01MPS CAVOK 30/16 Q1014
         08090070 NOSIG=
METAR UKDR 081130Z 00000MPS 9999 BKN033 OVC200 29/18 
         Q1013 1809//70 NOSIG=
####018000305####
SARA33 RUMS 081130
METAR UIAA 081130Z NIL=
METAR UIBB 081130Z 06004MPS 9999 BKN200 27/12 Q1006 NOSIG RMK
QFE711/0949 30CLRD60=
METAR UIII 081130Z 11002MPS CAVOK 21/13 Q1006 NOSIG RMK QFE712/0950
12CLRD60=
METAR UIUU 081130Z VRB01MPS 9999 SCT033CB OVC100 22/14 Q1007 NOSIG
RMK QFE711/0948=
####018000707####
SARS31 RUMS 081130
METAR ULAA 081130Z 34004MPS 300V010 9999 FEW030 27/17 Q1015 TEMPO
VRB14MPS TSRA RMK QFE760/1013 SC070=
METAR ULKK 081130Z NIL=
METAR ULMM 081130Z 34002MPS 9999 BKN023 15/08 Q1018 NOSIG RMK QFE756
32190060=
METAR ULOL 081130Z NIL=
METAR ULOO 081130Z VRB02MPS P6000 SCT033 BKN200 28/18 Q1012 NOSIG RMK
QFE755=
METAR ULWW 081130Z NIL=
METAR UMKK 081130Z 31008MPS P8000 FEW033 BKN200 22/15 Q1020 NOSIG RMK
QFE 764 SC07=
METAR UUBP 081130Z NIL=
METAR UUOB 081130Z NIL=
METAR UUOK 081130Z NIL=
METAR UUOO 081130Z VRB01MPS 9999 SCT033TCU 28/14 Q1014 NOSIG RMK
13090070=
METAR UWGG 081130Z 09003MPS 010V150 8000 FEW033 34/09 Q1016 NOSIG RMK
QFE755 18090070=
####018000827####
SARS32 RUMS 081130
METAR URKA 081130Z 06006MPS 9999 SCT026 29/20 Q1012 NOSIG RMK  065=
METAR URKK 081130Z 06005MPS 030V090 9999 BKN040 30/19 Q1012 NOSIG RMK
QFE756 SC070=
METAR URKM 081130Z NIL=
METAR URML 081130Z 06006MPS 9999 FEW100 32/20 Q1012 NOSIG RMK QFE759
/ 07=
METAR URMM 081130Z 10005G07MPS 070V130 9999 BKN043 30/19 Q1012 NOSIG
RMK / SC070=
METAR URMN 081130Z 10002MPS 9999 BKN036CB BKN110 29/20 Q1013 NOSIG
RMK / QFE723 SC07=
METAR URMT 081130Z 07005G08MPS 9999 SCT020 BKN100 28/17 Q1015 NOSIG
RMK QFE721 SC07=
METAR URRR 081130Z NIL=
METAR URSS 081130Z 29005MPS 9999 FEW040 28/21 Q1009 NOSIG RMK /
QFE756 06CLRD70=
METAR URWA 081130Z 09001MPS CAVOK 38/12 Q1011 NOSIG RMK SC07=
METAR URWI 081130Z NIL=
METAR URWW 081130Z 35004MPS CAVOK 30/13 Q1014 NOSIG RMK SC070=
####018000361####
SARA31 RUMS 081130
METAR UEEE 081130Z 00000MPS 9999 SCT050CB OVC100 21/12 Q1007 NOSIG
RMK QFE747 2309//60=
METAR UELL 081130Z NIL=
METAR UERP 081130Z 02003MPS 9999 BKN033CB BKN100 15/06 Q1014 NOSIG
RMK QFE717 35090065=
METAR UERR 081130Z NIL=
METAR UESO 081130Z NIL=
METAR UEST 081130Z 11002MPS 9999 -RA OVC130 05/03 Q1017 NOSIG RMK
QFE762=
####018000472####
SARA32 RUMS 081130
METAR UHHH 081130Z 03003MPS 9999 SCT033CB OVC100 17/15 Q1010 NOSIG
RMK QFE751/1002 55090060=
METAR UHMA 081130Z NIL=
METAR UHMM 081130Z NIL=
METAR UHMP 081130Z NIL=
METAR UHNN 081130Z NIL=
METAR UHPP 081130Z NIL=
METAR UHSH 081130Z NIL=
METAR UHSS 081130Z 00000MPS 9999 BKN016 13/12 Q1011 NOSIG RMK MT OBSC
QFE757/1010 01CLRD70=
METAR UHWW 081130Z 18002MPS 9999 SCT013 BKN023 OVC090 16/14 Q1011
NOSIG RMK QFE757/1010 75CLRD70=
####018000471####
SARS33 RUMS 081130
METAR ULLI 081130Z 12002MPS 070V150 9999 BKN040TCU BKN066 BKN200
29/17 Q1013 NOSIG=
METAR UUDD 081130Z 14005MPS 120V180 9999 SCT043TCU BKN200 28/15 Q1016
TEMPO VRB12MPS TSRA=
METAR UUEE 081130Z 15005G10MPS 9999 SCT050CB BKN200 29/13 Q1015
NOSIG=
METAR UUEM 081130Z NIL=
METAR UUWW 081130Z 16003MPS 110V210 9999 SCT040 BKN100 27/15 Q1015
24000070 NOSIG=
METAR UUMO 081130Z VRB02MPS CAVOK 26/16 Q1015 NOSIG RMK QFE747/0995
SC060=
####018000220####
SATR31 RUMS 081130
METAR UTAA 081130Z 09004MPS 060V120 9999 SKC 44/03 Q1007 NOSIG=
METAR UTAK 081130Z NIL=
METAR UTAM 081130Z 04004MPS CAVOK 42/04 Q1005 NOSIG=
METAR UTAT 081130Z NIL=
METAR UTAV 081130Z NIL=
####018000027####
SAAY31 RUMS 081130
NIL
####018000027####
SAKY31 RUMS 081130
NIL
####018000616####
SARA36 RUMS 081130
METAR UWUU 081130Z 04004MPS 020V100 CAVOK 28/09 Q1015 82010060 NOSIG
RMK QFE750/1000=
METAR USCC 081130Z 36006G10MPS 310V030 9999 FEW040 SCT200 25/01 Q1013
NOSIG RMK QFE740 27000070=
METAR USDD 081130Z 04008G11MPS CAVOK 17/00 Q1016 NOSIG RMK
QFE756/1008 SC060=
METAR USMU 081130Z 02006MPS 9999 SCT031 OVC066 15/11 Q1006 NOSIG RMK
QFE749 09250345=
METAR USNN 081130Z NIL=
METAR USRK 081130Z 35003MPS 6000 BKN020 OVC066 14/10 Q1004 NOSIG RMK
QFE747 351///55=
METAR USRR 081130Z 34004MPS 7000 OVC010 12/10 Q1004 TEMPO BKN007 RMK
QFE748 25////60=
METAR USSS 081130Z NIL=
####018000086####
SPCN47 CWAO 081136
SPECI CYMO 081136Z AUTO 31006KT 9SM -RA OVC019 19/17 A2988=

####018000481####
SARS18 KAWN 081100 RRH
METAR BIKF 081130Z 03019KT 9999 FEW018 BKN035 BKN120 11/05 Q0994=
METAR UKBB 081130Z 30003MPS 250V350 9999 BKN032 26/18 Q1014 88CLRD95
      NOSIG=
METAR UKFF 081130Z 06002MPS 340V100 CAVOK 28/15 Q1013 01010070 NOSIG=
METAR UKKK 081130Z 31003MPS 280V350 9999 BKN033 25/18 Q1015 26CLRD70
      NOSIG=
METAR UKLL 081130Z 31003MPS 230V360 CAVOK 19/11 Q1021 31210365 NOSIG=
METAR UKOO 081130Z 35003MPS 290V030 CAVOK 28/16 Q1014 34090070 NOSIG=
####018000206####
SPUS17 KAWN 081137 RRE
SPECI KFRI 081130Z AUTO 02005KT 6SM BR SCT006 SCT011 OVC019 22/22 A3010
      RMK AO2 OVC V BKN SLP182=
SPECI KGRK 081135Z 06005KT 7SM -SHRA SCT009 BKN015 OVC027 26/24 A2999=
####018000342####
SPNA35 KAWN 081137 RRD
SPECI KJFK 081132Z 15005KT 2SM BR OVC004 24/23 A3006 RMK AO2 SFC VIS
      3 CIG 002V005 $=
SPECI KPBI 081131Z 10009KT 9SM -RA BKN020 BKN028CB BKN033 27/24 A2995
      RMK AO2 RAB16 VIS E-SE 1 1/2 CB OHD-NE-S MOV SW P0000=
SPECI KWRI 081136Z AUTO 15003KT 2SM BR FEW006 24/24 A3002 RMK AO2 SLP166
      $=
####018000488####
SAJP51 RJTD 081130
METAR RJAA 081130Z 15006KT 9999 FEW020 BKN/// 23/22 Q1011 NOSIG=
METAR RJBB 081130Z 25008KT 9999 FEW060 BKN/// 26/23 Q1009 NOSIG=
METAR RJCC 081130Z 20005KT 160V260 2300 -DZ BR BKN002 17/16 Q1011=
METAR RJFF 081130Z 28005KT 8000 FEW025 SCT030 BKN/// 25/21 Q1009=
METAR RJGG 081130Z 13009KT 9999 FEW010 BKN/// 25/23 Q1010 NOSIG=
METAR RJTT 081130Z 19011KT 9999 FEW007 SCT012 BKN/// 25/22 Q1010=
METAR ROAH 081130Z 19013KT 9999 FEW010 BKN020 29/27 Q1010=
####018000125####
SAUS44 KCRP 081137
MTRVCT
SPECI KVCT 081135Z AUTO 00000KT 2SM +RA BR SCT008 BKN014 OVC023 
25/24 A2989 RMK AO2 P0094
####018000115####
SPCN46 CWAO 081137
SPECI CYKF 081137Z AUTO 12002KT 6SM HZ CLR 23/20 A3006 RMK SLP176
 DENSITY ALT 2000FT=

####018002830####
SAAK41 KNKA 081137
METAR PAAK 081136Z AUTO 07016G23KT 10SM SCT017 BKN026 OVC120 07/04 
    A2957 RMK AO1 PNO=
METAR PABL 081136Z AUTO 00000KT 10SM CLR 07/04 A3016 RMK AO1 PNO=
METAR PABV 081136Z AUTO 14004KT 10SM FEW080 BKN090 11/07 RMK AO1 PNO=
METAR PADK 081136Z 05011KT 10SM BKN011 BKN016 OVC021 07/06 A2953 RMK 
    AO1 PNO=
METAR PADL 081136Z 32008KT 10SM BKN044 BKN080 OVC110 10/08 A2997 RMK 
    AO1 PNO TSNO=
METAR PAEM 081136Z AUTO 00000KT 10SM OVC070 12/09 A3003 RMK AO1 PNO=
METAR PAFE 081136Z AUTO 07005KT 10SM CLR 10/08 A3017 RMK AO1 PNO=
METAR PAFM 081136Z AUTO 00000KT 10SM CLR 13/08 A3010 RMK AO1 PNO=
METAR PAGL 081136Z AUTO 29011G16KT 10SM CLR 14/09 A3011 RMK AO1 PNO=
METAR PAGS 081136Z AUTO 00000KT 3SM CLR 08/07 A3019 RMK AO1 PNO=
METAR PAHP 081136Z AUTO 34009KT 10SM CLR 09/07 A3004 RMK AO1 PNO 
    TSNO=
METAR PAHY 081136Z AUTO 00000KT 10SM CLR 16/10 A3011 RMK AO1 PNO=
METAR PAII 081136Z AUTO 01006KT 10SM OVC065 10/08 A2997 RMK AO1 PNO=
METAR PAIN 081136Z AUTO 00000KT 10SM CLR 08/06 A3007 RMK AO1 PNO=
METAR PAJC 081136Z AUTO 21004KT 10SM OVC017 08/04 A2993 RMK AO1 PNO=
METAR PAKK 081136Z AUTO 01014G18KT 10SM CLR 13/07 A3005 RMK AO1 PNO=
METAR PAKP 081136Z AUTO 06006KT 10SM FEW035 10/03 A3012 RMK AO1=
METAR PAMD 081136Z AUTO 09019G24KT 7SM SCT007 OVC014 09/08 A3003 RMK 
    AO1 PNO=
METAR PAMH 081136Z 00000KT 10SM CLR 14/06 A2999 RMK AO1 PNO=
METAR PAMM 081136Z AUTO 00000KT 10SM CLR 17/11 A3009 RMK AO1 PNO=
METAR PAMY 081136Z 29007KT 1SM OVC002 04/03 A3006 RMK AO1=
METAR PANI 081136Z AUTO 00000KT 10SM FEW070 10/08 A3000 RMK AO1 PNO=
METAR PANV 081136Z AUTO 32003KT 10SM BKN085 13/08 A2997 RMK AO1 PNO=
METAR PAPG 081136Z 05007KT 10SM CLR 12/09 A3013 RMK AO1 
      PNO=
METAR PAPH 081136Z AUTO 21003KT 10SM OVC060 06/05 A2995 RMK AO1 PNO=
METAR PARC 081136Z AUTO 00000KT 10SM CLR 09/01 A3006 RMK AO1 PNO=
METAR PASA 081136Z AUTO 06003KT 10SM CLR 04/02 A3019 RMK AO1 PNO=
METAR PASD 081136Z AUTO 00000KT 10SM BKN027 BKN039 07/06 A2994 RMK 
    AO1 PNO=
METAR PASH 081136Z AUTO 00000KT 10SM CLR 08/06 A3017 RMK AO1 PNO=
SPECI PASI 081135Z 00000KT 3SM BR OVC002 13/12 A3017 RMK AO2=
METAR PASK 081136Z 26008KT 10SM CLR 13/07 A3011 RMK AO1 PNO=
METAR PASL 081136Z AUTO 00000KT 10SM OVC095 12/08 A3001 RMK AO1 PNO=
METAR PASM 081136Z AUTO 04003KT 10SM SCT085 OVC110 09/08 A3004 RMK 
    AO1 PNO=
METAR PAUN 081136Z AUTO 07008KT 10SM CLR 12/04 A3001 RMK AO1 PNO=
METAR PAVD 081136Z 00000KT 10SM OVC080 11/08 A3008 RMK AO1 
      PNO=
METAR PAWG 081136Z AUTO 00000KT 10SM CLR 12/10 A3013 RMK AO1 PNO=
METAR PAWN 081136Z AUTO 07003KT 10SM CLR 08/04 A3015 RMK AO1 PNO=
METAR PAWS 081136Z AUTO 14005KT 10SM FEW100 11/08 A2997 RMK AO1 PNO=
METAR PAZK 081136Z AUTO 08010KT 10SM CLR 09/03 A3007 RMK AO1 PNO=
####018000101####
SAUS20 KNKA 081137
METAR PAHP 081136Z AUTO 34009KT 10SM CLR 09/07 A3004 RMK AO1 PNO 
    TSNO=
####018002929####
SAUS20 KNKA 081137
METAR K1A6 081135Z AUTO 00000KT 1/2SM FG OVC003 21/21 A3012 RMK 
     AO2=
METAR K1P1 081135Z AUTO 00000KT 4SM BR CLR 24/22 A3007 RMK AO2 
     T02350223=
METAR K21D 081138Z AUTO 00000KT 10SM CLR 16/16 A3010 RMK AO2=
METAR KAIG 081135Z AUTO 00000KT 3/4SM BR OVC001 18/18 A3003 RMK 
     AO2=
METAR KARV 081132Z AUTO 32003KT 10SM CLR 17/16 A3005 RMK AO2 
     T01680155=
METAR KBJI 081134Z AUTO 25007KT 10SM CLR 15/13 A3006 RMK AO2=
SPECI KBKW 081136Z AUTO 00000KT 2 1/2SM BR CLR 19/18 A3018 RMK AO2 
    VISNO RWY19=
SPECI KBMQ 081136Z AUTO 00000KT 9SM FEW009 BKN031 OVC043 23/22 A3002 
    RMK AO2 $=
METAR KBUU 081134Z AUTO 24003KT 7SM SCT013 SCT017 OVC070 21/21 
     A3002 RMK AO2=
METAR KBWP 081131Z AUTO 28003KT 7SM CLR 14/13 A3010 RMK AO1 
     T01390129=
METAR KCLI 081135Z AUTO 00000KT 3SM BR SCT010 BKN016 22/21 A3001 
     RMK AO2=
METAR KCMR 081135Z AUTO 15006KT 10SM CLR 15/02 A3025 RMK AO1 =
METAR KCMY 081135Z AUTO 00000KT 7SM BKN011 20/19 A3005 RMK AO2 
     T01950186=
METAR KDLL 081135Z AUTO 00000KT 5SM BR SCT002 OVC020 21/21 A3004 
     RMK AO2=
METAR KDVK 081137Z AUTO 00000KT 4SM 21/19 A3010 RMK AO1=
METAR KE80 081135Z AUTO 22004KT 10SM CLR 18/12 A3025 RMK AO2 
     T01830117=
METAR KEDC 081135Z AUTO 04005KT -RA 24/24 A2997 RMK AO2 P0001 =
METAR KEIK 081135Z AUTO 30003KT 5SM BR OVC004 12/12 A3032 RMK AO2=
METAR KEOE 081135Z AUTO 25003KT 10SM CLR 23/21 A3005 RMK AO2=
METAR KFMH 081135Z AUTO 15008KT 10SM FEW009 SCT017 23/21 A3011 RMK 
     AO2 =
METAR KHVS 081135Z AUTO 00000KT 10SM CLR 24/21 A2998 RMK AO2=
METAR KIFP 081135Z AUTO 01006KT 10SM CLR 27/M01 A2975 RMK AO2 =
METAR KIWA 081136Z AUTO 15004KT 10SM CLR 29/04 A2981 RMK AO2=
METAR KLCK 081135Z AUTO 00000KT 4SM BR CLR 23/22 A3008 RMK AO2 
     T02310217=
SPECI KLWV 081136Z AUTO 00000KT 3SM BR CLR 24/23 A3004 RMK AO2=
METAR KMAN 081135Z AUTO 15003KT 10SM CLR 12/07 A3005 RMK AO1 =
METAR KMWO 081135Z AUTO 00000KT 2 1/2SM BR CLR 22/21 A3009 RMK AO2=
METAR KNQA 081135Z COR 00000KT 10SM FEW250 23/23 A3007 RMK=
METAR KPVB 081133Z AUTO 00000KT 1/2SM OVC002 21/20 A3007 RMK AO1 
     T02080201=
METAR KPVF 081135Z AUTO 08005KT 10SM FEW042 22/12 A2993 RMK AO1 =
METAR KRBW 081135Z AUTO 27003KT 10SM CLR 22/20 A2998 RMK AO2=
METAR KRZN 081134Z AUTO 00000KT 10SM CLR 16/16 A3008 RMK AO2 
     T01630155=
METAR KSME 081135Z AUTO 00000KT 2 1/2SM BR 21/19 A3010 RMK AO2=
METAR KSRR 081135Z AUTO 02004KT 1SM BR OVC001 13/12 A3036 RMK AO2 
     =
METAR KTME 081135Z AUTO 04007KT 5SM 25/25 A2993 RMK AO1 =
METAR KUNI 081135Z AUTO 00000KT 5SM HZ CLR 23/17 A3009 RMK AO2 
     T02250173=
METAR KUOX 081135Z AUTO 00000KT 10SM CLR 22/20 A3010 RMK AO2 =
METAR KVES 081134Z AUTO 00000KT 4SM BR CLR 21/20 A3008 RMK AO2 
     T02130201=
METAR PAAK 081136Z AUTO 07016G23KT 10SM SCT017 BKN026 OVC120 07/04 
    A2957 RMK AO1 PNO=
####018001498####
SARS18 KAWN 081100 RRI
METAR UAAA 081130Z 18005MPS 140V210 9999 BKN050CB OVC100 26/09 Q1014
      88CLRD65 TEMPO TS=
METAR UACC 081130Z 33005MPS 290V360 CAVOK 25/01 Q1008 220/0070 NOSIG
      RMK QFE725/0967=
METAR UATE 081130Z 01006MPS CAVOK 39/07 Q1009 300///70 NOSIG RMK QFE755/1007=
METAR UATT 081130Z 05008MPS 9999 NSC 33/02 Q1010 13CLRD70 NOSIG RMK
      QFE738/0984=
METAR UHHH 081130Z 03003MPS 9999 SCT033CB OVC100 17/15 Q1010 NOSIG
      RMK QFE751/1002 55090060=
METAR UHWW 081130Z 18002MPS 9999 SCT013 BKN023 OVC090 16/14 Q1011 NOSIG
      RMK QFE757/1010 75CLRD70=
METAR UIUU 081130Z VRB01MPS 9999 SCT033CB OVC100 22/14 Q1007 NOSIG
      RMK QFE711/0948=
METAR ULLI 081130Z 12002MPS 070V150 9999 BKN040TCU BKN066 BKN200 29/17
      Q1013 NOSIG=
METAR URKA 081130Z 06006MPS 9999 SCT026 29/20 Q1012 NOSIG RMK 065=
METAR URMM 081130Z 10005G07MPS 070V130 9999 BKN043 30/19 Q1012 NOSIG
      RMK / SC070=
METAR URSS 081130Z 29005MPS 9999 FEW040 28/21 Q1009 NOSIG RMK / QFE756
      06CLRD70=
METAR UTDD 081130Z VRB01MPS 9999 FEW066 37/05 Q1009 09CLRD70 NOSIG
      RMK QFE689/0919=
METAR UUDD 081130Z 14005MPS 120V180 9999 SCT043TCU BKN200 28/15 Q1016
      TEMPO VRB12MPS TSRA=
METAR UUEE 081130Z 15005G10MPS 9999 SCT050CB BKN200 29/13 Q1015 NOSIG=
METAR UUWW 081130Z 16003MPS 110V210 9999 SCT040 BKN100 27/15 Q1015
      24000070 NOSIG=
METAR UWPP 081130Z 11004MPS 9999 SCT033 BKN100 32/09 Q1014 NOSIG RMK
      QFE746 11090060=
####018000121####
SPUS90 KWBC 081138
SPECI KVCT 081135Z AUTO 00000KT 2SM +RA BR SCT008 BKN014 OVC023
     25/24 A2989 RMK AO2 P0094=
####018003740####
SAUS99 KWBC 081138
METAR
KAIT 081133Z AUTO 24003KT 10SM CLR 16/15 A3006 RMK AO2=
KBBB 081133Z AUTO 00000KT 7SM CLR 13/13 A3012 RMK AO2=
KFFM 081133Z AUTO 00000KT 10SM CLR 15/14 A3009 RMK AO2=
KFGN 081134Z AUTO 24006KT 1/2SM -DZ VV005 16/13 A2997 RMK AO2=
KGDB 081133Z AUTO 25003KT 10SM CLR 14/13 A3014 RMK AO2
     T01400133=
KGHW 081133Z AUTO 24005KT 7SM CLR 15/13 A3014 RMK AO2=
KMGG 081135Z AUTO 27004KT 10SM CLR 17/15 A3011 RMK AO2
     T01700151=
KMOX 081130Z AUTO 26004KT 10SM CLR 16/14 A3009 RMK AO2=
KMWM 081133Z AUTO 27003KT 7SM CLR 14/13 A3015 RMK AO2=
KPNM 081133Z AUTO 00000KT 10SM CLR 14/14 A3010 RMK AO2=
KPQN 081133Z AUTO 00000KT 10SM CLR 16/14 A3017 RMK AO2=
KPWC 081133Z AUTO 00000KT 1/2SM FG BKN001 11/10 A3009 RMK AO2=
KTWM 081133Z AUTO 00000KT 10SM CLR 16/13 A3002 RMK AO2=
KULM 081135Z AUTO 26004KT 10SM CLR 14/13 A3013 RMK AO2=
K1A6 081135Z AUTO 00000KT 1/2SM FG OVC003 21/21 A3012 RMK AO2=
K1P1 081135Z AUTO 00000KT 4SM BR CLR 24/22 A3007 RMK AO2
     T02350223=
K21D 081138Z AUTO 00000KT 10SM CLR 16/16 A3010 RMK AO2=
KAIG 081135Z AUTO 00000KT 3/4SM BR OVC001 18/18 A3003 RMK AO2=
KARV 081132Z AUTO 32003KT 10SM CLR 17/16 A3005 RMK AO2
     T01680155=
KBJI 081134Z AUTO 25007KT 10SM CLR 15/13 A3006 RMK AO2=
KBUU 081134Z AUTO 24003KT 7SM SCT013 SCT017 OVC070 21/21 A3002 RMK
     AO2=
KBWP 081131Z AUTO 28003KT 7SM CLR 14/13 A3010 RMK AO1
     T01390129=
KCLI 081135Z AUTO 00000KT 3SM BR SCT010 BKN016 22/21 A3001 RMK
     AO2=
KCMR 081135Z AUTO 15006KT 10SM CLR 15/02 A3025 RMK AO1=
KCMY 081135Z AUTO 00000KT 7SM BKN011 20/19 A3005 RMK AO2
     T01950186=
KDLL 081135Z AUTO 00000KT 5SM BR SCT002 OVC020 21/21 A3004 RMK
     AO2=
KDVK 081137Z AUTO 00000KT 4SM 21/19 A3010 RMK AO1=
KE80 081135Z AUTO 22004KT 10SM CLR 18/12 A3025 RMK AO2
     T01830117=
KEDC 081135Z AUTO 04005KT -RA 24/24 A2997 RMK AO2 P0001=
KEIK 081135Z AUTO 30003KT 5SM BR OVC004 12/12 A3032 RMK AO2=
KEOE 081135Z AUTO 25003KT 10SM CLR 23/21 A3005 RMK AO2=
KFMH 081135Z AUTO 15008KT 10SM FEW009 SCT017 23/21 A3011 RMK
     AO2=
KHVS 081135Z AUTO 00000KT 10SM CLR 24/21 A2998 RMK AO2=
KIFP 081135Z AUTO 01006KT 10SM CLR 27/M01 A2975 RMK AO2=
KIWA 081136Z AUTO 15004KT 10SM CLR 29/04 A2981 RMK AO2=
KLCK 081135Z AUTO 00000KT 4SM BR CLR 23/22 A3008 RMK AO2
     T02310217=
KMAN 081135Z AUTO 15003KT 10SM CLR 12/07 A3005 RMK AO1=
KMWO 081135Z AUTO 00000KT 2 1/2SM BR CLR 22/21 A3009 RMK AO2=
KNQA 081135Z COR 00000KT 10SM FEW250 23/23 A3007 RMK=
KPVB 081133Z AUTO 00000KT 1/2SM OVC002 21/20 A3007 RMK AO1
     T02080201=
KPVF 081135Z AUTO 08005KT 10SM FEW042 22/12 A2993 RMK AO1=
KRBW 081135Z AUTO 27003KT 10SM CLR 22/20 A2998 RMK AO2=
KRZN 081134Z AUTO 00000KT 10SM CLR 16/16 A3008 RMK AO2
     T01630155=
KSME 081135Z AUTO 00000KT 2 1/2SM BR 21/19 A3010 RMK AO2=
KSRR 081135Z AUTO 02004KT 1SM BR OVC001 13/12 A3036 RMK AO2=
KTME 081135Z AUTO 04007KT 5SM 25/25 A2993 RMK AO1=
KUNI 081135Z AUTO 00000KT 5SM HZ CLR 23/17 A3009 RMK AO2
     T02250173=
KUOX 081135Z AUTO 00000KT 10SM CLR 22/20 A3010 RMK AO2=
KVES 081134Z AUTO 00000KT 4SM BR CLR 21/20 A3008 RMK AO2
     T02130201=
PAAK 081136Z AUTO 07016G23KT 10SM SCT017 BKN026 OVC120 07/04 A2957
     RMK AO1 PNO=
PAAK 081136Z AUTO 07016G23KT 10SM SCT017 BKN026 OVC120 07/04 A2957
     RMK AO1 PNO=
PABL 081136Z AUTO 00000KT 10SM CLR 07/04 A3016 RMK AO1 PNO=
PABV 081136Z AUTO 14004KT 10SM FEW080 BKN090 11/07 RMK AO1 PNO=
PADK 081136Z 05011KT 10SM BKN011 BKN016 OVC021 07/06 A2953 RMK AO1
     PNO=
PADL 081136Z 32008KT 10SM BKN044 BKN080 OVC110 10/08 A2997 RMK AO1
     PNO TSNO=
PAEM 081136Z AUTO 00000KT 10SM OVC070 12/09 A3003 RMK AO1 PNO=
####018000582####
SPUS99 KWBC 081138
SPECI
KAFN 081135Z AUTO 18004KT 6SM BR SCT009 BKN048 BKN080 23/21 A3012
     RMK AO2=
KBTR 081130Z 06004KT 2SM BR MIFG BKN003 24/23 A3001 RMK AO2 TWR
     VIS 2 1/2 BKN V SCT $=
KLXV 081133Z AUTO 00000KT 2 1/2SM BR BKN004 05/05 A3052 RMK AO2
     VIS 3/4V5 TSNO=
KBKW 081136Z AUTO 00000KT 2 1/2SM BR CLR 19/18 A3018 RMK AO2 VISNO
     RWY19=
KBMQ 081136Z AUTO 00000KT 9SM FEW009 BKN031 OVC043 23/22 A3002 RMK
     AO2 $=
KLWV 081136Z AUTO 00000KT 3SM BR CLR 24/23 A3004 RMK AO2=
PASI 081135Z 00000KT 3SM BR OVC002 13/12 A3017 RMK AO2=
####018002157####
SAUS99 KWBC 081138 RRA
METAR
PAFE 081136Z AUTO 07005KT 10SM CLR 10/08 A3017 RMK AO1 PNO=
PAFM 081136Z AUTO 00000KT 10SM CLR 13/08 A3010 RMK AO1 PNO=
PAGL 081136Z AUTO 29011G16KT 10SM CLR 14/09 A3011 RMK AO1 PNO=
PAGS 081136Z AUTO 00000KT 3SM CLR 08/07 A3019 RMK AO1 PNO=
PAHP 081136Z AUTO 34009KT 10SM CLR 09/07 A3004 RMK AO1 PNO
     TSNO=
PAHY 081136Z AUTO 00000KT 10SM CLR 16/10 A3011 RMK AO1 PNO=
PAII 081136Z AUTO 01006KT 10SM OVC065 10/08 A2997 RMK AO1 PNO=
PAIN 081136Z AUTO 00000KT 10SM CLR 08/06 A3007 RMK AO1 PNO=
PAJC 081136Z AUTO 21004KT 10SM OVC017 08/04 A2993 RMK AO1 PNO=
PAKK 081136Z AUTO 01014G18KT 10SM CLR 13/07 A3005 RMK AO1 PNO=
PAKP 081136Z AUTO 06006KT 10SM FEW035 10/03 A3012 RMK AO1=
PAMD 081136Z AUTO 09019G24KT 7SM SCT007 OVC014 09/08 A3003 RMK AO1
     PNO=
PAMH 081136Z 00000KT 10SM CLR 14/06 A2999 RMK AO1 PNO=
PAMM 081136Z AUTO 00000KT 10SM CLR 17/11 A3009 RMK AO1 PNO=
PAMY 081136Z 29007KT 1SM OVC002 04/03 A3006 RMK AO1=
PANI 081136Z AUTO 00000KT 10SM FEW070 10/08 A3000 RMK AO1 PNO=
PANV 081136Z AUTO 32003KT 10SM BKN085 13/08 A2997 RMK AO1 PNO=
PAPG 081136Z 05007KT 10SM CLR 12/09 A3013 RMK AO1 PNO=
PAPH 081136Z AUTO 21003KT 10SM OVC060 06/05 A2995 RMK AO1 PNO=
PARC 081136Z AUTO 00000KT 10SM CLR 09/01 A3006 RMK AO1 PNO=
PASA 081136Z AUTO 06003KT 10SM CLR 04/02 A3019 RMK AO1 PNO=
PASD 081136Z AUTO 00000KT 10SM BKN027 BKN039 07/06 A2994 RMK AO1
     PNO=
PASH 081136Z AUTO 00000KT 10SM CLR 08/06 A3017 RMK AO1 PNO=
PASK 081136Z 26008KT 10SM CLR 13/07 A3011 RMK AO1 PNO=
PASL 081136Z AUTO 00000KT 10SM OVC095 12/08 A3001 RMK AO1 PNO=
PASM 081136Z AUTO 04003KT 10SM SCT085 OVC110 09/08 A3004 RMK AO1
     PNO=
PAUN 081136Z AUTO 07008KT 10SM CLR 12/04 A3001 RMK AO1 PNO=
PAVD 081136Z 00000KT 10SM OVC080 11/08 A3008 RMK AO1 PNO=
PAWG 081136Z AUTO 00000KT 10SM CLR 12/10 A3013 RMK AO1 PNO=
PAWN 081136Z AUTO 07003KT 10SM CLR 08/04 A3015 RMK AO1 PNO=
PAWS 081136Z AUTO 14005KT 10SM FEW100 11/08 A2997 RMK AO1 PNO=
PAZK 081136Z AUTO 08010KT 10SM CLR 09/03 A3007 RMK AO1 PNO=
PAHP 081136Z AUTO 34009KT 10SM CLR 09/07 A3004 RMK AO1 PNO
     TSNO=
####018000072####
SACN97 KWBC 081138
METAR CXEG 081100Z AUTO 11/11 RMK AO1 T01100110=
####018000095####
SACN87 KWBC 081138
METAR CWRM 081100Z AUTO 30001KT 06/05 RMK AO1 SLP210 T00580050
56005=
####018000243####
SACN94 KWBC 081138
METAR CWRY 081100Z AUTO 29007KT 11/08 RMK AO1 SLP220 T01050079
58002=
METAR CWRY 081100Z AUTO 29007KT 11/08 RMK AO1 SLP220 T01050079
58002=
METAR CWRY 081100Z AUTO 29007KT 11/08 RMK AO1 SLP220 T01050079
58002=
####018000243####
SACN88 KWBC 081138
METAR CWDA 081131Z AUTO 11008KT 09/09 RMK AO1 SLP196 T00910091
58005=
METAR CWDA 081100Z AUTO 10008KT 09/09 RMK AO1 SLP198 T00870087
56006=
METAR CZCR 081100Z AUTO 04002KT 18/17 RMK AO1 SLP162 T01790173
53012=
####018000400####
SAPL31 EPWA 081130
METAR EPWA 081130Z 31011KT CAVOK 23/12 Q1021 NOSIG=
METAR EPGD 081130Z VRB04KT CAVOK 24/09 Q1021=
METAR EPKK 081130Z 29004KT 240V330 9999 FEW053 23/08 Q1022=
METAR EPPO 081130Z VRB05KT CAVOK 24/08 Q1022=
METAR EPRZ 081130Z 33008KT 270V010 9999 SCT043 22/11 Q1021=
METAR EPBY 081130Z 28005KT 220V020 CAVOK 24/08 Q1021=
METAR EPZG 081130Z 20005KT 130V260 CAVOK 26/07 Q1022=
####018000095####
SACN91 KWBC 081138
METAR CWIJ 081100Z AUTO 35001KT 08/07 RMK AO1 SLP142 T00790065
57001=
####018000101####
SPLT31 EYVI 081137
SPECI EYVI 081137Z 28011KT 4000 -SHRA BKN006 OVC015CB 15/14 Q1015
     NOSIG=
####018000327####
SAPL32 EPWA 081130
METAR EPKT 081130Z 35008KT CAVOK 22/08 Q1023=
METAR EPLL 081130Z 34008KT 300V010 CAVOK 23/06 Q1022=
METAR EPSC 081130Z 18002KT CAVOK 24/12 Q1021=
METAR EPWR 081130Z VRB03KT CAVOK 24/09 Q1023=
METAR EPBY 081130Z 28005KT 220V020 CAVOK 24/08 Q1021=
METAR EPZG 081130Z 20005KT 130V260 CAVOK 26/07 Q1022=
####018000026####
SAAY31 RUMS 081130
NIL
####018000100####
SACN78 KWBC 081138
METAR CWKK 081100Z AUTO 22004KT 17/16 RMK AO1 6001 SLP144
T01710160 50009=
####018000547####
SPUS70 KWBC 081138
SPECI
KBOW 081130Z 03004KT 10SM FEW250 22/22 A3000 RMK FIRST=
KBRL 081135Z AUTO 2 1/2SM BR OVC002 22/21 A3005 RMK AO2 $=
KRKP 081135Z AUTO 12009KT 6SM -RA FEW015 SCT024 OVC048 A2984 RMK
     AO2 LTG DSNT NW RAB1056 P0015 FZRANO $=
KAFN 081135Z AUTO 18004KT 6SM BR SCT009 BKN048 BKN080 23/21 A3012
     RMK AO2=
KBMQ 081136Z AUTO 00000KT 9SM FEW009 BKN031 OVC043 23/22 A3002 RMK
     AO2 $=
KLWV 081136Z AUTO 00000KT 3SM BR CLR 24/23 A3004 RMK AO2=
PASI 081135Z 00000KT 3SM BR OVC002 13/12 A3017 RMK AO2=
####018000474####
SPUS80 KWBC 081138
SPECI
KPIA 081135Z 24004KT 2 1/2SM BR FEW004 BKN014 OVC023 23/22 A3004
     RMK AO2=
KBTR 081130Z 06004KT 2SM BR MIFG BKN003 24/23 A3001 RMK AO2 TWR
     VIS 2 1/2 BKN V SCT $=
KLXV 081133Z AUTO 00000KT 2 1/2SM BR BKN004 05/05 A3052 RMK AO2
     VIS 3/4V5 TSNO=
KVCT 081135Z AUTO 00000KT 2SM +RA BR SCT008 BKN014 OVC023 25/24
     A2989 RMK AO2 P0094=
KBKW 081136Z AUTO 00000KT 2 1/2SM BR CLR 19/18 A3018 RMK AO2 VISNO
     RWY19=
####018000604####
SPXX60 KWBC 081138
SPECI
KNQI 081134Z AUTO 02005KT 10SM TS CLR 27/24 A2983 RMK AO2
     TSB28RAE19 P0006 $=
KRND 081134Z AUTO 03004KT 9SM BKN012 25/24 A2994 RMK AO2
     DZB1118E1134 SLP129=
PACZ SP 1135 AWOS MM 10 52/49/0712/004=
PAED 081133Z AUTO 00000KT 10SM -RA OVC080 12/10 A2998 RMK AO2
     RAB1133 SLP154 $=
PAEH SP 1135 AWOS CLR BLO 120 10 48/-20/0000/999=
PAIM SP 1135 AWOS CLR BLO 120 10 50/44/3003/008=
PALU SP 1135 AWOS CLR BLO 120 10 54/34/2025/007=
PATL SP 1135 AWOS CLR BLO 120 10 56/43/0204/999=
KNXF 081135Z AUTO 33004KT 7SM OVC015 16/13 A2989 RMK AO2 TSNO=
####018003588####
SAUS70 KWBC 081138 RRA
METAR
KIWA 081136Z AUTO 15004KT 10SM CLR 29/04 A2981 RMK AO2=
KLCK 081135Z AUTO 00000KT 4SM BR CLR 23/22 A3008 RMK AO2
     T02310217=
KMAN 081135Z AUTO 15003KT 10SM CLR 12/07 A3005 RMK AO1=
KMWO 081135Z AUTO 00000KT 2 1/2SM BR CLR 22/21 A3009 RMK AO2=
KNQA 081135Z COR 00000KT 10SM FEW250 23/23 A3007 RMK=
KPVB 081133Z AUTO 00000KT 1/2SM OVC002 21/20 A3007 RMK AO1
     T02080201=
KPVF 081135Z AUTO 08005KT 10SM FEW042 22/12 A2993 RMK AO1=
KRBW 081135Z AUTO 27003KT 10SM CLR 22/20 A2998 RMK AO2=
KRZN 081134Z AUTO 00000KT 10SM CLR 16/16 A3008 RMK AO2
     T01630155=
KSME 081135Z AUTO 00000KT 2 1/2SM BR 21/19 A3010 RMK AO2=
KSRR 081135Z AUTO 02004KT 1SM BR OVC001 13/12 A3036 RMK AO2=
KTME 081135Z AUTO 04007KT 5SM 25/25 A2993 RMK AO1=
KUNI 081135Z AUTO 00000KT 5SM HZ CLR 23/17 A3009 RMK AO2
     T02250173=
KUOX 081135Z AUTO 00000KT 10SM CLR 22/20 A3010 RMK AO2=
KVES 081134Z AUTO 00000KT 4SM BR CLR 21/20 A3008 RMK AO2
     T02130201=
PAAK 081136Z AUTO 07016G23KT 10SM SCT017 BKN026 OVC120 07/04 A2957
     RMK AO1 PNO=
PAAK 081136Z AUTO 07016G23KT 10SM SCT017 BKN026 OVC120 07/04 A2957
     RMK AO1 PNO=
PABL 081136Z AUTO 00000KT 10SM CLR 07/04 A3016 RMK AO1 PNO=
PABV 081136Z AUTO 14004KT 10SM FEW080 BKN090 11/07 RMK AO1 PNO=
PADL 081136Z 32008KT 10SM BKN044 BKN080 OVC110 10/08 A2997 RMK AO1
     PNO TSNO=
PAEM 081136Z AUTO 00000KT 10SM OVC070 12/09 A3003 RMK AO1 PNO=
PAFE 081136Z AUTO 07005KT 10SM CLR 10/08 A3017 RMK AO1 PNO=
PAFM 081136Z AUTO 00000KT 10SM CLR 13/08 A3010 RMK AO1 PNO=
PAGL 081136Z AUTO 29011G16KT 10SM CLR 14/09 A3011 RMK AO1 PNO=
PAGS 081136Z AUTO 00000KT 3SM CLR 08/07 A3019 RMK AO1 PNO=
PAHP 081136Z AUTO 34009KT 10SM CLR 09/07 A3004 RMK AO1 PNO
     TSNO=
PAHY 081136Z AUTO 00000KT 10SM CLR 16/10 A3011 RMK AO1 PNO=
PAII 081136Z AUTO 01006KT 10SM OVC065 10/08 A2997 RMK AO1 PNO=
PAIN 081136Z AUTO 00000KT 10SM CLR 08/06 A3007 RMK AO1 PNO=
PAJC 081136Z AUTO 21004KT 10SM OVC017 08/04 A2993 RMK AO1 PNO=
PAKK 081136Z AUTO 01014G18KT 10SM CLR 13/07 A3005 RMK AO1 PNO=
PAKP 081136Z AUTO 06006KT 10SM FEW035 10/03 A3012 RMK AO1=
PAMD 081136Z AUTO 09019G24KT 7SM SCT007 OVC014 09/08 A3003 RMK AO1
     PNO=
PAMH 081136Z 00000KT 10SM CLR 14/06 A2999 RMK AO1 PNO=
PAMM 081136Z AUTO 00000KT 10SM CLR 17/11 A3009 RMK AO1 PNO=
PAMY 081136Z 29007KT 1SM OVC002 04/03 A3006 RMK AO1=
PANI 081136Z AUTO 00000KT 10SM FEW070 10/08 A3000 RMK AO1 PNO=
PANV 081136Z AUTO 32003KT 10SM BKN085 13/08 A2997 RMK AO1 PNO=
PAPG 081136Z 05007KT 10SM CLR 12/09 A3013 RMK AO1 PNO=
PAPH 081136Z AUTO 21003KT 10SM OVC060 06/05 A2995 RMK AO1 PNO=
PARC 081136Z AUTO 00000KT 10SM CLR 09/01 A3006 RMK AO1 PNO=
PASA 081136Z AUTO 06003KT 10SM CLR 04/02 A3019 RMK AO1 PNO=
PASD 081136Z AUTO 00000KT 10SM BKN027 BKN039 07/06 A2994 RMK AO1
     PNO=
PASH 081136Z AUTO 00000KT 10SM CLR 08/06 A3017 RMK AO1 PNO=
PASK 081136Z 26008KT 10SM CLR 13/07 A3011 RMK AO1 PNO=
PASL 081136Z AUTO 00000KT 10SM OVC095 12/08 A3001 RMK AO1 PNO=
PASM 081136Z AUTO 04003KT 10SM SCT085 OVC110 09/08 A3004 RMK AO1
     PNO=
PAUN 081136Z AUTO 07008KT 10SM CLR 12/04 A3001 RMK AO1 PNO=
PAVD 081136Z 00000KT 10SM OVC080 11/08 A3008 RMK AO1 PNO=
PAWG 081136Z AUTO 00000KT 10SM CLR 12/10 A3013 RMK AO1 PNO=
PAWN 081136Z AUTO 07003KT 10SM CLR 08/04 A3015 RMK AO1 PNO=
PAWS 081136Z AUTO 14005KT 10SM FEW100 11/08 A2997 RMK AO1 PNO=
PAZK 081136Z AUTO 08010KT 10SM CLR 09/03 A3007 RMK AO1 PNO=
PAHP 081136Z AUTO 34009KT 10SM CLR 09/07 A3004 RMK AO1 PNO
     TSNO=
####018000231####
SAXX60 KWBC 080600 RRL
METAR
KGUS 080555Z COR 19004KT 10SM CLR 24/21 A3006 RMK AO2 SLP172
     T02400208 10313 20240 58003=
KGUS 080555Z COR 19004KT 10SM CLR 24/21 A3006 RMK AO2 SLP172
     T02400208 10313 20240 58003=
####018000356####
SAUS80 KWBC 081138
METAR
K4BM 081133Z AUTO 21007KT 1/2SM FG 04/04 A3061 RMK AO2=
KSMS 081135Z AUTO 32005KT 10SM CLR 25/20 A2999 RMK AO2=
KCLI 081135Z AUTO 00000KT 3SM BR SCT010 BKN016 22/21 A3001 RMK
     AO2=
KDVK 081137Z AUTO 00000KT 4SM 21/19 A3010 RMK AO1=
PADK 081136Z 05011KT 10SM BKN011 BKN016 OVC021 07/06 A2953 RMK AO1
     PNO=
####018003728####
SAUS70 KWBC 081138
METAR
K04W 081134Z AUTO 00000KT 10SM CLR 16/16 A3008 RMK AO2
     T01600156=
K0A9 081135Z AUTO 00000KT 8SM SCT085 21/18 A3013 RMK=
K20V 081136Z AUTO 00000KT 10SM CLR 05/03 A3042 RMK AO2=
K5SM 081133Z AUTO 00000KT 10SM CLR 08/01 A3056 RMK AO2=
K7BM 081136Z AUTO 27003KT 10SM CLR 08/05 A3054 RMK AO2=
KAEG 081135Z AUTO 00000KT 10SM SCT120 15/08 A3029 RMK AO1=
KBBG 081135Z AUTO 00000KT 9SM OVC080 22/21 A3009 RMK AO2 LTG DSNT
     W=
KBBP 081135Z AUTO 00000KT 10SM CLR 24/19 A2997 RMK AO2=
KBDU 081137Z AUTO 00000KT 10SM BKN034 OVC041 14/12 A3032 RMK
     AO2=
KBJC 081137Z AUTO 35010KT 10SM BKN025 12/11 A3033 RMK AO2=
KBKN 081135Z AUTO 01005KT 8SM CLR 22/21 A3004 RMK AO2 LTG DSNT
     E=
KC29 081135Z AUTO 28005KT 10SM BKN006 OVC011 22/20 A3004 RMK AO2
     T02150197=
KCCU 081136Z AUTO 20016G20KT 10SM CLR 07/01 A3062 RMK AO2=
KCIC 081135Z AUTO 18003KT 10SM CLR 20/13 A2983 RMK AO1=
KD39 081134Z AUTO 26004KT 10SM CLR 17/15 A3011 RMK AO2
     T01680154=
KGGE 081135Z AUTO 28004KT 10SM SCT100 24/21 A2994 RMK AO2=
KLUX 081135Z AUTO 00000KT 10SM CLR 23/23 A3004 RMK AO2=
KMAO 081135Z AUTO 00000KT 10SM CLR 25/19 A2994 RMK AO2=
KMER 081135Z AUTO 32008KT 10SM CLR 16/11 A2983 RMK AO1=
KMYP 081036Z AUTO 15006KT 1/4SM -SN OVC001 02/02 A3074 RMK AO2=
KRCE 081135Z AUTO 03006KT 4SM BR OVC002 22/22 A3008 RMK AO2=
KVTP 081140Z AUTO 10004KT 1/2SM BKN001 05/04 A3054 RMK AO2=
KWYS 081130Z AUTO 00000KT 10SM CLR M01/M02 A3038 RMK AO2=
KX40 081135Z AUTO 00000KT 10SM CLR 23/22 A3001 RMK AO2
     T02250220=
KY51 081135Z AUTO 32006KT 2SM OVC003 20/20 A3006 RMK AO1
     T01970196=
KAIT 081133Z AUTO 24003KT 10SM CLR 16/15 A3006 RMK AO2=
KBBB 081133Z AUTO 00000KT 7SM CLR 13/13 A3012 RMK AO2=
KFFM 081133Z AUTO 00000KT 10SM CLR 15/14 A3009 RMK AO2=
KFGN 081134Z AUTO 24006KT 1/2SM -DZ VV005 16/13 A2997 RMK AO2=
KGDB 081133Z AUTO 25003KT 10SM CLR 14/13 A3014 RMK AO2
     T01400133=
KGHW 081133Z AUTO 24005KT 7SM CLR 15/13 A3014 RMK AO2=
KMGG 081135Z AUTO 27004KT 10SM CLR 17/15 A3011 RMK AO2
     T01700151=
KMOX 081130Z AUTO 26004KT 10SM CLR 16/14 A3009 RMK AO2=
KMWM 081133Z AUTO 27003KT 7SM CLR 14/13 A3015 RMK AO2=
KPNM 081133Z AUTO 00000KT 10SM CLR 14/14 A3010 RMK AO2=
KPQN 081133Z AUTO 00000KT 10SM CLR 16/14 A3017 RMK AO2=
KPWC 081133Z AUTO 00000KT 1/2SM FG BKN001 11/10 A3009 RMK AO2=
KTWM 081133Z AUTO 00000KT 10SM CLR 16/13 A3002 RMK AO2=
KULM 081135Z AUTO 26004KT 10SM CLR 14/13 A3013 RMK AO2=
K1A6 081135Z AUTO 00000KT 1/2SM FG OVC003 21/21 A3012 RMK AO2=
K1P1 081135Z AUTO 00000KT 4SM BR CLR 24/22 A3007 RMK AO2
     T02350223=
K21D 081138Z AUTO 00000KT 10SM CLR 16/16 A3010 RMK AO2=
KAIG 081135Z AUTO 00000KT 3/4SM BR OVC001 18/18 A3003 RMK AO2=
KARV 081132Z AUTO 32003KT 10SM CLR 17/16 A3005 RMK AO2
     T01680155=
KBJI 081134Z AUTO 25007KT 10SM CLR 15/13 A3006 RMK AO2=
KBUU 081134Z AUTO 24003KT 7SM SCT013 SCT017 OVC070 21/21 A3002 RMK
     AO2=
KBWP 081131Z AUTO 28003KT 7SM CLR 14/13 A3010 RMK AO1
     T01390129=
KCMR 081135Z AUTO 15006KT 10SM CLR 15/02 A3025 RMK AO1=
KCMY 081135Z AUTO 00000KT 7SM BKN011 20/19 A3005 RMK AO2
     T01950186=
KDLL 081135Z AUTO 00000KT 5SM BR SCT002 OVC020 21/21 A3004 RMK
     AO2=
KE80 081135Z AUTO 22004KT 10SM CLR 18/12 A3025 RMK AO2
     T01830117=
KEDC 081135Z AUTO 04005KT -RA 24/24 A2997 RMK AO2 P0001=
KEIK 081135Z AUTO 30003KT 5SM BR OVC004 12/12 A3032 RMK AO2=
KEOE 081135Z AUTO 25003KT 10SM CLR 23/21 A3005 RMK AO2=
KFMH 081135Z AUTO 15008KT 10SM FEW009 SCT017 23/21 A3011 RMK
     AO2=
KHVS 081135Z AUTO 00000KT 10SM CLR 24/21 A2998 RMK AO2=
KIFP 081135Z AUTO 01006KT 10SM CLR 27/M01 A2975 RMK AO2=
####018000343####
SAAL31 KWBC 081100 RRB
METAR
DAAG 081130Z 02008KT 350V060 CAVOK 34/18 Q1019=
DAAT 081130Z 10008KT 040V150 CAVOK 33/03 Q1022=
DABB 081130Z 01013KT CAVOK 28/20 Q1019=
DABC 081130Z 34008KT CAVOK 33/07 Q1023=
DAON 081130Z 36008KT CAVOK 35/21 Q1017=
DAOO 081130Z 34015KT CAVOK 29/22 Q1016=
DAUH 081130Z 10014KT CAVOK 38/21 Q1018=
####018000088####
SAAW32 KWBC 081130 RRA
METAR
OIII 081130Z 12012KT CAVOK 40/M04 Q1012 A2990 877/9=
####018000691####
SAAW34 KWBC 081115 RRC
METAR
UAAA 081130Z 18005MPS 140V210 9999 BKN050CB OVC100 26/09 Q1014
     88CLRD65 TEMPO TS=
UACC 081130Z 33005MPS 290V360 CAVOK 25/01 Q1008 220/0070 NOSIG RMK
     QFE725/0967=
UAKK 081130Z NIL=
UAOO 081130Z NIL=
UARR 081130Z NIL=
UATE 081130Z 01006MPS CAVOK 39/07 Q1009 300///70 NOSIG RMK
     QFE755/1007=
UATG 081130Z 32005G09MPS CAVOK 39/09 Q1008 32CLRD70 NOSIG RMK
     QFE758/1011=
UATT 081130Z 05008MPS 9999 NSC 33/02 Q1010 13CLRD70 NOSIG RMK
     QFE738/0984=
UAUU 081130Z 33010MPS CAVOK 26/M03 Q1012 33CLRD70 NOSIG RMK
     QFE743/0991=
UTDD 081130Z VRB01MPS 9999 FEW066 37/05 Q1009 09CLRD70 NOSIG RMK
     QFE689/0919=
####018000577####
SACI32 KWBC 081100 RRC
METAR
ZBAA 081130Z 17004MPS CAVOK 32/11 Q1004 NOSIG=
ZBTJ 081130Z 16005MPS CAVOK 28/16 Q1005 NOSIG=
ZBYN 081130Z 11006MPS CAVOK 29/14 Q1008 NOSIG=
ZGGG 081130Z 14004MPS 9999 SCT046 33/26 Q1005 NOSIG=
ZSHC 081130Z 23001MPS 7000 -SHRA BKN020 FEW033CB 26/24 Q1005 TEMPO
     -TSRA FEW033CB=
ZSPD 081130Z 11006MPS 9999 BKN009 26/24 Q1006 NOSIG=
ZSSS 081130Z 12004MPS 9999 BKN016 27/23 Q1005 BECMG BKN011
     OVC040=
ZWWW 081130Z 27004MPS 9999 FEW033CB BKN040 31/09 Q1011 NOSIG=
ZYTL 081130Z 25002MPS 9999 SCT033 26/18 Q1007 NOSIG=
####018000112####
SAEE31 KWBC 081130 RRA
METAR
UKKK 081130Z 31003MPS 280V350 9999 BKN033 25/18 Q1015 26CLRD70
     NOSIG=
####018000185####
SAEM31 KWBC 081130 RRA
METAR
LJLJ 081130Z 17004KT 100V240 9999 FEW040 24/09 Q1023 NOSIG=
LJMB 081130Z VRB03KT 9999 FEW040 24/08 Q1023=
LJPZ 081130Z 30008KT CAVOK 26/12 Q1022=
####018000151####
SAEW31 KWBC 081130 RRA
METAR
LPAZ 081130Z 24004KT 9999 BKN016 BKN030 21/19 Q1025=
LPPD 081130Z 27004KT 230V300 9999 FEW017 BKN030 20/16 Q1024=
####018000147####
SAFR31 KWBC 081130 RRA
METAR
LFGJ 081130Z AUTO VRB04KT 9999NDV NSC 29/11 Q1020=
LFMD 081130Z AUTO 16007KT 130V190 9999NDV NSC 29/22 Q1020=
####018000211####
SAFR32 KWBC 081130 RRA
METAR
LFOT 081130Z AUTO VRB05KT 9999NDV NSC 31/11 Q1018=
LFRC 081130Z AUTO 36005KT 330V050 9999NDV FEW016 21/16 Q1019=
LFTW 081130Z AUTO 17005KT 060V230 9999NDV NSC 32/15 Q1020=
####018000219####
SAJP31 KWBC 081130 RRA
METAR
RJAA 081130Z 15006KT 9999 FEW020 BKN/// 23/22 Q1011 NOSIG=
RJCC 081130Z 20005KT 160V260 2300 -DZ BR BKN002 17/16 Q1011=
RJTT 081130Z 19011KT 9999 FEW007 SCT012 BKN/// 25/22 Q1010=
####018000270####
SAPO31 KWBC 081100 RRE
METAR
LPAZ 081130Z 24004KT 9999 BKN016 BKN030 21/19 Q1025=
LPFL 081130Z 20008KT 150V250 9999 SCT023 24/17 Q1022=
LPHR 081130Z 23005KT 200V260 9999 SCT013 BKN035 23/19 Q1023=
LPPD 081130Z 27004KT 230V300 9999 FEW017 BKN030 20/16 Q1024=
####018001910####
SARA31 KWBC 081100 RRI
METAR
UAAA 081130Z 18005MPS 140V210 9999 BKN050CB OVC100 26/09 Q1014
     88CLRD65 TEMPO TS=
UACC 081130Z 33005MPS 290V360 CAVOK 25/01 Q1008 220/0070 NOSIG RMK
     QFE725/0967=
UAOO 081130Z NIL=
UARR 081130Z NIL=
UATE 081130Z 01006MPS CAVOK 39/07 Q1009 300///70 NOSIG RMK
     QFE755/1007=
UATG 081130Z 32005G09MPS CAVOK 39/09 Q1008 32CLRD70 NOSIG RMK
     QFE758/1011=
UATT 081130Z 05008MPS 9999 NSC 33/02 Q1010 13CLRD70 NOSIG RMK
     QFE738/0984=
UEEE 081130Z 00000MPS 9999 SCT050CB OVC100 21/12 Q1007 NOSIG RMK
     QFE747 2309//60=
UHHH 081130Z 03003MPS 9999 SCT033CB OVC100 17/15 Q1010 NOSIG RMK
     QFE751/1002 55090060=
UHMA 081130Z NIL=
UHMM 081130Z NIL=
UHMP 081130Z NIL=
UHPP 081130Z NIL=
UHSS 081130Z 00000MPS 9999 BKN016 13/12 Q1011 NOSIG RMK MT OBSC
     QFE757/1010 01CLRD70=
UHWW 081130Z 18002MPS 9999 SCT013 BKN023 OVC090 16/14 Q1011 NOSIG
     RMK QFE757/1010 75CLRD70=
UIAA 081130Z NIL=
UIBB 081130Z 06004MPS 9999 BKN200 27/12 Q1006 NOSIG RMK
     QFE711/0949 30CLRD60=
UIII 081130Z 11002MPS CAVOK 21/13 Q1006 NOSIG RMK QFE712/0950
     12CLRD60=
UIUU 081130Z VRB01MPS 9999 SCT033CB OVC100 22/14 Q1007 NOSIG RMK
     QFE711/0948=
ULAA 081130Z 34004MPS 300V010 9999 FEW030 27/17 Q1015 TEMPO
     VRB14MPS TSRA RMK QFE760/1013 SC070=
UNAA 081130Z VRB02MPS 9999 SCT030CB BKN100 19/12 Q1011 RMK QFE736
     202///55=
UNNT 081130Z 23004MPS 9999 BKN060CB OVC100 19/02 Q1007 NOSIG RMK
     QFE745/0994 25090070=
USNN 081130Z NIL=
UTAA 081130Z 09004MPS 060V120 9999 SKC 44/03 Q1007 NOSIG=
UTAK 081130Z NIL=
UTAT 081130Z NIL=
UTAV 081130Z NIL=
UTDD 081130Z VRB01MPS 9999 FEW066 37/05 Q1009 09CLRD70 NOSIG RMK
     QFE689/0919=
UTDL 081130Z 25005MPS 9999 FEW053 38/07 Q1009 NOSIG RMK QFE719
     8809//70=
UUEE 081130Z 15005G10MPS 9999 SCT050CB BKN200 29/13 Q1015
     NOSIG=
####018000715####
SARS32 KWBC 081100 RRB
METAR
URKA 081130Z 06006MPS 9999 SCT026 29/20 Q1012 NOSIG RMK  065=
URKK 081130Z 06005MPS 030V090 9999 BKN040 30/19 Q1012 NOSIG RMK
     QFE756 SC070=
URKM 081130Z NIL=
URMM 081130Z 10005G07MPS 070V130 9999 BKN043 30/19 Q1012 NOSIG RMK
     / SC070=
URMN 081130Z 10002MPS 9999 BKN036CB BKN110 29/20 Q1013 NOSIG RMK
     / QFE723 SC07=
URMT 081130Z 07005G08MPS 9999 SCT020 BKN100 28/17 Q1015 NOSIG RMK
     QFE721 SC07=
URRR 081130Z NIL=
URSS 081130Z 29005MPS 9999 FEW040 28/21 Q1009 NOSIG RMK / QFE756
     06CLRD70=
URWA 081130Z 09001MPS CAVOK 38/12 Q1011 NOSIG RMK SC07=
URWI 081130Z NIL=
URWW 081130Z 35004MPS CAVOK 30/13 Q1014 NOSIG RMK SC070=
####018000700####
SARS33 KWBC 081100 RRB
METAR
USCC 081130Z 36006G10MPS 310V030 9999 FEW040 SCT200 25/01 Q1013
     NOSIG RMK QFE740 27000070=
USDD 081130Z 04008G11MPS CAVOK 17/00 Q1016 NOSIG RMK QFE756/1008
     SC060=
USMU 081130Z 02006MPS 9999 SCT031 OVC066 15/11 Q1006 NOSIG RMK
     QFE749 09250345=
USNN 081130Z NIL=
USPP 081130Z 34002G05MPS 290V360 CAVOK 28/09 Q1015 NOSIG RMK
     QFE751/1001 21090060=
USRK 081130Z 35003MPS 6000 BKN020 OVC066 14/10 Q1004 NOSIG RMK
     QFE747 351///55=
USRR 081130Z 34004MPS 7000 OVC010 12/10 Q1004 TEMPO BKN007 RMK
     QFE748 25////60=
USSS 081130Z NIL=
USTR 081130Z 36005MPS 9999 SCT046 19/06 Q1012 NOSIG RMK
     QFE749/0999 30CLRD65=
####018000662####
SARS31 KWBC 081100 RRC
METAR
UELL 081130Z NIL=
UEST 081130Z 11002MPS 9999 -RA OVC130 05/03 Q1017 NOSIG RMK
     QFE762=
ULLI 081130Z 12002MPS 070V150 9999 BKN040TCU BKN066 BKN200 29/17
     Q1013 NOSIG=
ULMM 081130Z 34002MPS 9999 BKN023 15/08 Q1018 NOSIG RMK QFE756
     32190060=
UOHH 081130Z NIL=
UOOO 081130Z NIL=
UTAM 081130Z 04004MPS CAVOK 42/04 Q1005 NOSIG=
UUDD 081130Z 14005MPS 120V180 9999 SCT043TCU BKN200 28/15 Q1016
     TEMPO VRB12MPS TSRA=
UUEE 081130Z 15005G10MPS 9999 SCT050CB BKN200 29/13 Q1015
     NOSIG=
UUEM 081130Z NIL=
UUWW 081130Z 16003MPS 110V210 9999 SCT040 BKN100 27/15 Q1015
     24000070 NOSIG=
####018001085####
SARS41 KWBC 081100 RRB
METAR
UUBP 081130Z NIL=
UUEE 081130Z 15005G10MPS 9999 SCT050CB BKN200 29/13 Q1015
     NOSIG=
UUEM 081130Z NIL=
UUOO 081130Z VRB01MPS 9999 SCT033TCU 28/14 Q1014 NOSIG RMK
     13090070=
UUWW 081130Z 16003MPS 110V210 9999 SCT040 BKN100 27/15 Q1015
     24000070 NOSIG=
UUYH 081130Z 00000MPS CAVOK 27/08 Q1016 NOSIG RMK QFE 750
     18CLRD60=
UUYS 081130Z 16003MPS CAVOK 21/06 Q1016 NOSIG RMK QFE755
     14CLRD60=
UUYY 081130Z VRB01MPS 9999 FEW033 OVC200 30/15 Q1016 NOSIG
     01CLRD61 RMK QFE752/1003=
UWGG 081130Z 09003MPS 010V150 8000 FEW033 34/09 Q1016 NOSIG RMK
     QFE755 18090070=
UWKD 081130Z NIL=
UWKE 081130Z NIL=
UWLW 081130Z NIL=
UWOO 081130Z NIL=
UWPP 081130Z 11004MPS 9999 SCT033 BKN100 32/09 Q1014 NOSIG RMK
     QFE746 11090060=
UWSS 081130Z 07004MPS CAVOK 31/09 Q1014 NOSIG RMK QFE749
     120///60=
UWUU 081130Z 04004MPS 020V100 CAVOK 28/09 Q1015 82010060 NOSIG RMK
     QFE750/1000=
UWWW 081130Z 07007MPS 9999 SCT033 BKN200 32/08 Q1015 NOSIG RMK
     QFE748/0997 05CLRD60 15//99//=
####018000193####
SATS31 KWBC 081130 RRA
METAR
DTMB 081130Z 03008KT 350V050 CAVOK 30/13 Q1019 NOSIG=
DTTA 081130Z 05008KT 330V090 CAVOK 29/20 Q1019 NOSIG=
DTTJ 081130Z 07008KT CAVOK 29/21 Q1018 NOSIG=
####018000123####
SAUK41 KWBC 080950 CCC
METAR
EGDM 080950Z 23003KT 9999 FEW016 SCT033 BKN120 19/14 Q1019 BLU
     TEMPO SCT018 WHT=
####018000115####
SAUK41 KWBC 081050 RRG
METAR
EGDM 081050Z 21005KT 9999 SCT018 SCT130 BKN250 20/15 Q1019 BECMG
     BKN025=
####018000612####
SAUR31 KWBC 081050 RRB
METAR
UKCW 081130Z VRB02MPS 9999 BKN040 30/15 Q1014 2709//70 NOSIG=
UKKK 081130Z 31003MPS 280V350 9999 BKN033 25/18 Q1015 26CLRD70
     NOSIG=
UKKM 081130Z 33004MPS 280V010 9999 BKN030 24/17 Q1015 33CLRD70
     NOSIG=
UKLI 081130Z 30002MPS 240V020 9999 SCT023CB BKN027 17/14 Q1020
     28290565 NOSIG=
UKLN 081130Z 29006MPS 220V320 9999 -SHRA BKN013 BKN033CB 15/14
     Q1020 3319//65 NOSIG=
UKLR 081130Z 31005MPS 260V360 9999 SCT023 BKN100 21/15 Q1018
     30090070 NOSIG=
UKON 081130Z 30002MPS 250V340 9999 FEW033TCU OVC200 28/17 Q1013
     05090075 NOSIG=
####018000602####
SAKZ31 RUMS 081130
METAR UAAA 081130Z 18005MPS 140V210 9999 BKN050CB OVC100 26/09 Q1014
88CLRD65 TEMPO TS=
METAR UACC 081130Z 33005MPS 290V360 CAVOK 25/01 Q1008 220/0070 NOSIG
RMK QFE725/0967=
METAR UAKK 081130Z NIL=
METAR UAOO 081130Z NIL=
METAR UARR 081130Z NIL=
METAR UATE 081130Z 01006MPS CAVOK 39/07 Q1009 300///70 NOSIG RMK
QFE755/1007=
METAR UATG 081130Z 32005G09MPS CAVOK 39/09 Q1008 32CLRD70 NOSIG RMK
QFE758/1011 =
METAR UATT 081130Z 05008MPS 9999 NSC 33/02 Q1010 13CLRD70 NOSIG RMK
QFE738/0984=
METAR UAUU 081130Z 33010MPS CAVOK 26/M03 Q1012 33CLRD70 NOSIG RMK
QFE743/0991=
####018000026####
SAKY31 RUMS 081130
NIL
####018000215####
SATR31 RUMS 081130
METAR UTAA 081130Z 09004MPS 060V120 9999 SKC 44/03 Q1007 NOSIG=
METAR UTAK 081130Z NIL=
METAR UTAM 081130Z 04004MPS CAVOK 42/04 Q1005 NOSIG=
METAR UTAT 081130Z NIL=
METAR UTAV 081130Z NIL=
####018001291####
SAXX99 KWBC 081100 RRX
METAR
RJBB 081130Z 25008KT 9999 FEW060 BKN/// 26/23 Q1009 NOSIG=
RJGG 081130Z 13009KT 9999 FEW010 BKN/// 25/23 Q1010 NOSIG=
UERP 081130Z 02003MPS 9999 BKN033CB BKN100 15/06 Q1014 NOSIG RMK
     QFE717 35090065=
UERR 081130Z NIL=
UESO 081130Z NIL=
UHNN 081130Z NIL=
UHSH 081130Z NIL=
ULDD 081130Z NIL=
ULKK 081130Z NIL=
ULOL 081130Z NIL=
ULOO 081130Z VRB02MPS P6000 SCT033 BKN200 28/18 Q1012 NOSIG RMK
     QFE755=
ULWW 081130Z NIL=
UMKK 081130Z 31008MPS P8000 FEW033 BKN200 22/15 Q1020 NOSIG RMK
     QFE 764 SC07=
UNBB 081130Z NIL=
UNEE 081130Z 26005MPS 9999 SCT026CB BKN200 18/13 Q1009 NOSIG RMK
     QFE734 23CLRD60=
UNKL 081130Z VRB01MPS 9999 SCT023CB OVC083 18/13 Q1010 NOSIG RMK
     QFE732 29////60=
UNOO 081130Z 32003MPS 9999 BKN026CB 14/10 Q1008 NOSIG 25CLRD06 RMK
     QFE748=
UNWW 081130Z 23002MPS 9999 BKN026CB OVC100 15/09 Q1010 NOSIG RMK
     QFE731 1929//60=
UOII 081130Z 15006MPS 9999 BKN033CB BKN100 24/14 Q1006 TEMPO -TSRA
     RMK QFE752 30////60=
URML 081130Z 06006MPS 9999 FEW100 32/20 Q1012 NOSIG RMK QFE759 /
     07=
UWLL 081130Z 09003MPS 9999 SCT050CB 32/11 Q1015 NOSIG RMK
     QFE749/0999 SC065=
UWOR 081130Z NIL=
ZYTX 081130Z VRB01MPS 9999 FEW030 21/19 Q1007 NOSIG=
####018000097####
SPUS43 KWBC 081138
SPECI
KPIA 081135Z 24004KT 2 1/2SM BR FEW004 BKN014 OVC023 23/22 A3004=
####018000104####
SPUS52 KWBC 081138
SPECI
KVCT 081135Z AUTO 00000KT 2SM +RA BR SCT008 BKN014 OVC023 25/24
A2989=
####018000080####
SPUS53 KWBC 081138
SPECI
KBRL 081135Z AUTO 2 1/2SM BR OVC002 22/21 A3005=
####018000080####
SACN88 CWAO 081131
WNS SA 1131 AUTO8 M M M 202/21/18/MMMM/M/M 1001 72MM=

####018000104####
SPUS72 KWBC 081138
SPECI
KVCT 081135Z AUTO 00000KT 2SM +RA BR SCT008 BKN014 OVC023 25/24
A2989=
####018000080####
SPUS73 KWBC 081138
SPECI
KBRL 081135Z AUTO 2 1/2SM BR OVC002 22/21 A3005=
####018000097####
SPUS73 KWBC 081138
SPECI
KPIA 081135Z 24004KT 2 1/2SM BR FEW004 BKN014 OVC023 23/22 A3004=
####018000093####
SAUZ31 UTTW 081130
METAR UTSA 081130Z 03007MPS 9999 NSC 40/04 Q1008 R88/CLRD70 
NOSIG=
####018000098####
SAUZ31 UTTW 081130
METAR UTST 081130Z 19002MPS 110V250 CAVOK 41/03 Q1005 R88/CLRD70 
NOSIG=
####018000092####
SAUZ31 UTTW 081130
METAR UTSA 081130Z 03007MPS 9999 NSC 40/04 Q1008 R88/CLRD70
NOSIG=
####018000099####
SAUZ31 UTTW 081130
METAR UTSB 081130Z 01006MPS CAVOK 41/02 Q1007 R01/CLRD70 TEMPO 
01008MPS=
####018000097####
SAUZ31 UTTW 081130
METAR UTST 081130Z 19002MPS 110V250 CAVOK 41/03 Q1005 R88/CLRD70
NOSIG=
####018000098####
SAUZ31 UTTW 081130
METAR UTNN 081130Z 24003MPS 200V260 CAVOK 43/05 Q1006 R33/CLRD70 
NOSIG=
####018000286####
SABY31 UMMN 081130
UMBB NIL=
METAR UMGG 081130Z 15003MPS 9999 BKN038CB BKN100 28/16 Q1014
R28/290550 NOSIG=
METAR UMMM 081130Z 26006G09MPS 9999 OVC018 20/15 Q1015
R30/CLRD// NOSIG RMK QFE742=
METAR UMMS 081130Z 28002MPS 230V330 9999 BKN023 20/17 Q1015
R31/CLRD// NOSIG=
####018000092####
SAUZ31 UTTW 081130
METAR UTSS 081130Z 07006MPS 9999 NSC 35/12 Q1010
R88/CLRD70 NOSIG=
####018000093####
SAUZ31 UTTW 081130
METAR UTSS 081130Z 07006MPS 9999 NSC 35/12 Q1010 
R88/CLRD70 NOSIG=
####018000097####
SAUZ31 UTTW 081130
METAR UTNN 081130Z 24003MPS 200V260 CAVOK 43/05 Q1006 R33/CLRD70
NOSIG=
####018000098####
SAUZ31 UTTW 081130
METAR UTSB 081130Z 01006MPS CAVOK 41/02 Q1007 R01/CLRD70 TEMPO
01008MPS=
####018000815####
SARS32 RUMS 081130
METAR URKA 081130Z 06006MPS 9999 SCT026 29/20 Q1012 NOSIG RMK  065=
METAR URKK 081130Z 06005MPS 030V090 9999 BKN040 30/19 Q1012 NOSIG RMK
QFE756 SC070=
METAR URKM 081130Z NIL=
METAR URML 081130Z 06006MPS 9999 FEW100 32/20 Q1012 NOSIG RMK QFE759
/ 07=
METAR URMM 081130Z 10005G07MPS 070V130 9999 BKN043 30/19 Q1012 NOSIG
RMK / SC070=
METAR URMN 081130Z 10002MPS 9999 BKN036CB BKN110 29/20 Q1013 NOSIG
RMK / QFE723 SC07=
METAR URMT 081130Z 07005G08MPS 9999 SCT020 BKN100 28/17 Q1015 NOSIG
RMK QFE721 SC07=
METAR URRR 081130Z NIL=
METAR URSS 081130Z 29005MPS 9999 FEW040 28/21 Q1009 NOSIG RMK /
QFE756 06CLRD70=
METAR URWA 081130Z 09001MPS CAVOK 38/12 Q1011 NOSIG RMK SC07=
METAR URWI 081130Z NIL=
METAR URWW 081130Z 35004MPS CAVOK 30/13 Q1014 NOSIG RMK SC070=
####018000113####
SARS35 RUMS 081130 RRA
METAR UWKE 081130Z 06004MPS 9999 FEW040 31/09 Q1016 NOSIG RMK
QFE745/0993 22090070=
####018000180####
SAUS44 KCRP 081138
MTRCRP
SPECI KCRP 081136Z 03013KT 2SM +TSRA BR SCT016CB BKN021 OVC048 26/25 
A2984 RMK AO2 SFC VIS 4 TSB32RAB27 OCNL LTGIC SE-S TS SE-S MOV W 
P0002 $
####018000097####
SPUS81 KWBC 081138
SPECI
KPIA 081135Z 24004KT 2 1/2SM BR FEW004 BKN014 OVC023 23/22 A3004=
####018000407####
SAPL31 EPWA 081130
METAR EPWA 081130Z 31011KT CAVOK 23/12 Q1021 NOSIG=
METAR EPGD 081130Z VRB04KT CAVOK 24/09 Q1021=
METAR EPKK 081130Z 29004KT 240V330 9999 FEW053 23/08 Q1022=
METAR EPPO 081130Z VRB05KT CAVOK 24/08 Q1022=
METAR EPRZ 081130Z 33008KT 270V010 9999 SCT043 22/11 Q1021=
METAR EPBY 081130Z 28005KT 220V020 CAVOK 24/08 Q1021=
METAR EPZG 081130Z 20005KT 130V260 CAVOK 26/07 Q1022=
####018000447####
SAAL40 DAMM 081130
METAR DAAG 081130Z 02008KT 350V060 CAVOK 34/18 Q1019=
METAR DAAT 081130Z 10008KT 040V150 CAVOK 33/03 Q1022=
METAR DABB 081130Z 01013KT CAVOK 28/20 Q1019=
METAR DABC 081130Z 34008KT CAVOK 33/07 Q1023=
METAR DABS 081130Z 32012KT CAVOK 34/10 Q1023=
METAR DAON 081130Z 36008KT CAVOK 35/21 Q1017=
METAR DAOO 081130Z 34015KT CAVOK 29/22 Q1016=
METAR DAUH 081130Z 10014KT CAVOK 38/21 Q1018=
METAR DAUZ 081130Z NIL=
####018000333####
SAPL32 EPWA 081130
METAR EPKT 081130Z 35008KT CAVOK 22/08 Q1023=
METAR EPLL 081130Z 34008KT 300V010 CAVOK 23/06 Q1022=
METAR EPSC 081130Z 18002KT CAVOK 24/12 Q1021=
METAR EPWR 081130Z VRB03KT CAVOK 24/09 Q1023=
METAR EPBY 081130Z 28005KT 220V020 CAVOK 24/08 Q1021=
METAR EPZG 081130Z 20005KT 130V260 CAVOK 26/07 Q1022=
####018000104####
SPUS81 KWBC 081138
SPECI
KVCT 081135Z AUTO 00000KT 2SM +RA BR SCT008 BKN014 OVC023 25/24
A2989=
####018000091####
SAGL KAWN 081100 RRC
METAR BIKF 081130Z 03019KT 9999 FEW018 BKN035 BKN120 11/05 Q0994=
####018000695####
SAAE31 VTBB 081130
METAR VTBS 081130Z NIL=
METAR VTBD 081130Z 15006KT 9999 FEW020 SCT120 BKN300 30/23 Q1006
           NOSIG=
METAR VTCC 081130Z 01013KT 9999 FEW025CB SCT035 BKN300 32/20 Q1008
           A2976 CB N-NE,E=
METAR VTBU 081130Z NIL=
METAR VTSS 081130Z NIL=
METAR VTSP 081130Z NIL=
METAR VLVT 081130Z NIL=
METAR VYYY 081130Z NIL=
METAR VVTS 081130Z NIL=
METAR VVNB 081130Z 11016KT 9999 FEW026CB BKN100 34/27 Q1001 NOSIG=
METAR VDPP 081130Z 23007KT 9000 SCT015 FEW017CB SCT040 30/22 Q1007
           CB:NE NW=
METAR VVDN 081130Z NIL=
METAR VYMD 081130Z NIL=
METAR VDSR 081130Z NIL=
METAR VVPB 081130Z VRB03KT 9999 SCT023 BKN300 30/21 Q1005 NOSIG=
####018000089####
SPCN31 CWAO 081137
SPECI CYJT 081137Z 09005KT 8SM -SHRA BKN015 OVC030 RMK SC6SC2=

####018000106####
SAUK39 EGRR 081050 RRN
METAR EGUB 081050Z AUTO 23006KT 9999NDV // BKN026/// SCT110/// 20/16
 Q1018=
####018000103####
SAUK39 EGRR 081050 RRO
METAR EGXG 081050Z AUTO 23009KT 9999NDV FEW040/// SCT048/// 20/08
 Q1016=
####018001633####
SPZZ40 KAWN 081138 RRI
SPECI CYKF 081137Z AUTO 12002KT 6SM HZ CLR 23/20 A3006 RMK SLP176 DENSITY
      ALT 2000FT=
SPECI CYMO 081136Z AUTO 31006KT 9SM -RA OVC019 19/17 A2988=
SPECI EGUL 081136Z AUTO 26007KT 9999 BKN029 BKN034 21/14 A3006 RMK
      AO2 CIG 028V030 SLP180=
SPECI EGUN 081134Z AUTO 23009KT 9999 OVC029 21/17 A3007 RMK AO2 CIG
      026V030 SLP171=
SPECI EYVI 081137Z 28011KT 4000 -SHRA BKN006 OVC015CB 15/14 Q1015 NOSIG=
SPECI KEGI 081135Z AUTO 00000KT 1 1/4SM R18/3000VP6000FT BR CLR 22/21
      A3003 RMK AO2 VIS 3/4V5 SLP169 $=
SPECI KEGI 081136Z AUTO 00000KT 1 1/2SM R18/3500VP6000FT BR CLR 22/22
      A3003 RMK AO2 SLP169 $=
SPECI KGRK 081135Z 06005KT 7SM -SHRA SCT009 BKN015 OVC027 26/24 A2999=
SPECI KLTS 081134Z AUTO 02009KT 4SM R35L/4000VP6000FT +RA BR BKN013
      22/22 A3008 RMK AO2 RAB1110 SLP171 $=
SPECI KNQI 081134Z AUTO 02005KT 10SM TS CLR 27/24 A2983 RMK AO2 TSB28RAE19
      P0006 $=
SPECI KWRI 081136Z AUTO 15003KT 2SM BR FEW006 24/24 A3002 RMK AO2 SLP166
      $=
PASV SP 1135 AWOS 90 SCT 10 48/45/0000/996=
SPECI RJFA 081123Z 03001KT 4000 BR FEW005 BKN180 BKN/// 24/22 Q1009
      RMK 1ST005 5AC180 A2981=
SPECI RJOH 081124Z 08004KT 050V120 7000 FEW010 SCT015 BKN025 FEW025CB
      25/22 Q1009 RETS RMK 2CU010 3CU015 5CU025 1CB025 A2982 CB
      25KM S MOV N=
SPECI RKJK 081135Z 11008KT 4000 R36/0900V1400 -RA BR BKN070 23/23 A2979
      RMK AO2A RAB1116DZB1103E1116 CLDS LWR RWY18 SLP088 $=
SPECI SBPA 081135Z 21004KT 7000 BKN010 OVC020 15/13 Q1020=
SPECI YPPD 081136Z AUTO 30006KT 0500NDV // BKN010 BKN024 OVC072 21/20
      Q1010=
####018002428####
SAUS20 KNKA 081138
METAR K14Y 081139Z AUTO 22005KT 10SM CLR 16/15 A3011 RMK AO2 
     T01570150=
METAR K4M9 081135Z AUTO 19004KT 5SM BR CLR 25/25 A3006 RMK AO2 =
METAR KAEJ 081135Z AUTO 00000KT 5SM BR CLR 07/07 A3045 RMK AO2=
METAR KBVU 081135Z AUTO 00000KT 10SM CLR 23/02 A2986 RMK AO2 =
METAR KEFT 081135Z AUTO 27007KT 10SM CLR 21/19 A3005 RMK AO2 
     T02110186=
METAR KEGV 081132Z AUTO 33003KT 10SM CLR 18/18 A3004 RMK AO2 
     T01770177=
METAR KETB 081132Z AUTO 27003KT 5SM BR SCT005 BKN013 OVC018 22/21 
     A3002 RMK AO2 T02190208=
METAR KEZS 081135Z AUTO 28003KT 5SM BR BKN005 23/22 A3000 RMK AO2 
     T02250216=
METAR KGLW 081133Z AUTO 00000KT 5SM BR CLR 22/20 A3008 RMK AO2 
     T02160203=
METAR KHFJ 081135Z AUTO 00000KT 7SM OVC016 22/22 A3005 RMK AO1=
SPECI KHOU 081137Z 18005KT 4SM RA BR FEW012 SCT023 OVC042 24/23 
    A2992 RMK AO2 RAB23 P0021=
METAR KHYW 081135Z AUTO 00000KT 7SM CLR 25/23 A2994 RMK AO2=
SPECI KIXD 081137Z 35004KT 3SM BR CLR 22/21 A3007 RMK AO2=
METAR KLNL 081135Z AUTO 33005KT 10SM CLR 17/15 A3006 RMK AO2 
     T01700146=
SPECI KLNR 081137Z AUTO 00000KT 2 1/2SM BR OVC002 21/20 A3004 RMK 
    AO2 CIG 001V004=
METAR KLUM 081135Z AUTO 29005KT 10SM CLR 18/17 A3008 RMK AO2=
METAR KMCJ 081135Z AUTO 16017G25KT 1 3/4SM BKN004 OVC021 25/24 
     A2991 RMK AO1 P0011 =
METAR KMDZ 081135Z AUTO 32005KT 4SM BR OVC002 19/18 A3005 RMK AO2=
SPECI KMLI 081137Z 00000KT 9SM OVC011 23/22 A3004 RMK AO2 $=
METAR KMRJ 081135Z AUTO 00000KT 1/4SM FG OVC003 22/20 A3006 RMK 
     AO2 T02150200=
METAR KOEO 081135Z AUTO 00000KT 10SM CLR 17/16 A3011 RMK AO2=
METAR KPBH 081135Z AUTO 30003KT 10SM SCT044 19/17 A3007 RMK AO2=
METAR KPCZ 081135Z AUTO 26004KT 3SM BR CLR 22/21 A3001 RMK AO2 
     T02220209=
METAR KPDC 081133Z AUTO 00000KT 7SM CLR 22/21 A3004 RMK AO2 
     T02170205=
METAR KRCM 081135Z AUTO 00000KT 7SM OVC004 22/22 A3006 RMK AO2=
METAR KRCX 081135Z AUTO 33008KT 10SM SCT047 18/17 A3007 RMK AO2 
     T01840167=
METAR KRNH 081136Z AUTO 00000KT 10SM CLR 17/16 A3010 RMK AO2 
     T01670162=
SPECI KSET 081137Z AUTO 00000KT 5SM BR SCT006 BKN010 OVC038 24/24 
    A3003 RMK AO2 CIG 008V011=
METAR KSNC 081135Z AUTO 15004KT 5SM  HZ OVC003 22/ A3009 RMK AO2 =
SPECI KSTC 081137Z AUTO 00000KT 5SM BR CLR 15/13 A3010 RMK AO2=
METAR KY63 081140Z AUTO 22003KT 10SM CLR 15/14 A3011 RMK AO2 
     T01450139=
####018003736####
SAUS99 KWBC 081139
METAR
KBAX 081135Z AUTO 00000KT 5SM BR CLR 24/23 A3000 RMK AO2=
KACB 081135Z AUTO 20003KT 5SM -RA SCT021 OVC070 23/21 A3000 RMK
     AO2=
K4I3 081136Z AUTO 00000KT 5SM BR SCT060 20/19 A3010 RMK AO2=
KAUM 081135Z AUTO 32006KT 7SM CLR 17/17 A3010 RMK AO2=
KADC 081137Z AUTO 24004KT 10SM CLR 14/13 A3009 RMK AO2=
KACQ 081139Z AUTO 30003KT 10SM CLR 16/15 A3013 RMK AO2=
KFKA 081143Z AUTO 32008KT 10SM CLR 18/17 A3009 RMK AO2
     T01820174=
KFPK 081136Z AUTO 00000KT 5SM BR CLR 22/21 A3003 RMK AO2=
KMOP 081134Z AUTO 25004KT 10SM OVC085 23/23 A3002 RMK AO2=
KCAD 081135Z AUTO 22007KT 5SM RA SCT048 BKN070 OVC090 22/21 A3003
     RMK AO2=
KMGN 081135Z AUTO 26003KT 7SM -DZ SCT012 SCT055 OVC100 22/20 A2999
     RMK AO2=
KHAI 081135Z AUTO 00000KT 5SM BR CLR 22/21 A3005 RMK AO2=
KLWA 081136Z AUTO 00000KT 10SM BKN044 BKN050 BKN095 23/21 A3003
     RMK AO2=
KDRM 081136Z AUTO 00000KT 1 3/4SM -RA BKN002 OVC100 20/20 A2996
     RMK AO2=
KVLL 081134Z AUTO 25003KT 10SM CLR 26/21 A3006 RMK AO2=
KCFS 081135Z AUTO 23004KT 7SM CLR 23/22 A3003 RMK AO2=
KOZW 081135Z AUTO 00000KT 7SM CLR 24/21 A3005 RMK AO2=
KRNP 081135Z AUTO 00000KT 10SM CLR 25/21 A3002 RMK AO2=
KDUH 081135Z AUTO 00000KT 10SM CLR 24/18 A3005 RMK AO2=
KJYM 081135Z AUTO 00000KT 5SM BR CLR 22/21 A3007 RMK AO2=
KIRS 081135Z AUTO 00000KT 4SM BR CLR 22/21 A3005 RMK AO2=
KRQB 081135Z AUTO 00000KT 7SM -RA BKN075 OVC090 22/21 A3003 RMK
     AO2=
KOEB 081135Z AUTO 00000KT 4SM BR CLR 23/21 A3006 RMK AO2=
KFFX 081135Z AUTO 18003KT 2SM BR BKN004 BKN039 OVC080 22/22 A3003
     RMK AO2=
KCNB 081138Z AUTO 24005KT 10SM CLR 17/13 A3014 RMK AO2
     T01710133=
KCKN 081135Z AUTO 21004KT 10SM CLR 14/12 A3006 RMK AO2=
KCFE 081135Z AUTO 27003KT 10SM CLR 18/16 A3011 RMK AO2
     T01760161=
KCQM 081137Z AUTO 24003KT 10SM CLR 16/14 A3004 RMK AO2=
KDTL 081135Z AUTO 23003KT 10SM CLR 16/11 A3010 RMK AO2=
KBDH 081135Z AUTO 00000KT 7SM CLR 15/14 A3013 RMK AO2=
KCBG 081135Z AUTO 00000KT 10SM CLR 16/14 A3009 RMK AO2=
KHAF 081130Z AUTO 00000KT 9SM OVC006 12/11 A2993 RMK AO2=
KCKC 081135Z AUTO 28005KT 10SM CLR 17/13 A3004 RMK AO2=
KJYG 081135Z AUTO 00000KT 10SM CLR 17/17 A3015 RMK AO2=
KCOQ 081136Z AUTO 27005KT 10SM CLR 16/16 A3006 RMK AO2=
KRGK 081135Z AUTO 29003KT 10SM CLR 19/17 A3008 RMK AO2=
KFSE 081134Z AUTO 19005KT 10SM CLR 12/11 A3006 RMK AO2=
KY70 081135Z AUTO 00000KT 2 1/2SM BR SCT070 23/22 A3003 RMK AO2
     T02300220=
KUKT 081135Z AUTO 00000KT 5SM CLR 24/22 A3006 RMK AO1=
KTEW 081132Z AUTO 00000KT 7SM CLR 22/21 A3005 RMK AO2=
KCVH 081130Z AUTO 00000KT 8SM OVC006 13/11 A2992 RMK AO1=
KFSO 081138Z AUTO 00000KT 5SM BR SCT060 SCT075 SCT090 26/23 A3001
     RMK AO2=
KFBL 081134Z AUTO 30003KT 10SM CLR 17/15 A3011 RMK AO2=
KLYV 081138Z AUTO 00000KT 10SM CLR 13/12 A3017 RMK AO2=
KEFK 081136Z AUTO 20004KT 5SM BR CLR 23/21 A3006 RMK AO2=
KRRT 081134Z AUTO 22006KT 10SM CLR 14/12 A3001 RMK AO2=
KTOB 081134Z AUTO 00000KT 10SM CLR 17/16 A3011 RMK AO2=
KLXL 081134Z AUTO 00000KT 3SM BR 13/12 A3009 RMK AO2 SKY
     OBSCURED=
KEVM 081132Z AUTO 00000KT 2 1/2SM BR CLR 13/12 A3002 RMK AO1 VIS 1
     3/4V4=
KELO 081133Z AUTO 22003KT 10SM CLR 14/14 A3002 RMK AO2=
KANE 081135Z AUTO 26003KT 10SM 17/16 A3010 RMK AO2=
KROX 081134Z AUTO 22005KT 10SM SCT095 14/13 A3001 RMK AO2=
KSYN 081150Z AUTO 00000KT 7SM CLR 17/16 A3010 RMK AO2
     T01710159=
KVVV 081136Z AUTO 28004KT 10SM CLR 17/14 A3011 RMK AO2=
KROS 081135Z AUTO 00000KT 10SM CLR 16/15 A3008 RMK AO2
     T01560149=
KHCD 081132Z AUTO 00000KT 5SM BR CLR 14/13 A3012 RMK AO2
     T01380130=
KSGS 081133Z AUTO 29003KT 10SM CLR 19/16 A3010 RMK AO2
     T01860164=
####018000477####
SPUS99 KWBC 081139
SPECI
KHOU 081137Z 18005KT 4SM RA BR FEW012 SCT023 OVC042 24/23 A2992
     RMK AO2 RAB23 P0021=
KIXD 081137Z 35004KT 3SM BR CLR 22/21 A3007 RMK AO2=
KLNR 081137Z AUTO 00000KT 2 1/2SM BR OVC002 21/20 A3004 RMK AO2
     CIG 001V004=
KMLI 081137Z 00000KT 9SM OVC011 23/22 A3004 RMK AO2 $=
KSET 081137Z AUTO 00000KT 5SM BR SCT006 BKN010 OVC038 24/24 A3003
     RMK AO2 CIG 008V011=
KSTC 081137Z AUTO 00000KT 5SM BR CLR 15/13 A3010 RMK AO2=
####018003076####
SAUS99 KWBC 081139 RRA
METAR
KMJQ 081132Z AUTO 25003KT 7SM CLR 15/14 A3016 RMK AO2=
KHCO 081134Z AUTO 25003KT 10SM SCT080 14/14 A3006 RMK AO2=
KLVN 081128Z AUTO 27005KT 10SM CLR 17/16 A3010 RMK AO2=
KPEX 081133Z AUTO 25004KT 5SM BR CLR 14/14 A3012 RMK AO2
     T01360135=
KJMR 081138Z AUTO 00000KT 10SM CLR 14/12 A3010 RMK AO2=
KJKJ 081134Z AUTO 22003KT 10SM CLR 16/14 A3008 RMK AO2=
KMVE 081134Z AUTO 29003KT 10SM CLR 16/14 A3011 RMK AO2=
KTKC 081133Z AUTO 25006KT 10SM CLR 16/13 A3015 RMK AO2
     T01580130=
KGYL 081135Z AUTO 00000KT 10SM CLR 16/15 A3011 RMK AO2
     T01550145=
KDXX 081134Z AUTO 00000KT 10SM CLR 15/14 A3011 RMK AO2=
KHZX 081131Z AUTO 00000KT 10SM CLR 14/13 A3007 RMK AO2=
KSAZ 081134Z AUTO 25005KT 10SM CLR 16/16 A3009 RMK AO2=
KONA 081130Z AUTO 31005KT 10SM CLR 20/17 A3005 RMK AO2=
KOVL 081134Z AUTO 30003KT 7SM CLR 14/12 A3012 RMK AO2
     T01380124=
KLJF 081133Z AUTO 27004KT 10SM CLR 18/16 A3012 RMK AO2=
KAEL 081131Z AUTO 33003KT 10SM CLR 17/16 A3011 RMK AO2=
K29G 081134Z AUTO 00000KT 5SM CLR 22/20 A3010 RMK AO2 T02200198
     PWINO=
KMRT 081133Z AUTO 00000KT 4SM CLR 22/20 A3012 RMK AO2
     T02180196=
KIKW 081134Z AUTO 00000KT 7SM OVC090 23/21 A3001 RMK AO2
     T02310212=
KMDS 081125Z AUTO 26003KT 10SM CLR 14/14 A3018 RMK AO2=
K14Y 081139Z AUTO 22005KT 10SM CLR 16/15 A3011 RMK AO2
     T01570150=
K4M9 081135Z AUTO 19004KT 5SM BR CLR 25/25 A3006 RMK AO2=
KAEJ 081135Z AUTO 00000KT 5SM BR CLR 07/07 A3045 RMK AO2=
KBVU 081135Z AUTO 00000KT 10SM CLR 23/02 A2986 RMK AO2=
KEFT 081135Z AUTO 27007KT 10SM CLR 21/19 A3005 RMK AO2
     T02110186=
KEGV 081132Z AUTO 33003KT 10SM CLR 18/18 A3004 RMK AO2
     T01770177=
KETB 081132Z AUTO 27003KT 5SM BR SCT005 BKN013 OVC018 22/21 A3002
     RMK AO2 T02190208=
KEZS 081135Z AUTO 28003KT 5SM BR BKN005 23/22 A3000 RMK AO2
     T02250216=
KGLW 081133Z AUTO 00000KT 5SM BR CLR 22/20 A3008 RMK AO2
     T02160203=
KHFJ 081135Z AUTO 00000KT 7SM OVC016 22/22 A3005 RMK AO1=
KHYW 081135Z AUTO 00000KT 7SM CLR 25/23 A2994 RMK AO2=
KLNL 081135Z AUTO 33005KT 10SM CLR 17/15 A3006 RMK AO2
     T01700146=
KLUM 081135Z AUTO 29005KT 10SM CLR 18/17 A3008 RMK AO2=
KMCJ 081135Z AUTO 16017G25KT 1 3/4SM BKN004 OVC021 25/24 A2991 RMK
     AO1 P0011=
KMDZ 081135Z AUTO 32005KT 4SM BR OVC002 19/18 A3005 RMK AO2=
KMRJ 081135Z AUTO 00000KT 1/4SM FG OVC003 22/20 A3006 RMK AO2
     T02150200=
KOEO 081135Z AUTO 00000KT 10SM CLR 17/16 A3011 RMK AO2=
KPBH 081135Z AUTO 30003KT 10SM SCT044 19/17 A3007 RMK AO2=
KPCZ 081135Z AUTO 26004KT 3SM BR CLR 22/21 A3001 RMK AO2
     T02220209=
KPDC 081133Z AUTO 00000KT 7SM CLR 22/21 A3004 RMK AO2
     T02170205=
KRCM 081135Z AUTO 00000KT 7SM OVC004 22/22 A3006 RMK AO2=
KRCX 081135Z AUTO 33008KT 10SM SCT047 18/17 A3007 RMK AO2
     T01840167=
KRNH 081136Z AUTO 00000KT 10SM CLR 17/16 A3010 RMK AO2
     T01670162=
KSNC 081135Z AUTO 15004KT 5SM HZ OVC003 22/ A3009 RMK AO2=
KY63 081140Z AUTO 22003KT 10SM CLR 15/14 A3011 RMK AO2
     T01450139=
####018000281####
SARA35 RUMS 081130
METAR ULDD 081130Z NIL=
METAR UOHH 081130Z NIL=
METAR UOII 081130Z 15006MPS 9999 BKN033CB BKN100 24/14 Q1006 TEMPO
-TSRA RMK QFE752 30////60=
METAR UOOO 081130Z NIL=
METAR USCM 081130Z 08002MPS 050V130 9999 FEW050 26/00 Q1014 NOSIG
01090065 RMK QFE722=
####018000602####
SARA36 RUMS 081130
METAR UWUU 081130Z 04004MPS 020V100 CAVOK 28/09 Q1015 82010060 NOSIG
RMK QFE750/1000=
METAR USCC 081130Z 36006G10MPS 310V030 9999 FEW040 SCT200 25/01 Q1013
NOSIG RMK QFE740 27000070=
METAR USDD 081130Z 04008G11MPS CAVOK 17/00 Q1016 NOSIG RMK
QFE756/1008 SC060=
METAR USMU 081130Z 02006MPS 9999 SCT031 OVC066 15/11 Q1006 NOSIG RMK
QFE749 09250345=
METAR USNN 081130Z NIL=
METAR USRK 081130Z 35003MPS 6000 BKN020 OVC066 14/10 Q1004 NOSIG RMK
QFE747 351///55=
METAR USRR 081130Z 34004MPS 7000 OVC010 12/10 Q1004 TEMPO BKN007 RMK
QFE748 25////60=
METAR USSS 081130Z NIL=
####018000279####
SABY31 UMMN 081130
UMBB NIL=
METAR UMGG 081130Z 15003MPS 9999 BKN038CB BKN100 28/16 Q1014
R28/290550 NOSIG=
METAR UMMM 081130Z 26006G09MPS 9999 OVC018 20/15 Q1015
R30/CLRD// NOSIG RMK QFE742=
METAR UMMS 081130Z 28002MPS 230V330 9999 BKN023 20/17 Q1015
R31/CLRD// NOSIG=
####018000797####
SARS32 RUMS 081130
METAR URKA 081130Z 06006MPS 9999 SCT026 29/20 Q1012 NOSIG RMK  065=
METAR URKK 081130Z 06005MPS 030V090 9999 BKN040 30/19 Q1012 NOSIG RMK
QFE756 SC070=
METAR URKM 081130Z NIL=
METAR URML 081130Z 06006MPS 9999 FEW100 32/20 Q1012 NOSIG RMK QFE759
/ 07=
METAR URMM 081130Z 10005G07MPS 070V130 9999 BKN043 30/19 Q1012 NOSIG
RMK / SC070=
METAR URMN 081130Z 10002MPS 9999 BKN036CB BKN110 29/20 Q1013 NOSIG
RMK / QFE723 SC07=
METAR URMT 081130Z 07005G08MPS 9999 SCT020 BKN100 28/17 Q1015 NOSIG
RMK QFE721 SC07=
METAR URRR 081130Z NIL=
METAR URSS 081130Z 29005MPS 9999 FEW040 28/21 Q1009 NOSIG RMK /
QFE756 06CLRD70=
METAR URWA 081130Z 09001MPS CAVOK 38/12 Q1011 NOSIG RMK SC07=
METAR URWI 081130Z NIL=
METAR URWW 081130Z 35004MPS CAVOK 30/13 Q1014 NOSIG RMK SC070=
####018000090####
SAUZ31 UTTW 081130
METAR UTSS 081130Z 07006MPS 9999 NSC 35/12 Q1010
R88/CLRD70 NOSIG=
####018000460####
SARS33 RUMS 081130
METAR ULLI 081130Z 12002MPS 070V150 9999 BKN040TCU BKN066 BKN200
29/17 Q1013 NOSIG=
METAR UUDD 081130Z 14005MPS 120V180 9999 SCT043TCU BKN200 28/15 Q1016
TEMPO VRB12MPS TSRA=
METAR UUEE 081130Z 15005G10MPS 9999 SCT050CB BKN200 29/13 Q1015
NOSIG=
METAR UUEM 081130Z NIL=
METAR UUWW 081130Z 16003MPS 110V210 9999 SCT040 BKN100 27/15 Q1015
24000070 NOSIG=
METAR UUMO 081130Z VRB02MPS CAVOK 26/16 Q1015 NOSIG RMK QFE747/0995
SC060=
####018000080####
SAQB31 LQBK 081130
METAR LQBK 081130Z 29006KT 9999 FEW040 23/11 Q1022 NOSIG=
####018000687####
SARS35 RUMS 081130
METAR USPP 081130Z 34002G05MPS 290V360 CAVOK 28/09 Q1015 NOSIG RMK
QFE751/1001 21090060=
METAR UWKD 081130Z NIL=
METAR UWKE 081130Z NIL=
METAR UWKS 081130Z 33002MPS 280V010 9999 VCTS -SHRA BKN033CB 30/13
Q1016 NOSIG RMK QFE747 SC0.60=
METAR UWLL 081130Z 09003MPS 9999 SCT050CB 32/11 Q1015 NOSIG RMK
QFE749/0999 SC065=
METAR UWLW 081130Z NIL=
METAR UWOR 081130Z NIL=
METAR UWOO 081130Z NIL=
METAR UWPP 081130Z 11004MPS 9999 SCT033 BKN100 32/09 Q1014 NOSIG RMK
QFE746 11090060=
METAR UWSS 081130Z 07004MPS CAVOK 31/09 Q1014 NOSIG RMK QFE749
120///60=
METAR UWWW 081130Z 07007MPS 9999 SCT033 BKN200 32/08 Q1015 NOSIG RMK
QFE748/0997 05CLRD60 15//99//=
####018000759####
SARA34 RUMS 081130
METAR UNAA 081130Z VRB02MPS 9999 SCT030CB BKN100 19/12 Q1011 RMK
QFE736 202///55=
METAR UNBB 081130Z NIL=
METAR UNEE 081130Z 26005MPS 9999 SCT026CB BKN200 18/13 Q1009 NOSIG
RMK QFE734 23CLRD60=
METAR UNKL 081130Z VRB01MPS 9999 SCT023CB OVC083 18/13 Q1010 NOSIG
RMK QFE732 29////60=
METAR UNNT 081130Z 23004MPS 9999 BKN060CB OVC100 19/02 Q1007 NOSIG
RMK QFE745/0994 25090070=
METAR UNOO 081130Z 32003MPS 9999 BKN026CB 14/10 Q1008 NOSIG 25CLRD06
RMK QFE748=
METAR UNWW 081130Z 23002MPS 9999 BKN026CB OVC100 15/09 Q1010 NOSIG
RMK QFE731 1929//60=
METAR USTR 081130Z 36005MPS 9999 SCT046 19/06 Q1012 NOSIG RMK
QFE749/0999 30CLRD65=
METAR USHH 081130Z VRB02G05MPS 7000 -SHRA SCT016CB OVC080 10/09 Q1009
NOSIG RMK QFE753 SC06=
####018000352####
SARA31 RUMS 081130
METAR UEEE 081130Z 00000MPS 9999 SCT050CB OVC100 21/12 Q1007 NOSIG
RMK QFE747 2309//60=
METAR UELL 081130Z NIL=
METAR UERP 081130Z 02003MPS 9999 BKN033CB BKN100 15/06 Q1014 NOSIG
RMK QFE717 35090065=
METAR UERR 081130Z NIL=
METAR UESO 081130Z NIL=
METAR UEST 081130Z 11002MPS 9999 -RA OVC130 05/03 Q1017 NOSIG RMK
QFE762=
####018000298####
SARA33 RUMS 081130
METAR UIAA 081130Z NIL=
METAR UIBB 081130Z 06004MPS 9999 BKN200 27/12 Q1006 NOSIG RMK
QFE711/0949 30CLRD60=
METAR UIII 081130Z 11002MPS CAVOK 21/13 Q1006 NOSIG RMK QFE712/0950
12CLRD60=
METAR UIUU 081130Z VRB01MPS 9999 SCT033CB OVC100 22/14 Q1007 NOSIG
RMK QFE711/0948=
####018000095####
SAUZ31 UTTW 081130
METAR UTNN 081130Z 24003MPS 200V260 CAVOK 43/05 Q1006 R33/CLRD70
NOSIG=
####018000111####
SARS35 RUMS 081130 RRA
METAR UWKE 081130Z 06004MPS 9999 FEW040 31/09 Q1016 NOSIG RMK
QFE745/0993 22090070=
####018000265####
SARS34 RUMS 081130
METAR UUYH 081130Z 00000MPS CAVOK 27/08 Q1016 NOSIG RMK QFE 750
18CLRD60=
METAR UUYS 081130Z 16003MPS CAVOK 21/06 Q1016 NOSIG RMK QFE755
14CLRD60=
METAR UUYY 081130Z VRB01MPS 9999 FEW033 OVC200 30/15 Q1016 NOSIG
01CLRD61 RMK QFE752/1003=
####018000095####
SAUZ31 UTTW 081130
METAR UTST 081130Z 19002MPS 110V250 CAVOK 41/03 Q1005 R88/CLRD70
NOSIG=
####018000090####
SAUZ31 UTTW 081130
METAR UTSA 081130Z 03007MPS 9999 NSC 40/04 Q1008 R88/CLRD70
NOSIG=
####018000460####
SARA32 RUMS 081130
METAR UHHH 081130Z 03003MPS 9999 SCT033CB OVC100 17/15 Q1010 NOSIG
RMK QFE751/1002 55090060=
METAR UHMA 081130Z NIL=
METAR UHMM 081130Z NIL=
METAR UHMP 081130Z NIL=
METAR UHNN 081130Z NIL=
METAR UHPP 081130Z NIL=
METAR UHSH 081130Z NIL=
METAR UHSS 081130Z 00000MPS 9999 BKN016 13/12 Q1011 NOSIG RMK MT OBSC
QFE757/1010 01CLRD70=
METAR UHWW 081130Z 18002MPS 9999 SCT013 BKN023 OVC090 16/14 Q1011
NOSIG RMK QFE757/1010 75CLRD70=
####018000096####
SAUZ31 UTTW 081130
METAR UTSB 081130Z 01006MPS CAVOK 41/02 Q1007 R01/CLRD70 TEMPO
01008MPS=
####018000689####
SARS31 RUMS 081130
METAR ULAA 081130Z 34004MPS 300V010 9999 FEW030 27/17 Q1015 TEMPO
VRB14MPS TSRA RMK QFE760/1013 SC070=
METAR ULKK 081130Z NIL=
METAR ULMM 081130Z 34002MPS 9999 BKN023 15/08 Q1018 NOSIG RMK QFE756
32190060=
METAR ULOL 081130Z NIL=
METAR ULOO 081130Z VRB02MPS P6000 SCT033 BKN200 28/18 Q1012 NOSIG RMK
QFE755=
METAR ULWW 081130Z NIL=
METAR UMKK 081130Z 31008MPS P8000 FEW033 BKN200 22/15 Q1020 NOSIG RMK
QFE 764 SC07=
METAR UUBP 081130Z NIL=
METAR UUOB 081130Z NIL=
METAR UUOK 081130Z NIL=
METAR UUOO 081130Z VRB01MPS 9999 SCT033TCU 28/14 Q1014 NOSIG RMK
13090070=
METAR UWGG 081130Z 09003MPS 010V150 8000 FEW033 34/09 Q1016 NOSIG RMK
QFE755 18090070=
####018000438####
SAAL40 DAMM 081130
METAR DAAG 081130Z 02008KT 350V060 CAVOK 34/18 Q1019=
METAR DAAT 081130Z 10008KT 040V150 CAVOK 33/03 Q1022=
METAR DABB 081130Z 01013KT CAVOK 28/20 Q1019=
METAR DABC 081130Z 34008KT CAVOK 33/07 Q1023=
METAR DABS 081130Z 32012KT CAVOK 34/10 Q1023=
METAR DAON 081130Z 36008KT CAVOK 35/21 Q1017=
METAR DAOO 081130Z 34015KT CAVOK 29/22 Q1016=
METAR DAUH 081130Z 10014KT CAVOK 38/21 Q1018=
METAR DAUZ 081130Z NIL=
####018000104####
SPAU31 KWBC 081139
SPECI
YPPD 081136Z AUTO 30006KT 0500NDV // BKN010 BKN024 OVC072 21/20
Q1010=
####018000079####
SPAK31 KWBC 081139
SPECI
PASI 081135Z 00000KT 3SM BR OVC002 13/12 A3017=
####018000088####
SPCN31 KWBC 081139
SPECI
CYJT 081137Z 09005KT 8SM -SHRA BKN015 OVC030 RMK SC6SC2=
####018000131####
SAAK31 KWBC 081100 RRB
METAR
PAVD 081136Z 00000KT 10SM OVC080 11/08 A3008=
PAWG 081136Z AUTO 00000KT 10SM CLR 12/10 A3013=
####018000075####
SPAK32 KWBC 081139
SPECI
PASV SP 1135 AWOS 90 SCT 10 48/45/0000/996=
####018000170####
SAUS44 KFWD 081138
MTRNQI
SPECI KNQI 081134Z COR 02005KT 10SM TS SCT014CB BKN140 BKN280 27/24 
A2983 RMK AO2 OCNL LTGICCG NE-SE TSB28RAE19 TS NE-SE MOV W P0006 $
####018000098####
SPEN31 KWBC 081139
SPECI
EYVI 081137Z 28011KT 4000 -SHRA BKN006 OVC015CB 15/14 Q1015 NOSIG=
####018000119####
SAUS44 KFWD 081138
MTRHLR
SPECI KHLR 081137Z AUTO 05003KT 10SM BKN013 BKN022 OVC047 25/ A3000 
RMK AO2 T0250 $
####018000157####
SAAK32 KWBC 081100 RRB
METAR
PADK 081136Z 05011KT 10SM BKN011 BKN016 OVC021 07/06 A2953=
PADL 081136Z 32008KT 10SM BKN044 BKN080 OVC110 10/08 A2997=
####018000120####
SPJP42 KWBC 081139
SPECI
RJFA 081123Z 03001KT 4000 BR FEW005 BKN180 BKN/// 24/22 Q1009 RMK
1ST005 5AC180 A2981=
####018000171####
SPJP43 KWBC 081139
SPECI
RJOH 081124Z 08004KT 050V120 7000 FEW010 SCT015 BKN025 FEW025CB
25/22 Q1009 RETS RMK 2CU010 3CU015 5CU025 1CB025 A2982 CB 25KM S
MOV N=
####018000118####
SPXX61 KWBC 081139
SPECI
EGUL 081136Z AUTO 26007KT 9999 BKN029 BKN034 21/14 A3006 RMK AO2
CIG 028V030 SLP180=
####018000111####
SPXX61 KWBC 081139
SPECI
EGUN 081134Z AUTO 23009KT 9999 OVC029 21/17 A3007 RMK AO2 CIG
026V030 SLP171=
####018000153####
SPXX62 KWBC 081139
SPECI
RKJK 081135Z 11008KT 4000 R36/0900V1400 -RA BR BKN070 23/23 A2979
RMK AO2A RAB1116DZB1103E1116 CLDS LWR RWY18 SLP088 $=
####018000084####
SPUS41 KWBC 081139
SPECI
KWRI 081136Z AUTO 15003KT 2SM BR FEW006 24/24 A3002=
####018000103####
SPUS42 KWBC 081139
SPECI
KCRP 081136Z 03013KT 2SM +TSRA BR SCT016CB BKN021 OVC048 26/25
A2984=
####018000083####
SAUS41 KWBC 081100 RRE
METAR
KPQI 081135Z AUTO 14007KT 10SM CLR 22/19 A3001=
####018000135####
SAUS43 KWBC 081100 RRI
METAR
KCIU 081135Z AUTO 31005KT 3SM OVC002 20/18 A2998=
KELO 081133Z AUTO 22003KT 10SM CLR 14/14 A3002=
####018000085####
SPUS51 KWBC 081139
SPECI
KBKW 081136Z AUTO 00000KT 2 1/2SM BR CLR 19/18 A3018=
####018000083####
SAUS44 KWBC 081100 RRF
METAR
KGDV 081135Z AUTO 00000KT 10SM CLR 12/07 A3017=
####018000234####
SAUS53 KWBC 081100 RRI
METAR
KDVL 081135Z AUTO 29005KT 10SM CLR 14/12 A3008=
KEAR 081135Z AUTO 34006KT 10SM CLR 15/13 A3024=
KGPZ 081135Z AUTO 24005KT 10SM CLR 17/14 A3006=
KJAC 081135Z AUTO 02004KT 10SM CLR 05/M01 A3037=
####018000532####
SAAO32 GOOY 081130
METAR GABS 081130Z 22007KT 9999 FEW030 31/22 Q1016 NOSIG=
METAR GGOV 081130Z NIL=
METAR GOOY 081130Z 17007KT 130V220 9999 SCT013 30/25 Q1012 NOSIG=
METAR DIAP 081130Z 20005KT 150V250 7000 SCT012 BKN070 28/25 Q1015
TEMPO BKN012 BKN070=
METAR GQNN 081130Z 18011KT 150V210 6000 SKC 31/22 Q1013 NOSIG=
METAR GQPP 081130Z NIL=
METAR GUCY 081130Z NIL=
METAR GVAC 081130Z NIL=
METAR GFLL 081130Z NIL=
METAR GBYD 081130Z NIL=
METAR GLRB 081130Z 20007KT 9999 BKN018 FEW026CB 30/25 Q1015 CB-S=

####018000103####
SPUS72 KWBC 081139
SPECI
KCRP 081136Z 03013KT 2SM +TSRA BR SCT016CB BKN021 OVC048 26/25
A2984=
####018000345####
SAUS73 KWBC 081100 RRH
METAR
KBJC 081137Z AUTO 35010KT 10SM BKN025 12/11 A3033=
KCIU 081135Z AUTO 31005KT 3SM OVC002 20/18 A2998=
KEGE 081135Z 00000KT 10SM CLR 09/08 A3038=
KELO 081133Z AUTO 22003KT 10SM CLR 14/14 A3002=
KJAC 081135Z AUTO 02004KT 10SM CLR 05/M01 A3037=
KLBL 081135Z 01006KT 9SM SCT009 BKN037 OVC110 19/17 A3022=
####018000091####
SPCN42 CWAO 081138
SPECI CYUA 081138Z AUTO 25004KT 7SM -DZ FEW009 OVC013 06/ A3007=

####018000131####
SAUS74 KWBC 081100 RRE
METAR
KIWA 081136Z AUTO 15004KT 10SM CLR 29/04 A2981=
KOTH 081135Z 32003KT 10SM OVC006 10/08 A2999=
####018000079####
SPUS75 KWBC 081139
SPECI
PASI 081135Z 00000KT 3SM BR OVC002 13/12 A3017=
####018000193####
SAUS75 KWBC 081100 RRB
METAR
PADL 081136Z 32008KT 10SM BKN044 BKN080 OVC110 10/08 A2997=
PAUN 081136Z AUTO 07008KT 10SM CLR 12/04 A3001=
PAVD 081136Z 00000KT 10SM OVC080 11/08 A3008=
####018000085####
SPUS81 KWBC 081139
SPECI
KBKW 081136Z AUTO 00000KT 2 1/2SM BR CLR 19/18 A3018=
####018000103####
SPUS81 KWBC 081139
SPECI
KCRP 081136Z 03013KT 2SM +TSRA BR SCT016CB BKN021 OVC048 26/25
A2984=
####018000617####
SPNA14 KAWN 081139 RRF
SPECI KEGI 081134Z AUTO 00000KT 1SM R18/1800VP6000FT BR CLR 22/21 A3003
      RMK AO2 SLP169 $=
SPECI KEGI 081135Z AUTO 00000KT 1 1/4SM R18/3000VP6000FT BR CLR 22/21
      A3003 RMK AO2 VIS 3/4V5 SLP169 $=
SPECI KEGI 081136Z AUTO 00000KT 1 1/2SM R18/3500VP6000FT BR CLR 22/22
      A3003 RMK AO2 SLP169 $=
SPECI KNQI 081134Z AUTO 02005KT 10SM TS CLR 27/24 A2983 RMK AO2 TSB28RAE19
      P0006 $=
SPECI KRND 081134Z AUTO 03004KT 9SM BKN012 25/24 A2994 RMK AO2 DZB1118E1134
      SLP129=
SPECI KWRI 081136Z AUTO 15003KT 2SM BR FEW006 24/24 A3002 RMK AO2 SLP166
      $=
####018000565####
SAXN17 KAWN 081100 RRI
METAR RJAA 081130Z 15006KT 9999 FEW020 BKN/// 23/22 Q1011 NOSIG RMK
      1CU020 A2986=
METAR RJCC 081130Z 20005KT 160V260 2300 -DZ BR BKN002 17/16 Q1011 RMK
      7ST002 A2986=
METAR RJFF 081130Z 28005KT 8000 FEW025 SCT030 BKN/// 25/21 Q1009 RMK
      1CU025 4CU030 A2980=
METAR RJTT 081130Z 19011KT 9999 FEW007 SCT012 BKN/// 25/22 Q1010 RMK
      1ST007 4CU012 A2983=
METAR ROAH 081130Z 19013KT 9999 FEW010 BKN020 29/27 Q1010 RMK 2CU010
      6CU020 A2983=
METAR ZGGG 081130Z 14004MPS 9999 SCT046 33/26 Q1005 NOSIG=
####018000394####
SAUK KAWN 081000 RRK
METAR COR EGDM 080950Z 23003KT 9999 FEW016 SCT033 BKN120 19/14 Q1019
      BLU TEMPO SCT018 WHT=
METAR COR EGUW 080950Z 27007KT 9999 FEW006 BKN015 18/14 Q1019 WHT BECMG
      FEW020 BKN035 BLU=
METAR COR EGVN 080950Z 24004KT 9999 FEW025 BKN110 18/12 Q1019 BLU NOSIG=
METAR COR EGWU 080950Z 29004KT 9999 BKN015 BKN028 18/14 Q1019 WHT BECMG
      SCT025 BLU=
####018000435####
SAUK KAWN 081100 RRI
METAR EGDR 081050Z 23006KT 9999 FEW022 SCT100 BKN220 18/12 Q1019 BLU
      NOSIG=
METAR EICK 081130Z 21009KT 9999 -RA SCT008 BKN012 BKN030 14/12 Q1016
      NOSIG=
METAR EIDW 081130Z 24014KT 9999 FEW026 SCT050 BKN130 16/10 Q1015 NOSIG=
METAR EIKN 081130Z 23013KT 190V250 9999 FEW018CB SCT024 BKN048 15/09
      Q1013 NOSIG=
METAR EINN 081130Z 20007KT 9999 FEW017 SCT025 BKN060 16/12 Q1015 NOSIG=
####018000452####
SAEU KAWN 081000 RRX
METAR EBDT 081025Z 25006KT 9999 FEW160 29/09 Q1019 BLU=
METAR COR EGDM 080950Z 23003KT 9999 FEW016 SCT033 BKN120 19/14 Q1019
      BLU TEMPO SCT018 WHT=
METAR COR EGUW 080950Z 27007KT 9999 FEW006 BKN015 18/14 Q1019 WHT BECMG
      FEW020 BKN035 BLU=
METAR COR EGVN 080950Z 24004KT 9999 FEW025 BKN110 18/12 Q1019 BLU NOSIG=
METAR COR EGWU 080950Z 29004KT 9999 BKN015 BKN028 18/14 Q1019 WHT BECMG
      SCT025 BLU=
####018000084####
SASA KAWN 081100 RRJ
METAR SGAS 081130Z 16010KT 8000 BKN008 OVC012 17/15 Q1015=
####018000085####
SAEG31 HECA 081000 CCA
METAR HETB 081000Z 00000KT CAVOK       32/10 Q1013 NOSIG=
####018000117####
SAAE31 VTBB 081130 RRA
METAR VDSR 081130Z 09005KT 9999 SCT015 FEW020CB BKN040 31/22 Q1006
           CB:SE,NE=
####018000529####
SAAO32 GOOY 081130
METAR GABS 081130Z 22007KT 9999 FEW030 31/22 Q1016 NOSIG=
METAR GGOV 081130Z NIL=
METAR GOOY 081130Z 17007KT 130V220 9999 SCT013 30/25 Q1012 NOSIG=
METAR DIAP 081130Z 20005KT 150V250 7000 SCT012 BKN070 28/25 Q1015
TEMPO BKN012 BKN070=
METAR GQNN 081130Z 18011KT 150V210 6000 SKC 31/22 Q1013 NOSIG=
METAR GQPP 081130Z NIL=
METAR GUCY 081130Z NIL=
METAR GVAC 081130Z NIL=
METAR GFLL 081130Z NIL=
METAR GBYD 081130Z NIL=
METAR GLRB 081130Z 20007KT 9999 BKN018 FEW026CB 30/25 Q1015 CB-S=
####018000125####
SAXX60 KAWN 081100 RRC
METAR RJTT 081130Z 19011KT 9999 FEW007 SCT012 BKN/// 25/22 Q1010 RMK
      1ST007 4CU012 A2983=
####018000087####
SPCN51 CWAO 081138
SPECI CZCP 081138Z AUTO 28021KT 9SM OVC005 OVC017 04/ A2985=

####018000116####
SAAE31 VTBB 081130 RRB
METAR VTSS 081130Z 00000KT 9999 FEW016CB BKN300 26/22 Q1009 A2979
           CB SE,NW=
####018000142####
SAUS44 KMAF 081139
MTRGDP
SPECI KGDP 081138Z AUTO 05026KT 1 1/4SM BR FEW001 BKN005 OVC060 
16/16 A3021 RMK AO2 PK WND 04030/1128 TSNO
####018000108####
SAUS45 KPUB 081139
MTRLXV
SPECI KLXV 081138Z AUTO 00000KT 3/4SM BR BKN002 05/05 A3052 RMK AO2 
TSNO
####018001997####
SAUS20 KNKA 081139
METAR KBBF 081235Z AUTO 13021KT 9SM SCT024 SCT045 BKN075 29/26
     A2981 RMK A01=
METAR KBQX 081135Z AUTO 12015G23KT 8SM 28/26 A2985 RMK A01=
METAR KDLP 081135Z AUTO 10012KT 9SM CLR 28/25 A3000 RMK A01=
SPECI KDWH 081138Z 06008KT 6SM BR BKN005 24/24 A2995 RMK AO2 CIG 
    004V009=
METAR KEDU 081135Z AUTO 00000KT 10SM CLR 13/10 A2982 RMK AO1=
METAR KEHC 081135Z AUTO 12024KT 6SM HZ CLR 29/25 A2992 RMK A01=
METAR KEMK 081135Z AUTO 14025KT 4SM HZ SCT038 BKN055 BKN065 28/25
     A2989 RMK A01=
METAR KGBK 081135Z AUTO 10014G24KT 10SM SCT019 SCT025 SCT033 29/25
     A2991 RMK A01=
SPECI KGLH 081138Z AUTO 00000KT 2SM BR CLR 22/22 A3006 RMK AO2=
METAR KGVX 081135Z AUTO 12028G36KT 10SM SCT020 BKN029 BKN047 M40/
     A2991 RMK A01=
METAR KHQI 081135Z AUTO 10024KT 7SM CLR 29/26 A2991 RMK A01=
SPECI KHUL 081138Z AUTO 22008KT 5SM HZ SCT009 22/19 A3004 RMK AO2=
METAR KIPN 081135Z AUTO 09013KT 10SM SCT022 SCT029 /54 A3000 RMK
     A01=
METAR KMDJ 081135Z AUTO 12012KT 10SM FEW020 FEW026 28/24 A3001 RMK
     A01=
METAR KMHR 081135Z AUTO 17006KT 10SM CLR 12/10 A2985 RMK AO1=
METAR KMIU 081135Z AUTO 09016KT 5SM BR FEW021 SCT041 BKN049 27/26
     A2980 RMK A01=
SPECI KMKG 081138Z 14004KT 2SM -RA BR BKN041 BKN065 OVC080 23/22 
    A3002 RMK AO2 RAB02 P0004=
METAR KMYT 081135Z AUTO 11012KT 10SM SCT019 28/24 A2997 RMK A01=
METAR KMZG 081135Z AUTO 00000KT 10SM FEW020 SCT039 BKN045 29/25
     A2982 RMK A01=
SPECI KPSX 081138Z AUTO 09021G27KT 2 1/2SM +RA BR FEW002 SCT014 
    BKN085 27/24 A2988 RMK AO2 PK WND 10027/1136 RAB35 P0010=
SPECI KSBM 081138Z AUTO 00000KT 8SM BKN012 22/21 A3001 RMK AO2 $=
METAR KSCF 081140Z AUTO 14018KT 7SM 29/25 A2991 RMK A01=
SPECI KUIN 081138Z AUTO 29003KT 1SM BR BKN001 OVC008 23/22 A3005 RMK 
    AO2=
METAR KVBS 081135Z AUTO 12024KT 10SM SCT021 BKN026 29/25 A2993 RMK
     A01=
METAR KVNP 081135Z AUTO 12012G18KT 7SM SCT018 BKN023 BKN028 28/25
     A2997 RMK A01=
####018000116####
SAUK39 EGRR 081050 RRQ
METAR EGVP 081050Z AUTO 22006KT 9999NDV // SCT014/// BKN018///
 BKN030/// 20/15 Q1018=
####018000103####
SAUK39 EGRR 081050 RRP
METAR EGVO 081050Z AUTO 25002KT 9999NDV SCT009/// BKN017/// 18/16
 Q1019=
####018000095####
SPCN46 CWAO 081139
SPECI CYSB 081139Z 19004KT 1/2SM R22/2600V4500FT/U FG VV002 RMK FG8=

