####018000314####
SAUS90 KWBC 081400
METAR KCZK 081345Z 09011KT 10SM SKC 18/10 RMK SLP154 NO SPECI CLD
     HGT AND VIS VISUALLY ESTMD=
METAR KCQT 081347Z AUTO 00000KT 5SM HZ OVC011 17/13 A2991 RMK AO2
     SLP127 T01720133 TSNO $=
METAR KJDN 081348Z AUTO 27005KT 17/09 A3020 RMK AO2 SLP217
     T01720089 PWINO TSNO=
####018000111####
SAUS46 KLOX 081349
MTRNFG
SPECI KNFG 081348Z AUTO 00000KT 10SM SCT011 OVC018 16/14 A2991 RMK 
AO2 TSNO
####018000115####
SAUS45 KGGW 081349
MTRJDN
METAR KJDN 081348Z AUTO 27005KT 17/09 A3020 RMK AO2 SLP217 T01720089 
PWINO TSNO
####018000080####
SACN95 KWBC 081350
METAR CWWA 081345Z AUTO 02001KT 20/11 RMK AO1 T01950108=
####018000585####
SAUS99 KWBC 081350 RRA
METAR
KHRX 081345Z AUTO 03006KT 10SM SCT023 BKN028 OVC110 18/17 A3024
     RMK AO2 T01800165=
KIJX 081345Z AUTO 30004KT 7SM BKN005 BKN010 BKN014 24/23 A3007 RMK
     AO2 T02420232=
KINJ 081345Z AUTO 08006KT 7SM SCT005 SCT029 BKN080 25/23 A3003 RMK
     AO2 T02530234=
KJAS 081346Z AUTO 10005KT 7SM BKN008 27/25 A3005 RMK AO2
     T02690250=
KJDD 081345Z AUTO 00000KT 7SM SCT008 26/25 A3007 RMK AO2=
KJSO 081350Z AUTO 10003KT 7SM SCT006 BKN110 24/24 A3007 RMK AO2
     T02420237=
KMTN 081345Z 11008KT 4SM HZ SCT008 SCT015 29/25 A3004=
####018003746####
SAUS99 KWBC 081350
METAR
KJWY 081345Z AUTO 10005KT 7SM 26/23 A3005 RMK AO2 T02560231=
KJXI 081345Z AUTO 11003KT 26/25 A3008 RMK AO2=
KLBR 081345Z AUTO 14004KT 10SM BKN007 BKN011 BKN055 26/23 A3007
     RMK AO2 T02560231=
KLHB 081344Z AUTO 09006KT 4SM HZ BKN009 BKN055 26/24 A3001 RMK AO2
     T02610236=
KLNC 081345Z AUTO 09004KT 10SM BKN008 OVC070 26/24 A3005 RMK AO2
     T02560244=
KLUD 081345Z AUTO 12007KT 10SM OVC009 26/23 A3006 RMK AO2
     T02560225=
KM30 081346Z AUTO 25004KT 10SM CLR 27/22 A3007 RMK AO2=
KMDD 081340Z AUTO 03006KT 10SM BKN006 OVC012 22/21 A3014 RMK AO2
     T02200205=
KMKN 081340Z AUTO 10004KT 8SM 24/23 A3007 RMK AO2=
KMNZ 081349Z AUTO 08006KT 7SM BKN007 OVC014 25/25 A3005 RMK AO2
     T02500247=
KMQB 081345Z AUTO 32004KT 10SM OVC006 24/22 A3008 RMK AO2
     T02350220=
KOLY 081343Z AUTO 00000KT 10SM SCT045 SCT055 29/24 A3005 RMK
     AO2=
KOSA 081344Z AUTO 12005KT 10SM BKN008 OVC013 26/24 A3008 RMK AO1
     T02600244=
KPNT 081345Z AUTO 23003KT 10SM OVC019 25/23 A3004 RMK AO2=
KPPQ 081346Z AUTO 30003KT 10SM SCT005 OVC011 24/23 A3008 RMK
     AO2=
KPRG 081345Z AUTO 27005KT 10SM CLR 28/23 A3006 RMK AO2
     T02830238=
KPYX 081350Z AUTO 35006KT 4SM OVC004 19/18 A3021 RMK AO2
     T01910183=
KRPJ 081345Z AUTO 32007KT 7SM SCT009 BKN016 BKN030 23/21 A3005 RMK
     AO2 T02300206=
KRSV 081342Z AUTO 24005KT 10SM CLR 30/24 A3006 RMK AO2
     T02970235=
KRYY 081347Z 00000KT 10SM SKC 28/21 A3007=
KSUA 081347Z 07007KT 10SM SCT035 29/22 A3000=
KASW 081345Z AUTO 26006KT 7SM BKN055 BKN070 OVC080 26/21 A3006 RMK
     AO2 T02570209=
KBBG 081345Z 00000KT 10SM BKN027 OVC034 24/22 A3012=
KBPC 081348Z AUTO 01007KT 10SM OVC006 20/19 A3019 RMK AO2=
KBPG 081345Z AUTO 02009KT 10SM OVC006 22/21 A3014 RMK AO1
     T02200205=
KBYY 081346Z AUTO 08008KT 10SM SCT023 SCT035 OVC085 27/26 A2992
     RMK AO2 T02700258=
KCPT 081345Z AUTO 09005KT 5SM BR SCT006 25/24 A3006 RMK AO2=
KCVB 081344Z AUTO 05007KT 7SM OVC014 26/24 A2997 RMK AO2
     T02600242=
KCWC 081345Z AUTO 12009KT 10SM CLR 26/23 A3005 RMK AO2
     T02640226=
KDUX 081347Z AUTO 02007KT 10SM OVC060 18/17 A3024 RMK AO2 P0001
     T01800172=
KDZB 081345Z AUTO 08003KT 4SM BR OVC007 25/24 A3000 RMK AO2
     T02480240=
KE38 081345Z AUTO 00000KT 10SM CLR 20/18 A3024 RMK AO2
     T02040184=
KEBG 081345Z AUTO 02011KT 10SM OVC007 27/26 A2982 RMK AO2
     T02720255=
KERV 081345Z AUTO 06006KT 10SM SCT011 SCT017 BKN030 25/22 A3002
     RMK AO2 T02470220=
KF05 081344Z AUTO 04007KT 10SM SCT007 SCT032 SCT042 25/23 A3007
     RMK AO2 T02530225=
KFEP 081345Z AUTO 30006KT 7SM OVC004 24/22 A3005 RMK AO2
     T02360215=
KFOA 081345Z AUTO 19004KT 10SM CLR 31/27 A3005 RMK AO2
     T03050267=
KFWC 081345Z AUTO 23004KT 10SM CLR 29/25 A3006 RMK AO2=
KFWS 081345Z AUTO 00000KT 5SM BR BKN007 BKN022 OVC065 25/24 A3006
     RMK AO2 P0001 T02500237=
KGBG 081345Z AUTO 32004KT 5SM BR OVC006 23/22 A3006 RMK AO2=
KGDJ 081344Z AUTO 07005KT 10SM BKN008 OVC049 26/24 A3005 RMK AO2
     T02600237=
KGNC 081345Z AUTO 04006KT 10SM SCT008 BKN019 OVC085 20/19 A3017
     RMK AO2 T02000190=
KGOP 081340Z AUTO 00000KT 7SM SCT009 BKN046 26/23 A3005 RMK
     AO2=
KGVT 081345Z AUTO 13005KT 10SM SCT014 OVC055 26/23 A3006 RMK
     AO2=
KGWB 081345Z AUTO 00000KT 10SM CLR 30/16 A3005 RMK AO2=
KGYB 081345Z AUTO 00000KT 1 1/4SM +RA SCT006 BKN013 OVC034 23/23
     A3002 RMK AO2 P0081 T02320230=
KGYI 081344Z AUTO 14009KT 25/25 A3006 RMK AO2 T02520246 PWINO=
KHBV 081340Z AUTO 01011KT 10SM OVC008 26/24 A2988 RMK AO2
     T02550235=
KHHF 081345Z AUTO 07005KT 5SM RA SCT010 SCT020 OVC070 21/20 A3015
     RMK AO2 P0073 T02110203=
####018000123####
SAGB20 GBYD 081300

SPECI COR GBYD 1305 25007KT 9999 TS SCT011 FEW018CB BKN120 THUNDER
HEARD AT SOUTHEAST OF STATION=
####018000472####
SPUS99 KWBC 081350
SPECI
KLFK 081348Z AUTO 11008KT 10SM BKN010 27/24 A3003 RMK AO2 CIG
     009V013=
KRKP 081348Z AUTO 12004KT 2 1/2SM -RA FEW014 BKN029 OVC050 A2987
     RMK AO2 VIS 1V5 RAE05B32 P0023 FZRANO $=
KMAF 081348Z 03008KT 10SM FEW007 BKN015 OVC022 22/20 A3013 RMK
     AO2=
KMKG 081348Z 21008KT 4SM -RA BR BKN007 BKN019 OVC047 23/22 A3003
     RMK AO2 RAB03 P0004=
KOKB 081348Z AUTO VRB03KT 8SM BKN013 OVC018 17/14 A2991 RMK AO2
     $=
####018001015####
SAUS70 KWBC 081400 RRA
METAR
KGNC 081345Z AUTO 04006KT 10SM SCT008 BKN019 OVC085 20/19 A3017
     RMK AO2 T02000190=
KGVT 081345Z AUTO 13005KT 10SM SCT014 OVC055 26/23 A3006 RMK
     AO2=
KGWB 081345Z AUTO 00000KT 10SM CLR 30/16 A3005 RMK AO2=
KGYB 081345Z AUTO 00000KT 1 1/4SM +RA SCT006 BKN013 OVC034 23/23
     A3002 RMK AO2 P0081 T02320230=
KHHF 081345Z AUTO 07005KT 5SM RA SCT010 SCT020 OVC070 21/20 A3015
     RMK AO2 P0073 T02110203=
KHRX 081345Z AUTO 03006KT 10SM SCT023 BKN028 OVC110 18/17 A3024
     RMK AO2 T01800165=
KIJX 081345Z AUTO 30004KT 7SM BKN005 BKN010 BKN014 24/23 A3007 RMK
     AO2 T02420232=
KINJ 081345Z AUTO 08006KT 7SM SCT005 SCT029 BKN080 25/23 A3003 RMK
     AO2 T02530234=
KJAS 081346Z AUTO 10005KT 7SM BKN008 27/25 A3005 RMK AO2
     T02690250=
KJDD 081345Z AUTO 00000KT 7SM SCT008 26/25 A3007 RMK AO2=
KJSO 081350Z AUTO 10003KT 7SM SCT006 BKN110 24/24 A3007 RMK AO2
     T02420237=
KMTN 081345Z 11008KT 4SM HZ SCT008 SCT015 29/25 A3004=
####018000440####
SAUS80 KWBC 081400
METAR
KCUL 081345Z AUTO 22004KT 10SM CLR 28/22 A3006 RMK AO2
     T02830221=
KSFY 081345Z AUTO 33004KT 10SM BKN007 23/21 A3004 RMK AO2=
KCZK 081345Z 09011KT 10SM SKC 18/10 RMK SLP154 NO SPECI CLD HGT
     AND VIS VISUALLY ESTMD=
KCQT 081347Z AUTO 00000KT 5SM HZ OVC011 17/13 A2991 RMK AO2 SLP127
     T01720133 TSNO $=
KJDN 081348Z AUTO 27005KT 17/09 A3020 RMK AO2 SLP217 T01720089
     PWINO TSNO=
####018000121####
SAXX60 KWBC 081350
METAR
KAPY 081343Z AUTO 36006KT 10SM SCT008 BKN025 OVC032 26/25 A2986
     RMK AO2 T02550245=
####018000866####
SPXX60 KWBC 081350
SPECI
KCEF 081343Z 19004KT 7SM SCT014 BKN018 OVC080 25/22 A3007 RMK AO2A
     SLP184 $=
KCEF 081343Z 19004KT 7SM SCT014 BKN018 OVC080 25/22 A3007 RMK AO2A
     SLP184 $=
KFSI 081344Z AUTO 03005KT 10SM BKN008 OVC085 25/23 A3006 RMK AO2
     CIG 008V011 BKN V SCT SLP164=
KLTS 081343Z AUTO 32005KT 7SM R35L/5500FT R35R/5500VP6000FT RA
     BKN007 23/23 A3009 RMK AO2 RAB1322DZB1313E1322 SLP174 $=
KNFW 081327Z COR 13007KT 10SM SCT012 BKN024 27/22 A3008 RMK RAE20
     P0000 AO2=
KRND 081345Z 06006KT 4SM -RA BR OVC007 25/24 A2996 RMK AO2A
     RAB1327DZB1338E1340 SLP136=
KTBN 081340Z AUTO 00000KT 10SM BKN005 OVC034 25/ A3009 RMK AO2
     SLP173 $=
KTBN 081347Z VRB03KT 10SM SCT005 BKN035 OVC045 25/21 A3010 RMK
     AO2A SLP174 $=
KNFG 081348Z AUTO 00000KT 10SM SCT011 OVC018 16/14 A2991 RMK AO2
     TSNO=
####018000124####
SPUS80 KWBC 081350
SPECI
KMKG 081348Z 21008KT 4SM -RA BR BKN007 BKN019 OVC047 23/22 A3003
     RMK AO2 RAB03 P0004=
####018003691####
SAUS70 KWBC 081400
METAR
KSWF 081345Z 13010KT 4SM HZ SCT100 28/23 A3008=
K1H2 081345Z AUTO 23006KT 10SM CLR 29/24 A3005 RMK AO2 LTG DSNT W
     T02870240=
K3LF 081345Z AUTO 17003KT 7SM -RA SCT036 SCT050 BKN070 23/22 A3006
     RMK AO2 P0011 LTG DSNT E AND SE=
KAJG 081345Z AUTO 27004KT 10SM SCT047 28/24 A3006 RMK AO2
     T02810235=
KAQO 081345Z AUTO 10005KT 9SM FEW010 SCT026 BKN085 26/23 A3005 RMK
     AO2=
KARM 081345Z AUTO 11005KT 5SM BR SCT021 SCT034 BKN070 27/25 A2995
     RMK AO2 P0003 T02700250=
KAXH 081345Z AUTO 06006KT 7SM SCT034 SCT042 SCT049 25/24 A2996 RMK
     AO2 T02530235=
KBBD 081345Z AUTO 10003KT 10SM FEW007 BKN034 OVC060 24/22 A3006
     RMK=
KBKS 081346Z AUTO 03009KT 10SM OVC006 27/25 A2984 RMK AO1
     T02690254=
KDKR 081345Z AUTO 11005KT 6SM BR CLR 26/26 A3006 RMK AO2=
KDNV 081345Z AUTO 24007KT 10SM CLR 27/22 A3002 RMK AO2
     T02730221=
KECU 081345Z AUTO 05004KT 10SM CLR 24/22 A3010 RMK AO2=
KGYR 081347Z 00000KT 20SM SCT120 SCT180 31/05 A2980=
KHQZ 081346Z AUTO 12006KT 10SM OVC060 26/23 A3006 RMK AO2=
KJOT 081346Z AUTO 00000KT 4SM BR CLR 24/23 A3003 RMK AO2=
KOXI 081345Z AUTO 00000KT 2 1/2SM SCT038 BKN044 OVC080 23/22 A3003
     RMK AO1 T02310218=
KTFP 081345Z AUTO 07004KT 4SM -RA SCT005 BKN014 OVC042 27/25 A2986
     RMK AO2 P0006=
KJWY 081345Z AUTO 10005KT 7SM 26/23 A3005 RMK AO2 T02560231=
KJXI 081345Z AUTO 11003KT 26/25 A3008 RMK AO2=
KLBR 081345Z AUTO 14004KT 10SM BKN007 BKN011 BKN055 26/23 A3007
     RMK AO2 T02560231=
KLNC 081345Z AUTO 09004KT 10SM BKN008 OVC070 26/24 A3005 RMK AO2
     T02560244=
KLUD 081345Z AUTO 12007KT 10SM OVC009 26/23 A3006 RMK AO2
     T02560225=
KM30 081346Z AUTO 25004KT 10SM CLR 27/22 A3007 RMK AO2=
KMNZ 081349Z AUTO 08006KT 7SM BKN007 OVC014 25/25 A3005 RMK AO2
     T02500247=
KMQB 081345Z AUTO 32004KT 10SM OVC006 24/22 A3008 RMK AO2
     T02350220=
KPNT 081345Z AUTO 23003KT 10SM OVC019 25/23 A3004 RMK AO2=
KPPQ 081346Z AUTO 30003KT 10SM SCT005 OVC011 24/23 A3008 RMK
     AO2=
KPRG 081345Z AUTO 27005KT 10SM CLR 28/23 A3006 RMK AO2
     T02830238=
KPYX 081350Z AUTO 35006KT 4SM OVC004 19/18 A3021 RMK AO2
     T01910183=
KRPJ 081345Z AUTO 32007KT 7SM SCT009 BKN016 BKN030 23/21 A3005 RMK
     AO2 T02300206=
KRYY 081347Z 00000KT 10SM SKC 28/21 A3007=
KSUA 081347Z 07007KT 10SM SCT035 29/22 A3000=
KASW 081345Z AUTO 26006KT 7SM BKN055 BKN070 OVC080 26/21 A3006 RMK
     AO2 T02570209=
KBBG 081345Z 00000KT 10SM BKN027 OVC034 24/22 A3012=
KBPC 081348Z AUTO 01007KT 10SM OVC006 20/19 A3019 RMK AO2=
KBPG 081345Z AUTO 02009KT 10SM OVC006 22/21 A3014 RMK AO1
     T02200205=
KBYY 081346Z AUTO 08008KT 10SM SCT023 SCT035 OVC085 27/26 A2992
     RMK AO2 T02700258=
KCPT 081345Z AUTO 09005KT 5SM BR SCT006 25/24 A3006 RMK AO2=
KCWC 081345Z AUTO 12009KT 10SM CLR 26/23 A3005 RMK AO2
     T02640226=
KDUX 081347Z AUTO 02007KT 10SM OVC060 18/17 A3024 RMK AO2 P0001
     T01800172=
KDZB 081345Z AUTO 08003KT 4SM BR OVC007 25/24 A3000 RMK AO2
     T02480240=
KE38 081345Z AUTO 00000KT 10SM CLR 20/18 A3024 RMK AO2
     T02040184=
KEBG 081345Z AUTO 02011KT 10SM OVC007 27/26 A2982 RMK AO2
     T02720255=
KERV 081345Z AUTO 06006KT 10SM SCT011 SCT017 BKN030 25/22 A3002
     RMK AO2 T02470220=
KFEP 081345Z AUTO 30006KT 7SM OVC004 24/22 A3005 RMK AO2
     T02360215=
KFOA 081345Z AUTO 19004KT 10SM CLR 31/27 A3005 RMK AO2
     T03050267=
KFWC 081345Z AUTO 23004KT 10SM CLR 29/25 A3006 RMK AO2=
KFWS 081345Z AUTO 00000KT 5SM BR BKN007 BKN022 OVC065 25/24 A3006
     RMK AO2 P0001 T02500237=
KGBG 081345Z AUTO 32004KT 5SM BR OVC006 23/22 A3006 RMK AO2=
####018000140####
SAUS80 KWBC 081350
METAR
KCIR 081342Z AUTO 22003KT 10SM CLR 29/23 A3007 RMK AO2=
KMKN 081340Z AUTO 10004KT 8SM 24/23 A3007 RMK AO2=
####018000831####
SPUS70 KWBC 081350
SPECI
KDYL 081346Z AUTO VRB04KT 6SM HZ BKN016 27/23 A3004 RMK AO2
     TSNO=
KWST 081346Z AUTO 13006KT 10SM BKN006 26/22 A3009 RMK AO2 CIG
     004V009=
PALG 081344Z AUTO 00000KT 1SM BR CLR 06/06 A2999 RMK AO2 TSNO=
KDVN 081347Z AUTO 36006KT 10SM SCT007 24/21 A3006 RMK AO2=
KSTL 081347Z 33003KT 10SM -RA FEW009 SCT025TCU BKN075 BKN250 26/24
     A3006 RMK AO2 RAB15E22B46 TCU N-E P0000=
KUGN 081347Z VRB06KT 10SM BKN012 24/22 A3002 RMK AO2=
KLFK 081348Z AUTO 11008KT 10SM BKN010 27/24 A3003 RMK AO2 CIG
     009V013=
KRKP 081348Z AUTO 12004KT 2 1/2SM -RA FEW014 BKN029 OVC050 A2987
     RMK AO2 VIS 1V5 RAE05B32 P0023 FZRANO $=
KMAF 081348Z 03008KT 10SM FEW007 BKN015 OVC022 22/20 A3013 RMK
     AO2=
KOKB 081348Z AUTO VRB03KT 8SM BKN013 OVC018 17/14 A2991 RMK AO2
     $=
####018002016####
SAUS70 KWBC 081350
METAR
KOSC 081334Z AUTO 22006KT 7SM SCT060 BKN075 23/21 A3001 RMK
     AO2=
K0F2 081344Z AUTO 13004KT 7SM BKN011 OVC015 24/22 A3006 RMK AO2
     T02400224=
K11R 081344Z AUTO 10013G19KT 2 1/2SM RA BKN006 BKN014 OVC019 26/24
     A2999 RMK AO2 LTG DSNT E P0001=
K3T5 081344Z AUTO 00000KT 10SM -RA SCT032 BKN039 OVC050 25/24
     A2996 RMK AO2 P0003 T02510236=
K6R3 081341Z AUTO 09006KT 5SM BR OVC006 26/26 A3000 RMK AO2 LTG
     DSNT SE AND S T02610258=
KAAA 081343Z AUTO 00000KT 10SM OVC008 24/23 A3005 RMK AO2
     T02430225=
KBEA 081343Z AUTO 06007KT 10SM BKN005 OVC009 25/25 A2989 RMK AO2
     P0001 T02460246=
KBKD 081341Z AUTO 07003KT 10SM BKN004 BKN014 OVC028 25/23 A3005
     RMK AO2 T02480232=
KC09 081344Z AUTO 20003KT 4SM BR SCT006 BKN019 OVC025 23/22 A3003
     RMK AO2=
KGLE 081344Z AUTO 15005KT 10SM SCT006 SCT011 BKN065 26/23 A3007
     RMK AO2=
KLOT 081341Z AUTO 00000KT 4SM BR OVC023 24/22 A3003 RMK AO2=
KOZA 081341Z AUTO 00000KT 10SM SCT022 BKN038 BKN049 24/22 A3009
     RMK AO2 T02370219=
KPVW 081341Z AUTO 05008KT 10SM OVC007 21/19 A3018 RMK AO2=
KLHB 081344Z AUTO 09006KT 4SM HZ BKN009 BKN055 26/24 A3001 RMK AO2
     T02610236=
KMDD 081340Z AUTO 03006KT 10SM BKN006 OVC012 22/21 A3014 RMK AO2
     T02200205=
KOLY 081343Z AUTO 00000KT 10SM SCT045 SCT055 29/24 A3005 RMK
     AO2=
KOSA 081344Z AUTO 12005KT 10SM BKN008 OVC013 26/24 A3008 RMK AO1
     T02600244=
KRSV 081342Z AUTO 24005KT 10SM CLR 30/24 A3006 RMK AO2
     T02970235=
KCVB 081344Z AUTO 05007KT 7SM OVC014 26/24 A2997 RMK AO2
     T02600242=
KF05 081344Z AUTO 04007KT 10SM SCT007 SCT032 SCT042 25/23 A3007
     RMK AO2 T02530225=
KGDJ 081344Z AUTO 07005KT 10SM BKN008 OVC049 26/24 A3005 RMK AO2
     T02600237=
KGOP 081340Z AUTO 00000KT 7SM SCT009 BKN046 26/23 A3005 RMK
     AO2=
KGYI 081344Z AUTO 14009KT 25/25 A3006 RMK AO2 T02520246 PWINO=
KHBV 081340Z AUTO 01011KT 10SM OVC008 26/24 A2988 RMK AO2
     T02550235=
####018000097####
SPAO33 KWBC 081350
SPECI
GBYD 081305Z 25007KT 9999 SCT011 FEW018CB BKN120 TS AT SE OF STN=
####018000176####
SAES20 MSLP 081400
METAR MSLP 081350Z 00000KT 9999 FEW020 BKN300 27/24 Q1011 A2988 DSTN CB TO S FEW110=

METAR MSSS 081350Z 00000KT 9999 FEW020 BKN300 22/21 Q1015 A3000= 
####018000028####
SAAW34 KWBC 081345
NIL=
####018000131####
SPJP31 KWBC 081350
SPECI
RODN 081346Z AUTO 18008KT 9999 BKN017 BKN200 29/26 A2987 RMK AO2
CIG 015V021 BKN017 V SCT SLP115=
####018000077####
SPCN48 CWAO 081347
SPECI CYAS 081347Z 28003KT 1/2SM FG VV004 RMK FG8=

####018000095####
SAEM31 KWBC 081330 CCA
METAR
LQSA 081330Z 29006KT 220V350 9999 SCT060 23/12 Q1023 NOSIG=
####018000095####
SAEM31 KWBC 081300 CCA
METAR
LQSA 081300Z 30008KT 260V350 9999 SCT060 22/11 Q1023 NOSIG=
####018000028####
SADL33 KWBC 081345
NIL=
####018000107####
SPUS31 KWBC 081350
SPECI
KSTL 081347Z 33003KT 10SM -RA FEW009 SCT025TCU BKN075 BKN250 26/24
A3006=
####018000032####
SAMX31 KWBC 081345 RRD
NIL=
####018000335####
SAMX41 KWBC 081345 RRA
METAR
MMAS NIL=
MMBT NIL=
MMCE NIL=
MMCL NIL=
MMCM NIL=
MMCN NIL=
MMCS NIL=
MMCU NIL=
MMCV NIL=
MMDO NIL=
MMGL NIL=
MMGM NIL=
MMHO NIL=
MMLP NIL=
MMMA NIL=
MMML 081340Z 12006KT 12SM SKC 25/14 A2972 RMK SC-ST-NE RTS=
MMMM NIL=
MMMS NIL=
MMMT NIL=
MMNL NIL=
MMRX NIL=
####018000028####
SAMX42 KWBC 081345
NIL=
####018000097####
SPXX61 KWBC 081350
SPECI
EGUN 081345Z AUTO 25008KT 9999 SCT041 24/15 A3006 RMK AO2 SLP168=
####018000114####
SPXX62 KWBC 081350
SPECI
RKJK 081345Z 06003KT 2400 R36/0700V1000 HZ BKN120 24/21 A2980 RMK
AO2A SLP092 $=
####018000131####
SPXX62 KWBC 081350
SPECI
RODN 081346Z AUTO 18008KT 9999 BKN017 BKN200 29/26 A2987 RMK AO2
CIG 015V021 BKN017 V SCT SLP115=
####018000115####
SAXX99 KWBC 081300 RRX
METAR
MMIO 081340Z 36005KT 6SM BKN010 OVC020 19/18 A3013 RMK 8/5// OCNL
     DROPS=
####018000068####
SPUS54 KWBC 081350
SPECI
KCZK 081345Z 09011KT 10SM SKC 18/10=
####018000119####
SAUS45 KFGZ 081350
MTRIGM
METAR KIGM 081348Z AUTO 11011KT 10SM CLR 28/M01 A2999 RMK AO2 SLP072 
T02831011 TSNO
####018000069####
SALT33 EYVI 081350
METAR EYPA 081350Z 33006KT CAVOK 21/15 Q1019=
####018000097####
SAXX98 KWBC 081350
METAR MYEG 081359Z AUTO 16006KT 10SM CLR 30/24 A2998 RMK AO2 LTG DSNT W
####018000072####
SALY31 HLLS 081400
METAR HLLS 081350Z 
O6O1OKT CAVOK  37/O9 Q1O15=
####018000107####
SPUS73 KWBC 081350
SPECI
KSTL 081347Z 33003KT 10SM -RA FEW009 SCT025TCU BKN075 BKN250 26/24
A3006=
####018000068####
SPUS81 KWBC 081350
SPECI
KCZK 081345Z 09011KT 10SM SKC 18/10=
####018000073####
SAUS81 KWBC 081348
&EHA SA 1348  AMOS 63/61/0110/M PK WND 16 005

####018000312####
SPNA14 KAWN 081350 RRG
SPECI KRND 081345Z 06006KT 4SM -RA BR OVC007 25/24 A2996 RMK AO2A RAB1327DZB1338E1340
      SLP136=
SPECI KTBN 081340Z AUTO 00000KT 10SM BKN005 OVC034 25/ A3009 RMK AO2
      SLP173 $=
SPECI KTBN 081347Z VRB03KT 10SM SCT005 BKN035 OVC045 25/21 A3010 RMK
      AO2A SLP174 $=
####018000129####
SABE31 TXKF 081347
METAR TXKF 081255Z 17020KT 6000 -SHRA FEW009 SCT015TCU
BKN050 BKN300 23/22 Q1020 RMK TCU N & DSNT SW
####018000205####
SAUS20 KNKA 081350
SPECI KWLD 081349Z AUTO 01010KT 10SM BKN010 24/21 A3011 RMK AO2 CIG 
    007V012 P0001=
METAR KXBP 081345Z AUTO 15004KT 10SM BKN029 OVC060 26/23 A3006 
     RMK AO2 T02570230=
####018002910####
SAUS20 KNKA 081350
METAR KADS 081347Z 11005KT 7SM BKN010 BKN034 OVC100 25/24 A3005=
METAR KC75 081348Z AUTO 27004KT 10SM SCT008 BKN014 OVC025 24/23 
     A3004 RMK AO2=
METAR KCCA 081355Z AUTO 00000KT 8SM BKN008 OVC013 25/23 A3010 RMK 
     AO2 =
METAR KCDN 081355Z AUTO 31005KT 10SM CLR 31/21 A2999 RMK A02 P000 
     =
METAR KCKI 081355Z AUTO 31004KT 10SM CLR 30/20 A2996 RMK AO2=
METAR KDKB 081343Z AUTO 27005KT 10SM BKN009 BKN012 23/22 A3003 
     RMK AO2 T02270220=
METAR KENL 081345Z AUTO 22009KT 10SM SCT050 28/20 A3006 RMK AO2 
     LTG DSNT NW T02830200=
METAR KFWS 081347Z 00000KT 4SM BR BKN007 BKN022 OVC065 25/24 A3006=
SPECI KHOT 081349Z AUTO 15003KT 10SM OVC010 26/23 A3011 RMK AO2=
METAR KHSB 081345Z AUTO 22005KT 10SM SCT100 28/22 A3007 RMK AO2=
SPECI KIAH 081349Z 10008KT 6SM TSRA BR FEW007 SCT025CB BKN070 OVC130 
    24/24 A2999 RMK AO2 OCNL LTGIC VC NW-N E TS VC NW-NE E MOV NW 
    P0018=
METAR KJVL 081345Z 29004KT 10SM SCT009 BKN016 OVC120 23/20 A3004=
METAR KLRO 081355Z AUTO 32007KT 8SM CLR 28/21 A2995 RMK AO2 =
METAR KMKS 081355Z AUTO 35005KT 10SM SCT002 30/21 A2996 RMK AO2 
     TSNO=
METAR KPEZ 081345Z AUTO 04008G14KT 10SM SCT008 BKN020 BKN027 
     26/23 A2994 RMK AO2 T02550234=
METAR KPKV 081346Z AUTO 06005KT 10SM SCT024 BKN040 OVC075 24/23 
     A2990 RMK AO2 P0052 T02410226=
METAR KPPA 081345Z AUTO 04010KT 10SM OVC007 19/18 A3021 RMK AO2=
METAR KPSN 081345Z AUTO 08008KT 7SM 26/24 A3005 RMK AO2 T02560239=
METAR KRAS 081345Z AUTO 13006KT 9SM FEW002 SCT055 BKN070 27/26 
     A2987 RMK AO2 P0027=
METAR KRBO 081345Z AUTO 03010KT 10SM SCT090 27/26 A2985 RMK AO2 
     T02670255=
METAR KRFI 081345Z AUTO 13005KT 5SM HZ SCT009 BKN100 26/24 A3005 
     RMK AO2 T02600235=
METAR KRPH 081345Z AUTO 14005KT 10SM SCT060 SCT070 26/22 A3003 
     RMK AO2 T02600217=
METAR KRWV 081340Z AUTO 05008KT 5SM  BR OVC006 26/24 A3002 RMK AO2=
METAR KRYW 081345Z AUTO 07004KT 4SM BR OVC003 25/23 A3002 RMK AO2=
METAR KSAR 081345Z AUTO 22004KT 5SM HZ SCT075 27/24 A3006 RMK AO2=
METAR KSEP 081345Z AUTO 09005KT 7SM BKN004 BKN008 24/22 A3006 RMK 
     AO1=
METAR KSLO 081345Z AUTO 25006KT 10SM SCT090 SCT110 29/23 A3006 
     RMK AO2 LTG DSNT NW T02910227=
METAR KSLR 081342Z AUTO 14004KT 7SM SCT012 OVC070 27/23 A3008 RMK 
     AO2 T02680231=
METAR KSNK 081346Z AUTO 03007KT 10SM SCT007 OVC011 22/20 A3013 
     RMK AO2 T02150202=
METAR KSOA 081340Z AUTO 05004KT 8SM 23/22 A3011 RMK AO2=
METAR KSWW 081345Z AUTO 02005KT 1 1/2SM OVC002 22/22 A3013 RMK 
     AO1 T02180215=
METAR KT65 081345Z AUTO 02008KT 10SM SCT009 BKN090 27/25 A2980 
     RMK AO2 T02740253=
METAR KT82 081345Z AUTO 08007KT 24/22 A3005 RMK AO1 T02400220=
METAR KTAZ 081345Z AUTO 00000KT 10SM CLR 29/24 A3004 RMK AO2 LTG 
     DSNT S=
METAR KUVA 081345Z AUTO 04008KT 10SM CLR 26/22 A2997 RMK AO2 
     T02550224=
####018000081####
SRPR30 KWAL 081350
CE2D864E 189135036bB1r@IH@II@II@II@IJ@IJ@IK@IKM 43+0NN 161E####018002549####
SAUS99 KWBC 081351
METAR
KXBP 081345Z AUTO 15004KT 10SM BKN029 OVC060 26/23 A3006 RMK AO2
     T02570230=
KADS 081347Z 11005KT 7SM BKN010 BKN034 OVC100 25/24 A3005=
KC75 081348Z AUTO 27004KT 10SM SCT008 BKN014 OVC025 24/23 A3004
     RMK AO2=
KCCA 081355Z AUTO 00000KT 8SM BKN008 OVC013 25/23 A3010 RMK
     AO2=
KCDN 081355Z AUTO 31005KT 10SM CLR 31/21 A2999 RMK A02 P000=
KCKI 081355Z AUTO 31004KT 10SM CLR 30/20 A2996 RMK AO2=
KDKB 081343Z AUTO 27005KT 10SM BKN009 BKN012 23/22 A3003 RMK AO2
     T02270220=
KENL 081345Z AUTO 22009KT 10SM SCT050 28/20 A3006 RMK AO2 LTG DSNT
     NW T02830200=
KFWS 081347Z 00000KT 4SM BR BKN007 BKN022 OVC065 25/24 A3006=
KHSB 081345Z AUTO 22005KT 10SM SCT100 28/22 A3007 RMK AO2=
KJVL 081345Z 29004KT 10SM SCT009 BKN016 OVC120 23/20 A3004=
KLRO 081355Z AUTO 32007KT 8SM CLR 28/21 A2995 RMK AO2=
KMKS 081355Z AUTO 35005KT 10SM SCT002 30/21 A2996 RMK AO2 TSNO=
KPEZ 081345Z AUTO 04008G14KT 10SM SCT008 BKN020 BKN027 26/23 A2994
     RMK AO2 T02550234=
KPKV 081346Z AUTO 06005KT 10SM SCT024 BKN040 OVC075 24/23 A2990
     RMK AO2 P0052 T02410226=
KPPA 081345Z AUTO 04010KT 10SM OVC007 19/18 A3021 RMK AO2=
KPSN 081345Z AUTO 08008KT 7SM 26/24 A3005 RMK AO2 T02560239=
KRAS 081345Z AUTO 13006KT 9SM FEW002 SCT055 BKN070 27/26 A2987 RMK
     AO2 P0027=
KRBO 081345Z AUTO 03010KT 10SM SCT090 27/26 A2985 RMK AO2
     T02670255=
KRFI 081345Z AUTO 13005KT 5SM HZ SCT009 BKN100 26/24 A3005 RMK AO2
     T02600235=
KRPH 081345Z AUTO 14005KT 10SM SCT060 SCT070 26/22 A3003 RMK AO2
     T02600217=
KRWV 081340Z AUTO 05008KT 5SM BR OVC006 26/24 A3002 RMK AO2=
KRYW 081345Z AUTO 07004KT 4SM BR OVC003 25/23 A3002 RMK AO2=
KSAR 081345Z AUTO 22004KT 5SM HZ SCT075 27/24 A3006 RMK AO2=
KSEP 081345Z AUTO 09005KT 7SM BKN004 BKN008 24/22 A3006 RMK
     AO1=
KSLO 081345Z AUTO 25006KT 10SM SCT090 SCT110 29/23 A3006 RMK AO2
     LTG DSNT NW T02910227=
KSLR 081342Z AUTO 14004KT 7SM SCT012 OVC070 27/23 A3008 RMK AO2
     T02680231=
KSNK 081346Z AUTO 03007KT 10SM SCT007 OVC011 22/20 A3013 RMK AO2
     T02150202=
KSOA 081340Z AUTO 05004KT 8SM 23/22 A3011 RMK AO2=
KSWW 081345Z AUTO 02005KT 1 1/2SM OVC002 22/22 A3013 RMK AO1
     T02180215=
KT65 081345Z AUTO 02008KT 10SM SCT009 BKN090 27/25 A2980 RMK AO2
     T02740253=
KT82 081345Z AUTO 08007KT 24/22 A3005 RMK AO1 T02400220=
KTAZ 081345Z AUTO 00000KT 10SM CLR 29/24 A3004 RMK AO2 LTG DSNT
     S=
KUVA 081345Z AUTO 04008KT 10SM CLR 26/22 A2997 RMK AO2
     T02550224=
####018000324####
SPUS99 KWBC 081351
SPECI
KWLD 081349Z AUTO 01010KT 10SM BKN010 24/21 A3011 RMK AO2 CIG
     007V012 P0001=
KHOT 081349Z AUTO 15003KT 10SM OVC010 26/23 A3011 RMK AO2=
KIAH 081349Z 10008KT 6SM TSRA BR FEW007 SCT025CB BKN070 OVC130
     24/24 A2999 RMK AO2 OCNL LTGIC VC NW-N E TS VC NW-NE E MOV NW
     P0018=
####018000074####
SALT34 EYVI 081350
METAR EYSA 081350Z 32013KT 9999 OVC037 19/14 Q1017=
####018000088####
SALV31 EVRA 081350
METAR EVRA 081350Z 31010KT 270V340 9999 OVC030 21/16 Q1016 NOSIG=
####018000082####
SALT32 EYVI 081350
METAR EYKA 081350Z 28008KT 250V340 9999 OVC027 17/14 Q1016=
####018000081####
SAAZ61 LPLA 081400
METAR LPLA 081400Z 00000KT 9999 SCT013 BKN028 21/19 Q1024=
####018000074####
SAEO31 EETN 081350
METAR EETN 081350Z 30009KT CAVOK 26/18 Q1014 NOSIG=
####018000091####
SALT31 EYVI 081350
METAR EYVI 081350Z 29010KT 270V330 4000 BR OVC005 15/14 Q1015 NOSIG=
####018000126####
SABE31 TXKF 081347
METAR TXKF 081255Z 17020KT 6000 -SHRA FEW009 SCT015TCU
BKN050 BKN300 23/22 Q1020 RMK TCU N & DSNT SW
####018000083####
SAUS31 KWBC 081300 RRE
METAR
KSWF 081345Z 13010KT 4SM HZ SCT100 28/23 A3008=
####018000105####
SPCN47 CWAO 081349
SPECI CYNA 081349Z AUTO 11009KT 9SM OVC004 OVC051 OVC055 OVC061 15/13
A3003=

####018000091####
SPUS42 KWBC 081351
SPECI
KMAF 081348Z 03008KT 10SM FEW007 BKN015 OVC022 22/20 A3013=
####018000107####
SAUS42 KWBC 081300 RRG
METAR
KGLE 081344Z AUTO 15005KT 10SM SCT006 SCT011 BKN065 26/23
     A3007=
####018000918####
SAUS43 KWBC 081300 RRK
METAR
K1H2 081345Z AUTO 23006KT 10SM CLR 29/24 A3005=
KAAA 081343Z AUTO 00000KT 10SM OVC008 24/23 A3005=
KC09 081344Z AUTO 20003KT 4SM BR SCT006 BKN019 OVC025 23/22
     A3003=
KDNV 081345Z AUTO 24007KT 10SM CLR 27/22 A3002=
KFEP 081345Z AUTO 30006KT 7SM OVC004 24/22 A3005=
KFOA 081345Z AUTO 19004KT 10SM CLR 31/27 A3005=
KFWC 081345Z AUTO 23004KT 10SM CLR 29/25 A3006=
KGBG 081345Z AUTO 32004KT 5SM BR OVC006 23/22 A3006=
KIJX 081345Z AUTO 30004KT 7SM BKN005 BKN010 BKN014 24/23 A3007=
KJOT 081346Z AUTO 00000KT 4SM BR CLR 24/23 A3003=
KLOT 081341Z AUTO 00000KT 4SM BR OVC023 24/22 A3003=
KMQB 081345Z AUTO 32004KT 10SM OVC006 24/22 A3008=
KOLY 081343Z AUTO 00000KT 10SM SCT045 SCT055 29/24 A3005=
KPNT 081345Z AUTO 23003KT 10SM OVC019 25/23 A3004=
KPPQ 081346Z AUTO 30003KT 10SM SCT005 OVC011 24/23 A3008=
KPRG 081345Z AUTO 27005KT 10SM CLR 28/23 A3006=
####018000243####
SAUS44 KWBC 081300 RRG
METAR
K11R 081344Z AUTO 10013G19KT 2 1/2SM RA BKN006 BKN014 OVC019 26/24
     A2999=
KBPG 081345Z AUTO 02009KT 10SM OVC006 22/21 A3014=
KBYY 081346Z AUTO 08008KT 10SM SCT023 SCT035 OVC085 27/26
     A2992=
####018000082####
SPUS52 KWBC 081351
SPECI
KLFK 081348Z AUTO 11008KT 10SM BKN010 27/24 A3003=
####018000093####
SAUS53 KWBC 081300 RRL
METAR
KLNC 081345Z AUTO 09004KT 10SM BKN008 OVC070 26/24 A3005=
####018000097####
SPUS53 KWBC 081351
SPECI
KMKG 081348Z 21008KT 4SM -RA BR BKN007 BKN019 OVC047 23/22 A3003=
####018000125####
SAUS54 KWBC 081300 RRI
METAR
KIGM 081348Z AUTO 11011KT 10SM CLR 28/M01 A2999=
KJDN 081348Z AUTO 27005KT 17/09 A3020=
####018000094####
SPCN46 CWAO 081350
SPECI CYLD 081350Z 36003KT 15SM FEW017 BKN035 OVC170 RMK SC2SC4AS2=

####018000126####
SAMP31 LMMM 081400
METAR HLLT NIL=
METAR HLLB NIL=
METAR LMML 081345Z 08010KT 040V130 9999 FEW017 29/21 Q1018 NOSIG =
####018000101####
SAEO32 EETN 081350
METAR EETU 081350Z 27004KT 230V330 9999 FEW025CB SCT030 BKN130
21/20 Q1013=
####018000089####
SALV31 EVRA 081350
METAR EVRA 081350Z 31010KT 270V340 9999 OVC030 21/16 Q1016 NOSIG=
####018000083####
SALT32 EYVI 081350
METAR EYKA 081350Z 28008KT 250V340 9999 OVC027 17/14 Q1016=
####018000091####
SPUS72 KWBC 081351
SPECI
KMAF 081348Z 03008KT 10SM FEW007 BKN015 OVC022 22/20 A3013=
####018000092####
SALT31 EYVI 081350
METAR EYVI 081350Z 29010KT 270V330 4000 BR OVC005 15/14 Q1015 NOSIG=
####018000075####
SALT34 EYVI 081350
METAR EYSA 081350Z 32013KT 9999 OVC037 19/14 Q1017=
####018000075####
SAEO31 EETN 081350
METAR EETN 081350Z 30009KT CAVOK 26/18 Q1014 NOSIG=
####018000097####
SPUS73 KWBC 081351
SPECI
KMKG 081348Z 21008KT 4SM -RA BR BKN007 BKN019 OVC047 23/22 A3003=
####018000095####
SAUS44 KLIX 081351 COR
MTRBTR
SPECI KBTR 081346Z 08005KT 10SM OVC005 26/24 A3004 RMK AO2
####018000099####
SAUS73 KWBC 081300 RRG
METAR
KGYY 081345Z 00000KT 3SM -RA BR BKN008 OVC035 24/23 A3003 RB15=
####018000097####
SPUS81 KWBC 081351
SPECI
KMKG 081348Z 21008KT 4SM -RA BR BKN007 BKN019 OVC047 23/22 A3003=
####018000135####
SAUS41 KOKX 081351
MTRNYC
SPECI KNYC 081349Z AUTO VRB04KT 6SM -RA SCT013 BKN018 OVC033 26/23 
A3008 RMK AO2 RAB24 P0000 TSNO $
####018000112####
SAAK41 KNKA 081351
METAR PAWR 081346Z 08010G21KT 3SM -RA BR OVC007 11/11 A3008 RMK 
     SLP186 NOSPECI =
####018000085####
SAKW35 OKBK 081400
METAR OKBK 081400Z 34017KT 6000 -BLDU SKC 47/M03 Q0998 NOSIG=
####018000072####
SAAK17 KAWN 081400
PATC SA 1355 AWOS CLR BLO 120 10 48/43/3604/013=
####018000081####
SALY31 HLLT 081400
METAR HLLT 081350Z 36011KT 330V040 8000 SKC  31/18 Q1018=
####018000932####
SAUS20 KNKA 081351
SPECI KDEQ 081350Z AUTO 11003KT 10SM BKN007 OVC045 25/23 A3006 RMK 
    AO2=
SPECI KIAH 081339Z COR 08006KT 5SM -TSRA BR SCT004 BKN025CB OVC070 
    24/24 A2998 RMK AO2 OCNL LTGIC VC NW-NE-E TS VC NW-NE-E MOV NW 
    P0017=
METAR KIGQ 081340Z AUTO 00000KT 1 1/2SM +RA BKN010 BKN014 OVC030 
     24/22 A3003 RMK AO2 VIS 3/4V3 P0021=
METAR KIWA 081347Z 08009KT 45SM FEW120 33/09 A2984=
SPECI KLFT 081350Z 09004KT 10SM OVC006 27/24 A3004 RMK AO2 CIG 
    004V008=
METAR KPAO 081347Z 32006KT 6SM BR OVC010 A2993=
METAR KPOC 081350Z 00000KT 2SM BR FEW000 OVC006 A2994 RMK BR
    FEW000=
SPECI KRBD 081349Z 10005KT 10SM BKN006 OVC060 26/24 A3005 RMK AO2=
METAR KTIP 081345Z AUTO 00000KT 10SM SCT085 27/24 A3006 RMK AO2 
     T02680244=
METAR KTYQ 081345Z AUTO 20005KT 10SM CLR 28/22 A3006 RMK AO2=
METAR KVYS 081345Z AUTO 29003KT 10SM OVC009 24/22 A3004 RMK AO2 
     T02420220=
####018000096####
SAUS98 KWBC 081352
METAR KEHA 081348Z AUTO 01010KT 17/16 RMK AO1 PK WND 16 005
T01720162=
####018000277####
SAUS90 KWBC 081400
METAR KIGM 081348Z AUTO 11011KT 10SM CLR 28/M01 A2999 RMK AO2
     SLP072 T02831011 TSNO=
METAR MYEG 081359Z AUTO 16006KT 10SM CLR 30/24 A2998 RMK AO2 LTG
     DSNT W=
METAR KEHA 081348Z AUTO 01010KT 17/16 RMK AO1 PK WND 16 005
     T01720162=
####018000087####
SPUS90 KWBC 081352 CCA
SPECI KBTR 081346Z 08005KT 10SM OVC005 26/24 A3004 RMK AO2=
####018000131####
SPUS90 KWBC 081352
SPECI KNYC 081349Z AUTO VRB04KT 6SM -RA SCT013 BKN018 OVC033 26/23
     A3008 RMK AO2 RAB24 P0000 TSNO $=
####018000389####
SPUS99 KWBC 081352
SPECI
KDEQ 081350Z AUTO 11003KT 10SM BKN007 OVC045 25/23 A3006 RMK
     AO2=
KIAH 081339Z COR 08006KT 5SM -TSRA BR SCT004 BKN025CB OVC070 24/24
     A2998 RMK AO2 OCNL LTGIC VC NW-NE-E TS VC NW-NE-E MOV NW
     P0017=
KLFT 081350Z 09004KT 10SM OVC006 27/24 A3004 RMK AO2 CIG
     004V008=
KRBD 081349Z 10005KT 10SM BKN006 OVC060 26/24 A3005 RMK AO2=
####018000588####
SAUS99 KWBC 081352
METAR
KIGQ 081340Z AUTO 00000KT 1 1/2SM +RA BKN010 BKN014 OVC030 24/22
     A3003 RMK AO2 VIS 3/4V3 P0021=
KIWA 081347Z 08009KT 45SM FEW120 33/09 A2984=
KPAO 081347Z 32006KT 6SM BR OVC010 A2993=
KPOC 081350Z 00000KT 2SM BR FEW000 OVC006 A2994 RMK BR FEW000=
KTIP 081345Z AUTO 00000KT 10SM SCT085 27/24 A3006 RMK AO2
     T02680244=
KTYQ 081345Z AUTO 20005KT 10SM CLR 28/22 A3006 RMK AO2=
KVYS 081345Z AUTO 29003KT 10SM OVC009 24/22 A3004 RMK AO2
     T02420220=
PAWR 081346Z 08010G21KT 3SM -RA BR OVC007 11/11 A3008 RMK SLP186
     NOSPECI=
####018000128####
SAMX52 MMGL 081400
METAR MMZO 081351Z 00000KT 10SM  BKN100 BKN250 24/23 A2977 
      RMK 8/035 HZY RTS=





TX OPMET V1
####018000075####
SABZ22 SBBR 081400
METAR SBBR 081400Z 07010KT 9999 FEW023 22/08 Q1024 =
####018000133####
SPUS80 KWBC 081352
SPECI
KNYC 081349Z AUTO VRB04KT 6SM -RA SCT013 BKN018 OVC033 26/23 A3008
     RMK AO2 RAB24 P0000 TSNO $=
####018000089####
SPUS80 KWBC 081352 CCA
SPECI
KBTR 081346Z 08005KT 10SM OVC005 26/24 A3004 RMK AO2=
####018002494####
SAUS70 KWBC 081400
METAR
KXBP 081345Z AUTO 15004KT 10SM BKN029 OVC060 26/23 A3006 RMK AO2
     T02570230=
KADS 081347Z 11005KT 7SM BKN010 BKN034 OVC100 25/24 A3005=
KC75 081348Z AUTO 27004KT 10SM SCT008 BKN014 OVC025 24/23 A3004
     RMK AO2=
KCCA 081355Z AUTO 00000KT 8SM BKN008 OVC013 25/23 A3010 RMK
     AO2=
KCDN 081355Z AUTO 31005KT 10SM CLR 31/21 A2999 RMK A02 P000=
KCKI 081355Z AUTO 31004KT 10SM CLR 30/20 A2996 RMK AO2=
KENL 081345Z AUTO 22009KT 10SM SCT050 28/20 A3006 RMK AO2 LTG DSNT
     NW T02830200=
KFWS 081347Z 00000KT 4SM BR BKN007 BKN022 OVC065 25/24 A3006=
KHSB 081345Z AUTO 22005KT 10SM SCT100 28/22 A3007 RMK AO2=
KJVL 081345Z 29004KT 10SM SCT009 BKN016 OVC120 23/20 A3004=
KLRO 081355Z AUTO 32007KT 8SM CLR 28/21 A2995 RMK AO2=
KMKS 081355Z AUTO 35005KT 10SM SCT002 30/21 A2996 RMK AO2 TSNO=
KPEZ 081345Z AUTO 04008G14KT 10SM SCT008 BKN020 BKN027 26/23 A2994
     RMK AO2 T02550234=
KPKV 081346Z AUTO 06005KT 10SM SCT024 BKN040 OVC075 24/23 A2990
     RMK AO2 P0052 T02410226=
KPPA 081345Z AUTO 04010KT 10SM OVC007 19/18 A3021 RMK AO2=
KRAS 081345Z AUTO 13006KT 9SM FEW002 SCT055 BKN070 27/26 A2987 RMK
     AO2 P0027=
KRBO 081345Z AUTO 03010KT 10SM SCT090 27/26 A2985 RMK AO2
     T02670255=
KRPH 081345Z AUTO 14005KT 10SM SCT060 SCT070 26/22 A3003 RMK AO2
     T02600217=
KRYW 081345Z AUTO 07004KT 4SM BR OVC003 25/23 A3002 RMK AO2=
KSAR 081345Z AUTO 22004KT 5SM HZ SCT075 27/24 A3006 RMK AO2=
KSLO 081345Z AUTO 25006KT 10SM SCT090 SCT110 29/23 A3006 RMK AO2
     LTG DSNT NW T02910227=
KSNK 081346Z AUTO 03007KT 10SM SCT007 OVC011 22/20 A3013 RMK AO2
     T02150202=
KSWW 081345Z AUTO 02005KT 1 1/2SM OVC002 22/22 A3013 RMK AO1
     T02180215=
KT65 081345Z AUTO 02008KT 10SM SCT009 BKN090 27/25 A2980 RMK AO2
     T02740253=
KT82 081345Z AUTO 08007KT 24/22 A3005 RMK AO1 T02400220=
KTAZ 081345Z AUTO 00000KT 10SM CLR 29/24 A3004 RMK AO2 LTG DSNT
     S=
KUVA 081345Z AUTO 04008KT 10SM CLR 26/22 A2997 RMK AO2
     T02550224=
KIWA 081347Z 08009KT 45SM FEW120 33/09 A2984=
KPAO 081347Z 32006KT 6SM BR OVC010 A2993=
KPOC 081350Z 00000KT 2SM BR FEW000 OVC006 A2994 RMK BR FEW000=
KTIP 081345Z AUTO 00000KT 10SM SCT085 27/24 A3006 RMK AO2
     T02680244=
KTYQ 081345Z AUTO 20005KT 10SM CLR 28/22 A3006 RMK AO2=
KVYS 081345Z AUTO 29003KT 10SM OVC009 24/22 A3004 RMK AO2
     T02420220=
PAWR 081346Z 08010G21KT 3SM -RA BR OVC007 11/11 A3008 RMK SLP186
     NOSPECI=
####018000415####
SAUS80 KWBC 081400
METAR
KIGM 081348Z AUTO 11011KT 10SM CLR 28/M01 A2999 RMK AO2 SLP072
     T02831011 TSNO=
KPSN 081345Z AUTO 08008KT 7SM 26/24 A3005 RMK AO2 T02560239=
KRFI 081345Z AUTO 13005KT 5SM HZ SCT009 BKN100 26/24 A3005 RMK AO2
     T02600235=
KSEP 081345Z AUTO 09005KT 7SM BKN004 BKN008 24/22 A3006 RMK
     AO1=
KEHA 081348Z AUTO 01010KT 17/16 RMK AO1 PK WND 16 005
     T01720162=
####018000082####
SAUS80 KWBC 081352
METAR
KSOA 081340Z AUTO 05004KT 8SM 23/22 A3011 RMK AO2=
####018000684####
SPUS70 KWBC 081352
SPECI
KWLD 081349Z AUTO 01010KT 10SM BKN010 24/21 A3011 RMK AO2 CIG
     007V012 P0001=
KHOT 081349Z AUTO 15003KT 10SM OVC010 26/23 A3011 RMK AO2=
KIAH 081349Z 10008KT 6SM TSRA BR FEW007 SCT025CB BKN070 OVC130
     24/24 A2999 RMK AO2 OCNL LTGIC VC NW-N E TS VC NW-NE E MOV NW
     P0018=
KDEQ 081350Z AUTO 11003KT 10SM BKN007 OVC045 25/23 A3006 RMK
     AO2=
KIAH 081339Z COR 08006KT 5SM -TSRA BR SCT004 BKN025CB OVC070 24/24
     A2998 RMK AO2 OCNL LTGIC VC NW-NE-E TS VC NW-NE-E MOV NW
     P0017=
KLFT 081350Z 09004KT 10SM OVC006 27/24 A3004 RMK AO2 CIG
     004V008=
KRBD 081349Z 10005KT 10SM BKN006 OVC060 26/24 A3005 RMK AO2=
####018000366####
SAUS70 KWBC 081352
METAR
KDKB 081343Z AUTO 27005KT 10SM BKN009 BKN012 23/22 A3003 RMK AO2
     T02270220=
KRWV 081340Z AUTO 05008KT 5SM BR OVC006 26/24 A3002 RMK AO2=
KSLR 081342Z AUTO 14004KT 7SM SCT012 OVC070 27/23 A3008 RMK AO2
     T02680231=
KIGQ 081340Z AUTO 00000KT 1 1/2SM +RA BKN010 BKN014 OVC030 24/22
     A3003 RMK AO2 VIS 3/4V3 P0021=
####018000111####
SAUS46 KSGX 081351
MTRSAN
METAR KSAN 081351Z 31003KT 10SM OVC013 16/14 A2993 RMK AO2 SLP135 
T01610139
####018000130####
SAAO33 KWBC 081300 RRF
METAR
GBYD 1305 25007KT 9999 TS SCT011 FEW018CB BKN120 THUNDER HEARD AT
     SOUTHEAST OF STATION=
####018000081####
SAEE31 KWBC 081330 RRB
METAR
EYSA 081350Z 32013KT 9999 OVC037 19/14 Q1017=
####018000109####
SPUS31 KWBC 081352
SPECI
KIAH 081349Z 10008KT 6SM TSRA BR FEW007 SCT025CB BKN070 OVC130
24/24 A2999=
####018000095####
SAMM31 KWBC 081330 RRA
METAR
LMML 081345Z 08010KT 040V130 9999 FEW017 29/21 Q1018 NOSIG=
####018000081####
SPUS42 KWBC 081352 CCA
SPECI
KBTR 081346Z 08005KT 10SM OVC005 26/24 A3004=
####018000178####
SACN60 CWAO 081300 RRD
PHE SA 1300 AUTO8 M M M M/11/10/MMMM/M/ M 30MM=
PRD SA 1300 AUTO8 M M M M/11/07/2403/M/ M 28MM=
PSA SA 1300 AUTO8 M M M M/11/10/MMMM/M/ M 17MM=

####018000083####
SACN88 CWAO 081300 RRG
WZN SA 1300 AUTO8 M M M 213/13/M/1109/M/M 0002 7MMM=

####018000083####
SACN97 CWAO 081300 RRF
XLL SA 1300 AUTO8 M M M 153/11/11/0000/M/ 8004 11MM=

####018000083####
SACN94 CWAO 081300 RRG
WSQ SA 1300 AUTO8 M M M 099/06/05/2506/M/ 0001 05MM=

####018000084####
SACN89 CWAO 081300 RRE
WDT SA 1300 AUTO7 M M M 165/23/21/1403/M/M 8002 96MM=

####018000083####
SACN96 CWAO 081300 RRF
XND SA 1300 AUTO8 M M M 227/09/07/MM01/M/ 3002 91MM=

####018000378####
SACN59 CWAO 081300 RRH
NLB SA 1300 AUTO8 M M M M/14/12/2706/M/ M 87MM=
NLD SA 1300 AUTO8 M M M M/10/09/3002/M/ M 30MM=
NNR SA 1300 AUTO8 M M M M/12/08/2409/M/ M 98MM=
NTK SA 1300 AUTO8 M M M M/13/11/2201/M/ M 96MM=
PCM SA 1300 AUTO8 M M M M/13/11/MMMM/M/ M 69MM=
PQU SA 1300 AUTO8 M M M M/13/10/1705/M/ M 14MM=
PTR SA 1300 AUTO8 M M M M/15/12/MMMM/M/ M 46MM=

####018000925####
SAUS20 KNKA 081351
METAR KBNL 081355Z AUTO 35007KT 10SM CLR 31/19 A2999 RMK AO2 =
METAR KCQW 081355Z AUTO 01004KT 4SM  HZ CLR 30/19 A2998 RMK AO2 =
SPECI KFLD 081350Z AUTO 30006KT 10SM BKN015 24/21 A3002 RMK AO2=
METAR KFTG 081347Z 06004KT 03SM BR BKN020 OVC010 15/15 A3035=
SPECI KFYV 081350Z 19006KT 10SM SCT028 BKN034 OVC045 24/22 A3009 RMK 
    AO2=
METAR KLBE 081350Z 25004KT 6SM HZ SKC 27/19 A3011=
METAR KLKR 081355Z AUTO 34004KT 7SM CLR 30/23 A3001 RMK AO2 =
SPECI KLXT 081350Z AUTO 04006KT 10SM OVC008 23/21 A3011 RMK AO2 CIG 
    007V011=
SPECI KMIA 081350Z 08009KT 10SM BKN022TCU BKN130 BKN300 30/24 A2997 
    RMK AO2 TCU N-OHD-SE-S=
SPECI KPYM 081350Z AUTO VRB06KT 9SM SCT024 SCT031 27/19 A3010 RMK 
    AO2=
METAR KSAW 081350Z 35005KT 10SM BKN011  22/18 A2999=
SPECI KTAN 081350Z AUTO 13008KT 10SM BKN020 27/21 A3008 RMK AO2=
METAR KVCV 081349Z 15004KT 10SM SKC 19/03 A2994=
####018000099####
SPUS51 KWBC 081352
SPECI
KNYC 081349Z AUTO VRB04KT 6SM -RA SCT013 BKN018 OVC033 26/23 A3008=
####018000082####
SPUS52 KWBC 081352
SPECI
KHOT 081349Z AUTO 15003KT 10SM OVC010 26/23 A3011=
####018000343####
SAIS31 LLBG 081350
METAR LLBG 081350Z 29009KT 9999 FEW030 29/20 Q1009 NOSIG=
METAR LLOV 081350Z 04008KT CAVOK 37/10 Q1008=
METAR LLET 081350Z 03016G26KT CAVOK 41/10 Q1004=
METAR LLHA 081350Z 30009KT 9999 FEW025 SCT030 29/20 Q1009=
METAR LLIB 081350Z 03007KT CAVOK 34/14 Q1008=
METAR LLSD 081350Z 29010KT 9999 SCT025 28/21 Q1009=
####018000077####
SAEO32 EETN 081350
METAR EEKE 081350Z 33010KT 290V010 CAVOK 24/11 Q1016=
####018000087####
SAMP31 LMMM 081400 RRA
METAR HLLT 081350Z
36011KT 330V040 8000 SKC  31/18 Q1018=
####018000124####
SAMP31 LMMM 081400
METAR HLLT NIL=
METAR HLLB NIL=
METAR LMML 081345Z 08010KT 040V130 9999 FEW017 29/21 Q1018 NOSIG =
####018000083####
SALY31 HLLT 081400
METAR HLLT 081350Z 
36011KT 330V040 8000 SKC  31/18 Q1018=
####018000081####
SPUS72 KWBC 081352 CCA
SPECI
KBTR 081346Z 08005KT 10SM OVC005 26/24 A3004=
####018000082####
SPUS72 KWBC 081352
SPECI
KHOT 081349Z AUTO 15003KT 10SM OVC010 26/23 A3011=
####018000109####
SPUS72 KWBC 081352
SPECI
KIAH 081349Z 10008KT 6SM TSRA BR FEW007 SCT025CB BKN070 OVC130
24/24 A2999=
####018000081####
SPUS81 KWBC 081352 CCA
SPECI
KBTR 081346Z 08005KT 10SM OVC005 26/24 A3004=
####018000099####
SPUS81 KWBC 081352
SPECI
KNYC 081349Z AUTO VRB04KT 6SM -RA SCT013 BKN018 OVC033 26/23 A3008=
####018000081####
SACH01 SCFA 081400
METAR SCFA 081400Z VRB02KT 9999 BKN023 14/07 Q1017 NOSIG=
####018000080####
SAMZ40 FQMA 081400
METAR
FQLC 081400Z 11006KT 9999 BKN014 19/07 Q1025=

####018001861####
SAUS20 KNKA 081352
METAR K1F0 081347Z AUTO 00000KT 10SM -RA BKN006 BKN015 OVC022 
     25/25 A3004 RMK AO2=
METAR KAHN 081351Z 00000KT 6SM HZ CLR 30/20 A3004 RMK AO2 SLP165 
    T03000200 $=
METAR KATW 081345Z 30007KT 5SM BR BKN009 BKN018 23/21 A3002=
METAR KBAK 081350Z 20003KT 7SM SCT065  28/22 A3007=
METAR KBAZ 081351Z AUTO 06008KT 5SM -RA BR BKN009 OVC014 25/24 A2995 
    RMK AO2 CIG 006V012 SLP133 P0002 T02500244=
METAR KBGD 081351Z AUTO 06004KT 10SM OVC014 20/18 A3021 RMK AO2 
    SLP198 T02000178=
SPECI KBTR 081346Z 08005KT 10SM OVC005 26/24 A3004 RMK AO2=
METAR KDUC 081352Z AUTO 04006KT 10SM CLR 26/23 A3005 RMK AO2=
METAR KEKN 081351Z AUTO 00000KT 6SM HZ CLR 24/18 A3016 RMK AO2 
    SLP199 T02440183 TSNO=
METAR KELP 081351Z 03011KT 10SM FEW035 SCT110 23/15 A3015 RMK AO2 
    SLP136 T02330150=
METAR KHDO 081351Z AUTO 05009KT 10SM FEW017 27/23 A2998 RMK AO2 
    SLP135 T02720233=
METAR KHUM 081350Z 06004KT 7SM SCT013 29/28 A3004 =
METAR KMDW 081351Z 23003KT 6SM BR FEW007 BKN023 OVC030 24/22 A3003 
    RMK AO2 RAE1256 SLP159 P0000 T02390217=
METAR KONM 081347Z AUTO 32006KT 10SM BKN080 19/15 A3027 RMK AO2 
     T01930147=
METAR KORD 081351Z 25004KT 6SM -RA BR FEW014 SCT026 OVC040 24/22 
    A3003 RMK AO2 RAB31 SLP165 P0000 T02390222=
METAR KPHX 081351Z 05004KT 10SM SCT140 33/01 A2981 RMK AO2 SLP071 
    T03280011 $=
METAR KRDU 081351Z 36004KT 6SM HZ SCT080 BKN250 31/19 A2999 RMK AO2 
    SLP150 T03110194=
METAR KROW 081351Z 02006KT 10SM -RA OVC038 20/17 A3022 RMK AO2 RAB22 
    SLP174 P0000 T02000167=
METAR KTIX 081347Z 02007KT 7SM FEW025 27/19 A3001=
SPECI KTVC 081351Z 00000KT 7SM SCT006 BKN011 OVC030 23/22 A2999 RMK 
    AO2 RAB01E51 P0001=
METAR KTZR 081350Z 00000KT 7SM SKC 29/21 A3008=
METAR KWDG 081307Z 35007KT 7SM SCT008 SCT060 BKN080 25/22 A3008=
####018000088####
SAXX70 KAWN 081300 RRX
METAR KQFU 081330Z AUTO 08002KT 7SM CLR 23/18 A2993 RMK A02=
####018000869####
SAXX70 KAWN 081400 RRA
METAR KQEI 081350Z AUTO 15001KT 1SM -RA BR OVC050 22/20 A2998 RMK A02=
METAR KQEN 081350Z AUTO 24003KT 6SM BR BKN070 18/16 A3042 RMK A02=
METAR KQEP 081350Z AUTO 17001KT 4SM -SHRA BKN060 BKN095 22/19 A2990
      RMK A02=
METAR KQER 081350Z AUTO 00000KT 2SM BR BKN003 21/19 A2992 RMK A02=
METAR KQES 081350Z AUTO 14004KT 3SM BR OVC110 21/18 A2987 RMK A02=
METAR KQEY 081350Z AUTO 13004KT 7SM -RA FEW031 BKN065 24/19 A2964 RMK
      A02=
METAR KQAJ 081355Z 27008G18KT 9999 CLR 44/03 A2967 RMK SLP030 WND DATA
      ESTMD ALSTG/SLP ESTMD=
METAR KQFS 081355Z AUTO VRB03KT 4500 -RA BR BKN013 BKN018 23/21 A2985
      RMK AO2 SLP103 T02330211 $=
METAR KQSA 081355Z 34013G21KT 9999 FEW120 34/M01 A2989 RMK SLP298 WND
      DATA ESTMD ALSTG/SLP ESTMD=
METAR KQEV 081400Z AUTO 13002KT 5SM -SHRA FEW050 22/19 A2981 RMK A02=
####018000075####
SAGI32 EGRR 081350
METAR LXGB 081350Z 09008KT CAVOK 27/16 Q1016 NOSIG=
####018000176####
SAAK41 KNKA 081352
METAR PALP 081352Z 25013KT 10SM FEW100 SCT240 09/04 A3004 =
METAR PAPT 081345Z 00000KT 25SM SCT060 SCT200 08/08 A3000 RMK SHRA
     DST E-S NOSPECI=
####018000145####
SAUS44 KCRP 081352
MTRVCT
METAR KVCT 081351Z 05008KT 1SM +RA BR BKN018 BKN022 OVC026 25/24 
A2992 RMK AO2 RAB37 SLP132 P0002 T02500244 $
####018000148####
SAUS44 KEWX 081352
MTRATT
METAR KATT 081351Z AUTO VRB03KT 5SM -RA BR FEW010 BKN017 OVC060 
26/24 A3000 RMK AO2 RAB42 SLP145 P0001 T02560239
####018000134####
SAUS44 KMAF 081352
MTRGDP
METAR KGDP 081351Z AUTO 06020KT 1 3/4SM BR SCT002 BKN006 17/17 A3026 
RMK AO2 SLP177 T01670167 TSNO
####018000076####
SABZ22 SBBR 081400
METAR SBBR 081400Z 07010KT 9999 FEW023 22/08 Q1024 =
####018000116####
SAZS31 NSTU 081400
METAR NSTU 081350Z 10012KT 10SM SCT016 BKN040 28/26 A2987 RMK 
SHRAB24E48 SLP115 T02770262=
####018002101####
SAUS99 KWBC 081353
METAR
KBNL 081355Z AUTO 35007KT 10SM CLR 31/19 A2999 RMK AO2=
KCQW 081355Z AUTO 01004KT 4SM HZ CLR 30/19 A2998 RMK AO2=
KFTG 081347Z 06004KT 03SM BR BKN020 OVC010 15/15 A3035=
KLBE 081350Z 25004KT 6SM HZ SKC 27/19 A3011=
KLKR 081355Z AUTO 34004KT 7SM CLR 30/23 A3001 RMK AO2=
KSAW 081350Z 35005KT 10SM BKN011 22/18 A2999=
KVCV 081349Z 15004KT 10SM SKC 19/03 A2994=
K1F0 081347Z AUTO 00000KT 10SM -RA BKN006 BKN015 OVC022 25/25
     A3004 RMK AO2=
KAHN 081351Z 00000KT 6SM HZ CLR 30/20 A3004 RMK AO2 SLP165
     T03000200 $=
KATW 081345Z 30007KT 5SM BR BKN009 BKN018 23/21 A3002=
KBAK 081350Z 20003KT 7SM SCT065 28/22 A3007=
KBAZ 081351Z AUTO 06008KT 5SM -RA BR BKN009 OVC014 25/24 A2995 RMK
     AO2 CIG 006V012 SLP133 P0002 T02500244=
KBGD 081351Z AUTO 06004KT 10SM OVC014 20/18 A3021 RMK AO2 SLP198
     T02000178=
KDUC 081352Z AUTO 04006KT 10SM CLR 26/23 A3005 RMK AO2=
KEKN 081351Z AUTO 00000KT 6SM HZ CLR 24/18 A3016 RMK AO2 SLP199
     T02440183 TSNO=
KELP 081351Z 03011KT 10SM FEW035 SCT110 23/15 A3015 RMK AO2 SLP136
     T02330150=
KHDO 081351Z AUTO 05009KT 10SM FEW017 27/23 A2998 RMK AO2 SLP135
     T02720233=
KHUM 081350Z 06004KT 7SM SCT013 29/28 A3004=
KMDW 081351Z 23003KT 6SM BR FEW007 BKN023 OVC030 24/22 A3003 RMK
     AO2 RAE1256 SLP159 P0000 T02390217=
KONM 081347Z AUTO 32006KT 10SM BKN080 19/15 A3027 RMK AO2
     T01930147=
KORD 081351Z 25004KT 6SM -RA BR FEW014 SCT026 OVC040 24/22 A3003
     RMK AO2 RAB31 SLP165 P0000 T02390222=
KPHX 081351Z 05004KT 10SM SCT140 33/01 A2981 RMK AO2 SLP071
     T03280011 $=
KRDU 081351Z 36004KT 6SM HZ SCT080 BKN250 31/19 A2999 RMK AO2
     SLP150 T03110194=
KROW 081351Z 02006KT 10SM -RA OVC038 20/17 A3022 RMK AO2 RAB22
     SLP174 P0000 T02000167=
KTIX 081347Z 02007KT 7SM FEW025 27/19 A3001=
KTZR 081350Z 00000KT 7SM SKC 29/21 A3008=
KWDG 081307Z 35007KT 7SM SCT008 SCT060 BKN080 25/22 A3008=
PALP 081352Z 25013KT 10SM FEW100 SCT240 09/04 A3004=
PAPT 081345Z 00000KT 25SM SCT060 SCT200 08/08 A3000 RMK SHRA DST
     E-S NOSPECI=
####018000624####
SPUS99 KWBC 081353
SPECI
KFLD 081350Z AUTO 30006KT 10SM BKN015 24/21 A3002 RMK AO2=
KFYV 081350Z 19006KT 10SM SCT028 BKN034 OVC045 24/22 A3009 RMK
     AO2=
KLXT 081350Z AUTO 04006KT 10SM OVC008 23/21 A3011 RMK AO2 CIG
     007V011=
KMIA 081350Z 08009KT 10SM BKN022TCU BKN130 BKN300 30/24 A2997 RMK
     AO2 TCU N-OHD-SE-S=
KPYM 081350Z AUTO VRB06KT 9SM SCT024 SCT031 27/19 A3010 RMK
     AO2=
KTAN 081350Z AUTO 13008KT 10SM BKN020 27/21 A3008 RMK AO2=
KBTR 081346Z 08005KT 10SM OVC005 26/24 A3004 RMK AO2=
KTVC 081351Z 00000KT 7SM SCT006 BKN011 OVC030 23/22 A2999 RMK AO2
     RAB01E51 P0001=
####018000128####
SALV32 EVRA 081350
METAR EVLA 081350Z AUTO VRB05KT 9999 NCD 22/15 Q1019=
METAR EVVA 081350Z AUTO 32010KT CAVOK 21/17 Q1018=
####018000175####
SAFA31 EKCH 081350
METAR EKVG 081352Z 20010KT 170V240 9999 -SHRA SCT006 BKN010
BKN014 11/09 Q0995 RMK/RWY 13/31 CLOSED DUE WIP. SEE NOTAM E0050/10
WIND 850FT VRB05G24KT=
####018000320####
SASW39 LSSW 081350
METAR LSMA 081350Z 04008KT 010V080 CAVOK 29/15 Q1021 RMK BLU=
METAR LSMD 081350Z NIL=
METAR LSME 081350Z VRB02KT CAVOK 30/14 Q1021 RMK BLU=
METAR LSMM 081350Z 25007KT 220V300 CAVOK 29/14 Q1021 RMK BLU=
METAR LSMP 081350Z NIL=
METAR LSMS 081350Z 24013KT 210V280 9999 FEW120 SCT250 31/13 Q1019=
####018000164####
SAVN24 SVMG 081400

METAR SVMG 081400Z 07012KT 9999 SCT010 SCT080 30/25 Q1013 NOSIG=
METAR SVCU 081400Z NIL=
METAR SVCP 081400Z NIL=
METAR SVGI 081400Z NIL=
####018000109####
SPCS31 MROC 081347
SPECI
MROC 081347Z 23004KT 9999 3000SW BR BKN120 21/21 A3005
     TEMPO 4000 -RA BR=
####018000127####
SAPR01 SPIM 081400
METAR
SPIM 081400Z 19003KT 7000 FEW011 OVC022 17/13 Q1015 NOSIG 
         RMK BIRD HAZARD RWY15 PP000=
####018000237####
SASW31 LSSW 081350
METAR LSZH 081350Z VRB03KT CAVOK 29/12 Q1021 NOSIG=
METAR LSGG 081350Z 25006KT 210V330 9999 FEW060 BKN250 32/11 Q1021
    NOSIG=
METAR LSZB 081350Z NIL=
METAR LSZA 081350Z 19008KT 9999 FEW055 29/17 Q1021 NOSIG=
####018000130####
SPCS31 MROC 081347
SPECI
MROC 081347Z 23004KT 9999 3000SW BR BKN120 21/21 A3005
     TEMPO 4000 -RA BR=










####018000127####
SAYE20 OYAA 081400
METAR OYAA 081400Z 22006KT 6000 NSC 35/19 Q1000=
METAR OYSQ 081400Z 23035G45KT 9999 FEW018 31/23 Q1005=
####018000082####
SAPM31 MPTO 081400
METAR
MPTO 081400Z 00000KT 9999 BKN018 28/24 Q1012 NOSIG=
####018000115####
SAUS41 KGYX 081352
MTRCON
METAR KCON 081351Z AUTO 15008KT 7SM BKN016 27/21 A3008 RMK AO2 
SLP185 T02720211
####018000107####
SPUS31 KWBC 081353
SPECI
KIAH 081339Z COR 08006KT 5SM -TSRA BR SCT004 BKN025CB OVC070 24/24
A2998=
####018001009####
SAMX45 MMMY 081400
METAR MMMY 081341Z 31009KT 15SM  FEW030 SCT070 26/22 A2989 RMK 8/570=
METAR MMAN 081345Z 30008KT 15SM  SCT040 SCT080 28/24 A2992 RMK 8/570=
METAR MMMA 081344Z 33007KT 5SM  FEW008 SCT015 BKN065 BKN200 26/25 
      A2980 RMK 8/859 HZ DZ INTMNT VRB COND=
METAR MMIO 081340Z 36005KT 6SM BKN010 OVC020 19/18 A3013 RMK
      8/5// OCNL DROPS=
METAR MMRX 081345Z 33008KT 6SM  BKN008 OVC015 27/25 A2983 
      RMK 8/8// -RA OCNL HZ=
METAR MMNL 081343Z 02006KT 6SM  SCT007 SCT020 BKN100 27/24 A2989 
      RMK 8/570 DZ INTMT=
METAR MMCV 081346Z 25010KT 12SM  BKN040 BKN090 25/24 A2988 RMK 8/570=
METAR MMTC 081345Z 27006KT 10SM BKN030 22/18 A3005
      RMK 8/500=
METAR MMMV 081340Z 25005KT 8SM HZ BKN050 23/18 A2998 RMK 8/200 =
METAR MMCU 081345Z 06008KT 10SM BKN030 BKN100 23/12 A3014 RMK 8/570 CUPOTS/W=
METAR MMPG 081340 03005KT 10SM SCT020 SCT200 28/23 A3000
      RMK 8/102=
METAR MMCS 081340Z 09008KT 10SM FEW030 SCT080 23/17 A3013
      RMK 8/570 HZY=
####018000121####
SAKA31 PTKR 081400
METAR PTKR 081351Z 09006KT 14SM SCT016CB OVC300 27/24 A2989 RMK CB
ALQDS MOV W SLP121 T02720240=
####018000074####
SAGI32 EGRR 081350
METAR LXGB 081350Z 09008KT CAVOK 27/16 Q1016 NOSIG=
####018000152####
SAUS41 KOKX 081352
MTRNYC
METAR KNYC 081351Z AUTO VRB04KT 5SM -RA FEW013 BKN018 OVC033 26/23 
A3008 RMK AO2 RAB24 SLP175 P0000 T02560228 TSNO $
####018000118####
SAUS45 KTWC 081352
MTRSAD
METAR KSAD 081351Z AUTO 15007KT 10SM CLR 25/13 A3005 RMK AO2 SLP124 
T02500128 TSNO
####018000171####
SAUS44 KCRP 081352
MTRCRP
METAR KCRP 081351Z 03006KT 10SM SCT022CB SCT040 BKN060 27/25 A2985 
RMK AO2 RAE31 SLP106 CB DSNT E TCU DSNT NE SE S SW P0001 T02670250 $
####018000110####
SAUS41 KPHI 081352
MTRABE
METAR KABE 081351Z 07005KT 6SM HZ CLR 29/22 A3004 RMK AO2 SLP169 
T02890217
####018000140####
SAUS44 KSJT 081352
MTRJCT
METAR KJCT 081351Z AUTO 07004KT 10SM BKN008 OVC022 24/22 A3004 RMK 
AO2 CIG 007V011 SLP134 T02440222 TSNO
####018000549####
SAUS20 KNKA 081352
METAR KSPS 081352Z 00000KT 10SM CLR 26/22 A3005 RMK AO2 SLP161 
    T02560222=
METAR KSTL 081351Z 33003KT 10SM -RA FEW009 SCT025TCU BKN075 BKN250 
    26/24 A3006 RMK AO2 RAB15E22B46 SLP167 TCU N-E P0000 T02610239=
METAR KTEB 081351Z 12006KT 3SM HZ FEW019 OVC025 27/22 A3004 RMK AO2 
    DZB16E39 SLP171 P0000 T02720222=
METAR KVNY 081351Z 18003KT 2 1/2SM BR OVC008 15/13 A2991 RMK AO2 
    SLP122 T01500133=
METAR KYNG 081351Z 14004KT 8SM FEW065 28/18 A3009 RMK AO2 PK WND 
    10059/1322 SLP179 T02830183=
####018002987####
SAUS20 KNKA 081352
METAR KACT 081351Z 06006KT 8SM BKN010 BKN018 OVC060 26/24 A3003 RMK 
    AO2 RAB40E50 SLP160 P0000 T02610239=
METAR KAEG 081350Z 12016KT 10SM SCT150 18/08 A3032=
METAR KALB 081351Z 00000KT 6SM HZ FEW090 29/21 A3004 RMK AO2 SLP169 
    T02890211=
METAR KASH 081351Z VRB05KT 9SM BKN020 BKN045 27/22 A3009 RMK AO2 
    T02720216 SLP190=
METAR KAVX 081351Z AUTO 27005KT M1/4SM FG VV001 12/12 A2994 RMK AO2 
    SLP132 T01170117 TSNO=
METAR KBDL 081351Z 16005KT 4SM HZ BKN012 OVC019 26/22 A3007 RMK AO2 
    SLP181 T02610222=
METAR KBKW 081351Z AUTO 03004KT 6SM HZ CLR 26/18 A3018 RMK AO2 
    SLP176 T02610178 VISNO RWY19 $=
METAR KBVI 081347Z 00000KT 5SM HZ FEW060 28/22 A3012=
METAR KCAK 081351Z 24004KT 10SM CLR 28/18 A3009 RMK AO2 SLP177 
    T02830178=
METAR KCLE 081351Z 19004KT 10SM FEW060 SCT100 29/19 A3007 RMK AO2 
    SLP175 T02940194 $=
METAR KCMH 081351Z 00000KT 6SM HZ CLR 28/21 A3007 RMK AO2 SLP176 
    T02830206=
METAR KCSG 081351Z 00000KT 10SM CLR 30/21 A3004 RMK AO2 SLP166 
    T03000206=
METAR KDAW 081351Z AUTO 00000KT 5SM HZ BKN011 26/21 A3009 RMK AO2 
    SLP183 T02610211=
SPECI KDMO 081351Z AUTO 00000KT 10SM BKN005 OVC014 25/22 A3009 RMK 
    AO2 CIG 003V009=
METAR KERI 081351Z 18005KT 9SM CLR 30/19 A3005 RMK AO2 SLP169 
    T03000194=
METAR KEWR 081351Z 20008KT 8SM SCT008 BKN013 OVC025 27/24 A3005 RMK 
    AO2 SLP175 SCT V BKN HAZE ALOFT T02670239=
METAR KHSA 081351Z 08004KT 10SM CLR 27/25 A3004=
METAR KHTS 081351Z 00000KT 6SM HZ CLR 28/21 A3009 RMK AO2 SLP180 
    T02830206=
METAR KHXD 081350Z 24008KT 10SM SKC 29/21 A3000=
METAR KILG 081351Z 14004KT 2SM HZ BKN011 BKN016 27/23 A3005 RMK AO2 
    SFC VIS 5 SLP173 T02720228=
METAR KJFK 081351Z 15006KT 8SM SCT020 BKN065 BKN130 BKN250 27/22 
    A3006 RMK AO2 RAB21E41 SLP178 P0000 T02720222=
METAR KLGA 081351Z 18006KT 6SM -RA BKN014 BKN032 OVC049 27/23 A3004 
    RMK AO2 RAB17 SLP174 P0000 T02720228=
METAR KLGU 081351Z AUTO 00000KT 10SM CLR 16/06 A3018 RMK AO2 SLP173 
    T01560061=
METAR KMHV 081350Z 00000KT 40SM SKC 21/04 A2993 RMK: FIRST=
METAR KMPV 081351Z AUTO 17007KT 6SM HZ CLR 29/23 A3011 RMK AO2 
    SLP187 T02890228=
METAR KMYL 081351Z AUTO 00000KT 10SM CLR 10/05 A3022 RMK AO2 SLP196 
    T01000050=
METAR KOKC 081352Z 33004KT 10SM BKN007 BKN200 26/23 A3007 RMK AO2 
    SLP167 T02560228=
METAR KOMN 081350Z 31005KT 10SM SKC 27/21 A3002 =
METAR KOXR 081351Z 28005KT 9SM OVC009 14/13 A2991 RMK AO2 SLP129 
    T01440128 $=
METAR KPIT 081351Z 00000KT 7SM FEW055 28/18 A3009 RMK AO2 SLP186 
    T02780178=
METAR KPWM 081351Z 20005KT 10SM BKN014 BKN028 24/20 A3010 RMK AO2 
    SLP192 T02390200 $=
METAR KSJT 081351Z 08006KT 6SM BR OVC004 23/22 A3007 RMK AO2 SLP159 
    T02280217=
METAR KSLK 081351Z AUTO 21003KT 10SM CLR 28/21 A3008 RMK AO2 SLP175 
    T02830206=
METAR KSMO 081351Z 00000KT 7SM OVC009 16/13 A2992 RMK AO2 SLP130 
    T01560128=
####018000077####
SPUS52 KWBC 081353
SPECI
KLFT 081350Z 09004KT 10SM OVC006 27/24 A3004=
####018000115####
SAUS43 KDTX 081353
MTRP58
METAR KP58 081351Z AUTO 26003KT 26/23 A2999 RMK AO2 SLP147 T02610233 
PWINO TSNO
####018000121####
SAUS42 KMHX 081353
MTRHSE
METAR KHSE 081351Z AUTO 07011G15KT 10SM CLR 28/23 A2994 RMK AO2 
SLP138 T02780233 TSNO
####018000115####
SAUS43 KMQT 081353
MTRP59
METAR KP59 081351Z AUTO 36006KT 20/17 A2999 RMK AO2 SLP151 T02000167 
PWINO TSNO
####018000139####
SAUS41 KAKQ 081353
MTRORF
METAR KORF 081351Z 07009KT 10SM FEW015 SCT080 BKN100 27/22 A2999 RMK 
AO2 RAE1257 SLP155 P0000 T02720217
####018000086####
SAMP31 LMMM 081400 RRA
METAR HLLT 081350Z
36011KT 330V040 8000 SKC  31/18 Q1018=
####018000087####
SAMP31 LMMM 081400 RRA
METAR HLLT 081350Z 
36011KT 330V040 8000 SKC  31/18 Q1018=
####018000107####
SPUS72 KWBC 081353
SPECI
KIAH 081339Z COR 08006KT 5SM -TSRA BR SCT004 BKN025CB OVC070 24/24
A2998=
####018000077####
SPUS72 KWBC 081353
SPECI
KLFT 081350Z 09004KT 10SM OVC006 27/24 A3004=
####018000099####
SPAU31 AMMC 081353
SPECI YPPD 081353Z AUTO 02004KT 7000NDV // BKN029 OVC033 22/21 Q1010=


####018000130####
SALV32 EVRA 081350
METAR EVLA 081350Z AUTO VRB05KT 9999 NCD 22/15 Q1019=
METAR EVVA 081350Z AUTO 32010KT CAVOK 21/17 Q1018=
####018000178####
SAFA31 EKCH 081350
METAR EKVG 081352Z 20010KT 170V240 9999 -SHRA SCT006 BKN010
BKN014 11/09 Q0995 RMK/RWY 13/31 CLOSED DUE WIP. SEE NOTAM E0050/10
WIND 850FT VRB05G24KT=
####018000093####
SPAU31 AMMC 081353
SPECI YPPD 081353Z AUTO 02004KT 7000NDV // BKN029 OVC033 22/21 Q1010=
####018000326####
SASW39 LSSW 081350
METAR LSMA 081350Z 04008KT 010V080 CAVOK 29/15 Q1021 RMK BLU=
METAR LSMD 081350Z NIL=
METAR LSME 081350Z VRB02KT CAVOK 30/14 Q1021 RMK BLU=
METAR LSMM 081350Z 25007KT 220V300 CAVOK 29/14 Q1021 RMK BLU=
METAR LSMP 081350Z NIL=
METAR LSMS 081350Z 24013KT 210V280 9999 FEW120 SCT250 31/13 Q1019=
####018000098####
SAEU31 BKPR 081400
METAR BKPR 081400Z 34011KT 9999 SCT030 BKN060 17/10 Q1021 NOSIG RMK
BLU=
####018000129####
SAYE20 OYAA 081400
METAR OYAA 081400Z 22006KT 6000 NSC 35/19 Q1000=
METAR OYSQ 081400Z 23035G45KT 9999 FEW018 31/23 Q1005=
####018000242####
SASW31 LSSW 081350
METAR LSZH 081350Z VRB03KT CAVOK 29/12 Q1021 NOSIG=
METAR LSGG 081350Z 25006KT 210V330 9999 FEW060 BKN250 32/11 Q1021
    NOSIG=
METAR LSZB 081350Z NIL=
METAR LSZA 081350Z 19008KT 9999 FEW055 29/17 Q1021 NOSIG=
####018000078####
SPCN44 CWAO 081352
SPECI CYUS 081352Z AUTO ///// 9SM FEW090 14/ A2979=

####018002940####
SAUS20 KNKA 081353
METAR K4O4 081348Z AUTO 15005KT 10SM SCT001 SCT008 26/23 A3008 
     RMK AO2=
METAR KADH 081350Z AUTO 28003KT 10SM SCT005 BKN008 OVC026 23/22 
     A3006 RMK AO2=
METAR KALM 081350Z AUTO 16006KT 10SM CLR 21/14 A3017 RMK AO2=
METAR KARR 081352Z 25004KT 4SM BR BKN006 OVC016 23/22 A3004 RMK AO2 
    RAB1257E45 SLP166 P0000 T02330222 $=
METAR KATL 081352Z 34005KT 10SM CLR 30/20 A3006 RMK AO2 SLP167 
    T03000200=
METAR KATS 081350Z AUTO 35009KT 10SM FEW017 SCT025 BKN035 19/18 
     A3020 RMK AO2=
METAR KAXS 081350Z AUTO 32005KT 5SM RA SCT023 BKN038 OVC047 23/22 
     A3011 RMK AO2 P0002 T02310219=
METAR KAXX 081350Z AUTO 00000KT 10SM CLR 08/06 A3050 RMK AO2=
METAR KBIS 081352Z 31005KT 10SM CLR 19/11 A3016 RMK AO2 SLP207 
    T01890111=
METAR KBLH 081352Z AUTO 02003KT 10SM CLR 28/M01 A2976 RMK AO2 SLP069 
    T02831006=
METAR KBVS 081350Z AUTO 03005KT 8SM CLR 19/12 A2999 RMK A01 P000=
METAR KCFV 081352Z AUTO 09005KT 10SM BKN110 24/22 A3007 RMK AO2 
    SLP176 T02440222=
METAR KCHK 081351Z AUTO 05007KT 4SM BR OVC002 23/23 A3007 RMK AO2=
METAR KCID 081352Z 34007KT 6SM BR SCT005 22/20 A3007 RMK AO2 SLP178 
    T02220200=
METAR KCKV 081352Z AUTO 29003KT 10SM CLR 30/22 A3008 RMK AO2 SLP180 
    T03000217=
METAR KCLK 081353Z AUTO 02008KT 10SM BKN007 OVC060 23/20 A3011 
     RMK AO2=
METAR KCLT 081352Z 02007KT 6SM HZ CLR 31/19 A3003 RMK AO2 SLP157 
    T03060194=
METAR KCNU 081352Z AUTO 00000KT 4SM BR OVC003 23/22 A3009 RMK AO2 
    CIG 002V005 SLP182 T02330217=
METAR KCUH 081350Z AUTO 00000KT 10SM OVC003 25/23 A3007 RMK AO2=
SPECI KCWF 081350Z 08005KT 7SM OVC005 26/26 A3002=
METAR KDCA 081352Z 00000KT 5SM HZ SCT100 SCT250 31/22 A3001 RMK AO2 
    SLP163 T03060217=
METAR KDDC 081352Z AUTO 01011KT 7SM OVC005 19/17 A3020 RMK AO2 
    SLP205 T01890172=
METAR KDPA 081352Z 25004KT 6SM BR FEW009 OVC046 24/22 A3003 RMK AO2 
    RAB03E23 SLP164 P0002 T02390222=
METAR KDUA 081357Z AUTO 17009KT 10SM BKN008 OVC027 26/24 A3006 
     RMK AO2=
METAR KDVN 081352Z AUTO 32007KT 10SM BKN007 24/21 A3006 RMK AO2 CIG 
    006V010 SLP173 T02390211=
METAR KEST 081352Z AUTO 32005KT 10SM CLR 21/16 A3017 RMK AO2 SLP213 
    T02060156=
METAR KFET 081350Z AUTO 36003KT 10SM CLR 21/17 A3018 RMK AO2=
METAR KGCD 081350Z AUTO 12008KT 10SM CLR 16/03 A3013 RMK AO2 
     T01560025=
METAR KGCM 081355Z AUTO 06003KT 10SM OVC003 24/24 A3009 RMK AO2=
METAR KGLS 081352Z 11014G21KT 10SM FEW017 BKN100 27/24 A2995 RMK AO2 
    RAE03 SLP141 P0000 T02670244=
METAR KGMJ 081354Z AUTO 00000KT OVC012 26/25 A3007 RMK AO2 P0006 
     PWINO=
METAR KHRL 081352Z 35010KT 10SM FEW008 SCT012 BKN021 26/26 A2979 RMK 
    AO2 RAB28E38 SLP086 P0000 T02610261=
METAR KHUT 081352Z 02010KT 3SM BR OVC004 22/21 A3015 RMK AO2 SLP190 
    T02170206=
METAR KIAD 081352Z 00000KT 6SM HZ CLR 31/23 A3002 RMK AO2 SLP161 
    T03110228=
####018002981####
SAUS20 KNKA 081353
METAR KIDP 081350Z AUTO 09004KT 10SM SCT008 23/22 A3007 RMK AO2=
METAR KIOW 081352Z AUTO 33005KT 10SM CLR 24/21 A3008 RMK AO2 SLP179 
    T02440206=
METAR KISN 081352Z 00000KT 10SM CLR 18/11 A3016 RMK AO2 SLP207 
    T01780111=
METAR KIZA 081349Z AUTO 00000KT 10SM OVC007 13/11 A2993 RMK AO2=
METAR KJSV 081350Z AUTO 00000KT 10SM SCT034 BKN045 BKN055 25/23 
     A3007 RMK AO2=
METAR KLAL 081352Z 00000KT 15SM SCT018 29/21 A3002=
METAR KLAM 081350Z AUTO 00000KT 10SM CLR 15/08 A3041 RMK AO2=
METAR KLRU 081351Z AUTO 02008KT 10SM CLR 23/13 A3019 RMK AO2=
METAR KLWC 081352Z AUTO 02006KT 8SM OVC006 24/22 A3011 RMK AO2 
    SLP189 T02390222=
METAR KMDH 081352Z 24005KT 10SM SCT070 BKN090 OVC250 28/23 A3006 RMK 
    AO2 SLP175 T02830233=
METAR KMEB 081352Z AUTO 05006KT 7SM CLR 31/21 A2998 RMK AO2 SLP147 
    T03060211=
METAR KMHK 081352Z 03009KT 7SM OVC008 22/20 A3013 RMK AO2 SLP194 
    T02170200=
METAR KMHR 081346Z 14006KT 10SM FEW150 12/10 A2987=
METAR KMKE 081352Z 27009KT 10SM FEW011 BKN019 BKN080 OVC200 24/21 
    A3002 RMK AO2 SLP160 T02390206=
METAR KMLI 081352Z 36003KT 10SM BKN011 24/22 A3005 RMK AO2 CIG 
    009V014 SLP172 T02440217=
METAR KMWH 081352Z 03006KT 10SM CLR 19/07 A3003 RMK AO2 SLP162 
    T01890072=
METAR KOJA 081350Z AUTO 06006KT 7SM SCT007 23/22 A3011 RMK AO2=
METAR KOKB 081352Z AUTO 33004KT 8SM OVC015 17/14 A2991 RMK AO2 
    SLP127 T01720139=
METAR KOKM 081351Z AUTO 00000KT 10SM OVC007 25/25 A3006 RMK AO1=
METAR KOMA 081352Z 01007KT 10SM FEW022 BKN250 21/18 A3016 RMK AO2 
    SLP205 T02110183=
METAR KONP 081350Z AUTO 00000KT 3/4SM BR OVC002 11/10 A3000 RMK 
     AO1=
METAR KORS 081350Z AUTO 00000KT 10SM CLR 18/16 A2997 RMK AO2=
METAR KOUN 081352Z AUTO 01005KT 10SM SCT009 SCT032 SCT075 27/23 
     A3008 RMK AO2=
METAR KPLU 081350Z AUTO 00000KT 10SM CLR 13/13 A2995 RMK AO2=
METAR KPPF 081352Z AUTO 00000KT 10SM CLR 25/22 A3008 RMK AO2 SLP177 
    T02500222=
METAR KPTS 081350Z AUTO 14006KT 5SM RA BKN015 OVC022 23/23 A3006 
     RMK AO2 P0014 T02270228=
METAR KPVJ 081348Z AUTO 00000KT 10SM SCT007 SCT038 26/24 A3006 
     RMK AO2=
METAR KPWK 081352Z 22004KT 9SM SCT009 BKN014 OVC055 24/22 A3004 RMK 
    AO2 RAB1254E07 SLP167 P0000 T02440222=
METAR KRKR 081352Z AUTO 19004KT 10SM SCT090 29/26 A3006 RMK AO2=
METAR KSGF 081352Z 00000KT 10SM FEW009 BKN014 OVC047 24/22 A3009 RMK 
    AO2 SLP175 T02440222=
METAR KSNL 081352Z AUTO 35003KT 10SM OVC005 25/24 A3008 RMK AO2=
METAR KSPI 081352Z VRB03KT 10SM FEW010 SCT014 BKN027 26/23 A3006 RMK 
    AO2 SLP173 T02610233=
METAR KSRE 081350Z AUTO 00000KT 7SM CLR 25/24 A3006 RMK AO2=
METAR KSUX 081352Z 33004KT 10SM CLR 21/17 A3018 RMK AO2 SLP213 
    T02110167=
METAR KSVC 081350Z AUTO 11004KT 10SM OVC100 19/14 A3024 RMK AO2=
METAR KTMK 081353Z AUTO 00000KT 3SM BR OVC004 12/12 A2998 RMK AO2=
METAR KTQH 081355Z AUTO 00000KT 7SM OVC008 23/23 A3008 RMK AO2=
####018000477####
SAUS20 KNKA 081353
METAR KTRK 081350Z 00000KT 10SM SCT050 BKN100 07/06 A3017 RMK NO
    SPECI FIRST 24HR MAX 0283 MIN 0072=
METAR KTRM 081352Z AUTO 32003KT 10SM CLR 23/14 A2973 RMK AO2 SLP078 
    T02330139=
METAR KUGN 081352Z VRB04KT 10SM BKN012 24/22 A3002 RMK AO2 SLP154 
    T02440217=
METAR KVTN 081352Z AUTO 26003KT 10SM CLR 19/13 A3026 RMK AO2 SLP235 
    T01940133=
METAR KWWR 081349Z AUTO 01008KT 10SM OVC005 22/21 A3018 RMK AO2 
     T02170205=
####018000124####
SAFK41 EGYP 081350
METAR EGYP 081350Z 01030G41KT 2500 -DZ SCT007 OVC018 05/04 Q0990
 YLO1 TEMPO 4000 RADZ SCT007 GRN=
####018000226####
SAXN17 KAWN 081300 RRL
METAR MMIO 081340Z 36005KT 6SM BKN010 OVC020 19/18 A3013 RMK 8/5//
      OCNL DROPS=
METAR TXKF 081255Z 17020KT 6000 -SHRA FEW009 SCT015TCU BKN050 BKN300
      23/22 Q1020 RMK TCU N / DSNT SW=
####018000091####
SAEU KAWN 081300 RRX
METAR LQSA 081300Z 30008KT 260V350 9999 SCT060 22/11 Q1023 NOSIG=
####018000920####
SAZZ40 KAWN 081400
METAR KBLV 081355Z AUTO 26004KT 10SM CLR 27/24 A3005 RMK AO2 CIG 075
      RWY32L SLP174 T02670242=
METAR LLBG 081350Z 29009KT 9999 FEW030 29/20 Q1009 NOSIG=
METAR LLET 081350Z 03016G26KT CAVOK 41/10 Q1004=
METAR LLOV 081350Z 04008KT CAVOK 37/10 Q1008=
METAR LPLA 081400Z 00000KT 9999 SCT013 BKN028 21/19 Q1024=
METAR MPTO 081400Z 00000KT 9999 BKN018 28/24 Q1012 NOSIG=
METAR MSLP 081350Z 00000KT 9999 FEW020 BKN300 27/24 Q1011 A2988 DSTN
      CB TO S FEW110=
METAR MSSS 081350Z 00000KT 9999 FEW020 BKN300 22/21 Q1015 A3000=
METAR NSTU 081350Z 10012KT 10SM SCT016 BKN040 28/26 A2987 RMK SHRAB24E48
      SLP115 T02770262=
METAR OAFZ 081350Z AUTO 35004KT ////// 36/01 Q1013=
METAR OAKB 081350Z 35018KT 9999 FEW070 32/M02 Q1013 NOSIG RMK BLU BLU=
METAR OAMS 081350Z 34006KT 9999 SKC 41/M01 Q1005 BLU/BLU/=
METAR OKBK 081400Z 34017KT 6000 -BLDU SKC 47/M03 Q0998 NOSIG=
####018000415####
SADL32 EDZO 081350
METAR EDDB 081350Z 19005KT CAVOK 28/05 Q1020 NOSIG=
METAR EDDC 081350Z VRB03KT CAVOK 26/08 Q1021 NOSIG=
METAR EDDE 081350Z VRB02KT CAVOK 28/09 Q1021 NOSIG=
METAR EDDG 081350Z 24008KT CAVOK 31/10 Q1019 NOSIG=
METAR EDDP 081350Z VRB03KT CAVOK 28/11 Q1020 NOSIG=
METAR EDDR 081350Z 18004KT 160V220 CAVOK 30/11 Q1020 NOSIG=
METAR EDDW 081350Z 26010KT 210V280 CAVOK 31/08 Q1018 NOSIG=
####018000542####
SADL31 EDZO 081350
METAR EDDF 081350Z 18006KT 130V220 CAVOK 31/11 Q1019 NOSIG=
METAR EDDH 081350Z 26009KT CAVOK 29/10 Q1018 NOSIG=
METAR EDDK 081350Z 17003G13KT CAVOK 32/09 Q1018 NOSIG=
METAR EDDL 081350Z 23004KT 210V310 CAVOK 31/07 Q1018 NOSIG=
METAR EDDM 081350Z 04004KT 010V110 CAVOK 25/08 Q1022 NOSIG=
METAR EDDN 081350Z VRB02KT CAVOK 28/07 Q1021 NOSIG=
METAR EDDS 081350Z VRB03KT CAVOK 29/08 Q1021 NOSIG=
METAR EDDT 081350Z 14002KT CAVOK 29/07 Q1020 NOSIG=
METAR EDDV 081350Z 19007KT 170V230 CAVOK 30/10 Q1019 NOSIG=
####018000084####
SASV40 FDMS 081400
METAR FDMS 081400Z 00000KT 9999 SCT035 19/12 Q1029 NOSIG=

####018000564####
SAIN31 VABB 081340
METAR VABB 081340Z 18009KT 3100 HZ SCT012 SCT018 FEW025TCU BKN100
     28/25 Q1007 TEMPO 1500 SHRA=
METAR VANP 081340Z 20007KT 3000 HZ FEW012 SCT015 FEW025CB(N,SE,OH)
    BKN080 27/26 Q1005 TEMPO 1500 IN RA/TSRA=
METAR VOHS 081340Z 25006KT 5000 HZ SCT020 BKN100 25/23 Q1011 NOSIG=
METAR VOHY 081340Z 27006KT 5000 HZ SCT010 SCT015 BKN080 25/19 Q1011
    NOSIG=
METAR VOMM 081340Z 14006KT 4000 HZ SCT015 SCT100 OVC200 28/26 Q1009
     NOSIG=
METAR VOTV 081340Z 33006KT 5000 HZ FEW015 FEW025CB BKN200 27/24
    Q1010 NOSIG=
####018000086####
SPBU40 LBSM 081353
SPECI LBPD 081353Z 26004MPS 9999 -RA OVC040 17/15 Q1017 NOSIG=
####018000118####
SAUS45 KSLC 081353
MTRMLF
METAR KMLF 081352Z AUTO 00000KT 10SM CLR 13/04 A3015 RMK AO2 SLP151 
T01330044 TSNO
####018000110####
SAAK41 KNKA 081353
METAR PAJV 081350Z 21004KT 10SM SCT040 BKN080 OVC110 10/07 A2996 RMK 
     NOSPECI =
####018000137####
SAUS44 KMAF 081353
MTRNFW
METAR KNFW 081352Z 12008KT 10SM SCT012 BKN024 OVC040 27/22 A3008 RMK 
AO2 SLP168 RAE20 P0000 T02670222
####018000084####
SAIN90 VECC 081350
METAR VECC 081350Z 20007KT 4000 HZ SCT018 31/23 Q1004 NOSIG=
####018001605####
SAUS90 KWBC 081400
METAR KSAN 081351Z 31003KT 10SM OVC013 16/14 A2993 RMK AO2 SLP135
     T01610139=
METAR KGDP 081351Z AUTO 06020KT 1 3/4SM BR SCT002 BKN006 17/17
     A3026 RMK AO2 SLP177 T01670167 TSNO=
METAR KVCT 081351Z 05008KT 1SM +RA BR BKN018 BKN022 OVC026 25/24
     A2992 RMK AO2 RAB37 SLP132 P0002 T02500244 $=
METAR KATT 081351Z AUTO VRB03KT 5SM -RA BR FEW010 BKN017 OVC060
     26/24 A3000 RMK AO2 RAB42 SLP145 P0001 T02560239=
METAR KCON 081351Z AUTO 15008KT 7SM BKN016 27/21 A3008 RMK AO2
     SLP185 T02720211=
METAR KNYC 081351Z AUTO VRB04KT 5SM -RA FEW013 BKN018 OVC033 26/23
     A3008 RMK AO2 RAB24 SLP175 P0000 T02560228 TSNO $=
METAR KJCT 081351Z AUTO 07004KT 10SM BKN008 OVC022 24/22 A3004 RMK
     AO2 CIG 007V011 SLP134 T02440222 TSNO=
METAR KCRP 081351Z 03006KT 10SM SCT022CB SCT040 BKN060 27/25 A2985
     RMK AO2 RAE31 SLP106 CB DSNT E TCU DSNT NE SE S SW P0001
     T02670250 $=
METAR KSAD 081351Z AUTO 15007KT 10SM CLR 25/13 A3005 RMK AO2
     SLP124 T02500128 TSNO=
METAR KABE 081351Z 07005KT 6SM HZ CLR 29/22 A3004 RMK AO2 SLP169
     T02890217=
METAR KORF 081351Z 07009KT 10SM FEW015 SCT080 BKN100 27/22 A2999
     RMK AO2 RAE1257 SLP155 P0000 T02720217=
METAR KHSE 081351Z AUTO 07011G15KT 10SM CLR 28/23 A2994 RMK AO2
     SLP138 T02780233 TSNO=
METAR KP59 081351Z AUTO 36006KT 20/17 A2999 RMK AO2 SLP151
     T02000167 PWINO TSNO=
METAR KP58 081351Z AUTO 26003KT 26/23 A2999 RMK AO2 SLP147
     T02610233 PWINO TSNO=
METAR KMLF 081352Z AUTO 00000KT 10SM CLR 13/04 A3015 RMK AO2
     SLP151 T01330044 TSNO=
####018003720####
SAUS99 KWBC 081354 RRA
METAR
KLWC 081352Z AUTO 02006KT 8SM OVC006 24/22 A3011 RMK AO2 SLP189
     T02390222=
KMDH 081352Z 24005KT 10SM SCT070 BKN090 OVC250 28/23 A3006 RMK AO2
     SLP175 T02830233=
KMEB 081352Z AUTO 05006KT 7SM CLR 31/21 A2998 RMK AO2 SLP147
     T03060211=
KMHK 081352Z 03009KT 7SM OVC008 22/20 A3013 RMK AO2 SLP194
     T02170200=
KMHR 081346Z 14006KT 10SM FEW150 12/10 A2987=
KMKE 081352Z 27009KT 10SM FEW011 BKN019 BKN080 OVC200 24/21 A3002
     RMK AO2 SLP160 T02390206=
KMLI 081352Z 36003KT 10SM BKN011 24/22 A3005 RMK AO2 CIG 009V014
     SLP172 T02440217=
KMWH 081352Z 03006KT 10SM CLR 19/07 A3003 RMK AO2 SLP162
     T01890072=
KOJA 081350Z AUTO 06006KT 7SM SCT007 23/22 A3011 RMK AO2=
KOKB 081352Z AUTO 33004KT 8SM OVC015 17/14 A2991 RMK AO2 SLP127
     T01720139=
KOKM 081351Z AUTO 00000KT 10SM OVC007 25/25 A3006 RMK AO1=
KOMA 081352Z 01007KT 10SM FEW022 BKN250 21/18 A3016 RMK AO2 SLP205
     T02110183=
KONP 081350Z AUTO 00000KT 3/4SM BR OVC002 11/10 A3000 RMK AO1=
KORS 081350Z AUTO 00000KT 10SM CLR 18/16 A2997 RMK AO2=
KOUN 081352Z AUTO 01005KT 10SM SCT009 SCT032 SCT075 27/23 A3008
     RMK AO2=
KPLU 081350Z AUTO 00000KT 10SM CLR 13/13 A2995 RMK AO2=
KPPF 081352Z AUTO 00000KT 10SM CLR 25/22 A3008 RMK AO2 SLP177
     T02500222=
KPTS 081350Z AUTO 14006KT 5SM RA BKN015 OVC022 23/23 A3006 RMK AO2
     P0014 T02270228=
KPVJ 081348Z AUTO 00000KT 10SM SCT007 SCT038 26/24 A3006 RMK
     AO2=
KPWK 081352Z 22004KT 9SM SCT009 BKN014 OVC055 24/22 A3004 RMK AO2
     RAB1254E07 SLP167 P0000 T02440222=
KRKR 081352Z AUTO 19004KT 10SM SCT090 29/26 A3006 RMK AO2=
KSGF 081352Z 00000KT 10SM FEW009 BKN014 OVC047 24/22 A3009 RMK AO2
     SLP175 T02440222=
KSNL 081352Z AUTO 35003KT 10SM OVC005 25/24 A3008 RMK AO2=
KSPI 081352Z VRB03KT 10SM FEW010 SCT014 BKN027 26/23 A3006 RMK AO2
     SLP173 T02610233=
KSRE 081350Z AUTO 00000KT 7SM CLR 25/24 A3006 RMK AO2=
KSUX 081352Z 33004KT 10SM CLR 21/17 A3018 RMK AO2 SLP213
     T02110167=
KSVC 081350Z AUTO 11004KT 10SM OVC100 19/14 A3024 RMK AO2=
KTMK 081353Z AUTO 00000KT 3SM BR OVC004 12/12 A2998 RMK AO2=
KTQH 081355Z AUTO 00000KT 7SM OVC008 23/23 A3008 RMK AO2=
K4O4 081348Z AUTO 15005KT 10SM SCT001 SCT008 26/23 A3008 RMK
     AO2=
KADH 081350Z AUTO 28003KT 10SM SCT005 BKN008 OVC026 23/22 A3006
     RMK AO2=
KALM 081350Z AUTO 16006KT 10SM CLR 21/14 A3017 RMK AO2=
KARR 081352Z 25004KT 4SM BR BKN006 OVC016 23/22 A3004 RMK AO2
     RAB1257E45 SLP166 P0000 T02330222 $=
KATL 081352Z 34005KT 10SM CLR 30/20 A3006 RMK AO2 SLP167
     T03000200=
KATS 081350Z AUTO 35009KT 10SM FEW017 SCT025 BKN035 19/18 A3020
     RMK AO2=
KAXS 081350Z AUTO 32005KT 5SM RA SCT023 BKN038 OVC047 23/22 A3011
     RMK AO2 P0002 T02310219=
KAXX 081350Z AUTO 00000KT 10SM CLR 08/06 A3050 RMK AO2=
KBIS 081352Z 31005KT 10SM CLR 19/11 A3016 RMK AO2 SLP207
     T01890111=
KBLH 081352Z AUTO 02003KT 10SM CLR 28/M01 A2976 RMK AO2 SLP069
     T02831006=
KBVS 081350Z AUTO 03005KT 8SM CLR 19/12 A2999 RMK A01 P000=
KCFV 081352Z AUTO 09005KT 10SM BKN110 24/22 A3007 RMK AO2 SLP176
     T02440222=
KCHK 081351Z AUTO 05007KT 4SM BR OVC002 23/23 A3007 RMK AO2=
KCID 081352Z 34007KT 6SM BR SCT005 22/20 A3007 RMK AO2 SLP178
     T02220200=
KCKV 081352Z AUTO 29003KT 10SM CLR 30/22 A3008 RMK AO2 SLP180
     T03000217=
KCLK 081353Z AUTO 02008KT 10SM BKN007 OVC060 23/20 A3011 RMK
     AO2=
KCLT 081352Z 02007KT 6SM HZ CLR 31/19 A3003 RMK AO2 SLP157
     T03060194=
KCNU 081352Z AUTO 00000KT 4SM BR OVC003 23/22 A3009 RMK AO2 CIG
     002V005 SLP182 T02330217=
KCUH 081350Z AUTO 00000KT 10SM OVC003 25/23 A3007 RMK AO2=
####018003728####
SAUS99 KWBC 081354
METAR
KACT 081351Z 06006KT 8SM BKN010 BKN018 OVC060 26/24 A3003 RMK AO2
     RAB40E50 SLP160 P0000 T02610239=
KAEG 081350Z 12016KT 10SM SCT150 18/08 A3032=
KALB 081351Z 00000KT 6SM HZ FEW090 29/21 A3004 RMK AO2 SLP169
     T02890211=
KASH 081351Z VRB05KT 9SM BKN020 BKN045 27/22 A3009 RMK AO2
     T02720216 SLP190=
KAVX 081351Z AUTO 27005KT M1/4SM FG VV001 12/12 A2994 RMK AO2
     SLP132 T01170117 TSNO=
KBDL 081351Z 16005KT 4SM HZ BKN012 OVC019 26/22 A3007 RMK AO2
     SLP181 T02610222=
KBKW 081351Z AUTO 03004KT 6SM HZ CLR 26/18 A3018 RMK AO2 SLP176
     T02610178 VISNO RWY19 $=
KBVI 081347Z 00000KT 5SM HZ FEW060 28/22 A3012=
KCAK 081351Z 24004KT 10SM CLR 28/18 A3009 RMK AO2 SLP177
     T02830178=
KCLE 081351Z 19004KT 10SM FEW060 SCT100 29/19 A3007 RMK AO2 SLP175
     T02940194 $=
KCMH 081351Z 00000KT 6SM HZ CLR 28/21 A3007 RMK AO2 SLP176
     T02830206=
KCSG 081351Z 00000KT 10SM CLR 30/21 A3004 RMK AO2 SLP166
     T03000206=
KDAW 081351Z AUTO 00000KT 5SM HZ BKN011 26/21 A3009 RMK AO2 SLP183
     T02610211=
KERI 081351Z 18005KT 9SM CLR 30/19 A3005 RMK AO2 SLP169
     T03000194=
KEWR 081351Z 20008KT 8SM SCT008 BKN013 OVC025 27/24 A3005 RMK AO2
     SLP175 SCT V BKN HAZE ALOFT T02670239=
KHSA 081351Z 08004KT 10SM CLR 27/25 A3004=
KHTS 081351Z 00000KT 6SM HZ CLR 28/21 A3009 RMK AO2 SLP180
     T02830206=
KHXD 081350Z 24008KT 10SM SKC 29/21 A3000=
KILG 081351Z 14004KT 2SM HZ BKN011 BKN016 27/23 A3005 RMK AO2 SFC
     VIS 5 SLP173 T02720228=
KJFK 081351Z 15006KT 8SM SCT020 BKN065 BKN130 BKN250 27/22 A3006
     RMK AO2 RAB21E41 SLP178 P0000 T02720222=
KLGA 081351Z 18006KT 6SM -RA BKN014 BKN032 OVC049 27/23 A3004 RMK
     AO2 RAB17 SLP174 P0000 T02720228=
KLGU 081351Z AUTO 00000KT 10SM CLR 16/06 A3018 RMK AO2 SLP173
     T01560061=
KMHV 081350Z 00000KT 40SM SKC 21/04 A2993 RMK: FIRST=
KMPV 081351Z AUTO 17007KT 6SM HZ CLR 29/23 A3011 RMK AO2 SLP187
     T02890228=
KMYL 081351Z AUTO 00000KT 10SM CLR 10/05 A3022 RMK AO2 SLP196
     T01000050=
KOKC 081352Z 33004KT 10SM BKN007 BKN200 26/23 A3007 RMK AO2 SLP167
     T02560228=
KOMN 081350Z 31005KT 10SM SKC 27/21 A3002=
KOXR 081351Z 28005KT 9SM OVC009 14/13 A2991 RMK AO2 SLP129
     T01440128 $=
KPIT 081351Z 00000KT 7SM FEW055 28/18 A3009 RMK AO2 SLP186
     T02780178=
KPWM 081351Z 20005KT 10SM BKN014 BKN028 24/20 A3010 RMK AO2 SLP192
     T02390200 $=
KSJT 081351Z 08006KT 6SM BR OVC004 23/22 A3007 RMK AO2 SLP159
     T02280217=
KSLK 081351Z AUTO 21003KT 10SM CLR 28/21 A3008 RMK AO2 SLP175
     T02830206=
KSMO 081351Z 00000KT 7SM OVC009 16/13 A2992 RMK AO2 SLP130
     T01560128=
KSPS 081352Z 00000KT 10SM CLR 26/22 A3005 RMK AO2 SLP161
     T02560222=
KSTL 081351Z 33003KT 10SM -RA FEW009 SCT025TCU BKN075 BKN250 26/24
     A3006 RMK AO2 RAB15E22B46 SLP167 TCU N-E P0000 T02610239=
KTEB 081351Z 12006KT 3SM HZ FEW019 OVC025 27/22 A3004 RMK AO2
     DZB16E39 SLP171 P0000 T02720222=
KVNY 081351Z 18003KT 2 1/2SM BR OVC008 15/13 A2991 RMK AO2 SLP122
     T01500133=
KYNG 081351Z 14004KT 8SM FEW065 28/18 A3009 RMK AO2 PK WND
     10059/1322 SLP179 T02830183=
KIDP 081350Z AUTO 09004KT 10SM SCT008 23/22 A3007 RMK AO2=
KIOW 081352Z AUTO 33005KT 10SM CLR 24/21 A3008 RMK AO2 SLP179
     T02440206=
KISN 081352Z 00000KT 10SM CLR 18/11 A3016 RMK AO2 SLP207
     T01780111=
KIZA 081349Z AUTO 00000KT 10SM OVC007 13/11 A2993 RMK AO2=
KJSV 081350Z AUTO 00000KT 10SM SCT034 BKN045 BKN055 25/23 A3007
     RMK AO2=
KLAL 081352Z 00000KT 15SM SCT018 29/21 A3002=
KLAM 081350Z AUTO 00000KT 10SM CLR 15/08 A3041 RMK AO2=
KLRU 081351Z AUTO 02008KT 10SM CLR 23/13 A3019 RMK AO2=
####018001712####
SAUS99 KWBC 081354 RRB
METAR
KDCA 081352Z 00000KT 5SM HZ SCT100 SCT250 31/22 A3001 RMK AO2
     SLP163 T03060217=
KDDC 081352Z AUTO 01011KT 7SM OVC005 19/17 A3020 RMK AO2 SLP205
     T01890172=
KDPA 081352Z 25004KT 6SM BR FEW009 OVC046 24/22 A3003 RMK AO2
     RAB03E23 SLP164 P0002 T02390222=
KDUA 081357Z AUTO 17009KT 10SM BKN008 OVC027 26/24 A3006 RMK
     AO2=
KDVN 081352Z AUTO 32007KT 10SM BKN007 24/21 A3006 RMK AO2 CIG
     006V010 SLP173 T02390211=
KEST 081352Z AUTO 32005KT 10SM CLR 21/16 A3017 RMK AO2 SLP213
     T02060156=
KFET 081350Z AUTO 36003KT 10SM CLR 21/17 A3018 RMK AO2=
KGCD 081350Z AUTO 12008KT 10SM CLR 16/03 A3013 RMK AO2
     T01560025=
KGCM 081355Z AUTO 06003KT 10SM OVC003 24/24 A3009 RMK AO2=
KGLS 081352Z 11014G21KT 10SM FEW017 BKN100 27/24 A2995 RMK AO2
     RAE03 SLP141 P0000 T02670244=
KGMJ 081354Z AUTO 00000KT OVC012 26/25 A3007 RMK AO2 P0006
     PWINO=
KHRL 081352Z 35010KT 10SM FEW008 SCT012 BKN021 26/26 A2979 RMK AO2
     RAB28E38 SLP086 P0000 T02610261=
KHUT 081352Z 02010KT 3SM BR OVC004 22/21 A3015 RMK AO2 SLP190
     T02170206=
KIAD 081352Z 00000KT 6SM HZ CLR 31/23 A3002 RMK AO2 SLP161
     T03110228=
KTRK 081350Z 00000KT 10SM SCT050 BKN100 07/06 A3017 RMK NO SPECI
     FIRST 24HR MAX 0283 MIN 0072=
KTRM 081352Z AUTO 32003KT 10SM CLR 23/14 A2973 RMK AO2 SLP078
     T02330139=
KUGN 081352Z VRB04KT 10SM BKN012 24/22 A3002 RMK AO2 SLP154
     T02440217=
KVTN 081352Z AUTO 26003KT 10SM CLR 19/13 A3026 RMK AO2 SLP235
     T01940133=
KWWR 081349Z AUTO 01008KT 10SM OVC005 22/21 A3018 RMK AO2
     T02170205=
PAJV 081350Z 21004KT 10SM SCT040 BKN080 OVC110 10/07 A2996 RMK
     NOSPECI=
####018000087####
SACN88 KWBC 081354
METAR CWZN 081300Z AUTO 11009KT 13/ RMK AO1 SLP213 T0127 50002=
####018000163####
SPUS99 KWBC 081354
SPECI
KDMO 081351Z AUTO 00000KT 10SM BKN005 OVC014 25/22 A3009 RMK AO2
     CIG 003V009=
KCWF 081350Z 08005KT 7SM OVC005 26/26 A3002=
####018000095####
SACN89 KWBC 081354
METAR CWDT 081300Z AUTO 14003KT 23/21 RMK AO1 SLP165 T02290206
58002=
####018000095####
SACN97 KWBC 081354
METAR CXLL 081300Z AUTO 00000KT 11/11 RMK AO1 SLP153 T01110111
58004=
####018000118####
SAUS41 KLWX 081353
MTRNHK
METAR KNHK 081352Z 10009KT 10SM SCT012 SCT070 28/22 A3002 RMK AO2 
SLP165 T02830222
####018000081####
SABZ21 SBFZ 081400
METAR SBFZ 081400Z 11011KT 9999 FEW020 SCT090 30/20 Q1014=
####018000259####
SAGL31 BGSF 081350
METAR BGSF 081350Z 24007KT 170V260 9999 FEW040 SCT070 17/01 Q1007=
METAR BGBW 081353Z NIL=
METAR BGGH 081350Z 21005KT 9999 FEW008 BKN012 07/03 Q1009=
METAR BGJN 081353Z NIL=
METAR BGKK 081350Z 02003KT 9999 FEW100 SCT120 09/04 Q1009=
####018000110####
SAUS44 KSJT 081353
MTRABI
METAR KABI 081352Z 00000KT 9SM OVC005 23/22 A3008 RMK AO2 SLP165 
T02280217
####018000657####
SASN31 ESWI 081350
METAR ESGG 081350Z 20013KT 4500 -RA BR SCT005 BKN007 16/15 Q1019
REDZ=
METAR ESGJ 081350Z 23012KT 9999 FEW046 SCT082 22/10 Q1019=
METAR ESGP 081350Z 19014KT 6000 -RA FEW008 SCT013 BKN022 17/15
Q1019 REDZ=
METAR ESGT 081350Z 20012KT 9999 SCT015 BKN025 19/14 Q1018=
METAR ESMK 081350Z 22009KT 190V240 CAVOK 26/10 Q1020=
METAR ESMQ 081350Z 16014KT CAVOK 24/14 Q1018=
METAR ESMS 081350Z 20010KT CAVOK 24/10 Q1021=
METAR ESMT 081350Z 23010KT 9000 -SHRA BKN048 21/15 Q1020=
METAR ESMX 081350Z 21009KT CAVOK 24/12 Q1019=
METAR ESTA 081350Z 16007KT CAVOK 23/15 Q1020=
METAR ESTL 081350Z AUTO 22010KT 9999NDV OVC054/// 24/10 Q1020=
####018000078####
SAGR31 LGAT 081320 RRA
METAR LGAD 081320Z 29009KT 9999 FEW020 27/14 Q1014=
####018000112####
SAKA31 PTKK 081400
METAR PTKK 081350Z 05006KT 15SM FEW014 BKN120 OVC280 26/23 A2985 RMK
 SLP111 T02610228=
####018000144####
SAGC31 MWCR 081400

METAR MWCR 081400Z 15009KT 9999 FEW018 BKN250 30/24 Q1014 NOSIG=

METAR MWCB 081400Z 16006KT 9999 SCT016 30/25 Q1014=
####018000533####
SADL31 EDZO 081350
METAR EDDF 081350Z 18006KT 130V220 CAVOK 31/11 Q1019 NOSIG=
METAR EDDH 081350Z 26009KT CAVOK 29/10 Q1018 NOSIG=
METAR EDDK 081350Z 17003G13KT CAVOK 32/09 Q1018 NOSIG=
METAR EDDL 081350Z 23004KT 210V310 CAVOK 31/07 Q1018 NOSIG=
METAR EDDM 081350Z 04004KT 010V110 CAVOK 25/08 Q1022 NOSIG=
METAR EDDN 081350Z VRB02KT CAVOK 28/07 Q1021 NOSIG=
METAR EDDS 081350Z VRB03KT CAVOK 29/08 Q1021 NOSIG=
METAR EDDT 081350Z 14002KT CAVOK 29/07 Q1020 NOSIG=
METAR EDDV 081350Z 19007KT 170V230 CAVOK 30/10 Q1019 NOSIG=
####018000085####
SPBU40 LBSM 081353
SPECI LBPD 081353Z 26004MPS 9999 -RA OVC040 17/15 Q1017 NOSIG=
####018000499####
SAFI31 EFHK 081350
METAR EFHK 081350Z 32006KT 9999 FEW028 FEW040CB BKN060 28/17 Q1013
BECMG TS=
EFJY 081350Z 07002KT 9999 SCT035 SCT200 25/16 Q1014=
METAR EFKU 081350Z AUTO 36004KT CAVOK 25/17 Q1014=
EFOU 081350Z VRB03KT 9999 FEW040 BKN200 23/11 Q1014=
METAR EFRO 081350Z AUTO 12005KT 070V170 CAVOK 21/09
 Q1015=
EFTP 081350Z 30007KT 230V350 9999 FEW045 26/13 Q1015=
METAR EFTU 081350Z AUTO 31009KT 270V350 CAVOK 25/11 Q1015=
EFVA 081350Z 26007KT 220V320 9999 FEW030 SCT200 25/12 Q1014=
####018000408####
SADL32 EDZO 081350
METAR EDDB 081350Z 19005KT CAVOK 28/05 Q1020 NOSIG=
METAR EDDC 081350Z VRB03KT CAVOK 26/08 Q1021 NOSIG=
METAR EDDE 081350Z VRB02KT CAVOK 28/09 Q1021 NOSIG=
METAR EDDG 081350Z 24008KT CAVOK 31/10 Q1019 NOSIG=
METAR EDDP 081350Z VRB03KT CAVOK 28/11 Q1020 NOSIG=
METAR EDDR 081350Z 18004KT 160V220 CAVOK 30/11 Q1020 NOSIG=
METAR EDDW 081350Z 26010KT 210V280 CAVOK 31/08 Q1018 NOSIG=
####018000503####
SADN31 EKCH 081350
METAR EKCH 081350Z 17012KT CAVOK 22/15 Q1020 NOSIG=
METAR EKBI 081350Z 25007KT 210V280 8000 -SHRA FEW017 BKN055
20/19 Q1019=
METAR EKYT 081350Z 23009KT 4500 -SHRA SCT010TCU BKN018 18/18
Q1018=
METAR EKRK 081350Z AUTO 22011KT 9999NDV BKN050/// 24/11 Q1020=
METAR EKAH 081350Z AUTO 21002KT 9999NDV BKN100/// 22/15 Q1019=
METAR EKEB 081350Z AUTO 18008KT 8000NDV -SHRA   FEW003/// BKN053///
19/17 Q1018 RESHRA=
METAR EKRN 081350Z AUTO 20004KT 180V240 9999NDV NCD 20/15 Q1022=
####018000092####
SPAU32 YBBN 081353
SPECI YPPD 081353Z AUTO 02004KT 7000NDV // BKN029 OVC033 22/21 Q1010=
####018000927####
SAMX44 MMMD 081400
METAR MMCE 081345Z 15008KT 7SM SCT010 BKN070 BKN200 27/25 A2981 RMK 8/136=
METAR MMCM 081345Z 12010KT 7SM BKN020 BKN050 OVC100 26/22 A2980
      RMK 8/53/=
METAR MMCP 081351Z 09010KT 6SM BKN140 OVC300 27/22 A2981
      RMK 8/032 HZY=
METAR MMCZ 081342Z 10008KT 6SM  SCT015 BKN100 BKN200 27/24 A2990 
      RMK 8/569 HZY=
METAR MMMD 081345Z 11008KT 5SM  SCT005 BKN080 BKN140 18/18 A2988 
      RMK 8/570 HZY CI=
METAR MMMT 081345Z 22010KT 10SM BKN015  BKN050 OVC100 25/23 A2980
      RMK 8/57/=
METAR MMTG 081350Z 00000KT 5SM BCFG  SCT006 BKN070 OVC300 24/24 A2993 
      RMK 8/678 BCFG ARND ST OMTNS=
METAR MMTP 081348Z 00000KT 15SM SCT020 BKN160 OVC250 25/23 A2990
      RMK 8/176=
METAR MMUN 081342Z 13008KT 6SM  BKN016TCU BKN090 OVC280 29/25 A2991 
      RMK 8/277 HZ LWR SC BINOVC=
METAR MMVA 081351Z 12006KT 7SM  SCT010 SCT100 BKN200 28/25 A2979 
      RMK 8/136=
####018000219####
SAPQ50 KWBC 081400
METAR
PTKR 081351Z 09006KT 14SM SCT016CB OVC300 27/24 A2989 RMK CB ALQDS
     MOV W SLP121 T02720240=
PTKK 081350Z 05006KT 15SM FEW014 BKN120 OVC280 26/23 A2985 RMK
     SLP111 T02610228=
####018000280####
SADN32 EKCH 081350
METAR EKVJ 081350Z 20006KT 9000 SCT006 BKN010 BKN020 20/17 Q1018=
METAR EKSB 081350Z 24006KT 190V260 CAVOK 26/13 Q1018=
METAR EKSN 081350Z 27004KT 9999 -RA  SCT018 BKN031 15/13 Q1018=
METAR EKVD 081350Z NIL=
METAR EKOD 081350Z 19008KT CAVOK 26/12 Q1019=
####018000085####
SPUS80 KWBC 081354
SPECI
KBTR 081346Z 08005KT 10SM OVC005 26/24 A3004 RMK AO2=
####018000090####
SAUS70 KWBC 081354
METAR
KWDG 081307Z 35007KT 7SM SCT008 SCT060 BKN080 25/22 A3008=
####018000367####
SAXX60 KWBC 081400
METAR
KMHR 081346Z 14006KT 10SM FEW150 12/10 A2987=
KBLV 081355Z AUTO 26004KT 10SM CLR 27/24 A3005 RMK AO2 CIG 075
     RWY32L SLP174 T02670242=
KNFW 081352Z 12008KT 10SM SCT012 BKN024 OVC040 27/22 A3008 RMK AO2
     SLP168 RAE20 P0000 T02670222=
KNHK 081352Z 10009KT 10SM SCT012 SCT070 28/22 A3002 RMK AO2 SLP165
     T02830222=
####018002137####
SAUS70 KWBC 081400 RRB
METAR
KBVS 081350Z AUTO 03005KT 8SM CLR 19/12 A2999 RMK A01 P000=
KCFV 081352Z AUTO 09005KT 10SM BKN110 24/22 A3007 RMK AO2 SLP176
     T02440222=
KCHK 081351Z AUTO 05007KT 4SM BR OVC002 23/23 A3007 RMK AO2=
KCKV 081352Z AUTO 29003KT 10SM CLR 30/22 A3008 RMK AO2 SLP180
     T03000217=
KCLK 081353Z AUTO 02008KT 10SM BKN007 OVC060 23/20 A3011 RMK
     AO2=
KCLT 081352Z 02007KT 6SM HZ CLR 31/19 A3003 RMK AO2 SLP157
     T03060194=
KCUH 081350Z AUTO 00000KT 10SM OVC003 25/23 A3007 RMK AO2=
KDCA 081352Z 00000KT 5SM HZ SCT100 SCT250 31/22 A3001 RMK AO2
     SLP163 T03060217=
KDDC 081352Z AUTO 01011KT 7SM OVC005 19/17 A3020 RMK AO2 SLP205
     T01890172=
KDPA 081352Z 25004KT 6SM BR FEW009 OVC046 24/22 A3003 RMK AO2
     RAB03E23 SLP164 P0002 T02390222=
KDUA 081357Z AUTO 17009KT 10SM BKN008 OVC027 26/24 A3006 RMK
     AO2=
KDVN 081352Z AUTO 32007KT 10SM BKN007 24/21 A3006 RMK AO2 CIG
     006V010 SLP173 T02390211=
KEST 081352Z AUTO 32005KT 10SM CLR 21/16 A3017 RMK AO2 SLP213
     T02060156=
KFET 081350Z AUTO 36003KT 10SM CLR 21/17 A3018 RMK AO2=
KGCD 081350Z AUTO 12008KT 10SM CLR 16/03 A3013 RMK AO2
     T01560025=
KGCM 081355Z AUTO 06003KT 10SM OVC003 24/24 A3009 RMK AO2=
KGLS 081352Z 11014G21KT 10SM FEW017 BKN100 27/24 A2995 RMK AO2
     RAE03 SLP141 P0000 T02670244=
KGMJ 081354Z AUTO 00000KT OVC012 26/25 A3007 RMK AO2 P0006
     PWINO=
KHRL 081352Z 35010KT 10SM FEW008 SCT012 BKN021 26/26 A2979 RMK AO2
     RAB28E38 SLP086 P0000 T02610261=
KHUT 081352Z 02010KT 3SM BR OVC004 22/21 A3015 RMK AO2 SLP190
     T02170206=
KIAD 081352Z 00000KT 6SM HZ CLR 31/23 A3002 RMK AO2 SLP161
     T03110228=
KTRK 081350Z 00000KT 10SM SCT050 BKN100 07/06 A3017 RMK NO SPECI
     FIRST 24HR MAX 0283 MIN 0072=
KTRM 081352Z AUTO 32003KT 10SM CLR 23/14 A2973 RMK AO2 SLP078
     T02330139=
KUGN 081352Z VRB04KT 10SM BKN012 24/22 A3002 RMK AO2 SLP154
     T02440217=
KWWR 081349Z AUTO 01008KT 10SM OVC005 22/21 A3018 RMK AO2
     T02170205=
PAJV 081350Z 21004KT 10SM SCT040 BKN080 OVC110 10/07 A2996 RMK
     NOSPECI=
####018003741####
SAUS70 KWBC 081400 RRA
METAR
KSJT 081351Z 08006KT 6SM BR OVC004 23/22 A3007 RMK AO2 SLP159
     T02280217=
KSLK 081351Z AUTO 21003KT 10SM CLR 28/21 A3008 RMK AO2 SLP175
     T02830206=
KSMO 081351Z 00000KT 7SM OVC009 16/13 A2992 RMK AO2 SLP130
     T01560128=
KSTL 081351Z 33003KT 10SM -RA FEW009 SCT025TCU BKN075 BKN250 26/24
     A3006 RMK AO2 RAB15E22B46 SLP167 TCU N-E P0000 T02610239=
KVNY 081351Z 18003KT 2 1/2SM BR OVC008 15/13 A2991 RMK AO2 SLP122
     T01500133=
KIDP 081350Z AUTO 09004KT 10SM SCT008 23/22 A3007 RMK AO2=
KIOW 081352Z AUTO 33005KT 10SM CLR 24/21 A3008 RMK AO2 SLP179
     T02440206=
KISN 081352Z 00000KT 10SM CLR 18/11 A3016 RMK AO2 SLP207
     T01780111=
KJSV 081350Z AUTO 00000KT 10SM SCT034 BKN045 BKN055 25/23 A3007
     RMK AO2=
KLAL 081352Z 00000KT 15SM SCT018 29/21 A3002=
KLAM 081350Z AUTO 00000KT 10SM CLR 15/08 A3041 RMK AO2=
KLRU 081351Z AUTO 02008KT 10SM CLR 23/13 A3019 RMK AO2=
KLWC 081352Z AUTO 02006KT 8SM OVC006 24/22 A3011 RMK AO2 SLP189
     T02390222=
KMDH 081352Z 24005KT 10SM SCT070 BKN090 OVC250 28/23 A3006 RMK AO2
     SLP175 T02830233=
KMEB 081352Z AUTO 05006KT 7SM CLR 31/21 A2998 RMK AO2 SLP147
     T03060211=
KMKE 081352Z 27009KT 10SM FEW011 BKN019 BKN080 OVC200 24/21 A3002
     RMK AO2 SLP160 T02390206=
KMLI 081352Z 36003KT 10SM BKN011 24/22 A3005 RMK AO2 CIG 009V014
     SLP172 T02440217=
KMWH 081352Z 03006KT 10SM CLR 19/07 A3003 RMK AO2 SLP162
     T01890072=
KOJA 081350Z AUTO 06006KT 7SM SCT007 23/22 A3011 RMK AO2=
KOKB 081352Z AUTO 33004KT 8SM OVC015 17/14 A2991 RMK AO2 SLP127
     T01720139=
KOKM 081351Z AUTO 00000KT 10SM OVC007 25/25 A3006 RMK AO1=
KOMA 081352Z 01007KT 10SM FEW022 BKN250 21/18 A3016 RMK AO2 SLP205
     T02110183=
KONP 081350Z AUTO 00000KT 3/4SM BR OVC002 11/10 A3000 RMK AO1=
KORS 081350Z AUTO 00000KT 10SM CLR 18/16 A2997 RMK AO2=
KOUN 081352Z AUTO 01005KT 10SM SCT009 SCT032 SCT075 27/23 A3008
     RMK AO2=
KPLU 081350Z AUTO 00000KT 10SM CLR 13/13 A2995 RMK AO2=
KPPF 081352Z AUTO 00000KT 10SM CLR 25/22 A3008 RMK AO2 SLP177
     T02500222=
KPVJ 081348Z AUTO 00000KT 10SM SCT007 SCT038 26/24 A3006 RMK
     AO2=
KPWK 081352Z 22004KT 9SM SCT009 BKN014 OVC055 24/22 A3004 RMK AO2
     RAB1254E07 SLP167 P0000 T02440222=
KRKR 081352Z AUTO 19004KT 10SM SCT090 29/26 A3006 RMK AO2=
KSGF 081352Z 00000KT 10SM FEW009 BKN014 OVC047 24/22 A3009 RMK AO2
     SLP175 T02440222=
KSNL 081352Z AUTO 35003KT 10SM OVC005 25/24 A3008 RMK AO2=
KSPI 081352Z VRB03KT 10SM FEW010 SCT014 BKN027 26/23 A3006 RMK AO2
     SLP173 T02610233=
KSRE 081350Z AUTO 00000KT 7SM CLR 25/24 A3006 RMK AO2=
KSUX 081352Z 33004KT 10SM CLR 21/17 A3018 RMK AO2 SLP213
     T02110167=
KSVC 081350Z AUTO 11004KT 10SM OVC100 19/14 A3024 RMK AO2=
KTMK 081353Z AUTO 00000KT 3SM BR OVC004 12/12 A2998 RMK AO2=
KTQH 081355Z AUTO 00000KT 7SM OVC008 23/23 A3008 RMK AO2=
K4O4 081348Z AUTO 15005KT 10SM SCT001 SCT008 26/23 A3008 RMK
     AO2=
KADH 081350Z AUTO 28003KT 10SM SCT005 BKN008 OVC026 23/22 A3006
     RMK AO2=
KALM 081350Z AUTO 16006KT 10SM CLR 21/14 A3017 RMK AO2=
KARR 081352Z 25004KT 4SM BR BKN006 OVC016 23/22 A3004 RMK AO2
     RAB1257E45 SLP166 P0000 T02330222 $=
KATL 081352Z 34005KT 10SM CLR 30/20 A3006 RMK AO2 SLP167
     T03000200=
KATS 081350Z AUTO 35009KT 10SM FEW017 SCT025 BKN035 19/18 A3020
     RMK AO2=
KAXS 081350Z AUTO 32005KT 5SM RA SCT023 BKN038 OVC047 23/22 A3011
     RMK AO2 P0002 T02310219=
KAXX 081350Z AUTO 00000KT 10SM CLR 08/06 A3050 RMK AO2=
KBIS 081352Z 31005KT 10SM CLR 19/11 A3016 RMK AO2 SLP207
     T01890111=
KBLH 081352Z AUTO 02003KT 10SM CLR 28/M01 A2976 RMK AO2 SLP069
     T02831006=
####018003720####
SAUS70 KWBC 081400
METAR
KBNL 081355Z AUTO 35007KT 10SM CLR 31/19 A2999 RMK AO2=
KCQW 081355Z AUTO 01004KT 4SM HZ CLR 30/19 A2998 RMK AO2=
KFTG 081347Z 06004KT 03SM BR BKN020 OVC010 15/15 A3035=
KLBE 081350Z 25004KT 6SM HZ SKC 27/19 A3011=
KLKR 081355Z AUTO 34004KT 7SM CLR 30/23 A3001 RMK AO2=
KSAW 081350Z 35005KT 10SM BKN011 22/18 A2999=
KVCV 081349Z 15004KT 10SM SKC 19/03 A2994=
K1F0 081347Z AUTO 00000KT 10SM -RA BKN006 BKN015 OVC022 25/25
     A3004 RMK AO2=
KAHN 081351Z 00000KT 6SM HZ CLR 30/20 A3004 RMK AO2 SLP165
     T03000200 $=
KATW 081345Z 30007KT 5SM BR BKN009 BKN018 23/21 A3002=
KBAK 081350Z 20003KT 7SM SCT065 28/22 A3007=
KBAZ 081351Z AUTO 06008KT 5SM -RA BR BKN009 OVC014 25/24 A2995 RMK
     AO2 CIG 006V012 SLP133 P0002 T02500244=
KBGD 081351Z AUTO 06004KT 10SM OVC014 20/18 A3021 RMK AO2 SLP198
     T02000178=
KDUC 081352Z AUTO 04006KT 10SM CLR 26/23 A3005 RMK AO2=
KHDO 081351Z AUTO 05009KT 10SM FEW017 27/23 A2998 RMK AO2 SLP135
     T02720233=
KHUM 081350Z 06004KT 7SM SCT013 29/28 A3004=
KMDW 081351Z 23003KT 6SM BR FEW007 BKN023 OVC030 24/22 A3003 RMK
     AO2 RAE1256 SLP159 P0000 T02390217=
KONM 081347Z AUTO 32006KT 10SM BKN080 19/15 A3027 RMK AO2
     T01930147=
KORD 081351Z 25004KT 6SM -RA BR FEW014 SCT026 OVC040 24/22 A3003
     RMK AO2 RAB31 SLP165 P0000 T02390222=
KPHX 081351Z 05004KT 10SM SCT140 33/01 A2981 RMK AO2 SLP071
     T03280011 $=
KRDU 081351Z 36004KT 6SM HZ SCT080 BKN250 31/19 A2999 RMK AO2
     SLP150 T03110194=
KTIX 081347Z 02007KT 7SM FEW025 27/19 A3001=
KTZR 081350Z 00000KT 7SM SKC 29/21 A3008=
PALP 081352Z 25013KT 10SM FEW100 SCT240 09/04 A3004=
PAPT 081345Z 00000KT 25SM SCT060 SCT200 08/08 A3000 RMK SHRA DST
     E-S NOSPECI=
KJCT 081351Z AUTO 07004KT 10SM BKN008 OVC022 24/22 A3004 RMK AO2
     CIG 007V011 SLP134 T02440222 TSNO=
KACT 081351Z 06006KT 8SM BKN010 BKN018 OVC060 26/24 A3003 RMK AO2
     RAB40E50 SLP160 P0000 T02610239=
KAEG 081350Z 12016KT 10SM SCT150 18/08 A3032=
KASH 081351Z VRB05KT 9SM BKN020 BKN045 27/22 A3009 RMK AO2
     T02720216 SLP190=
KAVX 081351Z AUTO 27005KT M1/4SM FG VV001 12/12 A2994 RMK AO2
     SLP132 T01170117 TSNO=
KBVI 081347Z 00000KT 5SM HZ FEW060 28/22 A3012=
KCLE 081351Z 19004KT 10SM FEW060 SCT100 29/19 A3007 RMK AO2 SLP175
     T02940194 $=
KCMH 081351Z 00000KT 6SM HZ CLR 28/21 A3007 RMK AO2 SLP176
     T02830206=
KCSG 081351Z 00000KT 10SM CLR 30/21 A3004 RMK AO2 SLP166
     T03000206=
KDAW 081351Z AUTO 00000KT 5SM HZ BKN011 26/21 A3009 RMK AO2 SLP183
     T02610211=
KERI 081351Z 18005KT 9SM CLR 30/19 A3005 RMK AO2 SLP169
     T03000194=
KEWR 081351Z 20008KT 8SM SCT008 BKN013 OVC025 27/24 A3005 RMK AO2
     SLP175 SCT V BKN HAZE ALOFT T02670239=
KHSA 081351Z 08004KT 10SM CLR 27/25 A3004=
KHXD 081350Z 24008KT 10SM SKC 29/21 A3000=
KILG 081351Z 14004KT 2SM HZ BKN011 BKN016 27/23 A3005 RMK AO2 SFC
     VIS 5 SLP173 T02720228=
KJFK 081351Z 15006KT 8SM SCT020 BKN065 BKN130 BKN250 27/22 A3006
     RMK AO2 RAB21E41 SLP178 P0000 T02720222=
KLGA 081351Z 18006KT 6SM -RA BKN014 BKN032 OVC049 27/23 A3004 RMK
     AO2 RAB17 SLP174 P0000 T02720228=
KLGU 081351Z AUTO 00000KT 10SM CLR 16/06 A3018 RMK AO2 SLP173
     T01560061=
KMHV 081350Z 00000KT 40SM SKC 21/04 A2993 RMK: FIRST=
KMPV 081351Z AUTO 17007KT 6SM HZ CLR 29/23 A3011 RMK AO2 SLP187
     T02890228=
KOKC 081352Z 33004KT 10SM BKN007 BKN200 26/23 A3007 RMK AO2 SLP167
     T02560228=
KOMN 081350Z 31005KT 10SM SKC 27/21 A3002=
KPIT 081351Z 00000KT 7SM FEW055 28/18 A3009 RMK AO2 SLP186
     T02780178=
KPWM 081351Z 20005KT 10SM BKN014 BKN028 24/20 A3010 RMK AO2 SLP192
     T02390200 $=
####018000702####
SPUS70 KWBC 081354
SPECI
KFLD 081350Z AUTO 30006KT 10SM BKN015 24/21 A3002 RMK AO2=
KFYV 081350Z 19006KT 10SM SCT028 BKN034 OVC045 24/22 A3009 RMK
     AO2=
KLXT 081350Z AUTO 04006KT 10SM OVC008 23/21 A3011 RMK AO2 CIG
     007V011=
KMIA 081350Z 08009KT 10SM BKN022TCU BKN130 BKN300 30/24 A2997 RMK
     AO2 TCU N-OHD-SE-S=
KPYM 081350Z AUTO VRB06KT 9SM SCT024 SCT031 27/19 A3010 RMK
     AO2=
KTAN 081350Z AUTO 13008KT 10SM BKN020 27/21 A3008 RMK AO2=
KTVC 081351Z 00000KT 7SM SCT006 BKN011 OVC030 23/22 A2999 RMK AO2
     RAB01E51 P0001=
KDMO 081351Z AUTO 00000KT 10SM BKN005 OVC014 25/22 A3009 RMK AO2
     CIG 003V009=
KCWF 081350Z 08005KT 7SM OVC005 26/26 A3002=
####018003127####
SAUS80 KWBC 081400
METAR
KSAN 081351Z 31003KT 10SM OVC013 16/14 A2993 RMK AO2 SLP135
     T01610139=
KEKN 081351Z AUTO 00000KT 6SM HZ CLR 24/18 A3016 RMK AO2 SLP199
     T02440183 TSNO=
KELP 081351Z 03011KT 10SM FEW035 SCT110 23/15 A3015 RMK AO2 SLP136
     T02330150=
KROW 081351Z 02006KT 10SM -RA OVC038 20/17 A3022 RMK AO2 RAB22
     SLP174 P0000 T02000167=
KGDP 081351Z AUTO 06020KT 1 3/4SM BR SCT002 BKN006 17/17 A3026 RMK
     AO2 SLP177 T01670167 TSNO=
KVCT 081351Z 05008KT 1SM +RA BR BKN018 BKN022 OVC026 25/24 A2992
     RMK AO2 RAB37 SLP132 P0002 T02500244 $=
KATT 081351Z AUTO VRB03KT 5SM -RA BR FEW010 BKN017 OVC060 26/24
     A3000 RMK AO2 RAB42 SLP145 P0001 T02560239=
KCON 081351Z AUTO 15008KT 7SM BKN016 27/21 A3008 RMK AO2 SLP185
     T02720211=
KNYC 081351Z AUTO VRB04KT 5SM -RA FEW013 BKN018 OVC033 26/23 A3008
     RMK AO2 RAB24 SLP175 P0000 T02560228 TSNO $=
KCRP 081351Z 03006KT 10SM SCT022CB SCT040 BKN060 27/25 A2985 RMK
     AO2 RAE31 SLP106 CB DSNT E TCU DSNT NE SE S SW P0001
     T02670250 $=
KSAD 081351Z AUTO 15007KT 10SM CLR 25/13 A3005 RMK AO2 SLP124
     T02500128 TSNO=
KABE 081351Z 07005KT 6SM HZ CLR 29/22 A3004 RMK AO2 SLP169
     T02890217=
KALB 081351Z 00000KT 6SM HZ FEW090 29/21 A3004 RMK AO2 SLP169
     T02890211=
KBDL 081351Z 16005KT 4SM HZ BKN012 OVC019 26/22 A3007 RMK AO2
     SLP181 T02610222=
KBKW 081351Z AUTO 03004KT 6SM HZ CLR 26/18 A3018 RMK AO2 SLP176
     T02610178 VISNO RWY19 $=
KCAK 081351Z 24004KT 10SM CLR 28/18 A3009 RMK AO2 SLP177
     T02830178=
KHTS 081351Z 00000KT 6SM HZ CLR 28/21 A3009 RMK AO2 SLP180
     T02830206=
KMYL 081351Z AUTO 00000KT 10SM CLR 10/05 A3022 RMK AO2 SLP196
     T01000050=
KOXR 081351Z 28005KT 9SM OVC009 14/13 A2991 RMK AO2 SLP129
     T01440128 $=
KSPS 081352Z 00000KT 10SM CLR 26/22 A3005 RMK AO2 SLP161
     T02560222=
KTEB 081351Z 12006KT 3SM HZ FEW019 OVC025 27/22 A3004 RMK AO2
     DZB16E39 SLP171 P0000 T02720222=
KYNG 081351Z 14004KT 8SM FEW065 28/18 A3009 RMK AO2 PK WND
     10059/1322 SLP179 T02830183=
KHSE 081351Z AUTO 07011G15KT 10SM CLR 28/23 A2994 RMK AO2 SLP138
     T02780233 TSNO=
KORF 081351Z 07009KT 10SM FEW015 SCT080 BKN100 27/22 A2999 RMK AO2
     RAE1257 SLP155 P0000 T02720217=
KP59 081351Z AUTO 36006KT 20/17 A2999 RMK AO2 SLP151 T02000167
     PWINO TSNO=
KP58 081351Z AUTO 26003KT 26/23 A2999 RMK AO2 SLP147 T02610233
     PWINO TSNO=
KIZA 081349Z AUTO 00000KT 10SM OVC007 13/11 A2993 RMK AO2=
KMHK 081352Z 03009KT 7SM OVC008 22/20 A3013 RMK AO2 SLP194
     T02170200=
KPTS 081350Z AUTO 14006KT 5SM RA BKN015 OVC022 23/23 A3006 RMK AO2
     P0014 T02270228=
KCID 081352Z 34007KT 6SM BR SCT005 22/20 A3007 RMK AO2 SLP178
     T02220200=
KCNU 081352Z AUTO 00000KT 4SM BR OVC003 23/22 A3009 RMK AO2 CIG
     002V005 SLP182 T02330217=
KVTN 081352Z AUTO 26003KT 10SM CLR 19/13 A3026 RMK AO2 SLP235
     T01940133=
KMLF 081352Z AUTO 00000KT 10SM CLR 13/04 A3015 RMK AO2 SLP151
     T01330044 TSNO=
KABI 081352Z 00000KT 9SM OVC005 23/22 A3008 RMK AO2 SLP165
     T02280217=
####018000095####
SPAU31 KWBC 081354
SPECI
YPPD 081353Z AUTO 02004KT 7000NDV // BKN029 OVC033 22/21 Q1010=
####018000479####
SAAS31 KWBC 081330 RRC
METAR
VABB 081340Z 18009KT 3100 HZ SCT012 SCT018 FEW025TCU BKN100 28/25
     Q1007 TEMPO 1500 SHRA=
VANP 081340Z 20007KT 3000 HZ FEW012 SCT015 FEW025CB(N,SE,OH)
     BKN080 27/26 Q1005 TEMPO 1500 IN RA/TSRA=
VOHY 081340Z 27006KT 5000 HZ SCT010 SCT015 BKN080 25/19 Q1011
     NOSIG=
VOMM 081340Z 14006KT 4000 HZ SCT015 SCT100 OVC200 28/26 Q1009
     NOSIG=
VOTV 081340Z 33006KT 5000 HZ FEW015 FEW025CB BKN200 27/24 Q1010
     NOSIG=
####018000174####
SAAW31 KWBC 081330 RRA
METAR
LLBG 081350Z 29009KT 9999 FEW030 29/20 Q1009 NOSIG=
LLET 081350Z 03016G26KT CAVOK 41/10 Q1004=
LLOV 081350Z 04008KT CAVOK 37/10 Q1008=
####018000107####
SAAW34 KWBC 081345 RRA
METAR
OAKB 081350Z 35018KT 9999 FEW070 32/M02 Q1013 NOSIG RMK BLU
     BLU=
####018000107####
SPCA35 KWBC 081354
SPECI
MROC 081347Z 23004KT 9999 3000SW BR BKN120 21/21 A3005 TEMPO 4000
-RA BR=
####018000088####
SPEE32 KWBC 081354
SPECI
LBPD 081353Z 26004MPS 9999 -RA OVC040 17/15 Q1017 NOSIG=
####018000441####
SADL33 KWBC 081345 RRA
METAR
EDDB 081350Z 19005KT CAVOK 28/05 Q1020 NOSIG=
EDDC 081350Z VRB03KT CAVOK 26/08 Q1021 NOSIG=
EDDG 081350Z 24008KT CAVOK 31/10 Q1019 NOSIG=
EDDP 081350Z VRB03KT CAVOK 28/11 Q1020 NOSIG=
EDDR 081350Z 18004KT 160V220 CAVOK 30/11 Q1020 NOSIG=
EDDT 081350Z 14002KT CAVOK 29/07 Q1020 NOSIG=
EDDV 081350Z 19007KT 170V230 CAVOK 30/10 Q1019 NOSIG=
EDDW 081350Z 26010KT 210V280 CAVOK 31/08 Q1018 NOSIG=
####018000122####
SAFK41 EGYP 081350
METAR EGYP 081350Z 01030G41KT 2500 -DZ SCT007 OVC018 05/04 Q0990
 YLO1 TEMPO 4000 RADZ SCT007 GRN=
####018000081####
SAEW31 KWBC 081330 RRB
METAR
LXGB 081350Z 09008KT CAVOK 27/16 Q1016 NOSIG=
####018000205####
SADN34 EKCH 081350
METAR EKGF 081350Z NIL=
METAR EKHN 081350Z AUTO 20006KT 160V250 9999NDV FEW005/// BKN024///
17/14 Q1020=
METAR EKHR 081350Z AUTO 19009KT 9000NDV FEW004/// BKN007///
17/17 Q1018=
####018000164####
SADN33 EKCH 081350
METAR EKKA 081350Z 21005KT 170V230 9999 SCT007 FEW010TCU BKN012
19/17 Q1018=
METAR EKSP 081350Z 27012KT 9999 -RA FEW025 BKN100 21/14 Q1019=
####018000094####
SPUS31 KWBC 081354
SPECI
KMIA 081350Z 08009KT 10SM BKN022TCU BKN130 BKN300 30/24 A2997=
####018000138####
SANT31 KWBC 081300 RRD
METAR
TXKF 081255Z 17020KT 6000 -SHRA FEW009 SCT015TCU BKN050 BKN300
     23/22 Q1020 RMK TCU N / DSNT SW=
####018000113####
SAMX42 KWBC 081345 RRA
METAR
MMZO 081351Z 00000KT 10SM BKN100 BKN250 24/23 A2977 RMK 8/035 HZY
     RTS=
####018000115####
SAUS43 KFSD 081354
MTR9V9
METAR K9V9 081352Z AUTO 25005KT 18/14 A3020 RMK AO2 SLP220 T01830139 
PWINO TSNO
####018000131####
SAUS46 KLOX 081354
MTRNZY
METAR KNZY 081352Z 34004KT 8SM FEW008 OVC013 18/13 A2991 RMK AO2 
DZE50 SLP129 P0000 T01780133 $
####018000076####
SAHW31 KMSC 081353
METAR PGRO 081352Z 11012KT 7SM FEW020 27/24 A2992
=
####018002990####
SAUS20 KNKA 081353
METAR KAFN 081352Z AUTO 17006KT 7SM BKN010 OVC080 24/21 A3012 RMK 
    AO2 CIG 008V013 SLP198 T02390206=
METAR KAFW 081353Z 13006KT 9SM FEW012 SCT055 BKN090 26/23 A3004 RMK 
    AO2 RAB30E42 SLP156 P0000 T02610233=
METAR KAIK 081355Z AUTO 29007KT 10SM CLR 31/25 A3004 RMK AO2 PNO=
METAR KALS 081352Z AUTO 27003KT 10SM CLR 12/08 A3043 RMK AO2 SLP234 
    T01170083=
METAR KAQW 081352Z AUTO 00000KT 6SM HZ CLR 29/22 A3006 RMK AO2 
    SLP174 T02890222=
METAR KARW 081355Z AUTO 28008KT 260V320 10SM CLR 30/19 A2998 RMK 
     AO2=
METAR KBDR 081352Z 10008KT 7SM SCT015 BKN050 26/23 A3006 RMK AO2 
    SLP180 T02610228=
METAR KBLF 081352Z AUTO 27003KT 6SM HZ CLR 26/19 A3020 RMK AO2 
    SLP182 T02610189=
METAR KBML 081352Z AUTO 00000KT 6SM HZ CLR 28/22 A3008 RMK AO2 
    SLP180 T02830217=
METAR KCDS 081353Z AUTO 05006KT 10SM CLR 24/21 A3012 RMK AO2 LTG 
    DSNT E SLP177 T02390206=
METAR KCQX 081352Z AUTO 13007KT 110V180 10SM SCT005 SCT024 24/20 
    A3012 RMK AO2 SLP201 T02440200=
METAR KCRS 081353Z AUTO 09007KT 10SM FEW011 BKN065 26/23 A3003 RMK 
    AO2 SLP165 T02610233=
METAR KCSM 081353Z 36005KT 10SM -RA FEW008 SCT100 23/21 A3014 RMK 
    AO2 RAB1258E27B46 SLP183 P0000 T02280206=
METAR KCVG 081352Z 21005KT 6SM HZ FEW090 29/22 A3008 RMK AO2 SLP175 
    T02940217=
METAR KDEQ 081353Z AUTO 08003KT 10SM BKN007 OVC045 26/24 A3006 RMK 
    AO2 SLP175 T02560239=
METAR KDTO 081353Z 14007KT 10SM FEW010 26/23 A3005 RMK AO2 RAB33E46 
    SLP165 P0000 T02610233=
METAR KFDR 081353Z AUTO 03006KT 10SM 26/23 A3005 RMK AO2 SLP159 
    T02560233=
METAR KFDW 081355Z AUTO 32003KT 10SM CLR 30/19 A3001 RMK AO1=
METAR KFIT 081352Z AUTO 15007KT 10SM FEW022 BKN047 28/21 A3009 RMK 
    AO2 SLP188 T02780211=
METAR KFTW 081353Z 13009KT 10SM SCT009 BKN035 OVC060 26/24 A3004 RMK 
    AO2 RAB32E50 SLP160 P0000 T02560239=
METAR KGGG 081353Z 13003KT 10SM CLR 26/24 A3006 RMK AO2 SLP172 
    T02610239=
METAR KGKY 081353Z 12008KT 10SM SCT008 BKN055 26/24 A3005 RMK AO2 
    SLP165 T02560239=
METAR KGLY 081355Z AUTO 00000KT 9SM SCT008 OVC014 24/23 A3009 RMK 
     AO2 =
METAR KHBR 081353Z AUTO 07004KT 8SM BKN007 23/22 A3011 RMK AO2 RAE48 
    CIG 003V009 SLP179 P0003 T02280222=
METAR KIEN 081352Z AUTO 00000KT 10SM CLR 16/13 A3029 RMK AO2 SLP241 
    T01560128=
METAR KIJD 081352Z AUTO 14003KT 8SM BKN016 26/21 A3009 RMK AO2 
    SLP188 T02560211=
SPECI KISP 081352Z 12007KT 10SM SCT016 BKN130 27/20 A3005 RMK AO2=
METAR KMEZ 081355Z AUTO 18003KT 5SM HZ BKN013 BKN018 OVC055 26/23 
     A3011 RMK AO2=
METAR KMFD 081352Z 27003KT 7SM CLR 29/19 A3010 RMK AO2 SLP180 
    T02890189=
METAR KMLC 081353Z AUTO 18005KT 10SM BKN009 BKN018 OVC032 25/23 
    A3006 RMK AO2 CIG 008V013 SLP170 T02500233=
METAR KMLU 081353Z 07004KT 10SM CLR 28/24 A3008 RMK AO2 SLP184 
    T02830244=
METAR KMWL 081353Z AUTO 13005KT 10SM OVC033 25/23 A3004 RMK AO2 
    SLP157 T02500233=
####018001125####
SAUS20 KNKA 081353
METAR KOAJ 081355Z AUTO 06010KT 9SM CLR 30/24 A2997 RMK AO1=
METAR KODO 081353Z AUTO 04008G16KT 8SM BKN005 OVC011 21/20 A3015 RMK 
    AO2 SLP167 T02110200=
METAR KOQU 081350Z 11005KT 10SM SCT007 SCT200 27/ A3013=
METAR KORE 081352Z AUTO 16005KT 6SM HZ OVC012 24/22 A3009 RMK AO2 
    RAB19E30 SLP187 P0000 T02440217=
METAR KPYM 081352Z AUTO 17005KT 9SM SCT024 SCT031 28/19 A3010 RMK 
    AO2 SLP192 T02780194=
METAR KRAP 081352Z 28004KT 10SM CLR 18/11 A3026 RMK AO2 SLP234 
    T01780111=
METAR KSOP 081355Z AUTO 02004KT 7SM CLR 31/21 A2999 RMK AO1=
METAR KTAN 081352Z AUTO 13009KT 10SM BKN020 27/21 A3008 RMK AO2 
    SLP184 T02720206=
METAR KTKI 081353Z 13005KT 8SM -RA FEW010 BKN049 BKN070 25/24 A3005 
    RMK AO2 RAE1258B53 SLP172 P0000 T02500244=
METAR KTOL 081352Z 00000KT 9SM CLR 29/21 A3004 RMK AO2 SLP165 
    T02940211=
METAR KTXK 081353Z 13004KT 10SM BKN007 OVC080 26/24 A3008 RMK AO2 
    SLP181 T02610244=
METAR KTYR 081353Z 11006KT 10SM FEW010 26/23 A3007 RMK AO2 SLP175 
    T02610233=
METAR KUDG 081355Z 35005KT 10SM CLR 31/20 A2999 RMK AO1=
####018000625####
SAUS43 KWBC 081300 RRL
METAR
KC75 081348Z AUTO 27004KT 10SM SCT008 BKN014 OVC025 24/23
     A3004=
KDKB 081343Z AUTO 27005KT 10SM BKN009 BKN012 23/22 A3003=
KENL 081345Z AUTO 22009KT 10SM SCT050 28/20 A3006=
KHSB 081345Z AUTO 22005KT 10SM SCT100 28/22 A3007=
KIGQ 081340Z AUTO 00000KT 1 1/2SM +RA BKN010 BKN014 OVC030 24/22
     A3003=
KSAR 081345Z AUTO 22004KT 5SM HZ SCT075 27/24 A3006=
KSLO 081345Z AUTO 25006KT 10SM SCT090 SCT110 29/23 A3006=
KTAZ 081345Z AUTO 00000KT 10SM CLR 29/24 A3004=
KTIP 081345Z AUTO 00000KT 10SM SCT085 27/24 A3006=
KVYS 081345Z AUTO 29003KT 10SM OVC009 24/22 A3004=
####018000091####
SPUS52 KWBC 081354
SPECI
KFYV 081350Z 19006KT 10SM SCT028 BKN034 OVC045 24/22 A3009=
####018000115####
SAUS45 KMSO 081353
MTRP69
METAR KP69 081352Z AUTO 00000KT 11/10 A3014 RMK AO2 SLP195 T01110100 
PWINO TSNO
####018000092####
SAUS52 KWBC 081300 RRG
METAR
KSEP 081345Z AUTO 09005KT 7SM BKN004 BKN008 24/22 A3006=
####018000115####
SAUS46 KSGX 081353
MTRCZZ
METAR KCZZ 081352Z AUTO 00000KT 09/09 A2990 RMK AO2 SLP102 T00940094 
PWINO TSNO
####018000068####
SAUS53 KWBC 081300 RRM
METAR
KEHA 081348Z AUTO 01010KT 17/16=
####018000101####
SAUS43 KBIS 081354
MTRN60
METAR KN60 081352Z AUTO 25003KT 18/14 A3014 RMK AO1 SLP202 T01780139
####018000094####
SPUS72 KWBC 081354
SPECI
KMIA 081350Z 08009KT 10SM BKN022TCU BKN130 BKN300 30/24 A2997=
####018000264####
SAGL31 BGSF 081350
METAR BGSF 081350Z 24007KT 170V260 9999 FEW040 SCT070 17/01 Q1007=
METAR BGBW 081353Z NIL=
METAR BGGH 081350Z 21005KT 9999 FEW008 BKN012 07/03 Q1009=
METAR BGJN 081353Z NIL=
METAR BGKK 081350Z 02003KT 9999 FEW100 SCT120 09/04 Q1009=
####018000153####
SASY31 OSDI 081400
OSDI 081400Z 24018KT CAVOK 37/08 Q1008=
OSAP 081400Z 29016KT CAVOK 33/16 Q1006=
OSLK 081400Z 23006KT 9999 SCT030 28/19 Q1009=
####018000167####
SADN33 EKCH 081350
METAR EKKA 081350Z 21005KT 170V230 9999 SCT007 FEW010TCU BKN012
19/17 Q1018=
METAR EKSP 081350Z 27012KT 9999 -RA FEW025 BKN100 21/14 Q1019=
####018000079####
SAGR31 LGAT 081320 RRA
METAR LGAD 081320Z 29009KT 9999 FEW020 27/14 Q1014=
####018000670####
SASN31 ESWI 081350
METAR ESGG 081350Z 20013KT 4500 -RA BR SCT005 BKN007 16/15 Q1019
REDZ=
METAR ESGJ 081350Z 23012KT 9999 FEW046 SCT082 22/10 Q1019=
METAR ESGP 081350Z 19014KT 6000 -RA FEW008 SCT013 BKN022 17/15
Q1019 REDZ=
METAR ESGT 081350Z 20012KT 9999 SCT015 BKN025 19/14 Q1018=
METAR ESMK 081350Z 22009KT 190V240 CAVOK 26/10 Q1020=
METAR ESMQ 081350Z 16014KT CAVOK 24/14 Q1018=
METAR ESMS 081350Z 20010KT CAVOK 24/10 Q1021=
METAR ESMT 081350Z 23010KT 9000 -SHRA BKN048 21/15 Q1020=
METAR ESMX 081350Z 21009KT CAVOK 24/12 Q1019=
METAR ESTA 081350Z 16007KT CAVOK 23/15 Q1020=
METAR ESTL 081350Z AUTO 22010KT 9999NDV OVC054/// 24/10 Q1020=
####018000509####
SAFI31 EFHK 081350
METAR EFHK 081350Z 32006KT 9999 FEW028 FEW040CB BKN060 28/17 Q1013
BECMG TS=
EFJY 081350Z 07002KT 9999 SCT035 SCT200 25/16 Q1014=
METAR EFKU 081350Z AUTO 36004KT CAVOK 25/17 Q1014=
EFOU 081350Z VRB03KT 9999 FEW040 BKN200 23/11 Q1014=
METAR EFRO 081350Z AUTO 12005KT 070V170 CAVOK 21/09
 Q1015=
EFTP 081350Z 30007KT 230V350 9999 FEW045 26/13 Q1015=
METAR EFTU 081350Z AUTO 31009KT 270V350 CAVOK 25/11 Q1015=
EFVA 081350Z 26007KT 220V320 9999 FEW030 SCT200 25/12 Q1014=
####018000209####
SADN34 EKCH 081350
METAR EKGF 081350Z NIL=
METAR EKHN 081350Z AUTO 20006KT 160V250 9999NDV FEW005/// BKN024///
17/14 Q1020=
METAR EKHR 081350Z AUTO 19009KT 9000NDV FEW004/// BKN007///
17/17 Q1018=
####018000285####
SADN32 EKCH 081350
METAR EKVJ 081350Z 20006KT 9000 SCT006 BKN010 BKN020 20/17 Q1018=
METAR EKSB 081350Z 24006KT 190V260 CAVOK 26/13 Q1018=
METAR EKSN 081350Z 27004KT 9999 -RA  SCT018 BKN031 15/13 Q1018=
METAR EKVD 081350Z NIL=
METAR EKOD 081350Z 19008KT CAVOK 26/12 Q1019=
####018000513####
SADN31 EKCH 081350
METAR EKCH 081350Z 17012KT CAVOK 22/15 Q1020 NOSIG=
METAR EKBI 081350Z 25007KT 210V280 8000 -SHRA FEW017 BKN055
20/19 Q1019=
METAR EKYT 081350Z 23009KT 4500 -SHRA SCT010TCU BKN018 18/18
Q1018=
METAR EKRK 081350Z AUTO 22011KT 9999NDV BKN050/// 24/11 Q1020=
METAR EKAH 081350Z AUTO 21002KT 9999NDV BKN100/// 22/15 Q1019=
METAR EKEB 081350Z AUTO 18008KT 8000NDV -SHRA   FEW003/// BKN053///
19/17 Q1018 RESHRA=
METAR EKRN 081350Z AUTO 20004KT 180V240 9999NDV NCD 20/15 Q1022=
####018000093####
SPAU32 YBBN 081353
SPECI YPPD 081353Z AUTO 02004KT 7000NDV // BKN029 OVC033 22/21 Q1010=
####018000090####
SPUS73 KWBC 081354
SPECI
KTVC 081351Z 00000KT 7SM SCT006 BKN011 OVC030 23/22 A2999=
####018000085####
SAMD90 KWBC 081354
METAR K2G4 081350Z AUTO 34004KT 10SM CLR 25/15 A3019 RMK AO1=
####018000087####
SAMD90 KWBC 081354
METAR KCGS 081355Z AUTO 00000KT 7SM SCT110 31/23 A3002 RMK AO1=
####018000084####
SAMD90 KWBC 081354
METAR KCBE 081353Z AUTO 00000KT 7SM CLR 27/20 A3010 RMK AO1=
####018000085####
SAMD90 KWBC 081354
METAR KCGE 081351Z AUTO 14007KT 10SM CLR 28/23 A3003 RMK AO1=
####018000105####
SAMD90 KWBC 081354
METAR K2W6 081353Z AUTO 10006KT 10SM BKN016 BKN022 BKN070 27/23 
A3004 RMK AO1=
####018000081####
SAUS74 KWBC 081300 RRE
METAR
KIWA 081347Z 08009KT 45SM FEW120 33/09 A2984=
####018000145####
SAGC31 MWCR 081300
METAR MWCR 081300Z 15009KT 9999 FEW018 BKN250 30/24 Q1014 NOSIG=

METAR MWCB 081300Z 16006KT 9999 SCT016 30/25 Q1014=
####018000089####
SPCN47 CWAO 081352
SPECI CYTL 081352Z AUTO 25005KT 9SM BKN015 BKN084 18/15 A2977=

####018001596####
SAEU KAWN 081400
METAR EDDB 081350Z 19005KT CAVOK 28/05 Q1020 NOSIG=
METAR EDDC 081350Z VRB03KT CAVOK 26/08 Q1021 NOSIG=
METAR EDDE 081350Z VRB02KT CAVOK 28/09 Q1021 NOSIG=
METAR EDDF 081350Z 18006KT 130V220 CAVOK 31/11 Q1019 NOSIG=
METAR EDDG 081350Z 24008KT CAVOK 31/10 Q1019 NOSIG=
METAR EDDH 081350Z 26009KT CAVOK 29/10 Q1018 NOSIG=
METAR EDDK 081350Z 17003G13KT CAVOK 32/09 Q1018 NOSIG=
METAR EDDL 081350Z 23004KT 210V310 CAVOK 31/07 Q1018 NOSIG=
METAR EDDM 081350Z 04004KT 010V110 CAVOK 25/08 Q1022 NOSIG=
METAR EDDN 081350Z VRB02KT CAVOK 28/07 Q1021 NOSIG=
METAR EDDP 081350Z VRB03KT CAVOK 28/11 Q1020 NOSIG=
METAR EDDR 081350Z 18004KT 160V220 CAVOK 30/11 Q1020 NOSIG=
METAR EDDS 081350Z VRB03KT CAVOK 29/08 Q1021 NOSIG=
METAR EDDT 081350Z 14002KT CAVOK 29/07 Q1020 NOSIG=
METAR EDDV 081350Z 19007KT 170V230 CAVOK 30/10 Q1019 NOSIG=
METAR EDDW 081350Z 26010KT 210V280 CAVOK 31/08 Q1018 NOSIG=
METAR EHEH 081355Z AUTO 31004KT 9999NDV NCD 32/12 Q1018 BLU BLU=
METAR EKVG 081352Z 20010KT 170V240 9999 -SHRA SCT006 BKN010 BKN014
      11/09 Q0995 RMK/RWY 13/31 CLOSED DUE WIP/ SEE NOTAM E0050/10
      WIND 850FT VRB05G24KT=
METAR ETNG 081350Z 30008KT CAVOK 32/12 Q1018 NOSIG=
METAR LMML 081345Z 08010KT 040V130 9999 FEW017 29/21 Q1018 NOSIG=
METAR LPLA 081400Z 00000KT 9999 SCT013 BKN028 21/19 Q1024=
METAR LSGG 081350Z 25006KT 210V330 9999 FEW060 BKN250 32/11 Q1021 NOSIG=
METAR LSZA 081350Z 19008KT 9999 FEW055 29/17 Q1021 NOSIG=
METAR LSZH 081350Z VRB03KT CAVOK 29/12 Q1021 NOSIG=
METAR LXGB 081350Z 09008KT CAVOK 27/16 Q1016 NOSIG=
####018001413####
SAEW KAWN 081400
METAR EDDB 081350Z 19005KT CAVOK 28/05 Q1020 NOSIG=
METAR EDDC 081350Z VRB03KT CAVOK 26/08 Q1021 NOSIG=
METAR EDDE 081350Z VRB02KT CAVOK 28/09 Q1021 NOSIG=
METAR EDDF 081350Z 18006KT 130V220 CAVOK 31/11 Q1019 NOSIG=
METAR EDDG 081350Z 24008KT CAVOK 31/10 Q1019 NOSIG=
METAR EDDH 081350Z 26009KT CAVOK 29/10 Q1018 NOSIG=
METAR EDDK 081350Z 17003G13KT CAVOK 32/09 Q1018 NOSIG=
METAR EDDL 081350Z 23004KT 210V310 CAVOK 31/07 Q1018 NOSIG=
METAR EDDM 081350Z 04004KT 010V110 CAVOK 25/08 Q1022 NOSIG=
METAR EDDN 081350Z VRB02KT CAVOK 28/07 Q1021 NOSIG=
METAR EDDP 081350Z VRB03KT CAVOK 28/11 Q1020 NOSIG=
METAR EDDR 081350Z 18004KT 160V220 CAVOK 30/11 Q1020 NOSIG=
METAR EDDS 081350Z VRB03KT CAVOK 29/08 Q1021 NOSIG=
METAR EDDT 081350Z 14002KT CAVOK 29/07 Q1020 NOSIG=
METAR EDDV 081350Z 19007KT 170V230 CAVOK 30/10 Q1019 NOSIG=
METAR EDDW 081350Z 26010KT 210V280 CAVOK 31/08 Q1018 NOSIG=
METAR EHEH 081355Z AUTO 31004KT 9999NDV NCD 32/12 Q1018 BLU BLU=
METAR EKVG 081352Z 20010KT 170V240 9999 -SHRA SCT006 BKN010 BKN014
      11/09 Q0995 RMK/RWY 13/31 CLOSED DUE WIP/ SEE NOTAM E0050/10
      WIND 850FT VRB05G24KT=
METAR ETNG 081350Z 30008KT CAVOK 32/12 Q1018 NOSIG=
METAR LSGG 081350Z 25006KT 210V330 9999 FEW060 BKN250 32/11 Q1021 NOSIG=
METAR LSZA 081350Z 19008KT 9999 FEW055 29/17 Q1021 NOSIG=
METAR LSZH 081350Z VRB03KT CAVOK 29/12 Q1021 NOSIG=
####018000084####
SAMD90 KWBC 081354
METAR KFDK 081353Z AUTO 00000KT 7SM CLR 34/22 A3005 RMK AO2=
####018000886####
SAXN17 KAWN 081400
METAR MMAN 081345Z 30008KT 15SM SCT040 SCT080 28/24 A2992 RMK 8/570=
METAR MMCU 081345Z 06008KT 10SM BKN030 BKN100 23/12 A3014 RMK 8/570
      CUPOTS/W=
METAR MMCV 081346Z 25010KT 12SM BKN040 BKN090 25/24 A2988 RMK 8/570=
METAR MMRX 081345Z 33008KT 6SM BKN008 OVC015 27/25 A2983 RMK 8/8//
      -RA OCNL HZ=
METAR MMTC 081345Z 27006KT 10SM BKN030 22/18 A3005 RMK 8/500=
METAR MMZO 081351Z 00000KT 10SM BKN100 BKN250 24/23 A2977 RMK 8/035
      HZY RTS=
METAR MPTO 081400Z 00000KT 9999 BKN018 28/24 Q1012 NOSIG=
METAR MSSS 081350Z 00000KT 9999 FEW020 BKN300 22/21 Q1015 A3000=
METAR NSTU 081350Z 10012KT 10SM SCT016 BKN040 28/26 A2987 RMK SHRAB24E48
      SLP115 T02770262=
PAEH SA 1355 AWOS M60 OVC 10 49/-19/1303/997=
PATC SA 1355 AWOS CLR BLO 120 10 48/43/3604/013=
METAR SVMG 081400Z 07012KT 9999 SCT010 SCT080 30/25 Q1013 NOSIG=
####018000553####
SARS18 KAWN 081400
METAR EETN 081350Z 30009KT CAVOK 26/18 Q1014 NOSIG=
METAR EETU 081350Z 27004KT 230V330 9999 FEW025CB SCT030 BKN130 21/20
      Q1013=
METAR EFHK 081350Z 32006KT 9999 FEW028 FEW040CB BKN060 28/17 Q1013
      BECMG TS=
METAR EVLA 081350Z AUTO VRB05KT 9999 NCD 22/15 Q1019=
METAR EVRA 081350Z 31010KT 270V340 9999 OVC030 21/16 Q1016 NOSIG=
METAR EYKA 081350Z 28008KT 250V340 9999 OVC027 17/14 Q1016=
METAR EYPA 081350Z 33006KT CAVOK 21/15 Q1019=
METAR EYVI 081350Z 29010KT 270V330 4000 BR OVC005 15/14 Q1015 NOSIG=
####018000084####
SAMD90 KWBC 081354
METAR KFME 081354Z AUTO 10005KT 7SM CLR 27/22 A3004 RMK AO1=
####018000084####
SAMD90 KWBC 081354
METAR KDMW 081352Z AUTO 14003KT 7SM CLR 31/22 A3005 RMK AO2=
####018000084####
SAMD90 KWBC 081354
METAR KW29 081353Z AUTO 16008KT 7SM CLR 28/22 A3002 RMK AO1=
####018000108####
SAUS42 KJAX 081354
MTRNRB
METAR KNRB 081352Z VRB03KT 10SM CLR 28/19 A3002 RMK AO2 SLP165 
T02780194
####018000412####
SAXX70 KAWN 081400 RRB
METAR KQEL 081350Z AUTO 09001KT 3SM -RA BR OVC060 22/20 A2976 RMK A02=
METAR KQEW 081350Z AUTO 21005KT 7SM BKN036 24/21 A2986 RMK A02=
METAR KQFB 081350Z AUTO 18002KT 2SM -RA BR BKN018 23/21 A2997 RMK A02=
METAR KQL5 081355Z 09006KT 9999 FEW180 39/16 A2956 RMK AO2A SLP962
      WND DATA ESTMD ALSTG/SLP ESTMD=
METAR KQTU 081355Z 24010G15KT 9999 CLR 44/M02 A2959 RMK SLP002=
####018000118####
SAUS46 KSEW 081354
MTRUIL
METAR KUIL 081353Z AUTO 00000KT 10SM CLR 16/11 A2997 RMK AO2 SLP146 
T01560111 TSNO
####018000200####
SAAK41 KNKA 081354
METAR PATA 081352Z AUTO 36004KT 10SM CLR 09/06 A3005 RMK AO2 SLP177 
    T00890056 TSNO=
METAR PHJR 081353Z VRB03KT 10SM FEW060 22/17 A3002 RMK AO2 SLP170 
    T02220172=
####018002907####
SAUS20 KNKA 081354
METAR KAWM 081353Z AUTO VRB04KT 10SM CLR 29/22 A3007 RMK AO2 SLP179 
    T02890222=
METAR KAXN 081353Z AUTO 29010KT 10SM CLR 21/16 A3013 RMK AO2 SLP199 
    T02110156=
METAR KAZO 081353Z 00000KT 5SM HZ FEW065 SCT100 26/22 A3004 RMK AO2 
    SLP165 T02610217=
METAR KBAF 081353Z 16006KT 5SM BR OVC007 24/22 A3008 RMK AO2 SLP182 
    T02440222=
METAR KBBW 081353Z AUTO 35006KT 10SM CLR 20/16 A3025 RMK AO2 SLP229 
    T02000156=
METAR KBCE 081353Z AUTO 00000KT 10SM CLR 15/03 A3035 RMK AO2 SLP156 
    T01500028 TSNO=
METAR KBDE 081353Z AUTO VRB04KT 10SM CLR 19/14 A3001 RMK AO2 SLP163 
    T01940139=
METAR KBEH 081353Z AUTO 14004KT 10SM FEW031 BKN041 OVC065 24/22 
    A3002 RMK AO2 LTG DSNT E SLP162 T02440217 $=
METAR KBFD 081353Z AUTO 12004KT 9SM CLR 27/18 A3014 RMK AO2 SLP187 
    T02720178=
METAR KBFF 081353Z AUTO 00000KT 10SM SCT039 17/13 A3031 RMK AO2 
    SLP234 T01720128=
METAR KBFI 081353Z 35003KT 10SM CLR 20/14 A2996 RMK AO2 SLP145 
    T02000139=
METAR KBFM 081353Z 00000KT 10SM FEW010 SCT050 29/24 A3006 RMK AO2 
    SLP178 T02890239=
METAR KBGM 081353Z 00000KT 7SM CLR 27/20 A3012 RMK AO2 SLP184 
    T02720200=
METAR KBGR 081353Z 18008KT 10SM FEW015 OVC045 23/20 A3010 RMK AO2 
    SLP189 T02330200=
METAR KBHK 081353Z AUTO 25007KT 10SM FEW100 19/11 A3022 RMK AO2 
    SLP216 T01940106=
METAR KBHM 081353Z 34003KT 10SM CLR 30/22 A3008 RMK AO2 SLP177 
    T03000222=
METAR KBIE 081350Z AUTO 03006KT 10SM SCT035 21/18 A3016 RMK AO2 
     T02070182=
METAR KBIL 081353Z 22008KT 10SM CLR 13/06 A3026 RMK AO2 SLP227 
    T01330061=
METAR KBIV 081353Z AUTO 30003KT 1 1/2SM +RA BR OVC001 24/22 A3004 
    RMK AO2 RAB15 SLP168 P0016 T02390222=
METAR KBKE 081353Z AUTO 00000KT 10SM CLR 11/08 A3014 RMK AO2 SLP186 
    T01060078=
METAR KBKL 081353Z 21007KT 9SM FEW070 32/18 A3004 RMK AO2 SLP165 
    T03170178=
METAR KBLI 081353Z AUTO 00000KT 10SM CLR 17/14 A2998 RMK AO2 SLP157 
    T01720144=
METAR KBMG 081353Z 25006KT 28/23 A3007 RMK AO2 SLP171 T02830228 $=
METAR KBMQ 081353Z AUTO 08007KT 8SM FEW013 SCT041 BKN050 25/22 A3004 
    RMK AO2 SLP155 T02500222=
METAR KBNA 081353Z VRB05KT 10SM FEW060 SCT200 31/21 A3009 RMK AO2 
    SLP182 T03110206 $=
METAR KBOI 081353Z 15008KT 10SM CLR 20/06 A3010 RMK AO2 SLP163 
    T02000056=
METAR KBPI 081353Z AUTO 00000KT 10SM CLR 10/04 A3041 RMK AO2 SLP218 
    T01000039=
METAR KBPK 081353Z AUTO VRB03KT 9SM FEW037 SCT070 OVC090 24/22 A3009 
    RMK AO2 SLP179 T02440222=
METAR KBPT 081353Z 08010KT 9SM BKN009 28/25 A2999 RMK AO2 SLP155 
    T02780250=
METAR KBRD 081353Z AUTO 26005KT 10SM CLR 21/14 A3009 RMK AO2 SLP185 
    T02110144=
METAR KBRL 081353Z AUTO 6SM BR OVC004 23/22 A3007 RMK AO2 CIG 
    004V010 SLP178 T02330217=
METAR KBTA 081350Z AUTO 36007KT 10SM CLR 20/17 A3016 RMK AO2 
     T02040170=
####018002960####
SAUS20 KNKA 081354
METAR K36U 081357Z AUTO 00000KT 10SM CLR 14/07 A3025 RMK AO2=
METAR KPMV 081350Z AUTO 36004KT 10SM CLR 22/19 A3015 RMK AO2 
     T02220189=
METAR KABR 081353Z AUTO 27007KT 10SM CLR 21/13 A3014 RMK AO2 SLP201 
    T02110133=
METAR KACK 081353Z 13011KT 10SM CLR 23/19 A3010 RMK AO2 SLP193 
    T02280194=
METAR KACV 081353Z AUTO 00000KT 2SM R32/5000VP6000FT BR OVC001 10/09 
    A2995 RMK AO2 SLP149 T01000094=
METAR KADG 081353Z AUTO 00000KT 8SM CLR 29/21 A3005 RMK AO2 SLP171 
    T02890211=
METAR KAEX 081353Z AUTO 08004KT 10SM CLR 27/24 A3004 RMK AO2 SLP174 
    T02670244=
METAR KAFK 081350Z AUTO 04007KT 10SM CLR 22/19 A3014 RMK AO2 
     T02190193=
METAR KAGC 081353Z 15003KT 5SM HZ CLR 28/19 A3009 RMK AO2 SLP182 
    T02830194=
METAR KAGS 081353Z 33010KT 10SM CLR 33/18 A2999 RMK AO2 SLP154 
    T03330178=
METAR KAIA 081353Z AUTO 00000KT 10SM BKN060 16/13 A3031 RMK AO2 
    SLP237 T01610128=
METAR KAKO 081353Z AUTO 16006KT 4SM BR OVC003 15/14 A3033 RMK AO2 
    SLP237 T01500144 TSNO=
METAR KALI 081353Z AUTO 04009G15KT 10SM FEW007 SCT016 BKN024 26/25 
    A2986 RMK AO2 RAE45 SLP107 P0007 T02560250=
METAR KALN 081350Z 00000KT 6SM BR SCT006 BKN022 OVC060 26/25 A3006=
METAR KALW 081353Z 17004KT 10SM CLR 21/08 A3001 RMK AO2 SLP151 
    T02060078=
METAR KAMA 081353Z 36008KT 10SM FEW003 SCT007 OVC020 18/17 A3023 RMK 
    AO2 SLP198 T01780167=
METAR KAMW 081353Z AUTO 35008KT 10SM FEW080 22/19 A3013 RMK AO2 
    SLP196 T02220189=
METAR KANB 081353Z AUTO 00000KT 9SM CLR 29/21 A3006 RMK AO2 SLP168 
    T02890211=
METAR KANW 081350Z AUTO 29004KT 10SM CLR 19/14 A3026 RMK AO2 
     T01860142=
METAR KAOH 081353Z AUTO 19004KT 10SM 29/22 A3007 RMK AO2 SLP173 
    T02890217 $=
METAR KAOO 081353Z AUTO 00000KT 5SM HZ CLR 28/18 A3011 RMK AO2 
    SLP183 T02780183=
METAR KAPA 081353Z 36007KT 2 1/2SM BR BKN002 BKN070 14/12 A3036 RMK 
    AO2 SFC VIS 4 SLP238 T01390122=
METAR KAPF 081353Z 05008KT 10SM FEW030 29/23 A2998 RMK AO2 SLP152 
    T02890233=
METAR KARA 081353Z 09009KT 8SM BKN007 27/25 A3003 RMK AO2 CIG 
    005V011 SLP169 T02720250=
METAR KARB 081353Z VRB03KT 10SM CLR 29/21 A3004 RMK AO2 SLP163 
    T02890211=
METAR KASD 081353Z AUTO 07006KT 10SM CLR 29/25 A3004 RMK AO2 SLP172 
    T02890250=
METAR KASE 081353Z 00000KT 10SM CLR 10/07 A3040 RMK AO2 SLP195 
    T01000067=
METAR KASX 081353Z AUTO 25004KT 10SM CLR 22/17 A3006 RMK AO2 SLP177 
    T02220167=
METAR KATY 081353Z AUTO 26003KT 10SM CLR 19/15 A3016 RMK AO2 SLP205 
    T01940150=
METAR KAUG 081353Z AUTO VRB04KT 10SM BKN011 OVC017 23/21 A3010 RMK 
    AO2 SLP193 T02330206=
METAR KAUH 081350Z AUTO 01004KT 10SM CLR 19/15 A3020 RMK AO2 
     T01900154=
METAR KAUN 081350Z AUTO 00000KT 10SM CLR 19/15 A2988 RMK AO1=
METAR KAUS 081353Z 09004KT 4SM -RA BR BKN010 OVC014 26/24 A2998 RMK 
    AO2 RAB42 CIG 006V012 SLP142 P0000 T02610239=
####018002961####
SAUS20 KNKA 081354
METAR KBTL 081353Z 07003KT 10SM CLR 27/21 A3004 RMK AO2 LTG DSNT W 
    SLP165 T02720211=
METAR KBTM 081353Z AUTO 00000KT 10SM CLR 09/02 A3033 RMK AO2 SLP235 
    T00940017=
METAR KBUR 081353Z 18003KT 4SM HZ OVC007 16/13 A2991 RMK AO2 SLP120 
    T01560128=
METAR KBVN 081350Z AUTO 34003KT 10SM CLR 20/15 A3021 RMK AO2 
     T01970154=
METAR KBVO 081353Z 07003KT 10SM FEW011 24/22 A3007 RMK AO2 SLP173 
    T02390217=
METAR KBVY 081353Z 17006KT 10SM CLR 26/21 A3009 RMK AO2 SLP183 
    T02560206 PNO=
METAR KBWG 081353Z AUTO 00000KT 10SM CLR 29/22 A3009 RMK AO2 SLP180 
    T02940217=
METAR KBYG 081353Z AUTO 00000KT 10SM CLR 17/04 A3031 RMK AO2 SLP220 
    T01720044=
METAR KBYI 081353Z AUTO 12005KT 10SM CLR 16/06 A3016 RMK AO2 SLP173 
    T01560061=
METAR KCAG 081353Z AUTO 05003KT 10SM BKN120 11/07 A3034 RMK AO2 
    SLP226 T01110072=
METAR KCCR 081353Z 22005KT 10SM SCT012 13/09 A2991 RMK AO2 SLP116 
    T01280094=
METAR KCDC 081353Z AUTO 00000KT 10SM CLR 14/04 A3018 RMK AO2 SLP144 
    T01440039=
METAR KCDR 081353Z AUTO 26004KT 10SM CLR 15/12 A3030 RMK AO2 SLP249 
    T01500117=
METAR KCDW 081353Z VRB04KT 5SM HZ FEW031 28/23 A3005 RMK AO2 SLP178 
    T02780228=
METAR KCEZ 081353Z AUTO 33003KT 10SM CLR 19/07 A3027 RMK AO2 SLP167 
    T01940072=
METAR KCGI 081353Z 25005KT 10SM FEW110 28/24 A3006 RMK AO2 SLP174 
    T02780239=
METAR KCHO 081353Z VRB03KT 4SM HZ CLR 32/19 A3002 RMK AO2 SLP158 
    T03220194=
METAR KCKB 081353Z 00000KT 6SM HZ CLR 27/19 A3011 RMK AO2 SLP178 
    T02670194=
METAR KCLL 081353Z 09010KT 8SM OVC009 27/23 A2999 RMK AO2 CIG 
    007V012 SLP150 T02670233=
METAR KCLM 081353Z AUTO A3000 RMK AO2 SLPNO PWINO FZRANO $=
METAR KCMI 081353Z 28004KT 10SM FEW020 SCT085 28/23 A3005 RMK AO2 
    SLP169 T02780233=
METAR KCMX 081353Z AUTO 28012KT 10SM FEW060 21/16 A3001 RMK AO2 
    SLP161 T02110161=
METAR KCNM 081353Z AUTO 32010KT 9SM -RA FEW007 BKN048 OVC100 19/19 
    A3018 RMK AO2 SLP176 P0006 T01940189=
METAR KCNO 081353Z 23003KT 2 1/2SM BR OVC009 15/13 A2994 RMK AO2 
    SLP133 T01500128=
METAR KCNY 081353Z AUTO 13006KT 10SM CLR 23/05 A3015 RMK AO2 SLP146 
    T02280050=
METAR KCOT 081353Z AUTO 04006KT 10SM OVC009 26/23 A2991 RMK AO2 
    RAE1257 SLP121 P0000 T02560233=
METAR KCPR 081353Z 27003KT 10SM CLR 11/07 A3036 RMK AO2 SLP239 
    T01110072 $=
METAR KCPS 081353Z 30004KT 10SM FEW018 SCT022 BKN044 28/23 A3005 RMK 
    AO2 SLP171 T02780228=
METAR KCRP 081351Z 03006KT 10SM SCT022CB SCT040 BKN060 27/25 A2985
     RMK AO2 RAE31 SLP106 CB DSNT E TCU DSNT NE SE S SW P0001
     T02670250 $=
METAR KCRQ 081353Z AUTO 00000KT 8SM SCT007 OVC015 17/14 A2991 RMK 
    AO2 SLP125 T01720139 TSNO=
METAR KCSV 081353Z AUTO 00000KT 7SM CLR 29/19 A3016 RMK AO2 SLP186 
    T02890189=
METAR KCXO 081353Z VRB03KT 9SM BKN007 26/24 A2999 RMK AO2 CIG 
    006V010 SLP151 T02560239=
####018000121####
SAUS45 KABQ 081354
MTRCQC
METAR KCQC 081353Z AUTO 08008KT 10SM SCT110 13/10 A3040 RMK AO2 
SLP229 T01280100 TSNO
####018000118####
SAUS45 KABQ 081354
MTRRTN
METAR KRTN 081353Z AUTO 35005KT 10SM CLR 17/11 A3038 RMK AO2 SLP216 
T01720106 TSNO
####018000121####
SAUS44 KMAF 081354
MTR6R6
METAR K6R6 081353Z AUTO 05004KT 23/21 A3005 RMK AO2 SLP142 P0001 
T02280211 PWINO TSNO
####018000108####
SAUS42 KTAE 081354
MTRTLH
METAR KTLH 081353Z 33005KT 10SM CLR 29/22 A3003 RMK AO2 SLP168 
T02890222
####018000108####
SAUS43 KFGF 081354
MTRFAR
METAR KFAR 081353Z 27005KT 10SM CLR 21/13 A3008 RMK AO2 SLP185 
T02110133
####018000110####
SAUS42 KCHS 081354
MTRSAV
METAR KSAV 081353Z 29008KT 10SM CLR 30/19 A3000 RMK AO2 SLP156 
T03000194 $
####018000142####
SAUS43 KAPX 081354
MTRHTL
METAR KHTL 081353Z AUTO 25006KT 6SM -RA BR FEW009 BKN041 OVC065 
22/21 A3005 RMK AO2 SLP170 P0003 T02220211
####018000110####
SAUS43 KMKX 081354
MTRMSN
METAR KMSN 081353Z 32004KT 8SM BKN008 24/21 A3003 RMK AO2 SLP164 
T02390211
####018002932####
SAUS20 KNKA 081354
METAR KOPF 081353Z 07009KT 10SM FEW023 30/24 A2997 RMK AO2 SLP148 
    T03000244=
METAR KORF 081351Z 07009KT 10SM FEW015 SCT080 BKN100 27/22 A2999
     RMK AO2 RAE1257 SLP155 P0000 T02720217=
METAR KORL 081353Z 00000KT 10SM CLR 27/19 A3002 RMK AO2 SLP168 
    T02720194=
METAR KOSH 081353Z 31006KT 10SM OVC013 23/20 A3002 RMK AO2 SLP151 
    T02330200=
METAR KOSU 081353Z 28003KT 7SM CLR 29/21 A3008 RMK AO2 SLP177 
    T02890206=
METAR KOTM 081353Z AUTO 35006KT 8SM SCT008 22/21 A3009 RMK AO2 
    SLP184 T02220206=
METAR KOVE 081353Z AUTO 14004KT 10SM CLR 18/12 A2986 RMK AO2 SLP114 
    T01780117 TSNO=
METAR KOVS 081353Z AUTO 31004KT 10SM BKN013 BKN017 23/20 A3006 RMK 
    AO2 SLP178 T02330200=
METAR KOWD 081353Z VRB04KT 10SM FEW023 27/19 A3009 RMK AO2 SLP188 
    T02720194=
METAR KOXB 081353Z AUTO 08007KT 10SM FEW090 27/24 A3003 RMK AO2 
    SLP168 T02720244 $=
METAR KPAE 081353Z AUTO 01003KT 10SM CLR 20/12 A2998 RMK AO2 SLP149 
    T02000117=
METAR KPAH 081353Z 26004KT 10SM CLR 28/23 A3007 RMK AO2 SLP176 
    T02830233=
METAR KPBF 081353Z AUTO 00000KT 10SM CLR 27/23 A3009 RMK AO2 SLP188 
    T02720233=
METAR KPBG 081353Z AUTO 14006KT 7SM CLR 28/22 A3000 RMK AO2 SLP157 
    T02780222=
METAR KPBI 081353Z 06005KT 10SM BKN024CB BKN031 BKN055 32/28 A2997 
    RMK AO2 RAE05 SLP147 CB OHD-SW-NE MOV SW P0000 T03170279 $=
METAR KPDK 081353Z VRB03KT 10SM CLR 31/18 A3006 RMK AO2 SLP157 
    T03110183=
METAR KPDT 081353Z 14004KT 10SM CLR 18/08 A3000 RMK AO2 SLP143 
    T01780083=
METAR KPDX 081353Z 00000KT 10SM FEW250 19/14 A2992 RMK AO2 SLP131 
    T01890139=
METAR KPEO 081353Z AUTO 23004KT 7SM CLR 29/22 A3007 RMK AO2 SLP175 
    T02890222=
METAR KPGA 081353Z AUTO 00000KT 10SM CLR 26/04 A3009 RMK AO2 SLP115 
    T02560039=
METAR KPGD 081353Z AUTO 05008KT 10SM CLR 28/22 A3002 RMK AO2 SLP166 
    T02780222 TSNO=
METAR KPHD 081353Z AUTO 14003KT 7SM CLR 27/19 A3009 RMK AO2 SLP181 
    T02720189=
METAR KPIE 081353Z 08005KT 10SM CLR 27/22 A3001 RMK AO2 SLP162 
    T02670217=
METAR KPIH 081353Z 00000KT 10SM CLR 11/06 A3019 RMK AO2 SLP188 
    T01110056=
METAR KPIL 081353Z AUTO 36009KT 10SM -RA SCT016 SCT022 BKN030 28/26 
    A2977 RMK AO2 RAB24 SLP079 P0002 T02830261=
METAR KPIR 081353Z AUTO 27003KT 10SM CLR 18/13 A3019 RMK AO2 SLP214 
    T01830133=
METAR KPKB 081353Z 00000KT 6SM HZ CLR 27/21 A3012 RMK AO2 SLP189 
    T02720211=
METAR KPKD 081353Z AUTO 28006KT 10SM CLR 20/14 A3009 RMK AO2 SLP188 
    T02000144=
METAR KPMD 081353Z 00000KT 10SM CLR 19/01 A2992 RMK AO2 SLP105 
    T01890006 $=
METAR KPMP 081353Z 08008KT 10SM CLR 30/24 A2997 RMK AO2 SLP149 
    T03000244=
METAR KPNA 081350Z AUTO 30005KT 10SM BKN090 10/02 A3041 RMK AO2 
     T00950022=
METAR KPNC 081353Z AUTO 36006KT 10SM BKN009 BKN042 24/22 A3008 RMK 
    AO2 CIG 006V011 SLP175 T02440222=
####018002996####
SAUS20 KNKA 081354
METAR KESF 081353Z AUTO 09004KT 10SM BKN005 27/24 A3006 RMK AO2 
    SLP176 T02670239=
METAR KEVW 081353Z AUTO 07008KT 10SM CLR 13/04 A3035 RMK AO2 SLP191 
    T01280044 TSNO=
METAR KEWB 081353Z 13008KT 10SM BKN018 27/22 A3009 RMK AO2 SLP188 
    T02720217=
METAR KEYE 081353Z AUTO 25005KT 10SM CLR 28/22 A3005 RMK AO2 SLP168 
    T02830217=
METAR KEYW 081353Z VRB05KT 10SM FEW017 29/24 A2997 RMK AO2 SLP147 
    T02940244=
METAR KFAT 081353Z 33005KT 10SM CLR 19/09 A2985 RMK AO2 SLP105 MTNS 
    OBSCD DSNT N E-SE T01940094=
METAR KFAY 081353Z AUTO 04008KT 7SM CLR 31/21 A2996 RMK AO2 SLP139 
    T03060211=
METAR KFCM 081353Z 27004KT 10SM CLR 22/16 A3011 RMK AO2 SLP191 
    T02220156=
METAR KFDY 081353Z AUTO 24003KT 8SM CLR 29/21 A3005 RMK AO2 SLP165 
    T02890211=
METAR KFFC 081353Z AUTO 00000KT 10SM CLR 30/19 A3006 RMK AO2 SLP172 
    T03000194=
METAR KFFT 081353Z AUTO 19006KT 4SM HZ CLR 29/21 A3008 RMK AO2 
    SLP177 T02940206=
METAR KFHR 081353Z AUTO 00000KT 10SM CLR 20/12 A2999 RMK AO2 SLP154 
    T02000122=
METAR KFLD 081353Z AUTO 30008KT 10SM BKN015 24/21 A3002 RMK AO2 
    SLP160 T02440211=
METAR KFLL 081353Z 07008KT 10SM SCT023 30/24 A2996 RMK AO2 SLP144 
    T03000244=
METAR KFMN 081353Z 00000KT 10SM CLR 19/06 A3027 RMK AO2 SLP181 
    T01940061=
METAR KFMY 081353Z 06007KT 10SM CLR 28/23 A2998 RMK AO2 SLP152 
    T02830228=
METAR KFNB 081353Z AUTO 02006KT 10SM FEW009 22/19 A3013 RMK AO2 
    SLP193 T02220194=
METAR KFNT 081353Z AUTO 20004KT 10SM CLR 28/21 A3003 RMK AO2 SLP161 
    T02830211=
METAR KFOE 081353Z 02005KT 7SM OVC005 23/21 A3012 RMK AO2 SLP190 
    T02280211=
METAR KFOK 081353Z 13007KT 10SM CLR 27/19 A3008 RMK AO2 SLP185 
    T02670189=
METAR KFPR 081353Z 06004KT 10SM SCT030 29/21 A3000 RMK AO2 SLP157 
    T02940211=
METAR KFRG 081353Z 14007KT 10SM SCT008 OVC017 26/23 A3006 RMK AO2 
    SLP179 T02610228=
METAR KFSM 081353Z 06003KT 10SM OVC046 26/23 A3006 RMK AO2 RAB15E28 
    SLP173 P0000 T02610228=
METAR KFST 081353Z AUTO 34005KT 6SM -RA BR FEW014 BKN050 OVC080 
    22/20 A3012 RMK AO2 RAB25 SLP153 P0000 T02170200=
METAR KFTY 081353Z 00000KT 8SM CLR 31/21 A3005 RMK AO2 SLP166 
    T03060206=
METAR KFUL 081353Z 00000KT 7SM OVC015 17/13 A2991 RMK AO2 SLP126 
    T01720128=
METAR KFVE 081353Z AUTO 16004KT 5SM HZ BKN018 27/23 A3000 RMK AO2 
    SLP152 T02670233=
METAR KFWN 081353Z AUTO 00000KT 6SM HZ CLR 29/23 A3005 RMK AO2 
    SLP172 T02890228=
METAR KFXE 081353Z 07007KT 10SM FEW022 30/23 A2996 RMK AO2 SLP149 
    T03000233=
METAR KFYV 081353Z 20005KT 10SM SCT028 BKN034 OVC055 24/22 A3009 RMK 
    AO2 SLP175 T02440222=
METAR KGAG 081353Z AUTO 02007KT 3SM RA BR OVC005 20/19 A3017 RMK AO2 
    SLP191 P0002 T02000194=
METAR KGCC 081353Z AUTO 11003KT 10SM CLR 17/09 A3030 RMK AO2 SLP226 
    T01670089=
METAR KGEG 081353Z 05007KT 10SM CLR 18/08 A3008 RMK AO2 SLP167 
    T01780083=
####018002950####
SAUS20 KNKA 081354
METAR KGEY 081353Z AUTO 00000KT 7SM CLR 14/05 A3028 RMK AO2 SLP228 
    T01390050=
METAR KGEZ 081353Z AUTO 19007KT 7SM CLR 28/22 A3005 RMK AO2 SLP167 
    T02780217=
METAR KGFK 081353Z 32006KT 10SM CLR 21/14 A3007 RMK AO2 SLP181 
    T02060139=
METAR KGFL 081353Z AUTO 00000KT 6SM HZ FEW090 29/22 A3003 RMK AO2 
    SLP165 T02940222=
METAR KGGW 081353Z AUTO 32004KT 10SM CLR 15/11 A3017 RMK AO2 SLP214 
    T01500106 TSNO=
METAR KGIF 081353Z AUTO 05005KT 10SM CLR 28/21 A3003 RMK AO2 SLP167 
    T02780211 TSNO=
METAR KGJT 081353Z 07014KT 10SM CLR 22/07 A3021 RMK AO2 SLP158 
    T02170067=
METAR KGLD 081353Z AUTO 00000KT 10SM OVC038 17/16 A3031 RMK AO2 
    SLP235 T01720156=
METAR KGLH 081353Z 00000KT 10SM CLR 27/24 A3007 RMK AO2 SLP188 
    T02720239=
METAR KGLR 081353Z AUTO 26005KT 8SM -RA SCT010 BKN060 22/21 A3003 
    RMK AO2 SLP164 P0005 T02170206=
METAR KGMU 081353Z 05004KT 9SM CLR 32/18 A3006 RMK AO2 SLP165 
    T03170183=
METAR KGPT 081353Z 03004KT 10SM FEW022 31/25 A3004 RMK AO2 SLP172 
    T03060250=
METAR KGRB 081353Z 30006KT 2 1/2SM BR FEW006 BKN017 23/21 A3001 RMK 
    AO2 SLP159 T02330211=
METAR KGRI 081353Z 36005KT 10SM CLR 19/15 A3022 RMK AO2 SLP223 
    T01890150=
METAR KGRR 081353Z 00000KT 3SM -RA BR FEW008 BKN036 OVC095 24/22 
    A3003 RMK AO2 RAB41 SLP163 P0000 T02440222=
METAR KGSH 081353Z AUTO 28004KT 4SM -RA FEW016 BKN055 BKN085 25/22 
    A3005 RMK AO2 LTG DSNT SW AND W RAB07 SLP171 P0000 T02500222=
METAR KGSP 081353Z VRB03KT 9SM CLR 31/19 A3004 RMK AO2 SLP156 
    T03110189=
METAR KGTF 081353Z 25003KT 10SM CLR 14/08 A3024 RMK AO2 SLP219 
    T01440078=
METAR KGUP 081353Z AUTO 12006KT 10SM CLR 20/08 A3029 RMK AO2 SLP071 
    T02000083=
METAR KGUY 081353Z AUTO 35006KT 10SM BKN011 BKN019 OVC026 19/18 
    A3023 RMK AO2 RAB35E49 CIG 008V013 SLP199 P0000 T01890178=
METAR KGVL 081353Z AUTO 02007KT 10SM CLR 30/19 A3009 RMK AO2 SLP169 
    T03000194=
METAR KGWO 081353Z AUTO 00000KT 10SM CLR 29/23 A3008 RMK AO2 SLP182 
    T02890228=
METAR KHAO 081353Z AUTO 00000KT 4SM HZ CLR 29/23 A3008 RMK AO2 
    SLP180 T02890228=
METAR KHBG 081353Z AUTO VRB03KT 10SM CLR 29/24 A3007 RMK AO2 SLP178 
    T02890239=
METAR KHDE 081350Z AUTO 02004KT 10SM BKN095 19/15 A3023 RMK AO2 
     T01850152=
METAR KHEI 081353Z AUTO 24006KT 10SM CLR 17/11 A3021 RMK AO2 SLP218 
    T01720106=
METAR KHFD 081353Z 16006KT 7SM BKN017 27/22 A3006 RMK AO2 SLP180 
    T02720222=
METAR KHGR 081353Z 00000KT 5SM HZ CLR 31/18 A3004 RMK AO2 SLP173 
    T03110178=
METAR KHHR 081353Z 24003KT 9SM OVC012 17/13 A2992 RMK AO2 SLP130 
    T01670133=
METAR KHIB 081353Z AUTO 26007KT 10SM CLR 21/16 A3006 RMK AO2 SLP177 
    T02110156=
METAR KHIO 081353Z 00000KT 10SM CLR 16/13 A2992 RMK AO2 SLP127 
    T01610133=
METAR KHJH 081350Z AUTO 35004KT 10SM BKN035 20/18 A3018 RMK AO2 
     T02000176=
####018002934####
SAUS20 KNKA 081354
METAR KMLP 081353Z AUTO 12008G17KT 10SM CLR 13/02 A3027 RMK AO2 
    SLP160 T01280017 TSNO=
METAR KMLS 081353Z AUTO 16004KT 10SM CLR 16/11 A3021 RMK AO2 SLP218 
    T01610106=
METAR KMLT 081353Z AUTO VRB06KT 6SM HZ OVC015 24/21 A3007 RMK AO2 
    SLP185 T02390206=
METAR KMMH 081350Z AUTO 00000KT 10SM CLR 09/02 A3024 RMK AO1=
METAR KMMK 081353Z AUTO 15004KT 4SM HZ BKN016 BKN021 OVC034 27/22 
    A3007 RMK AO2 SLP180 T02670222=
METAR KMMV 081353Z AUTO 26004KT 10SM CLR 14/11 A2994 RMK AO2 SLP137 
    T01390106=
METAR KMNN 081353Z AUTO 26003KT 9SM CLR 28/21 A3008 RMK AO2 SLP178 
    T02830211=
METAR KMOD 081353Z 36004KT 10SM CLR 16/11 A2985 RMK AO2 SLP108 
    T01560111=
METAR KMPO 081353Z AUTO 07006KT 8SM FEW100 28/21 A3012 RMK AO2 
    SLP184 T02780206=
METAR KMRB 081353Z AUTO 00000KT 5SM HZ CLR 30/19 A3004 RMK AO2 
    SLP166 T03000189=
METAR KMSL 081353Z AUTO 00000KT 10SM CLR 29/23 A3010 RMK AO2 SLP186 
    T02940228=
METAR KMSO 081353Z 17004KT 10SM CLR 13/07 A3022 RMK AO2 SLP218 
    T01280067=
METAR KMSP 081353Z 27005KT 10SM CLR 23/16 A3011 RMK AO2 SLP193 
    T02280161=
METAR KMSS 081353Z AUTO 19004KT 7SM CLR 29/23 A3001 RMK AO2 SLP159 
    T02890233=
METAR KMSY 081353Z 09005KT 10SM SCT022 BKN250 29/23 A3004 RMK AO2 
    SLP175 T02890233=
METAR KMTH 081353Z AUTO 05007KT 10SM CLR 27/24 A2996 RMK AO2 
    TSB08E23UPB01E10 SLP143 P0000 T02720239 $=
METAR KMTJ 081353Z AUTO 00000KT 10SM CLR 17/06 A3029 RMK AO2 SLP181 
    T01720056=
METAR KMTO 081353Z AUTO 21007KT 10SM FEW100 27/24 A3005 RMK AO2 
    SLP168 T02720239=
METAR KMVY 081353Z 15011G16KT 10SM CLR 27/21 A3010 RMK AO2 SLP191 
    T02670206=
METAR KMWC 081350Z 28006KT 10SM BKN011 BKN033 22/20 A3003=
METAR KMYF 081353Z 35004KT 5SM BR OVC007 16/14 A2992 RMK AO2 CIG 
    006V010 SLP128 T01560144=
METAR KMYV 081353Z AUTO 14004KT 10SM CLR 16/11 A2985 RMK AO2 SLP111 
    T01610111=
METAR KNEW 081353Z 07008KT 10SM SCT014 29/26 A3005 RMK AO2 SLP167 
    T02890256=
METAR KOAK 081353Z 29010KT 8SM OVC007 14/11 A2995 RMK AO2 SLP141 
    T01440106=
METAR KODX 081353Z AUTO 32005KT 10SM BKN100 19/17 A3021 RMK AO2 
    SLP227 T01890167=
METAR KOGA 081350Z AUTO 00000KT 10SM SCT090 OVC110 17/15 A3030 
     RMK AO2 T01700153=
METAR KOGD 081353Z 00000KT 10SM CLR 21/06 A3014 RMK AO2 SLP147 
    T02060061 $=
METAR KOJC 081353Z 01006KT 10SM BKN012 BKN070 24/21 A3010 RMK AO2 
    SLP183 T02440211=
METAR KOLF 081353Z AUTO 22004KT 10SM CLR 17/11 A3017 RMK AO2 SLP211 
    T01670111=
METAR KOMK 081353Z AUTO 01009KT 10SM CLR 18/08 A3007 RMK AO2 SLP174 
    T01830083=
METAR KONL 081350Z AUTO 29004KT 10SM CLR 20/16 A3023 RMK AO2 
     T02000158=
METAR KONO 081353Z AUTO 00000KT 10SM CLR 14/06 A3009 RMK AO2 SLP177 
    T01440061=
METAR KONT 081353Z 20005KT 2SM BR OVC009 15/13 A2992 RMK AO2 SLP124 
    T01500128=
####018002958####
SAUS20 KNKA 081354
METAR KIWI 081353Z AUTO VRB05KT 10SM FEW095 24/19 A3012 RMK AO2 
    SLP198 T02440194=
METAR KIXD 081353Z 03005KT 10SM SCT010 SCT024 24/21 A3012 RMK AO2 
    SLP188 T02390206=
METAR KJAC 081351Z 00000KT 10SM SKC 11/01 A3038=
METAR KJBR 081353Z AUTO 24005KT 10SM CLR 28/22 A3008 RMK AO2 SLP182 
    T02830222 $=
METAR KJCT 081351Z AUTO 07004KT 10SM BKN008 OVC022 24/22 A3004 RMK
     AO2 CIG 007V011 SLP134 T02440222 TSNO=
METAR KJEF 081353Z 00000KT 10SM BKN005 OVC012 24/23 A3007 RMK AO2 
    SLP169 T02440228=
METAR KJER 081353Z AUTO 08012KT 10SM CLR 14/04 A3015 RMK AO2 SLP176 
    T01440039=
METAR KJKL 081353Z AUTO 00000KT 5SM HZ CLR 27/22 A3013 RMK AO2 
    SLP185 T02670217=
METAR KJLN 081353Z 00000KT 1/2SM +RA FG FEW002 BKN013 OVC029 22/22 
    A3009 RMK AO2 TSE48RAB48 SLP180 P0041 T02170217=
METAR KJYR 081350Z AUTO 01007KT 10SM CLR 19/17 A3019 RMK AO2=
METAR KLAA 081353Z AUTO 13008KT 10SM -RA SCT005 BKN011 OVC017 17/16 
    A3028 RMK AO2 SLP218 P0001 T01670161=
METAR KLAN 081353Z 00000KT 10SM SCT120 BKN200 27/21 A3003 RMK AO2 
    SLP162 T02720211 $=
METAR KLAR 081353Z AUTO 00000KT 10SM BKN004 OVC017 09/08 A3042 RMK 
    AO2 CIG 002V008 SLP231 T00940083=
METAR KLBF 081353Z AUTO 00000KT 10SM CLR 18/16 A3027 RMK AO2 SLP235 
    T01780156=
METAR KLCG 081350Z AUTO 00000KT 10SM CLR 20/17 A3019 RMK AO2 
     T02020168=
METAR KLBX 081353Z AUTO 00000KT 10SM FEW065 26/25 A2993 RMK AO2 
    RAE52 SLP136 P0005 T02610250=
METAR KLCH 081353Z 08009KT 6SM BR OVC006 27/25 A3001 RMK AO2 SLP170 
    T02720250=
METAR KLEB 081353Z 19003KT 5SM HZ OVC013 27/22 A3006 RMK AO2 SLP168 
    T02720222=
METAR KLEE 081353Z 00000KT 10SM CLR 27/20 A3003 RMK AO2 SLP169 
    T02720200=
METAR KLFK 081353Z AUTO 09007KT 10SM BKN010 27/24 A3003 RMK AO2 
    SLP164 T02720244=
METAR KLFT 081353Z VRB03KT 10SM OVC006 27/24 A3004 RMK AO2 CIG 
    004V010 SLP170 T02670244=
METAR KLGB 081353Z 33003KT 8SM OVC013 17/13 A2992 RMK AO2 SLP130 
    T01670133=
METAR KLHM 081351Z AUTO 16004KT 10SM CLR 16/11 A2985 RMK AO1 
     T01600111=
METAR KLHQ 081353Z AUTO 27005KT 5SM HZ CLR 28/22 A3009 RMK AO2 
    SLP181 T02830217=
METAR KLHX 081353Z AUTO 00000KT 10SM FEW021 OVC026 17/14 A3031 RMK 
    AO2 SLP213 T01720139 PNO=
METAR KLIT 081353Z 26004KT 10SM SCT011 BKN150 BKN250 27/24 A3010 RMK 
    AO2 SLP191 T02670239=
METAR KLLQ 081353Z AUTO 00000KT 10SM CLR 27/24 A3010 RMK AO2 SLP189 
    T02670239=
METAR KLMT 081353Z 00000KT 10SM FEW050 SCT100 BKN200 16/11 A3008 RMK 
    AO2 SLP136 T01610106=
METAR KLNS 081353Z 12003KT 4SM HZ CLR 30/22 A3003 RMK AO2 SLP164 
    T03000217=
METAR KLOL 081353Z AUTO 02007KT 10SM CLR 21/M04 A3003 RMK AO2 SLP120 
    T02111039=
METAR KLOU 081353Z 14004KT 6SM HZ CLR 29/22 A3007 RMK AO2 SLP176 
    T02890217=
METAR KLOZ 081353Z AUTO 00000KT 4SM HZ CLR 27/21 A3012 RMK AO2 
    SLP184 T02670211=
####018002988####
SAUS20 KNKA 081354
METAR KCYS 081353Z 22003KT 10SM SCT011 BKN040 14/12 A3037 RMK AO2 
    SLP233 T01390117=
METAR KDAG 081353Z AUTO 25010KT 10SM CLR 23/02 A2988 RMK AO2 SLP090 
    T02330022 TSNO $=
METAR KDAN 081353Z AUTO 04006KT 5SM HZ CLR 32/19 A3002 RMK AO2 
    SLP153 T03220189=
METAR KDBQ 081353Z 34005KT 9SM SCT011 24/21 A3007 RMK AO2 SLP176 
    T02390206=
METAR KDCU 081353Z AUTO 04005KT 10SM CLR 31/21 A3009 RMK AO2 SLP180 
    T03060206=
METAR KDEN 081353Z 05005KT 1 1/2SM BR BKN005 OVC008 15/14 A3033 RMK 
    AO2 SFC VIS 3 CIG 002V006 SLP219 T01500144=
METAR KDET 081353Z 29005KT 10SM CLR 31/20 A3003 RMK AO2 SLP161 
    T03110200 $=
METAR KDEW 081353Z AUTO 02010KT 10SM CLR 18/08 A3008 RMK AO2 SLP173 
    T01780078=
METAR KDFI 081353Z AUTO 19004KT 8SM CLR 29/21 A3005 RMK AO2 SLP167 
    T02890206=
METAR KDGW 081353Z AUTO 00000KT 1 1/4SM BR OVC001 08/08 A3036 RMK 
    AO2 SLP254 T00830078 $=
METAR KDHT 081353Z AUTO 01013KT 10SM BKN007 BKN015 OVC020 18/17 
    A3027 RMK AO2 CIG 005V011 SLP201 T01830167=
METAR KDKK 081353Z AUTO 20006KT 10SM CLR 31/18 A3005 RMK AO2 SLP170 
    T03060178=
METAR KDLN 081353Z AUTO 22007KT 10SM CLR 09/05 A3031 RMK AO2 SLP226 
    T00940050=
METAR KDLS 081353Z AUTO 00000KT 10SM CLR 17/07 A2999 RMK AO2 SLP152 
    T01670072=
METAR KDMN 081353Z AUTO 06007KT 10SM CLR 22/13 A3016 RMK AO2 SLP141 
    T02170128=
METAR KDMO 081353Z AUTO 00000KT 10SM BKN005 OVC014 24/22 A3009 RMK 
    AO2 CIG 004V009 SLP181 T02440222=
METAR KDNL 081353Z AUTO 31005KT 10SM CLR 32/17 A3001 RMK AO2 SLP157 
    T03220167=
METAR KDRO 081353Z AUTO 00000KT 10SM CLR 16/06 A3035 RMK AO2 SLP202 
    T01610056=
METAR KDRT 081353Z AUTO 00000KT 10SM BKN015 26/22 A2998 RMK AO2 
    SLP134 T02610222=
METAR KDTW 081353Z 00000KT 8SM FEW200 30/22 A3003 RMK AO2 SLP162 
    T03000217=
METAR KDVO 081350Z AUTO 00000KT 10SM OVC010 12/12 A2994 RMK AO2=
METAR KDVT 081353Z 08005KT 10SM CLR 32/07 A2983 RMK AO2 SLP071 
    T03220072=
METAR KDWH 081353Z 08004KT 6SM -RA BR BKN031 BKN060 24/23 A2999 RMK 
    AO2 RAB04 SLP154 P0013 T02390228=
METAR KDXR 081353Z 16003KT 2 1/2SM -RA BR BKN007 BKN014 OVC036 24/23 
    A3009 RMK AO2 RAE04B20 SLP183 P0002 T02440233=
METAR KEEO 081353Z AUTO 07003KT 10SM FEW110 14/06 A3034 RMK AO2 
    SLP202 T01390061 $=
METAR KEET 081353Z AUTO 05003KT 10SM CLR 31/21 A3006 RMK AO2 SLP169 
    T03060211=
METAR KELM 081353Z 00000KT 7SM CLR 28/21 A3007 RMK AO2 SLP174 
    T02780206=
METAR KELN 081353Z AUTO 10004KT 10SM CLR 16/08 A3007 RMK AO2 SLP168 
    T01610078 $=
METAR KEMP 081353Z AUTO 04007KT 10SM FEW033 BKN045 23/19 A3011 RMK 
    AO2 SLP189 T02280194=
METAR KENW 081353Z 27009KT 10SM FEW011 BKN019 24/21 A3003 RMK AO2 
    SLP165 T02390211=
METAR KEPH 081353Z AUTO 33007KT 10SM CLR 22/06 A3002 RMK AO2 SLP156 
    T02220056=
METAR KEQY 081353Z AUTO 02009KT 7SM CLR 29/19 A3001 RMK AO2 SLP158 
    T02890189=
####018002915####
SAUS20 KNKA 081354
METAR KHJO 081353Z AUTO 30003KT 10SM CLR 19/11 A2985 RMK AO2 SLP108 
    T01890111=
METAR KHKA 081353Z AUTO 24005KT 6SM HZ CLR 29/22 A3008 RMK AO2 
    SLP184 T02940222=
METAR KHKS 081353Z 04004KT 10SM CLR 29/23 A3008 RMK AO2 SLP178 
    T02940228=
METAR KHKY 081353Z 31004KT 10SM CLR 29/19 A3006 RMK AO2 SLP154 
    T02940189 PNO=
METAR KHLC 081353Z AUTO 03005KT 10SM SCT090 19/15 A3023 RMK AO2 
    SLP222 T01940150=
METAR KHLG 081353Z 14003KT 7SM CLR 28/21 A3010 RMK AO2 SLP183 
    T02830206=
METAR KHLN 081353Z 00000KT 10SM CLR 12/05 A3027 RMK AO2 SLP242 
    T01170050=
METAR KHOT 081353Z AUTO 15004KT 10SM BKN010 OVC013 26/23 A3011 RMK 
    AO2 CIG 007V011 SLP188 T02560233=
METAR KHOU 081353Z 06005KT 10SM -RA FEW035 BKN090 OVC130 26/23 A2996 
    RMK AO2 SLP151 P0002 T02560233=
METAR KHQM 081353Z AUTO 28004KT 1/2SM FG 13/12 A2997 RMK AO2 SLP154 
    T01280122 $=
METAR KHRI 081353Z AUTO 13005KT 10SM CLR 17/08 A2998 RMK AO2 SLP146 
    T01670083=
METAR KHRO 081353Z AUTO 18004KT 10SM BKN050 24/22 A3011 RMK AO2 
    SLP181 T02440217=
METAR KHSI 081353Z AUTO 04003KT 10SM CLR 19/16 A3022 RMK AO2 SLP224 
    T01890156=
METAR KHSV 081353Z 02009KT 10SM FEW250 31/22 A3009 RMK AO2 SLP180 
    T03110222 $=
METAR KHUF 081353Z 25004KT 10SM CLR 29/23 A3005 RMK AO2 SLP170 
    T02890228 $=
METAR KHUL 081353Z AUTO 19008KT 150V220 6SM HZ CLR 26/21 A3003 RMK 
    AO2 SLP168 T02560211=
METAR KHVN 081353Z 10007KT 080V140 10SM OVC055 26/22 A3007 RMK AO2 
    SLP182 T02610222=
METAR KHVR 081353Z AUTO 26003KT 10SM CLR 14/10 A3021 RMK AO2 SLP223 
    T01440100=
METAR KHWO 081353Z AUTO 07006KT 10SM CLR 31/23 A2998 RMK AO2 SLP151 
    T03060233=
METAR KHYR 081353Z AUTO VRB03KT 10SM CLR 22/16 A3009 RMK AO2 SLP184 
    T02170156=
METAR KHZY 081353Z AUTO 19005KT 10SM FEW090 28/21 A3008 RMK AO2 
    SLP178 T02830206=
METAR KIAG 081353Z 24004KT 10SM FEW100 29/21 A3003 RMK AO2 SLP161 
    T02940206=
METAR KIAH 081353Z 09008KT 6SM TSRA BR FEW007 SCT025CB BKN070 OVC130 
    24/24 A2998 RMK AO2 SLP153 OCNL LTGIC VC NW-N E TS VC NW-NE E 
    MOV NW P0018 T02440239=
METAR KIBM 081350Z AUTO 00000KT 10SM BKN035 OVC075 14/11 A3033 
     RMK AO2 T01360110=
METAR KICR 081353Z AUTO 29006KT 10SM CLR 21/12 A3023 RMK AO2 SLP224 
    T02110122 TSNO $=
METAR KICT 081353Z 36009KT 9SM OVC009 23/21 A3012 RMK AO2 SLP187 
    T02330211=
METAR KIDA 081353Z 01007KT 10SM CLR 13/07 A3022 RMK AO2 SLP198 
    T01330072=
METAR KILM 081353Z 04009KT 7SM CLR 31/22 A2994 RMK AO2 SLP138 
    T03060222=
METAR KIML 081353Z AUTO 02003KT 10SM SCT100 19/15 A3029 RMK AO2 
    SLP239 T01890150=
METAR KIPL 081353Z AUTO 13007KT 10SM CLR 26/13 A2972 RMK AO2 SLP065 
    T02560133=
METAR KITR 081353Z AUTO 00000KT 10SM BKN006 BKN075 OVC100 17/15 
    A3032 RMK AO2 RAB09E34 SLP230 P0000 T01670150=
####018002905####
SAUS20 KNKA 081354
METAR KLPR 081353Z AUTO 19005KT 8SM CLR 29/21 A3006 RMK AO2 SLP172 
    T02940206=
METAR KLSE 081353Z 33007KT 10SM CLR 23/18 A3007 RMK AO2 SLP172 
    T02330183=
METAR KLUK 081353Z 00000KT 5SM HZ CLR 28/23 A3007 RMK AO2 SLP178 
    T02830233=
METAR KLVJ 081353Z AUTO 06004KT 8SM CLR 26/23 A2997 RMK AO2 
    RAE01B21E50 SLP149 P0000 T02560233=
METAR KLVK 081353Z 28005KT 10SM OVC008 13/11 A2992 RMK AO2 SLP129 
    T01330111=
METAR KLVM 081353Z AUTO 29003KT 10SM CLR 10/05 A3030 RMK AO2 SLP233 
    T01000050=
METAR KLVS 081353Z AUTO 01006KT 10SM SCT014 12/10 A3041 RMK AO2 
    SLP220 T01170100 TSNO=
METAR KLWD 081353Z AUTO 02006KT 10SM CLR 22/20 A3012 RMK AO2 SLP192 
    T02170200=
METAR KLWV 081353Z AUTO 27004KT 7SM FEW044 29/23 A3005 RMK AO2 
    SLP170 T02940228=
METAR KLXN 081350Z AUTO 33003KT 10SM BKN065 BKN100 19/17 A3025 
     RMK AO2 T01920168=
METAR KLXT 081353Z AUTO 05005KT 10SM OVC008 23/21 A3011 RMK AO2 
    SLP189 T02280206=
METAR KMAE 081353Z AUTO 29004KT 10SM CLR 17/11 A2985 RMK AO2 SLP106 
    T01670106=
METAR KMBS 081353Z 25003KT 10SM SCT070 25/22 A3003 RMK AO2 SLP163 
    T02500217=
METAR KMCB 081353Z AUTO 10SM 27/23 A3008 RMK AO2 SLP178 T02720233 $=
METAR KMCE 081353Z AUTO 29005KT 10SM CLR 17/11 A2985 RMK AO2 SLP105 
    T01670106=
METAR KMCI 081353Z 03005KT 1 3/4SM BR BKN004 OVC015 24/23 A3011 RMK 
    AO2 SFC VIS 6 SLP186 T02440228=
METAR KMCK 081353Z AUTO 00000KT 10SM SCT049 18/16 A3027 RMK AO2 
    SLP235 T01830161=
METAR KMCO 081353Z VRB03KT 10SM SCT026 SCT250 27/19 A3002 RMK AO2 
    SLP163 T02720194=
METAR KMCW 081353Z AUTO 35009KT 10SM CLR 21/17 A3016 RMK AO2 SLP202 
    T02060172=
METAR KMEM 081353Z 32004KT 10SM FEW150 SCT250 30/22 A3009 RMK AO2 
    SLP183 T03000217=
METAR KMFE 081353Z 35009KT 10SM BKN008 OVC013 27/24 A2982 RMK AO2 
    SLP096 T02670244=
METAR KMFR 081353Z 01003KT 10SM SCT110 19/12 A2993 RMK AO2 SLP122 
    T01890122=
METAR KMGW 081353Z 00000KT 6SM HZ CLR 27/18 A3012 RMK AO2 SLP185 
    T02720183=
METAR KMGY 081353Z AUTO 21005KT 6SM HZ CLR 28/21 A3008 RMK AO2 
    SLP176 T02780211=
METAR KMHE 081353Z AUTO 28006KT 10SM CLR 21/15 A3019 RMK AO2 SLP216 
    T02110150 TSNO=
METAR KMHT 081353Z 20004KT 7SM BKN020 BKN043 BKN110 27/21 A3007 RMK 
    AO2 SLP189 T02720211=
METAR KMIA 081353Z 07008KT 10SM BKN022TCU BKN130 BKN300 29/24 A2997 
    RMK AO2 SLP148 TCU N-OHD-SE-S T02940239=
METAR KMIC 081353Z 30006KT 10SM CLR 23/16 A3010 RMK AO2 SLP188 
    T02280161=
METAR KMIE 081353Z 21007KT 10SM BKN075 28/20 A3006 RMK AO2 SLP167 
    T02830200=
METAR KMIW 081353Z AUTO 35009KT 10SM CLR 22/19 A3011 RMK AO2 SLP189 
    T02220194=
METAR KMKL 081353Z 34004KT 10SM CLR 29/23 A3009 RMK AO2 SLP183 
    T02890233=
METAR KMLE 081350Z AUTO 00000KT 10SM CLR 21/16 A3015 RMK AO2 
     T02130161=
####018001779####
SAEU KAWN 081400 RRA
METAR EGAA 081350Z 22012KT 9999 SCT035 18/10 Q1014=
METAR EGAC 081350Z 20014KT 9999 FEW033 SCT042 19/09 Q1014=
METAR EGBB 081350Z 21009KT 180V250 CAVOK 23/08 Q1017=
METAR EGCC 081350Z 20009KT 160V230 9999 SCT038 21/10 Q1017=
METAR EGFF 081350Z 28006KT 240V310 9999 FEW030 20/11 Q1019=
METAR EGGW 081350Z 23006KT 170V270 9999 FEW040 24/12 Q1018=
METAR EGKK 081350Z 23008KT 180V280 9999 SCT048 26/13 Q1018=
METAR EGLC 081350Z 28004KT 210V320 9999 SCT035 25/14 Q1018=
METAR EGNM 081350Z 26010KT 9999 SCT035 18/09 Q1017=
METAR EGNV 081350Z 24018KT 9999 FEW040 22/09 Q1016=
METAR EGNX 081350Z 22010KT 190V250 CAVOK 22/07 Q1017=
METAR EGPD 081350Z 22010KT 9999 FEW048 18/08 Q1011 NOSIG=
METAR EGPH 081350Z 23017KT 9999 SCT045 19/07 Q1013=
METAR EGPK 081350Z 24015KT 9999 FEW026 19/09 Q1014=
METAR EGSS 081350Z 23008KT 200V270 9999 SCT030 24/15 Q1018=
METAR EKAH 081350Z AUTO 21002KT 9999NDV BKN100/// 22/15 Q1019=
METAR EKBI 081350Z 25007KT 210V280 8000 -SHRA FEW017 BKN055 20/19 Q1019=
METAR EKCH 081350Z 17012KT CAVOK 22/15 Q1020 NOSIG=
METAR EKEB 081350Z AUTO 18008KT 8000NDV -SHRA FEW003/// BKN053/// 19/17
      Q1018 RESHRA=
METAR EKKA 081350Z 21005KT 170V230 9999 SCT007 FEW010TCU BKN012 19/17
      Q1018=
METAR EKOD 081350Z 19008KT CAVOK 26/12 Q1019=
METAR EKRK 081350Z AUTO 22011KT 9999NDV BKN050/// 24/11 Q1020=
METAR EKRN 081350Z AUTO 20004KT 180V240 9999NDV NCD 20/15 Q1022=
METAR EKSB 081350Z 24006KT 190V260 CAVOK 26/13 Q1018=
METAR EKSN 081350Z 27004KT 9999 -RA SCT018 BKN031 15/13 Q1018=
METAR EKSP 081350Z 27012KT 9999 -RA FEW025 BKN100 21/14 Q1019=
METAR EKVJ 081350Z 20006KT 9000 SCT006 BKN010 BKN020 20/17 Q1018=
METAR EKYT 081350Z 23009KT 4500 -SHRA SCT010TCU BKN018 18/18 Q1018=
####018001568####
SPZZ40 KAWN 081354 RRJ
SPECI CYAS 081347Z 28003KT 1/2SM FG VV004 RMK FG8=
SPECI CYLD 081350Z 36003KT 15SM FEW017 BKN035 OVC170 RMK SC2SC4AS2=
SPECI CYNA 081349Z AUTO 11009KT 9SM OVC004 OVC051 OVC055 OVC061 15/13
      A3003=
SPECI CYUS 081352Z AUTO ///// 9SM FEW090 14/ A2979=
SPECI COR GBYD 1305Z 25007KT 9999 TS SCT011 FEW018CB BKN120 THUNDER
      HEARD AT SOUTHEAST OF STATION=
SPECI KFRI 081353Z AUTO 02007KT 10SM OVC008 22/20 A3014 RMK AO2 CIG
      007V010 SLP194 $=
SPECI KLTS 081348Z AUTO 35005KT 8SM R35L/5500VP6000FT R35R/5500VP6000FT
      RA OVC006 23/23 A3009 RMK AO2 RAB1322DZB1313E1322 SLP175 $=
SPECI KNFG 081348Z AUTO 00000KT 10SM SCT011 OVC018 16/14 A2991 RMK
      AO2 TSNO=
SPECI LBPD 081353Z 26004MPS 9999 -RA OVC040 17/15 Q1017 NOSIG=
SPECI MROC 081347Z 23004KT 9999 3000SW BR BKN120 21/21 A3005 TEMPO
      4000 -RA BR=
SPECI RJCC 081343Z 19005KT 1200 R01L/1200VP1800D R01R/0800V1100U -DZ
      BR BKN002 17/17 Q1010 RMK 7ST002 A2985=
SPECI RJCC 081345Z 20005KT 1100 R01L/1200VP1800U R01R/1000U -DZ BR
      BKN002 17/17 Q1010 RMK 7ST002 A2985=
SPECI RJCC 081349Z 20004KT 1000 R01L/1400VP1800U R01R/0900V1300U DZ
      VV002 17/17 Q1010 RMK A2985=
SPECI RJTY 081350Z AUTO 15004KT 9999 SCT018 24/22 A2990 RMK AO2 SLP119
      $=
SPECI RKJK 081348Z 05003KT 2000 R36/0650V1000 HZ BKN120 24/21 A2980
      RMK AO2A SLP092 $=
SPECI RKJK 081351Z 05004KT 1600 R36/0600V0800 HZ BKN120 24/21 A2980
      RMK AO2A SLP092 $=
SPECI YPPD 081353Z AUTO 02004KT 7000NDV // BKN029 OVC033 22/21 Q1010=
####018003676####
SAUS99 KWBC 081355
METAR
KOAJ 081355Z AUTO 06010KT 9SM CLR 30/24 A2997 RMK AO1=
KODO 081353Z AUTO 04008G16KT 8SM BKN005 OVC011 21/20 A3015 RMK AO2
     SLP167 T02110200=
KOQU 081350Z 11005KT 10SM SCT007 SCT200 27/ A3013=
KORE 081352Z AUTO 16005KT 6SM HZ OVC012 24/22 A3009 RMK AO2
     RAB19E30 SLP187 P0000 T02440217=
KPYM 081352Z AUTO 17005KT 9SM SCT024 SCT031 28/19 A3010 RMK AO2
     SLP192 T02780194=
KRAP 081352Z 28004KT 10SM CLR 18/11 A3026 RMK AO2 SLP234
     T01780111=
KSOP 081355Z AUTO 02004KT 7SM CLR 31/21 A2999 RMK AO1=
KTAN 081352Z AUTO 13009KT 10SM BKN020 27/21 A3008 RMK AO2 SLP184
     T02720206=
KTKI 081353Z 13005KT 8SM -RA FEW010 BKN049 BKN070 25/24 A3005 RMK
     AO2 RAE1258B53 SLP172 P0000 T02500244=
KTOL 081352Z 00000KT 9SM CLR 29/21 A3004 RMK AO2 SLP165
     T02940211=
KTXK 081353Z 13004KT 10SM BKN007 OVC080 26/24 A3008 RMK AO2 SLP181
     T02610244=
KTYR 081353Z 11006KT 10SM FEW010 26/23 A3007 RMK AO2 SLP175
     T02610233=
KUDG 081355Z 35005KT 10SM CLR 31/20 A2999 RMK AO1=
KAFN 081352Z AUTO 17006KT 7SM BKN010 OVC080 24/21 A3012 RMK AO2
     CIG 008V013 SLP198 T02390206=
KAFW 081353Z 13006KT 9SM FEW012 SCT055 BKN090 26/23 A3004 RMK AO2
     RAB30E42 SLP156 P0000 T02610233=
KAIK 081355Z AUTO 29007KT 10SM CLR 31/25 A3004 RMK AO2 PNO=
KALS 081352Z AUTO 27003KT 10SM CLR 12/08 A3043 RMK AO2 SLP234
     T01170083=
KAQW 081352Z AUTO 00000KT 6SM HZ CLR 29/22 A3006 RMK AO2 SLP174
     T02890222=
KARW 081355Z AUTO 28008KT 260V320 10SM CLR 30/19 A2998 RMK AO2=
KBDR 081352Z 10008KT 7SM SCT015 BKN050 26/23 A3006 RMK AO2 SLP180
     T02610228=
KBLF 081352Z AUTO 27003KT 6SM HZ CLR 26/19 A3020 RMK AO2 SLP182
     T02610189=
KBML 081352Z AUTO 00000KT 6SM HZ CLR 28/22 A3008 RMK AO2 SLP180
     T02830217=
KCDS 081353Z AUTO 05006KT 10SM CLR 24/21 A3012 RMK AO2 LTG DSNT E
     SLP177 T02390206=
KCQX 081352Z AUTO 13007KT 110V180 10SM SCT005 SCT024 24/20 A3012
     RMK AO2 SLP201 T02440200=
KCRS 081353Z AUTO 09007KT 10SM FEW011 BKN065 26/23 A3003 RMK AO2
     SLP165 T02610233=
KCSM 081353Z 36005KT 10SM -RA FEW008 SCT100 23/21 A3014 RMK AO2
     RAB1258E27B46 SLP183 P0000 T02280206=
KCVG 081352Z 21005KT 6SM HZ FEW090 29/22 A3008 RMK AO2 SLP175
     T02940217=
KDEQ 081353Z AUTO 08003KT 10SM BKN007 OVC045 26/24 A3006 RMK AO2
     SLP175 T02560239=
KDTO 081353Z 14007KT 10SM FEW010 26/23 A3005 RMK AO2 RAB33E46
     SLP165 P0000 T02610233=
KFDR 081353Z AUTO 03006KT 10SM 26/23 A3005 RMK AO2 SLP159
     T02560233=
KFDW 081355Z AUTO 32003KT 10SM CLR 30/19 A3001 RMK AO1=
KFIT 081352Z AUTO 15007KT 10SM FEW022 BKN047 28/21 A3009 RMK AO2
     SLP188 T02780211=
KFTW 081353Z 13009KT 10SM SCT009 BKN035 OVC060 26/24 A3004 RMK AO2
     RAB32E50 SLP160 P0000 T02560239=
KGGG 081353Z 13003KT 10SM CLR 26/24 A3006 RMK AO2 SLP172
     T02610239=
KGKY 081353Z 12008KT 10SM SCT008 BKN055 26/24 A3005 RMK AO2 SLP165
     T02560239=
KGLY 081355Z AUTO 00000KT 9SM SCT008 OVC014 24/23 A3009 RMK
     AO2=
KHBR 081353Z AUTO 07004KT 8SM BKN007 23/22 A3011 RMK AO2 RAE48 CIG
     003V009 SLP179 P0003 T02280222=
KIEN 081352Z AUTO 00000KT 10SM CLR 16/13 A3029 RMK AO2 SLP241
     T01560128=
KIJD 081352Z AUTO 14003KT 8SM BKN016 26/21 A3009 RMK AO2 SLP188
     T02560211=
KMEZ 081355Z AUTO 18003KT 5SM HZ BKN013 BKN018 OVC055 26/23 A3011
     RMK AO2=
KMFD 081352Z 27003KT 7SM CLR 29/19 A3010 RMK AO2 SLP180
     T02890189=
KMLC 081353Z AUTO 18005KT 10SM BKN009 BKN018 OVC032 25/23 A3006
     RMK AO2 CIG 008V013 SLP170 T02500233=
KMLU 081353Z 07004KT 10SM CLR 28/24 A3008 RMK AO2 SLP184
     T02830244=
####018003669####
SAUS99 KWBC 081355 RRB
METAR
KAGS 081353Z 33010KT 10SM CLR 33/18 A2999 RMK AO2 SLP154
     T03330178=
KAIA 081353Z AUTO 00000KT 10SM BKN060 16/13 A3031 RMK AO2 SLP237
     T01610128=
KAKO 081353Z AUTO 16006KT 4SM BR OVC003 15/14 A3033 RMK AO2 SLP237
     T01500144 TSNO=
KALI 081353Z AUTO 04009G15KT 10SM FEW007 SCT016 BKN024 26/25 A2986
     RMK AO2 RAE45 SLP107 P0007 T02560250=
KALN 081350Z 00000KT 6SM BR SCT006 BKN022 OVC060 26/25 A3006=
KALW 081353Z 17004KT 10SM CLR 21/08 A3001 RMK AO2 SLP151
     T02060078=
KAMA 081353Z 36008KT 10SM FEW003 SCT007 OVC020 18/17 A3023 RMK AO2
     SLP198 T01780167=
KAMW 081353Z AUTO 35008KT 10SM FEW080 22/19 A3013 RMK AO2 SLP196
     T02220189=
KANB 081353Z AUTO 00000KT 9SM CLR 29/21 A3006 RMK AO2 SLP168
     T02890211=
KANW 081350Z AUTO 29004KT 10SM CLR 19/14 A3026 RMK AO2
     T01860142=
KAOH 081353Z AUTO 19004KT 10SM 29/22 A3007 RMK AO2 SLP173
     T02890217 $=
KAOO 081353Z AUTO 00000KT 5SM HZ CLR 28/18 A3011 RMK AO2 SLP183
     T02780183=
KAPA 081353Z 36007KT 2 1/2SM BR BKN002 BKN070 14/12 A3036 RMK AO2
     SFC VIS 4 SLP238 T01390122=
KAPF 081353Z 05008KT 10SM FEW030 29/23 A2998 RMK AO2 SLP152
     T02890233=
KARA 081353Z 09009KT 8SM BKN007 27/25 A3003 RMK AO2 CIG 005V011
     SLP169 T02720250=
KARB 081353Z VRB03KT 10SM CLR 29/21 A3004 RMK AO2 SLP163
     T02890211=
KASD 081353Z AUTO 07006KT 10SM CLR 29/25 A3004 RMK AO2 SLP172
     T02890250=
KASE 081353Z 00000KT 10SM CLR 10/07 A3040 RMK AO2 SLP195
     T01000067=
KASX 081353Z AUTO 25004KT 10SM CLR 22/17 A3006 RMK AO2 SLP177
     T02220167=
KATY 081353Z AUTO 26003KT 10SM CLR 19/15 A3016 RMK AO2 SLP205
     T01940150=
KAUG 081353Z AUTO VRB04KT 10SM BKN011 OVC017 23/21 A3010 RMK AO2
     SLP193 T02330206=
KAUH 081350Z AUTO 01004KT 10SM CLR 19/15 A3020 RMK AO2
     T01900154=
KAUN 081350Z AUTO 00000KT 10SM CLR 19/15 A2988 RMK AO1=
KAUS 081353Z 09004KT 4SM -RA BR BKN010 OVC014 26/24 A2998 RMK AO2
     RAB42 CIG 006V012 SLP142 P0000 T02610239=
KBTL 081353Z 07003KT 10SM CLR 27/21 A3004 RMK AO2 LTG DSNT W
     SLP165 T02720211=
KBTM 081353Z AUTO 00000KT 10SM CLR 09/02 A3033 RMK AO2 SLP235
     T00940017=
KBUR 081353Z 18003KT 4SM HZ OVC007 16/13 A2991 RMK AO2 SLP120
     T01560128=
KBVN 081350Z AUTO 34003KT 10SM CLR 20/15 A3021 RMK AO2
     T01970154=
KBVO 081353Z 07003KT 10SM FEW011 24/22 A3007 RMK AO2 SLP173
     T02390217=
KBVY 081353Z 17006KT 10SM CLR 26/21 A3009 RMK AO2 SLP183 T02560206
     PNO=
KBWG 081353Z AUTO 00000KT 10SM CLR 29/22 A3009 RMK AO2 SLP180
     T02940217=
KBYG 081353Z AUTO 00000KT 10SM CLR 17/04 A3031 RMK AO2 SLP220
     T01720044=
KBYI 081353Z AUTO 12005KT 10SM CLR 16/06 A3016 RMK AO2 SLP173
     T01560061=
KCAG 081353Z AUTO 05003KT 10SM BKN120 11/07 A3034 RMK AO2 SLP226
     T01110072=
KCCR 081353Z 22005KT 10SM SCT012 13/09 A2991 RMK AO2 SLP116
     T01280094=
KCDC 081353Z AUTO 00000KT 10SM CLR 14/04 A3018 RMK AO2 SLP144
     T01440039=
KCDR 081353Z AUTO 26004KT 10SM CLR 15/12 A3030 RMK AO2 SLP249
     T01500117=
KCDW 081353Z VRB04KT 5SM HZ FEW031 28/23 A3005 RMK AO2 SLP178
     T02780228=
KCEZ 081353Z AUTO 33003KT 10SM CLR 19/07 A3027 RMK AO2 SLP167
     T01940072=
KCGI 081353Z 25005KT 10SM FEW110 28/24 A3006 RMK AO2 SLP174
     T02780239=
KCHO 081353Z VRB03KT 4SM HZ CLR 32/19 A3002 RMK AO2 SLP158
     T03220194=
KCKB 081353Z 00000KT 6SM HZ CLR 27/19 A3011 RMK AO2 SLP178
     T02670194=
KCLL 081353Z 09010KT 8SM OVC009 27/23 A2999 RMK AO2 CIG 007V012
     SLP150 T02670233=
KCLM 081353Z AUTO A3000 RMK AO2 SLPNO PWINO FZRANO $=
####018003693####
SAUS99 KWBC 081355 RRC
METAR
KCMI 081353Z 28004KT 10SM FEW020 SCT085 28/23 A3005 RMK AO2 SLP169
     T02780233=
KCMX 081353Z AUTO 28012KT 10SM FEW060 21/16 A3001 RMK AO2 SLP161
     T02110161=
KCNM 081353Z AUTO 32010KT 9SM -RA FEW007 BKN048 OVC100 19/19 A3018
     RMK AO2 SLP176 P0006 T01940189=
KCNO 081353Z 23003KT 2 1/2SM BR OVC009 15/13 A2994 RMK AO2 SLP133
     T01500128=
KCNY 081353Z AUTO 13006KT 10SM CLR 23/05 A3015 RMK AO2 SLP146
     T02280050=
KCOT 081353Z AUTO 04006KT 10SM OVC009 26/23 A2991 RMK AO2 RAE1257
     SLP121 P0000 T02560233=
KCPR 081353Z 27003KT 10SM CLR 11/07 A3036 RMK AO2 SLP239 T01110072
     $=
KCPS 081353Z 30004KT 10SM FEW018 SCT022 BKN044 28/23 A3005 RMK AO2
     SLP171 T02780228=
KCRP 081351Z 03006KT 10SM SCT022CB SCT040 BKN060 27/25 A2985 RMK
     AO2 RAE31 SLP106 CB DSNT E TCU DSNT NE SE S SW P0001
     T02670250 $=
KCRQ 081353Z AUTO 00000KT 8SM SCT007 OVC015 17/14 A2991 RMK AO2
     SLP125 T01720139 TSNO=
KCSV 081353Z AUTO 00000KT 7SM CLR 29/19 A3016 RMK AO2 SLP186
     T02890189=
KCXO 081353Z VRB03KT 9SM BKN007 26/24 A2999 RMK AO2 CIG 006V010
     SLP151 T02560239=
KCYS 081353Z 22003KT 10SM SCT011 BKN040 14/12 A3037 RMK AO2 SLP233
     T01390117=
KDAG 081353Z AUTO 25010KT 10SM CLR 23/02 A2988 RMK AO2 SLP090
     T02330022 TSNO $=
KDAN 081353Z AUTO 04006KT 5SM HZ CLR 32/19 A3002 RMK AO2 SLP153
     T03220189=
KDBQ 081353Z 34005KT 9SM SCT011 24/21 A3007 RMK AO2 SLP176
     T02390206=
KDCU 081353Z AUTO 04005KT 10SM CLR 31/21 A3009 RMK AO2 SLP180
     T03060206=
KDEN 081353Z 05005KT 1 1/2SM BR BKN005 OVC008 15/14 A3033 RMK AO2
     SFC VIS 3 CIG 002V006 SLP219 T01500144=
KDET 081353Z 29005KT 10SM CLR 31/20 A3003 RMK AO2 SLP161 T03110200
     $=
KDEW 081353Z AUTO 02010KT 10SM CLR 18/08 A3008 RMK AO2 SLP173
     T01780078=
KDFI 081353Z AUTO 19004KT 8SM CLR 29/21 A3005 RMK AO2 SLP167
     T02890206=
KDGW 081353Z AUTO 00000KT 1 1/4SM BR OVC001 08/08 A3036 RMK AO2
     SLP254 T00830078 $=
KDHT 081353Z AUTO 01013KT 10SM BKN007 BKN015 OVC020 18/17 A3027
     RMK AO2 CIG 005V011 SLP201 T01830167=
KDKK 081353Z AUTO 20006KT 10SM CLR 31/18 A3005 RMK AO2 SLP170
     T03060178=
KDLN 081353Z AUTO 22007KT 10SM CLR 09/05 A3031 RMK AO2 SLP226
     T00940050=
KDLS 081353Z AUTO 00000KT 10SM CLR 17/07 A2999 RMK AO2 SLP152
     T01670072=
KDMN 081353Z AUTO 06007KT 10SM CLR 22/13 A3016 RMK AO2 SLP141
     T02170128=
KDMO 081353Z AUTO 00000KT 10SM BKN005 OVC014 24/22 A3009 RMK AO2
     CIG 004V009 SLP181 T02440222=
KDNL 081353Z AUTO 31005KT 10SM CLR 32/17 A3001 RMK AO2 SLP157
     T03220167=
KDRO 081353Z AUTO 00000KT 10SM CLR 16/06 A3035 RMK AO2 SLP202
     T01610056=
KDRT 081353Z AUTO 00000KT 10SM BKN015 26/22 A2998 RMK AO2 SLP134
     T02610222=
KDTW 081353Z 00000KT 8SM FEW200 30/22 A3003 RMK AO2 SLP162
     T03000217=
KDVO 081350Z AUTO 00000KT 10SM OVC010 12/12 A2994 RMK AO2=
KDVT 081353Z 08005KT 10SM CLR 32/07 A2983 RMK AO2 SLP071
     T03220072=
KDWH 081353Z 08004KT 6SM -RA BR BKN031 BKN060 24/23 A2999 RMK AO2
     RAB04 SLP154 P0013 T02390228=
KDXR 081353Z 16003KT 2 1/2SM -RA BR BKN007 BKN014 OVC036 24/23
     A3009 RMK AO2 RAE04B20 SLP183 P0002 T02440233=
KEEO 081353Z AUTO 07003KT 10SM FEW110 14/06 A3034 RMK AO2 SLP202
     T01390061 $=
KEET 081353Z AUTO 05003KT 10SM CLR 31/21 A3006 RMK AO2 SLP169
     T03060211=
KELM 081353Z 00000KT 7SM CLR 28/21 A3007 RMK AO2 SLP174
     T02780206=
KELN 081353Z AUTO 10004KT 10SM CLR 16/08 A3007 RMK AO2 SLP168
     T01610078 $=
KEMP 081353Z AUTO 04007KT 10SM FEW033 BKN045 23/19 A3011 RMK AO2
     SLP189 T02280194=
####018003678####
SAUS99 KWBC 081355 RRF
METAR
KFPR 081353Z 06004KT 10SM SCT030 29/21 A3000 RMK AO2 SLP157
     T02940211=
KFRG 081353Z 14007KT 10SM SCT008 OVC017 26/23 A3006 RMK AO2 SLP179
     T02610228=
KFSM 081353Z 06003KT 10SM OVC046 26/23 A3006 RMK AO2 RAB15E28
     SLP173 P0000 T02610228=
KFST 081353Z AUTO 34005KT 6SM -RA BR FEW014 BKN050 OVC080 22/20
     A3012 RMK AO2 RAB25 SLP153 P0000 T02170200=
KFTY 081353Z 00000KT 8SM CLR 31/21 A3005 RMK AO2 SLP166
     T03060206=
KFUL 081353Z 00000KT 7SM OVC015 17/13 A2991 RMK AO2 SLP126
     T01720128=
KFVE 081353Z AUTO 16004KT 5SM HZ BKN018 27/23 A3000 RMK AO2 SLP152
     T02670233=
KFWN 081353Z AUTO 00000KT 6SM HZ CLR 29/23 A3005 RMK AO2 SLP172
     T02890228=
KFXE 081353Z 07007KT 10SM FEW022 30/23 A2996 RMK AO2 SLP149
     T03000233=
KFYV 081353Z 20005KT 10SM SCT028 BKN034 OVC055 24/22 A3009 RMK AO2
     SLP175 T02440222=
KGAG 081353Z AUTO 02007KT 3SM RA BR OVC005 20/19 A3017 RMK AO2
     SLP191 P0002 T02000194=
KGCC 081353Z AUTO 11003KT 10SM CLR 17/09 A3030 RMK AO2 SLP226
     T01670089=
KGEG 081353Z 05007KT 10SM CLR 18/08 A3008 RMK AO2 SLP167
     T01780083=
KHJO 081353Z AUTO 30003KT 10SM CLR 19/11 A2985 RMK AO2 SLP108
     T01890111=
KHKA 081353Z AUTO 24005KT 6SM HZ CLR 29/22 A3008 RMK AO2 SLP184
     T02940222=
KHKS 081353Z 04004KT 10SM CLR 29/23 A3008 RMK AO2 SLP178
     T02940228=
KHKY 081353Z 31004KT 10SM CLR 29/19 A3006 RMK AO2 SLP154 T02940189
     PNO=
KHLC 081353Z AUTO 03005KT 10SM SCT090 19/15 A3023 RMK AO2 SLP222
     T01940150=
KHLG 081353Z 14003KT 7SM CLR 28/21 A3010 RMK AO2 SLP183
     T02830206=
KHLN 081353Z 00000KT 10SM CLR 12/05 A3027 RMK AO2 SLP242
     T01170050=
KHOT 081353Z AUTO 15004KT 10SM BKN010 OVC013 26/23 A3011 RMK AO2
     CIG 007V011 SLP188 T02560233=
KHOU 081353Z 06005KT 10SM -RA FEW035 BKN090 OVC130 26/23 A2996 RMK
     AO2 SLP151 P0002 T02560233=
KHQM 081353Z AUTO 28004KT 1/2SM FG 13/12 A2997 RMK AO2 SLP154
     T01280122 $=
KHRI 081353Z AUTO 13005KT 10SM CLR 17/08 A2998 RMK AO2 SLP146
     T01670083=
KHRO 081353Z AUTO 18004KT 10SM BKN050 24/22 A3011 RMK AO2 SLP181
     T02440217=
KHSI 081353Z AUTO 04003KT 10SM CLR 19/16 A3022 RMK AO2 SLP224
     T01890156=
KHSV 081353Z 02009KT 10SM FEW250 31/22 A3009 RMK AO2 SLP180
     T03110222 $=
KHUF 081353Z 25004KT 10SM CLR 29/23 A3005 RMK AO2 SLP170 T02890228
     $=
KHUL 081353Z AUTO 19008KT 150V220 6SM HZ CLR 26/21 A3003 RMK AO2
     SLP168 T02560211=
KHVN 081353Z 10007KT 080V140 10SM OVC055 26/22 A3007 RMK AO2
     SLP182 T02610222=
KHVR 081353Z AUTO 26003KT 10SM CLR 14/10 A3021 RMK AO2 SLP223
     T01440100=
KHWO 081353Z AUTO 07006KT 10SM CLR 31/23 A2998 RMK AO2 SLP151
     T03060233=
KHYR 081353Z AUTO VRB03KT 10SM CLR 22/16 A3009 RMK AO2 SLP184
     T02170156=
KHZY 081353Z AUTO 19005KT 10SM FEW090 28/21 A3008 RMK AO2 SLP178
     T02830206=
KIAG 081353Z 24004KT 10SM FEW100 29/21 A3003 RMK AO2 SLP161
     T02940206=
KIAH 081353Z 09008KT 6SM TSRA BR FEW007 SCT025CB BKN070 OVC130
     24/24 A2998 RMK AO2 SLP153 OCNL LTGIC VC NW-N E TS VC NW-NE E
     MOV NW P0018 T02440239=
KIBM 081350Z AUTO 00000KT 10SM BKN035 OVC075 14/11 A3033 RMK AO2
     T01360110=
KICR 081353Z AUTO 29006KT 10SM CLR 21/12 A3023 RMK AO2 SLP224
     T02110122 TSNO $=
KICT 081353Z 36009KT 9SM OVC009 23/21 A3012 RMK AO2 SLP187
     T02330211=
KIDA 081353Z 01007KT 10SM CLR 13/07 A3022 RMK AO2 SLP198
     T01330072=
KILM 081353Z 04009KT 7SM CLR 31/22 A2994 RMK AO2 SLP138
     T03060222=
KIML 081353Z AUTO 02003KT 10SM SCT100 19/15 A3029 RMK AO2 SLP239
     T01890150=
####018003690####
SAUS99 KWBC 081355 RRA
METAR
KMWL 081353Z AUTO 13005KT 10SM OVC033 25/23 A3004 RMK AO2 SLP157
     T02500233=
PATA 081352Z AUTO 36004KT 10SM CLR 09/06 A3005 RMK AO2 SLP177
     T00890056 TSNO=
PHJR 081353Z VRB03KT 10SM FEW060 22/17 A3002 RMK AO2 SLP170
     T02220172=
KAWM 081353Z AUTO VRB04KT 10SM CLR 29/22 A3007 RMK AO2 SLP179
     T02890222=
KAXN 081353Z AUTO 29010KT 10SM CLR 21/16 A3013 RMK AO2 SLP199
     T02110156=
KAZO 081353Z 00000KT 5SM HZ FEW065 SCT100 26/22 A3004 RMK AO2
     SLP165 T02610217=
KBAF 081353Z 16006KT 5SM BR OVC007 24/22 A3008 RMK AO2 SLP182
     T02440222=
KBBW 081353Z AUTO 35006KT 10SM CLR 20/16 A3025 RMK AO2 SLP229
     T02000156=
KBCE 081353Z AUTO 00000KT 10SM CLR 15/03 A3035 RMK AO2 SLP156
     T01500028 TSNO=
KBDE 081353Z AUTO VRB04KT 10SM CLR 19/14 A3001 RMK AO2 SLP163
     T01940139=
KBEH 081353Z AUTO 14004KT 10SM FEW031 BKN041 OVC065 24/22 A3002
     RMK AO2 LTG DSNT E SLP162 T02440217 $=
KBFD 081353Z AUTO 12004KT 9SM CLR 27/18 A3014 RMK AO2 SLP187
     T02720178=
KBFF 081353Z AUTO 00000KT 10SM SCT039 17/13 A3031 RMK AO2 SLP234
     T01720128=
KBFI 081353Z 35003KT 10SM CLR 20/14 A2996 RMK AO2 SLP145
     T02000139=
KBFM 081353Z 00000KT 10SM FEW010 SCT050 29/24 A3006 RMK AO2 SLP178
     T02890239=
KBGM 081353Z 00000KT 7SM CLR 27/20 A3012 RMK AO2 SLP184
     T02720200=
KBGR 081353Z 18008KT 10SM FEW015 OVC045 23/20 A3010 RMK AO2 SLP189
     T02330200=
KBHK 081353Z AUTO 25007KT 10SM FEW100 19/11 A3022 RMK AO2 SLP216
     T01940106=
KBHM 081353Z 34003KT 10SM CLR 30/22 A3008 RMK AO2 SLP177
     T03000222=
KBIE 081350Z AUTO 03006KT 10SM SCT035 21/18 A3016 RMK AO2
     T02070182=
KBIL 081353Z 22008KT 10SM CLR 13/06 A3026 RMK AO2 SLP227
     T01330061=
KBIV 081353Z AUTO 30003KT 1 1/2SM +RA BR OVC001 24/22 A3004 RMK
     AO2 RAB15 SLP168 P0016 T02390222=
KBKE 081353Z AUTO 00000KT 10SM CLR 11/08 A3014 RMK AO2 SLP186
     T01060078=
KBKL 081353Z 21007KT 9SM FEW070 32/18 A3004 RMK AO2 SLP165
     T03170178=
KBLI 081353Z AUTO 00000KT 10SM CLR 17/14 A2998 RMK AO2 SLP157
     T01720144=
KBMG 081353Z 25006KT 28/23 A3007 RMK AO2 SLP171 T02830228 $=
KBMQ 081353Z AUTO 08007KT 8SM FEW013 SCT041 BKN050 25/22 A3004 RMK
     AO2 SLP155 T02500222=
KBNA 081353Z VRB05KT 10SM FEW060 SCT200 31/21 A3009 RMK AO2 SLP182
     T03110206 $=
KBOI 081353Z 15008KT 10SM CLR 20/06 A3010 RMK AO2 SLP163
     T02000056=
KBPI 081353Z AUTO 00000KT 10SM CLR 10/04 A3041 RMK AO2 SLP218
     T01000039=
KBPK 081353Z AUTO VRB03KT 9SM FEW037 SCT070 OVC090 24/22 A3009 RMK
     AO2 SLP179 T02440222=
KBPT 081353Z 08010KT 9SM BKN009 28/25 A2999 RMK AO2 SLP155
     T02780250=
KBRD 081353Z AUTO 26005KT 10SM CLR 21/14 A3009 RMK AO2 SLP185
     T02110144=
KBRL 081353Z AUTO 6SM BR OVC004 23/22 A3007 RMK AO2 CIG 004V010
     SLP178 T02330217=
KBTA 081350Z AUTO 36007KT 10SM CLR 20/17 A3016 RMK AO2
     T02040170=
K36U 081357Z AUTO 00000KT 10SM CLR 14/07 A3025 RMK AO2=
KPMV 081350Z AUTO 36004KT 10SM CLR 22/19 A3015 RMK AO2
     T02220189=
KABR 081353Z AUTO 27007KT 10SM CLR 21/13 A3014 RMK AO2 SLP201
     T02110133=
KACK 081353Z 13011KT 10SM CLR 23/19 A3010 RMK AO2 SLP193
     T02280194=
KACV 081353Z AUTO 00000KT 2SM R32/5000VP6000FT BR OVC001 10/09
     A2995 RMK AO2 SLP149 T01000094=
KADG 081353Z AUTO 00000KT 8SM CLR 29/21 A3005 RMK AO2 SLP171
     T02890211=
KAEX 081353Z AUTO 08004KT 10SM CLR 27/24 A3004 RMK AO2 SLP174
     T02670244=
KAFK 081350Z AUTO 04007KT 10SM CLR 22/19 A3014 RMK AO2
     T02190193=
KAGC 081353Z 15003KT 5SM HZ CLR 28/19 A3009 RMK AO2 SLP182
     T02830194=
####018003672####
SAUS99 KWBC 081355 RRE
METAR
KGLR 081353Z AUTO 26005KT 8SM -RA SCT010 BKN060 22/21 A3003 RMK
     AO2 SLP164 P0005 T02170206=
KGMU 081353Z 05004KT 9SM CLR 32/18 A3006 RMK AO2 SLP165
     T03170183=
KGPT 081353Z 03004KT 10SM FEW022 31/25 A3004 RMK AO2 SLP172
     T03060250=
KGRB 081353Z 30006KT 2 1/2SM BR FEW006 BKN017 23/21 A3001 RMK AO2
     SLP159 T02330211=
KGRI 081353Z 36005KT 10SM CLR 19/15 A3022 RMK AO2 SLP223
     T01890150=
KGRR 081353Z 00000KT 3SM -RA BR FEW008 BKN036 OVC095 24/22 A3003
     RMK AO2 RAB41 SLP163 P0000 T02440222=
KGSH 081353Z AUTO 28004KT 4SM -RA FEW016 BKN055 BKN085 25/22 A3005
     RMK AO2 LTG DSNT SW AND W RAB07 SLP171 P0000 T02500222=
KGSP 081353Z VRB03KT 9SM CLR 31/19 A3004 RMK AO2 SLP156
     T03110189=
KGTF 081353Z 25003KT 10SM CLR 14/08 A3024 RMK AO2 SLP219
     T01440078=
KGUP 081353Z AUTO 12006KT 10SM CLR 20/08 A3029 RMK AO2 SLP071
     T02000083=
KGUY 081353Z AUTO 35006KT 10SM BKN011 BKN019 OVC026 19/18 A3023
     RMK AO2 RAB35E49 CIG 008V013 SLP199 P0000 T01890178=
KGVL 081353Z AUTO 02007KT 10SM CLR 30/19 A3009 RMK AO2 SLP169
     T03000194=
KGWO 081353Z AUTO 00000KT 10SM CLR 29/23 A3008 RMK AO2 SLP182
     T02890228=
KHAO 081353Z AUTO 00000KT 4SM HZ CLR 29/23 A3008 RMK AO2 SLP180
     T02890228=
KHBG 081353Z AUTO VRB03KT 10SM CLR 29/24 A3007 RMK AO2 SLP178
     T02890239=
KHDE 081350Z AUTO 02004KT 10SM BKN095 19/15 A3023 RMK AO2
     T01850152=
KHEI 081353Z AUTO 24006KT 10SM CLR 17/11 A3021 RMK AO2 SLP218
     T01720106=
KHFD 081353Z 16006KT 7SM BKN017 27/22 A3006 RMK AO2 SLP180
     T02720222=
KHGR 081353Z 00000KT 5SM HZ CLR 31/18 A3004 RMK AO2 SLP173
     T03110178=
KHHR 081353Z 24003KT 9SM OVC012 17/13 A2992 RMK AO2 SLP130
     T01670133=
KHIB 081353Z AUTO 26007KT 10SM CLR 21/16 A3006 RMK AO2 SLP177
     T02110156=
KHIO 081353Z 00000KT 10SM CLR 16/13 A2992 RMK AO2 SLP127
     T01610133=
KHJH 081350Z AUTO 35004KT 10SM BKN035 20/18 A3018 RMK AO2
     T02000176=
KESF 081353Z AUTO 09004KT 10SM BKN005 27/24 A3006 RMK AO2 SLP176
     T02670239=
KEVW 081353Z AUTO 07008KT 10SM CLR 13/04 A3035 RMK AO2 SLP191
     T01280044 TSNO=
KEWB 081353Z 13008KT 10SM BKN018 27/22 A3009 RMK AO2 SLP188
     T02720217=
KEYE 081353Z AUTO 25005KT 10SM CLR 28/22 A3005 RMK AO2 SLP168
     T02830217=
KEYW 081353Z VRB05KT 10SM FEW017 29/24 A2997 RMK AO2 SLP147
     T02940244=
KFAT 081353Z 33005KT 10SM CLR 19/09 A2985 RMK AO2 SLP105 MTNS
     OBSCD DSNT N E-SE T01940094=
KFAY 081353Z AUTO 04008KT 7SM CLR 31/21 A2996 RMK AO2 SLP139
     T03060211=
KFCM 081353Z 27004KT 10SM CLR 22/16 A3011 RMK AO2 SLP191
     T02220156=
KFDY 081353Z AUTO 24003KT 8SM CLR 29/21 A3005 RMK AO2 SLP165
     T02890211=
KFFC 081353Z AUTO 00000KT 10SM CLR 30/19 A3006 RMK AO2 SLP172
     T03000194=
KFFT 081353Z AUTO 19006KT 4SM HZ CLR 29/21 A3008 RMK AO2 SLP177
     T02940206=
KFHR 081353Z AUTO 00000KT 10SM CLR 20/12 A2999 RMK AO2 SLP154
     T02000122=
KFLD 081353Z AUTO 30008KT 10SM BKN015 24/21 A3002 RMK AO2 SLP160
     T02440211=
KFLL 081353Z 07008KT 10SM SCT023 30/24 A2996 RMK AO2 SLP144
     T03000244=
KFMN 081353Z 00000KT 10SM CLR 19/06 A3027 RMK AO2 SLP181
     T01940061=
KFMY 081353Z 06007KT 10SM CLR 28/23 A2998 RMK AO2 SLP152
     T02830228=
KFNB 081353Z AUTO 02006KT 10SM FEW009 22/19 A3013 RMK AO2 SLP193
     T02220194=
KFNT 081353Z AUTO 20004KT 10SM CLR 28/21 A3003 RMK AO2 SLP161
     T02830211=
KFOE 081353Z 02005KT 7SM OVC005 23/21 A3012 RMK AO2 SLP190
     T02280211=
KFOK 081353Z 13007KT 10SM CLR 27/19 A3008 RMK AO2 SLP185
     T02670189=
####018003740####
SAUS99 KWBC 081355 RRD
METAR
KENW 081353Z 27009KT 10SM FEW011 BKN019 24/21 A3003 RMK AO2 SLP165
     T02390211=
KEPH 081353Z AUTO 33007KT 10SM CLR 22/06 A3002 RMK AO2 SLP156
     T02220056=
KEQY 081353Z AUTO 02009KT 7SM CLR 29/19 A3001 RMK AO2 SLP158
     T02890189=
KOPF 081353Z 07009KT 10SM FEW023 30/24 A2997 RMK AO2 SLP148
     T03000244=
KORF 081351Z 07009KT 10SM FEW015 SCT080 BKN100 27/22 A2999 RMK AO2
     RAE1257 SLP155 P0000 T02720217=
KORL 081353Z 00000KT 10SM CLR 27/19 A3002 RMK AO2 SLP168
     T02720194=
KOSH 081353Z 31006KT 10SM OVC013 23/20 A3002 RMK AO2 SLP151
     T02330200=
KOSU 081353Z 28003KT 7SM CLR 29/21 A3008 RMK AO2 SLP177
     T02890206=
KOTM 081353Z AUTO 35006KT 8SM SCT008 22/21 A3009 RMK AO2 SLP184
     T02220206=
KOVE 081353Z AUTO 14004KT 10SM CLR 18/12 A2986 RMK AO2 SLP114
     T01780117 TSNO=
KOVS 081353Z AUTO 31004KT 10SM BKN013 BKN017 23/20 A3006 RMK AO2
     SLP178 T02330200=
KOWD 081353Z VRB04KT 10SM FEW023 27/19 A3009 RMK AO2 SLP188
     T02720194=
KOXB 081353Z AUTO 08007KT 10SM FEW090 27/24 A3003 RMK AO2 SLP168
     T02720244 $=
KPAE 081353Z AUTO 01003KT 10SM CLR 20/12 A2998 RMK AO2 SLP149
     T02000117=
KPAH 081353Z 26004KT 10SM CLR 28/23 A3007 RMK AO2 SLP176
     T02830233=
KPBF 081353Z AUTO 00000KT 10SM CLR 27/23 A3009 RMK AO2 SLP188
     T02720233=
KPBG 081353Z AUTO 14006KT 7SM CLR 28/22 A3000 RMK AO2 SLP157
     T02780222=
KPBI 081353Z 06005KT 10SM BKN024CB BKN031 BKN055 32/28 A2997 RMK
     AO2 RAE05 SLP147 CB OHD-SW-NE MOV SW P0000 T03170279 $=
KPDK 081353Z VRB03KT 10SM CLR 31/18 A3006 RMK AO2 SLP157
     T03110183=
KPDT 081353Z 14004KT 10SM CLR 18/08 A3000 RMK AO2 SLP143
     T01780083=
KPDX 081353Z 00000KT 10SM FEW250 19/14 A2992 RMK AO2 SLP131
     T01890139=
KPEO 081353Z AUTO 23004KT 7SM CLR 29/22 A3007 RMK AO2 SLP175
     T02890222=
KPGA 081353Z AUTO 00000KT 10SM CLR 26/04 A3009 RMK AO2 SLP115
     T02560039=
KPGD 081353Z AUTO 05008KT 10SM CLR 28/22 A3002 RMK AO2 SLP166
     T02780222 TSNO=
KPHD 081353Z AUTO 14003KT 7SM CLR 27/19 A3009 RMK AO2 SLP181
     T02720189=
KPIE 081353Z 08005KT 10SM CLR 27/22 A3001 RMK AO2 SLP162
     T02670217=
KPIH 081353Z 00000KT 10SM CLR 11/06 A3019 RMK AO2 SLP188
     T01110056=
KPIL 081353Z AUTO 36009KT 10SM -RA SCT016 SCT022 BKN030 28/26
     A2977 RMK AO2 RAB24 SLP079 P0002 T02830261=
KPIR 081353Z AUTO 27003KT 10SM CLR 18/13 A3019 RMK AO2 SLP214
     T01830133=
KPKB 081353Z 00000KT 6SM HZ CLR 27/21 A3012 RMK AO2 SLP189
     T02720211=
KPKD 081353Z AUTO 28006KT 10SM CLR 20/14 A3009 RMK AO2 SLP188
     T02000144=
KPMD 081353Z 00000KT 10SM CLR 19/01 A2992 RMK AO2 SLP105 T01890006
     $=
KPMP 081353Z 08008KT 10SM CLR 30/24 A2997 RMK AO2 SLP149
     T03000244=
KPNA 081350Z AUTO 30005KT 10SM BKN090 10/02 A3041 RMK AO2
     T00950022=
KPNC 081353Z AUTO 36006KT 10SM BKN009 BKN042 24/22 A3008 RMK AO2
     CIG 006V011 SLP175 T02440222=
KGEY 081353Z AUTO 00000KT 7SM CLR 14/05 A3028 RMK AO2 SLP228
     T01390050=
KGEZ 081353Z AUTO 19007KT 7SM CLR 28/22 A3005 RMK AO2 SLP167
     T02780217=
KGFK 081353Z 32006KT 10SM CLR 21/14 A3007 RMK AO2 SLP181
     T02060139=
KGFL 081353Z AUTO 00000KT 6SM HZ FEW090 29/22 A3003 RMK AO2 SLP165
     T02940222=
KGGW 081353Z AUTO 32004KT 10SM CLR 15/11 A3017 RMK AO2 SLP214
     T01500106 TSNO=
KGIF 081353Z AUTO 05005KT 10SM CLR 28/21 A3003 RMK AO2 SLP167
     T02780211 TSNO=
KGJT 081353Z 07014KT 10SM CLR 22/07 A3021 RMK AO2 SLP158
     T02170067=
KGLD 081353Z AUTO 00000KT 10SM OVC038 17/16 A3031 RMK AO2 SLP235
     T01720156=
KGLH 081353Z 00000KT 10SM CLR 27/24 A3007 RMK AO2 SLP188
     T02720239=
####018003745####
SAUS99 KWBC 081355 RRG
METAR
KIPL 081353Z AUTO 13007KT 10SM CLR 26/13 A2972 RMK AO2 SLP065
     T02560133=
KITR 081353Z AUTO 00000KT 10SM BKN006 BKN075 OVC100 17/15 A3032
     RMK AO2 RAB09E34 SLP230 P0000 T01670150=
KLPR 081353Z AUTO 19005KT 8SM CLR 29/21 A3006 RMK AO2 SLP172
     T02940206=
KLSE 081353Z 33007KT 10SM CLR 23/18 A3007 RMK AO2 SLP172
     T02330183=
KLUK 081353Z 00000KT 5SM HZ CLR 28/23 A3007 RMK AO2 SLP178
     T02830233=
KLVJ 081353Z AUTO 06004KT 8SM CLR 26/23 A2997 RMK AO2 RAE01B21E50
     SLP149 P0000 T02560233=
KLVK 081353Z 28005KT 10SM OVC008 13/11 A2992 RMK AO2 SLP129
     T01330111=
KLVM 081353Z AUTO 29003KT 10SM CLR 10/05 A3030 RMK AO2 SLP233
     T01000050=
KLVS 081353Z AUTO 01006KT 10SM SCT014 12/10 A3041 RMK AO2 SLP220
     T01170100 TSNO=
KLWD 081353Z AUTO 02006KT 10SM CLR 22/20 A3012 RMK AO2 SLP192
     T02170200=
KLWV 081353Z AUTO 27004KT 7SM FEW044 29/23 A3005 RMK AO2 SLP170
     T02940228=
KLXN 081350Z AUTO 33003KT 10SM BKN065 BKN100 19/17 A3025 RMK AO2
     T01920168=
KLXT 081353Z AUTO 05005KT 10SM OVC008 23/21 A3011 RMK AO2 SLP189
     T02280206=
KMAE 081353Z AUTO 29004KT 10SM CLR 17/11 A2985 RMK AO2 SLP106
     T01670106=
KMBS 081353Z 25003KT 10SM SCT070 25/22 A3003 RMK AO2 SLP163
     T02500217=
KMCB 081353Z AUTO 10SM 27/23 A3008 RMK AO2 SLP178 T02720233 $=
KMCE 081353Z AUTO 29005KT 10SM CLR 17/11 A2985 RMK AO2 SLP105
     T01670106=
KMCI 081353Z 03005KT 1 3/4SM BR BKN004 OVC015 24/23 A3011 RMK AO2
     SFC VIS 6 SLP186 T02440228=
KMCK 081353Z AUTO 00000KT 10SM SCT049 18/16 A3027 RMK AO2 SLP235
     T01830161=
KMCO 081353Z VRB03KT 10SM SCT026 SCT250 27/19 A3002 RMK AO2 SLP163
     T02720194=
KMCW 081353Z AUTO 35009KT 10SM CLR 21/17 A3016 RMK AO2 SLP202
     T02060172=
KMEM 081353Z 32004KT 10SM FEW150 SCT250 30/22 A3009 RMK AO2 SLP183
     T03000217=
KMFE 081353Z 35009KT 10SM BKN008 OVC013 27/24 A2982 RMK AO2 SLP096
     T02670244=
KMFR 081353Z 01003KT 10SM SCT110 19/12 A2993 RMK AO2 SLP122
     T01890122=
KMGW 081353Z 00000KT 6SM HZ CLR 27/18 A3012 RMK AO2 SLP185
     T02720183=
KMGY 081353Z AUTO 21005KT 6SM HZ CLR 28/21 A3008 RMK AO2 SLP176
     T02780211=
KMHE 081353Z AUTO 28006KT 10SM CLR 21/15 A3019 RMK AO2 SLP216
     T02110150 TSNO=
KMHT 081353Z 20004KT 7SM BKN020 BKN043 BKN110 27/21 A3007 RMK AO2
     SLP189 T02720211=
KMIA 081353Z 07008KT 10SM BKN022TCU BKN130 BKN300 29/24 A2997 RMK
     AO2 SLP148 TCU N-OHD-SE-S T02940239=
KMIC 081353Z 30006KT 10SM CLR 23/16 A3010 RMK AO2 SLP188
     T02280161=
KMIE 081353Z 21007KT 10SM BKN075 28/20 A3006 RMK AO2 SLP167
     T02830200=
KMIW 081353Z AUTO 35009KT 10SM CLR 22/19 A3011 RMK AO2 SLP189
     T02220194=
KMKL 081353Z 34004KT 10SM CLR 29/23 A3009 RMK AO2 SLP183
     T02890233=
KMLE 081350Z AUTO 00000KT 10SM CLR 21/16 A3015 RMK AO2
     T02130161=
KMLP 081353Z AUTO 12008G17KT 10SM CLR 13/02 A3027 RMK AO2 SLP160
     T01280017 TSNO=
KMLS 081353Z AUTO 16004KT 10SM CLR 16/11 A3021 RMK AO2 SLP218
     T01610106=
KMLT 081353Z AUTO VRB06KT 6SM HZ OVC015 24/21 A3007 RMK AO2 SLP185
     T02390206=
KMMH 081350Z AUTO 00000KT 10SM CLR 09/02 A3024 RMK AO1=
KMMK 081353Z AUTO 15004KT 4SM HZ BKN016 BKN021 OVC034 27/22 A3007
     RMK AO2 SLP180 T02670222=
KMMV 081353Z AUTO 26004KT 10SM CLR 14/11 A2994 RMK AO2 SLP137
     T01390106=
KMNN 081353Z AUTO 26003KT 9SM CLR 28/21 A3008 RMK AO2 SLP178
     T02830211=
KMOD 081353Z 36004KT 10SM CLR 16/11 A2985 RMK AO2 SLP108
     T01560111=
KMPO 081353Z AUTO 07006KT 8SM FEW100 28/21 A3012 RMK AO2 SLP184
     T02780206=
KMRB 081353Z AUTO 00000KT 5SM HZ CLR 30/19 A3004 RMK AO2 SLP166
     T03000189=
####018003734####
SAUS99 KWBC 081355 RRH
METAR
KMSL 081353Z AUTO 00000KT 10SM CLR 29/23 A3010 RMK AO2 SLP186
     T02940228=
KMSO 081353Z 17004KT 10SM CLR 13/07 A3022 RMK AO2 SLP218
     T01280067=
KMSP 081353Z 27005KT 10SM CLR 23/16 A3011 RMK AO2 SLP193
     T02280161=
KMSS 081353Z AUTO 19004KT 7SM CLR 29/23 A3001 RMK AO2 SLP159
     T02890233=
KMSY 081353Z 09005KT 10SM SCT022 BKN250 29/23 A3004 RMK AO2 SLP175
     T02890233=
KMTH 081353Z AUTO 05007KT 10SM CLR 27/24 A2996 RMK AO2
     TSB08E23UPB01E10 SLP143 P0000 T02720239 $=
KMTJ 081353Z AUTO 00000KT 10SM CLR 17/06 A3029 RMK AO2 SLP181
     T01720056=
KMTO 081353Z AUTO 21007KT 10SM FEW100 27/24 A3005 RMK AO2 SLP168
     T02720239=
KMVY 081353Z 15011G16KT 10SM CLR 27/21 A3010 RMK AO2 SLP191
     T02670206=
KMWC 081350Z 28006KT 10SM BKN011 BKN033 22/20 A3003=
KMYF 081353Z 35004KT 5SM BR OVC007 16/14 A2992 RMK AO2 CIG 006V010
     SLP128 T01560144=
KMYV 081353Z AUTO 14004KT 10SM CLR 16/11 A2985 RMK AO2 SLP111
     T01610111=
KNEW 081353Z 07008KT 10SM SCT014 29/26 A3005 RMK AO2 SLP167
     T02890256=
KOAK 081353Z 29010KT 8SM OVC007 14/11 A2995 RMK AO2 SLP141
     T01440106=
KODX 081353Z AUTO 32005KT 10SM BKN100 19/17 A3021 RMK AO2 SLP227
     T01890167=
KOGA 081350Z AUTO 00000KT 10SM SCT090 OVC110 17/15 A3030 RMK AO2
     T01700153=
KOGD 081353Z 00000KT 10SM CLR 21/06 A3014 RMK AO2 SLP147 T02060061
     $=
KOJC 081353Z 01006KT 10SM BKN012 BKN070 24/21 A3010 RMK AO2 SLP183
     T02440211=
KOLF 081353Z AUTO 22004KT 10SM CLR 17/11 A3017 RMK AO2 SLP211
     T01670111=
KOMK 081353Z AUTO 01009KT 10SM CLR 18/08 A3007 RMK AO2 SLP174
     T01830083=
KONL 081350Z AUTO 29004KT 10SM CLR 20/16 A3023 RMK AO2
     T02000158=
KONO 081353Z AUTO 00000KT 10SM CLR 14/06 A3009 RMK AO2 SLP177
     T01440061=
KONT 081353Z 20005KT 2SM BR OVC009 15/13 A2992 RMK AO2 SLP124
     T01500128=
KIWI 081353Z AUTO VRB05KT 10SM FEW095 24/19 A3012 RMK AO2 SLP198
     T02440194=
KIXD 081353Z 03005KT 10SM SCT010 SCT024 24/21 A3012 RMK AO2 SLP188
     T02390206=
KJAC 081351Z 00000KT 10SM SKC 11/01 A3038=
KJBR 081353Z AUTO 24005KT 10SM CLR 28/22 A3008 RMK AO2 SLP182
     T02830222 $=
KJCT 081351Z AUTO 07004KT 10SM BKN008 OVC022 24/22 A3004 RMK AO2
     CIG 007V011 SLP134 T02440222 TSNO=
KJEF 081353Z 00000KT 10SM BKN005 OVC012 24/23 A3007 RMK AO2 SLP169
     T02440228=
KJER 081353Z AUTO 08012KT 10SM CLR 14/04 A3015 RMK AO2 SLP176
     T01440039=
KJKL 081353Z AUTO 00000KT 5SM HZ CLR 27/22 A3013 RMK AO2 SLP185
     T02670217=
KJLN 081353Z 00000KT 1/2SM +RA FG FEW002 BKN013 OVC029 22/22 A3009
     RMK AO2 TSE48RAB48 SLP180 P0041 T02170217=
KJYR 081350Z AUTO 01007KT 10SM CLR 19/17 A3019 RMK AO2=
KLAA 081353Z AUTO 13008KT 10SM -RA SCT005 BKN011 OVC017 17/16
     A3028 RMK AO2 SLP218 P0001 T01670161=
KLAN 081353Z 00000KT 10SM SCT120 BKN200 27/21 A3003 RMK AO2 SLP162
     T02720211 $=
KLAR 081353Z AUTO 00000KT 10SM BKN004 OVC017 09/08 A3042 RMK AO2
     CIG 002V008 SLP231 T00940083=
KLBF 081353Z AUTO 00000KT 10SM CLR 18/16 A3027 RMK AO2 SLP235
     T01780156=
KLCG 081350Z AUTO 00000KT 10SM CLR 20/17 A3019 RMK AO2
     T02020168=
KLBX 081353Z AUTO 00000KT 10SM FEW065 26/25 A2993 RMK AO2 RAE52
     SLP136 P0005 T02610250=
KLCH 081353Z 08009KT 6SM BR OVC006 27/25 A3001 RMK AO2 SLP170
     T02720250=
KLEB 081353Z 19003KT 5SM HZ OVC013 27/22 A3006 RMK AO2 SLP168
     T02720222=
KLEE 081353Z 00000KT 10SM CLR 27/20 A3003 RMK AO2 SLP169
     T02720200=
KLFK 081353Z AUTO 09007KT 10SM BKN010 27/24 A3003 RMK AO2 SLP164
     T02720244=
KLFT 081353Z VRB03KT 10SM OVC006 27/24 A3004 RMK AO2 CIG 004V010
     SLP170 T02670244=
####018000962####
SAUS99 KWBC 081355 RRI
METAR
KLGB 081353Z 33003KT 8SM OVC013 17/13 A2992 RMK AO2 SLP130
     T01670133=
KLHM 081351Z AUTO 16004KT 10SM CLR 16/11 A2985 RMK AO1
     T01600111=
KLHQ 081353Z AUTO 27005KT 5SM HZ CLR 28/22 A3009 RMK AO2 SLP181
     T02830217=
KLHX 081353Z AUTO 00000KT 10SM FEW021 OVC026 17/14 A3031 RMK AO2
     SLP213 T01720139 PNO=
KLIT 081353Z 26004KT 10SM SCT011 BKN150 BKN250 27/24 A3010 RMK AO2
     SLP191 T02670239=
KLLQ 081353Z AUTO 00000KT 10SM CLR 27/24 A3010 RMK AO2 SLP189
     T02670239=
KLMT 081353Z 00000KT 10SM FEW050 SCT100 BKN200 16/11 A3008 RMK AO2
     SLP136 T01610106=
KLNS 081353Z 12003KT 4SM HZ CLR 30/22 A3003 RMK AO2 SLP164
     T03000217=
KLOL 081353Z AUTO 02007KT 10SM CLR 21/M04 A3003 RMK AO2 SLP120
     T02111039=
KLOU 081353Z 14004KT 6SM HZ CLR 29/22 A3007 RMK AO2 SLP176
     T02890217=
KLOZ 081353Z AUTO 00000KT 4SM HZ CLR 27/21 A3012 RMK AO2 SLP184
     T02670211=
####018000092####
SPUS99 KWBC 081355
SPECI
KISP 081352Z 12007KT 10SM SCT016 BKN130 27/20 A3005 RMK AO2=
####018000478####
SAUK31 EGGY 081350
METAR EGBB 081350Z 21009KT 180V250 CAVOK 23/08 Q1017=
METAR EGCC 081350Z 20009KT 160V230 9999 SCT038 21/10 Q1017=
METAR EGKK 081350Z 23008KT 180V280 9999 SCT048 26/13 Q1018=
METAR EGLL 081350Z 24009KT 9999 FEW034 SCT040 25/14 Q1018=
METAR EGPF 081350Z 22020KT 9999 FEW030 17/10 Q1013=
METAR EGPH 081350Z 23017KT 9999 SCT045 19/07 Q1013=
METAR EGPK 081350Z 24015KT 9999 FEW026 19/09 Q1014=
METAR EGSS 081350Z 23008KT 200V270 9999 SCT030 24/15 Q1018=
####018000571####
SASN33 ESWI 081350
METAR ESNG 081350Z VRB02KT 6000 -RA SCT045 15/14 Q1014=
METAR ESNK 081350Z AUTO 20011KT 9999NDV OVC043/// 22/13 Q1012=
METAR ESNN 081350Z AUTO 19004KT 150V230 9999NDV FEW042/// 22/13
Q1012=
METAR ESNO 081350Z 15010KT CAVOK 21/12 Q1013=
METAR ESNQ 081350Z 17013KT 9999 -RA FEW032 SCT042 15/12 Q1012 REDZ=
METAR ESNS 081350Z AUTO 15008KT 9999NDV ////// 23/09 Q1013=
METAR ESNU 081350Z 17009KT CAVOK 20/13 Q1014=
METAR ESNZ 081350Z 21006KT CAVOK 20/11 Q1011=
METAR ESUT 081350Z AUTO 15011KT 9999NDV FEW059/// SCT098///
BKN120/// 20/11 Q1009=
####018000118####
SAUS44 KLIX 081354
MTRMSY
METAR KMSY 081353Z 09005KT 10SM SCT022 BKN250 29/23 A3004 RMK AO2 
SLP175 T02890233
####018000469####
SAUK35 EGGY 081350
METAR EGHH 081350Z 19008KT 9999 FEW026 22/16 Q1018=
METAR EGKA 081350Z 21011KT 9999 4000W VCFG FEW006 20/17 Q1019=
METAR EGKB 081350Z 22008KT 170V240 9999 BKN035 25/13 Q1019 =
METAR EGLF 081350Z 25007KT 200V290 9999 FEW028 SCT034 23/15 Q1018=
METAR EGMC 081350Z NIL=
METAR EGMD 081350Z 20010KT 9999 FEW020 21/16 Q1019=
METAR EGMH 081350Z 12006KT 080V170 9999 FEW022 24/18 Q1018 =
METAR EGTC 081350Z 24009KT 190V280 9999 FEW045 23/11 Q1018=
####018000128####
SAUS44 KLZK 081354
MTRMWT
METAR KMWT 081353Z AUTO 00000KT 10SM FEW017 BKN049 26/23 A3008 RMK 
AO2 SLP177 T02560233 TSNO
####018000107####
SAUS41 KBTV 081354
MTRBTV
METAR KBTV 081354Z 20006KT 7SM CLR 29/22 A3001 RMK AO2 SLP161 
T02940222
####018000485####
SAUK34 EGGY 081350
METAR EGHD 081350Z 19009KT 150V240 9999 FEW020 20/14 Q1019=
METAR EGHE 081350Z NIL=
METAR COR EGHK 081350Z 15006KT 9999 SCT018 18/15 Q1018 NOSIG=
METAR EGHQ 081350Z NIL=
METAR EGJA 081350Z 31007KT 280V340 FEW010 20/17 Q1020=
METAR EGJB 081350Z 29006KT 260V330 9999 FEW013 20/16 Q1019=
METAR EGJJ 081350Z 30010KT 260V330 9999 FEW012 21/17 Q1019 NOSIG=
METAR EGTE 081350Z 17013KT 9999 FEW030 21/15 Q1018=
METAR EGTG 081350Z 28006KT 9999 FEW040 21/10 Q1018=
####018000370####
SASW32 LSSW 081350
METAR LSGC 081350Z VRB04KT CAVOK 27/14 Q1024=
METAR LSGS 081350Z 24013KT 210V280 9999 FEW120 SCT250 31/13 Q1019=
METAR LSZG 081350Z VRB03KT 9999 FEW050 30/13 Q1021 NOSIG=
METAR LSZR 081350Z VRB02KT CAVOK 27/07 Q1021 NOSIG RMK K=
METAR LSZS 081350Z 29012KT 260V320 9999 FEW070 25/05 Q1026=
METAR LSZC 081350Z 07005KT 040V100 CAVOK 28/16 Q1021=
####018000115####
SAUS45 KABQ 081354
MTRGNT
METAR KGNT 081353Z AUTO 15012KT 17/09 A3034 RMK AO2 SLP183 T01720094 
PWINO TSNO
####018000527####
SASN32 ESWI 081350
METAR ESKN 081350Z 24012KT 200V280 9999 SCT049 26/13 Q1017=
METAR ESOE 081350Z 22013KT 9999 SCT045 24/14 Q1017=
METAR ESOK 081350Z 17008KT 140V210 9999 BKN025 21/14 Q1017=
METAR ESOW 081350Z 23011KT 9999 SCT047 23/13 Q1017=
METAR ESSA 081350Z 24011KT 9999 SCT045 25/14 Q1016 NOSIG=
METAR ESSB 081350Z 26009KT 9999 SCT047 25/13 Q1016=
METAR ESSD 081350Z AUTO 22009KT 9999NDV BKN027/// 20/13 Q1016=
METAR ESSP 081350Z 27009KT 220V310 CAVOK 25/13 Q1017=
METAR ESSV 081350Z 26009KT CAVOK 23/10 Q1019=
####018000170####
SASN34 ESWI 081350
METAR ESDF 081350Z 20010KT CAVOK 23/12 Q1020=
METAR ESPA 081350Z 15010KT CAVOK 18/14 Q1015=
METAR ESSL 081350Z 23006KT 190V260 CAVOK 25/13 Q1017=
####018000448####
SASN35 ESWI 081350
METAR ESGL 081350Z AUTO 21014KT 9999NDV SCT016/// OVC021/// 19/16 
Q1018=
METAR ESGR 081350Z AUTO 21014KT 9999NDV BKN042/// 21/14 Q1018=
METAR ESKM 081350Z NIL=
METAR ESNL 081350Z 13013KT 9999 SCT044 23/11 Q1012=
METAR ESNX 081350Z AUTO 11006KT 9999NDV -RA FEW008/// 16/14 Q1013=
METAR ESNY 081350Z AUTO 27008KT 230V310 9999 FEW047 25/14 Q1014=
METAR ESSF 081350Z NIL=
METAR ESSK 081350Z NIL=
METAR ESUD 081350Z NIL=
####018000088####
SAQB31 LQSM 081400
METAR LQSA 081400Z 32007KT 270V010 9999 SCT060 23/12 Q1023 NOSIG=
####018000107####
SAGU31 MGGT 081400
METAR
MGGT 081400Z 00000KT CAVOK 19/14 Q1023 A30.21 BKN080 SCT200 VTO TEND W NOSIG=
####018000109####
SAGU31 MGGT 081400
METAR
MGGT 081400Z 00000KT CAVOK 19/14 Q1023 A30.21 BKN080 SCT200 VTO TEND
W
NOSIG=
####018000122####
SPAO33 KWBC 081355
SPECI
GBYD 1305Z 25007KT 9999 TS SCT011 FEW018CB BKN120 THUNDER HEARD AT
SOUTHEAST OF STATION=
####018000390####
SAFI32 EFHK 081350
EFHA 081350Z AUTO VRB01KT 9999 FEW048 25/15 Q1014=
EFHF 081350Z 35007KT 310V030 9999 SCT049CB 28/18 Q1013=
EFKA 081350Z 20005KT 130V260 CAVOK 26/10 Q1014=
EFKK 081350Z AUTO 24006KT 170V310 CAVOK 26/09 Q1014=
EFMA 081350Z 20010KT 170V230 CAVOK 21/14 Q1016=
EFPO 081350Z AUTO 27010KT 230V300 CAVOK 24/11 Q1015=
EFSI 081350Z AUTO 25006KT 160V310 CAVOK 26/09 Q1014=
####018000088####
SPCN31 KWBC 081355
SPECI
CYTL 081352Z AUTO 25005KT 9SM BKN015 BKN084 18/15 A2977=
####018000124####
SPJP31 KWBC 081355
SPECI
RJCC 081349Z 20004KT 1000 R01L/1400VP1800U R01R/0900V1300U DZ
VV002 17/17 Q1010 RMK A2985=
####018000131####
SPJP31 KWBC 081355
SPECI
RJCC 081345Z 20005KT 1100 R01L/1200VP1800U R01R/1000U -DZ BR
BKN002 17/17 Q1010 RMK 7ST002 A2985=
####018000136####
SPJP31 KWBC 081355
SPECI
RJCC 081343Z 19005KT 1200 R01L/1200VP1800D R01R/0800V1100U -DZ BR
BKN002 17/17 Q1010 RMK 7ST002 A2985=
####018000099####
SPJP45 KWBC 081355
SPECI
RJTY 081350Z AUTO 15004KT 9999 SCT018 24/22 A2990 RMK AO2 SLP119 $=
####018000114####
SPXX62 KWBC 081355
SPECI
RKJK 081351Z 05004KT 1600 R36/0600V0800 HZ BKN120 24/21 A2980 RMK
AO2A SLP092 $=
####018000099####
SPXX62 KWBC 081355
SPECI
RJTY 081350Z AUTO 15004KT 9999 SCT018 24/22 A2990 RMK AO2 SLP119 $=
####018000114####
SPXX62 KWBC 081355
SPECI
RKJK 081348Z 05003KT 2000 R36/0650V1000 HZ BKN120 24/21 A2980 RMK
AO2A SLP092 $=
####018000107####
SAUS44 KMRX 081354
MTRCHA
METAR KCHA 081353Z 00000KT 9SM CLR 30/20 A3008 RMK AO2 SLP177 
T03000200
####018000134####
SAUS42 KKEY 081354
MTRNQX
METAR KNQX 081353Z 03005KT 10SM SCT022 BKN100 BKN200 30/25 A2996 RMK 
AO2 SLP145 T2 SET T03000250 $
####018000173####
SAUS44 KCRP 081354
MTRCRP
METAR KCRP 081351Z COR 03006KT 10SM SCT022 SCT040 BKN060 27/25 A2985 
RMK AO2 RAE31 SLP106 CB DSNT E TCU DSNT NE SE S SW P0001 T02670250 $
####018000115####
SAUS44 KSHV 081354
MTRDNK
METAR KDNK 081353Z AUTO 09006KT 9SM SCT011 27/23 A3004 RMK AO2 
SLP169 T02720233
####018000123####
SAUS46 KSGX 081354
MTRRNM
METAR KRNM 081353Z AUTO 00000KT 5SM BR OVC004 14/13 A2992 RMK AO2 
SLP122 T01390128 TSNO
####018000116####
SAUS41 KAKQ 081354
MTRNUI
METAR KNUI 081353Z AUTO 10008KT 10SM SCT070 28/22 A3001 RMK AO2 
SLP162 T02780217
####018000119####
SAUS45 KPIH 081354 COR
MTRSNT
METAR KSNT 081351Z AUTO 00000KT 05/01 A3035 RMK AO2 SLP196 T00500006 
PWINO TSNO
####018000115####
SAUS42 KTAE 081354
MTRCTY
METAR KCTY 081353Z AUTO 00000KT 27/23 A3002 RMK AO2 SLP165 T02720228 
PWINO TSNO
####018000115####
SAUS42 KTAE 081354
MTR40J
METAR K40J 081353Z AUTO 31004KT 28/22 A3002 RMK AO2 SLP164 T02780222 
PWINO TSNO
####018002978####
SAUS20 KNKA 081354
METAR KPOF 081353Z AUTO 24005KT 10SM FEW065 29/23 A3006 RMK AO2 
    SLP174 T02890233=
METAR KPOU 081353Z 13008KT 7SM CLR 29/22 A3004 RMK AO2 SLP167 
    T02890222=
METAR KPQL 081353Z 00000KT 10SM CLR 28/24 A3005 RMK AO2 SLP176 
    T02830244=
METAR KPRB 081353Z AUTO 35003KT 7SM OVC005 12/11 A2993 RMK AO2 
    SLP131 T01220106=
METAR KPRC 081353Z 00000KT 10SM CLR 20/02 A3013 RMK AO2 SLP111 
    T02000017=
METAR KPSC 081353Z 00000KT 10SM CLR 18/11 A2999 RMK AO2 SLP153 
    T01830111=
METAR KPSP 081353Z VRB04KT 10SM CLR 26/12 A2977 RMK AO2 SLP077 
    T02560117=
METAR KPSX 081353Z AUTO 14014G23KT 3SM -RA BR FEW002 28/26 A2990 RMK 
    AO2 RAE13B52 SLP125 P0004 T02780256=
METAR KPTK 081353Z 23004KT 10SM FEW150 SCT240 30/21 A3003 RMK AO2 
    SLP159 T03000206=
METAR KPUB 081353Z 12005KT 10SM CLR 16/13 A3031 RMK AO2 SLP216 
    T01610128=
METAR KPUC 081353Z AUTO 30003KT 10SM CLR 19/03 A3025 RMK AO2 SLP161 
    T01940028 TSNO=
METAR KPUW 081353Z AUTO 09008KT 10SM CLR 18/08 A3008 RMK AO2 SLP169 
    T01830078=
METAR KRAC 081353Z AUTO 28006KT 10SM SCT010 OVC017 24/22 A3004 RMK 
    AO2 SLP166 T02440217=
METAR KRAL 081353Z 00000KT 3SM BR OVC007 15/13 A2993 RMK AO2 SLP121 
    T01500128=
METAR KRBG 081353Z AUTO 00000KT 10SM CLR 16/12 A2995 RMK AO2 SLP139 
    T01610117=
METAR KRDD 081353Z 18008KT 10SM CLR 22/14 A2984 RMK AO2 SLP099 
    T02220144=
METAR KRHI 081353Z AUTO 32006KT 10SM CLR 21/16 A3007 RMK AO2 SLP178 
    T02060161=
METAR KRHV 081350Z 27006KT 4SM BR OVC009 15/12 A2993=
METAR KRIW 081353Z AUTO 33004KT 10SM CLR 14/06 A3035 RMK AO2 SLP227 
    T01390061=
METAR KRKP 081353Z AUTO 00000KT 2SM VCTS +RA FEW011 BKN027 OVC055 
    A2987 RMK AO2 VIS 1 1/2V5 LTG DSNT SW TSB52RAE05B32 SLP118 P0025 
    FZRANO $=
METAR KRME 081353Z 00000KT 8SM CLR 28/21 A3007 RMK AO2 SLP174 
    T02830211=
METAR KRMG 081353Z AUTO 02004KT 10SM CLR 29/19 A3006 RMK AO2 SLP168 
    T02940189=
METAR KRNT 081353Z 00000KT 9SM CLR 17/13 A2996 RMK AO2 SLP150 
    T01670133=
METAR KRSL 081353Z AUTO 35008KT 10SM OVC015 19/17 A3018 RMK AO2 
    SLP209 T01940172=
METAR KRSW 081353Z 04006KT 10SM CLR 28/23 A2998 RMK AO2 SLP151 
    T02830228=
METAR KRUE 081353Z AUTO 00000KT 10SM SCT045 27/23 A3009 RMK AO2 
    SLP180 P0003 T02670233=
METAR KRVS 081353Z 00000KT 10SM BKN023 24/23 A3005 RMK AO2 SLP180 
    T02390228=
METAR KRWF 081353Z AUTO 30007KT 10SM CLR 21/16 A3013 RMK AO2 SLP200 
    T02110161=
METAR KRWI 081353Z AUTO 05005KT 5SM HZ CLR 28/21 A2998 RMK AO2 
    RAB26E35 SLP152 P0000 T02830206=
METAR KRWL 081353Z AUTO 06006KT 10SM CLR 11/07 A3041 RMK AO2 SLP229 
    T01110072=
METAR KRXE 081353Z AUTO 07006KT 10SM CLR 12/06 A3025 RMK AO2 SLP206 
    T01220056=
METAR KSAC 081353Z 18006KT 10SM CLR 13/10 A2986 RMK AO2 SLP112 
    T01330100=
METAR KSAF 081353Z 11003KT 10SM CLR 16/10 A3036 RMK AO2 SLP193 
    T01560100=
####018000118####
SAUS44 KHGX 081354
MTRSGR
METAR KSGR 081353Z 07007KT 10SM FEW039 SCT085 25/23 A2996 RMK AO2 
SLP152 T02500228
####018002949####
SAUS20 KNKA 081354
METAR KSAN 081351Z 31003KT 10SM OVC013 16/14 A2993 RMK AO2 SLP135
     T01610139=
METAR KSAT 081353Z 05008KT 6SM BR BKN009 OVC045 26/23 A2997 RMK AO2 
    RAB09E35 SLP130 SHRA VC E P0000 T02560233=
METAR KSBA 081353Z 20004KT 8SM OVC011 14/12 A2991 RMK AO2 SLP130 
    T01440122 $=
METAR KSBM 081353Z AUTO VRB03KT 10SM BKN010 25/22 A3001 RMK AO2 
    SLP157 T02500217=
METAR KSDL 081353Z 00000KT 10SM CLR 29/09 A2985 RMK AO2 SLP076 
    T02940094=
METAR KSEA 081353Z 02006KT 10SM CLR 21/12 A2997 RMK AO2 SLP152 
    T02060122=
METAR KSEG 081353Z AUTO 08004KT 7SM CLR 33/19 A3003 RMK AO2 SLP166 
    T03280189=
METAR KSFF 081353Z 00000KT 10SM CLR 18/10 A3008 RMK AO2 SLP170 
    T01780100=
METAR KSHN 081353Z AUTO 00000KT 10SM CLR 14/12 A2994 RMK AO2 SLP138 
    T01390117=
METAR KSHR 081353Z AUTO 00000KT 10SM CLR 14/08 A3027 RMK AO2 SLP231 
    T01390083=
METAR KSIY 081353Z AUTO 00000KT 10SM CLR 17/09 A2999 RMK AO2 SLP140 
    T01670089 $=
METAR KSJC 081353Z 00000KT 7SM FEW008 BKN011 OVC013 15/12 A2993 RMK 
    AO2 SLP135 T01500117=
METAR KSLC 081353Z 14004KT 10SM FEW090 BKN130 22/07 A3012 RMK AO2 
    SLP144 T02170072=
METAR KSLN 081353Z 36011KT 10SM BKN010 22/19 A3015 RMK AO2 SLP198 
    T02170194=
METAR KSMF 081353Z 15009KT 10SM CLR 14/11 A2985 RMK AO2 SLP107 
    T01390106=
METAR KSMQ 081353Z AUTO 19003KT 5SM HZ OVC022 27/23 A3003 RMK AO2 
    SLP167 T02720228=
METAR KSNA 081353Z 22003KT 6SM HZ OVC015 18/13 A2992 RMK AO2 SLP129 
    T01830128=
METAR KSNS 081353Z 27003KT 6SM BR OVC009 13/11 A2994 RMK AO2 SLP147 
    T01280106=
METAR KSNY 081353Z AUTO 04004KT 10SM FEW003 SCT042 17/15 A3033 RMK 
    AO2 SLP238 T01720150=
METAR KSPB 081353Z AUTO 00000KT 9SM CLR 17/14 A2992 RMK AO2 SLP130 
    T01670139 $=
METAR KSPG 081353Z 09005KT 10SM CLR 27/22 A3000 RMK AO2 SLP158 
    T02720222=
METAR KSPW 081353Z AUTO 32004KT 10SM CLR 21/16 A3017 RMK AO2 SLP211 
    T02110161=
METAR KSRQ 081353Z 07005KT 10SM CLR 28/23 A3000 RMK AO2 SLP157 
    T02780228=
METAR KSSF 081353Z 05011G15KT 10SM SCT012 BKN027 27/23 A2994 RMK AO2 
    SLP127 T02670233=
METAR KSTC 081353Z 30009KT 10SM CLR 23/14 A3010 RMK AO2 SLP198 
    T02330139=
METAR KSTJ 081353Z 02010KT 10SM OVC011 23/21 A3011 RMK AO2 SLP190 
    T02280206=
METAR KSTP 081353Z 32003KT 10SM CLR 23/17 A3011 RMK AO2 SLP191 
    T02280167=
METAR KSTS 081353Z 00000KT 10SM OVC004 12/10 A2992 RMK AO2 SLP125 
    T01170100=
METAR KSWO 081353Z 01005KT 9SM OVC004 24/22 A3007 RMK AO2 SLP171 
    T02440222=
METAR KTCC 081353Z AUTO 05007KT 10SM OVC090 18/15 A3025 RMK AO2 
    SLP191 T01780150=
METAR KTCL 081353Z 36004KT 10SM CLR 31/22 A3005 RMK AO2 SLP174 
    T03110222=
METAR KTDZ 081353Z AUTO 24005KT 10SM CLR 30/21 A3004 RMK AO2 SLP167 
    T03000206=
METAR KTHV 081353Z AUTO 00000KT 6SM HZ CLR 30/22 A3003 RMK AO2 
    SLP165 T03000222=
####018000496####
SAHW31 KMSC 081354
METAR PHNL 081353Z 05007KT 10SM SCT060 24/18 A3001 RMK AO2 SLP160 
    T02390178=
METAR PHTO 081353Z 24006KT 10SM FEW044 OVC055 21/18 A3002 RMK AO2 
    RAE08 SLP163 P0002 T02060183=
METAR PHKO 081353Z AUTO 13005KT 10SM OVC060 23/17 A2995 RMK AO2 
    SLP143 T02330172 TSNO=
METAR PHLI 081353Z 07012KT 10SM FEW025 BKN055 OVC075 24/18 A3003 RMK 
    AO2 SLP167 T02390183 $=
METAR PHJR 081353Z VRB03KT 10SM FEW060 22/17 A3002 RMK AO2 SLP170 
    T02220172=
####018000108####
SAUS20 KNKA 081354
METAR KZZV 081353Z AUTO 21003KT 7SM CLR 28/22 A3009 RMK AO2 SLP179 
    T02780217=
####018000093####
SAFJ31 NFNA 081400
METAR NFNA 081400Z 00000KT 40KM FEW024 19/19 Q1014 RMK RR NIL DEW HVY
####018002997####
SAUS20 KNKA 081354
METAR KTIW 081353Z AUTO 00000KT 10SM CLR 20/12 A2996 RMK AO2 SLP141 
    T02000122=
METAR KTMB 081353Z 09007KT 10SM CLR 32/25 A2997 RMK AO2 SLP147 
    T03170250=
METAR KTOI 081353Z 00000KT 10SM CLR 29/24 A3005 RMK AO2 SLP169 
    T02940239=
METAR KTOP 081353Z 02007KT 9SM OVC007 24/22 A3012 RMK AO2 SLP190 
    T02390217=
METAR KTOR 081353Z AUTO 32004KT 10SM CLR 14/11 A3031 RMK AO2 SLP234 
    T01440111=
METAR KTPA 081353Z 00000KT 10SM FEW030 SCT200 28/21 A3001 RMK AO2 
    SLP162 T02780206=
METAR KTTD 081353Z AUTO 00000KT 10SM CLR 18/15 A2991 RMK AO2 SLP127 
    T01830150=
METAR KTTN 081353Z 18006KT 2 1/2SM HZ BKN013 BKN022 28/23 A3004 RMK 
    AO2 SLP164 T02830233=
METAR KTUL 081353Z 00000KT 10SM SCT006 BKN090 OVC100 24/23 A3004 RMK 
    AO2 SLP166 T02440233=
METAR KTUS 081353Z 09005KT 10SM CLR 30/11 A2994 RMK AO2 SLP082 
    T03000106=
METAR KTVC 081353Z 00000KT 7SM SCT006 BKN011 OVC030 23/22 A2999 RMK 
    AO2 RAB01E51 SLP153 P0001 T02280217=
METAR KTVL 081353Z AUTO 00000KT 10SM CLR 10/06 A3018 RMK AO2 SLP160 
    T01000056=
METAR KTVR 081353Z AUTO 00000KT 10SM CLR 28/23 A3007 RMK AO2 SLP189 
    T02780233=
METAR KTWF 081353Z 07009KT 10SM CLR 18/04 A3015 RMK AO2 SLP157 
    T01780039=
METAR KUAO 081353Z AUTO 00000KT 10SM CLR 17/12 A2994 RMK AO2 SLP136 
    T01720122=
METAR KUES 081345Z 28007KT 10SM OVC012 22/19 A3004=
METAR KUNO 081353Z AUTO 22005KT 10SM BKN055 BKN085 25/22 A3011 RMK 
    AO2 SLP180 T02500222 TSNO=
METAR KUTS 081353Z AUTO 09003KT 7SM BKN007 25/24 A3001 RMK AO2 CIG 
    005V010 SLP157 T02500239=
METAR KUUU 081353Z AUTO 11006KT 10SM OVC005 23/21 A3011 RMK AO2 
    SLP192 T02330211=
METAR KVCB 081353Z AUTO 23004KT 10SM CLR 15/10 A2985 RMK AO2 SLP107 
    T01500100=
METAR KVEL 081353Z AUTO 00000KT 10SM CLR 18/06 A3027 RMK AO2 SLP189 
    T01780061=
METAR KVGT 081353Z 32007KT 10SM CLR 27/M02 A2988 RMK AO2 SLP080 
    T02721022=
METAR KVIH 081353Z AUTO 00000KT 10SM OVC005 24/22 A3008 RMK AO2 
    RAE12 CIG 003V007 SLP175 P0000 T02440222=
METAR KVPC 081353Z AUTO 00000KT 8SM CLR 28/21 A3007 RMK AO2 SLP169 
    T02780211=
METAR KVPZ 081353Z AUTO 14006KT 4SM -RA BR SCT027 24/23 A3004 RMK 
    AO2 RAB14 SLP167 P0000 T02390228=
METAR KVRB 081353Z 04007KT 10SM FEW025 29/21 A2999 RMK AO2 SLP155 
    T02890206=
METAR KVUO 081353Z AUTO 00000KT 10SM CLR 18/14 A2992 RMK AO2 SLP130 
    T01830139=
METAR KWRL 081353Z AUTO 00000KT 10SM CLR 15/05 A3029 RMK AO2 SLP223 
    T01500050=
METAR KWST 081353Z AUTO 09005KT 10SM FEW006 SCT010 26/22 A3009 RMK 
    AO2 SLP188 T02560217=
METAR KWVI 081353Z AUTO 00000KT 9SM OVC007 13/11 A2995 RMK AO2 
    SLP141 T01280106=
METAR KXNA 081353Z 17004KT 10SM OVC015 23/22 A3010 RMK AO2 SLP177 
    T02330217=
METAR KYIP 081353Z VRB03KT 10SM CLR 31/21 A3004 RMK AO2 SLP164 
    T03060206 $=
METAR KYKM 081353Z 25005KT 10SM CLR 18/08 A3003 RMK AO2 SLP160 
    T01780078=
####018000193####
SACA01 KMSC 081354
METAR TISX 081353Z 12015G19KT 10SM SCT020 31/24 A3002 RMK AO2 SLP163 
    T03110239=
METAR TIST 081353Z 06009KT 10SM CLR 31/24 A3001 RMK AO2 SLP164 
    T03110244=
####018001785####
SAUK KAWN 081400
METAR EGAA 081350Z 22012KT 9999 SCT035 18/10 Q1014=
METAR EGAC 081350Z 20014KT 9999 FEW033 SCT042 19/09 Q1014=
METAR EGBB 081350Z 21009KT 180V250 CAVOK 23/08 Q1017=
METAR EGCC 081350Z 20009KT 160V230 9999 SCT038 21/10 Q1017=
METAR EGFF 081350Z 28006KT 240V310 9999 FEW030 20/11 Q1019=
METAR EGGD 081350Z 28006KT 250V320 9999 FEW035 20/10 Q1019=
METAR EGGW 081350Z 23006KT 170V270 9999 FEW040 24/12 Q1018=
METAR EGHD 081350Z 19009KT 150V240 9999 FEW020 20/14 Q1019=
METAR EGHH 081350Z 19008KT 9999 FEW026 22/16 Q1018=
METAR EGHI 081350Z 21008KT 160V270 9999 FEW028 SCT048 22/13 Q1018=
METAR EGJA 081350Z 31007KT 280V340 FEW010 20/17 Q1020=
METAR EGJB 081350Z 29006KT 260V330 9999 FEW013 20/16 Q1019=
METAR EGJJ 081350Z 30010KT 260V330 9999 FEW012 21/17 Q1019 NOSIG=
METAR EGKK 081350Z 23008KT 180V280 9999 SCT048 26/13 Q1018=
METAR EGLC 081350Z 28004KT 210V320 9999 SCT035 25/14 Q1018=
METAR EGLL 081350Z 24009KT 9999 FEW034 SCT040 25/14 Q1018=
METAR EGMD 081350Z 20010KT 9999 FEW020 21/16 Q1019=
METAR EGMH 081350Z 12006KT 080V170 9999 FEW022 24/18 Q1018=
METAR EGNM 081350Z 26010KT 9999 SCT035 18/09 Q1017=
METAR EGNT 081350Z 26014KT 9999 FEW045 20/07 Q1014=
METAR EGNV 081350Z 24018KT 9999 FEW040 22/09 Q1016=
METAR EGNX 081350Z 22010KT 190V250 CAVOK 22/07 Q1017=
METAR COR EGPB 081350Z 20013KT 9999 FEW030 15/11 Q1008 NOSIG=
METAR EGPD 081350Z 22010KT 9999 FEW048 18/08 Q1011 NOSIG=
METAR EGPF 081350Z 22020KT 9999 FEW030 17/10 Q1013=
METAR EGPH 081350Z 23017KT 9999 SCT045 19/07 Q1013=
METAR EGPK 081350Z 24015KT 9999 FEW026 19/09 Q1014=
METAR EGSS 081350Z 23008KT 200V270 9999 SCT030 24/15 Q1018=
METAR EGTE 081350Z 17013KT 9999 FEW030 21/15 Q1018=
METAR EGTG 081350Z 28006KT 9999 FEW040 21/10 Q1018=
####018000079####
SPCN48 CWAO 081352
SPECI CYAS 081352Z 28003KT 1SM BR OVC003 RMK FG3ST5=

####018000121####
SAUS45 KABQ 081355
MTRTCS
METAR KTCS 081353Z AUTO 02010KT 10SM FEW110 19/14 A3022 RMK AO2 
SLP165 T01940139 TSNO
####018000142####
SAUS46 KLOX 081355 COR
MTRSMX
METAR KSMX 081351Z 30004KT 2 1/2SM BR BKN004 OVC008 12/11 A2994 RMK 
AO2 CIG 002V007 SLP141 T01170111 $
####018000133####
SAUS45 KPUB 081355
MTRLXV
METAR KLXV 081353Z AUTO 00000KT 10SM OVC008 07/05 A3053 RMK AO2 CIG 
005V012 SLP213 T00670050 TSNO
####018000118####
SAUS45 KGJT 081355
MTRRIL
METAR KRIL 081353Z AUTO 00000KT 10SM CLR 16/07 A3029 RMK AO2 SLP201 
T01560072 TSNO
####018000376####
SASW32 LSSW 081350
METAR LSGC 081350Z VRB04KT CAVOK 27/14 Q1024=
METAR LSGS 081350Z 24013KT 210V280 9999 FEW120 SCT250 31/13 Q1019=
METAR LSZG 081350Z VRB03KT 9999 FEW050 30/13 Q1021 NOSIG=
METAR LSZR 081350Z VRB02KT CAVOK 27/07 Q1021 NOSIG RMK K=
METAR LSZS 081350Z 29012KT 260V320 9999 FEW070 25/05 Q1026=
METAR LSZC 081350Z 07005KT 040V100 CAVOK 28/16 Q1021=
####018000074####
SASD20 OEJD 081300 RRB
METAR OEKJ 081300Z 02015KT CAVOK 44/M04 Q1005=
####018000121####
SAGM31 PGUM 081355
MTRGUM
METAR PGUM 081354Z 11008KT 10SM FEW020 28/24 A2990 RMK AO2 SLP117 
T02780244 403220261
####018000377####
SAUK33 EGGY 081350
METAR EGGD 081350Z 28006KT 250V320 9999 FEW035 20/10 Q1019=
METAR EGGP 081350Z NIL=
METAR EGHI 081350Z 21008KT 160V270 9999 FEW028 SCT048 22/13 Q1018 =
METAR EGNS 081350Z NIL=
METAR EGNT 081350Z 26014KT 9999 FEW045 20/07 Q1014=
METAR EGNV 081350Z 24018KT 9999 FEW040 22/09 Q1016=
METAR COR EGPB 081350Z 20013KT 9999 FEW030 15/11 Q1008 NOSIG=
####018000494####
SAUK34 EGGY 081350
METAR EGHD 081350Z 19009KT 150V240 9999 FEW020 20/14 Q1019=
METAR EGHE 081350Z NIL=
METAR COR EGHK 081350Z 15006KT 9999 SCT018 18/15 Q1018 NOSIG=
METAR EGHQ 081350Z NIL=
METAR EGJA 081350Z 31007KT 280V340 FEW010 20/17 Q1020=
METAR EGJB 081350Z 29006KT 260V330 9999 FEW013 20/16 Q1019=
METAR EGJJ 081350Z 30010KT 260V330 9999 FEW012 21/17 Q1019 NOSIG=
METAR EGTE 081350Z 17013KT 9999 FEW030 21/15 Q1018=
METAR EGTG 081350Z 28006KT 9999 FEW040 21/10 Q1018=
####018000093####
SADN32 EKCH 081350 RRA
METAR EKVD 081350Z 27008KT 9999 FEW025 SCT050 BKN100 20/16 Q1019=
####018000536####
SASN32 ESWI 081350
METAR ESKN 081350Z 24012KT 200V280 9999 SCT049 26/13 Q1017=
METAR ESOE 081350Z 22013KT 9999 SCT045 24/14 Q1017=
METAR ESOK 081350Z 17008KT 140V210 9999 BKN025 21/14 Q1017=
METAR ESOW 081350Z 23011KT 9999 SCT047 23/13 Q1017=
METAR ESSA 081350Z 24011KT 9999 SCT045 25/14 Q1016 NOSIG=
METAR ESSB 081350Z 26009KT 9999 SCT047 25/13 Q1016=
METAR ESSD 081350Z AUTO 22009KT 9999NDV BKN027/// 20/13 Q1016=
METAR ESSP 081350Z 27009KT 220V310 CAVOK 25/13 Q1017=
METAR ESSV 081350Z 26009KT CAVOK 23/10 Q1019=
####018000173####
SASN34 ESWI 081350
METAR ESDF 081350Z 20010KT CAVOK 23/12 Q1020=
METAR ESPA 081350Z 15010KT CAVOK 18/14 Q1015=
METAR ESSL 081350Z 23006KT 190V260 CAVOK 25/13 Q1017=
####018000087####
SAUK35 EGGY 081350 RRA
METAR EGMC 081350Z 24006KT 190V270 9999 FEW040 26/15 Q1018=
####018000582####
SASN33 ESWI 081350
METAR ESNG 081350Z VRB02KT 6000 -RA SCT045 15/14 Q1014=
METAR ESNK 081350Z AUTO 20011KT 9999NDV OVC043/// 22/13 Q1012=
METAR ESNN 081350Z AUTO 19004KT 150V230 9999NDV FEW042/// 22/13
Q1012=
METAR ESNO 081350Z 15010KT CAVOK 21/12 Q1013=
METAR ESNQ 081350Z 17013KT 9999 -RA FEW032 SCT042 15/12 Q1012 REDZ=
METAR ESNS 081350Z AUTO 15008KT 9999NDV ////// 23/09 Q1013=
METAR ESNU 081350Z 17009KT CAVOK 20/13 Q1014=
METAR ESNZ 081350Z 21006KT CAVOK 20/11 Q1011=
METAR ESUT 081350Z AUTO 15011KT 9999NDV FEW059/// SCT098///
BKN120/// 20/11 Q1009=
####018000089####
SAQB31 LQSM 081400
METAR LQSA 081400Z 32007KT 270V010 9999 SCT060 23/12 Q1023 NOSIG=
####018000492####
SAUK32 EGGY 081350
METAR EGAA 081350Z 22012KT 9999 SCT035 18/10 Q1014=
METAR EGAC 081350Z 20014KT 9999 FEW033 SCT042 19/09 Q1014=
METAR EGFF 081350Z 28006KT 240V310 9999 FEW030 20/11 Q1019=
METAR EGGW 081350Z 23006KT 170V270 9999 FEW040 24/12 Q1018=
METAR EGLC 081350Z 28004KT 210V320 9999 SCT035 25/14 Q1018=
METAR EGNM 081350Z 26010KT 9999 SCT035 18/09 Q1017=
METAR EGNX 081350Z 22010KT 190V250 CAVOK 22/07 Q1017=
METAR EGPD 081350Z 22010KT 9999 FEW048 18/08 Q1011 NOSIG=
####018000486####
SAUK31 EGGY 081350
METAR EGBB 081350Z 21009KT 180V250 CAVOK 23/08 Q1017=
METAR EGCC 081350Z 20009KT 160V230 9999 SCT038 21/10 Q1017=
METAR EGKK 081350Z 23008KT 180V280 9999 SCT048 26/13 Q1018=
METAR EGLL 081350Z 24009KT 9999 FEW034 SCT040 25/14 Q1018=
METAR EGPF 081350Z 22020KT 9999 FEW030 17/10 Q1013=
METAR EGPH 081350Z 23017KT 9999 SCT045 19/07 Q1013=
METAR EGPK 081350Z 24015KT 9999 FEW026 19/09 Q1014=
METAR EGSS 081350Z 23008KT 200V270 9999 SCT030 24/15 Q1018=
####018000458####
SASN35 ESWI 081350
METAR ESGL 081350Z AUTO 21014KT 9999NDV SCT016/// OVC021/// 19/16 
Q1018=
METAR ESGR 081350Z AUTO 21014KT 9999NDV BKN042/// 21/14 Q1018=
METAR ESKM 081350Z NIL=
METAR ESNL 081350Z 13013KT 9999 SCT044 23/11 Q1012=
METAR ESNX 081350Z AUTO 11006KT 9999NDV -RA FEW008/// 16/14 Q1013=
METAR ESNY 081350Z AUTO 27008KT 230V310 9999 FEW047 25/14 Q1014=
METAR ESSF 081350Z NIL=
METAR ESSK 081350Z NIL=
METAR ESUD 081350Z NIL=
####018000103####
SAUK31 EGGY 081350 CCA
METAR COR EGCC 081350Z 20009KT 160V230 9999 SCT038 21/10 Q1017
    NOSIG=
####018000477####
SAUK35 EGGY 081350
METAR EGHH 081350Z 19008KT 9999 FEW026 22/16 Q1018=
METAR EGKA 081350Z 21011KT 9999 4000W VCFG FEW006 20/17 Q1019=
METAR EGKB 081350Z 22008KT 170V240 9999 BKN035 25/13 Q1019 =
METAR EGLF 081350Z 25007KT 200V290 9999 FEW028 SCT034 23/15 Q1018=
METAR EGMC 081350Z NIL=
METAR EGMD 081350Z 20010KT 9999 FEW020 21/16 Q1019=
METAR EGMH 081350Z 12006KT 080V170 9999 FEW022 24/18 Q1018 =
METAR EGTC 081350Z 24009KT 190V280 9999 FEW045 23/11 Q1018=
####018000083####
SPAU32 YBBN 081354
SPECI YBMA 081354Z AUTO 00000KT 7000NDV // NCD 08/07 Q1020=
####018000085####
SAMP31 LMMM 081400 RRA
METAR HLLT 081350Z 36011KT 330V040 8000 SKC  31/18 Q1018=
####018000397####
SAFI32 EFHK 081350
EFHA 081350Z AUTO VRB01KT 9999 FEW048 25/15 Q1014=
EFHF 081350Z 35007KT 310V030 9999 SCT049CB 28/18 Q1013=
EFKA 081350Z 20005KT 130V260 CAVOK 26/10 Q1014=
EFKK 081350Z AUTO 24006KT 170V310 CAVOK 26/09 Q1014=
EFMA 081350Z 20010KT 170V230 CAVOK 21/14 Q1016=
EFPO 081350Z AUTO 27010KT 230V300 CAVOK 24/11 Q1015=
EFSI 081350Z AUTO 25006KT 160V310 CAVOK 26/09 Q1014=
####018001645####
SAZZ40 KAWN 081400 RRA
METAR BGGH 081350Z 21005KT 9999 FEW008 BKN012 07/03 Q1009=
METAR BGKK 081350Z 02003KT 9999 FEW100 SCT120 09/04 Q1009=
METAR BGSF 081350Z 24007KT 170V260 9999 FEW040 SCT070 17/01 Q1007=
METAR EFKU 081350Z AUTO 36004KT CAVOK 25/17 Q1014=
METAR EFOU 081350Z VRB03KT 9999 FEW040 BKN200 23/11 Q1014=
METAR EGMH 081350Z 12006KT 080V170 9999 FEW022 24/18 Q1018=
METAR KBAF 081353Z 16006KT 5SM BR OVC007 24/22 A3008 RMK AO2 SLP182
      T02440222=
METAR KHMN 081355Z 15007KT 10SM CLR 21/15 A3017 RMK AO2A SLP132 T02110148
      $=
METAR KHUA 081351Z 03010KT 12SM SKC 30/21 A3012 RMK AO2A SLP187 P0485
      T02990213 $=
METAR KLRF 081355Z AUTO VRB05KT 10SM CLR 27/23 A3009 RMK AO2 SLP188
      T02710233=
METAR KNFW 081352Z 12008KT 10SM SCT012 BKN024 OVC040 27/22 A3008 RMK
      AO2 SLP168 RAE20 P0000 T02670222=
METAR KNHK 081352Z 10009KT 10SM SCT012 SCT070 28/22 A3002 RMK AO2 SLP165
      T02830222=
METAR KNZY 081352Z 34004KT 8SM FEW008 OVC013 18/13 A2991 RMK AO2 DZE50
      SLP129 P0000 T01780133 $=
METAR KPOB 081355Z AUTO 04004KT 10SM CLR 31/22 A2997 RMK AO2 SLP148
      T03130224 $=
METAR KSAN 081351Z 31003KT 10SM OVC013 16/14 A2993 RMK AO2 SLP135 T01610139=
METAR MWCR 081400Z 15009KT 9999 FEW018 BKN250 30/24 Q1014 NOSIG=
METAR OAFZ 081350Z AUTO 35004KT //// ////// 36/01 Q1013=
METAR OAUZ 081350Z 31003KT 9999 SKC 39/11 Q1005 BLU/=
METAR OSAP 081400Z 29016KT CAVOK 33/16 Q1006=
METAR OSDI 081400Z 24018KT CAVOK 37/08 Q1008=
METAR OSLK 081400Z 23006KT 9999 SCT030 28/19 Q1009=
METAR PHJR 081353Z VRB03KT 10SM FEW060 22/17 A3002 RMK AO2 SLP170 T02220172=
####018000120####
SABA31 MYNN 081354
METAR MYNN 081400Z 21003KT 9999 VCSH SCT014CB SCT015CB BKN220 
30/25 A2997=


NNNN


####018000108####
SAUS44 KJAN 081355
MTRJAN
METAR KJAN 081354Z 06005KT 10SM CLR 28/23 A3008 RMK AO2 SLP180 
T02830228
####018000614####
SAUS20 KNKA 081355
METAR KSPA 081355Z AUTO 36004KT 10SM CLR 30/23 A3003 RMK AO2=
METAR KSPL 081355Z AUTO 00000KT 27/26 A2975 RMK AO2 PWINO PNO =
METAR KSSI 081353Z AUTO 30007KT 10SM CLR 28/20 A3001 RMK AO2 SLP162 
    T02780200=
METAR KSZT 081350Z AUTO 00000KT 10SM CLR 14/10 A3012 RMK AO2=
METAR KTEX 081354Z AUTO 00000KT 10SM CLR 14/04 A3047 RMK AO2=
METAR KTIF 081350Z AUTO 30004KT 10SM BKN120 19/14 A3028 RMK AO2 
     T01850144=
METAR KTRL 081353Z AUTO 11006KT 10SM BKN012 BKN070 28/23 A3005 RMK 
    AO2 SLP169 T02780228=
METAR KUTA 081355Z AUTO 00000KT 10SM CLR 28/22 A3009 RMK AO2=
####018002991####
SAUS20 KNKA 081355
METAR KABY 081353Z 00000KT 10SM CLR 29/22 A3006 RMK AO2 SLP176 
    T02890217=
METAR KAMG 081353Z AUTO 29006KT 10SM CLR 29/20 A3002 RMK AO2 SLP164 
    T02890200=
METAR KBDN 081355Z AUTO 20004KT 10SM CLR 14/03 A3012 RMK AO2 =
METAR KBRO 081353Z 32006KT 10SM FEW033 SCT060 27/25 A2979 RMK AO2 
    SLP085 T02670250=
METAR KCEW 081353Z AUTO 00000KT 10SM CLR 29/24 A3005 RMK AO2 SLP173 
    T02940244=
METAR KCGC 081355Z AUTO 00000KT 10SM CLR 28/22 A3002 RMK=
METAR KCRE 081353Z 02006KT 8SM CLR 31/22 A2993 RMK AO2 SLP136 
    T03110217=
METAR KCRG 081353Z 26005KT 10SM CLR 28/19 A3002 RMK AO2 SLP166 
    T02780194=
METAR KCUB 081353Z AUTO 33004KT 10SM CLR 32/20 A3000 RMK AO2 SLP156 
    T03170200=
METAR KDAL 081353Z 12007KT 9SM BKN011 BKN036 OVC049 26/24 A3004 RMK 
    AO2 RAE11 SLP166 CIG 009V016 P0000 T02610239=
METAR KDFW 081353Z 13004KT 10SM FEW013 BKN050 OVC060 26/24 A3004 RMK 
    AO2 RAE31 SLP163 P0000 T02560239=
METAR KDTN 081353Z 10005KT 10SM FEW090 27/24 A3006 RMK AO2 SLP177 
    T02670239=
METAR KDYB 081355Z AUTO 31006KT 10SM CLR 30/21 A2996 RMK AO1=
METAR KECP 081353Z 36003KT 10SM CLR 29/24 A3003 RMK AO2 SLP178 
    T02940239=
METAR KEGE 081350Z 00000KT 10SM SKC 12/09 A3040=
METAR KEKM 081355Z 00000KT 2 1/2SM VCTS RA SCT030 BKN049 OVC070
    24/23 A3005 RMK AO2=
METAR KELD 081353Z AUTO 13003KT 9SM CLR 26/24 A3008 RMK AO2 SLP181 
    T02560239=
METAR KFLO 081353Z 33005KT 10SM CLR 31/20 A2996 RMK AO2 SLP141 
    T03060200=
METAR KGEU 081349Z 00000KT 20SM SCT120 SCT200 29/04 A2982=
METAR KGKJ 081353Z AUTO 00000KT 10SM CLR 28/19 A3010 RMK AO2 SLP179 
    T02830189=
METAR KGNV 081353Z 00000KT 10SM CLR 28/21 A3002 RMK AO2 SLP164 
    T02780211=
METAR KGOK 081353Z AUTO 32004KT 10SM SCT007 24/22 A3007 RMK AO2 
    SLP172 T02440217=
METAR KINK 081353Z AUTO 04008KT 10SM BKN024 OVC090 23/19 A3012 RMK 
    AO2 RAB1255E09 SLP158 P0000 T02280194 TSNO=
METAR KL35 081353Z AUTO 00000KT 10SM CLR 08/M03 A3019 RMK AO2=
METAR KLAW 081353Z 01006KT 10SM FEW090 26/23 A3006 RMK AO2 SLP169 
    T02610228=
METAR KLBB 081353Z 07006KT 10SM SCT006 BKN037 OVC110 20/18 A3018 RMK 
    AO2 SLP177 T02000183=
METAR KMAF 081353Z 04008KT 10SM FEW007 SCT015 OVC022 22/20 A3013 RMK 
    AO2 SLP162 T02170200=
METAR KMLB 081353Z 02004KT 10SM SCT025 28/19 A3001 RMK AO2 SLP160 
    T02830194=
METAR KMNI 081355Z AUTO 35009KT 10SM CLR 32/24 A2997 RMK AO2=
METAR KPNS 081353Z 00000KT 10SM CLR 29/23 A3004 RMK AO2 SLP173 
    T02940233=
METAR KPTT 081350Z AUTO 01008KT 4SM BR OVC006 20/19 A3017 RMK AO2=
METAR KPVD 081351Z 16005KT 10SM BKN010 BKN013 25/21 A3010=
METAR KPWA 081353Z 35004KT 7SM SCT005 24/22 A3008 RMK AO2 SLP169 
    T02440217=
METAR KRBD 081353Z 10005KT 10SM BKN006 OVC060 26/24 A3005 RMK AO2 
    SLP165 T02560239=
METAR KSEE 081347Z 27005KT 4SM BR OVC009 16/13 A2992=
METAR KSOW 081350Z AUTO 19005KT 10SM SCT120 19/04 A3028 RMK AO2=
####018000141####
SAPY SGAS 081400
METAR SGAS 081400Z 12006KT 9000 BKN010 OVC015 18/15 Q1016=
METAR SGES 081400Z 15006KT 9999 FEW030 BKN080 20/17 Q1016=
####018000143####
SAPY59 SGAS 081400
METAR SGAS 081400Z 12006KT 9000 BKN010 OVC015 18/15 Q1016=
METAR SGES 081400Z 15006KT 9999 FEW030 BKN080 20/17 Q1016=
####018000112####
SPNA14 KAWN 081355 RRH
SPECI KNFG 081348Z AUTO 00000KT 10SM SCT011 OVC018 16/14 A2991 RMK
      AO2 TSNO=
####018000565####
SANA14 KAWN 081400
METAR KNHK 081352Z 10009KT 10SM SCT012 SCT070 28/22 A3002 RMK AO2 SLP165
      T02830222=
METAR KNZY 081352Z 34004KT 8SM FEW008 OVC013 18/13 A2991 RMK AO2 DZE50
      SLP129 P0000 T01780133 $=
METAR KPOB 081355Z AUTO 04004KT 10SM CLR 31/22 A2997 RMK AO2 SLP148
      T03130224 $=
METAR MSLP 081350Z 00000KT 9999 FEW020 BKN300 27/24 Q1011 A2988 DSTN
      CB TO S FEW110=
METAR SBBR 081400Z 07010KT 9999 FEW023 22/08 Q1024=
METAR SPIM 081400Z 19003KT 7000 FEW011 OVC022 17/13 Q1015 NOSIG RMK
      BIRD HAZARD RWY15 PP000=
####018000204####
SAZZ40 KAWN 081300 RRX
METAR MWCR 081300Z 15009KT 9999 FEW018 BKN250 30/24 Q1014 NOSIG=
METAR TXKF 081255Z 17020KT 6000 -SHRA FEW009 SCT015TCU BKN050 BKN300
      23/22 Q1020 RMK TCU N / DSNT SW=
####018000204####
SANA35 KAWN 081300 RRG
METAR MWCR 081300Z 15009KT 9999 FEW018 BKN250 30/24 Q1014 NOSIG=
METAR TXKF 081255Z 17020KT 6000 -SHRA FEW009 SCT015TCU BKN050 BKN300
      23/22 Q1020 RMK TCU N / DSNT SW=
####018000115####
SAAK17 KAWN 081400 RRA
PACZ SA 1355 AWOS MM 10 50/47/0410/003=
PAEH SA 1355 AWOS M60 OVC 10 49/-19/1303/997=
####018000098####
SAXX70 KAWN 081300 RRX
METAR KQEJ 081340Z AUTO 14002KT 2SM -RA BR OVC004 22/20 A2996 RMK A02=
