####018003703####
SAUS90 KWBC 080900
METAR K9V9 080852Z AUTO 25004KT 17/13 A3019 RMK AO2 SLP214
     T01670133 53003 PWINO TSNO=
METAR KP69 080852Z AUTO 00000KT 13/11 A3010 RMK AO2 SLP172
     T01280106 51018 PWINO TSNO $=
METAR K6R6 080853Z AUTO 03006KT 23/21 A3000 RMK AO2 SLP121
     T02280206 56002 PWINO TSNO=
METAR KRNM 080853Z AUTO 00000KT 6SM BR OVC004 14/13 A2990 RMK AO2
     SLP114 T01440128 58007 TSNO=
METAR KRTN 080853Z AUTO 08004KT 10SM CLR 14/10 A3035 RMK AO2
     SLP216 T01440100 56002 TSNO=
METAR KFAR 080853Z 21003KT 10SM CLR 16/12 A3006 RMK AO2 SLP179
     T01610117 53002=
METAR KLND 080853Z AUTO 27004KT 10SM CLR 11/03 A3032 RMK AO2
     SLP222 T01060028 53006=
METAR KP92 080853Z AUTO 00000KT 26/24 A2997 RMK AO2 SLP149
     T02560244 56003 PWINO TSNO=
METAR KCTY 080853Z AUTO 00000KT 21/20 A2999 RMK AO2 SLP156
     T02060200 58011 PWINO TSNO $=
METAR KDNK 080853Z AUTO 11003KT 10SM CLR 24/22 A3000 RMK AO2
     SLP156 T02390217 53001=
METAR KSGR 080853Z AUTO 07006KT 10SM CLR 26/23 A2990 RMK AO2
     SLP133 T02610233 56008 TSNO=
METAR KCHA 080853Z 00000KT 10SM CLR 23/19 A3005 RMK AO2 SLP166
     T02280189 56005=
METAR KTLH 080853Z 09004KT 10SM CLR 23/22 A3001 RMK AO2 SLP160
     T02280217 55008=
METAR KMSY 080853Z 00000KT 10SM FEW016 SCT250 27/23 A3000 RMK AO2
     SLP161 T02670233 55002=
METAR KOQT 080853Z AUTO 00000KT 8SM CLR 22/20 A3008 RMK AO2 SLP166
     T02220200 56003 TSNO=
METAR KMSN 080853Z 00000KT 10SM FEW007 OVC110 22/21 A2999 RMK AO2
     SLP149 60000 T02170206 55012=
METAR KLAX 080853Z 24007KT 10SM OVC012 16/13 A2991 RMK AO2 SLP127
     T01610128 57002=
METAR KBNO 080853Z AUTO 31004KT 10SM CLR 08/01 A3012 RMK AO2
     SLP169 T00780006 52005 TSNO=
METAR KTCS 080853Z AUTO 06005KT 10SM -RA BKN095 OVC110 19/16 A3020
     RMK AO2 SLP138 P0000 60000 T01890161 52004 TSNO=
METAR PGUM 080854Z 09010KT 10SM FEW021 SCT027 SCT041 28/24 A2988
     RMK AO2 SLP110 T02830244 53010=
METAR KSAV 080853Z 26003KT 10SM FEW024 21/19 A2999 RMK AO2 SLP153
     T02110194 56009=
METAR KCUT 080853Z AUTO 31003KT 10SM CLR 07/06 A3035 RMK AO2
     SLP243 T00720061 55001 TSNO=
METAR KHTL 080853Z AUTO 21003KT 10SM FEW047 BKN080 OVC100 23/21
     A3003 RMK AO2 RAE21 SLP163 P0002 60013 T02330211 56008=
METAR KLXV 080853Z AUTO 00000KT 10SM OVC029 07/06 A3054 RMK AO2
     SLP200 T00720056 53002 TSNO=
METAR KCQC 080853Z AUTO 00000KT 10SM BKN060 OVC100 12/09 A3035 RMK
     AO2 SLP219 T01170089 55005 TSNO=
METAR K40J 080853Z AUTO 00000KT 22/21 A3000 RMK AO2 SLP156
     T02170206 56010 PWINO TSNO=
METAR KP68 080853Z AUTO 00000KT 10/M01 A3014 RMK AO2 SLP124
     T01001006 53004 PWINO TSNO=
METAR KPQN 080853Z AUTO 32004KT 10SM CLR 17/15 A3015 RMK AO2=
METAR KFGN 080854Z AUTO 26010KT 1SM DZ VV007 17/13 A2996 RMK
     AO2=
METAR KPNM 080853Z AUTO 00000KT 5SM BR CLR 15/14 A3008 RMK AO2=
METAR KPWC 080853Z AUTO 00000KT 1 1/4SM BR BKN001 11/10 A3008 RMK
     AO2=
METAR KFFM 080853Z AUTO 19004KT 10SM CLR 15/14 A3008 RMK AO2=
METAR KGDB 080853Z AUTO 24005KT 10SM CLR 14/14 A3013 RMK AO2
     T01400136=
METAR KAIT 080853Z AUTO 00000KT 3/4SM BR VV005 13/12 A3006 RMK
     AO2=
METAR KGHW 080853Z AUTO 24006KT 10SM CLR 14/13 A3013 RMK AO2=
METAR KMWM 080853Z AUTO 27004KT 10SM CLR 14/14 A3013 RMK AO2=
METAR KULM 080855Z AUTO 29005KT 10SM CLR 15/13 A3011 RMK AO2=
METAR KBBB 080853Z AUTO 00000KT 2 1/2SM BR CLR 13/13 A3011 RMK AO2
     VIS 1V5=
METAR KTWM 080853Z AUTO 30004KT 10SM CLR 16/13 A3000 RMK AO2=
METAR KMGG 080855Z AUTO 28004KT 10SM CLR 16/15 A3009 RMK AO2
     T01600154=
METAR KMOX 080850Z AUTO 25004KT 10SM CLR 15/14 A3007 RMK AO2=
####018001124####
SAUS90 KWBC 080900 RRA
METAR KBTV 080854Z 00000KT 5SM BR CLR 23/22 A3001 RMK AO2 SLP159
     T02280217 55000=
METAR KUIL 080853Z AUTO 07003KT 10SM CLR 16/11 A2993 RMK AO2
     SLP134 T01610111 51003 TSNO=
METAR KSDM 080853Z AUTO 00000KT 10SM OVC012 16/13 A2990 RMK AO2
     SLP122 T01610128 58006 TSNO=
METAR KJAN 080854Z 00000KT 10SM CLR 24/22 A3004 RMK AO2 SLP166
     T02390222 55007 $=
METAR KSBN 080854Z 32008KT 7SM FEW060 23/21 A3005 RMK AO2 SLP169
     T02280211 55001=
METAR KAPN 080854Z AUTO 15004KT 4SM BR CLR 19/19 A2998 RMK AO2
     SLP151 T01940189 58012=
METAR KBKB 080854Z AUTO 00000KT 10SM CLR 24/23 A2998 RMK AO2
     SLP177 T02440228 55001=
METAR KMQE 080854Z AUTO 17006KT 21/18 A3007 RMK AO1 SLP188
     T02110183 53002=
METAR K12N 080854Z AUTO 00000KT 22/21 A3004 RMK AO2 SLP160
     T02170206 55001 PWINO TSNO=
METAR K1V4 080854Z AUTO 21/19 A3005 RMK AO2 SLP161 T02060194 53003
     PWINO TSNO=
METAR PATC 080855Z AUTO 01005KT 10SM CLR 09/06 A3016 RMK AO1
     T00940062=
METAR PAEH 080855Z AUTO 00000KT 10SM OVC018 09/M28 A3001 RMK AO1
     T00941283=
####018001682####
SAZZ40 KAWN 080900 RRB
METAR BGBW 080850Z 27003KT 9999 FEW070 10/05 Q1009 RMK 2AC=
METAR BGGH 080850Z 27003KT 9999 OVC003 04/03 Q1010=
METAR BGJN 080850Z AUTO 36003KT 1000NDV FG VV001/// 06/05 Q1010=
METAR BGKK 080850Z VRB02KT 9999 FEW130 BKN160 07/03 Q1008=
METAR BGSF 080850Z 07007KT 030V100 9999 BKN060 09/02 Q1009=
METAR EGMH 080850Z 26008KT 230V290 9999 FEW014 21/16 Q1019=
METAR KCEF 080855Z AUTO 16005KT 10SM SCT100 24/22 A3003 RMK AO2 SLP170
      T02360217 53001 PWINO $=
METAR KDTS 080853Z AUTO 00000KT 9SM CLR 24/23 A3000 RMK AO2 SLP158
      T02440233 56008=
METAR KEGI 080855Z AUTO 00000KT 2 1/2SM R18/2400V4500FT BR CLR 23/22
      A3002 RMK AO2 VIS 1 1/4V5 SLP165 T02270223 56007 $=
METAR KFHU 080855Z 14004KT 10SM FEW120 24/09 A3006 RMK SLP100 53003=
METAR KGRF 080855Z AUTO 00000KT 10SM CLR 16/11 A2994 RMK AO2 SLP137
      60000 T01630111 52007 $=
METAR KNFW 080852Z AUTO 13006KT 10SM CLR 26/22 A3003 RMK AO2 SLP152
      T02610222 55003=
METAR KNZY 080852Z 31006KT 8SM -DZ FEW010 OVC013 18/13 A2989 RMK AO2
      DZB51 SLP122 P0000 60000 T01780133 58006 $=
METAR KOZR 080855Z AUTO 00000KT 9SM R06/5500VP6000FT CLR 22/22 A3002
      RMK AO2 SLP162 T02190219 55006=
METAR KPOB 080855Z AUTO 00000KT 10SM CLR 24/20 A2994 RMK AO2 SLP137
      T02370196 55004 $=
METAR KTOI 080853Z AUTO 00000KT 10SM FEW070 22/22 A3003 RMK AO2 SLP163
      T02220217 56006=
METAR MGGT 080900Z 19004KT 9999 FEW015 SCT100 17/14 Q1022 A3018 NOSIG=
METAR OAMS 080850Z 34006KT 9999 SKC 41/00 Q1007 BLU/BLU/=
METAR TBPB 080900Z 08017KT 9999 BKN014 28/24 Q1012 NOSIG=
METAR TJPS 080850Z 05005KT 8/SM FEW030 24/23 A2997 RMK HZ ALQDS=
####018001694####
SAAK41 KNKA 080855
METAR PANT 080853Z AUTO 33009KT 10SM CLR 19/11 A3006 RMK AO2 SLP177 
    T01940111 402670139 58001 TSNO=
METAR PAOM 080853Z 04010KT 10SM FEW045 SCT065 SCT095 16/09 A3009 RMK 
    AO2 SLP189 T01610089 401940050 52004=
METAR PAOR 080853Z 00000KT 10SM FEW070 11/09 A3008 RMK AO2 SLP188 
    T01110089 402170089 50002=
METAR PAOT 080853Z 28010KT 10SM FEW040 SCT090 BKN200 12/07 A3013 RMK 
    AO2 SLP202 T01170072 401440106 51004=
METAR PAPB 080853Z AUTO 09018KT 10SM FEW022 OVC042 08/06 A2991 RMK 
    AO2 SLP116 T00780061 401060067 50003 TSNO=
METAR PAQT 080853Z AUTO 26006KT 10SM SCT024 11/07 A3005 RMK AO2 
    SLP177 T01060067 401390044 53012 TSNO=
METAR PASC 080853Z 22013KT 10SM BKN036 BKN070 OVC210 11/07 A3000 RMK 
    AO2 SLP161 T01060072 401060050 55004=
METAR PASI 080853Z 00000KT 10SM CLR 13/12 A3018 RMK AO2 SLP218 
    T01330117 401610106 58001=
METAR PASN 080853Z 07011KT 10SM SCT034 OVC045 06/05 A2995 RMK AO2 
    SLP141 T00560050 400890050 53005=
METAR PASO 080853Z AUTO 00000KT 10SM SCT055 OVC070 11/10 A2989 RMK 
    AO2 SLP121 60000 T01060100 401280083 55002 TSNO=
METAR PATK 080853Z AUTO 00000KT 10SM BKN110 14/11 A3000 RMK AO2 
    SLP162 T01440106 402330100 58006 TSNO=
METAR PATO 080853Z AUTO 13010G26KT 5SM -RA BR SCT025 BKN031 OVC046 
    12/11 A3001 RMK AO2 PK WND 13039/0838 SLP163 P0011 60062 
    T01220111 401330078 56006 TSNO=
METAR PAWD 080853Z AUTO 00000KT 10SM BKN003 OVC010 11/10 A2998 RMK 
    AO2 RAE00 SLP151 P0000 60010 T01060100 401280083 50001 TSNO=
METAR PAYA 080853Z 04003KT 10SM FEW090 SCT200 11/09 A3018 RMK AO2 
    SLP221 BAY TWR WND 120MMKT T01110094 401890106 58007=
####018002963####
SAAK41 KNKA 080855
METAR PAAQ 080853Z AUTO 00000KT 10SM -RA FEW075 BKN090 13/09 A3002 
    RMK AO2 RAB42 SLP161 P0000 60000 T01280089 401830089 56007 TSNO=
METAR PABE 080853Z VRB03KT 10SM BKN120 13/06 A3002 RMK AO2 SLPNO 
    6//// T01300060 401610056 PNO $=
METAR PABI 080853Z AUTO 00000KT 10SM CLR 14/08 A3008 RMK AO2 SLP187 
    T01390078 402110117 53003 TSNO=
METAR PABR 080853Z 26014KT 10SM BKN200 06/03 A3000 RMK AO2 SLP158 
    T00560028 400610006 53004 $=
METAR PABT 080853Z 00000KT 10SM SCT120 13/12 A3006 RMK AO2 SLP187 
    T01330117 402060106 53008=
METAR PACD 080853Z 16004KT 10SM CLR 06/03 A2994 RMK AO2 SLP139 
    T00560033 401330044 50002=
METAR PACV 080853Z 10009KT 10SM -RA BKN055 OVC085 16/10 A3008 RMK 
    AO2 RAE0756B19E29B46 SLP186 P0000 60001 T01610100 401720100 
    56008=
METAR PADE 080853Z AUTO 22005KT 10SM CLR 07/04 A3014 RMK AO2 SLP207 
    T00720039 401440067 51003 TSNO=
METAR PADQ 080853Z 30004KT 4SM -RA BR BKN016 OVC026 10/09 A2983 RMK 
    AO2 SLP101 P0003 60008 T01000094 401060094 51011 $=
METAR PAEG 080853Z AUTO 00000KT 10SM CLR 07/04 A3002 RMK AO2 SLP167 
    T00720044 402440039 52013 TSNO=
METAR PAEN 080853Z AUTO 02010KT 10SM FEW060 OVC080 14/11 A2997 RMK 
    AO2 SLP149 60000 T01390111 401830089 58001 TSNO=
METAR PAFA 080853Z 03003KT 10SM FEW070 SCT200 14/09 A3003 RMK AO2 
    SLP173 T01440089 402390094 51005=
METAR PAGK 080853Z AUTO 06003KT 10SM BKN075 08/06 A3008 RMK AO2 
    SLP192 T00830061 401940056 53001 TSNO=
METAR PAGY 080853Z AUTO 00000KT 10SM CLR 11/10 A3021 RMK AO2 SLP228 
    T01060100 401830106 58002 TSNO=
METAR PAHO 080853Z AUTO 08009KT 10SM FEW070 SCT085 12/09 A2989 RMK 
    AO2 SLP122 T01220094 401390078 58004 TSNO=
METAR PAIL 080853Z AUTO 04006KT 10SM SCT075 10/08 A2993 RMK AO2 
    SLP138 T01000083 401220083 53002 TSNO=
METAR PAJN 080853Z 00000KT 10SM FEW250 12/09 A3019 RMK AO2 SLP222 
    T01170094 402060100 58003=
METAR PAKT 080853Z AUTO 31004KT 10SM CLR 18/12 A3008 RMK AO2 SLP184 
    T01780117 402440144 50002 TSNO=
METAR PAKV 080853Z AUTO 00000KT 10SM CLR 12/06 A3009 RMK AO2 
    RAB06E15 SLP193 P0000 60000 T01170061 402220044 51003 TSNO=
METAR PAKW 080853Z AUTO 20003KT 10SM CLR 12/10 A3013 RMK AO2 SLP202 
    T01170100 402110111 53005 TSNO=
METAR PALH 080853Z 00000KT 10SM FEW070 OVC085 14/11 A3001 RMK AO2 
    RAE52 SLP163 P0001 60001 T01390111 401830128 58006=
METAR PAMC 080853Z 02004KT 10SM FEW040 SCT110 BKN200 13/08 A2998 RMK 
    AO2 SLP156 T01330083 402330078 51005=
METAR PAMR 080853Z 00000KT 10SM FEW055 BKN080 BKN100 13/11 A3000 RMK 
    AO2 RAB21E35 SLP160 VIRGA E-S P0000 60000 T01330106 401890122 
    58003=
METAR PANC 080853Z 17003KT 10SM -RA FEW055 BKN070 BKN120 BKN200 
    12/11 A3000 RMK AO2 SLP159 P0000 60000 T01170111 401670117 58006=
METAR PANN 080853Z AUTO 00000KT 10SM FEW075 13/10 A3002 RMK AO2 
    SLP171 T01280100 402330072 50004 TSNO=
####018000121####
SAUS43 KAPX 080855
MTRAPN
METAR KAPN 080854Z AUTO 15004KT 4SM BR CLR 19/19 A2998 RMK AO2 
SLP151 T01940189 58012
####018000116####
SAUS43 KIWX 080855
MTRSBN
METAR KSBN 080854Z 32008KT 7SM FEW060 23/21 A3005 RMK AO2 SLP169 
T02280211 55001
####018001704####
SAEU KAWN 080900 RRC
METAR EDHI 080850Z VRB03KT CAVOK 27/11 Q1019=
METAR EDHL 080850Z 14007KT CAVOK 25/15 Q1020=
METAR EDLN 080850Z VRB04KT CAVOK 28/14 Q1019=
METAR EDLW 080850Z 21009KT 170V240 CAVOK 28/10 Q1020=
METAR EDMO 080850Z 07008KT 020V130 CAVOK 22/08 Q1023=
METAR EDQM 080850Z 18005KT 100V250 CAVOK 23/09 Q1024=
METAR EDSB 080850Z 34004KT 260V030 CAVOK 25/13 Q1021=
METAR EDXW 080850Z 21011KT CAVOK 22/13 Q1018=
METAR EGAA 080850Z 21013KT 9999 FEW018 15/10 Q1014=
METAR EGAC 080850Z 20013KT 9999 FEW019 SCT032 16/10 Q1014=
METAR EGFF 080850Z 22005KT 180V260 9999 SCT016 17/12 Q1019=
METAR EGGW 080850Z 26007KT 9999 BKN024 18/13 Q1019=
METAR EGHE 080850Z 19006KT 9999 FEW018 18/13 Q1018=
METAR EGHH 080850Z 03003KT 9999 SCT009 BKN014 17/16 Q1019=
METAR EGJA 080850Z 19003KT 9999 3000SE VCFG FEW001 BKN015 17/16 Q1020=
METAR EGJJ 080850Z 00000KT 9999 FEW011 19/17 Q1019 NOSIG=
METAR EGKA 080850Z 23006KT 9999 SCT017 20/17 Q1019=
METAR EGKB 080850Z 21004KT 160V280 9999 BKN014 19/15 Q1019=
METAR EGLC 080850Z 24005KT 200V270 9999 BKN020 20/14 Q1019=
METAR EGLF 080850Z 31007KT 5000 -DZ BKN006 17/15 Q1019=
METAR EGMC 080850Z 25007KT 9999 FEW018 20/16 Q1019=
METAR EGMD 080850Z 28010KT 9999 FEW006 BKN011 20/16 Q1020=
METAR EGMH 080850Z 26008KT 230V290 9999 FEW014 21/16 Q1019=
METAR EGNM 080850Z 25006KT 140V300 9999 SCT018 16/10 Q1016=
METAR EGNX 080850Z 21010KT CAVOK 17/09 Q1018=
METAR EGPD 080850Z 22015KT 9999 FEW030 16/08 Q1010 NOSIG=
METAR EGTC 080850Z 27008KT 220V300 9999 FEW015 17/11 Q1018=
METAR ETOR 080855Z 16007KT 9999 FEW060 FEW200 30/08 A3014 RMK 50000
      BLU=
METAR ETUO 080850Z 18007KT CAVOK 27/12 Q1020 BLU NOSIG=
####018000119####
SAUS44 KSHV 080855
MTRBKB
METAR KBKB 080854Z AUTO 00000KT 10SM CLR 24/23 A2998 RMK AO2 SLP177 
T02440228 55001
####018000113####
SAUS41 KBTV 080855
MTR1V4
METAR K1V4 080854Z AUTO 21/19 A3005 RMK AO2 SLP161 T02060194 53003 
PWINO TSNO
####018000121####
SAUS41 KPHI 080855
MTR12N
METAR K12N 080854Z AUTO 00000KT 22/21 A3004 RMK AO2 SLP160 T02170206 
55001 PWINO TSNO
####018000110####
SAUS41 KBOX 080855
MTRMQE
METAR KMQE 080854Z AUTO 17006KT 21/18 A3007 RMK AO1 SLP188 T02110183 
53002
####018000123####
SAUS41 KGYX 080855
MTRNKT
METAR KNKT 080854Z AUTO 04007KT 5SM HZ CLR 26/22 A2991 RMK AO2 
SLP125 T02610222 55006 $
####018001649####
SAEW KAWN 080900 RRA
METAR EDAC 080850Z 25004KT CAVOK 23/12 Q1022=
METAR EDAH 080850Z 15006KT 120V180 CAVOK 21/11 Q1022=
METAR EDFH 080850Z 12007KT 090V160 CAVOK 24/11 Q1022=
METAR EDHI 080850Z VRB03KT CAVOK 27/11 Q1019=
METAR EDHL 080850Z 14007KT CAVOK 25/15 Q1020=
METAR EDLN 080850Z VRB04KT CAVOK 28/14 Q1019=
METAR EDLP 080850Z 22006KT 190V260 CAVOK 27/10 Q1020=
METAR EDLW 080850Z 21009KT 170V240 CAVOK 28/10 Q1020=
METAR EDMA 080850Z 13008KT 100V160 CAVOK 22/09 Q1023=
METAR EDMO 080850Z 07008KT 020V130 CAVOK 22/08 Q1023=
METAR EDNY 080850Z 20005KT CAVOK 24/13 Q1022=
METAR EDOP 080850Z 19007KT 150V220 CAVOK 25/10 Q1021=
METAR EDQM 080850Z 18005KT 100V250 CAVOK 23/09 Q1024=
METAR EDSB 080850Z 34004KT 260V030 CAVOK 25/13 Q1021=
METAR EDTL 080850Z 23003KT CAVOK 25/13 Q1020=
METAR EDVK 080850Z 22007KT CAVOK 24/10 Q1021=
METAR EDXW 080850Z 21011KT CAVOK 22/13 Q1018=
METAR EGJJ 080850Z 00000KT 9999 FEW011 19/17 Q1019 NOSIG=
METAR EKAH 080850Z AUTO 19007KT 120V260 9999NDV OVC059/// 21/13 Q1018=
METAR EKBI 080850Z 21008KT 170V250 9999 FEW041 BKN063 21/15 Q1018=
METAR EKOD 080850Z 19008KT CAVOK 23/12 Q1019=
METAR EKRK 080852Z 18010KT 160V220 CAVOK 23/13 Q1020=
METAR EKRN 080850Z AUTO 22004KT 180V250 9999NDV NCD 20/16 Q1022=
METAR EKSB 080850Z 17007KT CAVOK 24/13 Q1018=
METAR EKSN 080850Z 22010KT 9999 SCT027 BKN062 19/14 Q1017=
METAR EKVD 080850Z 20011KT CAVOK 22/12 Q1018=
METAR EKYT 080850Z 22009KT 9999 FEW025 BKN040 20/14 Q1017 NOSIG=
METAR ETOR 080855Z 16007KT 9999 FEW060 FEW200 30/08 A3014 RMK 50000
      BLU=
METAR ETUO 080850Z 18007KT CAVOK 27/12 Q1020 BLU NOSIG=
####018000177####
SAUS98 KWBC 080856
METAR PATC 080855Z AUTO 01005KT 10SM CLR 09/06 A3016 RMK AO1
T00940062=
METAR PAEH 080855Z AUTO 00000KT 10SM OVC018 09/M28 A3001 RMK AO1
T00941283=
####018003680####
SAUS99 KWBC 080856 RRB
METAR
KRBD 080853Z 15004KT 10SM OVC012 25/23 A3000 RMK AO2 SLP147
     T02500228 50000=
KRBG 080853Z AUTO 00000KT 10SM CLR 19/13 A2991 RMK AO2 SLP124
     T01940128 51015=
KRHI 080853Z AUTO 28003KT 10SM CLR 18/18 A3002 RMK AO2 SLP160
     T01830178 50001=
KRIW 080853Z AUTO 36005KT 10SM CLR 11/04 A3033 RMK AO2 SLP225
     T01060044 52004=
KRSL 080853Z AUTO 36007KT 10SM OVC016 19/18 A3015 RMK AO2 SLP195
     T01940183 53002=
KRSW 080853Z 04004KT 10SM CLR 24/22 A2995 RMK AO2 SLP139 T02390222
     56014=
KRVS 080853Z 07004KT 2SM +RA BR OVC015 23/23 A3001 RMK AO2 LTG
     DSNT ALQDS TSE42 SLP164 P0062 60168 T02280228 58003=
KRWF 080853Z AUTO 30005KT 10SM CLR 16/14 A3011 RMK AO2 SLP193
     T01560144 50002=
KRWL 080853Z AUTO 05007KT 7SM CLR 08/07 A3037 RMK AO2 SLP223
     T00780072 53002=
KRXE 080853Z AUTO 07006KT 10SM CLR 10/06 A3020 RMK AO2 SLP192
     T01000056 53004=
KTPA 080853Z 00000KT 10SM CLR 24/21 A2998 RMK AO2 SLP150 T02440211
     58013 $=
KTRL 080853Z AUTO 12005KT 10SM OVC014 26/23 A3001 RMK AO2 SLP153
     T02610228 53000=
KTTN 080853Z AUTO 00000KT 5SM HZ CLR 24/21 A3001 RMK AO2 SLP154
     T02440211 58000 PWINO=
KTUL 080853Z 35004KT 6SM -TSRA BR SCT008 BKN060 OVC075 23/22 A3000
     RMK AO2 SLP152 OCNL LTGIC W-OHD-E TS W-OHD-E MOV N P0017
     60048 T02280222 55005=
KTVC 080853Z AUTO 19003KT 10SM BKN120 23/19 A2997 RMK AO2 SLP143
     T02330194 58012=
KTWF 080853Z AUTO 00000KT 10SM CLR 13/M03 A3012 RMK AO2 SLP148
     T01281028 53007=
KUAO 080853Z AUTO 36003KT 10SM CLR 22/11 A2987 RMK AO2 SLP113
     T02220111 53009=
KUNO 080853Z AUTO 00000KT 10SM CLR 23/21 A3007 RMK AO2 SLP168
     T02330211 58001 TSNO=
KUUU 080853Z AUTO 14004KT 1/2SM FG VV001 21/21 A3007 RMK AO2
     SLP181 T02060206 53004=
KVEL 080853Z AUTO 31006KT 10SM CLR 17/06 A3021 RMK AO2 SLP168
     T01720056 53005=
KVGT 080853Z AUTO 33004KT 10SM CLR 27/M04 A2984 RMK AO2 SLP065
     T02671039 52006 TSNO=
KVIH 080853Z AUTO 00000KT 9SM BKN035 BKN110 23/21 A3004 RMK AO2
     SLP161 T02280211 55002=
KVPZ 080853Z AUTO 00000KT 6SM BR CLR 23/22 A3004 RMK AO2 SLP166
     T02280217 56004=
KVRB 080853Z AUTO 00000KT 10SM FEW030 23/21 A2996 RMK AO2 SLP144
     T02280211 55008=
KWRL 080853Z AUTO 00000KT 10SM CLR 13/04 A3026 RMK AO2 SLP219
     T01280044 51008=
KWST 080853Z AUTO 10003KT 8SM BKN004 BKN013 22/21 A3006 RMK AO2
     SLP178 T02220211 53004=
KYIP 080853Z 00000KT 4SM BR CLR 22/21 A3004 RMK AO2 SLP162
     T02220206 56005=
KZZV 080853Z AUTO 00000KT 1 3/4SM BR SCT060 20/19 A3008 RMK AO2
     SLP177 T02000189 56004=
KLPR 080853Z AUTO 00000KT 7SM FEW065 23/19 A3007 RMK AO2 SLP174
     T02330189 56004=
KLSE 080853Z AUTO 00000KT 10SM CLR 21/19 A3001 RMK AO2 SLP151
     T02060194 55004=
KLUK 080853Z AUTO 00000KT 1 3/4SM R21L/3500VP6000FT BR CLR 22/21
     A3006 RMK AO2 SLP175 T02170211 58005=
KLVM 080853Z AUTO 26003KT 10SM CLR 06/03 A3028 RMK AO2 SLP230
     T00610028 51007=
KLWD 080853Z AUTO 00000KT 10SM FEW031 21/20 A3007 RMK AO2 SLP175
     T02060200 53001=
KLWV 080853Z AUTO 18004KT 4SM BR CLR 24/22 A3002 RMK AO2 SLP161
     T02440222 56007=
KLXT 080853Z AUTO 02005KT 9SM SCT005 BKN110 23/22 A3005 RMK AO2
     SLP169 T02280217 58001=
KMBS 080853Z 22005KT 10SM CLR 24/22 A3001 RMK AO2 SLP157 T02390217
     56008=
KMCI 080853Z 28003KT 10SM FEW041 BKN130 23/22 A3006 RMK AO2 SLP166
     T02280217 58005 $=
KMCK 080853Z AUTO 00000KT 10SM FEW044 BKN080 16/16 A3024 RMK AO2
     SLP225 T01610156 50001=
KMCO 080853Z 36003KT 10SM FEW120 22/21 A2999 RMK AO2 SLP153
     T02220206 55009=
####018003710####
SAUS99 KWBC 080856 RRA
METAR
KSMQ 080853Z AUTO 00000KT 3SM BR CLR 22/21 A3000 RMK AO2 SLP156
     T02170206 57001=
KSNA 080853Z 34003KT 8SM OVC017 18/12 A2991 RMK AO2 SLP126
     T01830122 58003=
KSNY 080853Z AUTO 00000KT 10SM FEW055 16/14 A3031 RMK AO2 SLP232
     T01610144 56003=
KSPB 080853Z AUTO 00000KT 10SM 18/12 A2987 RMK AO2 SLP115 6////
     T01830122 53007 $=
KSPG 080853Z 09007KT 10SM CLR 27/22 A2996 RMK AO2 SLP145 T02670222
     58012=
KSPW 080853Z AUTO 32004KT 8SM CLR 16/14 A3013 RMK AO2 SLP200
     T01560144 50001=
KSRQ 080853Z 07005KT 10SM CLR 23/22 A2996 RMK AO2 SLP144 T02330217
     58011=
KSSI 080853Z AUTO 26005KT 10SM CLR 23/21 A2999 RMK AO2 SLP156
     T02330211 56008=
KSTC 080853Z AUTO 00000KT 2SM BR CLR 14/12 A3008 RMK AO2 VIS 1
     1/4V4 SLP192 T01390122 53000=
KSTJ 080853Z AUTO 28003KT 6SM BR FEW120 23/21 A3006 RMK AO2 SLP169
     60001 T02280211 58004=
KSTP 080853Z 32005KT 10SM CLR 19/17 A3006 RMK AO2 SLP175 T01890167
     50002=
KSTS 080853Z AUTO 18003KT 10SM OVC006 12/10 A2992 RMK AO2 SLP125
     T01220100 56001=
KSWO 080853Z AUTO 02004KT 10SM FEW032 OVC075 23/21 A3003 RMK AO2
     SLP157 T02330211 55003=
KTCC 080853Z AUTO 36007KT 10SM SCT011 BKN090 OVC120 18/16 A3022
     RMK AO2 SLP171 60000 T01780156 53001=
KTDZ 080853Z AUTO 22003KT 10SM BKN075 24/18 A3004 RMK AO2 SLP167
     T02390178 58005=
KTHV 080853Z AUTO 00000KT 4SM BR CLR 21/19 A3002 RMK AO2 SLP163
     T02060194 53001=
KTIW 080853Z AUTO 02004KT 10SM FEW090 22/12 A2994 RMK AO2 SLP134
     T02170117 53005=
KTMB 080853Z AUTO 00000KT 10SM CLR 27/24 A2992 RMK AO2 SLP132
     T02720244 56011=
KTOP 080853Z AUTO 33003KT 10SM OVC095 22/21 A3006 RMK AO2 SLP169
     60071 T02220206 58010=
KTOR 080853Z AUTO 34003KT 10SM CLR 12/11 A3029 RMK AO2 SLP234
     T01220111 52000=
KPIE 080853Z AUTO 10003KT 10SM CLR 24/21 A2998 RMK AO2 SLP150
     T02440211 58012 TSNO=
KPIH 080853Z AUTO 22006KT 10SM CLR 10/01 A3016 RMK AO2 SLP174
     T01000011 53007=
KPIR 080853Z AUTO 21005KT 10SM CLR 14/13 A3016 RMK AO2 SLP206
     T01440128 53006=
KPKB 080853Z AUTO 00000KT 3SM BR CLR 21/19 A3010 RMK AO2 SLP182
     T02060194 57001 TSNO=
KPKD 080853Z AUTO 22003KT 10SM CLR 14/13 A3007 RMK AO2 SLP182
     T01390128 55001=
KPMD 080853Z AUTO 19006KT 10SM CLR 18/04 A2990 RMK AO2 SLP096
     T01830044 51000 TSNO $=
KPMP 080853Z AUTO 07006KT 10SM SCT021 SCT034 28/24 A2992 RMK AO2
     SLP133 T02780244 56011=
KPNC 080853Z AUTO 04003KT 9SM FEW038 BKN060 22/22 A3005 RMK AO2
     SLP162 T02220217 55007=
KPNS 080853Z AUTO 00000KT 7SM CLR 24/23 A3001 RMK AO2 SLP164
     T02390233 55006=
KPOF 080853Z AUTO 00000KT 8SM FEW050 25/23 A3003 RMK AO2 SLP164
     T02500233 56002 $=
KPOU 080853Z 00000KT 6SM BR CLR 23/21 A3001 RMK AO2 SLP156
     T02280211 55001=
KPRC 080853Z AUTO 20004KT 10SM CLR 19/04 A3009 RMK AO2 RAB0754E04
     SLP095 P0000 60000 T01940039 53003=
KPSP 080853Z 30004KT 10SM CLR 27/10 A2973 RMK AO2 SLP061 T02670100
     50006=
KPTK 080853Z 00000KT 7SM SCT250 24/22 A3003 RMK AO2 SLP159
     T02390217 56008=
KPUB 080853Z AUTO 00000KT 10SM BKN038 OVC050 16/13 A3034 RMK AO2
     SLP218 T01560133 50004=
KPUC 080853Z AUTO 31004KT 10SM CLR 16/02 A3021 RMK AO2 SLP145
     T01610022 53008 TSNO=
KPUW 080853Z AUTO 00000KT 10SM CLR 10/07 A3007 RMK AO2 SLP173
     T01000067 53003=
KPWA 080853Z 01005KT 8SM CLR 23/21 A3005 RMK AO2 SLP159 T02280211
     53002=
KRAC 080853Z AUTO 18003KT 7SM -RA BKN070 OVC085 23/22 A3002 RMK
     AO2 SLP161 P0001 60003 T02330217 58007=
KRAL 080853Z AUTO 27003KT 5SM BR CLR 14/12 A2991 RMK AO2 SLP115
     T01440122 58000=
####018003727####
SAUS99 KWBC 080856 RRC
METAR
KMCW 080853Z AUTO 32006KT 10SM CLR 18/17 A3010 RMK AO2 SLP182
     T01780172 55000 $=
KMFR 080853Z AUTO 00000KT 10SM CLR 24/12 A2988 RMK AO2 SLP101
     T02390117 51009=
KMGY 080853Z AUTO 00000KT 7SM CLR 23/19 A3007 RMK AO2 SLP173
     T02330194 56005=
KMHE 080853Z AUTO 27006KT 10SM SCT110 18/15 A3016 RMK AO2 SLP207
     T01780150 50001 TSNO=
KMHT 080853Z 13006KT 3SM BR BKN070 24/22 A3003 RMK AO2 SLP178
     60000 T02390217 53002=
KMIA 080853Z 03004KT 10SM FEW030 SCT250 28/24 A2992 RMK AO2 SLP133
     T02780244 56010=
KMIC 080853Z 31003KT 10SM CLR 18/16 A3006 RMK AO2 SLP175 T01780161
     52002=
KMIE 080853Z AUTO 00000KT 10SM CLR 22/19 A3006 RMK AO2 SLP168
     T02220194 56006=
KMIW 080853Z AUTO 32006KT 9SM CLR 19/18 A3005 RMK AO2 SLP169
     T01940183 55004=
KMKO 080853Z AUTO 15006KT 10SM OVC019 24/23 A3002 RMK AO2 LTG DSNT
     NW SLP159 60000 T02390228 55003=
KMLC 080853Z AUTO 16003KT 10SM FEW013 24/23 A3002 RMK AO2 SLP156
     T02390228 50001=
KMLP 080853Z AUTO 12009G14KT 10SM CLR 14/02 A3027 RMK AO2 SLP156
     T01390017 57000 TSNO=
KMLS 080853Z AUTO 00000KT 10SM CLR 14/09 A3019 RMK AO2 SLP210
     T01390094 58001=
KMLT 080853Z AUTO 00000KT 4SM BR CLR 20/18 A3006 RMK AO2 SLP181
     T02000183 53006=
KMLU 080853Z AUTO 00000KT 9SM CLR 25/23 A3003 RMK AO2 SLP169
     T02500233 55001=
KMMK 080853Z AUTO 00000KT 2 1/2SM BR OVC010 23/22 A3004 RMK AO2
     CIG 008V011 SLP169 T02330217 53001=
KMNN 080853Z AUTO 00000KT 8SM CLR 21/18 A3008 RMK AO2 SLP178
     T02060183 56003=
KMPO 080853Z AUTO 00000KT 6SM BR FEW090 19/17 A3010 RMK AO2 SLP177
     T01940172 55004=
KMSO 080853Z AUTO 00000KT 10SM CLR 11/06 A3019 RMK AO2 SLP210
     T01110056 53011 $=
KPQN 080853Z AUTO 32004KT 10SM CLR 17/15 A3015 RMK AO2=
KFGN 080854Z AUTO 26010KT 1SM DZ VV007 17/13 A2996 RMK AO2=
KPNM 080853Z AUTO 00000KT 5SM BR CLR 15/14 A3008 RMK AO2=
KPWC 080853Z AUTO 00000KT 1 1/4SM BR BKN001 11/10 A3008 RMK
     AO2=
KFFM 080853Z AUTO 19004KT 10SM CLR 15/14 A3008 RMK AO2=
KGDB 080853Z AUTO 24005KT 10SM CLR 14/14 A3013 RMK AO2
     T01400136=
KAIT 080853Z AUTO 00000KT 3/4SM BR VV005 13/12 A3006 RMK AO2=
KGHW 080853Z AUTO 24006KT 10SM CLR 14/13 A3013 RMK AO2=
KMWM 080853Z AUTO 27004KT 10SM CLR 14/14 A3013 RMK AO2=
KULM 080855Z AUTO 29005KT 10SM CLR 15/13 A3011 RMK AO2=
KBBB 080853Z AUTO 00000KT 2 1/2SM BR CLR 13/13 A3011 RMK AO2 VIS
     1V5=
KTWM 080853Z AUTO 30004KT 10SM CLR 16/13 A3000 RMK AO2=
KMGG 080855Z AUTO 28004KT 10SM CLR 16/15 A3009 RMK AO2
     T01600154=
KMOX 080850Z AUTO 25004KT 10SM CLR 15/14 A3007 RMK AO2=
KTIF 080850Z AUTO 00000KT 10SM OVC090 16/15 A3025 RMK AO2
     T01570145=
KTKI 080853Z AUTO 17003KT 10SM CLR 26/23 A3000 RMK AO2 SLP153
     T02560228 54000=
KTQE 080854Z AUTO 34004KT 10SM CLR 19/18 A3013 RMK AO2 SLP191
     T01890178 53003=
KTRK 080850Z AUTO 21003KT 10SM CLR 12/08 A3016 RMK AO2=
KTVF 080855Z AUTO 26007KT 10SM CLR 14/11 A3003 RMK AO1 54000=
KUIN 080854Z AUTO 00000KT 10SM SCT034 SCT049 BKN060 23/22 A3002
     RMK AO2 RAE21 SLP161 P0005 60009 T02280222 58007=
KUTA 080855Z AUTO 00000KT 10SM SCT045 23/22 A3007 RMK AO2=
KUZA 080854Z AUTO 02003KT 10SM CLR 22/18 A3000 RMK AO2 SLP143
     T02220183 55006=
KVBT 080855Z AUTO 00000KT 10SM SCT026 23/21 A3003 RMK AO1 60001
     57003=
KWLD 080854Z AUTO 03005KT 10SM BKN100 22/21 A3007 RMK AO2 SLP173
     60001 T02220211 55006=
KX40 080855Z AUTO 00000KT 7SM CLR 22/22 A3000 RMK AO2
     T02240216=
KYKN 080855Z AUTO 32005KT 10SM CLR 17/15 A3016 RMK AO1 54000=
KEWN 080854Z AUTO 02003KT 4SM BR CLR 25/23 A2992 RMK AO2 SLP131
     T02500228 56006=
####018000092####
SPUS99 KWBC 080856
SPECI
KHYA 080854Z AUTO 00000KT 5SM BR OVC001 21/21 A3007 RMK AO2=
####018001406####
SAUS99 KWBC 080856 RRG
METAR
PAGY 080853Z AUTO 00000KT 10SM CLR 11/10 A3021 RMK AO2 SLP228
     T01060100 401830106 58002 TSNO=
PAHO 080853Z AUTO 08009KT 10SM FEW070 SCT085 12/09 A2989 RMK AO2
     SLP122 T01220094 401390078 58004 TSNO=
PAIL 080853Z AUTO 04006KT 10SM SCT075 10/08 A2993 RMK AO2 SLP138
     T01000083 401220083 53002 TSNO=
PAJN 080853Z 00000KT 10SM FEW250 12/09 A3019 RMK AO2 SLP222
     T01170094 402060100 58003=
PAKT 080853Z AUTO 31004KT 10SM CLR 18/12 A3008 RMK AO2 SLP184
     T01780117 402440144 50002 TSNO=
PAKV 080853Z AUTO 00000KT 10SM CLR 12/06 A3009 RMK AO2 RAB06E15
     SLP193 P0000 60000 T01170061 402220044 51003 TSNO=
PAKW 080853Z AUTO 20003KT 10SM CLR 12/10 A3013 RMK AO2 SLP202
     T01170100 402110111 53005 TSNO=
PALH 080853Z 00000KT 10SM FEW070 OVC085 14/11 A3001 RMK AO2 RAE52
     SLP163 P0001 60001 T01390111 401830128 58006=
PAMC 080853Z 02004KT 10SM FEW040 SCT110 BKN200 13/08 A2998 RMK AO2
     SLP156 T01330083 402330078 51005=
PAMR 080853Z 00000KT 10SM FEW055 BKN080 BKN100 13/11 A3000 RMK AO2
     RAB21E35 SLP160 VIRGA E-S P0000 60000 T01330106 401890122
     58003=
PANC 080853Z 17003KT 10SM -RA FEW055 BKN070 BKN120 BKN200 12/11
     A3000 RMK AO2 SLP159 P0000 60000 T01170111 401670117
     58006=
PANN 080853Z AUTO 00000KT 10SM FEW075 13/10 A3002 RMK AO2 SLP171
     T01280100 402330072 50004 TSNO=
####018003685####
SAUS99 KWBC 080856
METAR
KMSP 080853Z 29003KT 10SM FEW090 18/17 A3007 RMK AO2 SLP179
     T01830167 52002=
KMSS 080853Z AUTO 22003KT 6SM BR CLR 23/21 A3001 RMK AO2 SLP157
     T02280206 53001=
KMTH 080853Z AUTO 36005KT 10SM BKN021 BKN036 A2991 RMK AO2 LTG
     DSNT SW SLP129 55007 FZRANO $=
KMTJ 080853Z AUTO 12004KT 10SM CLR 16/06 A3027 RMK AO2 SLP175
     T01610056 53007=
KMTO 080853Z AUTO 21003KT 10SM SCT120 25/23 A3003 RMK AO2 SLP162
     T02500228 56006=
KMVY 080853Z AUTO 14008KT 1/4SM R24/2000V2800FT FG VV001 21/19
     A3007 RMK AO2 SLP181 T02110194 53002=
KMYF 080853Z AUTO 33006KT 10SM OVC015 16/14 A2990 RMK AO2 SLP122
     T01610139 58007 TSNO=
KMYV 080853Z AUTO 17006KT 10SM CLR 18/12 A2982 RMK AO2 SLP101
     T01780117 53007=
KODX 080853Z AUTO 31005KT 10SM OVC080 16/14 A3019 RMK AO2 SLP220
     T01610144 55002=
KOGB 080853Z AUTO 32005KT 10SM CLR 24/19 A2998 RMK AO2 SLP148
     T02440189 56009=
KOGD 080853Z 17008KT 10SM CLR 20/06 A3009 RMK AO2 SLP131 T02000061
     53008=
KOJC 080853Z AUTO 34007KT 6SM BR OVC004 23/22 A3005 RMK AO2 SLP164
     T02280222 58004=
KOLF 080853Z AUTO 27003KT 10SM CLR 10/08 A3014 RMK AO2 SLP203
     T01000083 56002=
KOMK 080853Z AUTO 00000KT 10SM CLR 14/08 A3005 RMK AO2 SLP170
     T01390078 53009=
KONO 080853Z AUTO 25003KT 10SM CLR 13/06 A3003 RMK AO2 SLP159
     T01330061 53008=
KONT 080853Z 24004KT 6SM BR OVC010 15/13 A2990 RMK AO2 SLP116
     T01500128 58002=
KOPF 080853Z AUTO 04003KT 10SM FEW020 27/24 A2993 RMK AO2 SLP135
     T02670244 55010=
KORF 080851Z 09003KT 6SM BR CLR 26/24 A2995 RMK AO2 SLP141
     T02560239 57001=
KORL 080853Z AUTO 00000KT 10SM CLR 23/22 A2999 RMK AO2 SLP158
     T02330217 55008=
KOSH 080853Z AUTO 22003KT 9SM FEW006 22/21 A2997 RMK AO2 SLP137
     P0001 60006 T02170206 55014=
KOSU 080853Z AUTO 00000KT 7SM CLR 22/19 A3007 RMK AO2 SLP175
     T02170189 58003=
KOTM 080853Z AUTO 32004KT 5SM BR CLR 21/20 A3004 RMK AO2 SLP167
     T02060200 55004=
KOVS 080853Z AUTO 00000KT 10SM OVC006 21/20 A3001 RMK AO2 SLP157
     T02110200 56009=
KOWD 080853Z AUTO 00000KT 10SM CLR 22/18 A3006 RMK AO2 SLP177
     T02170183 53002=
KPBG 080853Z AUTO 00000KT 6SM BR CLR 22/21 A2999 RMK AO2 RAB42E52
     SLP155 P0000 60000 T02170206 55001=
KPBI 080853Z 06004KT 10SM SCT023 BKN035 BKN250 28/24 A2992 RMK AO2
     SLP132 T02780239 55013=
KPEO 080853Z AUTO 23003KT 4SM BR CLR 22/21 A3008 RMK AO2 SLP177
     T02170206 56001=
KPGA 080853Z AUTO 00000KT 10SM CLR 27/00 A3003 RMK AO2 SLP090
     T02720000 53006=
KPGD 080853Z AUTO 05003KT 10SM CLR 23/22 A2998 RMK AO2 SLP152
     T02280222 56014 TSNO=
KPHD 080853Z AUTO 00000KT 2SM BR CLR 19/17 A3009 RMK AO2 SLP181
     T01940172 56003=
KSAN 080851Z 32006KT 9SM FEW010 OVC015 16/14 A2991 RMK AO2 SLP128
     T01610144 58006=
KSBA 080853Z 00000KT 9SM OVC019 12/11 A2991 RMK AO2 SLP127
     T01220111 51000 $=
KSBM 080853Z AUTO 17004KT 8SM OVC110 22/22 A2998 RMK AO2
     RAE05B39E49 SLP148 P0001 60001 T02220217 56015=
KSEA 080853Z 36007KT 10SM CLR 20/11 A2996 RMK AO2 SLP147 T02000106
     53006 $=
KSEG 080853Z AUTO 34004KT 6SM HZ CLR 22/17 A3004 RMK AO2 SLP167
     T02220172 53002=
KSHN 080853Z AUTO 00000KT 10SM CLR 13/11 A2993 RMK AO2 SLP132
     T01280111 51007=
KSHR 080853Z AUTO 33003KT 10SM CLR 08/06 A3026 RMK AO2 SLP231
     T00830061 55001=
KSLC 080853Z 16005KT 10SM FEW130 19/07 A3008 RMK AO2 SLP132
     T01890072 51006=
KSLN 080853Z AUTO 33006KT 5SM BR CLR 21/20 A3011 RMK AO2 SLP185
     T02110200 53004=
KSMF 080853Z 14011KT 10SM CLR 15/11 A2982 RMK AO2 SLP098 T01500106
     53005=
####018003722####
SAUS99 KWBC 080856 RRD
METAR
KFAM 080855Z AUTO 18003KT 10SM FEW090 23/22 A3008 RMK AO1
     57003=
KFLP 080855Z AUTO 00000KT 10SM CLR 23/22 A3004 RMK AO1 54000=
KFOD 080855Z AUTO 00000KT 10SM CLR 18/17 A3011 RMK AO1 52003=
KFRM 080855Z AUTO 10SM CLR 17/15 A3013 RMK AO1 52003=
KFTN 080855Z AUTO 07005KT 10SM SCT020 OVC026 25/23 A2990 RMK
     AO1=
KGAD 080855Z AUTO 00000KT 10SM CLR 22/20 A3004 RMK AO1 57007=
KGAI 080855Z 00000KT 8SM FEW090 25/21 A3003 RMK AO1 54000=
KGBD 080855Z AUTO 02006KT 10SM OVC011 19/18 A3016 RMK AO1
     52003=
KGCK 080854Z AUTO 04009KT 10SM FEW043 SCT070 18/17 A3020 RMK AO2
     SLP200 T01780167 53002=
KGPZ 080855Z AUTO 19003KT 10SM CLR 14/12 A3005 RMK AO1 57007=
KGTR 080855Z 30005KT 10SM CLR 24/23 A3004 RMK AO1 54000=
KHEF 080855Z AUTO 00000KT 7SM CLR 23/20 A2999 RMK AO1 57003=
KHEZ 080855Z AUTO 00000KT 5SM CLR 22/22 A3003 RMK AO1 57003=
KHNB 080855Z AUTO 00000KT 10SM BKN095 23/21 A3005 RMK AO1
     57007=
KHWD 080854Z AUTO 31006KT 10SM OVC009 14/11 A2992 RMK AO2 SLP141
     T01390111 51000=
KHYS 080855Z AUTO 33008KT 10SM OVC014 19/17 A3017 RMK AO1
     54000=
KIMT 080854Z AUTO 34003KT 10SM BKN003 OVC008 20/19 A2997 RMK AO2
     SLP144 T02000194 56002=
KINT 080854Z AUTO 00000KT 10SM BKN095 24/17 A3002 RMK AO2 SLP151
     T02440172 55004=
KISW 080854Z AUTO 27004KT 10SM BKN005 20/20 A3001 RMK AO2 CIG
     004V008 SLP158 T02000200 53002 TSNO=
KIWD 080855Z AUTO 00000KT 6SM FEW110 16/15 A2999 RMK AO1 52003=
KJSV 080853Z AUTO 12004KT 10SM OVC026 23/22 A3003 RMK AO2 LTG DSNT
     W AND NW=
KKLS 080855Z AUTO 00000KT 10SM CLR 17/13 A2991 RMK AO1 52010=
KLAF 080854Z AUTO 00000KT 6SM BR FEW060 23/22 A3003 RMK AO2 SLP164
     T02280217 55003 TSNO=
KLBL 080855Z 06010KT 10SM BKN035 OVC042 19/17 A3021 RMK AO1 LTG
     DSNT S 52003=
KLGD 080855Z AUTO 00000KT 10SM CLR 13/06 A3005 RMK AO1 52014=
KLKV 080855Z AUTO 32008KT 10SM CLR 09/01 A3012 RMK AO1 52007=
KLNK 080854Z AUTO 34005KT 10SM CLR 18/17 A3015 RMK AO2 SLP201
     T01830172 53005=
KLYH 080854Z AUTO 34004KT 6SM HZ CLR 25/18 A3004 RMK AO2 SLP158
     T02500183 55001=
KMER 080855Z AUTO 31006KT 10SM CLR 18/11 A2983 RMK AO1=
KMFI 080854Z AUTO 31006KT 10SM CLR 19/18 A3001 RMK AO2 SLP155
     T01890183 55003=
KMKC 080854Z 32003KT 10SM CLR 23/21 A3004 RMK AO2 SLP165 T02280206
     58003=
KMKT 080855Z 31005KT 10SM CLR 17/16 A3009 RMK AO1 54000=
KMML 080855Z AUTO 25006KT 10SM CLR 15/12 A3013 RMK AO1 52003=
KMNI 080855Z AUTO 29003KT 10SM CLR 24/22 A2995 RMK AO2=
KMNM 080855Z AUTO 00000KT 7SM FEW011 BKN033 OVC120 21/19 A2997 RMK
     AO1 60001 57007=
KMOT 080854Z AUTO 21007KT 10SM CLR 14/12 A3008 RMK AO2 SLP183
     T01440117 50003 TSNO=
KMRF 080855Z AUTO 02005KT 10SM BKN120 16/13 A3016 RMK AO1
     57007=
KMTW 080855Z 17004KT 9SM FEW075 OVC110 21/20 A2997 RMK AO1
     57014=
KMVN 080855Z AUTO 00000KT 2SM CLR 22/20 A3005 RMK AO1 57003=
KOFP 080854Z AUTO 06003KT 6SM HZ CLR 24/19 A3000 RMK AO2 SLP156
     T02390194 53003=
KOLM 080854Z AUTO 00000KT 10SM CLR 15/12 A2994 RMK AO2 SLP138
     T01500117 53007=
KOLS 080854Z AUTO 00000KT 10SM SCT110 26/06 A2997 RMK AO2 SLP065
     T02610061 53004=
KOLU 080855Z AUTO 00000KT 10SM CLR 16/14 A3016 RMK AO1 57007=
KOTG 080855Z AUTO 27004KT 10SM CLR 14/13 A3014 RMK AO1 57003=
KOTH 080855Z 25003KT 10SM OVC008 11/08 A3000 RMK AO1 54000=
KPHF 080854Z 09004KT 4SM BR SCT080 25/24 A2996 RMK AO2 RAB0756E09
     SLP144 P0000 60000 T02500244 56001=
KPIA 080854Z 18003KT 4SM BR BKN012 BKN045 BKN100 23/22 A3002 RMK
     AO2 RAE01B29E44 SLP158 P0000 60002 T02280217 58007=
KPIB 080855Z AUTO 00000KT 8SM CLR 23/21 A3003 RMK AO1 57010=
####018000077####
SABZ18 SBSJ 080900
METAR SBSJ 080900Z 00000KT 5000 BR SCT010 12/11 Q1022=
####018000440####
SAMX42 MMGL 080855
METAR MMGL 080851Z 00000KT 10SM  OVC080 19/17 A3000 
      RMK SLP024 56012 901 60156 8/07/ RAE05=
METAR MMLO 080848Z 00000KT 6SM -DZ  BKN025 BKN070 18/18 A3009 
      RMK SLP057 57014 903 60165 8/77/=
METAR MMSP 080845Z 00000KT 8SM  SCT010 SCT020 BKN080 17/17 A3014 
      RMK SLP053 57011 913 8/530 HZY MSGTX MMZC=
METAR MMZC 080847Z 14005KT 8SM  BKN020 BKN070 16/12 A3017 
      RMK 8/760 OCNL DROPS=
####018000297####
SAMX44 MMMD 080853
METAR MMMD 080848Z 11005KT 7SM  BKN070 22/22 A2982 
      RMK SLP093 57005 911 8/060=
METAR MMTP 080840Z 00000KT 10SM BKN020 BKN100 25/22 A2988
      RMK 8/170=
METAR MMUN 080843Z 12005KT 6SM  SCT015 SCT090 BKN300 28/24 A2986 
      RMK SLP111 57017 911 8/538 HZY=
####018000080####
SACY42 EGRR 080850
METAR LCRA 080850Z 22010KT 9999 FEW040 28/20 Q1008 NOSIG=
####018000284####
SAFI33 EFHK 080850
EFJO 080850Z 04004KT 010V070 CAVOK 23/19 Q1015=
EFLP 080850Z 11007KT 040V170 CAVOK 29/16 Q1014=
EFMI 080850Z AUTO 34003KT 9999 FEW037 26/19 Q1014=
EFSA 080850Z 35003KT 9999 FEW025 26/19 Q1014=
EFUT 080850Z VRB04KT CAVOK 29/16 Q1014=
METAR EFVR 080855Z NIL=
####018003740####
SAUS99 KWBC 080856 RRE
METAR
KPIL 080853Z AUTO VRB03KT 10SM FEW041 SCT055 BKN090 29/25 A2977
     RMK AO2 LTG DSNT NW SLP080 60000 T02890250 56019 $=
KPLN 080854Z AUTO 00000KT 10SM OVC110 21/21 A2997 RMK AO2 SLP144
     60000 T02110206 56012=
KPTN 080855Z AUTO 07003KT 10SM CLR 24/M09 A3001 RMK AO1 57003=
KPVU 080855Z 12003KT 10SM CLR 18/09 A3012 RMK AO1 52010=
KPWT 080855Z AUTO 03007KT 10SM CLR 23/06 A2997 RMK AO1 52003=
KRBL 080854Z AUTO 33004KT 10SM CLR 23/17 A2983 RMK AO2 SLP095
     T02330172 52008=
KRKR 080855Z AUTO 18005KT 10SM SCT029 BKN035 BKN043 27/25 A3002
     RMK AO2=
KRKS 080854Z AUTO 08012KT 10SM CLR 10/06 A3033 RMK AO2 SLP205
     T01000056 53002=
KRST 080854Z AUTO 31005KT 9SM CLR 18/18 A3007 RMK AO2 SLP178
     T01830178 53002=
KSET 080854Z AUTO 04004KT 4SM -RA BR FEW010 SCT019 BKN030 25/24
     A3000 RMK AO2 RAB34 SLP153 P0002 60002 T02500244 58007=
KSGT 080855Z 00000KT 10SM CLR A3004 RMK AO1 54000=
KSGU 080855Z AUTO 08003KT 10SM CLR 27/01 A2994 RMK AO1 52010=
KSKX 080855Z AUTO 35003KT 10SM CLR 11/03 A3038 RMK AO1 57003=
KSLG 080855Z AUTO 17008KT 10SM FEW080 23/21 A3006 RMK AO1
     57003=
KSMN 080855Z AUTO 00000KT 10SM CLR 09/01 A3022 RMK AO1 52017=
KSPA 080855Z AUTO 00000KT 10SM CLR 22/22 A3000 RMK AO2=
KSPL 080855Z AUTO 05006KT 29/25 A2976 RMK AO2 PWINO PNO=
KSQI 080855Z 00000KT 5SM BKN050 OVC065 22/21 A3003 RMK AO1 60002
     57010=
KSUE 080855Z AUTO 00000KT 5SM BKN120 21/20 A2996 RMK AO1 P0002
     60003 57010=
KSUS 080854Z AUTO 00000KT 10SM FEW050 24/23 A3000 RMK AO2
     TSE17RAE04 SLP152 P0000 60005 T02390228 58005=
KAAO 080854Z AUTO 00000KT 10SM CLR 21/19 A3008 RMK AO2 SLP173
     T02110194 56005=
KAEG 080855Z AUTO 15005KT 10SM CLR 17/08 A3027 RMK AO1=
KAIZ 080855Z AUTO 00000KT 10SM FEW026 BKN039 OVC050 22/21 A3005
     RMK AO1 60013 57007=
KAKH 080854Z AUTO 36003KT 10SM CLR 23/17 A3000 RMK AO2 SLP149
     T02330172 56006=
KALO 080854Z AUTO 30006KT 9SM CLR 19/19 A3003 RMK AO2 SLP165
     T01940189 56005=
KAPC 080854Z AUTO 27010KT 10SM BKN010 12/11 A2991 RMK AO2 SLP119
     T01170106 53001=
KARG 080855Z AUTO 19005KT 10SM SCT110 24/22 A3005 RMK AO1
     52003=
KAUO 080855Z AUTO 00000KT 10SM CLR 26/21 A3003 RMK AO1 57007=
KAUS 080853Z 05005KT 10SM BKN016 BKN021 OVC033 26/23 A2995 RMK AO2
     SLP129 T02610233 55004=
KAUW 080854Z AUTO 30005KT 10SM BKN004 19/19 A2999 RMK AO2 SLP152
     60001 T01940189 58000 $=
KAVL 080854Z AUTO 00000KT 10SM CLR 18/18 A3013 RMK AO2 SLP172
     T01830178 58003=
KAWO 080855Z AUTO 00000KT 10SM CLR 15/13 A2997 RMK AO1 52007=
KBKX 080855Z AUTO 25004KT 10SM CLR 14/13 A3016 RMK AO1 52003=
KBOW 080855Z AUTO 00000KT 10SM CLR 21/21 A2999 RMK AO2=
KBVX 080855Z AUTO 24004KT 10SM CLR 24/22 A3005 RMK AO1=
KBWI 080854Z 06003KT 6SM HZ SCT080 SCT200 27/22 A2999 RMK AO2
     SLP154 T02670222 53002=
KCEU 080854Z AUTO 00000KT 10SM CLR 24/22 A3003 RMK AO2 SLP155
     T02440217 58007=
KCGC 080855Z AUTO 00000KT 10SM CLR 21/21 A2998 RMK=
KCIU 080855Z AUTO 21005KT 7SM OVC120 19/18 A2995 RMK AO1 60001
     57020=
KCOE 080855Z AUTO 04012KT 10SM CLR 16/08 A3009 RMK AO1 52007=
KCVN 080855Z AUTO 03008KT 9SM SCT110 17/14 A3021 RMK AO1 57007=
KCVO 080855Z AUTO 27016G19KT 10SM CLR 14/09 A2990 RMK AO1=
KCWI 080855Z 00000KT 3SM OVC004 A3002 RMK AO1 57010=
KDEC 080854Z AUTO 00000KT 10SM FEW075 25/22 A3003 RMK AO2 SLP163
     T02500222 56007=
KDSM 080854Z 35006KT 10SM CLR 22/19 A3007 RMK AO2 SLP173 T02170194
     53006=
KDVL 080855Z AUTO 26006KT 10SM SCT095 15/12 A3006 RMK AO1
     54000=
KDYB 080855Z AUTO 00000KT 10SM CLR 22/20 A2996 RMK AO1=
KDYR 080855Z AUTO 24003KT 10SM CLR 24/20 A3006 RMK AO1 54000=
####018003654####
SAUS99 KWBC 080856 RRF
METAR
KEAR 080855Z AUTO 33008KT 10SM CLR 15/14 A3022 RMK AO1 54000=
KECG 080854Z AUTO 07006KT 8SM BKN110 26/24 A2994 RMK AO2 SLP138
     T02560239 56004=
KEHR 080855Z AUTO 00000KT 10SM FEW090 23/19 A3005 RMK AO1
     57007=
KENV 080855Z 01011G15KT 10SM CLR 23/M02 A3008 RMK AO1 52003=
KESC 080855Z AUTO 00000KT 4SM FEW049 SCT060 BKN110 19/16 A2995 RMK
     AO1 57007=
KEUG 080854Z 19009KT 10SM CLR 14/11 A2991 RMK AO2 SLP127 T01440106
     53016=
KEUL 080855Z AUTO 12006KT 10SM CLR 13/07 A3005 RMK AO1 52007=
KEWK 080855Z AUTO 32006KT 10SM BKN050 21/19 A3007 RMK AO1
     57003=
PANT 080853Z AUTO 33009KT 10SM CLR 19/11 A3006 RMK AO2 SLP177
     T01940111 402670139 58001 TSNO=
PAOM 080853Z 04010KT 10SM FEW045 SCT065 SCT095 16/09 A3009 RMK AO2
     SLP189 T01610089 401940050 52004=
PAOR 080853Z 00000KT 10SM FEW070 11/09 A3008 RMK AO2 SLP188
     T01110089 402170089 50002=
PAOT 080853Z 28010KT 10SM FEW040 SCT090 BKN200 12/07 A3013 RMK AO2
     SLP202 T01170072 401440106 51004=
PAPB 080853Z AUTO 09018KT 10SM FEW022 OVC042 08/06 A2991 RMK AO2
     SLP116 T00780061 401060067 50003 TSNO=
PAQT 080853Z AUTO 26006KT 10SM SCT024 11/07 A3005 RMK AO2 SLP177
     T01060067 401390044 53012 TSNO=
PASC 080853Z 22013KT 10SM BKN036 BKN070 OVC210 11/07 A3000 RMK AO2
     SLP161 T01060072 401060050 55004=
PASI 080853Z 00000KT 10SM CLR 13/12 A3018 RMK AO2 SLP218 T01330117
     401610106 58001=
PASN 080853Z 07011KT 10SM SCT034 OVC045 06/05 A2995 RMK AO2 SLP141
     T00560050 400890050 53005=
PASO 080853Z AUTO 00000KT 10SM SCT055 OVC070 11/10 A2989 RMK AO2
     SLP121 60000 T01060100 401280083 55002 TSNO=
PATK 080853Z AUTO 00000KT 10SM BKN110 14/11 A3000 RMK AO2 SLP162
     T01440106 402330100 58006 TSNO=
PATO 080853Z AUTO 13010G26KT 5SM -RA BR SCT025 BKN031 OVC046 12/11
     A3001 RMK AO2 PK WND 13039/0838 SLP163 P0011 60062 T01220111
     401330078 56006 TSNO=
PAWD 080853Z AUTO 00000KT 10SM BKN003 OVC010 11/10 A2998 RMK AO2
     RAE00 SLP151 P0000 60010 T01060100 401280083 50001 TSNO=
PAYA 080853Z 04003KT 10SM FEW090 SCT200 11/09 A3018 RMK AO2 SLP221
     BAY TWR WND 120MMKT T01110094 401890106 58007=
PAAQ 080853Z AUTO 00000KT 10SM -RA FEW075 BKN090 13/09 A3002 RMK
     AO2 RAB42 SLP161 P0000 60000 T01280089 401830089 56007
     TSNO=
PABE 080853Z VRB03KT 10SM BKN120 13/06 A3002 RMK AO2 SLPNO 6////
     T01300060 401610056 PNO $=
PABI 080853Z AUTO 00000KT 10SM CLR 14/08 A3008 RMK AO2 SLP187
     T01390078 402110117 53003 TSNO=
PABR 080853Z 26014KT 10SM BKN200 06/03 A3000 RMK AO2 SLP158
     T00560028 400610006 53004 $=
PABT 080853Z 00000KT 10SM SCT120 13/12 A3006 RMK AO2 SLP187
     T01330117 402060106 53008=
PACD 080853Z 16004KT 10SM CLR 06/03 A2994 RMK AO2 SLP139 T00560033
     401330044 50002=
PACV 080853Z 10009KT 10SM -RA BKN055 OVC085 16/10 A3008 RMK AO2
     RAE0756B19E29B46 SLP186 P0000 60001 T01610100 401720100
     56008=
PADE 080853Z AUTO 22005KT 10SM CLR 07/04 A3014 RMK AO2 SLP207
     T00720039 401440067 51003 TSNO=
PADQ 080853Z 30004KT 4SM -RA BR BKN016 OVC026 10/09 A2983 RMK AO2
     SLP101 P0003 60008 T01000094 401060094 51011 $=
PAEG 080853Z AUTO 00000KT 10SM CLR 07/04 A3002 RMK AO2 SLP167
     T00720044 402440039 52013 TSNO=
PAEN 080853Z AUTO 02010KT 10SM FEW060 OVC080 14/11 A2997 RMK AO2
     SLP149 60000 T01390111 401830089 58001 TSNO=
PAFA 080853Z 03003KT 10SM FEW070 SCT200 14/09 A3003 RMK AO2 SLP173
     T01440089 402390094 51005=
PAGK 080853Z AUTO 06003KT 10SM BKN075 08/06 A3008 RMK AO2 SLP192
     T00830061 401940056 53001 TSNO=
####018000170####
SAUK31 EGGY 080850 CCA
METAR COR EGCC 080850Z 21010KT 9999 FEW021 17/12 Q1017 NOSIG=
METAR COR EGLL 080850Z 30006KT 9999 FEW005 BKN011 17/15 Q1019 BECMG
    SCT040=
####018000086####
SAUK34 EGGY 080850 RRA
METAR EGHQ 080850Z 18007KT 150V210 9999 FEW020 18/12 Q1019=
####018000379####
SABX31 EBBR 080850
METAR EBAW 080850Z 24006KT 170V280 CAVOK 26/12 Q1019 NOSIG=
METAR EBBR 080850Z 25007KT 210V270 CAVOK 27/10 Q1020 NOSIG=
METAR EBCI 080850Z 20007KT 160V250 CAVOK 27/11 Q1020 NOSIG=
METAR EBLG 080850Z 22006KT 180V270 CAVOK 27/09 Q1020 NOSIG=
METAR EBOS 080850Z 28007KT 250V310 CAVOK 20/16 Q1020 NOSIG=
METAR ELLX 080850Z VRB02KT CAVOK 25/10 Q1021 NOSIG=
####018000046####
SAOS32 LOWM 080850
METAR LOXZ 080850Z NIL=
####018000656####
SAIY32 LIIB 080850
METAR LIBD 080850Z 36011KT 9999 FEW030 25/12 Q1020=
METAR LIBR 080845Z /////KT CAVOK 25/15 Q1017 NOSIG=
METAR LICC 080850Z 09005KT CAVOK 29/20 Q1018=
METAR LICJ 080850Z 04015KT CAVOK 27/22 Q1018=
METAR LIPB 080850Z 16008KT 9999 FEW060 26/12 Q1022=
METAR LIPE 080850Z 12007KT 090V160 CAVOK 27/15 Q1021=
METAR LIPH 080845Z 01002KT 9999 SCT035 BKN070 24/18 Q1022=
METAR LIPK 080850Z VRB03KT CAVOK 26/14 Q1021=
METAR LIPQ 080850Z VRB02KT 9999 FEW030 BKN050 25/14 Q1023=
METAR LIPR 080845Z 12006KT CAVOK 27/16 Q1021=
METAR LIPX 080845Z 10007KT 9999 SCT080 27/14 Q1021=
METAR LIPZ 080850Z 13007KT 9999 SCT050 SCT070 26/16 Q1022=
####018000096####
SACS31 MROC 080900
METAR
MROC 080900Z 00000KT 3000 -RA BR FEW002 SCT005 BKN012 19/19 A3001=
####018000373####
SAOS31 LOWM 080850
METAR LOWW 080850Z 35005KT 310V050 9999 FEW040 21/09 Q1023 NOSIG=
METAR LOWL 080850Z 12004KT 050V170 CAVOK 20/10 Q1024 NOSIG=
METAR LOWS 080850Z VRB02KT CAVOK 22/08 Q1023 NOSIG=
METAR LOWI 080850Z VRB01KT CAVOK 21/12 Q1022 NOSIG=
METAR LOWG 080850Z VRB04KT 9999 FEW060 22/09 Q1023 NOSIG=
METAR LOWK 080850Z VRB03KT 9999 FEW060 21/11 Q1024 NOSIG=
####018003691####
SAUS70 KWBC 080900
METAR
KCOT 080853Z AUTO 05007KT 10SM FEW014 BKN043 25/23 A2989 RMK AO2
     SLP113 T02500228 58006=
KCSV 080853Z AUTO 00000KT 8SM CLR 21/17 A3013 RMK AO2 SLP177
     T02110172 56005=
KCXO 080853Z VRB03KT 9SM FEW007 24/23 A2994 RMK AO2 SLP135
     T02390233 58004=
KDAN 080853Z AUTO 00000KT 5SM HZ CLR 23/19 A3000 RMK AO2 SLP144
     T02280189 56003=
KDCU 080853Z AUTO 36003KT 10SM CLR 23/21 A3006 RMK AO2 SLP170
     T02330211 58005=
KDEW 080853Z AUTO 01008KT 10SM CLR 16/07 A3007 RMK AO2 SLP169
     T01610072 53003=
KDHT 080853Z AUTO 36012KT 10SM -RA SCT030 BKN037 OVC080 17/14
     A3026 RMK AO2 PK WND 01027/0810 WSHFT 0804 RAB27 SLP196 P0000
     60000 T01670144 51010=
KDLS 080853Z AUTO 11005KT 10SM CLR 18/05 A2994 RMK AO2 SLP138
     T01780050 51012=
KDNL 080853Z AUTO 28003KT 10SM CLR 27/18 A3001 RMK AO2 SLP154
     T02670178 56010=
KDUA 080859Z AUTO 16005KT 10SM CLR 25/23 A3002 RMK AO2=
KDVO 080850Z AUTO 00000KT 10SM BKN010 12/11 A2993 RMK AO2=
KDWH 080853Z 07006KT 7SM CLR 24/24 A2993 RMK AO2 SLP133 T02440239
     56004=
KEET 080853Z AUTO 00000KT 6SM HZ SCT080 24/22 A3003 RMK AO2 SLP161
     T02440217 56005=
KELN 080853Z AUTO 32003KT 10SM CLR 16/07 A3004 RMK AO2 SLPNO
     T01560067 53003 $=
KEPH 080853Z AUTO 33007KT 10SM CLR 21/05 A3000 RMK AO2 SLP148
     T02110050 53001=
KEQY 080853Z AUTO 34004KT 10SM CLR 24/18 A2999 RMK AO2 SLP149
     T02440178 56007=
KESF 080853Z AUTO 00000KT 7SM FEW013 23/22 A3001 RMK AO2 SLP160
     T02280222 55002=
KFAY 080853Z AUTO 34003KT 10SM CLR 27/17 A2992 RMK AO2 SLP125
     T02670172 56006=
KFET 080851Z AUTO 33003KT 10SM CLR 18/17 A3014 RMK AO2=
KFFC 080853Z AUTO 00000KT 8SM CLR 21/19 A3004 RMK AO2 SLP163
     T02060189 56006=
KFHR 080853Z AUTO 00000KT 10SM CLR 14/11 A2997 RMK AO2 SLP148
     T01440111 53008=
KFSM 080853Z AUTO 02003KT 10SM OVC034 24/22 A3002 RMK AO2 SLP160
     T02440222 58001=
KFST 080853Z AUTO 12004KT 10SM BKN110 22/19 A3006 RMK AO2 SLP130
     T02170194 56004=
KFTY 080853Z 00000KT 9SM CLR 21/18 A3003 RMK AO2 SLP159 T02060183
     56007=
KFYV 080853Z AUTO 00000KT 10SM FEW036 22/21 A3006 RMK AO2 SLP164
     T02220211 56003=
KGLH 080853Z AUTO 00000KT 7SM CLR 22/22 A3004 RMK AO2 SLP176
     T02220217 56003=
KGMU 080853Z AUTO 00000KT 10SM CLR 26/19 A3003 RMK AO2 SLP154
     T02610189 56008=
KGPT 080853Z AUTO 00000KT 8SM CLR 26/24 A3000 RMK AO2 SLP159
     T02560239 55006=
KPMV 080850Z AUTO 32006KT 10SM CLR 20/19 A3011 RMK AO2
     T01970188=
KACV 080853Z AUTO 00000KT 5SM BR OVC001 10/10 A2996 RMK AO2 SLP151
     T01000100 56001=
KADH 080851Z AUTO 00000KT 5SM BR SCT002 SCT006 BKN025 23/22 A3002
     RMK AO2=
KAEX 080853Z AUTO 00000KT 10SM CLR 24/23 A2999 RMK AO2 SLP159
     T02440228 55001=
KAGS 080853Z AUTO 00000KT 10SM CLR 24/19 A2998 RMK AO2 SLP150
     T02440189 56011 TSNO=
KALI 080853Z AUTO 01007KT 10SM FEW036 BKN048 BKN095 26/24 A2983
     RMK AO2 SLP099 60000 T02560244 58012=
KAMA 080853Z 02005KT 1SM -RA SCT020 SCT080 OVC110 17/16 A3018 RMK
     AO2 SFC VIS 9 SLP170 P0009 60093 T01720161 56007 $=
KANB 080853Z AUTO 00000KT 9SM CLR 22/21 A3004 RMK AO2 SLP160
     T02220206 56006=
KAOO 080853Z AUTO 00000KT 4SM BR CLR 19/17 A3010 RMK AO2 SLP181
     T01890167 53000=
KARA 080853Z AUTO 08005KT 8SM CLR 24/24 A2999 RMK AO2 SLP154
     T02440239 58005=
KASD 080853Z AUTO 00000KT 9SM CLR 25/24 A3000 RMK AO2 SLP157
     T02500239 56007=
KAWM 080853Z AUTO 00000KT 10SM CLR 23/22 A3005 RMK AO2 SLP170
     T02330222 53001=
KBFD 080853Z AUTO 00000KT 5SM BR CLR 16/16 A3014 RMK AO2 SLP189
     T01610156 56003=
####018003719####
SAUS70 KWBC 080900 RRD
METAR
KASX 080853Z AUTO 00000KT 10SM BKN060 16/16 A3002 RMK AO2 SLP164
     T01610156 53001=
KATY 080853Z AUTO 23007KT 10SM CLR 16/13 A3014 RMK AO2 SLP203
     T01560133 51003=
KAUG 080853Z AUTO 00000KT 7SM OVC007 21/19 A3008 RMK AO2 SLP183
     T02060194 53001=
KAXN 080853Z AUTO 22005KT 10SM CLR 16/14 A3011 RMK AO2 SLP196
     T01560144 55000=
KAZO 080853Z AUTO 00000KT 5SM BR CLR 23/21 A3004 RMK AO2 SLP165
     T02280206 56008 $=
KBAF 080853Z 17003KT 9SM SCT075 OVC110 24/21 A3003 RMK AO2 SLP165
     T02390211 53001=
KBBW 080853Z AUTO 00000KT 10SM OVC070 17/16 A3022 RMK AO2 SLP220
     T01670161 55002=
KBCE 080853Z AUTO 26004KT 10SM OVC100 10/02 A3031 RMK AO2 SLP152
     T01000022 53004 TSNO=
KBDE 080853Z AUTO 00000KT 10SM CLR 15/13 A2999 RMK AO2 SLP154
     T01500128 55005=
KBEH 080853Z AUTO 00000KT 5SM BR FEW055 23/22 A3004 RMK AO2 SLP166
     T02330222 53001 $=
KBFI 080853Z 00000KT 10SM CLR 21/12 A2994 RMK AO2 SLP138 T02110117
     51007=
KBGM 080853Z AUTO 03003KT 5SM HZ CLR 22/18 A3012 RMK AO2 SLP183
     T02220183 53001=
KBGR 080853Z 19006KT 3SM BR OVC003 20/19 A3007 RMK AO2 RAE08
     SLP178 P0000 60004 T02000194 55001=
PATA 080852Z AUTO 00000KT 10SM CLR 13/07 A3005 RMK AO2 SLP177
     T01330067 402280050 51005 TSNO=
PAWR 080848Z 15005KT 8SM -RA OVC030 12/11 A3007 RMK SLP183
     NOSPECI=
PHJR 080853Z 06003KT 10SM FEW055 23/18 A3006 RMK AO2 SLP184
     T02330183 53009=
KBHK 080853Z AUTO 00000KT 10SM SCT090 11/08 A3021 RMK AO2 SLP219
     T01110083 50001=
KBIV 080853Z AUTO 00000KT 7SM FEW001 SCT044 BKN110 24/22 A3005 RMK
     AO2 RAE04B32E51 SLP169 P0008 60017 T02390222 51001=
KBKL 080853Z 16003KT 7SM CLR 25/19 A3004 RMK AO2 SLP168 T02500189
     56003=
KBMG 080853Z AUTO 00000KT 5SM BR CLR 22/21 A3005 RMK AO2 SLP167
     T02170211 56006=
KBOI 080853Z 12005KT 10SM CLR 20/07 A3005 RMK AO2 SLP145 T02000067
     53008=
KBPI 080853Z AUTO 29004KT 10SM CLR 08/02 A3039 RMK AO2 SLP214
     T00830022 53009=
KBRD 080853Z AUTO 20004KT 10SM CLR 14/12 A3007 RMK AO2 SLP181
     T01440122 58001=
KBRL 080853Z AUTO 10SM FEW001 22/22 A3002 RMK AO2 SLP158 T02220217
     56004 $=
KBTL 080853Z AUTO 00000KT 9SM FEW060 23/21 A3005 RMK AO2 SLP168
     T02280206 55006=
KBTM 080853Z AUTO 00000KT 10SM CLR 07/01 A3031 RMK AO2 SLP229
     T00720011 53004=
KBUR 080853Z 17003KT 8SM OVC009 16/13 A2991 RMK AO2 SLP117
     T01560128 58002=
KBVO 080853Z AUTO 00000KT 10SM BKN050 BKN085 22/22 A3004 RMK AO2
     SLP160 T02220217 55007=
KBVY 080853Z 16004KT 9SM OVC013 22/20 A3006 RMK AO2 SLP173 6////
     T02220200 53003 PNO=
KBYG 080853Z AUTO 00000KT 10SM CLR 12/04 A3031 RMK AO2 SLP227
     T01220044 58001=
KBYI 080853Z AUTO 02007KT 10SM CLR 11/03 A3012 RMK AO2 SLP165
     T01110033 53008=
KCAG 080853Z AUTO 06012KT 10SM CLR 13/07 A3029 RMK AO2 SLP185
     T01280067 50000=
KCDC 080853Z AUTO 20003KT 10SM CLR 14/00 A3013 RMK AO2 SLP125
     T01390000 51001 $=
KCDW 080853Z AUTO 00000KT 6SM HZ CLR 24/21 A3002 RMK AO2 SLP170
     T02390211 53000 TSNO=
KCEZ 080853Z AUTO 00000KT 10SM CLR 19/06 A3022 RMK AO2 SLP145
     T01890056 53013=
KCGI 080853Z AUTO 00000KT 8SM CLR 24/23 A3003 RMK AO2 SLP163
     T02440233 56005 TSNO=
KCKB 080853Z AUTO 00000KT 3SM BR CLR 19/18 A3009 RMK AO2 SLP172
     T01940183 56004=
KCMI 080853Z AUTO 00000KT 5SM BR FEW050 SCT075 BKN110 23/22 A3004
     RMK AO2 RAB21E32 SLP163 P0000 60000 T02330222 56007=
KCMX 080853Z AUTO 32004KT 9SM FEW002 SCT016 BKN060 18/18 A2998 RMK
     AO2 SLP147 T01830178 50001=
KCNO 080853Z 27005KT 4SM BR FEW013 14/12 A2992 RMK AO2 SLP127
     T01390117 58001=
####018003713####
SAUS80 KWBC 080900
METAR
K9V9 080852Z AUTO 25004KT 17/13 A3019 RMK AO2 SLP214 T01670133
     53003 PWINO TSNO=
KDRT 080853Z AUTO 08003KT 10SM CLR 24/22 A2993 RMK AO2 SLP117
     T02390222 55002=
KFMN 080853Z AUTO 07010KT 10SM CLR 21/06 A3019 RMK AO2 SLP155
     T02060056 51003=
KGEG 080853Z 00000KT 10SM CLR 18/08 A3007 RMK AO2 SLP164 T01780083
     53004=
KCLL 080853Z 06005KT 10SM CLR 26/23 A2995 RMK AO2 SLP136 T02560228
     58004=
KYKM 080853Z AUTO 28007KT 10SM CLR 14/07 A3000 RMK AO2 SLP154
     T01440072 51008=
KHSV 080853Z 00000KT 10SM CLR 24/23 A3005 RMK AO2 SLP167 T02440228
     56005=
KJBR 080853Z AUTO 00000KT 10SM CLR 25/23 A3004 RMK AO2 SLP170
     T02500228 50000 $=
KLIT 080853Z 00000KT 7SM CLR BKN150 24/23 A3005 RMK AO2 SLP175
     T02440228 50004=
KPDX 080853Z 00000KT 10SM CLR 21/15 A2988 RMK AO2 SLP117 T02060150
     51009=
KRMG 080853Z AUTO 00000KT 9SM CLR 21/19 A3003 RMK AO2 SLP159
     T02110189 56003=
KSAT 080853Z 06005KT 7SM -RA BKN014 BKN040 BKN250 26/23 A2995 RMK
     AO2 RAB44 SLP122 P0000 60000 T02560233 55005=
KSOW 080850Z AUTO 07005KT 10SM FEW039 SCT100 23/02 A3024 RMK
     AO2=
KTUS 080853Z 23006KT 10SM CLR 31/07 A2988 RMK AO2 SLP060 T03060072
     53000=
KSAN 080851Z 32006KT 9SM FEW010 OVC015 16/14 A2991 RMK AO2 SLP128
     T01610144 58006=
K6R6 080853Z AUTO 03006KT 23/21 A3000 RMK AO2 SLP121 T02280206
     56002 PWINO TSNO=
KP69 080852Z AUTO 00000KT 13/11 A3010 RMK AO2 SLP172 T01280106
     51018 PWINO TSNO $=
KRNM 080853Z AUTO 00000KT 6SM BR OVC004 14/13 A2990 RMK AO2 SLP114
     T01440128 58007 TSNO=
KABI 080852Z 12005KT 10SM CLR 22/21 A3004 RMK AO2 SLP143 T02170211
     55005 $=
KBFF 080853Z AUTO 00000KT 10SM OVC085 16/14 A3029 RMK AO2 SLP230
     T01560139 55001=
KBIL 080853Z 00000KT 10SM CLR 16/06 A3023 RMK AO2 SLP215 T01560056
     53002=
KCAK 080851Z 00000KT 8SM CLR 22/17 A3009 RMK AO2 SLP177 T02220172
     56005=
KCDR 080853Z AUTO 27004KT 10SM CLR 10/09 A3027 RMK AO2 SLP247
     T01000089 50003=
KCNY 080853Z AUTO 05009KT 10SM CLR 22/04 A3010 RMK AO2 WSHFT 0801
     SLP126 T02220044 53014=
PHTO 080853Z AUTO 16005KT 8SM RA SCT025 BKN038 22/19 A3006 RMK AO2
     RAB45 SLP177 P0001 60001 T02170194 51013 TSNO=
PHKO 080853Z AUTO 17006KT 10SM CLR 24/16 A2999 RMK AO2 SLP156
     T02440161 51006 TSNO=
PHLI 080853Z 07012KT 10SM FEW016 BKN050 OVC065 24/19 A3007 RMK AO2
     SLP180 60000 T02430187 51009 $=
KEMP 080853Z AUTO 04004KT 6SM BR OVC005 22/21 A3007 RMK AO2 SLP174
     T02170206 58002=
KFAT 080853Z 31007KT 10SM CLR 23/08 A2981 RMK AO2 SLP092 T02280083
     50002=
KFNB 080853Z AUTO 34003KT 9SM BKN023 BKN035 22/21 A3008 RMK AO2
     SLP176 T02220206 55001=
KFNT 080853Z AUTO 00000KT 8SM CLR 23/21 A3003 RMK AO2 SLP161
     T02280206 56009=
KGCC 080853Z AUTO 00000KT 10SM CLR 11/07 A3028 RMK AO2 SLP227
     T01060067 58000=
KCRP 080851Z 03013G19KT 3SM +TSRA BR FEW010 BKN018CB OVC047 26/25
     A2983 RMK AO2 TSB16 SLP098 OCNL LTGIC NW-N TS NW-N MOV W
     P0006 60020 T02610250 56015=
KCRQ 080853Z AUTO 27003KT 9SM OVC009 17/14 A2989 RMK AO2 CIG
     006V011 SLP121 T01670139 58006=
KDAL 080853Z 16007KT 10SM FEW014 OVC230 26/23 A2999 RMK AO2 SLP147
     T02610228 58002=
KDBQ 080853Z AUTO 00000KT 7SM CLR 20/19 A3003 RMK AO2 SLP163 60000
     T02000194 55008=
KDMN 080853Z AUTO 05012G19KT 10SM -RA SCT060 21/13 A3012 RMK AO2
     RAB14 SLP115 P0000 60000 T02110133 50007=
KGRR 080853Z AUTO 00000KT 5SM BR BKN070 OVC085 24/22 A3004 RMK AO2
     RAE49 SLP164 P0016 60027 T02390217 50000=
KHLC 080853Z AUTO 36007KT 10SM OVC024 18/16 A3020 RMK AO2 SLP210
     T01780161 51006=
####018003690####
SAUS70 KWBC 080900 RRI
METAR
KPIH 080853Z AUTO 22006KT 10SM CLR 10/01 A3016 RMK AO2 SLP174
     T01000011 53007=
KPIR 080853Z AUTO 21005KT 10SM CLR 14/13 A3016 RMK AO2 SLP206
     T01440128 53006=
KPKB 080853Z AUTO 00000KT 3SM BR CLR 21/19 A3010 RMK AO2 SLP182
     T02060194 57001 TSNO=
KPKD 080853Z AUTO 22003KT 10SM CLR 14/13 A3007 RMK AO2 SLP182
     T01390128 55001=
KPMD 080853Z AUTO 19006KT 10SM CLR 18/04 A2990 RMK AO2 SLP096
     T01830044 51000 TSNO $=
KPMP 080853Z AUTO 07006KT 10SM SCT021 SCT034 28/24 A2992 RMK AO2
     SLP133 T02780244 56011=
KPNC 080853Z AUTO 04003KT 9SM FEW038 BKN060 22/22 A3005 RMK AO2
     SLP162 T02220217 55007=
KPNS 080853Z AUTO 00000KT 7SM CLR 24/23 A3001 RMK AO2 SLP164
     T02390233 55006=
KPOU 080853Z 00000KT 6SM BR CLR 23/21 A3001 RMK AO2 SLP156
     T02280211 55001=
KPRC 080853Z AUTO 20004KT 10SM CLR 19/04 A3009 RMK AO2 RAB0754E04
     SLP095 P0000 60000 T01940039 53003=
KPSP 080853Z 30004KT 10SM CLR 27/10 A2973 RMK AO2 SLP061 T02670100
     50006=
KPTK 080853Z 00000KT 7SM SCT250 24/22 A3003 RMK AO2 SLP159
     T02390217 56008=
KPUB 080853Z AUTO 00000KT 10SM BKN038 OVC050 16/13 A3034 RMK AO2
     SLP218 T01560133 50004=
KPUC 080853Z AUTO 31004KT 10SM CLR 16/02 A3021 RMK AO2 SLP145
     T01610022 53008 TSNO=
KPUW 080853Z AUTO 00000KT 10SM CLR 10/07 A3007 RMK AO2 SLP173
     T01000067 53003=
KPWA 080853Z 01005KT 8SM CLR 23/21 A3005 RMK AO2 SLP159 T02280211
     53002=
KRAC 080853Z AUTO 18003KT 7SM -RA BKN070 OVC085 23/22 A3002 RMK
     AO2 SLP161 P0001 60003 T02330217 58007=
KRAL 080853Z AUTO 27003KT 5SM BR CLR 14/12 A2991 RMK AO2 SLP115
     T01440122 58000=
KRBD 080853Z 15004KT 10SM OVC012 25/23 A3000 RMK AO2 SLP147
     T02500228 50000=
KRBG 080853Z AUTO 00000KT 10SM CLR 19/13 A2991 RMK AO2 SLP124
     T01940128 51015=
KRHI 080853Z AUTO 28003KT 10SM CLR 18/18 A3002 RMK AO2 SLP160
     T01830178 50001=
KRSL 080853Z AUTO 36007KT 10SM OVC016 19/18 A3015 RMK AO2 SLP195
     T01940183 53002=
KRSW 080853Z 04004KT 10SM CLR 24/22 A2995 RMK AO2 SLP139 T02390222
     56014=
KRVS 080853Z 07004KT 2SM +RA BR OVC015 23/23 A3001 RMK AO2 LTG
     DSNT ALQDS TSE42 SLP164 P0062 60168 T02280228 58003=
KRWF 080853Z AUTO 30005KT 10SM CLR 16/14 A3011 RMK AO2 SLP193
     T01560144 50002=
KRWL 080853Z AUTO 05007KT 7SM CLR 08/07 A3037 RMK AO2 SLP223
     T00780072 53002=
KRXE 080853Z AUTO 07006KT 10SM CLR 10/06 A3020 RMK AO2 SLP192
     T01000056 53004=
KTPA 080853Z 00000KT 10SM CLR 24/21 A2998 RMK AO2 SLP150 T02440211
     58013 $=
KTRL 080853Z AUTO 12005KT 10SM OVC014 26/23 A3001 RMK AO2 SLP153
     T02610228 53000=
KTTN 080853Z AUTO 00000KT 5SM HZ CLR 24/21 A3001 RMK AO2 SLP154
     T02440211 58000 PWINO=
KTUL 080853Z 35004KT 6SM -TSRA BR SCT008 BKN060 OVC075 23/22 A3000
     RMK AO2 SLP152 OCNL LTGIC W-OHD-E TS W-OHD-E MOV N P0017
     60048 T02280222 55005=
KTVC 080853Z AUTO 19003KT 10SM BKN120 23/19 A2997 RMK AO2 SLP143
     T02330194 58012=
KTWF 080853Z AUTO 00000KT 10SM CLR 13/M03 A3012 RMK AO2 SLP148
     T01281028 53007=
KUAO 080853Z AUTO 36003KT 10SM CLR 22/11 A2987 RMK AO2 SLP113
     T02220111 53009=
KUNO 080853Z AUTO 00000KT 10SM CLR 23/21 A3007 RMK AO2 SLP168
     T02330211 58001 TSNO=
KUUU 080853Z AUTO 14004KT 1/2SM FG VV001 21/21 A3007 RMK AO2
     SLP181 T02060206 53004=
KVEL 080853Z AUTO 31006KT 10SM CLR 17/06 A3021 RMK AO2 SLP168
     T01720056 53005=
KVGT 080853Z AUTO 33004KT 10SM CLR 27/M04 A2984 RMK AO2 SLP065
     T02671039 52006 TSNO=
KVIH 080853Z AUTO 00000KT 9SM BKN035 BKN110 23/21 A3004 RMK AO2
     SLP161 T02280211 55002=
####018003711####
SAUS70 KWBC 080900 RRK
METAR
KGBD 080855Z AUTO 02006KT 10SM OVC011 19/18 A3016 RMK AO1
     52003=
KGCK 080854Z AUTO 04009KT 10SM FEW043 SCT070 18/17 A3020 RMK AO2
     SLP200 T01780167 53002=
KGTR 080855Z 30005KT 10SM CLR 24/23 A3004 RMK AO1 54000=
KHEF 080855Z AUTO 00000KT 7SM CLR 23/20 A2999 RMK AO1 57003=
KHEZ 080855Z AUTO 00000KT 5SM CLR 22/22 A3003 RMK AO1 57003=
KHNB 080855Z AUTO 00000KT 10SM BKN095 23/21 A3005 RMK AO1
     57007=
KHWD 080854Z AUTO 31006KT 10SM OVC009 14/11 A2992 RMK AO2 SLP141
     T01390111 51000=
KHYS 080855Z AUTO 33008KT 10SM OVC014 19/17 A3017 RMK AO1
     54000=
KIMT 080854Z AUTO 34003KT 10SM BKN003 OVC008 20/19 A2997 RMK AO2
     SLP144 T02000194 56002=
KINT 080854Z AUTO 00000KT 10SM BKN095 24/17 A3002 RMK AO2 SLP151
     T02440172 55004=
KISW 080854Z AUTO 27004KT 10SM BKN005 20/20 A3001 RMK AO2 CIG
     004V008 SLP158 T02000200 53002 TSNO=
KIWD 080855Z AUTO 00000KT 6SM FEW110 16/15 A2999 RMK AO1 52003=
KJSV 080853Z AUTO 12004KT 10SM OVC026 23/22 A3003 RMK AO2 LTG DSNT
     W AND NW=
KKLS 080855Z AUTO 00000KT 10SM CLR 17/13 A2991 RMK AO1 52010=
KLAF 080854Z AUTO 00000KT 6SM BR FEW060 23/22 A3003 RMK AO2 SLP164
     T02280217 55003 TSNO=
KLBL 080855Z 06010KT 10SM BKN035 OVC042 19/17 A3021 RMK AO1 LTG
     DSNT S 52003=
KLGD 080855Z AUTO 00000KT 10SM CLR 13/06 A3005 RMK AO1 52014=
KLKV 080855Z AUTO 32008KT 10SM CLR 09/01 A3012 RMK AO1 52007=
KLNK 080854Z AUTO 34005KT 10SM CLR 18/17 A3015 RMK AO2 SLP201
     T01830172 53005=
KMER 080855Z AUTO 31006KT 10SM CLR 18/11 A2983 RMK AO1=
KMFI 080854Z AUTO 31006KT 10SM CLR 19/18 A3001 RMK AO2 SLP155
     T01890183 55003=
KMKC 080854Z 32003KT 10SM CLR 23/21 A3004 RMK AO2 SLP165 T02280206
     58003=
KMKT 080855Z 31005KT 10SM CLR 17/16 A3009 RMK AO1 54000=
KMML 080855Z AUTO 25006KT 10SM CLR 15/12 A3013 RMK AO1 52003=
KMNI 080855Z AUTO 29003KT 10SM CLR 24/22 A2995 RMK AO2=
KTIF 080850Z AUTO 00000KT 10SM OVC090 16/15 A3025 RMK AO2
     T01570145=
KTKI 080853Z AUTO 17003KT 10SM CLR 26/23 A3000 RMK AO2 SLP153
     T02560228 54000=
KTQE 080854Z AUTO 34004KT 10SM CLR 19/18 A3013 RMK AO2 SLP191
     T01890178 53003=
KTRK 080850Z AUTO 21003KT 10SM CLR 12/08 A3016 RMK AO2=
KTVF 080855Z AUTO 26007KT 10SM CLR 14/11 A3003 RMK AO1 54000=
KUIN 080854Z AUTO 00000KT 10SM SCT034 SCT049 BKN060 23/22 A3002
     RMK AO2 RAE21 SLP161 P0005 60009 T02280222 58007=
KUTA 080855Z AUTO 00000KT 10SM SCT045 23/22 A3007 RMK AO2=
KUZA 080854Z AUTO 02003KT 10SM CLR 22/18 A3000 RMK AO2 SLP143
     T02220183 55006=
KVBT 080855Z AUTO 00000KT 10SM SCT026 23/21 A3003 RMK AO1 60001
     57003=
KWLD 080854Z AUTO 03005KT 10SM BKN100 22/21 A3007 RMK AO2 SLP173
     60001 T02220211 55006=
KX40 080855Z AUTO 00000KT 7SM CLR 22/22 A3000 RMK AO2
     T02240216=
KYKN 080855Z AUTO 32005KT 10SM CLR 17/15 A3016 RMK AO1 54000=
KMNM 080855Z AUTO 00000KT 7SM FEW011 BKN033 OVC120 21/19 A2997 RMK
     AO1 60001 57007=
KMOT 080854Z AUTO 21007KT 10SM CLR 14/12 A3008 RMK AO2 SLP183
     T01440117 50003 TSNO=
KMRF 080855Z AUTO 02005KT 10SM BKN120 16/13 A3016 RMK AO1
     57007=
KMTW 080855Z 17004KT 9SM FEW075 OVC110 21/20 A2997 RMK AO1
     57014=
KMVN 080855Z AUTO 00000KT 2SM CLR 22/20 A3005 RMK AO1 57003=
KOFP 080854Z AUTO 06003KT 6SM HZ CLR 24/19 A3000 RMK AO2 SLP156
     T02390194 53003=
KOLM 080854Z AUTO 00000KT 10SM CLR 15/12 A2994 RMK AO2 SLP138
     T01500117 53007=
KOLS 080854Z AUTO 00000KT 10SM SCT110 26/06 A2997 RMK AO2 SLP065
     T02610061 53004=
KOLU 080855Z AUTO 00000KT 10SM CLR 16/14 A3016 RMK AO1 57007=
KOTG 080855Z AUTO 27004KT 10SM CLR 14/13 A3014 RMK AO1 57003=
####018003708####
SAUS70 KWBC 080900 RRB
METAR
KMSY 080853Z 00000KT 10SM FEW016 SCT250 27/23 A3000 RMK AO2 SLP161
     T02670233 55002=
KNEW 080853Z AUTO 12003KT 10SM FEW015 27/25 A3000 RMK AO2 SLP152
     T02720250 55004 TSNO=
KOAK 080853Z 29009KT 10SM OVC011 15/11 A2994 RMK AO2 SLP137
     T01500111 50002=
KOGA 080850Z AUTO 00000KT 5SM BR CLR 16/15 A3027 RMK AO2
     T01550145=
KONL 080850Z AUTO 26003KT 10SM SCT090 OVC110 16/15 A3021 RMK AO2
     T01600145=
KOVE 080853Z AUTO 16010KT 10SM CLR 21/13 A2984 RMK AO2 SLP103
     T02110128 53008 TSNO=
KOXB 080853Z AUTO 08004KT 9SM -RA FEW090 BKN110 24/24 A2999 RMK
     AO2 RAB00E10B44 SLP154 P0000 60000 T02440239 56001 $=
KPAE 080853Z AUTO 02003KT 10SM CLR 20/12 A2997 RMK AO2 SLP145
     T02000117 53005=
KPAH 080853Z AUTO 00000KT 10SM CLR 23/22 A3003 RMK AO2 SLP165
     T02330217 56004=
KPBF 080853Z AUTO 00000KT 7SM CLR 24/23 A3005 RMK AO2 SLP171
     T02390228 57000=
KPDK 080853Z AUTO 00000KT 10SM CLR 22/19 A3004 RMK AO2 SLP149
     T02220189 58009=
KPDT 080853Z AUTO 16008KT 10SM CLR 18/08 A2997 RMK AO2 SLP130
     T01780078 53004=
KGSP 080853Z AUTO 00000KT 10SM CLR 24/19 A3001 RMK AO2 SLP146
     T02390189 56008=
KGUP 080853Z AUTO 09003KT 10SM BKN110 18/06 A3025 RMK AO2 SLP045
     T01830061 53004=
KGVL 080853Z AUTO 32004KT 10SM CLR 24/21 A3007 RMK AO2 SLP163
     T02390206 56010=
KGWO 080853Z AUTO 00000KT 10SM CLR 22/22 A3005 RMK AO2 SLP173
     T02220222 55001=
KHBG 080853Z AUTO 00000KT 8SM CLR 24/23 A3002 RMK AO2 SLP163
     T02390233 56009=
KHDE 080850Z AUTO 00000KT 10SM CLR 16/14 A3020 RMK AO2
     T01560141=
KHGR 080853Z AUTO 32004KT 7SM CLR 24/17 A3003 RMK AO2 SLP169
     T02440167 55000=
KHIO 080853Z AUTO 00000KT 10SM CLR 17/13 A2988 RMK AO2 SLP113
     T01670128 53008=
KHJH 080850Z AUTO 01004KT 10SM OVC023 19/18 A3015 RMK AO2
     T01930177=
KHKA 080853Z AUTO 23004KT 7SM CLR 26/22 A3005 RMK AO2 SLP173
     T02560222 50003=
KHKS 080853Z AUTO 00000KT 10SM CLR 24/23 A3005 RMK AO2 SLP165
     T02390228 55005=
KHKY 080853Z AUTO 34004KT 10SM CLR 23/17 A3004 RMK AO2 SLP146
     T02280167 55004 $=
KHLG 080853Z AUTO 00000KT 5SM HZ CLR 22/19 A3009 RMK AO2 SLP179
     T02170189 56004=
KHOT 080853Z AUTO 00000KT 10SM OVC010 24/23 A3005 RMK AO2 SLP168
     T02440228 50000=
KHOU 080853Z 10007KT 10SM FEW030 BKN130 BKN250 27/23 A2991 RMK AO2
     SLP131 60000 T02720233 58007=
KHQM 080853Z AUTO 00000KT 10SM 18/13 A2992 RMK AO2 SLP135
     T01830133 53011 $=
KHRI 080853Z AUTO 00000KT 10SM CLR 18/07 A2993 RMK AO2 SLP130
     T01780067 53007=
KHRO 080853Z AUTO 16003KT 4SM BR FEW090 22/21 A3006 RMK AO2 SLP163
     T02220211 58006=
KIAH 080853Z 05006KT 8SM FEW020 SCT035 BKN130 26/24 A2993 RMK AO2
     SLP134 T02560244 56006=
KIBM 080850Z AUTO 14003KT 10SM OVC018 13/12 A3032 RMK AO2
     T01250115=
KILM 080853Z AUTO 28005KT 10SM CLR 26/19 A2989 RMK AO2 SLP123
     T02560194 56012=
KJYR 080850Z AUTO 35003KT 10SM CLR 16/15 A3016 RMK AO2=
KL35 080852Z AUTO 00000KT 10SM CLR 07/M05 A3018 RMK AO2=
KLCG 080850Z AUTO 00000KT 10SM CLR 15/15 A3016 RMK AO2
     T01540145=
KLBX 080853Z AUTO 09006KT 10SM FEW029 BKN038 BKN050 28/24 A2988
     RMK AO2 RAE0754 SLP117 60001 T02780244 58011=
KLCH 080853Z AUTO 08006KT 10SM CLR 26/23 A2997 RMK AO2 SLP155
     T02560233 55004=
KLFK 080853Z AUTO 10005KT 10SM CLR 24/23 A2999 RMK AO2 SLP150
     T02440233 50002=
KLFT 080853Z AUTO 07003KT 10SM CLR 25/23 A2999 RMK AO2 SLP153
     T02500233 58006=
KLHM 080851Z AUTO 16008KT 10SM CLR 18/11 A2982 RMK AO1
     T01770111=
KPNA 080850Z AUTO 30005KT 10SM CLR 06/02 A3039 RMK AO2
     T00620017=
####018003694####
SAUS70 KWBC 080900 RRG
METAR
KIML 080853Z AUTO 00000KT 10SM CLR 17/14 A3026 RMK AO2 SLP230
     T01670144 58003=
KIPL 080853Z AUTO 15004KT 10SM CLR 27/08 A2968 RMK AO2 SLP050
     T02720083 52004=
KITR 080853Z AUTO 03004KT 10SM FEW005 OVC030 17/15 A3029 RMK AO2
     SLP217 T01670150 58004=
KIWI 080853Z AUTO 00000KT 9SM BKN003 OVC007 20/19 A3009 RMK AO2
     SLP187 T02000189 52002=
KIXD 080853Z AUTO 33008KT 7SM OVC004 22/21 A3007 RMK AO2 SLP171
     T02220206 58001=
KJCT 080851Z AUTO 00000KT 9SM SCT017 SCT025 22/21 A3001 RMK AO2
     SLP122 60000 T02220211 55004 TSNO=
KJEF 080853Z AUTO 31003KT 10SM -RA FEW005 SCT041 SCT070 24/23
     A3002 RMK AO2 SLP151 P0001 60020 T02390228 58006=
KJER 080853Z AUTO 05012KT 10SM CLR 16/M03 A3012 RMK AO2 SLP162
     T01561033 53006=
KJKL 080853Z AUTO 00000KT 5SM HZ CLR 23/19 A3010 RMK AO2 SLP174
     T02280194 56006=
KLAA 080853Z AUTO 05003KT 10SM FEW019 BKN029 OVC036 17/17 A3026
     RMK AO2 RAB22E40 SLP203 P0000 60001 T01720167 51005=
KLAR 080853Z AUTO 29004KT 7SM FEW003 SCT017 08/07 A3039 RMK AO2
     SLP218 T00780072 53003=
KLAW 080853Z AUTO 02006KT 10SM CLR 23/22 A3003 RMK AO2 SLP158
     T02330222 53002=
KLBF 080853Z AUTO 00000KT 10SM BKN065 OVC080 17/16 A3024 RMK AO2
     SLP225 T01670156 58001=
KLEB 080853Z AUTO 00000KT 1SM BR VV001 21/19 A3005 RMK AO2 SLP160
     T02110194 53002=
KLEE 080853Z AUTO 04004KT 10SM CLR 22/21 A3000 RMK AO2 SLP159
     T02220211 55008=
KLGB 080853Z 33003KT 10SM OVC017 17/13 A2991 RMK AO2 SLP127
     T01720128 58002=
KLHQ 080853Z AUTO 00000KT 2SM BR CLR 19/19 A3008 RMK AO2 SLP178
     T01940189 57001=
KLHX 080853Z AUTO 33007KT 10SM -RA BKN041 OVC080 16/14 A3029 RMK
     AO2 SLP211 6//// T01560139 57005 PNO $=
KLNS 080853Z AUTO 00000KT 5SM HZ CLR 24/21 A3002 RMK AO2 SLP160
     T02390206 55002=
KLOL 080853Z AUTO 06010KT 10SM CLR 23/M04 A2998 RMK AO2 SLP102
     T02331044 53008=
KLOU 080853Z AUTO 00000KT 6SM HZ CLR 24/21 A3005 RMK AO2 SLP169
     T02440211 56005=
KLOZ 080853Z AUTO 00000KT 3SM BR CLR 20/19 A3009 RMK AO2 SLP175
     T02000189 56006=
KSGR 080853Z AUTO 07006KT 10SM CLR 26/23 A2990 RMK AO2 SLP133
     T02610233 56008 TSNO=
KMSY 080853Z 00000KT 10SM FEW016 SCT250 27/23 A3000 RMK AO2 SLP161
     T02670233 55002=
KMSP 080853Z 29003KT 10SM FEW090 18/17 A3007 RMK AO2 SLP179
     T01830167 52002=
KMSS 080853Z AUTO 22003KT 6SM BR CLR 23/21 A3001 RMK AO2 SLP157
     T02280206 53001=
KMTH 080853Z AUTO 36005KT 10SM BKN021 BKN036 A2991 RMK AO2 LTG
     DSNT SW SLP129 55007 FZRANO $=
KMTJ 080853Z AUTO 12004KT 10SM CLR 16/06 A3027 RMK AO2 SLP175
     T01610056 53007=
KMTO 080853Z AUTO 21003KT 10SM SCT120 25/23 A3003 RMK AO2 SLP162
     T02500228 56006=
KMVY 080853Z AUTO 14008KT 1/4SM R24/2000V2800FT FG VV001 21/19
     A3007 RMK AO2 SLP181 T02110194 53002=
KMYF 080853Z AUTO 33006KT 10SM OVC015 16/14 A2990 RMK AO2 SLP122
     T01610139 58007 TSNO=
KMYV 080853Z AUTO 17006KT 10SM CLR 18/12 A2982 RMK AO2 SLP101
     T01780117 53007=
KOGB 080853Z AUTO 32005KT 10SM CLR 24/19 A2998 RMK AO2 SLP148
     T02440189 56009=
KOGD 080853Z 17008KT 10SM CLR 20/06 A3009 RMK AO2 SLP131 T02000061
     53008=
KOJC 080853Z AUTO 34007KT 6SM BR OVC004 23/22 A3005 RMK AO2 SLP164
     T02280222 58004=
KOLF 080853Z AUTO 27003KT 10SM CLR 10/08 A3014 RMK AO2 SLP203
     T01000083 56002=
KOMK 080853Z AUTO 00000KT 10SM CLR 14/08 A3005 RMK AO2 SLP170
     T01390078 53009=
KONO 080853Z AUTO 25003KT 10SM CLR 13/06 A3003 RMK AO2 SLP159
     T01330061 53008=
KONT 080853Z 24004KT 6SM BR OVC010 15/13 A2990 RMK AO2 SLP116
     T01500128 58002=
####018002984####
SAUS70 KWBC 080900 RRM
METAR
KEHR 080855Z AUTO 00000KT 10SM FEW090 23/19 A3005 RMK AO1
     57007=
KENV 080855Z 01011G15KT 10SM CLR 23/M02 A3008 RMK AO1 52003=
KESC 080855Z AUTO 00000KT 4SM FEW049 SCT060 BKN110 19/16 A2995 RMK
     AO1 57007=
KEUG 080854Z 19009KT 10SM CLR 14/11 A2991 RMK AO2 SLP127 T01440106
     53016=
KEUL 080855Z AUTO 12006KT 10SM CLR 13/07 A3005 RMK AO1 52007=
KEWK 080855Z AUTO 32006KT 10SM BKN050 21/19 A3007 RMK AO1
     57003=
KTOI 080853Z AUTO 00000KT 10SM FEW070 22/22 A3003 RMK AO2 SLP163
     T02220217 56006=
TJPS 080850Z 05005KT 8/SM FEW030 24/23 A2997 RMK HZ ALQDS=
PAPB 080853Z AUTO 09018KT 10SM FEW022 OVC042 08/06 A2991 RMK AO2
     SLP116 T00780061 401060067 50003 TSNO=
PASC 080853Z 22013KT 10SM BKN036 BKN070 OVC210 11/07 A3000 RMK AO2
     SLP161 T01060072 401060050 55004=
PASI 080853Z 00000KT 10SM CLR 13/12 A3018 RMK AO2 SLP218 T01330117
     401610106 58001=
PASO 080853Z AUTO 00000KT 10SM SCT055 OVC070 11/10 A2989 RMK AO2
     SLP121 60000 T01060100 401280083 55002 TSNO=
PATO 080853Z AUTO 13010G26KT 5SM -RA BR SCT025 BKN031 OVC046 12/11
     A3001 RMK AO2 PK WND 13039/0838 SLP163 P0011 60062 T01220111
     401330078 56006 TSNO=
PAWD 080853Z AUTO 00000KT 10SM BKN003 OVC010 11/10 A2998 RMK AO2
     RAE00 SLP151 P0000 60010 T01060100 401280083 50001 TSNO=
PAAQ 080853Z AUTO 00000KT 10SM -RA FEW075 BKN090 13/09 A3002 RMK
     AO2 RAB42 SLP161 P0000 60000 T01280089 401830089 56007
     TSNO=
PABR 080853Z 26014KT 10SM BKN200 06/03 A3000 RMK AO2 SLP158
     T00560028 400610006 53004 $=
PACV 080853Z 10009KT 10SM -RA BKN055 OVC085 16/10 A3008 RMK AO2
     RAE0756B19E29B46 SLP186 P0000 60001 T01610100 401720100
     56008=
PADE 080853Z AUTO 22005KT 10SM CLR 07/04 A3014 RMK AO2 SLP207
     T00720039 401440067 51003 TSNO=
PAEG 080853Z AUTO 00000KT 10SM CLR 07/04 A3002 RMK AO2 SLP167
     T00720044 402440039 52013 TSNO=
PAEN 080853Z AUTO 02010KT 10SM FEW060 OVC080 14/11 A2997 RMK AO2
     SLP149 60000 T01390111 401830089 58001 TSNO=
PAGK 080853Z AUTO 06003KT 10SM BKN075 08/06 A3008 RMK AO2 SLP192
     T00830061 401940056 53001 TSNO=
PAGY 080853Z AUTO 00000KT 10SM CLR 11/10 A3021 RMK AO2 SLP228
     T01060100 401830106 58002 TSNO=
PAIL 080853Z AUTO 04006KT 10SM SCT075 10/08 A2993 RMK AO2 SLP138
     T01000083 401220083 53002 TSNO=
PAKT 080853Z AUTO 31004KT 10SM CLR 18/12 A3008 RMK AO2 SLP184
     T01780117 402440144 50002 TSNO=
PAKV 080853Z AUTO 00000KT 10SM CLR 12/06 A3009 RMK AO2 RAB06E15
     SLP193 P0000 60000 T01170061 402220044 51003 TSNO=
PAKW 080853Z AUTO 20003KT 10SM CLR 12/10 A3013 RMK AO2 SLP202
     T01170100 402110111 53005 TSNO=
PALH 080853Z 00000KT 10SM FEW070 OVC085 14/11 A3001 RMK AO2 RAE52
     SLP163 P0001 60001 T01390111 401830128 58006=
PAMR 080853Z 00000KT 10SM FEW055 BKN080 BKN100 13/11 A3000 RMK AO2
     RAB21E35 SLP160 VIRGA E-S P0000 60000 T01330106 401890122
     58003=
####018003705####
SAUS70 KWBC 080900 RRL
METAR
KOTH 080855Z 25003KT 10SM OVC008 11/08 A3000 RMK AO1 54000=
KPHF 080854Z 09004KT 4SM BR SCT080 25/24 A2996 RMK AO2 RAB0756E09
     SLP144 P0000 60000 T02500244 56001=
KPIB 080855Z AUTO 00000KT 8SM CLR 23/21 A3003 RMK AO1 57010=
KPIL 080853Z AUTO VRB03KT 10SM FEW041 SCT055 BKN090 29/25 A2977
     RMK AO2 LTG DSNT NW SLP080 60000 T02890250 56019 $=
KPLN 080854Z AUTO 00000KT 10SM OVC110 21/21 A2997 RMK AO2 SLP144
     60000 T02110206 56012=
KPTN 080855Z AUTO 07003KT 10SM CLR 24/M09 A3001 RMK AO1 57003=
KPVU 080855Z 12003KT 10SM CLR 18/09 A3012 RMK AO1 52010=
KPWT 080855Z AUTO 03007KT 10SM CLR 23/06 A2997 RMK AO1 52003=
KRBL 080854Z AUTO 33004KT 10SM CLR 23/17 A2983 RMK AO2 SLP095
     T02330172 52008=
KRKR 080855Z AUTO 18005KT 10SM SCT029 BKN035 BKN043 27/25 A3002
     RMK AO2=
KRKS 080854Z AUTO 08012KT 10SM CLR 10/06 A3033 RMK AO2 SLP205
     T01000056 53002=
KRST 080854Z AUTO 31005KT 9SM CLR 18/18 A3007 RMK AO2 SLP178
     T01830178 53002=
KSET 080854Z AUTO 04004KT 4SM -RA BR FEW010 SCT019 BKN030 25/24
     A3000 RMK AO2 RAB34 SLP153 P0002 60002 T02500244 58007=
KSGT 080855Z 00000KT 10SM CLR A3004 RMK AO1 54000=
KSGU 080855Z AUTO 08003KT 10SM CLR 27/01 A2994 RMK AO1 52010=
KSKX 080855Z AUTO 35003KT 10SM CLR 11/03 A3038 RMK AO1 57003=
KSLG 080855Z AUTO 17008KT 10SM FEW080 23/21 A3006 RMK AO1
     57003=
KSMN 080855Z AUTO 00000KT 10SM CLR 09/01 A3022 RMK AO1 52017=
KSPA 080855Z AUTO 00000KT 10SM CLR 22/22 A3000 RMK AO2=
KSPL 080855Z AUTO 05006KT 29/25 A2976 RMK AO2 PWINO PNO=
KSQI 080855Z 00000KT 5SM BKN050 OVC065 22/21 A3003 RMK AO1 60002
     57010=
KSUE 080855Z AUTO 00000KT 5SM BKN120 21/20 A2996 RMK AO1 P0002
     60003 57010=
KAAO 080854Z AUTO 00000KT 10SM CLR 21/19 A3008 RMK AO2 SLP173
     T02110194 56005=
KAEG 080855Z AUTO 15005KT 10SM CLR 17/08 A3027 RMK AO1=
KAIZ 080855Z AUTO 00000KT 10SM FEW026 BKN039 OVC050 22/21 A3005
     RMK AO1 60013 57007=
KAKH 080854Z AUTO 36003KT 10SM CLR 23/17 A3000 RMK AO2 SLP149
     T02330172 56006=
KALO 080854Z AUTO 30006KT 9SM CLR 19/19 A3003 RMK AO2 SLP165
     T01940189 56005=
KAPC 080854Z AUTO 27010KT 10SM BKN010 12/11 A2991 RMK AO2 SLP119
     T01170106 53001=
KARG 080855Z AUTO 19005KT 10SM SCT110 24/22 A3005 RMK AO1
     52003=
KAUO 080855Z AUTO 00000KT 10SM CLR 26/21 A3003 RMK AO1 57007=
KAUS 080853Z 05005KT 10SM BKN016 BKN021 OVC033 26/23 A2995 RMK AO2
     SLP129 T02610233 55004=
KAUW 080854Z AUTO 30005KT 10SM BKN004 19/19 A2999 RMK AO2 SLP152
     60001 T01940189 58000 $=
KAVL 080854Z AUTO 00000KT 10SM CLR 18/18 A3013 RMK AO2 SLP172
     T01830178 58003=
KAWO 080855Z AUTO 00000KT 10SM CLR 15/13 A2997 RMK AO1 52007=
KBKX 080855Z AUTO 25004KT 10SM CLR 14/13 A3016 RMK AO1 52003=
KBOW 080855Z AUTO 00000KT 10SM CLR 21/21 A2999 RMK AO2=
KBVX 080855Z AUTO 24004KT 10SM CLR 24/22 A3005 RMK AO1=
KBWI 080854Z 06003KT 6SM HZ SCT080 SCT200 27/22 A2999 RMK AO2
     SLP154 T02670222 53002=
KCEU 080854Z AUTO 00000KT 10SM CLR 24/22 A3003 RMK AO2 SLP155
     T02440217 58007=
KCGC 080855Z AUTO 00000KT 10SM CLR 21/21 A2998 RMK=
KCIU 080855Z AUTO 21005KT 7SM OVC120 19/18 A2995 RMK AO1 60001
     57020=
KCOE 080855Z AUTO 04012KT 10SM CLR 16/08 A3009 RMK AO1 52007=
KCVN 080855Z AUTO 03008KT 9SM SCT110 17/14 A3021 RMK AO1 57007=
KCVO 080855Z AUTO 27016G19KT 10SM CLR 14/09 A2990 RMK AO1=
KCWI 080855Z 00000KT 3SM OVC004 A3002 RMK AO1 57010=
KDEC 080854Z AUTO 00000KT 10SM FEW075 25/22 A3003 RMK AO2 SLP163
     T02500222 56007=
KDYB 080855Z AUTO 00000KT 10SM CLR 22/20 A2996 RMK AO1=
KDYR 080855Z AUTO 24003KT 10SM CLR 24/20 A3006 RMK AO1 54000=
####018002624####
SAXX60 KWBC 080900
METAR
KNZY 080852Z 31006KT 8SM -DZ FEW010 OVC013 18/13 A2989 RMK AO2
     DZB51 SLP122 P0000 60000 T01780133 58006 $=
KNRB 080852Z AUTO 27003KT 10SM CLR 23/20 A2999 RMK AO2 SLP153
     T02280200 58011=
KBLV 080855Z AUTO 00000KT 10SM FEW060 24/24 A3002 RMK AO2 SLP163
     T02430242 56006=
KHMN 080855Z 34008KT 10SM BKN110 OVC140 21/14 A3013 RMK AO2A
     SLP122 T02070138 58005 $=
KLRF 080855Z AUTO 00000KT 10SM BKN200 BKN230 23/22 A3005 RMK AO2
     SLP174 T02290220 50005=
KMGE 080855Z AUTO 00000KT 10SM CLR 23/19 A3004 RMK AO2 SLP162
     T02280190 56009 $=
KNHK 080852Z AUTO 11004KT 4SM BR FEW011 26/24 A2998 RMK AO2 SLP151
     T02610239 53001=
KRDR 080855Z AUTO 23007KT 10SM CLR 14/13 A3004 RMK AO2 SLP181
     T01400128 56002 $=
PHNL 080853Z 03006KT 10SM FEW032 SCT050 24/18 A3005 RMK AO2
     RAB21E42 SLP174 P0000 60000 T02440183 53009=
KDTS 080853Z AUTO 00000KT 9SM CLR 24/23 A3000 RMK AO2 SLP158
     T02440233 56008=
KDNK 080853Z AUTO 11003KT 10SM CLR 24/22 A3000 RMK AO2 SLP156
     T02390217 53001=
KIAG 080853Z AUTO 21003KT 6SM BR CLR 23/21 A3004 RMK AO2 SLP163
     T02330211 55004=
KNIP 080853Z 25004KT 10SM CLR 23/21 A3000 RMK AO2 SLP153 T02280211
     58010=
KECG 080854Z AUTO 07006KT 8SM BKN110 26/24 A2994 RMK AO2 SLP138
     T02560239 56004=
KNQX 080853Z AUTO 05004KT 10SM TS CLR 28/25 A2992 RMK AO2 TSB42
     SLP129 T02830250 56004 $=
KCEF 080855Z AUTO 16005KT 10SM SCT100 24/22 A3003 RMK AO2 SLP170
     T02360217 53001 PWINO $=
KDTS 080853Z AUTO 00000KT 9SM CLR 24/23 A3000 RMK AO2 SLP158
     T02440233 56008=
KFHU 080855Z 14004KT 10SM FEW120 24/09 A3006 RMK SLP100 53003=
KGRF 080855Z AUTO 00000KT 10SM CLR 16/11 A2994 RMK AO2 SLP137
     60000 T01630111 52007 $=
KNFW 080852Z AUTO 13006KT 10SM CLR 26/22 A3003 RMK AO2 SLP152
     T02610222 55003=
KNZY 080852Z 31006KT 8SM -DZ FEW010 OVC013 18/13 A2989 RMK AO2
     DZB51 SLP122 P0000 60000 T01780133 58006 $=
KOZR 080855Z AUTO 00000KT 9SM R06/5500VP6000FT CLR 22/22 A3002 RMK
     AO2 SLP162 T02190219 55006=
KPOB 080855Z AUTO 00000KT 10SM CLR 24/20 A2994 RMK AO2 SLP137
     T02370196 55004 $=
PABI 080853Z AUTO 00000KT 10SM CLR 14/08 A3008 RMK AO2 SLP187
     T01390078 402110117 53003 TSNO=
KBKB 080854Z AUTO 00000KT 10SM CLR 24/23 A2998 RMK AO2 SLP177
     T02440228 55001=
KNKT 080854Z AUTO 04007KT 5SM HZ CLR 26/22 A2991 RMK AO2 SLP125
     T02610222 55006 $=
PATC 080855Z AUTO 01005KT 10SM CLR 09/06 A3016 RMK AO1
     T00940062=
PAEH 080855Z AUTO 00000KT 10SM OVC018 09/M28 A3001 RMK AO1
     T00941283=
####018000097####
SACS31 MROC 080900
METAR
MROC 080900Z 00000KT 3000 -RA BR FEW002 SCT005 BKN012 19/19 A3001=
####018000384####
SANO34 ENMI 080850
METAR ENBN 080850Z 02003KT 310V110 CAVOK 18/11 Q1010=
METAR ENBV 080850Z NIL=
METAR ENDI 080850Z NIL=
METAR ENFG 080850Z 17008KT 9999 VCSH FEW012 SCT017 BKN035 12/09
           Q1014=
METAR ENHF 080850Z 19009KT 9999 FEW036 SCT060 16/07 Q1013 =
METAR ENRA 080850Z 09004KT 9999 BKN070 21/10 Q1009=
METAR ENSH 080850Z 12003KT 9999 FEW040 BKN080 15/09 Q1010=
####018000402####
SANO37 ENMI 080850
METAR ENNO 080850Z 08010KT 050V110 9999 FEW012 SCT020 BKN090 16/14
           Q1014=
METAR ENOV 080850Z VRB06KT 9999 SCT055 SCT080 18/06 Q1009 =
METAR ENSD 080850Z NIL=
METAR ENSG 080850Z 23005KT 180V290 9999 SCT040 SCT060 14/10 Q1011=
METAR ENSN 080850Z 13004KT 9999 FEW012 BKN180 15/14 Q1015=
METAR ENSR 080850Z 16007KT 120V210 CAVOK 19/09 Q1011=
METAR ENSS 080850Z NIL=
####018000750####
SAIY31 LIIB 080850
METAR LIEA 080850Z 03004KT 300V110 CAVOK 29/21 Q1019=
METAR LIEE 080845Z 16005KT CAVOK 27/17 Q1019 NOSIG=
METAR LIEO 080850Z 03007KT 350V070 9999 FEW030 30/15 Q1020=
METAR LIMC 080850Z VRB03KT 9999 SCT050 BKN080 25/14 Q1022 NOSIG=
METAR LIME 080850Z 11005KT 060V180 9999 SCT055 25/15 Q1023=
METAR LIMF 080850Z 08003KT 9999 SCT030 SCT050 23/16 Q1023=
METAR LIMJ 080850Z 08006KT CAVOK 29/22 Q1020=
METAR LIML 080850Z 11007KT 9999 FEW080 26/17 Q1022 NOSIG=
METAR LIRA 080845Z 27003KT 9999 SCT018 28/21 Q1019=
METAR LIRF 080850Z 20009KT 150V230 9999 SCT020 29/18 Q1019 NOSIG=
METAR LIRN 080850Z 05009KT CAVOK 26/14 Q1018=
METAR LIRP 080845Z 10009KT CAVOK 28/15 Q1019 NOSIG=
METAR LIRQ 080850Z VRB03KT CAVOK 33/15 Q1020=
####018000307####
SANO38 ENMI 080850
METAR ENDR 080850Z NIL=
METAR ENEK 080850Z 23017KT 9999 FEW045 15/13 Q1015 W15/S3=
METAR ENGC 080850Z 19025KT CAVOK 13/11 Q1007=
METAR ENHE 080840Z 17027KT 9999 FEW040 SCT100 13/10 Q1008=
METAR ENOA 080850Z 19024KT CAVOK 13/11 Q1009=
METAR ENSL 080850Z 22025KT CAVOK 14/11 Q1011=
####018000092####
SPUS70 KWBC 080856
SPECI
KHYA 080854Z AUTO 00000KT 5SM BR OVC001 21/21 A3007 RMK AO2=
####018000190####
SAPQ50 KWBC 080900
METAR
PGWT 080852Z 10007KT 7SM FEW015 FEW040 SCT100 25/24 A2988=
PGUM 080854Z 09010KT 10SM FEW021 SCT027 SCT041 28/24 A2988 RMK AO2
     SLP110 T02830244 53010=
####018003661####
SAUS80 KWBC 080900 RRA
METAR
KHSI 080853Z AUTO 35005KT 10SM CLR 16/14 A3018 RMK AO2 SLP210
     T01560144 53000=
KHVR 080853Z AUTO 00000KT 10SM CLR 11/09 A3019 RMK AO2 SLP215
     T01060089 53002=
KFAR 080853Z 21003KT 10SM CLR 16/12 A3006 RMK AO2 SLP179 T01610117
     53002=
KLND 080853Z AUTO 27004KT 10SM CLR 11/03 A3032 RMK AO2 SLP222
     T01060028 53006=
KP92 080853Z AUTO 00000KT 26/24 A2997 RMK AO2 SLP149 T02560244
     56003 PWINO TSNO=
KJLN 080853Z 13004KT 2 1/2SM RA BR SCT005 SCT014 OVC026 23/23
     A3004 RMK AO2 RAB27 SLP160 P0014 60014 T02280228 58005=
KLAN 080853Z 00000KT 7SM SCT110 24/22 A3003 RMK AO2 SLP161
     T02390217 56008 $=
KCTY 080853Z AUTO 00000KT 21/20 A2999 RMK AO2 SLP156 T02060200
     58011 PWINO TSNO $=
KCHA 080853Z 00000KT 10SM CLR 23/19 A3005 RMK AO2 SLP166 T02280189
     56005=
KNUI 080853Z AUTO 00000KT 5SM BR FEW011 25/24 A2997 RMK AO2 SLP149
     T02500239 53002=
KTLH 080853Z 09004KT 10SM CLR 23/22 A3001 RMK AO2 SLP160 T02280217
     55008=
KOQT 080853Z AUTO 00000KT 8SM CLR 22/20 A3008 RMK AO2 SLP166
     T02220200 56003 TSNO=
KODX 080853Z AUTO 31005KT 10SM OVC080 16/14 A3019 RMK AO2 SLP220
     T01610144 55002=
KORF 080851Z 09003KT 6SM BR CLR 26/24 A2995 RMK AO2 SLP141
     T02560239 57001=
KPGA 080853Z AUTO 00000KT 10SM CLR 27/00 A3003 RMK AO2 SLP090
     T02720000 53006=
KSAN 080851Z 32006KT 9SM FEW010 OVC015 16/14 A2991 RMK AO2 SLP128
     T01610144 58006=
KSEA 080853Z 36007KT 10SM CLR 20/11 A2996 RMK AO2 SLP147 T02000106
     53006 $=
KSTC 080853Z AUTO 00000KT 2SM BR CLR 14/12 A3008 RMK AO2 VIS 1
     1/4V4 SLP192 T01390122 53000=
KPOF 080853Z AUTO 00000KT 8SM FEW050 25/23 A3003 RMK AO2 SLP164
     T02500233 56002 $=
KRIW 080853Z AUTO 36005KT 10SM CLR 11/04 A3033 RMK AO2 SLP225
     T01060044 52004=
KLWD 080853Z AUTO 00000KT 10SM FEW031 21/20 A3007 RMK AO2 SLP175
     T02060200 53001=
KMLU 080853Z AUTO 00000KT 9SM CLR 25/23 A3003 RMK AO2 SLP169
     T02500233 55001=
KMSN 080853Z 00000KT 10SM FEW007 OVC110 22/21 A2999 RMK AO2 SLP149
     60000 T02170206 55012=
KLAX 080853Z 24007KT 10SM OVC012 16/13 A2991 RMK AO2 SLP127
     T01610128 57002=
KBNO 080853Z AUTO 31004KT 10SM CLR 08/01 A3012 RMK AO2 SLP169
     T00780006 52005 TSNO=
KTCS 080853Z AUTO 06005KT 10SM -RA BKN095 OVC110 19/16 A3020 RMK
     AO2 SLP138 P0000 60000 T01890161 52004 TSNO=
KSAV 080853Z 26003KT 10SM FEW024 21/19 A2999 RMK AO2 SLP153
     T02110194 56009=
KCUT 080853Z AUTO 31003KT 10SM CLR 07/06 A3035 RMK AO2 SLP243
     T00720061 55001 TSNO=
KHTL 080853Z AUTO 21003KT 10SM FEW047 BKN080 OVC100 23/21 A3003
     RMK AO2 RAE21 SLP163 P0002 60013 T02330211 56008=
KLXV 080853Z AUTO 00000KT 10SM OVC029 07/06 A3054 RMK AO2 SLP200
     T00720056 53002 TSNO=
KCQC 080853Z AUTO 00000KT 10SM BKN060 OVC100 12/09 A3035 RMK AO2
     SLP219 T01170089 55005 TSNO=
K40J 080853Z AUTO 00000KT 22/21 A3000 RMK AO2 SLP156 T02170206
     56010 PWINO TSNO=
KP68 080853Z AUTO 00000KT 10/M01 A3014 RMK AO2 SLP124 T01001006
     53004 PWINO TSNO=
KBTV 080854Z 00000KT 5SM BR CLR 23/22 A3001 RMK AO2 SLP159
     T02280217 55000=
KUIL 080853Z AUTO 07003KT 10SM CLR 16/11 A2993 RMK AO2 SLP134
     T01610111 51003 TSNO=
KSDM 080853Z AUTO 00000KT 10SM OVC012 16/13 A2990 RMK AO2 SLP122
     T01610128 58006 TSNO=
KGPZ 080855Z AUTO 19003KT 10SM CLR 14/12 A3005 RMK AO1 57007=
KLYH 080854Z AUTO 34004KT 6SM HZ CLR 25/18 A3004 RMK AO2 SLP158
     T02500183 55001=
KPIA 080854Z 18003KT 4SM BR BKN012 BKN045 BKN100 23/22 A3002 RMK
     AO2 RAE01B29E44 SLP158 P0000 60002 T02280217 58007=
####018003715####
SAUS70 KWBC 080900 RRF
METAR
KDMO 080853Z AUTO 31003KT 10SM FEW003 SCT040 24/22 A3004 RMK AO2
     RAE29 SLP164 P0000 60000 T02390222 58003=
KDRO 080853Z AUTO 02003KT 10SM CLR 14/05 A3030 RMK AO2 SLP165
     60000 T01440050 51003=
KDTN 080853Z AUTO 00000KT 10SM CLR 24/24 A3001 RMK AO2 SLP161
     T02440239 53002=
KDTW 080853Z 22004KT 5SM HZ FEW150 24/21 A3003 RMK AO2 SLP162
     T02390206 56005=
KDVT 080853Z 00000KT 10SM CLR 28/01 A2978 RMK AO2 SLP055 T02780006
     51005=
KDXR 080853Z AUTO 00000KT 5SM BR BKN090 23/22 A3005 RMK AO2 SLP171
     T02280217 52001=
KECP 080853Z AUTO 29003KT 5SM BR CLR 23/23 A3001 RMK AO2 SLP171
     T02280228 56008=
KEEO 080853Z AUTO 10SM FEW120 14/06 A3026 RMK AO2 SLP162 6////
     T01390061 58009 PNO $=
KELD 080853Z AUTO 00000KT 1/2SM FG VV001 23/23 A3003 RMK AO2
     SLP165 T02280228 53001=
KELM 080853Z AUTO 00000KT 1 1/4SM BR CLR 17/16 A3008 RMK AO2
     SLP178 T01720161 50002=
KGFL 080853Z AUTO 00000KT 1/2SM FG FEW100 20/20 A3002 RMK AO2
     SLP162 T02000200 53004=
KGGW 080853Z AUTO 28003KT 10SM BKN090 12/09 A3013 RMK AO2 SLP200
     T01220094 55003 TSNO=
KGIF 080853Z AUTO 01003KT 10SM CLR 23/21 A2999 RMK AO2 SLP154
     T02280211 56012 TSNO=
KGJT 080853Z AUTO 10009KT 10SM CLR 21/06 A3016 RMK AO2 SLP134
     T02110056 55001=
KGKJ 080853Z AUTO 00000KT 7SM CLR 21/18 A3010 RMK AO2 SLP180
     T02110178 55004=
KGLD 080853Z AUTO 03004KT 10SM OVC037 17/16 A3028 RMK AO2 SLP220
     T01720161 50003=
KGLR 080853Z AUTO 22006KT 10SM SCT100 22/19 A3001 RMK AO2 SLP153
     T02170194 56013=
KGRB 080853Z AUTO 00000KT 4SM BR CLR 21/19 A2996 RMK AO2 SLP143
     60003 T02060194 55010=
KGRI 080853Z AUTO 32006KT 10SM CLR 15/14 A3019 RMK AO2 SLP213
     T01500139 55003=
KGSH 080853Z AUTO 00000KT 6SM BR CLR 22/20 A3005 RMK AO2 SLP167
     T02220200 56007=
KGTF 080853Z 00000KT 10SM CLR 08/06 A3023 RMK AO2 SLP224 T00830056
     51004 $=
KGUY 080853Z AUTO 14004KT 6SM -RA BR BKN012 BKN019 OVC024 19/18
     A3021 RMK AO2 LTG DSNT E TSB00E15RAB22 SLP185 P0003 60003
     T01940178 53007=
KGZH 080853Z AUTO 00000KT 7SM CLR 22/22 A3003 RMK AO2 SLP165
     T02220217 56007=
KHAO 080853Z AUTO 00000KT 1 3/4SM BR CLR 21/19 A3007 RMK AO2
     SLP177 T02060194 56003=
KHEI 080853Z AUTO 00000KT 10SM CLR 10/08 A3018 RMK AO2 SLP214
     T01000078 58001=
KHFD 080853Z AUTO 00000KT 5SM HZ FEW070 24/22 A3003 RMK AO2
     RAB19E34 SLP167 P0000 60000 T02440217 53000=
KHHR 080853Z AUTO 25006KT 10SM OVC014 17/13 A2991 RMK AO2 SLP127
     T01720133 58002=
KHIB 080853Z AUTO 00000KT 1/2SM FG OVC001 09/09 A3005 RMK AO2
     SLP176 T00940089 58003=
KHJO 080853Z AUTO 32007KT 10SM CLR 22/12 A2981 RMK AO2 SLP095
     T02220122 50003=
KHLN 080853Z AUTO 28004KT 10SM CLR 12/04 A3024 RMK AO2 SLP235
     T01170044 53007=
KHUF 080853Z 13003KT 7SM FEW060 SCT070 BKN110 24/22 A3004 RMK AO2
     SLP165 T02390217 56006 $=
KHUL 080853Z AUTO 20006KT 5SM BR CLR 21/18 A3002 RMK AO2 SLP162
     T02060183 53007=
KHVN 080853Z AUTO 10005KT 2SM HZ OVC002 24/23 A3003 RMK AO2 SLP169
     T02440228 57001=
KHWO 080853Z AUTO 07003KT 10SM CLR 25/24 A2994 RMK AO2 SLP138
     T02500239 56010=
KHYR 080853Z AUTO 00000KT 10SM FEW048 18/16 A3004 RMK AO2 SLP167
     60000 T01780161 52002=
KHZY 080853Z AUTO 00000KT 3SM BR CLR 19/19 A3008 RMK AO2 SLP177
     P0001 60001 T01940194 56004=
KICR 080853Z AUTO 24005KT 10SM CLR 17/12 A3021 RMK AO2 SLP219
     T01720122 53001 TSNO=
KICT 080853Z 05003KT 10SM SCT080 OVC200 22/20 A3008 RMK AO2 SLP173
     T02220200 55002 $=
KIDA 080853Z AUTO 35008KT 10SM CLR 09/06 A3018 RMK AO2 SLP189
     T00940056 53005=
####018003715####
SAUS70 KWBC 080900 RRJ
METAR
KVPZ 080853Z AUTO 00000KT 6SM BR CLR 23/22 A3004 RMK AO2 SLP166
     T02280217 56004=
KVRB 080853Z AUTO 00000KT 10SM FEW030 23/21 A2996 RMK AO2 SLP144
     T02280211 55008=
KWRL 080853Z AUTO 00000KT 10SM CLR 13/04 A3026 RMK AO2 SLP219
     T01280044 51008=
KWST 080853Z AUTO 10003KT 8SM BKN004 BKN013 22/21 A3006 RMK AO2
     SLP178 T02220211 53004=
KYIP 080853Z 00000KT 4SM BR CLR 22/21 A3004 RMK AO2 SLP162
     T02220206 56005=
KZZV 080853Z AUTO 00000KT 1 3/4SM BR SCT060 20/19 A3008 RMK AO2
     SLP177 T02000189 56004=
KLPR 080853Z AUTO 00000KT 7SM FEW065 23/19 A3007 RMK AO2 SLP174
     T02330189 56004=
KLSE 080853Z AUTO 00000KT 10SM CLR 21/19 A3001 RMK AO2 SLP151
     T02060194 55004=
KLUK 080853Z AUTO 00000KT 1 3/4SM R21L/3500VP6000FT BR CLR 22/21
     A3006 RMK AO2 SLP175 T02170211 58005=
KLVM 080853Z AUTO 26003KT 10SM CLR 06/03 A3028 RMK AO2 SLP230
     T00610028 51007=
KLWV 080853Z AUTO 18004KT 4SM BR CLR 24/22 A3002 RMK AO2 SLP161
     T02440222 56007=
KLXT 080853Z AUTO 02005KT 9SM SCT005 BKN110 23/22 A3005 RMK AO2
     SLP169 T02280217 58001=
KMBS 080853Z 22005KT 10SM CLR 24/22 A3001 RMK AO2 SLP157 T02390217
     56008=
KMCI 080853Z 28003KT 10SM FEW041 BKN130 23/22 A3006 RMK AO2 SLP166
     T02280217 58005 $=
KMCK 080853Z AUTO 00000KT 10SM FEW044 BKN080 16/16 A3024 RMK AO2
     SLP225 T01610156 50001=
KMCO 080853Z 36003KT 10SM FEW120 22/21 A2999 RMK AO2 SLP153
     T02220206 55009=
KMCW 080853Z AUTO 32006KT 10SM CLR 18/17 A3010 RMK AO2 SLP182
     T01780172 55000 $=
KMFR 080853Z AUTO 00000KT 10SM CLR 24/12 A2988 RMK AO2 SLP101
     T02390117 51009=
KMGY 080853Z AUTO 00000KT 7SM CLR 23/19 A3007 RMK AO2 SLP173
     T02330194 56005=
KMHE 080853Z AUTO 27006KT 10SM SCT110 18/15 A3016 RMK AO2 SLP207
     T01780150 50001 TSNO=
KMHT 080853Z 13006KT 3SM BR BKN070 24/22 A3003 RMK AO2 SLP178
     60000 T02390217 53002=
KMIA 080853Z 03004KT 10SM FEW030 SCT250 28/24 A2992 RMK AO2 SLP133
     T02780244 56010=
KMIC 080853Z 31003KT 10SM CLR 18/16 A3006 RMK AO2 SLP175 T01780161
     52002=
KMIE 080853Z AUTO 00000KT 10SM CLR 22/19 A3006 RMK AO2 SLP168
     T02220194 56006=
KMIW 080853Z AUTO 32006KT 9SM CLR 19/18 A3005 RMK AO2 SLP169
     T01940183 55004=
KMKO 080853Z AUTO 15006KT 10SM OVC019 24/23 A3002 RMK AO2 LTG DSNT
     NW SLP159 60000 T02390228 55003=
KMLC 080853Z AUTO 16003KT 10SM FEW013 24/23 A3002 RMK AO2 SLP156
     T02390228 50001=
KMLP 080853Z AUTO 12009G14KT 10SM CLR 14/02 A3027 RMK AO2 SLP156
     T01390017 57000 TSNO=
KMLS 080853Z AUTO 00000KT 10SM CLR 14/09 A3019 RMK AO2 SLP210
     T01390094 58001=
KMLT 080853Z AUTO 00000KT 4SM BR CLR 20/18 A3006 RMK AO2 SLP181
     T02000183 53006=
KMMK 080853Z AUTO 00000KT 2 1/2SM BR OVC010 23/22 A3004 RMK AO2
     CIG 008V011 SLP169 T02330217 53001=
KMNN 080853Z AUTO 00000KT 8SM CLR 21/18 A3008 RMK AO2 SLP178
     T02060183 56003=
KMPO 080853Z AUTO 00000KT 6SM BR FEW090 19/17 A3010 RMK AO2 SLP177
     T01940172 55004=
KMSO 080853Z AUTO 00000KT 10SM CLR 11/06 A3019 RMK AO2 SLP210
     T01110056 53011 $=
KEWN 080854Z AUTO 02003KT 4SM BR CLR 25/23 A2992 RMK AO2 SLP131
     T02500228 56006=
KFAM 080855Z AUTO 18003KT 10SM FEW090 23/22 A3008 RMK AO1
     57003=
KFLP 080855Z AUTO 00000KT 10SM CLR 23/22 A3004 RMK AO1 54000=
KFOD 080855Z AUTO 00000KT 10SM CLR 18/17 A3011 RMK AO1 52003=
KFRM 080855Z AUTO 10SM CLR 17/15 A3013 RMK AO1 52003=
KFTN 080855Z AUTO 07005KT 10SM SCT020 OVC026 25/23 A2990 RMK
     AO1=
KGAD 080855Z AUTO 00000KT 10SM CLR 22/20 A3004 RMK AO1 57007=
KGAI 080855Z 00000KT 8SM FEW090 25/21 A3003 RMK AO1 54000=
####018003749####
SAUS70 KWBC 080900 RRE
METAR
KCPR 080853Z AUTO 00000KT 10SM CLR 04/04 A3034 RMK AO2 SLP241
     T00440039 53005=
KCPS 080853Z AUTO 00000KT 10SM SCT046 OVC080 25/22 A3002 RMK AO2
     SLP162 T02500222 56005=
PHJR 080853Z 06003KT 10SM FEW055 23/18 A3006 RMK AO2 SLP184
     T02330183 53009=
KENW 080853Z AUTO 18003KT 10SM -RA SCT060 BKN070 BKN090 23/21
     A3002 RMK AO2 RAE04B24E34B50 SLPNO P0000 60005 T02280211
     58007 $=
KEVW 080853Z AUTO 08009KT 10SM SCT110 12/03 A3030 RMK AO2 SLP178
     T01170028 53011 TSNO=
KEWB 080853Z AUTO 13005KT 4SM BR OVC002 22/21 A3006 RMK AO2 SLP179
     T02220211 53005=
KEYE 080853Z AUTO 00000KT 8SM SCT110 24/21 A3005 RMK AO2 SLP165
     T02440206 56008=
KEYW 080853Z AUTO 07004KT 10SM CLR 28/25 A2992 RMK AO2 LTG DSNT E
     SLP132 T02780250 56009=
KFCM 080853Z AUTO 31003KT 10SM CLR 18/16 A3007 RMK AO2 SLP178
     T01830161 50002=
KFDY 080853Z AUTO 19003KT 8SM CLR 22/19 A3005 RMK AO2 SLP164
     T02220189 56005=
KFFT 080853Z AUTO 00000KT 4SM BR CLR 22/20 A3007 RMK AO2 SLP171
     T02170200 56005=
KFLD 080853Z AUTO 26004KT 10SM -RA FEW080 SCT120 22/21 A2999 RMK
     AO2 SLP150 P0001 60006 T02170206 55015=
KFLL 080853Z 07006KT 10SM FEW020 28/24 A2991 RMK AO2 SLP129
     T02780239 56010=
KFLO 080853Z AUTO 30005KT 10SM SCT095 26/19 A2994 RMK AO2 SLP134
     T02610189 57007=
KFMY 080853Z AUTO 05005KT 10SM CLR 24/22 A2995 RMK AO2 SLP142
     T02390222 56014=
KFOE 080853Z AUTO 34008KT 10SM BKN090 OVC110 22/20 A3006 RMK AO2
     SLP167 60033 T02220200 58007=
KFOK 080853Z AUTO 00000KT 5SM BR SCT003 OVC012 24/22 A3005 RMK AO2
     SLP176 T02390217 51003 TSNO=
KFPR 080853Z AUTO 00000KT 10SM CLR 23/22 A2996 RMK AO2 SLP143
     T02280217 55010=
KFRG 080853Z AUTO 00000KT 5SM BR SCT009 BKN013 OVC100 26/24 A3002
     RMK AO2 SLP166 T02560244 53000=
KFTW 080853Z 14008KT 10SM FEW014 25/23 A2998 RMK AO2 SLP143
     T02500233 55003=
KFUL 080853Z 00000KT 10SM OVC017 17/12 A2990 RMK AO2 SLP124
     T01720122 58003=
KFVE 080853Z AUTO 20005KT 3SM BR CLR 22/22 A3000 RMK AO2 SLP149
     T02170217 55003=
KFWN 080853Z AUTO 00000KT 2 1/2SM BR CLR 21/21 A3003 RMK AO2
     SLP166 T02060206 50000=
KGAG 080853Z AUTO 05007KT 10SM -RA FEW030 21/19 A3012 RMK AO2 LTG
     DSNT W RAB46 SLP174 P0000 60000 T02110194 50001=
KGEY 080853Z AUTO 11004KT 10SM CLR 12/03 A3025 RMK AO2 SLP220
     T01220028 51006=
KGEZ 080853Z AUTO 00000KT 5SM BR CLR 21/19 A3004 RMK AO2 SLP165
     T02110194 56008=
KGFK 080853Z 25005KT 10SM CLR 15/13 A3003 RMK AO2 SLP168 T01500128
     55001=
KCRE 080853Z AUTO 32005KT 10SM CLR 27/20 A2991 RMK AO2 SLP130
     T02670200 56008=
KCUB 080853Z AUTO 00000KT 10SM CLR 24/19 A2999 RMK AO2 SLP151
     T02440189 56008=
KCYS 080853Z AUTO 11004KT 6SM BR OVC004 12/12 A3036 RMK AO2 CIG
     003V008 SLP233 60000 T01170117 51001 TSNO=
KDAG 080853Z AUTO 25008KT 10SM CLR 25/00 A2985 RMK AO2 SLP077
     T02500000 51005 TSNO $=
KDEN 080853Z 16005KT 4SM BR BKN024 BKN100 14/14 A3032 RMK AO2
     SLP213 T01440139 56005 $=
KDEQ 080853Z AUTO 00000KT 10SM BKN006 OVC011 24/23 A3002 RMK AO2
     CIG 005V009 SLP159 T02440233 55001=
KDET 080853Z 00000KT 9SM CLR 25/21 A3003 RMK AO2 SLP161 T02500211
     56005 $=
KDFI 080853Z AUTO 00000KT 7SM CLR 22/19 A3005 RMK AO2 SLP170
     T02170189 56003=
KDFW 080853Z 15005KT 10SM SCT019 SCT090 BKN220 26/23 A2998 RMK AO2
     SLP144 T02560228 58002=
KDGW 080853Z AUTO 00000KT 10SM CLR 06/06 A3033 RMK AO2 SLP242
     T00610056 53001 $=
KDKK 080853Z AUTO 00000KT 9SM BKN090 21/18 A3006 RMK AO2 SLP173
     T02060183 55004=
KDLN 080853Z AUTO 20009KT 10SM CLR 08/03 A3028 RMK AO2 SLP217
     T00780033 53007=
####018002817####
SAUS80 KWBC 080900 RRB
METAR
KSUS 080854Z AUTO 00000KT 10SM FEW050 24/23 A3000 RMK AO2
     TSE17RAE04 SLP152 P0000 60005 T02390228 58005=
KDSM 080854Z 35006KT 10SM CLR 22/19 A3007 RMK AO2 SLP173 T02170194
     53006=
KDVL 080855Z AUTO 26006KT 10SM SCT095 15/12 A3006 RMK AO1
     54000=
KEAR 080855Z AUTO 33008KT 10SM CLR 15/14 A3022 RMK AO1 54000=
KJAN 080854Z 00000KT 10SM CLR 24/22 A3004 RMK AO2 SLP166 T02390222
     55007 $=
PANT 080853Z AUTO 33009KT 10SM CLR 19/11 A3006 RMK AO2 SLP177
     T01940111 402670139 58001 TSNO=
PAOM 080853Z 04010KT 10SM FEW045 SCT065 SCT095 16/09 A3009 RMK AO2
     SLP189 T01610089 401940050 52004=
PAOR 080853Z 00000KT 10SM FEW070 11/09 A3008 RMK AO2 SLP188
     T01110089 402170089 50002=
PAOT 080853Z 28010KT 10SM FEW040 SCT090 BKN200 12/07 A3013 RMK AO2
     SLP202 T01170072 401440106 51004=
PAQT 080853Z AUTO 26006KT 10SM SCT024 11/07 A3005 RMK AO2 SLP177
     T01060067 401390044 53012 TSNO=
PASN 080853Z 07011KT 10SM SCT034 OVC045 06/05 A2995 RMK AO2 SLP141
     T00560050 400890050 53005=
PATK 080853Z AUTO 00000KT 10SM BKN110 14/11 A3000 RMK AO2 SLP162
     T01440106 402330100 58006 TSNO=
PAYA 080853Z 04003KT 10SM FEW090 SCT200 11/09 A3018 RMK AO2 SLP221
     BAY TWR WND 120MMKT T01110094 401890106 58007=
PABE 080853Z VRB03KT 10SM BKN120 13/06 A3002 RMK AO2 SLPNO 6////
     T01300060 401610056 PNO $=
PABT 080853Z 00000KT 10SM SCT120 13/12 A3006 RMK AO2 SLP187
     T01330117 402060106 53008=
PACD 080853Z 16004KT 10SM CLR 06/03 A2994 RMK AO2 SLP139 T00560033
     401330044 50002=
PADQ 080853Z 30004KT 4SM -RA BR BKN016 OVC026 10/09 A2983 RMK AO2
     SLP101 P0003 60008 T01000094 401060094 51011 $=
PAFA 080853Z 03003KT 10SM FEW070 SCT200 14/09 A3003 RMK AO2 SLP173
     T01440089 402390094 51005=
PAHO 080853Z AUTO 08009KT 10SM FEW070 SCT085 12/09 A2989 RMK AO2
     SLP122 T01220094 401390078 58004 TSNO=
PAJN 080853Z 00000KT 10SM FEW250 12/09 A3019 RMK AO2 SLP222
     T01170094 402060100 58003=
PAMC 080853Z 02004KT 10SM FEW040 SCT110 BKN200 13/08 A2998 RMK AO2
     SLP156 T01330083 402330078 51005=
PANC 080853Z 17003KT 10SM -RA FEW055 BKN070 BKN120 BKN200 12/11
     A3000 RMK AO2 SLP159 P0000 60000 T01170111 401670117
     58006=
PANN 080853Z AUTO 00000KT 10SM FEW075 13/10 A3002 RMK AO2 SLP171
     T01280100 402330072 50004 TSNO=
KSBN 080854Z 32008KT 7SM FEW060 23/21 A3005 RMK AO2 SLP169
     T02280211 55001=
KAPN 080854Z AUTO 15004KT 4SM BR CLR 19/19 A2998 RMK AO2 SLP151
     T01940189 58012=
KMQE 080854Z AUTO 17006KT 21/18 A3007 RMK AO1 SLP188 T02110183
     53002=
K12N 080854Z AUTO 00000KT 22/21 A3004 RMK AO2 SLP160 T02170206
     55001 PWINO TSNO=
K1V4 080854Z AUTO 21/19 A3005 RMK AO2 SLP161 T02060194 53003 PWINO
     TSNO=
####018003699####
SAUS70 KWBC 080900 RRH
METAR
KOPF 080853Z AUTO 04003KT 10SM FEW020 27/24 A2993 RMK AO2 SLP135
     T02670244 55010=
KORL 080853Z AUTO 00000KT 10SM CLR 23/22 A2999 RMK AO2 SLP158
     T02330217 55008=
KOSH 080853Z AUTO 22003KT 9SM FEW006 22/21 A2997 RMK AO2 SLP137
     P0001 60006 T02170206 55014=
KOSU 080853Z AUTO 00000KT 7SM CLR 22/19 A3007 RMK AO2 SLP175
     T02170189 58003=
KOTM 080853Z AUTO 32004KT 5SM BR CLR 21/20 A3004 RMK AO2 SLP167
     T02060200 55004=
KOVS 080853Z AUTO 00000KT 10SM OVC006 21/20 A3001 RMK AO2 SLP157
     T02110200 56009=
KOWD 080853Z AUTO 00000KT 10SM CLR 22/18 A3006 RMK AO2 SLP177
     T02170183 53002=
KPBG 080853Z AUTO 00000KT 6SM BR CLR 22/21 A2999 RMK AO2 RAB42E52
     SLP155 P0000 60000 T02170206 55001=
KPBI 080853Z 06004KT 10SM SCT023 BKN035 BKN250 28/24 A2992 RMK AO2
     SLP132 T02780239 55013=
KPEO 080853Z AUTO 23003KT 4SM BR CLR 22/21 A3008 RMK AO2 SLP177
     T02170206 56001=
KPGD 080853Z AUTO 05003KT 10SM CLR 23/22 A2998 RMK AO2 SLP152
     T02280222 56014 TSNO=
KPHD 080853Z AUTO 00000KT 2SM BR CLR 19/17 A3009 RMK AO2 SLP181
     T01940172 56003=
KSBA 080853Z 00000KT 9SM OVC019 12/11 A2991 RMK AO2 SLP127
     T01220111 51000 $=
KSBM 080853Z AUTO 17004KT 8SM OVC110 22/22 A2998 RMK AO2
     RAE05B39E49 SLP148 P0001 60001 T02220217 56015=
KSEG 080853Z AUTO 34004KT 6SM HZ CLR 22/17 A3004 RMK AO2 SLP167
     T02220172 53002=
KSHN 080853Z AUTO 00000KT 10SM CLR 13/11 A2993 RMK AO2 SLP132
     T01280111 51007=
KSHR 080853Z AUTO 33003KT 10SM CLR 08/06 A3026 RMK AO2 SLP231
     T00830061 55001=
KSLC 080853Z 16005KT 10SM FEW130 19/07 A3008 RMK AO2 SLP132
     T01890072 51006=
KSLN 080853Z AUTO 33006KT 5SM BR CLR 21/20 A3011 RMK AO2 SLP185
     T02110200 53004=
KSMF 080853Z 14011KT 10SM CLR 15/11 A2982 RMK AO2 SLP098 T01500106
     53005=
KSMQ 080853Z AUTO 00000KT 3SM BR CLR 22/21 A3000 RMK AO2 SLP156
     T02170206 57001=
KSNA 080853Z 34003KT 8SM OVC017 18/12 A2991 RMK AO2 SLP126
     T01830122 58003=
KSNY 080853Z AUTO 00000KT 10SM FEW055 16/14 A3031 RMK AO2 SLP232
     T01610144 56003=
KSPB 080853Z AUTO 00000KT 10SM 18/12 A2987 RMK AO2 SLP115 6////
     T01830122 53007 $=
KSPG 080853Z 09007KT 10SM CLR 27/22 A2996 RMK AO2 SLP145 T02670222
     58012=
KSPW 080853Z AUTO 32004KT 8SM CLR 16/14 A3013 RMK AO2 SLP200
     T01560144 50001=
KSRQ 080853Z 07005KT 10SM CLR 23/22 A2996 RMK AO2 SLP144 T02330217
     58011=
KSSI 080853Z AUTO 26005KT 10SM CLR 23/21 A2999 RMK AO2 SLP156
     T02330211 56008=
KSTJ 080853Z AUTO 28003KT 6SM BR FEW120 23/21 A3006 RMK AO2 SLP169
     60001 T02280211 58004=
KSTP 080853Z 32005KT 10SM CLR 19/17 A3006 RMK AO2 SLP175 T01890167
     50002=
KSTS 080853Z AUTO 18003KT 10SM OVC006 12/10 A2992 RMK AO2 SLP125
     T01220100 56001=
KSWO 080853Z AUTO 02004KT 10SM FEW032 OVC075 23/21 A3003 RMK AO2
     SLP157 T02330211 55003=
KTCC 080853Z AUTO 36007KT 10SM SCT011 BKN090 OVC120 18/16 A3022
     RMK AO2 SLP171 60000 T01780156 53001=
KTDZ 080853Z AUTO 22003KT 10SM BKN075 24/18 A3004 RMK AO2 SLP167
     T02390178 58005=
KTHV 080853Z AUTO 00000KT 4SM BR CLR 21/19 A3002 RMK AO2 SLP163
     T02060194 53001=
KTIW 080853Z AUTO 02004KT 10SM FEW090 22/12 A2994 RMK AO2 SLP134
     T02170117 53005=
KTMB 080853Z AUTO 00000KT 10SM CLR 27/24 A2992 RMK AO2 SLP132
     T02720244 56011=
KTOP 080853Z AUTO 33003KT 10SM OVC095 22/21 A3006 RMK AO2 SLP169
     60071 T02220206 58010=
KTOR 080853Z AUTO 34003KT 10SM CLR 12/11 A3029 RMK AO2 SLP234
     T01220111 52000=
KPIE 080853Z AUTO 10003KT 10SM CLR 24/21 A2998 RMK AO2 SLP150
     T02440211 58012 TSNO=
####018003671####
SAUS70 KWBC 080900 RRA
METAR
KBFM 080853Z 00000KT 8SM CLR 24/23 A3003 RMK AO2 SLP167 T02390228
     55007=
KBHM 080853Z 00000KT 9SM CLR 24/22 A3005 RMK AO2 SLP167 T02440222
     56007=
KBKE 080853Z AUTO 24004KT 10SM CLR 09/07 A3011 RMK AO2 SLP176
     T00890067 53007=
KBLI 080853Z AUTO 00000KT 10SM CLR 16/14 A2996 RMK AO2 SLP150
     T01560139 53008=
KBMQ 080853Z AUTO 00000KT 10SM BKN047 BKN065 23/22 A3001 RMK AO2
     SLP140 T02330217 56004 $=
KBNA 080853Z 00000KT 10SM BKN085 25/22 A3007 RMK AO2 SLP172
     T02500217 56005=
KBPK 080853Z AUTO 00000KT 10SM CLR 23/22 A3005 RMK AO2 SLP163
     T02280217 55001=
KBPT 080853Z 09011KT 10SM FEW024 26/24 A2994 RMK AO2 SLP137
     T02610244 58005 $=
KBRO 080853Z 33005KT 10SM FEW016 SCT022 27/26 A2977 RMK AO2
     RAB08E46 SLP080 P0001 60001 T02670256 56012=
KBVN 080850Z AUTO 32003KT 10SM BKN090 16/15 A3018 RMK AO2
     T01600150=
KBWG 080853Z AUTO 00000KT 10SM SCT080 23/21 A3006 RMK AO2 SLP173
     T02330211 56004=
KCCR 080853Z AUTO 25007KT 10SM CLR 13/10 A2991 RMK AO2 SLP115
     T01330100 51006=
KCEW 080853Z AUTO 00000KT 6SM BR CLR 21/21 A3003 RMK AO2 SLP166
     T02110211 56006=
KCHO 080853Z AUTO 00000KT 4SM HZ SCT095 23/20 A3001 RMK AO2 SLP152
     T02330200 56002 TSNO=
KCLM 080853Z AUTO A2997 RMK AO2 SLPNO 6//// 52003 PWINO FZRANO
     $=
KCNM 080853Z AUTO 00000KT 5SM RA BR OVC007 20/19 A3012 RMK AO2 CIG
     005V010 SLP145 P0011 60018 T02000189 51004=
KUTS 080853Z AUTO 00000KT 7SM CLR 24/23 A2997 RMK AO2 SLP143
     T02440233 56004=
KVCB 080853Z AUTO 23011G17KT 10SM CLR 19/10 A2981 RMK AO2 SLP093
     T01890100 50004=
KVPC 080853Z AUTO 00000KT 7SM CLR 20/19 A3005 RMK AO2 SLP160
     T02000189 56005=
KVUO 080853Z AUTO 00000KT 10SM CLR 17/14 A2987 RMK AO2 SLP115
     T01720139 51009=
KWVI 080853Z AUTO 00000KT 10SM OVC009 13/11 A2993 RMK AO2 SLP135
     T01280106 55002=
KXNA 080853Z 19004KT 10SM BKN030 23/22 A3006 RMK AO2 SLP163 60001
     T02280217 56004=
KLLQ 080853Z AUTO 00000KT 7SM CLR 23/22 A3005 RMK AO2 SLP173
     T02280222 58001=
KLMT 080853Z AUTO 21004KT 10SM FEW090 19/10 A3004 RMK AO2 SLP122
     T01940100 55009=
KLVJ 080853Z AUTO 10005KT 10SM FEW032 27/23 A2992 RMK AO2 SLP130
     T02720233 58007=
KLVK 080853Z AUTO 30009KT 10SM CLR 13/11 A2991 RMK AO2 SLP124
     T01280106 51005=
KLVS 080853Z AUTO 04005KT 10SM CLR 11/09 A3036 RMK AO2 SLP204
     T01110089 56004 TSNO=
KLXN 080850Z AUTO 00000KT 10SM BKN049 16/15 A3022 RMK AO2
     T01600152=
KMAE 080853Z AUTO 29006KT 10SM CLR 19/12 A2982 RMK AO2 SLP095
     T01890117 50002=
KMCB 080853Z AUTO 06003KT 8SM CLR 23/22 A3003 RMK AO2 SLP164
     T02330222 56006=
KMCE 080853Z AUTO 28005KT 10SM CLR 17/11 A2982 RMK AO2 SLP097
     T01720106 51003=
KMEM 080853Z 00000KT 10SM FEW250 25/22 A3006 RMK AO2 SLP175
     T02500222 53001=
KMFE 080853Z AUTO 36007KT 10SM SCT006 SCT017 26/24 A2980 RMK AO2
     SLP089 T02610244 56011=
KMGW 080853Z AUTO 00000KT 4SM BR CLR 20/18 A3010 RMK AO2 SLP180
     T02000183 56005=
KMKL 080853Z AUTO 00000KT 10SM CLR 22/21 A3007 RMK AO2 SLP176
     T02220211 53002=
KMLE 080850Z AUTO 34003KT 10SM SCT025 20/17 A3011 RMK AO2
     T02000168=
KMMH 080850Z AUTO 26007KT 10SM CLR 12/02 A3021 RMK AO1=
KMMV 080853Z AUTO 25003KT 10SM CLR 16/12 A2988 RMK AO2 SLP115
     T01610122 53011=
KMOD 080853Z AUTO 35006KT 10SM CLR 18/10 A2984 RMK AO2 SLP103
     T01780100 51008=
KMRB 080853Z AUTO 00000KT 5SM HZ CLR 23/18 A3002 RMK AO2 SLP160
     T02280183 56001=
KMSL 080853Z AUTO 00000KT 10SM FEW065 23/22 A3007 RMK AO2 SLP175
     T02280217 55002=
####018000028####
SABX31 KWBC 080850
NIL=
####018000032####
SAAW41 KWBC 080850 RRC
NIL=
####018000087####
SABZ21 SBPS 080900
METAR SBPS 080900Z 28003KT 2000 RA BR BKN005 BKN100 17/17 Q1018=
####018000116####
SAUS42 KRAH 080855
MTRGSO
METAR KGSO 080854Z 33004KT 8SM FEW090 26/18 A3001 RMK AO2 SLP148 
T02610178 55005
####018000128####
SAUS41 KLWX 080855
MTRNAK
METAR KNAK 080854Z AUTO 06004KT 4SM HZ CLR 26/23 A2998 RMK AO2 
SLP154 6//// T02610228 TSNO $
####018003739####
SAUS70 KWBC 080900 RRC
METAR
KPQL 080853Z AUTO 00000KT 6SM BR CLR 24/23 A3001 RMK AO2 SLP163
     T02390233 55003=
KPRB 080853Z AUTO 30003KT 10SM CLR 13/11 A2990 RMK AO2 SLP122
     T01280106 52000=
KPSC 080853Z AUTO 35003KT 10SM CLR 16/11 A2995 RMK AO2 SLP139
     T01560111 51009=
KPSX 080853Z AUTO 10007KT 9SM CLR 27/26 A2986 RMK AO2 RAE33 SLP110
     P0005 60017 T02720256 56009=
KPTT 080850Z AUTO 36005KT 7SM CLR 19/18 A3014 RMK AO2=
KRDD 080853Z AUTO 01004KT 10SM CLR 24/15 A2983 RMK AO2 SLP094
     T02440150 52010=
KRKP 080853Z AUTO 11011KT 10SM CLR 28/26 A2982 RMK AO2 SLP098
     60002 T02780256 56015=
KRNT 080853Z AUTO 12003KT 10SM CLR 19/14 A2994 RMK AO2 SLP143
     T01940144 53009=
KRUE 080853Z AUTO 00000KT 10SM BKN019 24/23 A3005 RMK AO2 SLP167
     T02390228 51000=
KRWI 080853Z AUTO 00000KT 6SM HZ CLR 24/21 A2994 RMK AO2 SLP137
     T02390206 55005=
KSAC 080853Z 18005KT 10SM CLR 14/10 A2983 RMK AO2 SLP102 T01440100
     51001=
KSAF 080853Z AUTO 00000KT 10SM SCT110 15/11 A3032 RMK AO2 SLP187
     T01500106 51003=
KSDL 080853Z 00000KT 10SM CLR 30/08 A2979 RMK AO2 SLP058 T03000078
     51004=
KSFF 080853Z AUTO 00000KT 10SM CLR 14/09 A3006 RMK AO2 SLP165
     T01440094 53004=
KSIY 080853Z AUTO 14005KT 10SM CLR 22/08 A2994 RMK AO2 SLP119
     T02170083 55001 $=
KSJC 080853Z AUTO 35003KT 10SM OVC015 15/11 A2992 RMK AO2 SLP131
     T01500111 50002=
KSNS 080853Z AUTO 26005KT 10SM OVC011 13/11 A2993 RMK AO2 SLP143
     T01280106 58002=
KSRE 080850Z AUTO 00000KT 3SM BR 24/24 A3002 RMK AO2 LTG DSNT
     NE=
KSSF 080853Z AUTO 05005KT 10SM OVC013 26/23 A2992 RMK AO2 SLP118
     T02610233 56006=
KSUN 080851Z AUTO 33010G15KT 10SM CLR 12/02 A3023 RMK AO2=
KSZT 080850Z AUTO 00000KT 10SM CLR 11/08 A3010 RMK AO2=
KTCL 080853Z AUTO 00000KT 5SM BR CLR 24/23 A3003 RMK AO2 SLP168
     T02440228 55004=
KTOI 080853Z AUTO 00000KT 10SM FEW070 22/22 A3003 RMK AO2 SLP163
     T02220217 56006=
KTTD 080853Z AUTO 00000KT 10SM CLR 18/13 A2986 RMK AO2 SLP111
     T01780133 51010=
KTVL 080853Z AUTO 00000KT 10SM CLR 12/06 A3016 RMK AO2 SLP150
     T01170061 55000=
KTVR 080853Z AUTO 07003KT 9SM CLR 24/22 A3002 RMK AO2 SLP173
     T02390222 55002 $=
KRTN 080853Z AUTO 08004KT 10SM CLR 14/10 A3035 RMK AO2 SLP216
     T01440100 56002 TSNO=
KABR 080853Z AUTO 21003KT 10SM CLR 15/14 A3012 RMK AO2 SLP195
     T01500139 50003=
KABY 080853Z 00000KT 10SM CLR 22/20 A3003 RMK AO2 SLP168 T02170200
     57005=
KACK 080853Z AUTO 10004KT 9SM CLR 18/18 A3008 RMK AO2 SLP184
     T01830183 53002 TSNO=
KADG 080853Z AUTO 00000KT 7SM CLR 22/19 A3005 RMK AO2 SLP170
     T02170194 56005=
KAGC 080853Z 00000KT 4SM HZ CLR 23/19 A3008 RMK AO2 SLP178
     T02330194 56003=
KAIA 080853Z AUTO 00000KT 10SM FEW027 SCT075 OVC095 16/14 A3028
     RMK AO2 SLP224 T01560144 58003 $=
KAKO 080853Z AUTO 15007KT 7SM OVC006 14/14 A3031 RMK AO2 CIG
     003V009 SLP227 T01440139 58001 TSNO=
KALW 080853Z AUTO 11006KT 10SM CLR 17/08 A2996 RMK AO2 SLP139
     T01670078 51004=
KAMG 080853Z AUTO 00000KT 10SM CLR 22/19 A3000 RMK AO2 SLP157
     T02170194 58008=
KAMW 080853Z AUTO 34008KT 9SM CLR 21/19 A3008 RMK AO2 SLP178
     T02060189 53001=
KAOH 080853Z AUTO 18003KT 7SM 23/19 A3007 RMK AO2 SLP172 T02280194
     56004 $=
KAPA 080853Z 17003KT 7SM FEW007 OVC027 13/12 A3035 RMK AO2 SLP237
     T01330122 58004 $=
KAPF 080853Z AUTO 04005KT 10SM CLR 25/23 A2995 RMK AO2 SLP139
     T02500228 56014=
KARB 080853Z AUTO 00000KT 3SM BR CLR 20/19 A3003 RMK AO2 SLP163
     T02000189 56006=
KASE 080853Z 33004KT 5SM -RA BR SCT032 OVC060 08/07 A3047 RMK AO2
     RAB25 SLP211 P0006 60006 T00780072 53021=
####018000121####
SAUS41 KCAR 080855
MTRCAR
METAR KCAR 080854Z AUTO 18005KT 7SM FEW043 21/19 A3000 RMK AO2 
SLP157 T02110194 53002
####018000080####
SAPS31 NIUE 080900
METAR NIUE 080900Z AUTO 14005KT //// ////// 25/23 Q1014=
####018001649####
SAEU KAWN 080900 RRD
METAR EDAC 080850Z 25004KT CAVOK 23/12 Q1022=
METAR EDAH 080850Z 15006KT 120V180 CAVOK 21/11 Q1022=
METAR EDFH 080850Z 12007KT 090V160 CAVOK 24/11 Q1022=
METAR EDLP 080850Z 22006KT 190V260 CAVOK 27/10 Q1020=
METAR EDMA 080850Z 13008KT 100V160 CAVOK 22/09 Q1023=
METAR EDNY 080850Z 20005KT CAVOK 24/13 Q1022=
METAR EDOP 080850Z 19007KT 150V220 CAVOK 25/10 Q1021=
METAR EDTL 080850Z 23003KT CAVOK 25/13 Q1020=
METAR EDVK 080850Z 22007KT CAVOK 24/10 Q1021=
METAR EGPB 080850Z 19016KT 9999 FEW012 14/11 Q1006=
METAR ETEB 080855Z AUTO 17006KT 9999 CLR 23/10 A3021 RMK AO2 SLP215
      T02280097 50002=
METAR LIBD 080850Z 36011KT 9999 FEW030 25/12 Q1020=
METAR LIBR 080845Z /////KT CAVOK 25/15 Q1017 NOSIG=
METAR LICC 080850Z 09005KT CAVOK 29/20 Q1018=
METAR LICJ 080850Z 04015KT CAVOK 27/22 Q1018=
METAR LIPB 080850Z 16008KT 9999 FEW060 26/12 Q1022=
METAR LIPE 080850Z 12007KT 090V160 CAVOK 27/15 Q1021=
METAR LIPH 080845Z 01002KT 9999 SCT035 BKN070 24/18 Q1022=
METAR LIPK 080850Z VRB03KT CAVOK 26/14 Q1021=
METAR LIPQ 080850Z VRB02KT 9999 FEW030 BKN050 25/14 Q1023=
METAR LIPR 080845Z 12006KT CAVOK 27/16 Q1021=
METAR LIPX 080845Z 10007KT 9999 SCT080 27/14 Q1021=
METAR LIPZ 080850Z 13007KT 9999 SCT050 SCT070 26/16 Q1022=
METAR LOWG 080850Z VRB04KT 9999 FEW060 22/09 Q1023 NOSIG=
METAR LOWI 080850Z VRB01KT CAVOK 21/12 Q1022 NOSIG=
METAR LOWK 080850Z VRB03KT 9999 FEW060 21/11 Q1024 NOSIG=
METAR LOWL 080850Z 12004KT 050V170 CAVOK 20/10 Q1024 NOSIG=
METAR LOWS 080850Z VRB02KT CAVOK 22/08 Q1023 NOSIG=
METAR LOWW 080850Z 35005KT 310V050 9999 FEW040 21/09 Q1023 NOSIG=
####018000704####
SADL31 KWBC 080850
METAR
EDBB NIL=
EDBT NIL=
EDCK NIL=
EDDF 080850Z 14003KT CAVOK 26/10 Q1021 NOSIG=
EDDH 080850Z 15007KT CAVOK 25/11 Q1019 NOSIG=
EDDK 080850Z 18006KT CAVOK 27/10 Q1020 NOSIG=
EDDL 080850Z 17006KT 160V230 CAVOK 27/10 Q1019 NOSIG=
EDDM 080850Z 07007G18KT 050V120 CAVOK 22/10 Q1023 NOSIG=
EDDN 080850Z 12005KT CAVOK 24/08 Q1022 NOSIG=
EDDS 080850Z 14004KT CAVOK 24/09 Q1022 NOSIG=
EDDW 080850Z 18005KT CAVOK 27/09 Q1019 NOSIG=
EDFE 080850Z VRB02KT CAVOK 26/10 Q1020=
EDFM 080850Z 16007KT 110V190 CAVOK 27/09 Q1020=
EDHI 080850Z VRB03KT CAVOK 27/11 Q1019=
EDHL 080850Z 14007KT CAVOK 25/15 Q1020=
EDKB NIL=
EDKS NIL=
EDLE NIL=
EDLG NIL=
EDLI NIL=
####018000582####
SANO32 ENMI 080850
METAR ENAL 080850Z 17008KT 9999 SCT055 SCT085 19/07 Q1009=
METAR ENCN 080850Z 20008KT 5000 BR BKN003 16/15 Q1015=
METAR ENHD 080850Z 20010KT 9999 FEW008 16/12 Q1013=
METAR ENRO 080850Z 20009KT 150V230 9999 SCT030 BKN110 17/08 Q1011=
METAR ENRY 080850Z 20010KT 160V230 4000 SHRA FEW004 SCT007 BKN015
           16/15 Q1016 TEMPO 7000 -RA BKN005=
METAR ENSB 080850Z 28006KT 9999 FEW015 SCT035 BKN060 09/06 Q1008
           NOSIG =
METAR ENTC 080850Z VRB02KT 9999 BKN065 16/08 Q1011 NOSIG =
METAR ENTO 080850Z 15007KT 9999 -DZ FEW010 SCT025 16/15 Q1016=
####018000412####
SANO36 ENMI 080850
METAR ENBS 080850Z VRB02KT 9999 FEW002 SCT012 BKN020 12/08 Q1017=
METAR ENHK 080850Z 10013KT 9999 FEW035 BKN080 15/08 Q1012=
METAR ENHV 080850Z 14005KT 110V190 CAVOK 13/08 Q1014 =
METAR ENLK 080850Z 23006KT CAVOK 18/11 Q1010=
METAR ENMH 080850Z 15007KT 9999 SCT015 13/09 Q1016=
METAR ENNK 080850Z VRB02KT 9999 BKN060 18/10 Q1011=
METAR ENNM 080850Z 24004KT 200V270 CAVOK 18/11 Q1009=
####018000519####
SADL32 KWBC 080850
METAR
EDLN 080850Z VRB04KT CAVOK 28/14 Q1019=
EDLP 080850Z 22006KT 190V260 CAVOK 27/10 Q1020=
EDLS NIL=
EDLW 080850Z 21009KT 170V240 CAVOK 28/10 Q1020=
EDMA 080850Z 13008KT 100V160 CAVOK 22/09 Q1023=
EDML NIL=
EDMO 080850Z 07008KT 020V130 CAVOK 22/08 Q1023=
EDMS NIL=
EDQD NIL=
EDQM 080850Z 18005KT 100V250 CAVOK 23/09 Q1024=
EDRS NIL=
EDRT NIL=
EDTB NIL=
EDTD 080850Z 15006KT CAVOK 23/11 Q1023=
EDTF NIL=
EDTK NIL=
EDTO NIL=
EDTY NIL=
EDTZ NIL=
EDVE NIL=
####018000159####
SADL33 KWBC 080845 RRB
METAR
EDNY 080850Z 20005KT CAVOK 24/13 Q1022=
EDVK 080850Z 22007KT CAVOK 24/10 Q1021=
EDXW 080850Z 21011KT CAVOK 22/13 Q1018=
####018000362####
SANO35 ENMI 080850
METAR ENMS 080850Z 14005KT 9999 FEW050 22/10 Q1009 =
METAR ENRM 080850Z 03005KT 340V080 CAVOK 18/09 Q1010=
METAR ENRS 080850Z NIL=
METAR ENSK 080850Z 14006KT CAVOK 17/09 Q1010=
METAR ENSO 080850Z 18008KT 9999 FEW015 SCT070 17/12 Q1012=
METAR ENST 080850Z VRB02KT CAVOK 17/10 Q1010=
METAR ENVD 080850Z VRB02KT 9999 BKN023 12/08 Q1017=
####018001186####
SADN31 KWBC 080850
METAR
EKAH 080850Z AUTO 19007KT 120V260 9999NDV OVC059/// 21/13
     Q1018=
EKBI 080850Z 21008KT 170V250 9999 FEW041 BKN063 21/15 Q1018=
EKCH 080850Z 17012KT CAVOK 21/16 Q1020 NOSIG=
EKEB 080850Z AUTO 23011KT 9999NDV BKN068/// 22/14 Q1018=
EKHO NIL=
EKKA 080850Z 20009KT 150V220 5000 SHRA SCT018TCU BKN045 17/15
     Q1017 TEMPO 4000 SCT020CB=
EKMB NIL=
EKOD 080850Z 19008KT CAVOK 23/12 Q1019=
EKRK 080852Z 18010KT 160V220 CAVOK 23/13 Q1020=
EKRN 080850Z AUTO 22004KT 180V250 9999NDV NCD 20/16 Q1022=
EKSB 080850Z 17007KT CAVOK 24/13 Q1018=
EKSN 080850Z 22010KT 9999 SCT027 BKN062 19/14 Q1017=
EKSP 080850Z 18007KT CAVOK 23/13 Q1018 NOSIG RMK FEW050 BKN090=
EKSV NIL=
EKTS NIL=
EKVA NIL=
EKVD 080850Z 20011KT CAVOK 22/12 Q1018=
EKVG 080851Z 16011KT 9999 SCT004 BKN006 BKN010 11/10 Q0992 RMK/RWY
     13/31 CLOSED DUE WIP/ SEE NOTAM E0050/10 WIND 850FT 16011KT
     110V230=
EKVG 080851Z 16011KT 9999 SCT004 BKN006 BKN010 11/10 Q0992 RMK/RWY
     13/31 CLOSED DUE WIP. SEE NOTAM E0050/10 WIND 850FT 16011KT
     110V230=
EKVJ 080850Z NIL=
EKVL NIL=
EKYT 080850Z 22009KT 9999 FEW025 BKN040 20/14 Q1017 NOSIG=
####018000494####
SANO33 ENMI 080850
METAR ENAT 080850Z 13007KT 100V170 9999 FEW040 SCT080 19/10 Q1013 =
METAR ENBL 080850Z 22010KT 9999 SCT035 SCT070 15/08 Q1010=
METAR ENEV 080850Z 12007KT CAVOK 19/06 Q1011 =
METAR ENFL 080850Z 18018KT 9999 FEW015 SCT060 16/11 Q1010=
METAR ENKB 080850Z 08003KT 040V130 9999 FEW032 SCT070 16/11 Q1009=
METAR ENKR 080850Z 18005KT 9999 BKN015 12/09 Q1017 =
METAR ENML 080850Z 09005KT 9999 FEW050 SCT060 17/13 Q1009=
METAR ENNA 080850Z 16014KT 9999 FEW040 19/09 Q1014 =
####018001079####
SAEN31 KWBC 080850
METAR
EETN 080850Z 31007KT 270V340 CAVOK 23/18 Q1014 NOSIG=
EFHF 080850Z VRB05KT 9999 SCT034 26/18 Q1014=
EFHK 080850Z 35006KT 310V010 9999 SCT035 BKN200 27/18 Q1014
     NOSIG=
EFIV NIL=
EFJY 080850Z 36003KT 9999 BKN014 BKN018 20/17 Q1016=
EFKE NIL=
EFKK 080850Z 17004KT 080V240 CAVOK 22/11 Q1015=
EFKU 080850Z AUTO 36004KT 9999NDV FEW016 FEW105 BKN140 23/17
     Q1016=
EFMA 080850Z 27003KT CAVOK 21/11 Q1016=
EFOU 080850Z VRB01KT 9999 FEW018 SCT200 20/13 Q1016=
EFPN NIL=
EFPO 080850Z VRB02KT CAVOK 23/10 Q1016=
EFRO 080850Z AUTO 23004KT 050V320 CAVOK 18/11 Q1017=
EFTN NIL=
EFTP 080850Z VRB04KT 9999 FEW040 24/14 Q1015=
EFTU 080850Z AUTO 34007KT 310V020 CAVOK 24/07 Q1016=
EFVA 080850Z 18002KT 9999 FEW020 BKN200 22/12 Q1015=
ENBO NIL=
ENBR NIL=
ENCN NIL=
ENEB NIL=
ENFB NIL=
ENGM NIL=
ENHD NIL=
ENKR NIL=
ENSB NIL=
ENTC NIL=
ENVA NIL=
ENZV NIL=
EVRA 080850Z 31009KT 270V340 9999 OVC007 18/17 Q1015 BECMG BKN010
     OVC015=
EYVI 080850Z 27009KT 7000 BKN008 OVC027 16/14 Q1014 NOSIG=
####018000091####
SAIO31 KWBC 080800 RRI
METAR
VYMD 080830Z 18009KT 8000 BKN020 FEW025CB 36/24 Q.1006=
####018000028####
SAIY32 KWBC 080850
NIL=
####018000502####
SANO33 ENMI 080850
METAR ENAT 080850Z 13007KT 100V170 9999 FEW040 SCT080 19/10 Q1013 =
METAR ENBL 080850Z 22010KT 9999 SCT035 SCT070 15/08 Q1010=
METAR ENEV 080850Z 12007KT CAVOK 19/06 Q1011 =
METAR ENFL 080850Z 18018KT 9999 FEW015 SCT060 16/11 Q1010=
METAR ENKB 080850Z 08003KT 040V130 9999 FEW032 SCT070 16/11 Q1009=
METAR ENKR 080850Z 18005KT 9999 BKN015 12/09 Q1017 =
METAR ENML 080850Z 09005KT 9999 FEW050 SCT060 17/13 Q1009=
METAR ENNA 080850Z 16014KT 9999 FEW040 19/09 Q1014 =
####018000028####
SAIY42 KWBC 080850
NIL=
####018000028####
SAIY43 KWBC 080850
NIL=
####018000028####
SAIY41 KWBC 080850
NIL=
####018000369####
SANO35 ENMI 080850
METAR ENMS 080850Z 14005KT 9999 FEW050 22/10 Q1009 =
METAR ENRM 080850Z 03005KT 340V080 CAVOK 18/09 Q1010=
METAR ENRS 080850Z NIL=
METAR ENSK 080850Z 14006KT CAVOK 17/09 Q1010=
METAR ENSO 080850Z 18008KT 9999 FEW015 SCT070 17/12 Q1012=
METAR ENST 080850Z VRB02KT CAVOK 17/10 Q1010=
METAR ENVD 080850Z VRB02KT 9999 BKN023 12/08 Q1017=
####018000028####
SAGR41 KWBC 080850
NIL=
####018000419####
SANO36 ENMI 080850
METAR ENBS 080850Z VRB02KT 9999 FEW002 SCT012 BKN020 12/08 Q1017=
METAR ENHK 080850Z 10013KT 9999 FEW035 BKN080 15/08 Q1012=
METAR ENHV 080850Z 14005KT 110V190 CAVOK 13/08 Q1014 =
METAR ENLK 080850Z 23006KT CAVOK 18/11 Q1010=
METAR ENMH 080850Z 15007KT 9999 SCT015 13/09 Q1016=
METAR ENNK 080850Z VRB02KT 9999 BKN060 18/10 Q1011=
METAR ENNM 080850Z 24004KT 200V270 CAVOK 18/11 Q1009=
####018000592####
SANO32 ENMI 080850
METAR ENAL 080850Z 17008KT 9999 SCT055 SCT085 19/07 Q1009=
METAR ENCN 080850Z 20008KT 5000 BR BKN003 16/15 Q1015=
METAR ENHD 080850Z 20010KT 9999 FEW008 16/12 Q1013=
METAR ENRO 080850Z 20009KT 150V230 9999 SCT030 BKN110 17/08 Q1011=
METAR ENRY 080850Z 20010KT 160V230 4000 SHRA FEW004 SCT007 BKN015
           16/15 Q1016 TEMPO 7000 -RA BKN005=
METAR ENSB 080850Z 28006KT 9999 FEW015 SCT035 BKN060 09/06 Q1008
           NOSIG =
METAR ENTC 080850Z VRB02KT 9999 BKN065 16/08 Q1011 NOSIG =
METAR ENTO 080850Z 15007KT 9999 -DZ FEW010 SCT025 16/15 Q1016=
####018000028####
SAIY31 KWBC 080850
NIL=
####018000028####
SAGR31 KWBC 080850
NIL=
####018000136####
SAIY42 KWBC 080750 CCA
METAR
LIMT 080755Z /////KT 5000 BR SCT006 13/11 Q1024 RMK SCT MON CLD
     SCT VAL FOSCHIA VIS MIN 5000=
####018000501####
SANO41 KWBC 080850
METAR
ENAL NIL=
ENAN NIL=
ENAT NIL=
ENBL NIL=
ENBN 080850Z 02003KT 310V110 CAVOK 18/11 Q1010=
ENBV 080850Z NIL=
ENDI 080850Z NIL=
ENDU NIL=
ENEK 080850Z 23017KT 9999 FEW045 15/13 Q1015 W15/S3=
ENEV NIL=
ENFG 080850Z 17008KT 9999 VCSH FEW012 SCT017 BKN035 12/09
     Q1014=
ENFL NIL=
ENFR NIL=
ENGC 080850Z 19025KT CAVOK 13/11 Q1007=
ENHF 080850Z 19009KT 9999 FEW036 SCT060 16/07 Q1013=
ENHV NIL=
ENKB NIL=
ENLI NIL=
ENLK NIL=
ENMH NIL=
####018000686####
SANO42 KWBC 080850
METAR
ENML NIL=
ENMS NIL=
ENNA NIL=
ENNK NIL=
ENNM NIL=
ENNO 080850Z 08010KT 050V110 9999 FEW012 SCT020 BKN090 16/14
     Q1014=
ENOA 080850Z 19024KT CAVOK 13/11 Q1009=
ENOL NIL=
ENOV 080850Z VRB06KT 9999 SCT055 SCT080 18/06 Q1009=
ENRA 080850Z 09004KT 9999 BKN070 21/10 Q1009=
ENRM NIL=
ENRO NIL=
ENRS NIL=
ENRY NIL=
ENSD 080850Z NIL=
ENSG 080850Z 23005KT 180V290 9999 SCT040 SCT060 14/10 Q1011=
ENSH 080850Z 12003KT 9999 FEW040 BKN080 15/09 Q1010=
ENSK NIL=
ENSN 080850Z 13004KT 9999 FEW012 BKN180 15/14 Q1015=
ENSO NIL=
ENSR 080850Z 16007KT 120V210 CAVOK 19/09 Q1011=
ENST NIL=
ENSV NIL=
ENTO NIL=
ENVD NIL=
####018000345####
SANL31 KWBC 080850
METAR
EHAM NIL=
EHBD NIL=
EHBK NIL=
EHDL NIL=
EHEH 080855Z AUTO 22006KT 9999NDV FEW270 28/12 Q1019 BLU BLU=
EHGG NIL=
EHGR NIL=
EHHO NIL=
EHHV NIL=
EHKD NIL=
EHLE NIL=
EHLW NIL=
EHMZ NIL=
EHRD NIL=
EHSB NIL=
EHTE NIL=
EHTW NIL=
EHTX NIL=
EHVB NIL=
EHVK NIL=
EHVL NIL=
EHWO NIL=
####018002987####
SAUS20 KNKA 080855
METAR KHBR 080853Z AUTO 03004KT 10SM FEW033 SCT060 SCT070 23/22 
    A3007 RMK AO2 SLP164 T02330222 51004=
METAR KHDN 080855Z 11010KT 10SM CLR 11/06 A3032 RMK AO1 52003=
METAR KHYI 080855Z AUTO 05006KT 10SM FEW011 OVC021 25/24 A2995 RMK 
    AO1 57003=
METAR KILE 080855Z 10006KT 10SM FEW012 BKN030 OVC065 24/22 A2997 RMK 
    AO1 57007=
METAR KILN 080854Z AUTO 00000KT 4SM BR CLR 21/19 A3008 RMK AO2 
    SLP173 T02110194 56004=
METAR KIND 080854Z 18003KT 9SM BKN085 OVC110 26/20 A3003 RMK AO2 
    SLP160 T02560200 55008=
METAR KIPT 080854Z AUTO 00000KT 8SM CLR 20/17 A3005 RMK AO2 SLP171 
    T02000167 53003=
METAR KIZG 080854Z AUTO 00000KT 6SM BR BKN095 21/19 A3007 RMK AO2 
    SLP180 T02060194 53002=
METAR KJAC 080855Z AUTO 36006KT 10SM CLR 09/M01 A3033 RMK AO1 52010=
METAR KJHW 080855Z AUTO 00000KT 4SM CLR 20/19 A3011 RMK AO1=
METAR KJST 080854Z AUTO 00000KT 7SM CLR 22/16 A3014 RMK AO2 SLP185 
    T02170156 56004=
METAR KLBT 080854Z AUTO 28004KT 10SM CLR 26/18 A2992 RMK AO2 SLP130 
    T02560183 56008=
METAR KLCI 080855Z AUTO 00000KT 10SM BKN095 OVC110 23/20 A3005 RMK 
    AO1 54000=
METAR KLEW 080855Z 15004KT 5SM OVC004 21/19 A3009 RMK AO1 54000=
METAR KLEX 080854Z AUTO 00000KT 5SM HZ CLR 22/18 A3008 RMK AO2 
    SLP174 T02170183 56006 TSNO=
METAR KLPC 080855Z AUTO 01003KT 10SM OVC012 14/11 A2992 RMK AO1 
    57003 PNO=
METAR KLWM 080854Z AUTO 20003KT 5SM HZ OVC008 24/21 A3007 RMK AO2 
    SLP183 T02390211 53005=
METAR KLWT 080854Z AUTO 13004KT 10SM CLR 08/06 A3026 RMK AO2 SLP230 
    T00830056 53001=
METAR KMAI 080853Z AUTO 00000KT 7SM CLR 23/22 A3001 RMK AO2 SLP159 
    T02330217 56010=
METAR KMGJ 080854Z AUTO 00000KT 3SM BR CLR 22/20 A3002 RMK AO2 
    SLP164 T02170200 55002=
METAR KMIV 080854Z AUTO 09004KT 1 1/2SM BR SCT003 24/23 A2999 RMK 
    AO2 SLP155 T02390228 53002=
METAR KMJX 080855Z AUTO 00000KT 2 1/2SM FEW080 BKN120 23/21 A3001 
    RMK AO1 54000=
METAR KMLB 080853Z AUTO 00000KT 10SM CLR 22/21 A2997 RMK AO2 SLP149 
    T02220211 55008=
METAR KMRY 080854Z AUTO 35003KT 10SM OVC010 13/10 A2994 RMK AO2 
    SLP149 T01330100 56002=
METAR KMSV 080855Z AUTO 00000KT 5SM CLR 20/18 A3009 RMK AO1 57003=
METAR KMVL 080854Z AUTO 00000KT 2 1/2SM BR FEW050 20/19 A3006 RMK 
    AO2 SLP177 T02000194 53001=
METAR KOCH 080855Z AUTO 08003KT 10SM CLR 24/19 A3000 RMK AO1 54000=
METAR KOKK 080855Z AUTO 00000KT 7SM CLR 22/16 A3004 RMK AO1=
METAR KORH 080854Z AUTO 16005KT 3SM BR BKN002 OVC080 22/21 A3009 RMK 
    AO2 SLP180 T02170211 53000=
METAR KOXC 080855Z 13003KT 3SM SCT070 22/21 A3008 RMK AO1 54000=
METAR KPHL 080854Z 00000KT 6SM HZ SCT180 25/22 A3001 RMK AO2 SLP163 
    T02500222 52002 $=
METAR KPNE 080854Z 00000KT 5SM BR CLR 24/23 A3002 RMK AO2 SLP165 
    T02440228 50000=
METAR KPQI 080855Z AUTO 16004KT 10SM CLR 21/18 A2998 RMK AO1 52003=
METAR KPRX 080855Z 12003KT 8SM BKN015 24/22 A3002 RMK AO1 52003=
####018002090####
SAUS20 KNKA 080855
METAR KPSF 080854Z AUTO 00000KT 4SM BR CLR 19/18 A3006 RMK AO2 
    SLP148 T01890178 55001=
METAR KPTV 080855Z AUTO 15004KT 10SM CLR 19/13 A2984 RMK AO1 52003=
METAR KPTW 080854Z AUTO 00000KT 5SM HZ CLR 24/19 A3003 RMK AO2 
    SLP163 T02390194 53000 $=
METAR KPVC 080855Z 17005KT 3SM OVC002 21/19 A3009 RMK AO1 52007=
METAR KPWG 080855Z AUTO 11005KT 10SM OVC015 25/22 A2999 RMK AO1 
    LTG DSNT S 57003=
METAR KRDG 080854Z 00000KT 8SM CLR 24/21 A3001 RMK AO2 SLP162 
    T02390206 55001=
METAR KRKD 080855Z AUTO 00000KT 1/4SM OVC002 18/17 A3009 RMK AO1 
    54000=
METAR KROC 080854Z 21005KT 8SM FEW070 BKN100 23/20 A3004 RMK AO2 
    SLP170 T02280200 56005=
METAR KRUT 080855Z AUTO 14009KT 6SM CLR 22/19 A3005 RMK AO1 54000=
METAR KSBY 080854Z AUTO 08004KT 3SM BR FEW003 OVC100 24/23 A2999 RMK 
    AO2 SLP156 T02440233 51002=
METAR KSDY 080855Z AUTO 23003KT 10SM BKN080 14/09 A3014 RMK AO1 
    57003=
METAR KSFM 080855Z 00000KT 1SM OVC002 21/18 A3007 RMK AO1 54000=
METAR KSFZ 080855Z AUTO 00000KT 10SM OVC010 22/21 A3006 RMK AO1 
    52003=
METAR KSJN 080854Z AUTO 07008KT 10SM OVC100 23/03 A3016 RMK AO2 
    SLP106 T02280033 53007=
METAR KSYR 080854Z 15003KT 7SM FEW048 SCT090 SCT200 22/20 A3004 RMK 
    AO2 SLP167 T02220200 51001=
METAR KTAD 080854Z AUTO 33003KT 10SM OVC075 14/13 A3035 RMK AO2 
    SLP207 T01440128 51008=
METAR KTPL 080855Z 07004KT 10SM BKN021 OVC026 24/23 A2999 RMK AO1 
    54000=
METAR KVAY 080854Z AUTO 00000KT 1/4SM FG VV006 23/23 A3001 RMK AO2 
    SLP161 T02330233 54000=
METAR KVIS 080855Z AUTO 31003KT 10SM CLR 22/12 A2980 RMK AO1 52003=
METAR KVLD 080853Z AUTO 00000KT 7SM CLR 19/18 A3001 RMK AO2 SLP168 
    T01940183 56008=
METAR KVSF 080854Z AUTO 00000KT 4SM BR CLR 21/20 A3006 RMK AO2 
    SLP176 T02110200 53002 $=
METAR KVTA 080854Z AUTO 00000KT 3SM BR SCT065 19/18 A3007 RMK AO2 
    SLP175 T01940183 57004=
METAR KWVL 080855Z AUTO 19003KT 7SM OVC005 21/19 A3004 RMK AO1 52003=
METAR KWWD 080855Z AUTO 10SM BKN120 24/23 A3001 RMK AO1 54000=
####018000028####
SAOM43 KWBC 080850
NIL=
####018002944####
SAUS20 KNKA 080855
METAR KAAF 080853Z AUTO 00000KT 9SM CLR 23/22 A2999 RMK AO2 SLP157 
    T02330222 56008=
METAR KAFJ 080855Z AUTO 00000KT M1/4SM BKN003 17/16 A3010 RMK AO1=
METAR KAKR 080854Z AUTO 00000KT 5SM BR CLR 20/18 A3008 RMK AO2 
    SLP177 T02000183 56003=
METAR KBFL 080854Z AUTO 36006KT 10SM CLR 24/11 A2982 RMK AO2 SLP092 
    T02390106 51006=
METAR KBHB 080855Z AUTO 19006KT 3/4SM OVC002 18/17 A3010 RMK AO1 
    54000=
METAR KBID 080855Z AUTO 14007KT 1/2SM OVC002 21/21 A3005 RMK AO1 
    52003=
METAR KBLM 080855Z AUTO 08004KT 4SM SCT075 OVC100 24/21 A3004 RMK 
    AO1 54000=
METAR KBOS 080854Z 15005KT 10SM BKN019 23/19 A3006 RMK AO2 SLP179 
    T02280194 53001=
METAR KBTP 080855Z AUTO 00000KT 2SM CLR 18/18 A3009 RMK AO1=
METAR KBUF 080854Z 18004KT 8SM FEW090 22/19 A3005 RMK AO2 SLP171 
    T02220194 55004=
METAR KBUY 080854Z AUTO 00000KT 8SM CLR 23/20 A2998 RMK AO2 SLP141 
    T02280200 56007 $=
METAR KCGZ 080855Z AUTO 30005KT 10SM CLR 32/01 A2978 RMK AO1 57003=
METAR KCOD 080855Z 18005KT 10SM CLR 12/02 A3033 RMK AO1 52003=
METAR KCOS 080854Z 23004KT 9SM FEW029 OVC085 13/12 A3039 RMK AO2 
    SLP223 T01330122 50009=
METAR KCRW 080854Z 00000KT 4SM BR CLR 21/20 A3007 RMK AO2 SLP172 
    T02110200 56004=
METAR KDDH 080854Z AUTO 00000KT 2 1/2SM BR CLR 19/18 A3005 RMK AO2 
    SLP169 T01940183 53001=
METAR KDHN 080853Z AUTO 00000KT 10SM CLR 23/22 A3006 RMK AO2 SLP171 
    T02280217 56008=
METAR KDSV 080854Z AUTO 15006KT 6SM BR CLR 21/19 A3008 RMK AO2 
    SLP189 T02110194 56003=
METAR KDTO 080853Z AUTO 16005KT 10SM OVC024 26/23 A3000 RMK AO2 
    SLP149 T02560233 53000=
METAR KDYL 080854Z AUTO 00000KT 6SM BR CLR 22/21 A3002 RMK AO2 
    SLP158 T02170206 53001 TSNO=
METAR KEEN 080855Z AUTO 00000KT 3SM CLR 22/22 A3005 RMK AO1 54000=
METAR KEGE 080855Z 07007KT 10SM CLR 10/09 A3039 RMK AO1 52007=
METAR KEVV 080854Z AUTO 00000KT 10SM SCT080 25/22 A3005 RMK AO2 
    SLP170 T02500217 56005=
METAR KFIG 080854Z AUTO 00000KT 5SM BR CLR 18/17 A3011 RMK AO2 
    SLP184 T01830172 55001=
METAR KFKL 080855Z 00000KT 3SM CLR 19/17 A3013 RMK AO1=
METAR KFNL 080855Z AUTO 08004KT 4SM FEW003 14/13 A3031 RMK AO1 57003=
METAR KFZY 080854Z AUTO 00000KT 1 3/4SM BR CLR 20/19 A3004 RMK AO2 
    SLP168 T02000194 56001=
METAR KGCN 080854Z AUTO 00000KT 10SM CLR 09/M03 A3023 RMK AO2 SLP136 
    T00891033 53002=
METAR KGDV 080855Z AUTO 21006KT 10SM CLR 11/07 A3016 RMK AO1 57003=
METAR KGED 080854Z AUTO 00000KT 4SM BR BKN100 24/23 A3000 RMK AO2 
    SLP157 T02440233 53001=
METAR KGNV 080853Z AUTO 00000KT 1/2SM FG VV001 19/18 A3000 RMK AO2 
    SLP155 T01940183 58011=
METAR KGTU 080855Z 08003KT 10SM BKN012 OVC017 25/22 A3001 RMK AO1 
    57007=
METAR KGUC 080855Z AUTO 35006KT 10SM FEW120 09/03 A3044 RMK AO1 
    52010=
METAR KGXY 080855Z AUTO 00000KT 10SM BKN007 OVC080 15/12 A3032 RMK 
    AO1 54000=
####018000322####
SAHW31 KMSC 080855
METAR PHMK 080854Z AUTO 05007G17KT 10SM FEW025 SCT039 23/19 A3006 
    RMK AO2 SLP180 T02280189 52009 TSNO=
METAR PHOG 080854Z 04010KT 10SM FEW055 24/17 A3004 RMK AO2 SLP178 
    T02390172 51009=
METAR PGSN 080854Z 09010KT 10SM FEW025 28/24 A2989 RMK AO2 SLPNO 
    60000 T02780244 53012=
####018000087####
SASA31 KWBC 080800 RRE
METAR
SYCJ 080800Z 00000KT 9000 FEW016 24/23 Q1011 NOSIG=
####018000087####
SASA31 KWBC 080700 RRD
METAR
SYCJ 080700Z 00000KT 9000 FEW016 24/24 Q1011 NOSIG=
####018000493####
SASW31 KWBC 080850
METAR
LSGC 080850Z 26007KT 200V300 CAVOK 22/11 Q1024=
LSGG 080850Z 08003KT 020V170 CAVOK 26/11 Q1022 NOSIG=
LSGL NIL=
LSGN NIL=
LSGS 080850Z 23003KT 170V290 CAVOK 26/12 Q1022=
LSZA 080850Z 18003KT 120V230 9999 BKN055 25/13 Q1023 NOSIG=
LSZB 080850Z 32005KT 260V010 CAVOK 25/14 Q1022 NOSIG=
LSZD NIL=
LSZG 080850Z NIL=
LSZH 080850Z VRB03KT CAVOK 23/13 Q1022 NOSIG=
LSZL NIL=
LSZR 080850Z 28004KT CAVOK 21/15 Q1022 NOSIG RMK F=
LSZS 080850Z NIL=
####018001100####
SASN31 KWBC 080850
METAR
ESDB NIL=
ESDF 080850Z 23005KT 110V360 CAVOK 22/11 Q1021=
ESGG 080850Z 21013KT 9999 BKN038 19/14 Q1019=
ESGJ 080850Z AUTO 21013KT 9999NDV OVC040/// 20/11 Q1019=
ESGP 080850Z 19013KT 9999 OVC041 19/15 Q1018=
ESKN 080850Z 31010KT 270V350 CAVOK 23/11 Q1018=
ESMK 080850Z 19006KT 130V240 CAVOK 24/13 Q1020=
ESMS 080850Z 20010KT CAVOK 23/12 Q1021=
ESMX 080850Z 20007KT 170V240 CAVOK 22/11 Q1020=
ESNN 080850Z 14008KT 9999 FEW023 21/12 Q1013=
ESNO 080850Z AUTO 14012KT 9999NDV FEW086/// 20/12 Q1014=
ESNQ 080850Z 21006KT 9999 FEW031 16/10 Q1013 RERA REDZ=
ESNS 080850Z 17008KT 140V200 CAVOK 21/10 Q1015=
ESNU 080850Z 12008KT CAVOK 20/12 Q1015=
ESOK 080850Z 20009KT 9999 BKN025 19/13 Q1017=
ESOW 080850Z 23010KT 200V260 CAVOK 21/12 Q1017=
ESPA 080850Z 14011KT CAVOK 18/14 Q1016=
ESPC NIL=
ESSA 080850Z 24010KT CAVOK 22/12 Q1017 NOSIG=
ESSB 080850Z 27009KT CAVOK 23/11 Q1017=
ESSD 080850Z AUTO 25010KT 9999NDV BKN030/// 19/12 Q1016=
ESSN NIL=
ESSP 080850Z 25012KT CAVOK 21/11 Q1018=
ESSV 080850Z 30006KT 260V330 CAVOK 20/12 Q1019=
####018000123####
SAUS41 KLWX 080855
MTRRSP
METAR KRSP 080854Z AUTO 06005KT 8SM FEW080 26/15 A3009 RMK AO2 
SLP175 T02560150 56004 $
####018000113####
SAUS41 KLWX 080855
MTRDMH
METAR KDMH 080854Z AUTO 28/23 A3000 RMK AO2 SLP157 T02780228 53001 
PWINO TSNO
####018000149####
SAUS43 KLSX 080855
MTRCOU
METAR KCOU 080854Z AUTO 31003KT 8SM -RA BKN003 BKN070 23/22 A3004 
RMK AO2 SLP163 P0002 60004 T02280222 58003 TSNO
####018000615####
SAUK32 KWBC 080850
METAR
EGNM 080850Z 25006KT 140V300 9999 SCT018 16/10 Q1016=
EGNS 080850Z NIL=
EGNT 080850Z 23007KT 160V260 9999 FEW040 17/11 Q1015=
EGNV 080850Z 20009KT 9999 FEW021 17/13 Q1016=
EGNX 080850Z 21010KT CAVOK 17/09 Q1018=
EGPA NIL=
EGPB 080850Z NIL=
EGPC NIL=
EGPD 080850Z 22015KT 9999 FEW030 16/08 Q1010 NOSIG=
EGPF 080850Z 22015KT 9999 FEW020 SCT030 15/10 Q1013=
EGPH 080850Z 24014KT 9999 FEW028 15/09 Q1012=
EGPK 080850Z 22015KT 9999 SCT025 16/10 Q1013=
EGSH NIL=
EGTE 080850Z 10003KT 9999 FEW020 19/14 Q1018=
EGTG 080850Z 25005KT 9999 SCT018 SCT027 17/13 Q1019=
####018000411####
SAUK42 KWBC 080850
METAR
EGOS NIL=
EGOV NIL=
EGPC NIL=
EGPE NIL=
EGPF 080850Z 22015KT 9999 FEW020 SCT030 15/10 Q1013=
EGPL NIL=
EGPM NIL=
EGPN NIL=
EGPO NIL=
EGPT NIL=
EGPU NIL=
EGPW NIL=
EGQJ NIL=
EGQK NIL=
EGQL NIL=
EGQM NIL=
EGQS NIL=
EGSC NIL=
EGSS 080850Z 24005KT 9999 FEW006 BKN013 16/15 Q1019=
EGTC 080850Z 27008KT 220V300 9999 FEW015 17/11 Q1018=
EGTI NIL=
####018000570####
SAUK41 KWBC 080850
METAR
EGAC 080850Z 20013KT 9999 FEW019 SCT032 16/10 Q1014=
EGAE NIL=
EGBE NIL=
EGBJ NIL=
EGDC NIL=
EGDG NIL=
EGDL NIL=
EGDM NIL=
EGDN NIL=
EGDP NIL=
EGDR NIL=
EGDY NIL=
EGFH NIL=
EGGP 080850Z 21010KT 9999 FEW030 17/12 Q1017=
EGGW 080850Z 26007KT 9999 BKN024 18/13 Q1019=
EGHE 080850Z 19006KT 9999 FEW018 18/13 Q1018=
EGJA 080850Z 19003KT 9999 3000SE VCFG FEW001 BKN015 17/16
     Q1020=
EGLC 080850Z 24005KT 200V270 9999 BKN020 20/14 Q1019=
EGNC NIL=
EGNT 080850Z 23007KT 160V260 9999 FEW040 17/11 Q1015=
####018000028####
SAUR31 KWBC 080850
NIL=
####018001065####
SAUK31 KWBC 080850
METAR
EGAA 080850Z 21013KT 9999 FEW018 15/10 Q1014=
EGBB 080850Z 22007KT 190V290 CAVOK 17/10 Q1018=
EGCC 080850Z 21010KT 9999 FEW021 17/12 Q1017=
EGFF 080850Z 22005KT 180V260 9999 SCT016 17/12 Q1019=
EGGD 080850Z 23005KT 9999 FEW010 16/14 Q1019=
EGGP 080850Z 21010KT 9999 FEW030 17/12 Q1017=
EGGW 080850Z 26007KT 9999 BKN024 18/13 Q1019=
EGHD 080850Z 15003KT 9999 FEW022 18/13 Q1019=
EGHH 080850Z 03003KT 9999 SCT009 BKN014 17/16 Q1019=
EGHI 080850Z 33006KT 290V350 6000 -SHRA SCT007 BKN012 16/15
     Q1019=
EGJB 080850Z 25004KT 210V300 9999 FEW002 BKN006 17/16 Q1020=
EGJJ 080850Z 00000KT 9999 FEW011 19/17 Q1019 NOSIG=
EGKA 080850Z 23006KT 9999 SCT017 20/17 Q1019=
EGKB 080850Z 21004KT 160V280 9999 BKN014 19/15 Q1019=
EGKK 080850Z 20004KT 140V240 9999 SCT016 20/15 Q1019=
EGLF 080850Z 31007KT 5000 -DZ BKN006 17/15 Q1019=
EGLL 080850Z 30006KT 9999 FEW005 BKN011 17/15 Q1019=
EGMC 080850Z 25007KT 9999 FEW018 20/16 Q1019=
EGMD 080850Z 28010KT 9999 FEW006 BKN011 20/16 Q1020=
EGNH NIL=
EGNJ NIL=
####018000162####
SAXX99 KWBC 080800 RRX
METAR
ENHE 080840Z 17027KT 9999 FEW040 SCT100 13/10 Q1008=
K4O4 080848Z AUTO 00000KT 7SM SCT001 SCT012 23/22 A3004 RMK
     AO2=
####018000047####
SAOS32 LOWM 080850
METAR LOXZ 080850Z NIL=
####018000079####
SAUK33 EGGY 080850 RRA
METAR EGPB 080850Z 19016KT 9999 FEW012 14/11 Q1006=
####018000075####
SAMP31 LMMM 080900 RRB
METAR HLLB 080850Z
32018KT CAVOK 30/16 Q1016=
####018000763####
SAIY31 LIIB 080850
METAR LIEA 080850Z 03004KT 300V110 CAVOK 29/21 Q1019=
METAR LIEE 080845Z 16005KT CAVOK 27/17 Q1019 NOSIG=
METAR LIEO 080850Z 03007KT 350V070 9999 FEW030 30/15 Q1020=
METAR LIMC 080850Z VRB03KT 9999 SCT050 BKN080 25/14 Q1022 NOSIG=
METAR LIME 080850Z 11005KT 060V180 9999 SCT055 25/15 Q1023=
METAR LIMF 080850Z 08003KT 9999 SCT030 SCT050 23/16 Q1023=
METAR LIMJ 080850Z 08006KT CAVOK 29/22 Q1020=
METAR LIML 080850Z 11007KT 9999 FEW080 26/17 Q1022 NOSIG=
METAR LIRA 080845Z 27003KT 9999 SCT018 28/21 Q1019=
METAR LIRF 080850Z 20009KT 150V230 9999 SCT020 29/18 Q1019 NOSIG=
METAR LIRN 080850Z 05009KT CAVOK 26/14 Q1018=
METAR LIRP 080845Z 10009KT CAVOK 28/15 Q1019 NOSIG=
METAR LIRQ 080850Z VRB03KT CAVOK 33/15 Q1020=
####018000087####
SAUK34 EGGY 080850 RRA
METAR EGHQ 080850Z 18007KT 150V210 9999 FEW020 18/12 Q1019=
####018000290####
SAFI33 EFHK 080850
EFJO 080850Z 04004KT 010V070 CAVOK 23/19 Q1015=
EFLP 080850Z 11007KT 040V170 CAVOK 29/16 Q1014=
EFMI 080850Z AUTO 34003KT 9999 FEW037 26/19 Q1014=
EFSA 080850Z 35003KT 9999 FEW025 26/19 Q1014=
EFUT 080850Z VRB04KT CAVOK 29/16 Q1014=
METAR EFVR 080855Z NIL=
####018000128####
SAPK31 OPKC 080855
METAR OPKC 080900Z 12012KTS 9000 SCT020 SCT030 TCU 35/24 Q.1003
TEMPO NE 25KTS OR MORE TSRA FEW025 CB=
####018000385####
SABX31 EBBR 080850
METAR EBAW 080850Z 24006KT 170V280 CAVOK 26/12 Q1019 NOSIG=
METAR EBBR 080850Z 25007KT 210V270 CAVOK 27/10 Q1020 NOSIG=
METAR EBCI 080850Z 20007KT 160V250 CAVOK 27/11 Q1020 NOSIG=
METAR EBLG 080850Z 22006KT 180V270 CAVOK 27/09 Q1020 NOSIG=
METAR EBOS 080850Z 28007KT 250V310 CAVOK 20/16 Q1020 NOSIG=
METAR ELLX 080850Z VRB02KT CAVOK 25/10 Q1021 NOSIG=
####018000379####
SAOS31 LOWM 080850
METAR LOWW 080850Z 35005KT 310V050 9999 FEW040 21/09 Q1023 NOSIG=
METAR LOWL 080850Z 12004KT 050V170 CAVOK 20/10 Q1024 NOSIG=
METAR LOWS 080850Z VRB02KT CAVOK 22/08 Q1023 NOSIG=
METAR LOWI 080850Z VRB01KT CAVOK 21/12 Q1022 NOSIG=
METAR LOWG 080850Z VRB04KT 9999 FEW060 22/09 Q1023 NOSIG=
METAR LOWK 080850Z VRB03KT 9999 FEW060 21/11 Q1024 NOSIG=
####018000173####
SAUK31 EGGY 080850 CCA
METAR COR EGCC 080850Z 21010KT 9999 FEW021 17/12 Q1017 NOSIG=
METAR COR EGLL 080850Z 30006KT 9999 FEW005 BKN011 17/15 Q1019 BECMG
    SCT040=
####018000663####
SANO31 ENMI 080850
METAR ENAN 080850Z 15007KT 9999 FEW045 18/09 Q1010 NOSIG =
METAR ENBR 080850Z 19011KT 9999 FEW015 SCT047 BKN080 16/12 Q1012
           NOSIG =
METAR ENBO 080850Z 01009KT 320V040 9999 FEW040 BKN100 17/09 Q1010
           NOSIG=
METAR ENDU 080850Z 10004KT 020V160 9999 FEW050 SCT080 20/08 Q1011
           NOSIG=
METAR ENGM 080842Z 22007KT 9999 FEW011 SCT014 BKN018 16/14 Q1015
           TEMPO BKN012=
METAR ENOL 080850Z 31011KT 9999 FEW025 SCT090 18/13 Q1009 NOSIG=
METAR ENVA 080850Z 19007KT 140V250 9999 FEW050 SCT160 21/11 Q1009
           NOSIG =
METAR ENZV 080850Z 19010KT 9999 FEW020 SCT180 18/12 Q1013 NOSIG=
####018000668####
SAIY32 LIIB 080850
METAR LIBD 080850Z 36011KT 9999 FEW030 25/12 Q1020=
METAR LIBR 080845Z /////KT CAVOK 25/15 Q1017 NOSIG=
METAR LICC 080850Z 09005KT CAVOK 29/20 Q1018=
METAR LICJ 080850Z 04015KT CAVOK 27/22 Q1018=
METAR LIPB 080850Z 16008KT 9999 FEW060 26/12 Q1022=
METAR LIPE 080850Z 12007KT 090V160 CAVOK 27/15 Q1021=
METAR LIPH 080845Z 01002KT 9999 SCT035 BKN070 24/18 Q1022=
METAR LIPK 080850Z VRB03KT CAVOK 26/14 Q1021=
METAR LIPQ 080850Z VRB02KT 9999 FEW030 BKN050 25/14 Q1023=
METAR LIPR 080845Z 12006KT CAVOK 27/16 Q1021=
METAR LIPX 080845Z 10007KT 9999 SCT080 27/14 Q1021=
METAR LIPZ 080850Z 13007KT 9999 SCT050 SCT070 26/16 Q1022=
####018000114####
SAUS43 KIWX 080856
MTRFWA
METAR KFWA 080854Z 24004KT 10SM CLR 23/21 A3006 RMK AO2 SLP170 
T02330206 56004
####018001541####
SAUS17 KAWN 080900
METAR KBAD 080855Z AUTO 00000KT 10SM BKN160 24/23 A3002 RMK AO2 SLP164
      T02420235 53002 $=
METAR KBLV 080855Z AUTO 00000KT 10SM FEW060 24/24 A3002 RMK AO2 SLP163
      T02430242 56006=
METAR KCBM 080855Z AUTO 29005KT 10SM CLR 24/23 A3004 RMK AO2 SLP173
      T02400232 55000 $=
METAR KCEF 080855Z AUTO 16005KT 10SM SCT100 24/22 A3003 RMK AO2 SLP170
      T02360217 53001 PWINO $=
METAR KDAA 080855Z AUTO 00000KT 9SM R32/5500FT CLR 23/21 A2999 RMK
      AO2 SLP155 T02330207 53001=
METAR KEDW 080855Z AUTO 19008KT 10SM CLR 21/06 A2986 RMK AO2 SLP058
      T02090061 50001=
METAR KEFD 080850Z 10009KT 9SM FEW025 BKN130 28/24 A2993=
METAR KFHU 080855Z 14004KT 10SM FEW120 24/09 A3006 RMK SLP100 53003=
METAR KGRF 080855Z AUTO 00000KT 10SM CLR 16/11 A2994 RMK AO2 SLP137
      60000 T01630111 52007 $=
METAR KGUS 080855Z AUTO 17003KT 10SM CLR 23/20 A3004 RMK AO2 SLP165
      T02260204 56007=
METAR KHMN 080855Z 34008KT 10SM BKN110 OVC140 21/14 A3013 RMK AO2A
      SLP122 T02070138 58005 $=
METAR KIAB 080855Z AUTO 07004KT 10SM CLR 22/20 A3008 RMK AO2 SLP173
      T02210202 58005=
METAR KLRF 080855Z AUTO 00000KT 10SM BKN200 BKN230 23/22 A3005 RMK
      AO2 SLP174 T02290220 50005=
METAR KMGE 080855Z AUTO 00000KT 10SM CLR 23/19 A3004 RMK AO2 SLP162
      T02280190 56009 $=
METAR KMMT 080855Z AUTO 34003KT 10SM CLR 23/19 A2998 RMK AO2 SLP150
      T02250188 57009=
METAR KNFW 080852Z AUTO 13006KT 10SM CLR 26/22 A3003 RMK AO2 SLP152
      T02610222 55003=
####018001503####
SAZZ40 KAWN 080900 RRC
METAR KBAD 080855Z AUTO 00000KT 10SM BKN160 24/23 A3002 RMK AO2 SLP164
      T02420235 53002 $=
METAR KBAF 080853Z 17003KT 9SM SCT075 OVC110 24/21 A3003 RMK AO2 SLP165
      T02390211 53001=
METAR KBUR 080853Z 17003KT 8SM OVC009 16/13 A2991 RMK AO2 SLP117 T01560128
      58002=
METAR KDAA 080855Z AUTO 00000KT 9SM R32/5500FT CLR 23/21 A2999 RMK
      AO2 SLP155 T02330207 53001=
METAR KEDW 080855Z AUTO 19008KT 10SM CLR 21/06 A2986 RMK AO2 SLP058
      T02090061 50001=
METAR KGUS 080855Z AUTO 17003KT 10SM CLR 23/20 A3004 RMK AO2 SLP165
      T02260204 56007=
METAR KIAB 080855Z AUTO 07004KT 10SM CLR 22/20 A3008 RMK AO2 SLP173
      T02210202 58005=
METAR KMMT 080855Z AUTO 34003KT 10SM CLR 23/19 A2998 RMK AO2 SLP150
      T02250188 57009=
METAR KOFF 080855Z AUTO 35005KT 10SM CLR 20/20 A3011 RMK AO2 SLP184
      T02030197 53003 $=
METAR KRIV 080855Z AUTO 28003KT 7SM CLR 12/11 A2992 RMK AO2 SLP128
      T01210107 58001=
METAR KSUU 080855Z AUTO 24022KT 10SM CLR 13/10 A2982 RMK AO2 PK WND
      24030/0824 SLP100 T01260099 51004 RVRNO $=
METAR PAEI 080855Z AUTO 00000KT 10SM CLR 12/06 A3004 RMK AO2 SLP174
      T01160065 402240097 52004 $=
METAR PHJR 080853Z 06003KT 10SM FEW055 23/18 A3006 RMK AO2 SLP184 T02330183
      53009=
METAR TIST 080853Z AUTO 08005KT 10SM CLR 28/24 A2997 RMK AO2 SLP148
      T02780244 56001 TSNO=
METAR TISX 080853Z 08008KT 10SM CLR 27/24 A2996 RMK AO2 SLP145 T02720239
      58005=
####018001706####
SAEU KAWN 080900 RRE
METAR EBAW 080850Z 24006KT 170V280 CAVOK 26/12 Q1019 NOSIG=
METAR EBBR 080850Z 25007KT 210V270 CAVOK 27/10 Q1020 NOSIG=
METAR EBCI 080850Z 20007KT 160V250 CAVOK 27/11 Q1020 NOSIG=
METAR EBLG 080850Z 22006KT 180V270 CAVOK 27/09 Q1020 NOSIG=
METAR EBOS 080850Z 28007KT 250V310 CAVOK 20/16 Q1020 NOSIG=
METAR COR EGCC 080850Z 21010KT 9999 FEW021 17/12 Q1017 NOSIG=
METAR COR EGLL 080850Z 30006KT 9999 FEW005 BKN011 17/15 Q1019 BECMG
      SCT040=
METAR ELLX 080850Z VRB02KT CAVOK 25/10 Q1021 NOSIG=
METAR ENBN 080850Z 02003KT 310V110 CAVOK 18/11 Q1010=
METAR ENEK 080850Z 23017KT 9999 FEW045 15/13 Q1015 W15/S3=
METAR ENFG 080850Z 17008KT 9999 VCSH FEW012 SCT017 BKN035 12/09 Q1014=
METAR ENGC 080850Z 19025KT CAVOK 13/11 Q1007=
METAR ENHF 080850Z 19009KT 9999 FEW036 SCT060 16/07 Q1013=
METAR ENNO 080850Z 08010KT 050V110 9999 FEW012 SCT020 BKN090 16/14
      Q1014=
METAR ENOA 080850Z 19024KT CAVOK 13/11 Q1009=
METAR ENOV 080850Z VRB06KT 9999 SCT055 SCT080 18/06 Q1009=
METAR ENRA 080850Z 09004KT 9999 BKN070 21/10 Q1009=
METAR ENSG 080850Z 23005KT 180V290 9999 SCT040 SCT060 14/10 Q1011=
METAR ENSH 080850Z 12003KT 9999 FEW040 BKN080 15/09 Q1010=
METAR ENSN 080850Z 13004KT 9999 FEW012 BKN180 15/14 Q1015=
METAR ENSR 080850Z 16007KT 120V210 CAVOK 19/09 Q1011=
METAR LIEA 080850Z 03004KT 300V110 CAVOK 29/21 Q1019=
METAR LIEE 080845Z 16005KT CAVOK 27/17 Q1019 NOSIG=
METAR LIEO 080850Z 03007KT 350V070 9999 FEW030 30/15 Q1020=
METAR LIMJ 080850Z 08006KT CAVOK 29/22 Q1020=
METAR LIRA 080845Z 27003KT 9999 SCT018 28/21 Q1019=
METAR LIRP 080845Z 10009KT CAVOK 28/15 Q1019 NOSIG=
METAR LIRQ 080850Z VRB03KT CAVOK 33/15 Q1020=
####018000125####
SAUS41 KBGM 080856
MTRAVP
METAR KAVP 080854Z AUTO 11003KT 7SM CLR 21/18 A3006 RMK AO2 SLP165 
T02060178 55001 TSNO $
####018000076####
SAMP31 LMMM 080900 RRA
METAR HLLT 080850Z 00000KT 7000 SKC 28/19 Q1019=
####018000071####
SALY31 HLLB 080900
METAR HLLB 080850Z 
32018KT CAVOK 30/16 Q1016=
####018000072####
SALY31 HLLS 080900
METAR HLLS 080850Z 
11O14KT CAVOK  33/11 Q1O17=
####018000137####
SARW20 HRYR 080900
METAR
HRYR 080900Z 13011KT 9999 SCT030 22/12 Q1023 NOSIG=
HRYG 080900Z 19008KT 9999 SCT025 23/13 Q1022 NOSIG=
####018000134####
SAIY41 LIIB 080800 CCA
METAR LIMT 080755Z /////KT 5000 BR SCT006 13/11 Q1024 RMK SCT MON CLD
      SCT VAL FOSCHIA VIS MIN 5000=
####018000077####
SPCN47 CWAO 080854
SPECI CYPQ 080854Z AUTO ///// 3SM CLR 21/21 A3003=

####018000116####
SAUS41 KPHI 080856
MTRACY
METAR KACY 080854Z 00000KT 4SM BR CLR 23/22 A3002 RMK AO2 SLP164 
T02330217 53001
####018001551####
SANA35 KAWN 080900
METAR KBAD 080855Z AUTO 00000KT 10SM BKN160 24/23 A3002 RMK AO2 SLP164
      T02420235 53002 $=
METAR KBRO 080853Z 33005KT 10SM FEW016 SCT022 27/26 A2977 RMK AO2 RAB08E46
      SLP080 P0001 60001 T02670256 56012=
METAR KFLL 080853Z 07006KT 10SM FEW020 28/24 A2991 RMK AO2 SLP129 T02780239
      56010=
METAR KJFK 080851Z 00000KT 4SM BR SCT006 BKN090 BKN130 25/23 A3002
      RMK AO2 SLP166 T02500233 55002 $=
METAR KMCO 080853Z 36003KT 10SM FEW120 22/21 A2999 RMK AO2 SLP153 T02220206
      55009=
METAR KNHK 080852Z AUTO 11004KT 4SM BR FEW011 26/24 A2998 RMK AO2 SLP151
      T02610239 53001=
METAR KNIP 080853Z 25004KT 10SM CLR 23/21 A3000 RMK AO2 SLP153 T02280211
      58010=
METAR KNQX 080853Z AUTO 05004KT 10SM TS CLR 28/25 A2992 RMK AO2 TSB42
      SLP129 T02830250 56004 $=
METAR KNRB 080852Z AUTO 27003KT 10SM CLR 23/20 A2999 RMK AO2 SLP153
      T02280200 58011=
METAR KOFF 080855Z AUTO 35005KT 10SM CLR 20/20 A3011 RMK AO2 SLP184
      T02030197 53003 $=
METAR KPBI 080853Z 06004KT 10SM SCT023 BKN035 BKN250 28/24 A2992 RMK
      AO2 SLP132 T02780239 55013=
METAR KPOB 080855Z AUTO 00000KT 10SM CLR 24/20 A2994 RMK AO2 SLP137
      T02370196 55004 $=
METAR SPIM 080900Z VRB02KT 6000 OVC022 16/14 Q1013 NOSIG RMK PP000=
METAR TBPB 080900Z 08017KT 9999 BKN014 28/24 Q1012 NOSIG=
METAR TIST 080853Z AUTO 08005KT 10SM CLR 28/24 A2997 RMK AO2 SLP148
      T02780244 56001 TSNO=
METAR TISX 080853Z 08008KT 10SM CLR 27/24 A2996 RMK AO2 SLP145 T02720239
      58005=
####018000320####
SAEU KAWN 080800 RRX
METAR ENHE 080840Z 17027KT 9999 FEW040 SCT100 13/10 Q1008=
METAR LGAD 080820Z 32013KT 9999 FEW020 28/19 Q1013=
METAR LGLM 080820Z 05010KT 9999 FEW008 SCT020 21/18 Q1013 RMK SCT080=
METAR LIMT 080755Z /////KT 5000 BR SCT006 13/11 Q1024 RMK SCT MON CLD
      SCT VAL FOSCHIA VIS MIN 5000=
####018000517####
SAXX70 KAWN 080900 RRB
METAR KQEX 080850Z AUTO 30002KT 7SM CLR 29/18 A2973 RMK A02=
METAR KQBL 080855Z AUTO 00000KT 10SM CLR 24/23 A3005 RMK AO2 SLP173
      T02380228 57008=
METAR KQHY 080855Z AUTO 01002KT 12SM CLR 24/22 A3004 RMK AO2 SLP173
      T02380222 57008=
METAR KQMG 080855Z AUTO 02014KT 12SM SCT130 21/14 A3014 RMK AO2 SLP134
      T02050140 58002 $=
METAR KQTO 080855Z 32012G23KT 9999 CLR 44/04 A2961 RMK SLP025 56010=
METAR KQTU 080855Z 32012KT 9999 CLR 42/04 A2966 RMK SLP023 57005=
####018001567####
SAZZ40 KAWN 080900 RRD
METAR ETAD 080855Z AUTO 00000KT 9999 CLR 26/09 A3017 RMK AO2 SLP199
      T02620088 53001 $=
METAR KCBM 080855Z AUTO 29005KT 10SM CLR 24/23 A3004 RMK AO2 SLP173
      T02400232 55000 $=
METAR KDYS 080855Z AUTO 35003KT 10SM CLR 21/21 A3003 RMK AO2 SLP147
      T02120208 55002 $=
METAR KEND 080855Z AUTO 34004KT 10SM FEW120 22/21 A3006 RMK AO2 SLP168
      T02220213 58001 $=
METAR KFBG 080855Z AUTO 00000KT 10SM CLR 26/18 A2993 RMK AO2 SLP133
      T02570183 56005 $=
METAR KHIF 080855Z AUTO 00000KT 10SM CLR 20/05 A3011 RMK AO2 SLP092
      T01960053 51008 $=
METAR KMTC 080855Z 00000KT 10SM FEW140 SCT240 22/22 A3001 RMK SLP166
      58005=
METAR KMUO 080855Z AUTO 07003KT 10SM CLR 15/01 A3006 RMK AO2 SLP155
      T01490014 51008=
METAR KNQX 080853Z AUTO 05004KT 10SM TS CLR 28/25 A2992 RMK AO2 TSB42
      SLP129 T02830250 56004 $=
METAR KRND 080855Z AUTO 03005KT 10SM R14R/4500VP6000FT OVC013 25/23
      A2994 RMK AO2 CIG 011V018 SLP127 T02490234 56006=
METAR MROC 080900Z 00000KT 3000 -RA BR FEW002 SCT005 BKN012 19/19 A3001=
METAR PABI 080853Z AUTO 00000KT 10SM CLR 14/08 A3008 RMK AO2 SLP187
      T01390078 402110117 53003 TSNO=
METAR PASC 080853Z 22013KT 10SM BKN036 BKN070 OVC210 11/07 A3000 RMK
      AO2 SLP161 T01060072 401060050 55004=
METAR PHHI 080855Z AUTO 04005KT 8SM -RA SCT036 BKN048 BKN060 22/19
      A3007 RMK AO2 RAB0847 SLP171 P0001 60001 T02180185 52009=
METAR RODN 080855Z AUTO 18011KT 9999 FEW021 SCT200 29/26 A2981 RMK
      AO2 SLP095 T02930259 55000=
####018001786####
SAEU KAWN 080900 RRF
METAR EGUL 080855Z AUTO 26007KT 9999 OVC026 18/15 A3007 RMK AO2 DZE0823
      SLP183 P0000 60000 T01780150 51011=
METAR ENAT 080850Z 13007KT 100V170 9999 FEW040 SCT080 19/10 Q1013=
METAR ENBL 080850Z 22010KT 9999 SCT035 SCT070 15/08 Q1010=
METAR ENBS 080850Z VRB02KT 9999 FEW002 SCT012 BKN020 12/08 Q1017=
METAR ENCN 080850Z 20008KT 5000 BR BKN003 16/15 Q1015=
METAR ENEV 080850Z 12007KT CAVOK 19/06 Q1011=
METAR ENFL 080850Z 18018KT 9999 FEW015 SCT060 16/11 Q1010=
METAR ENHD 080850Z 20010KT 9999 FEW008 16/12 Q1013=
METAR ENHK 080850Z 10013KT 9999 FEW035 BKN080 15/08 Q1012=
METAR ENHV 080850Z 14005KT 110V190 CAVOK 13/08 Q1014=
METAR ENKB 080850Z 08003KT 040V130 9999 FEW032 SCT070 16/11 Q1009=
METAR ENLK 080850Z 23006KT CAVOK 18/11 Q1010=
METAR ENMH 080850Z 15007KT 9999 SCT015 13/09 Q1016=
METAR ENML 080850Z 09005KT 9999 FEW050 SCT060 17/13 Q1009=
METAR ENNK 080850Z VRB02KT 9999 BKN060 18/10 Q1011=
METAR ENNM 080850Z 24004KT 200V270 CAVOK 18/11 Q1009=
METAR ENRO 080850Z 20009KT 150V230 9999 SCT030 BKN110 17/08 Q1011=
METAR ENRY 080850Z 20010KT 160V230 4000 SHRA FEW004 SCT007 BKN015 16/15
      Q1016 TEMPO 7000 -RA BKN005=
METAR ENTC 080850Z VRB02KT 9999 BKN065 16/08 Q1011 NOSIG=
METAR ENTO 080850Z 15007KT 9999 -DZ FEW010 SCT025 16/15 Q1016=
METAR ETAD 080855Z AUTO 00000KT 9999 CLR 26/09 A3017 RMK AO2 SLP199
      T02620088 53001 $=
METAR LIMC 080850Z VRB03KT 9999 SCT050 BKN080 25/14 Q1022 NOSIG=
METAR LIME 080850Z 11005KT 060V180 9999 SCT055 25/15 Q1023=
METAR LIMF 080850Z 08003KT 9999 SCT030 SCT050 23/16 Q1023=
METAR LIML 080850Z 11007KT 9999 FEW080 26/17 Q1022 NOSIG=
METAR LIRF 080850Z 20009KT 150V230 9999 SCT020 29/18 Q1019 NOSIG=
METAR LIRN 080850Z 05009KT CAVOK 26/14 Q1018=
####018001580####
SANA14 KAWN 080900
METAR KEGI 080855Z AUTO 00000KT 2 1/2SM R18/2400V4500FT BR CLR 23/22
      A3002 RMK AO2 VIS 1 1/4V5 SLP165 T02270223 56007 $=
METAR KNHK 080852Z AUTO 11004KT 4SM BR FEW011 26/24 A2998 RMK AO2 SLP151
      T02610239 53001=
METAR KNIP 080853Z 25004KT 10SM CLR 23/21 A3000 RMK AO2 SLP153 T02280211
      58010=
METAR KNKT 080854Z AUTO 04007KT 5SM HZ CLR 26/22 A2991 RMK AO2 SLP125
      T02610222 55006 $=
METAR KNQX 080853Z AUTO 05004KT 10SM TS CLR 28/25 A2992 RMK AO2 TSB42
      SLP129 T02830250 56004 $=
METAR KNRB 080852Z AUTO 27003KT 10SM CLR 23/20 A2999 RMK AO2 SLP153
      T02280200 58011=
METAR KNZY 080852Z 31006KT 8SM -DZ FEW010 OVC013 18/13 A2989 RMK AO2
      DZB51 SLP122 P0000 60000 T01780133 58006 $=
METAR KOFF 080855Z AUTO 35005KT 10SM CLR 20/20 A3011 RMK AO2 SLP184
      T02030197 53003 $=
METAR KOZR 080855Z AUTO 00000KT 9SM R06/5500VP6000FT CLR 22/22 A3002
      RMK AO2 SLP162 T02190219 55006=
METAR KPOB 080855Z AUTO 00000KT 10SM CLR 24/20 A2994 RMK AO2 SLP137
      T02370196 55004 $=
METAR KRDR 080855Z AUTO 23007KT 10SM CLR 14/13 A3004 RMK AO2 SLP181
      T01400128 56002 $=
METAR KRIV 080855Z AUTO 28003KT 7SM CLR 12/11 A2992 RMK AO2 SLP128
      T01210107 58001=
METAR KRND 080855Z AUTO 03005KT 10SM R14R/4500VP6000FT OVC013 25/23
      A2994 RMK AO2 CIG 011V018 SLP127 T02490234 56006=
METAR KSUU 080855Z AUTO 24022KT 10SM CLR 13/10 A2982 RMK AO2 PK WND
      24030/0824 SLP100 T01260099 51004 RVRNO $=
METAR SPIM 080900Z VRB02KT 6000 OVC022 16/14 Q1013 NOSIG RMK PP000=
####018000119####
SAIN90 VECC 080850
METAR VECC 080850Z 21010KT 4000 HZ SCT018 FEW030CB SCT100 33/25 Q1005
TEMPO TL0920 1500 TSRA=
####018001454####
SAUS17 KAWN 080900 RRA
METAR KAFF 080855Z AUTO 17007KT 10SM FEW002 SCT016 OVC023 13/12 A3040
      RMK AO2 RAB0834E0851DZB0832E0834 FEW V SCT SLP206 P0001
      60001 T01270122 50006=
METAR KBAB 080855Z AUTO 16004KT 10SM SCT180 18/12 A2982 RMK AO2 SLP097
      T01810122 53008 $=
METAR KDOV 080855Z AUTO 00000KT 3SM BR CLR 24/24 A2999 RMK AO2 VIS
      1 RWY19 SLP157 T02360236 53001=
METAR KDYS 080855Z AUTO 35003KT 10SM CLR 21/21 A3003 RMK AO2 SLP147
      T02120208 55002 $=
METAR KEND 080855Z AUTO 34004KT 10SM FEW120 22/21 A3006 RMK AO2 SLP168
      T02220213 58001 $=
METAR KFBG 080855Z AUTO 00000KT 10SM CLR 26/18 A2993 RMK AO2 SLP133
      T02570183 56005 $=
METAR KFTK 080855Z AUTO 00000KT 10SM CLR 23/21 A3006 RMK AO2 SLP173
      T02310211 57005=
METAR KGSB 080855Z AUTO 00000KT 10SM CLR 24/19 A2991 RMK AO2 SLP128
      T02420191 56004 $=
METAR KHFF 080855Z AUTO 00000KT 10SM CLR 22/18 A2996 RMK AO2 SLP142
      T02180179 58006 $=
METAR KHIF 080855Z AUTO 00000KT 10SM CLR 20/05 A3011 RMK AO2 SLP092
      T01960053 51008 $=
METAR KLHW 080855Z AUTO 00000KT 10SM CLR 22/20 A2998 RMK AO2 SLP154
      T02180200 56008=
METAR KMTC 080855Z 00000KT 10SM FEW140 SCT240 22/22 A3001 RMK SLP166
      58005=
METAR KMUI 080855Z AUTO 00000KT 10SM CLR 22/19 A3002 RMK AO2 SLP162
      T02190195 55003 $=
METAR KMUO 080855Z AUTO 07003KT 10SM CLR 15/01 A3006 RMK AO2 SLP155
      T01490014 51008=
####018001614####
SAZZ40 KAWN 080900 RRE
METAR ETOU 080855Z AUTO VRB03KT 9999 CLR 25/11 A3016 RMK AO2 SLP208
      T02530113 50002=
METAR KAFF 080855Z AUTO 17007KT 10SM FEW002 SCT016 OVC023 13/12 A3040
      RMK AO2 RAB0834E0851DZB0832E0834 FEW V SCT SLP206 P0001
      60001 T01270122 50006=
METAR KDOV 080855Z AUTO 00000KT 3SM BR CLR 24/24 A2999 RMK AO2 VIS
      1 RWY19 SLP157 T02360236 53001=
METAR KFTK 080855Z AUTO 00000KT 10SM CLR 23/21 A3006 RMK AO2 SLP173
      T02310211 57005=
METAR KGSB 080855Z AUTO 00000KT 10SM CLR 24/19 A2991 RMK AO2 SLP128
      T02420191 56004 $=
METAR KGTB 080855Z AUTO 17006KT 10SM R33/5000V5500FT CLR 22/20 A3003
      RMK AO2 SLP166 T02220203 57004=
METAR KMUI 080855Z AUTO 00000KT 10SM CLR 22/19 A3002 RMK AO2 SLP162
      T02190195 55003 $=
METAR KNIP 080853Z 25004KT 10SM CLR 23/21 A3000 RMK AO2 SLP153 T02280211
      58010=
METAR KNKT 080854Z AUTO 04007KT 5SM HZ CLR 26/22 A2991 RMK AO2 SLP125
      T02610222 55006 $=
METAR KNRB 080852Z AUTO 27003KT 10SM CLR 23/20 A2999 RMK AO2 SLP153
      T02280200 58011=
METAR KSKF 080855Z 06008KT 10SM OVC014 26/ A2993 RMK AO2A CIG 013V018
      OVC V BKN SLP124 T0260 56005 $=
METAR KTBN 080855Z AUTO 00000KT 9SM SCT027 BKN100 OVC210 22/ A3006
      RMK AO2 CIG 028 RWY32 SLP162 T0222 55000 $=
METAR KVAD 080855Z AUTO 00000KT 10SM CLR 21/20 A3001 RMK AO2 SLP162
      T02110198 56008 $=
METAR KWRI 080855Z AUTO 12004KT M1/4SM R18/0500V0600FT R24/0500V0600FT
      FG VV001 23/23 A2999 RMK AO2 SLP157 T02330233 55000 $=
METAR OLBA 080850Z 23007KT 200V280 8000 FEW080 28/18 Q1011 NOSIG=
####018000076####
SAYE20 OYMB 080900
METAR OYMB 080900Z 04025KT 6000 FEW030 40/M02 Q1006=
####018000083####
SAMJ41 LWOH 080900
METAR LWOH 080900Z 01008KT 330V060 9999 FEW033 20/07 Q1019=
####018000072####
SAYE20 OYSY 080900
METAR OYSY 080900Z VRB03KT 7000 NSC 42/07 Q1003=
####018002949####
SAUS20 KNKA 080856
METAR KLAX 080853Z 24007KT 10SM OVC012 16/13 A2991 RMK AO2 SLP127
     T01610128 57002=
METAR K04W 080854Z AUTO 00000KT 10SM CLR 16/16 A3006 RMK AO2 
     T01630158=
METAR K0A9 080855Z AUTO 00000KT 7SM BKN080 19/18 A3011 RMK=
METAR K20V 080856Z AUTO 00000KT 10SM SCT021 08/05 A3042 RMK AO2=
METAR K4BM 080854Z AUTO 00000KT 10SM 05/03 A3064 RMK AO2=
METAR K5SM 080853Z AUTO 12006KT 10SM SCT110 08/03 A3056 RMK AO2=
METAR K7BM 080856Z AUTO 00000KT 10SM BKN030 OVC095 10/06 A3056 RMK
     AO2=
METAR KAIT 080853Z AUTO 00000KT 3/4SM BR VV005 13/12 A3006 RMK
     AO2=
METAR KBBB 080853Z AUTO 00000KT 2 1/2SM BR CLR 13/13 A3011 RMK AO2
     VIS 1V5=
METAR KBBG 080855Z AUTO 00000KT 5SM BR CLR 23/22 A3006 RMK AO2 =
METAR KBBP 080855Z AUTO 00000KT 10SM CLR 23/20 A2995 RMK AO2=
METAR KBDU 080857Z AUTO 34003KT 10SM CLR 15/12 A3031 RMK AO2=
METAR KBJC 080857Z AUTO 21005KT 3SM BR CLR 13/12 A3033 RMK AO2=
METAR KBKN 080855Z AUTO 05005KT 10SM SCT037 SCT060 22/22 A3004 RMK 
     AO2 =
METAR KBMI 080856Z AUTO 00000KT 10SM CLR 23/22 A3004 RMK AO2 PWINO 
    58008 T02270216 LTG DSNT SW SLP156 $=
METAR KBOK 080856Z AUTO 19003KT M1/4SM FG OVC002 09/09 A2997 RMK AO2 
    58002 T00940094 SLP151 $=
METAR KBTV 080854Z 00000KT 5SM BR CLR 23/22 A3001 RMK AO2 SLP159
     T02280217 55000=
METAR KC29 080855Z AUTO 24003KT 10SM OVC006 22/20 A3001 RMK AO2 
     P0001 60001 T02150200=
METAR KCCU 080856Z AUTO 19020KT 10SM SCT085 07/02 A3064 RMK AO2=
METAR KCHA 080853Z 00000KT 10SM CLR 23/19 A3005 RMK AO2 SLP166
     T02280189 56005=
METAR KCIC 080855Z AUTO 15004KT 10SM CLR 23/15 A2982 RMK AO1 =
METAR KCMR 080855Z AUTO 16009KT 10SM BKN100 16/02 A3025 RMK AO1 =
METAR KCNK 080855Z AUTO 01005KT 10SM SCT014 OVC030 20/19 A3014 RMK 
    AO2 SLP193 T02000189 51004=
METAR KDLH 080855Z 30006KT 10SM CLR 16/14 A3004 RMK AO2 SLP171 
    T01560139 58001=
METAR KEAT 080855Z AUTO 30004KT 10SM CLR 19/05 A3002 RMK AO2 SLP157 
    T01940050 53008=
METAR KFFM 080853Z AUTO 19004KT 10SM CLR 15/14 A3008 RMK AO2=
METAR KFGN 080854Z AUTO 26010KT 1SM DZ VV007 17/13 A2996 RMK
     AO2=
METAR KGDB 080853Z AUTO 24005KT 10SM CLR 14/14 A3013 RMK AO2
     T01400136=
METAR KGGE 080855Z AUTO 27006KT 10SM CLR 23/22 A2994 RMK AO2=
METAR KGHW 080853Z AUTO 24006KT 10SM CLR 14/13 A3013 RMK AO2=
METAR KGPI 080855Z AUTO 29005KT 10SM CLR 10/07 A3016 RMK AO2 SLP205 
    T01000072 51006=
METAR KHVS 080855Z AUTO 00000KT 10SM SCT090 24/20 A2997 RMK AO2=
METAR KIRK 080855Z AUTO 34003KT 4SM BR SCT095 19/19 A3006 RMK AO2 
    SLP173 T01940189 56004=
SPECI KJLN 080855Z 13007KT 1 3/4SM +RA BR SCT005 BKN014 OVC026 23/23 
    A3004 RMK AO2 P0007=
METAR KLIC 080855Z AUTO 15003KT 9SM OVC005 14/14 A3035 RMK AO2 RAE05 
    CIG 004V009 SLP219 P0000 60000 T01390139 58001=
METAR KLLJ 080855Z AUTO 00000KT 10SM FEW090 10/00 A3023 RMK AO2 
    SLP190 T01000000 53012=
####018000329####
SAAK41 KNKA 080856
METAR PAGM 080855Z AUTO 00000KT 10SM CLR 06/05 A3018 RMK VIA AWOS 
     PHONE =
METAR PAHN 080854Z AUTO 00000KT 10SM CLR 12/11 A3020 RMK AO2 SLP229 
    T01170106 402000100 58003 TSNO=
METAR PAKN 080854Z 34003KT 10SM SCT045 BKN055 10/09 A2991 RMK AO2 
    SLP127 60004 T01000094 401670072 51006=
####018000127####
SAUS45 KFGZ 080856
MTRRQE
METAR KRQE 080853Z AUTO 13009KT 10SM BKN120 18/06 A3024 RMK AO2 
SLP100 T01830061 50002 TSNO
####018000122####
SAUS45 KLKN 080856
MTRELY
METAR KELY 080853Z AUTO 18006KT 10SM CLR 10/M04 A3020 RMK AO2 SLP130 
T01001039 51008 $
####018000141####
SAUS43 KLOT 080856
MTRRFD
METAR KRFD 080854Z 17007KT 8SM FEW009 OVC080 22/21 A3001 RMK AO2 
RAE39 SLP158 P0000 60002 T02220211 58014
####018000125####
SAUS45 KREV 080856
MTRDRA
METAR KDRA 080855Z AUTO 31003KT 10SM CLR 22/M12 A2992 RMK AO2 SLP078 
T02171117 53006 TSNO
####018000150####
SAUS45 KABQ 080856
MTRCAO
METAR KCAO 080855Z AUTO 04012KT 10SM -RA SCT070 OVC095 16/13 A3029 
RMK AO2 SLP196 P0001 60009 T01560133 55005 TSNO
####018000124####
SAUS45 KABQ 080856
MTRGNT
METAR KGNT 080853Z AUTO 14018G22KT 18/08 A3029 RMK AO2 SLP158 
T01780078 53002 PWINO TSNO
####018001599####
SAXN17 KAWN 080900 RRA
METAR MGGT 080900Z 19004KT 9999 FEW015 SCT100 17/14 Q1022 A3018 NOSIG=
METAR MMGL 080851Z 00000KT 10SM OVC080 19/17 A3000 RMK SLP024 56012
      901 60156 8/07/ RAE05=
METAR MMLO 080848Z 00000KT 6SM -DZ BKN025 BKN070 18/18 A3009 RMK SLP057
      57014 903 60165 8/77/=
METAR MMMD 080848Z 11005KT 7SM BKN070 22/22 A2982 RMK SLP093 57005
      911 8/060=
METAR MMSP 080845Z 00000KT 8SM SCT010 SCT020 BKN080 17/17 A3014 RMK
      SLP053 57011 913 8/530 HZY MSGTX MMZC=
METAR MMZC 080847Z 14005KT 8SM BKN020 BKN070 16/12 A3017 RMK 8/760
      OCNL DROPS=
METAR MROC 080900Z 00000KT 3000 -RA BR FEW002 SCT005 BKN012 19/19 A3001=
PACZ SA 0855 AWOS MM 10 51/47/0000/007=
METAR PAEH 080855Z AUTO 00000KT 10SM OVC018 09/M28 A3001 RMK AO1 T00941283=
METAR PAEI 080855Z AUTO 00000KT 10SM CLR 12/06 A3004 RMK AO2 SLP174
      T01160065 402240097 52004 $=
PAIM SA 0855 AWOS CLR BLO 120 10 57/45/3204/009=
PALU SA 0855 AWOS CLR BLO 120 10 55/35/2212G24/ 011=
PASV SA 0855 AWOS 90 SCT 10 50/47/0000/997=
PATL SA 0855 AWOS CLR BLO 120 10 60/43/0205/000=
METAR PHHI 080855Z AUTO 04005KT 8SM -RA SCT036 BKN048 BKN060 22/19
      A3007 RMK AO2 RAB0847 SLP171 P0001 60001 T02180185 52009=
METAR PHJR 080853Z 06003KT 10SM FEW055 23/18 A3006 RMK AO2 SLP184 T02330183
      53009=
METAR PTRO 080851Z 00000KT 14SM FEW009 SCT016TCU BKN120 BKN300 27/24
      A2985 RMK TCU VC ALQDS=
METAR RODN 080855Z AUTO 18011KT 9999 FEW021 SCT200 29/26 A2981 RMK
      AO2 SLP095 T02930259 55000=
METAR TBPB 080900Z 08017KT 9999 BKN014 28/24 Q1012 NOSIG=
####018002494####
SAUS20 KNKA 080856
METAR KLND 080853Z AUTO 27004KT 10SM CLR 11/03 A3032 RMK AO2
     SLP222 T01060028 53006=
METAR KLUX 080855Z AUTO 26003KT 10SM CLR 21/21 A3001 RMK AO2=
METAR KLXV 080853Z AUTO 00000KT 10SM OVC029 07/06 A3054 RMK AO2
     SLP200 T00720056 53002 TSNO=
METAR KMAO 080855Z AUTO 28004KT 10SM SCT120 25/19 A2993 RMK AO2=
METAR KMGG 080855Z AUTO 28004KT 10SM CLR 16/15 A3009 RMK AO2
     T01600154=
METAR KMKG 080855Z 23003KT 5SM BR SCT060 BKN120 23/22 A3004 RMK AO2 
    RAB0759E29 CIG 060 RWY 14 SLP166 P0002 60014 T02280217 56003 $=
METAR KMOX 080850Z AUTO 25004KT 10SM CLR 15/14 A3007 RMK AO2=
METAR KMSN 080853Z 00000KT 10SM FEW007 OVC110 22/21 A2999 RMK AO2
     SLP149 60000 T02170206 55012=
METAR KMWM 080853Z AUTO 27004KT 10SM CLR 14/14 A3013 RMK AO2=
METAR KMYP 080756Z AUTO 06009KT M1/4SM +SN OVC001 03/03 A3075 RMK
     AO2=
METAR KNQA 080855Z AUTO 00000KT 10SM CLR 24/23 A3006 RMK=
METAR KOWB 080856Z AUTO 00000KT 10SM BKN065 26/23 A3005 RMK AO2 
    55004 T02610227 BKN V SCT SLP172=
METAR KPNM 080853Z AUTO 00000KT 5SM BR CLR 15/14 A3008 RMK AO2=
METAR KPQN 080853Z AUTO 32004KT 10SM CLR 17/15 A3015 RMK AO2=
METAR KPWC 080853Z AUTO 00000KT 1 1/4SM BR BKN001 11/10 A3008 RMK
     AO2=
METAR KRCE 080855Z AUTO 36003KT 8SM SCT048 22/22 A3007 RMK AO2 =
METAR KRNO 080855Z 03003KT 10SM SCT150 22/04 A3004 RMK AO2 SLP112 
    T02220039 50005=
METAR KSAV 080853Z 26003KT 10SM FEW024 21/19 A2999 RMK AO2 SLP153
     T02110194 56009=
METAR KSBN 080854Z 32008KT 7SM FEW060 23/21 A3005 RMK AO2 SLP169
     T02280211 55001=
METAR KSCK 080855Z AUTO 32003KT 10SM CLR 16/12 A2984 RMK AO2 SLP104 
    T01560117 51006=
METAR KSGR 080853Z AUTO 07006KT 10SM CLR 26/23 A2990 RMK AO2
     SLP133 T02610233 56008 TSNO=
METAR KSMS 080855Z AUTO 29004KT 10SM CLR 25/19 A2997 RMK AO2 =
METAR KSRR 080855Z AUTO 20006KT 9SM SCT009 SCT046 BKN065 13/12 
     A3035 RMK AO2 =
METAR KTLH 080853Z 09004KT 10SM CLR 23/22 A3001 RMK AO2 SLP160
     T02280217 55008=
METAR KTWM 080853Z AUTO 30004KT 10SM CLR 16/13 A3000 RMK AO2=
METAR KUCP 080856Z AUTO 00000KT 1/2SM FG CLR 18/18 A3009 RMK AO2 
    55004 T01770177 SLP196 $=
METAR KULM 080855Z AUTO 29005KT 10SM CLR 15/13 A3011 RMK AO2=
METAR KVQQ 080855Z AUTO 00000KT 3SM BR CLR 17/17 A3000 RMK AO2 VSBY
      1 3/4V5 =
METAR KVTP 080900Z AUTO 08009G15KT 1/4SM OVC001 06/05 A3056 RMK
     AO2=
METAR KWYS 080850Z AUTO 00000KT 10SM CLR 02/00 A3036 RMK AO2=
####018000119####
SAUS44 KSHV 080856
MTRPOE
METAR KPOE 080855Z AUTO 11006KT 10SM CLR 24/22 A3000 RMK AO2 SLP158 
T02440222 55000
####018000122####
SAUS43 KDLH 080856
MTRINL
METAR KINL 080855Z AUTO 22003KT 10SM FEW090 12/11 A3000 RMK AO2 
SLP159 T01170111 58006
####018000129####
SAUS44 KLIX 080856
MTRNBG
METAR KNBG 080855Z AUTO 00000KT 6SM BR CLR 25/24 A3000 RMK AO2 
SLP158 T02500239 58003 PWINO $
####018000124####
SAUS43 KABR 080856
MTRMBG
METAR KMBG 080855Z AUTO 00000KT 10SM CLR 11/09 A3013 RMK AO2 SLP197 
T01110089 53002 TSNO
####018000092####
SAMZ40 FQMA 080900
METAR FQMA 080900Z 20004KT 150V240 9999 BKN020 23/17 Q1031 NOSIG=

####018000088####
SAMD90 KWBC 080856
METAR K2G4 080855Z AUTO 00000KT 10SM SCT070 23/13 A3019 RMK AO1=
####018003730####
SAUS99 KWBC 080857
METAR
KHBR 080853Z AUTO 03004KT 10SM FEW033 SCT060 SCT070 23/22 A3007
     RMK AO2 SLP164 T02330222 51004=
KHDN 080855Z 11010KT 10SM CLR 11/06 A3032 RMK AO1 52003=
KHYI 080855Z AUTO 05006KT 10SM FEW011 OVC021 25/24 A2995 RMK AO1
     57003=
KILE 080855Z 10006KT 10SM FEW012 BKN030 OVC065 24/22 A2997 RMK AO1
     57007=
KILN 080854Z AUTO 00000KT 4SM BR CLR 21/19 A3008 RMK AO2 SLP173
     T02110194 56004=
KIND 080854Z 18003KT 9SM BKN085 OVC110 26/20 A3003 RMK AO2 SLP160
     T02560200 55008=
KIPT 080854Z AUTO 00000KT 8SM CLR 20/17 A3005 RMK AO2 SLP171
     T02000167 53003=
KIZG 080854Z AUTO 00000KT 6SM BR BKN095 21/19 A3007 RMK AO2 SLP180
     T02060194 53002=
KJAC 080855Z AUTO 36006KT 10SM CLR 09/M01 A3033 RMK AO1 52010=
KJHW 080855Z AUTO 00000KT 4SM CLR 20/19 A3011 RMK AO1=
KJST 080854Z AUTO 00000KT 7SM CLR 22/16 A3014 RMK AO2 SLP185
     T02170156 56004=
KLBT 080854Z AUTO 28004KT 10SM CLR 26/18 A2992 RMK AO2 SLP130
     T02560183 56008=
KLCI 080855Z AUTO 00000KT 10SM BKN095 OVC110 23/20 A3005 RMK AO1
     54000=
KLEW 080855Z 15004KT 5SM OVC004 21/19 A3009 RMK AO1 54000=
KLEX 080854Z AUTO 00000KT 5SM HZ CLR 22/18 A3008 RMK AO2 SLP174
     T02170183 56006 TSNO=
KLPC 080855Z AUTO 01003KT 10SM OVC012 14/11 A2992 RMK AO1 57003
     PNO=
KLWM 080854Z AUTO 20003KT 5SM HZ OVC008 24/21 A3007 RMK AO2 SLP183
     T02390211 53005=
KLWT 080854Z AUTO 13004KT 10SM CLR 08/06 A3026 RMK AO2 SLP230
     T00830056 53001=
KMAI 080853Z AUTO 00000KT 7SM CLR 23/22 A3001 RMK AO2 SLP159
     T02330217 56010=
KMGJ 080854Z AUTO 00000KT 3SM BR CLR 22/20 A3002 RMK AO2 SLP164
     T02170200 55002=
KMIV 080854Z AUTO 09004KT 1 1/2SM BR SCT003 24/23 A2999 RMK AO2
     SLP155 T02390228 53002=
KMJX 080855Z AUTO 00000KT 2 1/2SM FEW080 BKN120 23/21 A3001 RMK
     AO1 54000=
KMLB 080853Z AUTO 00000KT 10SM CLR 22/21 A2997 RMK AO2 SLP149
     T02220211 55008=
KMRY 080854Z AUTO 35003KT 10SM OVC010 13/10 A2994 RMK AO2 SLP149
     T01330100 56002=
KMSV 080855Z AUTO 00000KT 5SM CLR 20/18 A3009 RMK AO1 57003=
KMVL 080854Z AUTO 00000KT 2 1/2SM BR FEW050 20/19 A3006 RMK AO2
     SLP177 T02000194 53001=
KOCH 080855Z AUTO 08003KT 10SM CLR 24/19 A3000 RMK AO1 54000=
KOKK 080855Z AUTO 00000KT 7SM CLR 22/16 A3004 RMK AO1=
KORH 080854Z AUTO 16005KT 3SM BR BKN002 OVC080 22/21 A3009 RMK AO2
     SLP180 T02170211 53000=
KOXC 080855Z 13003KT 3SM SCT070 22/21 A3008 RMK AO1 54000=
KPHL 080854Z 00000KT 6SM HZ SCT180 25/22 A3001 RMK AO2 SLP163
     T02500222 52002 $=
KPNE 080854Z 00000KT 5SM BR CLR 24/23 A3002 RMK AO2 SLP165
     T02440228 50000=
KPQI 080855Z AUTO 16004KT 10SM CLR 21/18 A2998 RMK AO1 52003=
KPRX 080855Z 12003KT 8SM BKN015 24/22 A3002 RMK AO1 52003=
KPSF 080854Z AUTO 00000KT 4SM BR CLR 19/18 A3006 RMK AO2 SLP148
     T01890178 55001=
KPTV 080855Z AUTO 15004KT 10SM CLR 19/13 A2984 RMK AO1 52003=
KPTW 080854Z AUTO 00000KT 5SM HZ CLR 24/19 A3003 RMK AO2 SLP163
     T02390194 53000 $=
KPVC 080855Z 17005KT 3SM OVC002 21/19 A3009 RMK AO1 52007=
KPWG 080855Z AUTO 11005KT 10SM OVC015 25/22 A2999 RMK AO1 LTG DSNT
     S 57003=
KRDG 080854Z 00000KT 8SM CLR 24/21 A3001 RMK AO2 SLP162 T02390206
     55001=
KRKD 080855Z AUTO 00000KT 1/4SM OVC002 18/17 A3009 RMK AO1
     54000=
KROC 080854Z 21005KT 8SM FEW070 BKN100 23/20 A3004 RMK AO2 SLP170
     T02280200 56005=
KRUT 080855Z AUTO 14009KT 6SM CLR 22/19 A3005 RMK AO1 54000=
KSBY 080854Z AUTO 08004KT 3SM BR FEW003 OVC100 24/23 A2999 RMK AO2
     SLP156 T02440233 51002=
KSDY 080855Z AUTO 23003KT 10SM BKN080 14/09 A3014 RMK AO1
     57003=
KSFM 080855Z 00000KT 1SM OVC002 21/18 A3007 RMK AO1 54000=
####018003738####
SAUS99 KWBC 080857 RRA
METAR
KSFZ 080855Z AUTO 00000KT 10SM OVC010 22/21 A3006 RMK AO1
     52003=
KSJN 080854Z AUTO 07008KT 10SM OVC100 23/03 A3016 RMK AO2 SLP106
     T02280033 53007=
KSYR 080854Z 15003KT 7SM FEW048 SCT090 SCT200 22/20 A3004 RMK AO2
     SLP167 T02220200 51001=
KTAD 080854Z AUTO 33003KT 10SM OVC075 14/13 A3035 RMK AO2 SLP207
     T01440128 51008=
KTPL 080855Z 07004KT 10SM BKN021 OVC026 24/23 A2999 RMK AO1
     54000=
KVAY 080854Z AUTO 00000KT 1/4SM FG VV006 23/23 A3001 RMK AO2
     SLP161 T02330233 54000=
KVIS 080855Z AUTO 31003KT 10SM CLR 22/12 A2980 RMK AO1 52003=
KVLD 080853Z AUTO 00000KT 7SM CLR 19/18 A3001 RMK AO2 SLP168
     T01940183 56008=
KVSF 080854Z AUTO 00000KT 4SM BR CLR 21/20 A3006 RMK AO2 SLP176
     T02110200 53002 $=
KVTA 080854Z AUTO 00000KT 3SM BR SCT065 19/18 A3007 RMK AO2 SLP175
     T01940183 57004=
KWVL 080855Z AUTO 19003KT 7SM OVC005 21/19 A3004 RMK AO1 52003=
KWWD 080855Z AUTO 10SM BKN120 24/23 A3001 RMK AO1 54000=
KAAF 080853Z AUTO 00000KT 9SM CLR 23/22 A2999 RMK AO2 SLP157
     T02330222 56008=
KAFJ 080855Z AUTO 00000KT M1/4SM BKN003 17/16 A3010 RMK AO1=
KAKR 080854Z AUTO 00000KT 5SM BR CLR 20/18 A3008 RMK AO2 SLP177
     T02000183 56003=
KBFL 080854Z AUTO 36006KT 10SM CLR 24/11 A2982 RMK AO2 SLP092
     T02390106 51006=
KBHB 080855Z AUTO 19006KT 3/4SM OVC002 18/17 A3010 RMK AO1
     54000=
KBID 080855Z AUTO 14007KT 1/2SM OVC002 21/21 A3005 RMK AO1
     52003=
KBLM 080855Z AUTO 08004KT 4SM SCT075 OVC100 24/21 A3004 RMK AO1
     54000=
KBOS 080854Z 15005KT 10SM BKN019 23/19 A3006 RMK AO2 SLP179
     T02280194 53001=
KBTP 080855Z AUTO 00000KT 2SM CLR 18/18 A3009 RMK AO1=
KBUF 080854Z 18004KT 8SM FEW090 22/19 A3005 RMK AO2 SLP171
     T02220194 55004=
KBUY 080854Z AUTO 00000KT 8SM CLR 23/20 A2998 RMK AO2 SLP141
     T02280200 56007 $=
KCGZ 080855Z AUTO 30005KT 10SM CLR 32/01 A2978 RMK AO1 57003=
KCOD 080855Z 18005KT 10SM CLR 12/02 A3033 RMK AO1 52003=
KCOS 080854Z 23004KT 9SM FEW029 OVC085 13/12 A3039 RMK AO2 SLP223
     T01330122 50009=
KCRW 080854Z 00000KT 4SM BR CLR 21/20 A3007 RMK AO2 SLP172
     T02110200 56004=
KDDH 080854Z AUTO 00000KT 2 1/2SM BR CLR 19/18 A3005 RMK AO2
     SLP169 T01940183 53001=
KDHN 080853Z AUTO 00000KT 10SM CLR 23/22 A3006 RMK AO2 SLP171
     T02280217 56008=
KDSV 080854Z AUTO 15006KT 6SM BR CLR 21/19 A3008 RMK AO2 SLP189
     T02110194 56003=
KDTO 080853Z AUTO 16005KT 10SM OVC024 26/23 A3000 RMK AO2 SLP149
     T02560233 53000=
KDYL 080854Z AUTO 00000KT 6SM BR CLR 22/21 A3002 RMK AO2 SLP158
     T02170206 53001 TSNO=
KEEN 080855Z AUTO 00000KT 3SM CLR 22/22 A3005 RMK AO1 54000=
KEGE 080855Z 07007KT 10SM CLR 10/09 A3039 RMK AO1 52007=
KEVV 080854Z AUTO 00000KT 10SM SCT080 25/22 A3005 RMK AO2 SLP170
     T02500217 56005=
KFIG 080854Z AUTO 00000KT 5SM BR CLR 18/17 A3011 RMK AO2 SLP184
     T01830172 55001=
KFKL 080855Z 00000KT 3SM CLR 19/17 A3013 RMK AO1=
KFNL 080855Z AUTO 08004KT 4SM FEW003 14/13 A3031 RMK AO1 57003=
KFZY 080854Z AUTO 00000KT 1 3/4SM BR CLR 20/19 A3004 RMK AO2
     SLP168 T02000194 56001=
KGCN 080854Z AUTO 00000KT 10SM CLR 09/M03 A3023 RMK AO2 SLP136
     T00891033 53002=
KGDV 080855Z AUTO 21006KT 10SM CLR 11/07 A3016 RMK AO1 57003=
KGED 080854Z AUTO 00000KT 4SM BR BKN100 24/23 A3000 RMK AO2 SLP157
     T02440233 53001=
KGNV 080853Z AUTO 00000KT 1/2SM FG VV001 19/18 A3000 RMK AO2
     SLP155 T01940183 58011=
KGTU 080855Z 08003KT 10SM BKN012 OVC017 25/22 A3001 RMK AO1
     57007=
KGUC 080855Z AUTO 35006KT 10SM FEW120 09/03 A3044 RMK AO1
     52010=
KGXY 080855Z AUTO 00000KT 10SM BKN007 OVC080 15/12 A3032 RMK AO1
     54000=
####018000122####
SPUS99 KWBC 080857
SPECI
KJLN 080855Z 13007KT 1 3/4SM +RA BR SCT005 BKN014 OVC026 23/23
     A3004 RMK AO2 P0007=
####018001513####
SAUS99 KWBC 080857 RRC
METAR
KNQA 080855Z AUTO 00000KT 10SM CLR 24/23 A3006 RMK=
KOWB 080856Z AUTO 00000KT 10SM BKN065 26/23 A3005 RMK AO2 55004
     T02610227 BKN V SCT SLP172=
KPNM 080853Z AUTO 00000KT 5SM BR CLR 15/14 A3008 RMK AO2=
KPQN 080853Z AUTO 32004KT 10SM CLR 17/15 A3015 RMK AO2=
KPWC 080853Z AUTO 00000KT 1 1/4SM BR BKN001 11/10 A3008 RMK
     AO2=
KRCE 080855Z AUTO 36003KT 8SM SCT048 22/22 A3007 RMK AO2=
KRNO 080855Z 03003KT 10SM SCT150 22/04 A3004 RMK AO2 SLP112
     T02220039 50005=
KSAV 080853Z 26003KT 10SM FEW024 21/19 A2999 RMK AO2 SLP153
     T02110194 56009=
KSBN 080854Z 32008KT 7SM FEW060 23/21 A3005 RMK AO2 SLP169
     T02280211 55001=
KSCK 080855Z AUTO 32003KT 10SM CLR 16/12 A2984 RMK AO2 SLP104
     T01560117 51006=
KSGR 080853Z AUTO 07006KT 10SM CLR 26/23 A2990 RMK AO2 SLP133
     T02610233 56008 TSNO=
KSMS 080855Z AUTO 29004KT 10SM CLR 25/19 A2997 RMK AO2=
KSRR 080855Z AUTO 20006KT 9SM SCT009 SCT046 BKN065 13/12 A3035 RMK
     AO2=
KTLH 080853Z 09004KT 10SM CLR 23/22 A3001 RMK AO2 SLP160 T02280217
     55008=
KTWM 080853Z AUTO 30004KT 10SM CLR 16/13 A3000 RMK AO2=
KUCP 080856Z AUTO 00000KT 1/2SM FG CLR 18/18 A3009 RMK AO2 55004
     T01770177 SLP196 $=
KULM 080855Z AUTO 29005KT 10SM CLR 15/13 A3011 RMK AO2=
KVQQ 080855Z AUTO 00000KT 3SM BR CLR 17/17 A3000 RMK AO2 VSBY 1
     3/4V5=
KVTP 080900Z AUTO 08009G15KT 1/4SM OVC001 06/05 A3056 RMK AO2=
KWYS 080850Z AUTO 00000KT 10SM CLR 02/00 A3036 RMK AO2=
####018003729####
SAUS99 KWBC 080857 RRB
METAR
KLAX 080853Z 24007KT 10SM OVC012 16/13 A2991 RMK AO2 SLP127
     T01610128 57002=
K04W 080854Z AUTO 00000KT 10SM CLR 16/16 A3006 RMK AO2
     T01630158=
K0A9 080855Z AUTO 00000KT 7SM BKN080 19/18 A3011 RMK=
K20V 080856Z AUTO 00000KT 10SM SCT021 08/05 A3042 RMK AO2=
K4BM 080854Z AUTO 00000KT 10SM 05/03 A3064 RMK AO2=
K5SM 080853Z AUTO 12006KT 10SM SCT110 08/03 A3056 RMK AO2=
K7BM 080856Z AUTO 00000KT 10SM BKN030 OVC095 10/06 A3056 RMK
     AO2=
KAIT 080853Z AUTO 00000KT 3/4SM BR VV005 13/12 A3006 RMK AO2=
KBBB 080853Z AUTO 00000KT 2 1/2SM BR CLR 13/13 A3011 RMK AO2 VIS
     1V5=
KBBG 080855Z AUTO 00000KT 5SM BR CLR 23/22 A3006 RMK AO2=
KBBP 080855Z AUTO 00000KT 10SM CLR 23/20 A2995 RMK AO2=
KBDU 080857Z AUTO 34003KT 10SM CLR 15/12 A3031 RMK AO2=
KBJC 080857Z AUTO 21005KT 3SM BR CLR 13/12 A3033 RMK AO2=
KBKN 080855Z AUTO 05005KT 10SM SCT037 SCT060 22/22 A3004 RMK
     AO2=
KBMI 080856Z AUTO 00000KT 10SM CLR 23/22 A3004 RMK AO2 PWINO 58008
     T02270216 LTG DSNT SW SLP156 $=
KBOK 080856Z AUTO 19003KT M1/4SM FG OVC002 09/09 A2997 RMK AO2
     58002 T00940094 SLP151 $=
KBTV 080854Z 00000KT 5SM BR CLR 23/22 A3001 RMK AO2 SLP159
     T02280217 55000=
KC29 080855Z AUTO 24003KT 10SM OVC006 22/20 A3001 RMK AO2 P0001
     60001 T02150200=
KCCU 080856Z AUTO 19020KT 10SM SCT085 07/02 A3064 RMK AO2=
KCHA 080853Z 00000KT 10SM CLR 23/19 A3005 RMK AO2 SLP166 T02280189
     56005=
KCIC 080855Z AUTO 15004KT 10SM CLR 23/15 A2982 RMK AO1=
KCMR 080855Z AUTO 16009KT 10SM BKN100 16/02 A3025 RMK AO1=
KCNK 080855Z AUTO 01005KT 10SM SCT014 OVC030 20/19 A3014 RMK AO2
     SLP193 T02000189 51004=
KDLH 080855Z 30006KT 10SM CLR 16/14 A3004 RMK AO2 SLP171 T01560139
     58001=
KEAT 080855Z AUTO 30004KT 10SM CLR 19/05 A3002 RMK AO2 SLP157
     T01940050 53008=
KFFM 080853Z AUTO 19004KT 10SM CLR 15/14 A3008 RMK AO2=
KFGN 080854Z AUTO 26010KT 1SM DZ VV007 17/13 A2996 RMK AO2=
KGDB 080853Z AUTO 24005KT 10SM CLR 14/14 A3013 RMK AO2
     T01400136=
KGGE 080855Z AUTO 27006KT 10SM CLR 23/22 A2994 RMK AO2=
KGHW 080853Z AUTO 24006KT 10SM CLR 14/13 A3013 RMK AO2=
KGPI 080855Z AUTO 29005KT 10SM CLR 10/07 A3016 RMK AO2 SLP205
     T01000072 51006=
KHVS 080855Z AUTO 00000KT 10SM SCT090 24/20 A2997 RMK AO2=
KIRK 080855Z AUTO 34003KT 4SM BR SCT095 19/19 A3006 RMK AO2 SLP173
     T01940189 56004=
KLIC 080855Z AUTO 15003KT 9SM OVC005 14/14 A3035 RMK AO2 RAE05 CIG
     004V009 SLP219 P0000 60000 T01390139 58001=
KLLJ 080855Z AUTO 00000KT 10SM FEW090 10/00 A3023 RMK AO2 SLP190
     T01000000 53012=
PAGM 080855Z AUTO 00000KT 10SM CLR 06/05 A3018 RMK VIA AWOS
     PHONE=
PAHN 080854Z AUTO 00000KT 10SM CLR 12/11 A3020 RMK AO2 SLP229
     T01170106 402000100 58003 TSNO=
PAKN 080854Z 34003KT 10SM SCT045 BKN055 10/09 A2991 RMK AO2 SLP127
     60004 T01000094 401670072 51006=
KLND 080853Z AUTO 27004KT 10SM CLR 11/03 A3032 RMK AO2 SLP222
     T01060028 53006=
KLUX 080855Z AUTO 26003KT 10SM CLR 21/21 A3001 RMK AO2=
KLXV 080853Z AUTO 00000KT 10SM OVC029 07/06 A3054 RMK AO2 SLP200
     T00720056 53002 TSNO=
KMAO 080855Z AUTO 28004KT 10SM SCT120 25/19 A2993 RMK AO2=
KMGG 080855Z AUTO 28004KT 10SM CLR 16/15 A3009 RMK AO2
     T01600154=
KMKG 080855Z 23003KT 5SM BR SCT060 BKN120 23/22 A3004 RMK AO2
     RAB0759E29 CIG 060 RWY 14 SLP166 P0002 60014 T02280217 56003
     $=
KMOX 080850Z AUTO 25004KT 10SM CLR 15/14 A3007 RMK AO2=
KMSN 080853Z 00000KT 10SM FEW007 OVC110 22/21 A2999 RMK AO2 SLP149
     60000 T02170206 55012=
KMWM 080853Z AUTO 27004KT 10SM CLR 14/14 A3013 RMK AO2=
KMYP 080756Z AUTO 06009KT M1/4SM +SN OVC001 03/03 A3075 RMK
     AO2=
####018000089####
SAOS32 LOWM 080850 RRA
METAR LOXZ 080850Z VRB02KT 70KM SKC 19/10 Q1024 NOSIG RMK SKC=
####018000650####
SANO31 ENMI 080850
METAR ENAN 080850Z 15007KT 9999 FEW045 18/09 Q1010 NOSIG =
METAR ENBR 080850Z 19011KT 9999 FEW015 SCT047 BKN080 16/12 Q1012
           NOSIG =
METAR ENBO 080850Z 01009KT 320V040 9999 FEW040 BKN100 17/09 Q1010
           NOSIG=
METAR ENDU 080850Z 10004KT 020V160 9999 FEW050 SCT080 20/08 Q1011
           NOSIG=
METAR ENGM 080842Z 22007KT 9999 FEW011 SCT014 BKN018 16/14 Q1015
           TEMPO BKN012=
METAR ENOL 080850Z 31011KT 9999 FEW025 SCT090 18/13 Q1009 NOSIG=
METAR ENVA 080850Z 19007KT 140V250 9999 FEW050 SCT160 21/11 Q1009
           NOSIG =
METAR ENZV 080850Z 19010KT 9999 FEW020 SCT180 18/12 Q1013 NOSIG=
####018000389####
SAFI34 EFHK 080850
EFET 080850Z AUTO 17010KT 110V220 CAVOK 19/08 Q1014=
EFIV 080850Z AUTO 16004KT 100V240 CAVOK 17/11 Q1016=
EFKE 080850Z AUTO 21004KT 160V260 9999 BKN024 BKN034 19/13 Q1016=
EFKI 080850Z AUTO 32004KT 280V360 CAVOK 20/14 Q1016=
EFKS 080850Z 04002KT 9999 BKN021 16/11 Q1017=
EFKT 080850Z AUTO 16009KT 100V190 9999 SCT040 BKN129 20/10 Q1015=
METAR EFSO 080856Z NIL=
####018000379####
SAMX43 MMMZ 080900
METAR MMCL 080841Z 00000KT 10SM  SCT030 BKN100 27/21 A2979 RMK 8/570=
METAR MMHO 080847Z 00000KT 10SM  BKN080 27/13 A2979 
      RMK SLP079 54000 916 8/050 HZY=
METAR MMMZ 080847Z 00000KT 10SM  SCT070 OVC200 26/22 A2976 
      RMK SLP078 57007 900 8/077=
METAR MMTJ 080841Z 00000KT 5SM  OVC014 16/14 A2994 
      RMK SLP142 57002 910 8/5// HZY=
####018000794####
SAGL41 BGSF 080850
METAR BGSF 080850Z 07007KT 030V100 9999 BKN060 09/02 Q1009=
METAR BGBW 080850Z 27003KT 9999 FEW070 10/05 Q1009 RMK 2AC =
METAR BGGH 080850Z 27003KT 9999 OVC003 04/03 Q1010=
METAR BGJN 080850Z AUTO 36003KT 1000NDV  FG VV001/// 06/05 Q1010=
METAR BGKK 080850Z VRB02KT 9999 FEW130 BKN160 07/03 Q1008=
METAR BGCO 080850Z 01013KT 9999 VCSH FEW016 SCT061 BKN110 05/01 
Q1008=
METAR BGSS 080850Z 17003KT 0400 FG VV001 04/04 Q1009=
METAR BGAA 080855Z NIL=
METAR BGUQ 080855Z NIL=
METAR BGMQ 080850Z AUTO 12005KT 090V150 1000NDV  BR OVC002/// 
05/04 Q1009=
METAR BGUK 080850Z AUTO 13001KT 9999NDV  NCD 06/03 Q1010=
METAR BGQQ 080850Z AUTO 15004KT 120V180 4300NDV  BR ///003/// 
04/// Q1011 RMK /// =
METAR BGPT 080850Z AUTO 25004KT 0350NDV  FG VV003/// 04/04 Q1010=
####018000153####
SAKA31 PTYA 080900
METAR PTYA 080853Z 05008KT 12SM FEW016CB SCT030 BKN130 OVC300 27/23
A2983 RMK CB VC SE AND W SLP103 60001 8/377 T02670232 53008=
####018000087####
SAVN22 SVMI 080900
METAR SVMI 080900Z 02002KT 9999 FEW016 SCT100 25/23 Q1013 NOSIG=
####018000081####
SABZ20 SBMN 080900
METAR SBMN 080900Z 04006KT 9999 FEW010 BKN100 26/23 Q1011=
####018000388####
SAGU31 MGGT 080900
METAR
METAR MGTK 080900Z 00000KT 9999 FEW012 OVC090 23/23 Q1010 A2983 =
METAR MGHT 080900Z 00000KT 9999 OVC012 16/16 QFE 816.2 =
METAR MGPB 080900Z 00000KT 9999 TS FEW016 FEW025CB OVC080 24/23 Q1009
A2980 CB/TS/LTNG N =
METAR MGGT 080900Z 19004KT 9999 FEW015 SCT100 17/14 Q1022 A3018 NOSIG
=
METAR MGSJ  080900Z 00000KT 9999 FEW018 OVC090 23/23 Q1011 A2985 =
####018000113####
SAUS42 KCHS 080856
MTRCHS
METAR KCHS 080856Z 29007KT 9SM CLR 24/19 A2996 RMK AO2 SLP143 
T02440194 56008
####018000269####
SAZA42 FAJS 080900
METAR FAVV 080900Z AUTO 05010KT //// // ////// 14/06 Q1033=
METAR FAJB 080900Z AUTO 07004KT //// // ////// 14/06 Q1035=
METAR FASI 080900Z AUTO 08007KT //// // ////// 14/04 Q1035=
METAR FAGC 080900Z AUTO 07008KT //// // ////// 13/05 Q1035=
####018001543####
SAZZ40 KAWN 080900 RRF
METAR BGTL 080855Z AUTO 00000KT 0400 FG VV001 04/04 A2984 RMK AO2 SLP111
      T00380037 58001=
METAR EFKI 080850Z AUTO 32004KT 280V360 CAVOK 20/14 Q1016=
METAR ETAR 080855Z AUTO 05003KT 9999 CLR 25/14 A3014 RMK AO2 SLP200
      T02540145 58002 $=
METAR KBAB 080855Z AUTO 16004KT 10SM SCT180 18/12 A2982 RMK AO2 SLP097
      T01810122 53008 $=
METAR KBIX 080855Z AUTO 07003KT 10SM CLR 25/25 A3001 RMK AO2 SLP163
      T02540251 55007=
METAR KFSI 080855Z AUTO 01005KT 10SM CLR 23/22 A3004 RMK AO2 SLP156
      T02260218 52005=
METAR KLFI 080855Z 11005KT 10SM FEW008 SCT100 BKN150 26/23 A2996 RMK
      AO2A SLP145 T02580234 56004 $=
METAR KLHW 080855Z AUTO 00000KT 10SM CLR 22/20 A2998 RMK AO2 SLP154
      T02180200 56008=
METAR KSLI 080855Z AUTO 00000KT 10SM OVC016 16/14 A2991 RMK AO2 SLP130
      T01640137 58002=
METAR KSSC 080855Z AUTO 29008KT 10SM CLR 26/19 A2995 RMK AO2 SLP141
      T02560189 57007 $=
METAR KTCM 080855Z AUTO 00000KT 10SM CLR 15/13 A2994 RMK AO2 SLP141
      T01470126 52006=
METAR KTIK 080855Z AUTO 33005KT 10SM BKN016 OVC055 24/23 A3004 RMK
      AO2 CIG 015V021 BKN V SCT SLP158 T02380226 57002 $=
METAR KVOK 080855Z 31007KT 10SM SCT019 20/20 A3001 RMK AO2A SLP156
      T02030203 55000=
METAR PAED 080855Z AUTO 00000KT 10SM BKN080 12/10 A3001 RMK AO2 DZB0827E0841
      SLP162 P0000 60000 T01220100 401720112 58002 $=
METAR PGUA 080855Z AUTO 09013KT 10SM SCT017 27/ A2989 RMK AO2 SCT V
      BKN SLP102 T0273 53009 VISNO RWY24L $=
####018000127####
SAPY SGAS 080900
METAR SGAS 080900Z 16007KT 9999 BKN010 OVC017 17/15 Q1015=
METAR SGES 080900Z 17004KT CAVOK 16/15  Q1015=
####018000217####
SADR31 MDSD 080900
METAR
MDPP 080900Z 00000KT 9999 FEW016 22/22 Q1016=
MDST 080900Z 15005KT 9999 FEW016 23/22 Q1014=
MDPC 080900Z 00000KT 9999 FEW018 24/22 Q1012=
MDSD 080900Z 04004KT 9999 SCT018 24/23 Q1014==
####018000093####
SAMD90 KWBC 080856
METAR KCGE 080854Z AUTO 00000KT 3SM 25/25 A2999 RMK AO1 SKY OBSCURED=
####018000084####
SAMD90 KWBC 080856
METAR KCBE 080856Z AUTO 00000KT 7SM CLR 21/18 A3010 RMK AO1=
####018000084####
SAMD90 KWBC 080856
METAR KFME 080857Z AUTO 00000KT 4SM CLR 20/20 A3002 RMK AO1=
####018000090####
SAMD90 KWBC 080856
METAR KFDK 080847Z AUTO 00000KT 5SM BR SCT100 24/22 A3003 RMK AO2=
####018000084####
SAMD90 KWBC 080856
METAR K2W6 080856Z AUTO 00000KT 4SM CLR 23/23 A3000 RMK AO1=
####018002031####
SAUK39 EGRR 080850
METAR EGDL 080850Z 22004KT 9999 FEW014 BKN100 BKN150 16/13 Q1019
 BLU NOSIG=
METAR EGDM 080850Z 22002KT 9999 FEW012 SCT025 BKN130 17/13 Q1019 BLU
 TEMPO SCT014 GRN=
METAR EGDR 080850Z 22005KT 9999 FEW020 SCT120 17/13 Q1018 BLU TEMPO
 SCT020 WHT=
METAR EGOM 080850Z 23011KT 9999 SCT016 SCT030 BKN065 14/10 Q1014
WHT=
METAR EGOP 080850Z 22008KT 9999 FEW025 BKN090 18/14 Q1018 BLU=
METAR EGOS 080850Z 23010KT 9999 FEW022 BKN100 16/10 Q1017 BLU NOSIG=
METAR EGOV 080850Z 20014KT 9999 FEW013 SCT160 BKN220 16/13 Q1016 BLU
 NOSIG=
METAR EGQK 080850Z 23018KT 9999 -SHRA FEW025 SCT030 BKN050 16/07
 Q1008 BLU NOSIG=
METAR EGQL 080850Z 24015KT 9999 FEW023 BKN060 16/09 Q1012 BLU NOSIG=
METAR EGQS 080850Z 23018KT 9999 FEW030 SCT050 18/07 Q1008 BLU NOSIG=
METAR EGUB 080850Z 31004KT 9999 FEW010 OVC030 18/13 Q1018 BLU NOSIG=
METAR EGUW 080850Z 25009KT 9999 FEW010 BKN014 BKN080 19/15 Q1018 GRN
 TEMPO 4000 -RADZ SCT005 YLO1=
METAR EGVN 080850Z 24003KT 9999 -RA FEW023 BKN070 BKN100 17/12 Q1018
 BLU NOSIG=
METAR EGVO 080850Z 33004KT 3700 -DZ OVC003 16/15 Q1019 YLO2 BECMG
 BKN012 GRN=
METAR EGWC 080850Z 20006KT 9999 FEW020 BKN090 16/09 Q1019 BLU=
METAR EGWU 080850Z 31005KT 9999 FEW006 SCT012 OVC016 17/15 Q1019 RERA
 REDZ GRN BECMG FEW010 BKN016 WHT=
METAR EGXC 080850Z 24009KT 9999 -RA FEW025 SCT090 OVC120 17/11 Q1017
 BLU NOSIG=
METAR EGXD 080850Z 21006KT 9999 FEW024 BKN110 17/12 Q1016 BLU NOSIG=
METAR EGXE 080850Z 22008KT 9999 FEW025 BKN100 BKN200 17/12 Q1016 BLU
 NOSIG=
METAR EGXG 080850Z 22007KT 9999 FEW025 BKN200 17/10 Q1016 BLU=
METAR EGXJ 080850Z 24009KT 9999 FEW025 BKN100 17/10 Q1017 BLU=
METAR EGXP 080850Z 22010KT CAVOK 16/11 Q1017 BLU=
METAR EGXT 080850Z 23011KT 9999 -RA FEW020 BKN090 BKN120 17/10 Q1018
 BLU NOSIG=
METAR EGXU 080850Z 24008KT 9999 FEW024 SCT090 BKN130 17/10 Q1016 BLU=
METAR EGYD 080850Z 24012KT CAVOK 17/10 Q1017 BLU NOSIG=
METAR EGYM 080850Z 26010KT 9999 FEW012 BKN034 BKN120 18/10 Q1018 BLU
 NOSIG=
####018000140####
SAUS46 KLOX 080857
MTRVBG
METAR KVBG 080855Z AUTO 00000KT 10SM CLR 12/11 A2993 RMK AO2 CIG 006 
RWY12 SLP125 T01220111 57003 TSNO $
####018000117####
SAUS45 KSLC 080856
MTRNKX
METAR KNKX 080855Z 34006KT 10SM OVC014 16/13 A2990 RMK AO2 SLP119 
T01610133 58007
####018000124####
SAUS46 KMTR 080857
MTRAAT
METAR KAAT 080855Z AUTO 00000KT 10SM CLR 12/08 A3007 RMK AO2 SLP138 
T01220083 51005 TSNO
####018000139####
SAUS43 KAPX 080857
MTRANJ
METAR KANJ 080855Z AUTO 00000KT 8SM OVC004 21/19 A2994 RMK AO2 RAE27 
SLP133 P0008 60009 T02060194 58017
####018000113####
SAUS42 KJAX 080857
MTRJAX
METAR KJAX 080856Z 00000KT 9SM CLR 19/19 A2999 RMK AO2 SLP155 
T01940189 58012
####018000114####
SAUS45 KPSR 080857
MTRNYL
METAR KNYL 080855Z 16004KT 10SM CLR 28/02 A2971 RMK AO2 SLP056 
T02830022 53000
####018000126####
SAUS43 KUNR 080857
MTRPHP
METAR KPHP 080855Z AUTO 29006KT 10SM CLR 13/10 A3021 RMK AO2 SLP216 
T01280100 53002 TSNO $
####018000119####
SAUS43 KFSD 080857
MTRHON
METAR KHON 080855Z AUTO 23005KT 10SM CLR 16/13 A3014 RMK AO2 SLP202 
T01610133 50000
####018000124####
SAUS42 TJSJ 080857
MTRSJU
METAR TJSJ 080856Z 00000KT 10SM FEW022 SCT035 27/24 A2998 RMK AO2 
SLP150 T02720244 55000
####018000084####
SAMD90 KWBC 080856
METAR KW29 080856Z AUTO 00000KT 5SM CLR 23/22 A2999 RMK AO1=
####018000087####
SAMD90 KWBC 080856
METAR KESN 080900Z AUTO 00000KT 3SM BR CLR 23/23 A3003 RMK AO2=
####018000084####
SAMD90 KWBC 080856
METAR KMTN 080857Z AUTO 00000KT 7SM CLR 26/23 A3000 RMK AO2=
####018000084####
SAMD90 KWBC 080856
METAR KDMW 080855Z AUTO 00000KT 7SM CLR 26/21 A3004 RMK AO2=
####018000084####
SAMD90 KWBC 080856
METAR KCGS 080900Z AUTO 00000KT 7SM CLR 26/23 A2999 RMK AO1=
####018000088####
SACV20 GVAC 080900
METAR GVAC 080900Z 06008KT 9999 SCT014 BKN016 24/19 Q1013 NOSIG=
####018000396####
SAFI34 EFHK 080850
EFET 080850Z AUTO 17010KT 110V220 CAVOK 19/08 Q1014=
EFIV 080850Z AUTO 16004KT 100V240 CAVOK 17/11 Q1016=
EFKE 080850Z AUTO 21004KT 160V260 9999 BKN024 BKN034 19/13 Q1016=
EFKI 080850Z AUTO 32004KT 280V360 CAVOK 20/14 Q1016=
EFKS 080850Z 04002KT 9999 BKN021 16/11 Q1017=
EFKT 080850Z AUTO 16009KT 100V190 9999 SCT040 BKN129 20/10 Q1015=
METAR EFSO 080856Z NIL=
####018000525####
SANL40 EHWX 080855
METAR EHDL 080855Z AUTO 22008KT 9999NDV NCD 28/13 Q1019 
BLU=
METAR EHEH 080855Z AUTO 22006KT 9999NDV FEW270 28/12 Q1019 
BLU BLU=
METAR EHGR 080855Z AUTO 28005KT 9999NDV FEW140 27/13 Q1019 
BLU BLU=
METAR EHLW 080855Z AUTO 23008KT 9999NDV FEW025 OVC110 23/17 Q1018 
BLU BLU=
METAR EHVK 080855Z AUTO 23007KT 9999NDV NCD 28/12 Q1019 
BLU=
METAR EHVL 080855Z AUTO 24012KT 9999NDV SCT047 OVC053 19/15 Q1018 
BLU=
METAR EHWO 080855Z AUTO 27005KT 9999NDV NCD 25/12 Q1019 
BLU BLU=
####018000088####
SAVN22 SVMI 080900
METAR SVMI 080900Z 02002KT 9999 FEW016 SCT100 25/23 Q1013 NOSIG=
####018000090####
SAOS32 LOWM 080850 RRA
METAR LOXZ 080850Z VRB02KT 70KM SKC 19/10 Q1024 NOSIG RMK SKC=
####018000087####
SAPK31 OPPS 080855
METAR OPPS 080900Z 05012KT 6000 HZ FEW040 FEW100 38/24 Q1005.2=
####018000113####
SAUS43 KLMK 080857
MTRSDF
METAR KSDF 080856Z 12004KT 7SM CLR 27/21 A3005 RMK AO2 SLP168 
T02670206 57005
####018000124####
SAUS44 KSHV 080857
MTRSHV
METAR KSHV 080856Z 11003KT 10SM SCT180 BKN280 24/24 A3001 RMK AO2 
SLP158 T02440239 53003
####018000124####
SAUS45 KABQ 080857
MTRABQ
METAR KABQ 080856Z 08012KT 10SM BKN130 BKN200 20/09 A3025 RMK AO2 
SLP148 T02000094 51001
####018000678####
SACN60 CWAO 080800 RRF
PET SA 0800 AUTO8 M M M M/10/08/MMMM/M/ M 54MM=
PFM SA 0800 AUTO8 M M M M/10/08/MMMM/M/ M 04MM=
PHU SA 0800 AUTO8 M M M M/11/11/MMMM/M/ M 46MM=
PIA SA 0800 AUTO8 M M M M/12/10/MMMM/M/ M 60MM=
PKA SA 0800 AUTO8 M M M M/11/11/MMMM/M/ M 17MM=
PLA SA 0800 AUTO8 M M M M/09/08/MMMM/M/ M 85MM=
PMA SA 0800 AUTO8 M M M M/13/12/MMMM/M/ M 49MM=
PMB SA 0800 AUTO8 M M M M/08/07/MMMM/M/ M 78MM=
PML SA 0800 AUTO8 M M M M/12/10/MMMM/M/ M 80MM=
PPL SA 0800 AUTO8 M M M M/11/10/MMMM/M/ M 36MM=
PRH SA 0800 AUTO8 M M M M/10/09/MMMM/M/ M 12MM=
PRS SA 0800 AUTO8 M M M M/11/10/MMMM/M/ M 89MM=
PSA SA 0800 AUTO8 M M M M/12/11/MMMM/M/ M 49MM=

####018000139####
SACN96 CWAO 080800 RRH
WYW SA 0800 AUTO8 M M M 146/14/13/1802/M/ 8008 65MM=
XEL SA 0800 AUTO8 M M M 131/16/13/2910/M/M 8005 86MM=

####018000632####
SACN59 CWAO 080800 RRJ
PAA SA 0800 AUTO8 M M M M/11/10/2803/M/ M 17MM=
PBA SA 0800 AUTO8 M M M M/12/09/MMMM/M/ M 54MM=
PBE SA 0800 AUTO8 M M M M/11/10/1301/M/ M 06MM=
PBS SA 0800 AUTO8 M M M M/10/09/2803/M/0004 M 56MM=
PBT SA 0800 AUTO8 M M M M/11/09/2604/M/ M 63MM=
PCA SA 0800 AUTO8 M M M M/11/10/2505/M/ M 34MM=
PEH SA 0800 AUTO8 M M M M/11/11/2104/M/ M 16MM=
PGE SA 0800 AUTO8 M M M M/13/11/2001/M/ M 63MM=
PIR SA 0800 AUTO8 M M M M/13/11/2505/M/ M 13MM=
PQL SA 0800 AUTO8 M M M M/13/11/2104/M/ M 69MM=
PRA SA 0800 AUTO8 M M M M/12/10/MMMM/M/ M 77MM=
PXL SA 0800 AUTO8 M M M M/11/10/2003/M/ M 14MM=

####018000115####
SACN89 CWAO 080800 RRG
WCI SA 0800 AUTO8 M M M 142/16/16/0506/M/0118 PCPN 8.6MM PAST HR
/R+12/ 6018 75MM=

####018000083####
SACN90 CWAO 080800 RRF
WFZ SA 0800 AUTO8 M M M 127/08/07/3202/M/ 1002 07MM=

####018000086####
SAUS54 KWBC 080800 RRJ
METAR
KIZA 080849Z AUTO 00000KT 10SM OVC009 13/11 A2991=
####018000103####
SACN92 CWAO 080800 RRE
WJN SA 0800 AUTO8 M M M 171/03/02/3014/M/ PK WND 3117 0739Z 2010
47MM=

####018000089####
SPCN48 CWAO 080855
SPECI CYMH 080855Z AUTO 16003KT 9SM BKN004 OVC032 07/06 A3010=

####018000104####
SACN93 CWAO 080800 RRG
WND SA 0800 AUTO8 M M M 147/04/03/3217/M/M PK WND 3024 0725Z 1020
41MM=

####018000078####
SAMZ40 FQMA 080900
METAR FQQL 080900Z 16009KT 9999 SCT020 27/19 Q1025=

####018000073####
SAAL41 DAMM 080800 RRD
METAR DAUG 080800Z 00000KT CAVOK 32/17 Q1018=
####018000121####
SAUS46 KSEW 080857
MTRAST
METAR KAST 080855Z AUTO 24006KT 7SM OVC003 12/11 A2994 RMK AO2 
SLP137 T01220106 53011
####018001644####
SAEU KAWN 080900 RRH
METAR EGDM 080850Z 22002KT 9999 FEW012 SCT025 BKN130 17/13 Q1019 BLU
      TEMPO SCT014 GRN=
METAR EGDR 080850Z 22005KT 9999 FEW020 SCT120 17/13 Q1018 BLU TEMPO
      SCT020 WHT=
METAR EGOM 080850Z 23011KT 9999 SCT016 SCT030 BKN065 14/10 Q1014 WHT=
METAR EGOS 080850Z 23010KT 9999 FEW022 BKN100 16/10 Q1017 BLU NOSIG=
METAR EGOV 080850Z 20014KT 9999 FEW013 SCT160 BKN220 16/13 Q1016 BLU
      NOSIG=
METAR EGQL 080850Z 24015KT 9999 FEW023 BKN060 16/09 Q1012 BLU NOSIG=
METAR EGQS 080850Z 23018KT 9999 FEW030 SCT050 18/07 Q1008 BLU NOSIG=
METAR EGUB 080850Z 31004KT 9999 FEW010 OVC030 18/13 Q1018 BLU NOSIG=
METAR EGUW 080850Z 25009KT 9999 FEW010 BKN014 BKN080 19/15 Q1018 GRN
      TEMPO 4000 -RADZ SCT005 YLO1=
METAR EGVN 080850Z 24003KT 9999 -RA FEW023 BKN070 BKN100 17/12 Q1018
      BLU NOSIG=
METAR EGVO 080850Z 33004KT 3700 -DZ OVC003 16/15 Q1019 YLO2 BECMG BKN012
      GRN=
METAR EGWC 080850Z 20006KT 9999 FEW020 BKN090 16/09 Q1019 BLU=
METAR EGWU 080850Z 31005KT 9999 FEW006 SCT012 OVC016 17/15 Q1019 RERA
      REDZ GRN BECMG FEW010 BKN016 WHT=
METAR EGXC 080850Z 24009KT 9999 -RA FEW025 SCT090 OVC120 17/11 Q1017
      BLU NOSIG=
METAR EGXE 080850Z 22008KT 9999 FEW025 BKN100 BKN200 17/12 Q1016 BLU
      NOSIG=
METAR EGXG 080850Z 22007KT 9999 FEW025 BKN200 17/10 Q1016 BLU=
METAR EGXJ 080850Z 24009KT 9999 FEW025 BKN100 17/10 Q1017 BLU=
METAR EGXT 080850Z 23011KT 9999 -RA FEW020 BKN090 BKN120 17/10 Q1018
      BLU NOSIG=
METAR EGXU 080850Z 24008KT 9999 FEW024 SCT090 BKN130 17/10 Q1016 BLU=
METAR EGYD 080850Z 24012KT CAVOK 17/10 Q1017 BLU NOSIG=
####018000330####
SAXN17 KAWN 080800 RRJ
METAR MMTP 080840Z 00000KT 10SM BKN020 BKN100 25/22 A2988 RMK 8/170=
METAR MMUN 080843Z 12005KT 6SM SCT015 SCT090 BKN300 28/24 A2986 RMK
      SLP111 57017 911 8/538 HZY=
METAR PTYA 080754Z 07010KT 12SM FEW016CB SCT030 BKN130 OVC300 26/23
      A2980 RMK SHRAB10E25 CB VC NE-E SLP093 T02610225=
####018001581####
SANA35 KAWN 080900 RRA
METAR KBIX 080855Z AUTO 07003KT 10SM CLR 25/25 A3001 RMK AO2 SLP163
      T02540251 55007=
METAR KBOS 080854Z 15005KT 10SM BKN019 23/19 A3006 RMK AO2 SLP179 T02280194
      53001=
METAR KDOV 080855Z AUTO 00000KT 3SM BR CLR 24/24 A2999 RMK AO2 VIS
      1 RWY19 SLP157 T02360236 53001=
METAR KGSB 080855Z AUTO 00000KT 10SM CLR 24/19 A2991 RMK AO2 SLP128
      T02420191 56004 $=
METAR KHST 080855Z AUTO 07004KT 10SM FEW006 27/25 A2993 RMK AO2 RAB0822E0843DZB0843E0847
      SLP135 P0002 60002 T02650253 56009 $=
METAR KLFI 080855Z 11005KT 10SM FEW008 SCT100 BKN150 26/23 A2996 RMK
      AO2A SLP145 T02580234 56004 $=
METAR KMCF 080855Z AUTO 05004KT 10SM CLR 23/23 A2998 RMK AO2 SLP153
      T02330226 58012=
METAR KNKT 080854Z AUTO 04007KT 5SM HZ CLR 26/22 A2991 RMK AO2 SLP125
      T02610222 55006 $=
METAR KPAM 080855Z AUTO 35005KT 10SM CLR 25/24 A3000 RMK AO2 SLP161
      T02460245 56009=
METAR KPHL 080854Z 00000KT 6SM HZ SCT180 25/22 A3001 RMK AO2 SLP163
      T02500222 52002 $=
METAR KSAV 080853Z 26003KT 10SM FEW024 21/19 A2999 RMK AO2 SLP153 T02110194
      56009=
METAR KSSC 080855Z AUTO 29008KT 10SM CLR 26/19 A2995 RMK AO2 SLP141
      T02560189 57007 $=
METAR KSYR 080854Z 15003KT 7SM FEW048 SCT090 SCT200 22/20 A3004 RMK
      AO2 SLP167 T02220200 51001=
METAR KVAD 080855Z AUTO 00000KT 10SM CLR 21/20 A3001 RMK AO2 SLP162
      T02110198 56008 $=
METAR KWRI 080855Z AUTO 12004KT M1/4SM R18/0500V0600FT R24/0500V0600FT
      FG VV001 23/23 A2999 RMK AO2 SLP157 T02330233 55000 $=
####018001546####
SAZZ40 KAWN 080900 RRG
METAR KDLF 080855Z AUTO 29003KT 10SM CLR 24/23 A2995 RMK AO2 SLP124
      T02390228 55001 $=
METAR KGRK 080855Z 07005KT 7SM BKN013 26/23 A2997 RMK SLP127 56007=
METAR KHST 080855Z AUTO 07004KT 10SM FEW006 27/25 A2993 RMK AO2 RAB0822E0843DZB0843E0847
      SLP135 P0002 60002 T02650253 56009 $=
METAR KLSF 080855Z AUTO 00000KT 10SM CLR 22/21 A3001 RMK AO2 SLP162
      T02150207 56006 $=
METAR KLSV 080855Z AUTO 34003KT 10SM CLR 26/M04 A2982 RMK AO2 SLP078
      T02561041 53006 PWINO=
METAR KLTS 080855Z AUTO 02005KT 10SM CLR 23/22 A3005 RMK AO2 DZB0807E0844
      SLP159 P0000 60000 T02280223 53002 $=
METAR KLUF 080855Z 19005KT 10SM CLR 31/03 A2976 RMK AO2A SLP044 T03110032
      53009 $=
METAR KMCF 080855Z AUTO 05004KT 10SM CLR 23/23 A2998 RMK AO2 SLP153
      T02330226 58012=
METAR KMIB 080855Z AUTO 26008KT 10SM CLR 12/11 A3007 RMK AO2 SLP187
      T01170111 50001 $=
METAR KMXF 080855Z AUTO 00000KT 10SM CLR 25/24 A3001 RMK AO2 SLP161
      T02540241 55005=
METAR KSKA 080855Z AUTO 00000KT 10SM CLR 15/08 A3007 RMK AO2 SLP170
      T01510079 53004=
METAR KWRB 080855Z 14004KT 10SM CLR 21/21 A3002 RMK AO2A SLP162 T02110206
      56006=
METAR KXMR 080855Z AUTO 00000KT 10SM CLR 19/18 A2997 RMK AO2 SLP152
      T01940184 55007=
METAR MGSJ 080900Z 00000KT 9999 FEW018 OVC090 23/23 Q1011 A2985=
METAR MHSC 080855Z AUTO 20003KT 9999 OVC130 22/20 A2993 RMK AO2 SLP093
      T02170196 56012 $=
METAR OLBA 080900Z 24008KT 210V270 8000 FEW080 29/19 Q1011 NOSIG=
####018000088####
SAXX70 KAWN 080800 RRX
METAR KQFW 080840Z AUTO 22002KT 7SM CLR 27/19 A2988 RMK A02=
####018001716####
SAUK KAWN 080900 RRA
METAR COR EGCC 080850Z 21010KT 9999 FEW021 17/12 Q1017 NOSIG=
METAR EGDM 080850Z 22002KT 9999 FEW012 SCT025 BKN130 17/13 Q1019 BLU
      TEMPO SCT014 GRN=
METAR EGDR 080850Z 22005KT 9999 FEW020 SCT120 17/13 Q1018 BLU TEMPO
      SCT020 WHT=
METAR EGKA 080850Z 23006KT 9999 SCT017 20/17 Q1019=
METAR EGKB 080850Z 21004KT 160V280 9999 BKN014 19/15 Q1019=
METAR EGLF 080850Z 31007KT 5000 -DZ BKN006 17/15 Q1019=
METAR COR EGLL 080850Z 30006KT 9999 FEW005 BKN011 17/15 Q1019 BECMG
      SCT040=
METAR EGMC 080850Z 25007KT 9999 FEW018 20/16 Q1019=
METAR EGMH 080850Z 26008KT 230V290 9999 FEW014 21/16 Q1019=
METAR EGPB 080850Z 19016KT 9999 FEW012 14/11 Q1006=
METAR EGQS 080850Z 23018KT 9999 FEW030 SCT050 18/07 Q1008 BLU NOSIG=
METAR EGTC 080850Z 27008KT 220V300 9999 FEW015 17/11 Q1018=
METAR EGUB 080850Z 31004KT 9999 FEW010 OVC030 18/13 Q1018 BLU NOSIG=
METAR EGUL 080855Z AUTO 26007KT 9999 OVC026 18/15 A3007 RMK AO2 DZE0823
      SLP183 P0000 60000 T01780150 51011=
METAR EGUN 080855Z AUTO 29007KT 9999 SCT008 SCT013 BKN020 OVC027 18/18
      A3007 RMK AO2 RAB0751E0801 CIG 017V024 SLP173 P0000 60001
      T01760176 51010=
METAR EGUW 080850Z 25009KT 9999 FEW010 BKN014 BKN080 19/15 Q1018 GRN
      TEMPO 4000 -RADZ SCT005 YLO1=
METAR EGWC 080850Z 20006KT 9999 FEW020 BKN090 16/09 Q1019 BLU=
METAR EGXD 080850Z 21006KT 9999 FEW024 BKN110 17/12 Q1016 BLU NOSIG=
METAR EGXG 080850Z 22007KT 9999 FEW025 BKN200 17/10 Q1016 BLU=
METAR EGXU 080850Z 24008KT 9999 FEW024 SCT090 BKN130 17/10 Q1016 BLU=
METAR EGYD 080850Z 24012KT CAVOK 17/10 Q1017 BLU NOSIG=
METAR EGYM 080850Z 26010KT 9999 FEW012 BKN034 BKN120 18/10 Q1018 BLU
      NOSIG=
####018001438####
SAXX60 KAWN 080900
METAR NSTU 080850Z 08008KT 10SM SCT014 BKN045 28/26 A2989 RMK SLP124
      60005 8/400 T02790261 52017=
METAR PGSN 080854Z 09010KT 10SM FEW025 28/24 A2989 RMK AO2 SLPNO 60000
      T02780244 53012=
METAR PGUA 080855Z AUTO 09013KT 10SM SCT017 27/ A2989 RMK AO2 SCT V
      BKN SLP102 T0273 53009 VISNO RWY24L $=
METAR PGUM 080854Z 09010KT 10SM FEW021 SCT027 SCT041 28/24 A2988 RMK
      AO2 SLP110 T02830244 53010=
METAR PHHI 080855Z AUTO 04005KT 8SM -RA SCT036 BKN048 BKN060 22/19
      A3007 RMK AO2 RAB0847 SLP171 P0001 60001 T02180185 52009=
METAR PHJR 080853Z 06003KT 10SM FEW055 23/18 A3006 RMK AO2 SLP184 T02330183
      53009=
METAR PHKO 080853Z AUTO 17006KT 10SM CLR 24/16 A2999 RMK AO2 SLP156
      T02440161 51006 TSNO=
METAR PHMK 080854Z AUTO 05007G17KT 10SM FEW025 SCT039 23/19 A3006 RMK
      AO2 SLP180 T02280189 52009 TSNO=
METAR PHNL 080853Z 03006KT 10SM FEW032 SCT050 24/18 A3005 RMK AO2 RAB21E42
      SLP174 P0000 60000 T02440183 53009=
METAR PHOG 080854Z 04010KT 10SM FEW055 24/17 A3004 RMK AO2 SLP178 T02390172
      51009=
METAR PHTO 080853Z AUTO 16005KT 8SM RA SCT025 BKN038 22/19 A3006 RMK
      AO2 RAB45 SLP177 P0001 60001 T02170194 51013 TSNO=
METAR RJTY 080855Z AUTO 17008KT 9999 CLR 28/22 A2985 RMK AO2 SLP100
      T02800217 53004 $=
METAR RODN 080855Z AUTO 18011KT 9999 FEW021 SCT200 29/26 A2981 RMK
      AO2 SLP095 T02930259 55000=
####018000259####
SPUS17 KAWN 080857 RRG
SPECI KAFF 080851Z AUTO 18006KT 10SM FEW002 SCT016 OVC023 13/12 A3040
      RMK AO2 RAB0834E0851DZB0832E0834 FEW V SCT SLP207=
SPECI KHLR 080849Z AUTO 09003KT 10SM FEW027 SCT048 26/ A2998 RMK AO2
      RAB29E38 P0000 T0256 $=
####018000177####
SAAK17 KAWN 080900 RRB
PALU SA 0855 AWOS CLR BLO 120 10 55/35/2212G24/ 011=
PASV SA 0855 AWOS 90 SCT 10 50/47/0000/997=
PATL SA 0855 AWOS CLR BLO 120 10 60/43/0205/000=
####018001155####
SPZZ40 KAWN 080857 RRO
SPECI CWZZ 080852Z AUTO ///// 1/8SM BKN012 OVC020 OVC040 11/ A2980=
SPECI CWZZ 080854Z AUTO ///// 1/8SM OVC021 OVC039 OVC069 11/ A2980=
SPECI CYPQ 080852Z AUTO ///// 1SM CLR 21/21 A3003 RMK VSBY VRBL 0.3V9.0=
SPECI CYPQ 080854Z AUTO ///// 3SM CLR 21/21 A3003=
SPECI CYPY 080853Z AUTO 27003KT 2 3/8SM CLR 11/11 A2992=
SPECI CYQA 080854Z AUTO 00000KT 2 1/2SM BR CLR 19/19 A3003 RMK SLP170
      DENSITY ALT 1400FT VIS VRB 1 1/4-3=
SPECI CYQX 080850Z 15008KT 15SM BKN004 OVC029 10/ RMK SF7SC1=
SPECI CYUA 080853Z AUTO 28010KT 3SM -UP OVC004 05/ A3009=
SPECI CYUS 080852Z AUTO ///// 9SM CLR 11/ A2980=
SPECI KEGI 080854Z AUTO 00000KT 2 1/2SM R18/2400V5000FT BR CLR 23/22
      A3002 RMK AO2 VIS 1 1/4V5 SLP165 $=
SPECI KOZR 080852Z AUTO 00000KT 9SM R06/5500VP6000FT CLR 22/22 A3002
      RMK AO2 SLP162=
SPECI PGUA 080852Z AUTO 09014KT 10SM BKN017 27/ A2989 RMK AO2 CIG 017V021
      SLP102 VISNO RWY24L $=
SPECI PGUA 080854Z AUTO 09014KT 10SM SCT017 27/ A2989 RMK AO2 SLP102
      VISNO RWY24L $=
SPECI RJFZ 080851Z VRB01KT 8000 FEW030 BKN045 OVC230 27/20 Q1007 RMK
      1CU030 5SC045 A2976=
####018001752####
SAEU KAWN 080900 RRG
METAR EGUN 080855Z AUTO 29007KT 9999 SCT008 SCT013 BKN020 OVC027 18/18
      A3007 RMK AO2 RAB0751E0801 CIG 017V024 SLP173 P0000 60001
      T01760176 51010=
METAR EGXD 080850Z 21006KT 9999 FEW024 BKN110 17/12 Q1016 BLU NOSIG=
METAR EGYM 080850Z 26010KT 9999 FEW012 BKN034 BKN120 18/10 Q1018 BLU
      NOSIG=
METAR ENAL 080850Z 17008KT 9999 SCT055 SCT085 19/07 Q1009=
METAR ENAN 080850Z 15007KT 9999 FEW045 18/09 Q1010 NOSIG=
METAR ENBO 080850Z 01009KT 320V040 9999 FEW040 BKN100 17/09 Q1010 NOSIG=
METAR ENBR 080850Z 19011KT 9999 FEW015 SCT047 BKN080 16/12 Q1012 NOSIG=
METAR ENDU 080850Z 10004KT 020V160 9999 FEW050 SCT080 20/08 Q1011 NOSIG=
METAR ENKR 080850Z 18005KT 9999 BKN015 12/09 Q1017=
METAR ENMS 080850Z 14005KT 9999 FEW050 22/10 Q1009=
METAR ENNA 080850Z 16014KT 9999 FEW040 19/09 Q1014=
METAR ENOL 080850Z 31011KT 9999 FEW025 SCT090 18/13 Q1009 NOSIG=
METAR ENRM 080850Z 03005KT 340V080 CAVOK 18/09 Q1010=
METAR ENSB 080850Z 28006KT 9999 FEW015 SCT035 BKN060 09/06 Q1008 NOSIG=
METAR ENSK 080850Z 14006KT CAVOK 17/09 Q1010=
METAR ENSO 080850Z 18008KT 9999 FEW015 SCT070 17/12 Q1012=
METAR ENST 080850Z VRB02KT CAVOK 17/10 Q1010=
METAR ENVA 080850Z 19007KT 140V250 9999 FEW050 SCT160 21/11 Q1009 NOSIG=
METAR ENVD 080850Z VRB02KT 9999 BKN023 12/08 Q1017=
METAR ENZV 080850Z 19010KT 9999 FEW020 SCT180 18/12 Q1013 NOSIG=
METAR ETAR 080855Z AUTO 05003KT 9999 CLR 25/14 A3014 RMK AO2 SLP200
      T02540145 58002 $=
METAR ETIC 080856Z AUTO 00000KT 9999 CLR 22/08 A3022 RMK AO2 SLP222
      T02180079 50001 $=
METAR ETOU 080855Z AUTO VRB03KT 9999 CLR 25/11 A3016 RMK AO2 SLP208
      T02530113 50002=
METAR LWOH 080900Z 01008KT 330V060 9999 FEW033 20/07 Q1019=
####018000125####
SAUS41 KOKX 080857 COR
MTRMTP
METAR KMTP 080854Z AUTO VRB03KT 22/20 A3006 RMK AO2 SLP178 T02170200 
53002 PWINO TSNO
####018003703####
SAUS90 KWBC 080900
METAR KCAR 080854Z AUTO 18005KT 7SM FEW043 21/19 A3000 RMK AO2
     SLP157 T02110194 53002=
METAR KGSO 080854Z 33004KT 8SM FEW090 26/18 A3001 RMK AO2 SLP148
     T02610178 55005=
METAR KNAK 080854Z AUTO 06004KT 4SM HZ CLR 26/23 A2998 RMK AO2
     SLP154 6//// T02610228 TSNO $=
METAR KDMH 080854Z AUTO 28/23 A3000 RMK AO2 SLP157 T02780228 53001
     PWINO TSNO=
METAR KCOU 080854Z AUTO 31003KT 8SM -RA BKN003 BKN070 23/22 A3004
     RMK AO2 SLP163 P0002 60004 T02280222 58003 TSNO=
METAR KFWA 080854Z 24004KT 10SM CLR 23/21 A3006 RMK AO2 SLP170
     T02330206 56004=
METAR KAVP 080854Z AUTO 11003KT 7SM CLR 21/18 A3006 RMK AO2 SLP165
     T02060178 55001 TSNO $=
METAR KACY 080854Z 00000KT 4SM BR CLR 23/22 A3002 RMK AO2 SLP164
     T02330217 53001=
METAR KRQE 080853Z AUTO 13009KT 10SM BKN120 18/06 A3024 RMK AO2
     SLP100 T01830061 50002 TSNO=
METAR KDRA 080855Z AUTO 31003KT 10SM CLR 22/M12 A2992 RMK AO2
     SLP078 T02171117 53006 TSNO=
METAR KRFD 080854Z 17007KT 8SM FEW009 OVC080 22/21 A3001 RMK AO2
     RAE39 SLP158 P0000 60002 T02220211 58014=
METAR KELY 080853Z AUTO 18006KT 10SM CLR 10/M04 A3020 RMK AO2
     SLP130 T01001039 51008 $=
METAR KGNT 080853Z AUTO 14018G22KT 18/08 A3029 RMK AO2 SLP158
     T01780078 53002 PWINO TSNO=
METAR KCAO 080855Z AUTO 04012KT 10SM -RA SCT070 OVC095 16/13 A3029
     RMK AO2 SLP196 P0001 60009 T01560133 55005 TSNO=
METAR KMBG 080855Z AUTO 00000KT 10SM CLR 11/09 A3013 RMK AO2
     SLP197 T01110089 53002 TSNO=
METAR KINL 080855Z AUTO 22003KT 10SM FEW090 12/11 A3000 RMK AO2
     SLP159 T01170111 58006=
METAR KPOE 080855Z AUTO 11006KT 10SM CLR 24/22 A3000 RMK AO2
     SLP158 T02440222 55000=
METAR K2G4 080855Z AUTO 00000KT 10SM SCT070 23/13 A3019 RMK
     AO1=
METAR KCHS 080856Z 29007KT 9SM CLR 24/19 A2996 RMK AO2 SLP143
     T02440194 56008=
METAR K2W6 080856Z AUTO 00000KT 4SM CLR 23/23 A3000 RMK AO1=
METAR KCBE 080856Z AUTO 00000KT 7SM CLR 21/18 A3010 RMK AO1=
METAR KFME 080857Z AUTO 00000KT 4SM CLR 20/20 A3002 RMK AO1=
METAR KFDK 080847Z AUTO 00000KT 5SM BR SCT100 24/22 A3003 RMK
     AO2=
METAR KCGE 080854Z AUTO 00000KT 3SM 25/25 A2999 RMK AO1 SKY
     OBSCURED=
METAR KAAT 080855Z AUTO 00000KT 10SM CLR 12/08 A3007 RMK AO2
     SLP138 T01220083 51005 TSNO=
METAR KVBG 080855Z AUTO 00000KT 10SM CLR 12/11 A2993 RMK AO2 CIG
     006 RWY12 SLP125 T01220111 57003 TSNO $=
METAR KANJ 080855Z AUTO 00000KT 8SM OVC004 21/19 A2994 RMK AO2
     RAE27 SLP133 P0008 60009 T02060194 58017=
METAR KJAX 080856Z 00000KT 9SM CLR 19/19 A2999 RMK AO2 SLP155
     T01940189 58012=
METAR TJSJ 080856Z 00000KT 10SM FEW022 SCT035 27/24 A2998 RMK AO2
     SLP150 T02720244 55000=
METAR KHON 080855Z AUTO 23005KT 10SM CLR 16/13 A3014 RMK AO2
     SLP202 T01610133 50000=
METAR KPHP 080855Z AUTO 29006KT 10SM CLR 13/10 A3021 RMK AO2
     SLP216 T01280100 53002 TSNO $=
METAR KW29 080856Z AUTO 00000KT 5SM CLR 23/22 A2999 RMK AO1=
METAR KDMW 080855Z AUTO 00000KT 7SM CLR 26/21 A3004 RMK AO2=
METAR KMTN 080857Z AUTO 00000KT 7SM CLR 26/23 A3000 RMK AO2=
METAR KABQ 080856Z 08012KT 10SM BKN130 BKN200 20/09 A3025 RMK AO2
     SLP148 T02000094 51001=
METAR KSDF 080856Z 12004KT 7SM CLR 27/21 A3005 RMK AO2 SLP168
     T02670206 57005=
METAR KSHV 080856Z 11003KT 10SM SCT180 BKN280 24/24 A3001 RMK AO2
     SLP158 T02440239 53003=
METAR KAST 080855Z AUTO 24006KT 7SM OVC003 12/11 A2994 RMK AO2
     SLP137 T01220106 53011=
METAR KU24 080850Z 36008KT 30SM SKC 17/06 RMK SLP129 NOSPECI
     T01740056 52005=
METAR KNBT 080856Z AUTO 05008KT 3SM BR CLR 28/ A2990 RMK AO2
     SLP130 T0283 56004 TSNO $=
####018000655####
SAUS90 KWBC 080900 RRA
METAR KP60 080856Z AUTO 00000KT 01/M01 A3043 RMK AO2 SLP258
     T00111011 51004 PWINO FZRANO TSNO=
METAR KGNA 080856Z AUTO 22004KT 17/16 A2997 RMK AO2 SLP142 60001
     T01720161 56007 PWINO TSNO=
METAR KBIH 080856Z AUTO 36005KT 10SM CLR 14/02 A2998 RMK AO2
     SLP099 T01390022 51010 TSNO=
METAR KAQV 080856Z AUTO 00000KT 10SM CLR 23/23 A3000 RMK AO2
     SLP155 T02330228 53002 $=
METAR KALK 080856Z AUTO 08010KT 10SM CLR 23/08 A3007 RMK AO2
     SLP077 T02330078 55000=
METAR KNGP 080856Z AUTO 11011KT 10SM FEW018 BKN050 28/26 A2980 RMK
     AO2 TSB18E34RAB37E49 SLP092 P0001 60001 T02830261 56016 $=
####018000154####
SAUS90 KWBC 070900 RRJ
METAR KESN 080900Z AUTO 00000KT 3SM BR CLR 23/23 A3003 RMK AO2=
METAR KCGS 080900Z AUTO 00000KT 7SM CLR 26/23 A2999 RMK AO1=
####018000302####
SAUS90 KWBC 080900 CCA
METAR KMTP 080854Z AUTO VRB03KT 22/20 A3006 RMK AO2 SLP178
     T02170200 53002 PWINO TSNO=
METAR KTYS 080853Z 00000KT 9SM CLR 24/19 A3006 RMK AO2 SLP164
     T02390189 55003=
METAR KTRI 080853Z 00000KT 6SM BR CLR 21/19 A3010 RMK AO2 SLP170
     T02110189 55001 $=
####018001612####
SAUS17 KAWN 080900 RRB
METAR KBIX 080855Z AUTO 07003KT 10SM CLR 25/25 A3001 RMK AO2 SLP163
      T02540251 55007=
METAR KBKF 080855Z 16005KT 7SM BKN010 BKN060 14/14 A3033 RMK SLP228
      58005=
METAR KDLF 080855Z AUTO 29003KT 10SM CLR 24/23 A2995 RMK AO2 SLP124
      T02390228 55001 $=
METAR KFCS 080855Z AUTO 20008KT 10SM OVC023 14/11 A3038 RMK AO2 DZB0838E0847
      SLP216 P0000 60000 T01400110 50010=
METAR KFSI 080855Z AUTO 01005KT 10SM CLR 23/22 A3004 RMK AO2 SLP156
      T02260218 52005=
METAR KGRK 080855Z 07005KT 7SM BKN013 26/23 A2997 RMK SLP127 56007=
METAR KHST 080855Z AUTO 07004KT 10SM FEW006 27/25 A2993 RMK AO2 RAB0822E0843DZB0843E0847
      SLP135 P0002 60002 T02650253 56009 $=
METAR KLFI 080855Z 11005KT 10SM FEW008 SCT100 BKN150 26/23 A2996 RMK
      AO2A SLP145 T02580234 56004 $=
METAR KLSF 080855Z AUTO 00000KT 10SM CLR 22/21 A3001 RMK AO2 SLP162
      T02150207 56006 $=
METAR KLSV 080855Z AUTO 34003KT 10SM CLR 26/M04 A2982 RMK AO2 SLP078
      T02561041 53006 PWINO=
METAR KLTS 080855Z AUTO 02005KT 10SM CLR 23/22 A3005 RMK AO2 DZB0807E0844
      SLP159 P0000 60000 T02280223 53002 $=
METAR KLUF 080855Z 19005KT 10SM CLR 31/03 A2976 RMK AO2A SLP044 T03110032
      53009 $=
METAR KMCF 080855Z AUTO 05004KT 10SM CLR 23/23 A2998 RMK AO2 SLP153
      T02330226 58012=
METAR KMIB 080855Z AUTO 26008KT 10SM CLR 12/11 A3007 RMK AO2 SLP187
      T01170111 50001 $=
METAR KMXF 080855Z AUTO 00000KT 10SM CLR 25/24 A3001 RMK AO2 SLP161
      T02540241 55005=
METAR KSVN 080855Z 00000KT 10SM SKC 22/21 A2997 RMK SLP152 56007 60000=
####018002937####
SAUS20 KNKA 080857
METAR KSDF 080856Z 12004KT 7SM CLR 27/21 A3005 RMK AO2 SLP168 
    T02670206 57005=
METAR K1A6 080855Z AUTO 00000KT 3SM BR CLR 21/21 A3010 RMK AO2=
METAR K1M4 080856Z AUTO 00000KT 10SM CLR 22/22 A3010 RMK AO2 55004 
    T02220216 SLP187=
METAR K21D 080858Z AUTO 31005KT 10SM CLR 18/16 A3006 RMK AO2=
METAR KAIG 080855Z AUTO 32003KT 10SM SCT005 18/18 A2999 RMK AO2=
METAR KAND 080856Z AUTO 00000KT 10SM CLR 22/19 A3001 RMK AO2 SLP152 
    T02170194 56006=
METAR KART 080856Z AUTO 00000KT 7SM CLR 23/20 A3002 RMK AO2 SLP158 
    T02280200 56003=
METAR KARV 080852Z AUTO 00000KT 10SM SCT010 BKN018 OVC036 20/19 
     A3002 RMK AO2 T01950185=
METAR KATW 080855Z AUTO 24005KT 7SM BKN009 22/21 A2998 RMK AO2=
METAR KBED 080856Z AUTO 00000KT 5SM BR BKN017 OVC039 24/22 A3004 RMK 
    AO2 SLP183 T02390217 53002=
METAR KBJI 080854Z AUTO 24007KT 10SM CLR 15/13 A3004 RMK AO2=
METAR KBJJ 080856Z AUTO 00000KT 4SM BR CLR 18/17 A3009 RMK AO2 
    SLP182 T01780172 56003=
METAR KBWP 080851Z AUTO 26003KT 10SM CLR 15/13 A3008 RMK AO1 
     T01470133=
METAR KBZN 080856Z AUTO 18004KT 10SM CLR 10/04 A3026 RMK AO2 SLP225 
    T01000039 51003=
METAR KCEC 080856Z AUTO 00000KT 2 1/2SM BR OVC003 10/09 A2997 RMK 
    AO2 SLP150 T01000094 58001=
METAR KCEF 080855Z AUTO 16005KT 10SM SCT100 24/22 A3003 RMK AO2 SLP170
      T02360217 53001 PWINO $=
METAR KCTB 080856Z AUTO 33004KT 10SM CLR 10/06 A3024 RMK AO2 SLP222 
    T01000056 51004=
METAR KCXY 080856Z AUTO 00000KT 5SM HZ CLR 23/20 A3002 RMK AO2 
    SLP161 T02330200 53001=
METAR KD39 080854Z AUTO 00000KT 10SM CLR 16/15 A3010 RMK AO2 
     T01600150=
METAR KDAY 080856Z 00000KT 8SM CLR 23/18 A3009 RMK AO2 SLP178 
    T02280183 55005 $=
METAR KDIK 080856Z AUTO 27004KT 10SM CLR 10/08 A3015 RMK AO2 SLP202 
    T01000083 58001=
METAR KDLL 080855Z AUTO 26004KT 10SM OVC004 21/20 A3000 RMK AO2=
METAR KDUG 080856Z AUTO 08021G27KT 10SM CLR 26/12 A3000 RMK AO2 PK 
    WND 08027/0855 SLP071 60000 T02610117 53001 $=
METAR KDUJ 080856Z AUTO 10003KT 6SM HZ CLR 20/17 A3011 RMK AO2 
    SLP180 T02000172 55003=
METAR KDVK 080857Z AUTO 00000KT 5SM 21/19 A3008 RMK AO1=
METAR KEAU 080856Z AUTO 28003KT 10SM CLR 19/18 A3001 RMK AO2 SLP155 
    T01890183 55000=
METAR KEED 080856Z AUTO 26006KT 10SM CLR 30/M03 A2974 RMK AO2 SLP032 
    T03001033 53007 TSNO=
METAR KEFD 080850Z 10009KT 9SM FEW025 BKN130 28/24 A2993=
METAR KEKO 080856Z AUTO 28003KT 10SM CLR 17/M05 A3011 RMK AO2 SLP138 
    T01671050 53009=
METAR KELZ 080856Z AUTO 00000KT 3SM BR CLR 18/18 A3016 RMK AO2 
    SLP196 T01830183 56003=
METAR KFBG 080855Z AUTO 00000KT 10SM CLR 26/18 A2993 RMK AO2 SLP133
      T02570183 56005 $=
METAR KGON 080856Z AUTO 00000KT 10SM OVC011 23/21 A3004 RMK AO2 
    SLP173 T02330211 53003=
METAR KGRD 080856Z AUTO 00000KT 10SM CLR 22/19 A3002 RMK AO2 SLP157 
    T02170194 55005=
####018000125####
SAUS45 KSLC 080857
MTRU24

METAR KU24 080850Z 36008KT 30SM SKC 17/06 RMK SLP129 NOSPECI 
T01740056 52005 



####018000129####
SAPY SGAS 080900
METAR SGAS 080900Z 16007KT 9999 BKN010 OVC017 17/15 Q1015=
METAR SGES 080900Z 17004KT CAVOK 16/15  Q1015=
####018000131####
SAPY59 SGAS 080900
METAR SGAS 080900Z 16007KT 9999 BKN010 OVC017 17/15 Q1015=
METAR SGES 080900Z 17004KT CAVOK 16/15  Q1015=
####018001292####
SAAM20 FCBB 080800
METAR FCBB 080800Z 25004KT 6000  FEW012 BKN140 23/20 Q1016 NOSIG=
METAR FCPP 080800Z 14004KT 4000 BR FEW010 BKN023 23/21 Q1015 BECMG
6000 NSW=
METAR FKKD 080800Z 14003KT 070V160 7000 TS BKN013 FEW016CB OVC120
26/24 Q1015 TEMPO 4000 TS BR=
METAR FKYS 080800Z 26003KT 230V300 8000 FEW003 BKN006 22/20 Q1019
NOSIG=
METAR FKKR 080800Z 00000KT 9999 TSRA SCT003 SCT016 FEW020 OVC120
22/21 Q1014 TEMPO BKN006=
METAR FKKN NIL=
METAR FKKL NIL=
METAR FEFT 080800Z 32004KT 9999 FEW005 BKN150 24/21 Q1017=
METAR FEFG 080800Z /////KT 9999 TSRA FEW033CB OVC140 20/20 Q////=
METAR FEFF 080800Z 31004KT 9999 FEW016 BKN150 23/23 Q1015 NOSIG=
METAR FOOL 080800Z 16007KT 120V200 8000 SCT010 BKN040 BKN100 25/21
Q1015 NOSIG=
METAR FOON 080800Z 18004KT 6000 SCT010 BKN150 23/21 Q1018=
METAR FOOG NIL=
METAR FGBT 080800Z 18004KT 8000 BKN013 OVC130 26/24 Q1015 NOSIG=
METAR FGSL 080800Z 00000KT 9999 SCT013 FEW020CB BKN130 26/26
Q1015 NOSIG=
METAR FZRF NIL=
METAR FZOS NIL=
METAR FZAA 080800Z 26006KT 3000 BR FEW016 23/19 Q1016 BECMG 6000=
METAR FZIC NIL=
METAR FZFK NIL=
METAR FZQA NIL=
METAR FNHU NIL=
METAR FNLU 080800Z VRB03KT 6000 SCT017 BKN020 23/19 Q1015 NOSIG=
METAR FPST 080800Z 17008KT 9999 FEW025 SCT250 26/20 Q1015 NOSIG=
####018000121####
SAUS44 KBMX 080857
MTRPRN
METAR KPRN 080856Z AUTO 00000KT 10SM CLR 24/22 A3002 RMK AO2 SLP159 
T02440222 56007 $
####018000122####
SAUS42 KMHX 080857
MTRNBT
METAR KNBT 080856Z AUTO 05008KT 3SM BR CLR 28/ A2990 RMK AO2 SLP130 
T0283 56004 TSNO $
####018000117####
SAUS44 KMRX 080857 COR
MTRTYS
METAR KTYS 080853Z 00000KT 9SM CLR 24/19 A3006 RMK AO2 SLP164 
T02390189 55003
####018000124####
SAUS45 KBOU 080857
MTRABH
METAR KABH 080856Z AUTO 21005KT 10SM BKN085 13/12 A3037 RMK AO2 
SLP226 T01330122 50004 $
####018000122####
SAUS44 KMRX 080857 COR
MTRTRI
METAR KTRI 080853Z 00000KT 6SM BR CLR 21/19 A3010 RMK AO2 SLP170 
T02110189 55001 $
####018000127####
SAUS43 KDLH 080857
MTRGNA
METAR KGNA 080856Z AUTO 22004KT 17/16 A2997 RMK AO2 SLP142 60001 
T01720161 56007 PWINO TSNO
####018000129####
SAUS45 KRIW 080857
MTRP60
METAR KP60 080856Z AUTO 00000KT 01/M01 A3043 RMK AO2 SLP258 
T00111011 51004 PWINO FZRANO TSNO
####018000121####
SAUS44 KSHV 080857
MTRAQV
METAR KAQV 080856Z AUTO 00000KT 10SM CLR 23/23 A3000 RMK AO2 SLP155 
T02330228 53002 $
####018000114####
SAUS41 KLWX 080857
MTRNYG
METAR KNYG 080856Z AUTO 31003KT CLR 26/22 A2998 RMK AO2 SLP153 
T02560222 55001
####018000119####
SAUS45 KPSR 080857
MTRALK
METAR KALK 080856Z AUTO 08010KT 10SM CLR 23/08 A3007 RMK AO2 SLP077 
T02330078 55000
####018000124####
SAUS46 KLOX 080857
MTRBIH
METAR KBIH 080856Z AUTO 36005KT 10SM CLR 14/02 A2998 RMK AO2 SLP099 
T01390022 51010 TSNO
####018000119####
SAUS41 KAKQ 080857
MTRNCA
METAR KNCA 080856Z AUTO 00000KT 10SM CLR 23/21 A2991 RMK AO2 SLP129 
T02330211 55003
####018000082####
SPCN48 CWAO 080856
SPECI CYGV 080856Z AUTO 07008KT 9SM OVC004 14/12 A3004=

####018000088####
SAGH20 DGAA 080800
METAR DGAA 080800Z 24005KT 8000 FEW014 BKN100 26/23 Q1015 NOSIG=
####018001004####
SAUS20 KNKA 080857
METAR KSGH 080856Z AUTO 00000KT 4SM BR CLR 21/21 A3010 RMK AO2 56005 
    T02050205 SLP181=
METAR KSLE 080856Z AUTO 00000KT 10SM CLR 18/11 A2986 RMK AO2 SLP109 
    T01830111 52012=
METAR KSME 080855Z AUTO 00000KT 4SM BR 21/20 A3008 RMK AO2=
METAR KSRC 080856Z AUTO 00000KT 10SM CLR 23/22 A3006 RMK AO2 TSNO 
    51005 T02270216 SLP181=
METAR KTPH 080856Z AUTO 01009KT 10SM CLR 17/M08 A3009 RMK AO2 SLP110 
    T01671083 51006=
METAR KTZR 080856Z AUTO 00000KT 5SM BR CLR 21/19 A3008 RMK AO2=
METAR KUKI 080856Z AUTO 11003KT 10SM CLR 14/11 A2991 RMK AO2 SLP119 
    T01390106 50003=
METAR KY51 080855Z AUTO 28004KT 7SM CLR 20/20 A3003 RMK AO1 
     T02000197=
METAR PAAK 080856Z AUTO 08021G26KT 10SM SCT018 SCT036 BKN110 07/04 
    A2962 RMK AO1 57010 PNO=
METAR PAHP 080856Z AUTO 03008KT 10SM BKN065 OVC075 12/08 A3007 RMK 
    AO1 52007 PNO TSNO=
METAR TJSJ 080856Z 00000KT 10SM FEW022 SCT035 27/24 A2998 RMK AO2 
    SLP150 T02720244 55000=
####018002932####
SAAK41 KNKA 080857
METAR PAAK 080856Z AUTO 08021G26KT 10SM SCT018 SCT036 BKN110 07/04 
    A2962 RMK AO1 57010 PNO=
METAR PABL 080856Z AUTO 34005KT 10SM CLR 11/07 A3016 RMK AO1 52010 
    PNO=
METAR PABV 080856Z AUTO 15005KT 10SM FEW085 12/08 RMK AO1 PNO=
METAR PADK 080856Z 05010KT 7SM FEW016 BKN022 OVC029 07/06 A2959 RMK 
    AO1 54000 PNO=
METAR PADL 080856Z 32008KT 10SM SCT070 11/08 A2998 RMK AO1 52003 PNO 
    TSNO=
METAR PAEM 080856Z AUTO 35003KT 9SM BKN120 12/08 A3005 RMK AO1 52003 
    PNO=
METAR PAFE 080856Z AUTO 00000KT 10SM CLR 12/09 A3018 RMK AO1 57003 
    PNO=
METAR PAFM 080856Z AUTO 36003KT 10SM CLR 16/09 A3011 RMK AO1 52003 
    PNO=
METAR PAGL 080856Z AUTO 10SM CLR 14/09 A3015 RMK AO1 52010 PNO=
METAR PAGS 080856Z AUTO 00000KT 10SM CLR 11/09 A3020 RMK AO1 54000 
    PNO=
METAR PAHP 080856Z AUTO 03008KT 10SM BKN065 OVC075 12/08 A3007 RMK 
    AO1 52007 PNO TSNO=
METAR PAHY 080856Z AUTO 36004KT 10SM CLR 17/11 A3011 RMK AO1 54000 
    PNO=
METAR PAII 080856Z AUTO 01006KT 10SM OVC055 11/08 A2997 RMK AO1 
    52007 PNO=
METAR PAIN 080856Z AUTO 00000KT 10SM CLR 10/06 A3008 RMK AO1 54000 
    PNO=
METAR PAJC 080856Z AUTO 00000KT 10SM BKN017 OVC023 09/04 A2995 RMK 
    AO1 52007 PNO=
METAR PAKK 080856Z AUTO 01011G16KT 10SM CLR 14/08 A3005 RMK AO1 
    52003 PNO=
METAR PAKP 080856Z AUTO 35003KT 10SM BKN037 11/04 A3011 RMK AO1 
    52010=
METAR PAMD 080856Z AUTO 10022G25KT 9SM SCT016 BKN024 OVC029 09/08 
    A3002 RMK AO1 54000 PNO=
METAR PAMH 080856Z 00000KT 10SM CLR 16/06 A3000 RMK AO1 54000 PNO=
METAR PAMM 080856Z AUTO 36007KT 10SM CLR 19/11 A3008 RMK AO1 54000 
    PNO=
METAR PAMY 080856Z 29007KT 2 1/2SM SCT002 BKN048 OVC060 05/04 A3006 
    RMK AO1 54000=
METAR PANI 080856Z AUTO 00000KT 10SM OVC100 11/09 A3001 RMK AO1 
    52003 PNO=
METAR PANV 080856Z AUTO 28005KT 10SM FEW075 OVC085 14/08 A3000 RMK 
    AO1 52003 PNO=
METAR PAOU 080856Z AUTO 04011KT 10SM BKN055 07/07 A2997 RMK AO2 
    PWINO TSNO 50002 T00720066 401160072 SLP152 $=
METAR PAPG 080856Z 03005KT 10SM CLR 13/10 A3014 RMK AO1 
      57003 PNO=
METAR PAPH 080856Z AUTO 06005KT 9SM CLR 05/03 A2997 RMK AO1 54000 
    PNO=
METAR PAPN 080856Z AUTO 02004KT 10SM BKN070 07/07 A2993 RMK AO2 
    PWINO TSNO 53005 T00720066 401380055 SLP140 $=
METAR PARC 080856Z AUTO 00000KT 10SM BKN060 11/02 A3004 RMK AO1 
    52014 PNO=
METAR PASA 080856Z AUTO 05004KT 10SM CLR 06/04 A3020 RMK AO1 52003 
    PNO=
METAR PASD 080856Z AUTO 00000KT 10SM SCT048 08/05 A2996 RMK AO1 
    54000 PNO=
METAR PASH 080856Z AUTO 04018G21KT 10SM CLR 04/03 A3019 RMK AO1 
    52003 PNO=
METAR PASK 080856Z 28006KT 10SM CLR 14/07 A3011 RMK AO1 52003 PNO=
METAR PASL 080856Z AUTO 00000KT 10SM BKN100 12/08 A3001 RMK AO1 
    52007 PNO=
METAR PASM 080856Z AUTO 03004KT 10SM BKN065 BKN075 OVC100 09/08 
    A3007 RMK AO1 52003 PNO=
####018002989####
SAUS20 KNKA 080857
METAR KGUS 080855Z AUTO 17003KT 10SM CLR 23/20 A3004 RMK AO2 SLP165
      T02260204 56007=
METAR KHFF 080855Z AUTO 00000KT 10SM CLR 22/18 A2996 RMK AO2 SLP142
      T02180179 58006 $=
METAR KHND 080856Z AUTO 20008KT 10SM CLR 27/M03 A2988 RMK AO2 53005 
    T02661027 SLP059=
METAR KHPN 080856Z 00000KT 2 1/2SM BR FEW110 23/21 A3003 RMK AO2 
    SLP160 T02330211 57000=
METAR KHWV 080856Z AUTO 00000KT 5SM BR SCT004 BKN033 24/23 A3004 RMK 
    AO2 SLP169 T02390233 51002=
METAR KHYA 080856Z AUTO 15003KT 6SM BR OVC001 21/21 A3007 RMK AO2 
    SLP184 T02110211 51002=
METAR KIGX 080856Z AUTO 29004KT 7SM CLR 24/18 A2997 RMK AO2 SLP141 
    T02390183 58006 $=
METAR KINW 080856Z AUTO 28004KT 10SM FEW120 23/01 A3008 RMK AO2 
    SLP097 T02330006 53001=
METAR KISP 080856Z 14005KT 4SM BR SCT005 BKN060 BKN100 OVC130 24/22 
    A3002 RMK AO2 RAB06E16 SLP162 P0000 60000 T02440222 53001=
METAR KITH 080856Z AUTO 00000KT 4SM BR CLR 19/18 A3010 RMK AO2 50000 
    T01940183 SLP182=
METAR KIWA 080856Z AUTO 05005KT 10SM CLR 31/04 A2979 RMK AO2=
METAR KJMS 080856Z AUTO 23003KT 10SM CLR 13/13 A3009 RMK AO2 SLP187 
    T01330133 53001=
METAR KJXN 080856Z 00000KT 7SM CLR 21/21 A3004 RMK AO2 SLP166 
    T02110206 56007=
METAR KLAS 080856Z 22010KT 10SM CLR 29/M05 A2980 RMK AO2 SLP060 
    T02891050 52005=
METAR KLCK 080855Z AUTO 00000KT 5SM BR CLR 23/21 A3006 RMK AO2 
     T02260210=
METAR KLNR 080856Z AUTO 28003KT 10SM CLR 21/19 A3001 RMK AO2 SLP151 
    60001 T02060189 56010=
METAR KLRF 080855Z AUTO 00000KT 10SM BKN200 BKN230 23/22 A3005 RMK
      AO2 SLP174 T02290220 50005=
METAR KM19 080856Z AUTO 20005KT 10SM CLR 24/23 A3005 RMK AO2 50001 
    T02440233 SLP174=
METAR KMDT 080856Z 00000KT 6SM HZ CLR 26/21 A3000 RMK AO2 SLP157 
    T02560206 53001=
METAR KMMT 080855Z AUTO 34003KT 10SM CLR 23/19 A2998 RMK AO2 SLP150
      T02250188 57009=
METAR KMOB 080856Z 00000KT 8SM CLR 24/23 A3003 RMK AO2 SLP164 
    T02390228 55009=
METAR KMQY 080856Z AUTO 00000KT 10SM CLR 24/22 A3007 RMK AO2 56004 
    T02380222 SLP173=
METAR KMRH 080856Z AUTO 05005KT 5SM HZ CLR 27/23 A2990 RMK AO2 
    SLP126 T02670233 55004 TSNO=
METAR KMWO 080855Z AUTO 00000KT 3SM BR CLR 20/20 A3008 RMK AO2=
METAR KNQX 080853Z AUTO 05004KT 10SM TS CLR 28/25 A2992 RMK AO2 TSB42
      SLP129 T02830250 56004 $=
METAR KNRB 080852Z AUTO 27003KT 10SM CLR 23/20 A2999 RMK AO2 SLP153
      T02280200 58011=
METAR KOFK 080856Z AUTO 29004KT 10SM CLR 16/15 A3017 RMK AO2 SLP208 
    T01560150 56006=
METAR KOZR 080855Z AUTO 00000KT 9SM R06/5500VP6000FT CLR 22/22 A3002
      RMK AO2 SLP162 T02190219 55006=
METAR KRDM 080856Z AUTO 18003KT 10SM CLR 12/03 A3006 RMK AO2 SLP153 
    T01220033 53010 $=
METAR KSBP 080856Z AUTO 29004KT 10SM OVC009 13/11 A2991 RMK AO2 
    SLP127 T01330111 56006 $=
METAR KSFO 080856Z 27012KT 10SM BKN008 OVC016 14/11 A2993 RMK AO2 
    SLP135 T01390106 50002=
####018000585####
SAAK41 KNKA 080857
METAR PASX 080856Z 00000KT 10SM OVC070 13/09 A2997 RMK AO1 57003 PNO=
METAR PAUN 080856Z AUTO 10004KT 10SM CLR 13/06 A3002 RMK AO1 54000 
    PNO=
METAR PAVD 080856Z 00000KT 10SM OVC090 11/08 A3009 RMK AO1 
      57010 PNO=
METAR PAWG 080856Z AUTO 00000KT 10SM CLR 14/11 A3013 RMK AO1 54000 
    PNO=
METAR PAWN 080856Z AUTO 00000KT 10SM CLR 13/03 A3015 RMK AO1 52010 
    PNO=
METAR PAWS 080856Z AUTO 00000KT 10SM OVC100 13/09 A3000 RMK AO1 
    57007 PNO=
METAR PAZK 080856Z AUTO 03007KT 10SM BKN110 10/03 A3009 RMK AO1 
    57003 PNO=
####018000139####
SAUS44 KFWD 080857
MTRHLR
METAR KHLR 080856Z AUTO 09004KT 10SM FEW027 26/ A2998 RMK AO2 
RAB29E38 SLP143 P0000 60000 T0256 56006 $
####018000160####
SAUS44 KCRP 080857
MTRNGP
METAR KNGP 080856Z AUTO 11011KT 10SM FEW018 BKN050 28/26 A2980 RMK 
AO2 TSB18E34RAB37E49 SLP092 P0001 60001 T02830261 56016 $
####018000132####
SAUS44 KFWD 080857
MTRNQI
METAR KNQI 080856Z AUTO 01006KT 9SM FEW110 27/25 A2982 RMK AO2 
TSB16E38 SLP094 T02720250 56014 $
####018000113####
SACN94 KWBC 080858
METAR CWND 080800Z AUTO 32017KT 04/03 RMK AO1 PK WND 30024/0725
SLP147 T00440031 51020=
####018000120####
SACN89 KWBC 080858
METAR CWCI 080800Z AUTO 05006KT 16/16 RMK AO1 6PAST HRR+12/ 6018
SLP142 P0034 T01570155 50118=
####018003703####
SAUS99 KWBC 080858 RRA
METAR
PAAK 080856Z AUTO 08021G26KT 10SM SCT018 SCT036 BKN110 07/04 A2962
     RMK AO1 57010 PNO=
PABL 080856Z AUTO 34005KT 10SM CLR 11/07 A3016 RMK AO1 52010
     PNO=
PABV 080856Z AUTO 15005KT 10SM FEW085 12/08 RMK AO1 PNO=
PADK 080856Z 05010KT 7SM FEW016 BKN022 OVC029 07/06 A2959 RMK AO1
     54000 PNO=
PADL 080856Z 32008KT 10SM SCT070 11/08 A2998 RMK AO1 52003 PNO
     TSNO=
PAEM 080856Z AUTO 35003KT 9SM BKN120 12/08 A3005 RMK AO1 52003
     PNO=
PAFE 080856Z AUTO 00000KT 10SM CLR 12/09 A3018 RMK AO1 57003
     PNO=
PAFM 080856Z AUTO 36003KT 10SM CLR 16/09 A3011 RMK AO1 52003
     PNO=
PAGL 080856Z AUTO 10SM CLR 14/09 A3015 RMK AO1 52010 PNO=
PAGS 080856Z AUTO 00000KT 10SM CLR 11/09 A3020 RMK AO1 54000
     PNO=
PAHP 080856Z AUTO 03008KT 10SM BKN065 OVC075 12/08 A3007 RMK AO1
     52007 PNO TSNO=
PAHY 080856Z AUTO 36004KT 10SM CLR 17/11 A3011 RMK AO1 54000
     PNO=
PAII 080856Z AUTO 01006KT 10SM OVC055 11/08 A2997 RMK AO1 52007
     PNO=
PAIN 080856Z AUTO 00000KT 10SM CLR 10/06 A3008 RMK AO1 54000
     PNO=
PAJC 080856Z AUTO 00000KT 10SM BKN017 OVC023 09/04 A2995 RMK AO1
     52007 PNO=
PAKK 080856Z AUTO 01011G16KT 10SM CLR 14/08 A3005 RMK AO1 52003
     PNO=
PAKP 080856Z AUTO 35003KT 10SM BKN037 11/04 A3011 RMK AO1
     52010=
PAMD 080856Z AUTO 10022G25KT 9SM SCT016 BKN024 OVC029 09/08 A3002
     RMK AO1 54000 PNO=
PAMH 080856Z 00000KT 10SM CLR 16/06 A3000 RMK AO1 54000 PNO=
PAMM 080856Z AUTO 36007KT 10SM CLR 19/11 A3008 RMK AO1 54000
     PNO=
PAMY 080856Z 29007KT 2 1/2SM SCT002 BKN048 OVC060 05/04 A3006 RMK
     AO1 54000=
PANI 080856Z AUTO 00000KT 10SM OVC100 11/09 A3001 RMK AO1 52003
     PNO=
PANV 080856Z AUTO 28005KT 10SM FEW075 OVC085 14/08 A3000 RMK AO1
     52003 PNO=
PAOU 080856Z AUTO 04011KT 10SM BKN055 07/07 A2997 RMK AO2 PWINO
     TSNO 50002 T00720066 401160072 SLP152 $=
PAPG 080856Z 03005KT 10SM CLR 13/10 A3014 RMK AO1 57003 PNO=
PAPH 080856Z AUTO 06005KT 9SM CLR 05/03 A2997 RMK AO1 54000
     PNO=
PAPN 080856Z AUTO 02004KT 10SM BKN070 07/07 A2993 RMK AO2 PWINO
     TSNO 53005 T00720066 401380055 SLP140 $=
PARC 080856Z AUTO 00000KT 10SM BKN060 11/02 A3004 RMK AO1 52014
     PNO=
PASA 080856Z AUTO 05004KT 10SM CLR 06/04 A3020 RMK AO1 52003
     PNO=
PASD 080856Z AUTO 00000KT 10SM SCT048 08/05 A2996 RMK AO1 54000
     PNO=
PASH 080856Z AUTO 04018G21KT 10SM CLR 04/03 A3019 RMK AO1 52003
     PNO=
PASK 080856Z 28006KT 10SM CLR 14/07 A3011 RMK AO1 52003 PNO=
PASL 080856Z AUTO 00000KT 10SM BKN100 12/08 A3001 RMK AO1 52007
     PNO=
PASM 080856Z AUTO 03004KT 10SM BKN065 BKN075 OVC100 09/08 A3007
     RMK AO1 52003 PNO=
PASX 080856Z 00000KT 10SM OVC070 13/09 A2997 RMK AO1 57003 PNO=
PAUN 080856Z AUTO 10004KT 10SM CLR 13/06 A3002 RMK AO1 54000
     PNO=
PAVD 080856Z 00000KT 10SM OVC090 11/08 A3009 RMK AO1 57010 PNO=
PAWG 080856Z AUTO 00000KT 10SM CLR 14/11 A3013 RMK AO1 54000
     PNO=
PAWN 080856Z AUTO 00000KT 10SM CLR 13/03 A3015 RMK AO1 52010
     PNO=
PAWS 080856Z AUTO 00000KT 10SM OVC100 13/09 A3000 RMK AO1 57007
     PNO=
PAZK 080856Z AUTO 03007KT 10SM BKN110 10/03 A3009 RMK AO1 57003
     PNO=
KGUS 080855Z AUTO 17003KT 10SM CLR 23/20 A3004 RMK AO2 SLP165
     T02260204 56007=
KHFF 080855Z AUTO 00000KT 10SM CLR 22/18 A2996 RMK AO2 SLP142
     T02180179 58006 $=
KHND 080856Z AUTO 20008KT 10SM CLR 27/M03 A2988 RMK AO2 53005
     T02661027 SLP059=
KHPN 080856Z 00000KT 2 1/2SM BR FEW110 23/21 A3003 RMK AO2 SLP160
     T02330211 57000=
KHWV 080856Z AUTO 00000KT 5SM BR SCT004 BKN033 24/23 A3004 RMK AO2
     SLP169 T02390233 51002=
####018003658####
SAUS99 KWBC 080858
METAR
KSDF 080856Z 12004KT 7SM CLR 27/21 A3005 RMK AO2 SLP168 T02670206
     57005=
K1A6 080855Z AUTO 00000KT 3SM BR CLR 21/21 A3010 RMK AO2=
K1M4 080856Z AUTO 00000KT 10SM CLR 22/22 A3010 RMK AO2 55004
     T02220216 SLP187=
K21D 080858Z AUTO 31005KT 10SM CLR 18/16 A3006 RMK AO2=
KAIG 080855Z AUTO 32003KT 10SM SCT005 18/18 A2999 RMK AO2=
KAND 080856Z AUTO 00000KT 10SM CLR 22/19 A3001 RMK AO2 SLP152
     T02170194 56006=
KART 080856Z AUTO 00000KT 7SM CLR 23/20 A3002 RMK AO2 SLP158
     T02280200 56003=
KARV 080852Z AUTO 00000KT 10SM SCT010 BKN018 OVC036 20/19 A3002
     RMK AO2 T01950185=
KATW 080855Z AUTO 24005KT 7SM BKN009 22/21 A2998 RMK AO2=
KBED 080856Z AUTO 00000KT 5SM BR BKN017 OVC039 24/22 A3004 RMK AO2
     SLP183 T02390217 53002=
KBJI 080854Z AUTO 24007KT 10SM CLR 15/13 A3004 RMK AO2=
KBJJ 080856Z AUTO 00000KT 4SM BR CLR 18/17 A3009 RMK AO2 SLP182
     T01780172 56003=
KBWP 080851Z AUTO 26003KT 10SM CLR 15/13 A3008 RMK AO1
     T01470133=
KBZN 080856Z AUTO 18004KT 10SM CLR 10/04 A3026 RMK AO2 SLP225
     T01000039 51003=
KCEC 080856Z AUTO 00000KT 2 1/2SM BR OVC003 10/09 A2997 RMK AO2
     SLP150 T01000094 58001=
KCEF 080855Z AUTO 16005KT 10SM SCT100 24/22 A3003 RMK AO2 SLP170
     T02360217 53001 PWINO $=
KCTB 080856Z AUTO 33004KT 10SM CLR 10/06 A3024 RMK AO2 SLP222
     T01000056 51004=
KCXY 080856Z AUTO 00000KT 5SM HZ CLR 23/20 A3002 RMK AO2 SLP161
     T02330200 53001=
KD39 080854Z AUTO 00000KT 10SM CLR 16/15 A3010 RMK AO2
     T01600150=
KDAY 080856Z 00000KT 8SM CLR 23/18 A3009 RMK AO2 SLP178 T02280183
     55005 $=
KDIK 080856Z AUTO 27004KT 10SM CLR 10/08 A3015 RMK AO2 SLP202
     T01000083 58001=
KDLL 080855Z AUTO 26004KT 10SM OVC004 21/20 A3000 RMK AO2=
KDUG 080856Z AUTO 08021G27KT 10SM CLR 26/12 A3000 RMK AO2 PK WND
     08027/0855 SLP071 60000 T02610117 53001 $=
KDUJ 080856Z AUTO 10003KT 6SM HZ CLR 20/17 A3011 RMK AO2 SLP180
     T02000172 55003=
KDVK 080857Z AUTO 00000KT 5SM 21/19 A3008 RMK AO1=
KEAU 080856Z AUTO 28003KT 10SM CLR 19/18 A3001 RMK AO2 SLP155
     T01890183 55000=
KEED 080856Z AUTO 26006KT 10SM CLR 30/M03 A2974 RMK AO2 SLP032
     T03001033 53007 TSNO=
KEFD 080850Z 10009KT 9SM FEW025 BKN130 28/24 A2993=
KEKO 080856Z AUTO 28003KT 10SM CLR 17/M05 A3011 RMK AO2 SLP138
     T01671050 53009=
KELZ 080856Z AUTO 00000KT 3SM BR CLR 18/18 A3016 RMK AO2 SLP196
     T01830183 56003=
KFBG 080855Z AUTO 00000KT 10SM CLR 26/18 A2993 RMK AO2 SLP133
     T02570183 56005 $=
KGON 080856Z AUTO 00000KT 10SM OVC011 23/21 A3004 RMK AO2 SLP173
     T02330211 53003=
KGRD 080856Z AUTO 00000KT 10SM CLR 22/19 A3002 RMK AO2 SLP157
     T02170194 55005=
KSGH 080856Z AUTO 00000KT 4SM BR CLR 21/21 A3010 RMK AO2 56005
     T02050205 SLP181=
KSLE 080856Z AUTO 00000KT 10SM CLR 18/11 A2986 RMK AO2 SLP109
     T01830111 52012=
KSME 080855Z AUTO 00000KT 4SM BR 21/20 A3008 RMK AO2=
KSRC 080856Z AUTO 00000KT 10SM CLR 23/22 A3006 RMK AO2 TSNO 51005
     T02270216 SLP181=
KTPH 080856Z AUTO 01009KT 10SM CLR 17/M08 A3009 RMK AO2 SLP110
     T01671083 51006=
KTZR 080856Z AUTO 00000KT 5SM BR CLR 21/19 A3008 RMK AO2=
KUKI 080856Z AUTO 11003KT 10SM CLR 14/11 A2991 RMK AO2 SLP119
     T01390106 50003=
KY51 080855Z AUTO 28004KT 7SM CLR 20/20 A3003 RMK AO1
     T02000197=
PAAK 080856Z AUTO 08021G26KT 10SM SCT018 SCT036 BKN110 07/04 A2962
     RMK AO1 57010 PNO=
PAHP 080856Z AUTO 03008KT 10SM BKN065 OVC075 12/08 A3007 RMK AO1
     52007 PNO TSNO=
TJSJ 080856Z 00000KT 10SM FEW022 SCT035 27/24 A2998 RMK AO2 SLP150
     T02720244 55000=
####018002348####
SAUS99 KWBC 080858 RRB
METAR
KHYA 080856Z AUTO 15003KT 6SM BR OVC001 21/21 A3007 RMK AO2 SLP184
     T02110211 51002=
KIGX 080856Z AUTO 29004KT 7SM CLR 24/18 A2997 RMK AO2 SLP141
     T02390183 58006 $=
KINW 080856Z AUTO 28004KT 10SM FEW120 23/01 A3008 RMK AO2 SLP097
     T02330006 53001=
KISP 080856Z 14005KT 4SM BR SCT005 BKN060 BKN100 OVC130 24/22
     A3002 RMK AO2 RAB06E16 SLP162 P0000 60000 T02440222 53001=
KITH 080856Z AUTO 00000KT 4SM BR CLR 19/18 A3010 RMK AO2 50000
     T01940183 SLP182=
KIWA 080856Z AUTO 05005KT 10SM CLR 31/04 A2979 RMK AO2=
KJMS 080856Z AUTO 23003KT 10SM CLR 13/13 A3009 RMK AO2 SLP187
     T01330133 53001=
KJXN 080856Z 00000KT 7SM CLR 21/21 A3004 RMK AO2 SLP166 T02110206
     56007=
KLAS 080856Z 22010KT 10SM CLR 29/M05 A2980 RMK AO2 SLP060
     T02891050 52005=
KLCK 080855Z AUTO 00000KT 5SM BR CLR 23/21 A3006 RMK AO2
     T02260210=
KLNR 080856Z AUTO 28003KT 10SM CLR 21/19 A3001 RMK AO2 SLP151
     60001 T02060189 56010=
KLRF 080855Z AUTO 00000KT 10SM BKN200 BKN230 23/22 A3005 RMK AO2
     SLP174 T02290220 50005=
KM19 080856Z AUTO 20005KT 10SM CLR 24/23 A3005 RMK AO2 50001
     T02440233 SLP174=
KMDT 080856Z 00000KT 6SM HZ CLR 26/21 A3000 RMK AO2 SLP157
     T02560206 53001=
KMMT 080855Z AUTO 34003KT 10SM CLR 23/19 A2998 RMK AO2 SLP150
     T02250188 57009=
KMOB 080856Z 00000KT 8SM CLR 24/23 A3003 RMK AO2 SLP164 T02390228
     55009=
KMQY 080856Z AUTO 00000KT 10SM CLR 24/22 A3007 RMK AO2 56004
     T02380222 SLP173=
KMRH 080856Z AUTO 05005KT 5SM HZ CLR 27/23 A2990 RMK AO2 SLP126
     T02670233 55004 TSNO=
KMWO 080855Z AUTO 00000KT 3SM BR CLR 20/20 A3008 RMK AO2=
KNQX 080853Z AUTO 05004KT 10SM TS CLR 28/25 A2992 RMK AO2 TSB42
     SLP129 T02830250 56004 $=
KNRB 080852Z AUTO 27003KT 10SM CLR 23/20 A2999 RMK AO2 SLP153
     T02280200 58011=
KOFK 080856Z AUTO 29004KT 10SM CLR 16/15 A3017 RMK AO2 SLP208
     T01560150 56006=
KOZR 080855Z AUTO 00000KT 9SM R06/5500VP6000FT CLR 22/22 A3002 RMK
     AO2 SLP162 T02190219 55006=
KRDM 080856Z AUTO 18003KT 10SM CLR 12/03 A3006 RMK AO2 SLP153
     T01220033 53010 $=
KSBP 080856Z AUTO 29004KT 10SM OVC009 13/11 A2991 RMK AO2 SLP127
     T01330111 56006 $=
KSFO 080856Z 27012KT 10SM BKN008 OVC016 14/11 A2993 RMK AO2 SLP135
     T01390106 50002=
####018000268####
SAZA42 FAJS 080900
METAR FAVV 080900Z AUTO 05010KT //// // ////// 14/06 Q1033=
METAR FAJB 080900Z AUTO 07004KT //// // ////// 14/06 Q1035=
METAR FASI 080900Z AUTO 08007KT //// // ////// 14/04 Q1035=
METAR FAGC 080900Z AUTO 07008KT //// // ////// 13/05 Q1035=
####018000081####
SABZ20 SBBV 080900
METAR SBBV 080900Z 27002KT 9999 SCT025 SCT090 25/23 Q1012=
####018000232####
SAEO32 EGGY 080850
METAR EEKA 080850Z 32007KT 270V340 CAVOK 20/14 Q1016=
METAR EEKE 080850Z NIL=
METAR EEPU 080850Z 33006KT 290V030 CAVOK 22/18 Q1014=
METAR EETU 080850Z 34004KT 210V030 9999 SCT016TCU SCT025 25/20
    Q1013=
####018000072####
SAAL41 DAMM 080800 RRD
METAR DAUG 080800Z 00000KT CAVOK 32/17 Q1018=
####018003724####
SAUS70 KWBC 080900 RRA
METAR
KTAD 080854Z AUTO 33003KT 10SM OVC075 14/13 A3035 RMK AO2 SLP207
     T01440128 51008=
KTPL 080855Z 07004KT 10SM BKN021 OVC026 24/23 A2999 RMK AO1
     54000=
KVAY 080854Z AUTO 00000KT 1/4SM FG VV006 23/23 A3001 RMK AO2
     SLP161 T02330233 54000=
KVIS 080855Z AUTO 31003KT 10SM CLR 22/12 A2980 RMK AO1 52003=
KVLD 080853Z AUTO 00000KT 7SM CLR 19/18 A3001 RMK AO2 SLP168
     T01940183 56008=
KVSF 080854Z AUTO 00000KT 4SM BR CLR 21/20 A3006 RMK AO2 SLP176
     T02110200 53002 $=
KVTA 080854Z AUTO 00000KT 3SM BR SCT065 19/18 A3007 RMK AO2 SLP175
     T01940183 57004=
KWVL 080855Z AUTO 19003KT 7SM OVC005 21/19 A3004 RMK AO1 52003=
KWWD 080855Z AUTO 10SM BKN120 24/23 A3001 RMK AO1 54000=
KAFJ 080855Z AUTO 00000KT M1/4SM BKN003 17/16 A3010 RMK AO1=
KAKR 080854Z AUTO 00000KT 5SM BR CLR 20/18 A3008 RMK AO2 SLP177
     T02000183 56003=
KBFL 080854Z AUTO 36006KT 10SM CLR 24/11 A2982 RMK AO2 SLP092
     T02390106 51006=
KBHB 080855Z AUTO 19006KT 3/4SM OVC002 18/17 A3010 RMK AO1
     54000=
KBID 080855Z AUTO 14007KT 1/2SM OVC002 21/21 A3005 RMK AO1
     52003=
KBLM 080855Z AUTO 08004KT 4SM SCT075 OVC100 24/21 A3004 RMK AO1
     54000=
KBOS 080854Z 15005KT 10SM BKN019 23/19 A3006 RMK AO2 SLP179
     T02280194 53001=
KBTP 080855Z AUTO 00000KT 2SM CLR 18/18 A3009 RMK AO1=
KBUY 080854Z AUTO 00000KT 8SM CLR 23/20 A2998 RMK AO2 SLP141
     T02280200 56007 $=
KCGZ 080855Z AUTO 30005KT 10SM CLR 32/01 A2978 RMK AO1 57003=
KCOD 080855Z 18005KT 10SM CLR 12/02 A3033 RMK AO1 52003=
KDDH 080854Z AUTO 00000KT 2 1/2SM BR CLR 19/18 A3005 RMK AO2
     SLP169 T01940183 53001=
KDHN 080853Z AUTO 00000KT 10SM CLR 23/22 A3006 RMK AO2 SLP171
     T02280217 56008=
KDSV 080854Z AUTO 15006KT 6SM BR CLR 21/19 A3008 RMK AO2 SLP189
     T02110194 56003=
KDTO 080853Z AUTO 16005KT 10SM OVC024 26/23 A3000 RMK AO2 SLP149
     T02560233 53000=
KDYL 080854Z AUTO 00000KT 6SM BR CLR 22/21 A3002 RMK AO2 SLP158
     T02170206 53001 TSNO=
KEEN 080855Z AUTO 00000KT 3SM CLR 22/22 A3005 RMK AO1 54000=
KEGE 080855Z 07007KT 10SM CLR 10/09 A3039 RMK AO1 52007=
KEVV 080854Z AUTO 00000KT 10SM SCT080 25/22 A3005 RMK AO2 SLP170
     T02500217 56005=
KFIG 080854Z AUTO 00000KT 5SM BR CLR 18/17 A3011 RMK AO2 SLP184
     T01830172 55001=
KFKL 080855Z 00000KT 3SM CLR 19/17 A3013 RMK AO1=
KFNL 080855Z AUTO 08004KT 4SM FEW003 14/13 A3031 RMK AO1 57003=
KGCN 080854Z AUTO 00000KT 10SM CLR 09/M03 A3023 RMK AO2 SLP136
     T00891033 53002=
KGDV 080855Z AUTO 21006KT 10SM CLR 11/07 A3016 RMK AO1 57003=
KGED 080854Z AUTO 00000KT 4SM BR BKN100 24/23 A3000 RMK AO2 SLP157
     T02440233 53001=
KGNV 080853Z AUTO 00000KT 1/2SM FG VV001 19/18 A3000 RMK AO2
     SLP155 T01940183 58011=
KGTU 080855Z 08003KT 10SM BKN012 OVC017 25/22 A3001 RMK AO1
     57007=
KGUC 080855Z AUTO 35006KT 10SM FEW120 09/03 A3044 RMK AO1
     52010=
KGXY 080855Z AUTO 00000KT 10SM BKN007 OVC080 15/12 A3032 RMK AO1
     54000=
KBAF 080853Z 17003KT 9SM SCT075 OVC110 24/21 A3003 RMK AO2 SLP165
     T02390211 53001=
KBUR 080853Z 17003KT 8SM OVC009 16/13 A2991 RMK AO2 SLP117
     T01560128 58002=
PHJR 080853Z 06003KT 10SM FEW055 23/18 A3006 RMK AO2 SLP184
     T02330183 53009=
TIST 080853Z AUTO 08005KT 10SM CLR 28/24 A2997 RMK AO2 SLP148
     T02780244 56001 TSNO=
TISX 080853Z 08008KT 10SM CLR 27/24 A2996 RMK AO2 SLP145 T02720239
     58005=
KEFD 080850Z 10009KT 9SM FEW025 BKN130 28/24 A2993=
KBRO 080853Z 33005KT 10SM FEW016 SCT022 27/26 A2977 RMK AO2
     RAB08E46 SLP080 P0001 60001 T02670256 56012=
KFLL 080853Z 07006KT 10SM FEW020 28/24 A2991 RMK AO2 SLP129
     T02780239 56010=
####018003673####
SAXX60 KWBC 080900
METAR
KFZY 080854Z AUTO 00000KT 1 3/4SM BR CLR 20/19 A3004 RMK AO2
     SLP168 T02000194 56001=
KRSP 080854Z AUTO 06005KT 8SM FEW080 26/15 A3009 RMK AO2 SLP175
     T02560150 56004 $=
KBAD 080855Z AUTO 00000KT 10SM BKN160 24/23 A3002 RMK AO2 SLP164
     T02420235 53002 $=
KDAA 080855Z AUTO 00000KT 9SM R32/5500FT CLR 23/21 A2999 RMK AO2
     SLP155 T02330207 53001=
KEDW 080855Z AUTO 19008KT 10SM CLR 21/06 A2986 RMK AO2 SLP058
     T02090061 50001=
KGUS 080855Z AUTO 17003KT 10SM CLR 23/20 A3004 RMK AO2 SLP165
     T02260204 56007=
KIAB 080855Z AUTO 07004KT 10SM CLR 22/20 A3008 RMK AO2 SLP173
     T02210202 58005=
KMMT 080855Z AUTO 34003KT 10SM CLR 23/19 A2998 RMK AO2 SLP150
     T02250188 57009=
KOFF 080855Z AUTO 35005KT 10SM CLR 20/20 A3011 RMK AO2 SLP184
     T02030197 53003 $=
KRIV 080855Z AUTO 28003KT 7SM CLR 12/11 A2992 RMK AO2 SLP128
     T01210107 58001=
KSUU 080855Z AUTO 24022KT 10SM CLR 13/10 A2982 RMK AO2 PK WND
     24030/0824 SLP100 T01260099 51004 RVRNO $=
PAEI 080855Z AUTO 00000KT 10SM CLR 12/06 A3004 RMK AO2 SLP174
     T01160065 402240097 52004 $=
KBAD 080855Z AUTO 00000KT 10SM BKN160 24/23 A3002 RMK AO2 SLP164
     T02420235 53002 $=
KBLV 080855Z AUTO 00000KT 10SM FEW060 24/24 A3002 RMK AO2 SLP163
     T02430242 56006=
KCBM 080855Z AUTO 29005KT 10SM CLR 24/23 A3004 RMK AO2 SLP173
     T02400232 55000 $=
KCEF 080855Z AUTO 16005KT 10SM SCT100 24/22 A3003 RMK AO2 SLP170
     T02360217 53001 PWINO $=
KDAA 080855Z AUTO 00000KT 9SM R32/5500FT CLR 23/21 A2999 RMK AO2
     SLP155 T02330207 53001=
KEDW 080855Z AUTO 19008KT 10SM CLR 21/06 A2986 RMK AO2 SLP058
     T02090061 50001=
KFHU 080855Z 14004KT 10SM FEW120 24/09 A3006 RMK SLP100 53003=
KGRF 080855Z AUTO 00000KT 10SM CLR 16/11 A2994 RMK AO2 SLP137
     60000 T01630111 52007 $=
KGUS 080855Z AUTO 17003KT 10SM CLR 23/20 A3004 RMK AO2 SLP165
     T02260204 56007=
KHMN 080855Z 34008KT 10SM BKN110 OVC140 21/14 A3013 RMK AO2A
     SLP122 T02070138 58005 $=
KIAB 080855Z AUTO 07004KT 10SM CLR 22/20 A3008 RMK AO2 SLP173
     T02210202 58005=
KLRF 080855Z AUTO 00000KT 10SM BKN200 BKN230 23/22 A3005 RMK AO2
     SLP174 T02290220 50005=
KMGE 080855Z AUTO 00000KT 10SM CLR 23/19 A3004 RMK AO2 SLP162
     T02280190 56009 $=
KMMT 080855Z AUTO 34003KT 10SM CLR 23/19 A2998 RMK AO2 SLP150
     T02250188 57009=
KNFW 080852Z AUTO 13006KT 10SM CLR 26/22 A3003 RMK AO2 SLP152
     T02610222 55003=
KBAD 080855Z AUTO 00000KT 10SM BKN160 24/23 A3002 RMK AO2 SLP164
     T02420235 53002 $=
KNHK 080852Z AUTO 11004KT 4SM BR FEW011 26/24 A2998 RMK AO2 SLP151
     T02610239 53001=
KNIP 080853Z 25004KT 10SM CLR 23/21 A3000 RMK AO2 SLP153 T02280211
     58010=
KNQX 080853Z AUTO 05004KT 10SM TS CLR 28/25 A2992 RMK AO2 TSB42
     SLP129 T02830250 56004 $=
KNRB 080852Z AUTO 27003KT 10SM CLR 23/20 A2999 RMK AO2 SLP153
     T02280200 58011=
KOFF 080855Z AUTO 35005KT 10SM CLR 20/20 A3011 RMK AO2 SLP184
     T02030197 53003 $=
KPOB 080855Z AUTO 00000KT 10SM CLR 24/20 A2994 RMK AO2 SLP137
     T02370196 55004 $=
KCBM 080855Z AUTO 29005KT 10SM CLR 24/23 A3004 RMK AO2 SLP173
     T02400232 55000 $=
KDYS 080855Z AUTO 35003KT 10SM CLR 21/21 A3003 RMK AO2 SLP147
     T02120208 55002 $=
KEND 080855Z AUTO 34004KT 10SM FEW120 22/21 A3006 RMK AO2 SLP168
     T02220213 58001 $=
KFBG 080855Z AUTO 00000KT 10SM CLR 26/18 A2993 RMK AO2 SLP133
     T02570183 56005 $=
KHIF 080855Z AUTO 00000KT 10SM CLR 20/05 A3011 RMK AO2 SLP092
     T01960053 51008 $=
KMTC 080855Z 00000KT 10SM FEW140 SCT240 22/22 A3001 RMK SLP166
     58005=
####018003747####
SAUS80 KWBC 080900
METAR
KCAR 080854Z AUTO 18005KT 7SM FEW043 21/19 A3000 RMK AO2 SLP157
     T02110194 53002=
KGSO 080854Z 33004KT 8SM FEW090 26/18 A3001 RMK AO2 SLP148
     T02610178 55005=
KNAK 080854Z AUTO 06004KT 4SM HZ CLR 26/23 A2998 RMK AO2 SLP154
     6//// T02610228 TSNO $=
PHOG 080854Z 04010KT 10SM FEW055 24/17 A3004 RMK AO2 SLP178
     T02390172 51009=
KLEX 080854Z AUTO 00000KT 5SM HZ CLR 22/18 A3008 RMK AO2 SLP174
     T02170183 56006 TSNO=
KORH 080854Z AUTO 16005KT 3SM BR BKN002 OVC080 22/21 A3009 RMK AO2
     SLP180 T02170211 53000=
KROC 080854Z 21005KT 8SM FEW070 BKN100 23/20 A3004 RMK AO2 SLP170
     T02280200 56005=
KSYR 080854Z 15003KT 7SM FEW048 SCT090 SCT200 22/20 A3004 RMK AO2
     SLP167 T02220200 51001=
KAAF 080853Z AUTO 00000KT 9SM CLR 23/22 A2999 RMK AO2 SLP157
     T02330222 56008=
KBUF 080854Z 18004KT 8SM FEW090 22/19 A3005 RMK AO2 SLP171
     T02220194 55004=
KCOS 080854Z 23004KT 9SM FEW029 OVC085 13/12 A3039 RMK AO2 SLP223
     T01330122 50009=
KCRW 080854Z 00000KT 4SM BR CLR 21/20 A3007 RMK AO2 SLP172
     T02110200 56004=
KDMH 080854Z AUTO 28/23 A3000 RMK AO2 SLP157 T02780228 53001 PWINO
     TSNO=
KCOU 080854Z AUTO 31003KT 8SM -RA BKN003 BKN070 23/22 A3004 RMK
     AO2 SLP163 P0002 60004 T02280222 58003 TSNO=
KFWA 080854Z 24004KT 10SM CLR 23/21 A3006 RMK AO2 SLP170 T02330206
     56004=
KAVP 080854Z AUTO 11003KT 7SM CLR 21/18 A3006 RMK AO2 SLP165
     T02060178 55001 TSNO $=
KACY 080854Z 00000KT 4SM BR CLR 23/22 A3002 RMK AO2 SLP164
     T02330217 53001=
KLAX 080853Z 24007KT 10SM OVC012 16/13 A2991 RMK AO2 SLP127
     T01610128 57002=
K4BM 080854Z AUTO 00000KT 10SM 05/03 A3064 RMK AO2=
KBTV 080854Z 00000KT 5SM BR CLR 23/22 A3001 RMK AO2 SLP159
     T02280217 55000=
KCHA 080853Z 00000KT 10SM CLR 23/19 A3005 RMK AO2 SLP166 T02280189
     56005=
KCNK 080855Z AUTO 01005KT 10SM SCT014 OVC030 20/19 A3014 RMK AO2
     SLP193 T02000189 51004=
KDLH 080855Z 30006KT 10SM CLR 16/14 A3004 RMK AO2 SLP171 T01560139
     58001=
KGPI 080855Z AUTO 29005KT 10SM CLR 10/07 A3016 RMK AO2 SLP205
     T01000072 51006=
KIRK 080855Z AUTO 34003KT 4SM BR SCT095 19/19 A3006 RMK AO2 SLP173
     T01940189 56004=
KLIC 080855Z AUTO 15003KT 9SM OVC005 14/14 A3035 RMK AO2 RAE05 CIG
     004V009 SLP219 P0000 60000 T01390139 58001=
KRQE 080853Z AUTO 13009KT 10SM BKN120 18/06 A3024 RMK AO2 SLP100
     T01830061 50002 TSNO=
KDRA 080855Z AUTO 31003KT 10SM CLR 22/M12 A2992 RMK AO2 SLP078
     T02171117 53006 TSNO=
KRFD 080854Z 17007KT 8SM FEW009 OVC080 22/21 A3001 RMK AO2 RAE39
     SLP158 P0000 60002 T02220211 58014=
KELY 080853Z AUTO 18006KT 10SM CLR 10/M04 A3020 RMK AO2 SLP130
     T01001039 51008 $=
KGNT 080853Z AUTO 14018G22KT 18/08 A3029 RMK AO2 SLP158 T01780078
     53002 PWINO TSNO=
KCAO 080855Z AUTO 04012KT 10SM -RA SCT070 OVC095 16/13 A3029 RMK
     AO2 SLP196 P0001 60009 T01560133 55005 TSNO=
KLND 080853Z AUTO 27004KT 10SM CLR 11/03 A3032 RMK AO2 SLP222
     T01060028 53006=
KLXV 080853Z AUTO 00000KT 10SM OVC029 07/06 A3054 RMK AO2 SLP200
     T00720056 53002 TSNO=
KMKG 080855Z 23003KT 5SM BR SCT060 BKN120 23/22 A3004 RMK AO2
     RAB0759E29 CIG 060 RWY 14 SLP166 P0002 60014 T02280217 56003
     $=
KMSN 080853Z 00000KT 10SM FEW007 OVC110 22/21 A2999 RMK AO2 SLP149
     60000 T02170206 55012=
KRNO 080855Z 03003KT 10SM SCT150 22/04 A3004 RMK AO2 SLP112
     T02220039 50005=
KSAV 080853Z 26003KT 10SM FEW024 21/19 A2999 RMK AO2 SLP153
     T02110194 56009=
KSBN 080854Z 32008KT 7SM FEW060 23/21 A3005 RMK AO2 SLP169
     T02280211 55001=
KSCK 080855Z AUTO 32003KT 10SM CLR 16/12 A2984 RMK AO2 SLP104
     T01560117 51006=
####018003714####
SAUS70 KWBC 080900
METAR
PHMK 080854Z AUTO 05007G17KT 10SM FEW025 SCT039 23/19 A3006 RMK
     AO2 SLP180 T02280189 52009 TSNO=
KHBR 080853Z AUTO 03004KT 10SM FEW033 SCT060 SCT070 23/22 A3007
     RMK AO2 SLP164 T02330222 51004=
KHDN 080855Z 11010KT 10SM CLR 11/06 A3032 RMK AO1 52003=
KHYI 080855Z AUTO 05006KT 10SM FEW011 OVC021 25/24 A2995 RMK AO1
     57003=
KILE 080855Z 10006KT 10SM FEW012 BKN030 OVC065 24/22 A2997 RMK AO1
     57007=
KILN 080854Z AUTO 00000KT 4SM BR CLR 21/19 A3008 RMK AO2 SLP173
     T02110194 56004=
KIND 080854Z 18003KT 9SM BKN085 OVC110 26/20 A3003 RMK AO2 SLP160
     T02560200 55008=
KIPT 080854Z AUTO 00000KT 8SM CLR 20/17 A3005 RMK AO2 SLP171
     T02000167 53003=
KIZG 080854Z AUTO 00000KT 6SM BR BKN095 21/19 A3007 RMK AO2 SLP180
     T02060194 53002=
KJAC 080855Z AUTO 36006KT 10SM CLR 09/M01 A3033 RMK AO1 52010=
KJHW 080855Z AUTO 00000KT 4SM CLR 20/19 A3011 RMK AO1=
KJST 080854Z AUTO 00000KT 7SM CLR 22/16 A3014 RMK AO2 SLP185
     T02170156 56004=
KLBT 080854Z AUTO 28004KT 10SM CLR 26/18 A2992 RMK AO2 SLP130
     T02560183 56008=
KLCI 080855Z AUTO 00000KT 10SM BKN095 OVC110 23/20 A3005 RMK AO1
     54000=
KLEW 080855Z 15004KT 5SM OVC004 21/19 A3009 RMK AO1 54000=
KLPC 080855Z AUTO 01003KT 10SM OVC012 14/11 A2992 RMK AO1 57003
     PNO=
KLWM 080854Z AUTO 20003KT 5SM HZ OVC008 24/21 A3007 RMK AO2 SLP183
     T02390211 53005=
KLWT 080854Z AUTO 13004KT 10SM CLR 08/06 A3026 RMK AO2 SLP230
     T00830056 53001=
KMAI 080853Z AUTO 00000KT 7SM CLR 23/22 A3001 RMK AO2 SLP159
     T02330217 56010=
KMGJ 080854Z AUTO 00000KT 3SM BR CLR 22/20 A3002 RMK AO2 SLP164
     T02170200 55002=
KMIV 080854Z AUTO 09004KT 1 1/2SM BR SCT003 24/23 A2999 RMK AO2
     SLP155 T02390228 53002=
KMJX 080855Z AUTO 00000KT 2 1/2SM FEW080 BKN120 23/21 A3001 RMK
     AO1 54000=
KMLB 080853Z AUTO 00000KT 10SM CLR 22/21 A2997 RMK AO2 SLP149
     T02220211 55008=
KMRY 080854Z AUTO 35003KT 10SM OVC010 13/10 A2994 RMK AO2 SLP149
     T01330100 56002=
KMSV 080855Z AUTO 00000KT 5SM CLR 20/18 A3009 RMK AO1 57003=
KMVL 080854Z AUTO 00000KT 2 1/2SM BR FEW050 20/19 A3006 RMK AO2
     SLP177 T02000194 53001=
KOCH 080855Z AUTO 08003KT 10SM CLR 24/19 A3000 RMK AO1 54000=
KOKK 080855Z AUTO 00000KT 7SM CLR 22/16 A3004 RMK AO1=
KOXC 080855Z 13003KT 3SM SCT070 22/21 A3008 RMK AO1 54000=
KPHL 080854Z 00000KT 6SM HZ SCT180 25/22 A3001 RMK AO2 SLP163
     T02500222 52002 $=
KPNE 080854Z 00000KT 5SM BR CLR 24/23 A3002 RMK AO2 SLP165
     T02440228 50000=
KPQI 080855Z AUTO 16004KT 10SM CLR 21/18 A2998 RMK AO1 52003=
KPRX 080855Z 12003KT 8SM BKN015 24/22 A3002 RMK AO1 52003=
KPSF 080854Z AUTO 00000KT 4SM BR CLR 19/18 A3006 RMK AO2 SLP148
     T01890178 55001=
KPTV 080855Z AUTO 15004KT 10SM CLR 19/13 A2984 RMK AO1 52003=
KPTW 080854Z AUTO 00000KT 5SM HZ CLR 24/19 A3003 RMK AO2 SLP163
     T02390194 53000 $=
KPVC 080855Z 17005KT 3SM OVC002 21/19 A3009 RMK AO1 52007=
KPWG 080855Z AUTO 11005KT 10SM OVC015 25/22 A2999 RMK AO1 LTG DSNT
     S 57003=
KRDG 080854Z 00000KT 8SM CLR 24/21 A3001 RMK AO2 SLP162 T02390206
     55001=
KRKD 080855Z AUTO 00000KT 1/4SM OVC002 18/17 A3009 RMK AO1
     54000=
KRUT 080855Z AUTO 14009KT 6SM CLR 22/19 A3005 RMK AO1 54000=
KSBY 080854Z AUTO 08004KT 3SM BR FEW003 OVC100 24/23 A2999 RMK AO2
     SLP156 T02440233 51002=
KSDY 080855Z AUTO 23003KT 10SM BKN080 14/09 A3014 RMK AO1
     57003=
KSFM 080855Z 00000KT 1SM OVC002 21/18 A3007 RMK AO1 54000=
KSFZ 080855Z AUTO 00000KT 10SM OVC010 22/21 A3006 RMK AO1
     52003=
KSJN 080854Z AUTO 07008KT 10SM OVC100 23/03 A3016 RMK AO2 SLP106
     T02280033 53007=
####018003712####
SAXX60 KWBC 080900 RRA
METAR
KMUO 080855Z AUTO 07003KT 10SM CLR 15/01 A3006 RMK AO2 SLP155
     T01490014 51008=
KNQX 080853Z AUTO 05004KT 10SM TS CLR 28/25 A2992 RMK AO2 TSB42
     SLP129 T02830250 56004 $=
KRND 080855Z AUTO 03005KT 10SM R14R/4500VP6000FT OVC013 25/23
     A2994 RMK AO2 CIG 011V018 SLP127 T02490234 56006=
PABI 080853Z AUTO 00000KT 10SM CLR 14/08 A3008 RMK AO2 SLP187
     T01390078 402110117 53003 TSNO=
PHHI 080855Z AUTO 04005KT 8SM -RA SCT036 BKN048 BKN060 22/19 A3007
     RMK AO2 RAB0847 SLP171 P0001 60001 T02180185 52009=
KNHK 080852Z AUTO 11004KT 4SM BR FEW011 26/24 A2998 RMK AO2 SLP151
     T02610239 53001=
KNIP 080853Z 25004KT 10SM CLR 23/21 A3000 RMK AO2 SLP153 T02280211
     58010=
KNKT 080854Z AUTO 04007KT 5SM HZ CLR 26/22 A2991 RMK AO2 SLP125
     T02610222 55006 $=
KNQX 080853Z AUTO 05004KT 10SM TS CLR 28/25 A2992 RMK AO2 TSB42
     SLP129 T02830250 56004 $=
KNRB 080852Z AUTO 27003KT 10SM CLR 23/20 A2999 RMK AO2 SLP153
     T02280200 58011=
KNZY 080852Z 31006KT 8SM -DZ FEW010 OVC013 18/13 A2989 RMK AO2
     DZB51 SLP122 P0000 60000 T01780133 58006 $=
KOFF 080855Z AUTO 35005KT 10SM CLR 20/20 A3011 RMK AO2 SLP184
     T02030197 53003 $=
KOZR 080855Z AUTO 00000KT 9SM R06/5500VP6000FT CLR 22/22 A3002 RMK
     AO2 SLP162 T02190219 55006=
KPOB 080855Z AUTO 00000KT 10SM CLR 24/20 A2994 RMK AO2 SLP137
     T02370196 55004 $=
KRDR 080855Z AUTO 23007KT 10SM CLR 14/13 A3004 RMK AO2 SLP181
     T01400128 56002 $=
KRIV 080855Z AUTO 28003KT 7SM CLR 12/11 A2992 RMK AO2 SLP128
     T01210107 58001=
KRND 080855Z AUTO 03005KT 10SM R14R/4500VP6000FT OVC013 25/23
     A2994 RMK AO2 CIG 011V018 SLP127 T02490234 56006=
KSUU 080855Z AUTO 24022KT 10SM CLR 13/10 A2982 RMK AO2 PK WND
     24030/0824 SLP100 T01260099 51004 RVRNO $=
KAFF 080855Z AUTO 17007KT 10SM FEW002 SCT016 OVC023 13/12 A3040
     RMK AO2 RAB0834E0851DZB0832E0834 FEW V SCT SLP206 P0001 60001
     T01270122 50006=
KBAB 080855Z AUTO 16004KT 10SM SCT180 18/12 A2982 RMK AO2 SLP097
     T01810122 53008 $=
KDOV 080855Z AUTO 00000KT 3SM BR CLR 24/24 A2999 RMK AO2 VIS 1
     RWY19 SLP157 T02360236 53001=
KDYS 080855Z AUTO 35003KT 10SM CLR 21/21 A3003 RMK AO2 SLP147
     T02120208 55002 $=
KEND 080855Z AUTO 34004KT 10SM FEW120 22/21 A3006 RMK AO2 SLP168
     T02220213 58001 $=
KFBG 080855Z AUTO 00000KT 10SM CLR 26/18 A2993 RMK AO2 SLP133
     T02570183 56005 $=
KFTK 080855Z AUTO 00000KT 10SM CLR 23/21 A3006 RMK AO2 SLP173
     T02310211 57005=
KGSB 080855Z AUTO 00000KT 10SM CLR 24/19 A2991 RMK AO2 SLP128
     T02420191 56004 $=
KHIF 080855Z AUTO 00000KT 10SM CLR 20/05 A3011 RMK AO2 SLP092
     T01960053 51008 $=
KLHW 080855Z AUTO 00000KT 10SM CLR 22/20 A2998 RMK AO2 SLP154
     T02180200 56008=
KMTC 080855Z 00000KT 10SM FEW140 SCT240 22/22 A3001 RMK SLP166
     58005=
KMUI 080855Z AUTO 00000KT 10SM CLR 22/19 A3002 RMK AO2 SLP162
     T02190195 55003 $=
KMUO 080855Z AUTO 07003KT 10SM CLR 15/01 A3006 RMK AO2 SLP155
     T01490014 51008=
KAFF 080855Z AUTO 17007KT 10SM FEW002 SCT016 OVC023 13/12 A3040
     RMK AO2 RAB0834E0851DZB0832E0834 FEW V SCT SLP206 P0001 60001
     T01270122 50006=
KDOV 080855Z AUTO 00000KT 3SM BR CLR 24/24 A2999 RMK AO2 VIS 1
     RWY19 SLP157 T02360236 53001=
KFTK 080855Z AUTO 00000KT 10SM CLR 23/21 A3006 RMK AO2 SLP173
     T02310211 57005=
KGSB 080855Z AUTO 00000KT 10SM CLR 24/19 A2991 RMK AO2 SLP128
     T02420191 56004 $=
KGTB 080855Z AUTO 17006KT 10SM R33/5000V5500FT CLR 22/20 A3003 RMK
     AO2 SLP166 T02220203 57004=
KMUI 080855Z AUTO 00000KT 10SM CLR 22/19 A3002 RMK AO2 SLP162
     T02190195 55003 $=
####018003632####
SAXX60 KWBC 080900 RRB
METAR
KNIP 080853Z 25004KT 10SM CLR 23/21 A3000 RMK AO2 SLP153 T02280211
     58010=
KNKT 080854Z AUTO 04007KT 5SM HZ CLR 26/22 A2991 RMK AO2 SLP125
     T02610222 55006 $=
KNRB 080852Z AUTO 27003KT 10SM CLR 23/20 A2999 RMK AO2 SLP153
     T02280200 58011=
KSKF 080855Z 06008KT 10SM OVC014 26/ A2993 RMK AO2A CIG 013V018
     OVC V BKN SLP124 T0260 56005 $=
KTBN 080855Z AUTO 00000KT 9SM SCT027 BKN100 OVC210 22/ A3006 RMK
     AO2 CIG 028 RWY32 SLP162 T0222 55000 $=
KVAD 080855Z AUTO 00000KT 10SM CLR 21/20 A3001 RMK AO2 SLP162
     T02110198 56008 $=
KWRI 080855Z AUTO 12004KT M1/4SM R18/0500V0600FT R24/0500V0600FT
     FG VV001 23/23 A2999 RMK AO2 SLP157 T02330233 55000 $=
KPOE 080855Z AUTO 11006KT 10SM CLR 24/22 A3000 RMK AO2 SLP158
     T02440222 55000=
KNBG 080855Z AUTO 00000KT 6SM BR CLR 25/24 A3000 RMK AO2 SLP158
     T02500239 58003 PWINO $=
KBAB 080855Z AUTO 16004KT 10SM SCT180 18/12 A2982 RMK AO2 SLP097
     T01810122 53008 $=
KBIX 080855Z AUTO 07003KT 10SM CLR 25/25 A3001 RMK AO2 SLP163
     T02540251 55007=
KFSI 080855Z AUTO 01005KT 10SM CLR 23/22 A3004 RMK AO2 SLP156
     T02260218 52005=
KLFI 080855Z 11005KT 10SM FEW008 SCT100 BKN150 26/23 A2996 RMK
     AO2A SLP145 T02580234 56004 $=
KLHW 080855Z AUTO 00000KT 10SM CLR 22/20 A2998 RMK AO2 SLP154
     T02180200 56008=
KSLI 080855Z AUTO 00000KT 10SM OVC016 16/14 A2991 RMK AO2 SLP130
     T01640137 58002=
KSSC 080855Z AUTO 29008KT 10SM CLR 26/19 A2995 RMK AO2 SLP141
     T02560189 57007 $=
KTCM 080855Z AUTO 00000KT 10SM CLR 15/13 A2994 RMK AO2 SLP141
     T01470126 52006=
KTIK 080855Z AUTO 33005KT 10SM BKN016 OVC055 24/23 A3004 RMK AO2
     CIG 015V021 BKN V SCT SLP158 T02380226 57002 $=
KVOK 080855Z 31007KT 10SM SCT019 20/20 A3001 RMK AO2A SLP156
     T02030203 55000=
PAED 080855Z AUTO 00000KT 10SM BKN080 12/10 A3001 RMK AO2
     DZB0827E0841 SLP162 P0000 60000 T01220100 401720112 58002
     $=
PGUA 080855Z AUTO 09013KT 10SM SCT017 27/ A2989 RMK AO2 SCT V BKN
     SLP102 T0273 53009 VISNO RWY24L $=
KNKX 080855Z 34006KT 10SM OVC014 16/13 A2990 RMK AO2 SLP119
     T01610133 58007=
KVBG 080855Z AUTO 00000KT 10SM CLR 12/11 A2993 RMK AO2 CIG 006
     RWY12 SLP125 T01220111 57003 TSNO $=
KNYL 080855Z 16004KT 10SM CLR 28/02 A2971 RMK AO2 SLP056 T02830022
     53000=
KBIX 080855Z AUTO 07003KT 10SM CLR 25/25 A3001 RMK AO2 SLP163
     T02540251 55007=
KDOV 080855Z AUTO 00000KT 3SM BR CLR 24/24 A2999 RMK AO2 VIS 1
     RWY19 SLP157 T02360236 53001=
KGSB 080855Z AUTO 00000KT 10SM CLR 24/19 A2991 RMK AO2 SLP128
     T02420191 56004 $=
KHST 080855Z AUTO 07004KT 10SM FEW006 27/25 A2993 RMK AO2
     RAB0822E0843DZB0843E0847 SLP135 P0002 60002 T02650253 56009
     $=
KLFI 080855Z 11005KT 10SM FEW008 SCT100 BKN150 26/23 A2996 RMK
     AO2A SLP145 T02580234 56004 $=
KMCF 080855Z AUTO 05004KT 10SM CLR 23/23 A2998 RMK AO2 SLP153
     T02330226 58012=
KNKT 080854Z AUTO 04007KT 5SM HZ CLR 26/22 A2991 RMK AO2 SLP125
     T02610222 55006 $=
KPAM 080855Z AUTO 35005KT 10SM CLR 25/24 A3000 RMK AO2 SLP161
     T02460245 56009=
KSSC 080855Z AUTO 29008KT 10SM CLR 26/19 A2995 RMK AO2 SLP141
     T02560189 57007 $=
KVAD 080855Z AUTO 00000KT 10SM CLR 21/20 A3001 RMK AO2 SLP162
     T02110198 56008 $=
KWRI 080855Z AUTO 12004KT M1/4SM R18/0500V0600FT R24/0500V0600FT
     FG VV001 23/23 A2999 RMK AO2 SLP157 T02330233 55000 $=
KDLF 080855Z AUTO 29003KT 10SM CLR 24/23 A2995 RMK AO2 SLP124
     T02390228 55001 $=
KGRK 080855Z 07005KT 7SM BKN013 26/23 A2997 RMK SLP127 56007=
####018003745####
SAUS70 KWBC 080900 RRB
METAR
KJFK 080851Z 00000KT 4SM BR SCT006 BKN090 BKN130 25/23 A3002 RMK
     AO2 SLP166 T02500233 55002 $=
KMCO 080853Z 36003KT 10SM FEW120 22/21 A2999 RMK AO2 SLP153
     T02220206 55009=
KPBI 080853Z 06004KT 10SM SCT023 BKN035 BKN250 28/24 A2992 RMK AO2
     SLP132 T02780239 55013=
TIST 080853Z AUTO 08005KT 10SM CLR 28/24 A2997 RMK AO2 SLP148
     T02780244 56001 TSNO=
TISX 080853Z 08008KT 10SM CLR 27/24 A2996 RMK AO2 SLP145 T02720239
     58005=
PASC 080853Z 22013KT 10SM BKN036 BKN070 OVC210 11/07 A3000 RMK AO2
     SLP161 T01060072 401060050 55004=
KHFF 080855Z AUTO 00000KT 10SM CLR 22/18 A2996 RMK AO2 SLP142
     T02180179 58006 $=
K04W 080854Z AUTO 00000KT 10SM CLR 16/16 A3006 RMK AO2
     T01630158=
K0A9 080855Z AUTO 00000KT 7SM BKN080 19/18 A3011 RMK=
K20V 080856Z AUTO 00000KT 10SM SCT021 08/05 A3042 RMK AO2=
K5SM 080853Z AUTO 12006KT 10SM SCT110 08/03 A3056 RMK AO2=
K7BM 080856Z AUTO 00000KT 10SM BKN030 OVC095 10/06 A3056 RMK
     AO2=
KAIT 080853Z AUTO 00000KT 3/4SM BR VV005 13/12 A3006 RMK AO2=
KBBB 080853Z AUTO 00000KT 2 1/2SM BR CLR 13/13 A3011 RMK AO2 VIS
     1V5=
KBBG 080855Z AUTO 00000KT 5SM BR CLR 23/22 A3006 RMK AO2=
KBBP 080855Z AUTO 00000KT 10SM CLR 23/20 A2995 RMK AO2=
KBDU 080857Z AUTO 34003KT 10SM CLR 15/12 A3031 RMK AO2=
KBJC 080857Z AUTO 21005KT 3SM BR CLR 13/12 A3033 RMK AO2=
KBKN 080855Z AUTO 05005KT 10SM SCT037 SCT060 22/22 A3004 RMK
     AO2=
KBMI 080856Z AUTO 00000KT 10SM CLR 23/22 A3004 RMK AO2 PWINO 58008
     T02270216 LTG DSNT SW SLP156 $=
KBOK 080856Z AUTO 19003KT M1/4SM FG OVC002 09/09 A2997 RMK AO2
     58002 T00940094 SLP151 $=
KC29 080855Z AUTO 24003KT 10SM OVC006 22/20 A3001 RMK AO2 P0001
     60001 T02150200=
KCCU 080856Z AUTO 19020KT 10SM SCT085 07/02 A3064 RMK AO2=
KCIC 080855Z AUTO 15004KT 10SM CLR 23/15 A2982 RMK AO1=
KCMR 080855Z AUTO 16009KT 10SM BKN100 16/02 A3025 RMK AO1=
KEAT 080855Z AUTO 30004KT 10SM CLR 19/05 A3002 RMK AO2 SLP157
     T01940050 53008=
KFFM 080853Z AUTO 19004KT 10SM CLR 15/14 A3008 RMK AO2=
KFGN 080854Z AUTO 26010KT 1SM DZ VV007 17/13 A2996 RMK AO2=
KGDB 080853Z AUTO 24005KT 10SM CLR 14/14 A3013 RMK AO2
     T01400136=
KGGE 080855Z AUTO 27006KT 10SM CLR 23/22 A2994 RMK AO2=
KGHW 080853Z AUTO 24006KT 10SM CLR 14/13 A3013 RMK AO2=
KHVS 080855Z AUTO 00000KT 10SM SCT090 24/20 A2997 RMK AO2=
KLLJ 080855Z AUTO 00000KT 10SM FEW090 10/00 A3023 RMK AO2 SLP190
     T01000000 53012=
PAGM 080855Z AUTO 00000KT 10SM CLR 06/05 A3018 RMK VIA AWOS
     PHONE=
PAHN 080854Z AUTO 00000KT 10SM CLR 12/11 A3020 RMK AO2 SLP229
     T01170106 402000100 58003 TSNO=
PAKN 080854Z 34003KT 10SM SCT045 BKN055 10/09 A2991 RMK AO2 SLP127
     60004 T01000094 401670072 51006=
KLUX 080855Z AUTO 26003KT 10SM CLR 21/21 A3001 RMK AO2=
KMAO 080855Z AUTO 28004KT 10SM SCT120 25/19 A2993 RMK AO2=
KMGG 080855Z AUTO 28004KT 10SM CLR 16/15 A3009 RMK AO2
     T01600154=
KMOX 080850Z AUTO 25004KT 10SM CLR 15/14 A3007 RMK AO2=
KMWM 080853Z AUTO 27004KT 10SM CLR 14/14 A3013 RMK AO2=
KNQA 080855Z AUTO 00000KT 10SM CLR 24/23 A3006 RMK=
KOWB 080856Z AUTO 00000KT 10SM BKN065 26/23 A3005 RMK AO2 55004
     T02610227 BKN V SCT SLP172=
KPNM 080853Z AUTO 00000KT 5SM BR CLR 15/14 A3008 RMK AO2=
KPQN 080853Z AUTO 32004KT 10SM CLR 17/15 A3015 RMK AO2=
KPWC 080853Z AUTO 00000KT 1 1/4SM BR BKN001 11/10 A3008 RMK
     AO2=
KRCE 080855Z AUTO 36003KT 8SM SCT048 22/22 A3007 RMK AO2=
KSGR 080853Z AUTO 07006KT 10SM CLR 26/23 A2990 RMK AO2 SLP133
     T02610233 56008 TSNO=
KSRR 080855Z AUTO 20006KT 9SM SCT009 SCT046 BKN065 13/12 A3035 RMK
     AO2=
KTWM 080853Z AUTO 30004KT 10SM CLR 16/13 A3000 RMK AO2=
####018000450####
SAPQ50 KWBC 080900
METAR
PGSN 080854Z 09010KT 10SM FEW025 28/24 A2989 RMK AO2 SLPNO 60000
     T02780244 53012=
PTYA 080853Z 05008KT 12SM FEW016CB SCT030 BKN130 OVC300 27/23
     A2983 RMK CB VC SE AND W SLP103 60001 8/377 T02670232
     53008=
PGSN 080854Z 09010KT 10SM FEW025 28/24 A2989 RMK AO2 SLPNO 60000
     T02780244 53012=
PGUM 080854Z 09010KT 10SM FEW021 SCT027 SCT041 28/24 A2988 RMK AO2
     SLP110 T02830244 53010=
####018003742####
SAXX60 KWBC 080900 RRC
METAR
KHST 080855Z AUTO 07004KT 10SM FEW006 27/25 A2993 RMK AO2
     RAB0822E0843DZB0843E0847 SLP135 P0002 60002 T02650253 56009
     $=
KLSF 080855Z AUTO 00000KT 10SM CLR 22/21 A3001 RMK AO2 SLP162
     T02150207 56006 $=
KLSV 080855Z AUTO 34003KT 10SM CLR 26/M04 A2982 RMK AO2 SLP078
     T02561041 53006 PWINO=
KLTS 080855Z AUTO 02005KT 10SM CLR 23/22 A3005 RMK AO2
     DZB0807E0844 SLP159 P0000 60000 T02280223 53002 $=
KLUF 080855Z 19005KT 10SM CLR 31/03 A2976 RMK AO2A SLP044
     T03110032 53009 $=
KMCF 080855Z AUTO 05004KT 10SM CLR 23/23 A2998 RMK AO2 SLP153
     T02330226 58012=
KMIB 080855Z AUTO 26008KT 10SM CLR 12/11 A3007 RMK AO2 SLP187
     T01170111 50001 $=
KMXF 080855Z AUTO 00000KT 10SM CLR 25/24 A3001 RMK AO2 SLP161
     T02540241 55005=
KSKA 080855Z AUTO 00000KT 10SM CLR 15/08 A3007 RMK AO2 SLP170
     T01510079 53004=
KWRB 080855Z 14004KT 10SM CLR 21/21 A3002 RMK AO2A SLP162
     T02110206 56006=
KXMR 080855Z AUTO 00000KT 10SM CLR 19/18 A2997 RMK AO2 SLP152
     T01940184 55007=
MHSC 080855Z AUTO 20003KT 9999 OVC130 22/20 A2993 RMK AO2 SLP093
     T02170196 56012 $=
PGUA 080855Z AUTO 09013KT 10SM SCT017 27/ A2989 RMK AO2 SCT V BKN
     SLP102 T0273 53009 VISNO RWY24L $=
PHHI 080855Z AUTO 04005KT 8SM -RA SCT036 BKN048 BKN060 22/19 A3007
     RMK AO2 RAB0847 SLP171 P0001 60001 T02180185 52009=
PHNL 080853Z 03006KT 10SM FEW032 SCT050 24/18 A3005 RMK AO2
     RAB21E42 SLP174 P0000 60000 T02440183 53009=
KBIX 080855Z AUTO 07003KT 10SM CLR 25/25 A3001 RMK AO2 SLP163
     T02540251 55007=
KBKF 080855Z 16005KT 7SM BKN010 BKN060 14/14 A3033 RMK SLP228
     58005=
KDLF 080855Z AUTO 29003KT 10SM CLR 24/23 A2995 RMK AO2 SLP124
     T02390228 55001 $=
KFCS 080855Z AUTO 20008KT 10SM OVC023 14/11 A3038 RMK AO2
     DZB0838E0847 SLP216 P0000 60000 T01400110 50010=
KFSI 080855Z AUTO 01005KT 10SM CLR 23/22 A3004 RMK AO2 SLP156
     T02260218 52005=
KGRK 080855Z 07005KT 7SM BKN013 26/23 A2997 RMK SLP127 56007=
KHST 080855Z AUTO 07004KT 10SM FEW006 27/25 A2993 RMK AO2
     RAB0822E0843DZB0843E0847 SLP135 P0002 60002 T02650253 56009
     $=
KLFI 080855Z 11005KT 10SM FEW008 SCT100 BKN150 26/23 A2996 RMK
     AO2A SLP145 T02580234 56004 $=
KLSF 080855Z AUTO 00000KT 10SM CLR 22/21 A3001 RMK AO2 SLP162
     T02150207 56006 $=
KLSV 080855Z AUTO 34003KT 10SM CLR 26/M04 A2982 RMK AO2 SLP078
     T02561041 53006 PWINO=
KLTS 080855Z AUTO 02005KT 10SM CLR 23/22 A3005 RMK AO2
     DZB0807E0844 SLP159 P0000 60000 T02280223 53002 $=
KLUF 080855Z 19005KT 10SM CLR 31/03 A2976 RMK AO2A SLP044
     T03110032 53009 $=
KMCF 080855Z AUTO 05004KT 10SM CLR 23/23 A2998 RMK AO2 SLP153
     T02330226 58012=
KMIB 080855Z AUTO 26008KT 10SM CLR 12/11 A3007 RMK AO2 SLP187
     T01170111 50001 $=
KMXF 080855Z AUTO 00000KT 10SM CLR 25/24 A3001 RMK AO2 SLP161
     T02540241 55005=
KSVN 080855Z 00000KT 10SM SKC 22/21 A2997 RMK SLP152 56007
     60000=
KCEF 080855Z AUTO 16005KT 10SM SCT100 24/22 A3003 RMK AO2 SLP170
     T02360217 53001 PWINO $=
KFBG 080855Z AUTO 00000KT 10SM CLR 26/18 A2993 RMK AO2 SLP133
     T02570183 56005 $=
KNBT 080856Z AUTO 05008KT 3SM BR CLR 28/ A2990 RMK AO2 SLP130
     T0283 56004 TSNO $=
KPRN 080856Z AUTO 00000KT 10SM CLR 24/22 A3002 RMK AO2 SLP159
     T02440222 56007 $=
KABH 080856Z AUTO 21005KT 10SM BKN085 13/12 A3037 RMK AO2 SLP226
     T01330122 50004 $=
KAQV 080856Z AUTO 00000KT 10SM CLR 23/23 A3000 RMK AO2 SLP155
     T02330228 53002 $=
KNYG 080856Z AUTO 31003KT CLR 26/22 A2998 RMK AO2 SLP153 T02560222
     55001=
KNCA 080856Z AUTO 00000KT 10SM CLR 23/21 A2991 RMK AO2 SLP129
     T02330211 55003=
####018000122####
SPUS80 KWBC 080858
SPECI
KJLN 080855Z 13007KT 1 3/4SM +RA BR SCT005 BKN014 OVC026 23/23
     A3004 RMK AO2 P0007=
####018000936####
SAXX60 KWBC 080900 RRD
METAR
KGUS 080855Z AUTO 17003KT 10SM CLR 23/20 A3004 RMK AO2 SLP165
     T02260204 56007=
KLRF 080855Z AUTO 00000KT 10SM BKN200 BKN230 23/22 A3005 RMK AO2
     SLP174 T02290220 50005=
KMMT 080855Z AUTO 34003KT 10SM CLR 23/19 A2998 RMK AO2 SLP150
     T02250188 57009=
KNQX 080853Z AUTO 05004KT 10SM TS CLR 28/25 A2992 RMK AO2 TSB42
     SLP129 T02830250 56004 $=
KNRB 080852Z AUTO 27003KT 10SM CLR 23/20 A2999 RMK AO2 SLP153
     T02280200 58011=
KOZR 080855Z AUTO 00000KT 9SM R06/5500VP6000FT CLR 22/22 A3002 RMK
     AO2 SLP162 T02190219 55006=
KNQI 080856Z AUTO 01006KT 9SM FEW110 27/25 A2982 RMK AO2 TSB16E38
     SLP094 T02720250 56014 $=
KNGP 080856Z AUTO 11011KT 10SM FEW018 BKN050 28/26 A2980 RMK AO2
     TSB18E34RAB37E49 SLP092 P0001 60001 T02830261 56016 $=
KHLR 080856Z AUTO 09004KT 10SM FEW027 26/ A2998 RMK AO2 RAB29E38
     SLP143 P0000 60000 T0256 56006 $=
####018003723####
SAUS70 KWBC 080900 RRD
METAR
KSRC 080856Z AUTO 00000KT 10SM CLR 23/22 A3006 RMK AO2 TSNO 51005
     T02270216 SLP181=
KTPH 080856Z AUTO 01009KT 10SM CLR 17/M08 A3009 RMK AO2 SLP110
     T01671083 51006=
KTZR 080856Z AUTO 00000KT 5SM BR CLR 21/19 A3008 RMK AO2=
KUKI 080856Z AUTO 11003KT 10SM CLR 14/11 A2991 RMK AO2 SLP119
     T01390106 50003=
KY51 080855Z AUTO 28004KT 7SM CLR 20/20 A3003 RMK AO1
     T02000197=
PAAK 080856Z AUTO 08021G26KT 10SM SCT018 SCT036 BKN110 07/04 A2962
     RMK AO1 57010 PNO=
PAHP 080856Z AUTO 03008KT 10SM BKN065 OVC075 12/08 A3007 RMK AO1
     52007 PNO TSNO=
PAAK 080856Z AUTO 08021G26KT 10SM SCT018 SCT036 BKN110 07/04 A2962
     RMK AO1 57010 PNO=
PABL 080856Z AUTO 34005KT 10SM CLR 11/07 A3016 RMK AO1 52010
     PNO=
PABV 080856Z AUTO 15005KT 10SM FEW085 12/08 RMK AO1 PNO=
PADL 080856Z 32008KT 10SM SCT070 11/08 A2998 RMK AO1 52003 PNO
     TSNO=
PAEM 080856Z AUTO 35003KT 9SM BKN120 12/08 A3005 RMK AO1 52003
     PNO=
PAFE 080856Z AUTO 00000KT 10SM CLR 12/09 A3018 RMK AO1 57003
     PNO=
PAFM 080856Z AUTO 36003KT 10SM CLR 16/09 A3011 RMK AO1 52003
     PNO=
PAGL 080856Z AUTO 10SM CLR 14/09 A3015 RMK AO1 52010 PNO=
PAGS 080856Z AUTO 00000KT 10SM CLR 11/09 A3020 RMK AO1 54000
     PNO=
PAHP 080856Z AUTO 03008KT 10SM BKN065 OVC075 12/08 A3007 RMK AO1
     52007 PNO TSNO=
PAHY 080856Z AUTO 36004KT 10SM CLR 17/11 A3011 RMK AO1 54000
     PNO=
PAII 080856Z AUTO 01006KT 10SM OVC055 11/08 A2997 RMK AO1 52007
     PNO=
PAIN 080856Z AUTO 00000KT 10SM CLR 10/06 A3008 RMK AO1 54000
     PNO=
PAJC 080856Z AUTO 00000KT 10SM BKN017 OVC023 09/04 A2995 RMK AO1
     52007 PNO=
PAKK 080856Z AUTO 01011G16KT 10SM CLR 14/08 A3005 RMK AO1 52003
     PNO=
PAKP 080856Z AUTO 35003KT 10SM BKN037 11/04 A3011 RMK AO1
     52010=
PAMD 080856Z AUTO 10022G25KT 9SM SCT016 BKN024 OVC029 09/08 A3002
     RMK AO1 54000 PNO=
PAMH 080856Z 00000KT 10SM CLR 16/06 A3000 RMK AO1 54000 PNO=
PAMM 080856Z AUTO 36007KT 10SM CLR 19/11 A3008 RMK AO1 54000
     PNO=
PAMY 080856Z 29007KT 2 1/2SM SCT002 BKN048 OVC060 05/04 A3006 RMK
     AO1 54000=
PANI 080856Z AUTO 00000KT 10SM OVC100 11/09 A3001 RMK AO1 52003
     PNO=
PANV 080856Z AUTO 28005KT 10SM FEW075 OVC085 14/08 A3000 RMK AO1
     52003 PNO=
PAOU 080856Z AUTO 04011KT 10SM BKN055 07/07 A2997 RMK AO2 PWINO
     TSNO 50002 T00720066 401160072 SLP152 $=
PAPG 080856Z 03005KT 10SM CLR 13/10 A3014 RMK AO1 57003 PNO=
PAPH 080856Z AUTO 06005KT 9SM CLR 05/03 A2997 RMK AO1 54000
     PNO=
PARC 080856Z AUTO 00000KT 10SM BKN060 11/02 A3004 RMK AO1 52014
     PNO=
PASA 080856Z AUTO 05004KT 10SM CLR 06/04 A3020 RMK AO1 52003
     PNO=
PASD 080856Z AUTO 00000KT 10SM SCT048 08/05 A2996 RMK AO1 54000
     PNO=
PASH 080856Z AUTO 04018G21KT 10SM CLR 04/03 A3019 RMK AO1 52003
     PNO=
PASK 080856Z 28006KT 10SM CLR 14/07 A3011 RMK AO1 52003 PNO=
PASL 080856Z AUTO 00000KT 10SM BKN100 12/08 A3001 RMK AO1 52007
     PNO=
PASM 080856Z AUTO 03004KT 10SM BKN065 BKN075 OVC100 09/08 A3007
     RMK AO1 52003 PNO=
PASX 080856Z 00000KT 10SM OVC070 13/09 A2997 RMK AO1 57003 PNO=
PAUN 080856Z AUTO 10004KT 10SM CLR 13/06 A3002 RMK AO1 54000
     PNO=
PAVD 080856Z 00000KT 10SM OVC090 11/08 A3009 RMK AO1 57010 PNO=
PAWG 080856Z AUTO 00000KT 10SM CLR 14/11 A3013 RMK AO1 54000
     PNO=
PAWN 080856Z AUTO 00000KT 10SM CLR 13/03 A3015 RMK AO1 52010
     PNO=
PAWS 080856Z AUTO 00000KT 10SM OVC100 13/09 A3000 RMK AO1 57007
     PNO=
PAZK 080856Z AUTO 03007KT 10SM BKN110 10/03 A3009 RMK AO1 57003
     PNO=
KHFF 080855Z AUTO 00000KT 10SM CLR 22/18 A2996 RMK AO2 SLP142
     T02180179 58006 $=
####018000305####
SPXX60 KWBC 080858
SPECI
KOZR 080852Z AUTO 00000KT 9SM R06/5500VP6000FT CLR 22/22 A3002 RMK
     AO2 SLP162=
PGUA 080852Z AUTO 09014KT 10SM BKN017 27/ A2989 RMK AO2 CIG
     017V021 SLP102 VISNO RWY24L $=
PGUA 080854Z AUTO 09014KT 10SM SCT017 27/ A2989 RMK AO2 SLP102
     VISNO RWY24L $=
####018000093####
SAUS80 KWBC 070900 RRH
METAR
KESN 080900Z AUTO 00000KT 3SM BR CLR 23/23 A3003 RMK AO2=
####018002949####
SAUS80 KWBC 080900 RRA
METAR
KSMS 080855Z AUTO 29004KT 10SM CLR 25/19 A2997 RMK AO2=
KTLH 080853Z 09004KT 10SM CLR 23/22 A3001 RMK AO2 SLP160 T02280217
     55008=
KMBG 080855Z AUTO 00000KT 10SM CLR 11/09 A3013 RMK AO2 SLP197
     T01110089 53002 TSNO=
KINL 080855Z AUTO 22003KT 10SM FEW090 12/11 A3000 RMK AO2 SLP159
     T01170111 58006=
KCHS 080856Z 29007KT 9SM CLR 24/19 A2996 RMK AO2 SLP143 T02440194
     56008=
KCBE 080856Z AUTO 00000KT 7SM CLR 21/18 A3010 RMK AO1=
KAAT 080855Z AUTO 00000KT 10SM CLR 12/08 A3007 RMK AO2 SLP138
     T01220083 51005 TSNO=
KANJ 080855Z AUTO 00000KT 8SM OVC004 21/19 A2994 RMK AO2 RAE27
     SLP133 P0008 60009 T02060194 58017=
KJAX 080856Z 00000KT 9SM CLR 19/19 A2999 RMK AO2 SLP155 T01940189
     58012=
TJSJ 080856Z 00000KT 10SM FEW022 SCT035 27/24 A2998 RMK AO2 SLP150
     T02720244 55000=
KHON 080855Z AUTO 23005KT 10SM CLR 16/13 A3014 RMK AO2 SLP202
     T01610133 50000=
KPHP 080855Z AUTO 29006KT 10SM CLR 13/10 A3021 RMK AO2 SLP216
     T01280100 53002 TSNO $=
KABQ 080856Z 08012KT 10SM BKN130 BKN200 20/09 A3025 RMK AO2 SLP148
     T02000094 51001=
KSHV 080856Z 11003KT 10SM SCT180 BKN280 24/24 A3001 RMK AO2 SLP158
     T02440239 53003=
KAST 080855Z AUTO 24006KT 7SM OVC003 12/11 A2994 RMK AO2 SLP137
     T01220106 53011=
KSAV 080853Z 26003KT 10SM FEW024 21/19 A2999 RMK AO2 SLP153
     T02110194 56009=
KSYR 080854Z 15003KT 7SM FEW048 SCT090 SCT200 22/20 A3004 RMK AO2
     SLP167 T02220200 51001=
PHKO 080853Z AUTO 17006KT 10SM CLR 24/16 A2999 RMK AO2 SLP156
     T02440161 51006 TSNO=
PHOG 080854Z 04010KT 10SM FEW055 24/17 A3004 RMK AO2 SLP178
     T02390172 51009=
PHTO 080853Z AUTO 16005KT 8SM RA SCT025 BKN038 22/19 A3006 RMK AO2
     RAB45 SLP177 P0001 60001 T02170194 51013 TSNO=
KBZN 080856Z AUTO 18004KT 10SM CLR 10/04 A3026 RMK AO2 SLP225
     T01000039 51003=
KDVK 080857Z AUTO 00000KT 5SM 21/19 A3008 RMK AO1=
KU24 080850Z 36008KT 30SM SKC 17/06 RMK SLP129 NOSPECI T01740056
     52005=
KP60 080856Z AUTO 00000KT 01/M01 A3043 RMK AO2 SLP258 T00111011
     51004 PWINO FZRANO TSNO=
KGNA 080856Z AUTO 22004KT 17/16 A2997 RMK AO2 SLP142 60001
     T01720161 56007 PWINO TSNO=
KBIH 080856Z AUTO 36005KT 10SM CLR 14/02 A2998 RMK AO2 SLP099
     T01390022 51010 TSNO=
KALK 080856Z AUTO 08010KT 10SM CLR 23/08 A3007 RMK AO2 SLP077
     T02330078 55000=
TJSJ 080856Z 00000KT 10SM FEW022 SCT035 27/24 A2998 RMK AO2 SLP150
     T02720244 55000=
PADK 080856Z 05010KT 7SM FEW016 BKN022 OVC029 07/06 A2959 RMK AO1
     54000 PNO=
KINW 080856Z AUTO 28004KT 10SM FEW120 23/01 A3008 RMK AO2 SLP097
     T02330006 53001=
KMOB 080856Z 00000KT 8SM CLR 24/23 A3003 RMK AO2 SLP164 T02390228
     55009=
KOFK 080856Z AUTO 29004KT 10SM CLR 16/15 A3017 RMK AO2 SLP208
     T01560150 56006=
KSFO 080856Z 27012KT 10SM BKN008 OVC016 14/11 A2993 RMK AO2 SLP135
     T01390106 50002=
####018003685####
SAUS70 KWBC 080900 RRC
METAR
KUCP 080856Z AUTO 00000KT 1/2SM FG CLR 18/18 A3009 RMK AO2 55004
     T01770177 SLP196 $=
KULM 080855Z AUTO 29005KT 10SM CLR 15/13 A3011 RMK AO2=
KVQQ 080855Z AUTO 00000KT 3SM BR CLR 17/17 A3000 RMK AO2 VSBY 1
     3/4V5=
KWYS 080850Z AUTO 00000KT 10SM CLR 02/00 A3036 RMK AO2=
K2G4 080855Z AUTO 00000KT 10SM SCT070 23/13 A3019 RMK AO1=
K2W6 080856Z AUTO 00000KT 4SM CLR 23/23 A3000 RMK AO1=
KFDK 080847Z AUTO 00000KT 5SM BR SCT100 24/22 A3003 RMK AO2=
KW29 080856Z AUTO 00000KT 5SM CLR 23/22 A2999 RMK AO1=
KMTN 080857Z AUTO 00000KT 7SM CLR 26/23 A3000 RMK AO2=
KSDF 080856Z 12004KT 7SM CLR 27/21 A3005 RMK AO2 SLP168 T02670206
     57005=
KBOS 080854Z 15005KT 10SM BKN019 23/19 A3006 RMK AO2 SLP179
     T02280194 53001=
KPHL 080854Z 00000KT 6SM HZ SCT180 25/22 A3001 RMK AO2 SLP163
     T02500222 52002 $=
PHJR 080853Z 06003KT 10SM FEW055 23/18 A3006 RMK AO2 SLP184
     T02330183 53009=
PHMK 080854Z AUTO 05007G17KT 10SM FEW025 SCT039 23/19 A3006 RMK
     AO2 SLP180 T02280189 52009 TSNO=
KSDF 080856Z 12004KT 7SM CLR 27/21 A3005 RMK AO2 SLP168 T02670206
     57005=
K1A6 080855Z AUTO 00000KT 3SM BR CLR 21/21 A3010 RMK AO2=
K1M4 080856Z AUTO 00000KT 10SM CLR 22/22 A3010 RMK AO2 55004
     T02220216 SLP187=
K21D 080858Z AUTO 31005KT 10SM CLR 18/16 A3006 RMK AO2=
KAIG 080855Z AUTO 32003KT 10SM SCT005 18/18 A2999 RMK AO2=
KAND 080856Z AUTO 00000KT 10SM CLR 22/19 A3001 RMK AO2 SLP152
     T02170194 56006=
KART 080856Z AUTO 00000KT 7SM CLR 23/20 A3002 RMK AO2 SLP158
     T02280200 56003=
KARV 080852Z AUTO 00000KT 10SM SCT010 BKN018 OVC036 20/19 A3002
     RMK AO2 T01950185=
KATW 080855Z AUTO 24005KT 7SM BKN009 22/21 A2998 RMK AO2=
KBED 080856Z AUTO 00000KT 5SM BR BKN017 OVC039 24/22 A3004 RMK AO2
     SLP183 T02390217 53002=
KBJI 080854Z AUTO 24007KT 10SM CLR 15/13 A3004 RMK AO2=
KBJJ 080856Z AUTO 00000KT 4SM BR CLR 18/17 A3009 RMK AO2 SLP182
     T01780172 56003=
KBWP 080851Z AUTO 26003KT 10SM CLR 15/13 A3008 RMK AO1
     T01470133=
KCEC 080856Z AUTO 00000KT 2 1/2SM BR OVC003 10/09 A2997 RMK AO2
     SLP150 T01000094 58001=
KCTB 080856Z AUTO 33004KT 10SM CLR 10/06 A3024 RMK AO2 SLP222
     T01000056 51004=
KCXY 080856Z AUTO 00000KT 5SM HZ CLR 23/20 A3002 RMK AO2 SLP161
     T02330200 53001=
KD39 080854Z AUTO 00000KT 10SM CLR 16/15 A3010 RMK AO2
     T01600150=
KDAY 080856Z 00000KT 8SM CLR 23/18 A3009 RMK AO2 SLP178 T02280183
     55005 $=
KDIK 080856Z AUTO 27004KT 10SM CLR 10/08 A3015 RMK AO2 SLP202
     T01000083 58001=
KDLL 080855Z AUTO 26004KT 10SM OVC004 21/20 A3000 RMK AO2=
KDUG 080856Z AUTO 08021G27KT 10SM CLR 26/12 A3000 RMK AO2 PK WND
     08027/0855 SLP071 60000 T02610117 53001 $=
KDUJ 080856Z AUTO 10003KT 6SM HZ CLR 20/17 A3011 RMK AO2 SLP180
     T02000172 55003=
KEAU 080856Z AUTO 28003KT 10SM CLR 19/18 A3001 RMK AO2 SLP155
     T01890183 55000=
KEED 080856Z AUTO 26006KT 10SM CLR 30/M03 A2974 RMK AO2 SLP032
     T03001033 53007 TSNO=
KEFD 080850Z 10009KT 9SM FEW025 BKN130 28/24 A2993=
KEKO 080856Z AUTO 28003KT 10SM CLR 17/M05 A3011 RMK AO2 SLP138
     T01671050 53009=
KELZ 080856Z AUTO 00000KT 3SM BR CLR 18/18 A3016 RMK AO2 SLP196
     T01830183 56003=
KGON 080856Z AUTO 00000KT 10SM OVC011 23/21 A3004 RMK AO2 SLP173
     T02330211 53003=
KGRD 080856Z AUTO 00000KT 10SM CLR 22/19 A3002 RMK AO2 SLP157
     T02170194 55005=
KSGH 080856Z AUTO 00000KT 4SM BR CLR 21/21 A3010 RMK AO2 56005
     T02050205 SLP181=
KSLE 080856Z AUTO 00000KT 10SM CLR 18/11 A2986 RMK AO2 SLP109
     T01830111 52012=
KSME 080855Z AUTO 00000KT 4SM BR 21/20 A3008 RMK AO2=
####018000292####
SAUS80 KWBC 080900 CCA
METAR
KMTP 080854Z AUTO VRB03KT 22/20 A3006 RMK AO2 SLP178 T02170200
     53002 PWINO TSNO=
KTYS 080853Z 00000KT 9SM CLR 24/19 A3006 RMK AO2 SLP164 T02390189
     55003=
KTRI 080853Z 00000KT 6SM BR CLR 21/19 A3010 RMK AO2 SLP170
     T02110189 55001 $=
####018000107####
SAUS70 KWBC 080800 RRM
METAR
KMYP 080756Z AUTO 06009KT M1/4SM +SN OVC001 03/03 A3075 RMK
     AO2=
####018001798####
SAUS70 KWBC 080900 RRE
METAR
KHND 080856Z AUTO 20008KT 10SM CLR 27/M03 A2988 RMK AO2 53005
     T02661027 SLP059=
KHPN 080856Z 00000KT 2 1/2SM BR FEW110 23/21 A3003 RMK AO2 SLP160
     T02330211 57000=
KHWV 080856Z AUTO 00000KT 5SM BR SCT004 BKN033 24/23 A3004 RMK AO2
     SLP169 T02390233 51002=
KHYA 080856Z AUTO 15003KT 6SM BR OVC001 21/21 A3007 RMK AO2 SLP184
     T02110211 51002=
KIGX 080856Z AUTO 29004KT 7SM CLR 24/18 A2997 RMK AO2 SLP141
     T02390183 58006 $=
KISP 080856Z 14005KT 4SM BR SCT005 BKN060 BKN100 OVC130 24/22
     A3002 RMK AO2 RAB06E16 SLP162 P0000 60000 T02440222 53001=
KITH 080856Z AUTO 00000KT 4SM BR CLR 19/18 A3010 RMK AO2 50000
     T01940183 SLP182=
KIWA 080856Z AUTO 05005KT 10SM CLR 31/04 A2979 RMK AO2=
KJMS 080856Z AUTO 23003KT 10SM CLR 13/13 A3009 RMK AO2 SLP187
     T01330133 53001=
KJXN 080856Z 00000KT 7SM CLR 21/21 A3004 RMK AO2 SLP166 T02110206
     56007=
KLAS 080856Z 22010KT 10SM CLR 29/M05 A2980 RMK AO2 SLP060
     T02891050 52005=
KLCK 080855Z AUTO 00000KT 5SM BR CLR 23/21 A3006 RMK AO2
     T02260210=
KLNR 080856Z AUTO 28003KT 10SM CLR 21/19 A3001 RMK AO2 SLP151
     60001 T02060189 56010=
KM19 080856Z AUTO 20005KT 10SM CLR 24/23 A3005 RMK AO2 50001
     T02440233 SLP174=
KMDT 080856Z 00000KT 6SM HZ CLR 26/21 A3000 RMK AO2 SLP157
     T02560206 53001=
KMQY 080856Z AUTO 00000KT 10SM CLR 24/22 A3007 RMK AO2 56004
     T02380222 SLP173=
KMRH 080856Z AUTO 05005KT 5SM HZ CLR 27/23 A2990 RMK AO2 SLP126
     T02670233 55004 TSNO=
KMWO 080855Z AUTO 00000KT 3SM BR CLR 20/20 A3008 RMK AO2=
KRDM 080856Z AUTO 18003KT 10SM CLR 12/03 A3006 RMK AO2 SLP153
     T01220033 53010 $=
KSBP 080856Z AUTO 29004KT 10SM OVC009 13/11 A2991 RMK AO2 SLP127
     T01330111 56006 $=
####018000155####
SAUS70 KWBC 070900 RRN
METAR
KVTP 080900Z AUTO 08009G15KT 1/4SM OVC001 06/05 A3056 RMK AO2=
KCGS 080900Z AUTO 00000KT 7SM CLR 26/23 A2999 RMK AO1=
####018000298####
SAAF32 KWBC 080800 RRC
METAR
FEFT 080800Z 32004KT 9999 FEW005 BKN150 24/21 Q1017=
FGBT 080800Z 18004KT 8000 BKN013 OVC130 26/24 Q1015 NOSIG=
FKKR 080800Z 00000KT 9999 TSRA SCT003 SCT016 FEW020 OVC120 22/21
     Q1014 TEMPO BKN006=
FOON 080800Z 18004KT 6000 SCT010 BKN150 23/21 Q1018=
####018000075####
SAAL31 KWBC 080800 RRD
METAR
DAUG 080800Z 00000KT CAVOK 32/17 Q1018=
####018000095####
SAAW31 KWBC 080830 RRB
METAR
OLBA 080850Z 23007KT 200V280 8000 FEW080 28/18 Q1011 NOSIG=
####018000199####
SAAW34 KWBC 080845 RRA
METAR
OPKC 080900Z 12012KTS 9000 SCT020 SCT030 TCU 35/24 Q.1003 TEMPO NE
     25KTS OR MORE TSRA FEW025 CB=
OPPS 080900Z 05012KT 6000 HZ FEW040 FEW100 38/24 Q1005.2=
####018000123####
SAUS41 KAKQ 080857
MTRNXX
METAR KNXX 080856Z AUTO 00000KT 5SM HZ CLR 24/20 A3003 RMK AO2 
SLP172 T02390200 53001 $
####018000114####
SAUS42 KCAE 080857
MTRCAE
METAR KCAE 080856Z 25003KT 10SM CLR 23/19 A2998 RMK AO2 SLP147 
T02330189 57006
####018000123####
SAUS41 KBUF 080857
MTRROC
METAR KROC 080854Z 21005KT 8SM FEW070 BKN100 23/20 A3004 RMK AO2 
SLP170 T02280200 56005
####018000361####
SABX31 KWBC 080850 RRA
METAR
EBAW 080850Z 24006KT 170V280 CAVOK 26/12 Q1019 NOSIG=
EBBR 080850Z 25007KT 210V270 CAVOK 27/10 Q1020 NOSIG=
EBCI 080850Z 20007KT 160V250 CAVOK 27/11 Q1020 NOSIG=
EBLG 080850Z 22006KT 180V270 CAVOK 27/09 Q1020 NOSIG=
EBOS 080850Z 28007KT 250V310 CAVOK 20/16 Q1020 NOSIG=
ELLX 080850Z VRB02KT CAVOK 25/10 Q1021 NOSIG=
####018000088####
SPCN31 KWBC 080858
SPECI
CYMH 080855Z AUTO 16003KT 9SM BKN004 OVC032 07/06 A3010=
####018000080####
SPPA41 KWBC 080858
SPECI
PGUA 080852Z AUTO 09014KT 10SM BKN017 27/ A2989=
####018000080####
SPPA41 KWBC 080858
SPECI
PGUA 080854Z AUTO 09014KT 10SM SCT017 27/ A2989=
####018000355####
SAEM31 KWBC 080830 RRC
METAR
LOWG 080850Z VRB04KT 9999 FEW060 22/09 Q1023 NOSIG=
LOWI 080850Z VRB01KT CAVOK 21/12 Q1022 NOSIG=
LOWK 080850Z VRB03KT 9999 FEW060 21/11 Q1024 NOSIG=
LOWL 080850Z 12004KT 050V170 CAVOK 20/10 Q1024 NOSIG=
LOWS 080850Z VRB02KT CAVOK 22/08 Q1023 NOSIG=
LOWW 080850Z 35005KT 310V050 9999 FEW040 21/09 Q1023 NOSIG=
####018000117####
SPJP42 KWBC 080858
SPECI
RJFZ 080851Z VRB01KT 8000 FEW030 BKN045 OVC230 27/20 Q1007 RMK
1CU030 5SC045 A2976=
####018000727####
SAEN31 KWBC 080850 RRA
METAR
EFIV 080850Z AUTO 16004KT 100V240 CAVOK 17/11 Q1016=
EFKE 080850Z AUTO 21004KT 160V260 9999 BKN024 BKN034 19/13
     Q1016=
ENBO 080850Z 01009KT 320V040 9999 FEW040 BKN100 17/09 Q1010
     NOSIG=
ENBR 080850Z 19011KT 9999 FEW015 SCT047 BKN080 16/12 Q1012
     NOSIG=
ENCN 080850Z 20008KT 5000 BR BKN003 16/15 Q1015=
ENHD 080850Z 20010KT 9999 FEW008 16/12 Q1013=
ENKR 080850Z 18005KT 9999 BKN015 12/09 Q1017=
ENSB 080850Z 28006KT 9999 FEW015 SCT035 BKN060 09/06 Q1008
     NOSIG=
ENTC 080850Z VRB02KT 9999 BKN065 16/08 Q1011 NOSIG=
ENVA 080850Z 19007KT 140V250 9999 FEW050 SCT160 21/11 Q1009
     NOSIG=
ENZV 080850Z 19010KT 9999 FEW020 SCT180 18/12 Q1013 NOSIG=
####018000115####
SAEN31 KWBC 080820 RRB
METAR
ENGM 080842Z 22007KT 9999 FEW011 SCT014 BKN018 16/14 Q1015 TEMPO
     BKN012=
####018000069####
SABZ24 SBUG 080900
METAR SBUG 080900Z 14002KT CAVOK 06/05 Q1020 =
####018000129####
SAIY31 KWBC 080750 RRD
METAR
LIBR 080845Z /////KT CAVOK 25/15 Q1017 NOSIG=
LIEE 080845Z 16005KT CAVOK 27/17 Q1019 NOSIG=
####018000274####
SAIY32 KWBC 080750 RRC
METAR
LIPH 080845Z 01002KT 9999 SCT035 BKN070 24/18 Q1022=
LIPR 080845Z 12006KT CAVOK 27/16 Q1021=
LIPX 080845Z 10007KT 9999 SCT080 27/14 Q1021=
LIRA 080845Z 27003KT 9999 SCT018 28/21 Q1019=
LIRP 080845Z 10009KT CAVOK 28/15 Q1019 NOSIG=
####018000387####
SAIY32 KWBC 080850 RRA
METAR
LIPB 080850Z 16008KT 9999 FEW060 26/12 Q1022=
LIPE 080850Z 12007KT 090V160 CAVOK 27/15 Q1021=
LIPK 080850Z VRB03KT CAVOK 26/14 Q1021=
LIPQ 080850Z VRB02KT 9999 FEW030 BKN050 25/14 Q1023=
LIPZ 080850Z 13007KT 9999 SCT050 SCT070 26/16 Q1022=
LIRF 080850Z 20009KT 150V230 9999 SCT020 29/18 Q1019 NOSIG=
LIRQ 080850Z VRB03KT CAVOK 33/15 Q1020=
####018000539####
SAIY31 KWBC 080850 RRA
METAR
LIBD 080850Z 36011KT 9999 FEW030 25/12 Q1020=
LICC 080850Z 09005KT CAVOK 29/20 Q1018=
LICJ 080850Z 04015KT CAVOK 27/22 Q1018=
LIEA 080850Z 03004KT 300V110 CAVOK 29/21 Q1019=
LIEO 080850Z 03007KT 350V070 9999 FEW030 30/15 Q1020=
LIMC 080850Z VRB03KT 9999 SCT050 BKN080 25/14 Q1022 NOSIG=
LIME 080850Z 11005KT 060V180 9999 SCT055 25/15 Q1023=
LIMF 080850Z 08003KT 9999 SCT030 SCT050 23/16 Q1023=
LIMJ 080850Z 08006KT CAVOK 29/22 Q1020=
LIML 080850Z 11007KT 9999 FEW080 26/17 Q1022 NOSIG=
####018000094####
SAIY41 KWBC 080850 RRA
METAR
LIMC 080850Z VRB03KT 9999 SCT050 BKN080 25/14 Q1022 NOSIG=
####018000112####
SPPA31 KWBC 080858
SPECI
PGUA 080854Z AUTO 09014KT 10SM SCT017 27/ A2989 RMK AO2 SLP102
VISNO RWY24L $=
####018000124####
SPPA31 KWBC 080858
SPECI
PGUA 080852Z AUTO 09014KT 10SM BKN017 27/ A2989 RMK AO2 CIG
017V021 SLP102 VISNO RWY24L $=
####018000081####
SAIY43 KWBC 080750 RRE
METAR
LIPX 080845Z 10007KT 9999 SCT080 27/14 Q1021=
####018000087####
SAMM31 KWBC 080830 RRB
METAR
LCRA 080850Z 22010KT 9999 FEW040 28/20 Q1008 NOSIG=
####018000461####
SAMX31 KWBC 080845 RRB
METAR
MMGL 080851Z 00000KT 10SM OVC080 19/17 A3000 RMK SLP024 56012 901
     60156 8/07/ RAE05=
MMMD 080848Z 11005KT 7SM BKN070 22/22 A2982 RMK SLP093 57005 911
     8/060=
MMMZ 080847Z 00000KT 10SM SCT070 OVC200 26/22 A2976 RMK SLP078
     57007 900 8/077=
MMTP 080840Z 00000KT 10SM BKN020 BKN100 25/22 A2988 RMK 8/170=
MMUN 080843Z 12005KT 6SM SCT015 SCT090 BKN300 28/24 A2986 RMK
     SLP111 57017 911 8/538 HZY=
####018000278####
SAMX41 KWBC 080845 RRA
METAR
MMCL 080841Z 00000KT 10SM SCT030 BKN100 27/21 A2979 RMK 8/570=
MMGL 080851Z 00000KT 10SM OVC080 19/17 A3000 RMK SLP024 56012 901
     60156 8/07/ RAE05=
MMHO 080847Z 00000KT 10SM BKN080 27/13 A2979 RMK SLP079 54000 916
     8/050 HZY=
####018000310####
SAMX42 KWBC 080845 RRA
METAR
MMSP 080845Z 00000KT 8SM SCT010 SCT020 BKN080 17/17 A3014 RMK
     SLP053 57011 913 8/530 HZY MSGTX MMZC=
MMTJ 080841Z 00000KT 5SM OVC014 16/14 A2994 RMK SLP142 57002 910
     8/5// HZY=
MMZC 080847Z 14005KT 8SM BKN020 BKN070 16/12 A3017 RMK 8/760 OCNL
     DROPS=
####018000636####
SANO41 KWBC 080850 RRA
METAR
ENAL 080850Z 17008KT 9999 SCT055 SCT085 19/07 Q1009=
ENAN 080850Z 15007KT 9999 FEW045 18/09 Q1010 NOSIG=
ENAT 080850Z 13007KT 100V170 9999 FEW040 SCT080 19/10 Q1013=
ENBL 080850Z 22010KT 9999 SCT035 SCT070 15/08 Q1010=
ENDU 080850Z 10004KT 020V160 9999 FEW050 SCT080 20/08 Q1011
     NOSIG=
ENEV 080850Z 12007KT CAVOK 19/06 Q1011=
ENFL 080850Z 18018KT 9999 FEW015 SCT060 16/11 Q1010=
ENHV 080850Z 14005KT 110V190 CAVOK 13/08 Q1014=
ENKB 080850Z 08003KT 040V130 9999 FEW032 SCT070 16/11 Q1009=
ENLK 080850Z 23006KT CAVOK 18/11 Q1010=
ENMH 080850Z 15007KT 9999 SCT015 13/09 Q1016=
####018000826####
SANO42 KWBC 080850 RRA
METAR
ENML 080850Z 09005KT 9999 FEW050 SCT060 17/13 Q1009=
ENMS 080850Z 14005KT 9999 FEW050 22/10 Q1009=
ENNA 080850Z 16014KT 9999 FEW040 19/09 Q1014=
ENNK 080850Z VRB02KT 9999 BKN060 18/10 Q1011=
ENNM 080850Z 24004KT 200V270 CAVOK 18/11 Q1009=
ENOL 080850Z 31011KT 9999 FEW025 SCT090 18/13 Q1009 NOSIG=
ENRM 080850Z 03005KT 340V080 CAVOK 18/09 Q1010=
ENRO 080850Z 20009KT 150V230 9999 SCT030 BKN110 17/08 Q1011=
ENRS 080850Z NIL=
ENRY 080850Z 20010KT 160V230 4000 SHRA FEW004 SCT007 BKN015 16/15
     Q1016 TEMPO 7000 -RA BKN005=
ENSK 080850Z 14006KT CAVOK 17/09 Q1010=
ENSO 080850Z 18008KT 9999 FEW015 SCT070 17/12 Q1012=
ENST 080850Z VRB02KT CAVOK 17/10 Q1010=
ENTO 080850Z 15007KT 9999 -DZ FEW010 SCT025 16/15 Q1016=
ENVD 080850Z VRB02KT 9999 BKN023 12/08 Q1017=
####018000424####
SANL31 KWBC 080850 RRA
METAR
EHDL 080855Z AUTO 22008KT 9999NDV NCD 28/13 Q1019 BLU=
EHGR 080855Z AUTO 28005KT 9999NDV FEW140 27/13 Q1019 BLU BLU=
EHLW 080855Z AUTO 23008KT 9999NDV FEW025 OVC110 23/17 Q1018 BLU
     BLU=
EHVK 080855Z AUTO 23007KT 9999NDV NCD 28/12 Q1019 BLU=
EHVL 080855Z AUTO 24012KT 9999NDV SCT047 OVC053 19/15 Q1018
     BLU=
EHWO 080855Z AUTO 27005KT 9999NDV NCD 25/12 Q1019 BLU BLU=
####018000162####
SAUK31 KWBC 080850 CCA
METAR
EGCC 080850Z 21010KT 9999 FEW021 17/12 Q1017 NOSIG=
EGLL 080850Z 30006KT 9999 FEW005 BKN011 17/15 Q1019 BECMG
     SCT040=
####018000081####
SAUK32 KWBC 080850 RRA
METAR
EGPB 080850Z 19016KT 9999 FEW012 14/11 Q1006=
####018000392####
SAUK42 KWBC 080850 RRA
METAR
EGOS 080850Z 23010KT 9999 FEW022 BKN100 16/10 Q1017 BLU NOSIG=
EGOV 080850Z 20014KT 9999 FEW013 SCT160 BKN220 16/13 Q1016 BLU
     NOSIG=
EGQK 080850Z 23018KT 9999 -SHRA FEW025 SCT030 BKN050 16/07 Q1008
     BLU NOSIG=
EGQL 080850Z 24015KT 9999 FEW023 BKN060 16/09 Q1012 BLU NOSIG=
EGQS 080850Z 23018KT 9999 FEW030 SCT050 18/07 Q1008 BLU NOSIG=
####018000285####
SAUK41 KWBC 080850 RRA
METAR
EGDL 080850Z 22004KT 9999 FEW014 BKN100 BKN150 16/13 Q1019 BLU
     NOSIG=
EGDM 080850Z 22002KT 9999 FEW012 SCT025 BKN130 17/13 Q1019 BLU
     TEMPO SCT014 GRN=
EGDR 080850Z 22005KT 9999 FEW020 SCT120 17/13 Q1018 BLU TEMPO
     SCT020 WHT=
####018000193####
SAXX99 KWBC 080800 RRX
METAR
FEFG 080800Z /////KT 9999 TSRA FEW033CB OVC140 20/20 Q////=
MMLO 080848Z 00000KT 6SM -DZ BKN025 BKN070 18/18 A3009 RMK SLP057
     57014 903 60165 8/77/=
####018000125####
SAUS41 KAKQ 080858
MTRNFE
METAR KNFE 080856Z AUTO 00000KT 1/2SM HZ CLR 26/22 A2995 RMK AO2 
SLP143 T02560222 56003 $
####018000110####
SAUS43 KUNR 080858
MTR2WX
METAR K2WX 080856Z AUTO 27005KT 12/08 A3015 RMK AO1 SLP201 T01220083 
58000
####018000121####
SAUS46 KLOX 080858
MTR9L2
METAR K9L2 080856Z AUTO 20007KT 10SM CLR 19/04 A2987 RMK AO2 SLP093 
T01940039 51002 $
####018000124####
SAUS46 KPDT 080858
MTRMEH
METAR KMEH 080856Z AUTO 00000KT 10SM CLR 07/06 A3011 RMK AO2 SLP178 
T00720061 52002 TSNO
####018000147####
SAUS46 KLOX 080858
MTRNTD
METAR KNTD 080856Z AUTO 28008KT 10SM OVC013 15/13 A2990 RMK AO2 
SLP125 6//// T01500128 58002 TSNO PNO VISNO N $
####018000133####
SAUS45 KPUB 080858
MTRSPD
METAR KSPD 080856Z AUTO 33003KT 16/14 A3027 RMK AO2 SLP195 P0003 
60015 T01560144 56006 PWINO TSNO
####018000127####
SAUS43 KMQT 080858
MTRP53
METAR KP53 080856Z AUTO 33005KT 19/18 A2997 RMK AO2 SLP147 60055 
T01890178 55003 PWINO TSNO
####018000127####
SAUS46 KSTO 080858
MTRNUQ
METAR KNUQ 080856Z AUTO 03007KT 10SM OVC013 16/12 A2993 RMK AO2 
SLP137 T01560122 50002 TSNO
####018000124####
SAUS46 KMTR 080858
MTRMHS
METAR KMHS 080856Z AUTO 00000KT 10SM CLR 14/07 A3000 RMK AO2 SLP138 
T01440072 50001 TSNO
####018000121####
SAUS43 KDDC 080857
MTRP28
METAR KP28 080856Z AUTO 02006KT 22/20 A3010 RMK AO2 SLP178 T02170200 
53002 PWINO TSNO
####018000124####
SAUS46 KLOX 080858
MTRNID
METAR KNID 080856Z AUTO 13005KT FEW090 25/06 A2983 RMK AO2 SLP077 
T02500056 53004 TSNO $
####018000124####
SAUS46 KMTR 080858
MTRBAN
METAR KBAN 080856Z AUTO 00000KT 10SM CLR 08/01 A3019 RMK AO2 SLP123 
T00830011 52002 TSNO
####018000121####
SAUS45 KTFX 080857
MTRGFA
METAR KGFA 080856Z AUTO 16003KT 10SM CLR 10/07 A3021 RMK AO2 SLP248 
T01000072 50003 $
####018000116####
SAUS46 KPQR 080857
MTRNUW
METAR KNUW 080856Z 30003KT 10SM CLR 16/11 A2996 RMK AO2 SLP150 
T01560111 51007 $
####018000121####
SAUS43 KEAX 080857
MTRCDJ
METAR KCDJ 080856Z AUTO 00000KT 21/21 A3006 RMK AO2 SLP168 T02110206 
56004 PWINO TSNO
####018000121####
SAUS43 KABR 080858
MTR8D3
METAR K8D3 080856Z AUTO 26008KT 18/14 A3010 RMK AO2 SLP177 T01830144 
51003 PWINO TSNO
####018000117####
SAUS45 KVEF 080858
MTRINS
METAR KINS 080856Z 22004KT 10SM CLR 22/M11 A2992 RMK AO2 SLP074 
T02171106 53010 $
####018000126####
SAUS43 KFSD 080858
MTRFSD
METAR KFSD 080856Z 00000KT 10SM CLR 16/14 A3015 RMK AO2 SLP207 BKN 
ABV 120 T01560139 50003
####018000127####
SAUS46 KLOX 080857
MTRNFG
METAR KNFG 080856Z AUTO 00000KT 10SM OVC015 16/13 A2990 RMK AO2 
SLP124 T01610133 58005 TSNO
####018000119####
SAUS45 KBOI 080857
MTRLWS
METAR KLWS 080856Z AUTO 14004KT 10SM CLR 17/05 A3002 RMK AO2 SLP154 
T01720050 53010
####018000125####
SPCN46 CWAO 080857
SPECI CYSC 080857Z AUTO VRB02KT 3SM BR BKN071 OVC091 21/20 A3003 RMK
 SLP167 DENSITY ALT 1500FT=

####018000117####
SAUS46 KLOX 080857
MTRNXP
METAR KNXP 080856Z AUTO 30008KT CLR 26/M01 A2990 RMK AO2 SLP085 
T02561006 53007 $
####018000126####
SAUS46 KSGX 080858
MTRNXF
METAR KNXF 080856Z AUTO 30006KT 7SM OVC013 17/13 A2990 RMK AO2 
SLP210 T01670133 58006 TSNO
####018000106####
SAAM31 FCBB 080800 RRB
METAR FCPP 080800Z 14004KT 4000 BR FEW010 BKN023 23/21 Q1015 BECMG
6000 NSW=
####018000103####
SPUS53 KWBC 080858
SPECI
KJLN 080855Z 13007KT 1 3/4SM +RA BR SCT005 BKN014 OVC026 23/23
A3004=
####018000121####
SAUS44 KMRX 080858
MTRNMM
METAR KNMM 080856Z AUTO 00000KT 10SM CLR 23/21 A3004 RMK AO2 SLP177 
T02280211 56005 $
####018000120####
SAUS42 KMLB 080858 COR
MTRDAB
METAR KDAB 080853Z 00000KT 10SM CLR 21/19 A2999 RMK AO2 SLP154 
T02060194 56008 $
####018000125####
SAUS46 KPQR 080857
MTRNFL
METAR KNFL 080856Z AUTO 36004KT 10SM CLR 19/M01 A2997 RMK AO2 SLP121 
T01891006 53006 TSNO
####018000123####
SAUS44 KMEG 080858 COR
MTRTUP
METAR KTUP 080853Z AUTO 00000KT 10SM CLR 24/22 A3005 RMK AO2 SLP172 
T02440217 55001
####018001204####
SAXX70 KAWN 080900 RRC
METAR KQAD 080855Z AUTO VRB06KT 3700 HZ CLR 43/04 A2958 RMK AO2 SLP014
      T04340037 54000 $=
METAR KQAQ 080855Z 33008G16KT 8000 HZ CLR 44/07 A2965 RMK SLP035 PA
      +375 DA +3678 55007=
METAR KQAY 080855Z AUTO 36014G21KT 9999 CLR 47/M02 A2956 RMK AO2 SLP006
      T04671021 58008 $=
METAR KQCQ 080855Z 32024G39KT 9999 CLR 46/M03 A2957 RMK SLP010 51002=
METAR KQDP 080855Z AUTO VRB03KT 7SM CLR 36/10 A2994 RMK AO2 SLP031
      T03560100 57024 $=
METAR KQGX 080855Z 20006KT 8000 HZ FEW220 43/20 A2954 RMK AO2A SLP002
      58011=
METAR KQIU 080855Z AUTO 12007G12KT 9999 CLR 29/10 A3018 RMK AO2 LTG
      DSNT SE SLP096=
METAR KQL5 080855Z 09006KT 9999 FEW150 38/15 A2966 RMK AO2A SLP997
      WND DATA ESTMD ALSTG/SLP ESTMD 57029=
METAR KQTI 080855Z AUTO VRB04KT 9999 FEW180 42/00 A2969 RMK AO2 SLP028
      T04230004 57006 $=
METAR KQTZ 080855Z 32009G18KT 9000 HZ CLR 44/04 A2963 RMK SLP027 QNH1003MB
      ALSTG/SLP ESTMD WND DATA ESTMD=
METAR KQXR 080856Z AUTO 03006KT 8000 CLR 47/ A2951 RMK AO2 SLP990 T0471
      54001 $=
METAR KQAJ 080858Z 32008KT 9999 CLR 39/00 A2973 RMK SLP052 WND DATA
      ESTMD ALSTG/SLP ESTMD 58003=
####018000075####
SAMP31 LMMM 080900 RRB
METAR HLLB 080850Z 
32018KT CAVOK 30/16 Q1016=
####018000074####
SAMP31 LMMM 080900 RRB
METAR HLLB 080850Z
32018KT CAVOK 30/16 Q1016=
####018000103####
SPUS73 KWBC 080858
SPECI
KJLN 080855Z 13007KT 1 3/4SM +RA BR SCT005 BKN014 OVC026 23/23
A3004=
####018000120####
SAHW31 KMSC 080857
METAR PMDY 080856Z AUTO 00000KT 10SM CLR 25/20 A3012 RMK AO2 TSNO 
    51006 T02500200 SLP506=
####018001749####
SAUS20 KNKA 080857
METAR K1P1 080855Z AUTO 00000KT 1/4SM FG BKN005 21/20 A3006 RMK AO2
      T02140203=
METAR KBIX 080855Z AUTO 07003KT 10SM CLR 25/25 A3001 RMK AO2 SLP163
      T02540251 55007=
METAR KBVU 080855Z AUTO 32004KT 10SM CLR 26/00 A2985 RMK AO2 =
METAR KE80 080855Z AUTO 26008KT 10SM CLR 19/10 A3023 RMK AO2 
     T01910103=
METAR KEDC 080855Z AUTO 09005KT BKN012 OVC017 25/25 A2996 RMK AO2 
     =
METAR KEIK 080855Z AUTO 01004KT 7SM CLR 12/11 A3031 RMK AO2=
METAR KEOE 080855Z AUTO 00000KT 10SM CLR 22/20 A3003 RMK AO2=
METAR KFMH 080855Z AUTO 17007KT 7SM OVC003 21/20 A3008 RMK AO2 =
METAR KIFP 080855Z AUTO 08003KT 10SM CLR 30/M01 A2972 RMK AO2 =
METAR KLFI 080855Z 11005KT 10SM FEW008 SCT100 BKN150 26/23 A2996 RMK
      AO2A SLP145 T02580234 56004 $=
METAR KLUF 080855Z 19005KT 10SM CLR 31/03 A2976 RMK AO2A SLP044 T03110032
      53009 $=
METAR KMAN 080855Z AUTO 13003KT 10SM CLR 14/08 A3004 RMK AO1 =
METAR KMCF 080855Z AUTO 05004KT 10SM CLR 23/23 A2998 RMK AO2 SLP153
      T02330226 58012=
METAR KMXF 080855Z AUTO 00000KT 10SM CLR 25/24 A3001 RMK AO2 SLP161
      T02540241 55005=
METAR KPVF 080855Z AUTO 00000KT 10SM CLR 22/12 A2994 RMK AO1 =
METAR KRBW 080855Z AUTO 27004KT 10SM CLR 23/20 A2997 RMK AO2=
METAR KRCM 080855Z AUTO 00000KT 10SM SCT001 BKN008 OVC060 22/22 
     A3004 RMK AO2=
METAR KSGJ 080858Z AUTO 25004KT 10SM CLR 22/21 A3000 RMK AO2 SLP157 
    T02170206 58009=
METAR KSNC 080855Z AUTO 00000KT M1/4SM  FG OVC001 22/ A3006 RMK AO2
      =
METAR KTME 080855Z AUTO 05005KT 5SM 25/25 A2992 RMK AO1 =
METAR KUOX 080855Z AUTO 00000KT 10SM CLR 22/20 A3008 RMK AO2 =
METAR KWJF 080856Z 25007KT 10SM CLR 21/02 A2988 RMK AO2 SLP096 
    T02110022 58002=
####018000119####
SAUS42 KCHS 080858
MTRNBC
METAR KNBC 080856Z AUTO 24003KT 10SM CLR 23/19 A2997 RMK AO2 SLP149 
T02330189 56008
####018000094####
SPCN51 CWAO 080857
SPECI CWZZ 080857Z AUTO ///// 1/8SM BKN023 OVC038 OVC069 11/ A2980=

####018000085####
SAUK33 EGGY 080850 RRB
METAR EGNS 080850Z 22010KT 9999 FEW025 17/11 Q1015 NOSIG=
####018000148####
SASW39 LSSW 080850 RRA
METAR LSMA 080850Z VRB02KT CAVOK 23/14 Q1022 RMK BLU=
METAR LSMP 080850Z AUTO VRB01KT 9999NDV NCD 24/12 Q1022 RMK BLU=
####018000295####
SANL31 EHDB 080855
METAR EHAM 080855Z 24009KT 200V280 CAVOK 24/15 Q1019 NOSIG=
METAR EHBK 080855Z AUTO 21006KT 170V270 9999NDV NCD 28/12 Q1019
NOSIG=
METAR EHGG 080855Z AUTO 24009KT 210V280 9999NDV NSC 26/13 Q1018
NOSIG=
METAR EHRD 080855Z 25005KT 200V300 CAVOK 24/14 Q1019 NOSIG=
####018000103####
SPUS81 KWBC 080858
SPECI
KJLN 080855Z 13007KT 1 3/4SM +RA BR SCT005 BKN014 OVC026 23/23
A3004=
####018000123####
SAUS46 KMFR 080858
MTRSXT
METAR KSXT 080856Z AUTO 36006KT 9SM CLR 19/11 A3003 RMK AO2 SLP101 
T01890106 50003 TSNO
####018000110####
SAUS41 KCAR 080857
MTRGNR
METAR KGNR 080856Z AUTO 13003KT 19/19 A3007 RMK AO1 SLP177 T01890189 
53003
####018000138####
SAUS45 KLKN 080858
MTRWMC
METAR KWMC 080856Z AUTO 05015KT 10SM CLR 21/M06 A3004 RMK AO2 PK WND 
05027/0800 SLP118 T02061056 52005
####018000129####
SAUS44 KLIX 080858 COR
MTRBTR
METAR KBTR 080853Z 07003KT 7SM FEW013 SCT200 24/23 A2999 RMK AO2 
SLP155 T02390228 56004 $
####018000601####
SASA KAWN 080900
METAR SBAR 080900Z 23004KT CAVOK 22/22 Q1016=
METAR SBFZ 080900Z 15006KT 9999 SCT017 BKN100 24/20 Q1014=
METAR SBMN 080900Z 04006KT 9999 FEW010 BKN100 26/23 Q1011=
METAR SBRB 080900Z 00000KT CAVOK 23/23 Q1011=
METAR SBSJ 080900Z 00000KT 5000 BR SCT010 12/11 Q1022=
METAR SBSV 080900Z 28003KT 9999 SCT017 SCT070 21/20 Q1017=
METAR SGAS 080900Z 16007KT 9999 BKN010 OVC017 17/15 Q1015=
METAR SGES 080900Z 17004KT CAVOK 16/15 Q1015=
METAR SPIM 080900Z VRB02KT 6000 OVC022 16/14 Q1013 NOSIG RMK PP000=
METAR SVMI 080900Z 02002KT 9999 FEW016 SCT100 25/23 Q1013 NOSIG=
####018001579####
SANA14 KAWN 080900 RRA
METAR KGTB 080855Z AUTO 17006KT 10SM R33/5000V5500FT CLR 22/20 A3003
      RMK AO2 SLP166 T02220203 57004=
METAR KPAM 080855Z AUTO 35005KT 10SM CLR 25/24 A3000 RMK AO2 SLP161
      T02460245 56009=
METAR KSKA 080855Z AUTO 00000KT 10SM CLR 15/08 A3007 RMK AO2 SLP170
      T01510079 53004=
METAR KSKF 080855Z 06008KT 10SM OVC014 26/ A2993 RMK AO2A CIG 013V018
      OVC V BKN SLP124 T0260 56005 $=
METAR KSLI 080855Z AUTO 00000KT 10SM OVC016 16/14 A2991 RMK AO2 SLP130
      T01640137 58002=
METAR KSSC 080855Z AUTO 29008KT 10SM CLR 26/19 A2995 RMK AO2 SLP141
      T02560189 57007 $=
METAR KSZL 080855Z 33003KT 10SM SCT040 BKN049 23/23 A3004 RMK AO2A
      SLP164 P2400 67200 T02340226 56004 $=
METAR KTBN 080855Z AUTO 00000KT 9SM SCT027 BKN100 OVC210 22/ A3006
      RMK AO2 CIG 028 RWY32 SLP162 T0222 55000 $=
METAR KTCM 080855Z AUTO 00000KT 10SM CLR 15/13 A2994 RMK AO2 SLP141
      T01470126 52006=
METAR KTIK 080855Z AUTO 33005KT 10SM BKN016 OVC055 24/23 A3004 RMK
      AO2 CIG 015V021 BKN V SCT SLP158 T02380226 57002 $=
METAR KTTS 080855Z 29001KT 10SM CLR 20/20 A2998 RMK SLP154 55007=
METAR KVAD 080855Z AUTO 00000KT 10SM CLR 21/20 A3001 RMK AO2 SLP162
      T02110198 56008 $=
METAR KVOK 080855Z 31007KT 10SM SCT019 20/20 A3001 RMK AO2A SLP156
      T02030203 55000=
METAR KWRB 080855Z 14004KT 10SM CLR 21/21 A3002 RMK AO2A SLP162 T02110206
      56006=
METAR KWRI 080855Z AUTO 12004KT M1/4SM R18/0500V0600FT R24/0500V0600FT
      FG VV001 23/23 A2999 RMK AO2 SLP157 T02330233 55000 $=
####018000117####
SPNA35 KAWN 080858 RRG
SPECI KBRO 080851Z 34004KT 10SM FEW016 SCT022 27/26 A2977 RMK AO2 RAB08E46
      P0001=
####018000118####
SAUS44 KBMX 080858 COR
MTRMGM
METAR KMGM 080853Z 24004KT 10SM CLR 24/23 A3002 RMK AO2 SLP160 
T02440228 56005
####018000129####
SAUS46 KSGX 080858
MTRNRS
METAR KNRS 080856Z AUTO 30007KT 10SM OVC014 17/13 A2990 RMK AO2 
SLP125 T01720133 58007 TSNO $
####018000124####
SAUS46 KSGX 080858
MTRNJK
METAR KNJK 080856Z AUTO 09003KT 10SM CLR 23/11 A2968 RMK AO2 SLP066 
T02330106 53004 TSNO
####018000126####
SAUS46 KLOX 080858
MTRNLC
METAR KNLC 080856Z AUTO 29007KT 10SM CLR 19/12 A2982 RMK AO2 SLP096 
T01890117 50005 TSNO $
####018000121####
SAUS43 KUNR 080858
MTRD07
METAR KD07 080856Z AUTO 25004KT 16/08 A3019 RMK AO2 SLP214 T01560078 
58000 PWINO TSNO
####018001616####
SAZZ40 KAWN 080900 RRH
METAR BGCO 080850Z 01013KT 9999 VCSH FEW016 SCT061 BKN110 05/01 Q1008=
METAR KBKF 080855Z 16005KT 7SM BKN010 BKN060 14/14 A3033 RMK SLP228
      58005=
METAR KFCS 080855Z AUTO 20008KT 10SM OVC023 14/11 A3038 RMK AO2 DZB0838E0847
      SLP216 P0000 60000 T01400110 50010=
METAR KFRI 080855Z AUTO 33004KT 10SM BKN110 OVC140 22/21 A3009 RMK
      AO2 SLP180 T02160206 53001=
METAR KNYG 080856Z AUTO 31003KT CLR 26/22 A2998 RMK AO2 SLP153 T02560222
      55001=
METAR KPAM 080855Z AUTO 35005KT 10SM CLR 25/24 A3000 RMK AO2 SLP161
      T02460245 56009=
METAR KSGH 080856Z AUTO 00000KT 4SM BR CLR 21/21 A3010 RMK AO2 56005
      T02050205 SLP181=
METAR KSVN 080855Z 00000KT 10SM SKC 22/21 A2997 RMK SLP152 56007 60000=
METAR KSZL 080855Z 33003KT 10SM SCT040 BKN049 23/23 A3004 RMK AO2A
      SLP164 P2400 67200 T02340226 56004 $=
METAR KTTS 080855Z 29001KT 10SM CLR 20/20 A2998 RMK SLP154 55007=
METAR MDPC 080900Z 00000KT 9999 FEW018 24/22 Q1012=
METAR MDPP 080900Z 00000KT 9999 FEW016 22/22 Q1016=
METAR MDSD 080900Z 04004KT 9999 SCT018 24/23 Q1014=
METAR MDST 080900Z 15005KT 9999 FEW016 23/22 Q1014=
METAR MGHT 080900Z 00000KT 9999 OVC012 16/16 QFE 816/2=
METAR MGPB 080900Z 00000KT 9999 TS FEW016 FEW025CB OVC080 24/23 Q1009
      A2980 CB/TS/LTNG N=
METAR MUGM 080856Z 33004KT 9999 CLR 25/22 A2995 RMK SLP140 T02500222
      56004=
METAR ROTM 080858Z 22013G19KT 9999 SCT020 BKN100 BKN180 27/26 A2982
      RMK SLP084 T02670261 57003=
METAR TJSJ 080856Z 00000KT 10SM FEW022 SCT035 27/24 A2998 RMK AO2 SLP150
      T02720244 55000=
####018000078####
SAZB40 FLLS 080901
METAR FLLS 080900Z 07026KT 9999 BKN025 18/08 Q1029=

####018000101####
SAFJ31 NFFN 080900
METAR NFFN 080900Z 12006KT 40KM FEW030 SCT050 22/20 Q1014 NOSIG RMK
RR NIL=
####018000113####
SAUS41 KAKQ 080858
MTRRIC
METAR KRIC 080854Z 00000KT 7SM CLR 25/21 A2998 RMK AO2 SLP153 
T02500206 53002
####018000113####
SAUS41 KRNK 080858
MTRROA
METAR KROA 080854Z 28003KT 7SM CLR 24/18 A3007 RMK AO2 SLP167 
T02440183 53001
####018000060####
SAUS45 KTFX 080858
MTR8S0
METAR K8S0 080755Z 27007KT 
####018001836####
SAEU KAWN 080900 RRI
METAR EDHL 080850Z 14007KT CAVOK 25/15 Q1020 RMK J=
METAR EDLP 080850Z 22006KT 190V260 CAVOK 27/10 Q1020 RMK RWY24 TRL60
      JP ATIS N=
METAR EDLW 080850Z 21009KT 170V240 CAVOK 28/10 Q1020 RMK ATIS L=
METAR EDNY 080850Z 20005KT CAVOK 24/13 Q1022 RMK ATIS L=
METAR EGDL 080850Z 22004KT 9999 FEW014 BKN100 BKN150 16/13 Q1019 BLU
      NOSIG=
METAR EGNS 080850Z 22010KT 9999 FEW025 17/11 Q1015 NOSIG=
METAR EGOP 080850Z 22008KT 9999 FEW025 BKN090 18/14 Q1018 BLU=
METAR EGQK 080850Z 23018KT 9999 -SHRA FEW025 SCT030 BKN050 16/07 Q1008
      BLU NOSIG=
METAR EGVA 080855Z AUTO 26004KT 9999 FEW170 17/13 A3008 RMK AO2 RAB0839E0853DZB0853E0855
      CLDS LWR RWY27 SLP184 P0000 60000 T01650130 50002=
METAR EHAM 080855Z 24009KT 200V280 CAVOK 24/15 Q1019 NOSIG=
METAR EHBK 080855Z AUTO 21006KT 170V270 9999NDV NCD 28/12 Q1019 NOSIG=
METAR EHDL 080855Z AUTO 22008KT 9999NDV NCD 28/13 Q1019 BLU=
METAR EHGG 080855Z AUTO 24009KT 210V280 9999NDV NSC 26/13 Q1018 NOSIG=
METAR EHGR 080855Z AUTO 28005KT 9999NDV FEW140 27/13 Q1019 BLU BLU=
METAR EHKD 080855Z AUTO 24011KT 9999NDV OVC056/// 19/15 Q1019 BLU BLU=
METAR EHLW 080855Z AUTO 23008KT 9999NDV FEW025 OVC110 23/17 Q1018 BLU
      BLU=
METAR EHRD 080855Z 25005KT 200V300 CAVOK 24/14 Q1019 NOSIG=
METAR EHVK 080855Z AUTO 23007KT 9999NDV NCD 28/12 Q1019 BLU=
METAR EHVL 080855Z AUTO 24012KT 9999NDV SCT047 OVC053 19/15 Q1018 BLU=
METAR EHWO 080855Z AUTO 27005KT 9999NDV NCD 25/12 Q1019 BLU BLU=
METAR ETIK 080855Z AUTO 00000KT 9999 CLR 24/10 A3020 RMK AO2 RAB0809E0810DZE0809
      SLP215 P0000 60000 T02440095 50001 $=
METAR GVAC 080900Z 06008KT 9999 SCT014 BKN016 24/19 Q1013 NOSIG=
METAR LOXT 080850Z VRB02KT 50KM FEW050CU 22/11 Q1023 NOSIG RMK FEW=
METAR LQBK 080900Z 02003KT 9999 FEW036 22/10 Q1022 NOSIG=
####018001747####
SAEW KAWN 080900 RRB
METAR EBAW 080850Z 24006KT 170V280 CAVOK 26/12 Q1019 NOSIG=
METAR EBBR 080850Z 25007KT 210V270 CAVOK 27/10 Q1020 NOSIG=
METAR EBCI 080850Z 20007KT 160V250 CAVOK 27/11 Q1020 NOSIG=
METAR EBLG 080850Z 22006KT 180V270 CAVOK 27/09 Q1020 NOSIG=
METAR EBOS 080850Z 28007KT 250V310 CAVOK 20/16 Q1020 NOSIG=
METAR EDNY 080850Z 20005KT CAVOK 24/13 Q1022 RMK ATIS L=
METAR EHAM 080855Z 24009KT 200V280 CAVOK 24/15 Q1019 NOSIG=
METAR EHBK 080855Z AUTO 21006KT 170V270 9999NDV NCD 28/12 Q1019 NOSIG=
METAR EHDL 080855Z AUTO 22008KT 9999NDV NCD 28/13 Q1019 BLU=
METAR EHGG 080855Z AUTO 24009KT 210V280 9999NDV NSC 26/13 Q1018 NOSIG=
METAR EHGR 080855Z AUTO 28005KT 9999NDV FEW140 27/13 Q1019 BLU BLU=
METAR EHLW 080855Z AUTO 23008KT 9999NDV FEW025 OVC110 23/17 Q1018 BLU
      BLU=
METAR EHRD 080855Z 25005KT 200V300 CAVOK 24/14 Q1019 NOSIG=
METAR EHVK 080855Z AUTO 23007KT 9999NDV NCD 28/12 Q1019 BLU=
METAR EHVL 080855Z AUTO 24012KT 9999NDV SCT047 OVC053 19/15 Q1018 BLU=
METAR EHWO 080855Z AUTO 27005KT 9999NDV NCD 25/12 Q1019 BLU BLU=
METAR ELLX 080850Z VRB02KT CAVOK 25/10 Q1021 NOSIG=
METAR ETAD 080855Z AUTO 00000KT 9999 CLR 26/09 A3017 RMK AO2 SLP199
      T02620088 53001 $=
METAR ETAR 080855Z AUTO 05003KT 9999 CLR 25/14 A3014 RMK AO2 SLP200
      T02540145 58002 $=
METAR ETEB 080855Z AUTO 17006KT 9999 CLR 23/10 A3021 RMK AO2 SLP215
      T02280097 50002=
METAR ETIC 080856Z AUTO 00000KT 9999 CLR 22/08 A3022 RMK AO2 SLP222
      T02180079 50001 $=
METAR ETIK 080855Z AUTO 00000KT 9999 CLR 24/10 A3020 RMK AO2 RAB0809E0810DZE0809
      SLP215 P0000 60000 T02440095 50001 $=
METAR ETOU 080855Z AUTO VRB03KT 9999 CLR 25/11 A3016 RMK AO2 SLP208
      T02530113 50002=
####018000129####
SAHW40 PHFO 080858
MTRBKH
METAR PHBK 080856Z AUTO 00000KT 10SM OVC075 26/18 A3003 RMK AO2 
SLP172 T02560178 51012 TSNO $
####018000069####
SABZ18 SBGR 080900
METAR SBGR 080900Z 08003KT CAVOK 11/10 Q1020=
####018000083####
SABZ24 SBFI 080900
METAR SBFI 080900Z 19002KT 8000 FEW020 SCT100 16/13 Q1014 =
####018000130####
SAUS41 KAKQ 080858
MTRNTU
METAR KNTU 080856Z 09003KT 10SM CLR 26/23 A2995 RMK AO2 SLP143 
T02560233 55000 CHINO RWY 05R $
####018000119####
SPCN46 CWAO 080858
SPECI CYKF 080858Z AUTO 00000KT 2 1/4SM BR CLR 19/19 A3005 RMK SLP173
 DENSITY ALT 1600FT=

####018001581####
SAZZ40 KAWN 080900 RRI
METAR KCVS 080855Z 04006KT 10SM FEW200 17/14 A3020 RMK AO2A SLP184
      T01700140 56003 $=
METAR KFMH 080855Z AUTO 17007KT 7SM OVC003 21/20 A3008 RMK AO2=
METAR KHLR 080856Z AUTO 09004KT 10SM FEW027 26/ A2998 RMK AO2 RAB29E38
      SLP143 P0000 60000 T0256 56006 $=
METAR KNBG 080855Z AUTO 00000KT 6SM BR CLR 25/24 A3000 RMK AO2 SLP158
      T02500239 58003 PWINO $=
METAR KNCA 080856Z AUTO 00000KT 10SM CLR 23/21 A2991 RMK AO2 SLP129
      T02330211 55003=
METAR KNGP 080856Z AUTO 11011KT 10SM FEW018 BKN050 28/26 A2980 RMK
      AO2 TSB18E34RAB37E49 SLP092 P0001 60001 T02830261 56016 $=
METAR KNKX 080855Z 34006KT 10SM OVC014 16/13 A2990 RMK AO2 SLP119 T01610133
      58007=
METAR KNQI 080856Z AUTO 01006KT 9SM FEW110 27/25 A2982 RMK AO2 TSB16E38
      SLP094 T02720250 56014 $=
METAR KNYL 080855Z 16004KT 10SM CLR 28/02 A2971 RMK AO2 SLP056 T02830022
      53000=
METAR KPOE 080855Z AUTO 11006KT 10SM CLR 24/22 A3000 RMK AO2 SLP158
      T02440222 55000=
METAR KPSM 080855Z 14006KT 2 1/2SM BR OVC005 22/21 A3005 RMK AO2A SLP179
      T02150207 53003=
METAR KVBG 080855Z AUTO 00000KT 10SM CLR 12/11 A2993 RMK AO2 CIG 006
      RWY12 SLP125 T01220111 57003 TSNO $=
METAR KVPS 080855Z 32001KT 10SM SKC 24/23 A3002 RMK AO2A SLP165 T02380233
      56008=
METAR KWJF 080856Z 25007KT 10SM CLR 21/02 A2988 RMK AO2 SLP096 T02110022
      58002=
METAR LQBK 080900Z 02003KT 9999 FEW036 22/10 Q1022 NOSIG=
METAR PMDY 080856Z AUTO 00000KT 10SM CLR 25/20 A3012 RMK AO2 TSNO 51006
      T02500200 SLP506=
####018000191####
SARW20 HRYR 080900
METAR
HRYR 080900Z 13011KT 9999 SCT030 22/12 Q1023 NOSIG=
HRYG 080900Z 19008KT 9999 SCT025 23/13 Q1022 NOSIG=
HRZA 080900Z 14014KT 9999 SCT023 23/10 Q1023 NOSIG=
####018001672####
SAUS20 KNKA 080858
METAR KMTN 080857Z AUTO 00000KT 7SM CLR 26/23 A3000 RMK AO2=
METAR KMWC 080855Z AUTO 14004KT 7SM -RA OVC090 21/20 A3000 RMK AO2=
METAR KOEO 080855Z AUTO 00000KT 10SM CLR 18/17 A3007 RMK AO2=
METAR KPVB 080853Z AUTO 00000KT 1SM OVC003 20/19 A3003 RMK AO1 
     T02000192=
METAR KRFD 080854Z 17007KT 8SM FEW009 OVC080 22/21 A3001 RMK AO2
     RAE39 SLP158 P0000 60002 T02220211 58014=
METAR KROG 080857Z AUTO 00000KT 10SM FEW025 23/22 A3007 RMK AO2 
    SLP167 T02280217 56003=
METAR KRZN 080854Z AUTO 28003KT 10SM BKN047 18/16 A3006 RMK AO2 
     T01780160=
METAR KSHV 080856Z 11003KT 10SM SCT180 BKN280 24/24 A3001 RMK AO2
     SLP158 T02440239 53003=
SPECI KTCC 080857Z AUTO 01007KT 10SM BKN011 BKN016 OVC120 18/16 
    A3022 RMK AO2=
METAR KTRI 080853Z 00000KT 6SM BR CLR 21/19 A3010 RMK AO2 SLP170
     T02110189 55001 $=
METAR KTYS 080853Z 00000KT 9SM CLR 24/19 A3006 RMK AO2 SLP164
     T02390189 55003=
METAR KUNI 080855Z AUTO 00000KT 5SM HZ CLR 22/17 A3007 RMK AO2 
     T02170171=
METAR KVES 080854Z AUTO 00000KT 5SM BR CLR 20/19 A3007 RMK AO2 
     T02000190=
METAR KW29 080856Z AUTO 00000KT 5SM CLR 23/22 A2999 RMK AO1=
METAR KY63 080900Z AUTO 21004KT 10SM CLR 15/14 A3010 RMK AO2 
     T01490140=
SPECI KZZV 080857Z AUTO 00000KT 3SM BR FEW060 20/19 A3008 RMK AO2=
METAR PACM 080856Z AUTO 33005KT 10SM FEW038 BKN065 12/09 A3009 RMK 
    AO2 TSNO 50007 60037 T01160094 401720066 RAE28 P0007 SLP185 $=
METAR PAGN 080856Z AUTO 00000KT CLR RMK AO2 PWINO TSNO 5//// SLPNO $=
METAR PATQ 080856Z AUTO 26013KT 10SM CLR 09/03 A3004 RMK AO2 TSNO 
    53007 T00940027 401330044 SLP178 $=
####018002943####
SAUS20 KNKA 080858
METAR KABQ 080856Z 08012KT 10SM BKN130 BKN200 20/09 A3025 RMK AO2
     SLP148 T02000094 51001=
METAR KJAX 080856Z 00000KT 9SM CLR 19/19 A2999 RMK AO2 SLP155
     T01940189 58012=
METAR K14Y 080858Z AUTO 00000KT 7SM CLR 15/15 A3010 RMK AO2 
     T01470145=
METAR K2G4 080855Z AUTO 00000KT 10SM SCT070 23/13 A3019 RMK
     AO1=
METAR K2W6 080856Z AUTO 00000KT 4SM CLR 23/23 A3000 RMK AO1=
METAR KAJO 080856Z AUTO 00000KT 5SM BR CLR 13/13 A2991 RMK AO2 50001 
    T01270127 SLP125 $=
METAR KAVP 080854Z AUTO 11003KT 7SM CLR 21/18 A3006 RMK AO2 SLP165
     T02060178 55001 TSNO $=
METAR KBUU 080856Z AUTO 16003KT 7SM -DZ SCT065 SCT075 SCT110 
     21/21 A3000 RMK AO2=
METAR KCBE 080856Z AUTO 00000KT 7SM CLR 21/18 A3010 RMK AO1=
METAR KCGE 080854Z AUTO 00000KT 3SM 25/25 A2999 RMK AO1 SKY
     OBSCURED=
METAR KCHS 080856Z 29007KT 9SM CLR 24/19 A2996 RMK AO2 SLP143
     T02440194 56008=
METAR KCLI 080855Z AUTO 25006KT 5SM BR OVC005 22/21 A2998 RMK AO2=
METAR KCMY 080855Z AUTO 00000KT 10SM CLR 20/19 A3002 RMK AO2 
     T01970189=
METAR KCWA 080855Z AUTO 32006KT 10SM SCT005 19/19 A3001 RMK AO2 
     T01910191=
METAR KDIJ 080856Z AUTO 10007KT 10SM CLR 07/02 A3028 RMK AO2 53004 
    T00720022 SLP186 $=
METAR KFDK 080847Z AUTO 00000KT 5SM BR SCT100 24/22 A3003 RMK
     AO2=
METAR KDMW 080855Z AUTO 00000KT 7SM CLR 26/21 A3004 RMK AO2=
METAR KEFT 080855Z AUTO 22003KT 10SM SCT100 OVC120 21/19 A3001 
     RMK AO2 T02090193=
METAR KEGV 080852Z AUTO 30005KT 10SM SCT013 BKN027 19/19 A3001 
     RMK AO2 T01870188=
METAR KEKQ 080856Z AUTO 00000KT 3SM BR CLR 18/18 A3010 RMK AO2 56005 
    T01830177 SLP187=
METAR KETB 080853Z AUTO 00000KT 5SM -RA SCT050 OVC080 22/21 A3000 
     RMK AO2 60002 T02160207=
METAR KEZS 080855Z AUTO 27006KT 7SM OVC005 23/22 A2998 RMK AO2 
     60003 T02250216=
METAR KFME 080857Z AUTO 00000KT 4SM CLR 20/20 A3002 RMK AO1=
METAR KFWA 080854Z 24004KT 10SM CLR 23/21 A3006 RMK AO2 SLP170
     T02330206 56004=
METAR KGLW 080853Z AUTO 00000KT 7SM CLR 21/20 A3007 RMK AO2 
     T02100196=
METAR KGSO 080854Z 33004KT 8SM FEW090 26/18 A3001 RMK AO2 SLP148
     T02610178 55005=
METAR KHFJ 080855Z AUTO 00000KT 7SM SCT050 SCT055 BKN100 23/22 
     A3002 RMK AO1=
METAR KJVL 080855Z AUTO 24004KT 10SM -DZ SCT070 OVC080 22/20 
     A3000 RMK AO2 P0001 60001 T02210201=
METAR KLNL 080855Z AUTO 27003KT 10SM SCT007 SCT011 OVC027 19/18 
     A3003 RMK AO2 T01880180=
METAR KLRD 080856Z AUTO 03006KT 10SM BKN012 OVC017 27/25 A2989 RMK 
    AO2 58009 T02660250 SLP108 $=
METAR KLUM 080855Z AUTO 29007KT 10SM CLR 19/17 A3004 RMK AO2=
METAR KM89 080856Z AUTO 00000KT 4SM BR OVC002 24/24 A3004 RMK AO2 
    51002 T02440238 SLP184=
METAR KMDZ 080855Z AUTO 00000KT 1/4SM FG OVC001 19/18 A3002 RMK 
     AO2=
METAR KMRJ 080855Z AUTO 00000KT 10SM CLR 21/19 A3002 RMK AO2 
     60001 T02050188=
####018001064####
SAAK41 KNKA 080858
METAR PACM 080856Z AUTO 33005KT 10SM FEW038 BKN065 12/09 A3009 RMK 
    AO2 TSNO 50007 60037 T01160094 401720066 RAE28 P0007 SLP185 $=
METAR PAGN 080856Z AUTO 00000KT CLR RMK AO2 PWINO TSNO 5//// SLPNO $=
METAR PAHC 080856Z AUTO 31011KT 10SM BKN090 14/09 A2997 RMK AO2 TSNO 
    58008 60000 T01380094 401940044 SLP152 $=
METAR PAIG 080856Z AUTO 00000KT 10SM BKN041 OVC050 09/09 A2994 RMK 
    AO2 PWINO TSNO 53001 T00940088 401270077 SLP142 $=
METAR PAMO 080856Z AUTO 33005KT 10SM BKN075 09/09 A3007 RMK AO2 TSNO 
    50001 60000 T00940088 401830061 SLP179 $=
METAR PAOH 080856Z AUTO 00000KT 10SM CLR 10/10 A3020 RMK AO2 TSNO 
    58002 T01000100 SLP229=
METAR PAPM 080856Z AUTO 32006KT RA CLR 09/08 A3000 RMK AO2 TSNO 
    50002 60000 T00940083 P0000 SLP160 $=
METAR PARS 080856Z AUTO 35007KT 5SM HZ BKN065 OVC110 13/09 A3001 RMK 
    AO2 TSNO 58001 60000 T01270088 401830072 RAB12E21 P0000 SLP167 $=
METAR PATQ 080856Z AUTO 26013KT 10SM CLR 09/03 A3004 RMK AO2 TSNO 
    53007 T00940027 401330044 SLP178 $=
####018000128####
SAUS45 KBOU 080858 COR
MTRABH
METAR KABH 080856Z AUTO 21005KT 10SM BKN085 13/12 A3037 RMK AO2 
SLP226 T01330122 50004 $
####018000129####
SAUS41 KAKQ 080858
MTRAKQ
METAR KAKQ 080854Z AUTO 00000KT 4SM HZ BKN120 24/22 A2995 RMK AO2 
SLP142 T02440217 58003 TSNO
####018000069####
SAYE20 OYAT 080900
METAR OYAT 080900Z VRB02KT CAVOK 37/13 Q1001=
####018003715####
SAUS99 KWBC 080859 RRA
METAR
KSGJ 080858Z AUTO 25004KT 10SM CLR 22/21 A3000 RMK AO2 SLP157
     T02170206 58009=
KSNC 080855Z AUTO 00000KT M1/4SM FG OVC001 22/ A3006 RMK AO2=
KTME 080855Z AUTO 05005KT 5SM 25/25 A2992 RMK AO1=
KUOX 080855Z AUTO 00000KT 10SM CLR 22/20 A3008 RMK AO2=
KWJF 080856Z 25007KT 10SM CLR 21/02 A2988 RMK AO2 SLP096 T02110022
     58002=
KTEW 080853Z AUTO 00000KT 7SM CLR 21/20 A3003 RMK AO2=
KCVH 080850Z AUTO 00000KT 10SM OVC010 13/11 A2993 RMK AO1=
KDYT 080854Z AUTO 25005KT 10SM CLR 20/16 A3003 RMK AO2=
KFSO 080858Z AUTO 15003KT 5SM BR CLR 23/22 A3000 RMK AO2=
KFBL 080854Z AUTO 30004KT 10SM CLR 18/16 A3009 RMK AO2=
KLYV 080858Z AUTO 00000KT 10SM CLR 14/13 A3016 RMK AO2=
KEFK 080855Z AUTO 00000KT 4SM BR CLR 20/18 A3006 RMK AO2=
KRRT 080854Z AUTO 24004KT 10SM CLR 14/12 A3000 RMK AO2=
KTOB 080854Z AUTO 00000KT 10SM CLR 18/17 A3008 RMK AO2=
KLXL 080854Z AUTO 00000KT 1SM BR VV007 12/12 A3007 RMK AO2 VIS
     1/2V4=
KEVM 080852Z AUTO 26004KT 10SM CLR 15/13 A3002 RMK AO1=
KELO 080853Z AUTO 00000KT 10SM CLR 13/13 A3002 RMK AO2=
KANE 080855Z AUTO 28004KT 10SM 17/16 A3007 RMK AO2=
KROX 080854Z AUTO 23003KT 10SM CLR 16/13 A3000 RMK AO2=
KSYN 080910Z AUTO 00000KT 10SM CLR 18/16 A3006 RMK AO2
     T01780162=
KVVV 080856Z AUTO 27004KT 10SM CLR 16/14 A3011 RMK AO2=
KROS 080855Z AUTO 27003KT 10SM CLR 16/15 A3007 RMK AO2
     T01550146=
KHCD 080852Z AUTO 00000KT 7SM CLR 14/13 A3010 RMK AO2
     T01380130=
KSGS 080853Z AUTO 31004KT 10SM CLR 20/16 A3006 RMK AO2
     T01950162=
KMJQ 080852Z AUTO 27004KT 7SM CLR 15/14 A3014 RMK AO2=
KHCO 080854Z AUTO 00000KT 10SM CLR 12/12 A3004 RMK AO2=
KLVN 080848Z AUTO 30004KT 10SM CLR 17/17 A3007 RMK AO2=
KPEX 080853Z AUTO 25004KT 7SM CLR 13/13 A3010 RMK AO2
     T01290128=
KJMR 080858Z AUTO 30004KT 10SM CLR 15/13 A3008 RMK AO2=
KJKJ 080854Z AUTO 24004KT 10SM CLR 16/14 A3006 RMK AO2=
KMVE 080854Z AUTO 30004KT 10SM CLR 16/15 A3010 RMK AO2=
KTKC 080853Z AUTO 25005KT 10SM CLR 16/14 A3014 RMK AO2
     T01550138=
KGYL 080854Z AUTO 00000KT 10SM CLR 16/15 A3009 RMK AO2
     T01560147=
KDXX 080854Z AUTO 00000KT 10SM CLR 14/14 A3011 RMK AO2=
KHZX 080851Z AUTO 00000KT 10SM CLR 12/11 A3007 RMK AO2=
KSAZ 080854Z AUTO 00000KT 10SM CLR 14/14 A3008 RMK AO2=
KONA 080850Z AUTO 31005KT 7SM CLR 20/18 A3001 RMK AO2=
KOVL 080853Z AUTO 00000KT 10SM CLR 13/12 A3010 RMK AO2
     T01310117=
KLJF 080852Z AUTO 27003KT 10SM CLR 16/16 A3010 RMK AO2=
KAEL 080851Z AUTO 31003KT 10SM CLR 18/17 A3008 RMK AO2=
K29G 080854Z AUTO 00000KT 7SM SCT060 21/19 A3009 RMK AO2 T02050185
     PWINO=
KMRT 080853Z AUTO 00000KT 4SM CLR 20/19 A3011 RMK AO2
     T02030187=
KIKW 080853Z AUTO 7SM SCT120 22/21 A2999 RMK AO2 T02160205=
KMDS 080845Z AUTO 26005KT 10SM CLR 14/14 A3016 RMK AO2=
KMTN 080857Z AUTO 00000KT 7SM CLR 26/23 A3000 RMK AO2=
KMWC 080855Z AUTO 14004KT 7SM -RA OVC090 21/20 A3000 RMK AO2=
KOEO 080855Z AUTO 00000KT 10SM CLR 18/17 A3007 RMK AO2=
KPVB 080853Z AUTO 00000KT 1SM OVC003 20/19 A3003 RMK AO1
     T02000192=
KRFD 080854Z 17007KT 8SM FEW009 OVC080 22/21 A3001 RMK AO2 RAE39
     SLP158 P0000 60002 T02220211 58014=
KROG 080857Z AUTO 00000KT 10SM FEW025 23/22 A3007 RMK AO2 SLP167
     T02280217 56003=
KRZN 080854Z AUTO 28003KT 10SM BKN047 18/16 A3006 RMK AO2
     T01780160=
KSHV 080856Z 11003KT 10SM SCT180 BKN280 24/24 A3001 RMK AO2 SLP158
     T02440239 53003=
KTRI 080853Z 00000KT 6SM BR CLR 21/19 A3010 RMK AO2 SLP170
     T02110189 55001 $=
KTYS 080853Z 00000KT 9SM CLR 24/19 A3006 RMK AO2 SLP164 T02390189
     55003=
KUNI 080855Z AUTO 00000KT 5SM HZ CLR 22/17 A3007 RMK AO2
     T02170171=
####018000595####
SAUS99 KWBC 080859 RRC
METAR
PAMO 080856Z AUTO 33005KT 10SM BKN075 09/09 A3007 RMK AO2 TSNO
     50001 60000 T00940088 401830061 SLP179 $=
PAOH 080856Z AUTO 00000KT 10SM CLR 10/10 A3020 RMK AO2 TSNO 58002
     T01000100 SLP229=
PAPM 080856Z AUTO 32006KT RA CLR 09/08 A3000 RMK AO2 TSNO 50002
     60000 T00940083 P0000 SLP160 $=
PARS 080856Z AUTO 35007KT 5SM HZ BKN065 OVC110 13/09 A3001 RMK AO2
     TSNO 58001 60000 T01270088 401830072 RAB12E21 P0000 SLP167
     $=
PATQ 080856Z AUTO 26013KT 10SM CLR 09/03 A3004 RMK AO2 TSNO 53007
     T00940027 401330044 SLP178 $=
####018003656####
SAUS99 KWBC 080859 RRB
METAR
KVES 080854Z AUTO 00000KT 5SM BR CLR 20/19 A3007 RMK AO2
     T02000190=
KW29 080856Z AUTO 00000KT 5SM CLR 23/22 A2999 RMK AO1=
KY63 080900Z AUTO 21004KT 10SM CLR 15/14 A3010 RMK AO2
     T01490140=
PACM 080856Z AUTO 33005KT 10SM FEW038 BKN065 12/09 A3009 RMK AO2
     TSNO 50007 60037 T01160094 401720066 RAE28 P0007 SLP185 $=
PAGN 080856Z AUTO 00000KT CLR RMK AO2 PWINO TSNO 5//// SLPNO $=
PATQ 080856Z AUTO 26013KT 10SM CLR 09/03 A3004 RMK AO2 TSNO 53007
     T00940027 401330044 SLP178 $=
KABQ 080856Z 08012KT 10SM BKN130 BKN200 20/09 A3025 RMK AO2 SLP148
     T02000094 51001=
KJAX 080856Z 00000KT 9SM CLR 19/19 A2999 RMK AO2 SLP155 T01940189
     58012=
K14Y 080858Z AUTO 00000KT 7SM CLR 15/15 A3010 RMK AO2
     T01470145=
K2G4 080855Z AUTO 00000KT 10SM SCT070 23/13 A3019 RMK AO1=
K2W6 080856Z AUTO 00000KT 4SM CLR 23/23 A3000 RMK AO1=
KAJO 080856Z AUTO 00000KT 5SM BR CLR 13/13 A2991 RMK AO2 50001
     T01270127 SLP125 $=
KAVP 080854Z AUTO 11003KT 7SM CLR 21/18 A3006 RMK AO2 SLP165
     T02060178 55001 TSNO $=
KBUU 080856Z AUTO 16003KT 7SM -DZ SCT065 SCT075 SCT110 21/21 A3000
     RMK AO2=
KCBE 080856Z AUTO 00000KT 7SM CLR 21/18 A3010 RMK AO1=
KCGE 080854Z AUTO 00000KT 3SM 25/25 A2999 RMK AO1 SKY OBSCURED=
KCHS 080856Z 29007KT 9SM CLR 24/19 A2996 RMK AO2 SLP143 T02440194
     56008=
KCLI 080855Z AUTO 25006KT 5SM BR OVC005 22/21 A2998 RMK AO2=
KCMY 080855Z AUTO 00000KT 10SM CLR 20/19 A3002 RMK AO2
     T01970189=
KCWA 080855Z AUTO 32006KT 10SM SCT005 19/19 A3001 RMK AO2
     T01910191=
KDIJ 080856Z AUTO 10007KT 10SM CLR 07/02 A3028 RMK AO2 53004
     T00720022 SLP186 $=
KFDK 080847Z AUTO 00000KT 5SM BR SCT100 24/22 A3003 RMK AO2=
KDMW 080855Z AUTO 00000KT 7SM CLR 26/21 A3004 RMK AO2=
KEFT 080855Z AUTO 22003KT 10SM SCT100 OVC120 21/19 A3001 RMK AO2
     T02090193=
KEGV 080852Z AUTO 30005KT 10SM SCT013 BKN027 19/19 A3001 RMK AO2
     T01870188=
KEKQ 080856Z AUTO 00000KT 3SM BR CLR 18/18 A3010 RMK AO2 56005
     T01830177 SLP187=
KETB 080853Z AUTO 00000KT 5SM -RA SCT050 OVC080 22/21 A3000 RMK
     AO2 60002 T02160207=
KEZS 080855Z AUTO 27006KT 7SM OVC005 23/22 A2998 RMK AO2 60003
     T02250216=
KFME 080857Z AUTO 00000KT 4SM CLR 20/20 A3002 RMK AO1=
KFWA 080854Z 24004KT 10SM CLR 23/21 A3006 RMK AO2 SLP170 T02330206
     56004=
KGLW 080853Z AUTO 00000KT 7SM CLR 21/20 A3007 RMK AO2
     T02100196=
KGSO 080854Z 33004KT 8SM FEW090 26/18 A3001 RMK AO2 SLP148
     T02610178 55005=
KHFJ 080855Z AUTO 00000KT 7SM SCT050 SCT055 BKN100 23/22 A3002 RMK
     AO1=
KJVL 080855Z AUTO 24004KT 10SM -DZ SCT070 OVC080 22/20 A3000 RMK
     AO2 P0001 60001 T02210201=
KLNL 080855Z AUTO 27003KT 10SM SCT007 SCT011 OVC027 19/18 A3003
     RMK AO2 T01880180=
KLRD 080856Z AUTO 03006KT 10SM BKN012 OVC017 27/25 A2989 RMK AO2
     58009 T02660250 SLP108 $=
KLUM 080855Z AUTO 29007KT 10SM CLR 19/17 A3004 RMK AO2=
KM89 080856Z AUTO 00000KT 4SM BR OVC002 24/24 A3004 RMK AO2 51002
     T02440238 SLP184=
KMDZ 080855Z AUTO 00000KT 1/4SM FG OVC001 19/18 A3002 RMK AO2=
KMRJ 080855Z AUTO 00000KT 10SM CLR 21/19 A3002 RMK AO2 60001
     T02050188=
PACM 080856Z AUTO 33005KT 10SM FEW038 BKN065 12/09 A3009 RMK AO2
     TSNO 50007 60037 T01160094 401720066 RAE28 P0007 SLP185 $=
PAGN 080856Z AUTO 00000KT CLR RMK AO2 PWINO TSNO 5//// SLPNO $=
PAHC 080856Z AUTO 31011KT 10SM BKN090 14/09 A2997 RMK AO2 TSNO
     58008 60000 T01380094 401940044 SLP152 $=
PAIG 080856Z AUTO 00000KT 10SM BKN041 OVC050 09/09 A2994 RMK AO2
     PWINO TSNO 53001 T00940088 401270077 SLP142 $=
####018000174####
SPUS99 KWBC 080859
SPECI
KTCC 080857Z AUTO 01007KT 10SM BKN011 BKN016 OVC120 18/16 A3022
     RMK AO2=
KZZV 080857Z AUTO 00000KT 3SM BR FEW060 20/19 A3008 RMK AO2=
####018003685####
SAUS99 KWBC 080859
METAR
KFPK 080856Z AUTO 26005KT 7SM SCT050 SCT060 21/20 A3003 RMK
     AO2=
KMOP 080854Z AUTO 25003KT 10SM BKN060 BKN070 OVC085 23/23 A3002
     RMK AO2=
KCAD 080854Z AUTO 22005KT 10SM -RA OVC100 22/20 A3003 RMK AO2=
KMGN 080855Z AUTO 00000KT 10SM CLR 21/20 A2996 RMK AO2=
KHAI 080855Z AUTO 33003KT 5SM BR SCT065 SCT070 22/21 A3004 RMK
     AO2=
KLWA 080856Z AUTO 00000KT 10SM SCT050 SCT075 SCT090 23/21 A3004
     RMK AO2=
KDRM 080856Z AUTO 15003KT 7SM BKN110 20/20 A2995 RMK AO2=
KVLL 080854Z AUTO 00000KT 10SM CLR 25/21 A3005 RMK AO2=
KCFS 080855Z AUTO 00000KT 1 1/4SM BR VV007 20/20 A3000 RMK AO2=
KOZW 080855Z AUTO 00000KT 7SM CLR 22/21 A3003 RMK AO2=
KRNP 080855Z AUTO 00000KT 10SM CLR 21/21 A3001 RMK AO2=
KDUH 080855Z AUTO 00000KT 7SM CLR 22/18 A3004 RMK AO2=
KJYM 080855Z AUTO 00000KT 10SM CLR 21/19 A3006 RMK AO2=
KBAX 080855Z AUTO 00000KT 4SM BR CLR 21/21 A3000 RMK AO2=
KIRS 080855Z AUTO 00000KT 7SM CLR 22/19 A3004 RMK AO2=
KACB 080855Z AUTO 00000KT 10SM CLR 24/21 A2997 RMK AO2=
KRQB 080854Z AUTO 27004KT 10SM SCT070 OVC080 22/21 A3002 RMK
     AO2=
KOEB 080855Z AUTO 00000KT 7SM CLR 22/20 A3005 RMK AO2=
K4I3 080856Z AUTO 00000KT 10SM SCT060 21/18 A3009 RMK AO2=
KAUM 080855Z AUTO 32006KT 10SM CLR 18/17 A3006 RMK AO2=
KFFX 080855Z AUTO 22004KT 5SM BR SCT065 BKN095 OVC120 22/22 A3002
     RMK AO2=
KCNB 080858Z AUTO 25005KT 10SM CLR 16/13 A3013 RMK AO2
     T01550127=
KCKN 080855Z AUTO 27003KT 10SM CLR 14/12 A3005 RMK AO2=
KCFE 080855Z AUTO 00000KT 10SM CLR 18/16 A3009 RMK AO2
     T01750162=
KCQM 080857Z AUTO 23003KT 10SM CLR 14/14 A3004 RMK AO2=
KDTL 080855Z AUTO 27004KT 10SM CLR 16/11 A3009 RMK AO2=
KBDH 080855Z AUTO 00000KT 10SM CLR 16/15 A3012 RMK AO2=
KCBG 080855Z AUTO 00000KT 10SM CLR 16/14 A3007 RMK AO2=
KADC 080857Z AUTO 24005KT 10SM CLR 14/12 A3008 RMK AO2=
KHAF 080850Z AUTO 00000KT 9SM OVC008 12/10 A2995 RMK AO2=
KCKC 080855Z AUTO 29003KT 10SM SCT060 16/13 A3003 RMK AO2=
KJYG 080854Z AUTO 00000KT 10SM CLR 17/17 A3012 RMK AO2=
KCOQ 080856Z AUTO 28006KT 10SM CLR 14/14 A3005 RMK AO2=
KACQ 080859Z AUTO 00000KT 10SM CLR 17/16 A3011 RMK AO2=
KRGK 080855Z AUTO 29003KT 10SM CLR 19/18 A3004 RMK AO2=
KFSE 080854Z AUTO 19003KT 10SM CLR 13/12 A3004 RMK AO2=
KY70 080855Z AUTO 32003KT 5SM -RA SCT033 BKN050 OVC080 23/22 A3003
     RMK AO2 P0011 60011 T02300218=
KUKT 080850Z AUTO 00000KT 5SM CLR 21/20 A3004 RMK AO1=
K1P1 080855Z AUTO 00000KT 1/4SM FG BKN005 21/20 A3006 RMK AO2
     T02140203=
KBIX 080855Z AUTO 07003KT 10SM CLR 25/25 A3001 RMK AO2 SLP163
     T02540251 55007=
KBVU 080855Z AUTO 32004KT 10SM CLR 26/00 A2985 RMK AO2=
KE80 080855Z AUTO 26008KT 10SM CLR 19/10 A3023 RMK AO2
     T01910103=
KEDC 080855Z AUTO 09005KT BKN012 OVC017 25/25 A2996 RMK AO2=
KEIK 080855Z AUTO 01004KT 7SM CLR 12/11 A3031 RMK AO2=
KEOE 080855Z AUTO 00000KT 10SM CLR 22/20 A3003 RMK AO2=
KFMH 080855Z AUTO 17007KT 7SM OVC003 21/20 A3008 RMK AO2=
KIFP 080855Z AUTO 08003KT 10SM CLR 30/M01 A2972 RMK AO2=
KLFI 080855Z 11005KT 10SM FEW008 SCT100 BKN150 26/23 A2996 RMK
     AO2A SLP145 T02580234 56004 $=
KLUF 080855Z 19005KT 10SM CLR 31/03 A2976 RMK AO2A SLP044
     T03110032 53009 $=
KMAN 080855Z AUTO 13003KT 10SM CLR 14/08 A3004 RMK AO1=
KMCF 080855Z AUTO 05004KT 10SM CLR 23/23 A2998 RMK AO2 SLP153
     T02330226 58012=
KMXF 080855Z AUTO 00000KT 10SM CLR 25/24 A3001 RMK AO2 SLP161
     T02540241 55005=
KPVF 080855Z AUTO 00000KT 10SM CLR 22/12 A2994 RMK AO1=
KRBW 080855Z AUTO 27004KT 10SM CLR 23/20 A2997 RMK AO2=
KRCM 080855Z AUTO 00000KT 10SM SCT001 BKN008 OVC060 22/22 A3004
     RMK AO2=
####018000139####
SAKA31 PTKR 080900
METAR PTKR 080853Z 06003KT 15SM FEW018CB SCT120 OVC300 28/23 A2982
RMK CB DSNT NW-NE SLP097 8/378 T02820230 53007=
####018000100####
SAFJ31 NFFN 080900
METAR NFFN 080900Z 12006KT 40KM FEW030 SCT050 22/20 Q1014 NOSIG RMK
RR NIL=
####018000146####
SASW39 LSSW 080850 RRA
METAR LSMA 080850Z VRB02KT CAVOK 23/14 Q1022 RMK BLU=
METAR LSMP 080850Z AUTO VRB01KT 9999NDV NCD 24/12 Q1022 RMK BLU=
####018000763####
SAAM31 FCBB 080800
METAR FCBB 080800Z 25004KT 6000  FEW012 BKN140 23/20 Q1016 NOSIG=
METAR FCPP 080800Z 14004KT 4000 BR FEW010 BKN023 23/21 Q1015 BECMG
6000 NSW=
METAR FKKD 080800Z 14003KT 070V160 7000 TS BKN013 FEW016CB OVC120
26/24 Q1015 TEMPO 4000 TS BR=
METAR FKYS 080800Z 26003KT 230V300 8000 FEW003 BKN006 22/20 Q1019
NOSIG=
METAR FEFF 080800Z 31004KT 9999 FEW016 BKN150 23/23 Q1015 NOSIG=
METAR FOOL 080800Z 16007KT 120V200 8000 SCT010 BKN040 BKN100 25/21
Q1015 NOSIG=
METAR FGSL 080800Z 00000KT 9999 SCT013 FEW020CB BKN130 26/26
Q1015 NOSIG=
METAR FZAA 080800Z 26006KT 3000 BR FEW016 23/19 Q1016 BECMG 6000=
METAR FNLU 080800Z VRB03KT 6000 SCT017 BKN020 23/19 Q1015 NOSIG=
METAR FPST 080800Z 17008KT 9999 FEW025 SCT250 26/20 Q1015 NOSIG=
####018000068####
SABZ18 SBGR 080900
METAR SBGR 080900Z 08003KT CAVOK 11/10 Q1020=
####018000066####
SAEW LEJR 080900
METAR LEJR 080900Z VRB02KT CAVOK 25/19 Q1016=
####018000072####
SAAL32 DAAA 080800 RRB
METAR DAUG 080800Z 00000KT CAVOK 32/17 Q1018=
####018000289####
SANL31 EHDB 080855
METAR EHAM 080855Z 24009KT 200V280 CAVOK 24/15 Q1019 NOSIG=
METAR EHBK 080855Z AUTO 21006KT 170V270 9999NDV NCD 28/12 Q1019
NOSIG=
METAR EHGG 080855Z AUTO 24009KT 210V280 9999NDV NSC 26/13 Q1018
NOSIG=
METAR EHRD 080855Z 25005KT 200V300 CAVOK 24/14 Q1019 NOSIG=
####018000077####
SARE03 FMEE 080900
METAR
FMEP 080900Z 12027KT 9999 FEW015 25/16 Q1021=
####018000129####
SAHW40 PHFO 080859
MTRNGF
METAR PHNG 080857Z 07007G14KT 10SM SCT026 BKN040 24/21 A3006 RMK AO2 
SLP174 T02440206 52010 $
####018000078####
SAZB40 FLLS 080900
METAR FLLS 080900Z 07026KT 9999 BKN025 18/08 Q1029=

####018000063####
SASU01 HSSS 080830
METAR HSSS 080830Z 06002KT CAVOK Q1010=
####018000091####
SAAJ31 UBBB 080900
METAR UBBB 080900Z 34022KT CAVOK 31/28 Q1011 NOSIG RMK
R88CLRD70=
####018000073####
SAMP31 LMMM 080900 RRB
METAR HLLB 080850Z 32018KT CAVOK 30/16 Q1016=
####018000170####
SANL32 EHDB 080855
METAR EHEH 080855Z AUTO 22006KT 9999NDV FEW270 28/12 Q1019 
BLU BLU=
METAR EHKD 080855Z AUTO 24011KT 9999NDV OVC056/// 19/15 Q1019 
BLU BLU=
####018000133####
SAZA42 FAJS 080900 RRB
METAR FAWK 080900Z 09010KT  9999 FEW060  13/// Q1038=
METAR FASK 080900Z NIL=
METAR FALM 080900Z NIL=
####018000069####
SABZ23 SBGL 080900
METAR SBGL 080900Z 00000KT CAVOK 15/13 Q1018=
####018000079####
SARS18 KAWN 080900 RRA
METAR ESSA 080850Z 24010KT CAVOK 22/12 Q1017 NOSIG=
####018000498####
SAGL KAWN 080900
METAR BGBW 080850Z 27003KT 9999 FEW070 10/05 Q1009 RMK 2AC=
METAR BGCO 080850Z 01013KT 9999 VCSH FEW016 SCT061 BKN110 05/01 Q1008=
METAR BGGH 080850Z 27003KT 9999 OVC003 04/03 Q1010=
METAR BGJN 080850Z AUTO 36003KT 1000NDV FG VV001/// 06/05 Q1010=
METAR BGKK 080850Z VRB02KT 9999 FEW130 BKN160 07/03 Q1008=
METAR BGSF 080850Z 07007KT 030V100 9999 BKN060 09/02 Q1009=
METAR BGTL 080855Z AUTO 00000KT 0400 FG VV001 04/04 A2984 RMK AO2 SLP111
      T00380037 58001=
####018000438####
SAXX70 KAWN 080900 RRD
METAR KQAE 080855Z 32011G15KT 9000 HZ CLR 42/08 A2965 RMK SLP037 55000=
METAR KQTZ 080855Z 32009G18KT 9000 HZ CLR 44/04 A2963 RMK SLP027 QNH1003MB
      ALSTG/SLP ESTMD WND DATA ESTMD 56003=
METAR KQWM 080855Z 33024G32KT 9999 CLR 46/M03 A2958 RMK PK WND 32035/21
      SLP003 QNH1001 57008=
METAR KQDM 080858Z AUTO 13009KT 8SM FEW065 SCT100 31/12 A3022 RMK AO2
      SLP107 T03090120 57014 PWINO $=
####018000120####
SAAK48 PANC 080859
MTRASY
METAR PASY 080856Z AUTO 02016KT 10SM OVC006 A2974 RMK AO2 SLPNO
 6//// 52007 TSNO PNO
####018000133####
SAUS41 KAKQ 080859
MTRWAL
METAR KWAL 080854Z AUTO 12003KT 10SM OVC095 24/22 A2998 RMK AO2 
SLP150 60000 T02440222 56001 TSNO
####018000130####
SAUS46 KSEW 080859 COR
MTRSMP
METAR KSMP 080856Z AUTO 00000KT 10SM CLR 17/03 A3016 RMK AO2 SLP180 
T01720033 53002 TSNO $
####018000705####
SAUS20 KNKA 080859
METAR KTKV 080855Z AUTO 00000KT 1/4SM FG OVC001 17/16 A3002 RMK 
     AO2 T01700162=
METAR KTTS 080855Z 29001KT 10SM CLR 20/20 A2998 RMK SLP154 55007=
METAR KUES 080855Z AUTO 15005KT 7SM -DZ BKN075 OVC085 21/20 A3000 
     RMK AO2 T02120198=
METAR KUNU 080852Z AUTO 23004KT 7SM -DZ OVC008 21/20 A3001 RMK 
     AO2 60002 T02100196=
METAR KVAD 080855Z AUTO 00000KT 10SM CLR 21/20 A3001 RMK AO2 SLP162
      T02110198 56008 $=
METAR KVBS 080855Z AUTO 13024KT 10SM SCT020 BKN025 BKN055 29/25
     A2992 RMK A01=
METAR KVNP 080855Z AUTO 13007G12KT 8SM 28/25 A2996 RMK A01=
METAR KWRB 080855Z 14004KT 10SM CLR 21/21 A3002 RMK AO2A SLP162 T02110206
      56006=
####018002988####
SAUS20 KNKA 080859
METAR K4M9 080855Z AUTO 21004KT 9SM CLR 24/24 A3004 RMK AO2 =
METAR KAEJ 080855Z AUTO 00000KT 10SM OVC048 10/09 A3046 RMK AO2=
METAR KBBF 080955Z AUTO 13021KT 8SM FEW029 SCT040 BKN055 29/26
     A2979 RMK A01=
METAR KBQX 080855Z AUTO 12021G34KT 8SM SCT046 BKN065 OVC110 29/26
     A2983 RMK A01=
METAR KDCM 080855Z AUTO 28003KT 7SM CLR 24/22 A2999 RMK AO2=
METAR KDLP 080855Z AUTO 11012KT 10SM SCT017 28/25 A2997 RMK A01=
METAR KEDU 080855Z AUTO 17005KT 10SM CLR 15/10 A2981 RMK AO1=
METAR KEHC 080855Z AUTO 12026KT 7SM FEW039 29/25 A2991 RMK A01=
METAR KEIR 080855Z AUTO VRB03G13KT 10SM CLR 28/25 A2996 RMK A01=
METAR KEMK 080855Z AUTO 14022G29KT 7SM FEW048 SCT060 29/25 A2985
     RMK A01=
METAR KGBK 080855Z AUTO 09016G22KT 10SM FEW021 FEW029 29/25 A2989
     RMK A01=
METAR KGTB 080855Z AUTO 17006KT 10SM R33/5000V5500FT CLR 22/20 A3003
      RMK AO2 SLP166 T02220203 57004=
METAR KGYH 080855Z AUTO 00000KT 10SM CLR 23/19 A3001 RMK AO2=
METAR KHQI 080855Z AUTO 10023KT 5SM BR FEW032 BKN070 OVC110 27/25
     A2988 RMK A01=
METAR KHYW 080855Z AUTO 00000KT 7SM SCT095 24/23 A2993 RMK AO2=
METAR KIPN 080855Z AUTO 09015KT 10SM A2998 RMK A01=
METAR KJZI 080855Z AUTO 29008KT 10SM CLR 24/23 A2996 RMK A02 P000 
     =
METAR KMCJ 080855Z AUTO 11008KT 10SM CLR 27/24 A2989 RMK AO1 =
METAR KMDJ 080855Z AUTO 14015KT 10SM OVC065 29/25 A2998 RMK A01=
METAR KMEI 080858Z AUTO 00000KT 10SM FEW110 23/22 A3004 RMK AO2 
    SLP166 P0001 60003 T02280222 55006=
METAR KMHR 080855Z AUTO 17005KT 10SM CLR 13/10 A2984 RMK AO1=
METAR KMIU 080855Z AUTO 11016KT 7SM FEW019 SCT026 BKN036 29/25
     A2980 RMK A01=
METAR KMYT 080855Z AUTO 15014KT 10SM CLR 28/25 A2995 RMK A01=
METAR KMZG 080855Z AUTO 00000KT 8SM FEW021 SCT034 BKN049 28/25
     A2980 RMK A01=
METAR KPAM 080855Z AUTO 35005KT 10SM CLR 25/24 A3000 RMK AO2 SLP161
      T02460245 56009=
METAR KPBH 080855Z AUTO 32004KT 1SM BR OVC001 21/19 A3003 RMK AO2=
METAR KPCZ 080855Z AUTO 25005KT 2SM BR OVC002 23/22 A2998 RMK AO2 
     T02270215=
METAR KPDC 080853Z AUTO 27004KT 7SM BKN006 BKN010 OVC016 23/21 
     A3001 RMK AO2 T02250212=
METAR KRCX 080855Z AUTO 31005KT 10SM CLR 19/18 A3003 RMK AO2 
     T01900179=
METAR KRNH 080856Z AUTO 00000KT 10SM CLR 17/16 A3006 RMK AO2 
     T01710164=
METAR KRPD 080854Z AUTO 29004KT 10SM CLR 18/17 A3005 RMK AO2 
     T01800170=
METAR KRRL 080855Z AUTO 00000KT 5SM BR CLR 18/17 A3001 RMK AO2 
     T01750170=
METAR KRYV 080855Z AUTO 00000KT 10SM -RA BKN012 BKN090 OVC110 
     23/21 A3000 RMK AO2=
METAR KSCF 080900Z AUTO 14020KT 8SM SCT018 SCT024 29/25 A2990 RMK
     A01=
METAR KSPF 080855Z AUTO 00000KT 10SM CLR 11/08 A3028 RMK AO2 =
METAR KSSC 080855Z AUTO 29008KT 10SM CLR 26/19 A2995 RMK AO2 SLP141
      T02560189 57007 $=
METAR KSTE 080855Z AUTO 00000KT 10SM BKN006 OVC011 21/20 A3000 
     RMK AO2=
METAR KSUW 080855Z AUTO 00000KT 10SM CLR 17/14 A3002 RMK AO2=
####018000129####
SAUS44 KBMX 080859 COR
MTRLOR
METAR KLOR 080853Z AUTO 00000KT 9SM CLR 21/19 A3001 RMK AO2 SLP159 
T02110194 55006 TSNO $
####018000086####
SPCN43 CWAO 080858
SPECI CYZH 080858Z AUTO 05002KT 9SM -RA FEW083 16/13 A3005=

####018003710####
SAUS90 KWBC 080900 RRA
METAR KCBG 080855Z AUTO 00000KT 10SM CLR 16/14 A3007 RMK AO2=
METAR KADC 080857Z AUTO 24005KT 10SM CLR 14/12 A3008 RMK AO2=
METAR KHAF 080850Z AUTO 00000KT 9SM OVC008 12/10 A2995 RMK AO2=
METAR KCKC 080855Z AUTO 29003KT 10SM SCT060 16/13 A3003 RMK
     AO2=
METAR KJYG 080854Z AUTO 00000KT 10SM CLR 17/17 A3012 RMK AO2=
METAR KCOQ 080856Z AUTO 28006KT 10SM CLR 14/14 A3005 RMK AO2=
METAR KACQ 080859Z AUTO 00000KT 10SM CLR 17/16 A3011 RMK AO2=
METAR KRGK 080855Z AUTO 29003KT 10SM CLR 19/18 A3004 RMK AO2=
METAR KFSE 080854Z AUTO 19003KT 10SM CLR 13/12 A3004 RMK AO2=
METAR KY70 080855Z AUTO 32003KT 5SM -RA SCT033 BKN050 OVC080 23/22
     A3003 RMK AO2 P0011 60011 T02300218=
METAR KUKT 080850Z AUTO 00000KT 5SM CLR 21/20 A3004 RMK AO1=
METAR KTEW 080853Z AUTO 00000KT 7SM CLR 21/20 A3003 RMK AO2=
METAR KCVH 080850Z AUTO 00000KT 10SM OVC010 13/11 A2993 RMK
     AO1=
METAR KDYT 080854Z AUTO 25005KT 10SM CLR 20/16 A3003 RMK AO2=
METAR KFSO 080858Z AUTO 15003KT 5SM BR CLR 23/22 A3000 RMK AO2=
METAR KFBL 080854Z AUTO 30004KT 10SM CLR 18/16 A3009 RMK AO2=
METAR KLYV 080858Z AUTO 00000KT 10SM CLR 14/13 A3016 RMK AO2=
METAR KEFK 080855Z AUTO 00000KT 4SM BR CLR 20/18 A3006 RMK AO2=
METAR KRRT 080854Z AUTO 24004KT 10SM CLR 14/12 A3000 RMK AO2=
METAR KTOB 080854Z AUTO 00000KT 10SM CLR 18/17 A3008 RMK AO2=
METAR KLXL 080854Z AUTO 00000KT 1SM BR VV007 12/12 A3007 RMK AO2
     VIS 1/2V4=
METAR KEVM 080852Z AUTO 26004KT 10SM CLR 15/13 A3002 RMK AO1=
METAR KELO 080853Z AUTO 00000KT 10SM CLR 13/13 A3002 RMK AO2=
METAR KANE 080855Z AUTO 28004KT 10SM 17/16 A3007 RMK AO2=
METAR KROX 080854Z AUTO 23003KT 10SM CLR 16/13 A3000 RMK AO2=
METAR KSYN 080910Z AUTO 00000KT 10SM CLR 18/16 A3006 RMK AO2
     T01780162=
METAR KVVV 080856Z AUTO 27004KT 10SM CLR 16/14 A3011 RMK AO2=
METAR KROS 080855Z AUTO 27003KT 10SM CLR 16/15 A3007 RMK AO2
     T01550146=
METAR KHCD 080852Z AUTO 00000KT 7SM CLR 14/13 A3010 RMK AO2
     T01380130=
METAR KSGS 080853Z AUTO 31004KT 10SM CLR 20/16 A3006 RMK AO2
     T01950162=
METAR KMJQ 080852Z AUTO 27004KT 7SM CLR 15/14 A3014 RMK AO2=
METAR KHCO 080854Z AUTO 00000KT 10SM CLR 12/12 A3004 RMK AO2=
METAR KLVN 080848Z AUTO 30004KT 10SM CLR 17/17 A3007 RMK AO2=
METAR KPEX 080853Z AUTO 25004KT 7SM CLR 13/13 A3010 RMK AO2
     T01290128=
METAR KJMR 080858Z AUTO 30004KT 10SM CLR 15/13 A3008 RMK AO2=
METAR KJKJ 080854Z AUTO 24004KT 10SM CLR 16/14 A3006 RMK AO2=
METAR KMVE 080854Z AUTO 30004KT 10SM CLR 16/15 A3010 RMK AO2=
METAR KTKC 080853Z AUTO 25005KT 10SM CLR 16/14 A3014 RMK AO2
     T01550138=
METAR KGYL 080854Z AUTO 00000KT 10SM CLR 16/15 A3009 RMK AO2
     T01560147=
METAR KDXX 080854Z AUTO 00000KT 10SM CLR 14/14 A3011 RMK AO2=
METAR KHZX 080851Z AUTO 00000KT 10SM CLR 12/11 A3007 RMK AO2=
METAR KSAZ 080854Z AUTO 00000KT 10SM CLR 14/14 A3008 RMK AO2=
METAR KONA 080850Z AUTO 31005KT 7SM CLR 20/18 A3001 RMK AO2=
METAR KOVL 080853Z AUTO 00000KT 10SM CLR 13/12 A3010 RMK AO2
     T01310117=
METAR KLJF 080852Z AUTO 27003KT 10SM CLR 16/16 A3010 RMK AO2=
METAR KAEL 080851Z AUTO 31003KT 10SM CLR 18/17 A3008 RMK AO2=
METAR K29G 080854Z AUTO 00000KT 7SM SCT060 21/19 A3009 RMK AO2
     T02050185 PWINO=
METAR KMRT 080853Z AUTO 00000KT 4SM CLR 20/19 A3011 RMK AO2
     T02030187=
METAR KIKW 080853Z AUTO 7SM SCT120 22/21 A2999 RMK AO2
     T02160205=
METAR KMDS 080845Z AUTO 26005KT 10SM CLR 14/14 A3016 RMK AO2=
METAR KSXT 080856Z AUTO 36006KT 9SM CLR 19/11 A3003 RMK AO2 SLP101
     T01890106 50003 TSNO=
METAR KWMC 080856Z AUTO 05015KT 10SM CLR 21/M06 A3004 RMK AO2 PK
     WND 05027/0800 SLP118 T02061056 52005=
####018003689####
SAUS90 KWBC 080900
METAR KCAE 080856Z 25003KT 10SM CLR 23/19 A2998 RMK AO2 SLP147
     T02330189 57006=
METAR KROC 080854Z 21005KT 8SM FEW070 BKN100 23/20 A3004 RMK AO2
     SLP170 T02280200 56005=
METAR KP28 080856Z AUTO 02006KT 22/20 A3010 RMK AO2 SLP178
     T02170200 53002 PWINO TSNO=
METAR KLWS 080856Z AUTO 14004KT 10SM CLR 17/05 A3002 RMK AO2
     SLP154 T01720050 53010=
METAR KMHS 080856Z AUTO 00000KT 10SM CLR 14/07 A3000 RMK AO2
     SLP138 T01440072 50001 TSNO=
METAR KNXP 080856Z AUTO 30008KT CLR 26/M01 A2990 RMK AO2 SLP085
     T02561006 53007 $=
METAR KNUQ 080856Z AUTO 03007KT 10SM OVC013 16/12 A2993 RMK AO2
     SLP137 T01560122 50002 TSNO=
METAR KNFE 080856Z AUTO 00000KT 1/2SM HZ CLR 26/22 A2995 RMK AO2
     SLP143 T02560222 56003 $=
METAR KSPD 080856Z AUTO 33003KT 16/14 A3027 RMK AO2 SLP195 P0003
     60015 T01560144 56006 PWINO TSNO=
METAR KGFA 080856Z AUTO 16003KT 10SM CLR 10/07 A3021 RMK AO2
     SLP248 T01000072 50003 $=
METAR KFSD 080856Z 00000KT 10SM CLR 16/14 A3015 RMK AO2 SLP207 BKN
     ABV 120 T01560139 50003=
METAR K8D3 080856Z AUTO 26008KT 18/14 A3010 RMK AO2 SLP177
     T01830144 51003 PWINO TSNO=
METAR KCDJ 080856Z AUTO 00000KT 21/21 A3006 RMK AO2 SLP168
     T02110206 56004 PWINO TSNO=
METAR K9L2 080856Z AUTO 20007KT 10SM CLR 19/04 A2987 RMK AO2
     SLP093 T01940039 51002 $=
METAR KMEH 080856Z AUTO 00000KT 10SM CLR 07/06 A3011 RMK AO2
     SLP178 T00720061 52002 TSNO=
METAR K2WX 080856Z AUTO 27005KT 12/08 A3015 RMK AO1 SLP201
     T01220083 58000=
METAR KP53 080856Z AUTO 33005KT 19/18 A2997 RMK AO2 SLP147 60055
     T01890178 55003 PWINO TSNO=
METAR KINS 080856Z 22004KT 10SM CLR 22/M11 A2992 RMK AO2 SLP074
     T02171106 53010 $=
METAR KFPK 080856Z AUTO 26005KT 7SM SCT050 SCT060 21/20 A3003 RMK
     AO2=
METAR KMOP 080854Z AUTO 25003KT 10SM BKN060 BKN070 OVC085 23/23
     A3002 RMK AO2=
METAR KCAD 080854Z AUTO 22005KT 10SM -RA OVC100 22/20 A3003 RMK
     AO2=
METAR KMGN 080855Z AUTO 00000KT 10SM CLR 21/20 A2996 RMK AO2=
METAR KHAI 080855Z AUTO 33003KT 5SM BR SCT065 SCT070 22/21 A3004
     RMK AO2=
METAR KLWA 080856Z AUTO 00000KT 10SM SCT050 SCT075 SCT090 23/21
     A3004 RMK AO2=
METAR KDRM 080856Z AUTO 15003KT 7SM BKN110 20/20 A2995 RMK AO2=
METAR KVLL 080854Z AUTO 00000KT 10SM CLR 25/21 A3005 RMK AO2=
METAR KCFS 080855Z AUTO 00000KT 1 1/4SM BR VV007 20/20 A3000 RMK
     AO2=
METAR KOZW 080855Z AUTO 00000KT 7SM CLR 22/21 A3003 RMK AO2=
METAR KRNP 080855Z AUTO 00000KT 10SM CLR 21/21 A3001 RMK AO2=
METAR KDUH 080855Z AUTO 00000KT 7SM CLR 22/18 A3004 RMK AO2=
METAR KJYM 080855Z AUTO 00000KT 10SM CLR 21/19 A3006 RMK AO2=
METAR KBAX 080855Z AUTO 00000KT 4SM BR CLR 21/21 A3000 RMK AO2=
METAR KIRS 080855Z AUTO 00000KT 7SM CLR 22/19 A3004 RMK AO2=
METAR KACB 080855Z AUTO 00000KT 10SM CLR 24/21 A2997 RMK AO2=
METAR KRQB 080854Z AUTO 27004KT 10SM SCT070 OVC080 22/21 A3002 RMK
     AO2=
METAR KOEB 080855Z AUTO 00000KT 7SM CLR 22/20 A3005 RMK AO2=
METAR K4I3 080856Z AUTO 00000KT 10SM SCT060 21/18 A3009 RMK
     AO2=
METAR KAUM 080855Z AUTO 32006KT 10SM CLR 18/17 A3006 RMK AO2=
METAR KFFX 080855Z AUTO 22004KT 5SM BR SCT065 BKN095 OVC120 22/22
     A3002 RMK AO2=
METAR KCNB 080858Z AUTO 25005KT 10SM CLR 16/13 A3013 RMK AO2
     T01550127=
METAR KCKN 080855Z AUTO 27003KT 10SM CLR 14/12 A3005 RMK AO2=
METAR KCFE 080855Z AUTO 00000KT 10SM CLR 18/16 A3009 RMK AO2
     T01750162=
METAR KCQM 080857Z AUTO 23003KT 10SM CLR 14/14 A3004 RMK AO2=
METAR KDTL 080855Z AUTO 27004KT 10SM CLR 16/11 A3009 RMK AO2=
METAR KBDH 080855Z AUTO 00000KT 10SM CLR 16/15 A3012 RMK AO2=
####018001210####
SAUS90 KWBC 080900 RRB
METAR KGNR 080856Z AUTO 13003KT 19/19 A3007 RMK AO1 SLP177
     T01890189 53003=
METAR KNRS 080856Z AUTO 30007KT 10SM OVC014 17/13 A2990 RMK AO2
     SLP125 T01720133 58007 TSNO $=
METAR KD07 080856Z AUTO 25004KT 16/08 A3019 RMK AO2 SLP214
     T01560078 58000 PWINO TSNO=
METAR KRIC 080854Z 00000KT 7SM CLR 25/21 A2998 RMK AO2 SLP153
     T02500206 53002=
METAR KROA 080854Z 28003KT 7SM CLR 24/18 A3007 RMK AO2 SLP167
     T02440183 53001=
METAR KNTU 080856Z 09003KT 10SM CLR 26/23 A2995 RMK AO2 SLP143
     T02560233 55000 CHINO RWY 05R $=
METAR KAKQ 080854Z AUTO 00000KT 4SM HZ BKN120 24/22 A2995 RMK AO2
     SLP142 T02440217 58003 TSNO=
METAR KWAL 080854Z AUTO 12003KT 10SM OVC095 24/22 A2998 RMK AO2
     SLP150 60000 T02440222 56001 TSNO=
METAR PACZ 080855Z AUTO 00000KT 10SM 11/08 A3007 RMK AO1
     T01060084=
METAR PALU 080855Z AUTO 22012G24KT 10SM CLR 13/02 A3011 RMK AO1
     T01280017=
METAR PAIM 080855Z AUTO 32004KT 10SM CLR 14/07 A3009 RMK AO1
     T01390073=
METAR PATL 080855Z AUTO 02005KT 10SM CLR 16/06 A3000 RMK AO1
     T01560062=
METAR PASV 080855Z AUTO 00000KT 10SM SCT090 10/08 A2997 RMK AO1
     T01000084=
####018000100####
SAUS90 KWBC 081000
METAR K3A6 080950Z AUTO 36001KT 11/10 A2990 RMK AO1 SLP145
     T01130102=
####018000055####
SAUS90 KWBC 080800 RRG
METAR K8S0 080755Z 27007KT=
####018000699####
SAUS90 KWBC 080900 CCA
METAR KDAB 080853Z 00000KT 10SM CLR 21/19 A2999 RMK AO2 SLP154
     T02060194 56008 $=
METAR KTUP 080853Z AUTO 00000KT 10SM CLR 24/22 A3005 RMK AO2
     SLP172 T02440217 55001=
METAR KBTR 080853Z 07003KT 7SM FEW013 SCT200 24/23 A2999 RMK AO2
     SLP155 T02390228 56004 $=
METAR KMGM 080853Z 24004KT 10SM CLR 24/23 A3002 RMK AO2 SLP160
     T02440228 56005=
METAR KSMP 080856Z AUTO 00000KT 10SM CLR 17/03 A3016 RMK AO2
     SLP180 T01720033 53002 TSNO $=
METAR KLOR 080853Z AUTO 00000KT 9SM CLR 21/19 A3001 RMK AO2 SLP159
     T02110194 55006 TSNO $=
METAR KMCN 080853Z AUTO 00000KT 10SM CLR 21/20 A3002 RMK AO2
     SLP160 T02060200 56006 TSNO=
####018000127####
SPUS90 KWBC 080900
SPECI KGDP 080858Z AUTO 05018KT 1/4SM -RA FG SCT002 OVC006 17/17
     A3022 RMK AO2 RAB53 P0000 TSNO=
####018000091####
SAAI41 FHAW 080850
METAR

FHAW 080850Z 13014KT 9999 FEW027 BKN035 27/19 Q1016 BLU=
####018000101####
SAUS46 KLOX 080859
MTR3A6
METAR K3A6 080950Z AUTO 36001KT 11/10 A2990 RMK AO1 SLP145 T01130102
####018000131####
SAUS44 KMAF 080859
MTRGDP
SPECI KGDP 080858Z AUTO 05018KT 1/4SM -RA FG SCT002 OVC006 17/17 
A3022 RMK AO2 RAB53 P0000 TSNO
####018001581####
SAUK KAWN 080900 RRB
METAR EGBJ 080850Z 22003KT 9999 FEW024 18/10 Q1018=
METAR EGDL 080850Z 22004KT 9999 FEW014 BKN100 BKN150 16/13 Q1019 BLU
      NOSIG=
METAR EGNH 080850Z 23013KT 9999 SCT018 17/12 Q1016=
METAR EGNS 080850Z 22010KT 9999 FEW025 17/11 Q1015 NOSIG=
METAR EGOM 080850Z 23011KT 9999 SCT016 SCT030 BKN065 14/10 Q1014 WHT=
METAR EGOP 080850Z 22008KT 9999 FEW025 BKN090 18/14 Q1018 BLU=
METAR EGOS 080850Z 23010KT 9999 FEW022 BKN100 16/10 Q1017 BLU NOSIG=
METAR EGOV 080850Z 20014KT 9999 FEW013 SCT160 BKN220 16/13 Q1016 BLU
      NOSIG=
METAR EGQK 080850Z 23018KT 9999 -SHRA FEW025 SCT030 BKN050 16/07 Q1008
      BLU NOSIG=
METAR EGQL 080850Z 24015KT 9999 FEW023 BKN060 16/09 Q1012 BLU NOSIG=
METAR EGSC 080850Z 23004KT 240V300 8000 VCSH FEW020 BKN034 18/14 Q1019=
METAR EGVA 080855Z AUTO 26004KT 9999 FEW170 17/13 A3008 RMK AO2 RAB0839E0853DZB0853E0855
      CLDS LWR RWY27 SLP184 P0000 60000 T01650130 50002=
METAR EGVN 080850Z 24003KT 9999 -RA FEW023 BKN070 BKN100 17/12 Q1018
      BLU NOSIG=
METAR EGVO 080850Z 33004KT 3700 -DZ OVC003 16/15 Q1019 YLO2 BECMG BKN012
      GRN=
METAR EGWU 080850Z 31005KT 9999 FEW006 SCT012 OVC016 17/15 Q1019 RERA
      REDZ GRN BECMG FEW010 BKN016 WHT=
METAR EGXC 080850Z 24009KT 9999 -RA FEW025 SCT090 OVC120 17/11 Q1017
      BLU NOSIG=
METAR EGXE 080850Z 22008KT 9999 FEW025 BKN100 BKN200 17/12 Q1016 BLU
      NOSIG=
METAR EGXJ 080850Z 24009KT 9999 FEW025 BKN100 17/10 Q1017 BLU=
METAR EGXT 080850Z 23011KT 9999 -RA FEW020 BKN090 BKN120 17/10 Q1018
      BLU NOSIG=
####018000122####
SAHW31 KMSC 080859
METAR PHNY 080856Z AUTO 11007KT 10SM CLR 21/17 A3009 RMK AO2 TSNO 
    51012 T02050166 SLP169 $=
####018000585####
SAAK41 KNKA 080859
METAR PAFS 080856Z AUTO VRB04KT 10SM CLR 16/06 A3000 RMK AO2 TSNO 
    51009 T01610055 SLP165 $=
METAR PAIW 080857Z AUTO 00000KT 10SM CLR 08/06 A3019 RMK AO2 SLP317 
    T00780056 400940044 53003=
METAR PAMB 080856Z AUTO 36006KT 10SM CLR 11/07 A2993 RMK AO2 PWINO 
    TSNO 53003 T01050072 401380077 SLP139 $=
METAR PAVA 080857Z AUTO 35009KT 10SM -RA OVC070 12/09 A3010 RMK AO2 
    RAB0758 SLP194 P0000 60001 T01170094 401670061 50005=
METAR PPIZ 080856Z AUTO 20010KT 10SM CLR 07/02 A3011 RMK AO2 TSNO 
    56002 T00660022 400830044 SLP198 $=
####018000330####
SAUS20 KNKA 080859
SPECI KAVX 080858Z AUTO 27003KT 3/4SM BR OVC001 12/12 A2993 RMK AO2 
    TSNO=
SPECI KLXT 080858Z AUTO 02004KT 8SM BKN003 BKN120 23/22 A3006 RMK 
    AO2 CIG 002V007=
METAR KY50 080856Z AUTO 25004KT 5SM BR OVC006 22/22 A2999 RMK AO2 
    55009 60000 T02220222 CIG 005V010 RAB43E53 P0000 SLP145 $=
####018000082####
SABZ24 SBPA 080900
METAR SBPA 080900Z 18003KT 9999 BKN025 OVC045 17/14 Q1018=
####018000070####
SABZ22 SBBR 080900
METAR SBBR 080900Z 26002KT CAVOK 14/09 Q1022 =
####018000128####
SAUS42 KFFC 080859 COR
MTRMCN
METAR KMCN 080853Z AUTO 00000KT 10SM CLR 21/20 A3002 RMK AO2 SLP160 
T02060200 56006 TSNO
####018000192####
SPUS99 KWBC 080900
SPECI
KAVX 080858Z AUTO 27003KT 3/4SM BR OVC001 12/12 A2993 RMK AO2
     TSNO=
KLXT 080858Z AUTO 02004KT 8SM BKN003 BKN120 23/22 A3006 RMK AO2
     CIG 002V007=
####018003681####
SAUS99 KWBC 080900
METAR
KTKV 080855Z AUTO 00000KT 1/4SM FG OVC001 17/16 A3002 RMK AO2
     T01700162=
KTTS 080855Z 29001KT 10SM CLR 20/20 A2998 RMK SLP154 55007=
KUES 080855Z AUTO 15005KT 7SM -DZ BKN075 OVC085 21/20 A3000 RMK
     AO2 T02120198=
KUNU 080852Z AUTO 23004KT 7SM -DZ OVC008 21/20 A3001 RMK AO2 60002
     T02100196=
KVAD 080855Z AUTO 00000KT 10SM CLR 21/20 A3001 RMK AO2 SLP162
     T02110198 56008 $=
KVBS 080855Z AUTO 13024KT 10SM SCT020 BKN025 BKN055 29/25 A2992
     RMK A01=
KVNP 080855Z AUTO 13007G12KT 8SM 28/25 A2996 RMK A01=
KWRB 080855Z 14004KT 10SM CLR 21/21 A3002 RMK AO2A SLP162
     T02110206 56006=
K4M9 080855Z AUTO 21004KT 9SM CLR 24/24 A3004 RMK AO2=
KAEJ 080855Z AUTO 00000KT 10SM OVC048 10/09 A3046 RMK AO2=
KBBF 080955Z AUTO 13021KT 8SM FEW029 SCT040 BKN055 29/26 A2979 RMK
     A01=
KBQX 080855Z AUTO 12021G34KT 8SM SCT046 BKN065 OVC110 29/26 A2983
     RMK A01=
KDCM 080855Z AUTO 28003KT 7SM CLR 24/22 A2999 RMK AO2=
KDLP 080855Z AUTO 11012KT 10SM SCT017 28/25 A2997 RMK A01=
KEDU 080855Z AUTO 17005KT 10SM CLR 15/10 A2981 RMK AO1=
KEHC 080855Z AUTO 12026KT 7SM FEW039 29/25 A2991 RMK A01=
KEIR 080855Z AUTO VRB03G13KT 10SM CLR 28/25 A2996 RMK A01=
KEMK 080855Z AUTO 14022G29KT 7SM FEW048 SCT060 29/25 A2985 RMK
     A01=
KGBK 080855Z AUTO 09016G22KT 10SM FEW021 FEW029 29/25 A2989 RMK
     A01=
KGTB 080855Z AUTO 17006KT 10SM R33/5000V5500FT CLR 22/20 A3003 RMK
     AO2 SLP166 T02220203 57004=
KGYH 080855Z AUTO 00000KT 10SM CLR 23/19 A3001 RMK AO2=
KHQI 080855Z AUTO 10023KT 5SM BR FEW032 BKN070 OVC110 27/25 A2988
     RMK A01=
KHYW 080855Z AUTO 00000KT 7SM SCT095 24/23 A2993 RMK AO2=
KIPN 080855Z AUTO 09015KT 10SM A2998 RMK A01=
KJZI 080855Z AUTO 29008KT 10SM CLR 24/23 A2996 RMK A02 P000=
KMCJ 080855Z AUTO 11008KT 10SM CLR 27/24 A2989 RMK AO1=
KMDJ 080855Z AUTO 14015KT 10SM OVC065 29/25 A2998 RMK A01=
KMEI 080858Z AUTO 00000KT 10SM FEW110 23/22 A3004 RMK AO2 SLP166
     P0001 60003 T02280222 55006=
KMHR 080855Z AUTO 17005KT 10SM CLR 13/10 A2984 RMK AO1=
KMIU 080855Z AUTO 11016KT 7SM FEW019 SCT026 BKN036 29/25 A2980 RMK
     A01=
KMYT 080855Z AUTO 15014KT 10SM CLR 28/25 A2995 RMK A01=
KMZG 080855Z AUTO 00000KT 8SM FEW021 SCT034 BKN049 28/25 A2980 RMK
     A01=
KPAM 080855Z AUTO 35005KT 10SM CLR 25/24 A3000 RMK AO2 SLP161
     T02460245 56009=
KPBH 080855Z AUTO 32004KT 1SM BR OVC001 21/19 A3003 RMK AO2=
KPCZ 080855Z AUTO 25005KT 2SM BR OVC002 23/22 A2998 RMK AO2
     T02270215=
KPDC 080853Z AUTO 27004KT 7SM BKN006 BKN010 OVC016 23/21 A3001 RMK
     AO2 T02250212=
KRCX 080855Z AUTO 31005KT 10SM CLR 19/18 A3003 RMK AO2
     T01900179=
KRNH 080856Z AUTO 00000KT 10SM CLR 17/16 A3006 RMK AO2
     T01710164=
KRPD 080854Z AUTO 29004KT 10SM CLR 18/17 A3005 RMK AO2
     T01800170=
KRRL 080855Z AUTO 00000KT 5SM BR CLR 18/17 A3001 RMK AO2
     T01750170=
KRYV 080855Z AUTO 00000KT 10SM -RA BKN012 BKN090 OVC110 23/21
     A3000 RMK AO2=
KSCF 080900Z AUTO 14020KT 8SM SCT018 SCT024 29/25 A2990 RMK
     A01=
KSPF 080855Z AUTO 00000KT 10SM CLR 11/08 A3028 RMK AO2=
KSSC 080855Z AUTO 29008KT 10SM CLR 26/19 A2995 RMK AO2 SLP141
     T02560189 57007 $=
KSTE 080855Z AUTO 00000KT 10SM BKN006 OVC011 21/20 A3000 RMK
     AO2=
KSUW 080855Z AUTO 00000KT 10SM CLR 17/14 A3002 RMK AO2=
PAFS 080856Z AUTO VRB04KT 10SM CLR 16/06 A3000 RMK AO2 TSNO 51009
     T01610055 SLP165 $=
PAIW 080857Z AUTO 00000KT 10SM CLR 08/06 A3019 RMK AO2 SLP317
     T00780056 400940044 53003=
PAMB 080856Z AUTO 36006KT 10SM CLR 11/07 A2993 RMK AO2 PWINO TSNO
     53003 T01050072 401380077 SLP139 $=
####018000401####
SAUS98 KWBC 080900
METAR PACZ 080855Z AUTO 00000KT 10SM 11/08 A3007 RMK AO1 T01060084=
METAR PALU 080855Z AUTO 22012G24KT 10SM CLR 13/02 A3011 RMK AO1
T01280017=
METAR PAIM 080855Z AUTO 32004KT 10SM CLR 14/07 A3009 RMK AO1
T01390073=
METAR PATL 080855Z AUTO 02005KT 10SM CLR 16/06 A3000 RMK AO1
T01560062=
METAR PASV 080855Z AUTO 00000KT 10SM SCT090 10/08 A2997 RMK AO1
T01000084=
####018000391####
SAUS99 KWBC 080900 RRA
METAR
PAVA 080857Z AUTO 35009KT 10SM -RA OVC070 12/09 A3010 RMK AO2
     RAB0758 SLP194 P0000 60001 T01170094 401670061 50005=
PPIZ 080856Z AUTO 20010KT 10SM CLR 07/02 A3011 RMK AO2 TSNO 56002
     T00660022 400830044 SLP198 $=
KY50 080856Z AUTO 25004KT 5SM BR OVC006 22/22 A2999 RMK AO2 55009
     60000 T02220222 CIG 005V010 RAB43E53 P0000 SLP145 $=
####018000148####
SAUS44 KBMX 080859
MTREUF
METAR KEUF 080858Z AUTO 00000KT 10SM CLR 21/19 A3001 RMK AO2 
RAB0759E09B35E46 SLP157 6//// T02110189 56008 PNO $
####018000128####
SAUS45 KBOU 080900 COR
MTRABH
METAR KABH 080856Z AUTO 21005KT 10SM BKN085 13/12 A3037 RMK AO2 
SLP226 T01330122 50004 $
####018003743####
SAXX60 KWBC 080900
METAR
KNXX 080856Z AUTO 00000KT 5SM HZ CLR 24/20 A3003 RMK AO2 SLP172
     T02390200 53001 $=
KNXP 080856Z AUTO 30008KT CLR 26/M01 A2990 RMK AO2 SLP085
     T02561006 53007 $=
KNTD 080856Z AUTO 28008KT 10SM OVC013 15/13 A2990 RMK AO2 SLP125
     6//// T01500128 58002 TSNO PNO VISNO N $=
KNUQ 080856Z AUTO 03007KT 10SM OVC013 16/12 A2993 RMK AO2 SLP137
     T01560122 50002 TSNO=
K9L2 080856Z AUTO 20007KT 10SM CLR 19/04 A2987 RMK AO2 SLP093
     T01940039 51002 $=
KNUW 080856Z 30003KT 10SM CLR 16/11 A2996 RMK AO2 SLP150 T01560111
     51007 $=
KNFG 080856Z AUTO 00000KT 10SM OVC015 16/13 A2990 RMK AO2 SLP124
     T01610133 58005 TSNO=
KINS 080856Z 22004KT 10SM CLR 22/M11 A2992 RMK AO2 SLP074
     T02171106 53010 $=
KNID 080856Z AUTO 13005KT FEW090 25/06 A2983 RMK AO2 SLP077
     T02500056 53004 TSNO $=
KBAN 080856Z AUTO 00000KT 10SM CLR 08/01 A3019 RMK AO2 SLP123
     T00830011 52002 TSNO=
KNXF 080856Z AUTO 30006KT 7SM OVC013 17/13 A2990 RMK AO2 SLP210
     T01670133 58006 TSNO=
KNFL 080856Z AUTO 36004KT 10SM CLR 19/M01 A2997 RMK AO2 SLP121
     T01891006 53006 TSNO=
KNMM 080856Z AUTO 00000KT 10SM CLR 23/21 A3004 RMK AO2 SLP177
     T02280211 56005 $=
KBIX 080855Z AUTO 07003KT 10SM CLR 25/25 A3001 RMK AO2 SLP163
     T02540251 55007=
KLFI 080855Z 11005KT 10SM FEW008 SCT100 BKN150 26/23 A2996 RMK
     AO2A SLP145 T02580234 56004 $=
KLUF 080855Z 19005KT 10SM CLR 31/03 A2976 RMK AO2A SLP044
     T03110032 53009 $=
KMCF 080855Z AUTO 05004KT 10SM CLR 23/23 A2998 RMK AO2 SLP153
     T02330226 58012=
KMXF 080855Z AUTO 00000KT 10SM CLR 25/24 A3001 RMK AO2 SLP161
     T02540241 55005=
PMDY 080856Z AUTO 00000KT 10SM CLR 25/20 A3012 RMK AO2 TSNO 51006
     T02500200 SLP506=
KNBC 080856Z AUTO 24003KT 10SM CLR 23/19 A2997 RMK AO2 SLP149
     T02330189 56008=
KGTB 080855Z AUTO 17006KT 10SM R33/5000V5500FT CLR 22/20 A3003 RMK
     AO2 SLP166 T02220203 57004=
KPAM 080855Z AUTO 35005KT 10SM CLR 25/24 A3000 RMK AO2 SLP161
     T02460245 56009=
KSKA 080855Z AUTO 00000KT 10SM CLR 15/08 A3007 RMK AO2 SLP170
     T01510079 53004=
KSKF 080855Z 06008KT 10SM OVC014 26/ A2993 RMK AO2A CIG 013V018
     OVC V BKN SLP124 T0260 56005 $=
KSLI 080855Z AUTO 00000KT 10SM OVC016 16/14 A2991 RMK AO2 SLP130
     T01640137 58002=
KSSC 080855Z AUTO 29008KT 10SM CLR 26/19 A2995 RMK AO2 SLP141
     T02560189 57007 $=
KSZL 080855Z 33003KT 10SM SCT040 BKN049 23/23 A3004 RMK AO2A
     SLP164 P2400 67200 T02340226 56004 $=
KTBN 080855Z AUTO 00000KT 9SM SCT027 BKN100 OVC210 22/ A3006 RMK
     AO2 CIG 028 RWY32 SLP162 T0222 55000 $=
KTCM 080855Z AUTO 00000KT 10SM CLR 15/13 A2994 RMK AO2 SLP141
     T01470126 52006=
KTIK 080855Z AUTO 33005KT 10SM BKN016 OVC055 24/23 A3004 RMK AO2
     CIG 015V021 BKN V SCT SLP158 T02380226 57002 $=
KVAD 080855Z AUTO 00000KT 10SM CLR 21/20 A3001 RMK AO2 SLP162
     T02110198 56008 $=
KVOK 080855Z 31007KT 10SM SCT019 20/20 A3001 RMK AO2A SLP156
     T02030203 55000=
KWRB 080855Z 14004KT 10SM CLR 21/21 A3002 RMK AO2A SLP162
     T02110206 56006=
KWRI 080855Z AUTO 12004KT M1/4SM R18/0500V0600FT R24/0500V0600FT
     FG VV001 23/23 A2999 RMK AO2 SLP157 T02330233 55000 $=
KNRS 080856Z AUTO 30007KT 10SM OVC014 17/13 A2990 RMK AO2 SLP125
     T01720133 58007 TSNO $=
KNJK 080856Z AUTO 09003KT 10SM CLR 23/11 A2968 RMK AO2 SLP066
     T02330106 53004 TSNO=
KNLC 080856Z AUTO 29007KT 10SM CLR 19/12 A2982 RMK AO2 SLP096
     T01890117 50005 TSNO $=
KBKF 080855Z 16005KT 7SM BKN010 BKN060 14/14 A3033 RMK SLP228
     58005=
KFCS 080855Z AUTO 20008KT 10SM OVC023 14/11 A3038 RMK AO2
     DZB0838E0847 SLP216 P0000 60000 T01400110 50010=
####018003010####
SAXX60 KWBC 080900 RRA
METAR
KFRI 080855Z AUTO 33004KT 10SM BKN110 OVC140 22/21 A3009 RMK AO2
     SLP180 T02160206 53001=
KNYG 080856Z AUTO 31003KT CLR 26/22 A2998 RMK AO2 SLP153 T02560222
     55001=
KPAM 080855Z AUTO 35005KT 10SM CLR 25/24 A3000 RMK AO2 SLP161
     T02460245 56009=
KSVN 080855Z 00000KT 10SM SKC 22/21 A2997 RMK SLP152 56007
     60000=
KSZL 080855Z 33003KT 10SM SCT040 BKN049 23/23 A3004 RMK AO2A
     SLP164 P2400 67200 T02340226 56004 $=
PHBK 080856Z AUTO 00000KT 10SM OVC075 26/18 A3003 RMK AO2 SLP172
     T02560178 51012 TSNO $=
KNTU 080856Z 09003KT 10SM CLR 26/23 A2995 RMK AO2 SLP143 T02560233
     55000 CHINO RWY 05R $=
KCVS 080855Z 04006KT 10SM FEW200 17/14 A3020 RMK AO2A SLP184
     T01700140 56003 $=
KHLR 080856Z AUTO 09004KT 10SM FEW027 26/ A2998 RMK AO2 RAB29E38
     SLP143 P0000 60000 T0256 56006 $=
KNBG 080855Z AUTO 00000KT 6SM BR CLR 25/24 A3000 RMK AO2 SLP158
     T02500239 58003 PWINO $=
KNCA 080856Z AUTO 00000KT 10SM CLR 23/21 A2991 RMK AO2 SLP129
     T02330211 55003=
KNGP 080856Z AUTO 11011KT 10SM FEW018 BKN050 28/26 A2980 RMK AO2
     TSB18E34RAB37E49 SLP092 P0001 60001 T02830261 56016 $=
KNKX 080855Z 34006KT 10SM OVC014 16/13 A2990 RMK AO2 SLP119
     T01610133 58007=
KNQI 080856Z AUTO 01006KT 9SM FEW110 27/25 A2982 RMK AO2 TSB16E38
     SLP094 T02720250 56014 $=
KNYL 080855Z 16004KT 10SM CLR 28/02 A2971 RMK AO2 SLP056 T02830022
     53000=
KPOE 080855Z AUTO 11006KT 10SM CLR 24/22 A3000 RMK AO2 SLP158
     T02440222 55000=
KPSM 080855Z 14006KT 2 1/2SM BR OVC005 22/21 A3005 RMK AO2A SLP179
     T02150207 53003=
KVBG 080855Z AUTO 00000KT 10SM CLR 12/11 A2993 RMK AO2 CIG 006
     RWY12 SLP125 T01220111 57003 TSNO $=
KVPS 080855Z 32001KT 10SM SKC 24/23 A3002 RMK AO2A SLP165
     T02380233 56008=
PMDY 080856Z AUTO 00000KT 10SM CLR 25/20 A3012 RMK AO2 TSNO 51006
     T02500200 SLP506=
KVAD 080855Z AUTO 00000KT 10SM CLR 21/20 A3001 RMK AO2 SLP162
     T02110198 56008 $=
KWRB 080855Z 14004KT 10SM CLR 21/21 A3002 RMK AO2A SLP162
     T02110206 56006=
KGBK 080855Z AUTO 09016G22KT 10SM FEW021 FEW029 29/25 A2989 RMK
     A01=
KGTB 080855Z AUTO 17006KT 10SM R33/5000V5500FT CLR 22/20 A3003 RMK
     AO2 SLP166 T02220203 57004=
KMHR 080855Z AUTO 17005KT 10SM CLR 13/10 A2984 RMK AO1=
KPAM 080855Z AUTO 35005KT 10SM CLR 25/24 A3000 RMK AO2 SLP161
     T02460245 56009=
KSSC 080855Z AUTO 29008KT 10SM CLR 26/19 A2995 RMK AO2 SLP141
     T02560189 57007 $=
PACZ 080855Z AUTO 00000KT 10SM 11/08 A3007 RMK AO1 T01060084=
PALU 080855Z AUTO 22012G24KT 10SM CLR 13/02 A3011 RMK AO1
     T01280017=
PAIM 080855Z AUTO 32004KT 10SM CLR 14/07 A3009 RMK AO1
     T01390073=
PATL 080855Z AUTO 02005KT 10SM CLR 16/06 A3000 RMK AO1
     T01560062=
PASV 080855Z AUTO 00000KT 10SM SCT090 10/08 A2997 RMK AO1
     T01000084=
KEUF 080858Z AUTO 00000KT 10SM CLR 21/19 A3001 RMK AO2
     RAB0759E09B35E46 SLP157 6//// T02110189 56008 PNO $=
####018003747####
SAUS70 KWBC 080900
METAR
KNFE 080856Z AUTO 00000KT 1/2SM HZ CLR 26/22 A2995 RMK AO2 SLP143
     T02560222 56003 $=
KGFA 080856Z AUTO 16003KT 10SM CLR 10/07 A3021 RMK AO2 SLP248
     T01000072 50003 $=
K1P1 080855Z AUTO 00000KT 1/4SM FG BKN005 21/20 A3006 RMK AO2
     T02140203=
KBVU 080855Z AUTO 32004KT 10SM CLR 26/00 A2985 RMK AO2=
KE80 080855Z AUTO 26008KT 10SM CLR 19/10 A3023 RMK AO2
     T01910103=
KEDC 080855Z AUTO 09005KT BKN012 OVC017 25/25 A2996 RMK AO2=
KEIK 080855Z AUTO 01004KT 7SM CLR 12/11 A3031 RMK AO2=
KEOE 080855Z AUTO 00000KT 10SM CLR 22/20 A3003 RMK AO2=
KFMH 080855Z AUTO 17007KT 7SM OVC003 21/20 A3008 RMK AO2=
KIFP 080855Z AUTO 08003KT 10SM CLR 30/M01 A2972 RMK AO2=
KMAN 080855Z AUTO 13003KT 10SM CLR 14/08 A3004 RMK AO1=
KPVF 080855Z AUTO 00000KT 10SM CLR 22/12 A2994 RMK AO1=
KRBW 080855Z AUTO 27004KT 10SM CLR 23/20 A2997 RMK AO2=
KRCM 080855Z AUTO 00000KT 10SM SCT001 BKN008 OVC060 22/22 A3004
     RMK AO2=
KSGJ 080858Z AUTO 25004KT 10SM CLR 22/21 A3000 RMK AO2 SLP157
     T02170206 58009=
KTME 080855Z AUTO 05005KT 5SM 25/25 A2992 RMK AO1=
KUOX 080855Z AUTO 00000KT 10SM CLR 22/20 A3008 RMK AO2=
KWJF 080856Z 25007KT 10SM CLR 21/02 A2988 RMK AO2 SLP096 T02110022
     58002=
KTTS 080855Z 29001KT 10SM CLR 20/20 A2998 RMK SLP154 55007=
KSGH 080856Z AUTO 00000KT 4SM BR CLR 21/21 A3010 RMK AO2 56005
     T02050205 SLP181=
KTTS 080855Z 29001KT 10SM CLR 20/20 A2998 RMK SLP154 55007=
KFMH 080855Z AUTO 17007KT 7SM OVC003 21/20 A3008 RMK AO2=
KWJF 080856Z 25007KT 10SM CLR 21/02 A2988 RMK AO2 SLP096 T02110022
     58002=
KMTN 080857Z AUTO 00000KT 7SM CLR 26/23 A3000 RMK AO2=
KMWC 080855Z AUTO 14004KT 7SM -RA OVC090 21/20 A3000 RMK AO2=
KOEO 080855Z AUTO 00000KT 10SM CLR 18/17 A3007 RMK AO2=
KPVB 080853Z AUTO 00000KT 1SM OVC003 20/19 A3003 RMK AO1
     T02000192=
KROG 080857Z AUTO 00000KT 10SM FEW025 23/22 A3007 RMK AO2 SLP167
     T02280217 56003=
KRZN 080854Z AUTO 28003KT 10SM BKN047 18/16 A3006 RMK AO2
     T01780160=
KUNI 080855Z AUTO 00000KT 5SM HZ CLR 22/17 A3007 RMK AO2
     T02170171=
KVES 080854Z AUTO 00000KT 5SM BR CLR 20/19 A3007 RMK AO2
     T02000190=
KW29 080856Z AUTO 00000KT 5SM CLR 23/22 A2999 RMK AO1=
KY63 080900Z AUTO 21004KT 10SM CLR 15/14 A3010 RMK AO2
     T01490140=
PACM 080856Z AUTO 33005KT 10SM FEW038 BKN065 12/09 A3009 RMK AO2
     TSNO 50007 60037 T01160094 401720066 RAE28 P0007 SLP185 $=
PAGN 080856Z AUTO 00000KT CLR RMK AO2 PWINO TSNO 5//// SLPNO $=
PATQ 080856Z AUTO 26013KT 10SM CLR 09/03 A3004 RMK AO2 TSNO 53007
     T00940027 401330044 SLP178 $=
K14Y 080858Z AUTO 00000KT 7SM CLR 15/15 A3010 RMK AO2
     T01470145=
K2G4 080855Z AUTO 00000KT 10SM SCT070 23/13 A3019 RMK AO1=
K2W6 080856Z AUTO 00000KT 4SM CLR 23/23 A3000 RMK AO1=
KAJO 080856Z AUTO 00000KT 5SM BR CLR 13/13 A2991 RMK AO2 50001
     T01270127 SLP125 $=
KBUU 080856Z AUTO 16003KT 7SM -DZ SCT065 SCT075 SCT110 21/21 A3000
     RMK AO2=
KCMY 080855Z AUTO 00000KT 10SM CLR 20/19 A3002 RMK AO2
     T01970189=
KCWA 080855Z AUTO 32006KT 10SM SCT005 19/19 A3001 RMK AO2
     T01910191=
KDIJ 080856Z AUTO 10007KT 10SM CLR 07/02 A3028 RMK AO2 53004
     T00720022 SLP186 $=
KFDK 080847Z AUTO 00000KT 5SM BR SCT100 24/22 A3003 RMK AO2=
KEFT 080855Z AUTO 22003KT 10SM SCT100 OVC120 21/19 A3001 RMK AO2
     T02090193=
KEGV 080852Z AUTO 30005KT 10SM SCT013 BKN027 19/19 A3001 RMK AO2
     T01870188=
KEKQ 080856Z AUTO 00000KT 3SM BR CLR 18/18 A3010 RMK AO2 56005
     T01830177 SLP187=
KETB 080853Z AUTO 00000KT 5SM -RA SCT050 OVC080 22/21 A3000 RMK
     AO2 60002 T02160207=
KEZS 080855Z AUTO 27006KT 7SM OVC005 23/22 A2998 RMK AO2 60003
     T02250216=
####018003748####
SAUS70 KWBC 080900 RRA
METAR
KGLW 080853Z AUTO 00000KT 7SM CLR 21/20 A3007 RMK AO2
     T02100196=
KHFJ 080855Z AUTO 00000KT 7SM SCT050 SCT055 BKN100 23/22 A3002 RMK
     AO1=
KJVL 080855Z AUTO 24004KT 10SM -DZ SCT070 OVC080 22/20 A3000 RMK
     AO2 P0001 60001 T02210201=
KLNL 080855Z AUTO 27003KT 10SM SCT007 SCT011 OVC027 19/18 A3003
     RMK AO2 T01880180=
KLRD 080856Z AUTO 03006KT 10SM BKN012 OVC017 27/25 A2989 RMK AO2
     58009 T02660250 SLP108 $=
KLUM 080855Z AUTO 29007KT 10SM CLR 19/17 A3004 RMK AO2=
KM89 080856Z AUTO 00000KT 4SM BR OVC002 24/24 A3004 RMK AO2 51002
     T02440238 SLP184=
KMDZ 080855Z AUTO 00000KT 1/4SM FG OVC001 19/18 A3002 RMK AO2=
KMRJ 080855Z AUTO 00000KT 10SM CLR 21/19 A3002 RMK AO2 60001
     T02050188=
PACM 080856Z AUTO 33005KT 10SM FEW038 BKN065 12/09 A3009 RMK AO2
     TSNO 50007 60037 T01160094 401720066 RAE28 P0007 SLP185 $=
PAGN 080856Z AUTO 00000KT CLR RMK AO2 PWINO TSNO 5//// SLPNO $=
PAHC 080856Z AUTO 31011KT 10SM BKN090 14/09 A2997 RMK AO2 TSNO
     58008 60000 T01380094 401940044 SLP152 $=
PAIG 080856Z AUTO 00000KT 10SM BKN041 OVC050 09/09 A2994 RMK AO2
     PWINO TSNO 53001 T00940088 401270077 SLP142 $=
PAMO 080856Z AUTO 33005KT 10SM BKN075 09/09 A3007 RMK AO2 TSNO
     50001 60000 T00940088 401830061 SLP179 $=
PAOH 080856Z AUTO 00000KT 10SM CLR 10/10 A3020 RMK AO2 TSNO 58002
     T01000100 SLP229=
PAPM 080856Z AUTO 32006KT RA CLR 09/08 A3000 RMK AO2 TSNO 50002
     60000 T00940083 P0000 SLP160 $=
PARS 080856Z AUTO 35007KT 5SM HZ BKN065 OVC110 13/09 A3001 RMK AO2
     TSNO 58001 60000 T01270088 401830072 RAB12E21 P0000 SLP167
     $=
PATQ 080856Z AUTO 26013KT 10SM CLR 09/03 A3004 RMK AO2 TSNO 53007
     T00940027 401330044 SLP178 $=
KTTS 080855Z 29001KT 10SM CLR 20/20 A2998 RMK SLP154 55007=
KUES 080855Z AUTO 15005KT 7SM -DZ BKN075 OVC085 21/20 A3000 RMK
     AO2 T02120198=
KUNU 080852Z AUTO 23004KT 7SM -DZ OVC008 21/20 A3001 RMK AO2 60002
     T02100196=
KVBS 080855Z AUTO 13024KT 10SM SCT020 BKN025 BKN055 29/25 A2992
     RMK A01=
KVNP 080855Z AUTO 13007G12KT 8SM 28/25 A2996 RMK A01=
K4M9 080855Z AUTO 21004KT 9SM CLR 24/24 A3004 RMK AO2=
KAEJ 080855Z AUTO 00000KT 10SM OVC048 10/09 A3046 RMK AO2=
KBQX 080855Z AUTO 12021G34KT 8SM SCT046 BKN065 OVC110 29/26 A2983
     RMK A01=
KDCM 080855Z AUTO 28003KT 7SM CLR 24/22 A2999 RMK AO2=
KDLP 080855Z AUTO 11012KT 10SM SCT017 28/25 A2997 RMK A01=
KEHC 080855Z AUTO 12026KT 7SM FEW039 29/25 A2991 RMK A01=
KEIR 080855Z AUTO VRB03G13KT 10SM CLR 28/25 A2996 RMK A01=
KEMK 080855Z AUTO 14022G29KT 7SM FEW048 SCT060 29/25 A2985 RMK
     A01=
KGYH 080855Z AUTO 00000KT 10SM CLR 23/19 A3001 RMK AO2=
KHQI 080855Z AUTO 10023KT 5SM BR FEW032 BKN070 OVC110 27/25 A2988
     RMK A01=
KHYW 080855Z AUTO 00000KT 7SM SCT095 24/23 A2993 RMK AO2=
KIPN 080855Z AUTO 09015KT 10SM A2998 RMK A01=
KJZI 080855Z AUTO 29008KT 10SM CLR 24/23 A2996 RMK A02 P000=
KMCJ 080855Z AUTO 11008KT 10SM CLR 27/24 A2989 RMK AO1=
KMDJ 080855Z AUTO 14015KT 10SM OVC065 29/25 A2998 RMK A01=
KMEI 080858Z AUTO 00000KT 10SM FEW110 23/22 A3004 RMK AO2 SLP166
     P0001 60003 T02280222 55006=
KMIU 080855Z AUTO 11016KT 7SM FEW019 SCT026 BKN036 29/25 A2980 RMK
     A01=
KMZG 080855Z AUTO 00000KT 8SM FEW021 SCT034 BKN049 28/25 A2980 RMK
     A01=
KPBH 080855Z AUTO 32004KT 1SM BR OVC001 21/19 A3003 RMK AO2=
KPCZ 080855Z AUTO 25005KT 2SM BR OVC002 23/22 A2998 RMK AO2
     T02270215=
KPDC 080853Z AUTO 27004KT 7SM BKN006 BKN010 OVC016 23/21 A3001 RMK
     AO2 T02250212=
KRCX 080855Z AUTO 31005KT 10SM CLR 19/18 A3003 RMK AO2
     T01900179=
KRNH 080856Z AUTO 00000KT 10SM CLR 17/16 A3006 RMK AO2
     T01710164=
####018000147####
SAPQ50 KWBC 080900
METAR
PTKR 080853Z 06003KT 15SM FEW018CB SCT120 OVC300 28/23 A2982 RMK
     CB DSNT NW-NE SLP097 8/378 T02820230 53007=
####018000129####
SPUS80 KWBC 080900
SPECI
KGDP 080858Z AUTO 05018KT 1/4SM -RA FG SCT002 OVC006 17/17 A3022
     RMK AO2 RAB53 P0000 TSNO=
####018000337####
SPUS70 KWBC 080900
SPECI
KTCC 080857Z AUTO 01007KT 10SM BKN011 BKN016 OVC120 18/16 A3022
     RMK AO2=
KZZV 080857Z AUTO 00000KT 3SM BR FEW060 20/19 A3008 RMK AO2=
KAVX 080858Z AUTO 27003KT 3/4SM BR OVC001 12/12 A2993 RMK AO2
     TSNO=
KLXT 080858Z AUTO 02004KT 8SM BKN003 BKN120 23/22 A3006 RMK AO2
     CIG 002V007=
####018000313####
SAXX60 KWBC 080900 CCA
METAR
KABH 080856Z AUTO 21005KT 10SM BKN085 13/12 A3037 RMK AO2 SLP226
     T01330122 50004 $=
KLOR 080853Z AUTO 00000KT 9SM CLR 21/19 A3001 RMK AO2 SLP159
     T02110194 55006 TSNO $=
KABH 080856Z AUTO 21005KT 10SM BKN085 13/12 A3037 RMK AO2 SLP226
     T01330122 50004 $=
####018000081####
SABZ21 SBNT 080900
METAR SBNT 080900Z 20005KT 9999 FEW020 SCT070 22/21 Q1014=
####018000999####
SAUS70 KWBC 080900 RRB
METAR
KRPD 080854Z AUTO 29004KT 10SM CLR 18/17 A3005 RMK AO2
     T01800170=
KRRL 080855Z AUTO 00000KT 5SM BR CLR 18/17 A3001 RMK AO2
     T01750170=
KRYV 080855Z AUTO 00000KT 10SM -RA BKN012 BKN090 OVC110 23/21
     A3000 RMK AO2=
KSPF 080855Z AUTO 00000KT 10SM CLR 11/08 A3028 RMK AO2=
KSTE 080855Z AUTO 00000KT 10SM BKN006 OVC011 21/20 A3000 RMK
     AO2=
KSUW 080855Z AUTO 00000KT 10SM CLR 17/14 A3002 RMK AO2=
PAFS 080856Z AUTO VRB04KT 10SM CLR 16/06 A3000 RMK AO2 TSNO 51009
     T01610055 SLP165 $=
PAIW 080857Z AUTO 00000KT 10SM CLR 08/06 A3019 RMK AO2 SLP317
     T00780056 400940044 53003=
PAMB 080856Z AUTO 36006KT 10SM CLR 11/07 A2993 RMK AO2 PWINO TSNO
     53003 T01050072 401380077 SLP139 $=
PPIZ 080856Z AUTO 20010KT 10SM CLR 07/02 A3011 RMK AO2 TSNO 56002
     T00660022 400830044 SLP198 $=
KY50 080856Z AUTO 25004KT 5SM BR OVC006 22/22 A2999 RMK AO2 55009
     60000 T02220222 CIG 005V010 RAB43E53 P0000 SLP145 $=
####018003329####
SAUS80 KWBC 080900
METAR
KCAE 080856Z 25003KT 10SM CLR 23/19 A2998 RMK AO2 SLP147 T02330189
     57006=
KROC 080854Z 21005KT 8SM FEW070 BKN100 23/20 A3004 RMK AO2 SLP170
     T02280200 56005=
KP28 080856Z AUTO 02006KT 22/20 A3010 RMK AO2 SLP178 T02170200
     53002 PWINO TSNO=
KLWS 080856Z AUTO 14004KT 10SM CLR 17/05 A3002 RMK AO2 SLP154
     T01720050 53010=
KMHS 080856Z AUTO 00000KT 10SM CLR 14/07 A3000 RMK AO2 SLP138
     T01440072 50001 TSNO=
KSPD 080856Z AUTO 33003KT 16/14 A3027 RMK AO2 SLP195 P0003 60015
     T01560144 56006 PWINO TSNO=
KFSD 080856Z 00000KT 10SM CLR 16/14 A3015 RMK AO2 SLP207 BKN ABV
     120 T01560139 50003=
K8D3 080856Z AUTO 26008KT 18/14 A3010 RMK AO2 SLP177 T01830144
     51003 PWINO TSNO=
KCDJ 080856Z AUTO 00000KT 21/21 A3006 RMK AO2 SLP168 T02110206
     56004 PWINO TSNO=
KMEH 080856Z AUTO 00000KT 10SM CLR 07/06 A3011 RMK AO2 SLP178
     T00720061 52002 TSNO=
K2WX 080856Z AUTO 27005KT 12/08 A3015 RMK AO1 SLP201 T01220083
     58000=
KP53 080856Z AUTO 33005KT 19/18 A2997 RMK AO2 SLP147 60055
     T01890178 55003 PWINO TSNO=
KSNC 080855Z AUTO 00000KT M1/4SM FG OVC001 22/ A3006 RMK AO2=
KSXT 080856Z AUTO 36006KT 9SM CLR 19/11 A3003 RMK AO2 SLP101
     T01890106 50003 TSNO=
KWMC 080856Z AUTO 05015KT 10SM CLR 21/M06 A3004 RMK AO2 PK WND
     05027/0800 SLP118 T02061056 52005=
KGNR 080856Z AUTO 13003KT 19/19 A3007 RMK AO1 SLP177 T01890189
     53003=
KD07 080856Z AUTO 25004KT 16/08 A3019 RMK AO2 SLP214 T01560078
     58000 PWINO TSNO=
TJSJ 080856Z 00000KT 10SM FEW022 SCT035 27/24 A2998 RMK AO2 SLP150
     T02720244 55000=
KRIC 080854Z 00000KT 7SM CLR 25/21 A2998 RMK AO2 SLP153 T02500206
     53002=
KROA 080854Z 28003KT 7SM CLR 24/18 A3007 RMK AO2 SLP167 T02440183
     53001=
KRFD 080854Z 17007KT 8SM FEW009 OVC080 22/21 A3001 RMK AO2 RAE39
     SLP158 P0000 60002 T02220211 58014=
KSHV 080856Z 11003KT 10SM SCT180 BKN280 24/24 A3001 RMK AO2 SLP158
     T02440239 53003=
KTRI 080853Z 00000KT 6SM BR CLR 21/19 A3010 RMK AO2 SLP170
     T02110189 55001 $=
KTYS 080853Z 00000KT 9SM CLR 24/19 A3006 RMK AO2 SLP164 T02390189
     55003=
KABQ 080856Z 08012KT 10SM BKN130 BKN200 20/09 A3025 RMK AO2 SLP148
     T02000094 51001=
KJAX 080856Z 00000KT 9SM CLR 19/19 A2999 RMK AO2 SLP155 T01940189
     58012=
KAVP 080854Z AUTO 11003KT 7SM CLR 21/18 A3006 RMK AO2 SLP165
     T02060178 55001 TSNO $=
KCBE 080856Z AUTO 00000KT 7SM CLR 21/18 A3010 RMK AO1=
KCHS 080856Z 29007KT 9SM CLR 24/19 A2996 RMK AO2 SLP143 T02440194
     56008=
KCLI 080855Z AUTO 25006KT 5SM BR OVC005 22/21 A2998 RMK AO2=
KFWA 080854Z 24004KT 10SM CLR 23/21 A3006 RMK AO2 SLP170 T02330206
     56004=
KGSO 080854Z 33004KT 8SM FEW090 26/18 A3001 RMK AO2 SLP148
     T02610178 55005=
KAKQ 080854Z AUTO 00000KT 4SM HZ BKN120 24/22 A2995 RMK AO2 SLP142
     T02440217 58003 TSNO=
KWAL 080854Z AUTO 12003KT 10SM OVC095 24/22 A2998 RMK AO2 SLP150
     60000 T02440222 56001 TSNO=
KTKV 080855Z AUTO 00000KT 1/4SM FG OVC001 17/16 A3002 RMK AO2
     T01700162=
KMYT 080855Z AUTO 15014KT 10SM CLR 28/25 A2995 RMK A01=
KSCF 080900Z AUTO 14020KT 8SM SCT018 SCT024 29/25 A2990 RMK
     A01=
PHNY 080856Z AUTO 11007KT 10SM CLR 21/17 A3009 RMK AO2 TSNO 51012
     T02050166 SLP169 $=
####018000110####
SAUS70 KWBC 081000
METAR
KBBF 080955Z AUTO 13021KT 8SM FEW029 SCT040 BKN055 29/26 A2979 RMK
     A01=
####018000095####
SAUS80 KWBC 081000
METAR
K3A6 080950Z AUTO 36001KT 11/10 A2990 RMK AO1 SLP145 T01130102=
####018000571####
SAUS80 KWBC 080900 CCA
METAR
KDAB 080853Z 00000KT 10SM CLR 21/19 A2999 RMK AO2 SLP154 T02060194
     56008 $=
KTUP 080853Z AUTO 00000KT 10SM CLR 24/22 A3005 RMK AO2 SLP172
     T02440217 55001=
KBTR 080853Z 07003KT 7SM FEW013 SCT200 24/23 A2999 RMK AO2 SLP155
     T02390228 56004 $=
KMGM 080853Z 24004KT 10SM CLR 24/23 A3002 RMK AO2 SLP160 T02440228
     56005=
KSMP 080856Z AUTO 00000KT 10SM CLR 17/03 A3016 RMK AO2 SLP180
     T01720033 53002 TSNO $=
KMCN 080853Z AUTO 00000KT 10SM CLR 21/20 A3002 RMK AO2 SLP160
     T02060200 56006 TSNO=
####018000069####
SAAF35 KWBC 080800 RRD
METAR
HSSS 080830Z 06002KT CAVOK Q1010=
####018000081####
SADL31 KWBC 080850 RRA
METAR
EDHL 080850Z 14007KT CAVOK 25/15 Q1020 RMK J=
####018000177####
SADL32 KWBC 080850 RRA
METAR
EDLP 080850Z 22006KT 190V260 CAVOK 27/10 Q1020 RMK RWY24 TRL60 JP
     ATIS N=
EDLW 080850Z 21009KT 170V240 CAVOK 28/10 Q1020 RMK ATIS L=
####018000086####
SADL33 KWBC 080845 RRC
METAR
EDNY 080850Z 20005KT CAVOK 24/13 Q1022 RMK ATIS L=
####018000367####
SANL31 KWBC 080850 RRB
METAR
EHAM 080855Z 24009KT 200V280 CAVOK 24/15 Q1019 NOSIG=
EHBK 080855Z AUTO 21006KT 170V270 9999NDV NCD 28/12 Q1019
     NOSIG=
EHGG 080855Z AUTO 24009KT 210V280 9999NDV NSC 26/13 Q1018
     NOSIG=
EHKD 080855Z AUTO 24011KT 9999NDV OVC056/// 19/15 Q1019 BLU
     BLU=
EHRD 080855Z 25005KT 200V300 CAVOK 24/14 Q1019 NOSIG=
####018000088####
SAUS41 KWBC 080800 RRK
METAR
KFDK 080847Z AUTO 00000KT 5SM BR SCT100 24/22 A3003=
####018000098####
SAUZ31 UTTT 080900
METAR UTTT 080900Z 29003MPS 230V360 CAVOK 38/08 Q1010
R08R/CLRD70 NOSIG=
####018000126####
SAIY40 LIIB 080800 RRD
METAR LIVP 080755Z VRB01KT 0900 FG VV/// 11/09 Q1028 RMK MON INVIS
      VAL INVIS VIS MIN 0900=
####018000100####
SAIY40 LIIB 080800 RRB
METAR LIPY 080750Z 13006KT 060V170 CAVOK 25/12 Q1021 RMK VIS MIN
9999=
####018000131####
SAIY40 LIIB 080800 RRC
METAR LIVC 080755Z 36007KT 9999 FEW000 12/10 Q1030 RMK SCT SCT100 MON
      LIB VAL NIL VIS MIN 9999=
####018000101####
SAAJ31 UBBB 080900
UBBN 080900Z 14006KT 9999 NSC 36/11 Q1010 R14R/CLRD60 NOSIG
RMK G/O QFE683=
####018000112####
SAIY40 LIIB 080800 RRA
METAR LIPX 080745Z 09008KT 9999 SCT080 26/14 Q1021 RMK SCT VIS MIN
      9999 BLU=
####018000072####
SAYE20 OYRN 080900
METAR OYRN 080900Z 16012KT 7000 NSC 30/25 Q1002=
####018000081####
SAUK31 KWBC 080850 RRA
METAR
EGNH 080850Z 23013KT 9999 SCT018 17/12 Q1016=
####018000087####
SAUK32 KWBC 080850 RRB
METAR
EGNS 080850Z 22010KT 9999 FEW025 17/11 Q1015 NOSIG=
####018000108####
SAUK42 KWBC 080850 RRB
METAR
EGSC 080850Z 23004KT 240V300 8000 VCSH FEW020 BKN034 18/14
     Q1019=
####018000081####
SAUK41 KWBC 080850 RRB
METAR
EGBJ 080850Z 22003KT 9999 FEW024 18/10 Q1018=
####018000120####
SAKA31 PTTP 080900
METAR PTTP 080855Z 19003KT 15SM FEW018 SCT300 26/24
A2986 RMK SLP111 8/101 T02580242 52017=
####018000121####
SABE31 TXKF 080855
METAR TXKF 080855Z 16013KT 9999 VCSH SCT013TCU BKN042
BKN170 BKN300 25/22 Q1018 RMK TCU W-NW
####018000109####
SAKA31 PTTP 080800
METAR PTTP 080755Z 18003KT 15SM FEW018 BKN300 27/24 
A2985 RMK SLP106 T02720244=
