####018000299####
SIVD45 KWNB 212100 RRF
BBXX
45023 21211 99473 70886 46/// /3603 10149 92120 22200 00169 333
91205=
45025 21211 99470 70884 46/// /2105 10124 20109 40050 92120 22200
00166 10301 70004 333 91206=
45026 21211 99420 70866 46/// /2407 10207 20128 92120 22200 00194
10402 70010 333 91209=
####018000134####
SIVA20 LFPW 212100 RRA
BBXX
DQVO 21214 99131 10431 41396 51402 10297 20276 40081 58010 71011
82140
22274 00334 20201 80281=
####018000153####
SIVC20 LFPW 212100 RRA
BBXX
DCAX2 21214 99088 50793 41396 62012 10190 20159 40180 50010 70322
84718
22273 00140 20303 321// 40604 5//// 80170=
####018000067####
SIAL57 EUMS 212100
AAXX 21214
60691 36/// /0000 10339 21022=
####018000125####
SIVD17 CWVR 212100
BBXX
46147 21211 99518 71312 46/// /2207 10171 40052 52032
22200 00122 11514 70069 333 91210 =

####018000131####
SIVD17 CWTO 212100
BBXX
45135 21211 99438 70769 46/// /1404 10203 30078 40167 57014
22200 00184 10301 70003 333 91205 =

####018000147####
SMVX40 KAWN 212100
BBXX
JGQH 21214 99354 11529 41/97 31932 10264 20237 40133 53016 70211
 83200 22232 00266 1//08 20606 317// 41006 70041=
####018000125####
SIVD17 CWVR 212100
BBXX
46145 21211 99544 71324 46/// /2109 10133 49989 52043
22200 00119 11306 70029 333 91212 =

####018000125####
SIVD17 CWVR 212100
BBXX
46208 21211 99525 71327 46/// /2010 10136 40028 52038
22200 00124 11510 70050 333 91212 =

####018000125####
SIVD17 CWVR 212100
BBXX
46183 21211 99536 71311 46/// /1608 10120 40021 52038
22200 00111 11005 70025 333 91210 =

####018000085####
SNVX19 LFVW 211900 RRE
BBXX
MINFR09 2119/ 99389 31453 46/// ///// 40182 57012=
####018000085####
SIVX19 LFVW 212100 RRA
BBXX
MINFR09 2121/ 99392 31457 46/// ///// 40178 57005=
####018000131####
SIVD17 CWTO 212100
BBXX
45152 21211 99462 70797 46/// /1707 10227 39884 40115 57024
22200 00175 10201 70003 333 91210 =

####018000131####
SIVD17 CWTO 212100
BBXX
45132 21211 99425 70812 46/// /2206 10192 39934 40140 57010
22200 00189 10402 70008 333 91207 =

####018000125####
SIVD17 CWVR 212100
BBXX
46131 21211 99499 71250 46/// /1310 1//// 40116 57008
22200 00133 10402 70009 333 91212 =

####018000380####
SIVD45 KWNB 212100 RRG
BBXX
45027 21211 99469 70919 46/// /3309 10122 20071 39877 40098 92040
333 91212=
45027 21211 99469 70919 46/// /3208 10125 20072 39879 40099 92050
333 91212=
45028 21211 99468 70918 46/// /3309 10118 20084 39859 40078 92040
22200 00102 333 91214=
45028 21211 99468 70918 46/// /3208 10117 20082 39859 40079 92050
22200 00101 333 91212=
####018000355####
SIVB21 RJTD 212100
BBXX
SHIP    21214 99256 11350
41597 70909 10255 20220 40116 52003 70222 8349/
22283 00290 20302 333// 40505 80230=
A8UT6   21214 99288 11237
41698 73523 10221 20137 40095 51015 70300 87366
22243 04212 21605 80172=
DACP    21214 99319 11260
41598 73429 10215 40100 54000 70222 84878
22214 20504 336// 40805 5////=
####018000131####
SIVD17 CWTO 212100
BBXX
45137 21211 99455 70810 46/// /1410 10179 39891 40101 57028
22200 00159 10502 70010 333 91212 =

####018000124####
SIVD17 CWVR 212100
BBXX
46204 21211 99514 71288 46/// /1808 10126 40082 52025
22200 00134 11308 70041 333 91210=

####018000133####
SIVD21 RJTD 212100
BBXX
JBZR    21214 99310 71652
41797 22808 10280 40205 52010 70200 82100
22223 00266 2//01 335// 4//02=
####018000170####
SNVD15 KWNB 212000 RRX
BBXX
42392 21201 99272 70900 46/// ///// 1//// 92020 22200 10401 70007=
42887 21201 99282 70885 46/// /0103 10255 92020 22200 10602 70011=
####018000028####
SIVE21 RJTD 212100
NIL=
####018000028####
SIVX21 RJTD 212100
NIL=
####018000293####
SING22 AMMC 212100 RRA
AAXX 21213
92005 41470 89902 10160 20152 38383 40217 5//// 70222 8677/=
92022 41475 70000 10242 20231 30101 40112 5//// 7158/ 84933=
92035 41480 60000 10240 20218 30060 40118 52016 70322 87800=
92076 41480 80000 10250 20243 30117 40122 53/// 7258/ 8582/=

####018000126####
SIVE21 AMMC 212100 RRA
BBXX
9HA2479 21214 99087 31153 46/// /3213 10233 20209 30109 40138 52017
22253 04271 85216=

####018000185####
SIVD15 KWNB 212100 RRO
BBXX
41036 21211 99342 70770 46/// /1901 10271 20225 40188 92120 22200
00274 333 91202 555 11011 22012 62119 189011 194010 195016 204017
202021 213028=
####018000123####
SIVB21 AMMC 212100 RRA
BBXX
VNVR 21214 99232 11267 46/// /3615 10259 20196 30068 40097 52003
22244 04288 85215=

####018000034####
SIVJ21 EGRR 212100
BBXX
NIL
####018000131####
SIVD45 KWNB 212100 RRH
BBXX
45028 21211 99468 70918 46/// /3208 10119 20083 39871 40091 53036
92100 22200 00100 333 91212=
####018000368####
SIVD22 KWNB 212100 RRO
BBXX
46088 21211 99483 71232 46/// /0802 10125 40130 92120 22200 00106
1//00 70001 333 91202 555 11022 22026 32058 40703 62119 077018
069023 055023 021016 009012 031019=
46087 21211 99485 71247 46/// /1703 10138 20117 40134 92120 22200
00105 333 91204 555 11038 22046 32103 41306 62119 172032 146041
153033 161029 155029 151035=
####018000085####
SNVE01 KWBC 211900 RRD
BBXX
MINFR09 2119/ 99389 31453 46/// ///// 40182 57012=
####018000196####
SNVD01 KWBC 211900 RRS
BBXX
42046 21191 99279 70940 46/// /0605 1//// 40155 91900 22200 00281
 333 91206=
42046 21191 99279 70940 46/// /0606 1//// 40152 91930 22200 00282
 333 91207=
####018000170####
SNVD01 KWBC 212000 RRQ
BBXX
42392 21201 99272 70900 46/// ///// 1//// 92020 22200 10401 70007=
42887 21201 99282 70885 46/// /0103 10255 92020 22200 10602 70011=
####018000085####
SNVE01 KWBC 212000 RRE
BBXX
MINFR09 2120/ 99390 31455 46/// ///// 40181 57004=
####018000269####
SIVA30 KWBC 212100 RRC
BBXX
VRDA4 21214 99294 70194 41497 80618 10230 2017/ 40210 54000 70322
 82148 22283 0//// 2//// 3//// 4//// 5//// 6//// 80190 ICE /////=
DQVO 21214 99131 10431 41396 51402 10297 20276 40081 58010 71011
 82140 22274 00334 20201 80281=
####018001624####
SIVD80 KWBC 212100 RRC
BBXX
45137 21211 99455 70810 46/// /1410 10179 39891 40101 57028 22200
 00159 10502 70010 333 91212=
45028 21211 99468 70918 46/// /3309 10118 20084 39859 40078 92040
 22200 00102 333 91214=
45028 21211 99468 70918 46/// /3208 10117 20082 39859 40079 92050
 22200 00101 333 91212=
45027 21211 99469 70919 46/// /3208 10125 20072 39879 40099 92050
 333 91212=
45027 21211 99469 70919 46/// /3309 10122 20071 39877 40098 92040
 333 91212=
45132 21211 99425 70812 46/// /2206 10192 39934 40140 57010 22200
 00189 10402 70008 333 91207=
45152 21211 99462 70797 46/// /1707 10227 39884 40115 57024 22200
 00175 10201 70003 333 91210=
45135 21211 99438 70769 46/// /1404 10203 30078 40167 57014 22200
 00184 10301 70003 333 91205=
45025 21211 99470 70884 46/// /2105 10124 20109 40050 92120 22200
 00166 10301 70004 333 91206=
45023 21211 99473 70886 46/// /3603 10149 92120 22200 00169 333
 91205=
45026 21211 99420 70866 46/// /2407 10207 20128 92120 22200 00194
 10402 70010 333 91209=
45159 21211 99438 70790 46/// /1003 10184 30065 40154 57008 22200
 00174 10201 70003 333 91204=
45147 21211 99424 70827 46/// /1906 10203 39918 40122 57019 22200
 00186 10301 70004 333 91208=
45026 21211 99420 70866 46/// /2307 10207 20123 92110 22200 00194
 10402 70010 333 91209=
45023 21211 99473 70886 46/// /3603 10153 92110 22200 00169 333
 91204=
45025 21211 99470 70884 46/// /2105 10124 20109 40040 92110 22200
 00166 10301 70005 333 91206=
45149 21211 99435 70821 46/// /1806 10199 39907 40115 57017 22200
 00182 10401 70006 333 91208=
####018000085####
SIVE30 KWBC 212100 RRB
BBXX
MINFR09 2121/ 99392 31457 46/// ///// 40178 57005=
####018000272####
SIVC30 KWBC 212100 RRC
BBXX
DCAX2 21214 99088 50793 41396 62012 10190 20159 40180 50010 70322
 84718 22273 00140 20303 321// 40604 5//// 80170=
LAIP5 21213 99038 70389 41297 31112 10275 20224 40122 52008 70200
 8/44/ 22253 04280 20503 313// 40503 5//// 80240=
####018000168####
SIVD30 KWBC 212100 RRK
BBXX
WXJ63 21213 99611 71464 41/98 701// 10107 20075 49783 57/// 702//
 8//// 222// 0//// 2//// 3//// 4//// 5//// 6//// 8//// ICE /////=
####018003694####
SIVF30 KWBC 212100 RRC
BBXX
ZCDU9 21213 99406 10185 41998 00319 10248 20175 40122 54000 70100
 80000 22245 00250 20401 316// 40502 5//// 80202=
62094 21214 99517 70067 46/// /2521 10144 20122 40170 52013 22200
 00142 10605 70026 333 90710 91127=
62029 21214 99487 70125 46/// /2813 10156 20129 40238 52009 22200
 00158=
ZCBU5 21214 99436 70098 41298 83003 10190 20156 40232 52003 70222
 887// 22254 00190 20302 322// 40606 80170=
62095 21214 99531 70159 46/// /2720 10126 20112 40152 52017 22200
 00133 10909 70047 333 90710 91128=
AMOUK05 21214 99536 70001 46/// ///// 10149 20097 30075 40123
 52010 92050=
62305 21214 99504 10000 46/98 /2524 10155 20108 40205 52009 22200
 00165 10602 70008 333 90710 91129=
62154 21214 99564 10022 46/// /2325 10123 20085 40050 52012 22200=
62120 21214 99564 10021 47997 /2531 10127 20085 40044 51009 700//
 22200=
62152 21214 99570 10018 47997 /2219 10125 20082 40039 51011 700//
 22200 15328 70139=
62304 21214 99511 10018 46/98 /2526 10153 20121 40185 51012 22200
 00168 10602 70008 333 90710 91133=
62132 21214 99564 10020 46/// /2625 10126 20083 40049 52011 22200=
63056 21214 99597 10016 47997 /2323 10117 20076 49941 51019 700//
 22200 10707 70037=
62119 21214 99570 10019 47997 /2426 10125 20083 40035 50007 700//
 22200 10606 70030=
62129 21214 99584 10003 46/// /2426 10124 20066 49989 52011 22200=
62113 21214 99584 10002 47698 /2230 10124 20059 49985 52009 700//
 22200=
63057 21214 99592 10015 47998 /2428 10119 20069 49956 51011 700//
 22200 10707 70034=
62128 21214 99587 10014 47998 /2126 10121 20075 49973 51013 700//
 22200 10707 70033=
ZQSD5 21214 99583 10007 46/// ///// 10126 20080 49984 50007 22200
 10807 70037=
62114 21214 99583 10000 46/// /2330 10125 20059 49972 50004 22200=
62118 21214 99577 10009 47997 /2227 10132 20084 49994 51008 700//
 22200 10606 70029=
62134 21214 99580 10014 47997 /2327 10125 20080 49995 51010 700//
 22200 10606 70029=
62155 21214 99577 10007 47997 /2425 10126 20082 40007 51007 751//
 22200 10606 70030=
62117 21214 99579 10000 47998 /2328 10126 20074 49990 51007 700//
 22200 10605 70027=
62143 21214 99577 10018 47997 /2423 10123 20086 40008 50008 700//
 22200 10607 70033=
62102 21214 99579 10018 46/// /2422 10122 20077 49998 51013 22200
 10606 70032=
62153 21214 99573 10020 47997 /2324 10125 20086 40016 51013 700//
 22200 10607 70034=
62140 21214 99573 10013 46/// /25// 10127 20077 40009 51010 22200=
62116 21214 99576 10011 47997 /2428 10123 20079 49998 51009 700//
 22200 10606 70029=
62146 21214 99572 10021 47/97 /2423 10124 20078 40033 50007 700//
 22200 10707 70033=
62164 21214 99572 10008 47997 /2423 10129 20075 40018 51011 700//
 22200 10606 70032=
62104 21214 99574 10013 47/97 /2423 10126 20080 40008 51010 700//
 22200=
62133 21214 99571 10009 46/// /2326 10132 20060 40017 51010 22200=
62122 21214 99573 10016 47997 /2425 10128 20080 40027 51012 700//
 22200 10606 70031=
PJGO 21214 99571 10022 47997 /2326 10126 20089 40031 51013 700//
 22200=
62145 21214 99531 10028 47997 /2223 10156 20087 40135 50000 700//
 22200 10404 70018=
62144 21214 99534 10017 47797 /2326 10148 20094 40134 52006 700//
 22200 10403 70014=
62142 21214 99530 10021 46998 /2424 10150 40134 51003 22200 10402
 70012=
MWYG6 21214 99603 70040 47996 /2817 10097 762// 22200=
63115 21214 99616 10013 47396 /2514 10095 20070 49905 56006 762//
 22200 10808 70038=
62121 21214 99535 10027 46/// ///// 22200=
62148 21214 99536 10015 46/// ///// 10148 40133 52004 22200=
62150 21214 99536 10007 47698 /2316 10148 20095 40128 52005 700//
 22200 10402 70010=
####018000467####
SIVB30 KWBC 212100 RRC
BBXX
DACP 21214 99319 11260 41598 73429 10215 40100 54000 70222 84878
 22214 20504 336// 40805 5////=
SHIP 21214 99256 11350 41597 70909 10255 20220 40116 52003 70222
 8349/ 22283 00290 20302 333// 40505 80230=
A8UT6 21214 99288 11237 41698 73523 10221 20137 40095 51015 70300
 87366 22243 04212 21605 80172=
JGQH 21214 99354 11529 41/97 31932 10264 20237 40133 53016 70211
 83200 22232 00266 1//08 20606 317// 41006 70041=
####018000463####
SIVF30 KWBC 212100 RRE
BBXX
LF5T 21214 99660 10081 43/// /0919 10117 20090 40000 57030 92110
 22200 06117 10806 70028=
LF4B 21214 99606 10037 47/98 /2524 10104 49940 57012 723// 22200
 00106 10708 70038=
LF3N 21214 99653 10073 41798 70919 10130 20099 49979 57039 70322
 87/// 22200 00119 10804 70021=
3ERR2 21214 99635 10053 43/// /1201 22200 10806 70030=
LF3F 21214 99643 10078 43/// ///// 10137 20096 49967 57044 22200
 04124 10905 70023=
####018003698####
SIVD30 KWBC 212100 RRJ
BBXX
JBZR 21214 99310 71652 41797 22808 10280 40205 52010 70200 82100
 22223 00266 2//01 335// 4//02=
46204 21211 99514 71288 46/// /1808 10126 40082 52025 22200 00134
 11308 70041 333 91210=
46131 21211 99499 71250 46/// /1310 1//// 40116 57008 22200 00133
 10402 70009 333 91212=
46208 21211 99525 71327 46/// /2010 10136 40028 52038 22200 00124
 11510 70050 333 91212=
46183 21211 99536 71311 46/// /1608 10120 40021 52038 22200 00111
 11005 70025 333 91210=
46145 21211 99544 71324 46/// /2109 10133 49989 52043 22200 00119
 11306 70029 333 91212=
46147 21211 99518 71312 46/// /2207 10171 40052 52032 22200 00122
 11514 70069 333 91210=
46088 21211 99483 71232 46/// /0802 10125 40130 92120 22200 00106
 1//00 70001 333 91202 555 11022 22026 32058 40703 62119 077018
 069023 055023 021016 009012 031019=
44032 21211 99437 70694 46/30 /1704 10167 40223 56007 92104 22200
 00160 10801 70006 333 91205 555 11054 22060=
42362 21211 99278 70907 46/// /0812 10272 20206 92115=
42364 21211 99291 70881 46/// /3303 10244 20211 40149 92115=
42363 21211 99282 70892 46/// /1111 10256 20194 40153 92115 333
 91212=
44060 21211 99413 70721 46/// ///03 10194 40237 92115 22200 00200
 333 91203 555 11026 22031=
44039 21211 99411 70727 46/// /1404 10217 20179 40242 92115 22200
 00213 1//00 70002 333 91204=
44034 21211 99441 70681 46/30 /1904 10148 40230 56005 92104 22200
 00137 10801 70006 333 91205 555 11056 22064=
44022 21211 99409 70737 46/// /2302 10219 20174 40225 92115 22200
 00210 333 91203 555 11026 22031=
44033 21211 99441 70690 46/30 /2103 10161 40225 57004 92104 22200
 00151 10801 70004 333 91204 555 11044 22052=
41037 21211 99340 70775 46/// /1001 10271 40172 56017 92100 333
 91201=
VCXF 21214 99464 70484 41998 02624 10124 2011/ 40153 52010 70200
 80000 22200 02118 20504 323// 40704 80115=
46221 21211 99339 71186 46/// ///// 1//// 92045 22200 00189 11502
 20901 320// 41501 70008=
46242 21211 99332 71174 46/// ///// 1//// 92056 22200 00190 11501
 21001 322// 41501 70006=
FLAO 2121/ 99764 70829 46/// ///// 11005 40155 57005=
46222 21211 99336 71183 46/// ///// 1//// 92104 22200 00195 11501
 20801 316// 41501 70007=
46231 21211 99327 71174 46/// ///// 1//// 92049 22200 00194 11502
 20901 320// 41501 70008=
46229 21211 99438 71246 46/// ///// 1//// 92051 22200 00147 11508
 21003 328// 41507 70038=
46216 21211 99343 71198 46/// ///// 1//// 92057 22200 00176 11001
 21001 326// 41101 70007=
46241 21211 99330 71173 46/// ///// 1//// 92040 22200 00176 11701
 21001 324// 41701 70005=
46232 21211 99325 71174 46/// ///// 1//// 92038 22200 00194 11502
 21001 319// 41501 70009=
46223 21211 99335 71178 46/// ///// 1//// 92100 22200 00194 11501
 21001 318// 41501 70006=
42085 21211 99179 70665 46/// /1107 10300 40115 92050 333 91208=
42085 21211 99179 70665 46/// /1206 10297 40114 92040 333 91208=
42085 21211 99179 70665 46/// /1107 10299 40116 92100 22200 00296
 10502 70008 333 91208=
46112 21211 99481 71227 46/// /1301 10178 40130 58016 92100=
46110 21211 99481 71230 46/// /0603 10125 40134 58009 92100=
46111 21211 99481 71227 46/// /1102 10163 40131 58015 92100 22200
 00112=
46109 21211 99481 71234 46/// /3201 10126 40135 58013 92100 22200
 00108=
41052 21211 99183 70648 46/// /0407 10293 40116 92050 333 91208=
41052 21211 99183 70648 46/// /0507 10293 40115 92040 333 91208=
46207 21211 99509 71299 46/// /2207 10149 40075 52027 22200 00144
 11412 70060 333 91210=
WTDH 21214 99348 70755 43/// /1809 10253 20206 40192 5//// 7////
 8//// 222// 04282 2//// 3//// 4//// 5//// 6//// 8//// ICE /////=
####018003665####
SIVF30 KWBC 212100 RRD
BBXX
63106 21214 99610 10017 46/// /2312 10102 49918 55002 22200=
63107 21214 99611 10017 46/// /2314 10104 49915 55003 22200=
64041 21214 99607 70026 47496 ///// 10093 20064 49895 58005 700//
 22200 10807 70036=
63104 21214 99612 10016 47598 /2214 10102 20074 49914 55004 700//
 22200=
63117 21214 99613 10011 47/97 /2418 10198 20088 49910 56010 700//
 22200=
63101 21214 99612 10009 46/// /2616 10106 20077 49908 56005 22200=
63103 21214 99612 10011 46/// ///// 22200=
63112 21214 99611 10010 46/97 /2517 10133 20079 49909 50002 22200
 10707 70034=
62112 21214 99584 70002 47798 /2325 10120 20067 49973 52003 700//
 22200=
PJAI 21214 99581 70014 47998 /2423 10123 20056 49974 51006 700//
 22200=
63055 21214 99606 10016 467// /2822 10109 20094 49928 51015 22200=
63108 21214 99608 10017 47997 /2620 10105 20068 49920 50009 700//
 22200 11101 70003=
62111 21214 99580 70003 46/// /2425 10124 20074 49998 52009 22200
 10605 70025=
62131 21214 99539 10012 46/// /24// 10149 20102 40110 51005 22200=
62149 21214 99537 10011 47698 /2222 10149 20101 40119 52005 700//
 22200 10403 70013=
62165 21214 99540 10009 47898 /2527 10146 20097 40111 51006 700//
 22200 10403 70014=
62127 21214 99540 10007 47898 ///// 10142 20098 40108 52007 700//
 22200 10403 70015=
62123 21214 99563 10022 47997 /2327 10127 20084 40050 52012 700//
 22200=
DBBH 21211 99669 70133 41396 83509 10070 20064 49890 53003 76162
 877// 22251 04072 299// 399// 499//=
AMOUK09 21214 99536 70036 46/// ///// 10154 20099 30103 40129
 52013 92050=
AMOUK11 21214 99533 70061 46/// ///// 10132 20088 30096 40142
 52027 92050=
62027 21214 99491 70022 46/// /2914 1//// 2//// 40220 50007 22200
 00171 11403 328// 70014=
AMOUK13 21214 99519 10013 46/// ///// 10146 20086 30153 40167
 52012 92050=
AMOUK01 21214 99554 10061 46/// ///// 10162 2//// 30069 40089
 54002 92050=
AMOUK03 21214 99535 10002 46/// ///// 10148 20100 30078 40114
 52021 92050=
AMOUK14 21214 99535 70033 46/// ///// 10144 20103 30096 40132
 52018 92050=
AMOUK12 21214 99533 70047 46/// ///// 10142 20088 30078 40113
 52020 92050=
AMOUK02 21214 99535 70030 46/// ///// 10141 20095 30086 40130
 52015 92050=
AMOUK04 21214 99533 70062 46/// ///// 10129 20080 30104 40143
 52025 92050=
62170 21214 99514 10020 46/97 /2526 10154 20121 40178 52014 22200
 00167 10501 70006 333 90710 91130=
62103 21214 99499 70029 46/99 /2821 10151 20114 40204 52007 22200
 00158 10702 70012 333 90710 91127=
64046 21214 99606 70049 46/// /2614 10102 20080 49894 53016 22200
 00111 10807 70037=
64045 21214 99591 70117 46/// /2820 10120 20081 49960 52038 22200
 00127 10810 70048 333 90710 91127=
62301 21214 99524 70047 46/// /2518 10145 20112 40154 51018 22200
 00157 10605 70026 333 90710 91127=
62442 21214 99490 70163 46/// /2615 1//// 2//// 40238 53012 22200
 00155=
62105 21214 99554 70122 46/// /2724 10126 20073 40086 52025 22200
 00130 10912 70061 333 90710 91133=
62303 21214 99516 70051 46/// /2623 10147 20124 40172 51011 22200
 00151 10606 70030 333 90710 91130=
62163 21214 99475 70084 46/// /2910 10163 20116 40242 52008 22200
 00168 11007 70034=
62107 21214 99501 70061 46/// /2818 10149 20123 40209 51008 22200
 00155 11005 70025 333 90710 91126=
62081 21214 99510 70134 46/// ///// 10144 20122 40198 53013 22200
 00147 10909 70044=
62001 21214 99453 70050 46/// /0407 10182 20144 40234 53010 22200
 00192 11206 70032=
TFEA 21211 99646 70228 42/99 40305 10116 49941 22281 00105=
LF4C 21214 99584 10019 43/// /2326 10127 20077 49982 52009 22200
 10707 70035=
####018000168####
SIVD01 PANC 212100 RRF
BBXX
WTEB 21214 99577 71525
43/// /0403 10100 20074 49784 5//// 7//// 8////
222// 0//// 2//// 3//// 4//// 5//// 6//// 8//// ICE /////=
