####018000194####
SIVD15 KWNB 212100 RRX
BBXX
42046 21211 99279 70940 46/// /0605 1//// 40147 92130 22200 00283
333 91206=
42046 21211 99279 70940 46/// /0606 1//// 40148 92100 22200 00283
333 91207=
####018000170####
SNVD15 KWNB 212300 RRO
BBXX
42363 21231 99282 70892 46/// /1005 10267 20189 40156 92315 333
91205=
42364 21231 99291 70881 46/// /0502 10256 20206 40159 92315=
####018000131####
SNVD17 CWVR 212300
BBXX
45145 21231 99519 70970 46/// /0109 10110 39959 40225 52002
22200 00140 10401 70007 333 91210 =

####018000312####
SNVD22 KWNB 212300 RRJ
BBXX
46109 21231 99481 71234 46/// /2001 10126 40118 58024 92300 22200
00105=
46110 21231 99481 71230 46/// /2902 10143 40119 56020 92300=
46111 21231 99481 71227 46/// /1201 10180 40117 57023 92300 22200
00109=
46112 21231 99481 71227 46/// /1505 10186 40114 57025 92300=
####018000166####
SNVD20 KWNB 212300 RRO
BBXX
42085 21231 99179 70665 46/// /1008 10296 40123 92250 333 91210=
42085 21231 99179 70665 46/// /1107 10296 40122 92240 333 91209=
####018000146####
SMVB01 KWBC 211800 RRI
BBXX
OXOR2 21184 99183 11137 41698 41113 10280 20250 40049 56013 70211
 8249/ 22284 00297 29901 399// 4//01 80258=
####018000169####
SNVD01 PANC 212200 RRH
BBXX
9HRJ9 21223 99360 10231
41897 33212 10220 20220 40090 54000 70111 824//
22234 00260 20000 336// 40000 5//// 6//// 80220 ICE /////=
####018000442####
SNVD01 PANC 212300 RRC
BBXX
9HXC9 21233 99406 10185
41797 40626 10240 20226 40140 54000 7//22 84//2
22234 04210 20203 3//// 4//// 5//// 6//// 80230 ICE /////=
WTDH 21234 99348 70753
43/// /1715 10254 20208 40192 5//// 7//// 8////
222// 04284 2//// 3//// 4//// 5//// 6//// 8//// ICE /////=
C6TZ9 21234 99372 10245
417// 23609 10220 20174 40080 54/// 7//00 82///
22222 00250 2//// 3//// 4//// 5//// 6//// 80190 ICE /////=
####018000718####
SIVD30 KWBC 212100 RRU
BBXX
42046 21211 99279 70940 46/// /0606 1//// 40148 92100 22200 00283
 333 91207=
42046 21211 99279 70940 46/// /0605 1//// 40147 92130 22200 00283
 333 91206=
42045 21211 99262 70965 46/// /0704 1//// 40134 92100 22200 00286
 333 91205=
42045 21211 99262 70965 46/// /0704 1//// 40134 92130 22200 00286
 333 91205=
42044 21211 99262 70971 46/// /0705 10288 20216 40130 92130 22200
 00297 333 91206=
42044 21211 99262 70971 46/// /0705 10286 20216 40130 57015 92100
 22200 00297 333 91207=
42043 21211 99290 70949 46/// /1105 10238 20160 40146 92100 22200
 00283 333 91206=
42043 21211 99290 70949 46/// /1205 10238 20161 40146 92130 22200
 00283 333 91206=
####018000168####
SNVF01 KWBC 212200 RRG
BBXX
9HRJ9 21223 99360 10231 41897 33212 10220 20220 40090 54000 70111
 824// 22234 00260 20000 336// 40000 5//// 6//// 80220 ICE /////=
####018001072####
SNVD01 KWBC 212200 RRO
BBXX
42046 21221 99279 70940 46/// /0606 1//// 40144 92230 22200 00283
 333 91207=
42046 21221 99279 70940 46/// /0406 1//// 40145 57010 92200 22200
 00283 333 91207=
42045 21221 99262 70965 46/// /0605 1//// 40131 92230 22200 00286
 333 91206=
42045 21221 99262 70965 46/// /0704 1//// 40132 57012 92200 22200
 00285 333 91205=
42044 21221 99262 70971 46/// /0805 10286 20221 40128 57011 92200
 22200 00297 333 91207=
42044 21221 99262 70971 46/// /0805 10287 20225 40129 92230 22200
 00296 333 91207=
42043 21221 99290 70949 46/// /1205 10238 20160 40144 92230 22200
 00283 333 91207=
42043 21221 99290 70949 46/// /1205 10239 20165 40145 57008 92200
 22200 00283 333 91206=
44055 21221 99391 70753 46/// ///// 1//// 92230 22200 00220 1//00
 70002=
42021 21221 99283 70833 46/// /3402 10282 40132 92220 22200 00297
 333 91202=
42021 21221 99283 70833 46/// /3302 10283 40132 56016 92200 22200
 00298 333 91202=
42360 21221 99267 70905 46/// /0507 10272 92200 22200 00304 10401
 70006 333 91208=
####018000167####
SNVB01 KWBC 212300 RRB
BBXX
KAOU 21234 99051 10858 43/// /2231 10249 20230 40099 5//// 7////
 8//// 222// 04284 2//// 3//// 4//// 5//// 6//// 8//// ICE /////=
####018000168####
SNVA01 KWBC 212300 RRB
BBXX
VRDA4 21234 99298 70192 41497 80618 10230 2017/ 40210 54000 70322
 82148 22283 0//// 2//// 3//// 4//// 5//// 6//// 80190 ICE /////=
####018000164####
SNVC01 KWBC 212300 RRB
BBXX
WBP3210 21234 99535 50456 43/// /2019 11041 2//// 40018 5////
 7//// 8//// 22222 00009 2//// 3//// 4//// 5//// 6//// ICE /////=
####018000314####
SNVD01 KWBC 212300 RRH
BBXX
NWS0020 21234 99342 71200 43/// /2709 10155 20150 40122 5////
 7//// 8//// 222// 04164 2//// 3//// 4//// 5//// 6//// 8//// ICE
 /////=
NWS0028 21234 99415 70707 43/// /1606 10196 20173 40240 5////
 7//// 8//// 222// 04201 2//// 3//// 4//// 5//// 6//// 8//// ICE
 /////=
####018003744####
SNVD01 KWBC 212300 RRG
BBXX
44067 21231 99384 70770 46/// /1103 10227 40191 56007 92300=
42085 21231 99179 70665 46/// /1008 10296 40124 52012 92300 22200
 00296 10502 70010 333 91210=
41029 21231 99328 70796 46/// ///04 10259 92300 555 11047 22054=
44255 21231 99473 70573 46/// /2607 10125 40179 52021 22200 00116
 10503 70014 333 91209=
44251 21231 99464 70534 46/// /2509 10121 40182 52010 22200 00110
 10903 70016 333 91210=
44150 21231 99425 70640 46/// /2605 10173 40257 52006 22200 00182
 10801 70007 333 91206=
41053 21231 99185 70661 46/// /0706 10290 40134 52015 92300 22200
 00290 10602 70011 333 91208=
41053 21231 99185 70661 46/// /0707 10290 40133 92250 333 91208=
41053 21231 99185 70661 46/// /0707 10290 40132 92240 333 91208=
41052 21231 99183 70648 46/// /0406 10287 40118 51006 92300 22200
 00291 10702 70009 333 91208=
44033 21231 99441 70690 46/30 /2003 10152 40227 52003 92304 22200
 00149 10801 70003 333 91203 555 11038 22043=
41052 21231 99183 70648 46/// /0407 10286 40118 92250 333 91208=
41052 21231 99183 70648 46/// /0407 10286 40119 92240 333 91209=
42021 21231 99283 70833 46/// /2602 10284 40133 92240 22200 00297
 333 91202=
45138 21231 99495 70658 46/// /2806 10114 40197 52017 22200 00117
 10502 70009 333 91208=
44139 21231 99442 70571 46/// /2707 10142 40244 52015 22200 00142
 10603 70015 333 91208=
42067 21231 99300 70886 46/// /1601 10240 20194 40153 92240 22200
 00280 10201 70003 333 91202=
41038 21231 99341 70777 46/// /1703 10246 40188 53006 92300 333
 91204=
44060 21231 99413 70721 46/// ///04 10189 40234 57004 92300 22200
 00196 333 91205 555 11046 22046=
42364 21231 99291 70881 46/// /0403 10256 20206 40163 53007 92300=
46066 21231 99527 71550 46/// /2711 10088 49886 52005 92250 22200
 00106 11108 20705 300// 41105 70038 333 91215 555 11119 22126
 32151 42917 62249 269112 272129 273114 269107 278110 283121 82815
 92152=
42364 21231 99291 70881 46/// /0403 10250 20206 40159 92245=
42362 21231 99278 70907 46/// /0904 10267 20222 92245=
42363 21231 99282 70892 46/// /1105 10267 20183 40156 55000 92300
 333 91205=
42362 21231 99278 70907 46/// /03// 10272 20222 92300=
44039 21231 99411 70727 46/// /1404 10216 20182 40239 92245 22200
 00213 1//00 70001 333 91205=
46089 21231 99459 71258 46/// /1808 10180 20178 40142 56010 92250
 22200 00173 11109 20603 327// 41108 70044 333 91209 555 11081
 22088 32151 41910 62249 184075 182077 184074 184074 188074
 188078=
44040 21231 99410 70736 46/// /1502 10215 20194 40231 92245 22200
 1//00 70001 333 91202 555 11015 22021=
46083 21231 99582 71380 46/// /1817 10110 20094 49692 55013 92250
 22200 00113 11112 20807 300// 41109 70058 333 91220 555 11180
 22192 32150 41721 62249 175166 166162 158161 150163 141154 137140
 81818 92249=
46076 21231 99595 71480 46/// /1302 10106 20080 49784 52003 92250
 22200 00111 11105 20301 300// 41105 70027 333 91203 555 11020
 22020 32152 41204 62249 125019 127025 131026 113028 111032 113031
 81203 92151=
41041 21231 99142 70460 46/// /0517 10270 20223 40089 50000 92250
 22200 00274 11314 20809 3//// 41311 70070 333 91221 555 11181
 22193 32159 40626 62249 053171 057176 060193 064196 064199 063189
 80622 92159=
46108 21231 99598 71521 46/// ///// 1//// 92301 22200 00104 11101
 21001 70005=
44008 21231 99405 70692 46/// ///// 10198 40245 54000 92250 22200
 00193 10901 70007=
WDC6698 21234 99750 71600 43/// /0115 10013 2//// 40010 5////
 7//// 8//// 222// 04018 2//// 3//// 4//// 5//// 6//// 8//// ICE
 /////=
NWS0003 21234 99779 71374 43/// /0806 11013 21014 40027 5////
 7//// 8//// 222// 05014 2//// 3//// 4//// 5//// 6//// 8//// ICE
 /////=
####018001363####
SNVF01 KWBC 212300 RRB
BBXX
C6TZ9 21234 99372 10245 417// 23609 10220 20174 40080 54/// 7//00
 82/// 22222 00250 2//// 3//// 4//// 5//// 6//// 80190 ICE /////=
62023 21233 99514 70079 46/96 /2526 10133 2//// 40194 5//// 22200
 10505 70023 555 70033 80008=
TFBKF 21234 99635 70202 46/// ///// 22200 10603 70013=
TFSTD 21234 99664 70234 46/// ///// 22200 10605 70027=
TFGRV 21234 99638 70225 46/// ///// 22200 10903 70014=
TFKGR 21234 99657 70136 46/// ///// 22200 10503 70015=
TFDRN 21234 99658 70212 46/// ///// 22200 10602 70010=
TFSRT 21234 99633 70203 46/// ///// 22200 10704 70019=
TFHFN 21234 99642 70152 46/// ///// 22200 10803 70015=
TFGRS 21234 99663 70182 46/// ///// 22200 10603 70015=
LMEL 21231 99677 10089 43/// /0809 10106 20091 40028 5//// 222/0
 04119 1//// 3//// 4//// 5////=
LJIT 21231 99764 10147 43/// /1109 10041 20031 40148 5//// 222/0
 04032 1//// 3//// 4//// 5////=
LF4H 21234 99596 10022 46/// /2428 10118 20069 49947 57005 8////
 92302 22200 06127 10706 70032=
LDGJ 21231 99774 10248 43/// /1207 10036 20020 40198 5//// 222/2
 04012 1//// 3//// 4//// 5////=
LAHV 21231 99802 10161 43/// /1413 10022 20005 40167 222// 04037
 1////=
62086 21231 99550 10063 46/// /2414 10157 20119 40090 57012 22230
 00159=
BATUK01 21234 99604 70009 46/// /2202 10100 20065 49902 56010
 22200 04124=
####018000667####
SNVD80 KWBC 212300 RRB
BBXX
45151 21231 99445 70794 46/// ///// 10178 39880 40142 57013 22200
 00177 1//// 70/// 333 912//=
45025 21231 99470 70884 46/// /2604 10135 20114 40060 92310 22200
 00166 10301 70003 333 91206=
45026 21231 99420 70866 46/// /2606 10203 20136 92310 22200 00193
 10402 70010 333 91208=
45025 21231 99470 70884 46/// /2503 10134 20110 40060 53020 92300
 22200 00166 10301 70003 333 91204=
45026 21231 99420 70866 46/// /2606 10204 20139 92300 22200 00194
 10502 70009 333 91208=
WZP8164 21234 99473 70897 41/98 /0000 11177 21177 40000 53000
 70200 8//// 222// 01178 20000 3//// 4//// 5//// 6//// 8//// ICE
 /////=
####018000131####
SNVD17 CWTO 212300
BBXX
45148 21231 99497 70945 46/// /3506 10103 39796 40188 52012
22200 00159 12000 70002 333 91208 =

####018000131####
SNVD17 CWTO 212300
BBXX
45149 21231 99435 70821 46/// /1807 10201 39905 40113 57003
22200 00183 10401 70005 333 91208 =

####018000124####
SNVD17 CWVR 212300
BBXX
46207 21231 99509 71299 46/// /2207 10150 40083 52016
22200 00142 11411 70057 333 91209=

####018000127####
SNVD22 KWNB 212300 RRK
BBXX
46232 21231 99325 71174 46/// ///// 1//// 92238 22200 00194 11502
21001 320// 41501 70009=
####018000222####
SNVD22 KWNB 212300 RRL
BBXX
46249 21231 99338 71197 46/// ///// 1//// 92310 22200 00189 11502
21001 318// 41501 70009=
46248 21231 99461 71247 46/// ///// 1//// 92304 22200 00149 11308
20904 329// 41307 70039=
####018000109####
SNVD15 KWNB 212300 RRP
BBXX
41115 21231 99184 70673 46/// ///// 1//// 92305 22200 10702 20702
70009=
####018000131####
SNVD17 CWTO 212300
BBXX
45147 21231 99424 70827 46/// /1805 10201 39919 40124 57006
22200 00187 10301 70004 333 91206 =

####018000115####
SNVD15 KWNB 212300 RRQ
BBXX
42099 21231 99273 70842 46/// ///// 1//// 92257 22200 00289 10602
20602 70009=
####018000127####
SNVD22 KWNB 212300 RRM
BBXX
46241 21231 99330 71173 46/// ///// 1//// 92240 22200 00196 11501
21001 323// 41501 70006=
####018000127####
SNVD22 KWNB 212300 RRO
BBXX
46216 21231 99343 71198 46/// ///// 1//// 92257 22200 00172 11101
21001 326// 41101 70007=
####018000222####
SNVD22 KWNB 212300 RRN
BBXX
46237 21231 99378 71226 46/// ///// 1//// 92310 22200 00171 11002
21002 325// 42001 70011=
46217 21231 99342 71194 46/// ///// 1//// 92312 22200 00182 11501
21001 319// 41501 70006=
####018000131####
SNVD17 CWTO 212300
BBXX
45159 21231 99438 70790 46/// /1104 10180 30058 40147 57006
22200 00174 10301 70004 333 91205 =

####018000127####
SNVD22 KWNB 212300 RRP
BBXX
46223 21231 99335 71178 46/// ///// 1//// 92300 22200 00194 11501
20901 318// 41501 70007=
####018000127####
SNVD22 KWNB 212300 RRQ
BBXX
46231 21231 99327 71174 46/// ///// 1//// 92249 22200 00197 11502
20901 321// 41501 70008=
####018000222####
SNVD22 KWNB 212300 RRR
BBXX
46222 21231 99336 71183 46/// ///// 1//// 92304 22200 00196 11401
20801 315// 41401 70007=
46218 21231 99345 71208 46/// ///// 1//// 92302 22200 00161 11503
21002 318// 41501 70013=
####018000127####
SNVD22 KWNB 212300 RRT
BBXX
46211 21231 99469 71242 46/// ///// 1//// 92306 22200 00145 11707
20903 328// 41706 70035=
####018000127####
SNVD22 KWNB 212300 RRS
BBXX
46242 21231 99332 71174 46/// ///// 1//// 92256 22200 00189 11501
20901 321// 41501 70006=
####018000128####
SNVF22 ENMI 212300
BBXX
LF4B 21234 99606 10037 47/98 /2322 10114 49948 52021 700// 92310
      22200 00105 10707 70035=
####018000067####
SNAL57 EUMS 212300
AAXX 21234
60691 46/// /0112 10315 21014=
####018000127####
SNVD22 KWNB 212300 RRU
BBXX
46221 21231 99339 71186 46/// ///// 1//// 92245 22200 00190 11501
21001 320// 41501 70007=
####018006632####
SNVF21 EGRR 212300
BBXX
62303 21234 99516 70051 46/// /2722 10146 20122 40176 52004 22200
00151 10606 70031 333 90710 91129=
62301 21234 99524 70047 46/// /2617 10144 20116 40158 51010 22200
00157 10604 70022=
64046 21234 99605 70049 46/// /2719 10107 20074 49910 53025 22200
00111 10707 70034=
62001 21234 99453 70050 46/// /0405 10183 20148 40234 50004 22200
00192 11105 70027=
62163 21234 99475 70084 46/// /3008 10160 20120 40242 50001 22200
00168 11007 70034=
62442 21234 99490 70163 46/// /2615 1//// 2//// 40236 50003 22200
00155=
62081 21234 99510 70134 46/// ///// 10144 20118 40202 51008 22200
00147 10910 70048=
62105 21234 99554 70122 46/// /2720 10126 20073 40096 52017 22200
00130 10910 70050 333 90710 91130=
64045 21234 99591 70117 46/// /2824 10112 20078 49976 51026 22200
00127 10810 70048 333 90710 91132=
2AUO5 21233 99606 10016 41397 52224 10123 20071 49925 53003 70166
8/7// 22251 20604 322// 40908 80098=
62103 21234 99499 70029 46/98 /2721 10151 20120 40204 50002 22200
00158 10702 70012 333 90710 91129=
62107 21234 99501 70061 46/// /2917 10150 20124 40211 52005 22200
00154 10905 70026 333 90710 91127=
AMOUK14 21234 99535 70030 46/// ///// 10141 20090 30096 40132
 52019 92250=
AMOUK05 21234 99535 10005 46/// ///// 10143 20109 30084 40132
 52007 92250=
AMOUK04 21234 99535 70053 46/// ///// 10131 20076 30108 40147
 52020 92250=
AMOUK13 21234 99519 10013 46/// ///// 10136 20105 30153 40167
 54002 92250=
AMOUK01 21234 99554 10066 46/// ///// 10166 2//// 30065 40085
 57010 92250=
AMOUK11 21234 99533 70052 46/// ///// 10137 20080 30104 40150
 52022 92250=
AMOUK09 21234 99538 70032 46/// ///// 10141 20084 30107 40133
 52015 92250=
AMOUK03 21234 99532 10007 46/// ///// 10143 20105 30089 40125
 52013 92250=
AMOUK02 21234 99534 70030 46/// ///// 10142 20085 30074 40118
 52020 92250=
63056 21234 99597 10016 47998 /2328 10117 20071 49935 58003 700// 22200 10707 70036=
63057 21234 99592 10015 47597 /2429 10119 20069 49954 58003 700// 22200 10707 70035=
62128 21234 99587 10014 47598 /2131 10120 20074 49970 57002 700// 22200 10706 70032=
62129 21234 99584 10003 46/// /2427 10119 20062 49992 52007 22200=
62113 21234 99584 10002 47598 /2230 10119 20061 49987 52004 700// 22200=
62111 21234 99580 70003 46/// /2528 10122 20071 40004 52007 22200 10606 70029=
PJAI 21234 99581 70014 47698 /2526 10125 20062 49979 53003 700// 22200=
62112 21234 99584 70002 47698 /2429 10117 20066 49974 53001 751// 22200=
63108 21234 99608 10017 47197 /2524 10096 20054 49927 52008 762// 22200 10000 70000=
63106 21234 99610 10017 46/// /2319 10113 49919 53001 22200=
63112 21234 99611 10010 46/97 /2415 10130 20067 49910 55003 22200 10706 70031=
63107 21234 99611 10017 46/// /2320 10113 49915 55000 22200=
63101 21234 99612 10009 46/// /2515 10110 20069 49911 53001 22200=
63103 21234 99612 10011 46/// ///// 22200=
63104 21234 99612 10016 47497 /2319 10114 20070 49915 52004 700// 22200=
63117 21234 99613 10011 47/97 /2418 10196 20068 49912 55000 700// 22200=
63115 21234 99616 10013 47597 /2217 10114 20075 49904 58001 762// 22200 10807 70036=
MWYG6 21234 99603 70040 47998 /2821 10107 700// 22200=
64041 21234 99607 70026 47397 ///// 10093 20067 49899 55000 763// 22200 10908 70041=
62133 21234 99571 10009 46/// /2328 10127 20065 40019 52004 22200=
62119 21234 99570 10019 47596 /2531 10124 20071 40040 53004 700// 22200 10606 70028=
62152 21234 99570 10018 47997 /2317 10124 20077 40045 53005 700// 22200 13614 70069=
62154 21234 99564 10022 46/// /2423 10122 20076 40050 51002 22200=
62120 21234 99564 10021 47997 /2525 10125 20073 40047 52004 700// 22200=
62132 21234 99564 10020 46/// /2618 10125 20078 40049 55000 22200=
62123 21234 99563 10022 47998 /2427 10126 20085 40050 52002 700// 22200=
62165 21234 99540 10009 47998 /2525 10141 20103 40114 53005 700// 22200 10403 70017=
62127 21234 99540 10007 47598 ///// 10139 20098 40111 52006 700// 22200 10403 70014=
62131 21234 99539 10012 46/// /23// 10142 20107 40112 53002 22200=
62149 21234 99537 10011 47898 /2424 10145 20104 40121 53004 700// 22200 10403 70013=
62148 21234 99536 10015 46/// ///// 10143 40136 53005 22200=
62150 21234 99536 10007 47798 /2516 10136 20104 40130 52005 700// 22200 10402 70010=
62121 21234 99535 10027 46/// ///// 22200=
62144 21234 99534 10017 47897 /2426 10142 20102 40137 53003 700// 22200 10403 70016=
62145 21234 99531 10028 47797 /2223 10150 20093 40137 54000 700// 22200 10404 70020=
62142 21234 99530 10021 46898 /2525 10147 40133 58002 22200 10403 70015=
ZQSD5 21234 99583 10007 46/// ///// 10126 20072 49983 57009 22200 10000 70000=
62114 21234 99583 10000 46/// /2331 10119 20063 49974 55000 22200=
62134 21234 99580 10014 47997 /2429 10123 20076 49997 53002 700// 22200 10606 70029=
62102 21234 99579 10018 46/// /2425 10121 20074 40000 52002 22200 10606 70031=
62117 21234 99579 10000 47997 /2226 10123 20076 49992 52003 700// 22200 10606 70029=
62143 21234 99577 10018 47997 /2529 10123 20076 40014 53003 700// 22200 10606 70031=
62118 21234 99577 10009 47997 /2328 10129 20079 49997 53004 700// 22200 10606 70030=
62155 21234 99577 10007 47997 /2427 10123 20079 40012 52005 751// 22200 10606 70031=
62116 21234 99576 10011 47997 /2431 10120 20073 40002 53002 700// 22200 10606 70029=
62104 21234 99574 10013 47997 /2526 10123 20076 40009 53002 700// 22200=
62153 21234 99573 10020 47596 /2424 10124 20079 40019 53001 704// 22200 10606 70032=
62122 21234 99573 10016 47997 /2427 10125 20077 40030 53004 700// 22200 10606 70031=
62140 21234 99573 10013 46/// /25// 10123 20077 40011 55000 22200=
62146 21234 99572 10021 47/97 /2523 10123 20077 40036 55001 700// 22200 10706 70031=
62164 21234 99572 10008 47997 /2325 10125 20078 40020 53004 700// 22200 10607 70036=
PJGO 21234 99571 10022 47597 /2314 10125 20088 40031 54000 700// 22200=
AMOUK12 21234 99533 70056 46/// ///// 10133 20076 30095 40130
 54000 92250=
62170 21234 99514 10020 46/98 /2529 10147 20108 40176 50001 22200
00166 10501 70005 333 90710 91134=
62305 21234 99504 10000 46/98 /2622 10155 20118 40205 50002 22200
00165 10602 70008 333 90710 91130=
62029 21234 99487 70125 46/// /2712 10155 20129 40236 50002 22200
00158=
62094 21234 99517 70067 46/// /2621 10141 20119 40176 52011 22200
00141 10605 70025 333 90710 91128=
62095 21234 99531 70159 46/// /2618 10135 20114 40156 51010 22200
00132 10808 70042 333 90710 91127=
62304 21234 99511 10018 46/98 /2525 10151 20120 40185 50001 22200
00167 10601 70007 333 90710 91134=
####018000224####
SNVD45 KWNB 212300 RRG
BBXX
45025 21231 99470 70884 46/// /2704 10134 20113 40060 92320 22200
00165 10301 70003 333 91206=
45026 21231 99420 70866 46/// /2606 10202 20137 92320 22200 00193
10402 70010 333 91208=
####018000487####
SNVD20 KWNB 212300 RRP
BBXX
44098 21231 99428 70702 46/// ///// 1//// 92307 22200 00173 10901
20901 70006=
44097 21231 99410 70711 46/// ///// 1//// 92302 22200 00191 10801
20801 70006=
44039 21231 99411 70727 46/// /1405 10215 20184 40240 57004 92300
22200 00213 1//00 70001 333 91206=
44060 21231 99413 70721 46/// ///04 10189 40235 92315 22200 00195
333 91205 555 11046 22046=
44022 21231 99409 70737 46/// /0000 10212 20182 40224 92315 22200
00210 333 91201=
####018000259####
SNVD15 KWNB 212300 RRR
BBXX
41114 21231 99276 70802 46/// ///// 1//// 92316 22200 00289 11002
21002 305// 41101 70010=
41037 21231 99340 70775 46/// /1504 10263 40179 53004 92300 333
91205=
42362 21231 99278 70907 46/// /1114 10272 20222 92315=
####018000203####
SNVD22 KWNB 212300 RRV
BBXX
46088 21231 99483 71232 46/// /2901 10124 40114 92320 22200 00107
1//00 70001 333 91202 555 11012 22014 32240 43402 62319 285010
255009 277006 022009 304010 226006=
####018000210####
SNVE15 KWNB 212300 RRD
BBXX
52200 21231 99134 11448 46/// ///// 1//// 92315 22200 00292 10603
20603 70013=
51201 21231 99217 71581 46/// ///// 1//// 92312 22200 00264 11403
20902 334// 41402 70015=
