####018000225####
SMVX80 KWUM 220312
BBXX KS073 22034 99291 70950 43/// /3502 10277 40159 22231 06266=
BBXX KS094 22034 99437 10074 43/// /3600 10204 40170 22200 06214=
BBXX KS044 22034 99072 31574 43/// /1108 10305 40095 22262 06306=
####018000195####
SOVX80 KWUM 220312
NNXX 22091
0300/ 72907 09502 41199 60266 82907 KS073=
NNXX 22091
0300/ 14344 00725 41199 60214 83576 KS094=
NNXX 22091
0300/ 30711 15725 41199 60306 8//// KS044=
####018000125####
SIVD17 CWHX 220300
BBXX
44137 22031 99423 70620 46/// /2803 10173 40270 52008
22200 00169 10602 70008 333 91203 =

####018000125####
SIVD17 CWHX 220300
BBXX
44138 22031 99443 70536 46/// /2808 10148 40236 52012
22200 00149 10503 70016 333 91209 =

####018000125####
SIVD17 CWHX 220300
BBXX
44141 22031 99430 70580 46/// /2905 10158 40262 52006
22200 00168 10802 70008 333 91206 =

####018000107####
SING22 AMMC 220300 RRC
AAXX 22033
92022 41580 73207 10298 20253 30089 40100 58021 70222 83232=


####018000107####
SING22 AMMC 220300 RRF
AAXX 22033
92077 41480 81405 10282 20232 30087 40114 5/022 71522 888//=


####018000107####
SING22 AMMC 220300 RRA
AAXX 22033
92004 41582 70903 10300 20256 30093 40097 57028 70222 83136=


####018000107####
SING22 AMMC 220300 RRD
AAXX 22033
92035 41470 61708 10300 20218 30043 40101 58024 71522 85830=


####018000101####
SING22 AMMC 220300 RRE
AAXX 22033
92068 41365 82807 10221 20197 38901 40101 71620 882//=


####018000107####
SING22 AMMC 220300 RRB
AAXX 22033
92005 41582 63605 10255 20169 38360 40190 58030 70122 84232=


