####018000144####
SMVB10 EHDB 221200 RRA
BBXX
DGDD 22121 99328 11351 41/98 53611 10250 20172 40060 52020 70211
8//// 22255 00260 2//// 3//// 4//// 5////=
####018000151####
SMVF10 EHDB 221200 RRC
BBXX
MQEC7 22123 99376 10082 41598 30910 10250 20177 40175 57005 70211
81107 22224 00245 20601 305// 41202 5//// 80201=
####018000144####
SMVD10 EHDB 221200 RRB
BBXX
PJFF 22123 99258 70656 41597 70921 10271 20231 40190 54000 75955
8686/ 22214 04277 20402 309// 41003 80242=
####018000145####
SMVF10 EHDB 221200 RRF
BBXX
A8OF6 22123 99482 70079 41898 52514 10195 20120 40240 54000 70211
831/5 22254 04160 20301 328// 40606 80150=
####018000138####
SMVF10 EHDB 221200 RRG
BBXX
PBFM 22123 99439 70165 41598 62306 10182 20127 40250 54000 70122
82448 22214 00221 20300 332// 41205=
####018000132####
SMVF10 EHDB 221200 RRA
BBXX
UCKG 22121 99677 10094 41/98 70810 10130 49944 57040 70111 8551/
22253 00130 20202 32300 40604=
####018000151####
SMVF10 EHDB 221200 RRB
BBXX
MDTE9 22124 99689 10122 41498 40604 10115 20076 49967 57040 70300
81241 22253 00100 2//02 30600 41004 5//// 80096=
####018000133####
SMVF10 EHDB 221200 RRD
BBXX
DDVK2 22123 99367 70005 41598 12805 10255 20205 40198 52/// 7//22
81111 22264 00255 21801 80220=
####018000151####
SMVE10 EHDB 221200 RRA
BBXX
2AGH7 22123 99245 31597 41498 31517 10205 20181 40197 52010 78080
8/1// 22264 00210 20202 315// 40302 5//// 80190=
####018000138####
SMVE10 EHDB 221200 RRB
BBXX
DDPH 22124 99343 31718 41398 31916 10140 20102 40140 70200 82180
22224 04180 20202 320// 40703 80120=
####018000144####
SMVA10 EHDB 221200 RRB
BBXX
PCVX 22123 99162 30038 41498 61320 10196 20157 40175 58012 70222
8667/ 22231 04193 20502 316// 41006 80171=
####018000144####
SMVB10 EHDB 221200 RRB
BBXX
PHPP 22124 99061 10934 41398 62018 10285 20237 40095 53014 70122
82248 22264 00295 20202 323// 40303 80250=
####018000144####
SMVD10 EHDB 221200 RRA
BBXX
DIHC 22123 99543 71605 41397 43024 10080 20060 49890 52020 70211
8318/ 22264 00080 21004 327// 40806 80070=
####018000132####
SMVD10 EHDB 221200 RRC
BBXX
DGNB 22124 99384 70353 41497 73416 10210 20195 40225 52005 70322
8777/ 22264 00249 21102 80200=
####018000145####
SMVA10 EHDB 221200 RRA
BBXX
A8CS2 22123 99320 30306 41298 80517 10210 20194 40230 57030 70222
8779/ 22254 20602 322// 41005 5//// 80200=
####018000150####
SMVF10 EHDB 221200 RRE
BBXX
PDZS 22123 99443 70080 41598 80519 10180 20143 40240 57005 70222
885// 22252 02186 20403 333// 41006 5//// 80157=
####018000656####
SMVF11 ENMI 221200
BBXX
LAHV 22121 99809 10174 41480 71905 10030 20011 40163 70322 875xx
      222// 04039 10302=
LDGJ 22121 99774 10303 43/// /1305 10023 20010 40198 5//// 222/2
      04030 1//// 3//// 4//// 5////=
LF4H 22124 99596 10022 46/// /2623 10107 20051 40016 52015 8////
      22200 06126 10606 70028 333 91136=
LGWS 22121 99339 30184 43/// /1203 10176 20067 40235 5//// 222/0
      04140 1//// 3//// 4//// 5////=
LJIT 22121 99755 10145 43/// /1207 10065 20057 40117 5//// 222/0
      04074 1//// 3//// 4//// 5////=
LMEL 22121 99678 10096 43/// /0913 10144 20064 49942 5//// 222/0
      04118 1//// 3//// 4//// 5////=
####018000143####
SMVF11 LFPW 221200
BBXX
BATUK01 22124 99602 70011 44497 72813 10120 20057 40003 52015 70222
8733/
22200 04125 20602 60/// ICE 0////=
####018000256####
SMVF11 BIRK 221200
BBXX
TFHFN 22124 99642 70152 46/// ///// 22200 10703 70013=
TFKGR 22124 99657 70136 46/// ///// 22200 10504 70018=
TFSRT 22124 99633 70203 46/// ///// 22200 10703 70017=
TFSTD 22124 99664 70234 46/// ///// 22200 10708 70039=
####018000126####
SMVD02 CWAO 221200
BBXX
CG2522 22124 99619 71214 41/94 /2003 10100 20047 4//// 58000 7//55 85/// 22280 0//// 2//// =

####018000329####
SMYG21 LYBM 221200
AAXX 22121
13067 32697 32902 10243 20132 30046 40168 57015 83200=
13183 32660 40402 10240 20158 30073 40170 57017 84100 333 84833=
13279 32597 30202 10235 20139 30032 40171 57014 83200=
13295 32698 10701 10270 20081 30102 40153 57015 81200=
13367 32598 40902 10158 20124 39023 48542 57008 84800=
####018000513####
SMYG22 LYBM 221200
AAXX 22121
13168 32697 52902 10243 20160 30072 40173 58014 85500=
13174 32697 22503 10244 20150 30070 40165 57015 82100=
13269 31696 60701 10229 20151 39972 40175 57013 71022 86800=
13274 32696 32902 10239 20143 30020 40172 57015 83100=
13278 32697 53403 10218 20157 39961 40175 57014 85800=
13378 32497 40702 10108 20076 38306 48536 58002 84800 333 91106=
13397 32598 42904 10234 20066 39634 40142 57010 84800=
13457 42960 02203 10284 20132 30123 40130 57010=
13481 NIL=
####018000541####
SMVF11 BIRK 221200
BBXX
TFHFN 22124 99642 70152 46/// ///// 22200 10703 70013=
TFKGR 22124 99657 70136 46/// ///// 22200 10504 70018=
TFSRT 22124 99633 70203 46/// ///// 22200 10703 70017=
TFSTD 22124 99664 70234 46/// ///// 22200 10708 70039=
TFBKF 22124 99635 70202 46/// ///// 22200 10702 70011=
TFBLK 22124 99657 70248 46/// ///// 22200 10706 70031=
TFDRN 22124 99658 70212 46/// ///// 22200 10804 70020=
TFGRS 22124 99663 70182 46/// ///// 22200 10807 70036=
TFGRV 22124 99638 70225 46/// ///// 22200 10802 70011=
####018000446####
SMYG23 LYBM 221200
AAXX 22121
13173 32698 62903 10238 20162 30079 40174 56011 86200=
13180 32697 42902 10235 20157 30064 40169 57022 84200=
13266 32698 53002 10234 20138 30077 40173 57016 85200=
13369 32598 50402 10172 20095 39006 48507 57009 85200=
13383 32697 52802 10234 20138 39970 40163 57019 85800=
13384 32698 43202 10236 20153 30026 40169 57017 84800=
13389 32597 33001 10248 20121 39884 40158 58013 82201=
13477 NIL=
####018000143####
SMVD11 LFPW 221200
BBXX
A8EH3 22124 99462 71623 41498 62516 10150 20116 40045 56020 70122
8557/
22225 04120 20902 329// 41202 80130=
####018000123####
SMVX01 EDZW 221200
BBXX
DBLK 22121 99784 11253 41598 70214 11022 21066 40104 52016
71582 878// 22260 04015 20604 =
####018000131####
SMVF11 LFPW 221200
BBXX
DDDO2 22124 99503 70013 41597 32513 10200 20131 40210 52005 70100
82442
22264 04166 20302 80158=
####018000149####
SMVB11 LFPW 221200
BBXX
V7FE9 22124 99340 11645 41398 11417 10260 20215 40242 51010 70000
81100
22224 04270 20201 39999 40201 5//// 80230=
####018000131####
SMVA11 LFPW 221200
BBXX
A8AF6 22123 99039 70006 41598 31807 10280 20224 40150 54000 70200
81145
22263 02260 20101 80240=
####018000143####
SMVD11 LFPW 221200
BBXX
A8LN2 22124 99471 70410 41397 52732 10145 20128 40130 53/// 70322
8471/
22263 04171 21107 325// 41107 80135=
####018000127####
SMVF22 EIDB 221200
BBXX
62023 22123 99514 70079 46/96 /2517 10148 2//// 40222 5////
22200 10503 70016 555 70027 80009=
####018000149####
SMVF11 LFPW 221200
BBXX
OXHY2 22123 99480 70061 41/98 52807 10180 20131 40248 50001 70222
8436/
22214 00170 2//02 332// 41205 5//// 80150=
####018002218####
SMVE01 AMMC 221200
BBXX
V2OG2 22123 99238 31076 41597 42110 10201 20131 40217 54000 70300
83460 22273 20502 323// 40805 80161=
VNVG 22124 99041 11277 41398 82003 10270 20241 40107 52010 72562
887// 22284 00286 20402 304// 40802 80250=
VNJC 22103 99247 31132 41598 12118 10202 20168 40182 55003 70100
81500 22241 29902 30000 80181=
VRWS4 22124 99258 31534 41/97 /1111 10200 20135 40231 51013 70211
8//// 22243 04210 2//02 80160=
VNSZ 22104 99410 31463 46/// /3214 10150 20110 30004 40030 57052
22276 04125 85127=
C6FS9 22104 99348 31385 46/// /2204 10158 20116 30142 40179 52057
22200 04174 85134=
VROB 22104 99121 31484 46/// /1422 10256 20220 30114 40139 52012
22273 04257 85231=
FHZI 22104 99429 31473 46/// /3513 10187 20068 30002 40013 57018
22200 04122 85122=
9HA2479 22104 99088 31152 46/// /1710 10251 20204 30089 40118 52001
22200 04262 85218=
C4LL2 22123 99194 31478 41/98 31220 10215 40185 52015 70200 83100
22274 20701 30000=
V7EM3 22123 99049 31134 41/97 11714 10281 20225 40108 55040 70200
8//// 22223 00260 20502 80241=
VNSZ 22124 99403 31458 46/// /3136 10159 20102 30006 40032 57028
22276 04130 85126=
C6FS9 22124 99348 31385 46/// /2315 10147 20105 30160 40197 52031
22200 04174 85123=
9HA2479 22124 99088 31152 46/// /2505 10245 20206 30111 40140 52026
22200 04263 85218=
VRDB3 22124 99299 31535 41398 40312 10195 20147 40231 56010 70211
84/// 22244 00270 2//// 3//// 4//// 80165=
VNSZ 22114 99407 31461 46/// /3141 10168 20096 30004 40030 57045
22276 04126 85127=
C6FS9 22114 99348 31385 46/// /2313 10155 20109 30155 40192 52043
22200 04173 85128=
VNAH 22114 99383 31416 46/// /2731 10143 20079 30063 40087 52047
22200 04150 85108=
VROB 22114 99119 31483 46/// /1419 10256 20221 30118 40143 52013
22273 04257 85231=
FHZI 22114 99429 31473 46/// /3314 10188 20070 30009 40020 57007
22200 04122 85123=
9HA2479 22114 99088 31152 46/// /2504 10245 20206 30099 40128 52013
22200 04262 85218=
VRDG4 22123 99343 31695 41592 60314 10140 20140 40155 53033 70211
85893 22263 00170 20804 80140=
ZCBU6 22104 99216 51506 41498 21018 10245 20199 40151 51010 70100
82100 22274 00230 20302 312// 40302 5//// 80215=

####018002215####
SMVE01 AMMC 221200
BBXX
V2OG2 22123 99238 31076 41597 42110 10201 20131 40217 54000 70300
83460 22273 20502 323// 40805 80161=
VNVG 22124 99041 11277 41398 82003 10270 20241 40107 52010 72562
887// 22284 00286 20402 304// 40802 80250=
VNJC 22103 99247 31132 41598 12118 10202 20168 40182 55003 70100
81500 22241 29902 30000 80181=
VRWS4 22124 99258 31534 41/97 /1111 10200 20135 40231 51013 70211
8//// 22243 04210 2//02 80160=
VNSZ 22104 99410 31463 46/// /3214 10150 20110 30004 40030 57052
22276 04125 85127=
C6FS9 22104 99348 31385 46/// /2204 10158 20116 30142 40179 52057
22200 04174 85134=
VROB 22104 99121 31484 46/// /1422 10256 20220 30114 40139 52012
22273 04257 85231=
FHZI 22104 99429 31473 46/// /3513 10187 20068 30002 40013 57018
22200 04122 85122=
9HA2479 22104 99088 31152 46/// /1710 10251 20204 30089 40118 52001
22200 04262 85218=
C4LL2 22123 99194 31478 41/98 31220 10215 40185 52015 70200 83100
22274 20701 30000=
V7EM3 22123 99049 31134 41/97 11714 10281 20225 40108 55040 70200
8//// 22223 00260 20502 80241=
VNSZ 22124 99403 31458 46/// /3136 10159 20102 30006 40032 57028
22276 04130 85126=
C6FS9 22124 99348 31385 46/// /2315 10147 20105 30160 40197 52031
22200 04174 85123=
9HA2479 22124 99088 31152 46/// /2505 10245 20206 30111 40140 52026
22200 04263 85218=
VRDB3 22124 99299 31535 41398 40312 10195 20147 40231 56010 70211
84/// 22244 00270 2//// 3//// 4//// 80165=
VNSZ 22114 99407 31461 46/// /3141 10168 20096 30004 40030 57045
22276 04126 85127=
C6FS9 22114 99348 31385 46/// /2313 10155 20109 30155 40192 52043
22200 04173 85128=
VNAH 22114 99383 31416 46/// /2731 10143 20079 30063 40087 52047
22200 04150 85108=
VROB 22114 99119 31483 46/// /1419 10256 20221 30118 40143 52013
22273 04257 85231=
FHZI 22114 99429 31473 46/// /3314 10188 20070 30009 40020 57007
22200 04122 85123=
9HA2479 22114 99088 31152 46/// /2504 10245 20206 30099 40128 52013
22200 04262 85218=
VRDG4 22123 99343 31695 41592 60314 10140 20140 40155 53033 70211
85893 22263 00170 20804 80140=
ZCBU6 22104 99216 51506 41498 21018 10245 20199 40151 51010 70100
82100 22274 00230 20302 312// 40302 5//// 80215=
####018000030####
SMVJ01 AMMC 221200
NIL

####018000140####
SMVF01 AMMC 221200
BBXX
PBLQ 22123 99414 70169 41598 40205 10205 20104 40247 51005 70300
83560 22213 00206 2//00 335// 41207 80150=
####018000396####
SMVB01 AMMC 221200
BBXX
VNVR 22104 99198 11268 46/// /0618 10276 20215 30050 40079 57003
22243 04292 85232=
ZCAS2 22124 99249 11263 41698 23611 10250 20170 40121 53006 70100
82100 22283 00279 20303 80200=
VNVR 22124 99193 11269 46/// /0520 10278 20221 30056 40085 52011
22243 04292 85237=
VNVR 22114 99195 11269 46/// /0617 10278 20220 30054 40083 52008
22243 04293 85237=

####018000027####
SMVD01 AMMC 221200
NIL
####018000030####
SMVC01 AMMC 221200
NIL

####018000030####
SMVA01 AMMC 221200
NIL

####018000224####
SMVD45 KWNB 221200 RRF
BBXX
45025 22121 99470 70884 46/// /2405 10078 20059 40140 91210 22200
00161 1//00 70002 333 91207=
45026 22121 99420 70866 46/// /2206 10172 20119 91210 22200 00191
10402 70009 333 91208=
####018000241####
SMVD17 KWNB 221200 RRF
BBXX
46066 22121 99527 71550 46/// /2608 10086 49902 54000 91150 22200
00105 11007 20704 300// 41006 70037 333 91212 555 11081 22085
31142 42612 61149 257079 269087 275068 281074 283074 286072 82611
91142=
