####018000202####
SIVF10 EHDB 220300 RRB
BBXX
TBWAA05 22033 99548 10132 41/97 /2316 10135 20109 40108 56015 70022
8//// 22263 2//// 3//// 4//// 5//// 80120 00/87 1/764 5989300/ 871/7
64598 93931/65 1/626 /807=
####018000145####
SIVF10 EHDB 220300 RRA
BBXX
A8JI2 22034 99420 70265 41/97 71412 10200 20158 40230 57010 70322
8//// 22214 20401 332// 41004 5//// 80173=
####018000133####
SIVB10 EHDB 220300 RRA
BBXX
DDYL2 22033 99230 11172 41297 80626 10250 20201 40120 58010 70322
886// 22255 00260 20406 80216=
####018000552####
SIVF21 ENMI 220300
BBXX
LDGJ 22031 99774 10264 43/// /1308 10041 20026 40199 5//// 222/2
      04029 1//// 3//// 4//// 5////=
LF4H 22034 99596 10022 46/// /2626 10114 20069 49949 52001 8////
      22200 06127 10707 70033=
LGWS 22031 99339 30184 43/// /2002 10128 20076 40220 5//// 222/0
      04135 1//// 3//// 4//// 5////=
LJIT 22031 99764 10145 43/// /1109 10040 20031 40141 5//// 222//
      04028 1//// 3//// 4//// 5////=
LMEL 22031 99677 10089 43/// /0813 10114 20085 49987 5//// 222/0
      04119 1//// 3//// 4//// 5////=
####018000108####
SIVX21 EUMS 220300 RRI
BBXX
DBBA 22031 99549 10137 46/// /2109 10132 20118 40112 57013
22220 00121=
####018000108####
SIVX21 EUMS 220300 RRJ
BBXX
DBBC 22031 99541 10089 46/// /2411 10147 2//// 40116 57009
22230 00147=
####018000117####
SIVF30 LFPW 220300
BBXX
61001 22034 99434 10078 46/// /1907 10201 20166 40160 57006
22200 00217 10401 70005=
####018000108####
SIVX21 EUMS 220300 RRC
BBXX
DBFR 22031 99542 10079 46/// /2511 10158 20128 40106 57013
22261 00159=
####018000108####
SIVX21 EUMS 220300 RRM
BBXX
DBCK 22031 99548 10082 46/// /2813 10140 20108 40091 52001
22232 00156=
####018000108####
SIVX21 EUMS 220300 RRE
BBXX
DBJM 22031 99540 10085 46/// /2211 10147 20121 40118 57009
22230 00152=
####018000108####
SIVX21 EUMS 220300 RRH
BBXX
DBKR 22031 99541 10121 46/// /2204 10150 20117 40125 57009
22200 00155=
####018000108####
SIVX21 EUMS 220300 RRK
BBXX
DBBI 22031 99535 10100 46/// /2405 10146 20127 40132 57002
22230 00167=
####018000117####
SIVD30 LFPW 220300
BBXX
41101 22034 99146 70562 46/// /0719 10284 20244 40138 52008
22200 00287 10604 70019=
####018000108####
SIVX21 EUMS 220300 RRF
BBXX
DBFH 22031 99546 10134 46/// /2207 10142 20121 40116 57011
22210 00149=
####018000115####
SIVX21 EUMS 220300 RRG
BBXX
DBEB 22031 99539 10078 41/// /2311 10141 20141 40112 58008
7//// 22261 00159 =
####018000108####
SIVX21 EUMS 220300 RRD
BBXX
DBEA 22031 99540 10083 46/// /2413 10149 20122 40115 57008
22220 00157=
####018000108####
SIVX21 EUMS 220300 RRL
BBXX
DBND 22031 99543 10101 46/// /2203 10140 20124 40116 57005
22270 00144=
####018000117####
SIVF30 LFPW 220300
BBXX
61002 22034 99421 10047 46/// /3208 10205 20178 40176 57006
22200 00212 10501 70003=
####018000088####
SNVX19 LFVW 220200 RRC
BBXX
FLAO 2202/ 99764 70829 46/// ///// 11025 40137 57008=
####018000139####
SIVF30 LFPW 220300
BBXX
BATUK01 22034 99604 70010 44596 22818 10102 20059 49935 51031 70100
821//
22200 04124 325// 43002 5////=
####018000484####
SIVF11 BIRK 220300
BBXX
TFBKF 22034 99635 70202 46/// ///// 22200 10702 70011=
TFDRN 22034 99658 70212 46/// ///// 22200 10703 70014=
TFGRS 22034 99663 70182 46/// ///// 22200 10603 70015=
TFGRV 22034 99638 70225 46/// ///// 22200 10803 70013=
TFHFN 22034 99642 70152 46/// ///// 22200 10703 70014=
TFKGR 22034 99657 70136 46/// ///// 22200 10503 70017=
TFSRT 22034 99633 70203 46/// ///// 22200 10804 70019=
TFSTD 22034 99664 70234 46/// ///// 22200 10707 70034=
####018000554####
SIYG20 LYBM 220300
AAXX 22031
13160 32997 02101 10139 20135 30082 40187 53001=
13262 31696 60000 10127 20123 30048 40194 55000 71020 86500=
13272 41940 02102 10139 20127 30070 40187 53000 710//=
13285 32698 82502 10164 20153 30083 40183 51004 885//=
13289 31/91 93204 10108 20106 39005 48517 58004 74544=
13376 32696 80201 10147 20139 39935 40191 54000 71022 885//=
13388 32697 40301 10158 20142 39929 40170 56002 84500=
13462 42970 00304 10205 20085 30102 40140 50002=
13473 NIL=
13489 32997 00101 10143 20128 39654 40160 56005=
####018000434####
SIYG23 LYBM 220300
AAXX 22031
13173 32998 02301 10143 20138 30082 40180 54000=
13180 32998 62302 10146 20146 30078 40186 51001 86070=
13266 32997 03001 10142 20137 30091 40190 55005=
13369 32697 40000 10092 20088 39012 48501 54000 84500=
13383 32997 82703 10160 20153 39980 40178 58003 8807/=
13384 32698 83201 10162 20147 30032 40179 58004 885//=
13389 32697 61801 10139 20131 39894 40169 54000 86500=
13477 NIL=
####018000263####
SIYG21 LYBM 220300
AAXX 22031
13067 32997 02902 10143 20139 30053 40180 54000=
13183 NIL=
13279 32697 80000 10153 20148 30041 40185 58003 885//=
13295 32998 01201 10128 20111 30113 40167 58003=
13367 31/91 92301 10105 20103 39024 48524 58003 74544=
####018000513####
SIYG22 LYBM 220300
AAXX 22031
13168 32997 02301 10140 20133 30078 40183 54000=
13174 31996 02503 10142 20133 30072 40171 56001 71000=
13269 31695 72702 10141 20124 39985 40195 54000 71011 87500=
13274 31696 22501 10150 20144 30032 40189 55000 71000 82800=
13278 31695 82301 10151 20143 39970 40189 58002 71022 885//=
13378 31/92 90603 10072 20072 38296 48524 51006 74544 333 91109=
13397 32998 02901 10133 20117 39636 40162 57005=
13457 32970 01201 10212 20064 30128 40135 54000=
13481 NIL=
####018000111####
SIVX21 EDZW 220300
BBXX
DBLK 22031 99784 11258 41497 /0408 11014 21042 40058 53003
7//// 22231 04016 =
####018000127####
SIVF22 EIDB 220300
BBXX
62023 22033 99514 70079 46/96 /2622 10131 2//// 40202 5////
22200 10604 70020 555 70032 81001=
