####018000646####
SIVF21 ENMI 212100
BBXX
LAHV 21211 99801 10168 41360 81613 10018 20001 40176 70222 886xx
      222// 04041 10403=
LDGJ 21211 99773 10256 43/// /1207 10046 20027 40206 5//// 222/2
      04025 1//// 3//// 4//// 5////=
LF4H 21214 99596 10022 46/// /2422 10117 20077 49951 52011 8////
      22200 06128 10707 70034=
LGWS 21211 99339 30184 43/// /1502 10150 20073 40225 5//// 222/0
      04137 1//// 3//// 4//// 5////=
LJIT 21211 99764 10146 43/// /1210 10043 20032 40147 5//// 222/0
      04029 1//// 3//// 4//// 5////=
LMEL 21211 99677 10089 43/// /1108 10105 20101 40043 5//// 222/0
      04119 1//// 3//// 4//// 5////=
####018000107####
SIVF30 LFPW 212100
BBXX
BATUK01 21214 99604 70010 46/// /2319 10099 20064 49908 58003
22200 04124=
####018000428####
SIYG23 LYBM 212100
AAXX 21211
13173 32997 02301 10165 20157 30085 40182 51002=
13180 32998 02502 10167 20165 30077 40184 51008=
13266 32997 02901 10145 20136 30094 40193 52019=
13369 32598 33102 10100 20094 39014 48502 51007 83500=
13383 32998 82801 10160 20153 39983 40181 52007 8807/=
13384 32698 83401 10172 20155 30038 40184 52010 885//=
13389 32697 71801 10148 20138 39894 40167 52014 87500=
13477 NIL=
####018000558####
SIYG20 LYBM 212100
AAXX 21211
13160 32997 02703 10168 20160 30081 40186 51006=
13262 31996 00000 10144 20139 30049 40195 58001 71020=
13272 41950 02402 10154 20139 30071 40188 51003 71021=
13285 32698 62602 10179 20161 30079 40178 52009 86500=
13289 32998 03303 10117 20068 39012 48525 51004=
13376 32697 82802 10163 20150 39937 40192 51004 885//=
13388 32698 73602 10177 20142 39933 40172 52011 87500=
13462 42970 10205 10227 20100 30099 40137 52011 81030 333 82359=
13473 NIL=
13489 32697 20202 10157 20136 39658 40161 52013 82500=
####018000317####
SIYG21 LYBM 212100
AAXX 21211
13067 32997 02702 10175 20167 30055 40150 51004=
13183 42960 22001 10169 20154 30083 40185 52007 82030 333 82360=
13279 32697 72702 10159 20147 30045 40188 53016 87500=
13295 32997 00000 10145 20121 30115 40168 51005=
13367 31/91 90501 10104 20102 39027 48527 50001 74544=
####018000539####
SIYG22 LYBM 212100
AAXX 21211
13168 32997 02502 10160 20152 30081 40185 51003=
13174 32997 02503 10167 20151 30074 40172 51001=
13269 31695 82701 10150 20142 39987 40196 50003 71022 885//=
13274 31996 02602 10160 20149 30034 40190 51004 71000=
13278 31695 40000 10152 20142 39974 40194 52010 71011 84500=
13378 32296 70506 10065 20066 38294 48522 51004 87600 333 91014
91114=
13397 32698 83101 10152 20128 39633 40156 51001 885//=
13457 32960 20204 10239 20100 30125 40132 50001 82030 333 82360
91111=
13481 NIL=
####018000137####
SIVF22 EIDB 212100
BBXX
62023 21213 99514 70079 46/96 /2631 10134 2//// 40187 5////
22200 10505 70023 333 91136 555 70036 80003=
####018000541####
SIVF11 BIRK 212100
BBXX
TFGRS 21214 99663 70182 46/// ///// 22200 10603 70014=
TFGRV 21214 99638 70225 46/// ///// 22200 10903 70014=
TFHFN 21214 99642 70152 46/// ///// 22200 10703 70015=
TFKGR 21214 99657 70136 46/// ///// 22200 10503 70013=
TFSRT 21214 99633 70203 46/// ///// 22200 10704 70019=
TFSTD 21214 99664 70234 46/// ///// 22200 10605 70025=
TFBKF 21214 99635 70202 46/// ///// 22200 10602 70012=
TFBLK 21214 99657 70248 46/// ///// 22200 10604 70022=
TFDRN 21214 99658 70212 46/// ///// 22200 10602 70009=
####018000241####
SIVD17 KWNB 212100 RRG
BBXX
46066 21211 99527 71550 46/// /2710 10092 49883 51010 92050 22200
00106 11009 20806 300// 41006 70043 333 91213 555 11102 22108
32035 42715 62049 268095 273118 276096 277109 280108 273111 82714
92016=
####018000030####
SING22 AMMC 212100
NIL

####018000030####
SIVC21 AMMC 212100
NIL

####018000030####
SIVF21 AMMC 212100
NIL

####018000207####
SIVB21 AMMC 212100
BBXX
VNVR 21194 99237 11267 46/// /3517 10259 20202 30064 40093 57008
22244 04282 85219=
VNVR 21204 99235 11267 46/// /3517 10258 20198 30065 40094 57004
22244 04282 85216=

####018000030####
SIVJ21 AMMC 212100
NIL

####018001239####
SIVE21 AMMC 212100
BBXX
VNSZ 21194 99409 31462 46/// /3211 10122 20109 30130 40157 57017
22235 04124 85115=
C6FS9 21194 99348 31385 46/// /0311 10162 20081 30113 40150 57024
22200 04174 85117=
VNAH 21194 99383 31416 46/// /3514 10127 20080 30114 40138 57022
22200 85101=
FHZI 21194 99429 31473 46/// /0402 10130 20083 30114 40125 52006
22200 04121 85104=
VROB 21194 99152 31501 46/// /1425 10246 20208 30116 40141 57005
22273 04258 85219=
9HA2479 21194 99085 31157 46/// /2416 10247 20209 30101 40130 52006
22253 04265 85220=
CBGR 21204 99193 31474 46/// /1109 10226 40172=
VNSZ 21204 99412 31464 46/// /2911 10121 20109 30120 40147 57019
22242 04125 85114=
C6FS9 21204 99348 31385 46/// /0312 10161 20085 30112 40149 57014
22200 04172 85119=
VROB 21204 99150 31500 46/// /1327 10252 20207 30120 40145 52005
22273 04262 85220=
HRRF 21204 99197 31492 46/// /1313 10225 40178=
VNAH 21204 99383 31416 46/// /3619 10134 20076 30111 40135 57016
22200 04146 85103=
9HA2479 21204 99086 31155 46/// /3015 10242 20204 30102 40131 52011
22253 04273 85216=
DVRF 21204 99188 31477 46/// /1313 10233 40168=
FHZI 21204 99429 31473 46/// /0001 10127 20083 30118 40129 52007
22200 04121 85103=

####018000030####
SIVD21 AMMC 212100
NIL

####018000030####
SIVA21 AMMC 212100
NIL

