####018000147####
SNVX19 LFVW 221100 RRA
BBXX
MINUK05 2211/ 99596 70047 46/// ///// 10123 40019 52017=
FLAO 2211/ 99764 70829 46/// ///// 11035 40100 57018=
####018000124####
SNVD17 CWVR 221100
BBXX
46207 22111 99509 71299 46/// /1903 10143 40100 57004
22200 00141 11309 70046 333 91204=

####018000131####
SNVD17 CWTO 221100
BBXX
45147 22111 99424 70827 46/// /2304 10172 39963 40170 52009
22200 00187 1//00 70002 333 91205 =

####018000131####
SNVD17 CWTO 221100
BBXX
45159 22111 99438 70790 46/// /3103 10177 30068 40157 52012
22200 00174 10400 70002 333 91203 =

####018000128####
SNVF22 ENMI 221100
BBXX
LF4B 22114 99606 10037 47/98 /2623 10116 49991 52021 700// 91110
      22200 00109 10707 70035=
####018000127####
SNVD22 KWNB 221100 RRM
BBXX
46232 22111 99325 71174 46/// ///// 1//// 91038 22200 00193 11502
20901 319// 41501 70008=
####018000127####
SNVD15 KWNB 221100 RRK
BBXX
44100 22111 99363 70756 46/// ///// 1//// 91052 22200 00225 11002
21002 307// 41101 70010=
####018000222####
SNVD22 KWNB 221100 RRN
BBXX
46249 22111 99338 71197 46/// ///// 1//// 91110 22200 00188 11402
21001 319// 41401 70008=
46248 22111 99461 71247 46/// ///// 1//// 91104 22200 00152 11507
21004 329// 41507 70037=
####018000127####
SNVD22 KWNB 221100 RRO
BBXX
46241 22111 99330 71173 46/// ///// 1//// 91040 22200 00179 11101
21001 327// 41101 70005=
####018000125####
SNVD17 CWVR 221100
BBXX
46183 22111 99536 71311 46/// /1705 10114 40084 52008
22200 00112 10902 70012 333 91206 =

####018000127####
SNVE15 KWNB 221100 RRD
BBXX
51204 22111 99213 71581 46/// ///// 1//// 91052 22200 00267 11303
20702 322// 41302 70014=
####018000127####
SNVD22 KWNB 221100 RRQ
BBXX
46216 22111 99343 71198 46/// ///// 1//// 91057 22200 00168 11001
21001 327// 41101 70007=
####018000222####
SNVD22 KWNB 221100 RRP
BBXX
46240 22111 99366 71219 46/// ///// 1//// 91112 22200 00151 11702
21001 300// 41702 70010=
46217 22111 99342 71194 46/// ///// 1//// 91112 22200 00175 11401
20901 319// 41401 70005=
####018000127####
SNVD22 KWNB 221100 RRR
BBXX
46223 22111 99335 71178 46/// ///// 1//// 91100 22200 00186 11401
21001 319// 41401 70006=
####018000127####
SNVD22 KWNB 221100 RRT
BBXX
46222 22111 99336 71183 46/// ///// 1//// 91104 22200 00190 11001
21001 317// 41401 70005=
####018000222####
SNVD22 KWNB 221100 RRU
BBXX
46219 22111 99332 71199 46/// ///// 1//// 91058 22200 00172 11803
20902 331// 41802 70014=
46242 22111 99332 71174 46/// ///// 1//// 91056 22200 00180 11401
20901 321// 41401 70006=
####018000085####
SNVX19 LFVW 221100 RRB
BBXX
MINFR09 2211/ 99382 31492 46/// ///// 40124 57002=
####018000127####
SNVD22 KWNB 221100 RRV
BBXX
46211 22111 99469 71242 46/// ///// 1//// 91106 22200 00139 11508
21003 328// 41507 70038=
####018000127####
SNVD22 KWNB 221100 RRS
BBXX
46231 22111 99327 71174 46/// ///// 1//// 91049 22200 00182 11302
20901 320// 41301 70008=
####018000127####
SNVD22 KWNB 221100 RRW
BBXX
46221 22111 99339 71186 46/// ///// 1//// 91045 22200 00188 11401
21001 320// 41401 70006=
####018007328####
SNVF21 EGRR 221100
BBXX
62107 22114 99501 70061 46/// /2511 10145 20106 40227 50003 22200
00154 10904 70022=
62303 22114 99516 70051 46/// /2517 10143 20116 40208 52009 22200
00151 10504 70018=
62301 22114 99524 70047 46/// /2514 10142 20117 40196 51009 22200
00156 10503 70015=
64046 22114 99606 70049 46/// /2719 10109 20087 49998 52020 22200
00108 10807 70037 333 90710 91126=
62001 22114 99453 70050 46/// /0511 10170 20127 40242 50005 22200
00189 10906 70028=
62163 22114 99475 70084 46/// /3103 10161 20116 40248 50004 22200
00169 11107 70037=
62442 22114 99490 70163 46/// /2015 1//// 2//// 40212 58007 22200
00155=
64045 22114 99591 70117 46/// /2719 10117 20078 40044 51015 22200
00126 10808 70039 333 90710 91125=
62105 22114 99554 70122 46/// /2308 10118 20107 40126 50001 22200
00129 10807 70035=
62081 22114 99510 70134 46/// ///// 10145 20124 40202 58003 22200
00144 10807 70035=
62103 22114 99499 70029 46/98 /2715 10149 20116 40226 51006 22200
00157 10802 70009=
2AUO5 22113 99606 10016 41597 32728 10136 20070 49977 52019 70266
8/2// 22261 20504 325// 40908 80104=
ZCDN2 22114 99489 70210 41/98 82040 10160 20124 40150 53010 70222
8111/ 22224 00130 20206 330// 40306 5//// 80140=
62169 22114 99614 10014 41397 72732 10115 20105 49960 52025 78186
8477/ 22200 02120 20306 325// 41004 5//// 80110=
AMOUK06 22114 99534 70046 46/// ///// 10148 20095 30158 40189
 57/// 91050=
AMOUK09 22114 99537 70033 46/// ///// 10137 20076 30159 40185
 52011 91050=
AMOUK13 22114 99519 10013 46/// ///// 10158 20084 30184 40199
 52012 91050=
AMOUK05 22114 99519 10041 46/// ///// 10165 20085 30149 40196
 52012 91050=
AMOUK01 22114 99555 10085 46/// ///// 10168 2//// 30091 40111
 52010 91050=
AMOUK14 22114 99533 70062 46/// ///// 10137 20091 30149 40184
 52025 91050=
AMOUK03 22114 99513 10032 46/// ///// 10160 20117 30168 40204
 52011 91050=
AMOUK02 22114 99535 70052 46/// ///// 10136 20093 30151 40193
 52015 91050=
AMOUK16 22114 99521 70051 46/// ///// 10146 20117 30200 40208
 54001 91050=
AMOUK12 22114 99533 70061 46/// ///// 10141 20091 30148 40181
 54002 91050=
62029 22114 99487 70125 46/// /2309 10155 20126 40234 58002 22200
00157=
62094 22114 99517 70067 46/// /2614 10139 20118 40208 52010 22200
00141 10503 70017=
62305 22114 99504 10000 46/98 /2718 10156 20116 40225 51008 22200
00166 10602 70008=
62170 22114 99514 10020 46/97 /2717 10148 20116 40204 51011 22200
00166 10501 70004=
AMOUK04 22114 99535 70034 46/// ///// 10139 20066 30130 40171
 52007 91050=
AMOUK11 22114 99533 70052 46/// ///// 10146 20090 30145 40190
 52015 91050=
62142 22114 99530 10021 46597 /2717 10143 40178 52010 22200 10403 70014=
62165 22114 99540 10009 47997 /2712 10127 20067 40165 51009 700// 22200=
62127 22114 99540 10007 47998 ///// 10128 20062 40159 51009 700// 22200 10402 70012=
62111 22114 99580 70003 46/// /2722 10119 20071 40076 52014 22200 10505 70023=
PJAI 22114 99581 70014 47598 /2517 10132 20066 40059 52015 700// 22200=
62112 22114 99584 70002 47598 /2515 10117 20075 40052 52017 751// 22200=
62131 22114 99539 10012 46/// /26// 10128 20073 40163 52010 22200=
63108 22114 99608 10017 47598 /2819 10099 20043 49980 52023 700// 22200 10000 70000=
63106 22114 99610 10017 46/// /2722 10111 49973 52023 22200=
63112 22114 99611 10010 46/98 /2722 10116 20049 49969 52022 22200 10706 70032=
63107 22114 99611 10017 46/// /2620 10111 49971 52023 22200=
63101 22114 99612 10009 46/// /2922 10127 20063 49964 52021 22200=
63103 22114 99612 10011 46/// /2823 10113 20049 49975 52021 22200 10706 70032=
63104 22114 99612 10016 47598 /2623 10121 20059 49963 52021 700// 22200=
63117 22114 99613 10011 47/98 /2723 10112 20050 49967 52021 700// 22200=
62149 22114 99537 10011 47997 /2616 10155 20077 40171 52009 700// 22200 10403 70014=
63115 22114 99616 10013 47598 /2526 10108 20053 49954 52018 700// 22200 10708 70038=
MWYG6 22114 99603 70040 47998 /2721 10115 700// 22200=
62148 22114 99536 10015 46/// ///// 10133 40180 52011 22200=
64041 22114 99607 70026 47597 ///// 10106 20068 49990 52022 700// 22200 10908 70042=
62150 22114 99536 10007 47998 /2613 10138 20061 40180 51010 700// 22200 10402 70009=
62121 22114 99535 10027 46/// ///// 22200=
62144 22114 99534 10017 47997 /2618 10128 20064 40181 52010 700// 22200 10403 70015=
62145 22114 99531 10028 47697 /2615 10135 20051 40183 52009 700// 22200 10504 70018=
62164 22114 99572 10008 47997 /2515 10134 20079 40081 52015 700// 22200 10606 70028=
62146 22114 99572 10021 47/98 /2406 10120 20071 40088 52014 700// 22200 10606 70030=
62140 22114 99573 10013 46/// /27// 10121 20072 40069 52015 22200=
62122 22114 99573 10016 47998 /2722 10128 20073 40082 52015 700// 22200 10606 70028=
62153 22114 99573 10020 47998 /2613 10128 20074 40073 52015 700// 22200 10606 70029=
62104 22114 99574 10013 47998 /2723 10129 20074 40070 52015 700// 22200=
62116 22114 99576 10011 47598 /2723 10126 20072 40063 52016 700// 22200 10605 70027=
62155 22114 99577 10007 47997 /2624 10121 20073 40075 52015 700// 22200 10605 70026=
62118 22114 99577 10009 47998 /2623 10127 20065 40062 52016 700// 22200 10605 70025=
62143 22114 99577 10018 47598 /2824 10119 20069 40078 52017 700// 22200 10606 70030=
62117 22114 99579 10000 47998 /2522 10134 20076 40064 52017 700// 22200 10504 70022=
62102 22114 99579 10018 46/// /2722 10122 20070 40058 52016 22200 10606 70030=
62134 22114 99580 10014 47598 /2624 10117 20077 40061 52017 700// 22200 10606 70030=
62114 22114 99583 10000 46/// /2525 10116 20074 40048 52016 22200=
ZQSD5 22114 99583 10007 46/// ///// 10122 20078 40052 52016 22200 10807 70034=
62123 22114 99563 10022 47597 /2627 10123 20086 40097 52016 700// 22200=
62132 22114 99564 10020 46/// /2819 10121 20083 40106 53013 22200=
62120 22114 99564 10021 47497 /2824 10127 20084 40096 52019 700// 22200=
62154 22114 99564 10022 46/// /2721 10119 20083 40094 52016 22200=
62152 22114 99570 10018 47997 ///// 10119 20079 40092 52015 700// 22200=
62119 22114 99570 10019 47997 /2827 10138 20081 40092 52015 700// 22200 10606 70029=
62133 22114 99571 10009 46/// /2522 10126 20065 40079 52015 22200=
PJGO 22114 99571 10022 47997 /2619 10125 20081 40081 52016 700// 22200=
63056 22114 99597 10016 47998 /2621 10119 20072 49995 52018 700// 22200 10706 70032=
63057 22114 99592 10015 47497 /2814 10099 20055 40023 52020 700// 22200 10707 70034=
62128 22114 99587 10014 475// ///23 700// 22200=
62129 22114 99584 10003 46/// /2724 10117 20073 40053 52016 22200=
62113 22114 99584 10002 47598 /2523 10117 20074 40057 52018 700// 22200=
62135 22114 99540 70038 46/97 /2618 10127 20063 40170 54000 22200 10503
70013=
62126 22114 99539 70036 46597 /2720 10127 20061 40180 52020 22200 10503
70013=
62125 22114 99538 70035 46/97 /2720 10133 20064 40170 52010 22200 10503
70016=
62130 22114 99530 10017 46/// /2716 10134 20063 40180 52010 22200 10402
70012=
62095 22114 99531 70159 46/// /2115 10137 20125 40146 58011 22200
00132 10706 70031=
62304 22114 99511 10018 46/97 /2614 10151 20112 40207 51009 22200
00167 10501 70005=
PJKV 22113 99473 70098 41498 32712 10170 20107 40250 51004 70222
81105 22254 04180 20401 329// 41206 5//// 80136=
####018000216####
SNVD15 KWNB 221100 RRL
BBXX
41115 22111 99184 70673 46/// ///// 1//// 91105 22200 10603 20603
335// 41101 70013=
41114 22111 99276 70802 46/// ///// 1//// 91116 22200 00286 11102
21002 305// 41101 70010=
####018000224####
SNVD45 KWNB 221100 RRG
BBXX
45025 22111 99470 70884 46/// /2606 10077 20057 40130 91120 22200
00162 1//00 70002 333 91208=
45026 22111 99420 70866 46/// /2306 10173 20118 91120 22200 00191
10502 70009 333 91207=
####018000115####
SNVD20 KWNB 221100 RRP
BBXX
44098 22111 99428 70702 46/// ///// 1//// 91107 22200 00171 10801
20801 70006=
####018000203####
SNVD22 KWNB 221100 RRX
BBXX
46088 22111 99483 71232 46/// /0000 10113 40123 91120 22200 00106
1//00 70001 333 91201 555 11002 22002 31119 41902 61119 149003
241005 265010 196007 219009 188010=
####018000222####
SNVE15 KWNB 221100 RRE
BBXX
51203 22111 99208 71570 46/// ///// 1//// 91113 22200 00264 11302
21001 325// 41301 70008=
51201 22111 99217 71581 46/// ///// 1//// 91112 22200 00264 11304
21002 334// 41303 70018=
####018000067####
SNAL57 EUMS 221100
AAXX 22114
60691 46/// /1022 10399 20013=
