####018000486####
SNVD20 KWNB 220700 RRQ
BBXX
44029 22071 99425 70706 46/30 /1605 10175 40210 58013 90704 22200
00166 11101 70006 333 91206 555 11070 22077=
44030 22071 99432 70704 46/30 /1703 10170 40216 57006 90704 22200
00163 10801 70006 333 91204 555 11043 22049=
44032 22071 99437 70694 46/30 /1804 10165 40218 58010 90704 22200
00155 10801 70006 333 91205 555 11055 22062=
44040 22071 99410 70736 46/// /1103 10210 20210 40209 90715 22200
1//00 70001 333 91203 555 11031 22031=
####018000368####
SNVD22 KWNB 220700 RRX
BBXX
46088 22071 99483 71232 46/// /3201 10118 40116 90720 22200 00105
1//00 70001 333 91202 555 11017 22020 30703 43203 60719 322013
332019 321019 321015 342012 325012=
46087 22071 99485 71247 46/// /1406 10140 20140 40122 90720 22200
00107 333 91208 555 11065 22077 30713 41308 60719 142056 146051
155044 161032 135036 101021=
####018000311####
SNVD45 KWNB 220700 RRH
BBXX
45027 22071 99469 70919 46/// /3102 10058 20025 39956 40180 90640
22200 00085 333 91202=
45027 22071 99469 70919 46/// /3501 10058 20025 39957 40181 90650
22200 00084 333 91202=
45028 22071 99468 70918 46/// /3405 10066 20033 39943 40166 90650
22200 00093 333 91206=
####018000125####
SNVD17 CWVR 220700
BBXX
46185 22071 99524 71298 46/// /2306 10119 40099 52013
22200 00122 10804 70020 333 91208 =

####018000286####
SMVE01 NZKL 220600
BBXX
ZMFR   22064 99500 31717 43/// /3526 10076 20045 40120 52008 22282 
00075=
ZMENA  22064 99366 31749 46/// /0616 10135 20070 40125 52003 22263=
3EAT6  22063 99307 31747 41398 53420 10195 20153 40148 56015 70211 
8471/ 22200 00200 20202 334// 40504=
####018000284####
SMVE01 NZKL 220600
BBXX
ZMFR   22064 99500 31717 43/// /3526 10076 20045 40120 52008 22282
00075=
ZMENA  22064 99366 31749 46/// /0616 10135 20070 40125 52003 22263=
3EAT6  22063 99307 31747 41398 53420 10195 20153 40148 56015 70211
8471/ 22200 00200 20202 334// 40504=
####018000557####
SMVX46 LFPW 220600 RRA
BBXX
62030 22061 99502 70042 46/// /2606 10142 2//// 40219 5////
22200 00151 1//// 7////=
62050 22061 99500 70042 46/// /2006 10141 2//// 40223 5////
22200 00151 1//// 7////=
TBWUK49 22063 99419 70106 41/98 /0123 10180 20158 40214 58012 7////
8////
22244 00193 2//06 329// 41406 80167=
C6NI8 22063 99413 70107 41298 83431 10185 20155 40201 57015 70222
887//
22213 00200 20906 332// 41406 5//// 80167=
V2AM5 22063 99393 70168 41498 33417 10205 20158 40221 54000 70222
82145
22275 20503 333// 40503 80175=
####018000382####
SMVX47 LFPW 220600 RRA
BBXX
SHIP 22061 99375 10074 41998 00606 10220 20189 40150 55002 70200
80000
22224 00210 20201 3//// 4//// 80200=
A8OU5 22064 99372 10057 41998 00924 10240 20188 40161 52010 70200
80000
22224 02220 20301 307// 40403 80205=
A8MW8 22063 99357 10171 41498 53615 10240 20180 40150 57010 70100
8426/
22225 00300 2//01 334// 4//03 5//// 80200=
####018000185####
SNVD01 KWBC 220400 RRU
BBXX
46094 22041 99446 71243 46/// /1603 10137 90420=
46094 22041 99446 71243 46/// /1703 10137 90430=
46094 22041 99446 71243 46/// /1403 10136 90410=
####018000243####
SMVX40 KAWN 220700
BBXX
JGQH 22074 99351 11538 46/// /1925 10269 20237 40133 55001 8////
 22211 00269 11006 70030=
VRGM8 22073 99201 11178 41/98 71013 10284 20253 40076 56/// 76322
 8/7// 22213 00298 20201 307// 40603 5//// 80262=
####018000502####
SNVD01 KWBC 220500 RRR
BBXX
42046 22051 99279 70940 46/// /1103 1//// 40158 90500 22200 00279
 333 91204=
42046 22051 99279 70940 46/// /1103 1//// 40156 90530 22200 00279
 333 91204=
46094 22051 99446 71243 46/// /1702 10137 90440=
46094 22051 99446 71243 46/// /1503 10137 90450=
46094 22051 99446 71243 46/// /1504 10137 90500=
46094 22051 99446 71243 46/// /1503 10137 90510=
46094 22051 99446 71243 46/// /1304 10135 90520=
46094 22051 99446 71243 46/// /1504 10135 90530=
####018000270####
SMVB01 KWBC 220600 RRI
BBXX
DDFG 22063 99240 11200 41296 30229 10255 20202 40080 57010 70222
 82611 22283 20401 302// 40904 80220=
KSDF 22064 99290 11422 41397 82417 10300 20256 40070 56013 70321
 8687/ 22213 0//// 20302 32111 40805 50503 6//// 80267 /////=
####018000439####
SMVA01 KWBC 220600 RRH
BBXX
VRGJ6 22063 99263 10560 41197 22309 10380 20272 40069 50010 705//
 82610 22212 04320 20502 323// 40301 5//// 80300=
MINFR03 2206/ 99046 30630 46/// ///// 10278 40130 52002=
VRGW2 22064 99134 10624 41197 30616 10260 20231 40112 53023 71511
 83111 22224 00260 20402 80240=
MMHE5 22063 99146 50072 41497 71312 10181 20171 40176 53010 71682
 877// 22234 00215 20404 312// 40604 5//// 6//// 80171=
####018000476####
SMVD01 KWBC 220600 RRR
BBXX
42392 22061 99272 70900 46/// ///// 1//// 90620 22200 10402 70009=
42887 22061 99282 70885 46/// /0103 10255 90620 22200 10602 70011=
46094 22061 99446 71243 46/// /1605 10134 90550=
46094 22061 99446 71243 46/// /1506 10134 90540=
46094 22061 99446 71243 46/// /1804 10134 90600=
46094 22061 99446 71243 46/// /1705 10134 90610=
46094 22061 99446 71243 46/// /1605 10134 90630=
46094 22061 99446 71243 46/// /1505 10134 90620=
####018000247####
SNVB01 KWBC 220700 RRB
BBXX
VRGM8 22073 99201 11178 41/98 71013 10284 20253 40076 56/// 76322
 8/7// 22213 00298 20201 307// 40603 5//// 80262=
JGQH 22074 99351 11538 46/// /1925 10269 20237 40133 55001 8////
 22211 00269 11006 70030=
####018002809####
SNVD01 KWBC 220700 RRI
BBXX
46204 22071 99514 71288 46/// /1405 10131 40112 52007 22200 00133
 11208 70040 333 91206=
46131 22071 99499 71250 46/// /1605 1//// 40118 52004 22200 00140
 10400 70002 333 91206=
46145 22071 99544 71324 46/// /1909 10111 40052 52019 22200 00115
 11105 70023 333 91211=
46147 22071 99518 71312 46/// /2105 10168 40091 52013 22200 00121
 11311 70054 333 91206=
44022 22071 99409 70737 46/// /1802 10207 20199 40201 90715 22200
 00209 333 91202 555 11015 22015=
44098 22071 99428 70702 46/// ///// 1//// 90707 22200 00170 10901
 20901 70006=
44060 22071 99413 70721 46/// ///03 10198 40211 90715 22200 00199
 333 91204 555 11031 22031=
44034 22071 99441 70681 46/08 /1303 10131 40233 58008 90704 22200
 00131 10801 70005 333 91203 555 11030 22032=
46088 22071 99483 71232 46/// /3201 10118 40116 90720 22200 00105
 1//00 70001 333 91202 555 11017 22020 30703 43203 60719 322013
 332019 321019 321015 342012 325012=
41114 22071 99276 70802 46/// ///// 1//// 90716 22200 00286 11002
 21002 306// 41101 70012=
41115 22071 99184 70673 46/// ///// 1//// 90705 22200 11002 21002
 334// 41101 70009=
46221 22071 99339 71186 46/// ///// 1//// 90645 22200 00189 11401
 20801 320// 41401 70007=
46211 22071 99469 71242 46/// ///// 1//// 90706 22200 00134 11706
 21004 327// 41705 70032=
46222 22071 99336 71183 46/// ///// 1//// 90704 22200 00192 11401
 21001 318// 41401 70006=
46242 22071 99332 71174 46/// ///// 1//// 90656 22200 00184 11401
 21001 322// 41401 70007=
46216 22071 99343 71198 46/// ///// 1//// 90657 22200 00167 11002
 21001 326// 41101 70008=
46223 22071 99335 71178 46/// ///// 1//// 90700 22200 00187 11501
 20901 319// 41501 70007=
46231 22071 99327 71174 46/// ///// 1//// 90649 22200 00190 11402
 20901 320// 41401 70008=
46217 22071 99342 71194 46/// ///// 1//// 90712 22200 00176 11501
 21001 318// 41501 70005=
46241 22071 99330 71173 46/// ///// 1//// 90640 22200 00176 11501
 21001 324// 41501 70006=
46248 22071 99461 71247 46/// ///// 1//// 90704 22200 00150 11507
 21004 329// 41506 70034=
46249 22071 99338 71197 46/// ///// 1//// 90710 22200 00187 11402
 20901 318// 41401 70009=
46232 22071 99325 71174 46/// ///// 1//// 90638 22200 00191 11502
 20901 320// 41501 70009=
46207 22071 99509 71299 46/// /2005 10143 40105 52008 22200 00144
 11209 70043 333 91206=
44067 22071 99384 70770 46/// /1703 10219 40185 58009 90700=
42364 22071 99291 70881 46/// /0905 10267 20217 40159 90715=
42362 22071 99278 70907 46/// /0805 10278 20222 90715=
42363 22071 99282 70892 46/// /0909 10272 20211 40163 90715 333
 91210=
WTDH 22074 99351 70752 43/// /2616 10238 20205 40198 5//// 7////
 8//// 222// 04234 2//// 3//// 4//// 5//// 6//// 8//// ICE /////=
####018000926####
SNVD80 KWBC 220700 RRC
BBXX
45137 22071 99455 70810 46/// /2006 10161 39921 40132 52005 22200
 00156 10401 70005 333 91206=
45132 22071 99425 70812 46/// /3306 10186 39949 40155 52009 22200
 00188 10401 70007 333 91207=
45152 22071 99462 70797 46/// /2204 10160 39897 40131 52014 22200
 00173 10200 70002 333 91205=
45135 22071 99438 70769 46/// /1707 10197 30062 40151 57009 22200
 00182 10401 70007 333 91208=
45026 22071 99420 70866 46/// /2506 10182 20125 90720 22200 00191
 10402 70012 333 91208=
45025 22071 99470 70884 46/// /2604 10076 20055 40130 90720 22200
 00162 10201 70003 333 91206=
45159 22071 99438 70790 46/// /2001 10182 30055 40144 57003 22200
 00174 10300 70002 333 91201=
45147 22071 99424 70827 46/// /2903 10181 39953 40159 52009 22200
 00187 10200 70002 333 91204=
45149 22071 99435 70821 46/// /2705 10175 39942 40152 52004 22200
 00181 10301 70005 333 91206=
####018003672####
SNVF01 KWBC 220700 RRC
BBXX
62303 22074 99516 70051 46/// /2617 10143 20119 40198 53012 22200
 00151 10504 70021=
62442 22074 99490 70163 46/// /2312 1//// 2//// 40218 58004 22200
 00154=
62105 22074 99554 70122 46/// /2717 10126 20070 40122 52012 22200
 00130 10909 70046=
64045 22074 99591 70117 46/// /2721 10113 20082 40024 52019 22200
 00127 10708 70038 333 90710 91130=
62304 22074 99511 10018 46/97 /2622 10145 20118 40195 53011 22200
 00168 10501 70007 333 90710 91128=
62095 22074 99531 70159 46/// /2314 10133 20115 40156 50003 22200
 00132 10808 70040=
62305 22074 99504 10000 46/98 /2620 10156 20121 40211 52008 22200
 00164 10602 70008 333 90710 91127=
62170 22074 99514 10020 46/97 /2722 10143 20117 40186 52007 22200
 00165 10501 70006 333 90710 91126=
62094 22074 99517 70067 46/// /2715 10139 20119 40194 52007 22200
 00142 10504 70018=
62029 22074 99487 70125 46/// /2611 10152 20119 40234 53003 22200
 00157=
62159 22074 99605 10017 41598 52625 10114 20065 49942 52028 70222
 852// 22200 10807 70033=
62164 22074 99572 10008 469// /2519 10123 20076 40058 52022 22200
 10606 70032=
62146 22074 99572 10021 47/98 /2509 10117 20071 40066 52017 700//
 22200 10607 70033=
62140 22074 99573 10013 46/// /27// 10119 20072 40045 52022 22200=
62122 22074 99573 10016 47998 /2726 10121 20075 40059 52017 752//
 22200 10606 70032=
62153 22074 99573 10020 47598 /2612 10119 20074 40049 53019 700//
 22200 10606 70031=
62143 22074 99577 10018 47598 /2824 10117 20067 40055 52020 700//
 22200 10607 70035=
62104 22074 99574 10013 47598 /2725 10120 20075 40047 52021 762//
 22200=
62116 22074 99576 10011 47598 /2724 10119 20067 40041 52022 700//
 22200 10606 70031=
62155 22074 99577 10007 47597 /2627 10118 20068 40054 52022 700//
 22200 10606 70031=
62118 22074 99577 10009 47598 /2623 10119 20065 40041 52023 700//
 22200 10606 70031=
62117 22074 99579 10000 47798 /2522 10118 20073 40039 52021 700//
 22200 10606 70028=
62102 22074 99579 10018 46/// /2722 10120 20071 40033 52021 22200
 10607 70033=
62134 22074 99580 10014 47598 /2622 10118 20074 40038 52021 700//
 22200 10707 70035=
ZQSD5 22074 99583 10007 46/// ///// 10119 20078 40027 52019 22200
 10808 70041=
62142 22074 99530 10021 46597 /2718 10135 40161 52016 22200 10503
 70015=
62114 22074 99583 10000 46/// /2623 10115 20079 40024 52022 22200=
62128 22074 99587 10014 47598 /2616 10113 20076 40011 52024 700//
 22200 10707 70034=
62113 22074 99584 10002 47599 /2621 10116 20070 40031 52019 700//
 22200=
62129 22074 99584 10003 46/// /2722 10115 20075 40027 52020 22200=
62145 22074 99531 10028 47596 /2720 10136 20064 40168 52015 710//
 22200 10504 70020=
62144 22074 99534 10017 47597 /2620 10126 20074 40167 52013 700//
 22200 10403 70016=
62121 22074 99535 10027 46/// ///// 22200=
62148 22074 99536 10015 46/// ///// 10127 40165 52014 22200=
62150 22074 99536 10007 47997 /2617 10127 20072 40162 52013 700//
 22200 10402 70010=
62149 22074 99537 10011 47999 /2618 10131 20081 40156 52016 730//
 22200 10403 70014=
62131 22074 99539 10012 46/// /26// 10123 20078 40146 52015 22200=
62127 22074 99540 10007 47997 ///// 10121 20070 40146 52014 700//
 22200 10402 70012=
62165 22074 99540 10009 47997 /2711 10123 20072 40151 52015 700//
 22200 10403 70015=
62132 22074 99564 10020 46/// /2819 10118 20078 40083 52020 22200=
62123 22074 99563 10022 47597 /2628 10119 20077 40074 52015 700//
 22200=
62154 22074 99564 10022 46/// /2724 10115 20080 40071 52014 22200=
62120 22074 99564 10021 47597 /2829 10117 20076 40070 52015 700//
 22200=
####018003721####
SNVF01 KWBC 220700 RRD
BBXX
62163 22074 99475 70084 46/// /3208 10155 20115 40242 52005 22200
 00168 11007 70036=
62001 22074 99453 70050 46/// /0313 10165 20149 40236 52004 22200
 00189 11006 70030=
62119 22074 99570 10019 47997 /2828 10129 20074 40068 52016 700//
 22200 10607 70035=
62152 22074 99570 10018 47997 /2618 10119 20076 40068 52014 700//
 22200 16919 70093=
62133 22074 99571 10009 46/// /2523 10121 20065 40056 52021 22200=
PJGO 22074 99571 10022 47597 /2615 10121 20084 40057 52017 700//
 22200=
63117 22074 99613 10011 47/97 /2823 10103 20058 49936 52025 700//
 22200=
MWYG6 22074 99603 70040 47998 /2721 10113 700// 22200=
64041 22074 99607 70026 47997 ///// 10103 20059 49962 52021 700//
 22200 10808 70040=
63115 22074 99616 10013 47498 /2522 10104 20063 49928 52021 700//
 22200 10707 70035=
63104 22074 99612 10016 47598 /2722 10107 20066 49932 52022 700//
 22200=
63103 22074 99612 10011 46/// /2825 10111 20054 49945 22200 10706
 70031=
63101 22074 99612 10009 46/// /3020 10111 20063 49935 52024 22200=
63107 22074 99611 10017 46/// /2622 10106 49938 52026 22200=
63112 22074 99611 10010 46/97 /2923 10103 20051 49939 52026 22200
 10706 70030=
63106 22074 99610 10017 46/// /2624 10098 49940 52027 22200=
63108 22074 99608 10017 47998 /2822 10083 20037 49950 52028 700//
 22200 10000 70000=
62112 22074 99584 70002 47598 /2817 10113 20074 40026 52021 700//
 22200=
63055 22074 99606 10016 469// /2925 10112 20063 49961 52028 22200=
PJAI 22074 99581 70014 47998 /2717 10124 20070 40035 52023 700//
 22200=
62111 22074 99580 70003 46/// /2825 10116 20077 40053 52020 22200
 10605 70027=
62107 22074 99501 70061 46/// /2913 10146 20112 40221 53007 22200
 00153 10905 70024=
62103 22074 99499 70029 46/98 /2815 10148 20114 40216 53010 22200
 00156 10702 70010=
63057 22074 99592 10015 47597 /2723 10121 20068 49994 52025 700//
 22200 10707 70037=
63056 22074 99597 10016 47997 /2623 10112 20064 49968 52025 700//
 22200 10707 70037=
AMOUK06 22074 99533 70042 46/// ///// 1//// 2//// 3//// 4////
 52009 90650=
AMOUK05 22074 99520 10041 46/// ///// 10152 20104 30135 40182
 52019 90650=
AMOUK12 22074 99533 70046 46/// ///// 10131 20078 30135 40167
 54003 90650=
AMOUK09 22074 99538 70032 46/// ///// 10133 20070 30140 40166
 52008 90650=
AMOUK14 22074 99536 70043 46/// ///// 10130 20080 30117 40154
 52005 90650=
AMOUK02 22074 99533 70062 46/// ///// 10116 20085 30133 40175
 52020 90650=
AMOUK13 22074 99519 10013 46/// ///// 10132 20112 30171 40186
 52007 90650=
AMOUK01 22074 99554 10080 46/// ///// 10167 2//// 30076 40096
 52005 90650=
AMOUK16 22074 99523 70063 46/// ///// 10123 20106 30185 40192
 54002 90650=
AMOUK03 22074 99514 10031 46/// ///// 10153 20116 30154 40189
 52027 90650=
AMOUK04 22074 99535 70030 46/// ///// 10133 20067 30123 40164
 54001 90650=
62130 22074 99530 10017 46/// /2617 10130 20084 40163 5//// 22200
 10402 70010=
62125 22074 99538 70035 46697 /2720 10127 20063 40160 5//// 22200
 10503 70017=
62135 22074 99540 70038 46/97 /2718 10128 20065 40150 5//// 22200
 10503 70015=
62126 22074 99539 70036 46/97 /2819 10126 20061 40160 5//// 22200
 10503 70016=
62081 22074 99510 70134 46/// ///// 10141 20120 40202 52004 22200
 00144 10908 70040=
62301 22074 99524 70047 46/// /2714 10138 20101 40184 53011 22200
 00157 10504 70018=
64046 22074 99606 70049 46/// /2718 10109 20081 49968 51021 22200
 00112 10808 70041 333 90710 91128=
LF4B 22074 99606 10037 47/98 /2724 10105 49960 52025 781// 90710
 22200 00104 10708 70039=
62086 22071 99550 10063 46/// /2712 10137 20082 40104 52016 22270
 00157=
####018000160####
SNVD20 KWNB 220700 RRR
BBXX
44061 22071 99388 70770 46/// /0000 1//// 90650 333 91201=
44061 22071 99388 70770 46/// /0000 1//// 40186 90640 333 91201=
####018000188####
SNVD15 KWNB 220700 RRR
BBXX
44062 22071 99386 70764 46/// /0000 1//// 90650 22200 00216 333
91200=
44062 22071 99386 70764 46/// /0000 1//// 40174 90640 22200 00216
333 91200=
####018000320####
SMVD20 KWNB 220600 RRX
BBXX
44061 22061 99388 70770 46/// /0000 1//// 40187 90630 333 91201=
44061 22061 99388 70770 46/// /0000 1//// 40187 90620 333 91201=
44061 22061 99388 70770 46/// /1701 1//// 40188 90610 333 91201=
44061 22061 99388 70770 46/// /1601 10208 40189 56007 90600 22200
00201 333 91201=
####018000160####
SNVD15 KWNB 220700 RRS
BBXX
44063 22071 99390 70764 46/// /0000 1//// 90650 333 91202=
44063 22071 99390 70764 46/// /0000 1//// 40200 90640 333 91200=
####018000374####
SMVD15 KWNB 220600 RRX
BBXX
44062 22061 99386 70764 46/// /0000 1//// 40175 90630 22200 00216
333 91200=
44062 22061 99386 70764 46/// /0000 1//// 40177 90620 22200 00216
333 91200=
44062 22061 99386 70764 46/// /0000 1//// 40178 90610 22200 00217
333 91200=
44062 22061 99386 70764 46/// /0000 10212 40178 58005 90600 22200
00216 1//00 70001 333 91201=
####018000154####
SNVD20 KWNB 220700 RRT
BBXX
44057 22071 99395 70761 46/// ///01 1//// 90650 333 91201=
44057 22071 99395 70761 46/// ///01 1//// 90640 333 91202=
####018000160####
SNVD20 KWNB 220700 RRS
BBXX
44059 22071 99368 70763 46/// /2203 1//// 90650 333 91204=
44059 22071 99368 70763 46/// /2103 1//// 40182 90640 333 91205=
####018000320####
SMVD20 KWNB 220600 RRX
BBXX
44059 22061 99368 70763 46/// /2103 1//// 40181 90630 333 91205=
44059 22061 99368 70763 46/// /2103 1//// 40180 90620 333 91205=
44059 22061 99368 70763 46/// /2003 1//// 40180 90610 333 91205=
44059 22061 99368 70763 46/// /2103 10230 40181 58011 90600 22200
00242 333 91205=
####018000290####
SMVD20 KWNB 220600 RRX
BBXX
44057 22061 99395 70761 46/// ///02 1//// 90630 333 91202=
44057 22061 99395 70761 46/// ///02 1//// 90620 333 91202=
44057 22061 99395 70761 46/// ///01 1//// 90610 333 91201=
44057 22061 99395 70761 46/// ///02 10203 90600 22200 00192 333
91202=
####018000160####
SNVD15 KWNB 220700 RRT
BBXX
44041 22071 99372 70768 46/// /2701 1//// 90650 333 91202=
44041 22071 99372 70768 46/// /2301 1//// 40211 90640 333 91202=
####018000332####
SMVD15 KWNB 220600 RRX
BBXX
44041 22061 99372 70768 46/// /2301 1//// 40211 90630 333 91202=
44041 22061 99372 70768 46/// /2001 1//// 40211 90620 333 91202=
44041 22061 99372 70768 46/// /1901 1//// 40210 90610 333 91202=
44041 22061 99372 70768 46/// /1902 10224 40210 58007 90600 22200
00230 1//00 70001 333 91202=
####018000332####
SMVD15 KWNB 220600 RRX
BBXX
44063 22061 99390 70764 46/// /0000 1//// 40202 90630 333 91200=
44063 22061 99390 70764 46/// /0000 1//// 40202 90620 333 91200=
44063 22061 99390 70764 46/// /0000 1//// 40202 90610 333 91200=
44063 22061 99390 70764 46/// /0000 10210 40203 58006 90600 22200
00210 1//00 70001 333 91200=
####018000160####
SNVD20 KWNB 220700 RRU
BBXX
44058 22071 99376 70763 46/// /2103 1//// 90650 333 91203=
44058 22071 99376 70763 46/// /2003 1//// 40188 90640 333 91203=
####018000028####
SNVF21 ESWI 220700
NIL=
####018000160####
SNVD15 KWNB 220700 RRU
BBXX
44042 22071 99380 70763 46/// /1502 1//// 90650 333 91203=
44042 22071 99380 70763 46/// /1602 1//// 40190 90640 333 91203=
####018000332####
SMVD15 KWNB 220600 RRX
BBXX
44042 22061 99380 70763 46/// /2002 1//// 40191 90630 333 91203=
44042 22061 99380 70763 46/// /2203 1//// 40192 90620 333 91204=
44042 22061 99380 70763 46/// /2102 1//// 40193 90610 333 91202=
44042 22061 99380 70763 46/// /2102 10221 40192 58007 90600 22200
00224 10201 70003 333 91203=
####018000160####
SNVD15 KWNB 220700 RRV
BBXX
44043 22071 99392 70764 46/// /1602 1//// 90650 333 91203=
44043 22071 99392 70764 46/// /1602 1//// 40183 90640 333 91203=
####018000332####
SMVD20 KWNB 220600 RRX
BBXX
44058 22061 99376 70763 46/// /2003 1//// 40188 90630 333 91204=
44058 22061 99376 70763 46/// /1903 1//// 40188 90620 333 91204=
44058 22061 99376 70763 46/// /1903 1//// 40188 90610 333 91204=
44058 22061 99376 70763 46/// /2003 10221 40189 58010 90600 22200
00225 10301 70003 333 91204=
####018000131####
SNVD17 CWTO 220700
BBXX
45136 22071 99485 70870 46/// /3605 10089 39882 40105 52014
22200 00121 10301 70006 333 91207 =

####018000067####
SNAL57 EUMS 220700
AAXX 22074
60691 46/// /0313 10315 21026=
####018000205####
SNVX19 LFVW 220700
BBXX
MINUK05 2207/ 99596 70048 46/// ///// 10118 49995 52021=
MINUK04 2207/ 99525 10026 46/// ///// 10145 4//// 52065=
MINUK01 2207/ 99571 70021 46/// ///// 10098 40070 52040=
####018000289####
SMVX40 KAWN 220600 RRK
BBXX
3EAT6 22063 99307 31747 41398 53420 10195 20153 40148 56015 70211
 8471/ 22200 00200 20202 334// 40504=
ZMENA 22064 99366 31749 46/// /0616 10135 20070 40125 52003
 22263=
ZMFR 22064 99500 31717 43/// /3526 10076 20045 40120 52008 22282
 00075=
####018000091####
SMVX76 LFPW 220600 RRC
BBXX
MINFR03 2206/ 99046 30630 46/// ///// 10278 40130 52002=
####018000125####
SNVD17 CWVR 220700
BBXX
46206 22071 99488 71260 46/// /0801 10116 40122 54000
22200 00106 11408 70040 333 91203 =

####018000125####
SNVD17 CWVR 220700
BBXX
46132 22071 99497 71279 46/// /0803 10132 40117 52001
22200 00135 11209 70045 333 91206 =

