####018000114####
SMVB15 RUNW 220600
BBXX
UFTA 22061 99839 71544 31298 50000 11168 21181 40051
52016 70242 85600 555 46027=
####018000168####
SIVD01 PANC 212100 RRH
BBXX
8PNQ 21214 99319 70144
41597 72024 10220 20190 40200 54000 7//22 879//
22213 00200 20804 32020 41004 51004 6//// 80200 ICE /////=
####018001907####
SMVD01 PANC 220600 RRC
BBXX
WTDH 22064 99349 70752
41499 72016 10270 20245 40230 54/// 7//22 874//
22212 00282 20303 3//// 4//// 5//// 6//// 80252 ICE /////=
NWS0022 22064 99378 70715
43/// /2429 10251 20230 40202 5//// 7//// 8////
222// 04280 2//// 3//// 4//// 5//// 6//// 8//// ICE /////=
NWS0028 22064 99415 70707
43/// /1303 10197 20176 40228 5//// 7//// 8////
222// 04199 2//// 3//// 4//// 5//// 6//// 8//// ICE /////=
KAOU 22064 99060 10871
43/// /2116 10274 20239 40102 5//// 7//// 8////
222// 04285 2//// 3//// 4//// 5//// 6//// 8//// ICE /////=
WYP8657 22064 99425 70827
41/98 13010 00019 40185 70200
22213 00020 20000=
NWS0003 22064 99772 71385
43/// /0513 11020 21022 40020 5//// 7//// 8////
222// 05014 2//// 3//// 4//// 5//// 6//// 8//// ICE /////=
WDC6698 22064 99757 71617
43/// /0118 11003 21003 40030 5//// 7//// 8////
222// 04005 2//// 3//// 4//// 5//// 6//// 8//// ICE /////=
NWS0020 22064 99338 71187
43/// /2903 10165 20153 40128 5//// 7//// 8////
222// 04192 2//// 3//// 4//// 5//// 6//// 8//// ICE /////=
9HA2583 22064 99340 10316
41798 32310 10255 20200 40100 5//// 70200 83460
22274 00279 20302 3//// 40602 5//// 6//// 80217 ICE /////=
WDD6039 22064 99480 71583
41698 53019 10133 20070 40001 56002 70222 852//
22224 00117 2//// 3//// 4//// 5//// 6//// 80100 ICE /////=
V7NV4 22064 99345 71699
41497 83337 10240 20226 40160 51010 703// 84278
22263 00230 20202 332// 40408 5//// 6//// 80230 ICE /////=
NEPP 22064 99772 71385
41/// /0412 11010 2101/ 40019 57003 7//// 8////
22231 01014 2//// 3//// 4//// 5//// 6//// 81010 ICE 45//1=
9HJD9 22064 99581 71359
41/95 /1847 10108 2//// 49920 52020 76486 8////
22264 0//// 2//12 3//// 4//// 5//// 6//// 8//// ICE /////=
WDE3542 22063 99580 71531
41/98 49900 1//// 2//// 49840 52/// 780// 8////
222// 0//// 2//00 3//// 4//00 5//// 6//// 8//// ICE /////=
####018000543####
SMVD15 KWNB 220600 RRK
BBXX
42364 22061 99291 70881 46/// /1206 10267 20217 40166 58003 90600=
41041 22061 99142 70460 46/// /0620 10253 20222 40047 58036 90550
22200 00271 11215 20708 3//// 41213 70074 333 91226 555 11220
22235 30515 40627 50045 60549 059205 056204 057206 057213 056209
057199 70548 80623 90516=
41046 22061 99238 70683 46/// /1007 10276 20242 40176 57003 90550
22200 00285 10704 20603 300// 40702 70018 333 91209 555 11072
22076 30543 41009 60549 098069 096066 102066 104067 109065 106073
81108 90500=
####018000027####
SMVJ10 EHDB 220600
NIL
####018000690####
SMVD10 EHDB 220600
BBXX
DMRX 22063 99241 71125 41/97 23213 10240 20226 40100 51010 70211
8//// 22234 06270 29902 80230=
DHEB 22063 99541 71620 41598 43518 10070 20026 49840 52/// 70300
83948 22264 04050 20508 327// 40407 5//// 80050=
A8IO2 22064 99322 70490 41598 70413 10260 20231 40235 58030 70322
85578 22214 04250 20301 301// 41004 5//// 80240=
PJFF 22063 99247 70670 41297 61318 10261 20243 40180 56010 713//
867// 22214 04280 2//02 80248=
C6KD6 22060 99163 70712 41497 30907 10285 20260 40132 58020 70155
83400 22255 02290 20502 311// 40601 5//// 80267=
DGSE 22063 99321 70796 41/98 31710 10270 20228 40192 51002 70300
8//// 22213 00260 2//// 30000 80240=
####018000750####
SMVB10 EHDB 220600
BBXX
LAOX5 22064 99343 11615 41598 32016 10280 2022/ 40270 50040 70111
84542 22253 00250 20707 327// 40111 5//// 6//// 80280=
DGZR2 22060 99142 10700 41397 3//// 10285 20230 40115 54000 7////
8/100 22233 04290 2//// 325// 41002 80245=
DGDD 22061 99337 11373 41298 73315 10255 20172 40010 52030 70211
85778 22265 00230 20508 330// 40407 5//// 80200=
9VAY4 22064 99096 11097 41197 72320 10280 2024/ 40080 54000 7//22
87243 22253 00285 20402 30202 40402 50402 6//// 80250 ICE /////=
DDYL2 22063 99225 11162 41397 80620 10255 20205 40100 57017 71011
86778 22255 00270 20804 307// 41204 80220=
DGXS 22064 99496 11693 41/98 62919 10150 20076 40160 54000 70222
8//// 22225 00120 2//05 322// 4//04 5//// 80110=
####018001114####
SMVF10 EHDB 220600
BBXX
TBWAA05 22063 99546 10124 41597 62426 10140 20105 40108 54000 70322
8573/ 22253 2//// 3//// 4//// 5//// 80120 00/87 1/764 5989300/ 871/7
64598 93931/65 1/626 /807=
UHOM 22061 99719 10330 41697 51505 10080 40171 57020 70222 8384/
22231 20201=
PCIH 22063 99409 70225 41296 80814 10190 20178 40213 57007 75052
22214 20301 331// 41405 80182=
C6KD4 22063 99432 70180 41697 80207 10180 20106 40260 56009 70200
8477/ 22214 04190 21106 334// 41406 80140=
PGRQ 22064 99590 10016 41397 62632 10121 2//// 49989 52019 72582
8354/ 22261 00131 20203 325// 40406=
PHEC 22063 99359 70125 41297 50208 10202 20182 40205 57003 70300
85700 22283 00225 20301 302// 40602 80189=
DDVK2 22063 99370 10020 41397 63603 10235 20199 40173 54000 70300
8323/ 22264 00262 2//// 309// 40502 80210=
A8IN7 22064 99500 70013 41497 22614 10150 20123 40210 54000 70200
82130 22224 06160 20401 399// 40601 80135=
UBEF5 22061 99564 10115 41598 92411 10130 40053 54000 70222 89851
22213 00160 20201=
UCKD 22061 99715 10277 41498 31610 10100 40157 54001 70100 83/2/
22223 00110 20402=
####018000129####
SMVC10 EHDB 220600
BBXX
DDSC2 22064 99155 50766 41/97 81815 10155 20102 40160 51010 70222
8661/ 22244 00157 20302 80125=
####018000489####
SMVE10 EHDB 220600
BBXX
PFFH 22063 99022 10869 41498 41813 10295 20249 40110 57001 7////
81108 22233 00281 20402 317// 41203 80261 57806=
PCQL 22063 99107 31307 41998 11106 10285 20228 40100 56025 70200
80005 22263 04256 299// 30000 80244=
ZQAY4 22064 99373 31503 414// 30224 10170 20125 40213 56040 70222
83100 22244 00203 20802 30303 41004 50502 80145=
PFBF 22063 99107 31566 41197 61225 10265 20175 40098 56009 70262
85862 22213 02282 20304 313// 40405 5//// 80205=
####018000472####
SMVA10 EHDB 220600
BBXX
DGZR2 22060 99142 10700 41397 3//// 10285 20230 40115 54000 7////
8/100 22233 04290 2//// 325// 41002 80245=
PDHO 22063 99186 10621 41697 52716 10278 20225 40108 54000 70211
8446/ 22265 00268 20404 80240=
DFNB2 22063 99204 10593 41397 82313 10277 20233 40098 53018 70222
887// 22214 00240 20303 399// 40404 80245=
PHKL 22061 99119 10605 41497 62405 10272 20249 40121 51013 70222
83568 22224 00265 20101 3//// 4//// 5//// 80255=
####018000224####
SMVD20 KWNB 220600 RRG
BBXX
44060 22061 99413 70721 46/// ///03 10193 40218 58018 90600 22200
00199 333 91204 555 11031 22031=
44008 22061 99405 70692 46/// ///// 10215 40232 58011 90550 22200
00193 10801 70006=
####018000233####
SMVD22 KWNB 220600 RRK
BBXX
46089 22061 99459 71258 46/// /1905 10180 20180 40140 53004 90550
22200 00173 11607 20501 330// 41607 70037 333 91206 555 11058
22064 30524 41807 60549 187054 191057 191058 192056 192054 190055=
####018000462####
SMVD17 KWNB 220600 RRE
BBXX
46076 22061 99595 71480 46/// /1505 10105 20090 49809 53016 90550
22200 00110 11104 20401 300// 41104 70022 333 91207 555 11055
22058 30548 41507 60549 148052 141051 130046 128045 129047 134043
81506 90548=
46083 22061 99582 71380 46/// /2010 10103 20089 49884 53043 90550
22200 00114 11208 20805 300// 41207 70042 333 91213 555 11106
22112 30454 42115 60549 196097 197096 203099 206105 210110 212119
82113 90456=
####018000115####
SMVD19 KWNB 220600 RRC
BBXX
46108 22061 99598 71521 46/// ///// 1//// 90601 22200 00102 11101
21001 70004=
####018000135####
SMVX01 EDZW 220600
BBXX
DBLK 22061 99784 11254 41497 60409 11004 21048 40076 52018
78587 83960 22261 04014 20402 333// 40602 =
####018000422####
SMVE15 KWNB 220600 RRC
BBXX
51000 22061 99235 71541 46/// /0606 10248 40184 53011 90550 22200
00257 11305 20502 334// 41305 70025 333 91207 555 11064 22068
30548 40707 60549 064060 066059 067059 067056 070056 068053=
51003 22061 99193 71606 46/// /1005 10263 40162 53014 90550 22200
00273 11304 20402 3//// 41304 70020 333 91207 555 11054 22056
30451 40809 60549 105052 105061 105060 100069 095074 092073=
####018000167####
SIVF30 KWBC 212100 RRK
BBXX
8PNQ 21214 99319 70144 41597 72024 10220 20190 40200 54000 7//22
 879// 22213 00200 20804 32020 41004 51004 6//// 80200 ICE /////=
####018000167####
SMVD01 KWBC 220000 RRW
BBXX
S6JU 22003 99554 71652 41991 92827 10070 20030 40994 57033 78189
 84/// 22224 0//// 20302 30504 40708 50403 6//// 80055 ICE /////=
####018000254####
SNVF01 KWBC 220500 RRG
BBXX
C6CN4 22050 99547 10126 41497 33207 10165 20123 40160 56020 70300
 8/700 22253 00080 2//02 3//// 4//// 5//// 80140=
DCUJ2 22053 99539 10070 41597 42824 10160 20098 40150 57/// 76261
 8487/ 22264 04150 20605 80125=
####018000796####
SMVB01 KWBC 220600 RRA
BBXX
A8IF4 22063 99058 10858 41498 52120 10290 20235 40110 57020 703//
 85400 22224 04270 20404 399// 40505 80250=
A8UT8 22064 99079 11201 41397 62519 10290 20248 40080 57020 70322
 85376 22243 20604 80260=
A8UT3 22064 99160 10930 41497 82119 10283 20252 40079 56005 76022
 87770 22273 04298 20301 32226 40805 50704 80260=
3FZK3 22064 99356 11398 46/// /0509 10262 20169 49972 53005 7////
 8//// 22200 0//// 2////=
A8CN8 22060 99486 11692 41597 52907 10160 20144 40175 53005 70211
 855// 22224 06115 20302 3//// 4//// 5//// 80150=
46070 22061 99551 11753 46/// /3209 10093 20058 40065 53015 90550
 22200 00112 11504 20503 3//// 41503 70020 333 91212 555 11091
 22096 30545 43112 60549 320084 323073 302087 291085 293084 294082
 83309 90548=
####018001223####
SMVA01 KWBC 220600 RRA
BBXX
KSPH 22063 99142 10523 41497 81909 10250 2024/ 40120 51015 7//22
 885// 22253 00240 20302 319// 40604 5//// 6//// 80246 ICE /////=
8PSH 22064 99169 70249 46/// /0405 10261 20234 40139 55003 7////
 8//// 22200 0//// 2////=
TBWUK36 22063 99241 30602 41598 40309 10240 20176 40235 51010
 70100 84100 22224 00230 20301 30504 40602 51001 80200=
DQVO 22064 99157 10413 41496 50203 10303 20263 40082 52020 71011
 85100 22274 00329 20101 335// 40701 80273=
DBBT 22061 99230 30145 46/// /1702 10091 20075 40181 52021 22270
 00136=
C6OM8 22060 99110 50008 41398 71309 10193 20168 40164 54000 70122
 8572/ 22273 20202 313// 40503 5//// 80178=
A8PF5 22064 99184 30633 41/98 /1420 10251 20204 40211 52011 7////
 8/342 22213 29901 308// 40502 5//// 80220=
LAHR7 22064 99149 70218 41597 30204 10275 2024/ 40150 5//// 70210
 835// 22213 00300 2//// 3//// 4//// 5//// 6//// 80250 ICE /////=
BATFR05 22064 99040 10006 46/// /1908 10262 20229 40139 53007
 22200 04239=
BATFR55 22064 99206 30557 44598 50808 10234 20197 40225 70322
 83182 22262 04239 203// 32525 405// 505//=
WAHV 22063 99254 10361 43998 03507 10328 2029/ 40073 52013 80000
 22284 00298 20301 80297=
####018000266####
SMVC01 KWBC 220600 RRA
BBXX
ELWR5 22063 99028 50809 41397 82112 10220 20190 40130 54000 703//
 8/7// 22271 04224 20902 80200=
WBP3210 22064 99535 50438 43/// /2119 11039 2//// 40000 5////
 7//// 8//// 22222 01002 2//// 3//// 4//// 5//// 6//// ICE /////=
####018003667####
SMVD01 KWBC 220600 RRA
BBXX
CGTEST 22064 99461 70602 46/// /1801 10101 20090 40238 53007 7////
 8//// 22200 0//// 2////=
WDC6736 22064 99387 70602 41298 22010 10220 2019/ 40269 54000
 70111 82500 22224 00270 20301 335// 40501 5//// 6//// 80200 ICE
 /////=
9HJD9 22064 99581 71359 41/95 /1847 10108 2//// 49920 52020 76486
 8//// 22264 0//// 2//12 3//// 4//// 5//// 6//// 8//// ICE /////=
PBIG 22064 99567 71346 41/97 /1627 10103 21001 49950 52/// 7////
 8//// 22244 00090 2//// 80061=
VCYL 22064 99502 70628 46/// /3006 10072 20045 40211 50002 7////
 8//// 22222 00052 2////=
WDC6925 22064 99377 70564 419// 10109 10225 20188 40258 52002
 7//00 81131 22263 00270 2//// 3//// 4//// 5//// 6//// 80200 ICE
 /////=
41101 22064 99146 70562 46/// /0819 10283 20240 40124 57014 22200
 00286 10704 70021 555 1/025=
ELZA9 22064 99221 70877 41/98 10908 10280 20224 40140 52010 70222
 8/1// 22264 00340 20200 3//// 4//// 5//// 80240=
A8EH3 22064 99463 71654 41298 82921 10110 20092 40065 54000 70322
 887// 22224 04120 20603 80100=
A8SF8 22064 99102 70764 41297 40412 10280 20273 40100 56020 70011
 847// 22222 04290 21002 80275=
A8CG6 22064 99369 71448 41297 12334 10240 20218 40135 57015 70111
 8//// 22264 2//10 332// 40808 80225=
CZ3695 22064 99684 71338 46/// /0106 10054 20060 4//// 5//// 7////
 8//// 22200 0//// 2////=
CGJK 22064 99686 71017 46/// /2320 10068 20059 49882 52004 7////
 8//// 22200 0//// 2////=
VXKF 22064 99469 70596 46/// /2612 10142 20109 40225 53002 7////
 8//// 22213 0//// 2////=
CGDT 22064 99678 71151 46/// /0000 10109 20081 49860 58012 7////
 8//// 22252 00080 2////=
VOPP 22064 99494 70667 46/// /1906 10084 20080 40214 53004 7////
 8//// 22253 00079 2////=
CGSB 22064 99588 70941 46/// /2019 10080 20058 40172 57012 7////
 8//// 22200 0//// 2////=
CG2958 22064 99487 71235 46/// /1601 10154 20153 40138 50005 7////
 8//// 22200 0//// 2////=
VCSZ 22064 99485 70623 46/// /2710 10123 20125 40222 52010 7////
 8//// 22234 0//// 2////=
VAAP 22064 99475 70606 46/// /2616 10144 20101 40214 51009 7////
 8//// 22233 0//// 2////=
CG2992 22064 99669 71302 46/// /3311 10064 20049 4//// 5//// 7////
 8//// 22200 0//// 2////=
CZ9742 22064 99538 70985 46/// /1810 10116 20033 4//// 5//// 7////
 8//// 22200 0//// 2////=
VCBW 22064 99500 70668 46/// /0601 10094 20050 4//// 53200 7////
 8//// 22281 00093 2////=
CGDR 22064 99553 71316 46/// /1210 10115 20096 40035 53021 7////
 8//// 22200 0//// 2////=
VCRG 22064 99474 70619 46/// /2003 10128 20098 40238 53002 7////
 8//// 22200 0//// 2////=
CGDX 22064 99613 70691 46/// /3404 10017 21037 40207 56009 7////
 8//// 22233 00037 2////=
CG2522 22064 99619 71214 41/94 61903 10106 20086 4//// 58000 7//22
 86/// 22280 0//// 2////=
VCWL 22064 99694 70654 46/// /2905 10008 21001 40136 56007 7////
 8//// 22232 00024 2////=
CFN5537 22064 99637 70685 46/// /3109 10001 20001 40197 58001
 7//// 8//// 22200 0//// 2////=
CG2965 22064 99492 71238 46/// /1317 10161 20137 40120 58003 7////
 8//// 22200 0//// 2////=
CGTF 22064 99685 70899 46/// /1723 10049 20036 49993 57036 7////
 8//// 22200 0//// 2////=
CGCC 22064 99468 70712 46/// /0606 10151 20124 40202 58009 7////
 8//// 22200 0//// 2////=
VCLM 22064 99468 70712 46/// /0405 10147 20126 40200 56009 7////
 8//// 22200 0//// 2////=
CGDS 22064 99452 70743 46/// /0906 10184 20156 4//// 5//// 7////
 8//// 22200 0//// 2////=
CG3029 22064 99447 70636 46/// /3602 10127 20106 40255 58001 7////
 8//// 22200 0//// 2////=
CGHL 22064 99747 70951 46/// /1232 10008 21006 40012 56020 7////
 8//// 22200 0//// 2////=
####018003682####
SMVD01 KWBC 220600 RRB
BBXX
VC6750 22064 99695 70935 46/// /2619 10060 20054 4//// 5//// 7////
 8//// 22200 0//// 2////=
CGBY 22064 99505 71277 46/// /0602 10104 20102 40121 53012 7////
 8//// 22200 0//// 2////=
CGDG 22064 99447 70636 46/// /3302 10118 20109 40257 50000 7////
 8//// 22200 0//// 2////=
CGBR 22064 99535 71295 46/// /1115 10127 20087 40085 51028 7////
 8//// 22233 00116 2////=
CGBN 22064 99773 71385 46/// /0507 11002 21004 40028 58003 7////
 8//// 22242 0//// 2////=
CGCX 22064 99476 70527 46/// /2107 10119 20094 40178 51014 7////
 8//// 22200 0//// 2////=
VOKJ 22064 99466 70717 46/// /0713 10150 20126 40197 58011 7////
 8//// 22254 0//// 2////=
46239 22061 99363 71221 46/// ///// 1//// 90551 22200 00146 11805
 20803 329// 41804 70024=
46238 22061 99334 71195 46/// ///// 1//// 90550 22200 00181 11502
 21001 319// 41501 70008=
46219 22061 99332 71199 46/// ///// 1//// 90558 22200 00171 11402
 20902 318// 41401 70012=
46224 22061 99332 71175 46/// ///// 1//// 90537 22200 00184 11402
 21001 319// 41401 70008=
46214 22061 99379 71235 46/// ///// 1//// 90551 22200 00126 11706
 20705 330// 41704 70030=
42364 22061 99291 70881 46/// /1106 10261 20217 40163 90545=
42362 22061 99278 70907 46/// /0906 10278 20211 90600=
42363 22061 99282 70892 46/// /0808 10267 20211 40163 58003 90600
 333 91209=
42099 22061 99273 70842 46/// ///// 1//// 90557 22200 00288 10601
 20601 70007=
44100 22061 99363 70756 46/// ///// 1//// 90552 22200 00228 11002
 21002 306// 41101 70011=
41112 22061 99307 70813 46/// ///// 1//// 90551 22200 00270 11002
 21001 70008=
41110 22061 99341 70777 46/// ///// 1//// 90551 22200 00256 11101
 21001 70007=
44099 22061 99369 70757 46/// ///// 1//// 90552 22200 00215 10902
 20902 307// 41101 70009=
46218 22061 99345 71208 46/// ///// 1//// 90602 22200 00156 10903
 20902 328// 41101 70013=
V7NV4 22064 99345 71699 41497 83337 10240 20226 40160 51010 703//
 84278 22263 00230 20202 332// 40408 5//// 6//// 80230 ICE /////=
NEPP 22064 99772 71385 41/// /0412 11010 2101/ 40019 57003 7////
 8//// 22231 01014 2//// 3//// 4//// 5//// 6//// 81010 ICE 45//1=
SHIP 22064 99308 71693 41497 52706 10230 2020/ 40220 54000 70222
 83101 22263 00220 2//// 3//// 4//// 5//// 6//// 80210 ICE /////=
WDD6039 22064 99480 71583 41698 53019 10133 20070 40001 56002
 70222 852// 22224 00117 2//// 3//// 4//// 5//// 6//// 80100 ICE
 /////=
A8JE6 22064 99360 71376 41/// 22414 10230 20229 40198 53061 70200
 8/1/5 22224 20802 315// 40703 5//// 80229=
WCX8883 22064 99409 71754 43598 63324 10160 2013/ 40195 52010
 7//// 86800 22265 00180 2//// 3//// 4//// 5//// 6//// 80140 ICE
 /////=
PDWZ 22063 99467 70546 41998 02710 10136 20119 40200 58009 70000
 80000 22213 29901 80126=
46213 22061 99403 71247 46/// ///// 1//// 90554 22200 00112 11506
 21003 330// 41505 70029=
46215 22061 99352 71209 46/// ///// 1//// 90538 22200 00151 12002
 20802 327// 42001 70010=
46212 22061 99408 71243 46/// ///// 1//// 90551 22200 00120 11408
 21003 330// 41407 70038=
46229 22061 99438 71246 46/// ///// 1//// 90551 22200 00157 11308
 21003 328// 41307 70038=
46236 22061 99368 71219 46/// ///// 1//// 90550 22200 00151 11802
 20802 328// 41802 70012=
46225 22061 99329 71174 46/// ///// 1//// 90536 22200 00191 11401
 21001 320// 41401 70007=
46243 22061 99462 71241 46/// ///// 1//// 90559 22200 00141 11505
 21003 326// 41504 70026=
46244 22061 99409 71244 46/// ///// 1//// 90550 22200 00126 11707
 21003 330// 41707 70036=
46247 22061 99378 71228 46/// ///// 1//// 90551 22200 00144 11704
 20703 328// 41702 70020=
####018003665####
SMVD01 KWBC 220600 RRC
BBXX
46138 22061 99524 71298 46/// ///// 1//// 90554 22200 00121 10904
 20904 318// 41302 70022=
44172 22061 99445 70634 46/// ///// 1//// 90602 22200 00165 10501
 20501 70007=
44097 22061 99410 70711 46/// ///// 1//// 90602 22200 00188 10801
 20801 70006=
46061 22061 99602 71468 46/// /1903 10109 49817 53024 90550 22200
 00111 11104 20401 300// 41104 70018 333 91204 555 11033 22034
 30450 42006 60549 186031 193034 199036 200039 203045 200048=
46042 22061 99368 71224 46/// /3408 10126 30140 40140 51010 90550
 22200 00151 11705 20602 330// 41705 70027 333 91209 555 11081
 22085 30538 43310 60549 336077 337074 335070 342074 343071
 333072=
41009 22061 99285 70802 46/// /1308 10286 20242 40172 58006 90550
 22200 00289 10403 20402 300// 40801 70013 333 91208 555 11080
 22085=
41010 22061 99289 70785 46/// /1307 10279 40177 56009 90550 22200
 00289 10603 20603 300// 40702 70015 333 91209 555 11076 22080=
44040 22061 99410 70736 46/// /1103 10208 20208 40218 90545 22200
 1//00 70001 333 91203 555 11031 22036=
46077 22061 99579 71543 46/// /2404 10093 20073 49784 53014 90550
 22200 00088 10801 20301 3//// 40801 70007 333 91205 555 11039
 22043 30539 42505 60549 243036 245040 235042 235037 242040 238037
 82604 90540=
46085 22061 99559 71425 46/// /2109 10104 20081 49886 51025 90550
 22200 00103 333 91210 555 11093 22100=
46082 22061 99597 71434 46/// /2004 10097 20092 49832 52029 90550
 22200 00109 11105 20401 300// 41105 70024 333 91205 555 11042
 22043 30541 41905 60549 200040 191028 168019 144012 151015 139021
 82004 90541=
46001 22061 99563 71480 46/// /2307 10108 49838 53017 90550 22200
 00105 10905 20703 300// 40904 70024 333 91209 555 11076 22082
 30455 42209 60549 227071 233069 231067 222068 222066 222073=
46035 22061 99571 71778 46/// /3109 1//// 40031 53018 90550 22200
 10804 20703 300// 40802 70020 333 91211 555 11092 22098 30454
 43012 60549 310091 315094 311096 308095 315091 314099 83211
 90456=
51101 22061 99243 71621 46/// /0505 10261 20203 40191 53008 90550
 22200 00269 11204 20401 332// 41204 70021 333 91207 555 11056
 22058 30549 40707 60549 054052 062053 059055 059053 062050
 062048=
46015 22061 99427 71248 46/// /0603 10133 30177 40177 51013 90550
 22200 00115 11407 20401 329// 41407 70033 333 91205 555 11038
 22045 30536 40706 60549 055033 053034 050032 040032 035031
 030031=
46026 22061 99378 71228 46/// /3108 10125 40141 51012 90550 22200
 00143 11704 20603 328// 41703 70020 333 91209 555 11083 22087
 30540 43010 60549 308079 284074 291079 287073 284072 290075=
46041 22061 99474 71247 46/// /1708 10142 40128 54000 90550 22200
 00139 11507 20703 3//// 41506 70033 333 91209 555 11085 22091
 30456 41710 60549 166079 169078 168079 169079 167079 163082=
46041 22061 99474 71247 46/// /1708 10142 40128 90550 22200 00139
 11507 20703 3//// 41506 70033 333 91209 555 11085 22091 30456
 41710 60549 166079 169078 168079 169079 167079 163082=
46072 22061 99517 71722 46/// /0604 10064 20061 40003 53006 90550
 22200 00063 10504 20401 3//// 40504 70020 333 91205 555 11040
 22042 30514 40506 60549 058037 054038 051040 051045 052042 053037
 80506 90515=
41040 22061 99145 70530 46/// /0509 10282 20245 40125 57020 90550
 22200 00289 10905 20704 3//// 40903 70026 333 91211 555 11098
 22104 30454 40612 60549 052091 052099 054097 052098 055099 057101
 80611 90509=
42039 22061 99288 70860 46/// /0607 10270 40150 58013 90550 22200
 00285 10402 20402 70009 333 91208 555 11074 22077 30502 40809
 60549 060070 059072 065076 068079 073078 066075 80709 90513=
####018003608####
SMVD01 KWBC 220600 RRD
BBXX
45144 22061 99532 70983 46/// /0000 10117 39956 40223 57003 22200
 00116 10700 70001 333 912//=
BATFR15 22064 99320 70377 44998 41303 10250 20209 40224 56009
 70000 8442/ 22254 04270 20200 303// 41002 5////=
FVNM 22064 99213 71579 46/// /0305 10264 20192 40171 53017 22200
 04272=
BATEU05 22064 99682 70541 46/// /1710 10007 21038 40126 55001
 22243=
VSXC9 22063 99364 70710 41598 12413 10260 20218 40210 54000 70100
 811// 22214 2//// 318// 40502 80230=
WTDL 22064 99270 70903 43/// /0306 10275 2024/ 40126 5//// 7////
 8//// 22221 0//// 2//// 3//// 4//// 5//// 6//// 80250 ICE /////=
WTDF 22064 99408 70715 43/// /1911 10198 20000 40232 5//// 7////
 8//// 90600 22213 04194 2//// 3//// 4//// 5//// 6//// 80000 ICE
 /////=
WTEO 22064 99265 70840 43/// /0916 10288 20225 40151 5//// 7////
 8//// 90600 22241 04290 2//// 3//// 4//// 5//// 6//// 80243 ICE
 /////=
WTEO 22064 99265 70840 41497 61012 10282 2025/ 40152 56004 71322
 863// 22241 00290 20502 3//// 4//// 5//// 6//// 80257 ICE /////=
VREX7 22064 99351 70566 414// 33307 10270 20243 40255 54000 70222
 82100 22214 00280 20402 303// 40903 80250=
WTER 22064 99245 70818 43/// /1215 10290 2//// 40129 5//// 7////
 8//// 90600 22200 04305 2//// 3//// 4//// 5//// 6//// 80000 ICE
 /////=
44013 22061 99423 70707 46/// /1604 10172 20167 40224 58007 90550
 22200 00164 10801 300// 40801 70004 333 91205 555 11049 22055
 30450 41605 60549 156043 152034 156033 157033 155033 152033=
44007 22061 99435 70701 46/// /1803 10171 40224 56006 90550 22200
 00161 10901 20301 3//// 40901 70005 333 91204 555 11037 22043
 30453 41805 60549 183032 181029 186030 190031 186037 184041=
41036 22061 99342 70770 46/// /1507 10269 20234 40199 57008 90550
 22200 00273 11002 20402 308// 41001 70010 333 91208 555 11072
 22076 60549 153068 151065 154065 157066 161061 159063=
BAREU11 22064 99294 70559 46/// ///// 40248 57012 22254=
BAREU04 22064 99388 70750 46/// ///// 40199 57009 22262=
46025 22061 99337 71191 46/// /0000 10167 40136 51006 90550 22200
 00190 11501 322// 41501 70007 333 91201 555 11004 22004 30456
 43604 60549 063004 344007 022014 025020 044014 014027=
46029 22061 99461 71245 46/// /1707 10149 20149 40147 54000 90550
 22200 00145 11607 20602 330// 41606 70033 333 91209 555 11080
 22086 30514 41609 60549 171073 169071 171069 170070 172070
 171071=
46054 22061 99342 71204 46/// /3105 10146 40131 51006 90550 22200
 00154 10902 20401 300// 40902 70011 333 91206 555 11056 22058
 30513 43109 60549 307053 305058 307063 305067 303065 292061=
46087 22061 99485 71247 46/// /2301 10135 20135 40123 52003 90550
 22200 00108 11506 20401 327// 41506 70029 333 91202 555 11008
 22009 30451 41005 60549 226007 120013 158013 104019 101026
 099035=
46014 22061 99394 71240 46/// /3507 10129 40148 51008 90550 22200
 00119 11707 20603 3//// 41707 70036 333 91208 555 11074 22081
 30451 43409 60549 345067 344068 344067 342069 341071 342074=
46012 22061 99374 71229 46/// /3108 10127 40144 51010 90550 22200
 00134 11706 20803 330// 41705 70031 333 91211 555 11089 22095
 30545 43111 60549 306083 319078 320081 320078 316067 320070=
46011 22061 99350 71210 46/// /3204 10145 40139 51005 90550 22200
 00170 11503 318// 41503 70013 333 91205 555 11038 22039 30546
 43205 60549 328036 348034 332034 317032 322034 316029=
46047 22061 99324 71195 46/// /3004 10167 40142 51009 90550 22200
 00179 11002 20401 332// 41002 70011 333 91206 555 11041 22042
 30506 43206 60549 299037 310046 319036 306039 327044 324039=
####018003721####
SMVD01 KWBC 220600 RRE
BBXX
46088 22061 99483 71232 46/// /2501 10117 40124 90550 22200 00106
 1//00 70001 333 91202 555 11012 22014 30519 42203 60549 246008
 216013 184019 197015 153012 222015=
46028 22061 99357 71219 46/// /3205 10140 20133 30141 40141 51011
 90550 22200 00158 11703 20401 330// 41703 70016 333 91207 555
 11052 22054 30542 43407 60549 326051 327051 332048 343047 341049
 343052=
46053 22061 99342 71198 46/// /2702 10147 40130 51009 90550 22200
 00168 333 91203 555 11018 22019 30539 42603 60549 269018 289019
 279022 280015 289011 304010=
46013 22061 99382 71233 46/// /3209 10117 40133 51010 90550 22200
 00113 11505 20703 3//// 41504 70024 333 91211 555 11095 22102
 30500 43213 60549 320088 321086 321091 321090 320091 317094=
46086 22061 99325 71180 46/// /2701 10168 40138 52008 90550 22200
 00184 11502 20401 320// 41502 70010 333 91203 555 11011 22011
 30509 43104 60549 272012 284015 306024 299015 299023 290028=
46088 22061 99483 71232 46/// /2501 10117 40124 54000 90550 22200
 00106 1//00 70001 333 91202 555 11012 22014 30519 42203 60549
 246008 216013 184019 197015 153012 222015=
46027 22061 99419 71244 46/// /3302 10117 40179 53015 90550 22200
 00119 11205 20401 329// 41205 70026 333 91203 555 11016 22016
 30451 43205 60549 332015 349016 355016 350022 354028 337033=
46050 22061 99442 71246 46/// /1606 10139 40164 51006 90550 22200
 00144 11607 20501 327// 41607 70037 333 91208 555 11061 22065
 30549 41608 60549 162058 160053 159053 156055 153051 155046=
WTEF 22064 99553 71332 41/// /1824 10119 20084 40040 52017 750//
 8//// 22200 00100 20201 3//// 4//// 5//// 6//// 80100 ICE /////=
WXJ63 22063 99611 71464 41/97 81807 10098 20072 49811 53/// 780//
 8//// 222// 00116 2//// 3//// 4//// 5//// 6//// 8//// ICE /////=
NWS0001 22064 99567 71639 43/// /3128 10063 20040 49867 5////
 7//// 8//// 222// 04082 2//// 3//// 4//// 5//// 6//// 8//// ICE
 /////=
46080 22061 99580 71500 46/// /1703 10098 20086 49810 52015 90550
 22200 00101 11005 20401 3//// 41004 70023 333 91203 555 11027
 22028 30530 42303 60549 169026 175025 174026 165025 157022 171018
 81703 90550=
44005 22061 99432 70691 46/// /2104 10160 90550 22200 00152 10801
 20301 3//// 40801 70006 333 91204 555 11039 22045 30541 42004
 60549 204035 203032 203032 199031 194027 195017=
46060 22061 99606 71468 46/// /1705 10110 49815 53025 90550 22200
 00113 11101 318// 41101 70006 333 91206 555 11053 22056 30549
 41706 60549 174049 170046 166046 165045 165043 165039 81805
 90547=
46005 22061 99461 71310 46/// /3102 10149 40116 51010 90550 22200
 00170 11407 20401 3//// 41407 70036 333 91203 555 11017 22018
 30450 43104 60549 301017 256019 243017 265022 218023 270028=
46002 22061 99426 71305 46/// ///06 10194 40147 52008 90550 22200
 00188 11508 20502 3//// 41508 70040 333 91207 555 11066 22072=
46084 22061 99566 71361 46/// /2012 10119 20084 49952 51031 90550
 22200 00118 11109 20606 300// 41107 70047 333 91216 555 11132
 22141 30517 42017 60549 198124 199117 201117 202119 199129
 198117=
46075 22061 99539 71608 46/// /3109 10078 20058 49897 53009 90550
 22200 00084 10906 20505 300// 40904 70032 333 91211 555 11094
 22099 30533 43012 60549 307089 305100 298084 295084 296082 303087
 83011 90533=
46006 22061 99408 71375 46/// /2006 10199 40131 54000 90550 22200
 00200 11106 20602 3//// 41106 70031 333 91207 555 11068 22072
 30539 42108 60549 202064 197057 194053 191050 202042 200046=
46081 22061 99608 71483 46/// /0203 10092 20081 49813 52024 90550
 22200 00092 1//00 70000 333 91203 555 11029 22030 30453 40104
 60549 018027 014028 014031 014030 020031 014035 80104 90451=
####018001488####
SMVF01 KWBC 220600 RRA
BBXX
UCSJ 22061 99683 10403 41598 80700 10110 40180 57030 70202 8785/
 22251 20201=
DBFR 22061 99542 10079 46/// /2612 10153 20135 40108 54000 22241
 00163=
DBEA 22061 99540 10082 46/// /2314 10134 20122 40114 54000 22261
 00156=
DBND 22061 99543 10101 46/// /2205 10137 20117 40115 57001 22220
 00144=
DBKR 22061 99541 10121 46/// /2304 10143 20126 40126 54000 22200
 00155=
DBFH 22061 99548 10135 46/// /2310 10146 20128 40108 57008 22201
 00140=
DBBA 22061 99549 10137 46/// /2209 10138 20125 40109 57001 22220
 00119=
DBEB 22061 99539 10079 41/// /2311 10132 20131 40116 52004 7////
 22221 00158=
DBJM 22061 99540 10085 46/// /2312 10132 20121 40122 52003 22200
 00156=
DBBC 22061 99541 10089 46/// /2412 10139 2//// 40117 54000 22210
 00144=
DBBI 22061 99535 10100 46/// /2304 10142 20127 40128 57004 22260
 00164=
DBBU 22061 99542 10117 46/// /2209 10144 20133 40122 57008 22261
 00152=
VAAZ 22064 99642 70219 46/// /1401 10046 20037 49964 51012 7////
 8//// 22200 0//// 2////=
VRYO3 22064 99504 10008 46/// /2721 10152 20118 40202 55001 7////
 8//// 22224 00171 2////=
9HA2583 22064 99340 10316 41798 32310 10255 20200 40100 5////
 70200 83460 22274 00279 20302 3//// 40602 5//// 6//// 80217 ICE
 /////=
TFNA 22061 99662 70282 41/97 80310 10026 40011 75152 22222 00009=
TFEA 22061 99639 70229 42/99 31803 10109 49975 22232 00105=
DK7210 22061 99540 10066 46/// /2815 10151 20112 30100=
####018000160####
SMVJ01 KWBC 220600
BBXX
WCX7445 22064 99647 50640 43/// /1001 11090 2//// 49976 5////
 7//// 8//// 22200 01017 2//// 3//// 4//// 5//// 6//// ICE /////=
####018000686####
SMVE01 KWBC 220600
BBXX
ZCBZ4 22063 99019 11057 41498 63210 10280 20237 40139 50/// 70300
 8/718 22224 20202 33232 40202 50101 80250=
DCPP2 22064 99040 10700 41498 63205 10290 20235 40120 54000 7//22
 81171 22235 04280 20501 33200 40802 5//// 80250=
BATFR59 22064 99199 31655 46/// /1116 10239 20182 40147 55002
 22222 04249=
BATFR43 22064 99177 51500 46/// /0712 10262 20192 40156 22262
 00269=
BATFR36 22064 99174 51467 46/// /0720 10254 20194 40158 51012
 22221 04267=
BATEU07 22064 99265 31116 46/// /1709 10204 20107 40218 57014
 22283=
BATFR56 22064 99103 30723 44597 51226 10257 20227 40144 50000
 70200 83163 22213 04274 20806 30913 40806 50602=
####018002480####
SMVD01 KWBC 220600 RRG
BBXX
42003 22061 99260 70856 46/// /1008 10261 40139 56011 90550 22200
 00297 10602 20602 70011 333 91209 555 11080 22083 30518 41116
 60549 095079 099085 120119 089096 071081 083078 81115 90518=
42012 22061 99301 70876 46/// /1106 10267 20239 40164 57009 90550
 22200 00281 10301 20301 70004 333 91209 555 11063 22066 30549
 41109 60549 110058 101046 078041 062051 070056 081055 81108
 90549=
42057 22061 99170 70815 46/// /0805 10291 20247 40132 57003 90550
 22200 00299 10501 20301 306// 40501 70004 333 91206 555 11049
 22051 30530 40706 60549 076047 076050 076052 077048 080046 083048
 80706 90531=
42036 22061 99285 70845 46/// /0707 10285 20234 40160 58009 90550
 22200 00285 10602 20601 316// 40601 70008 333 91208 555 11074
 22078 30514 40809 60549 073070 071074 071074 073074 071076
 066073=
42056 22061 99198 70849 46/// /1406 10293 20239 40130 58006 90550
 22200 00301 10501 20501 70005 333 91207 555 11067 22070 30542
 41307 60549 136060 130047 133042 135042 143042 143042 81307
 90542=
42035 22061 99292 70944 46/// /1002 10267 20211 40163 54000 90550
 22200 00277 1//00 70002 333 91203 555 11023 22023 30525 40903
 60549 097022 092018 086020 092018 087015 090013=
42060 22061 99163 70635 46/// /0807 10288 20240 40139 57013 90550
 22200 00294 10903 20302 300// 40902 70013 333 91208 555 11070
 22074 30532 40809 60549 079067 081070 082069 081070 077066 081064
 80808 90533=
42001 22061 99259 70897 46/// /0906 10280 20240 40153 57003 90550
 22200 00288 10402 20402 3//// 40701 70008 333 91207 555 11061
 22064 30451 40808 60549 088057 097060 090062 088062 083061
 082065=
41044 22061 99217 70587 46/// /1109 10282 20240 40181 56009 90550
 22200 00283 10804 20804 70021 333 91211 555 11095 22101 30454
 41113 60549 113088 117091 115097 114099 110100 112094 81111
 90509=
42065 22061 99149 70751 46/// /0708 10288 20253 90550 22200 10603
 20603 70013 333 91209 555 11085 22090 30458 40810 60549 071079
 073077 075083 071081 075082 076085 80809 90456=
41049 22061 99275 70630 46/// /1007 10274 20234 40215 58013 90550
 22200 00272 10903 20602 300// 40902 70015 333 91208 555 11074
 22079 30450 41008 60549 098070 100070 100069 099067 098068 100070
 81008 90453=
41012 22061 99300 70805 46/// /1305 10282 40179 57003 90550 22200
 00285 11002 20401 306// 41001 70010 333 91207 555 11057 22060
 30506 41308 60549 131054 132055 131059 135061 131067 130062=
####018001449####
SMVD80 KWBC 220600 RRA
BBXX
CG2350 22064 99475 70868 46/// /3014 10118 20102 40101 53013 7////
 8//// 22232 00139 2////=
CG2960 22064 99453 70800 46/// /2505 10168 20156 40139 53011 7////
 8//// 22200 0//// 2////=
45012 22061 99436 70774 46/// /1706 10199 30061 40150 58005 90550
 22200 00192 10401 20401 70005 333 91207 555 11065 22071 30544
 41607 60549 166060 166062 164061 160060 162063 166062=
45008 22061 99443 70824 46/// /2509 10174 39930 40140 51016 90550
 22200 00176 10502 20502 70012 333 91210 555 11092 22098 60549
 252086 251082 253086 249090 249085 252096=
45002 22061 99453 70864 46/// /2608 10147 20118 39904 40116 51012
 90550 22200 10604 20604 70019 333 91210 555 11089 22095 30514
 42711 60549 263084 262085 263090 263093 259088 255096=
45026 22061 99420 70866 46/// /2508 10185 20122 90600 22200 00192
 10503 70014 333 91210=
45025 22061 99470 70884 46/// /2706 10078 20063 40120 51020 90600
 22200 00162 1//00 70002 333 91208=
WYP8657 22064 99425 70827 41/98 13010 00019 40185 70200 22213
 00020 20000=
45006 22061 99473 70898 46/// /3207 10068 39917 40141 51018 90550
 22200 00112 10502 20502 70011 333 91208 555 11072 22075 30458
 43209 60549 318069 319065 320070 318073 317069 319071=
45003 22061 99454 70828 46/// /2306 10153 39914 40127 51011 90550
 22200 00141 10602 20602 70009 333 91207 555 11063 22070 30452
 42408 60549 234056 233055 234059 237062 234064 240066=
####018003638####
SMVD01 KWBC 220600 RRF
BBXX
46059 22061 99380 71300 46/// /2202 10193 40204 51011 90550 22200
 00195 11506 20401 3//// 41506 70030 333 91202 555 11019 22019
 30516 42503 60549 217018 216018 216016 218016 209016 213016=
42002 22061 99258 70937 46/// /0704 10285 20237 40147 58003 90550
 22200 00296 10501 20401 305// 40501 70006 333 91205 555 11044
 22046 30510 40807 60549 074045 085051 070052 075053 079054
 073052=
42059 22061 99151 70675 46/// /0906 10289 20249 40125 58013 90550
 22200 00296 10502 20502 3//// 40901 70010 333 91207 555 11067
 22070 30527 41008 60549 091063 084062 095065 087061 095061 091064
 80907 90547=
41043 22061 99211 70650 46/// /1008 10278 20246 40167 58012 90550
 22200 00282 10704 20704 70019 333 91210 555 11085 22090 30500
 41110 60549 104081 100081 103078 102078 103082 101084 81009
 90451=
42055 22061 99222 70940 46/// /0404 10289 20231 40139 50000 90550
 22200 00294 10701 20301 304// 40701 70005 333 91205 555 11039
 22040 30451 40405 60549 042037 051037 054041 048042 044042 041043
 80405 90451=
42040 22061 99292 70882 46/// /1206 10271 40154 58005 90550 22200
 00280 10301 20301 70004 333 91207 555 11057 22060 30501 40908
 50153 60549 120057 115059 100062 091059 082065 083068 70523 80807
 90451=
41048 22061 99320 70696 46/// /1106 10269 20233 40224 56012 90550
 22200 00277 11003 20501 3//// 41003 70014 333 91207 555 11059
 22062 30541 41208 60549 109061 109064 111063 109062 115062 111064
 81107 90531=
42058 22061 99149 70749 46/// /0808 10291 20245 40112 58017 90550
 22200 00293 10602 20602 70012 333 91209 555 11083 22088 30541
 40710 60549 074080 074081 076077 072078 074077 076077 80709
 90541=
41008 22061 99314 70809 46/// /1305 10264 20236 40187 56007 90550
 22200 00270 11002 20401 300// 41001 70008 333 91206 555 11054
 22056 30529 41309 60549 131052 133066 129077 134074 126056
 122046=
44020 22061 99414 70702 46/// /1405 10191 20190 40227 58013 90550
 22200 00193 1//00 70002 333 91206 555 11052 22055 30515 41406
 60549 136049 136049 137048 135051 129045 120038=
41013 22061 99334 70777 46/// /1506 10271 20235 40192 58008 90550
 22200 00270 11002 20401 308// 41001 70009 333 91207 555 11064
 22069 30523 41608 60549 156058 163063 164067 170058 161059
 154060=
44014 22061 99366 70748 46/// /2003 1//// 40205 50000 90550 22200
 00215 11002 20301 307// 41002 70012 333 91204 555 11032 22032
 30506 42206 60549 203032 210035 216037 224040 224045 217044=
46078 22061 99561 71526 46/// /2907 10105 20071 49818 52013 90550
 333 91209 555 11075 22080=
44009 22061 99385 70747 46/// /1803 10210 40190 57006 90550 22200
 00205 11002 20401 300// 41002 70010 333 91204 555 11038 22042
 30545 41804 60549 182034 174036 169030 156026 149029 161025=
41004 22061 99325 70791 46/// /1808 10263 20223 40192 56009 90550
 22200 00277 10702 20501 3//// 40701 70008 333 91209 555 11082
 22086 30526 41710 60549 177076 176069 167071 157068 146057
 139057=
41047 22061 99275 70715 46/// /1107 10280 20263 40197 58010 90550
 22200 00289 11003 20602 303// 41002 70017 333 91209 555 11072
 22076 30519 41109 60549 108072 108073 105079 105080 104076 103080
 81109 90519=
42020 22061 99270 70967 46/// /1105 10284 20225 40153 51005 90550
 22200 00291 10402 20401 308// 40601 70008 333 91206 555 11055
 22057 30455 41108 60549 108052 106055 110056 113056 112061
 107069=
41001 22061 99347 70727 46/// /1808 10269 20227 40217 57005 90550
 22200 00270 11102 20502 3//// 41102 70012 333 91210 555 11088
 22093 30536 41810 60549 179081 182085 181084 178085 177068
 170064=
####018000147####
SMVF10 EHDB 220600 RRA
BBXX
TBWUK35 22063 99622 10040 41598 72022 10115 20074 49900 51009 70311
84870 22243 00140 20602 319// 40702 80095=
####018000114####
SMVF10 EHDB 220600 RRD
BBXX
UCFT 22061 99736 10322 41697 81604 10050 40201 57014 70222 87230
22231 20301=
####018000127####
SMVE10 EHDB 220600 RRB
BBXX
ELUC5 22064 99124 51339 41998 01213 10245 20209 40160 52017 7//00
80000 22264 2//// 80220=
####018000133####
SMVD10 EHDB 220600 RRA
BBXX
OWFD2 22061 99071 70795 41/98 /2902 10250 20222 40160 54000 70222
8//// 22244 00270 2//// 80230=
####018000150####
SMVF10 EHDB 220600 RRC
BBXX
PDZS 22063 99449 70077 41598 80415 10165 20123 40245 57005 70252
885// 22252 02173 20301 399// 4//03 5//// 80140=
####018000151####
SMVD10 EHDB 220600 RRB
BBXX
C6VR4 22063 99286 70521 41598 40712 10268 20227 40240 58020 70311
83442 22254 04282 20804 313// 41204 5//// 80240=
####018000132####
SMVD10 EHDB 220600 RRC
BBXX
PBIG 22064 99567 71346 41/97 /1627 10103 21001 49950 52/// 7////
8//// 22244 00090 2//// 80061=
####018000132####
SMVF10 EHDB 220600 RRE
BBXX
UCKG 22061 99689 10112 41/97 40807 10120 49980 57026 70200 83504
22253 00130 20101 30300 40603=
####018000151####
SMVE10 EHDB 220600 RRA
BBXX
C6I09 22064 99397 51637 41598 80713 10113 20076 49993 54000 70322
8782/ 22223 00122 20802 331// 41006 5//// 80095=
####018000126####
SMVA10 EHDB 220600 RRA
BBXX
UCUE 22061 99221 70173 41/97 83601 10205 2//// 40148 54000 70000
8//// 22251 04201 2////=
####018000114####
SMVB10 EHDB 220600 RRA
BBXX
VVKS 22064 99176 10834 41697 22203 10330 20300 40176 54000 70100
82461 22200=
####018000151####
SMVF10 EHDB 220600 RRF
BBXX
MDTE9 22064 99698 10148 41498 11514 10115 20074 40030 57015 70200
8/100 22253 00100 20502 322// 41004 5//// 80095=
####018000132####
SMVF10 EHDB 220600 RRB
BBXX
UCJT 22061 99763 10583 41597 31904 10025 40268 54000 70211 83036
22254 20201 322// 40201 50000=
####018000550####
SMVF11 ENMI 220600
BBXX
LAHV 22061 99805 10160 41780 51810 10036 20013 40166 70310 8564x
      222// 04037 10301=
LDGJ 22061 99774 10272 43/// /1208 10038 20028 40202 5//// 222/2
      04034 1//// 3//// 4//// 5////=
LF4H 22064 99596 10022 46/// /2623 10115 20068 49972 52023 8////
      22200 06127 10706 70031 333 91133=
LJIT 22061 99764 10145 43/// /1208 10040 20032 40138 5//// 222/0
      04028 1//// 3//// 4//// 5////=
LMEL 22061 99678 10095 43/// /0914 10115 20085 49962 5//// 222/0
      04117 1//// 3//// 4//// 5////=
####018001564####
SMXX17 KAWN 220600
BBXX
3FQS8 22064 99418 71663 41397 73524 00/// 10140 20140 40130 52040
 70222 87843 22224 00190 20503 302// 40604 5//// 6//// 80140
 /////=
3FSB4 22064 99386 71772 41698 73320 10190 20150 40200 54000 70322
 86/31 22211 00230 20205 324// 40104 5//// 6//// 80165 ICE /////=
46035 22061 99571 71778 46/// /3109 1//// 40031 53018 90550 22200
 10804 20703 300// 40802 70020 333 91211 555 11092 22098 30454
 43012 60549 310091 315094 311096 308095 315091 314099 83211
 90456=
A8EH3 22064 99463 71654 41298 82921 10110 20092 40065 54000 70322
 887// 22224 04120 20603 80100=
DHEB 22063 99541 71620 41598 43518 10070 20026 49840 52/// 70300
 83948 22264 04050 20508 327// 40407 5//// 80050=
LAYG5 22064 99510 71770 41698 83125 00/// 10110 20100 40110 50000
 70222 888// 22223 00075 20403 308// 40803 5//// 6//// 80060=
NWS0001 22064 99567 71639 43/// /3128 10063 20040 49867 5////
 7//// 8//// 222// 04082 2//// 3//// 4//// 5//// 6//// 8//// ICE
 /////=
V7NV4 22064 99345 71699 41497 83337 10240 20226 40160 51010 703//
 84278 22263 00230 20202 332// 40408 5//// 6//// 80230 ICE /////=
WCX8883 22064 99409 71754 43598 63324 10160 20130 40195 52010
 7//// 86800 22265 00180 2//// 3//// 4//// 5//// 6//// 80140 ICE
 /////=
WDD6039 22064 99480 71583 41698 53019 10133 20070 40001 56002
 70222 852// 22224 00117 2//// 3//// 4//// 5//// 6//// 80100 ICE
 /////=
WDE3542 22063 99580 71531 41/98 49900 1//// 2//// 49840 52///
 780// 8//// 222// 0//// 2//00 3//// 4//00 5//// 6//// 8//// ICE
 /////=
####018000091####
SNVX19 LFVW 220500 RRC
BBXX
MINFR03 2205/ 99047 30628 46/// ///// 10273 40135 52013=
####018000107####
SMVF11 LFPW 220600
BBXX
BATUK01 22064 99604 70007 46/// /2812 10105 20057 49954 51019
22241 04124=
####018000989####
SMVX40 KAWN 220600
BBXX
DBBA 22061 99549 10137 46/// /2209 10138 20125 40109 57001 22220
 00119=
DBBC 22061 99541 10089 46/// /2412 10139 2//// 40117 54000 22210
 00144=
DBBI 22061 99535 10100 46/// /2304 10142 20127 40128 57004 22260
 00164=
DBBT 22061 99230 30145 46/// /1702 10091 20075 40181 52021 22270
 00136=
DBBU 22061 99542 10117 46/// /2209 10144 20133 40122 57008 22261
 00152=
DBEA 22061 99540 10082 46/// /2314 10134 20122 40114 54000 22261
 00156=
DBEB 22061 99539 10079 41/// /2311 10132 20131 40116 52004 7////
 22221 00158=
DBFH 22061 99548 10135 46/// /2310 10146 20128 40108 57008 22201
 00140=
DBFR 22061 99542 10079 46/// /2612 10153 20135 40108 54000 22241
 00163=
DBJM 22061 99540 10085 46/// /2312 10132 20121 40122 52003 22200
 00156=
DBKR 22061 99541 10121 46/// /2304 10143 20126 40126 54000 22200
 00155=
DBLK 22061 99784 11254 41497 60409 11004 21048 40076 52018 78587
 83960 22261 04014 20402 333 // 40602=
####018000475####
SMYG21 LYBM 220600
AAXX 22061
13067 31996 02902 10148 20144 30059 40185 53006 71011 333 20136 31012
55087 70000=
13183 41420 32001 10155 20153 30086 40186 52003 71011 83600 333 20140
30010 55039 83710=
13279 31695 70000 10154 20146 30046 40190 52005 71022 87800 333 20139
31012 55023 70001=
13295 32997 02701 10149 20125 30121 40174 53008 333 20113 30009 55000
70000=
13367 31/91 93201 10106 20106 39023 48525 56001 74544 333 20102 32007
55000 70097=
####018000749####
SMYG22 LYBM 220600
AAXX 22061
13168 31996 22502 10160 20147 30085 40189 53007 71000 82030 333 20139
31011 55055 70000=
13174 31996 02503 10142 20137 30080 40179 53008 71000 333 20135 31012
55091 70000=
13269 31696 80000 10152 20139 39981 40190 56004 71022 885// 333 20133
32011 55000 70023=
13274 31996 02502 10157 20139 30033 40190 51001 71000 333 20150 30013
55046 70000=
13278 31696 80000 10162 20149 39973 40192 53003 71022 885// 333 20148
31013 55000 70024=
13378 31/93 90402 10072 20072 38299 48527 51003 74544 333 20058 31006
55000 70019=
13397 32698 62902 10140 20123 39643 40167 53007 84530 333 20121 31011
55000 70000=
13457 32970 00000 10186 20091 30131 40138 52004 333 20153 31014
55///=
13481 NIL=
####018000668####
SMYG23 LYBM 220600
AAXX 22061
13173 31996 02902 10152 20147 30087 40185 53005 71000 333 20140 31013
55082 70000=
13180 31996 02702 10153 20151 30078 40187 50000 71000 333 20135 30012
55068 70000=
13266 32697 32801 10154 20146 30088 40187 57004 83500 333 20122 30011
55057 70000=
13369 32697 23102 10096 20092 39012 48501 55000 82500 333 20088 31006
55000 70007=
13383 31596 82602 10166 20154 39986 40183 52006 71022 8667/ 333 20160
31015 55000 70002=
13384 32698 83401 10166 20147 30039 40186 53007 885// 333 20155 31014
55019 70056=
13389 31695 40801 10144 20138 39897 40171 53003 71011 84800 333 20133
31011 55000 70023=
13477 NIL=
####018000127####
SMVF22 EIDB 220600
BBXX
62023 22063 99514 70079 46/96 /2621 10136 2//// 40205 5////
22200 10504 70019 555 70025 81008=
####018000541####
SMVF11 BIRK 220600
BBXX
TFBKF 22064 99635 70202 46/// ///// 22200 10702 70011=
TFBLK 22064 99657 70248 46/// ///// 22200 10706 70031=
TFDRN 22064 99658 70212 46/// ///// 22200 10703 70016=
TFGRS 22064 99663 70182 46/// ///// 22200 10705 70023=
TFGRV 22064 99638 70225 46/// ///// 22200 10903 70013=
TFHFN 22064 99642 70152 46/// ///// 22200 10803 70015=
TFKGR 22064 99657 70136 46/// ///// 22200 10504 70018=
TFSRT 22064 99633 70203 46/// ///// 22200 10703 70017=
TFSTD 22064 99664 70234 46/// ///// 22200 10707 70034=
####018000148####
SMVF11 LFPW 220600
BBXX
PDHY 22063 99485 70242 41/97 /2015 10161 20125 40145 56005 70222
8////
22223 00140 2//// 3//// 4//// 5//// 80141=
