####018000295####
SNVD20 KWNB 222000 RRN
BBXX
44067 22201 99384 70770 46/// /1303 10248 40185 56008 92000=
44060 22201 99413 70721 46/// ///03 10204 40195 92015 22200 00205
333 91204 555 11036 22036=
44022 22201 99409 70737 46/// /2705 10237 20205 40187 92015 22200
00219 333 91206 555 11062 22072=
####018000224####
SNVD45 KWNB 222000 RRG
BBXX
45025 22201 99470 70884 46/// /2804 10113 20074 40170 92020 22200
00161 1//00 70002 333 91206=
45026 22201 99420 70866 46/// /2505 10160 20097 92020 22200 00190
10402 70009 333 91207=
####018000483####
SNVD22 KWNB 222000 RRU
BBXX
46109 22201 99481 71234 46/// /2301 10129 40138 51011 92000 22200
00098=
46110 22201 99481 71230 46/// /0302 10120 40134 51007 92000=
46111 22201 99481 71227 46/// /1503 10169 40134 53008 92000 22200
00106=
46112 22201 99481 71227 46/// /1504 10182 40134 51008 92000=
46088 22201 99483 71232 46/// /2702 10123 40136 92020 22200 00113
1//00 70002 333 91202 555 11024 22028 32010 42803 62019 266021
286017 113002 326003 020004 354008=
####018000305####
SNVE15 KWNB 222000 RRE
BBXX
51203 22201 99208 71570 46/// ///// 1//// 92013 22200 00265 11302
21001 326// 41301 70010=
52200 22201 99134 11448 46/// ///// 1//// 92015 22200 00292 10803
20803 70014=
51201 22201 99217 71581 46/// ///// 1//// 92012 22200 00264 11303
21002 334// 41302 70017=
####018000404####
SNVD45 KWNB 222000 RRH
BBXX
45027 22201 99469 70919 46/// /3204 10094 20042 39988 40211 91940
22200 00086 333 91205=
45027 22201 99469 70919 46/// /3303 10095 20042 39987 40211 91950
22200 00085 333 91204=
45028 22201 99468 70918 46/// /3103 10091 20059 39979 40203 91940
22200 00086 333 91203=
45028 22201 99468 70918 46/// /3103 10092 20061 39979 40203 91950
22200 00086 333 91204=
####018000125####
SNVD17 CWVR 222000
BBXX
46147 22201 99518 71312 46/// /1411 10174 40020 57034
22200 00139 11206 70030 333 91214 =

####018000129####
SNVF25 LFPW 221700
BBXX
V7LZ8 22173 99360 70062 41/98 /2507 10230 40190 5/000 702// 8////
22200 20200 3//// 4//// 5////=
####018000067####
SNAL57 EUMS 222000
AAXX 22204
60691 46/// /0607 10328 21025=
####018000125####
SNVD17 CWVR 222000
BBXX
46145 22201 99544 71324 46/// /1308 10119 40027 57023
22200 00116 11203 70015 333 91209 =

####018000131####
SNVD17 CWTO 222000
BBXX
45135 22201 99438 70769 46/// /2806 10192 30083 40172 57000
22200 00183 10301 70004 333 91207 =

####018000226####
SNVB20 RJTD 222000
BBXX
JGQH    22204 99352 11543
46/// /2229 10237 20221 40137 53009 8////
22221 00268 11008 70041=
JGQH    22204 99352 11543
46/// /2229 10237 20221 40137 53009 8////
22221 00268 11008 70041=
####018000125####
SNVD17 CWVR 222000
BBXX
46131 22201 99499 71250 46/// /1513 1//// 40104 57007
22200 00142 10402 70011 333 91217 =

####018000131####
SNVD17 CWTO 222000
BBXX
45132 22201 99425 70812 46/// /2301 10193 39982 40189 57005
22200 00196 10200 70001 333 91203 =

####018000131####
SNVD17 CWTO 222000
BBXX
45152 22201 99462 70797 46/// /2006 10179 39931 40165 57004
22200 00173 10200 70002 333 91208 =

####018000170####
SNVD15 KWNB 221900 RRX
BBXX
42392 22191 99272 70900 46/// ///// 1//// 91920 22200 10503 70016=
42887 22191 99282 70885 46/// /0103 10255 91920 22200 10602 70011=
####018000166####
SNVD21 KHAF 222000
BBXX VRDA4 22204 99339 70168
41498 30713 10220 2016/
40220 54000 70200 831//
22213 00220 20503 30505 40503
50503 6//// 80180 ICE /////
####018000108####
SNVX22 EGRR 222000
BBXX
AMOUK15 22204 99159 50057 46/// ///// 10192 20147 30169 40208
 52012 91950=
####018000185####
SNVD15 KWNB 222000 RRM
BBXX
41036 22201 99342 70770 46/// /0000 10271 20229 40193 92020 22200
00276 333 91201 555 11001 22001 62019 251001 211000 184003 188006
195014 213007=
####018000262####
SNVD20 KWNB 222000 RRO
BBXX
44029 22201 99425 70706 46/30 /1402 10185 40180 56014 92004 22200
00172 10801 70004 333 91202 555 11027 22032=
44030 22201 99432 70704 46/30 /0802 10176 40184 56017 92004 22200
00170 11101 70005 333 91202 555 11029 22034=
####018000368####
SNVD22 KWNB 222000 RRV
BBXX
46088 22201 99483 71232 46/// /2702 10123 40136 92020 22200 00113
1//00 70002 333 91202 555 11024 22028 32010 42803 62019 266021
286017 113002 326003 020004 354008=
46087 22201 99485 71247 46/// /1907 10154 20154 40138 92020 22200
00105 333 91208 555 11075 22089 31946 41910 62019 192065 189073
186081 187080 183078 182079=
####018000131####
SNVD17 CWTO 222000
BBXX
45137 22201 99455 70810 46/// /2206 10162 39959 40171 57002
22200 00159 10301 70005 333 91208 =

####018000171####
SNVD01 PANC 221900 RRI
BBXX
ITP0162 22194 99406 10272
41698 /0124 10221 20182 40100 5//// 7//// 8////
222// 0//// 2//// 3//// 4//// 5//// 6//// 8//// ICE 0/0//=
####018000442####
SNVD01 PANC 222000 RRE
BBXX
WTEB 22204 99577 71521
43/// /3311 10085 20069 49878 5//// 7//// 8////
222// 0//// 2//// 3//// 4//// 5//// 6//// 8//// ICE /////=
HC2083 22204 99002 50914
41596 71619 10245 2020/ 40120 56020 7//22 8746/ 22200 00200 20401 316// 40602 5//// 6////
80215 ICE /////=
KABP 22203 99407 70318
41298 73117 10200 2015/ 40200 54/// 71562 8327/ 22234 00230 20404 3//// 4//// 5//// 6////
80170 ICE /////=
####018000125####
SNVD45 KWNB 222000 RRI
BBXX
45028 22201 99468 70918 46/// /3204 10092 20061 39979 40203 92000
22200 00086 333 91206=
####018000134####
SNVF01 KWBC 221700 RRH
BBXX
V7LZ8 22173 99360 70062 41/98 /2507 10230 40190 5/000 702// 8////
 22200 20200 3//// 4//// 5////=
####018000173####
SNVF01 KWBC 221900 RRI
BBXX
ITP0162 22194 99406 10272 41698 /0124 10221 20182 40100 5////
 7//// 8//// 222// 0//// 2//// 3//// 4//// 5//// 6//// 8//// ICE
 0/0//=
####018001015####
SNVD01 KWBC 221900 RRO
BBXX
42887 22191 99282 70885 46/// /0103 10255 91920 22200 10602 70011=
42392 22191 99272 70900 46/// ///// 1//// 91920 22200 10503 70016=
42046 22191 99279 70940 46/// /0203 1//// 40157 57010 91900 22200
 00278 333 91204=
44055 22191 99391 70753 46/// ///// 1//// 91930 22200 00230 10301
 70004=
42043 22191 99290 70949 46/// /0404 10233 20167 40159 57012 91900
 22200 00283 333 91205=
42046 22191 99279 70940 46/// /0305 1//// 40152 91930 22200 00279
 333 91206=
42021 22191 99283 70833 46/// /0102 10276 40145 58017 91900 22200
 00293 333 91203=
42021 22191 99283 70833 46/// /0104 10276 40143 91920 22200 00293
 333 91205=
41037 22191 99340 70775 46/// /2004 10267 40183 56015 91900 333
 91205=
42085 22191 99179 70665 46/// /0909 10293 40127 91930 333 91211=
42085 22191 99179 70665 46/// /0909 10292 40127 91920 333 91211=
42085 22191 99179 70665 46/// /0908 10293 40127 91910 333 91210=
FLAO 2219/ 99765 70831 46/// ///// 11025 40077 57003=
####018000127####
SNVB01 KWBC 222000 RRB
BBXX
JGQH 22204 99352 11543 46/// /2229 10237 20221 40137 53009 8////
 22221 00268 11008 70041=
####018000415####
SNVC01 KWBC 222000 RRB
BBXX
OYYK2 22200 99083 50802 41/98 81606 10200 20149 40147 58020 70022
 8//// 22274 04170 20401 320// 40802 80170=
HC2083 22204 99002 50914 41596 71619 10245 2020/ 40120 56020 7//22
 8746/ 22200 00200 20401 316// 40602 5//// 6//// 80215 ICE /////=
WBP3210 22204 99534 50420 43/// /2231 11043 2//// 49998 5////
 7//// 8//// 22212 00005 2//// 3//// 4//// 5//// 6//// ICE /////=
####018000775####
SNVD01 KWBC 222000 RRJ
BBXX
46207 22201 99509 71299 46/// /1411 10129 40046 5//// 22200 00144
 11306 70032 333 91213=
NWS0022 22204 99377 70716 43/// /1910 10265 20233 40215 5////
 7//// 8//// 222// 04294 2//// 3//// 4//// 5//// 6//// 8//// ICE
 /////=
CFK9796 22204 99500 70668 41/98 90606 10014 2//// 41010 56030
 70320 896// 222// 0//// 20301 3//// 4//// 5//// 6//// 8//// ICE
 /////=
44033 22201 99441 70690 46/05 /1601 10152 40197 58010 92004 22200
 00147 10801 70003 333 91202 555 11019 22023=
44034 22201 99441 70681 46/12 /1902 10140 40205 56010 92004 22200
 00130 10801 70007 333 91202 555 11030 22035=
WTDH 22204 99354 70746 43/// /1613 10246 20214 40206 5//// 7////
 8//// 222// 04287 2//// 3//// 4//// 5//// 6//// 8//// ICE /////=
####018001302####
SNVD80 KWBC 222000 RRC
BBXX
45132 22201 99425 70812 46/// /2301 10193 39982 40189 57005 22200
 00196 10200 70001 333 91203=
45152 22201 99462 70797 46/// /2006 10179 39931 40165 57004 22200
 00173 10200 70002 333 91208=
45135 22201 99438 70769 46/// /2806 10192 30083 40172 57000 22200
 00183 10301 70004 333 91207=
45027 22201 99469 70919 46/// /3303 10095 20042 39987 40211 91950
 22200 00085 333 91204=
45028 22201 99468 70918 46/// /3103 10091 20059 39979 40203 91940
 22200 00086 333 91203=
45028 22201 99468 70918 46/// /3103 10092 20061 39979 40203 91950
 22200 00086 333 91204=
45027 22201 99469 70919 46/// /3204 10094 20042 39988 40211 91940
 22200 00086 333 91205=
45026 22201 99420 70866 46/// /2505 10160 20097 92020 22200 00190
 10402 70009 333 91207=
45025 22201 99470 70884 46/// /2804 10113 20074 40170 92020 22200
 00161 1//00 70002 333 91206=
45159 22201 99438 70790 46/// /2303 10191 30086 40175 57003 22200
 00179 10200 70002 333 91204=
45147 22201 99424 70827 46/// /1804 10194 39973 40179 57011 22200
 00193 10200 70002 333 91205=
45148 22201 99497 70945 46/// /2501 10101 39827 40220 57011 22200
 00160 10200 70000 333 91202=
45149 22201 99435 70821 46/// /2103 10188 39970 40180 57006 22200
 00186 10401 70004 333 91203=
####018003686####
SNVD01 KWBC 222000 RRI
BBXX
46131 22201 99499 71250 46/// /1513 1//// 40104 57007 22200 00142
 10402 70011 333 91217=
46145 22201 99544 71324 46/// /1308 10119 40027 57023 22200 00116
 11203 70015 333 91209=
46147 22201 99518 71312 46/// /1411 10174 40020 57034 22200 00139
 11206 70030 333 91214=
44060 22201 99413 70721 46/// ///03 10204 40195 92015 22200 00205
 333 91204 555 11036 22036=
44022 22201 99409 70737 46/// /2705 10237 20205 40187 92015 22200
 00219 333 91206 555 11062 22072=
46112 22201 99481 71227 46/// /1504 10182 40134 51008 92000=
46088 22201 99483 71232 46/// /2702 10123 40136 92020 22200 00113
 1//00 70002 333 91202 555 11024 22028 32010 42803 62019 266021
 286017 113002 326003 020004 354008=
46111 22201 99481 71227 46/// /1503 10169 40134 53008 92000 22200
 00106=
44067 22201 99384 70770 46/// /1303 10248 40185 56008 92000=
46109 22201 99481 71234 46/// /2301 10129 40138 51011 92000 22200
 00098=
46110 22201 99481 71230 46/// /0302 10120 40134 51007 92000=
42362 22201 99278 70907 46/// /1605 10300 20222 92015=
42363 22201 99282 70892 46/// /2203 10278 20217 40149 92015 333
 91203=
41037 22201 99340 70775 46/// /2403 10269 40179 56013 92000 333
 91203=
42364 22201 99291 70881 46/// /0104 10272 20217 40159 92015=
41038 22201 99341 70777 46/// /0303 10231 40187 58012 92000 333
 91204=
42021 22201 99283 70833 46/// /2604 10276 40138 91940 22200 00293
 333 91205=
42085 22201 99179 70665 46/// /0909 10293 40127 91940 333 91211=
42085 22201 99179 70665 46/// /0809 10293 40127 91950 333 91211=
42085 22201 99179 70665 46/// /0909 10293 40125 57020 92000 22200
 00295 10602 70011 333 91211=
46221 22201 99339 71186 46/// ///// 1//// 91945 22200 00192 11501
 20801 323// 41501 70007=
44097 22201 99410 70711 46/// ///// 1//// 92002 22200 00194 10602
 20602 70010=
41053 22201 99185 70661 46/// /0808 10291 40131 91950 333 91210=
41053 22201 99185 70661 46/// /0908 10291 40131 56016 92000 22200
 00293 10802 70011 333 91210=
41053 22201 99185 70661 46/// /0808 10291 40130 91940 333 91210=
44098 22201 99428 70702 46/// ///// 1//// 92007 22200 00175 10901
 20901 70004=
41115 22201 99184 70673 46/// ///// 1//// 92005 22200 10802 20802
 301// 41101 70011=
46211 22201 99469 71242 46/// ///// 1//// 92006 22200 00137 11306
 21004 328// 41304 70030=
46222 22201 99336 71183 46/// ///// 1//// 92004 22200 00197 11401
 20901 316// 41401 70006=
46218 22201 99345 71208 46/// ///// 1//// 92002 22200 00161 11505
 20703 330// 41504 70023=
46242 22201 99332 71174 46/// ///// 1//// 91956 22200 00182 11401
 21001 321// 41401 70006=
46231 22201 99327 71174 46/// ///// 1//// 91949 22200 00179 11702
 20901 326// 41701 70008=
46223 22201 99335 71178 46/// ///// 1//// 92000 22200 00183 11401
 21001 319// 41401 70006=
46237 22201 99378 71226 46/// ///// 1//// 92010 22200 00150 11506
 20903 325// 41505 70030=
46240 22201 99366 71219 46/// ///// 1//// 92012 22200 00146 11303
 21002 335// 41303 70016=
46217 22201 99342 71194 46/// ///// 1//// 92012 22200 00180 11401
 20801 321// 41401 70006=
46216 22201 99343 71198 46/// ///// 1//// 91957 22200 00180 11702
 20801 326// 41701 70009=
46241 22201 99330 71173 46/// ///// 1//// 91940 22200 00172 11801
 21001 326// 41801 70006=
46249 22201 99338 71197 46/// ///// 1//// 92010 22200 00191 11402
 21001 319// 41401 70008=
46248 22201 99461 71247 46/// ///// 1//// 92004 22200 00148 11207
 21005 328// 41205 70034=
46232 22201 99325 71174 46/// ///// 1//// 91938 22200 00195 11802
 21001 328// 41801 70009=
FLAO 2220/ 99765 70831 46/// ///// 11018 40072 57007=
####018003722####
SNVF01 KWBC 222000 RRC
BBXX
VRDA4 22204 99339 70168 41498 30713 10220 2016/ 40220 54000 70200
 831// 22213 00220 20503 30505 40503 50503 6//// 80180 ICE /////=
KABP 22203 99407 70318 41298 73117 10200 2015/ 40200 54/// 71562
 8327/ 22234 00230 20404 3//// 4//// 5//// 6//// 80170 ICE /////=
64045 22204 99591 70117 46/// /1913 10111 20091 40048 57007 22200
 00126 10706 70029=
62095 22204 99531 70159 46/// /2122 10137 20134 40078 56017 22200
 00132 10607 70033 333 90710 91135=
62304 22204 99511 10018 46/98 /2618 10159 20126 40209 53006 22200
 00168 10501 70006=
62305 22204 99504 10000 46/98 /2716 10153 20120 40225 52006 22200
 00166 10601 70007=
62170 22204 99514 10020 46/97 /2518 10167 20121 40206 53007 22200
 00167 10501 70004=
AMOUK11 22204 99533 70062 46/// ///// 10152 20096 30135 40181
 52009 91950=
62094 22204 99517 70067 46/// /2316 10139 20119 40202 53003 22200
 00142 10503 70014=
62029 22204 99487 70125 46/// /2115 10156 20132 40208 55004 22200
 00159=
AMOUK13 22204 99519 10013 46/// ///// 10163 20093 30189 40203
 52005 91950=
AMOUK01 22204 99554 10073 46/// ///// 10143 2//// 30116 40135
 52011 91950=
AMOUK06 22204 99533 70046 46/// ///// 10147 20126 30156 40187
 57/// 91950=
AMOUK16 22204 99523 70063 46/// ///// 10133 20115 30190 40194
 57012 91950=
AMOUK03 22204 99518 10028 46/// ///// 10165 20111 30166 40201
 57004 91950=
62140 22204 99573 10013 46/// /27// 10127 20085 40111 51015 22200=
PJGO 22204 99571 10022 47997 /2615 10127 20100 40116 51013 700//
 22200=
62146 22204 99572 10021 47/98 /2612 10124 20094 40119 52012 700//
 22200 10605 70023=
62164 22204 99572 10008 46797 /2508 10134 20102 40116 51014 22200
 10504 70018=
AMOUK02 22204 99535 70030 46/// ///// 10142 20107 30145 40188
 54002 91950=
62104 22204 99574 10013 47798 /2612 10129 20086 40110 52015 700//
 22200=
62118 22204 99577 10009 47998 /2717 10126 20079 40101 52014 700//
 22200 10604 70020=
62153 22204 99573 10020 47998 /2609 10125 20088 40111 51015 700//
 22200 10504 70022=
62122 22204 99573 10016 47698 /2612 10127 20096 40117 52014 700//
 22200 10604 70022=
62117 22204 99579 10000 47798 /2719 10129 20083 40100 51013 700//
 22200 10503 70016=
62143 22204 99577 10018 47998 /3113 10124 20082 40112 52014 700//
 22200 10505 70023=
62121 22204 99535 10027 46/// /2613 10143 20060 40181 51006 22200=
62144 22204 99534 10017 47697 /2709 10142 20080 40190 52008 700//
 22200 10402 70008=
62116 22204 99576 10011 47798 /2816 10129 20080 40104 52015 700//
 22200 10504 70020=
62155 22204 99577 10007 47797 /2720 10127 20082 40110 52014 751//
 22200 10504 70018=
62102 22204 99579 10018 46/// /2819 10127 20073 40099 52015 22200
 10605 70024=
62142 22204 99530 10021 46998 /2510 10152 40187 51008 22200 10402
 70009=
62145 22204 99531 10028 47997 /2610 10148 20060 40191 51007 700//
 22200 10403 70013=
62148 22204 99536 10015 46/// ///// 10143 40191 51009 22200=
62150 22204 99536 10007 47998 /2808 10143 20090 40194 52011 700//
 22200 10401 70006=
62127 22204 99540 10007 47998 ///// 10135 20067 40180 52013 700//
 22200 10402 70008=
62149 22204 99537 10011 47798 /2811 10141 20074 40186 52010 700//
 22200 10401 70007=
62131 22204 99539 10012 46/// /28// 10139 20069 40179 52009 22200=
62132 22204 99564 10020 46/// /2914 10128 20085 40132 51009 22200=
62165 22204 99540 10009 47997 /2707 10137 20075 40184 51012 700//
 22200 10402 70010=
62123 22204 99563 10022 47997 /2719 10129 20087 40129 52009 700//
 22200=
62120 22204 99564 10021 47997 /2819 10125 20086 40125 52011 700//
 22200=
62154 22204 99564 10022 46/// /2716 10124 20088 40125 52010 22200=
####018003456####
SNVF01 KWBC 222000 RRD
BBXX
62152 22204 99570 10018 47997 /3213 10127 20089 40124 700// 22200
 14108 70042=
64041 22204 99607 70026 47497 ///// 10104 20077 40039 52015 700//
 22200 10707 70033=
62133 22204 99571 10009 46/// /2516 10129 20086 40116 51015 22200=
62119 22204 99570 10019 47697 /2919 10136 20093 40122 51011 700//
 22200 10504 70021=
MWYG6 22204 99603 70040 47998 /2619 10111 700// 22200=
63117 22204 99613 10011 47/97 /2724 10111 20060 40014 52013 763//
 22200=
63104 22204 99612 10016 47598 /2724 10114 20063 40011 52014 700//
 22200=
63115 22204 99616 10013 47598 /2622 10106 20058 40006 52016 700//
 22200 10709 70043=
63103 22204 99612 10011 46/// /2823 10115 20061 40023 52013 22200
 10707 70034=
63107 22204 99611 10017 46/// /2619 10112 40018 52013 22200=
63101 22204 99612 10009 46/// /2921 10118 20069 40012 52014 22200=
63108 22204 99608 10017 47998 /2820 10109 20057 40029 52016 700//
 22200 10706 70031=
63106 22204 99610 10017 46/// /2723 10109 40020 52014 22200=
63112 22204 99611 10010 46/97 /2824 10111 20057 40018 52014 22200
 10707 70033=
62112 22204 99584 70002 47698 /2711 10114 20083 40092 51011 751//
 22200=
62134 22204 99580 10014 47998 /2716 10122 20078 40100 51015 700//
 22200 10604 70022=
63055 22204 99606 10016 469// /3023 10114 20067 40039 52016 22200=
PJAI 22204 99581 70014 47798 /2619 10130 20072 40096 51010 700//
 22200=
ZQSD5 22204 99583 10007 46/// ///// 10120 20084 40094 52013 22200
 10705 70027=
62114 22204 99583 10000 46/// /2717 10114 20087 40092 52014 22200=
62129 22204 99584 10003 46/// /2718 10114 20083 40093 52013 22200=
62113 22204 99584 10002 47498 /2618 10117 20081 40095 51014 700//
 22200=
62128 22204 99587 10014 47498 /2614 10116 20083 40079 51011 700//
 22200 10606 70028=
AMOUK14 22204 99535 70038 46/// ///// 10144 20120 30149 40185
 54002 91950=
62111 22204 99580 70003 46/// /2819 10123 20085 40110 52013 22200
 10503 70017=
63056 22204 99597 10016 47998 /2722 10115 20070 40043 52017 700//
 22200 10706 70030=
63057 22204 99592 10015 47598 /2722 10120 20071 40066 52016 700//
 22200 10706 70029=
AMOUK05 22204 99520 10040 46/// ///// 10156 20098 30144 40191
 52004 91950=
AMOUK09 22204 99537 70037 46/// ///// 10144 20123 30160 40185
 54003 91950=
62107 22204 99501 70061 46/// /2612 10146 20113 40225 52003 22200
 00156 10904 70019=
62001 22204 99453 70050 46/// /0710 10170 20125 40226 53001 22200
 00189 10906 70030=
64046 22204 99606 70049 46/// /2617 10109 20088 40044 51012 22200
 00112 10706 70028=
62105 22204 99554 70122 46/// /1918 10133 20121 40084 58019 22200
 00128 10706 70029 333 90710 91126=
62081 22204 99510 70134 46/// ///// 10151 20135 40166 57008 22200
 00146 10706 70028=
62301 22204 99524 70047 46/// /2316 10142 20121 40198 53005 22200
 00157 10503 70013=
62303 22204 99516 70051 46/// /2315 10143 20111 40208 52003 22200
 00151 10503 70015=
62442 22204 99490 70163 46/// /1918 1//// 2//// 40168 57010 22200
 00154 333 90710 91125=
62103 22204 99499 70029 46/98 /2714 10149 20117 40220 52005 22200
 00159 10702 70009=
62163 22204 99475 70084 46/// /1903 10159 20105 40230 58001 22200
 00173 11007 70033=
LF4B 22204 99606 10037 47/98 /2721 10113 40037 52013 700// 92010
 22200 00106 10706 70030=
MINUK05 2220/ 99597 70047 46/// ///// 10118 40062 52010=
BAREU58 22204 99368 10248 46/// ///// 40102 22264=
