####018000401####
SNVD01 PANC 221700 RRD
BBXX
C6TQ6 22174 99174 70881
41898 40403 10290 20263 40150 57020 70211 8424/
2225/ 00290 20102 30605 40102 50102 6//// 80270 ICE /////=
PBWQ 22174 99448 10132
41297 72005 10232 20176 40114 57006 7//// 87610
22233 201// 30000=
WTDH 22174 99354 70748
43/// /1610 10242 20215 40217 5//// 7//// 8////
222// 04286 2//// 3//// 4//// 5//// 6//// 8//// ICE /////=
####018000166####
SNVD20 KWNB 221700 RRQ
BBXX
42085 22171 99179 70665 46/// /0908 10294 40146 91650 333 91209=
42085 22171 99179 70665 46/// /0908 10294 40147 91640 333 91210=
####018000227####
SNVD15 KWNB 221700 RRO
BBXX
42362 22171 99278 70907 46/// /1206 10300 20222 91700=
42363 22171 99282 70892 46/// /0704 10261 20206 40173 91715 333
91204=
42364 22171 99291 70881 46/// /36// 10250 20211 40163 91715=
####018000215####
SNVD45 KWNB 221600 RRJ
BBXX
45006 22161 99473 70898 46/// /3406 10082 39952 40175 91550 22200
00115 10502 20502 70010 333 91209 555 11064 22066 31546 43309
61549 341060 341057 349063 347049 348057 330052=
####018000130####
SNVD17 CWTO 221700
BBXX
45151 22171 99445 70794 46/// ///// 10181 39925 40188 52010
22200 00183 1//// 70/// 333 912//=

####018000131####
SNVD17 CWVR 221700
BBXX
45145 22171 99519 70970 46/// /2004 10077 39958 40226 57003
22200 00139 10200 70002 333 91205 =

####018000128####
SNVD01 PANC 221600 RRI
BBXX
PBWQ 22164 99448 10132
41297 70301 10237 20192 40114 57010 7//// 87610
22233 201// 30000=
####018000312####
SNVD22 KWNB 221700 RRO
BBXX
46109 22171 99481 71234 46/// /1001 10125 40127 53005 91700 22200
00098=
46110 22171 99481 71230 46/// /2701 10117 40127 52004 91700=
46111 22171 99481 71227 46/// /1603 10149 40126 51007 91700 22200
00112=
46112 22171 99481 71227 46/// /1206 10156 40126 52005 91700=
####018000131####
SNVD17 CWTO 221700
BBXX
45148 22171 99497 70945 46/// /0103 10067 39835 40231 52002
22200 00156 12100 70000 333 91204 =

####018000124####
SNVD17 CWVR 221700
BBXX
46207 22171 99509 71299 46/// ///// 1//// 4//// 5////
22200 0//// 1//// 70/// 333 912//=

####018000131####
SNVD17 CWTO 221700
BBXX
45149 22171 99435 70821 46/// /2206 10174 39975 40186 52013
22200 00182 10401 70007 333 91208 =

####018000131####
SNVD17 CWTO 221700
BBXX
45147 22171 99424 70827 46/// /2603 10173 39983 40190 52014
22200 00189 10200 70002 333 91203 =

####018000128####
SNVF22 ENMI 221700
BBXX
LF4B 22174 99606 10037 47/98 /2817 10114 40024 52013 723// 91710
      22200 00105 10707 70033=
####018000131####
SNVD17 CWTO 221700
BBXX
45159 22171 99438 70790 46/// /2306 10184 30089 40178 52006
22200 00177 10301 70003 333 91207 =

####018000120####
SIVD30 KWBC 221500 RRV
BBXX
42043 22151 99290 70949 46/// /0505 10225 20174 40171 91530 22200
 00280 333 91207=
####018000531####
SNVD01 KWBC 221600 RRO
BBXX
42043 22161 99290 70949 46/// /0505 10225 20174 40171 51011 91600
 22200 00281 333 91207=
42043 22161 99290 70949 46/// /0505 10225 20173 40170 91630 22200
 00281 333 91206=
42021 22161 99283 70833 46/// /26// 10273 40162 91620 22200 00293=
42021 22161 99283 70833 46/// /1203 10272 40162 51011 91600 22200
 00293 333 91204=
44055 22161 99391 70753 46/// ///// 1//// 91630 22200 00220 1//00
 70002=
46091 22161 99368 71219 46/// /0102 10118 40138 53007 91543 555
 11021 22026=
####018000167####
SNVB01 KWBC 221700 RRA
BBXX
KAOU 22174 99075 10892 43/// /2116 10279 20251 40106 5//// 7////
 8//// 222// 04285 2//// 3//// 4//// 5//// 6//// 8//// ICE /////=
####018000164####
SNVC01 KWBC 221700 RRB
BBXX
WBP3210 22174 99534 50420 43/// /2329 11043 2//// 49989 5////
 7//// 8//// 22261 00005 2//// 3//// 4//// 5//// 6//// ICE /////=
####018000133####
SNVA01 KWBC 221700 RRB
BBXX
LGWS 22171 99339 30184 43/// /2002 10153 20057 40260 5//// 222/0
 04131 1//// 3//// 4//// 5////=
####018003307####
SNVD01 KWBC 221700 RRG
BBXX
41029 22171 99328 70796 46/// ///03 10270 91700 555 11037 22042=
42085 22171 99179 70665 46/// /0907 10295 40145 91700 22200 00294
 10502 70011 333 91209=
44067 22171 99384 70770 46/// /1702 10242 40193 58005 91700=
44251 22171 99464 70534 46/// /2505 10116 40233 57005 22200 00109
 10702 70012 333 91206=
44150 22171 99425 70640 46/// /1606 10183 40258 57007 22200 00183
 11001 70006 333 91207=
45138 22171 99495 70658 46/// /1503 10123 40177 57021 22200 00109
 1//00 70002 333 91204=
41053 22171 99185 70661 46/// /0809 10289 40147 58010 91700 22200
 00293 10702 70012 333 91211=
44032 22171 99437 70694 46/26 /1602 10167 40203 58008 91704 22200
 00164 10801 70006 333 91202 555 11026 22030=
41052 22171 99183 70648 46/// /1008 10291 40148 91650 333 91209=
41052 22171 99183 70648 46/// /1008 10290 40147 58007 91700 22200
 00291 10502 70012 333 91210=
41052 22171 99183 70648 46/// /0908 10291 40150 91640 333 91209=
41053 22171 99185 70661 46/// /0808 10293 40147 91650 333 91210=
41053 22171 99185 70661 46/// /0808 10292 40149 91640 333 91210=
42021 22171 99283 70833 46/// /1203 10274 40162 91640 22200 00293
 333 91203=
44139 22171 99442 70571 46/// /2606 10125 40276 57006 22200 00141
 1//02 70010 333 91207=
42067 22171 99300 70886 46/// /0505 10246 20214 40170 91640 22200
 00276 10401 70006 333 91206=
45140 22171 99508 70967 46/// /1702 10067 39964 40232 52003 22200
 00146 1//00 70000 333 91203=
46066 22171 99527 71550 46/// /2909 10088 49907 53006 91650 22200
 00105 11006 20805 300// 41004 70032 333 91211 555 11092 22097
 31617 43012 61649 290088 289097 294098 289097 280088 277089 83011
 91618=
41038 22171 99341 70777 46/// /1604 10261 40199 58006 91700 333
 91206=
44060 22171 99413 70721 46/// ///01 10205 40200 91700 22200 00205
 333 91201 555 11010 22010=
46089 22171 99459 71258 46/// /1805 10177 20177 40145 51013 91650
 22200 00172 11207 20502 328// 41207 70037 333 91207 555 11059
 22064 31617 41607 61649 176053 178047 183053 178055 184057
 186054=
46083 22171 99582 71380 46/// /1909 10091 20056 49986 51019 91650
 22200 00112 11108 20605 300// 41106 70038 333 91212 555 11098
 22103 31649 41912 61649 185092 180077 182081 185084 186076 192053
 81810 91648=
46076 22171 99595 71480 46/// /1403 10103 20082 49887 52023 91650
 22200 00107 10905 20301 300// 40905 70026 333 91203 555 11027
 22028 31601 41605 61649 139026 148030 154031 156031 158034 160034
 81604 91601=
46108 22171 99598 71521 46/// ///// 1//// 91701 22200 00102 1//00
 70002=
42363 22171 99282 70892 46/// /0805 10261 20206 40176 91645 333
 91205=
42364 22171 99291 70881 46/// /2311 10250 20211 40163 91645=
NWS0020 22174 99338 71187 43/// /1403 10159 20157 40147 5////
 7//// 8//// 222// 04186 2//// 3//// 4//// 5//// 6//// 8//// ICE
 /////=
WDC6698 22174 99764 71642 43/// /0222 11024 2//// 40070 5////
 7//// 8//// 222// 04005 2//// 3//// 4//// 5//// 6//// 8//// ICE
 /////=
NWS0028 22174 99414 70708 43/// /1509 10205 20188 40202 5////
 7//// 8//// 222// 04190 2//// 3//// 4//// 5//// 6//// 8//// ICE
 /////=
NWS0003 22174 99760 71386 43/// /0322 11044 21049 40008 5////
 7//// 8//// 222// 05013 2//// 3//// 4//// 5//// 6//// 8//// ICE
 /////=
####018000141####
SNVD11 KWBC 221700
BBXX
DPTS 22173 99105 70952 41598 42215 10273 20249 40133 52/// 70111
 84469 22234 21001 318// 41604 5//// 80255=
####018000504####
SNVD80 KWBC 221700 RRB
BBXX
45025 22171 99470 70884 46/// /1905 10100 20080 40160 91710 22200
 00159 10201 70003 333 91206=
45026 22171 99420 70866 46/// /2207 10156 20096 91710 22200 00190
 10402 70011 333 91209=
WE4805 22174 99444 70867 41/99 73010 10122 2//// 40190 52001 70202
 871// 22243 00150 20301 3//// 4//// 5//// 6//// 8//// ICE /////=
WDE8761 22174 99424 70828 43/// /2205 10166 2//// 40183 5////
 7//// 8//// 222// 0//// 2//00 3//// 4//// 5//// 6//// 8//// ICE
 /////=
####018001244####
SNVF01 KWBC 221700 RRB
BBXX
TFDRN 22174 99658 70212 46/// ///// 22200 10805 70024=
TFHFN 22174 99642 70152 46/// ///// 22200 10703 70014=
TFGRV 22174 99638 70225 46/// ///// 22200 10803 70013=
TFKGR 22174 99657 70136 46/// ///// 22200 10503 70016=
TFSTD 22174 99664 70234 46/// ///// 22200 10707 70037=
TFSRT 22174 99633 70203 46/// ///// 22200 10703 70014=
62023 22173 99514 70079 46/96 /2414 10147 2//// 40212 5//// 22200
 10503 70014 555 70021 81004=
TFBKF 22174 99635 70202 46/// ///// 22200 10702 70010=
TFGRS 22174 99663 70182 46/// ///// 22200 10807 70033=
LF4H 22174 99596 10022 46/// /2620 10115 20077 40039 52009 8////
 91702 22200 06126 10705 70027=
LAHV 22171 99810 10171 43/// /2404 10005 21003 40156 222// 04036
 1////=
LMEL 22171 99678 10097 43/// /0808 10120 20081 49933 5//// 222/0
 04118 1//// 3//// 4//// 5////=
LJIT 22171 99746 10144 43/// /1109 10076 20055 40091 5//// 222/0
 04073 1//// 3//// 4//// 5////=
LDGJ 22171 99774 10325 43/// /1506 10028 20015 40185 5//// 222/2
 04032 1//// 3//// 4//// 5////=
PBWQ 22174 99448 10132 41297 72005 10232 20176 40114 57006 7////
 87610 22233 201// 30000=
BATUK01 22174 99606 70006 46/// /2720 10117 20062 40021 53003
 22212 04125=
####018000127####
SNVD22 KWNB 221700 RRP
BBXX
46232 22171 99325 71174 46/// ///// 1//// 91638 22200 00193 11802
21001 326// 41801 70009=
####018000222####
SNVD22 KWNB 221700 RRQ
BBXX
46249 22171 99338 71197 46/// ///// 1//// 91710 22200 00187 11402
21001 318// 41401 70009=
46248 22171 99461 71247 46/// ///// 1//// 91704 22200 00147 11308
21004 329// 41306 70038=
####018000222####
SNVD22 KWNB 221700 RRR
BBXX
46138 22171 99524 71298 46/// ///// 1//// 91654 22200 00123 11103
20803 321// 41102 70017=
46241 22171 99330 71173 46/// ///// 1//// 91640 22200 00175 11501
21001 325// 41501 70006=
####018000127####
SNVD22 KWNB 221700 RRT
BBXX
46216 22171 99343 71198 46/// ///// 1//// 91657 22200 00169 11502
20901 327// 41501 70008=
####018000127####
SNVD22 KWNB 221700 RRU
BBXX
46223 22171 99335 71178 46/// ///// 1//// 91700 22200 00183 11401
21001 319// 41401 70006=
####018000317####
SNVD22 KWNB 221700 RRS
BBXX
46240 22171 99366 71219 46/// ///// 1//// 91712 22200 00148 11303
21001 335// 41303 70017=
46237 22171 99378 71226 46/// ///// 1//// 91710 22200 00143 11705
21003 325// 41704 70025=
46217 22171 99342 71194 46/// ///// 1//// 91712 22200 00176 11801
20801 325// 41801 70005=
####018000127####
SNVD22 KWNB 221700 RRW
BBXX
46222 22171 99336 71183 46/// ///// 1//// 91704 22200 00193 11801
20901 327// 41801 70005=
####018000127####
SNVD22 KWNB 221700 RRV
BBXX
46231 22171 99327 71174 46/// ///// 1//// 91649 22200 00184 11501
20901 323// 41501 70007=
####018000127####
SNVD22 KWNB 221700 RRX
BBXX
46211 22171 99469 71242 46/// ///// 1//// 91706 22200 00133 11407
20904 328// 41405 70033=
####018000083####
SNVD22 KWNB 221600 RRX
BBXX
46094 22161 99446 71243 46/// /1803 10136 91600=
####018000127####
SNVD22 KWNB 221700 RRX
BBXX
46242 22171 99332 71174 46/// ///// 1//// 91656 22200 00184 11501
21001 322// 41501 70005=
####018000127####
SNVD22 KWNB 221700 RRX
BBXX
46221 22171 99339 71186 46/// ///// 1//// 91645 22200 00188 11302
20901 320// 41301 70008=
####018000236####
SIVD22 KWNB 221500 RRX
BBXX
46094 22151 99446 71243 46/// /1804 10136 91530=
46094 22151 99446 71243 46/// /1703 10135 91520=
46094 22151 99446 71243 46/// /1704 10135 91510=
46094 22151 99446 71243 46/// /1704 10135 91500=
####018006609####
SNVF21 EGRR 221700
BBXX
62301 22174 99524 70047 46/// /2314 10141 20118 40192 57004 22200
00157 10503 70014=
62303 22174 99516 70051 46/// /2614 10143 20110 40204 57002 22200
00151 10503 70017=
62107 22174 99501 70061 46/// /2711 10146 20107 40221 57005 22200
00157 11004 70020=
64046 22174 99606 70049 46/// /2718 10112 20083 40032 52012 22200
00107 10707 70033=
62001 22174 99453 70050 46/// /0509 10171 20121 40224 56009 22200
00192 10906 70029=
62163 22174 99475 70084 46/// /1802 10163 20105 40230 57011 22200
00172 11007 70033=
62442 22174 99490 70163 46/// /2018 1//// 2//// 40178 57017 22200
00154=
62081 22174 99510 70134 46/// ///// 10149 20133 40172 57018 22200
00146 10706 70032=
62105 22174 99554 70122 46/// /2016 10131 20119 40102 57017 22200
00128 10706 70028=
64045 22174 99591 70117 46/// /2414 10119 20070 40054 58003 22200
00127 10706 70032=
62103 22174 99499 70029 46/98 /2717 10149 20117 40216 58003 22200
00159 10802 70009=
AMOUK02 22174 99535 70030 46/// ///// 10148 20100 30142 40184
 57007 91650=
AMOUK03 22174 99513 10032 46/// ///// 10163 20107 30169 40205
 54000 91650=
AMOUK09 22174 99537 70037 46/// ///// 10135 20118 30156 40182
 52005 91650=
AMOUK11 22174 99533 70060 46/// ///// 10165 20098 30132 40177
 57023 91650=
AMOUK14 22174 99536 70050 46/// ///// 10143 20117 30144 40178
 57004 91650=
AMOUK04 22174 99533 70062 46/// ///// 10162 20094 30140 40181
 54002 91650=
AMOUK12 22174 99533 70055 46/// ///// 10146 20116 30131 40164
 57005 91650=
AMOUK01 22174 99554 10081 46/// ///// 10148 2//// 30104 40123
 54001 91650=
AMOUK13 22174 99519 10013 46/// ///// 10170 20086 30181 40196
 54002 91650=
AMOUK05 22174 99519 10041 46/// ///// 10157 20093 30153 40200
 54000 91650=
62111 22174 99580 70003 46/// /3020 10122 20081 40098 52010 22200 10504 70020=
63056 22174 99597 10016 47598 /2722 10116 20077 40026 52015 730// 22200 10706 70031=
63057 22174 99592 10015 47598 /2723 10122 20073 40050 52014 700// 22200 10606 70030=
62128 22174 99587 10014 47598 /2719 10119 20080 40068 52014 752// 22200 10606 70028=
62129 22174 99584 10003 46/// /2717 10118 20083 40079 52009 22200=
PJAI 22174 99581 70014 47798 /2611 10129 20082 40086 52012 700// 22200=
62112 22174 99584 70002 47798 /2816 10119 20080 40081 52014 751// 22200=
63055 22174 99606 10016 469// /3021 10117 20062 40022 52014 22200=
63108 22174 99608 10017 47598 /2819 10105 20053 40013 52014 700// 22200 10706 70030=
63106 22174 99610 10017 46/// /2722 10113 40006 52015 22200=
63112 22174 99611 10010 46/97 /2823 10114 20060 40003 52015 22200 10707 70034=
63107 22174 99611 10017 46/// /2619 10113 40005 52016 22200=
63101 22174 99612 10009 46/// /2923 10122 20067 49998 52016 22200=
63103 22174 99612 10011 46/// /2826 10115 20059 40010 52016 22200 10707 70034=
63104 22174 99612 10016 47598 /2623 10118 20064 49998 52016 700// 22200=
63117 22174 99613 10011 47/98 /2725 10113 20057 40001 52016 700// 22200=
63115 22174 99616 10013 47598 /2625 10110 20061 49990 52017 700// 22200 10709 70046=
MWYG6 22174 99603 70040 47998 /2622 10115 700// 22200=
64041 22174 99607 70026 47497 ///// 10108 20076 40024 52013 700// 22200 10807 70034=
PJGO 22174 99571 10022 47697 /2521 10127 20093 40104 52008 700// 22200=
62133 22174 99571 10009 46/// /2519 10129 20082 40101 53009 22200=
62119 22174 99570 10019 47697 /2823 10131 20084 40111 52007 700// 22200 10505 70025=
62152 22174 99570 10018 46/// ///// 22200=
62154 22174 99564 10022 46/// /2718 10125 20083 40115 51008 22200=
62120 22174 99564 10021 47997 /2823 10125 20081 40114 51006 700// 22200=
62132 22174 99564 10020 46/// /2915 10128 20080 40123 53005 22200=
62123 22174 99563 10022 47997 /2621 10129 20084 40120 51009 700// 22200=
62165 22174 99540 10009 47697 /2707 10139 20074 40172 53001 700// 22200 10402 70011=
62127 22174 99540 10007 47799 ///// 10144 20065 40168 52002 730// 22200 10402 70009=
62131 22174 99539 10012 46/// /25// 10139 20087 40170 53002 22200=
62149 22174 99537 10011 47998 /2512 10153 20078 40175 54000 700// 22200 10402 70010=
62148 22174 99536 10015 46/// ///// 10146 40182 55000 22200=
62150 22174 99536 10007 47998 /2615 10149 20065 40183 52003 700// 22200 10401 70007=
62121 22174 99535 10027 46/// /2513 10141 20064 40175 57001 22200=
62144 22174 99534 10017 47997 /2614 10144 20066 40182 56001 700// 22200 10402 70010=
62145 22174 99531 10028 47997 /2614 10148 20060 40184 58004 700// 22200 10503 70016=
62142 22174 99530 10021 46998 /2714 10151 40180 56001 22200 10402 70011=
ZQSD5 22174 99583 10007 46/// ///// 10123 20079 40082 52011 22200 10704 70022=
62114 22174 99583 10000 46/// /2721 10118 20080 40078 52014 22200=
62113 22174 99584 10002 47598 /2616 10123 20079 40081 53007 700// 22200=
62134 22174 99580 10014 47998 /2820 10122 20077 40084 52008 700// 22200 10505 70025=
62102 22174 99579 10018 46/// /2820 10130 20078 40083 52009 22200 10605 70025=
62117 22174 99579 10000 47998 /2722 10129 20078 40088 51010 700// 22200 10504 70018=
62143 22174 99577 10018 47598 /2820 10124 20081 40098 52008 700// 22200 10505 70025=
62118 22174 99577 10009 47998 /2717 10127 20082 40087 52012 700// 22200 10604 70021=
62155 22174 99577 10007 47997 /2720 10126 20079 40096 52009 751// 22200 10504 70020=
62116 22174 99576 10011 47598 /2716 10126 20082 40090 52012 700// 22200 10504 70021=
62104 22174 99574 10013 47998 /2716 10125 20090 40094 52010 700// 22200=
62153 22174 99573 10020 47798 /2610 10123 20086 40096 52009 700// 22200 10605 70024=
62122 22174 99573 10016 47798 /2718 10129 20089 40103 52006 762// 22200 10604 70022=
62140 22174 99573 10013 46/// /28// 10126 20092 40096 52012 22200=
62146 22174 99572 10021 47/98 /2407 10125 20085 40108 52005 700// 22200 10605 70024=
62164 22174 99572 10008 47797 /2614 10135 20096 40101 53006 700// 22200 10605 70025=
63110 22173 99595 10015 41597 32730 10126 20017 40038 71586 839//
22200 10806 70030 80079=
62305 22174 99504 10000 46/98 /2620 10154 20122 40219 58006 22200
00167 10601 70006 333 90710 91125=
62170 22174 99514 10020 46/97 /2209 10166 20130 40198 57005 22200
00167 10501 70003=
62029 22174 99487 70125 46/// /2217 10157 20128 40212 57012 22200
00159=
62094 22174 99517 70067 46/// /2415 10141 20120 40198 57004 22200
00143 10503 70015=
62095 22174 99531 70159 46/// /2023 10137 20127 40096 57029 22200
00132 10706 70029 333 90710 91133=
62169 22174 99614 10014 41397 62535 10100 20100 49992 51012 78186
8379/ 22200 02120 20307 325// 41005 5//// 80100=
####018000134####
SNVD22 KWNB 221600 RRX
BBXX
46094 22161 99446 71243 46/// /1903 10136 91550=
46094 22161 99446 71243 46/// /1903 10136 91540=
####018000134####
SIVD22 KWNB 221500 RRX
BBXX
46094 22151 99446 71243 46/// /1704 10136 91450=
46094 22151 99446 71243 46/// /1804 10137 91440=
####018000134####
SNVD22 KWNB 221400 RRX
BBXX
46094 22141 99446 71243 46/// /1903 10134 91350=
46094 22141 99446 71243 46/// /2002 10134 91340=
####018000236####
SNVD22 KWNB 221400 RRX
BBXX
46094 22141 99446 71243 46/// /1803 10136 91430=
46094 22141 99446 71243 46/// /1803 10136 91420=
46094 22141 99446 71243 46/// /2003 10135 91410=
46094 22141 99446 71243 46/// /1904 10135 91400=
####018000185####
SNVD22 KWNB 221300 RRX
BBXX
46094 22131 99446 71243 46/// /2204 10135 91330=
46094 22131 99446 71243 46/// /1904 10137 91320=
46094 22131 99446 71243 46/// /1705 10137 91310=
####018000067####
SNAL57 EUMS 221700
AAXX 22174
60691 46/// /0911 10400 21004=
####018000644####
SNVD20 KWNB 221700 RRR
BBXX
44098 22171 99428 70702 46/// ///// 1//// 91707 22200 00174 10801
20801 70005=
44033 22171 99441 70690 46/26 /1303 10151 40207 57011 91704 22200
00146 10801 70003 333 91203 555 11037 22042=
44034 22171 99441 70681 46/08 /1702 10149 40215 58008 91704 22200
00128 10801 70006 333 91202 555 11030 22035=
44039 22171 99411 70727 46/// /2802 10224 20201 40211 91715 22200
00225 1//00 70001 333 91203=
44060 22171 99413 70721 46/// ///01 10204 40200 91715 22200 00205
333 91201 555 11010 22010=
44022 22171 99409 70737 46/// /2702 10231 20204 40196 91715 22200
00221 333 91202 555 11021 22026=
####018000196####
SNVD15 KWNB 221700 RRP
BBXX
41115 22171 99184 70673 46/// ///// 1//// 91705 22200 10802 20802
301// 41101 70010=
41037 22171 99340 70775 46/// /2104 10274 40192 58004 91700 333
91205=
