####018000114####
SMVB15 RUNW 220000
BBXX
UFTA 22001 99839 71545 41192 80000 11114 21130 40019
52013 74442 886// 333 21158=
####018000681####
SMVD15 KWNB 220000 RRI
BBXX
42362 22001 99278 70907 46/// /0803 10272 20217 90000=
42363 22001 99282 70892 46/// /1202 10267 20194 40163 53007 90000
333 91203=
42364 22001 99291 70881 46/// /0404 10261 20206 40163 51017 90000=
41046 22001 99238 70683 46/// /0908 10268 20236 40176 54000 92350
22200 00285 10703 20703 300// 40802 70016 333 91209 555 11081
22086 32344 40909 62349 090077 090074 094073 100069 103066 110066
80808 92342=
41041 22001 99142 70460 46/// /0618 10262 20233 40097 53004 92350
22200 00273 11314 20908 3//// 41311 70069 333 91223 555 11196
22210 32322 40526 50085 62349 062183 058175 057188 062190 060194
059193 72257 80622 92257=
####018000123####
SMVA10 EHDB 220000
BBXX
A8IX8 22004 99169 70180 41/98 /3412 10290 20263 40140 70000 8/1//
22274 00260 2//01 80270=
####018000141####
SMVC10 EHDB 220000
BBXX
DDSC2 22004 99140 50770 41398 81814 10160 20127 40132 52004 70222
8667/ 22243 00157 20202 318// 40603 80140=
####018000027####
SMVJ10 EHDB 220000
NIL
####018000259####
SMVE10 EHDB 220000
BBXX
ELUC5 22004 99118 51322 41498 21015 10260 20218 40130 55010 70200
82141 22264 04285 20301 310// 40302 80230=
DQVH 22003 99031 31451 41697 51410 10285 20244 40125 52010 70382
85472 22234 04305 2//// 3//// 4//// 5//// 80255=
####018000406####
SMVB10 EHDB 220000
BBXX
9VAY4 22004 99110 11105 41698 72219 10280 2022/ 40080 54000 70322
86297 22254 00271 20302 32224 40504 50303 6//// 80240 ICE /////=
DGDD 22001 99347 11395 41598 12511 10260 20186 49960 51020 70200
81100 22255 00240 2//04 321// 4//06 5//// 80210=
LAOX5 22004 99346 11630 41598 32016 10270 2021/ 40270 50030 70111
84542 22253 00250 20707 327// 40111 5//// 6//// 80230=
####018000453####
SMVD10 EHDB 220000
BBXX
DMRX 22003 99256 71138 41/98 13012 10242 20208 40092 56013 70100
811// 22235 06240 20601 80218=
PHQX 22000 99114 70743 41/97 /26// 10280 20239 40100 55000 79190
8/9// 22254 2//02 80250=
DHEB 22003 99544 71590 41497 72928 10085 20044 49800 51020 70122
86242 22264 04070 20610 32726 40809 50708 80065=
DFGX2 22003 99536 71591 41698 62924 10115 20032 49900 54000 70200
83236 22224 04100 21209 325// 41008 80075=
####018001133####
SMVF10 EHDB 220000
BBXX
A8SE8 22004 99492 70050 41/98 53015 10180 20131 40220 7//// 8////
22214 04160 29901 330// 41203 80150=
SKUN 22003 99494 70240 43/96 72122 10142 40200 50001 22263 00134
2//// 4////=
VRFX8 22004 99460 70333 41/96 82621 10190 2016/ 40130 57020 70322
8//// 22224 0//// 2//// 3//// 4//// 80170=
A8IN7 22004 99493 70039 41397 52614 10150 20113 40220 54000 70222
857// 22214 06160 20402 80130=
OYGR2 22004 99544 10072 41998 32542 10161 20111 40105 53/// 70300
81018 22244 04166 20303 80132=
PHAA 22000 99348 70133 41598 30209 10200 20169 40228 57002 70211
83400 22243 2//// 80180 57797=
TBWAA05 22003 99551 10141 41/97 /2316 10145 20101 40123 56016 70222
8/673 22253 2//// 3//// 4//// 5//// 80120 00/87 1/764 5989300/ 871/7
64598 93931/65 1/626 /807=
PDGS 22004 99487 70058 41998 02920 10165 20123 40228 58002 70200
80000 22254 00170 20603 328// 40702 5//// 80140=
UCJT 22001 99770 10648 41/96 /2805 10018 40267 52099 75055 8////
22254 20201 32700 40201 50000=
MGRX2 22003 99599 10262 41/97 82212 10140 20131 40086 57030 75852
89/1/ 22213 2//// 3//// 4//// 5//// 80135=
####018002169####
SMVD01 PANC 220000 RRB
BBXX
9HXD9 22004 99375 10238
41698 43520 10206 2//// 40040 54/// 70221 848//
22274 00272 20501 3//// 4//// 5//// 6//// 8//// ICE /////=
WTDH 22004 99348 70752
41798 81714 10262 20239 40221 52010 70222 814//
22212 00278 21002 306// 4//04 5//// 6//// 80245 ICE /////=
KAOU 22004 99053 10860
43/// /2212 10254 20234 40102 5//// 7//// 8////
222// 04284 2//// 3//// 4//// 5//// 6//// 8//// ICE /////=
NWS0028 22004 99415 70707
43/// /1706 10192 20174 40245 5//// 7//// 8////
222// 04201 2//// 3//// 4//// 5//// 6//// 8//// ICE /////=
NWS0003 22004 99779 71377
43/// /0607 11014 21014 40027 5//// 7//// 8////
222// 05014 2//// 3//// 4//// 5//// 6//// 8//// ICE /////=
WDC6698 22004 99751 71602
43/// /0112 10005 2//// 40010 5//// 7//// 8////
222// 04018 2//// 3//// 4//// 5//// 6//// 8//// ICE /////=
NWS0020 22004 99342 71200
43/// /2706 10150 20149 40120 5//// 7//// 8////
222// 04159 2//// 3//// 4//// 5//// 6//// 8//// ICE /////=
9HA2583 22004 99332 10335
41/98 /3006 10256 20215 40110 54/// 70200 8////
22274 00300 20301 3//// 40601 5//// 6//// 80227 ICE /////=
PCHM 22004 99046 51663
41698 41023 10275 20259 40095 53000 70322 83444
22244 06272 20202 315// 40302 80263=
WXJ63 22003 99611 71464
41/98 72307 10106 20063 49769 57/// 702// 8////
222// 00116 2//// 3//// 4//// 5//// 6//// 8//// ICE /////=
WDF7994 22004 99467 70863
41/// 72319 10138 2//// 40075 56/// 70362 8////
22223 00139 20202 3//// 4//// 5//// 6//// 8//// ICE /////=
C6SA3 22004 99427 10084
41/// /2311 10220 20174 40160 54/// 7//// 8////
22254 00230 2//// 3//// 4//// 5//// 6//// 80190 ICE /////=
C6FV8 22004 99140 70680
41597 20913 10280 2//// 40050 52020 7//00 82889
22263 00300 20603 335// 4//// 5//// 6//// 8//// ICE /////=
ONGI 22004 99268 50356
41698 70219 10210 20180 40190 54000 7//31 861//
22223 00210 20804 302// 40503 5//// 6//// 80190 ICE /////=
9HXC9 22003 99403 10186
41797 40626 10240 20226 40140 54000 7//22 84//2
22234 04210 20203 3//// 4//// 5//// 6//// 80230 ICE /////=
PBWQ 22004 99454 10123
41998 00409 10204 20152 40164 58003 70200 80000
22200 04251 2////=
####018000121####
SMVD20 KWNB 220000 RRI
BBXX
44008 22001 99405 70692 46/// ///// 10199 40245 52003 92350 22200
00192 10901 70007=
####018000233####
SMVD22 KWNB 220000 RRM
BBXX
46089 22001 99459 71258 46/// /1907 10179 20178 40138 57010 92350
22200 00173 11608 20502 327// 41608 70041 333 91209 555 11078
22084 32307 41710 62349 190072 191073 188073 185074 183077 182076=
####018000462####
SMVD17 KWNB 220000 RRE
BBXX
46076 22001 99595 71480 46/// /1602 10106 20081 49785 54000 92350
22200 00110 11105 20401 300// 41104 70023 333 91203 555 11021
22021 32332 41703 62349 156020 156024 140022 140019 136019 135020
81603 92332=
46083 22001 99582 71380 46/// /1913 10113 20097 49715 53023 92350
22200 00113 11212 20807 300// 41210 70060 333 91215 555 11137
22147 32251 41821 62349 188129 188134 184147 181157 179162 176169
81818 92254=
####018000115####
SMVD19 KWNB 220000 RRD
BBXX
46108 22001 99598 71521 46/// ///// 1//// 90001 22200 00104 11101
20301 70005=
####018000230####
SMVD45 KWNB 220000 RRF
BBXX
45025 22001 99470 70884 46/// /2704 10131 20110 40060 51020 90000
22200 00165 10301 70003 333 91206=
45026 22001 99420 70866 46/// /2706 10198 20133 90000 22200 00193
10402 70009 333 91208=
####018000422####
SMVE15 KWNB 220000 RRC
BBXX
51000 22001 99235 71541 46/// /0705 10249 40176 58017 92350 22200
00259 11405 20501 334// 41405 70024 333 91206 555 11054 22056
32259 40907 62349 068051 069052 075053 069051 076058 077054=
51003 22001 99193 71606 46/// /1205 10262 40155 58012 92350 22200
00274 10804 20402 3//// 40803 70018 333 91207 555 11055 22057
32258 41109 62349 115053 116056 121059 121064 121069 115075=
####018000117####
SMVF11 LFPW 220000
BBXX
61002 22004 99421 10047 46/// /2706 10209 20172 40182 57006
22200 00213 10601 70003=
####018000117####
SMVD11 LFPW 220000
BBXX
41101 22004 99146 70562 46/// /0819 10286 20244 40130 52010
22200 00287 10703 70017=
####018000117####
SMVF11 LFPW 220000
BBXX
61001 22004 99434 10078 46/// /2205 10198 20167 40164 57004
22200 00216 10401 70004=
####018000446####
SNVD01 KWBC 212300 RRO
BBXX
WDC6644 21233 99413 71276 41898 82516 10108 20104 40180 54000
 7//22 886// 22233 00106 20301 3//// 4//// 5//// 6//// 80106 ICE
 /////=
42392 21231 99272 70900 46/// ///// 1//// 92300 22200 10402 70008=
42887 21231 99282 70885 46/// /0103 10255 92300 22200 10602 70011=
WQVY 21234 99390 70581 41998 00902 10140 2001/ 40250 54000 70100
 80000 22224 0//// 20000 302// 40503 5//// 6//// 80080 ICE /////=
####018000220####
SNVD80 KWBC 212300 RRG
BBXX
45028 21231 99468 70918 46/// /3306 10106 20072 39895 40115 92330
 22200 00097 333 91208=
45028 21231 99468 70918 46/// /3307 10108 20069 39895 40115 92320
 22200 00096 333 91209=
####018000778####
SMVA01 KWBC 220000 RRA
BBXX
8PSH 22004 99169 70249 46/// /0406 10258 20232 40151 53012 7////
 8//// 22200 0//// 2////=
BATFR05 22004 99040 10005 46/// /1811 10260 20232 40142 58003
 22200 04239=
BATFR55 22004 99202 30569 44898 30909 10227 20197 40210 70200
 83060 22262 04235 60//0 ICE 0/0//=
A8SZ4 22003 99283 70196 41498 40618 10230 20201 40212 51010 70211
 832// 22253 2//// 80210=
TBWUK36 22003 99248 30584 41598 30413 10223 20193 40267 58005
 70300 835// 22224 00230 20302 325// 40704 5//// 80204=
TBWUK43 22004 99263 10549 41898 33308 10355 20170 40032 58020
 70200 81105 22263 21001 300// 4//// 5//// 80235=
WRYC 22004 99193 10392 41297 53215 10300 2027/ 40060 56002 70311
 8513/ 22235 00303 20201 333// 40301 5//// 6//// 80280 ICE /////=
####018000248####
SMVB01 KWBC 220000 RRA
BBXX
ZCBZ5 22004 99062 10954 41697 61330 10286 20228 40096 55006 70122
 85478 22264 02295 20302 327// 40503 5//// 80246=
3FZK3 22004 99356 11398 46/// /2903 10271 20187 49961 52018 7////
 8//// 22282 0//// 2////=
####018000667####
SMVC01 KWBC 220000 RRA
BBXX
A8AC4 22003 99140 50355 41797 51413 10260 2022/ 40165 5//// 71922
 8413/ 22254 00270 2//// 3//// 4//// 5//// 6//// 80230 ICE /////=
DGHJ 22004 99012 70944 41/98 81808 10230 20185 40100 57005 70322
 87770 22283 00240 29901 3//// 4//// 5//// 80200=
ONGI 22004 99268 50356 41698 70219 10210 20180 40190 54000 7//31
 861// 22223 00210 20804 302// 40503 5//// 6//// 80190 ICE /////=
PDBO 22003 99040 70445 41/98 10917 10272 20245 40140 52018 70122
 8//// 22214 00284 20304 399// 4//04 80252=
WBP3210 22004 99535 50454 43/// /1920 11043 2//// 40019 5////
 7//// 8//// 22222 00011 2//// 3//// 4//// 5//// 6//// ICE /////=
####018003693####
SMVD01 KWBC 220000 RRB
BBXX
CGBR 22004 99543 71303 46/// /1605 10154 20088 40042 52020 7////
 8//// 22200 0//// 2////=
VCYL 22004 99502 70638 46/// /2510 10070 20051 40191 53033 7////
 8//// 22213 00053 2////=
CGTEST 22004 99461 70602 46/// /0000 10130 20108 40219 52016 7////
 8//// 22200 0//// 2////=
PJVV 22004 99274 70644 418// 01019 10280 2//// 40210 54020 7//10
 8/189 22223 00280 20505 305// 4//// 5//// 6//// 80020 ICE /////=
WBDS 22004 99408 70423 41598 82930 10200 2013/ 40215 50000 70322
 882// 22225 00224 2//// 3//// 4//// 5//// 6//// 80155 ICE /////=
WDC6736 22004 99384 70628 41698 82005 10240 2018/ 40265 52012
 7//22 88/7/ 22214 00290 20302 334// 41004 5//// 6//// 80200 ICE
 /////=
46239 22001 99363 71221 46/// ///// 1//// 92351 22200 00150 10703
 20703 319// 41502 70015=
46238 22001 99334 71195 46/// ///// 1//// 92350 22200 00183 11502
 21001 318// 41501 70008=
44099 22001 99369 70757 46/// ///// 1//// 92352 22200 00216 11102
 21002 308// 41101 70009=
46219 22001 99332 71199 46/// ///// 1//// 92358 22200 00173 11103
 21002 330// 41102 70014=
46214 22001 99379 71235 46/// ///// 1//// 92351 22200 00132 11804
 20703 330// 41802 70020=
VC6750 22004 99695 70935 46/// /2216 10046 20036 4//// 5//// 7////
 8//// 22200 0//// 2////=
VCBW 22004 99494 70672 46/// /2411 10133 20070 4//// 58207 7////
 8//// 22213 00073 2////=
VCWL 22004 99700 70667 46/// /3006 10015 20001 40155 56005 7////
 8//// 22232 00028 2////=
CGBY 22004 99505 71277 46/// /3004 10126 20116 40102 53011 7////
 8//// 22200 0//// 2////=
VOFG 22004 99697 70789 46/// /1511 11001 21016 40158 57014 7////
 8//// 22262 00010 2////=
CZ9742 22004 99538 70985 46/// /1604 10120 20026 4//// 5//// 7////
 8//// 22282 00155 2////=
CG3029 22004 99447 70636 46/// /2402 10166 20131 40242 51019 7////
 8//// 22200 0//// 2////=
CGCX 22004 99476 70527 46/// /2007 10136 20105 40154 51020 7////
 8//// 22200 0//// 2////=
CG2522 22004 99618 71213 46/// /1302 10166 20095 4//// 5//// 7////
 8//// 22200 0//// 2////=
CG2965 22004 99492 71235 46/// /0312 10169 20142 40143 55005 7////
 8//// 22251 00152 2////=
CGSB 22004 99588 70941 46/// /1916 10122 20070 40195 56014 7////
 8//// 22200 0//// 2////=
VAAP 22004 99484 70620 46/// /3117 10136 20082 40193 51023 7////
 8//// 22233 0//// 2////=
VCLM 22004 99468 70712 46/// /0302 10183 20131 40211 55000 7////
 8//// 22200 0//// 2////=
CFN5537 22004 99637 70685 46/// /3207 10021 20020 40200 53005
 7//// 8//// 22200 0//// 2////=
CGCC 22004 99468 70712 46/// /2801 10177 20125 40213 55000 7////
 8//// 22200 0//// 2////=
CGDT 22004 99687 71136 46/// /2607 10073 20061 49865 51017 7////
 8//// 22233 0//// 2////=
CGBN 22004 99779 71376 46/// /0807 11008 21010 40035 54000 7////
 8//// 22251 0//// 2////=
VCRG 22004 99474 70619 46/// /3204 10143 20125 40223 53022 7////
 8//// 22200 0//// 2////=
CGDX 22004 99619 70717 46/// /3111 10007 21009 40225 53009 7////
 8//// 22222 00030 2////=
CGDS 22004 99452 70743 46/// /0707 10190 20156 4//// 5//// 7////
 8//// 22200 0//// 2////=
VCSZ 22004 99493 70647 46/// /2818 10125 20127 40203 51013 7////
 8//// 22224 0//// 2////=
CGHL 22004 99747 70951 46/// /1224 11002 21017 40057 58027 7////
 8//// 22200 0//// 2////=
CGDG 22004 99447 70636 46/// /0000 10168 20129 40242 51018 7////
 8//// 22200 0//// 2////=
CGJK 22004 99685 71019 46/// /1820 10062 20049 49881 56010 7////
 8//// 22222 00028 2////=
VXKF 22004 99462 70602 46/// /2107 10150 20116 40212 51015 7////
 8//// 22200 0//// 2////=
CGTF 22004 99685 70899 46/// /1713 10049 20032 40075 58031 7////
 8//// 22200 0//// 2////=
####018003715####
SMVD01 KWBC 220000 RRC
BBXX
VOPP 22004 99499 70651 46/// /2611 10107 20085 40195 51039 7////
 8//// 22262 00075 2////=
CZ3695 22004 99684 71338 46/// /0108 10064 20070 4//// 5//// 7////
 8//// 22200 0//// 2////=
VOKJ 22004 99479 70697 46/// /2007 10133 20110 40205 51013 7////
 8//// 22254 0//// 2////=
CG2958 22004 99487 71235 46/// /3308 10179 20135 40140 55008 7////
 8//// 22200 0//// 2////=
FVNM 22004 99213 71579 46/// /0603 10285 20184 40158 58019 22200
 04270=
44100 22001 99363 70756 46/// ///// 1//// 92352 22200 00232 11102
 21002 307// 41101 70011=
42099 22001 99273 70842 46/// ///// 1//// 92357 22200 00289 10602
 20602 70008=
41113 22001 99284 70805 46/// ///// 1//// 92351 22200 00292 10502
 20502 70008=
41110 22001 99341 70777 46/// ///// 1//// 92351 22200 00258 11102
 20701 309// 41101 70008=
41112 22001 99307 70813 46/// ///// 1//// 92351 22200 00271 11102
 20502 70008=
46218 22001 99345 71208 46/// ///// 1//// 90002 22200 00161 11003
 21002 330// 41101 70013=
46213 22001 99403 71247 46/// ///// 1//// 92354 22200 00109 11506
 21003 329// 41505 70030=
46243 22001 99462 71241 46/// ///// 1//// 92359 22200 00141 11705
 21003 327// 41704 70027=
46229 22001 99438 71246 46/// ///// 1//// 92351 22200 00153 11508
 21003 328// 41507 70039=
46247 22001 99378 71228 46/// ///// 1//// 92351 22200 00154 11503
 20702 321// 41501 70013=
46215 22001 99352 71209 46/// ///// 1//// 92338 22200 00160 11502
 21002 322// 41501 70011=
46138 22001 99524 71298 46/// ///// 1//// 92354 22200 00123 11107
 20906 323// 41104 70035=
46212 22001 99408 71243 46/// ///// 1//// 92351 22200 00124 11708
 21003 330// 41707 70040=
46225 22001 99329 71174 46/// ///// 1//// 92336 22200 00195 11401
 21001 321// 41401 70007=
46236 22001 99368 71219 46/// ///// 1//// 92350 22200 00149 10803
 20802 327// 41101 70013=
46244 22001 99409 71244 46/// ///// 1//// 92350 22200 00128 11709
 21003 330// 41708 70044=
44172 22001 99445 70634 46/// ///// 1//// 90002 22200 00165 10502
 20502 70009=
44097 22001 99410 70711 46/// ///// 1//// 90002 22200 00190 10801
 20801 70006=
44060 22001 99413 70721 46/// ///03 10189 40238 55000 90000 22200
 00197 333 91204 555 11026 22026=
46061 22001 99602 71468 46/// /2303 10110 49783 57003 92350 22200
 00113 11004 20401 300// 41004 70021 333 91204 555 11029 22030
 32334 42204 62349 232028 228030 221026 222021 215016 240008=
51101 22001 99243 71621 46/// /0806 10262 20189 40191 58014 92350
 22200 00270 11204 20502 333// 41203 70019 333 91207 555 11064
 22068 32307 40708 62349 077060 074061 068063 068063 066062
 069064=
46042 22001 99368 71224 46/// /3206 10141 30129 40129 56010 92350
 22200 00142 11903 20502 332// 41903 70017 333 91207 555 11061
 22064 32250 43107 62349 320058 321050 311051 308049 311046
 312048=
41009 22001 99285 70802 46/// /0807 10280 20243 40167 51003 92350
 22200 00288 11002 20502 300// 41001 70012 333 91207 555 11069
 22072=
41010 22001 99289 70785 46/// /1207 10278 40176 53008 92350 22200
 00289 10603 20602 300// 40702 70014 333 91208 555 11069 22072=
PHBO 22003 99165 70590 41497 40818 10285 20250 40149 52010 70211
 84200 22254 20804 313// 40804 80260=
C6FV8 22004 99140 70680 41597 20913 10280 2//// 40050 52020 7//00
 82889 22263 00300 20603 335// 4//// 5//// 6//// 8//// ICE /////=
DFWV2 22004 99240 71190 41598 50115 10215 20185 40120 55005 70311
 85500 22273 00220 20303 335// 40705 5//// 80195=
PCEO 22003 99256 70655 41497 20910 10275 20244 40190 51/// 70155
 8/180 22223 04284 2//// 80252=
44039 22001 99411 70727 46/// /1505 10211 20189 40241 92345 22200
 00213 1//00 70002 333 91206=
####018003687####
SMVD01 KWBC 220000 RRD
BBXX
46015 22001 99427 71248 46/// /3505 10141 30162 40162 57005 92350
 22200 00121 11608 20501 331// 41608 70041 333 91206 555 11057
 22066 32348 43406 62349 349049 353048 359048 357044 357047
 356045=
46041 22001 99474 71247 46/// /1507 10139 40133 56013 92350 22200
 00138 11608 20602 3//// 41607 70039 333 91209 555 11079 22085
 32314 41410 62349 149074 151079 153076 151078 151077 151076=
46026 22001 99378 71228 46/// /3105 10133 40130 56007 92350 22200
 00155 10702 20401 330// 40702 70012 333 91206 555 11050 22052
 32349 43106 62349 310047 286032 290027 295026 299024 298022=
46041 22001 99474 71247 46/// /1507 10139 40133 92350 22200 00138
 11608 20602 3//// 41607 70039 333 91209 555 11079 22085 32314
 41410 62349 149074 151079 153076 151078 151077 151076=
46077 22001 99579 71543 46/// /2404 10089 20080 49789 58011 92350
 22200 00091 10801 3//// 40801 70007 333 91205 555 11042 22044
 32348 42405 62349 238040 240037 242036 241038 239039 242037 82404
 92348=
46035 22001 99571 71778 46/// /3307 1//// 40006 52006 92350 22200
 10804 20502 300// 40803 70019 333 91209 555 11070 22074 32301
 43110 62349 335070 317072 323072 312078 304078 309074 83108
 92301=
46082 22001 99597 71434 46/// /0102 10097 20084 49783 52004 92350
 22200 00106 11006 20401 300// 41006 70032 333 91203 555 11016
 22017 32342 43603 62349 007016 358011 336007 352002 013004 037004
 80202 92345=
46085 22001 99559 71425 46/// /2206 10110 20094 49824 52031 92350
 555 11060 22063=
46001 22001 99563 71480 46/// /2406 10113 49809 51013 92350 22200
 00107 11005 20502 300// 41005 70025 333 91207 555 11062 22068
 32252 42408 62349 239057 241059 244060 243060 249059 248064=
46072 22001 99517 71722 46/// /2606 10077 20054 40008 58011 92350
 22200 00064 10904 20602 3//// 40904 70021 333 91207 555 11063
 22071 32250 42707 62349 261056 257046 254039 254039 264045 264051
 82706 92350=
44013 22001 99423 70707 46/// /1805 10184 20158 40229 53005 92350
 22200 00168 10801 20301 300// 40801 70005 333 91205 555 11051
 22059 32251 41807 62349 184045 187043 187046 186047 187051
 186054=
44007 22001 99435 70701 46/// /1502 10167 40230 53004 92350 22200
 00162 10901 3//// 40901 70005 333 91203 555 11025 22029 32251
 41704 62349 145022 140023 144027 151030 155033 162035=
41040 22001 99145 70530 46/// /0509 10284 20247 40140 52008 92350
 22200 00289 10805 20704 3//// 40803 70024 333 91211 555 11099
 22105 32258 40612 62349 054093 059091 060098 060100 061095 065092
 80611 92308=
42039 22001 99288 70860 46/// /0704 10276 40153 53004 92350 22200
 00286 10401 20301 300// 40401 70005 333 91205 555 11044 22046
 32255 40806 62349 068043 057044 060037 051031 063040 081045 80806
 92255=
BATEU05 22004 99688 70527 46/// /1802 10004 21037 40136 22263=
42003 22001 99260 70856 46/// /0907 10288 40127 55005 92350 22200
 00297 10602 20602 70010 333 91208 555 11073 22077 32346 40908
 62349 091068 091063 091061 091059 092059 094057 80907 92346=
42002 22001 99258 70937 46/// /0506 10282 20234 40139 55000 92350
 22200 00299 10601 20401 307// 40601 70005 333 91207 555 11055
 22057 32349 40507 62349 049055 047053 046051 045050 036049
 051041=
42040 22001 99292 70882 46/// /1303 10266 40156 53017 92350 22200
 00277 10301 20301 70004 333 91204 555 11027 22028 32252 41206
 50149 62349 127027 118032 124039 127044 127043 122055 72254 81206
 92252=
42059 22001 99151 70675 46/// /0906 10292 20247 40128 53016 92350
 22200 00298 10502 20502 3//// 40701 70009 333 91207 555 11065
 22068 32343 41007 62349 092060 088058 093058 090060 087052 093053
 80907 92344=
####018003596####
SMVD01 KWBC 220000 RRE
BBXX
41043 22001 99211 70650 46/// /0908 10279 20253 40170 53015 92350
 22200 00284 333 91209 555 11083 22088=
BATFR15 22004 99330 70361 44/98 40504 10250 20204 40241 50006
 701// 8/16/ 22254 04267 210// 332// 425// 5////=
BATFR13 22004 99361 70353 44698 41512 10239 20212 40232 50000
 70211 845// 22214 04264 20302=
44020 22001 99414 70702 46/// /1506 10188 20187 40241 52003 92350
 22200 00198 10801 70003 333 91207 555 11061 22064 32349 41607
 62349 153058 155056 160053 161049 165051 172048=
44040 22001 99410 70736 46/// /1202 10209 20199 40233 92345 22200
 1//00 70001 333 91203 555 11026 22026=
WTDL 22004 99270 70906 43/// /0518 10268 2024/ 40118 5//// 7////
 8//// 22221 0//// 2//// 3//// 4//// 5//// 6//// 80245 ICE /////=
C6JS 22003 99148 70769 41396 80910 10275 2024/ 40110 54000 70326
 85951 22214 20301 307// 40602 80255=
WTER 22004 99245 70818 43/// /1013 10299 2//// 40126 5//// 7////
 8//// 90000 22200 04305 2//// 3//// 4//// 5//// 6//// 80000 ICE
 /////=
PDWZ 22003 99462 70554 41/97 32615 10156 20126 40197 52032 70200
 83/// 22252 20202 80138=
WTEO 22004 99268 70845 43/// /0713 10283 20223 40146 5//// 7////
 8//// 90000 22242 04293 2//// 3//// 4//// 5//// 6//// 80240 ICE
 /////=
WTDF 22004 99399 70723 43/// /1415 10194 20000 40241 5//// 7////
 8//// 90000 22213 04191 2//// 3//// 4//// 5//// 6//// 80000 ICE
 /////=
KCGH 22004 99264 70758 41498 41314 10289 2024/ 40156 52006 70200
 842// 22273 00278 2//// 3//// 4//// 5//// 6//// 80256 ICE /////=
SHIP 22003 99421 70520 43/97 91825 10210 20180 40240 56030 8////
 22264 00260 2//// 3//// 4//// 5//// 80190=
WTDH 22004 99348 70752 41798 81714 10262 20239 40221 52010 70222
 814// 22212 00278 21002 306// 4//04 5//// 6//// 80245 ICE /////=
41013 22001 99334 70777 46/// /1405 10263 20226 40194 53016 92350
 22200 00270 10802 20401 309// 40802 70009 333 91206 555 11048
 22050 32349 41306 62349 139045 143047 140043 140034 150038
 150039=
44022 22001 99409 70737 46/// /2102 10208 20183 40225 92345 22200
 00209 333 91203 555 11021 22021=
44060 22001 99413 70721 46/// ///04 10189 40238 92345 22200 00195
 333 91205 555 11036 22036=
46059 22001 99380 71300 46/// /3103 10202 40192 56008 92350 22200
 00197 11406 20401 3//// 41406 70032 333 91204 555 11032 22037
 32304 43006 62349 306030 301033 302032 305036 308040 297040=
46084 22001 99566 71361 46/// /2015 10119 20097 49876 51082 92350
 22200 00118 11213 20607 300// 41211 70067 333 91220 555 11156
 22167 32301 42022 62349 197147 195147 193151 195154 195165
 197161=
46087 22001 99485 71247 46/// /1205 10144 20144 40127 58009 92350
 22200 00109 333 91208 555 11053 22063 32344 41208 62349 112045
 103048 103046 091048 067040 058039=
46005 22001 99461 71310 46/// /2108 10163 40096 55000 92350 22200
 00170 11610 20603 3//// 41610 70050 333 91209 555 11083 22088
 32251 40710 62349 227079 294078 047076 051081 042076 044079=
46080 22001 99580 71500 46/// /0000 10104 20090 49791 51008 92350
 22200 00103 11106 20401 3//// 41105 70028 333 91201 555 11002
 22003 32311 43302 62349 338002 325002 347003 353007 335009 322009
 83401 92311=
46025 22001 99337 71191 46/// /2703 10174 40127 56006 92350 22200
 00194 11502 20401 320// 41501 70008 333 91204 555 11029 22030
 32331 42605 62349 271028 257033 269033 255033 253038 238034=
46006 22001 99408 71375 46/// /2203 10185 40131 54000 92350 22200
 00201 11508 20401 3//// 41508 70041 333 91203 555 11026 22026
 32255 42704 62349 221024 228024 243020 254019 265018 266025=
####018000168####
SMVD01 KWBC 220000 RRG
BBXX
C6PZ8 22004 99258 70776 416// 51219 10280 2025/ 40180 54000 7//22
 85368 22232 00299 20303 3//// 4//// 5//// 6//// 80260 ICE /////=
####018003672####
SMVD01 KWBC 220000 RRF
BBXX
46029 22001 99461 71245 46/// /1805 10154 20154 40148 56011 92350
 22200 00151 11608 20401 330// 41608 70040 333 91206 555 11053
 22057 32304 41806 62349 178048 188046 186050 184051 177053
 184049=
46002 22001 99426 71305 46/// ///10 10199 40137 56010 92350 22200
 00188 11508 20804 3//// 41507 70039 333 91212 555 11109 22118=
46078 22001 99561 71526 46/// /2509 10110 20072 49799 52007 92350
 555 11096 22103=
46054 22001 99342 71204 46/// /2904 10157 40123 56011 92350 22200
 00164 11002 20401 300// 41002 70011 333 91205 555 11039 22040
 32342 43005 62349 291037 277030 286027 302027 277026 269025=
46075 22001 99539 71608 46/// /2811 10083 20059 49889 50000 92350
 22200 00088 10806 20805 300// 41002 70029 333 91213 555 11114
 22122 32332 42814 62349 284108 282111 284102 286108 283106 283109
 82812 92340=
42362 22001 99278 70907 46/// /1004 10278 20217 92345=
42060 22001 99163 70635 46/// /1004 10289 20239 40140 51016 92350
 22200 00297 10602 20401 300// 40602 70009 333 91205 555 11044
 22046 32341 40905 62349 101042 105039 106039 112036 117038 123028
 81005 92342=
42057 22001 99170 70815 46/// /1004 10293 20235 40114 53010 92350
 22200 00301 10601 306// 40601 70004 333 91205 555 11043 22045
 32306 41205 62349 104040 103039 110040 116042 113043 109041 81105
 92306=
42364 22001 99291 70881 46/// /1003 10256 20206 40163 92345=
42036 22001 99285 70845 46/// /0803 10284 20240 40155 53004 92350
 22200 00287 10501 20401 314// 40501 70006 333 91204 555 11035
 22036 32302 41004 62349 084033 095031 088026 097033 095035
 094033=
42012 22001 99301 70876 46/// /0406 10273 20240 40160 51010 92350
 22200 00283 1//00 70002 333 91206 555 11058 22060 32328 40407
 50156 62349 039054 045052 047053 061041 083027 087026 72326 80406
 92328=
42058 22001 99149 70749 46/// /0908 10294 20246 40109 53012 92350
 22200 00294 10502 20502 70011 333 91209 555 11089 22095 32327
 40910 62349 090084 088082 089080 094078 096081 097079 80909
 92338=
42363 22001 99282 70892 46/// /1005 10267 20194 40163 92345 333
 91205=
42056 22001 99198 70849 46/// /1205 10291 20232 40111 51006 92350
 22200 00303 10501 20401 308// 40501 70005 333 91205 555 11048
 22050 32255 41206 62349 116047 123041 127042 127040 127044 116051
 81205 92256=
42055 22001 99222 70940 46/// /0204 10294 20226 40122 55000 92350
 22200 00296 10601 304// 40601 70004 333 91205 555 11044 22046
 32313 43605 62349 017043 017037 016041 005041 001044 005041 80105
 92305=
41047 22001 99275 70715 46/// /1009 10282 20267 40195 51005 92350
 22200 00289 10704 20703 304// 41102 70018 333 91211 555 11088
 22093 32302 41011 62349 101087 105084 104091 104088 104092 108089
 81010 92303=
42035 22001 99292 70944 46/// /1204 10271 20200 40151 55000 92350
 22200 00281 10601 70003 333 91205 555 11044 22046 32339 41106
 62349 116042 111046 116045 116044 118043 121045=
BAREU11 22004 99306 70543 46/// ///// 40270 52011 22254=
BAREU04 22004 99390 70742 46/// ///// 40213 57008 22244=
NWS0022 22004 99377 70714 43/// /1415 10246 20213 40224 5////
 7//// 8//// 222// 04294 2//// 3//// 4//// 5//// 6//// 8//// ICE
 /////=
LAVX4 22004 99395 70383 41496 72919 10235 2020/ 40210 54002 70101
 8//// 22253 0//// 2//// 334// 4//// 5//// 6//// 80215=
DMDZ 22003 99280 70620 41/97 /0808 10270 20236 40220 52015 7//22
 8//// 22223 04270 299// 314// 40901 5//// 80245=
C6LU3 22003 99265 70498 41498 10908 10260 2023/ 40260 51010 70100
 81400 22254 20201 80230=
ZQTP2 22004 99246 70840 41498 61014 10282 20254 40126 55010 70311
 8/293 22233 20501 300// 4//// 5//// 80262=
####018000617####
SMVE01 KWBC 220000
BBXX
PCHM 22004 99046 51663 41698 41023 10275 20259 40095 53000 70322
 83444 22244 06272 20202 315// 40302 80263=
BATFR59 22004 99199 31658 46/// /1118 10239 20175 40167 50006
 22242 04249=
BATEU07 22004 99281 31122 46/// /1812 10172 20092 40235 53018
 22283=
BATFR36 22004 99174 51474 46/// /1021 10255 20174 40146 56021
 22221 04267=
BATFR56 22004 99110 30712 44/98 01227 10252 20197 40133 55004
 70200 22213 04265 21006 309// 40106 5////=
LAZU5 22004 99157 30863 41598 61234 00/// 10230 2019/ 40170 56005
 70312 8524/ 22223 00220 20805 309// 41407 5//// 6//// 80200=
####018000954####
SMVD80 KWBC 220000 RRA
BBXX
CG2350 22004 99480 70881 46/// /3421 10095 20086 40075 51019 7////
 8//// 22232 00132 2////=
CG2960 22004 99453 70800 46/// /1708 10203 20177 40123 56006 7////
 8//// 22200 0//// 2////=
45012 22001 99436 70774 46/// /1607 10213 30065 40154 56007 92350
 22200 00192 10301 20301 70005 333 91208 555 11075 22085 32333
 41609 62349 162068 159072 156069 152069 152068 153069=
45008 22001 99443 70824 46/// /2206 10195 39899 40109 53009 92350
 22200 00179 10502 20502 70010 333 91207 555 11063 22072 62349
 220057 208056 220052 228053 229064 224081=
45002 22001 99453 70864 46/// /2412 10158 20114 39882 40092 51010
 92350 333 91215 555 11131 22140 32302 42415 62349 238122 236111
 239122 241121 240121 238126=
45006 22001 99473 70898 46/// /3310 10094 39865 40086 53033 92350
 22200 00115 10302 20302 70008 333 91212 555 11107 22113 32335
 43313 62349 333100 335110 330104 337095 337107 333109=
####018002232####
SMVF01 KWBC 220000 RRA
BBXX
62086 22001 99550 10063 46/// /2514 10139 20118 40091 57009 22230
 00160=
DBBI 22001 99535 10100 46/// /2405 10155 20120 40134 57013 22240
 00164=
DBBA 22001 99549 10137 46/// /2008 10144 20121 40125 57020 22210
 00123=
DBKR 22001 99541 10121 46/// /2105 10161 20109 40134 57017 22200
 00156=
DBCK 22001 99551 10078 46/// /2514 10158 20115 40088 57024 22202
 00158=
DBBC 22001 99541 10089 46/// /2410 10148 2//// 40125 57005 22260
 00146=
DBND 22001 99543 10101 46/// /2205 10151 20119 40122 57013 22260
 00143=
DBEB 22001 99539 10079 41/// /2411 10148 20148 40120 56005 7////
 22200 00158=
DBFH 22001 99546 10134 46/// /2106 10152 20118 40128 57020 22210
 00149=
PBWQ 22004 99454 10123 41998 00409 10204 20152 40164 58003 70200
 80000 22200 04251 2////=
A8JI5 22003 99345 70153 41597 60516 10210 20180 40210 54000 70322
 84478 22224 00190 20603 334// 41005 5//// 80190=
WKPF 22003 99330 10262 41398 22919 10240 2021/ 40120 57010 70200
 822// 22234 00269 20404 329// 41108 5//// 6//// 80220 ICE /////=
9HXC9 22003 99403 10186 41797 40626 10240 20226 40140 54000 7//22
 84//2 22234 04210 20203 3//// 4//// 5//// 6//// 80230 ICE /////=
VAAZ 22004 99642 70219 46/// /0102 10076 20053 49938 52018 7////
 8//// 22200 0//// 2////=
VRYO3 22004 99499 70022 46/// /2721 10147 20118 40209 58006 7////
 8//// 22224 00167 2////=
A8JH8 22003 99372 10044 41997 00819 10228 20205 40145 58021 70200
 80000 22264 20301 80212 80210 80202 80240=
C6SA3 22004 99427 10084 41/// /2311 10220 20174 40160 54/// 7////
 8//// 22254 00230 2//// 3//// 4//// 5//// 6//// 80190 ICE /////=
9HA2583 22004 99332 10335 41/98 /3006 10256 20215 40110 54///
 70200 8//// 22274 00300 20301 3//// 40601 5//// 6//// 80227 ICE
 /////=
DK7210 22001 99540 10066 46/// /2514 10164 20142 30099=
SHIP 22003 99573 70069 41598 32720 10120 20092 40023 53004 70281
 89/// 22282 02131 20505 399// 4//// 5//// 80106=
9HXD9 22004 99375 10238 41698 43520 10206 2//// 40040 54/// 70221
 848// 22274 00272 20501 3//// 4//// 5//// 6//// 8//// ICE /////=
PDGS 22004 99487 70058 41998 02920 10165 20123 40228 58002 70200
 80000 22254 00170 20603 328// 40702 5//// 80140=
####018000160####
SMVJ01 KWBC 220000
BBXX
WCX7445 22004 99647 50640 43/// /1001 11090 2//// 49976 5////
 7//// 8//// 22200 01017 2//// 3//// 4//// 5//// 6//// ICE /////=
####018000132####
SMVA10 EHDB 220000 RRC
BBXX
PCVX 22003 99157 30035 41/// /1325 10182 20147 40175 58005 7////
8//// 22231 04191 2//// 80160=
####018000120####
SMVF10 EHDB 220000 RRC
BBXX
UCKG 22001 99695 10140 41/07 20604 10110 40064 57040 70110 82///
22253 00120 20101=
####018000150####
SMVA10 EHDB 220000 RRA
BBXX
PHKL 22001 99125 10587 41/97 /1906 10270 20233 40091 55004 70022
8//// 22224 00256 29902 322// 40502 5//// 80243=
####018000139####
SMVF10 EHDB 220000 RRE
BBXX
A8UU3 22004 99393 10172 41597 13526 10240 20211 40130 54000 7//00
81400 22283 2//// 331// 40903 80220=
####018000144####
SMVD10 EHDB 220000 RRA
BBXX
PCEX 22003 99135 70898 41598 72908 10286 20234 40120 54000 70222
83198 22200 02295 20201 324// 41205 80248=
####018000132####
SMVF10 EHDB 220000 RRA
BBXX
DGNB 22004 99395 70314 41597 52506 10195 20147 40240 54000 70200
8512/ 22264 00233 21502 80165=
####018000144####
SMVA10 EHDB 220000 RRB
BBXX
DBRE 22004 99351 30213 41396 50712 10145 20110 40270 54000 70211
84264 22223 04159 20907 325// 40907 80125=
####018000114####
SMVB10 EHDB 220000 RRA
BBXX
UGYU 22001 99774 11407 41/93 90209 11028 40060 52020 72272 89///
22273 20604=
####018000138####
SMVF10 EHDB 220000 RRF
BBXX
PBFM 22003 99420 70203 41597 21115 10188 20089 40285 52005 70200
82500 22214 20402 313// 40803 80132=
####018000150####
SMVF10 EHDB 220000 RRB
BBXX
PDZS 22003 99452 70069 41/98 80214 10170 20141 40250 54000 70222
8//// 22252 02182 2//// 3//// 4//// 5//// 80152=
####018000139####
SMVD10 EHDB 220000 RRB
BBXX
9HOB7 22003 99474 70434 41998 02829 10120 20111 40110 52030 701//
80000 22243 299// 399// 4//06 80115=
####018000151####
SMVF10 EHDB 220000 RRD
BBXX
2AKI2 22003 99322 10303 41/98 /3408 10256 20225 40084 58010 70200
8//// 22264 00273 2//// 3//// 4//// 5//// 80235=
####018000145####
SMVE10 EHDB 220000 RRA
BBXX
MCLJ8 22003 99037 31457 41/98 60000 10290 20248 40142 55004 70322
8/74/ 22233 20000 300// 40000 5//// 80260=
####018000147####
SMVF10 EHDB 220000 RRG
BBXX
TBWUK35 22003 99636 10040 41/98 81532 10115 20080 49915 57027 70222
8//// 22243 00180 20602 399// 40806 80098=
####018000145####
SMVE10 EHDB 220000 RRB
BBXX
A8UD6 22001 99001 11575 41398 89901 10250 20235 40120 51020 71582
8787/ 22274 20000 309// 40803 5//// 80240=
####018000151####
SMVD10 EHDB 210000 RRZ
BBXX
A8IJ4 21001 99272 71165 41/98 63502 10210 20195 40161 57000 7////
8/4// 22234 00230 20302 336// 4//01 5//// 80200=
####018000144####
SMVD10 EHDB 220000 RRC
BBXX
PJFF 22003 99235 70683 41297 80616 10239 20213 40160 54000 76566
886// 22214 04288 20402 309// 41003 80221=
####018000562####
SMVF11 ENMI 220000
BBXX
LDGJ 22001 99774 10250 43/// /1207 10037 20019 40198 5//// 222/2
      04023 1//// 3//// 4//// 5////=
LF4H 22004 99596 10022 46/// /2424 10119 20073 49948 57003 8////
      22200 06127 10706 70032 333 91131=
LGWS 22001 99339 30184 43/// /1902 10134 20074 40217 5//// 222/0
      04136 1//// 3//// 4//// 5////=
LJIT 22001 99764 10145 43/// /1110 10041 20032 40144 5//// 222/0
      04025 1//// 3//// 4//// 5////=
LMEL 22001 99677 10089 43/// /0712 10109 20088 40017 5//// 222/0
      04119 1//// 3//// 4//// 5////=
####018000107####
SMVF11 LFPW 220000
BBXX
BATUK01 22004 99604 70009 46/// /2518 10097 20057 49904 55004
22251 04124=
####018000111####
SMVX01 EDZW 220000
BBXX
DBLK 22001 99785 11254 41797 /3305 11014 21027 40055 57013
7//// 22220 04015 =
####018000541####
SMVF11 BIRK 220000
BBXX
TFBKF 22004 99635 70202 46/// ///// 22200 10703 70014=
TFBLK 22004 99657 70248 46/// ///// 22200 10604 70022=
TFDRN 22004 99658 70212 46/// ///// 22200 10602 70009=
TFGRS 22004 99663 70182 46/// ///// 22200 10603 70014=
TFGRV 22004 99638 70225 46/// ///// 22200 10803 70014=
TFHFN 22004 99642 70152 46/// ///// 22200 10703 70014=
TFKGR 22004 99657 70136 46/// ///// 22200 10503 70015=
TFSRT 22004 99633 70203 46/// ///// 22200 10704 70019=
TFSTD 22004 99664 70234 46/// ///// 22200 10606 70031=
####018000263####
SMYG21 LYBM 220000
AAXX 22001
13067 32997 02702 10160 20156 30053 40179 56002=
13183 NIL=
13279 32697 71801 10150 20145 30044 40188 56001 87500=
13295 32998 00000 10133 20106 30119 40173 53004=
13367 31/91 93602 10104 20102 39027 48527 56004 74544=
####018000149####
SMVD11 LFPW 220000
BBXX
ELZA9 22004 99211 70856 41698 51210 10295 20262 40110 54000 70311
8447/
22275 00340 20502 3//// 4//// 5//// 80270=
####018000515####
SMYG22 LYBM 220000
AAXX 22001
13168 32997 02501 10144 20135 30078 40183 58003=
13174 32997 02503 10153 20140 30073 40171 56001=
13269 31995 02702 10136 20126 39985 40196 56002 71000=
13274 31696 52902 10156 20147 30032 40189 56002 71000 85800=
13278 31695 70000 10148 20141 39972 40192 56002 71022 87500=
13378 32296 80607 10069 20070 38290 48519 58004 885// 333 91014
91114=
13397 32698 82502 10148 20130 39641 40164 52008 885//=
13457 32970 01101 10224 20065 30127 40134 53003=
13481 NIL=
####018000149####
SNVF25 LFPW 212300
BBXX
V7LZ8 21233 99362 70043 41/97 /9902 10220 20190 40200 54000 7//00
8////
22221 06250 299// 3//// 4//// 5//// 80200=
####018000131####
SMVA11 LFPW 220000
BBXX
DIOY2 22004 99319 50005 41598 21605 10150 20076 40300 54000 7////
8216/
22264 00160 20601 80110=
####018000384####
SMYG23 LYBM 220000
AAXX 22001
13173 32997 02301 10152 20145 30082 40180 56003=
13180 32998 02502 10150 20150 30077 40185 54000=
13266 32997 02601 10132 20126 30096 40196 51002=
13369 32697 22902 10094 20086 39012 48501 56002 82500=
13383 32997 73201 10163 20155 39983 40181 54000 87070=
13384 NIL=
13389 32697 71401 10146 20138 39894 40167 54000 87500=
13477 NIL=
####018000142####
SMVA11 LFPW 220000
BBXX
DADD 22003 99154 70179 41/98 /3010 10280 20239 40135 58005 71300
8////
22244 2//// 3//// 4//// 5//// 80250=
####018000137####
SMVB11 LFPW 220000
BBXX
A8VL5 22004 99060 10888 41298 62223 10260 20246 40210 57005 70322
8421/
22264 00290 20202 30000 80250=
####018000737####
SMVX40 KAWN 220000 RRA
BBXX
DBBA 22001 99549 10137 46/// /2008 10144 20121 40125 57020 22210
 00123=
DBBC 22001 99541 10089 46/// /2410 10148 2//// 40125 57005 22260
 00146=
DBBI 22001 99535 10100 46/// /2405 10155 20120 40134 57013 22240
 00164=
DBCK 22001 99551 10078 46/// /2514 10158 20115 40088 57024 22202
 00158=
DBEB 22001 99539 10079 41/// /2411 10148 20148 40120 56005 7////
 22200 00158=
DBFH 22001 99546 10134 46/// /2106 10152 20118 40128 57020 22210
 00149=
DBKR 22001 99541 10121 46/// /2105 10161 20109 40134 57017 22200
 00156=
DBLK 22001 99785 11254 41797 /3305 11014 21027 40055 57013 7////
 22220 04015=
DBND 22001 99543 10101 46/// /2205 10151 20119 40122 57013 22260
 00143=
####018000143####
SMVC11 LFPW 220000
BBXX
A8OH7 22001 99046 50816 41297 81817 10172 20158 40112 55002 70222
8/7//
22284 04170 20805 319// 41203 80163=
####018000137####
SMVA11 LFPW 220000
BBXX
ELZX2 22004 99329 30085 41/97 31904 10170 20105 40324 55001 70300
8////
22264 2//// 323// 41204 80135=
####018000143####
SMVC11 LFPW 220000
BBXX
DCAX2 22004 99082 50798 41397 81602 10190 20159 40150 57020 71422
89777
22273 20301 320// 40806 5//// 80170=
####018000127####
SMVF22 EIDB 220000
BBXX
62023 22003 99514 70079 46/96 /2624 10132 2//// 40197 5////
22200 10504 70022 555 70033 80008=
####018000149####
SMVF11 LFPW 220000
BBXX
OXHY2 22003 99445 70087 41/98 70207 10171 20152 40239 51010 70222
87/2/
22214 00191 2//03 3//// 4//// 5//// 80159=
####018000124####
SMVA11 LFPW 220000
BBXX
DPJW 22004 99059 70290 41697 62908 10260 20232 40250 52005 70381
864//
22285 2//// 80240=
####018000149####
SMVA11 LFPW 220000
BBXX
C6OM8 22000 99120 50001 41398 81108 10192 20153 40176 54000 70200
887//
22273 04172 20503 311// 40503 5//// 80169=
####018000168####
SMVF11 LFPW 220000
BBXX
KSDF 22004 99283 11405
41497 82420 10269 20233
40075 52006 78182 8864/
22213 0//// 20304 32327 40604
50703 6//// 80243 ICE /////=
####018000143####
SMVD11 LFPW 220000
BBXX
A8LN2 22004 99470 70370 41/98 /2532 10160 20144 40095 56/// 70111
8////
22263 04162 21206 327// 41206 80150=
