####018000091####
SNVD01 KWBC 221600 RRS
BBXX
MINFR00 2216/ 99320 70809 46/// ///// 10258 40204 52007=
####018000091####
SNVA01 KWBC 221600 RRE
BBXX
MINFR05 2216/ 99227 10697 46/// ///// 10273 40105 52017=
####018000091####
SNVA01 KWBC 221700 RRD
BBXX
MINFR05 2217/ 99227 10697 46/// ///// 10270 40104 52008=
####018000288####
SNVD01 KWBC 221700 RRN
BBXX
FLAO 2217/ 99764 70831 46/// ///// 11015 40079 57006=
MINFR00 2217/ 99321 70811 46/// ///// 10243 40205 52006=
NWS0022 22174 99377 70715 43/// /2009 10272 20232 40225 5////
 7//// 8//// 222// 04293 2//// 3//// 4//// 5//// 6//// 8//// ICE
 /////=
####018000478####
SNVD80 KWBC 221700 RRF
BBXX
45027 22171 99469 70919 46/// /3305 10087 20038 39983 40207 91720
 333 91207=
45028 22171 99468 70918 46/// /3305 10083 20054 39967 40190 91710
 22200 00089 333 91206=
45027 22171 99469 70919 46/// /3206 10085 20038 39983 40207 91710
 333 91207=
45028 22171 99468 70918 46/// /3304 10086 20053 39967 40190 91730
 22200 00089 333 91205=
45028 22171 99468 70918 46/// /3305 10085 20052 39967 40190 91720
 22200 00089 333 91206=
####018000630####
SMVA01 KWBC 221800 RRA
BBXX
TBWUK36 22183 99228 30637 41498 10719 10220 20189 40218 54000
 70200 811// 22224 00230 20401 30605 40503 51001 80200=
8PSH 22184 99169 70249 46/// /0509 10285 20227 40136 55000 7////
 8//// 22200 0//// 2////=
BATFR05 22184 99041 10010 46/// /2207 10274 20227 40125 55001
 22200 04240=
BATFR08 22184 99201 30575 46/// /1205 10230 20159 40215 50011
 22200 00247=
PBSY 22184 99132 70339 41598 40618 10305 20251 40124 56016 70200
 841// 22223 04280 20502 80265=
A8GU8 22181 99129 50341 41497 51206 10270 20213 40160 54000 70211
 83566 22253 04260 20601 310// 41201 5//// 80230=
####018000152####
SNVF01 KWBC 221700 RRF
BBXX
OXHY2 22173 99493 70040 41298 62605 10162 20130 40233 57007 70222
 8667/ 22214 00153 20301 3//// 4//// 5//// 80143=
####018000476####
SMVC01 KWBC 221800 RRA
BBXX
WBP3210 22184 99534 50420 43/// /2328 11023 2//// 49995 5////
 7//// 8//// 22212 00005 2//// 3//// 4//// 5//// 6//// ICE /////=
ONCE 22184 99382 50398 413// 82440 10135 2013/ 40080 52010 7//64
 887// 22264 00149 2//// 324// 4//// 5//// 6//// 80130 ICE /////=
A8OK7 22184 99162 50375 41398 20609 10259 20251 40173 70122 8/260
 22283 29901 3//// 4//// 5//// 80253=
32012 22181 99197 50856 46/// ///// 1//// 91750 22200 10704 70019=
####018003688####
SMVD01 KWBC 221800 RRA
BBXX
9HA2066 22184 99448 70444 41798 43327 10180 20112 40220 51020
 70121 83163 22264 00230 20608 33333 40806 50606 6//// 80140 ICE
 /////=
KIYI 22184 99510 71354 41498 81530 10112 2011/ 49945 57040 7//22
 886// 22235 0//// 20205 326// 40905 5//// 6//// 80110 ICE /////=
C6QK 22183 99444 70352 41598 42721 10160 2013/ 40160 57010 70311
 84400 22224 20805 329// 41207 80140=
SHIP 22184 99305 71726 43597 72719 10260 2020/ 40190 51010 7////
 8762/ 22263 00280 21402 3//// 42001 5//// 6//// 80220 ICE /////=
WTEO 22184 99265 70829 41497 71008 10288 2025/ 40163 54000 7//22
 872// 22222 00302 20501 315// 40602 5//// 6//// 80262 ICE /////=
PCEO 22183 99248 70610 41297 60911 10294 20233 40204 57007 7//11
 8477/ 22223 04279 2//01 80250=
C6SI6 22184 99476 71224 46/// /2006 10199 20175 40160 51009 7////
 8//// 22200 0//// 2////=
WTDL 22184 99270 70900 413// 71816 10270 2024/ 40131 58005 7//22
 8726/ 22222 00277 20403 309// 40504 5//// 6//// 80251 ICE /////=
CGTEST 22184 99461 70602 46/// /1904 10222 20107 40233 58014 7////
 8//// 22200 0//// 2////=
KGTX 22184 99567 71531 41598 52309 10119 2006/ 49967 52012 70152
 83158 22254 00103 2//// 3//// 4//// 5//// 6//// 80090 ICE /////=
VCYL 22184 99501 70608 46/// /2113 10089 20068 40204 58016 7////
 8//// 22222 00053 2////=
WDC3786 22184 99318 71227 41598 83513 10178 2016/ 40166 5////
 7//22 886// 22264 0//// 20302 331// 40904 5//// 6//// 80168 ICE
 /////=
CGDR 22184 99552 71313 46/// /1415 10122 20095 40053 58017 7////
 8//// 22231 00135 2////=
VAAP 22184 99453 70607 46/// /2315 10162 20139 40234 58008 7////
 8//// 22253 0//// 2////=
CGSB 22184 99588 70939 46/// /2128 10140 20051 40100 58027 7////
 8//// 22200 0//// 2////=
CGCX 22184 99476 70527 46/// /2505 10186 20080 40208 57004 7////
 8//// 22200 0//// 2////=
CZ9742 22184 99537 70989 46/// /1818 10114 20049 4//// 5//// 7////
 8//// 22200 0//// 2////=
VCWL 22184 99685 70668 46/// /2616 10009 21053 40109 56012 7////
 8//// 22200 0//// 2////=
CGBY 22184 99505 71280 46/// /0000 10112 20110 40085 58004 7////
 8//// 22271 00145 2////=
CGDT 22184 99678 71151 46/// /3316 10066 20064 49784 56006 7////
 8//// 22200 0//// 2////=
CFN5537 22184 99637 70686 46/// /1306 10011 20000 40172 57018
 7//// 8//// 22200 0//// 2////=
VCBW 22184 99497 70658 46/// /1212 10133 20097 4//// 58290 7////
 8//// 22232 00098 2////=
CG3029 22184 99446 70635 46/// /2207 10155 20150 40251 56009 7////
 8//// 22200 0//// 2////=
VOFG 22184 99694 70818 46/// /1815 10025 20022 49961 56024 7////
 8//// 22200 0//// 2////=
VXKF 22184 99466 70599 46/// /1515 10157 20119 40223 58014 7////
 8//// 22254 0//// 2////=
VC6750 22184 99694 70940 46/// /3608 10053 20052 4//// 5//// 7////
 8//// 22251 00025 2////=
CGJK 22184 99686 70997 46/// /1513 10036 20034 49852 56011 7////
 8//// 22212 00030 2////=
CGHL 22184 99747 70951 46/// /1143 10006 21015 49928 56025 7////
 8//// 22200 0//// 2////=
CGDG 22184 99447 70636 46/// /2309 10161 20145 40251 56007 7////
 8//// 22200 0//// 2////=
VOPP 22184 99480 70696 46/// /0104 10086 20086 40174 58012 7////
 8//// 22253 00075 2////=
CG2965 22184 99489 71235 46/// /1112 10144 20142 40130 55000 7////
 8//// 22241 00124 2////=
CGBR 22184 99534 71293 46/// /3008 10110 20091 40082 56012 7////
 8//// 22200 0//// 2////=
41101 22184 99146 70562 46/// /0621 10287 20242 40124 57022 22200
 00288 10705 70023 555 1/025=
VCSZ 22184 99469 70577 46/// /2611 10147 20149 40234 58011 7////
 8//// 22224 0//// 2////=
CG2958 22184 99487 71235 46/// /1105 10158 20157 40145 51009 7////
 8//// 22200 0//// 2////=
####018001077####
SMVB01 KWBC 221800 RRA
BBXX
3FZK3 22184 99356 11398 46/// /0304 10199 20168 40068 53008 7////
 8//// 22200 0//// 2////=
SHIP 22184 99416 11707 41391 92317 10200 20200 40233 51000 74544
 89/// 22224 00200 2//// 3//// 4//// 80200=
KFMV 22183 99183 11344 41698 31313 10256 2022/ 40110 54000 70121
 82185 22264 00283 20803 33335 41106 50907 6//// 80233 ICE /////=
A8VV3 22184 99274 11749 41698 20612 10253 20226 40235 51005 70211
 81281 22263 20701 399// 41002 80234=
SHIP 22184 99443 11672 41498 72922 10125 20078 40129 51003 70122
 85466 91755 22224 00140 20403 304// 40810 80100=
A8CN8 22180 99491 11751 41/97 /2210 10125 20104 40180 52010 70255
 8//// 22224 06109 20303 3//// 4//// 5//// 80113=
C6DM2 22184 99056 11001 417// 51909 10290 20249 40100 50010 70111
 851/8 22200 0//// 2//// 3//// 4//// 5//// 6//// 80260 ICE /////=
46070 22181 99551 11753 46/// /3006 10093 20047 40125 53009 91750
 22200 00111 11304 20602 3//// 41303 70021 333 91207 555 11063
 22066 31702 42912 61749 298060 296060 292060 288061 280074 326086
 82910 91702=
####018003684####
SMVD01 KWBC 221800 RRB
BBXX
CGTF 22184 99685 70899 46/// /1917 10092 20069 49911 58007 7////
 8//// 22200 0//// 2////=
VOKJ 22184 99455 70735 46/// /1804 10213 20189 40165 58004 7////
 8//// 22241 0//// 2////=
CGBN 22184 99759 71386 46/// /0417 11039 21042 40016 55000 7////
 8//// 22242 0//// 2////=
CZ3695 22184 99685 71338 46/// /3509 10039 20044 4//// 5//// 7////
 8//// 22231 0//// 2////=
46238 22181 99334 71195 46/// ///// 1//// 91750 22200 00182 11703
 20801 329// 41702 70014=
46239 22181 99363 71221 46/// ///// 1//// 91751 22200 00145 11707
 20804 330// 41706 70034=
46214 22181 99379 71235 46/// ///// 1//// 91751 22200 00125 11508
 21005 330// 41506 70040=
46219 22181 99332 71199 46/// ///// 1//// 91758 22200 00172 11704
 20902 331// 41704 70020=
46224 22181 99332 71175 46/// ///// 1//// 91737 22200 00184 11401
 21001 319// 41401 70006=
44099 22181 99369 70757 46/// ///// 1//// 91752 22200 00233 10802
 20802 70008=
44100 22181 99363 70756 46/// ///// 1//// 91752 22200 00236 10902
 20902 70010=
41110 22181 99341 70777 46/// ///// 1//// 91751 22200 00266 10502
 20502 70009=
42099 22181 99273 70842 46/// ///// 1//// 91757 22200 00289 10502
 20502 70008=
41113 22181 99284 70805 46/// ///// 1//// 91751 22200 00292 10702
 20702 70008=
46243 22181 99462 71241 46/// ///// 1//// 91759 22200 00139 11306
 20904 326// 41305 70030=
46244 22181 99409 71244 46/// ///// 1//// 91750 22200 00129 11407
 20903 329// 41407 70036=
46212 22181 99408 71243 46/// ///// 1//// 91751 22200 00125 11508
 21003 330// 41507 70040=
46218 22181 99345 71208 46/// ///// 1//// 91802 22200 00161 11404
 20902 330// 41403 70021=
46138 22181 99524 71298 46/// ///// 1//// 91754 22200 00123 11203
 20803 321// 41202 70017=
46229 22181 99438 71246 46/// ///// 1//// 91751 22200 00160 11308
 21003 329// 41307 70038=
46215 22181 99352 71209 46/// ///// 1//// 91738 22200 00146 11404
 20802 326// 41403 70018=
46213 22181 99403 71247 46/// ///// 1//// 91754 22200 00119 11406
 21003 330// 41405 70031=
46236 22181 99368 71219 46/// ///// 1//// 91750 22200 00149 11405
 21003 329// 41404 70027=
46247 22181 99378 71228 46/// ///// 1//// 91751 22200 00143 11505
 21003 328// 41504 70026=
46225 22181 99329 71174 46/// ///// 1//// 91736 22200 00184 11301
 21001 320// 41301 70006=
44097 22181 99410 70711 46/// ///// 1//// 91802 22200 00193 10502
 20502 70009=
44172 22181 99445 70634 46/// ///// 1//// 91802 22200 00165 10801
 20801 70006=
CGDS 22184 99452 70743 46/// /2004 10206 20190 4//// 5//// 7////
 8//// 22200 0//// 2////=
46061 22181 99602 71468 46/// /0905 10104 49907 52024 91750 22200
 00112 11103 20401 300// 41103 70016 333 91206 555 11056 22058
 31741 41107 61749 093054 103048 115048 119050 128051 132052=
46042 22181 99368 71224 46/// /3307 10130 30153 40153 51010 91750
 22200 00144 11607 20502 330// 41607 70037 333 91209 555 11069
 22072 31650 43309 61749 330065 323061 329066 334064 332067
 320064=
C6UA2 22184 99181 71572 41698 60925 10240 20240 40170 56020 7//22
 8566/ 22234 04280 20403 3//// 40403 5//// 6//// 80240 ICE /////=
ZQCP3 22184 99162 70780 41597 60102 10337 20276 40130 58010 7//22
 85246 22263 00290 20302 310// 40404 5//// 80292=
VREX7 22184 99378 70530 41598 40809 10260 20194 40270 54000 70222
 83100 22214 00280 20302 301// 40602 80215=
WCAJ 22184 99507 71320 41498 81722 10156 20095 40015 57015 70282
 81407 22233 00139 20602 327// 41205 5//// 6///0 80122 ICE 0/0//=
41009 22181 99285 70802 46/// /1407 10268 20239 40175 58010 91750
 22200 00289 10702 20402 300// 40701 70012 333 91210 555 11078
 22082=
####018003620####
SMVD01 KWBC 221800 RRC
BBXX
41010 22181 99289 70785 46/// /1307 10284 40178 56017 91750 22200
 00289 10803 20402 300// 40802 70016 333 91208 555 11074 22079=
CG2522 22184 99618 71211 41/98 42811 10169 20005 4//// 58000 7//22
 84/// 22221 0//// 2////=
46015 22181 99427 71248 46/// /1703 10126 30183 40183 52007 91750
 22200 00132 11508 20401 331// 41508 70038 333 91204 555 11032
 22033 31716 41305 61749 171030 177028 169029 164037 151037
 148034=
46041 22181 99474 71247 46/// /1807 10147 40140 91750 22200 00137
 11507 20603 3//// 41506 70035 333 91208 555 11074 22081 31650
 41710 61749 178068 177072 176074 175078 173076 172079=
46041 22181 99474 71247 46/// /1807 10147 40140 53015 91750 22200
 00137 11507 20603 3//// 41506 70035 333 91208 555 11074 22081
 31650 41710 61749 178068 177072 176074 175078 173076 172079=
46026 22181 99378 71228 46/// /0000 10121 40155 52010 91750 22200
 00141 11605 20401 329// 41605 70026 333 91201 555 11001 22001
 31721 43002 61749 003001 197003 270007 270002 180000 180001=
42085 22181 99179 70665 46/// /0908 10295 40139 91740 333 91210=
46077 22181 99579 71543 46/// /2204 10086 20071 49856 53004 91750
 22200 00100 10702 20401 3//// 40702 70009 333 91205 555 11046
 22048 31749 42205 61749 218043 211042 212042 213039 217034 214030
 82205 91749=
46035 22181 99571 71778 46/// /3012 1//// 40084 51014 91750 22200
 10905 20804 300// 40903 70023 333 91214 555 11117 22125 31746
 43014 61749 295116 286114 286107 285103 285107 287106 83013
 91746=
51101 22181 99243 71621 46/// /0606 10260 20193 40187 53010 91750
 22200 00268 11104 20501 334// 41103 70018 333 91207 555 11064
 22068 31727 40708 61749 054060 052060 048061 051057 055058
 056057=
46001 22181 99563 71480 46/// /1907 10104 49886 53011 91750 22200
 00101 10905 20603 300// 40905 70026 333 91208 555 11074 22080
 31740 41909 61749 187069 189067 190068 181070 177069 176063=
46082 22181 99597 71434 46/// /1807 10098 20086 49933 53027 91750
 22200 00110 11106 20503 300// 41105 70028 333 91209 555 11074
 22078 31704 41510 61749 179070 179070 172068 172065 159071 144067
 81508 91704=
46085 22181 99559 71425 46/// /1706 10110 20065 49950 51010 91750
 22200 00107 333 91207 555 11061 22066=
41040 22181 99145 70530 46/// /0510 10286 20243 40120 58024 91750
 22200 00290 11409 20705 3//// 41407 70043 333 91212 555 11109
 22116 31715 40413 61749 047102 050103 045100 049106 048105 046099
 80512 91712=
42039 22181 99288 70860 46/// /0609 10266 40159 91750 22200 00283
 10603 20603 70013 333 91210 555 11097 22102 31732 40611 61749
 060090 059090 059087 056078 060077 060082 80610 91732=
46072 22181 99517 71722 46/// /3107 10074 20046 40106 51023 91750
 22200 00073 10905 20602 3//// 40904 70024 333 91208 555 11073
 22078 31725 43212 61749 309069 311079 317094 316069 311058 313056
 83210 91726=
45144 22181 99532 70983 46/// /0000 10118 39917 40183 57014 22200
 00118 10700 70002 333 912//=
BATEU00 22184 99654 70534 46/// /3421 10025 21058 40062 56003
 22283=
FVNM 22184 99213 71579 46/// /1105 10267 20175 40168 53012 22200
 04269=
BATFR15 22184 99298 70411 46/// /0510 10277 20214 40225 56009
 22254 04277=
CGDX 22184 99605 70642 41498 82815 10019 21023 40201 56008 71522
 888// 22223 00031 20000 305// 40503=
WTDL 22184 99270 70900 43/// /1713 10271 2024/ 40126 5//// 7////
 8//// 22222 0//// 2//// 3//// 4//// 5//// 6//// 80245 ICE /////=
WTEJ 22184 99295 70880 43/// /3103 10262 20000 40162 5//// 7////
 8//// 91800 22241 04278 2//// 3//// 4//// 5//// 6//// 8//// ICE
 /////=
####018003689####
SMVD01 KWBC 221800 RRD
BBXX
WTDO 22184 99283 70839 43/// /3307 10265 20215 40172 5//// 7////
 8//// 91800 2228/ 04286 2//// 3//// 4//// 5//// 6//// 80230 ICE
 /////=
WDD6039 22184 99470 71528 41598 62923 10128 20075 49990 52007
 70211 862// 22224 00122 20503 332// 40704 5//// 6//// 80100 ICE
 /////=
WDE8264 22183 99424 70397 41398 73324 10212 20152 40210 53005
 7//22 8344/ 22264 00210 20206 330// 40810 5//// 6//// 80174 ICE
 MES N=
WTER 22184 99245 70818 43/// /1403 10325 2//// 40140 5//// 7////
 8//// 91800 22200 04306 2//// 3//// 4//// 5//// 6//// 80000 ICE
 /////=
WTEO 22184 99265 70829 43/// /1308 10295 20225 40157 5//// 7////
 8//// 91800 22222 04302 2//// 3//// 4//// 5//// 6//// 80245 ICE
 /////=
S6JU 22183 99541 71590 41598 63021 10075 20055 49925 54000 70311
 86/// 22224 04065 20607 33027 40908 50706 6//// 80060 ICE /////=
44007 22181 99435 70701 46/// /1403 10170 40200 58010 91750 22200
 00164 10801 20401 3//// 40801 70005 333 91204 555 11033 22038
 31723 41405 61749 136029 142036 143045 141035 133032 133025=
44013 22181 99423 70707 46/// /1303 10178 20176 40193 58013 91750
 22200 00167 10801 300// 40801 70003 333 91204 555 11036 22042
 31745 41304 61749 132031 128024 125023 127026 127030 130030=
BAREU11 22184 99268 70591 46/// ///// 40231 57015 22254=
46069 22181 99337 71202 46/// /3301 10151 40153 51011 91750 22200
 00183 11604 20401 331// 41604 70021 333 91203 555 11010 22010
 31731 43304 61749 336010 343020 299018 318020 305014 310018=
46029 22181 99461 71245 46/// /1708 10152 20152 40155 52010 91750
 22200 00146 11507 20603 331// 41507 70036 333 91210 555 11087
 22094 31738 41710 61749 171080 174082 176080 178078 176083
 177079=
46012 22181 99374 71229 46/// /3006 10121 40156 51011 91750 22200
 00142 11507 20502 329// 41507 70035 333 91207 555 11060 22062
 31722 43108 61749 304058 309059 312061 313060 317060 317058=
46087 22181 99485 71247 46/// /1908 10152 20152 40127 53006 91750
 22200 00105 11306 20703 327// 41305 70031 333 91210 555 11091
 22105 31742 41910 61749 186080 186083 186079 180062 175008
 136009=
46025 22181 99337 71191 46/// /1402 10173 40155 51011 91750 22200
 00191 11401 323// 41401 70006 333 91203 555 11021 22021 31741
 41503 61749 142020 141017 142008 138013 137016 129002=
46013 22181 99382 71233 46/// /3402 10110 40159 52017 91750 22200
 00122 11505 20401 3//// 41505 70027 333 91203 555 11020 22020
 31703 42904 61749 335018 331016 305015 289018 291025 307021=
46047 22181 99324 71195 46/// /3203 10160 40156 51011 91750 22200
 00179 11604 20401 331// 41604 70018 333 91204 555 11026 22026
 31725 43305 61749 324025 328028 320032 321025 320030 310027=
46050 22181 99442 71246 46/// /1805 10143 40171 53008 91750 22200
 00142 11206 20401 329// 41206 70030 333 91207 555 11056 22059
 31650 41707 61749 178052 179051 177054 179053 181053 173057=
46053 22181 99342 71198 46/// /0000 10146 40149 52011 91750 22200
 00168 333 91201 555 11005 22005 31706 40802 61749 026005 055006
 055003 041006 066008 128003=
46028 22181 99357 71219 46/// /3307 10133 20129 30157 40157 52017
 91750 22200 00156 11305 20602 330// 41305 70025 333 91208 555
 11071 22074 31712 43309 61749 330067 326065 332069 328068 337060
 330059=
46014 22181 99394 71240 46/// /3406 10132 40163 51012 91750 22200
 00119 11608 20502 3//// 41608 70042 333 91207 555 11063 22071
 31652 43410 61749 341057 341058 339061 340062 342069 342078=
46086 22181 99325 71180 46/// /3102 10172 40147 51009 91750 22200
 00187 11702 327// 41702 70011 333 91204 555 11023 22023 31740
 43204 61749 310023 322022 309021 320019 327018 337017=
####018003575####
SMVD01 KWBC 221800 RRE
BBXX
46027 22181 99419 71244 46/// /2202 10132 40185 51008 91750 22200
 00121 11506 20301 329// 41506 70029 333 91202 555 11018 22022
 31739 42503 61749 217016 216011 209010 217011 218013 209016=
46088 22181 99483 71232 46/// /2001 10116 40130 91750 22200 00110
 1//00 70002 333 91201 555 11013 22016 31705 40602 61749 195013
 154016 131010 100012 069016 039018=
46080 22181 99580 71500 46/// /1507 10100 20083 49871 53019 91750
 22200 00101 10905 20602 3//// 40904 70023 333 91208 555 11074
 22078 31747 41508 61749 153069 150070 149067 151061 150062 150062
 81508 91734=
46011 22181 99350 71210 46/// /3302 10144 40157 52013 91750 22200
 00166 11604 20401 331// 41604 70021 333 91203 555 11016 22017
 31728 43103 61749 328016 299013 343020 000012 341015 344010=
46075 22181 99539 71608 46/// /3111 10076 20047 49937 53018 91750
 22200 00088 10806 20806 70031 333 91214 555 11120 22127 31709
 43015 61749 309111 309112 307117 305122 302120 300119 83113
 91726=
46005 22181 99461 71310 46/// /1810 10167 40070 56012 91750 22200
 00170 11207 20602 3//// 41207 70037 333 91213 555 11111 22118
 31709 40513 61749 167105 062102 058098 057094 059097 058099=
46059 22181 99380 71300 46/// /2504 10200 40206 51013 91750 22200
 00196 11405 20401 3//// 41405 70025 333 91205 555 11044 22048
 31653 42706 61749 247039 252037 262039 274044 261042 268044=
46081 22181 99608 71483 46/// /0208 10085 20077 49912 52025 91750
 22200 00097 10301 20301 70005 333 91209 555 11082 22086 31718
 40210 61749 023078 022077 022078 019081 020081 018076 80209
 91718=
46084 22181 99566 71361 46/// /1709 10108 20075 40018 51012 91750
 22200 00119 11007 20805 300// 41005 70035 333 91211 555 11093
 22098 31745 41711 61749 172085 170061 175055 173059 178061
 186070=
46006 22181 99408 71375 46/// /2012 10214 40078 58007 91750 22200
 00200 11307 20605 3//// 41305 70034 333 91216 555 11134 22145
 31749 42016 61749 197124 198125 199126 201125 201127 198123=
44020 22181 99414 70702 46/// /1504 10200 20199 40197 58008 91750
 22200 00197 10301 70003 333 91205 555 11044 22049 31720 41307
 61749 149041 140048 129055 122057 112052 113043=
46002 22181 99426 71305 46/// ///10 10197 40136 52006 91750 22200
 00188 11306 20703 3//// 41305 70030 333 91212 555 11103 22111=
41004 22181 99325 70791 46/// /3603 10263 20233 40195 58014 91750
 22200 00278 10802 20401 3//// 40801 70008 333 91204 555 11031
 22032 31730 40105 61749 355031 002041 004037 000033 005032
 009034=
44014 22181 99366 70748 46/// /1604 1//// 40213 58005 91750 22200
 00220 10802 20301 309// 40802 70011 333 91205 555 11041 22041
 31736 41505 61749 155041 151043 144042 143042 149033 145030=
41013 22181 99334 70777 46/// /1205 10261 20230 40195 58012 91750
 22200 00270 10802 20401 310// 40802 70009 333 91206 555 11047
 22049 31748 41206 61749 124042 122037 115032 111042 107041
 114046=
41008 22181 99314 70809 46/// /0603 10273 20228 40188 58011 91750
 22200 00274 10602 20401 300// 40602 70009 333 91203 555 11029
 22031 31703 40804 61749 063028 056019 049016 074021 084029
 082031=
44009 22181 99385 70747 46/// /1904 10216 40196 57005 91750 22200
 00211 10602 20401 300// 40601 70008 333 91205 555 11046 22051
 31703 42005 61749 192041 200036 202032 197036 199042 204043=
41048 22181 99320 70696 46/// /1609 10273 20231 40225 58010 91750
 22200 00278 11103 20702 3//// 41102 70014 333 91210 555 11085
 22090 31725 41610 61749 156086 156082 155088 153083 148079 148079
 81509 91728=
####018003570####
SMVD01 KWBC 221800 RRF
BBXX
42035 22181 99292 70944 46/// /0504 10263 20222 40172 50000 91750
 22200 00279 10301 20301 70004 333 91205 555 11042 22043 31715
 40505 61749 050039 051036 054039 054043 053041 049044=
42060 22181 99163 70635 46/// /0908 10290 20242 40149 58014 91750
 22200 00294 10603 20603 300// 41001 70015 333 91209 555 11082
 22087 31741 40810 61749 089077 085079 089070 076076 084070 086071
 80809 91738=
44005 22181 99432 70691 46/// /1803 10176 91750 22200 00148 10801
 20301 3//// 40801 70007 333 91204 555 11040 22048 31713 42005
 61749 183033 198033 208031 198040 197039 200037=
42003 22181 99260 70856 46/// /1804 10284 40149 51003 91750 22200
 00296 10602 20401 312// 40601 70008 333 91205 555 11041 22042
 31654 41606 61749 178039 171040 163040 159045 160042 159045 81605
 91655=
42012 22181 99301 70876 46/// /0405 10237 20224 40175 50004 91750
 22200 00275 10502 20401 314// 40501 70008 333 91206 555 11055
 22057 31746 40306 61749 034053 040047 013038 354043 002032 047017
 80306 91743=
42057 22181 99170 70815 46/// /1006 10291 20256 40136 58009 91750
 22200 00301 10401 20401 70006 333 91207 555 11058 22060 31718
 41007 61749 095055 091055 095058 093063 089061 089060 80907
 91718=
42055 22181 99222 70940 46/// /2903 10291 20230 40146 58007 91750
 22200 00301 10401 20301 304// 40401 70004 333 91204 555 11029
 22030 31745 42904 61749 285026 285025 294021 292023 299023 302025
 82903 91745=
42036 22181 99285 70845 46/// /0507 10259 20228 40166 58005 91750
 22200 00282 10502 20502 70009 333 91209 555 11078 22082 31650
 40409 61749 047073 062062 077068 083067 100068 126076=
42056 22181 99198 70849 46/// /1604 10296 20240 40144 58008 91750
 22200 00303 10301 20301 308// 40501 70005 333 91205 555 11042
 22043 31655 41707 61749 165039 166043 162047 157053 156055 164060
 81606 91657=
42059 22181 99151 70675 46/// /1007 10282 20237 40130 58018 91750
 22200 00297 10502 20502 3//// 41001 70012 333 91212 555 11077
 22081 31703 41213 61749 098078 100071 098069 106061 114076 098067
 81212 91704=
42058 22181 99149 70749 46/// /0707 10293 20249 40117 58020 91750
 22200 00294 10603 20603 312// 41101 70014 333 91208 555 11075
 22079 31748 40808 61749 073069 071063 072064 078067 083064 086067
 80808 91722=
41047 22181 99275 70715 46/// /1107 10276 20254 40199 58013 91750
 22200 00290 10703 20603 313// 40702 70016 333 91209 555 11071
 22074 31730 41213 61749 111071 119094 123094 120089 118087 124085
 81213 91731=
41036 22181 99342 70770 46/// /0000 10262 20220 40198 58017 91750
 22200 00274 10602 20401 312// 40602 70010 333 91202 555 11005
 22005 61749 194010 173041 196040 256025 236007 241001=
42040 22181 99292 70882 46/// /3004 10265 40153 56015 91750 22200
 00278 10603 20401 314// 40602 70013 333 91205 555 11039 22040
 31650 42309 50152 61749 297040 279042 272048 264051 255072 235076
 71745 82308 91651=
41043 22181 99211 70650 46/// /1108 10283 20246 40179 58013 91750
 22200 00283 10804 20603 300// 40803 70019 333 91209 555 11080
 22085 31655 41213 61749 111076 110075 110078 116071 115059 106089
 81110 91653=
42002 22181 99258 70937 46/// /0204 10284 20235 40153 58003 91750
 22200 00300 10501 3//// 40501 70005 333 91206 555 11041 22042
 31749 40306 61749 020040 000028 342018 349027 012016 003013=
42065 22181 99149 70751 46/// /0606 10290 20256 91750 22200 10603
 20602 3//// 40601 70013 333 91208 555 11067 22071 31706 41010
 61749 064066 076062 082060 084055 085069 079050 81009 91706=
####018002629####
SMVD01 KWBC 221800 RRG
BBXX
41044 22181 99217 70587 46/// /1108 10284 20237 40192 56011 91750
 22200 00285 10805 20703 300// 40803 70023 333 91209 555 11081
 22086 31653 41110 61749 114076 112080 111083 108085 108084 111084
 81109 91703=
42020 22181 99270 70967 46/// /0404 10279 20215 40163 50000 91750
 22200 00294 10501 20401 309// 40501 70005 333 91205 555 11041
 22042 31720 40405 61749 037039 041039 037043 043041 045040
 050039=
41049 22181 99275 70630 46/// /1008 10277 20235 40216 58012 91750
 22200 00274 11104 20703 300// 41102 70020 333 91211 555 11089
 22096 31710 41011 61749 095083 092092 091094 093091 094090 094090
 80910 91708=
41001 22181 99347 70727 46/// /1707 10273 20226 40225 58006 91750
 22200 00278 10702 20402 3//// 40702 70012 333 91208 555 11070
 22074 31725 41708 61749 173065 174062 168067 166066 170065
 168066=
41012 22181 99300 70805 46/// /1605 10273 40178 58009 91750 22200
 00286 10702 20501 310// 40702 70011 333 91206 555 11051 22053
 31740 41806 61749 161050 173051 225024 236031 212043 106012=
KEY796 22183 99571 71703 41/97 33116 10050 20028 49984 51/// 725//
 8//// 222// 00072 2//// 3//// 4//// 5//// 6//// 8//// ICE /////=
NWS0001 22184 99570 71642 43/// /3029 10059 20036 49917 5////
 7//// 8//// 222// 04075 2//// 3//// 4//// 5//// 6//// 8//// ICE
 /////=
NWS0022 22184 99377 70715 43/// /2211 10271 20234 40221 5////
 7//// 8//// 222// 04292 2//// 3//// 4//// 5//// 6//// 8//// ICE
 /////=
9V8739 22184 99254 71184 41998 13515 10220 20190 40140 51020 70200
 81/00 22274 00290 2//// 330// 40503 5//// 6//// 80200 ICE /////=
WTEF 22184 99554 71334 41598 31708 10105 20076 40069 57005 70311
 83285 22200 00100 20000 3//// 4//// 5//// 6//// 80090 ICE /////=
SHIP 22181 99449 71510 41298 63111 10115 20065 40029 51010 70122
 8687/ 22234 00143 20604 313// 40603 80090=
4XIS 22183 99327 71405 43698 32110 10230 20195 40200 54000 836//
 22274 20302 330// 40808 80205=
DPLE 22183 99391 70739 41191 82108 10225 20218 40215 51005 71244
 88/// 22244 00200 20301 80220=
WRGD 22184 99319 71265 41498 63611 10210 2016/ 40175 51005 70222
 8467/ 22265 00192 20703 335// 4//04 5//// 6//// 80175 ICE /////=
WDC6925 22184 99373 70602 41698 71811 10260 20186 40255 57025
 70321 8718/ 22263 00270 20402 3//// 4//// 5//// 6//// 80210 ICE
 /////=
WSLH 22183 99322 71383 41498 83304 10220 2018/ 40200 54000 70222
 884// 22255 00180 21001 329// 40807 5//// 6//// 80195 ICE /////=
J8NW 22183 99233 70742 439// 32912 10290 2025/ 40152 5//// 7////
 833// 22233 00260 20806 30909 41210 51104 6//// 80260 ICE /////=
####018000255####
SMVD11 KWBC 221800
BBXX
DQXQ 22184 99136 71021 41298 82711 10275 20239 40125 58005 76262
 889// 22244 00280 20602 318// 40804 80250=
A8FR5 22183 99075 70874 41398 73405 10250 20235 40130 50010 70198
 86743 22223 04276 2//01 332// 40603 80240=
####018002301####
SMVD80 KWBC 221800 RRA
BBXX
CG2350 22184 99465 70845 46/// /2609 10127 20090 40167 51012 7////
 8//// 22232 00177 2////=
CG2960 22184 99453 70800 46/// /2308 10179 20123 40183 53011 7////
 8//// 22200 0//// 2////=
45026 22181 99420 70866 46/// /2307 10157 20094 91800 22200 00190
 10402 70010 333 91209=
45002 22181 99453 70864 46/// /2905 10114 20062 39968 40181 52009
 91750 22200 10601 20401 318// 40601 70007 333 91206 555 11050
 22053 31654 42907 61749 289047 283044 293045 291048 292050
 292051=
45012 22181 99436 70774 46/// /2705 10196 30085 40175 51007 91750
 22200 00193 10201 20301 70003 333 91206 555 11052 22056 31706
 42807 61749 271048 269046 263041 273047 277054 274051=
45025 22181 99470 70884 46/// /2703 10103 20075 40160 54000 91800
 22200 00159 10201 70003 333 91205=
45008 22181 99443 70824 46/// /2407 10166 39967 40179 51010 91750
 22200 00176 10402 20402 70008 333 91209 555 11076 22080 61749
 239073 238072 239075 237073 238076 236073=
45006 22181 99473 70898 46/// /3606 10086 39958 40181 53010 91750
 22200 00109 10402 20402 70008 333 91207 555 11060 22062 31730
 43509 61749 357058 352064 349066 353064 353062 352064=
45003 22181 99454 70828 46/// /2304 10148 39957 40170 51010 91750
 22200 00141 10501 20401 317// 40501 70006 333 91204 555 11039
 22045 31658 42305 61749 230035 226032 233034 242038 242037
 237039=
45007 22181 99427 70870 46/// /2606 10142 20094 39975 40188 51008
 91750 22200 00180 10401 20401 70006 333 91207 555 11059 22062
 31652 42608 61749 255057 246053 250054 258053 273057 264062=
45001 22181 99481 70878 46/// /0205 10098 39945 40167 51014 91750
 22200 00123 10401 20401 70006 333 91206 555 11050 22052 61749
 021048 013054 007054 015048 019050 022046=
45005 22181 99417 70824 46/// /2905 10187 39986 40193 52005 91750
 22200 00199 1//00 70001 333 91206 555 11050 22052 31741 43006
 61749 295049 296048 292042 259031 246028 239030=
45004 22181 99476 70866 46/// /3103 10101 39934 40157 51011 91750
 22200 00126 10401 20401 300// 40401 70007 333 91204 555 11026
 22026 31651 43305 61749 308025 301024 320030 328033 323037
 325040=
VDRV 22184 99418 70822 41/97 62907 10023 2//// 43432 51020 70202
 8//// 22213 00210 2//01 3//// 4//// 5//// 6//// 8//// ICE /////=
####018000905####
SMVE01 KWBC 221800 RRA
BBXX
VRZN9 22184 99259 51718 41498 62009 10175 2015/ 40130 5//// 70211
 86847 22213 00238 21005 32020 41205 51205 6//// 80160 ICE /////=
A8IP4 22183 99206 51549 41/97 83616 10260 20232 40150 51010=
BATFR43 22184 99179 51535 46/// /0510 10255 20220 40157 52017
 22264 00269=
BATFR56 22184 99088 30745 44597 61222 10252 20244 40124 58003
 70200 85423 22213 04272 20608 30912 40608 50404=
BATFR36 22184 99173 51455 46/// /0815 10254 20182 40181 22221
 04267=
BATEU07 22184 99231 31104 46/// /1520 10197 20144 40210 57010
 22283=
BATFR59 22184 99198 31655 46/// /1416 10224 20157 40158 53003
 22211 04245=
A8CF3 22184 99133 31549 41497 61326 10265 20258 40100 57/// 70322
 86878 22244 21007 310// 40907 5//// 80260=
V7QX2 22184 99013 11042 41597 42310 10260 2025/ 40110 54000 7////
 848// 22251 00290 20800 3//// 4//// 5//// 6//// 80250 ICE /////=
####018000160####
SMVJ01 KWBC 221800
BBXX
WCX7445 22184 99647 50640 43/// /1001 11090 2//// 49976 5////
 7//// 8//// 22200 01017 2//// 3//// 4//// 5//// 6//// ICE /////=
####018000835####
SMVF01 KWBC 221800 RRA
BBXX
VAAZ 22184 99642 70219 46/// /3106 10100 20057 49977 58003 7////
 8//// 22200 0//// 2////=
62086 22181 99550 10063 46/// /2711 10134 20079 40146 52010 22270
 00157=
DBND 22181 99543 10101 46/// /2302 10133 20082 40155 52010 22210
 00144=
DBCK 22181 99545 10077 46/// /2813 10144 20090 40147 57004 22202
 00159=
DBBI 22181 99535 10100 46/// /2806 10145 20080 40164 52007 22210
 00165=
VRYO3 22184 99514 10043 46/// /2708 10152 20101 40205 55000 7////
 8//// 22222 00185 2////=
UCSJ 22181 99683 10403 41596 80901 10080 40142 57019 72022 8852/
 22261 20201=
DK7210 22181 99540 10066 46/// /2711 10145 20099 30146 222// 20805
 70025=
9HA2583 22184 99357 10275 41/98 /3325 10232 20163 40080 5////
 702// 8//// 22274 00281 20502 3//// 40702 5//// 6//// 80187 ICE
 /////=
####018000126####
SMVA10 EHDB 221800 RRA
BBXX
UBXS 22181 99222 70173 41997 00207 10220 40153 57070 70200 80000
22212 04202 20000 30000=
####018000132####
SMVB10 EHDB 221800 RRA
BBXX
PHPP 22184 99060 10918 41498 31917 10270 20236 40105 58012 70000
83115 22263 00290 20508 80245=
####018000138####
SMVF10 EHDB 221800 RRA
BBXX
PBFM 22183 99439 70146 41698 31516 10196 20097 40219 54000 70111
82142 22214 04220 20501 330// 41004=
####018000145####
SMVA10 EHDB 221800 RRB
BBXX
A8CS2 22183 99331 30285 41598 40315 10200 20167 40220 54000 70211
84445 22254 20903 321// 41207 5//// 80180=
####018000138####
SMVE10 EHDB 221800 RRA
BBXX
PCQL 22183 99130 31278 41/98 /2210 10265 20245 40105 56005 70200
8//// 22253 04251 299// 30000 80250=
####018000114####
SMVF10 EHDB 221800 RRE
BBXX
SKUN 22183 99488 70310 43/97 52628 10151 40041 58009 22253 00141
2//// 4////=
####018000151####
SMVF10 EHDB 221800 RRD
BBXX
MDTE9 22184 99680 10097 41398 41506 10115 20095 49944 57005 70111
8257/ 22253 00110 20402 32115 41004 51003 80105=
####018000151####
SMVF10 EHDB 221800 RRB
BBXX
2AKI2 22183 99338 10243 41598 33514 10244 20168 40097 52010 70211
832// 22254 00263 2//// 3//// 4//// 5//// 80197=
####018000114####
SMVF10 EHDB 221800 RRC
BBXX
UHOM 22181 99720 10331 41697 51708 10080 40151 54000 70222 8413/
22231 20402=
####018000132####
SMVA10 EHDB 221800 RRC
BBXX
PDHO 22183 99175 10577 41997 02318 10252 20233 40099 53020 70200
80000 22265 00265 20404 80238=
####018000127####
SMVE10 EHDB 221800 RRB
BBXX
ELUC5 22184 99136 51373 41998 01216 10265 20215 40168 50013 7//00
80000 22264 20301 80230=
####018000151####
SMVC10 EHDB 221800 RRA
BBXX
A8SF7 22181 99001 50984 41898 71807 10240 20188 40148 58012 70322
8/076 22214 00190 2//// 314// 4//03 5//// 80205=
####018000127####
SMVC10 EHDB 221800 RRB
BBXX
OWFD2 22181 99039 70802 41/98 52604 10300 20260 40115 58020 70211
8//// 22244 201// 80270=
####018000650####
SMVF11 ENMI 221800
BBXX
LAHV 22181 99809 10179 41x06 92503 10013 20005 40156 74444 222//
      04038 10301=
LDGJ 22181 99774 10325 43/// /1605 10022 20008 40182 5//// 222/2
      04032 1//// 3//// 4//// 5////=
LF4H 22184 99596 10022 46/// /2621 10116 20071 40045 52014 8////
      22200 06126 10706 70031 333 91129=
LGWS 22181 99339 30184 43/// /2204 10154 20050 40269 5//// 222/0
      04129 1//// 3//// 4//// 5////=
LJIT 22181 99744 10144 43/// /1110 10073 20053 40085 5//// 222/0
      04078 1//// 3//// 4//// 5////=
LMEL 22181 99679 10098 43/// /0707 10116 20074 49938 5//// 222/0
      04119 1//// 3//// 4//// 5////=
####018001649####
SMXX16 KAWN 221800 RRA
BBXX
46001 22181 99563 71480 46/// /1907 10104 49886 53011 91750 22200
 00101 10905 20603 300// 40905 70026 333 91208 555 11074 22080
 31740 41909 61749 187069 189067 190068 181070 177069 176063=
46012 22181 99374 71229 46/// /3006 10121 40156 51011 91750 22200
 00142 11507 20502 329// 41507 70035 333 91207 555 11060 22062
 31722 43108 61749 304058 309059 312061 313060 317060 317058=
46026 22181 99378 71228 46/// /0000 10121 40155 52010 91750 22200
 00141 11605 20401 329// 41605 70026 333 91201 555 11001 22001
 31721 43002 61749 003001 197003 270007 270002 180000 180001=
46029 22181 99461 71245 46/// /1708 10152 20152 40155 52010 91750
 22200 00146 11507 20603 331// 41507 70036 333 91210 555 11087
 22094 31738 41710 61749 171080 174082 176080 178078 176083
 177079=
46042 22181 99368 71224 46/// /3307 10130 30153 40153 51010 91750
 22200 00144 11607 20502 330// 41607 70037 333 91209 555 11069
 22072 31650 43309 61749 330065 323061 329066 334064 332067
 320064=
CG2958 22184 99487 71235 46/// /1105 10158 20157 40145 51009
 7//// 8//// 22200 0//// 2////=
CG2965 22184 99489 71235 46/// /1112 10144 20142 40130 55000
 7//// 8//// 22241 00124 2////=
CGBR 22184 99534 71293 46/// /3008 10110 20091 40082 56012 7////
 8//// 22200 0//// 2////=
CGBY 22184 99505 71280 46/// /0000 10112 20110 40085 58004 7////
 8//// 22271 00145 2////=
CGDR 22184 99552 71313 46/// /1415 10122 20095 40053 58017 7////
 8//// 22231 00135 2////=
WCAJ 22184 99507 71320 41498 81722 10156 20095 40015 57015 70282
 81407 22233 00139 20602 327// 41205 5//// 6///0 80122 ICE 0/0//=
####018000166####
SMVD21 KHAF 221800
BBXX VRBL4 22183 99038 70271
41197 62013 10270 2024/
40130 56015 78055 857//
22253 00290 20402 318// 40603
5//// 6//// 80250 ICE /////
####018000107####
SMVF11 LFPW 221800
BBXX
BATUK01 22184 99606 70007 46/// /2828 10110 20062 40021 52007
22251 04124=
####018000111####
SMVX01 EDZW 221800
BBXX
DBLK 22181 99784 11258 41394 83606 11041 21058 40114 58001
77387 22220 04014 =
####018000363####
SMYG21 LYBM 221800
AAXX 22181
13067 32997 02902 10200 20162 30044 40168 53003 333 10252=
13183 32960 23501 10181 20136 30066 40167 53006 80001 333 10254=
13279 32997 33101 10182 20146 30027 40169 53005 80001 333 10249=
13295 32998 12602 10221 20128 30099 40151 52010 81030 333 10286=
13367 32598 60000 10128 20106 39023 48529 53006 86500 333 10171=
####018000535####
SMYG22 LYBM 221800
AAXX 22181
13168 32998 02701 10184 20152 30065 40168 52001 333 10250=
13174 32998 02502 10194 20148 30069 40166 53006 333 10259=
13269 32997 00201 10184 20151 39967 40173 53002 333 10238=
13274 32997 03201 10211 20144 30016 40170 53005 333 10249=
13278 32998 00000 10178 20154 39950 40167 55000 333 10241=
13378 32997 00904 10074 20060 38307 48534 52005 333 10120=
13397 32998 00901 10160 20090 39637 40158 52012 333 10251=
13457 32970 00000 10209 20160 30128 40135 52006 333 10283=
13481 NIL=
####018000486####
SMYG23 LYBM 221800
AAXX 22181
13173 32998 02902 10184 20155 30072 40169 53004 333 10252=
13180 32997 02902 10186 20177 30058 40165 53004 333 10260=
13266 32998 00101 10183 20141 30074 40172 53005 333 10250=
13369 32698 12802 10125 20088 39006 48501 53006 81500 333 10186=
13383 32998 01701 10182 20157 39969 40165 53010 333 10242=
13384 32998 13601 10174 20150 30022 40168 53007 81030 333 10247=
13389 32998 03501 10183 20134 39885 40156 53011 333 10256=
13477 NIL=
####018000127####
SMVF22 EIDB 221800
BBXX
62023 22183 99514 70079 46/96 /2314 10132 2//// 40210 5////
22200 10503 70013 555 70022 81007=
####018000484####
SMVF11 BIRK 221800
BBXX
TFBKF 22184 99635 70202 46/// ///// 22200 10702 70010=
TFDRN 22184 99658 70212 46/// ///// 22200 10804 70020=
TFGRS 22184 99663 70182 46/// ///// 22200 10806 70032=
TFGRV 22184 99638 70225 46/// ///// 22200 10802 70012=
TFHFN 22184 99642 70152 46/// ///// 22200 10703 70014=
TFKGR 22184 99657 70136 46/// ///// 22200 10503 70017=
TFSRT 22184 99633 70203 46/// ///// 22200 10803 70016=
TFSTD 22184 99664 70234 46/// ///// 22200 10807 70037=
####018000035####
SMVX01 VCCC 221800
BBXX
NIL=
####018000131####
SMVF11 LFPW 221800
BBXX
DDYZ2 22184 99369 10018 41398 32103 10232 20200 40185 52010 70300
82116
22265 04240 20401 80210=
####018000137####
SMVA11 LFPW 221800
BBXX
ELZX2 22184 99319 30018 41398 31208 10180 20127 40340 52005 70200
83109
22264 20301 318// 41203 80150=
####018000160####
SMVB11 LFPW 221800
BBXX
KSDF 22184 99301 11455 41397 82213 10256 20239 40098 54000 76052
8629/
22213 0//// 20302 322// 40705 5//// 6//// 80244 /////=
####018000143####
SMVA11 LFPW 221800
BBXX
C6OM8 22180 99091 50022 41698 71311 10205 20189 40147 58005 76022
8592/
22273 20202 314// 40504 5//// 80195=
####018000145####
SMVF11 LFPW 221800
BBXX
TBWUK49 22183 99386 70106 41598 53622 10189 20161 40199 58010 7////
83304
22244 00201 2//04 301// 42004 80172=
####018000130####
SMVA11 LFPW 221800
BBXX
DQVO 22184 99185 10387 41997 00711 10298 20265 40070 52012 70200
80000
22273 00319 20201 80273=
####018000142####
SMVF11 LFPW 221800
BBXX
PHEC 22183 99387 70114 41598 63610 10200 20163 40197 57010 70311
86842
22283 00213 2//// 336// 41005 80176=
####018000115####
SMVX40 KAWN 221800 RRA
BBXX
DBLK 22181 99784 11258 41394 83606 11041 21058 40114 58001 77387
 22220 04014=
####018001539####
SMVE01 AMMC 221800
BBXX
VRAE4 22184 99344 31738 41397 50914 10139 20126 40129 52004 70161
8286/ 22273 04150 20401 327// 40701 80132=
VNSZ 22174 99385 31447 46/// /2645 10132 20075 30069 40095 52062
22275 04138 85101=
9HA2479 22174 99080 31157 46/// /1725 10259 20205 30092 40121 57028
22273 04275 85221=
C6FS9 22174 99348 31385 46/// /2118 10129 20071 30174 40211 52005
22200 04173 85098=
C6FS9 22164 99348 31385 46/// /2209 10131 20075 30173 40210 52009
22200 04173 85101=
VROB 22164 99108 31478 46/// /1421 10253 20226 30091 40116 57023
22273 04255 85234=
VNAH 22164 99383 31416 46/// /2521 10120 20034 30130 40154 52046
22200 85078=
VNAH 22174 99383 31416 46/// /2520 10113 20029 30133 40157 52032
22200 04148 85073=
9HA2479 22164 99082 31158 46/// /1925 10252 20212 30102 40131 57018
22283 04275 85224=
ZCBU6 22164 99203 51494 41/98 11215 10215 20183 40190 57012 70200
8000/ 22273 00222 20302 312// 40303 5//// 80195=
VROB 22174 99106 31476 46/// /1422 10254 20224 30085 40110 57021
22273 04256 85232=
FHZI 22174 99429 31473 46/// /3207 10138 20051 39940 49951 57013
22200 04122 85093=
FHZI 22164 99429 31473 46/// /3209 10151 20082 39940 49951 57039
22200 04122 85113=
VNJC 22163 99250 31132 41998 01828 10195 20170 40196 58003 70200
80000 22241 29903 30000 80180=
ZM2619 22183 99442 31759 41/96 62309 10094 20090 40181 54000 70222
22262 29901 313// 40701 80092=
V2OG2 22183 99228 31067 41597 52112 10214 20135 40220 58008 70322
84470 22273 20502 323// 40805 80168=
####018001542####
SMVE01 AMMC 221800
BBXX
VRAE4 22184 99344 31738 41397 50914 10139 20126 40129 52004 70161
8286/ 22273 04150 20401 327// 40701 80132=
VNSZ 22174 99385 31447 46/// /2645 10132 20075 30069 40095 52062
22275 04138 85101=
9HA2479 22174 99080 31157 46/// /1725 10259 20205 30092 40121 57028
22273 04275 85221=
C6FS9 22174 99348 31385 46/// /2118 10129 20071 30174 40211 52005
22200 04173 85098=
C6FS9 22164 99348 31385 46/// /2209 10131 20075 30173 40210 52009
22200 04173 85101=
VROB 22164 99108 31478 46/// /1421 10253 20226 30091 40116 57023
22273 04255 85234=
VNAH 22164 99383 31416 46/// /2521 10120 20034 30130 40154 52046
22200 85078=
VNAH 22174 99383 31416 46/// /2520 10113 20029 30133 40157 52032
22200 04148 85073=
9HA2479 22164 99082 31158 46/// /1925 10252 20212 30102 40131 57018
22283 04275 85224=
ZCBU6 22164 99203 51494 41/98 11215 10215 20183 40190 57012 70200
8000/ 22273 00222 20302 312// 40303 5//// 80195=
VROB 22174 99106 31476 46/// /1422 10254 20224 30085 40110 57021
22273 04256 85232=
FHZI 22174 99429 31473 46/// /3207 10138 20051 39940 49951 57013
22200 04122 85093=
FHZI 22164 99429 31473 46/// /3209 10151 20082 39940 49951 57039
22200 04122 85113=
VNJC 22163 99250 31132 41998 01828 10195 20170 40196 58003 70200
80000 22241 29903 30000 80180=
ZM2619 22183 99442 31759 41/96 62309 10094 20090 40181 54000 70222
22262 29901 313// 40701 80092=
V2OG2 22183 99228 31067 41597 52112 10214 20135 40220 58008 70322
84470 22273 20502 323// 40805 80168=

####018000030####
SMVJ01 AMMC 221800
NIL

####018000030####
SMVC01 AMMC 221800
NIL

####018000146####
SMVF01 AMMC 221800
BBXX
PBLQ 22183 99425 70162 41598 80904 10200 20086 40227 56005 70122
885// 22213 00194 20000 33401 41004 50802 80140=
####018000408####
SMVB01 AMMC 221800
BBXX
SHIP 22184 99108 11018 41398 72024 10270 20241 40085 58010 70322
8/7// 22273 04290 20402 80250=
VNVR 22174 99180 11269 46/// /1116 10259 20253 30038 40067 57021
22243 04296 85254=
VNVR 22164 99183 11269 46/// /0716 10280 20252 30046 40075 57016
22243 04294 85259=
ZCAS2 22183 99264 11262 41698 23610 10250 20151 40112 56002 70200
82100 22283 00283 20401 80190=

####018000147####
SMVD01 AMMC 221800
BBXX
A8UL4 22184 99315 71413 41498 50000 10238 20173 40200 53005 70222
85500 22224 00250 20000 331// 41005 5//// 80195=
####018000030####
SMVA01 AMMC 221800
NIL

