####018000552####
SIVF21 ENMI 220900
BBXX
LDGJ 22091 99774 10295 43/// /1207 10028 20018 40203 5//// 222/2
      04028 1//// 3//// 4//// 5////=
LF4H 22094 99596 10022 46/// /2519 10113 20066 40001 52029 8////
      22200 06126 10707 70034=
LGWS 22091 99339 30184 43/// /3203 10169 20073 40242 5//// 222//
      04135 1//// 3//// 4//// 5////=
LJIT 22091 99760 10145 43/// /1207 10050 20043 40127 5//// 222/0
      04028 1//// 3//// 4//// 5////=
LMEL 22091 99678 10096 43/// /0913 10126 20071 49951 5//// 222/0
      04117 1//// 3//// 4//// 5////=
####018000107####
SIVF30 LFPW 220900
BBXX
BATUK01 22094 99602 70011 46/// /2612 10119 20062 49988 53034
22200 04124=
####018000117####
SIVF30 LFPW 220900
BBXX
61002 22094 99421 10047 46/// /3516 10204 20150 40186 52008
22200 00213 10301 70007=
####018000117####
SIVF30 LFPW 220900
BBXX
61001 22094 99434 10078 46/// /1105 10201 20179 40162 52006
22200 00216 10501 70005=
####018000108####
SIVX21 EUMS 220900 RRM
BBXX
DBCK 22091 99540 10080 46/// /2814 10152 20079 40130 52026
22242 00161=
####018000108####
SIVX21 EUMS 220900 RRL
BBXX
DBBI 22091 99535 10100 46/// /2508 10149 20117 40140 52012
22220 00162=
####018000108####
SIVX21 EUMS 220900 RRK
BBXX
DBND 22091 99543 10101 46/// /2303 10126 20115 40124 52009
22240 00143=
####018000105####
SIVX22 EDZW 220900
BBXX
62086 22091 99550 10063 46/// /2712 10138 20087 40116 52019
22270 00157=
####018000117####
SIVD30 LFPW 220900
BBXX
41101 22094 99146 70562 46/// /0717 10282 20240 40126 52002
22200 00285 10704 70021=
####018000124####
SIVD02 CWAO 220900
BBXX
VOFG 22094 99693 70811 41/// /1514 10006 20005 40063 51041 75322 82/// 22262 00017 20901 =

####018000087####
SIVX19 LFVW 220900
BBXX
MINFR00 2209/ 99321 70796 46/// ///// 10258 40183 57009=
####018000541####
SIVF11 BIRK 220900
BBXX
TFBKF 22094 99635 70202 46/// ///// 22200 10702 70011=
TFBLK 22094 99657 70248 46/// ///// 22200 10706 70029=
TFDRN 22094 99658 70212 46/// ///// 22200 10704 70019=
TFGRS 22094 99663 70182 46/// ///// 22200 10806 70029=
TFGRV 22094 99638 70225 46/// ///// 22200 10802 70012=
TFHFN 22094 99642 70152 46/// ///// 22200 10803 70015=
TFKGR 22094 99657 70136 46/// ///// 22200 10504 70019=
TFSRT 22094 99633 70203 46/// ///// 22200 10703 70016=
TFSTD 22094 99664 70234 46/// ///// 22200 10706 70031=
####018000446####
SIYG23 LYBM 220900
AAXX 22091
13173 32997 02904 10214 20163 30090 40186 51003=
13180 31696 32901 10198 20193 30082 40188 51005 71021 83500=
13266 32697 12702 10208 20149 30093 40190 50005 81200=
13369 32598 40203 10156 20106 39013 48512 50001 84800=
13383 32697 53103 10194 20144 39989 40185 50003 85500=
13384 32698 73202 10194 20153 30043 40188 51006 87500=
13389 32597 50000 10196 20131 39897 40167 54000 85800=
13477 NIL=
####018000343####
SIYG21 LYBM 220900
AAXX 22091
13067 31996 02502 10209 20154 30061 40185 51002 71000=
13183 41540 41902 10198 20156 30090 40189 50007 71011 84600 333
84720=
13279 31596 50901 10206 20150 30046 40187 50000 71022 85800=
13295 32697 12101 10246 20162 30117 40168 58004 81200=
13367 31/93 90201 10124 20121 39031 48536 51008 74344=
####018000590####
SIYG20 LYBM 220900
AAXX 22091
13160 32997 03003 10215 20155 30082 40186 50001=
13262 32697 32901 10200 20139 30050 40192 58002 83800=
13272 31358 22502 10203 20147 30074 40189 50004 71001 82600 333
82708=
13285 31696 82702 10190 20164 30089 40188 53004 71022 885//=
13289 31498 33602 10156 20099 39013 48533 51003 70340 83200=
13376 31696 83601 10175 20148 39942 40195 51003 71022 885//=
13388 32697 33603 10212 20151 39939 40176 50002 83500=
13462 42970 00304 10259 20087 30104 40142 58004=
13473 NIL=
13489 31596 30302 10201 20113 39663 40158 56003 71000 82840=
####018000513####
SIYG22 LYBM 220900
AAXX 22091
13168 31996 02901 10210 20157 30086 40189 51001 71000=
13174 31996 02502 10209 20162 30085 40182 51005 71000=
13269 31696 42901 10198 20161 39985 40191 51004 71022 84800=
13274 31996 02702 10204 20157 30035 40190 50002 71000=
13278 32697 83501 10188 20156 39975 40192 51002 885//=
13378 32397 60303 10094 20086 38308 48537 51009 86800 333 91108=
13397 32598 33203 10202 20086 39644 40158 50001 83800=
13457 32970 00000 10273 20071 30133 40140 50002=
13481 NIL=
####018000107####
SNVD15 KWNB 220800 RRX
BBXX
41038 22081 99341 70777 46/// /1803 10248 40184 58012 90800 333
91204=
####018000135####
SIVX21 EDZW 220900
BBXX
DBLK 22091 99784 11254 41499 50210 11010 21067 40088 52012
71582 84261 22200 04014 20503 330// 40703 =
####018000127####
SIVF22 EIDB 220900
BBXX
62023 22093 99514 70079 46/96 /2620 10139 2//// 40215 5////
22200 10503 70017 555 70030 80000=
####018001177####
SIVE21 AMMC 220900
BBXX
VNSZ 22074 99412 31464 46/// /0605 10140 20106 30056 40082 57030
22200 04125 85120=
VNSZ 22094 99412 31464 46/// /1606 10132 20110 30034 40060 57028
22200 04127 85119=
C6FS9 22074 99348 31385 46/// /2508 10201 20124 30085 40121 52022
22200 04174 85154=
VNAH 22074 99383 31416 46/// /2914 10219 20056 30022 40045 57011
22200 04148 85130=
VROB 22074 99127 31487 46/// /1419 10257 20217 30102 40127 57004
22273 04257 85229=
FHZI 22074 99429 31473 46/// /3607 10211 20053 30019 40029 57027
22200 04122 85126=
9HA2479 22074 99088 31152 46/// /1806 10269 20207 30088 40117 57023
22200 04266 85225=
VNSZ 22084 99412 31464 46/// /1504 10138 20109 30049 40075 57025
22200 04126 85121=
C6FS9 22084 99348 31385 46/// /2216 10167 20125 30112 40149 52049
22200 85142=
VROB 22084 99125 31486 46/// /1322 10257 20218 30105 40130 52004
22273 04257 85229=
VNAH 22084 99383 31416 46/// /3413 10214 20066 30016 40039 57002
22200 04149 85132=
FHZI 22084 99429 31473 46/// /3609 10195 20072 30016 40027 57019
22200 04122 85127=
9HA2479 22084 99088 31152 46/// /1708 10256 20198 30086 40115 57016
22200 04267 85215=

####018000030####
SIVD21 AMMC 220900
NIL

####018000030####
SIVA21 AMMC 220900
NIL

####018000030####
SIVC21 AMMC 220900
NIL

####018000030####
SIVF21 AMMC 220900
NIL

####018000030####
SIVJ21 AMMC 220900
NIL

####018000207####
SIVB21 AMMC 220900
BBXX
VNVR 22074 99205 11268 46/// /0515 10276 20214 30053 40082 57017
22243 04291 85231=
VNVR 22084 99203 11268 46/// /0420 10276 20219 30046 40075 57017
22243 04293 85235=

####018000030####
SING22 AMMC 220900
NIL

####018000088####
SNVX19 LFVW 220800 RRE
BBXX
FLAO 2208/ 99764 70829 46/// ///// 11038 40118 57007=
####018000151####
SIVD10 EHDB 220900 RRB
BBXX
A8IP2 22093 99250 70627 41597 60919 10255 20250 40197 55002 70322
86778 22254 06270 20503 309// 40803 5//// 80251=
