####018000067####
SNAL57 EUMS 220500
AAXX 22054
60691 46/// /0414 10280 21019=
####018000125####
SNVD17 CWVR 220500
BBXX
46147 22051 99518 71312 46/// /2306 10166 40087 5////
22200 00121 11311 70055 333 91208 =

####018000131####
SNVD17 CWTO 220500
BBXX
45135 22051 99438 70769 46/// /1708 10197 30064 40153 57006
22200 00184 10401 70007 333 91209 =

####018000125####
SNVD17 CWVR 220500
BBXX
46145 22051 99544 71324 46/// /1909 10112 40040 52015
22200 00116 11205 70025 333 91211 =

####018000404####
SNVD45 KWNB 220500 RRH
BBXX
45027 22051 99469 70919 46/// /3302 10065 20036 39953 40177 90440
22200 00084 333 91204=
45027 22051 99469 70919 46/// /3602 10064 20037 39954 40177 90450
22200 00085 333 91203=
45028 22051 99468 70918 46/// /1107 10070 20048 39943 40166 90440
22200 00091 333 91210=
45028 22051 99468 70918 46/// /2108 10071 20050 39943 40166 90450
22200 00091 333 91210=
####018000131####
SNVD17 CWTO 220500
BBXX
45132 22051 99425 70812 46/// /2308 10200 39940 40145 52001
22200 00189 10401 70007 333 91210 =

####018000125####
SNVD17 CWVR 220500
BBXX
46131 22051 99499 71250 46/// /1706 1//// 40115 57006
22200 00141 10401 70003 333 91207 =

####018000131####
SNVD17 CWTO 220500
BBXX
45152 22051 99462 70797 46/// /2407 10174 39887 40120 52013
22200 00173 10200 70002 333 91208 =

####018000226####
SNVB20 RJTD 220500
BBXX
JGQH    22054 99351 11537
46/// /1923 10270 20234 40130 58016 8////
22211 00271 10806 70028=
JGQH    22054 99351 11537
46/// /1923 10270 20234 40130 58016 8////
22211 00271 10806 70028=
####018000124####
SNVD17 CWVR 220500
BBXX
46204 22051 99514 71288 46/// /1506 10130 40110 52015
22200 00133 11408 70041 333 91207=

####018000131####
SNVD17 CWTO 220500
BBXX
45137 22051 99455 70810 46/// /2502 10160 39920 40131 52025
22200 00157 10501 70007 333 91202 =

####018000227####
SNVX22 EGRR 220500
BBXX
A8KC5 22053 99217 30571 41698 40710 10250 20204 40215 55015 70200
84464 22212 04240 20402 30000 4//// 5//// 80220=
AMOUK15 22054 99144 50075 46/// ///// 10185 20164 30154 40186
 57007 90450=
####018000280####
SNVD01 KWBC 220400 RRO
BBXX
42021 22041 99283 70833 46/// /1206 10280 40162 51016 90400 22200
 00293 333 91207=
42021 22041 99283 70833 46/// /1107 10278 40162 90420 22200 00293
 333 91207=
44055 22041 99391 70753 46/// ///// 1//// 90430 22200 00210 1//00
 70002=
####018000127####
SNVB01 KWBC 220500 RRB
BBXX
JGQH 22054 99351 11537 46/// /1923 10270 20234 40130 58016 8////
 22211 00271 10806 70028=
####018000368####
SNVD22 KWNB 220500 RRX
BBXX
46088 22051 99483 71232 46/// /2002 10113 40123 90520 22200 00106
1//00 70001 333 91203 555 11020 22024 30519 42203 60519 197015
153012 222015 215012 174005 145004=
46087 22051 99485 71247 46/// /1102 10134 20134 40123 90520 22200
00108 333 91203 555 11022 22026 30436 41007 60519 104019 101026
099035 098038 099048 100043=
####018000236####
SNVD01 KWBC 220500 RRI
BBXX
46110 22051 99481 71230 46/// /1203 10127 40127 51007 90500=
46112 22051 99481 71227 46/// /0404 10127 40126 51008 90500=
46111 22051 99481 71227 46/// /0603 10143 40126 51008 90500 22200
 00103=
####018000425####
SNVD01 PANC 220500 RRD
BBXX
ZCDG7 22054 99393 71245
41/93 /3329 10135 20135 40202 57009 74544 8////
22245 00130 20303 326// 40405 5//// 80135=
WTEB 22054 99577 71525
43/// /0200 10095 20085 49803 5//// 7//// 8////
222// 0//// 2//// 3//// 4//// 5//// 6//// 8//// ICE /////=
H3VR 22053 99168 70874
41998 00612 10290 2022/ 40120 54000 7//00 80///
22273 04302 2//// 3//// 4//// 5//// 6//// 85240 ICE /////=
####018000170####
SNVD15 KWNB 220400 RRX
BBXX
42392 22041 99272 70900 46/// ///// 1//// 90420 22200 10402 70008=
42887 22041 99282 70885 46/// /0103 10255 90420 22200 10602 70011=
####018000377####
SNVD20 KWNB 220500 RRO
BBXX
44029 22051 99425 70706 46/30 /1603 10176 40222 57003 90504 22200
00167 10301 70004 333 91204 555 11042 22048=
44030 22051 99432 70704 46/30 /1906 10173 40222 57003 90504 22200
00164 10401 70005 333 91207 555 11071 22078=
44032 22051 99437 70694 46/30 /1705 10166 40226 56007 90504 22200
00159 10801 70006 333 91206 555 11064 22071=
####018003696####
SNVD01 KWBC 220500 RRH
BBXX
46204 22051 99514 71288 46/// /1506 10130 40110 52015 22200 00133
 11408 70041 333 91207=
46131 22051 99499 71250 46/// /1706 1//// 40115 57006 22200 00141
 10401 70003 333 91207=
46145 22051 99544 71324 46/// /1909 10112 40040 52015 22200 00116
 11205 70025 333 91211=
46147 22051 99518 71312 46/// /2306 10166 40087 5//// 22200 00121
 11311 70055 333 91208=
46088 22051 99483 71232 46/// /2002 10113 40123 90520 22200 00106
 1//00 70001 333 91203 555 11020 22024 30519 42203 60519 197015
 153012 222015 215012 174005 145004=
41029 22051 99328 70796 46/// ///01 10260 90500 555 11012 22013=
44039 22051 99411 70727 46/// /1404 10211 20205 40231 58011 90500
 22200 00213 1//00 70002 333 91205=
44060 22051 99413 70721 46/// ///03 10192 40224 90515 22200 00199
 333 91204 555 11031 22031=
44022 22051 99409 70737 46/// /1501 10205 20197 40212 90515 22200
 00209 333 91202 555 11015 22015=
44098 22051 99428 70702 46/// ///// 1//// 90507 22200 00170 10901
 20901 70007=
41115 22051 99184 70673 46/// ///// 1//// 90505 22200 11101 21001
 335// 41101 70007=
42362 22051 99278 70907 46/// /0905 10278 20222 90515=
41114 22051 99276 70802 46/// ///// 1//// 90516 22200 00286 11102
 21002 306// 41101 70012=
42364 22051 99291 70881 46/// /1107 10261 20228 40163 90515=
41037 22051 99340 70775 46/// /1906 10269 40187 58005 90500 333
 91207=
42363 22051 99282 70892 46/// /0809 10267 20217 40166 90530 333
 91209=
42363 22051 99282 70892 46/// /0808 10267 20217 40169 90515 333
 91209=
42362 22051 99278 70907 46/// /0905 10278 20217 90500=
46221 22051 99339 71186 46/// ///// 1//// 90445 22200 00190 11401
 21001 321// 41401 70007=
H3VR 22053 99168 70874 41998 00612 10290 2022/ 40120 54000 7//00
 80/// 22273 04302 2//// 3//// 4//// 5//// 6//// 85240 ICE /////=
46211 22051 99469 71242 46/// ///// 1//// 90506 22200 00136 11406
 20904 328// 41404 70028=
46216 22051 99343 71198 46/// ///// 1//// 90457 22200 00167 11102
 21001 326// 41101 70008=
46242 22051 99332 71174 46/// ///// 1//// 90456 22200 00185 11501
 20901 322// 41501 70007=
46223 22051 99335 71178 46/// ///// 1//// 90500 22200 00188 11401
 21001 318// 41401 70007=
46217 22051 99342 71194 46/// ///// 1//// 90512 22200 00177 11401
 21001 318// 41401 70005=
46237 22051 99378 71226 46/// ///// 1//// 90510 22200 00158 11704
 20803 325// 41702 70019=
46240 22051 99366 71219 46/// ///// 1//// 90512 22200 00155 11701
 20801 336// 41701 70007=
46248 22051 99461 71247 46/// ///// 1//// 90504 22200 00148 11507
 21004 328// 41506 70037=
46249 22051 99338 71197 46/// ///// 1//// 90510 22200 00187 11502
 21001 319// 41501 70009=
46232 22051 99325 71174 46/// ///// 1//// 90438 22200 00191 11402
 21001 319// 41401 70009=
46222 22051 99336 71183 46/// ///// 1//// 90504 22200 00194 11501
 21001 318// 41501 70007=
46231 22051 99327 71174 46/// ///// 1//// 90449 22200 00190 11402
 21001 320// 41401 70009=
46241 22051 99330 71173 46/// ///// 1//// 90440 22200 00178 11501
 20901 324// 41501 70005=
46138 22051 99524 71298 46/// ///// 1//// 90454 22200 00121 10805
 20804 319// 41303 70023=
ZCDG7 22054 99393 71245 41/93 /3329 10135 20135 40202 57009 74544
 8//// 22245 00130 20303 326// 40405 5//// 80135=
46207 22051 99509 71299 46/// /1905 10144 40103 52012 22200 00144
 11208 70042 333 91206=
WTDH 22054 99350 70752 43/// /1818 10269 20226 40205 5//// 7////
 8//// 222// 04281 2//// 3//// 4//// 5//// 6//// 8//// ICE /////=
44067 22051 99384 70770 46/// /1704 10220 40193 57003 90500=
46109 22051 99481 71234 46/// /1102 10144 40126 56004 90500 22200
 00100=
####018001308####
SNVD80 KWBC 220500 RRC
BBXX
45137 22051 99455 70810 46/// /2502 10160 39920 40131 52025 22200
 00157 10501 70007 333 91202=
45152 22051 99462 70797 46/// /2407 10174 39887 40120 52013 22200
 00173 10200 70002 333 91208=
45132 22051 99425 70812 46/// /2308 10200 39940 40145 52001 22200
 00189 10401 70007 333 91210=
45027 22051 99469 70919 46/// /3602 10064 20037 39954 40177 90450
 22200 00085 333 91203=
45028 22051 99468 70918 46/// /1107 10070 20048 39943 40166 90440
 22200 00091 333 91210=
45028 22051 99468 70918 46/// /2108 10071 20050 39943 40166 90450
 22200 00091 333 91210=
45027 22051 99469 70919 46/// /3302 10065 20036 39953 40177 90440
 22200 00084 333 91204=
45135 22051 99438 70769 46/// /1708 10197 30064 40153 57006 22200
 00184 10401 70007 333 91209=
45025 22051 99470 70884 46/// /2807 10082 20067 40120 90520 22200
 00162 10201 70003 333 91210=
45159 22051 99438 70790 46/// /2401 10180 30057 40146 52005 22200
 00174 10501 70003 333 91202=
45147 22051 99424 70827 46/// /3006 10189 39951 40157 52021 22200
 00188 10301 70004 333 91208=
45149 22051 99435 70821 46/// /2706 10181 39941 40151 52017 22200
 00183 10401 70006 333 91208=
45148 22051 99497 70945 46/// /0205 10068 39815 40210 52008 22200
 00157 11800 70002 333 91207=
####018003711####
SNVF01 KWBC 220500 RRC
BBXX
62442 22054 99490 70163 46/// /2412 1//// 2//// 40224 56006 22200
 00153=
62094 22054 99517 70067 46/// /2615 10140 20120 40188 52006 22200
 00142 10504 70018=
62029 22054 99487 70125 46/// /2713 10155 20120 40230 58002 22200
 00157=
ZCDU9 22053 99381 10167 41698 33110 10245 20164 40142 51008 7//00
 83100 22255 00260 20000 317// 40101 5//// 80195=
62095 22054 99531 70159 46/// /2416 10133 20116 40156 53002 22200
 00132 10909 70044=
62304 22054 99511 10018 46/98 /2624 10147 20121 40185 53002 22200
 00167 10502 70008 333 90710 91133=
62305 22054 99504 10000 46/98 /2722 10155 20120 40207 53002 22200
 00164 10602 70010 333 90710 91129=
AMOUK05 22054 99522 10034 46/// ///// 10151 20111 30124 40172
 52018 90450=
AMOUK11 22054 99533 70060 46/// ///// 10119 20081 30118 40163
 57007 90450=
AMOUK04 22054 99535 70030 46/// ///// 10133 20060 30116 40157
 54002 90450=
62140 22054 99573 10013 46/// /27// 10121 20075 40028 52009 22200=
62146 22054 99572 10021 47/97 /2522 10118 20076 40053 52008 700//
 22200 10607 70035=
62153 22054 99573 10020 47997 /2517 10119 20082 40033 53008 700//
 22200 10607 70033=
62104 22054 99574 10013 47697 /2625 10121 20080 40031 52013 700//
 22200=
62122 22054 99573 10016 47797 /2626 10120 20079 40045 52010 700//
 22200 10607 70033=
62116 22054 99576 10011 47598 /2629 10119 20067 40023 52012 700//
 22200 10606 70031=
62155 22054 99577 10007 47597 /2726 10119 20068 40036 52015 751//
 22200 10606 70032=
62143 22054 99577 10018 47597 /2922 10112 20079 40038 52018 700//
 22200 10607 70037=
62117 22054 99579 10000 47998 /2622 10118 20070 40025 52020 700//
 22200 10606 70029=
62118 22054 99577 10009 47597 /2624 10120 20068 40024 52017 700//
 22200 10606 70030=
62102 22054 99579 10018 46/// /2726 10123 20066 40018 52014 22200
 10607 70035=
62134 22054 99580 10014 47598 /2624 10116 20071 40022 52018 700//
 22200 10707 70033=
62114 22054 99583 10000 46/// /2724 10114 20077 40008 52021 22200=
62142 22054 99530 10021 46797 /2820 10136 40149 52013 22200 10403
 70016=
62129 22054 99584 10003 46/// /2722 10115 20073 40012 52013 22200=
ZQSD5 22054 99583 10007 46/// ///// 10117 20079 40012 52017 22200
 10809 70043=
62145 22054 99531 10028 47597 /2821 10140 20066 40160 52016 710//
 22200 10505 70023=
62113 22054 99584 10002 47598 /2623 10114 20073 40015 52014 700//
 22200=
62144 22054 99534 10017 47597 /2622 10130 20079 40157 51013 700//
 22200 10403 70016=
62121 22054 99535 10027 46/// ///// 22200=
62150 22054 99536 10007 47998 /2617 10124 20076 40154 52013 700//
 22200 10402 70010=
62149 22054 99537 10011 47597 /2620 10128 20080 40145 52013 700//
 22200 10403 70014=
62148 22054 99536 10015 46/// ///// 10128 40155 52012 22200=
62131 22054 99539 10012 46/// /27// 10125 20075 40136 52012 22200=
62127 22054 99540 10007 47997 ///// 10121 20065 40135 52012 700//
 22200 10402 70012=
62123 22054 99563 10022 47597 /2528 10119 20073 40063 52009 700//
 22200=
62165 22054 99540 10009 47597 /2710 10124 20070 40140 52014 700//
 22200 10403 70014=
62132 22054 99564 10020 46/// /2820 10118 20073 40068 52007 22200=
PJGO 22054 99571 10022 47997 /2519 10121 20085 40045 53008 700//
 22200=
62120 22054 99564 10021 47497 /2728 10115 20079 40058 52006 700//
 22200=
62154 22054 99564 10022 46/// /2524 10114 20076 40061 53007 22200=
64041 22054 99607 70026 47597 ///// 10102 20062 49948 52019 700//
 22200 10807 70035=
62164 22054 99572 10008 469// /2524 10121 20075 40041 52013 22200
 10606 70032=
62152 22054 99570 10018 47997 /2619 10120 20077 40055 53006 700//
 22200 14313 70067=
####018000168####
SNVF01 KWBC 220500 RRE
BBXX
VRDA4 22054 99310 70185 41497 40620 10230 2017/ 40210 54000 70122
 8219/ 22283 0//// 2//// 3//// 4//// 5//// 6//// 80190 ICE /////=
####018003721####
SNVF01 KWBC 220500 RRD
BBXX
62133 22054 99571 10009 46/// /2526 10120 20063 40040 52013 22200=
62119 22054 99570 10019 47497 /2831 10121 20073 40058 53010 700//
 22200 10707 70036=
MWYG6 22054 99603 70040 47998 /2625 10112 700// 22200=
63115 22054 99616 10013 47297 /2714 10090 20068 49915 53009 762//
 22200 10707 70034=
63117 22054 99613 10011 47/96 /2920 10090 20055 49922 53014 763//
 22200=
63107 22054 99611 10017 46/// /2816 10097 49919 53007 22200=
63104 22054 99612 10016 47498 /2722 10098 20073 49915 53003 700//
 22200=
63101 22054 99612 10009 46/// /3220 10099 20068 49922 53016 22200=
63103 22054 99612 10011 46/// ///// 22200=
63106 22054 99610 10017 46/// /2825 10095 49923 53008 22200=
63112 22054 99611 10010 46/98 /2824 10103 20063 49922 53016 22200
 10706 70032=
63108 22054 99608 10017 47698 /2822 10099 20049 49931 53016 700//
 22200 10000 70000=
63055 22054 99606 10016 467// /3025 10109 20071 49942 52022 22200=
62112 22054 99584 70002 47498 /2818 10113 20075 40011 52019 700//
 22200=
PJAI 22054 99581 70014 47998 /2718 10119 20069 40020 52022 700//
 22200=
62128 22054 99587 10014 47598 /2620 10112 20078 49994 52026 700//
 22200 10708 70039=
62111 22054 99580 70003 46/// /2826 10116 20073 40039 52018 22200
 10605 70027=
63057 22054 99592 10015 47598 /2727 10121 20069 49977 52024 700//
 22200 10707 70037=
63056 22054 99597 10016 47597 /2724 10109 20064 49951 52021 700//
 22200 10708 70041=
AMOUK14 22054 99535 70033 46/// ///// 10136 20069 30106 40143
 52004 90450=
AMOUK02 22054 99533 70062 46/// ///// 10118 20081 30126 40168
 52030 90450=
AMOUK06 22054 99533 70042 46/// ///// 10135 20073 30134 40164
 52006 90450=
AMOUK03 22054 99518 10027 46/// ///// 10152 20117 30137 40172
 52029 90450=
AMOUK09 22054 99538 70033 46/// ///// 10131 20076 30126 40152
 52004 90450=
AMOUK08 22054 99501 70061 46/// ///// 10148 20125 30209 40219
 54002 90450=
AMOUK01 22054 99554 10078 46/// ///// 10154 2//// 30067 40086
 54002 90450=
AMOUK13 22054 99519 10013 46/// ///// 10133 20109 30164 40179
 52007 90450=
AMOUK12 22054 99533 70047 46/// ///// 10127 20072 30128 40160
 52005 90450=
AMOUK16 22054 99522 70062 46/// ///// 10131 20109 30171 40178
 57005 90450=
62105 22054 99554 70122 46/// /2718 10124 20084 40114 53009 22200
 00130 10909 70043 333 90710 91125=
64045 22054 99591 70117 46/// /2721 10116 20081 40012 52017 22200
 00127 10708 70040 333 90710 91128=
62170 22054 99514 10020 46/97 /2825 10147 20119 40180 52008 22200
 00165 10502 70009 333 90710 91133=
ZCDN2 22054 99488 70242 41/98 82040 10140 20112 40166 57010 70200
 8//// 22224 00120 2//// 332// 40708 5//// 80125=
62163 22054 99475 70084 46/// /3208 10158 20115 40240 55000 22200
 00168 11007 70036=
62103 22054 99499 70029 46/98 /2918 10150 20119 40208 53005 22200
 00157 10702 70009 333 90710 91125=
ZCDN9 22053 99383 10021 41998 00912 10239 20085 40179 57006 70200
 80000 22214 00261 20501 308// 40401 5//// 80156=
62301 22054 99524 70047 46/// /2617 10136 20105 40176 53006 22200
 00157 10504 70021=
62081 22054 99510 70134 46/// ///// 10143 20122 40202 52002 22200
 00144 10909 70043=
62001 22054 99453 70050 46/// /0214 10168 20153 40234 55001 22200
 00189 10906 70029=
62303 22054 99516 70051 46/// /2719 10144 20122 40188 52008 22200
 00150 10605 70023=
64046 22054 99606 70049 46/// /2722 10109 20083 49956 53021 22200
 00112 10807 70036 333 90710 91131=
LF4B 22054 99606 10037 47/97 /2524 10103 49940 57002 781// 90510
 22200 00102 10707 70035=
C6OM7 22053 99365 70008 41497 60215 10226 20192 40182 57010 70311
 85740 22223 00210 20201 30606 40201 50100 80204=
